<?xml version="1.0" encoding="UTF-8"?>
<osm version="0.6" generator="JOSM">
  <node id="-177" visible="true" lat="44.17421623" lon="-72.64602137">
    <!-- conflict: "833 Vermont Route 12 North, Northfield, VT" No match in OSM, but a different address exists <5m away: "833 Vt Route 12 North, Northfield, VT" -->
    <tag k="addr:city" v="Northfield"/>
    <tag k="addr:housenumber" v="833"/>
    <tag k="addr:street" v="Vermont Route 12 North"/>
    <tag k="addr:state" v="VT"/>
    <tag k="ref:vcgi:esiteid" v="179973"/>
  </node>
  <node id="-185" visible="true" lat="44.17380203" lon="-72.64599534">
    <!-- conflict: "25 Moody Lane, Northfield, VT" Fuzzy match to "25 Moody Lane, Northfield Falls, VT" -->
    <tag k="addr:city" v="Northfield"/>
    <tag k="addr:housenumber" v="25"/>
    <tag k="addr:street" v="Moody Lane"/>
    <tag k="addr:state" v="VT"/>
    <tag k="ref:vcgi:esiteid" v="179981"/>
  </node>
  <node id="-192" visible="true" lat="44.17373294" lon="-72.6449969">
    <!-- conflict: "79 Moody Lane, Northfield, VT" Fuzzy match to "79 Moody Lane, Northfield Falls, VT" -->
    <tag k="addr:city" v="Northfield"/>
    <tag k="addr:housenumber" v="79"/>
    <tag k="addr:street" v="Moody Lane"/>
    <tag k="addr:state" v="VT"/>
    <tag k="ref:vcgi:esiteid" v="179988"/>
  </node>
  <node id="-194" visible="true" lat="44.17367149" lon="-72.64553933">
    <!-- conflict: "49 Moody Lane, Northfield, VT" No match in OSM, but a different address exists <5m away: "40 Moody Lane, Northfield Falls, VT" -->
    <tag k="addr:city" v="Northfield"/>
    <tag k="addr:housenumber" v="49"/>
    <tag k="addr:street" v="Moody Lane"/>
    <tag k="addr:state" v="VT"/>
    <tag k="ref:vcgi:esiteid" v="179990"/>
  </node>
  <node id="-195" visible="true" lat="44.1734971" lon="-72.64582859">
    <!-- conflict: "38 Moody Lane, Northfield, VT" Fuzzy match to "38 Moody Lane, Northfield Falls, VT" -->
    <tag k="addr:city" v="Northfield"/>
    <tag k="addr:housenumber" v="38"/>
    <tag k="addr:street" v="Moody Lane"/>
    <tag k="addr:state" v="VT"/>
    <tag k="ref:vcgi:esiteid" v="179991"/>
  </node>
  <node id="-197" visible="true" lat="44.17355441" lon="-72.64678717">
    <!-- conflict: "768 Vermont Route 12 North, Northfield, VT" Fuzzy match to "768 Vermont Route 12 North, Northfield Falls, VT" -->
    <tag k="addr:city" v="Northfield"/>
    <tag k="addr:housenumber" v="768"/>
    <tag k="addr:street" v="Vermont Route 12 North"/>
    <tag k="addr:state" v="VT"/>
    <tag k="ref:vcgi:esiteid" v="179993"/>
  </node>
  <node id="-200" visible="true" lat="44.1733818" lon="-72.64710235">
    <!-- conflict: "752 Vermont Route 12 North, Northfield, VT" Fuzzy match to "752 Vermont Route 12 North, Northfield Falls, VT" -->
    <tag k="addr:city" v="Northfield"/>
    <tag k="addr:housenumber" v="752"/>
    <tag k="addr:street" v="Vermont Route 12 North"/>
    <tag k="addr:state" v="VT"/>
    <tag k="ref:vcgi:esiteid" v="179996"/>
  </node>
  <node id="-203" visible="true" lat="44.17333559" lon="-72.64850967">
    <!-- conflict: "687 Vermont Route 12 North, Northfield, VT" No match in OSM, but a different address exists <5m away: "687 Vt Route 12 North, Northfield, VT" -->
    <tag k="addr:city" v="Northfield"/>
    <tag k="addr:housenumber" v="687"/>
    <tag k="addr:street" v="Vermont Route 12 North"/>
    <tag k="addr:state" v="VT"/>
    <tag k="ref:vcgi:esiteid" v="179999"/>
  </node>
  <node id="-205" visible="true" lat="44.17323858" lon="-72.64883063">
    <!-- conflict: "671 Vermont Route 12 North, Northfield, VT" No match in OSM, but a different address exists <5m away: "671 Vt Route 12 North, Northfield, VT" -->
    <tag k="addr:city" v="Northfield"/>
    <tag k="addr:housenumber" v="671"/>
    <tag k="addr:street" v="Vermont Route 12 North"/>
    <tag k="addr:state" v="VT"/>
    <tag k="ref:vcgi:esiteid" v="180001"/>
  </node>
  <node id="-207" visible="true" lat="44.17303332" lon="-72.64633015">
    <!-- conflict: "28 Moody Lane, Northfield, VT" Fuzzy match to "28 Moody Lane, Northfield Falls, VT" -->
    <tag k="addr:city" v="Northfield"/>
    <tag k="addr:housenumber" v="28"/>
    <tag k="addr:street" v="Moody Lane"/>
    <tag k="addr:state" v="VT"/>
    <tag k="ref:vcgi:esiteid" v="180003"/>
  </node>
  <node id="-209" visible="true" lat="44.17313003" lon="-72.64915466">
    <!-- conflict: "651 Vermont Route 12 North, Northfield, VT" No match in OSM, but a different address exists <5m away: "651 Vt Route 12 North, Northfield, VT" -->
    <tag k="addr:city" v="Northfield"/>
    <tag k="addr:housenumber" v="651"/>
    <tag k="addr:street" v="Vermont Route 12 North"/>
    <tag k="addr:state" v="VT"/>
    <tag k="ref:vcgi:esiteid" v="180005"/>
  </node>
  <node id="-210" visible="true" lat="44.17306954" lon="-72.64804791">
    <!-- conflict: "692 Vermont Route 12 North, Northfield, VT" No match in OSM, but a different address exists <5m away: "692 Kirkpatrick Lane, Northfield Falls, VT" -->
    <tag k="addr:city" v="Northfield"/>
    <tag k="addr:housenumber" v="692"/>
    <tag k="addr:street" v="Vermont Route 12 North"/>
    <tag k="addr:state" v="VT"/>
    <tag k="ref:vcgi:esiteid" v="180006"/>
  </node>
  <node id="-211" visible="true" lat="44.1730137" lon="-72.64758033">
    <!-- conflict: "716 Vermont Route 12 North, Northfield, VT" Fuzzy match to "716 Vermont Route 12 North, Northfield Falls, VT" -->
    <tag k="addr:city" v="Northfield"/>
    <tag k="addr:housenumber" v="716"/>
    <tag k="addr:street" v="Vermont Route 12 North"/>
    <tag k="addr:state" v="VT"/>
    <tag k="ref:vcgi:esiteid" v="180008"/>
  </node>
  <node id="-212" visible="true" lat="44.17293218" lon="-72.64831193">
    <!-- conflict: "670 Vermont Route 12 North, Northfield, VT" Fuzzy match to "670 Vermont Route 12 North, , " -->
    <tag k="addr:city" v="Northfield"/>
    <tag k="addr:housenumber" v="670"/>
    <tag k="addr:street" v="Vermont Route 12 North"/>
    <tag k="addr:state" v="VT"/>
    <tag k="ref:vcgi:esiteid" v="180009"/>
  </node>
  <node id="-214" visible="true" lat="44.17298911" lon="-72.645461">
    <!-- conflict: "106 Moody Lane, Northfield, VT" Fuzzy match to "106 Moody Lane, Northfield Falls, VT" -->
    <tag k="addr:city" v="Northfield"/>
    <tag k="addr:housenumber" v="106"/>
    <tag k="addr:street" v="Moody Lane"/>
    <tag k="addr:state" v="VT"/>
    <tag k="ref:vcgi:esiteid" v="180011"/>
  </node>
  <node id="-217" visible="true" lat="44.17297162" lon="-72.64949048">
    <!-- conflict: "629 Vermont Route 12 North, Northfield, VT" No match in OSM, but a different address exists <5m away: "629 Vt Route 12 North, Northfield, VT" -->
    <tag k="addr:city" v="Northfield"/>
    <tag k="addr:housenumber" v="629"/>
    <tag k="addr:street" v="Vermont Route 12 North"/>
    <tag k="addr:state" v="VT"/>
    <tag k="ref:vcgi:esiteid" v="180014"/>
  </node>
  <node id="-218" visible="true" lat="44.17283234" lon="-72.6486282">
    <!-- conflict: "644 Vermont Route 12 North, Northfield, VT" Fuzzy match to "644 Vermont Route 12 North, , " -->
    <tag k="addr:city" v="Northfield"/>
    <tag k="addr:housenumber" v="644"/>
    <tag k="addr:street" v="Vermont Route 12 North"/>
    <tag k="addr:state" v="VT"/>
    <tag k="ref:vcgi:esiteid" v="180015"/>
  </node>
  <node id="-221" visible="true" lat="44.17271153" lon="-72.64915337">
    <!-- conflict: "620 Vermont Route 12 North, Northfield, VT" Fuzzy match to "620 Vermont Route 12 North, , " -->
    <tag k="addr:city" v="Northfield"/>
    <tag k="addr:housenumber" v="620"/>
    <tag k="addr:street" v="Vermont Route 12 North"/>
    <tag k="addr:state" v="VT"/>
    <tag k="ref:vcgi:esiteid" v="180018"/>
  </node>
  <node id="-225" visible="true" lat="44.17250292" lon="-72.64954876">
    <!-- conflict: "608 Vermont Route 12 North, Northfield, VT" No match in OSM, but a different address exists <5m away: "620 Vermont Route 12 North, , " -->
    <tag k="addr:city" v="Northfield"/>
    <tag k="addr:housenumber" v="608"/>
    <tag k="addr:street" v="Vermont Route 12 North"/>
    <tag k="addr:state" v="VT"/>
    <tag k="ref:vcgi:esiteid" v="180022"/>
  </node>
  <node id="-228" visible="true" lat="44.17234954" lon="-72.65056986">
    <!-- conflict: "571 Vermont Route 12 North, Northfield, VT" No match in OSM, but a different address exists <5m away: "571 Vt Route 12 North, Northfield, VT" -->
    <tag k="addr:city" v="Northfield"/>
    <tag k="addr:housenumber" v="571"/>
    <tag k="addr:street" v="Vermont Route 12 North"/>
    <tag k="addr:state" v="VT"/>
    <tag k="ref:vcgi:esiteid" v="180025"/>
  </node>
  <node id="-232" visible="true" lat="44.17221342" lon="-72.6499971">
    <!-- conflict: "564 Vermont Route 12 North, Northfield, VT" Fuzzy match to "564 Vermont Route 12 North, , " -->
    <tag k="addr:city" v="Northfield"/>
    <tag k="addr:housenumber" v="564"/>
    <tag k="addr:street" v="Vermont Route 12 North"/>
    <tag k="addr:state" v="VT"/>
    <tag k="ref:vcgi:esiteid" v="180029"/>
  </node>
  <node id="-236" visible="true" lat="44.17191206" lon="-72.64943143">
    <!-- conflict: "51 Gould Road, Northfield, VT" Fuzzy match to "51 Gould Road, Northfield Falls, VT" -->
    <tag k="addr:city" v="Northfield"/>
    <tag k="addr:housenumber" v="51"/>
    <tag k="addr:street" v="Gould Road"/>
    <tag k="addr:state" v="VT"/>
    <tag k="ref:vcgi:esiteid" v="180033"/>
  </node>
  <node id="-237" visible="true" lat="44.17173137" lon="-72.65043808">
    <!-- conflict: "536 Vermont Route 12 North, Northfield, VT" Fuzzy match to "536 Vermont Route 12 North, , " -->
    <tag k="addr:city" v="Northfield"/>
    <tag k="addr:housenumber" v="536"/>
    <tag k="addr:street" v="Vermont Route 12 North"/>
    <tag k="addr:state" v="VT"/>
    <tag k="ref:vcgi:esiteid" v="180034"/>
  </node>
  <node id="-238" visible="true" lat="44.17172622" lon="-72.65093231">
    <!-- conflict: "523 Vermont Route 12 North, Northfield, VT" No match in OSM, but a different address exists <5m away: "523 Vt Route 12 North, Northfield, VT" -->
    <tag k="addr:city" v="Northfield"/>
    <tag k="addr:housenumber" v="523"/>
    <tag k="addr:street" v="Vermont Route 12 North"/>
    <tag k="addr:state" v="VT"/>
    <tag k="ref:vcgi:esiteid" v="180035"/>
  </node>
  <node id="-239" visible="true" lat="44.17171345" lon="-72.65008928">
    <!-- conflict: "32 Gould Road, Northfield, VT" Fuzzy match to "32 Gould Road, , " -->
    <tag k="addr:city" v="Northfield"/>
    <tag k="addr:housenumber" v="32"/>
    <tag k="addr:street" v="Gould Road"/>
    <tag k="addr:state" v="VT"/>
    <tag k="ref:vcgi:esiteid" v="180036"/>
  </node>
  <node id="-241" visible="true" lat="44.17152418" lon="-72.65058134">
    <!-- conflict: "514 Vermont Route 12 North, Northfield, VT" Fuzzy match to "514 Vermont Route 12 North, , " -->
    <tag k="addr:city" v="Northfield"/>
    <tag k="addr:housenumber" v="514"/>
    <tag k="addr:street" v="Vermont Route 12 North"/>
    <tag k="addr:state" v="VT"/>
    <tag k="ref:vcgi:esiteid" v="180038"/>
  </node>
  <node id="-242" visible="true" lat="44.1715856" lon="-72.64880257">
    <!-- conflict: "89 Gould Road, Northfield, VT" Fuzzy match to "89 Gould Road, , " -->
    <tag k="addr:city" v="Northfield"/>
    <tag k="addr:housenumber" v="89"/>
    <tag k="addr:street" v="Gould Road"/>
    <tag k="addr:state" v="VT"/>
    <tag k="ref:vcgi:esiteid" v="180039"/>
  </node>
  <node id="-243" visible="true" lat="44.17149786" lon="-72.64850503">
    <!-- conflict: "105 Gould Road, Northfield, VT" Fuzzy match to "105 Gould Road, , " -->
    <tag k="addr:city" v="Northfield"/>
    <tag k="addr:housenumber" v="105"/>
    <tag k="addr:street" v="Gould Road"/>
    <tag k="addr:state" v="VT"/>
    <tag k="ref:vcgi:esiteid" v="180040"/>
  </node>
  <node id="-245" visible="true" lat="44.1712978" lon="-72.64894184">
    <!-- conflict: "94 Gould Road, Northfield, VT" Fuzzy match to "94 Gould Road, , " -->
    <tag k="addr:city" v="Northfield"/>
    <tag k="addr:housenumber" v="94"/>
    <tag k="addr:street" v="Gould Road"/>
    <tag k="addr:state" v="VT"/>
    <tag k="ref:vcgi:esiteid" v="180043"/>
  </node>
  <node id="-248" visible="true" lat="44.17139925" lon="-72.64815153">
    <!-- conflict: "127 Gould Road, Northfield, VT" No match in OSM, but a different address exists <5m away: "123/127 Gould Road, , " -->
    <tag k="addr:city" v="Northfield"/>
    <tag k="addr:housenumber" v="127"/>
    <tag k="addr:street" v="Gould Road"/>
    <tag k="addr:state" v="VT"/>
    <tag k="ref:vcgi:esiteid" v="180046"/>
  </node>
  <node id="-249" visible="true" lat="44.17135126" lon="-72.64787122">
    <!-- conflict: "139 Gould Road, Northfield, VT" Fuzzy match to "139 Gould Road, , " -->
    <tag k="addr:city" v="Northfield"/>
    <tag k="addr:housenumber" v="139"/>
    <tag k="addr:street" v="Gould Road"/>
    <tag k="addr:state" v="VT"/>
    <tag k="ref:vcgi:esiteid" v="180047"/>
  </node>
  <node id="-256" visible="true" lat="44.17100524" lon="-72.64785766">
    <!-- conflict: "142 Gould Road, Northfield, VT" Fuzzy match to "142 Gould Road, , " -->
    <tag k="addr:city" v="Northfield"/>
    <tag k="addr:housenumber" v="142"/>
    <tag k="addr:street" v="Gould Road"/>
    <tag k="addr:state" v="VT"/>
    <tag k="ref:vcgi:esiteid" v="180055"/>
  </node>
  <node id="-257" visible="true" lat="44.17106748" lon="-72.65067983">
    <!-- conflict: "17 Davis Avenue, Northfield, VT" Fuzzy match to "17 Davis Avenue, , " -->
    <tag k="addr:city" v="Northfield"/>
    <tag k="addr:housenumber" v="17"/>
    <tag k="addr:street" v="Davis Avenue"/>
    <tag k="addr:state" v="VT"/>
    <tag k="ref:vcgi:esiteid" v="180056"/>
  </node>
  <node id="-260" visible="true" lat="44.17069773" lon="-72.65083576">
    <!-- conflict: "12 Davis Avenue, Northfield, VT" Fuzzy match to "12 Davis Avenue, Northfield Falls, VT" -->
    <tag k="addr:city" v="Northfield"/>
    <tag k="addr:housenumber" v="12"/>
    <tag k="addr:street" v="Davis Avenue"/>
    <tag k="addr:state" v="VT"/>
    <tag k="ref:vcgi:esiteid" v="180059"/>
  </node>
  <node id="-262" visible="true" lat="44.17075348" lon="-72.65033721">
    <!-- conflict: "41 Davis Avenue, Northfield, VT" Fuzzy match to "41 Davis Avenue, , " -->
    <tag k="addr:city" v="Northfield"/>
    <tag k="addr:housenumber" v="41"/>
    <tag k="addr:street" v="Davis Avenue"/>
    <tag k="addr:state" v="VT"/>
    <tag k="ref:vcgi:esiteid" v="180061"/>
  </node>
  <node id="-264" visible="true" lat="44.17066574" lon="-72.64907074">
    <!-- conflict: "35 Cardinal Lane, Northfield, VT" Fuzzy match to "35 Cardinal Lane, , " -->
    <tag k="addr:city" v="Northfield"/>
    <tag k="addr:housenumber" v="35"/>
    <tag k="addr:street" v="Cardinal Lane"/>
    <tag k="addr:state" v="VT"/>
    <tag k="ref:vcgi:esiteid" v="180063"/>
  </node>
  <node id="-265" visible="true" lat="44.17057418" lon="-72.64990997">
    <!-- conflict: "65 Davis Avenue, Northfield, VT" Fuzzy match to "65 Davis Avenue, , " -->
    <tag k="addr:city" v="Northfield"/>
    <tag k="addr:housenumber" v="65"/>
    <tag k="addr:street" v="Davis Avenue"/>
    <tag k="addr:state" v="VT"/>
    <tag k="ref:vcgi:esiteid" v="180064"/>
  </node>
  <node id="-268" visible="true" lat="44.17046574" lon="-72.64962584">
    <!-- conflict: "81 Davis Avenue, Northfield, VT" No match in OSM, but a different address exists <5m away: "91 Davis Avenue, , " -->
    <tag k="addr:city" v="Northfield"/>
    <tag k="addr:housenumber" v="81"/>
    <tag k="addr:street" v="Davis Avenue"/>
    <tag k="addr:state" v="VT"/>
    <tag k="ref:vcgi:esiteid" v="180067"/>
  </node>
  <node id="-273" visible="true" lat="44.17031315" lon="-72.64934356">
    <!-- conflict: "97 Davis Avenue, Northfield, VT" Fuzzy match to "97 Davis Avenue, , " -->
    <tag k="addr:city" v="Northfield"/>
    <tag k="addr:housenumber" v="97"/>
    <tag k="addr:street" v="Davis Avenue"/>
    <tag k="addr:state" v="VT"/>
    <tag k="ref:vcgi:esiteid" v="180072"/>
  </node>
  <node id="-308" visible="true" lat="44.16828155" lon="-72.65355682">
    <!-- conflict: "249 Vermont Route 12 North, Northfield, VT" No match in OSM, but a different address exists <5m away: "249 Vt Route 12 North, Northfield, VT" -->
    <tag k="addr:city" v="Northfield"/>
    <tag k="addr:housenumber" v="249"/>
    <tag k="addr:street" v="Vermont Route 12 North"/>
    <tag k="addr:state" v="VT"/>
    <tag k="ref:vcgi:esiteid" v="180109"/>
  </node>
  <node id="-342" visible="true" lat="44.16757248" lon="-72.65404498">
    <!-- conflict: "199 Vermont Route 12 North, Northfield, VT" No match in OSM, but a different address exists <5m away: "199 Vt Route 12 North, Northfield, VT" -->
    <tag k="addr:city" v="Northfield"/>
    <tag k="addr:housenumber" v="199"/>
    <tag k="addr:street" v="Vermont Route 12 North"/>
    <tag k="addr:state" v="VT"/>
    <tag k="ref:vcgi:esiteid" v="180144"/>
  </node>
  <node id="-420" visible="true" lat="44.16585276" lon="-72.65483896">
    <!-- conflict: "66 Vermont Route 12 North, Northfield, VT" No match in OSM, but a different address exists <5m away: "66 Vt Route 12 North, Northfield, VT" -->
    <tag k="addr:city" v="Northfield"/>
    <tag k="addr:housenumber" v="66"/>
    <tag k="addr:street" v="Vermont Route 12 North"/>
    <tag k="addr:state" v="VT"/>
    <tag k="ref:vcgi:esiteid" v="180226"/>
  </node>
  <node id="-549" visible="true" lat="44.15697849" lon="-72.66334965">
    <!-- conflict: "271 Garvey Hill Road, Northfield, VT" No match in OSM, but a different address exists <5m away: "349 Garvey Hill Road, Northfield, " -->
    <tag k="addr:city" v="Northfield"/>
    <tag k="addr:housenumber" v="271"/>
    <tag k="addr:street" v="Garvey Hill Road"/>
    <tag k="addr:state" v="VT"/>
    <tag k="ref:vcgi:esiteid" v="180364"/>
  </node>
  <node id="-608" visible="true" lat="44.15426246" lon="-72.66501196">
    <!-- conflict: "123 Vine Street Extension, Northfield, VT" Fuzzy match to "123 Vine Street, Northfield, VT" -->
    <tag k="addr:city" v="Northfield"/>
    <tag k="addr:housenumber" v="123"/>
    <tag k="addr:street" v="Vine Street Extension"/>
    <tag k="addr:state" v="VT"/>
    <tag k="ref:vcgi:esiteid" v="180427"/>
  </node>
  <node id="-620" visible="true" lat="44.15397458" lon="-72.65535357">
    <!-- conflict: "7 Belknap Street, Northfield, VT" Fuzzy match to "7 Belknap Avenue, Northfield, VT" -->
    <tag k="addr:city" v="Northfield"/>
    <tag k="addr:housenumber" v="7"/>
    <tag k="addr:street" v="Belknap Street"/>
    <tag k="addr:state" v="VT"/>
    <tag k="ref:vcgi:esiteid" v="180439"/>
  </node>
  <node id="-677" visible="true" lat="44.15309143" lon="-72.65528106">
    <!-- conflict: "102 Belknap Street, Northfield, VT" Fuzzy match to "102 Belknap Avenue, Northfield, VT" -->
    <tag k="addr:city" v="Northfield"/>
    <tag k="addr:housenumber" v="102"/>
    <tag k="addr:street" v="Belknap Street"/>
    <tag k="addr:state" v="VT"/>
    <tag k="ref:vcgi:esiteid" v="180501"/>
  </node>
  <node id="-1182" visible="true" lat="44.14159675" lon="-72.65985397">
    <!-- conflict: "458 Central Street, Northfield, VT" No match in OSM, but a different address exists <5m away: " , Northfield, " -->
    <tag k="addr:city" v="Northfield"/>
    <tag k="addr:housenumber" v="458"/>
    <tag k="addr:street" v="Central Street"/>
    <tag k="addr:state" v="VT"/>
    <tag k="ref:vcgi:esiteid" v="181080"/>
  </node>
  <node id="-1189" visible="true" lat="44.14090512" lon="-72.65824888">
    <!-- conflict: "24 Id White Avenue, Northfield, VT" Fuzzy match to "24 I.D. White Avenue, Northfield, VT" -->
    <tag k="addr:city" v="Northfield"/>
    <tag k="addr:housenumber" v="24"/>
    <tag k="addr:street" v="Id White Avenue"/>
    <tag k="addr:state" v="VT"/>
    <tag k="ref:vcgi:esiteid" v="181087"/>
  </node>
  <node id="-1327" visible="true" lat="44.13438011" lon="-72.65996729">
    <!-- conflict: "14 Vermont Route 12A, Northfield, VT" No match in OSM, but a different address exists <5m away: "14 Vt Route 12A, Northfield, VT" -->
    <tag k="addr:city" v="Northfield"/>
    <tag k="addr:housenumber" v="14"/>
    <tag k="addr:street" v="Vermont Route 12A"/>
    <tag k="addr:state" v="VT"/>
    <tag k="ref:vcgi:esiteid" v="181240"/>
  </node>
  <node id="-1336" visible="true" lat="44.13402931" lon="-72.66080606">
    <!-- conflict: "62 Vermont Route 12A, Northfield, VT" No match in OSM, but a different address exists <5m away: "62 Vt Route 12A, Northfield, VT" -->
    <tag k="addr:city" v="Northfield"/>
    <tag k="addr:housenumber" v="62"/>
    <tag k="addr:street" v="Vermont Route 12A"/>
    <tag k="addr:state" v="VT"/>
    <tag k="ref:vcgi:esiteid" v="181249"/>
  </node>
  <node id="-1366" visible="true" lat="44.13234646" lon="-72.65882265">
    <!-- conflict: "33 Vermont Route 12 South, Northfield, VT" No match in OSM, but a different address exists <5m away: "33 Vt Route 12 South, Northfield, VT" -->
    <tag k="addr:city" v="Northfield"/>
    <tag k="addr:housenumber" v="33"/>
    <tag k="addr:street" v="Vermont Route 12 South"/>
    <tag k="addr:state" v="VT"/>
    <tag k="ref:vcgi:esiteid" v="181280"/>
  </node>
  <node id="-1368" visible="true" lat="44.13223542" lon="-72.65939767">
    <!-- conflict: "34 Vermont Route 12 South, Northfield, VT" No match in OSM, but a different address exists <5m away: "34 Vt Route 12 South, Northfield, VT" -->
    <tag k="addr:city" v="Northfield"/>
    <tag k="addr:housenumber" v="34"/>
    <tag k="addr:street" v="Vermont Route 12 South"/>
    <tag k="addr:state" v="VT"/>
    <tag k="ref:vcgi:esiteid" v="181283"/>
  </node>
  <node id="-1371" visible="true" lat="44.13210678" lon="-72.65876007">
    <!-- conflict: "49 Vermont Route 12 South, Northfield, VT" No match in OSM, but a different address exists <5m away: "49 Vt Route 12 South, Northfield, VT" -->
    <tag k="addr:city" v="Northfield"/>
    <tag k="addr:housenumber" v="49"/>
    <tag k="addr:street" v="Vermont Route 12 South"/>
    <tag k="addr:state" v="VT"/>
    <tag k="ref:vcgi:esiteid" v="181286"/>
  </node>
  <node id="-1375" visible="true" lat="44.1318283" lon="-72.65863037">
    <!-- conflict: "69 Vermont Route 12 South, Northfield, VT" No match in OSM, but a different address exists <5m away: "69 Vt Route 12 South, Northfield, VT" -->
    <tag k="addr:city" v="Northfield"/>
    <tag k="addr:housenumber" v="69"/>
    <tag k="addr:street" v="Vermont Route 12 South"/>
    <tag k="addr:state" v="VT"/>
    <tag k="ref:vcgi:esiteid" v="181290"/>
  </node>
  <node id="-1377" visible="true" lat="44.13173114" lon="-72.65911492">
    <!-- conflict: "74 Vermont Route 12 South, Northfield, VT" No match in OSM, but a different address exists <5m away: "74 Vt Route 12 South, Northfield, VT" -->
    <tag k="addr:city" v="Northfield"/>
    <tag k="addr:housenumber" v="74"/>
    <tag k="addr:street" v="Vermont Route 12 South"/>
    <tag k="addr:state" v="VT"/>
    <tag k="ref:vcgi:esiteid" v="181292"/>
  </node>
  <node id="-1714" visible="true" lat="44.11320672" lon="-72.68293349">
    <!-- conflict: "2066 Vermont Route 12A, Northfield, VT" No match in OSM, but a different address exists <5m away: "2066 Vt Route 12A, Northfield, VT" -->
    <tag k="addr:city" v="Northfield"/>
    <tag k="addr:housenumber" v="2066"/>
    <tag k="addr:street" v="Vermont Route 12A"/>
    <tag k="addr:state" v="VT"/>
    <tag k="ref:vcgi:esiteid" v="181635"/>
  </node>
  <node id="-1781" visible="true" lat="44.10519876" lon="-72.64300441">
    <!-- conflict: "2183 Vermont Route 12 South, Northfield, VT" No match in OSM, but a different address exists <5m away: "2183 Vt Route 12 South, Northfield, VT" -->
    <tag k="addr:city" v="Northfield"/>
    <tag k="addr:housenumber" v="2183"/>
    <tag k="addr:street" v="Vermont Route 12 South"/>
    <tag k="addr:state" v="VT"/>
    <tag k="ref:vcgi:esiteid" v="181702"/>
  </node>
  <node id="-1786" visible="true" lat="44.10352311" lon="-72.64217309">
    <!-- conflict: "2187 Vermont Route 12 South, Northfield, VT" No match in OSM, but a different address exists <5m away: "2187 Vt Route 12 South, Northfield, VT" -->
    <tag k="addr:city" v="Northfield"/>
    <tag k="addr:housenumber" v="2187"/>
    <tag k="addr:street" v="Vermont Route 12 South"/>
    <tag k="addr:state" v="VT"/>
    <tag k="ref:vcgi:esiteid" v="181707"/>
  </node>
  <node id="-1802" visible="true" lat="44.09758011" lon="-72.64439278">
    <!-- conflict: "2679 Vermont Route 12 South, Northfield, VT" No match in OSM, but a different address exists <5m away: "2679 Vt Route 12 South, Northfield, VT" -->
    <tag k="addr:city" v="Northfield"/>
    <tag k="addr:housenumber" v="2679"/>
    <tag k="addr:street" v="Vermont Route 12 South"/>
    <tag k="addr:state" v="VT"/>
    <tag k="ref:vcgi:esiteid" v="181723"/>
  </node>
  <node id="-1805" visible="true" lat="44.09659194" lon="-72.64507293">
    <!-- conflict: "2765 Vermont Route 12 South, Northfield, VT" No match in OSM, but a different address exists <5m away: "2765 Vt Route 12 South, Northfield, VT" -->
    <tag k="addr:city" v="Northfield"/>
    <tag k="addr:housenumber" v="2765"/>
    <tag k="addr:street" v="Vermont Route 12 South"/>
    <tag k="addr:state" v="VT"/>
    <tag k="ref:vcgi:esiteid" v="181726"/>
  </node>
  <node id="-1919" visible="true" lat="44.12973163" lon="-72.71677629">
    <!-- conflict: "201 Buddys Lane, Northfield, VT" No match in OSM, but a different address exists <5m away: "133 Windy Meadow Road, Northfield, VT" -->
    <tag k="addr:city" v="Northfield"/>
    <tag k="addr:housenumber" v="201"/>
    <tag k="addr:street" v="Buddys Lane"/>
    <tag k="addr:state" v="VT"/>
    <tag k="ref:vcgi:esiteid" v="181847"/>
  </node>
  <node id="-1930" visible="true" lat="44.09963831" lon="-72.66605251">
    <!-- conflict: "1851 Winch Hill Road, Northfield, VT" No match in OSM, but a different address exists <5m away: "1850 Winch Hill Road, Northfield, VT" -->
    <tag k="addr:city" v="Northfield"/>
    <tag k="addr:housenumber" v="1851"/>
    <tag k="addr:street" v="Winch Hill Road"/>
    <tag k="addr:state" v="VT"/>
    <tag k="ref:vcgi:esiteid" v="181861"/>
  </node>
  <node id="-1953" visible="true" lat="44.09948477" lon="-72.66850683">
    <!-- conflict: "1924 Winch Hill Road, Northfield, VT" No match in OSM, but a different address exists <5m away: "1985 Winch Hill Road, Northfield, VT" -->
    <tag k="addr:city" v="Northfield"/>
    <tag k="addr:housenumber" v="1924"/>
    <tag k="addr:street" v="Winch Hill Road"/>
    <tag k="addr:state" v="VT"/>
    <tag k="ref:vcgi:esiteid" v="181885"/>
  </node>
  <node id="-1986" visible="true" lat="44.13364485" lon="-72.6617457">
    <!-- conflict: "76 Vermont Route 12A, Northfield, VT" No match in OSM, but a different address exists <5m away: "76 Vt Route 12A, Northfield, VT" -->
    <tag k="addr:city" v="Northfield"/>
    <tag k="addr:housenumber" v="76"/>
    <tag k="addr:street" v="Vermont Route 12A"/>
    <tag k="addr:state" v="VT"/>
    <tag k="ref:vcgi:esiteid" v="333183"/>
  </node>
  <node id="-1991" visible="true" lat="44.08945488" lon="-72.62825666">
    <!-- conflict: "379 Frost Road, Northfield, VT" Fuzzy match to "379 Frost Road, Williamstown, VT" -->
    <tag k="addr:city" v="Northfield"/>
    <tag k="addr:housenumber" v="379"/>
    <tag k="addr:street" v="Frost Road"/>
    <tag k="addr:state" v="VT"/>
    <tag k="ref:vcgi:esiteid" v="339321"/>
  </node>
  <node id="-1992" visible="true" lat="44.0901865" lon="-72.62781416">
    <!-- conflict: "329 Frost Road, Northfield, VT" Fuzzy match to "329 Frost Road, Williamstown, VT" -->
    <tag k="addr:city" v="Northfield"/>
    <tag k="addr:housenumber" v="329"/>
    <tag k="addr:street" v="Frost Road"/>
    <tag k="addr:state" v="VT"/>
    <tag k="ref:vcgi:esiteid" v="339322"/>
  </node>
</osm>
