<?xml version="1.0" encoding="UTF-8"?>
<osm version="0.6" generator="JOSM" upload="false">
  <node id="-100" visible="true" lat="44.15544879" lon="-72.64000628">
    <tag k="addr:housenumber" v="1020"/>
    <tag k="addr:street" v="Turkey Hill Road"/>
    <tag k="addr:state" v="VT"/>
    <tag k="ref:vcgi:esiteid" v="303"/>
  </node>
  <node id="-101" visible="true" lat="44.19823989" lon="-72.71611754">
    <tag k="addr:housenumber" v="96"/>
    <tag k="addr:street" v="Washbowl Road"/>
    <tag k="addr:state" v="VT"/>
    <tag k="ref:vcgi:esiteid" v="179896"/>
  </node>
  <node id="-102" visible="true" lat="44.19813874" lon="-72.71804949">
    <tag k="addr:housenumber" v="115"/>
    <tag k="addr:street" v="Washbowl Road"/>
    <tag k="addr:state" v="VT"/>
    <tag k="ref:vcgi:esiteid" v="179897"/>
  </node>
  <node id="-103" visible="true" lat="44.19742579" lon="-72.71652952">
    <tag k="addr:housenumber" v="94"/>
    <tag k="addr:street" v="Washbowl Road"/>
    <tag k="addr:state" v="VT"/>
    <tag k="ref:vcgi:esiteid" v="179898"/>
  </node>
  <node id="-104" visible="true" lat="44.19437999" lon="-72.71693532">
    <tag k="addr:housenumber" v="1010"/>
    <tag k="addr:street" v="Bean Road"/>
    <tag k="addr:state" v="VT"/>
    <tag k="ref:vcgi:esiteid" v="179899"/>
  </node>
  <node id="-105" visible="true" lat="44.19096109" lon="-72.71783086">
    <tag k="addr:housenumber" v="828"/>
    <tag k="addr:street" v="Bean Road"/>
    <tag k="addr:state" v="VT"/>
    <tag k="ref:vcgi:esiteid" v="179900"/>
  </node>
  <node id="-106" visible="true" lat="44.19048108" lon="-72.69639307">
    <tag k="addr:housenumber" v="828"/>
    <tag k="addr:street" v="McGibbons Road"/>
    <tag k="addr:state" v="VT"/>
    <tag k="ref:vcgi:esiteid" v="179901"/>
  </node>
  <node id="-107" visible="true" lat="44.18939681" lon="-72.72146552">
    <tag k="addr:housenumber" v="577"/>
    <tag k="addr:street" v="Bean Road"/>
    <tag k="addr:state" v="VT"/>
    <tag k="ref:vcgi:esiteid" v="179902"/>
  </node>
  <node id="-108" visible="true" lat="44.18904678" lon="-72.71836228">
    <tag k="addr:housenumber" v="624"/>
    <tag k="addr:street" v="Bean Road"/>
    <tag k="addr:state" v="VT"/>
    <tag k="ref:vcgi:esiteid" v="179903"/>
  </node>
  <node id="-109" visible="true" lat="44.18831323" lon="-72.72186143">
    <tag k="addr:housenumber" v="467"/>
    <tag k="addr:street" v="Bean Road"/>
    <tag k="addr:state" v="VT"/>
    <tag k="ref:vcgi:esiteid" v="179904"/>
  </node>
  <node id="-110" visible="true" lat="44.18755411" lon="-72.71975536">
    <tag k="addr:housenumber" v="505"/>
    <tag k="addr:street" v="Bean Road"/>
    <tag k="addr:state" v="VT"/>
    <tag k="ref:vcgi:esiteid" v="179905"/>
  </node>
  <node id="-111" visible="true" lat="44.18691794" lon="-72.72192114">
    <tag k="addr:housenumber" v="465"/>
    <tag k="addr:street" v="Bean Road"/>
    <tag k="addr:state" v="VT"/>
    <tag k="ref:vcgi:esiteid" v="179906"/>
  </node>
  <node id="-112" visible="true" lat="44.18507185" lon="-72.72215273">
    <tag k="addr:housenumber" v="63"/>
    <tag k="addr:street" v="Payette Drive"/>
    <tag k="addr:state" v="VT"/>
    <tag k="ref:vcgi:esiteid" v="179907"/>
  </node>
  <node id="-113" visible="true" lat="44.18378426" lon="-72.72276322">
    <tag k="addr:housenumber" v="197"/>
    <tag k="addr:street" v="Bean Road"/>
    <tag k="addr:state" v="VT"/>
    <tag k="ref:vcgi:esiteid" v="179908"/>
  </node>
  <node id="-114" visible="true" lat="44.18266915" lon="-72.73382026">
    <tag k="addr:housenumber" v="540"/>
    <tag k="addr:street" v="Bear Farm Road"/>
    <tag k="addr:state" v="VT"/>
    <tag k="ref:vcgi:esiteid" v="179909"/>
  </node>
  <node id="-115" visible="true" lat="44.18226197" lon="-72.72126572">
    <tag k="addr:housenumber" v="138"/>
    <tag k="addr:street" v="Bean Road"/>
    <tag k="addr:state" v="VT"/>
    <tag k="ref:vcgi:esiteid" v="179910"/>
  </node>
  <node id="-116" visible="true" lat="44.18183059" lon="-72.67128721">
    <tag k="addr:housenumber" v="1339"/>
    <tag k="addr:street" v="Aseltine Road"/>
    <tag k="addr:state" v="VT"/>
    <tag k="ref:vcgi:esiteid" v="179911"/>
  </node>
  <node id="-117" visible="true" lat="44.18125178" lon="-72.71949184">
    <tag k="addr:housenumber" v="3396"/>
    <tag k="addr:street" v="Union Brook Road"/>
    <tag k="addr:state" v="VT"/>
    <tag k="ref:vcgi:esiteid" v="179912"/>
  </node>
  <node id="-118" visible="true" lat="44.18102072" lon="-72.67163125">
    <tag k="addr:housenumber" v="1274"/>
    <tag k="addr:street" v="Aseltine Road"/>
    <tag k="addr:state" v="VT"/>
    <tag k="ref:vcgi:esiteid" v="179913"/>
  </node>
  <node id="-119" visible="true" lat="44.1809082" lon="-72.73056793">
    <tag k="addr:housenumber" v="328"/>
    <tag k="addr:street" v="Bear Farm Road"/>
    <tag k="addr:state" v="VT"/>
    <tag k="ref:vcgi:esiteid" v="179914"/>
  </node>
  <node id="-120" visible="true" lat="44.18068003" lon="-72.66943749">
    <tag k="addr:housenumber" v="1168"/>
    <tag k="addr:street" v="Cox Brook Road"/>
    <tag k="addr:state" v="VT"/>
    <tag k="ref:vcgi:esiteid" v="179915"/>
  </node>
  <node id="-121" visible="true" lat="44.18076891" lon="-72.67057597">
    <tag k="addr:housenumber" v="1193"/>
    <tag k="addr:street" v="Cox Brook Road"/>
    <tag k="addr:state" v="VT"/>
    <tag k="ref:vcgi:esiteid" v="179916"/>
  </node>
  <node id="-122" visible="true" lat="44.18139851" lon="-72.72356588">
    <tag k="addr:housenumber" v="9"/>
    <tag k="addr:street" v="Bean Road"/>
    <tag k="addr:state" v="VT"/>
    <tag k="ref:vcgi:esiteid" v="179917"/>
  </node>
  <node id="-123" visible="true" lat="44.18055519" lon="-72.72209423">
    <tag k="addr:housenumber" v="3488"/>
    <tag k="addr:street" v="Union Brook Road"/>
    <tag k="addr:state" v="VT"/>
    <tag k="ref:vcgi:esiteid" v="179918"/>
  </node>
  <node id="-124" visible="true" lat="44.18038836" lon="-72.72544527">
    <tag k="addr:housenumber" v="152"/>
    <tag k="addr:street" v="Hallstrom Road"/>
    <tag k="addr:state" v="VT"/>
    <tag k="ref:vcgi:esiteid" v="179919"/>
  </node>
  <node id="-125" visible="true" lat="44.18026329" lon="-72.67100652">
    <tag k="addr:housenumber" v="1195"/>
    <tag k="addr:street" v="Cox Brook Road"/>
    <tag k="addr:state" v="VT"/>
    <tag k="ref:vcgi:esiteid" v="179920"/>
  </node>
  <node id="-126" visible="true" lat="44.18015196" lon="-72.73138803">
    <tag k="addr:housenumber" v="327"/>
    <tag k="addr:street" v="Bear Farm Road"/>
    <tag k="addr:state" v="VT"/>
    <tag k="ref:vcgi:esiteid" v="179921"/>
  </node>
  <node id="-127" visible="true" lat="44.18028031" lon="-72.67017868">
    <tag k="addr:housenumber" v="1167"/>
    <tag k="addr:street" v="Cox Brook Road"/>
    <tag k="addr:state" v="VT"/>
    <tag k="ref:vcgi:esiteid" v="179922"/>
  </node>
  <node id="-128" visible="true" lat="44.18003845" lon="-72.7242813">
    <tag k="addr:housenumber" v="84"/>
    <tag k="addr:street" v="Hallstrom Road"/>
    <tag k="addr:state" v="VT"/>
    <tag k="ref:vcgi:esiteid" v="179923"/>
  </node>
  <node id="-129" visible="true" lat="44.1800117" lon="-72.66996462">
    <tag k="addr:housenumber" v="1145"/>
    <tag k="addr:street" v="Cox Brook Road"/>
    <tag k="addr:state" v="VT"/>
    <tag k="ref:vcgi:esiteid" v="179924"/>
  </node>
  <node id="-130" visible="true" lat="44.17971733" lon="-72.7225026">
    <tag k="addr:housenumber" v="11"/>
    <tag k="addr:street" v="Hallstrom Road"/>
    <tag k="addr:state" v="VT"/>
    <tag k="ref:vcgi:esiteid" v="179925"/>
  </node>
  <node id="-131" visible="true" lat="44.17973275" lon="-72.72478118">
    <tag k="addr:housenumber" v="121"/>
    <tag k="addr:street" v="Hallstrom Road"/>
    <tag k="addr:state" v="VT"/>
    <tag k="ref:vcgi:esiteid" v="179926"/>
  </node>
  <node id="-132" visible="true" lat="44.17952664" lon="-72.66802757">
    <tag k="addr:housenumber" v="1064"/>
    <tag k="addr:street" v="Cox Brook Road"/>
    <tag k="addr:state" v="VT"/>
    <tag k="ref:vcgi:esiteid" v="179927"/>
  </node>
  <node id="-133" visible="true" lat="44.17944823" lon="-72.72972265">
    <tag k="addr:housenumber" v="228"/>
    <tag k="addr:street" v="Bear Farm Road"/>
    <tag k="addr:state" v="VT"/>
    <tag k="ref:vcgi:esiteid" v="179928"/>
  </node>
  <node id="-134" visible="true" lat="44.17936438" lon="-72.72679455">
    <tag k="addr:housenumber" v="28"/>
    <tag k="addr:street" v="Bear Farm Road"/>
    <tag k="addr:state" v="VT"/>
    <tag k="ref:vcgi:esiteid" v="179929"/>
  </node>
  <node id="-135" visible="true" lat="44.17917339" lon="-72.66500902">
    <tag k="addr:housenumber" v="846"/>
    <tag k="addr:street" v="Cox Brook Road"/>
    <tag k="addr:state" v="VT"/>
    <tag k="ref:vcgi:esiteid" v="179930"/>
  </node>
  <node id="-136" visible="true" lat="44.17889573" lon="-72.71957797">
    <tag k="addr:housenumber" v="3315"/>
    <tag k="addr:street" v="Union Brook Road"/>
    <tag k="addr:state" v="VT"/>
    <tag k="ref:vcgi:esiteid" v="179931"/>
  </node>
  <node id="-137" visible="true" lat="44.1789554" lon="-72.66635531">
    <tag k="addr:housenumber" v="42"/>
    <tag k="addr:street" v="Jerry Road"/>
    <tag k="addr:state" v="VT"/>
    <tag k="ref:vcgi:esiteid" v="179932"/>
  </node>
  <node id="-138" visible="true" lat="44.17848497" lon="-72.66756092">
    <tag k="addr:housenumber" v="997"/>
    <tag k="addr:street" v="Cox Brook Road"/>
    <tag k="addr:state" v="VT"/>
    <tag k="ref:vcgi:esiteid" v="179933"/>
  </node>
  <node id="-139" visible="true" lat="44.17826231" lon="-72.66709818">
    <tag k="addr:housenumber" v="971"/>
    <tag k="addr:street" v="Cox Brook Road"/>
    <tag k="addr:state" v="VT"/>
    <tag k="ref:vcgi:esiteid" v="179934"/>
  </node>
  <node id="-140" visible="true" lat="44.17805143" lon="-72.71646484">
    <tag k="addr:housenumber" v="3160"/>
    <tag k="addr:street" v="Union Brook Road"/>
    <tag k="addr:state" v="VT"/>
    <tag k="ref:vcgi:esiteid" v="179935"/>
  </node>
  <node id="-141" visible="true" lat="44.17788341" lon="-72.66624312">
    <tag k="addr:housenumber" v="945"/>
    <tag k="addr:street" v="Cox Brook Road"/>
    <tag k="addr:state" v="VT"/>
    <tag k="ref:vcgi:esiteid" v="179936"/>
  </node>
  <node id="-142" visible="true" lat="44.17779048" lon="-72.66531771">
    <tag k="addr:housenumber" v="889"/>
    <tag k="addr:street" v="Cox Brook Road"/>
    <tag k="addr:state" v="VT"/>
    <tag k="ref:vcgi:esiteid" v="179937"/>
  </node>
  <node id="-143" visible="true" lat="44.17769502" lon="-72.67440541">
    <tag k="addr:housenumber" v="21"/>
    <tag k="addr:street" v="Dukette Road"/>
    <tag k="addr:state" v="VT"/>
    <tag k="ref:vcgi:esiteid" v="179938"/>
  </node>
  <node id="-144" visible="true" lat="44.17744493" lon="-72.6644461">
    <tag k="addr:housenumber" v="797"/>
    <tag k="addr:street" v="Cox Brook Road"/>
    <tag k="addr:state" v="VT"/>
    <tag k="ref:vcgi:esiteid" v="179939"/>
  </node>
  <node id="-145" visible="true" lat="44.17697495" lon="-72.72365164">
    <tag k="addr:housenumber" v="483"/>
    <tag k="addr:street" v="Hallstrom Road"/>
    <tag k="addr:state" v="VT"/>
    <tag k="ref:vcgi:esiteid" v="179940"/>
  </node>
  <node id="-146" visible="true" lat="44.17655727" lon="-72.72519145">
    <tag k="addr:housenumber" v="349"/>
    <tag k="addr:street" v="Hallstrom Road"/>
    <tag k="addr:state" v="VT"/>
    <tag k="ref:vcgi:esiteid" v="179941"/>
  </node>
  <node id="-147" visible="true" lat="44.17705362" lon="-72.66262366">
    <tag k="addr:housenumber" v="699"/>
    <tag k="addr:street" v="Cox Brook Road"/>
    <tag k="addr:state" v="VT"/>
    <tag k="ref:vcgi:esiteid" v="179942"/>
  </node>
  <node id="-148" visible="true" lat="44.17682266" lon="-72.67812107">
    <tag k="addr:housenumber" v="819"/>
    <tag k="addr:street" v="Aseltine Road"/>
    <tag k="addr:state" v="VT"/>
    <tag k="ref:vcgi:esiteid" v="179943"/>
  </node>
  <node id="-149" visible="true" lat="44.17665517" lon="-72.66100013">
    <tag k="addr:housenumber" v="62"/>
    <tag k="addr:street" v="Staples Road"/>
    <tag k="addr:state" v="VT"/>
    <tag k="ref:vcgi:esiteid" v="179944"/>
  </node>
  <node id="-150" visible="true" lat="44.17650369" lon="-72.66246775">
    <tag k="addr:housenumber" v="669"/>
    <tag k="addr:street" v="Cox Brook Road"/>
    <tag k="addr:state" v="VT"/>
    <tag k="ref:vcgi:esiteid" v="179945"/>
  </node>
  <node id="-151" visible="true" lat="44.17589666" lon="-72.72517953">
    <tag k="addr:housenumber" v="479"/>
    <tag k="addr:street" v="Hallstrom Road"/>
    <tag k="addr:state" v="VT"/>
    <tag k="ref:vcgi:esiteid" v="179947"/>
  </node>
  <node id="-152" visible="true" lat="44.1760538" lon="-72.66004036">
    <tag k="addr:housenumber" v="576"/>
    <tag k="addr:street" v="Cox Brook Road"/>
    <tag k="addr:state" v="VT"/>
    <tag k="ref:vcgi:esiteid" v="179948"/>
  </node>
  <node id="-153" visible="true" lat="44.17575022" lon="-72.65080431">
    <tag k="addr:housenumber" v="247"/>
    <tag k="addr:street" v="Chandler Road"/>
    <tag k="addr:state" v="VT"/>
    <tag k="ref:vcgi:esiteid" v="179949"/>
  </node>
  <node id="-154" visible="true" lat="44.17562868" lon="-72.64990789">
    <tag k="addr:housenumber" v="234"/>
    <tag k="addr:street" v="Chandler Road"/>
    <tag k="addr:state" v="VT"/>
    <tag k="ref:vcgi:esiteid" v="179950"/>
  </node>
  <node id="-155" visible="true" lat="44.17541089" lon="-72.71050792">
    <tag k="addr:housenumber" v="2826"/>
    <tag k="addr:street" v="Union Brook Road"/>
    <tag k="addr:state" v="VT"/>
    <tag k="ref:vcgi:esiteid" v="179951"/>
  </node>
  <node id="-156" visible="true" lat="44.17564608" lon="-72.65513185">
    <tag k="addr:housenumber" v="221"/>
    <tag k="addr:street" v="Pierson Hill"/>
    <tag k="addr:state" v="VT"/>
    <tag k="ref:vcgi:esiteid" v="179952"/>
  </node>
  <node id="-157" visible="true" lat="44.17515892" lon="-72.71234503">
    <tag k="addr:housenumber" v="2875"/>
    <tag k="addr:street" v="Union Brook Road"/>
    <tag k="addr:state" v="VT"/>
    <tag k="ref:vcgi:esiteid" v="179953"/>
  </node>
  <node id="-158" visible="true" lat="44.17534636" lon="-72.65438675">
    <tag k="addr:housenumber" v="198"/>
    <tag k="addr:street" v="Pierson Hill"/>
    <tag k="addr:state" v="VT"/>
    <tag k="ref:vcgi:esiteid" v="179954"/>
  </node>
  <node id="-159" visible="true" lat="44.17502739" lon="-72.67173301">
    <tag k="addr:housenumber" v="71"/>
    <tag k="addr:street" v="Dukette Road"/>
    <tag k="addr:state" v="VT"/>
    <tag k="ref:vcgi:esiteid" v="179955"/>
  </node>
  <node id="-160" visible="true" lat="44.17503979" lon="-72.65044608">
    <tag k="addr:housenumber" v="178"/>
    <tag k="addr:street" v="Chandler Road"/>
    <tag k="addr:state" v="VT"/>
    <tag k="ref:vcgi:esiteid" v="179956"/>
  </node>
  <node id="-162" visible="true" lat="44.17500348" lon="-72.65734708">
    <tag k="addr:housenumber" v="414"/>
    <tag k="addr:street" v="Cox Brook Road"/>
    <tag k="addr:state" v="VT"/>
    <tag k="ref:vcgi:esiteid" v="179958"/>
  </node>
  <node id="-163" visible="true" lat="44.1747113" lon="-72.71084456">
    <tag k="addr:housenumber" v="2799"/>
    <tag k="addr:street" v="Union Brook Road"/>
    <tag k="addr:state" v="VT"/>
    <tag k="ref:vcgi:esiteid" v="179959"/>
  </node>
  <node id="-165" visible="true" lat="44.17477783" lon="-72.72521594">
    <tag k="addr:housenumber" v="505"/>
    <tag k="addr:street" v="Hallstrom Road"/>
    <tag k="addr:state" v="VT"/>
    <tag k="ref:vcgi:esiteid" v="179961"/>
  </node>
  <node id="-167" visible="true" lat="44.17458323" lon="-72.69069636">
    <tag k="addr:housenumber" v="460"/>
    <tag k="addr:street" v="Colson Road"/>
    <tag k="addr:state" v="VT"/>
    <tag k="ref:vcgi:esiteid" v="179964"/>
  </node>
  <node id="-168" visible="true" lat="44.17462396" lon="-72.65146871">
    <tag k="addr:housenumber" v="137"/>
    <tag k="addr:street" v="Chandler Road"/>
    <tag k="addr:state" v="VT"/>
    <tag k="ref:vcgi:esiteid" v="179966"/>
  </node>
  <node id="-170" visible="true" lat="44.17432304" lon="-72.7080939">
    <tag k="addr:housenumber" v="2659"/>
    <tag k="addr:street" v="Union Brook Road"/>
    <tag k="addr:state" v="VT"/>
    <tag k="ref:vcgi:esiteid" v="179968"/>
  </node>
  <node id="-171" visible="true" lat="44.17417448" lon="-72.70756603">
    <tag k="addr:housenumber" v="2633"/>
    <tag k="addr:street" v="Union Brook Road"/>
    <tag k="addr:state" v="VT"/>
    <tag k="ref:vcgi:esiteid" v="179969"/>
  </node>
  <node id="-172" visible="true" lat="44.17435204" lon="-72.72681958">
    <tag k="addr:housenumber" v="586"/>
    <tag k="addr:street" v="Hallstrom Road"/>
    <tag k="addr:state" v="VT"/>
    <tag k="ref:vcgi:esiteid" v="179970"/>
  </node>
  <node id="-178" visible="true" lat="44.17413249" lon="-72.64301473">
    <tag k="addr:housenumber" v="178"/>
    <tag k="addr:street" v="Moody Lane"/>
    <tag k="addr:state" v="VT"/>
    <tag k="ref:vcgi:esiteid" v="179976"/>
  </node>
  <node id="-185" visible="true" lat="44.17375062" lon="-72.65415434">
    <tag k="addr:housenumber" v="88"/>
    <tag k="addr:street" v="Pierson Hill"/>
    <tag k="addr:state" v="VT"/>
    <tag k="ref:vcgi:esiteid" v="179983"/>
  </node>
  <node id="-196" visible="true" lat="44.17330596" lon="-72.69147465">
    <tag k="addr:housenumber" v="451"/>
    <tag k="addr:street" v="Colson Road"/>
    <tag k="addr:state" v="VT"/>
    <tag k="ref:vcgi:esiteid" v="179994"/>
  </node>
  <node id="-208" visible="true" lat="44.17307994" lon="-72.64804121">
    <tag k="addr:housenumber" v="692"/>
    <tag k="addr:street" v="Vermont Route 12 North"/>
    <tag k="addr:state" v="VT"/>
    <tag k="ref:vcgi:esiteid" v="180006"/>
  </node>
  <node id="-211" visible="true" lat="44.17303097" lon="-72.65362971">
    <tag k="addr:housenumber" v="176"/>
    <tag k="addr:street" v="Cox Brook Road"/>
    <tag k="addr:state" v="VT"/>
    <tag k="ref:vcgi:esiteid" v="180010"/>
  </node>
  <node id="-224" visible="true" lat="44.17238685" lon="-72.64524665">
    <tag k="addr:housenumber" v="108"/>
    <tag k="addr:street" v="Moody Lane"/>
    <tag k="addr:state" v="VT"/>
    <tag k="ref:vcgi:esiteid" v="180023"/>
  </node>
  <node id="-228" visible="true" lat="44.1722976" lon="-72.72755494">
    <tag k="addr:housenumber" v="718"/>
    <tag k="addr:street" v="Hallstrom Road"/>
    <tag k="addr:state" v="VT"/>
    <tag k="ref:vcgi:esiteid" v="180027"/>
  </node>
  <node id="-242" visible="true" lat="44.1712727" lon="-72.65050665">
    <tag k="addr:housenumber" v="508"/>
    <tag k="addr:street" v="Vermont Route 12 North"/>
    <tag k="addr:state" v="VT"/>
    <tag k="ref:vcgi:esiteid" v="180041"/>
  </node>
  <node id="-244" visible="true" lat="44.1714021" lon="-72.69749481">
    <tag k="addr:housenumber" v="2070"/>
    <tag k="addr:street" v="Union Brook Road"/>
    <tag k="addr:state" v="VT"/>
    <tag k="ref:vcgi:esiteid" v="180044"/>
  </node>
  <node id="-245" visible="true" lat="44.1715392" lon="-72.69809738">
    <tag k="addr:housenumber" v="2072"/>
    <tag k="addr:street" v="Union Brook Road"/>
    <tag k="addr:state" v="VT"/>
    <tag k="ref:vcgi:esiteid" v="180045"/>
  </node>
  <node id="-250" visible="true" lat="44.17107823" lon="-72.72972339">
    <tag k="addr:housenumber" v="840"/>
    <tag k="addr:street" v="Hallstrom Road"/>
    <tag k="addr:state" v="VT"/>
    <tag k="ref:vcgi:esiteid" v="180050"/>
  </node>
  <node id="-251" visible="true" lat="44.17101736" lon="-72.72854002">
    <tag k="addr:housenumber" v="838"/>
    <tag k="addr:street" v="Hallstrom Road"/>
    <tag k="addr:state" v="VT"/>
    <tag k="ref:vcgi:esiteid" v="180053"/>
  </node>
  <node id="-255" visible="true" lat="44.17086208" lon="-72.69559111">
    <tag k="addr:housenumber" v="1996"/>
    <tag k="addr:street" v="Union Brook Road"/>
    <tag k="addr:state" v="VT"/>
    <tag k="ref:vcgi:esiteid" v="180057"/>
  </node>
  <node id="-272" visible="true" lat="44.17001601" lon="-72.72889712">
    <tag k="addr:housenumber" v="886"/>
    <tag k="addr:street" v="Hallstrom Road"/>
    <tag k="addr:state" v="VT"/>
    <tag k="ref:vcgi:esiteid" v="180075"/>
  </node>
  <node id="-273" visible="true" lat="44.16991846" lon="-72.68985037">
    <tag k="addr:housenumber" v="93"/>
    <tag k="addr:street" v="Colson Road"/>
    <tag k="addr:state" v="VT"/>
    <tag k="ref:vcgi:esiteid" v="180076"/>
  </node>
  <node id="-278" visible="true" lat="44.16969597" lon="-72.72894873">
    <tag k="addr:housenumber" v="904"/>
    <tag k="addr:street" v="Hallstrom Road"/>
    <tag k="addr:state" v="VT"/>
    <tag k="ref:vcgi:esiteid" v="180081"/>
  </node>
  <node id="-281" visible="true" lat="44.16935887" lon="-72.69546284">
    <tag k="addr:housenumber" v="1914"/>
    <tag k="addr:street" v="Union Brook Road"/>
    <tag k="addr:state" v="VT"/>
    <tag k="ref:vcgi:esiteid" v="180084"/>
  </node>
  <node id="-283" visible="true" lat="44.16930124" lon="-72.69005877">
    <tag k="addr:housenumber" v="52"/>
    <tag k="addr:street" v="Hutch Road"/>
    <tag k="addr:state" v="VT"/>
    <tag k="ref:vcgi:esiteid" v="180086"/>
  </node>
  <node id="-292" visible="true" lat="44.16846656" lon="-72.73011957">
    <tag k="addr:housenumber" v="1012"/>
    <tag k="addr:street" v="Hallstrom Road"/>
    <tag k="addr:state" v="VT"/>
    <tag k="ref:vcgi:esiteid" v="180095"/>
  </node>
  <node id="-294" visible="true" lat="44.16877537" lon="-72.69023422">
    <tag k="addr:housenumber" v="1602"/>
    <tag k="addr:street" v="Union Brook Road"/>
    <tag k="addr:state" v="VT"/>
    <tag k="ref:vcgi:esiteid" v="180098"/>
  </node>
  <node id="-297" visible="true" lat="44.16858377" lon="-72.65394343">
    <tag k="addr:housenumber" v="34"/>
    <tag k="addr:street" v="Slaughterhouse Road"/>
    <tag k="addr:state" v="VT"/>
    <tag k="ref:vcgi:esiteid" v="180101"/>
  </node>
  <node id="-299" visible="true" lat="44.16855661" lon="-72.65362325">
    <tag k="addr:housenumber" v="22"/>
    <tag k="addr:street" v="Slaughterhouse Road"/>
    <tag k="addr:state" v="VT"/>
    <tag k="ref:vcgi:esiteid" v="180103"/>
  </node>
  <node id="-300" visible="true" lat="44.16848318" lon="-72.68750424">
    <tag k="addr:housenumber" v="1482"/>
    <tag k="addr:street" v="Union Brook Road"/>
    <tag k="addr:state" v="VT"/>
    <tag k="ref:vcgi:esiteid" v="180104"/>
  </node>
  <node id="-302" visible="true" lat="44.16823907" lon="-72.69128649">
    <tag k="addr:housenumber" v="1652"/>
    <tag k="addr:street" v="Union Brook Road"/>
    <tag k="addr:state" v="VT"/>
    <tag k="ref:vcgi:esiteid" v="180107"/>
  </node>
  <node id="-304" visible="true" lat="44.16827476" lon="-72.65357985">
    <tag k="addr:housenumber" v="249"/>
    <tag k="addr:street" v="Vermont Route 12 North"/>
    <tag k="addr:state" v="VT"/>
    <tag k="ref:vcgi:esiteid" v="180109"/>
  </node>
  <node id="-305" visible="true" lat="44.16822846" lon="-72.6894289">
    <tag k="addr:housenumber" v="1564"/>
    <tag k="addr:street" v="Union Brook Road"/>
    <tag k="addr:state" v="VT"/>
    <tag k="ref:vcgi:esiteid" v="180110"/>
  </node>
  <node id="-306" visible="true" lat="44.16808501" lon="-72.69046336">
    <tag k="addr:housenumber" v="1600"/>
    <tag k="addr:street" v="Union Brook Road"/>
    <tag k="addr:state" v="VT"/>
    <tag k="ref:vcgi:esiteid" v="180111"/>
  </node>
  <node id="-315" visible="true" lat="44.16794968" lon="-72.65201568">
    <tag k="addr:housenumber" v="72"/>
    <tag k="addr:street" v="Falls Mobile Homes"/>
    <tag k="addr:state" v="VT"/>
    <tag k="ref:vcgi:esiteid" v="180121"/>
  </node>
  <node id="-317" visible="true" lat="44.16801724" lon="-72.69203887">
    <tag k="addr:housenumber" v="1706"/>
    <tag k="addr:street" v="Union Brook Road"/>
    <tag k="addr:state" v="VT"/>
    <tag k="ref:vcgi:esiteid" v="180123"/>
  </node>
  <node id="-319" visible="true" lat="44.16797279" lon="-72.65766412">
    <tag k="addr:housenumber" v="171"/>
    <tag k="addr:street" v="Slaughterhouse Road"/>
    <tag k="addr:state" v="VT"/>
    <tag k="ref:vcgi:esiteid" v="180125"/>
  </node>
  <node id="-326" visible="true" lat="44.16783314" lon="-72.68604693">
    <tag k="addr:housenumber" v="1386"/>
    <tag k="addr:street" v="Union Brook Road"/>
    <tag k="addr:state" v="VT"/>
    <tag k="ref:vcgi:esiteid" v="180132"/>
  </node>
  <node id="-327" visible="true" lat="44.1677475" lon="-72.65218353">
    <tag k="addr:housenumber" v="20"/>
    <tag k="addr:street" v="First Street"/>
    <tag k="addr:state" v="VT"/>
    <tag k="ref:vcgi:esiteid" v="180133"/>
  </node>
  <node id="-328" visible="true" lat="44.16754141" lon="-72.72801496">
    <tag k="addr:housenumber" v="1027"/>
    <tag k="addr:street" v="Hallstrom Road"/>
    <tag k="addr:state" v="VT"/>
    <tag k="ref:vcgi:esiteid" v="180134"/>
  </node>
  <node id="-329" visible="true" lat="44.16748356" lon="-72.68886716">
    <tag k="addr:housenumber" v="1565"/>
    <tag k="addr:street" v="Union Brook Road"/>
    <tag k="addr:state" v="VT"/>
    <tag k="ref:vcgi:esiteid" v="180135"/>
  </node>
  <node id="-334" visible="true" lat="44.16746551" lon="-72.68651593">
    <tag k="addr:housenumber" v="1411"/>
    <tag k="addr:street" v="Union Brook Road"/>
    <tag k="addr:state" v="VT"/>
    <tag k="ref:vcgi:esiteid" v="180140"/>
  </node>
  <node id="-337" visible="true" lat="44.1675471" lon="-72.65407789">
    <tag k="addr:housenumber" v="199"/>
    <tag k="addr:street" v="Vermont Route 12 North"/>
    <tag k="addr:state" v="VT"/>
    <tag k="ref:vcgi:esiteid" v="180144"/>
  </node>
  <node id="-339" visible="true" lat="44.16740646" lon="-72.69060645">
    <tag k="addr:housenumber" v="1643"/>
    <tag k="addr:street" v="Union Brook Road"/>
    <tag k="addr:state" v="VT"/>
    <tag k="ref:vcgi:esiteid" v="180147"/>
  </node>
  <node id="-340" visible="true" lat="44.16755226" lon="-72.72932673">
    <tag k="addr:housenumber" v="1074"/>
    <tag k="addr:street" v="Hallstrom Road"/>
    <tag k="addr:state" v="VT"/>
    <tag k="ref:vcgi:esiteid" v="180149"/>
  </node>
  <node id="-344" visible="true" lat="44.16760308" lon="-72.68540463">
    <tag k="addr:housenumber" v="1358"/>
    <tag k="addr:street" v="Union Brook Road"/>
    <tag k="addr:state" v="VT"/>
    <tag k="ref:vcgi:esiteid" v="180153"/>
  </node>
  <node id="-346" visible="true" lat="44.1675019" lon="-72.65160951">
    <tag k="addr:housenumber" v="121"/>
    <tag k="addr:street" v="Falls Mobile Homes"/>
    <tag k="addr:state" v="VT"/>
    <tag k="ref:vcgi:esiteid" v="180155"/>
  </node>
  <node id="-347" visible="true" lat="44.16733419" lon="-72.73049256">
    <tag k="addr:housenumber" v="1080"/>
    <tag k="addr:street" v="Hallstrom Road"/>
    <tag k="addr:state" v="VT"/>
    <tag k="ref:vcgi:esiteid" v="180156"/>
  </node>
  <node id="-358" visible="true" lat="44.16724721" lon="-72.65224337">
    <tag k="addr:housenumber" v="8"/>
    <tag k="addr:street" v="Second Street"/>
    <tag k="addr:state" v="VT"/>
    <tag k="ref:vcgi:esiteid" v="180167"/>
  </node>
  <node id="-370" visible="true" lat="44.16674013" lon="-72.68555597">
    <tag k="addr:housenumber" v="1339"/>
    <tag k="addr:street" v="Union Brook Road"/>
    <tag k="addr:state" v="VT"/>
    <tag k="ref:vcgi:esiteid" v="180179"/>
  </node>
  <node id="-371" visible="true" lat="44.16667371" lon="-72.68455464">
    <tag k="addr:housenumber" v="1295"/>
    <tag k="addr:street" v="Union Brook Road"/>
    <tag k="addr:state" v="VT"/>
    <tag k="ref:vcgi:esiteid" v="180180"/>
  </node>
  <node id="-389" visible="true" lat="44.16623793" lon="-72.73008777">
    <tag k="addr:housenumber" v="1160"/>
    <tag k="addr:street" v="Hallstrom Road"/>
    <tag k="addr:state" v="VT"/>
    <tag k="ref:vcgi:esiteid" v="180202"/>
  </node>
  <node id="-394" visible="true" lat="44.16614442" lon="-72.68345878">
    <tag k="addr:housenumber" v="1197"/>
    <tag k="addr:street" v="Union Brook Road"/>
    <tag k="addr:state" v="VT"/>
    <tag k="ref:vcgi:esiteid" v="180207"/>
  </node>
  <node id="-402" visible="true" lat="44.16598889" lon="-72.68315364">
    <tag k="addr:housenumber" v="1195"/>
    <tag k="addr:street" v="Union Brook Road"/>
    <tag k="addr:state" v="VT"/>
    <tag k="ref:vcgi:esiteid" v="180217"/>
  </node>
  <node id="-410" visible="true" lat="44.16593987" lon="-72.64630539">
    <tag k="addr:housenumber" v="429"/>
    <tag k="addr:street" v="Davis Avenue"/>
    <tag k="addr:state" v="VT"/>
    <tag k="ref:vcgi:esiteid" v="180225"/>
  </node>
  <node id="-414" visible="true" lat="44.1655179" lon="-72.72968526">
    <tag k="addr:housenumber" v="1200"/>
    <tag k="addr:street" v="Hallstrom Road"/>
    <tag k="addr:state" v="VT"/>
    <tag k="ref:vcgi:esiteid" v="180229"/>
  </node>
  <node id="-416" visible="true" lat="44.16521679" lon="-72.68154839">
    <tag k="addr:housenumber" v="1124"/>
    <tag k="addr:street" v="Union Brook Road"/>
    <tag k="addr:state" v="VT"/>
    <tag k="ref:vcgi:esiteid" v="180231"/>
  </node>
  <node id="-417" visible="true" lat="44.16510851" lon="-72.68259426">
    <tag k="addr:housenumber" v="1141"/>
    <tag k="addr:street" v="Union Brook Road"/>
    <tag k="addr:state" v="VT"/>
    <tag k="ref:vcgi:esiteid" v="180232"/>
  </node>
  <node id="-419" visible="true" lat="44.16435613" lon="-72.75047378">
    <tag k="addr:housenumber" v="955"/>
    <tag k="addr:street" v="Wheeler Road"/>
    <tag k="addr:state" v="VT"/>
    <tag k="ref:vcgi:esiteid" v="180234"/>
  </node>
  <node id="-423" visible="true" lat="44.16384833" lon="-72.68085226">
    <tag k="addr:housenumber" v="1016"/>
    <tag k="addr:street" v="Union Brook Road"/>
    <tag k="addr:state" v="VT"/>
    <tag k="ref:vcgi:esiteid" v="180239"/>
  </node>
  <node id="-424" visible="true" lat="44.16389727" lon="-72.68153989">
    <tag k="addr:housenumber" v="32"/>
    <tag k="addr:street" v="West Hill Road"/>
    <tag k="addr:state" v="VT"/>
    <tag k="ref:vcgi:esiteid" v="180240"/>
  </node>
  <node id="-431" visible="true" lat="44.16296108" lon="-72.72979054">
    <tag k="addr:housenumber" v="1378"/>
    <tag k="addr:street" v="Hallstrom Road"/>
    <tag k="addr:state" v="VT"/>
    <tag k="ref:vcgi:esiteid" v="180248"/>
  </node>
  <node id="-448" visible="true" lat="44.16204538" lon="-72.72792505">
    <tag k="addr:housenumber" v="1443"/>
    <tag k="addr:street" v="Hallstrom Road"/>
    <tag k="addr:state" v="VT"/>
    <tag k="ref:vcgi:esiteid" v="180267"/>
  </node>
  <node id="-454" visible="true" lat="44.1615268" lon="-72.74411518">
    <tag k="addr:housenumber" v="888"/>
    <tag k="addr:street" v="Wheeler Road"/>
    <tag k="addr:state" v="VT"/>
    <tag k="ref:vcgi:esiteid" v="180274"/>
  </node>
  <node id="-461" visible="true" lat="44.16127879" lon="-72.73048224">
    <tag k="addr:housenumber" v="158"/>
    <tag k="addr:street" v="Woods Road"/>
    <tag k="addr:state" v="VT"/>
    <tag k="ref:vcgi:esiteid" v="180281"/>
  </node>
  <node id="-468" visible="true" lat="44.16073805" lon="-72.72911955">
    <tag k="addr:housenumber" v="83"/>
    <tag k="addr:street" v="Woods Road"/>
    <tag k="addr:state" v="VT"/>
    <tag k="ref:vcgi:esiteid" v="180288"/>
  </node>
  <node id="-483" visible="true" lat="44.1598543" lon="-72.6203488">
    <tag k="addr:housenumber" v="2372"/>
    <tag k="addr:street" v="Turkey Hill Road"/>
    <tag k="addr:state" v="VT"/>
    <tag k="ref:vcgi:esiteid" v="180303"/>
  </node>
  <node id="-485" visible="true" lat="44.15952948" lon="-72.73111097">
    <tag k="addr:housenumber" v="165"/>
    <tag k="addr:street" v="Woods Road"/>
    <tag k="addr:state" v="VT"/>
    <tag k="ref:vcgi:esiteid" v="180305"/>
  </node>
  <node id="-490" visible="true" lat="44.15928413" lon="-72.65002074">
    <tag k="addr:housenumber" v="364"/>
    <tag k="addr:street" v="Whetstone Drive"/>
    <tag k="addr:state" v="VT"/>
    <tag k="ref:vcgi:esiteid" v="180312"/>
  </node>
  <node id="-497" visible="true" lat="44.15907803" lon="-72.74121391">
    <tag k="addr:housenumber" v="742"/>
    <tag k="addr:street" v="Wheeler Road"/>
    <tag k="addr:state" v="VT"/>
    <tag k="ref:vcgi:esiteid" v="180319"/>
  </node>
  <node id="-502" visible="true" lat="44.15910814" lon="-72.59823473">
    <tag k="addr:housenumber" v="792"/>
    <tag k="addr:street" v="Onion River Road"/>
    <tag k="addr:state" v="VT"/>
    <tag k="ref:vcgi:esiteid" v="180326"/>
  </node>
  <node id="-507" visible="true" lat="44.15854263" lon="-72.72795105">
    <tag k="addr:housenumber" v="1722"/>
    <tag k="addr:street" v="Hallstrom Road"/>
    <tag k="addr:state" v="VT"/>
    <tag k="ref:vcgi:esiteid" v="180331"/>
  </node>
  <node id="-510" visible="true" lat="44.15838473" lon="-72.67577039">
    <tag k="addr:housenumber" v="562"/>
    <tag k="addr:street" v="Union Brook Road"/>
    <tag k="addr:state" v="VT"/>
    <tag k="ref:vcgi:esiteid" v="180335"/>
  </node>
  <node id="-512" visible="true" lat="44.15833949" lon="-72.59943751">
    <tag k="addr:housenumber" v="64"/>
    <tag k="addr:street" v="Bellemore Road"/>
    <tag k="addr:state" v="VT"/>
    <tag k="ref:vcgi:esiteid" v="180337"/>
  </node>
  <node id="-534" visible="true" lat="44.15746907" lon="-72.73759889">
    <tag k="addr:housenumber" v="510"/>
    <tag k="addr:street" v="Wheeler Road"/>
    <tag k="addr:state" v="VT"/>
    <tag k="ref:vcgi:esiteid" v="180360"/>
  </node>
  <node id="-545" visible="true" lat="44.15584806" lon="-72.7316956">
    <tag k="addr:housenumber" v="1832"/>
    <tag k="addr:street" v="Hallstrom Road"/>
    <tag k="addr:state" v="VT"/>
    <tag k="ref:vcgi:esiteid" v="180371"/>
  </node>
  <node id="-547" visible="true" lat="44.15674448" lon="-72.6007511">
    <tag k="addr:housenumber" v="581"/>
    <tag k="addr:street" v="Onion River Road"/>
    <tag k="addr:state" v="VT"/>
    <tag k="ref:vcgi:esiteid" v="180373"/>
  </node>
  <node id="-559" visible="true" lat="44.15571728" lon="-72.67987195">
    <tag k="addr:housenumber" v="635"/>
    <tag k="addr:street" v="Hockman Hill Road"/>
    <tag k="addr:state" v="VT"/>
    <tag k="ref:vcgi:esiteid" v="180386"/>
  </node>
  <node id="-570" visible="true" lat="44.15527063" lon="-72.72631383">
    <tag k="addr:housenumber" v="1833"/>
    <tag k="addr:street" v="Hallstrom Road"/>
    <tag k="addr:state" v="VT"/>
    <tag k="ref:vcgi:esiteid" v="180397"/>
  </node>
  <node id="-601" visible="true" lat="44.15440236" lon="-72.59918743">
    <tag k="addr:housenumber" v="472"/>
    <tag k="addr:street" v="Onion River Road"/>
    <tag k="addr:state" v="VT"/>
    <tag k="ref:vcgi:esiteid" v="180431"/>
  </node>
  <node id="-604" visible="true" lat="44.1541343" lon="-72.73476125">
    <tag k="addr:housenumber" v="259"/>
    <tag k="addr:street" v="Wheeler Road"/>
    <tag k="addr:state" v="VT"/>
    <tag k="ref:vcgi:esiteid" v="180434"/>
  </node>
  <node id="-609" visible="true" lat="44.15386338" lon="-72.65528338">
    <tag k="addr:housenumber" v="7"/>
    <tag k="addr:street" v="Belknap Street"/>
    <tag k="addr:state" v="VT"/>
    <tag k="ref:vcgi:esiteid" v="180439"/>
  </node>
  <node id="-626" visible="true" lat="44.15356161" lon="-72.72964707">
    <tag k="addr:housenumber" v="2042"/>
    <tag k="addr:street" v="Hallstrom Road"/>
    <tag k="addr:state" v="VT"/>
    <tag k="ref:vcgi:esiteid" v="180458"/>
  </node>
  <node id="-632" visible="true" lat="44.15353348" lon="-72.7035893">
    <tag k="addr:housenumber" v="189"/>
    <tag k="addr:street" v="Old Road"/>
    <tag k="addr:state" v="VT"/>
    <tag k="ref:vcgi:esiteid" v="180465"/>
  </node>
  <node id="-640" visible="true" lat="44.15349018" lon="-72.65155998">
    <tag k="addr:housenumber" v="365"/>
    <tag k="addr:street" v="King Street"/>
    <tag k="addr:state" v="VT"/>
    <tag k="ref:vcgi:esiteid" v="180475"/>
  </node>
  <node id="-647" visible="true" lat="44.15311905" lon="-72.73332721">
    <tag k="addr:housenumber" v="163"/>
    <tag k="addr:street" v="Wheeler Road"/>
    <tag k="addr:state" v="VT"/>
    <tag k="ref:vcgi:esiteid" v="180483"/>
  </node>
  <node id="-666" visible="true" lat="44.15316855" lon="-72.65217545">
    <tag k="addr:housenumber" v="341"/>
    <tag k="addr:street" v="King Street"/>
    <tag k="addr:state" v="VT"/>
    <tag k="ref:vcgi:esiteid" v="180502"/>
  </node>
  <node id="-696" visible="true" lat="44.15268877" lon="-72.59977969">
    <tag k="addr:housenumber" v="324"/>
    <tag k="addr:street" v="Onion River Road"/>
    <tag k="addr:state" v="VT"/>
    <tag k="ref:vcgi:esiteid" v="180539"/>
  </node>
  <node id="-716" visible="true" lat="44.15208709" lon="-72.59368691">
    <tag k="addr:housenumber" v="2896"/>
    <tag k="addr:street" v="Berlin Pond Road"/>
    <tag k="addr:state" v="VT"/>
    <tag k="ref:vcgi:esiteid" v="180561"/>
  </node>
  <node id="-721" visible="true" lat="44.15252757" lon="-72.5981608">
    <tag k="addr:housenumber" v="2847"/>
    <tag k="addr:street" v="Berlin Pond Road"/>
    <tag k="addr:state" v="VT"/>
    <tag k="ref:vcgi:esiteid" v="180566"/>
  </node>
  <node id="-741" visible="true" lat="44.15169795" lon="-72.73197657">
    <tag k="addr:housenumber" v="2248"/>
    <tag k="addr:street" v="Hallstrom Road"/>
    <tag k="addr:state" v="VT"/>
    <tag k="ref:vcgi:esiteid" v="180587"/>
  </node>
  <node id="-781" visible="true" lat="44.15121078" lon="-72.60140991">
    <tag k="addr:housenumber" v="238"/>
    <tag k="addr:street" v="Onion River Road"/>
    <tag k="addr:state" v="VT"/>
    <tag k="ref:vcgi:esiteid" v="180632"/>
  </node>
  <node id="-788" visible="true" lat="44.15089951" lon="-72.7289519">
    <tag k="addr:housenumber" v="3004"/>
    <tag k="addr:street" v="West Hill Road"/>
    <tag k="addr:state" v="VT"/>
    <tag k="ref:vcgi:esiteid" v="180640"/>
  </node>
  <node id="-810" visible="true" lat="44.15019186" lon="-72.73262597">
    <tag k="addr:housenumber" v="2308"/>
    <tag k="addr:street" v="Hallstrom Road"/>
    <tag k="addr:state" v="VT"/>
    <tag k="ref:vcgi:esiteid" v="180666"/>
  </node>
  <node id="-818" visible="true" lat="44.15027832" lon="-72.74089376">
    <tag k="addr:housenumber" v="320"/>
    <tag k="addr:street" v="Brooks Road"/>
    <tag k="addr:state" v="VT"/>
    <tag k="ref:vcgi:esiteid" v="180674"/>
  </node>
  <node id="-830" visible="true" lat="44.15032958" lon="-72.60263824">
    <tag k="addr:housenumber" v="161"/>
    <tag k="addr:street" v="Onion River Road"/>
    <tag k="addr:state" v="VT"/>
    <tag k="ref:vcgi:esiteid" v="180687"/>
  </node>
  <node id="-833" visible="true" lat="44.15027259" lon="-72.72727755">
    <tag k="addr:housenumber" v="2858"/>
    <tag k="addr:street" v="West Hill Road"/>
    <tag k="addr:state" v="VT"/>
    <tag k="ref:vcgi:esiteid" v="180690"/>
  </node>
  <node id="-850" visible="true" lat="44.14975822" lon="-72.60073365">
    <tag k="addr:housenumber" v="54"/>
    <tag k="addr:street" v="Onion River Road"/>
    <tag k="addr:state" v="VT"/>
    <tag k="ref:vcgi:esiteid" v="180711"/>
  </node>
  <node id="-856" visible="true" lat="44.14921598" lon="-72.73965638">
    <tag k="addr:housenumber" v="223"/>
    <tag k="addr:street" v="Brooks Road"/>
    <tag k="addr:state" v="VT"/>
    <tag k="ref:vcgi:esiteid" v="180718"/>
  </node>
  <node id="-859" visible="true" lat="44.14925027" lon="-72.65568164">
    <tag k="addr:housenumber" v="38"/>
    <tag k="addr:street" v="North Main Street"/>
    <tag k="addr:state" v="VT"/>
    <tag k="ref:vcgi:esiteid" v="180723"/>
  </node>
  <node id="-862" visible="true" lat="44.14952993" lon="-72.65940566">
    <tag k="addr:housenumber" v="144"/>
    <tag k="addr:street" v="Wall Street"/>
    <tag k="addr:state" v="VT"/>
    <tag k="ref:vcgi:esiteid" v="180727"/>
  </node>
  <node id="-873" visible="true" lat="44.14912019" lon="-72.65640286">
    <tag k="addr:housenumber" v="15"/>
    <tag k="addr:street" v="North Main Street"/>
    <tag k="addr:state" v="VT"/>
    <tag k="ref:vcgi:esiteid" v="180739"/>
  </node>
  <node id="-908" visible="true" lat="44.14831576" lon="-72.73724745">
    <tag k="addr:housenumber" v="92"/>
    <tag k="addr:street" v="Brooks Road"/>
    <tag k="addr:state" v="VT"/>
    <tag k="ref:vcgi:esiteid" v="180782"/>
  </node>
  <node id="-923" visible="true" lat="44.14801969" lon="-72.65595794">
    <tag k="addr:housenumber" v="51"/>
    <tag k="addr:street" v="South Main Street"/>
    <tag k="addr:state" v="VT"/>
    <tag k="ref:vcgi:esiteid" v="180803"/>
  </node>
  <node id="-932" visible="true" lat="44.14767955" lon="-72.73541141">
    <tag k="addr:housenumber" v="3962"/>
    <tag k="addr:street" v="Stony Brook Road"/>
    <tag k="addr:state" v="VT"/>
    <tag k="ref:vcgi:esiteid" v="180815"/>
  </node>
  <node id="-938" visible="true" lat="44.14776093" lon="-72.65600456">
    <tag k="addr:housenumber" v="75"/>
    <tag k="addr:street" v="South Main Street"/>
    <tag k="addr:state" v="VT"/>
    <tag k="ref:vcgi:esiteid" v="180823"/>
  </node>
  <node id="-1005" visible="true" lat="44.1461056" lon="-72.65075189">
    <tag k="addr:housenumber" v="261"/>
    <tag k="addr:street" v="Slate Avenue"/>
    <tag k="addr:state" v="VT"/>
    <tag k="ref:vcgi:esiteid" v="180906"/>
  </node>
  <node id="-1017" visible="true" lat="44.14601829" lon="-72.65664724">
    <tag k="addr:housenumber" v="198"/>
    <tag k="addr:street" v="South Main Street"/>
    <tag k="addr:state" v="VT"/>
    <tag k="ref:vcgi:esiteid" v="180919"/>
  </node>
  <node id="-1023" visible="true" lat="44.14582123" lon="-72.65664201">
    <tag k="addr:housenumber" v="212"/>
    <tag k="addr:street" v="South Main Street"/>
    <tag k="addr:state" v="VT"/>
    <tag k="ref:vcgi:esiteid" v="180925"/>
  </node>
  <node id="-1027" visible="true" lat="44.14586828" lon="-72.68015337">
    <tag k="addr:housenumber" v="805"/>
    <tag k="addr:street" v="Terry Hill Road"/>
    <tag k="addr:state" v="VT"/>
    <tag k="ref:vcgi:esiteid" v="180930"/>
  </node>
  <node id="-1064" visible="true" lat="44.14441579" lon="-72.74044045">
    <tag k="addr:housenumber" v="895"/>
    <tag k="addr:street" v="Clark Road"/>
    <tag k="addr:state" v="VT"/>
    <tag k="ref:vcgi:esiteid" v="180972"/>
  </node>
  <node id="-1065" visible="true" lat="44.14447402" lon="-72.66402435">
    <tag k="addr:housenumber" v="667"/>
    <tag k="addr:street" v="Water Street"/>
    <tag k="addr:state" v="VT"/>
    <tag k="ref:vcgi:esiteid" v="180974"/>
  </node>
  <node id="-1067" visible="true" lat="44.14431506" lon="-72.67300565">
    <tag k="addr:housenumber" v="470"/>
    <tag k="addr:street" v="Terry Hill Road"/>
    <tag k="addr:state" v="VT"/>
    <tag k="ref:vcgi:esiteid" v="180976"/>
  </node>
  <node id="-1068" visible="true" lat="44.14437329" lon="-72.74248706">
    <tag k="addr:housenumber" v="897"/>
    <tag k="addr:street" v="Clark Road"/>
    <tag k="addr:state" v="VT"/>
    <tag k="ref:vcgi:esiteid" v="180977"/>
  </node>
  <node id="-1077" visible="true" lat="44.14400483" lon="-72.7305005">
    <tag k="addr:housenumber" v="939"/>
    <tag k="addr:street" v="Gib Lane"/>
    <tag k="addr:state" v="VT"/>
    <tag k="ref:vcgi:esiteid" v="180986"/>
  </node>
  <node id="-1085" visible="true" lat="44.14385372" lon="-72.72687595">
    <tag k="addr:housenumber" v="3512"/>
    <tag k="addr:street" v="Stony Brook Road"/>
    <tag k="addr:state" v="VT"/>
    <tag k="ref:vcgi:esiteid" v="180994"/>
  </node>
  <node id="-1112" visible="true" lat="44.14311944" lon="-72.72553227">
    <tag k="addr:housenumber" v="3356"/>
    <tag k="addr:street" v="Stony Brook Road"/>
    <tag k="addr:state" v="VT"/>
    <tag k="ref:vcgi:esiteid" v="181024"/>
  </node>
  <node id="-1120" visible="true" lat="44.14275022" lon="-72.72441634">
    <tag k="addr:housenumber" v="3318"/>
    <tag k="addr:street" v="Stony Brook Road"/>
    <tag k="addr:state" v="VT"/>
    <tag k="ref:vcgi:esiteid" v="181034"/>
  </node>
  <node id="-1123" visible="true" lat="44.14276901" lon="-72.65605587">
    <tag k="addr:housenumber" v="42"/>
    <tag k="addr:street" v="Noridge Drive"/>
    <tag k="addr:state" v="VT"/>
    <tag k="ref:vcgi:esiteid" v="181038"/>
  </node>
  <node id="-1130" visible="true" lat="44.14246192" lon="-72.72064349">
    <tag k="addr:housenumber" v="100"/>
    <tag k="addr:street" v="Boardman Road"/>
    <tag k="addr:state" v="VT"/>
    <tag k="ref:vcgi:esiteid" v="181046"/>
  </node>
  <node id="-1134" visible="true" lat="44.14234863" lon="-72.73019176">
    <tag k="addr:housenumber" v="793"/>
    <tag k="addr:street" v="Gib Lane"/>
    <tag k="addr:state" v="VT"/>
    <tag k="ref:vcgi:esiteid" v="181050"/>
  </node>
  <node id="-1142" visible="true" lat="44.14184207" lon="-72.76472408">
    <tag k="addr:housenumber" v="1390"/>
    <tag k="addr:street" v="Monti Road"/>
    <tag k="addr:state" v="VT"/>
    <tag k="ref:vcgi:esiteid" v="181059"/>
  </node>
  <node id="-1144" visible="true" lat="44.14190243" lon="-72.65897784">
    <tag k="addr:housenumber" v="456"/>
    <tag k="addr:street" v="Central Street"/>
    <tag k="addr:state" v="VT"/>
    <tag k="ref:vcgi:esiteid" v="181062"/>
  </node>
  <node id="-1148" visible="true" lat="44.14165116" lon="-72.71603926">
    <tag k="addr:housenumber" v="2912"/>
    <tag k="addr:street" v="Stony Brook Road"/>
    <tag k="addr:state" v="VT"/>
    <tag k="ref:vcgi:esiteid" v="181066"/>
  </node>
  <node id="-1155" visible="true" lat="44.14151497" lon="-72.707923">
    <tag k="addr:housenumber" v="2406"/>
    <tag k="addr:street" v="Stony Brook Road"/>
    <tag k="addr:state" v="VT"/>
    <tag k="ref:vcgi:esiteid" v="181076"/>
  </node>
  <node id="-1156" visible="true" lat="44.14125993" lon="-72.65847855">
    <tag k="addr:housenumber" v="486"/>
    <tag k="addr:street" v="Central Street"/>
    <tag k="addr:state" v="VT"/>
    <tag k="ref:vcgi:esiteid" v="181078"/>
  </node>
  <node id="-1164" visible="true" lat="44.14096003" lon="-72.7178798">
    <tag k="addr:housenumber" v="2942"/>
    <tag k="addr:street" v="Stony Brook Road"/>
    <tag k="addr:state" v="VT"/>
    <tag k="ref:vcgi:esiteid" v="181086"/>
  </node>
  <node id="-1175" visible="true" lat="44.14032378" lon="-72.65820389">
    <tag k="addr:housenumber" v="27"/>
    <tag k="addr:street" v="Id White Avenue"/>
    <tag k="addr:state" v="VT"/>
    <tag k="ref:vcgi:esiteid" v="181098"/>
  </node>
  <node id="-1179" visible="true" lat="44.14019925" lon="-72.65976348">
    <tag k="addr:housenumber" v="220"/>
    <tag k="addr:street" v="Upper Parade Ground"/>
    <tag k="addr:state" v="VT"/>
    <tag k="ref:vcgi:esiteid" v="181103"/>
  </node>
  <node id="-1183" visible="true" lat="44.14006387" lon="-72.66103025">
    <tag k="addr:housenumber" v="324"/>
    <tag k="addr:street" v="University Drive"/>
    <tag k="addr:state" v="VT"/>
    <tag k="ref:vcgi:esiteid" v="181108"/>
  </node>
  <node id="-1186" visible="true" lat="44.139765" lon="-72.66064109">
    <tag k="addr:housenumber" v="248"/>
    <tag k="addr:street" v="Upper Parade Ground"/>
    <tag k="addr:state" v="VT"/>
    <tag k="ref:vcgi:esiteid" v="181111"/>
  </node>
  <node id="-1189" visible="true" lat="44.13922871" lon="-72.66201386">
    <tag k="addr:housenumber" v="197"/>
    <tag k="addr:street" v="University Drive"/>
    <tag k="addr:state" v="VT"/>
    <tag k="ref:vcgi:esiteid" v="181115"/>
  </node>
  <node id="-1193" visible="true" lat="44.13947455" lon="-72.66087105">
    <tag k="addr:housenumber" v="278"/>
    <tag k="addr:street" v="Upper Parade Ground"/>
    <tag k="addr:state" v="VT"/>
    <tag k="ref:vcgi:esiteid" v="181121"/>
  </node>
  <node id="-1194" visible="true" lat="44.13936878" lon="-72.65909319">
    <tag k="addr:housenumber" v="210"/>
    <tag k="addr:street" v="Harmon Drive"/>
    <tag k="addr:state" v="VT"/>
    <tag k="ref:vcgi:esiteid" v="181122"/>
  </node>
  <node id="-1197" visible="true" lat="44.1395037" lon="-72.66190784">
    <tag k="addr:housenumber" v="257"/>
    <tag k="addr:street" v="University Drive"/>
    <tag k="addr:state" v="VT"/>
    <tag k="ref:vcgi:esiteid" v="181125"/>
  </node>
  <node id="-1200" visible="true" lat="44.13915564" lon="-72.66089225">
    <tag k="addr:housenumber" v="306"/>
    <tag k="addr:street" v="Upper Parade Ground"/>
    <tag k="addr:state" v="VT"/>
    <tag k="ref:vcgi:esiteid" v="181128"/>
  </node>
  <node id="-1201" visible="true" lat="44.13915333" lon="-72.65869796">
    <tag k="addr:housenumber" v="194"/>
    <tag k="addr:street" v="Harmon Drive"/>
    <tag k="addr:state" v="VT"/>
    <tag k="ref:vcgi:esiteid" v="181129"/>
  </node>
  <node id="-1202" visible="true" lat="44.13887815" lon="-72.6589868">
    <tag k="addr:housenumber" v="190"/>
    <tag k="addr:street" v="Harmon Drive"/>
    <tag k="addr:state" v="VT"/>
    <tag k="ref:vcgi:esiteid" v="181131"/>
  </node>
  <node id="-1203" visible="true" lat="44.13884607" lon="-72.66012704">
    <tag k="addr:housenumber" v="146"/>
    <tag k="addr:street" v="Upper Parade Ground"/>
    <tag k="addr:state" v="VT"/>
    <tag k="ref:vcgi:esiteid" v="181132"/>
  </node>
  <node id="-1204" visible="true" lat="44.13880201" lon="-72.65739933">
    <tag k="addr:housenumber" v="695"/>
    <tag k="addr:street" v="South Main Street"/>
    <tag k="addr:state" v="VT"/>
    <tag k="ref:vcgi:esiteid" v="181133"/>
  </node>
  <node id="-1206" visible="true" lat="44.13868962" lon="-72.66131939">
    <tag k="addr:housenumber" v="328"/>
    <tag k="addr:street" v="Upper Parade Ground"/>
    <tag k="addr:state" v="VT"/>
    <tag k="ref:vcgi:esiteid" v="181135"/>
  </node>
  <node id="-1208" visible="true" lat="44.13832393" lon="-72.74242837">
    <tag k="addr:housenumber" v="528"/>
    <tag k="addr:street" v="Clark Road"/>
    <tag k="addr:state" v="VT"/>
    <tag k="ref:vcgi:esiteid" v="181137"/>
  </node>
  <node id="-1211" visible="true" lat="44.13821316" lon="-72.76099009">
    <tag k="addr:housenumber" v="1127"/>
    <tag k="addr:street" v="Monti Road"/>
    <tag k="addr:state" v="VT"/>
    <tag k="ref:vcgi:esiteid" v="181140"/>
  </node>
  <node id="-1212" visible="true" lat="44.13853432" lon="-72.68222373">
    <tag k="addr:housenumber" v="804"/>
    <tag k="addr:street" v="Dole Hill Road"/>
    <tag k="addr:state" v="VT"/>
    <tag k="ref:vcgi:esiteid" v="181141"/>
  </node>
  <node id="-1213" visible="true" lat="44.13843632" lon="-72.66038074">
    <tag k="addr:housenumber" v="108"/>
    <tag k="addr:street" v="Upper Parade Ground"/>
    <tag k="addr:state" v="VT"/>
    <tag k="ref:vcgi:esiteid" v="181142"/>
  </node>
  <node id="-1215" visible="true" lat="44.13830184" lon="-72.710289">
    <tag k="addr:housenumber" v="2499"/>
    <tag k="addr:street" v="Stony Brook Road"/>
    <tag k="addr:state" v="VT"/>
    <tag k="ref:vcgi:esiteid" v="181144"/>
  </node>
  <node id="-1217" visible="true" lat="44.13828264" lon="-72.66158969">
    <tag k="addr:housenumber" v="368"/>
    <tag k="addr:street" v="Upper Parade Ground"/>
    <tag k="addr:state" v="VT"/>
    <tag k="ref:vcgi:esiteid" v="181146"/>
  </node>
  <node id="-1218" visible="true" lat="44.13822688" lon="-72.67888361">
    <tag k="addr:housenumber" v="687"/>
    <tag k="addr:street" v="Dole Hill Road"/>
    <tag k="addr:state" v="VT"/>
    <tag k="ref:vcgi:esiteid" v="181147"/>
  </node>
  <node id="-1224" visible="true" lat="44.13790301" lon="-72.74315929">
    <tag k="addr:housenumber" v="481"/>
    <tag k="addr:street" v="Clark Road"/>
    <tag k="addr:state" v="VT"/>
    <tag k="ref:vcgi:esiteid" v="181153"/>
  </node>
  <node id="-1227" visible="true" lat="44.13794736" lon="-72.66120348">
    <tag k="addr:housenumber" v="33"/>
    <tag k="addr:street" v="Upper Parade Ground"/>
    <tag k="addr:state" v="VT"/>
    <tag k="ref:vcgi:esiteid" v="181156"/>
  </node>
  <node id="-1231" visible="true" lat="44.13811268" lon="-72.65998622">
    <tag k="addr:housenumber" v="78"/>
    <tag k="addr:street" v="Upper Parade Ground"/>
    <tag k="addr:state" v="VT"/>
    <tag k="ref:vcgi:esiteid" v="181160"/>
  </node>
  <node id="-1233" visible="true" lat="44.13782051" lon="-72.68160325">
    <tag k="addr:housenumber" v="807"/>
    <tag k="addr:street" v="Dole Hill Road"/>
    <tag k="addr:state" v="VT"/>
    <tag k="ref:vcgi:esiteid" v="181162"/>
  </node>
  <node id="-1234" visible="true" lat="44.13797458" lon="-72.66063834">
    <tag k="addr:housenumber" v="62"/>
    <tag k="addr:street" v="Upper Parade Ground"/>
    <tag k="addr:state" v="VT"/>
    <tag k="ref:vcgi:esiteid" v="181164"/>
  </node>
  <node id="-1235" visible="true" lat="44.13775253" lon="-72.66287231">
    <tag k="addr:housenumber" v="173"/>
    <tag k="addr:street" v="University Drive"/>
    <tag k="addr:state" v="VT"/>
    <tag k="ref:vcgi:esiteid" v="181165"/>
  </node>
  <node id="-1238" visible="true" lat="44.1377081" lon="-72.67634231">
    <tag k="addr:housenumber" v="134"/>
    <tag k="addr:street" v="Scenic View Drive"/>
    <tag k="addr:state" v="VT"/>
    <tag k="ref:vcgi:esiteid" v="181168"/>
  </node>
  <node id="-1239" visible="true" lat="44.13765859" lon="-72.66031244">
    <tag k="addr:housenumber" v="60"/>
    <tag k="addr:street" v="Upper Parade Ground"/>
    <tag k="addr:state" v="VT"/>
    <tag k="ref:vcgi:esiteid" v="181169"/>
  </node>
  <node id="-1241" visible="true" lat="44.13791722" lon="-72.6593534">
    <tag k="addr:housenumber" v="89"/>
    <tag k="addr:street" v="Harmon Drive"/>
    <tag k="addr:state" v="VT"/>
    <tag k="ref:vcgi:esiteid" v="181171"/>
  </node>
  <node id="-1243" visible="true" lat="44.13778899" lon="-72.66468425">
    <tag k="addr:housenumber" v="120"/>
    <tag k="addr:street" v="General Cram Drive"/>
    <tag k="addr:state" v="VT"/>
    <tag k="ref:vcgi:esiteid" v="181173"/>
  </node>
  <node id="-1248" visible="true" lat="44.13729717" lon="-72.65958673">
    <tag k="addr:housenumber" v="43"/>
    <tag k="addr:street" v="Harmon Drive"/>
    <tag k="addr:state" v="VT"/>
    <tag k="ref:vcgi:esiteid" v="181178"/>
  </node>
  <node id="-1252" visible="true" lat="44.13706478" lon="-72.75965547">
    <tag k="addr:housenumber" v="1027"/>
    <tag k="addr:street" v="Monti Road"/>
    <tag k="addr:state" v="VT"/>
    <tag k="ref:vcgi:esiteid" v="181182"/>
  </node>
  <node id="-1254" visible="true" lat="44.13763827" lon="-72.65946759">
    <tag k="addr:housenumber" v="47"/>
    <tag k="addr:street" v="Harmon Drive"/>
    <tag k="addr:state" v="VT"/>
    <tag k="ref:vcgi:esiteid" v="181184"/>
  </node>
  <node id="-1256" visible="true" lat="44.13696631" lon="-72.73003408">
    <tag k="addr:housenumber" v="462"/>
    <tag k="addr:street" v="Gib Lane"/>
    <tag k="addr:state" v="VT"/>
    <tag k="ref:vcgi:esiteid" v="181187"/>
  </node>
  <node id="-1258" visible="true" lat="44.13698755" lon="-72.66025575">
    <tag k="addr:housenumber" v="23"/>
    <tag k="addr:street" v="University Drive"/>
    <tag k="addr:state" v="VT"/>
    <tag k="ref:vcgi:esiteid" v="181189"/>
  </node>
  <node id="-1265" visible="true" lat="44.13659616" lon="-72.65666933">
    <tag k="addr:housenumber" v="123"/>
    <tag k="addr:street" v="Stagecoach Road"/>
    <tag k="addr:state" v="VT"/>
    <tag k="ref:vcgi:esiteid" v="181197"/>
  </node>
  <node id="-1267" visible="true" lat="44.13640212" lon="-72.73430956">
    <tag k="addr:housenumber" v="210"/>
    <tag k="addr:street" v="Morning Star Lane"/>
    <tag k="addr:state" v="VT"/>
    <tag k="ref:vcgi:esiteid" v="181200"/>
  </node>
  <node id="-1274" visible="true" lat="44.1363603" lon="-72.60580457">
    <tag k="addr:housenumber" v="1699"/>
    <tag k="addr:street" v="Berlin Pond Road"/>
    <tag k="addr:state" v="VT"/>
    <tag k="ref:vcgi:esiteid" v="181208"/>
  </node>
  <node id="-1275" visible="true" lat="44.13599175" lon="-72.75792617">
    <tag k="addr:housenumber" v="893"/>
    <tag k="addr:street" v="Monti Road"/>
    <tag k="addr:state" v="VT"/>
    <tag k="ref:vcgi:esiteid" v="181209"/>
  </node>
  <node id="-1277" visible="true" lat="44.13614077" lon="-72.74489041">
    <tag k="addr:housenumber" v="327"/>
    <tag k="addr:street" v="Clark Road"/>
    <tag k="addr:state" v="VT"/>
    <tag k="ref:vcgi:esiteid" v="181211"/>
  </node>
  <node id="-1279" visible="true" lat="44.13611261" lon="-72.69007367">
    <tag k="addr:housenumber" v="98"/>
    <tag k="addr:street" v="McKain Road"/>
    <tag k="addr:state" v="VT"/>
    <tag k="ref:vcgi:esiteid" v="181213"/>
  </node>
  <node id="-1282" visible="true" lat="44.13589144" lon="-72.65820835">
    <tag k="addr:housenumber" v="47"/>
    <tag k="addr:street" v="Alpine Drive"/>
    <tag k="addr:state" v="VT"/>
    <tag k="ref:vcgi:esiteid" v="181216"/>
  </node>
  <node id="-1285" visible="true" lat="44.13568079" lon="-72.60335376">
    <tag k="addr:housenumber" v="1664"/>
    <tag k="addr:street" v="Berlin Pond Road"/>
    <tag k="addr:state" v="VT"/>
    <tag k="ref:vcgi:esiteid" v="181220"/>
  </node>
  <node id="-1290" visible="true" lat="44.13419085" lon="-72.67557236">
    <tag k="addr:housenumber" v="322"/>
    <tag k="addr:street" v="Scenic View Drive"/>
    <tag k="addr:state" v="VT"/>
    <tag k="ref:vcgi:esiteid" v="181226"/>
  </node>
  <node id="-1294" visible="true" lat="44.13488769" lon="-72.67395019">
    <tag k="addr:housenumber" v="366"/>
    <tag k="addr:street" v="Scenic View Drive"/>
    <tag k="addr:state" v="VT"/>
    <tag k="ref:vcgi:esiteid" v="181230"/>
  </node>
  <node id="-1297" visible="true" lat="44.13471035" lon="-72.74407144">
    <tag k="addr:housenumber" v="259"/>
    <tag k="addr:street" v="Clark Road"/>
    <tag k="addr:state" v="VT"/>
    <tag k="ref:vcgi:esiteid" v="181233"/>
  </node>
  <node id="-1307" visible="true" lat="44.1339554" lon="-72.74969383">
    <tag k="addr:housenumber" v="470"/>
    <tag k="addr:street" v="Monti Road"/>
    <tag k="addr:state" v="VT"/>
    <tag k="ref:vcgi:esiteid" v="181244"/>
  </node>
  <node id="-1308" visible="true" lat="44.13408441" lon="-72.60353807">
    <tag k="addr:housenumber" v="1538"/>
    <tag k="addr:street" v="Berlin Pond Road"/>
    <tag k="addr:state" v="VT"/>
    <tag k="ref:vcgi:esiteid" v="181245"/>
  </node>
  <node id="-1309" visible="true" lat="44.13382335" lon="-72.74285262">
    <tag k="addr:housenumber" v="169"/>
    <tag k="addr:street" v="Clark Road"/>
    <tag k="addr:state" v="VT"/>
    <tag k="ref:vcgi:esiteid" v="181246"/>
  </node>
  <node id="-1316" visible="true" lat="44.13373195" lon="-72.7411443">
    <tag k="addr:housenumber" v="148"/>
    <tag k="addr:street" v="Clark Road"/>
    <tag k="addr:state" v="VT"/>
    <tag k="ref:vcgi:esiteid" v="181253"/>
  </node>
  <node id="-1327" visible="true" lat="44.13299673" lon="-72.74777019">
    <tag k="addr:housenumber" v="344"/>
    <tag k="addr:street" v="Monti Road"/>
    <tag k="addr:state" v="VT"/>
    <tag k="ref:vcgi:esiteid" v="181264"/>
  </node>
  <node id="-1328" visible="true" lat="44.13308683" lon="-72.65918543">
    <tag k="addr:housenumber" v="1137"/>
    <tag k="addr:street" v="South Main Street"/>
    <tag k="addr:state" v="VT"/>
    <tag k="ref:vcgi:esiteid" v="181265"/>
  </node>
  <node id="-1331" visible="true" lat="44.1329895" lon="-72.65975634">
    <tag k="addr:housenumber" v="1124"/>
    <tag k="addr:street" v="South Main Street"/>
    <tag k="addr:state" v="VT"/>
    <tag k="ref:vcgi:esiteid" v="181268"/>
  </node>
  <node id="-1337" visible="true" lat="44.1325554" lon="-72.60457374">
    <tag k="addr:housenumber" v="1426"/>
    <tag k="addr:street" v="Berlin Pond Road"/>
    <tag k="addr:state" v="VT"/>
    <tag k="ref:vcgi:esiteid" v="181275"/>
  </node>
  <node id="-1340" visible="true" lat="44.13220974" lon="-72.74192837">
    <tag k="addr:housenumber" v="65"/>
    <tag k="addr:street" v="Clark Road"/>
    <tag k="addr:state" v="VT"/>
    <tag k="ref:vcgi:esiteid" v="181278"/>
  </node>
  <node id="-1360" visible="true" lat="44.13121725" lon="-72.74282908">
    <tag k="addr:housenumber" v="60"/>
    <tag k="addr:street" v="Monti Road"/>
    <tag k="addr:state" v="VT"/>
    <tag k="ref:vcgi:esiteid" v="181299"/>
  </node>
  <node id="-1361" visible="true" lat="44.13127782" lon="-72.74097088">
    <tag k="addr:housenumber" v="2554"/>
    <tag k="addr:street" v="Little Northfield Road"/>
    <tag k="addr:state" v="VT"/>
    <tag k="ref:vcgi:esiteid" v="181300"/>
  </node>
  <node id="-1365" visible="true" lat="44.13112695" lon="-72.61947773">
    <tag k="addr:housenumber" v="845"/>
    <tag k="addr:street" v="Barrows Road"/>
    <tag k="addr:state" v="VT"/>
    <tag k="ref:vcgi:esiteid" v="181304"/>
  </node>
  <node id="-1367" visible="true" lat="44.13084408" lon="-72.74446191">
    <tag k="addr:housenumber" v="121"/>
    <tag k="addr:street" v="Monti Road"/>
    <tag k="addr:state" v="VT"/>
    <tag k="ref:vcgi:esiteid" v="181306"/>
  </node>
  <node id="-1370" visible="true" lat="44.13092723" lon="-72.60521394">
    <tag k="addr:housenumber" v="1322"/>
    <tag k="addr:street" v="Berlin Pond Road"/>
    <tag k="addr:state" v="VT"/>
    <tag k="ref:vcgi:esiteid" v="181309"/>
  </node>
  <node id="-1388" visible="true" lat="44.1300387" lon="-72.69388889">
    <tag k="addr:housenumber" v="1229"/>
    <tag k="addr:street" v="Smith Hill Road"/>
    <tag k="addr:state" v="VT"/>
    <tag k="ref:vcgi:esiteid" v="181327"/>
  </node>
  <node id="-1397" visible="true" lat="44.13076517" lon="-72.6145208">
    <tag k="addr:housenumber" v="1107"/>
    <tag k="addr:street" v="Barrows Road"/>
    <tag k="addr:state" v="VT"/>
    <tag k="ref:vcgi:esiteid" v="181337"/>
  </node>
  <node id="-1398" visible="true" lat="44.12962012" lon="-72.66229056">
    <tag k="addr:housenumber" v="349"/>
    <tag k="addr:street" v="Vermont Route 12A"/>
    <tag k="addr:state" v="VT"/>
    <tag k="ref:vcgi:esiteid" v="181338"/>
  </node>
  <node id="-1401" visible="true" lat="44.12955151" lon="-72.65666989">
    <tag k="addr:housenumber" v="47"/>
    <tag k="addr:street" v="South View Road"/>
    <tag k="addr:state" v="VT"/>
    <tag k="ref:vcgi:esiteid" v="181341"/>
  </node>
  <node id="-1402" visible="true" lat="44.12934838" lon="-72.65611471">
    <tag k="addr:housenumber" v="87"/>
    <tag k="addr:street" v="South View Road"/>
    <tag k="addr:state" v="VT"/>
    <tag k="ref:vcgi:esiteid" v="181342"/>
  </node>
  <node id="-1414" visible="true" lat="44.12884638" lon="-72.65665953">
    <tag k="addr:housenumber" v="56"/>
    <tag k="addr:street" v="South View Road"/>
    <tag k="addr:state" v="VT"/>
    <tag k="ref:vcgi:esiteid" v="181354"/>
  </node>
  <node id="-1424" visible="true" lat="44.12803022" lon="-72.61545032">
    <tag k="addr:housenumber" v="1114"/>
    <tag k="addr:street" v="Barrows Road"/>
    <tag k="addr:state" v="VT"/>
    <tag k="ref:vcgi:esiteid" v="181364"/>
  </node>
  <node id="-1427" visible="true" lat="44.12803424" lon="-72.73730767">
    <tag k="addr:housenumber" v="2267"/>
    <tag k="addr:street" v="Little Northfield Road"/>
    <tag k="addr:state" v="VT"/>
    <tag k="ref:vcgi:esiteid" v="181367"/>
  </node>
  <node id="-1443" visible="true" lat="44.12722079" lon="-72.62461586">
    <tag k="addr:housenumber" v="615"/>
    <tag k="addr:street" v="Barrows Road"/>
    <tag k="addr:state" v="VT"/>
    <tag k="ref:vcgi:esiteid" v="181384"/>
  </node>
  <node id="-1447" visible="true" lat="44.12666578" lon="-72.61727294">
    <tag k="addr:housenumber" v="1046"/>
    <tag k="addr:street" v="Barrows Road"/>
    <tag k="addr:state" v="VT"/>
    <tag k="ref:vcgi:esiteid" v="181388"/>
  </node>
  <node id="-1448" visible="true" lat="44.12689302" lon="-72.62536837">
    <tag k="addr:housenumber" v="549"/>
    <tag k="addr:street" v="Barrows Road"/>
    <tag k="addr:state" v="VT"/>
    <tag k="ref:vcgi:esiteid" v="181389"/>
  </node>
  <node id="-1450" visible="true" lat="44.12627997" lon="-72.66276487">
    <tag k="addr:housenumber" v="597"/>
    <tag k="addr:street" v="Vermont Route 12A"/>
    <tag k="addr:state" v="VT"/>
    <tag k="ref:vcgi:esiteid" v="181391"/>
  </node>
  <node id="-1452" visible="true" lat="44.12634419" lon="-72.62339518">
    <tag k="addr:housenumber" v="614"/>
    <tag k="addr:street" v="Barrows Road"/>
    <tag k="addr:state" v="VT"/>
    <tag k="ref:vcgi:esiteid" v="181393"/>
  </node>
  <node id="-1454" visible="true" lat="44.12614767" lon="-72.66328719">
    <tag k="addr:housenumber" v="604"/>
    <tag k="addr:street" v="Vermont Route 12A"/>
    <tag k="addr:state" v="VT"/>
    <tag k="ref:vcgi:esiteid" v="181395"/>
  </node>
  <node id="-1455" visible="true" lat="44.12610189" lon="-72.66349319">
    <tag k="addr:housenumber" v="606"/>
    <tag k="addr:street" v="Vermont Route 12A"/>
    <tag k="addr:state" v="VT"/>
    <tag k="ref:vcgi:esiteid" v="181396"/>
  </node>
  <node id="-1456" visible="true" lat="44.12607123" lon="-72.65995491">
    <tag k="addr:housenumber" v="147"/>
    <tag k="addr:street" v="Preston Drive"/>
    <tag k="addr:state" v="VT"/>
    <tag k="ref:vcgi:esiteid" v="181397"/>
  </node>
  <node id="-1458" visible="true" lat="44.12580806" lon="-72.6590724">
    <tag k="addr:housenumber" v="113"/>
    <tag k="addr:street" v="Preston Drive"/>
    <tag k="addr:state" v="VT"/>
    <tag k="ref:vcgi:esiteid" v="181399"/>
  </node>
  <node id="-1459" visible="true" lat="44.12584069" lon="-72.66362408">
    <tag k="addr:housenumber" v="664"/>
    <tag k="addr:street" v="Vermont Route 12A"/>
    <tag k="addr:state" v="VT"/>
    <tag k="ref:vcgi:esiteid" v="181400"/>
  </node>
  <node id="-1463" visible="true" lat="44.12563969" lon="-72.65811107">
    <tag k="addr:housenumber" v="49"/>
    <tag k="addr:street" v="Preston Drive"/>
    <tag k="addr:state" v="VT"/>
    <tag k="ref:vcgi:esiteid" v="181404"/>
  </node>
  <node id="-1465" visible="true" lat="44.12549746" lon="-72.71270062">
    <tag k="addr:housenumber" v="876"/>
    <tag k="addr:street" v="Little Northfield Road"/>
    <tag k="addr:state" v="VT"/>
    <tag k="ref:vcgi:esiteid" v="181406"/>
  </node>
  <node id="-1466" visible="true" lat="44.12534196" lon="-72.62934016">
    <tag k="addr:housenumber" v="42"/>
    <tag k="addr:street" v="Kingston Road"/>
    <tag k="addr:state" v="VT"/>
    <tag k="ref:vcgi:esiteid" v="181407"/>
  </node>
  <node id="-1467" visible="true" lat="44.12520972" lon="-72.66612722">
    <tag k="addr:housenumber" v="147"/>
    <tag k="addr:street" v="Kt Drive"/>
    <tag k="addr:state" v="VT"/>
    <tag k="ref:vcgi:esiteid" v="181408"/>
  </node>
  <node id="-1469" visible="true" lat="44.12510778" lon="-72.66413974">
    <tag k="addr:housenumber" v="680"/>
    <tag k="addr:street" v="Vermont Route 12A"/>
    <tag k="addr:state" v="VT"/>
    <tag k="ref:vcgi:esiteid" v="181410"/>
  </node>
  <node id="-1470" visible="true" lat="44.12501613" lon="-72.66620211">
    <tag k="addr:housenumber" v="131"/>
    <tag k="addr:street" v="Kt Drive"/>
    <tag k="addr:state" v="VT"/>
    <tag k="ref:vcgi:esiteid" v="181411"/>
  </node>
  <node id="-1471" visible="true" lat="44.1250593" lon="-72.62246947">
    <tag k="addr:housenumber" v="616"/>
    <tag k="addr:street" v="Barrows Road"/>
    <tag k="addr:state" v="VT"/>
    <tag k="ref:vcgi:esiteid" v="181413"/>
  </node>
  <node id="-1472" visible="true" lat="44.12480517" lon="-72.666268">
    <tag k="addr:housenumber" v="119"/>
    <tag k="addr:street" v="Kt Drive"/>
    <tag k="addr:state" v="VT"/>
    <tag k="ref:vcgi:esiteid" v="181414"/>
  </node>
  <node id="-1475" visible="true" lat="44.12461728" lon="-72.66585059">
    <tag k="addr:housenumber" v="112"/>
    <tag k="addr:street" v="Kt Drive"/>
    <tag k="addr:state" v="VT"/>
    <tag k="ref:vcgi:esiteid" v="181417"/>
  </node>
  <node id="-1476" visible="true" lat="44.12462107" lon="-72.66634395">
    <tag k="addr:housenumber" v="105"/>
    <tag k="addr:street" v="Kt Drive"/>
    <tag k="addr:state" v="VT"/>
    <tag k="ref:vcgi:esiteid" v="181418"/>
  </node>
  <node id="-1477" visible="true" lat="44.12457185" lon="-72.66345793">
    <tag k="addr:housenumber" v="695"/>
    <tag k="addr:street" v="Vermont Route 12A"/>
    <tag k="addr:state" v="VT"/>
    <tag k="ref:vcgi:esiteid" v="181419"/>
  </node>
  <node id="-1478" visible="true" lat="44.12463817" lon="-72.63848034">
    <tag k="addr:housenumber" v="329"/>
    <tag k="addr:street" v="Tamarack Road"/>
    <tag k="addr:state" v="VT"/>
    <tag k="ref:vcgi:esiteid" v="181420"/>
  </node>
  <node id="-1479" visible="true" lat="44.12458975" lon="-72.699511">
    <tag k="addr:housenumber" v="301"/>
    <tag k="addr:street" v="Fox Road"/>
    <tag k="addr:state" v="VT"/>
    <tag k="ref:vcgi:esiteid" v="181421"/>
  </node>
  <node id="-1480" visible="true" lat="44.12452491" lon="-72.66952702">
    <tag k="addr:housenumber" v="175"/>
    <tag k="addr:street" v="Fairground Road"/>
    <tag k="addr:state" v="VT"/>
    <tag k="ref:vcgi:esiteid" v="181422"/>
  </node>
  <node id="-1481" visible="true" lat="44.12436854" lon="-72.66592446">
    <tag k="addr:housenumber" v="98"/>
    <tag k="addr:street" v="Kt Drive"/>
    <tag k="addr:state" v="VT"/>
    <tag k="ref:vcgi:esiteid" v="181423"/>
  </node>
  <node id="-1483" visible="true" lat="44.12440109" lon="-72.66638183">
    <tag k="addr:housenumber" v="87"/>
    <tag k="addr:street" v="Kt Drive"/>
    <tag k="addr:state" v="VT"/>
    <tag k="ref:vcgi:esiteid" v="181425"/>
  </node>
  <node id="-1484" visible="true" lat="44.12448526" lon="-72.66665948">
    <tag k="addr:housenumber" v="80"/>
    <tag k="addr:street" v="Tucker Lane"/>
    <tag k="addr:state" v="VT"/>
    <tag k="ref:vcgi:esiteid" v="181426"/>
  </node>
  <node id="-1485" visible="true" lat="44.12425993" lon="-72.66592455">
    <tag k="addr:housenumber" v="88"/>
    <tag k="addr:street" v="Kt Drive"/>
    <tag k="addr:state" v="VT"/>
    <tag k="ref:vcgi:esiteid" v="181427"/>
  </node>
  <node id="-1486" visible="true" lat="44.12409658" lon="-72.66700389">
    <tag k="addr:housenumber" v="50"/>
    <tag k="addr:street" v="Tucker Lane"/>
    <tag k="addr:state" v="VT"/>
    <tag k="ref:vcgi:esiteid" v="181428"/>
  </node>
  <node id="-1487" visible="true" lat="44.12422079" lon="-72.66652476">
    <tag k="addr:housenumber" v="77"/>
    <tag k="addr:street" v="Kt Drive"/>
    <tag k="addr:state" v="VT"/>
    <tag k="ref:vcgi:esiteid" v="181429"/>
  </node>
  <node id="-1488" visible="true" lat="44.12426376" lon="-72.66442108">
    <tag k="addr:housenumber" v="758"/>
    <tag k="addr:street" v="Vermont Route 12A"/>
    <tag k="addr:state" v="VT"/>
    <tag k="ref:vcgi:esiteid" v="181430"/>
  </node>
  <node id="-1489" visible="true" lat="44.12405826" lon="-72.66601249">
    <tag k="addr:housenumber" v="78"/>
    <tag k="addr:street" v="Kt Drive"/>
    <tag k="addr:state" v="VT"/>
    <tag k="ref:vcgi:esiteid" v="181431"/>
  </node>
  <node id="-1491" visible="true" lat="44.12419456" lon="-72.66200441">
    <tag k="addr:housenumber" v="63"/>
    <tag k="addr:street" v="Lovers Lane"/>
    <tag k="addr:state" v="VT"/>
    <tag k="ref:vcgi:esiteid" v="181433"/>
  </node>
  <node id="-1492" visible="true" lat="44.12396288" lon="-72.66606453">
    <tag k="addr:housenumber" v="66"/>
    <tag k="addr:street" v="Kt Drive"/>
    <tag k="addr:state" v="VT"/>
    <tag k="ref:vcgi:esiteid" v="181434"/>
  </node>
  <node id="-1493" visible="true" lat="44.12401462" lon="-72.66658695">
    <tag k="addr:housenumber" v="61"/>
    <tag k="addr:street" v="Kt Drive"/>
    <tag k="addr:state" v="VT"/>
    <tag k="ref:vcgi:esiteid" v="181435"/>
  </node>
  <node id="-1494" visible="true" lat="44.12375787" lon="-72.66616138">
    <tag k="addr:housenumber" v="52"/>
    <tag k="addr:street" v="Kt Drive"/>
    <tag k="addr:state" v="VT"/>
    <tag k="ref:vcgi:esiteid" v="181436"/>
  </node>
  <node id="-1495" visible="true" lat="44.12384168" lon="-72.66671059">
    <tag k="addr:housenumber" v="47"/>
    <tag k="addr:street" v="Kt Drive"/>
    <tag k="addr:state" v="VT"/>
    <tag k="ref:vcgi:esiteid" v="181437"/>
  </node>
  <node id="-1496" visible="true" lat="44.12366337" lon="-72.66620423">
    <tag k="addr:housenumber" v="42"/>
    <tag k="addr:street" v="Kt Drive"/>
    <tag k="addr:state" v="VT"/>
    <tag k="ref:vcgi:esiteid" v="181438"/>
  </node>
  <node id="-1497" visible="true" lat="44.12369792" lon="-72.667405">
    <tag k="addr:housenumber" v="142"/>
    <tag k="addr:street" v="Fairground Road"/>
    <tag k="addr:state" v="VT"/>
    <tag k="ref:vcgi:esiteid" v="181440"/>
  </node>
  <node id="-1498" visible="true" lat="44.12368011" lon="-72.66461944">
    <tag k="addr:housenumber" v="802"/>
    <tag k="addr:street" v="Vermont Route 12A"/>
    <tag k="addr:state" v="VT"/>
    <tag k="ref:vcgi:esiteid" v="181441"/>
  </node>
  <node id="-1499" visible="true" lat="44.12367185" lon="-72.66392303">
    <tag k="addr:housenumber" v="779"/>
    <tag k="addr:street" v="Vermont Route 12A"/>
    <tag k="addr:state" v="VT"/>
    <tag k="ref:vcgi:esiteid" v="181442"/>
  </node>
  <node id="-1500" visible="true" lat="44.12364345" lon="-72.66678131">
    <tag k="addr:housenumber" v="31"/>
    <tag k="addr:street" v="Kt Drive"/>
    <tag k="addr:state" v="VT"/>
    <tag k="ref:vcgi:esiteid" v="181443"/>
  </node>
  <node id="-1501" visible="true" lat="44.12358474" lon="-72.667099">
    <tag k="addr:housenumber" v="22"/>
    <tag k="addr:street" v="Tucker Lane"/>
    <tag k="addr:state" v="VT"/>
    <tag k="ref:vcgi:esiteid" v="181444"/>
  </node>
  <node id="-1503" visible="true" lat="44.12345569" lon="-72.66629089">
    <tag k="addr:housenumber" v="26"/>
    <tag k="addr:street" v="Kt Drive"/>
    <tag k="addr:state" v="VT"/>
    <tag k="ref:vcgi:esiteid" v="181446"/>
  </node>
  <node id="-1504" visible="true" lat="44.12343735" lon="-72.66687882">
    <tag k="addr:housenumber" v="17"/>
    <tag k="addr:street" v="Kt Drive"/>
    <tag k="addr:state" v="VT"/>
    <tag k="ref:vcgi:esiteid" v="181447"/>
  </node>
  <node id="-1505" visible="true" lat="44.12341686" lon="-72.664245">
    <tag k="addr:housenumber" v="809"/>
    <tag k="addr:street" v="Vermont Route 12A"/>
    <tag k="addr:state" v="VT"/>
    <tag k="ref:vcgi:esiteid" v="181448"/>
  </node>
  <node id="-1506" visible="true" lat="44.12359054" lon="-72.63024923">
    <tag k="addr:housenumber" v="198"/>
    <tag k="addr:street" v="Barrows Road"/>
    <tag k="addr:state" v="VT"/>
    <tag k="ref:vcgi:esiteid" v="181449"/>
  </node>
  <node id="-1507" visible="true" lat="44.12348714" lon="-72.66356624">
    <tag k="addr:housenumber" v="781"/>
    <tag k="addr:street" v="Vermont Route 12A"/>
    <tag k="addr:state" v="VT"/>
    <tag k="ref:vcgi:esiteid" v="181450"/>
  </node>
  <node id="-1508" visible="true" lat="44.12322077" lon="-72.74099241">
    <tag k="addr:housenumber" v="1178"/>
    <tag k="addr:street" v="Rabbit Hollow Road"/>
    <tag k="addr:state" v="VT"/>
    <tag k="ref:vcgi:esiteid" v="181451"/>
  </node>
  <node id="-1509" visible="true" lat="44.12308458" lon="-72.66867274">
    <tag k="addr:housenumber" v="159"/>
    <tag k="addr:street" v="Fairground Road"/>
    <tag k="addr:state" v="VT"/>
    <tag k="ref:vcgi:esiteid" v="181453"/>
  </node>
  <node id="-1510" visible="true" lat="44.12324243" lon="-72.73926364">
    <tag k="addr:housenumber" v="1094"/>
    <tag k="addr:street" v="Rabbit Hollow Road"/>
    <tag k="addr:state" v="VT"/>
    <tag k="ref:vcgi:esiteid" v="181454"/>
  </node>
  <node id="-1511" visible="true" lat="44.12285808" lon="-72.66452019">
    <tag k="addr:housenumber" v="20"/>
    <tag k="addr:street" v="Lovers Lane"/>
    <tag k="addr:state" v="VT"/>
    <tag k="ref:vcgi:esiteid" v="181455"/>
  </node>
  <node id="-1513" visible="true" lat="44.12267486" lon="-72.66660013">
    <tag k="addr:housenumber" v="17"/>
    <tag k="addr:street" v="Expansion Drive"/>
    <tag k="addr:state" v="VT"/>
    <tag k="ref:vcgi:esiteid" v="181457"/>
  </node>
  <node id="-1514" visible="true" lat="44.12284827" lon="-72.66722663">
    <tag k="addr:housenumber" v="34"/>
    <tag k="addr:street" v="Expansion Drive"/>
    <tag k="addr:state" v="VT"/>
    <tag k="ref:vcgi:esiteid" v="181458"/>
  </node>
  <node id="-1515" visible="true" lat="44.12283567" lon="-72.63232232">
    <tag k="addr:housenumber" v="115"/>
    <tag k="addr:street" v="Barrows Road"/>
    <tag k="addr:state" v="VT"/>
    <tag k="ref:vcgi:esiteid" v="181459"/>
  </node>
  <node id="-1516" visible="true" lat="44.12252709" lon="-72.66675516">
    <tag k="addr:housenumber" v="29"/>
    <tag k="addr:street" v="Expansion Drive"/>
    <tag k="addr:state" v="VT"/>
    <tag k="ref:vcgi:esiteid" v="181460"/>
  </node>
  <node id="-1517" visible="true" lat="44.12273299" lon="-72.66740323">
    <tag k="addr:housenumber" v="46"/>
    <tag k="addr:street" v="Expansion Drive"/>
    <tag k="addr:state" v="VT"/>
    <tag k="ref:vcgi:esiteid" v="181461"/>
  </node>
  <node id="-1518" visible="true" lat="44.12276442" lon="-72.65358332">
    <tag k="addr:housenumber" v="280"/>
    <tag k="addr:street" v="Honeysuckle Terrace"/>
    <tag k="addr:state" v="VT"/>
    <tag k="ref:vcgi:esiteid" v="181462"/>
  </node>
  <node id="-1519" visible="true" lat="44.122636" lon="-72.66759334">
    <tag k="addr:housenumber" v="60"/>
    <tag k="addr:street" v="Expansion Drive"/>
    <tag k="addr:state" v="VT"/>
    <tag k="ref:vcgi:esiteid" v="181463"/>
  </node>
  <node id="-1521" visible="true" lat="44.12240598" lon="-72.66696036">
    <tag k="addr:housenumber" v="39"/>
    <tag k="addr:street" v="Expansion Drive"/>
    <tag k="addr:state" v="VT"/>
    <tag k="ref:vcgi:esiteid" v="181465"/>
  </node>
  <node id="-1522" visible="true" lat="44.12250338" lon="-72.66781227">
    <tag k="addr:housenumber" v="70"/>
    <tag k="addr:street" v="Expansion Drive"/>
    <tag k="addr:state" v="VT"/>
    <tag k="ref:vcgi:esiteid" v="181466"/>
  </node>
  <node id="-1523" visible="true" lat="44.12269269" lon="-72.69016344">
    <tag k="addr:housenumber" v="652"/>
    <tag k="addr:street" v="Stony Brook Road"/>
    <tag k="addr:state" v="VT"/>
    <tag k="ref:vcgi:esiteid" v="181467"/>
  </node>
  <node id="-1524" visible="true" lat="44.12229724" lon="-72.66716217">
    <tag k="addr:housenumber" v="51"/>
    <tag k="addr:street" v="Expansion Drive"/>
    <tag k="addr:state" v="VT"/>
    <tag k="ref:vcgi:esiteid" v="181468"/>
  </node>
  <node id="-1525" visible="true" lat="44.12221133" lon="-72.66736397">
    <tag k="addr:housenumber" v="63"/>
    <tag k="addr:street" v="Expansion Drive"/>
    <tag k="addr:state" v="VT"/>
    <tag k="ref:vcgi:esiteid" v="181469"/>
  </node>
  <node id="-1526" visible="true" lat="44.12239074" lon="-72.66474151">
    <tag k="addr:housenumber" v="82"/>
    <tag k="addr:street" v="Bottom Road"/>
    <tag k="addr:state" v="VT"/>
    <tag k="ref:vcgi:esiteid" v="181470"/>
  </node>
  <node id="-1527" visible="true" lat="44.1223615" lon="-72.6680308">
    <tag k="addr:housenumber" v="80"/>
    <tag k="addr:street" v="Expansion Drive"/>
    <tag k="addr:state" v="VT"/>
    <tag k="ref:vcgi:esiteid" v="181471"/>
  </node>
  <node id="-1528" visible="true" lat="44.12227838" lon="-72.72637472">
    <tag k="addr:housenumber" v="319"/>
    <tag k="addr:street" v="Bower Road"/>
    <tag k="addr:state" v="VT"/>
    <tag k="ref:vcgi:esiteid" v="181472"/>
  </node>
  <node id="-1529" visible="true" lat="44.122098" lon="-72.66754845">
    <tag k="addr:housenumber" v="75"/>
    <tag k="addr:street" v="Expansion Drive"/>
    <tag k="addr:state" v="VT"/>
    <tag k="ref:vcgi:esiteid" v="181473"/>
  </node>
  <node id="-1530" visible="true" lat="44.12220236" lon="-72.66821921">
    <tag k="addr:housenumber" v="94"/>
    <tag k="addr:street" v="Expansion Drive"/>
    <tag k="addr:state" v="VT"/>
    <tag k="ref:vcgi:esiteid" v="181474"/>
  </node>
  <node id="-1531" visible="true" lat="44.12229144" lon="-72.65667695">
    <tag k="addr:housenumber" v="748"/>
    <tag k="addr:street" v="Vermont Route 12 South"/>
    <tag k="addr:state" v="VT"/>
    <tag k="ref:vcgi:esiteid" v="181475"/>
  </node>
  <node id="-1532" visible="true" lat="44.12221145" lon="-72.66415405">
    <tag k="addr:housenumber" v="53"/>
    <tag k="addr:street" v="Half Circle"/>
    <tag k="addr:state" v="VT"/>
    <tag k="ref:vcgi:esiteid" v="181477"/>
  </node>
  <node id="-1533" visible="true" lat="44.12213134" lon="-72.66521453">
    <tag k="addr:housenumber" v="907"/>
    <tag k="addr:street" v="Vermont Route 12A"/>
    <tag k="addr:state" v="VT"/>
    <tag k="ref:vcgi:esiteid" v="181478"/>
  </node>
  <node id="-1534" visible="true" lat="44.12201039" lon="-72.63139391">
    <tag k="addr:housenumber" v="82"/>
    <tag k="addr:street" v="Barrows Road"/>
    <tag k="addr:state" v="VT"/>
    <tag k="ref:vcgi:esiteid" v="181479"/>
  </node>
  <node id="-1535" visible="true" lat="44.12199714" lon="-72.6631687">
    <tag k="addr:housenumber" v="85"/>
    <tag k="addr:street" v="Half Circle"/>
    <tag k="addr:state" v="VT"/>
    <tag k="ref:vcgi:esiteid" v="181480"/>
  </node>
  <node id="-1536" visible="true" lat="44.12215604" lon="-72.66367828">
    <tag k="addr:housenumber" v="65"/>
    <tag k="addr:street" v="Half Circle"/>
    <tag k="addr:state" v="VT"/>
    <tag k="ref:vcgi:esiteid" v="181481"/>
  </node>
  <node id="-1537" visible="true" lat="44.12182863" lon="-72.74065475">
    <tag k="addr:housenumber" v="1079"/>
    <tag k="addr:street" v="Rabbit Hollow Road"/>
    <tag k="addr:state" v="VT"/>
    <tag k="ref:vcgi:esiteid" v="181482"/>
  </node>
  <node id="-1538" visible="true" lat="44.12191391" lon="-72.66443813">
    <tag k="addr:housenumber" v="45"/>
    <tag k="addr:street" v="Half Circle"/>
    <tag k="addr:state" v="VT"/>
    <tag k="ref:vcgi:esiteid" v="181483"/>
  </node>
  <node id="-1539" visible="true" lat="44.12179235" lon="-72.66293395">
    <tag k="addr:housenumber" v="98"/>
    <tag k="addr:street" v="Half Circle"/>
    <tag k="addr:state" v="VT"/>
    <tag k="ref:vcgi:esiteid" v="181484"/>
  </node>
  <node id="-1540" visible="true" lat="44.12169963" lon="-72.66061447">
    <tag k="addr:housenumber" v="196"/>
    <tag k="addr:street" v="Lovers Lane"/>
    <tag k="addr:state" v="VT"/>
    <tag k="ref:vcgi:esiteid" v="181485"/>
  </node>
  <node id="-1541" visible="true" lat="44.12173843" lon="-72.65916442">
    <tag k="addr:housenumber" v="35"/>
    <tag k="addr:street" v="Thrush Lane"/>
    <tag k="addr:state" v="VT"/>
    <tag k="ref:vcgi:esiteid" v="181486"/>
  </node>
  <node id="-1542" visible="true" lat="44.12170791" lon="-72.6635437">
    <tag k="addr:housenumber" v="76"/>
    <tag k="addr:street" v="Half Circle"/>
    <tag k="addr:state" v="VT"/>
    <tag k="ref:vcgi:esiteid" v="181487"/>
  </node>
  <node id="-1543" visible="true" lat="44.12161284" lon="-72.65654536">
    <tag k="addr:housenumber" v="788"/>
    <tag k="addr:street" v="Vermont Route 12 South"/>
    <tag k="addr:state" v="VT"/>
    <tag k="ref:vcgi:esiteid" v="181488"/>
  </node>
  <node id="-1544" visible="true" lat="44.12173616" lon="-72.66469091">
    <tag k="addr:housenumber" v="36"/>
    <tag k="addr:street" v="Bottom Road"/>
    <tag k="addr:state" v="VT"/>
    <tag k="ref:vcgi:esiteid" v="181489"/>
  </node>
  <node id="-1545" visible="true" lat="44.12162679" lon="-72.65880877">
    <tag k="addr:housenumber" v="11"/>
    <tag k="addr:street" v="Thrush Lane"/>
    <tag k="addr:state" v="VT"/>
    <tag k="ref:vcgi:esiteid" v="181490"/>
  </node>
  <node id="-1546" visible="true" lat="44.12143707" lon="-72.66394805">
    <tag k="addr:housenumber" v="26"/>
    <tag k="addr:street" v="Half Circle"/>
    <tag k="addr:state" v="VT"/>
    <tag k="ref:vcgi:esiteid" v="181491"/>
  </node>
  <node id="-1548" visible="true" lat="44.12126165" lon="-72.66348694">
    <tag k="addr:housenumber" v="45"/>
    <tag k="addr:street" v="Top Road"/>
    <tag k="addr:state" v="VT"/>
    <tag k="ref:vcgi:esiteid" v="181493"/>
  </node>
  <node id="-1549" visible="true" lat="44.12152842" lon="-72.6653724">
    <tag k="addr:housenumber" v="41"/>
    <tag k="addr:street" v="Winch Hill Road"/>
    <tag k="addr:state" v="VT"/>
    <tag k="ref:vcgi:esiteid" v="181494"/>
  </node>
  <node id="-1550" visible="true" lat="44.12138167" lon="-72.66434983">
    <tag k="addr:housenumber" v="19"/>
    <tag k="addr:street" v="Half Circle"/>
    <tag k="addr:state" v="VT"/>
    <tag k="ref:vcgi:esiteid" v="181495"/>
  </node>
  <node id="-1551" visible="true" lat="44.12140608" lon="-72.66464958">
    <tag k="addr:housenumber" v="16"/>
    <tag k="addr:street" v="Bottom Road"/>
    <tag k="addr:state" v="VT"/>
    <tag k="ref:vcgi:esiteid" v="181496"/>
  </node>
  <node id="-1552" visible="true" lat="44.12108185" lon="-72.73347514">
    <tag k="addr:housenumber" v="724"/>
    <tag k="addr:street" v="Rabbit Hollow Road"/>
    <tag k="addr:state" v="VT"/>
    <tag k="ref:vcgi:esiteid" v="181497"/>
  </node>
  <node id="-1553" visible="true" lat="44.12111667" lon="-72.69009606">
    <tag k="addr:housenumber" v="888"/>
    <tag k="addr:street" v="Stony Brook Road"/>
    <tag k="addr:state" v="VT"/>
    <tag k="ref:vcgi:esiteid" v="181498"/>
  </node>
  <node id="-1554" visible="true" lat="44.12091192" lon="-72.73447207">
    <tag k="addr:housenumber" v="759"/>
    <tag k="addr:street" v="Rabbit Hollow Road"/>
    <tag k="addr:state" v="VT"/>
    <tag k="ref:vcgi:esiteid" v="181499"/>
  </node>
  <node id="-1556" visible="true" lat="44.1206681" lon="-72.66663504">
    <tag k="addr:housenumber" v="1033"/>
    <tag k="addr:street" v="Vermont Route 12A"/>
    <tag k="addr:state" v="VT"/>
    <tag k="ref:vcgi:esiteid" v="181501"/>
  </node>
  <node id="-1557" visible="true" lat="44.12076595" lon="-72.66300866">
    <tag k="addr:housenumber" v="161"/>
    <tag k="addr:street" v="Winch Hill Road"/>
    <tag k="addr:state" v="VT"/>
    <tag k="ref:vcgi:esiteid" v="181502"/>
  </node>
  <node id="-1559" visible="true" lat="44.12057771" lon="-72.63033971">
    <tag k="addr:housenumber" v="1503"/>
    <tag k="addr:street" v="Vermont Route 64"/>
    <tag k="addr:state" v="VT"/>
    <tag k="ref:vcgi:esiteid" v="181504"/>
  </node>
  <node id="-1560" visible="true" lat="44.12007273" lon="-72.73328976">
    <tag k="addr:housenumber" v="677"/>
    <tag k="addr:street" v="Rabbit Hollow Road"/>
    <tag k="addr:state" v="VT"/>
    <tag k="ref:vcgi:esiteid" v="181505"/>
  </node>
  <node id="-1561" visible="true" lat="44.12034355" lon="-72.66509156">
    <tag k="addr:housenumber" v="146"/>
    <tag k="addr:street" v="Winch Hill Road"/>
    <tag k="addr:state" v="VT"/>
    <tag k="ref:vcgi:esiteid" v="181506"/>
  </node>
  <node id="-1562" visible="true" lat="44.12008275" lon="-72.63170634">
    <tag k="addr:housenumber" v="1544"/>
    <tag k="addr:street" v="Vermont Route 64"/>
    <tag k="addr:state" v="VT"/>
    <tag k="ref:vcgi:esiteid" v="181508"/>
  </node>
  <node id="-1563" visible="true" lat="44.11983616" lon="-72.70313508">
    <tag k="addr:housenumber" v="267"/>
    <tag k="addr:street" v="Little Northfield Road"/>
    <tag k="addr:state" v="VT"/>
    <tag k="ref:vcgi:esiteid" v="181509"/>
  </node>
  <node id="-1564" visible="true" lat="44.11977108" lon="-72.6584717">
    <tag k="addr:housenumber" v="482"/>
    <tag k="addr:street" v="Lovers Lane"/>
    <tag k="addr:state" v="VT"/>
    <tag k="ref:vcgi:esiteid" v="181510"/>
  </node>
  <node id="-1566" visible="true" lat="44.11962047" lon="-72.69511806">
    <tag k="addr:housenumber" v="745"/>
    <tag k="addr:street" v="Freeman Road"/>
    <tag k="addr:state" v="VT"/>
    <tag k="ref:vcgi:esiteid" v="181512"/>
  </node>
  <node id="-1567" visible="true" lat="44.11964809" lon="-72.66465339">
    <tag k="addr:housenumber" v="182"/>
    <tag k="addr:street" v="Winch Hill Road"/>
    <tag k="addr:state" v="VT"/>
    <tag k="ref:vcgi:esiteid" v="181513"/>
  </node>
  <node id="-1568" visible="true" lat="44.11940029" lon="-72.74246077">
    <tag k="addr:housenumber" v="1104"/>
    <tag k="addr:street" v="Northfield Road"/>
    <tag k="addr:state" v="VT"/>
    <tag k="ref:vcgi:esiteid" v="181514"/>
  </node>
  <node id="-1569" visible="true" lat="44.11951916" lon="-72.62982881">
    <tag k="addr:housenumber" v="1566"/>
    <tag k="addr:street" v="Vermont Route 64"/>
    <tag k="addr:state" v="VT"/>
    <tag k="ref:vcgi:esiteid" v="181515"/>
  </node>
  <node id="-1571" visible="true" lat="44.11950984" lon="-72.67397148">
    <tag k="addr:housenumber" v="66"/>
    <tag k="addr:street" v="Stony Brook Road"/>
    <tag k="addr:state" v="VT"/>
    <tag k="ref:vcgi:esiteid" v="181517"/>
  </node>
  <node id="-1572" visible="true" lat="44.11928256" lon="-72.66348976">
    <tag k="addr:housenumber" v="246"/>
    <tag k="addr:street" v="Winch Hill Road"/>
    <tag k="addr:state" v="VT"/>
    <tag k="ref:vcgi:esiteid" v="181518"/>
  </node>
  <node id="-1573" visible="true" lat="44.11960476" lon="-72.66303043">
    <tag k="addr:housenumber" v="255"/>
    <tag k="addr:street" v="Winch Hill Road"/>
    <tag k="addr:state" v="VT"/>
    <tag k="ref:vcgi:esiteid" v="181519"/>
  </node>
  <node id="-1574" visible="true" lat="44.11935525" lon="-72.73148425">
    <tag k="addr:housenumber" v="548"/>
    <tag k="addr:street" v="Rabbit Hollow Road"/>
    <tag k="addr:state" v="VT"/>
    <tag k="ref:vcgi:esiteid" v="181520"/>
  </node>
  <node id="-1575" visible="true" lat="44.11956585" lon="-72.6625959">
    <tag k="addr:housenumber" v="279"/>
    <tag k="addr:street" v="Winch Hill Road"/>
    <tag k="addr:state" v="VT"/>
    <tag k="ref:vcgi:esiteid" v="181521"/>
  </node>
  <node id="-1576" visible="true" lat="44.11948763" lon="-72.63450852">
    <tag k="addr:housenumber" v="1388"/>
    <tag k="addr:street" v="Vermont Route 64"/>
    <tag k="addr:state" v="VT"/>
    <tag k="ref:vcgi:esiteid" v="181523"/>
  </node>
  <node id="-1579" visible="true" lat="44.11886998" lon="-72.68744211">
    <tag k="addr:housenumber" v="643"/>
    <tag k="addr:street" v="Stony Brook Road"/>
    <tag k="addr:state" v="VT"/>
    <tag k="ref:vcgi:esiteid" v="181526"/>
  </node>
  <node id="-1580" visible="true" lat="44.11851102" lon="-72.69073671">
    <tag k="addr:housenumber" v="530"/>
    <tag k="addr:street" v="Freeman Road"/>
    <tag k="addr:state" v="VT"/>
    <tag k="ref:vcgi:esiteid" v="181527"/>
  </node>
  <node id="-1581" visible="true" lat="44.11845779" lon="-72.6627655">
    <tag k="addr:housenumber" v="288"/>
    <tag k="addr:street" v="Winch Hill Road"/>
    <tag k="addr:state" v="VT"/>
    <tag k="ref:vcgi:esiteid" v="181528"/>
  </node>
  <node id="-1584" visible="true" lat="44.11836217" lon="-72.66226644">
    <tag k="addr:housenumber" v="378"/>
    <tag k="addr:street" v="Winch Hill Road"/>
    <tag k="addr:state" v="VT"/>
    <tag k="ref:vcgi:esiteid" v="181531"/>
  </node>
  <node id="-1586" visible="true" lat="44.11827029" lon="-72.65536098">
    <tag k="addr:housenumber" v="1089"/>
    <tag k="addr:street" v="Vermont Route 12 South"/>
    <tag k="addr:state" v="VT"/>
    <tag k="ref:vcgi:esiteid" v="181533"/>
  </node>
  <node id="-1589" visible="true" lat="44.11801792" lon="-72.73038661">
    <tag k="addr:housenumber" v="40"/>
    <tag k="addr:street" v="Storti Road"/>
    <tag k="addr:state" v="VT"/>
    <tag k="ref:vcgi:esiteid" v="181536"/>
  </node>
  <node id="-1591" visible="true" lat="44.11709915" lon="-72.7228563">
    <tag k="addr:housenumber" v="195"/>
    <tag k="addr:street" v="Beaudette Road"/>
    <tag k="addr:state" v="VT"/>
    <tag k="ref:vcgi:esiteid" v="181538"/>
  </node>
  <node id="-1592" visible="true" lat="44.11802857" lon="-72.72785668">
    <tag k="addr:housenumber" v="356"/>
    <tag k="addr:street" v="Rabbit Hollow Road"/>
    <tag k="addr:state" v="VT"/>
    <tag k="ref:vcgi:esiteid" v="181539"/>
  </node>
  <node id="-1593" visible="true" lat="44.11801158" lon="-72.65643152">
    <tag k="addr:housenumber" v="612"/>
    <tag k="addr:street" v="Lovers Lane"/>
    <tag k="addr:state" v="VT"/>
    <tag k="ref:vcgi:esiteid" v="181540"/>
  </node>
  <node id="-1594" visible="true" lat="44.1179455" lon="-72.6705087">
    <tag k="addr:housenumber" v="1304"/>
    <tag k="addr:street" v="Vermont Route 12A"/>
    <tag k="addr:state" v="VT"/>
    <tag k="ref:vcgi:esiteid" v="181541"/>
  </node>
  <node id="-1595" visible="true" lat="44.11790045" lon="-72.68993853">
    <tag k="addr:housenumber" v="454"/>
    <tag k="addr:street" v="Freeman Road"/>
    <tag k="addr:state" v="VT"/>
    <tag k="ref:vcgi:esiteid" v="181542"/>
  </node>
  <node id="-1596" visible="true" lat="44.11792404" lon="-72.66974271">
    <tag k="addr:housenumber" v="1299"/>
    <tag k="addr:street" v="Vermont Route 12A"/>
    <tag k="addr:state" v="VT"/>
    <tag k="ref:vcgi:esiteid" v="181543"/>
  </node>
  <node id="-1597" visible="true" lat="44.11790847" lon="-72.62680053">
    <tag k="addr:housenumber" v="1755"/>
    <tag k="addr:street" v="Vermont Route 64"/>
    <tag k="addr:state" v="VT"/>
    <tag k="ref:vcgi:esiteid" v="181544"/>
  </node>
  <node id="-1598" visible="true" lat="44.11806265" lon="-72.65458577">
    <tag k="addr:housenumber" v="1087"/>
    <tag k="addr:street" v="Vermont Route 12 South"/>
    <tag k="addr:state" v="VT"/>
    <tag k="ref:vcgi:esiteid" v="181545"/>
  </node>
  <node id="-1600" visible="true" lat="44.11770703" lon="-72.67337986">
    <tag k="addr:housenumber" v="1474"/>
    <tag k="addr:street" v="Vermont Route 12A"/>
    <tag k="addr:state" v="VT"/>
    <tag k="ref:vcgi:esiteid" v="181547"/>
  </node>
  <node id="-1601" visible="true" lat="44.11769773" lon="-72.71702631">
    <tag k="addr:housenumber" v="4093"/>
    <tag k="addr:street" v="Vermont Route 12A"/>
    <tag k="addr:state" v="VT"/>
    <tag k="ref:vcgi:esiteid" v="181548"/>
  </node>
  <node id="-1602" visible="true" lat="44.117641" lon="-72.67366131">
    <tag k="addr:housenumber" v="1486"/>
    <tag k="addr:street" v="Vermont Route 12A"/>
    <tag k="addr:state" v="VT"/>
    <tag k="ref:vcgi:esiteid" v="181549"/>
  </node>
  <node id="-1603" visible="true" lat="44.11750576" lon="-72.6715697">
    <tag k="addr:housenumber" v="1364"/>
    <tag k="addr:street" v="Vermont Route 12A"/>
    <tag k="addr:state" v="VT"/>
    <tag k="ref:vcgi:esiteid" v="181550"/>
  </node>
  <node id="-1605" visible="true" lat="44.11740608" lon="-72.72914115">
    <tag k="addr:housenumber" v="427"/>
    <tag k="addr:street" v="Rabbit Hollow Road"/>
    <tag k="addr:state" v="VT"/>
    <tag k="ref:vcgi:esiteid" v="181552"/>
  </node>
  <node id="-1607" visible="true" lat="44.11738538" lon="-72.65507207">
    <tag k="addr:housenumber" v="1105"/>
    <tag k="addr:street" v="Vermont Route 12 South"/>
    <tag k="addr:state" v="VT"/>
    <tag k="ref:vcgi:esiteid" v="181554"/>
  </node>
  <node id="-1608" visible="true" lat="44.11720255" lon="-72.67146431">
    <tag k="addr:housenumber" v="1363"/>
    <tag k="addr:street" v="Vermont Route 12A"/>
    <tag k="addr:state" v="VT"/>
    <tag k="ref:vcgi:esiteid" v="181555"/>
  </node>
  <node id="-1609" visible="true" lat="44.1173099" lon="-72.61526329">
    <tag k="addr:housenumber" v="112"/>
    <tag k="addr:street" v="Sanders Drive"/>
    <tag k="addr:state" v="VT"/>
    <tag k="ref:vcgi:esiteid" v="181556"/>
  </node>
  <node id="-1610" visible="true" lat="44.11727352" lon="-72.62772196">
    <tag k="addr:housenumber" v="1714"/>
    <tag k="addr:street" v="Vermont Route 64"/>
    <tag k="addr:state" v="VT"/>
    <tag k="ref:vcgi:esiteid" v="181557"/>
  </node>
  <node id="-1611" visible="true" lat="44.11718273" lon="-72.65490482">
    <tag k="addr:housenumber" v="1121"/>
    <tag k="addr:street" v="Vermont Route 12 South"/>
    <tag k="addr:state" v="VT"/>
    <tag k="ref:vcgi:esiteid" v="181558"/>
  </node>
  <node id="-1612" visible="true" lat="44.11718731" lon="-72.70553299">
    <tag k="addr:housenumber" v="3382"/>
    <tag k="addr:street" v="Vermont Route 12A"/>
    <tag k="addr:state" v="VT"/>
    <tag k="ref:vcgi:esiteid" v="181560"/>
  </node>
  <node id="-1613" visible="true" lat="44.11708011" lon="-72.70182708">
    <tag k="addr:housenumber" v="116"/>
    <tag k="addr:street" v="Little Northfield Road"/>
    <tag k="addr:state" v="VT"/>
    <tag k="ref:vcgi:esiteid" v="181561"/>
  </node>
  <node id="-1614" visible="true" lat="44.11699382" lon="-72.67211913">
    <tag k="addr:housenumber" v="1405"/>
    <tag k="addr:street" v="Vermont Route 12A"/>
    <tag k="addr:state" v="VT"/>
    <tag k="ref:vcgi:esiteid" v="181562"/>
  </node>
  <node id="-1615" visible="true" lat="44.11696639" lon="-72.61437966">
    <tag k="addr:housenumber" v="68"/>
    <tag k="addr:street" v="Sanders Drive"/>
    <tag k="addr:state" v="VT"/>
    <tag k="ref:vcgi:esiteid" v="181563"/>
  </node>
  <node id="-1616" visible="true" lat="44.1170779" lon="-72.68148272">
    <tag k="addr:housenumber" v="388"/>
    <tag k="addr:street" v="Homewilde Lane"/>
    <tag k="addr:state" v="VT"/>
    <tag k="ref:vcgi:esiteid" v="181564"/>
  </node>
  <node id="-1617" visible="true" lat="44.11687743" lon="-72.68982024">
    <tag k="addr:housenumber" v="433"/>
    <tag k="addr:street" v="Freeman Road"/>
    <tag k="addr:state" v="VT"/>
    <tag k="ref:vcgi:esiteid" v="181565"/>
  </node>
  <node id="-1618" visible="true" lat="44.11684462" lon="-72.72705759">
    <tag k="addr:housenumber" v="266"/>
    <tag k="addr:street" v="Rabbit Hollow Road"/>
    <tag k="addr:state" v="VT"/>
    <tag k="ref:vcgi:esiteid" v="181566"/>
  </node>
  <node id="-1619" visible="true" lat="44.11667439" lon="-72.72807799">
    <tag k="addr:housenumber" v="239"/>
    <tag k="addr:street" v="Rabbit Hollow Road"/>
    <tag k="addr:state" v="VT"/>
    <tag k="ref:vcgi:esiteid" v="181567"/>
  </node>
  <node id="-1620" visible="true" lat="44.11661991" lon="-72.61477009">
    <tag k="addr:housenumber" v="61"/>
    <tag k="addr:street" v="Sanders Drive"/>
    <tag k="addr:state" v="VT"/>
    <tag k="ref:vcgi:esiteid" v="181568"/>
  </node>
  <node id="-1621" visible="true" lat="44.11676332" lon="-72.68879435">
    <tag k="addr:housenumber" v="326"/>
    <tag k="addr:street" v="Freeman Road"/>
    <tag k="addr:state" v="VT"/>
    <tag k="ref:vcgi:esiteid" v="181569"/>
  </node>
  <node id="-1622" visible="true" lat="44.11669158" lon="-72.68778991">
    <tag k="addr:housenumber" v="312"/>
    <tag k="addr:street" v="Freeman Road"/>
    <tag k="addr:state" v="VT"/>
    <tag k="ref:vcgi:esiteid" v="181570"/>
  </node>
  <node id="-1624" visible="true" lat="44.11657687" lon="-72.72007561">
    <tag k="addr:housenumber" v="4206"/>
    <tag k="addr:street" v="Vermont Route 12A"/>
    <tag k="addr:state" v="VT"/>
    <tag k="ref:vcgi:esiteid" v="181572"/>
  </node>
  <node id="-1625" visible="true" lat="44.11655173" lon="-72.64865515">
    <tag k="addr:housenumber" v="605"/>
    <tag k="addr:street" v="Vermont Route 64"/>
    <tag k="addr:state" v="VT"/>
    <tag k="ref:vcgi:esiteid" v="181573"/>
  </node>
  <node id="-1626" visible="true" lat="44.11637383" lon="-72.6669933">
    <tag k="addr:housenumber" v="13"/>
    <tag k="addr:street" v="Bull Run Road"/>
    <tag k="addr:state" v="VT"/>
    <tag k="ref:vcgi:esiteid" v="181574"/>
  </node>
  <node id="-1627" visible="true" lat="44.11626638" lon="-72.6865886">
    <tag k="addr:housenumber" v="177"/>
    <tag k="addr:street" v="Homewilde Lane"/>
    <tag k="addr:state" v="VT"/>
    <tag k="ref:vcgi:esiteid" v="181575"/>
  </node>
  <node id="-1628" visible="true" lat="44.11629812" lon="-72.70273914">
    <tag k="addr:housenumber" v="3232"/>
    <tag k="addr:street" v="Vermont Route 12A"/>
    <tag k="addr:state" v="VT"/>
    <tag k="ref:vcgi:esiteid" v="181576"/>
  </node>
  <node id="-1629" visible="true" lat="44.11629068" lon="-72.65527231">
    <tag k="addr:housenumber" v="1168"/>
    <tag k="addr:street" v="Vermont Route 12 South"/>
    <tag k="addr:state" v="VT"/>
    <tag k="ref:vcgi:esiteid" v="181577"/>
  </node>
  <node id="-1630" visible="true" lat="44.11639772" lon="-72.65437717">
    <tag k="addr:housenumber" v="1183"/>
    <tag k="addr:street" v="Vermont Route 12 South"/>
    <tag k="addr:state" v="VT"/>
    <tag k="ref:vcgi:esiteid" v="181578"/>
  </node>
  <node id="-1631" visible="true" lat="44.11634075" lon="-72.66924969">
    <tag k="addr:housenumber" v="17"/>
    <tag k="addr:street" v="Tracy Hill Road"/>
    <tag k="addr:state" v="VT"/>
    <tag k="ref:vcgi:esiteid" v="181579"/>
  </node>
  <node id="-1632" visible="true" lat="44.11612838" lon="-72.71650353">
    <tag k="addr:housenumber" v="167"/>
    <tag k="addr:street" v="Potato Hill"/>
    <tag k="addr:state" v="VT"/>
    <tag k="ref:vcgi:esiteid" v="181580"/>
  </node>
  <node id="-1633" visible="true" lat="44.11607566" lon="-72.67438737">
    <tag k="addr:housenumber" v="1511"/>
    <tag k="addr:street" v="Vermont Route 12A"/>
    <tag k="addr:state" v="VT"/>
    <tag k="ref:vcgi:esiteid" v="181581"/>
  </node>
  <node id="-1634" visible="true" lat="44.11570877" lon="-72.72021462">
    <tag k="addr:housenumber" v="4213"/>
    <tag k="addr:street" v="Vermont Route 12A"/>
    <tag k="addr:state" v="VT"/>
    <tag k="ref:vcgi:esiteid" v="181582"/>
  </node>
  <node id="-1635" visible="true" lat="44.11591157" lon="-72.65555523">
    <tag k="addr:housenumber" v="1170"/>
    <tag k="addr:street" v="Vermont Route 12 South"/>
    <tag k="addr:state" v="VT"/>
    <tag k="ref:vcgi:esiteid" v="181583"/>
  </node>
  <node id="-1636" visible="true" lat="44.11581251" lon="-72.70524751">
    <tag k="addr:housenumber" v="3491"/>
    <tag k="addr:street" v="Vermont Route 12A"/>
    <tag k="addr:state" v="VT"/>
    <tag k="ref:vcgi:esiteid" v="181584"/>
  </node>
  <node id="-1637" visible="true" lat="44.11561048" lon="-72.72056176">
    <tag k="addr:housenumber" v="4215"/>
    <tag k="addr:street" v="Vermont Route 12A"/>
    <tag k="addr:state" v="VT"/>
    <tag k="ref:vcgi:esiteid" v="181585"/>
  </node>
  <node id="-1638" visible="true" lat="44.11566215" lon="-72.69022969">
    <tag k="addr:housenumber" v="435"/>
    <tag k="addr:street" v="Freeman Road"/>
    <tag k="addr:state" v="VT"/>
    <tag k="ref:vcgi:esiteid" v="181586"/>
  </node>
  <node id="-1639" visible="true" lat="44.11545489" lon="-72.68384837">
    <tag k="addr:housenumber" v="266"/>
    <tag k="addr:street" v="Homewilde Lane"/>
    <tag k="addr:state" v="VT"/>
    <tag k="ref:vcgi:esiteid" v="181587"/>
  </node>
  <node id="-1640" visible="true" lat="44.11571023" lon="-72.65425262">
    <tag k="addr:housenumber" v="1233"/>
    <tag k="addr:street" v="Vermont Route 12 South"/>
    <tag k="addr:state" v="VT"/>
    <tag k="ref:vcgi:esiteid" v="181588"/>
  </node>
  <node id="-1642" visible="true" lat="44.1155152" lon="-72.65455">
    <tag k="addr:housenumber" v="1232"/>
    <tag k="addr:street" v="Vermont Route 12 South"/>
    <tag k="addr:state" v="VT"/>
    <tag k="ref:vcgi:esiteid" v="181590"/>
  </node>
  <node id="-1643" visible="true" lat="44.11554506" lon="-72.65408723">
    <tag k="addr:housenumber" v="1245"/>
    <tag k="addr:street" v="Vermont Route 12 South"/>
    <tag k="addr:state" v="VT"/>
    <tag k="ref:vcgi:esiteid" v="181591"/>
  </node>
  <node id="-1644" visible="true" lat="44.1153376" lon="-72.64169079">
    <tag k="addr:housenumber" v="87"/>
    <tag k="addr:street" v="Bailey Road"/>
    <tag k="addr:state" v="VT"/>
    <tag k="ref:vcgi:esiteid" v="181592"/>
  </node>
  <node id="-1645" visible="true" lat="44.11527245" lon="-72.70676283">
    <tag k="addr:housenumber" v="3489"/>
    <tag k="addr:street" v="Vermont Route 12A"/>
    <tag k="addr:state" v="VT"/>
    <tag k="ref:vcgi:esiteid" v="181593"/>
  </node>
  <node id="-1646" visible="true" lat="44.11536388" lon="-72.65395995">
    <tag k="addr:housenumber" v="1257"/>
    <tag k="addr:street" v="Vermont Route 12 South"/>
    <tag k="addr:state" v="VT"/>
    <tag k="ref:vcgi:esiteid" v="181594"/>
  </node>
  <node id="-1647" visible="true" lat="44.11531731" lon="-72.64203516">
    <tag k="addr:housenumber" v="85"/>
    <tag k="addr:street" v="Bailey Road"/>
    <tag k="addr:state" v="VT"/>
    <tag k="ref:vcgi:esiteid" v="181595"/>
  </node>
  <node id="-1648" visible="true" lat="44.11529711" lon="-72.65380494">
    <tag k="addr:housenumber" v="1267"/>
    <tag k="addr:street" v="Vermont Route 12 South"/>
    <tag k="addr:state" v="VT"/>
    <tag k="ref:vcgi:esiteid" v="181596"/>
  </node>
  <node id="-1649" visible="true" lat="44.11514184" lon="-72.72529704">
    <tag k="addr:housenumber" v="96"/>
    <tag k="addr:street" v="Rabbit Hollow Road"/>
    <tag k="addr:state" v="VT"/>
    <tag k="ref:vcgi:esiteid" v="181597"/>
  </node>
  <node id="-1650" visible="true" lat="44.11519241" lon="-72.6542282">
    <tag k="addr:housenumber" v="1258"/>
    <tag k="addr:street" v="Vermont Route 12 South"/>
    <tag k="addr:state" v="VT"/>
    <tag k="ref:vcgi:esiteid" v="181598"/>
  </node>
  <node id="-1651" visible="true" lat="44.11517229" lon="-72.68931372">
    <tag k="addr:housenumber" v="283"/>
    <tag k="addr:street" v="Freeman Road"/>
    <tag k="addr:state" v="VT"/>
    <tag k="ref:vcgi:esiteid" v="181599"/>
  </node>
  <node id="-1652" visible="true" lat="44.11528256" lon="-72.61365986">
    <tag k="addr:housenumber" v="2551"/>
    <tag k="addr:street" v="Vermont Route 64"/>
    <tag k="addr:state" v="VT"/>
    <tag k="ref:vcgi:esiteid" v="181600"/>
  </node>
  <node id="-1653" visible="true" lat="44.11521211" lon="-72.64617377">
    <tag k="addr:housenumber" v="439"/>
    <tag k="addr:street" v="Old Mill Hill"/>
    <tag k="addr:state" v="VT"/>
    <tag k="ref:vcgi:esiteid" v="181601"/>
  </node>
  <node id="-1654" visible="true" lat="44.11502838" lon="-72.72158813">
    <tag k="addr:housenumber" v="4303"/>
    <tag k="addr:street" v="Vermont Route 12A"/>
    <tag k="addr:state" v="VT"/>
    <tag k="ref:vcgi:esiteid" v="181602"/>
  </node>
  <node id="-1655" visible="true" lat="44.11499988" lon="-72.66458602">
    <tag k="addr:housenumber" v="638"/>
    <tag k="addr:street" v="Winch Hill Road"/>
    <tag k="addr:state" v="VT"/>
    <tag k="ref:vcgi:esiteid" v="181603"/>
  </node>
  <node id="-1656" visible="true" lat="44.11503188" lon="-72.65413782">
    <tag k="addr:housenumber" v="1272"/>
    <tag k="addr:street" v="Vermont Route 12 South"/>
    <tag k="addr:state" v="VT"/>
    <tag k="ref:vcgi:esiteid" v="181604"/>
  </node>
  <node id="-1657" visible="true" lat="44.11495292" lon="-72.64282434">
    <tag k="addr:housenumber" v="88"/>
    <tag k="addr:street" v="Bailey Road"/>
    <tag k="addr:state" v="VT"/>
    <tag k="ref:vcgi:esiteid" v="181605"/>
  </node>
  <node id="-1658" visible="true" lat="44.11497688" lon="-72.65355377">
    <tag k="addr:housenumber" v="1291"/>
    <tag k="addr:street" v="Vermont Route 12 South"/>
    <tag k="addr:state" v="VT"/>
    <tag k="ref:vcgi:esiteid" v="181606"/>
  </node>
  <node id="-1659" visible="true" lat="44.1145439" lon="-72.72531253">
    <tag k="addr:housenumber" v="83"/>
    <tag k="addr:street" v="Rabbit Hollow Road"/>
    <tag k="addr:state" v="VT"/>
    <tag k="ref:vcgi:esiteid" v="181607"/>
  </node>
  <node id="-1660" visible="true" lat="44.11461711" lon="-72.68785893">
    <tag k="addr:housenumber" v="42"/>
    <tag k="addr:street" v="Homewilde Lane"/>
    <tag k="addr:state" v="VT"/>
    <tag k="ref:vcgi:esiteid" v="181608"/>
  </node>
  <node id="-1661" visible="true" lat="44.11471063" lon="-72.65381792">
    <tag k="addr:housenumber" v="1292"/>
    <tag k="addr:street" v="Vermont Route 12 South"/>
    <tag k="addr:state" v="VT"/>
    <tag k="ref:vcgi:esiteid" v="181609"/>
  </node>
  <node id="-1662" visible="true" lat="44.11462097" lon="-72.68677301">
    <tag k="addr:housenumber" v="74"/>
    <tag k="addr:street" v="Homewilde Lane"/>
    <tag k="addr:state" v="VT"/>
    <tag k="ref:vcgi:esiteid" v="181610"/>
  </node>
  <node id="-1663" visible="true" lat="44.11472792" lon="-72.72253088">
    <tag k="addr:housenumber" v="23"/>
    <tag k="addr:street" v="Evans Road"/>
    <tag k="addr:state" v="VT"/>
    <tag k="ref:vcgi:esiteid" v="181611"/>
  </node>
  <node id="-1664" visible="true" lat="44.11481377" lon="-72.6544745">
    <tag k="addr:housenumber" v="1282"/>
    <tag k="addr:street" v="Vermont Route 12 South"/>
    <tag k="addr:state" v="VT"/>
    <tag k="ref:vcgi:esiteid" v="181612"/>
  </node>
  <node id="-1665" visible="true" lat="44.11460496" lon="-72.72361407">
    <tag k="addr:housenumber" v="4408"/>
    <tag k="addr:street" v="Vermont Route 12A"/>
    <tag k="addr:state" v="VT"/>
    <tag k="ref:vcgi:esiteid" v="181613"/>
  </node>
  <node id="-1666" visible="true" lat="44.11458618" lon="-72.65367153">
    <tag k="addr:housenumber" v="1308"/>
    <tag k="addr:street" v="Vermont Route 12 South"/>
    <tag k="addr:state" v="VT"/>
    <tag k="ref:vcgi:esiteid" v="181614"/>
  </node>
  <node id="-1668" visible="true" lat="44.11457061" lon="-72.66415405">
    <tag k="addr:housenumber" v="672"/>
    <tag k="addr:street" v="Winch Hill Road"/>
    <tag k="addr:state" v="VT"/>
    <tag k="ref:vcgi:esiteid" v="181616"/>
  </node>
  <node id="-1669" visible="true" lat="44.11455917" lon="-72.66077423">
    <tag k="addr:housenumber" v="673"/>
    <tag k="addr:street" v="Winch Hill Road"/>
    <tag k="addr:state" v="VT"/>
    <tag k="ref:vcgi:esiteid" v="181617"/>
  </node>
  <node id="-1670" visible="true" lat="44.11453978" lon="-72.72040362">
    <tag k="addr:housenumber" v="107"/>
    <tag k="addr:street" v="Evans Road"/>
    <tag k="addr:state" v="VT"/>
    <tag k="ref:vcgi:esiteid" v="181618"/>
  </node>
  <node id="-1671" visible="true" lat="44.11414959" lon="-72.70153259">
    <tag k="addr:housenumber" v="3081"/>
    <tag k="addr:street" v="Vermont Route 12A"/>
    <tag k="addr:state" v="VT"/>
    <tag k="ref:vcgi:esiteid" v="181619"/>
  </node>
  <node id="-1672" visible="true" lat="44.11435317" lon="-72.65345001">
    <tag k="addr:housenumber" v="1330"/>
    <tag k="addr:street" v="Vermont Route 12 South"/>
    <tag k="addr:state" v="VT"/>
    <tag k="ref:vcgi:esiteid" v="181620"/>
  </node>
  <node id="-1673" visible="true" lat="44.11429637" lon="-72.69994324">
    <tag k="addr:housenumber" v="2954"/>
    <tag k="addr:street" v="Vermont Route 12A"/>
    <tag k="addr:state" v="VT"/>
    <tag k="ref:vcgi:esiteid" v="181621"/>
  </node>
  <node id="-1674" visible="true" lat="44.11461937" lon="-72.62007043">
    <tag k="addr:housenumber" v="2223"/>
    <tag k="addr:street" v="Vermont Route 64"/>
    <tag k="addr:state" v="VT"/>
    <tag k="ref:vcgi:esiteid" v="181622"/>
  </node>
  <node id="-1675" visible="true" lat="44.11438231" lon="-72.6497316">
    <tag k="addr:housenumber" v="239"/>
    <tag k="addr:street" v="Old Mill Hill"/>
    <tag k="addr:state" v="VT"/>
    <tag k="ref:vcgi:esiteid" v="181623"/>
  </node>
  <node id="-1676" visible="true" lat="44.11420741" lon="-72.70076937">
    <tag k="addr:housenumber" v="3040"/>
    <tag k="addr:street" v="Vermont Route 12A"/>
    <tag k="addr:state" v="VT"/>
    <tag k="ref:vcgi:esiteid" v="181624"/>
  </node>
  <node id="-1677" visible="true" lat="44.11406195" lon="-72.65328208">
    <tag k="addr:housenumber" v="1352"/>
    <tag k="addr:street" v="Vermont Route 12 South"/>
    <tag k="addr:state" v="VT"/>
    <tag k="ref:vcgi:esiteid" v="181625"/>
  </node>
  <node id="-1678" visible="true" lat="44.11391518" lon="-72.70117921">
    <tag k="addr:housenumber" v="3051"/>
    <tag k="addr:street" v="Vermont Route 12A"/>
    <tag k="addr:state" v="VT"/>
    <tag k="ref:vcgi:esiteid" v="181626"/>
  </node>
  <node id="-1679" visible="true" lat="44.11390754" lon="-72.64176208">
    <tag k="addr:housenumber" v="179"/>
    <tag k="addr:street" v="Bailey Road"/>
    <tag k="addr:state" v="VT"/>
    <tag k="ref:vcgi:esiteid" v="181627"/>
  </node>
  <node id="-1680" visible="true" lat="44.11380604" lon="-72.65263777">
    <tag k="addr:housenumber" v="1379"/>
    <tag k="addr:street" v="Vermont Route 12 South"/>
    <tag k="addr:state" v="VT"/>
    <tag k="ref:vcgi:esiteid" v="181628"/>
  </node>
  <node id="-1681" visible="true" lat="44.11379875" lon="-72.65169304">
    <tag k="addr:housenumber" v="135"/>
    <tag k="addr:street" v="Old Mill Hill"/>
    <tag k="addr:state" v="VT"/>
    <tag k="ref:vcgi:esiteid" v="181629"/>
  </node>
  <node id="-1682" visible="true" lat="44.11361988" lon="-72.71966963">
    <tag k="addr:housenumber" v="193"/>
    <tag k="addr:street" v="Evans Road"/>
    <tag k="addr:state" v="VT"/>
    <tag k="ref:vcgi:esiteid" v="181630"/>
  </node>
  <node id="-1683" visible="true" lat="44.11348068" lon="-72.66629657">
    <tag k="addr:housenumber" v="818"/>
    <tag k="addr:street" v="Winch Hill Road"/>
    <tag k="addr:state" v="VT"/>
    <tag k="ref:vcgi:esiteid" v="181631"/>
  </node>
  <node id="-1684" visible="true" lat="44.11344138" lon="-72.69808954">
    <tag k="addr:housenumber" v="2904"/>
    <tag k="addr:street" v="Vermont Route 12A"/>
    <tag k="addr:state" v="VT"/>
    <tag k="ref:vcgi:esiteid" v="181632"/>
  </node>
  <node id="-1685" visible="true" lat="44.11303146" lon="-72.68833558">
    <tag k="addr:housenumber" v="164"/>
    <tag k="addr:street" v="Freeman Road"/>
    <tag k="addr:state" v="VT"/>
    <tag k="ref:vcgi:esiteid" v="181633"/>
  </node>
  <node id="-1686" visible="true" lat="44.11342586" lon="-72.6897857">
    <tag k="addr:housenumber" v="139"/>
    <tag k="addr:street" v="Freeman Road"/>
    <tag k="addr:state" v="VT"/>
    <tag k="ref:vcgi:esiteid" v="181634"/>
  </node>
  <node id="-1688" visible="true" lat="44.11321713" lon="-72.69709338">
    <tag k="addr:housenumber" v="2850"/>
    <tag k="addr:street" v="Vermont Route 12A"/>
    <tag k="addr:state" v="VT"/>
    <tag k="ref:vcgi:esiteid" v="181636"/>
  </node>
  <node id="-1689" visible="true" lat="44.11320819" lon="-72.66681744">
    <tag k="addr:housenumber" v="868"/>
    <tag k="addr:street" v="Winch Hill Road"/>
    <tag k="addr:state" v="VT"/>
    <tag k="ref:vcgi:esiteid" v="181637"/>
  </node>
  <node id="-1690" visible="true" lat="44.11311195" lon="-72.69636113">
    <tag k="addr:housenumber" v="2814"/>
    <tag k="addr:street" v="Vermont Route 12A"/>
    <tag k="addr:state" v="VT"/>
    <tag k="ref:vcgi:esiteid" v="181638"/>
  </node>
  <node id="-1691" visible="true" lat="44.11277839" lon="-72.69900213">
    <tag k="addr:housenumber" v="2925"/>
    <tag k="addr:street" v="Vermont Route 12A"/>
    <tag k="addr:state" v="VT"/>
    <tag k="ref:vcgi:esiteid" v="181639"/>
  </node>
  <node id="-1692" visible="true" lat="44.11307009" lon="-72.61827202">
    <tag k="addr:housenumber" v="202"/>
    <tag k="addr:street" v="Robinson Road"/>
    <tag k="addr:state" v="VT"/>
    <tag k="ref:vcgi:esiteid" v="181640"/>
  </node>
  <node id="-1693" visible="true" lat="44.11280098" lon="-72.61628903">
    <tag k="addr:housenumber" v="189"/>
    <tag k="addr:street" v="Robinson Road"/>
    <tag k="addr:state" v="VT"/>
    <tag k="ref:vcgi:esiteid" v="181641"/>
  </node>
  <node id="-1694" visible="true" lat="44.11257716" lon="-72.6898649">
    <tag k="addr:housenumber" v="81"/>
    <tag k="addr:street" v="Freeman Road"/>
    <tag k="addr:state" v="VT"/>
    <tag k="ref:vcgi:esiteid" v="181642"/>
  </node>
  <node id="-1695" visible="true" lat="44.11281386" lon="-72.64221045">
    <tag k="addr:housenumber" v="315"/>
    <tag k="addr:street" v="Bailey Road"/>
    <tag k="addr:state" v="VT"/>
    <tag k="ref:vcgi:esiteid" v="181643"/>
  </node>
  <node id="-1696" visible="true" lat="44.11230441" lon="-72.6441494">
    <tag k="addr:housenumber" v="272"/>
    <tag k="addr:street" v="Bailey Road"/>
    <tag k="addr:state" v="VT"/>
    <tag k="ref:vcgi:esiteid" v="181644"/>
  </node>
  <node id="-1697" visible="true" lat="44.11197292" lon="-72.65051011">
    <tag k="addr:housenumber" v="1543"/>
    <tag k="addr:street" v="Vermont Route 12 South"/>
    <tag k="addr:state" v="VT"/>
    <tag k="ref:vcgi:esiteid" v="181645"/>
  </node>
  <node id="-1698" visible="true" lat="44.11174955" lon="-72.64180028">
    <tag k="addr:housenumber" v="317"/>
    <tag k="addr:street" v="Bailey Road"/>
    <tag k="addr:state" v="VT"/>
    <tag k="ref:vcgi:esiteid" v="181646"/>
  </node>
  <node id="-1699" visible="true" lat="44.11164876" lon="-72.64854898">
    <tag k="addr:housenumber" v="1579"/>
    <tag k="addr:street" v="Vermont Route 12 South"/>
    <tag k="addr:state" v="VT"/>
    <tag k="ref:vcgi:esiteid" v="181647"/>
  </node>
  <node id="-1700" visible="true" lat="44.11179692" lon="-72.69056058">
    <tag k="addr:housenumber" v="2474"/>
    <tag k="addr:street" v="Vermont Route 12A"/>
    <tag k="addr:state" v="VT"/>
    <tag k="ref:vcgi:esiteid" v="181648"/>
  </node>
  <node id="-1701" visible="true" lat="44.11175155" lon="-72.68783569">
    <tag k="addr:housenumber" v="2364"/>
    <tag k="addr:street" v="Vermont Route 12A"/>
    <tag k="addr:state" v="VT"/>
    <tag k="ref:vcgi:esiteid" v="181649"/>
  </node>
  <node id="-1702" visible="true" lat="44.11163392" lon="-72.68995215">
    <tag k="addr:housenumber" v="2472"/>
    <tag k="addr:street" v="Vermont Route 12A"/>
    <tag k="addr:state" v="VT"/>
    <tag k="ref:vcgi:esiteid" v="181650"/>
  </node>
  <node id="-1703" visible="true" lat="44.11140526" lon="-72.64429505">
    <tag k="addr:housenumber" v="324"/>
    <tag k="addr:street" v="Bailey Road"/>
    <tag k="addr:state" v="VT"/>
    <tag k="ref:vcgi:esiteid" v="181651"/>
  </node>
  <node id="-1704" visible="true" lat="44.11116167" lon="-72.64263698">
    <tag k="addr:housenumber" v="371"/>
    <tag k="addr:street" v="Bailey Road"/>
    <tag k="addr:state" v="VT"/>
    <tag k="ref:vcgi:esiteid" v="181652"/>
  </node>
  <node id="-1705" visible="true" lat="44.1108551" lon="-72.65049743">
    <tag k="addr:housenumber" v="1618"/>
    <tag k="addr:street" v="Vermont Route 12 South"/>
    <tag k="addr:state" v="VT"/>
    <tag k="ref:vcgi:esiteid" v="181653"/>
  </node>
  <node id="-1706" visible="true" lat="44.11064395" lon="-72.64461429">
    <tag k="addr:housenumber" v="358"/>
    <tag k="addr:street" v="Bailey Road"/>
    <tag k="addr:state" v="VT"/>
    <tag k="ref:vcgi:esiteid" v="181654"/>
  </node>
  <node id="-1707" visible="true" lat="44.11052145" lon="-72.65065153">
    <tag k="addr:housenumber" v="1664"/>
    <tag k="addr:street" v="Vermont Route 12 South"/>
    <tag k="addr:state" v="VT"/>
    <tag k="ref:vcgi:esiteid" v="181655"/>
  </node>
  <node id="-1709" visible="true" lat="44.11013891" lon="-72.64342567">
    <tag k="addr:housenumber" v="422"/>
    <tag k="addr:street" v="Bailey Road"/>
    <tag k="addr:state" v="VT"/>
    <tag k="ref:vcgi:esiteid" v="181657"/>
  </node>
  <node id="-1710" visible="true" lat="44.10999298" lon="-72.65003204">
    <tag k="addr:housenumber" v="1680"/>
    <tag k="addr:street" v="Vermont Route 12 South"/>
    <tag k="addr:state" v="VT"/>
    <tag k="ref:vcgi:esiteid" v="181658"/>
  </node>
  <node id="-1711" visible="true" lat="44.10932903" lon="-72.64289914">
    <tag k="addr:housenumber" v="486"/>
    <tag k="addr:street" v="Bailey Road"/>
    <tag k="addr:state" v="VT"/>
    <tag k="ref:vcgi:esiteid" v="181659"/>
  </node>
  <node id="-1713" visible="true" lat="44.10883664" lon="-72.67676099">
    <tag k="addr:housenumber" v="740"/>
    <tag k="addr:street" v="Bull Run Road"/>
    <tag k="addr:state" v="VT"/>
    <tag k="ref:vcgi:esiteid" v="181661"/>
  </node>
  <node id="-1715" visible="true" lat="44.10817051" lon="-72.66884776">
    <tag k="addr:housenumber" v="1200"/>
    <tag k="addr:street" v="Winch Hill Road"/>
    <tag k="addr:state" v="VT"/>
    <tag k="ref:vcgi:esiteid" v="181663"/>
  </node>
  <node id="-1717" visible="true" lat="44.10804603" lon="-72.68448672">
    <tag k="addr:housenumber" v="388"/>
    <tag k="addr:street" v="Messier Hill Road"/>
    <tag k="addr:state" v="VT"/>
    <tag k="ref:vcgi:esiteid" v="181665"/>
  </node>
  <node id="-1718" visible="true" lat="44.10789752" lon="-72.68481668">
    <tag k="addr:housenumber" v="386"/>
    <tag k="addr:street" v="Messier Hill Road"/>
    <tag k="addr:state" v="VT"/>
    <tag k="ref:vcgi:esiteid" v="181666"/>
  </node>
  <node id="-1719" visible="true" lat="44.10795979" lon="-72.64240318">
    <tag k="addr:housenumber" v="590"/>
    <tag k="addr:street" v="Bailey Road"/>
    <tag k="addr:state" v="VT"/>
    <tag k="ref:vcgi:esiteid" v="181667"/>
  </node>
  <node id="-1720" visible="true" lat="44.10768314" lon="-72.64064858">
    <tag k="addr:housenumber" v="681"/>
    <tag k="addr:street" v="Bailey Road"/>
    <tag k="addr:state" v="VT"/>
    <tag k="ref:vcgi:esiteid" v="181668"/>
  </node>
  <node id="-1722" visible="true" lat="44.10772733" lon="-72.61848006">
    <tag k="addr:housenumber" v="43"/>
    <tag k="addr:street" v="Apple Lane"/>
    <tag k="addr:state" v="VT"/>
    <tag k="ref:vcgi:esiteid" v="181670"/>
  </node>
  <node id="-1723" visible="true" lat="44.10756314" lon="-72.64148791">
    <tag k="addr:housenumber" v="659"/>
    <tag k="addr:street" v="Bailey Road"/>
    <tag k="addr:state" v="VT"/>
    <tag k="ref:vcgi:esiteid" v="181671"/>
  </node>
  <node id="-1724" visible="true" lat="44.10726892" lon="-72.66907644">
    <tag k="addr:housenumber" v="1260"/>
    <tag k="addr:street" v="Winch Hill Road"/>
    <tag k="addr:state" v="VT"/>
    <tag k="ref:vcgi:esiteid" v="181672"/>
  </node>
  <node id="-1725" visible="true" lat="44.10717188" lon="-72.64014475">
    <tag k="addr:housenumber" v="745"/>
    <tag k="addr:street" v="Bailey Road"/>
    <tag k="addr:state" v="VT"/>
    <tag k="ref:vcgi:esiteid" v="181673"/>
  </node>
  <node id="-1726" visible="true" lat="44.10714561" lon="-72.63858704">
    <tag k="addr:housenumber" v="767"/>
    <tag k="addr:street" v="Bailey Road"/>
    <tag k="addr:state" v="VT"/>
    <tag k="ref:vcgi:esiteid" v="181674"/>
  </node>
  <node id="-1727" visible="true" lat="44.10686874" lon="-72.63751983">
    <tag k="addr:housenumber" v="843"/>
    <tag k="addr:street" v="Bailey Road"/>
    <tag k="addr:state" v="VT"/>
    <tag k="ref:vcgi:esiteid" v="181675"/>
  </node>
  <node id="-1731" visible="true" lat="44.10637177" lon="-72.63946235">
    <tag k="addr:housenumber" v="762"/>
    <tag k="addr:street" v="Bailey Road"/>
    <tag k="addr:state" v="VT"/>
    <tag k="ref:vcgi:esiteid" v="181679"/>
  </node>
  <node id="-1733" visible="true" lat="44.10638619" lon="-72.67712802">
    <tag k="addr:housenumber" v="141"/>
    <tag k="addr:street" v="Camp Wihakowi Road"/>
    <tag k="addr:state" v="VT"/>
    <tag k="ref:vcgi:esiteid" v="181681"/>
  </node>
  <node id="-1734" visible="true" lat="44.10627365" lon="-72.67745971">
    <tag k="addr:housenumber" v="138"/>
    <tag k="addr:street" v="Camp Wihakowi Road"/>
    <tag k="addr:state" v="VT"/>
    <tag k="ref:vcgi:esiteid" v="181682"/>
  </node>
  <node id="-1737" visible="true" lat="44.10616302" lon="-72.67963409">
    <tag k="addr:housenumber" v="201"/>
    <tag k="addr:street" v="Messier Hill Road"/>
    <tag k="addr:state" v="VT"/>
    <tag k="ref:vcgi:esiteid" v="181685"/>
  </node>
  <node id="-1740" visible="true" lat="44.10611068" lon="-72.67705255">
    <tag k="addr:housenumber" v="168"/>
    <tag k="addr:street" v="Camp Wihakowi Road"/>
    <tag k="addr:state" v="VT"/>
    <tag k="ref:vcgi:esiteid" v="181688"/>
  </node>
  <node id="-1741" visible="true" lat="44.10607528" lon="-72.6774826">
    <tag k="addr:housenumber" v="144"/>
    <tag k="addr:street" v="Camp Wihakowi Road"/>
    <tag k="addr:state" v="VT"/>
    <tag k="ref:vcgi:esiteid" v="181689"/>
  </node>
  <node id="-1742" visible="true" lat="44.10596092" lon="-72.67704055">
    <tag k="addr:housenumber" v="170"/>
    <tag k="addr:street" v="Camp Wihakowi Road"/>
    <tag k="addr:state" v="VT"/>
    <tag k="ref:vcgi:esiteid" v="181690"/>
  </node>
  <node id="-1743" visible="true" lat="44.10613974" lon="-72.68641806">
    <tag k="addr:housenumber" v="500"/>
    <tag k="addr:street" v="Messier Hill Road"/>
    <tag k="addr:state" v="VT"/>
    <tag k="ref:vcgi:esiteid" v="181691"/>
  </node>
  <node id="-1744" visible="true" lat="44.1060028" lon="-72.67746734">
    <tag k="addr:housenumber" v="148"/>
    <tag k="addr:street" v="Camp Wihakowi Road"/>
    <tag k="addr:state" v="VT"/>
    <tag k="ref:vcgi:esiteid" v="181692"/>
  </node>
  <node id="-1745" visible="true" lat="44.10589542" lon="-72.67664478">
    <tag k="addr:housenumber" v="183"/>
    <tag k="addr:street" v="Camp Wihakowi Road"/>
    <tag k="addr:state" v="VT"/>
    <tag k="ref:vcgi:esiteid" v="181693"/>
  </node>
  <node id="-1746" visible="true" lat="44.10586148" lon="-72.67740394">
    <tag k="addr:housenumber" v="186"/>
    <tag k="addr:street" v="Camp Wihakowi Road"/>
    <tag k="addr:state" v="VT"/>
    <tag k="ref:vcgi:esiteid" v="181694"/>
  </node>
  <node id="-1748" visible="true" lat="44.10558601" lon="-72.6696314">
    <tag k="addr:housenumber" v="1334"/>
    <tag k="addr:street" v="Winch Hill Road"/>
    <tag k="addr:state" v="VT"/>
    <tag k="ref:vcgi:esiteid" v="181696"/>
  </node>
  <node id="-1749" visible="true" lat="44.1053071" lon="-72.67548388">
    <tag k="addr:housenumber" v="919"/>
    <tag k="addr:street" v="Bull Run Road"/>
    <tag k="addr:state" v="VT"/>
    <tag k="ref:vcgi:esiteid" v="181697"/>
  </node>
  <node id="-1750" visible="true" lat="44.10557018" lon="-72.63775588">
    <tag k="addr:housenumber" v="880"/>
    <tag k="addr:street" v="Bailey Road"/>
    <tag k="addr:state" v="VT"/>
    <tag k="ref:vcgi:esiteid" v="181698"/>
  </node>
  <node id="-1755" visible="true" lat="44.10499343" lon="-72.62211771">
    <tag k="addr:housenumber" v="806"/>
    <tag k="addr:street" v="Loop Road"/>
    <tag k="addr:state" v="VT"/>
    <tag k="ref:vcgi:esiteid" v="181703"/>
  </node>
  <node id="-1761" visible="true" lat="44.10345459" lon="-72.63652801">
    <tag k="addr:housenumber" v="1040"/>
    <tag k="addr:street" v="Bailey Road"/>
    <tag k="addr:state" v="VT"/>
    <tag k="ref:vcgi:esiteid" v="181709"/>
  </node>
  <node id="-1762" visible="true" lat="44.10337351" lon="-72.63554142">
    <tag k="addr:housenumber" v="1057"/>
    <tag k="addr:street" v="Bailey Road"/>
    <tag k="addr:state" v="VT"/>
    <tag k="ref:vcgi:esiteid" v="181710"/>
  </node>
  <node id="-1763" visible="true" lat="44.10311354" lon="-72.62164632">
    <tag k="addr:housenumber" v="923"/>
    <tag k="addr:street" v="Loop Road"/>
    <tag k="addr:state" v="VT"/>
    <tag k="ref:vcgi:esiteid" v="181711"/>
  </node>
  <node id="-1764" visible="true" lat="44.10271072" lon="-72.6448822">
    <tag k="addr:housenumber" v="2356"/>
    <tag k="addr:street" v="Vermont Route 12 South"/>
    <tag k="addr:state" v="VT"/>
    <tag k="ref:vcgi:esiteid" v="181712"/>
  </node>
  <node id="-1765" visible="true" lat="44.10239028" lon="-72.64220428">
    <tag k="addr:housenumber" v="2371"/>
    <tag k="addr:street" v="Vermont Route 12 South"/>
    <tag k="addr:state" v="VT"/>
    <tag k="ref:vcgi:esiteid" v="181713"/>
  </node>
  <node id="-1769" visible="true" lat="44.10165945" lon="-72.62238495">
    <tag k="addr:housenumber" v="1040"/>
    <tag k="addr:street" v="Loop Road"/>
    <tag k="addr:state" v="VT"/>
    <tag k="ref:vcgi:esiteid" v="181717"/>
  </node>
  <node id="-1770" visible="true" lat="44.10134887" lon="-72.64359283">
    <tag k="addr:housenumber" v="2467"/>
    <tag k="addr:street" v="Vermont Route 12 South"/>
    <tag k="addr:state" v="VT"/>
    <tag k="ref:vcgi:esiteid" v="181718"/>
  </node>
  <node id="-1771" visible="true" lat="44.09996986" lon="-72.63621449">
    <tag k="addr:housenumber" v="1300"/>
    <tag k="addr:street" v="Bailey Road"/>
    <tag k="addr:state" v="VT"/>
    <tag k="ref:vcgi:esiteid" v="181719"/>
  </node>
  <node id="-1772" visible="true" lat="44.0986904" lon="-72.63623617">
    <tag k="addr:housenumber" v="1404"/>
    <tag k="addr:street" v="Bailey Road"/>
    <tag k="addr:state" v="VT"/>
    <tag k="ref:vcgi:esiteid" v="181720"/>
  </node>
  <node id="-1773" visible="true" lat="44.09767572" lon="-72.63532638">
    <tag k="addr:housenumber" v="1465"/>
    <tag k="addr:street" v="Bailey Road"/>
    <tag k="addr:state" v="VT"/>
    <tag k="ref:vcgi:esiteid" v="181721"/>
  </node>
  <node id="-1774" visible="true" lat="44.09784181" lon="-72.62387029">
    <tag k="addr:housenumber" v="1308"/>
    <tag k="addr:street" v="Loop Road"/>
    <tag k="addr:state" v="VT"/>
    <tag k="ref:vcgi:esiteid" v="181722"/>
  </node>
  <node id="-1776" visible="true" lat="44.09695253" lon="-72.62514399">
    <tag k="addr:housenumber" v="1408"/>
    <tag k="addr:street" v="Loop Road"/>
    <tag k="addr:state" v="VT"/>
    <tag k="ref:vcgi:esiteid" v="181724"/>
  </node>
  <node id="-1777" visible="true" lat="44.0970031" lon="-72.6354748">
    <tag k="addr:housenumber" v="1491"/>
    <tag k="addr:street" v="Bailey Road"/>
    <tag k="addr:state" v="VT"/>
    <tag k="ref:vcgi:esiteid" v="181725"/>
  </node>
  <node id="-1779" visible="true" lat="44.09640121" lon="-72.64567565">
    <tag k="addr:housenumber" v="2792"/>
    <tag k="addr:street" v="Vermont Route 12 South"/>
    <tag k="addr:state" v="VT"/>
    <tag k="ref:vcgi:esiteid" v="181727"/>
  </node>
  <node id="-1780" visible="true" lat="44.09578181" lon="-72.62763891">
    <tag k="addr:housenumber" v="1616"/>
    <tag k="addr:street" v="Loop Road"/>
    <tag k="addr:state" v="VT"/>
    <tag k="ref:vcgi:esiteid" v="181728"/>
  </node>
  <node id="-1781" visible="true" lat="44.09560863" lon="-72.62985503">
    <tag k="addr:housenumber" v="1754"/>
    <tag k="addr:street" v="Loop Road"/>
    <tag k="addr:state" v="VT"/>
    <tag k="ref:vcgi:esiteid" v="181729"/>
  </node>
  <node id="-1782" visible="true" lat="44.09535005" lon="-72.62661525">
    <tag k="addr:housenumber" v="1606"/>
    <tag k="addr:street" v="Loop Road"/>
    <tag k="addr:state" v="VT"/>
    <tag k="ref:vcgi:esiteid" v="181730"/>
  </node>
  <node id="-1783" visible="true" lat="44.09526607" lon="-72.63270657">
    <tag k="addr:housenumber" v="1862"/>
    <tag k="addr:street" v="Loop Road"/>
    <tag k="addr:state" v="VT"/>
    <tag k="ref:vcgi:esiteid" v="181731"/>
  </node>
  <node id="-1784" visible="true" lat="44.09494377" lon="-72.63550682">
    <tag k="addr:housenumber" v="1654"/>
    <tag k="addr:street" v="Bailey Road"/>
    <tag k="addr:state" v="VT"/>
    <tag k="ref:vcgi:esiteid" v="181732"/>
  </node>
  <node id="-1785" visible="true" lat="44.09471511" lon="-72.63100433">
    <tag k="addr:housenumber" v="1791"/>
    <tag k="addr:street" v="Loop Road"/>
    <tag k="addr:state" v="VT"/>
    <tag k="ref:vcgi:esiteid" v="181733"/>
  </node>
  <node id="-1786" visible="true" lat="44.09358635" lon="-72.62861971">
    <tag k="addr:housenumber" v="1685"/>
    <tag k="addr:street" v="Loop Road"/>
    <tag k="addr:state" v="VT"/>
    <tag k="ref:vcgi:esiteid" v="181734"/>
  </node>
  <node id="-1787" visible="true" lat="44.09353096" lon="-72.63235159">
    <tag k="addr:housenumber" v="1945"/>
    <tag k="addr:street" v="Loop Road"/>
    <tag k="addr:state" v="VT"/>
    <tag k="ref:vcgi:esiteid" v="181735"/>
  </node>
  <node id="-1789" visible="true" lat="44.09186344" lon="-72.63440989">
    <tag k="addr:housenumber" v="119"/>
    <tag k="addr:street" v="Herriott Road"/>
    <tag k="addr:state" v="VT"/>
    <tag k="ref:vcgi:esiteid" v="181737"/>
  </node>
  <node id="-1790" visible="true" lat="44.09160848" lon="-72.63686132">
    <tag k="addr:housenumber" v="154"/>
    <tag k="addr:street" v="Herriott Road"/>
    <tag k="addr:state" v="VT"/>
    <tag k="ref:vcgi:esiteid" v="181738"/>
  </node>
  <node id="-1791" visible="true" lat="44.09200392" lon="-72.62793155">
    <tag k="addr:housenumber" v="254"/>
    <tag k="addr:street" v="Frost Road"/>
    <tag k="addr:state" v="VT"/>
    <tag k="ref:vcgi:esiteid" v="181740"/>
  </node>
  <node id="-1794" visible="true" lat="44.14819795" lon="-72.7313638">
    <tag k="addr:housenumber" v="2465"/>
    <tag k="addr:street" v="Hallstrom Road"/>
    <tag k="addr:state" v="VT"/>
    <tag k="ref:vcgi:esiteid" v="181745"/>
  </node>
  <node id="-1795" visible="true" lat="44.14548878" lon="-72.66498398">
    <tag k="addr:housenumber" v="610"/>
    <tag k="addr:street" v="Water Street"/>
    <tag k="addr:state" v="VT"/>
    <tag k="ref:vcgi:esiteid" v="181746"/>
  </node>
  <node id="-1798" visible="true" lat="44.17298395" lon="-72.65160907">
    <tag k="addr:housenumber" v="76"/>
    <tag k="addr:street" v="Cox Brook Road"/>
    <tag k="addr:state" v="VT"/>
    <tag k="ref:vcgi:esiteid" v="181749"/>
  </node>
  <node id="-1819" visible="true" lat="44.17408129" lon="-72.69143186">
    <tag k="addr:housenumber" v="472"/>
    <tag k="addr:street" v="Colson Road"/>
    <tag k="addr:state" v="VT"/>
    <tag k="ref:vcgi:esiteid" v="181771"/>
  </node>
  <node id="-1824" visible="true" lat="44.13288304" lon="-72.72930148">
    <tag k="addr:housenumber" v="180"/>
    <tag k="addr:street" v="Gib Lane"/>
    <tag k="addr:state" v="VT"/>
    <tag k="ref:vcgi:esiteid" v="181776"/>
  </node>
  <node id="-1825" visible="true" lat="44.1472442" lon="-72.73293377">
    <tag k="addr:housenumber" v="2549"/>
    <tag k="addr:street" v="Hallstrom Road"/>
    <tag k="addr:state" v="VT"/>
    <tag k="ref:vcgi:esiteid" v="181777"/>
  </node>
  <node id="-1828" visible="true" lat="44.16187103" lon="-72.73443608">
    <tag k="addr:housenumber" v="289"/>
    <tag k="addr:street" v="Woods Road"/>
    <tag k="addr:state" v="VT"/>
    <tag k="ref:vcgi:esiteid" v="181780"/>
  </node>
  <node id="-1830" visible="true" lat="44.12046025" lon="-72.72537313">
    <tag k="addr:housenumber" v="202"/>
    <tag k="addr:street" v="Bower Road"/>
    <tag k="addr:state" v="VT"/>
    <tag k="ref:vcgi:esiteid" v="181782"/>
  </node>
  <node id="-1837" visible="true" lat="44.15608701" lon="-72.73889132">
    <tag k="addr:housenumber" v="569"/>
    <tag k="addr:street" v="Wheeler Road"/>
    <tag k="addr:state" v="VT"/>
    <tag k="ref:vcgi:esiteid" v="181790"/>
  </node>
  <node id="-1838" visible="true" lat="44.15574244" lon="-72.73934722">
    <tag k="addr:housenumber" v="579"/>
    <tag k="addr:street" v="Wheeler Road"/>
    <tag k="addr:state" v="VT"/>
    <tag k="ref:vcgi:esiteid" v="181791"/>
  </node>
  <node id="-1840" visible="true" lat="44.11692783" lon="-72.70205612">
    <tag k="addr:housenumber" v="126"/>
    <tag k="addr:street" v="Little Northfield Road"/>
    <tag k="addr:state" v="VT"/>
    <tag k="ref:vcgi:esiteid" v="181794"/>
  </node>
  <node id="-1845" visible="true" lat="44.12482966" lon="-72.66962139">
    <tag k="addr:housenumber" v="475"/>
    <tag k="addr:street" v="Fairground Road"/>
    <tag k="addr:state" v="VT"/>
    <tag k="ref:vcgi:esiteid" v="181800"/>
  </node>
  <node id="-1846" visible="true" lat="44.15639784" lon="-72.72655107">
    <tag k="addr:housenumber" v="1825"/>
    <tag k="addr:street" v="Hallstrom Road"/>
    <tag k="addr:state" v="VT"/>
    <tag k="ref:vcgi:esiteid" v="181801"/>
  </node>
  <node id="-1847" visible="true" lat="44.17953035" lon="-72.66944271">
    <tag k="addr:housenumber" v="1121"/>
    <tag k="addr:street" v="Cox Brook Road"/>
    <tag k="addr:state" v="VT"/>
    <tag k="ref:vcgi:esiteid" v="181802"/>
  </node>
  <node id="-1848" visible="true" lat="44.11620237" lon="-72.65279213">
    <tag k="addr:housenumber" v="292"/>
    <tag k="addr:street" v="Vermont Route 64"/>
    <tag k="addr:state" v="VT"/>
    <tag k="ref:vcgi:esiteid" v="181803"/>
  </node>
  <node id="-1849" visible="true" lat="44.16300341" lon="-72.64802504">
    <tag k="addr:housenumber" v="63"/>
    <tag k="addr:street" v="Northview Drive"/>
    <tag k="addr:state" v="VT"/>
    <tag k="ref:vcgi:esiteid" v="181804"/>
  </node>
  <node id="-1850" visible="true" lat="44.15737561" lon="-72.72578563">
    <tag k="addr:housenumber" v="1681"/>
    <tag k="addr:street" v="Hallstrom Road"/>
    <tag k="addr:state" v="VT"/>
    <tag k="ref:vcgi:esiteid" v="181805"/>
  </node>
  <node id="-1851" visible="true" lat="44.19550147" lon="-72.71678851">
    <tag k="addr:housenumber" v="1080"/>
    <tag k="addr:street" v="Bean Road"/>
    <tag k="addr:state" v="VT"/>
    <tag k="ref:vcgi:esiteid" v="181806"/>
  </node>
  <node id="-1852" visible="true" lat="44.19634041" lon="-72.71679555">
    <tag k="addr:housenumber" v="40"/>
    <tag k="addr:street" v="Washbowl Road"/>
    <tag k="addr:state" v="VT"/>
    <tag k="ref:vcgi:esiteid" v="181807"/>
  </node>
  <node id="-1853" visible="true" lat="44.16453789" lon="-72.72990053">
    <tag k="addr:housenumber" v="1300"/>
    <tag k="addr:street" v="Hallstrom Road"/>
    <tag k="addr:state" v="VT"/>
    <tag k="ref:vcgi:esiteid" v="181808"/>
  </node>
  <node id="-1854" visible="true" lat="44.1195558" lon="-72.66933426">
    <tag k="addr:housenumber" v="1248"/>
    <tag k="addr:street" v="Vermont Route 12A"/>
    <tag k="addr:state" v="VT"/>
    <tag k="ref:vcgi:esiteid" v="181809"/>
  </node>
  <node id="-1856" visible="true" lat="44.17477325" lon="-72.70744641">
    <tag k="addr:housenumber" v="2660"/>
    <tag k="addr:street" v="Union Brook Road"/>
    <tag k="addr:state" v="VT"/>
    <tag k="ref:vcgi:esiteid" v="181811"/>
  </node>
  <node id="-1857" visible="true" lat="44.13243318" lon="-72.60674245">
    <tag k="addr:housenumber" v="96"/>
    <tag k="addr:street" v="Fairway Road"/>
    <tag k="addr:state" v="VT"/>
    <tag k="ref:vcgi:esiteid" v="181812"/>
  </node>
  <node id="-1858" visible="true" lat="44.14390615" lon="-72.73614374">
    <tag k="addr:housenumber" v="1038"/>
    <tag k="addr:street" v="Clark Road"/>
    <tag k="addr:state" v="VT"/>
    <tag k="ref:vcgi:esiteid" v="181813"/>
  </node>
  <node id="-1859" visible="true" lat="44.13984311" lon="-72.74135839">
    <tag k="addr:housenumber" v="694"/>
    <tag k="addr:street" v="Clark Road"/>
    <tag k="addr:state" v="VT"/>
    <tag k="ref:vcgi:esiteid" v="181814"/>
  </node>
  <node id="-1866" visible="true" lat="44.15954884" lon="-72.66364969">
    <tag k="addr:housenumber" v="495"/>
    <tag k="addr:street" v="Garvey Hill Road"/>
    <tag k="addr:state" v="VT"/>
    <tag k="ref:vcgi:esiteid" v="181821"/>
  </node>
  <node id="-1868" visible="true" lat="44.12159264" lon="-72.73932389">
    <tag k="addr:housenumber" v="1010"/>
    <tag k="addr:street" v="Rabbit Hollow Road"/>
    <tag k="addr:state" v="VT"/>
    <tag k="ref:vcgi:esiteid" v="181823"/>
  </node>
  <node id="-1869" visible="true" lat="44.12008629" lon="-72.73928486">
    <tag k="addr:housenumber" v="1025"/>
    <tag k="addr:street" v="Rabbit Hollow Road"/>
    <tag k="addr:state" v="VT"/>
    <tag k="ref:vcgi:esiteid" v="181824"/>
  </node>
  <node id="-1870" visible="true" lat="44.14075971" lon="-72.60430896">
    <tag k="addr:housenumber" v="2125"/>
    <tag k="addr:street" v="Berlin Pond Road"/>
    <tag k="addr:state" v="VT"/>
    <tag k="ref:vcgi:esiteid" v="181825"/>
  </node>
  <node id="-1872" visible="true" lat="44.16481828" lon="-72.73261181">
    <tag k="addr:housenumber" v="400"/>
    <tag k="addr:street" v="Woods Road"/>
    <tag k="addr:state" v="VT"/>
    <tag k="ref:vcgi:esiteid" v="181827"/>
  </node>
  <node id="-1873" visible="true" lat="44.1650429" lon="-72.73366957">
    <tag k="addr:housenumber" v="449"/>
    <tag k="addr:street" v="Woods Road"/>
    <tag k="addr:state" v="VT"/>
    <tag k="ref:vcgi:esiteid" v="181828"/>
  </node>
  <node id="-1874" visible="true" lat="44.13119833" lon="-72.71574411">
    <tag k="addr:housenumber" v="251"/>
    <tag k="addr:street" v="Windy Meadow Road"/>
    <tag k="addr:state" v="VT"/>
    <tag k="ref:vcgi:esiteid" v="181829"/>
  </node>
  <node id="-1875" visible="true" lat="44.13231835" lon="-72.71352105">
    <tag k="addr:housenumber" v="400"/>
    <tag k="addr:street" v="Windy Meadow Road"/>
    <tag k="addr:state" v="VT"/>
    <tag k="ref:vcgi:esiteid" v="181830"/>
  </node>
  <node id="-1877" visible="true" lat="44.15322116" lon="-72.72618904">
    <tag k="addr:housenumber" v="1933"/>
    <tag k="addr:street" v="Hallstrom Road"/>
    <tag k="addr:state" v="VT"/>
    <tag k="ref:vcgi:esiteid" v="181834"/>
  </node>
  <node id="-1881" visible="true" lat="44.11968605" lon="-72.63269403">
    <tag k="addr:housenumber" v="1550"/>
    <tag k="addr:street" v="Vermont Route 64"/>
    <tag k="addr:state" v="VT"/>
    <tag k="ref:vcgi:esiteid" v="181839"/>
  </node>
  <node id="-1882" visible="true" lat="44.18341931" lon="-72.73794786">
    <tag k="addr:housenumber" v="729"/>
    <tag k="addr:street" v="Bear Farm Road"/>
    <tag k="addr:state" v="VT"/>
    <tag k="ref:vcgi:esiteid" v="181840"/>
  </node>
  <node id="-1883" visible="true" lat="44.13151873" lon="-72.60663845">
    <tag k="addr:housenumber" v="89"/>
    <tag k="addr:street" v="Fairway Road"/>
    <tag k="addr:state" v="VT"/>
    <tag k="ref:vcgi:esiteid" v="181841"/>
  </node>
  <node id="-1886" visible="true" lat="44.12043159" lon="-72.63727475">
    <tag k="addr:housenumber" v="18"/>
    <tag k="addr:street" v="Glacier Valley Road"/>
    <tag k="addr:state" v="VT"/>
    <tag k="ref:vcgi:esiteid" v="181844"/>
  </node>
  <node id="-1887" visible="true" lat="44.11961304" lon="-72.63816073">
    <tag k="addr:housenumber" v="98"/>
    <tag k="addr:street" v="Glacier Valley Road"/>
    <tag k="addr:state" v="VT"/>
    <tag k="ref:vcgi:esiteid" v="181845"/>
  </node>
  <node id="-1888" visible="true" lat="44.1191376" lon="-72.63850603">
    <tag k="addr:housenumber" v="114"/>
    <tag k="addr:street" v="Glacier Valley Road"/>
    <tag k="addr:state" v="VT"/>
    <tag k="ref:vcgi:esiteid" v="181846"/>
  </node>
  <node id="-1890" visible="true" lat="44.11916932" lon="-72.73834362">
    <tag k="addr:housenumber" v="1005"/>
    <tag k="addr:street" v="Rabbit Hollow Road"/>
    <tag k="addr:state" v="VT"/>
    <tag k="ref:vcgi:esiteid" v="181849"/>
  </node>
  <node id="-1892" visible="true" lat="44.12269837" lon="-72.70882672">
    <tag k="addr:housenumber" v="605"/>
    <tag k="addr:street" v="Little Northfield Road"/>
    <tag k="addr:state" v="VT"/>
    <tag k="ref:vcgi:esiteid" v="181852"/>
  </node>
  <node id="-1894" visible="true" lat="44.17440952" lon="-72.72992599">
    <tag k="addr:housenumber" v="590"/>
    <tag k="addr:street" v="Hallstrom Road"/>
    <tag k="addr:state" v="VT"/>
    <tag k="ref:vcgi:esiteid" v="181854"/>
  </node>
  <node id="-1895" visible="true" lat="44.11969378" lon="-72.62822064">
    <tag k="addr:housenumber" v="1629"/>
    <tag k="addr:street" v="Vermont Route 64"/>
    <tag k="addr:state" v="VT"/>
    <tag k="ref:vcgi:esiteid" v="181856"/>
  </node>
  <node id="-1901" visible="true" lat="44.16515086" lon="-72.72822466">
    <tag k="addr:housenumber" v="1205"/>
    <tag k="addr:street" v="Hallstrom Road"/>
    <tag k="addr:state" v="VT"/>
    <tag k="ref:vcgi:esiteid" v="181862"/>
  </node>
  <node id="-1902" visible="true" lat="44.11393563" lon="-72.72337267">
    <tag k="addr:housenumber" v="4413"/>
    <tag k="addr:street" v="Vermont Route 12A"/>
    <tag k="addr:state" v="VT"/>
    <tag k="ref:vcgi:esiteid" v="181863"/>
  </node>
  <node id="-1903" visible="true" lat="44.12366924" lon="-72.62690935">
    <tag k="addr:housenumber" v="120"/>
    <tag k="addr:street" v="Moose Dog Hill Road"/>
    <tag k="addr:state" v="VT"/>
    <tag k="ref:vcgi:esiteid" v="181864"/>
  </node>
  <node id="-1904" visible="true" lat="44.12215666" lon="-72.62470558">
    <tag k="addr:housenumber" v="250"/>
    <tag k="addr:street" v="Moose Dog Hill Road"/>
    <tag k="addr:state" v="VT"/>
    <tag k="ref:vcgi:esiteid" v="181865"/>
  </node>
  <node id="-1905" visible="true" lat="44.12500299" lon="-72.62619962">
    <tag k="addr:housenumber" v="526"/>
    <tag k="addr:street" v="Barrows Road"/>
    <tag k="addr:state" v="VT"/>
    <tag k="ref:vcgi:esiteid" v="181866"/>
  </node>
  <node id="-1908" visible="true" lat="44.17832939" lon="-72.73041892">
    <tag k="addr:housenumber" v="211"/>
    <tag k="addr:street" v="Bear Farm Road"/>
    <tag k="addr:state" v="VT"/>
    <tag k="ref:vcgi:esiteid" v="181869"/>
  </node>
  <node id="-1909" visible="true" lat="44.17765077" lon="-72.72885542">
    <tag k="addr:housenumber" v="191"/>
    <tag k="addr:street" v="Bear Farm Road"/>
    <tag k="addr:state" v="VT"/>
    <tag k="ref:vcgi:esiteid" v="181870"/>
  </node>
  <node id="-1910" visible="true" lat="44.15690399" lon="-72.73080959">
    <tag k="addr:housenumber" v="1830"/>
    <tag k="addr:street" v="Hallstrom Road"/>
    <tag k="addr:state" v="VT"/>
    <tag k="ref:vcgi:esiteid" v="181871"/>
  </node>
  <node id="-1911" visible="true" lat="44.15500937" lon="-72.72978997">
    <tag k="addr:housenumber" v="1934"/>
    <tag k="addr:street" v="Hallstrom Road"/>
    <tag k="addr:state" v="VT"/>
    <tag k="ref:vcgi:esiteid" v="181872"/>
  </node>
  <node id="-1915" visible="true" lat="44.11542057" lon="-72.6262011">
    <tag k="addr:housenumber" v="159"/>
    <tag k="addr:street" v="West View Ridge"/>
    <tag k="addr:state" v="VT"/>
    <tag k="ref:vcgi:esiteid" v="181877"/>
  </node>
  <node id="-1916" visible="true" lat="44.11466286" lon="-72.62759432">
    <tag k="addr:housenumber" v="200"/>
    <tag k="addr:street" v="West View Ridge"/>
    <tag k="addr:state" v="VT"/>
    <tag k="ref:vcgi:esiteid" v="181878"/>
  </node>
  <node id="-1917" visible="true" lat="44.1140759" lon="-72.62672794">
    <tag k="addr:housenumber" v="257"/>
    <tag k="addr:street" v="West View Ridge"/>
    <tag k="addr:state" v="VT"/>
    <tag k="ref:vcgi:esiteid" v="181879"/>
  </node>
  <node id="-1918" visible="true" lat="44.11324364" lon="-72.62783459">
    <tag k="addr:housenumber" v="333"/>
    <tag k="addr:street" v="West View Ridge"/>
    <tag k="addr:state" v="VT"/>
    <tag k="ref:vcgi:esiteid" v="181880"/>
  </node>
  <node id="-1920" visible="true" lat="44.13557931" lon="-72.68504775">
    <tag k="addr:housenumber" v="1150"/>
    <tag k="addr:street" v="Dole Hill Road"/>
    <tag k="addr:state" v="VT"/>
    <tag k="ref:vcgi:esiteid" v="181882"/>
  </node>
  <node id="-1921" visible="true" lat="44.12680055" lon="-72.66916695">
    <tag k="addr:housenumber" v="565"/>
    <tag k="addr:street" v="Fairground Road"/>
    <tag k="addr:state" v="VT"/>
    <tag k="ref:vcgi:esiteid" v="181883"/>
  </node>
  <node id="-1922" visible="true" lat="44.12809082" lon="-72.6682362">
    <tag k="addr:housenumber" v="592"/>
    <tag k="addr:street" v="Fairground Road"/>
    <tag k="addr:state" v="VT"/>
    <tag k="ref:vcgi:esiteid" v="181884"/>
  </node>
  <node id="-1924" visible="true" lat="44.16380255" lon="-72.73281135">
    <tag k="addr:housenumber" v="351"/>
    <tag k="addr:street" v="Woods Road"/>
    <tag k="addr:state" v="VT"/>
    <tag k="ref:vcgi:esiteid" v="181886"/>
  </node>
  <node id="-1926" visible="true" lat="44.11722624" lon="-72.6568627">
    <tag k="addr:housenumber" v="490"/>
    <tag k="addr:street" v="Lovers Lane"/>
    <tag k="addr:state" v="VT"/>
    <tag k="ref:vcgi:esiteid" v="181888"/>
  </node>
  <node id="-1927" visible="true" lat="44.14122353" lon="-72.66007473">
    <tag k="addr:housenumber" v="425"/>
    <tag k="addr:street" v="University Drive"/>
    <tag k="addr:state" v="VT"/>
    <tag k="ref:vcgi:esiteid" v="181889"/>
  </node>
  <node id="-1929" visible="true" lat="44.16516374" lon="-72.64620084">
    <tag k="addr:housenumber" v="500"/>
    <tag k="addr:street" v="Davis Avenue"/>
    <tag k="addr:state" v="VT"/>
    <tag k="ref:vcgi:esiteid" v="181891"/>
  </node>
  <node id="-1931" visible="true" lat="44.12199182" lon="-72.65534761">
    <tag k="addr:housenumber" v="129"/>
    <tag k="addr:street" v="Honeysuckle Terrace"/>
    <tag k="addr:state" v="VT"/>
    <tag k="ref:vcgi:esiteid" v="311441"/>
  </node>
  <node id="-1932" visible="true" lat="44.18111545" lon="-72.66808214">
    <tag k="addr:housenumber" v="1196"/>
    <tag k="addr:street" v="Cox Brook Road"/>
    <tag k="addr:state" v="VT"/>
    <tag k="ref:vcgi:esiteid" v="311442"/>
  </node>
  <node id="-1934" visible="true" lat="44.17784239" lon="-72.72738761">
    <tag k="addr:housenumber" v="45"/>
    <tag k="addr:street" v="Bear Farm Road"/>
    <tag k="addr:state" v="VT"/>
    <tag k="ref:vcgi:esiteid" v="315561"/>
  </node>
  <node id="-1935" visible="true" lat="44.17902054" lon="-72.72844641">
    <tag k="addr:housenumber" v="64"/>
    <tag k="addr:street" v="Bear Farm Road"/>
    <tag k="addr:state" v="VT"/>
    <tag k="ref:vcgi:esiteid" v="315562"/>
  </node>
  <node id="-1936" visible="true" lat="44.12237057" lon="-72.66978706">
    <tag k="addr:housenumber" v="128"/>
    <tag k="addr:street" v="Landing Drive"/>
    <tag k="addr:state" v="VT"/>
    <tag k="ref:vcgi:esiteid" v="315563"/>
  </node>
  <node id="-1937" visible="true" lat="44.1221411" lon="-72.67007281">
    <tag k="addr:housenumber" v="140"/>
    <tag k="addr:street" v="Landing Drive"/>
    <tag k="addr:state" v="VT"/>
    <tag k="ref:vcgi:esiteid" v="315564"/>
  </node>
  <node id="-1938" visible="true" lat="44.169784" lon="-72.6970809">
    <tag k="addr:housenumber" v="2031"/>
    <tag k="addr:street" v="Union Brook Road"/>
    <tag k="addr:state" v="VT"/>
    <tag k="ref:vcgi:esiteid" v="315565"/>
  </node>
  <node id="-1940" visible="true" lat="44.15082221" lon="-72.70423922">
    <tag k="addr:housenumber" v="279"/>
    <tag k="addr:street" v="Old Road"/>
    <tag k="addr:state" v="VT"/>
    <tag k="ref:vcgi:esiteid" v="315567"/>
  </node>
  <node id="-1941" visible="true" lat="44.15872321" lon="-72.72653329">
    <tag k="addr:housenumber" v="1677"/>
    <tag k="addr:street" v="Hallstrom Road"/>
    <tag k="addr:state" v="VT"/>
    <tag k="ref:vcgi:esiteid" v="319090"/>
  </node>
  <node id="-1942" visible="true" lat="44.12045786" lon="-72.63733385">
    <tag k="addr:housenumber" v="84"/>
    <tag k="addr:street" v="Glacier Valley Road"/>
    <tag k="addr:state" v="VT"/>
    <tag k="ref:vcgi:esiteid" v="326428"/>
  </node>
  <node id="-1947" visible="true" lat="44.14916542" lon="-72.65978445">
    <tag k="addr:housenumber" v="142"/>
    <tag k="addr:street" v="Wall Street"/>
    <tag k="addr:state" v="VT"/>
    <tag k="ref:vcgi:esiteid" v="330967"/>
  </node>
  <node id="-1949" visible="true" lat="44.18168095" lon="-72.73406348">
    <tag k="addr:housenumber" v="527"/>
    <tag k="addr:street" v="Bear Farm Road"/>
    <tag k="addr:state" v="VT"/>
    <tag k="ref:vcgi:esiteid" v="332754"/>
  </node>
  <node id="-1950" visible="true" lat="44.18220015" lon="-72.73466229">
    <tag k="addr:housenumber" v="549"/>
    <tag k="addr:street" v="Bear Farm Road"/>
    <tag k="addr:state" v="VT"/>
    <tag k="ref:vcgi:esiteid" v="332755"/>
  </node>
  <node id="-1951" visible="true" lat="44.18345773" lon="-72.7409198">
    <tag k="addr:housenumber" v="967"/>
    <tag k="addr:street" v="Bear Farm Road"/>
    <tag k="addr:state" v="VT"/>
    <tag k="ref:vcgi:esiteid" v="332756"/>
  </node>
  <node id="-1952" visible="true" lat="44.18673148" lon="-72.71842874">
    <tag k="addr:housenumber" v="410"/>
    <tag k="addr:street" v="Bean Road"/>
    <tag k="addr:state" v="VT"/>
    <tag k="ref:vcgi:esiteid" v="332758"/>
  </node>
  <node id="-1953" visible="true" lat="44.15737929" lon="-72.70570067">
    <tag k="addr:housenumber" v="1350"/>
    <tag k="addr:street" v="West Hill Road"/>
    <tag k="addr:state" v="VT"/>
    <tag k="ref:vcgi:esiteid" v="332759"/>
  </node>
  <node id="-1954" visible="true" lat="44.15359242" lon="-72.6604148">
    <tag k="addr:housenumber" v="27"/>
    <tag k="addr:street" v="Cross Street"/>
    <tag k="addr:state" v="VT"/>
    <tag k="ref:vcgi:esiteid" v="332760"/>
  </node>
  <node id="-1955" visible="true" lat="44.12578287" lon="-72.66952325">
    <tag k="addr:housenumber" v="535"/>
    <tag k="addr:street" v="Fairground Road"/>
    <tag k="addr:state" v="VT"/>
    <tag k="ref:vcgi:esiteid" v="332761"/>
  </node>
  <node id="-1959" visible="true" lat="44.15037233" lon="-72.72781679">
    <tag k="addr:housenumber" v="2862"/>
    <tag k="addr:street" v="West Hill Road"/>
    <tag k="addr:state" v="VT"/>
    <tag k="ref:vcgi:esiteid" v="333186"/>
  </node>
  <node id="-1963" visible="true" lat="44.11352089" lon="-72.7205854">
    <tag k="addr:housenumber" v="150"/>
    <tag k="addr:street" v="Evans Road"/>
    <tag k="addr:state" v="VT"/>
    <tag k="ref:vcgi:esiteid" v="339336"/>
  </node>
  <node id="-1964" visible="true" lat="44.13312202" lon="-72.60898767">
    <tag k="addr:housenumber" v="110"/>
    <tag k="addr:street" v="Fairway Road"/>
    <tag k="addr:state" v="VT"/>
    <tag k="ref:vcgi:esiteid" v="340252"/>
  </node>
  <node id="-1965" visible="true" lat="44.11831928" lon="-72.72952078">
    <tag k="addr:housenumber" v="429"/>
    <tag k="addr:street" v="Rabbit Hollow Road"/>
    <tag k="addr:state" v="VT"/>
    <tag k="ref:vcgi:esiteid" v="342884"/>
  </node>
  <node id="-1966" visible="true" lat="44.13051871" lon="-72.73696831">
    <tag k="addr:housenumber" v="2121"/>
    <tag k="addr:street" v="Little Northfield Road"/>
    <tag k="addr:state" v="VT"/>
    <tag k="ref:vcgi:esiteid" v="342928"/>
  </node>
  <node id="-1970" visible="true" lat="44.12559817" lon="-72.62070319">
    <tag k="addr:housenumber" v="618"/>
    <tag k="addr:street" v="Barrows Road"/>
    <tag k="addr:state" v="VT"/>
    <tag k="ref:vcgi:esiteid" v="342932"/>
  </node>
  <node id="-1971" visible="true" lat="44.10595678" lon="-72.62181502">
    <tag k="addr:housenumber" v="780"/>
    <tag k="addr:street" v="Loop Road"/>
    <tag k="addr:state" v="VT"/>
    <tag k="ref:vcgi:esiteid" v="342933"/>
  </node>
  <node id="-1972" visible="true" lat="44.10262301" lon="-72.62142846">
    <tag k="addr:housenumber" v="1051"/>
    <tag k="addr:street" v="Loop Road"/>
    <tag k="addr:state" v="VT"/>
    <tag k="ref:vcgi:esiteid" v="342934"/>
  </node>
  <node id="-1973" visible="true" lat="44.17964334" lon="-72.73093226">
    <tag k="addr:housenumber" v="287"/>
    <tag k="addr:street" v="Bear Farm Road"/>
    <tag k="addr:state" v="VT"/>
    <tag k="ref:vcgi:esiteid" v="342936"/>
  </node>
  <node id="-1974" visible="true" lat="44.17991901" lon="-72.72411912">
    <tag k="addr:housenumber" v="85"/>
    <tag k="addr:street" v="Hallstrom Road"/>
    <tag k="addr:state" v="VT"/>
    <tag k="ref:vcgi:esiteid" v="344080"/>
  </node>
  <node id="-1976" visible="true" lat="44.09924987" lon="-72.62278045">
    <tag k="addr:housenumber" v="1248"/>
    <tag k="addr:street" v="Loop Road"/>
    <tag k="addr:state" v="VT"/>
    <tag k="ref:vcgi:esiteid" v="345761"/>
  </node>
  <node id="-1977" visible="true" lat="44.14067477" lon="-72.7439304">
    <tag k="addr:housenumber" v="751"/>
    <tag k="addr:street" v="Clark Road"/>
    <tag k="addr:state" v="VT"/>
    <tag k="ref:vcgi:esiteid" v="345762"/>
  </node>
  <node id="-1979" visible="true" lat="44.13788914" lon="-72.65530618">
    <tag k="addr:housenumber" v="165"/>
    <tag k="addr:street" v="Paine Mountain Drive"/>
    <tag k="addr:state" v="VT"/>
    <tag k="ref:vcgi:esiteid" v="345798"/>
  </node>
  <node id="-1982" visible="true" lat="44.12911941" lon="-72.6048893">
    <tag k="addr:housenumber" v="1250"/>
    <tag k="addr:street" v="Berlin Pond Road"/>
    <tag k="addr:state" v="VT"/>
    <tag k="ref:vcgi:esiteid" v="345801"/>
  </node>
  <node id="-1984" visible="true" lat="44.12813467" lon="-72.72649353">
    <tag k="addr:housenumber" v="1625"/>
    <tag k="addr:street" v="Little Northfield Road"/>
    <tag k="addr:state" v="VT"/>
    <tag k="ref:vcgi:esiteid" v="345803"/>
  </node>
  <node id="-1986" visible="true" lat="44.101481" lon="-72.63703542">
    <tag k="addr:housenumber" v="1200"/>
    <tag k="addr:street" v="Bailey Road"/>
    <tag k="addr:state" v="VT"/>
    <tag k="ref:vcgi:esiteid" v="345805"/>
  </node>
  <node id="-1988" visible="true" lat="44.11929575" lon="-72.63851776">
    <tag k="addr:housenumber" v="110"/>
    <tag k="addr:street" v="Glacier Valley Road"/>
    <tag k="addr:state" v="VT"/>
    <tag k="ref:vcgi:esiteid" v="345809"/>
  </node>
  <node id="-1989" visible="true" lat="44.1645573" lon="-72.70090955">
    <tag k="addr:housenumber" v="950"/>
    <tag k="addr:street" v="West Hill Road"/>
    <tag k="addr:state" v="VT"/>
    <tag k="ref:vcgi:esiteid" v="365101"/>
  </node>
  <node id="-1991" visible="true" lat="44.13784277" lon="-72.66232352">
    <tag k="addr:housenumber" v="21"/>
    <tag k="addr:street" v="General Cram Drive"/>
    <tag k="addr:state" v="VT"/>
    <tag k="ref:vcgi:esiteid" v="447147"/>
  </node>
  <node id="-1992" visible="true" lat="44.13911207" lon="-72.65518808">
    <tag k="addr:housenumber" v="87"/>
    <tag k="addr:street" v="Paine Mountain Drive"/>
    <tag k="addr:state" v="VT"/>
    <tag k="ref:vcgi:esiteid" v="448100"/>
  </node>
  <node id="-1993" visible="true" lat="44.14045822" lon="-72.65119158">
    <tag k="addr:housenumber" v="152"/>
    <tag k="addr:street" v="Quarry Hill"/>
    <tag k="addr:state" v="VT"/>
    <tag k="ref:vcgi:esiteid" v="448101"/>
  </node>
  <node id="-1994" visible="true" lat="44.12395287" lon="-72.65570215">
    <tag k="addr:housenumber" v="229"/>
    <tag k="addr:street" v="Honeysuckle Terrace"/>
    <tag k="addr:state" v="VT"/>
    <tag k="ref:vcgi:esiteid" v="448301"/>
  </node>
  <node id="-1997" visible="true" lat="44.16939415" lon="-72.651141">
    <tag k="addr:housenumber" v="374"/>
    <tag k="addr:street" v="Vermont Route 12 North"/>
    <tag k="addr:state" v="VT"/>
    <tag k="ref:vcgi:esiteid" v="448306"/>
  </node>
  <node id="-1998" visible="true" lat="44.20157395" lon="-72.7249504">
    <tag k="addr:housenumber" v="129"/>
    <tag k="addr:street" v="Washbowl Road"/>
    <tag k="addr:state" v="VT"/>
    <tag k="ref:vcgi:esiteid" v="448773"/>
  </node>
  <node id="-1999" visible="true" lat="44.19816402" lon="-72.718575">
    <tag k="addr:housenumber" v="127"/>
    <tag k="addr:street" v="Washbowl Road"/>
    <tag k="addr:state" v="VT"/>
    <tag k="ref:vcgi:esiteid" v="448775"/>
  </node>
  <node id="-2001" visible="true" lat="44.19862564" lon="-72.73386724">
    <tag k="addr:housenumber" v="7"/>
    <tag k="addr:street" v="Washbowl Road"/>
    <tag k="addr:state" v="VT"/>
    <tag k="ref:vcgi:esiteid" v="448779"/>
  </node>
  <node id="-2002" visible="true" lat="44.18850517" lon="-72.71616315">
    <tag k="addr:housenumber" v="830"/>
    <tag k="addr:street" v="Bean Road"/>
    <tag k="addr:state" v="VT"/>
    <tag k="ref:vcgi:esiteid" v="448784"/>
  </node>
  <node id="-2007" visible="true" lat="44.18731464" lon="-72.73104973">
    <tag k="addr:housenumber" v="15"/>
    <tag k="addr:street" v="Bean Road"/>
    <tag k="addr:state" v="VT"/>
    <tag k="ref:vcgi:esiteid" v="448790"/>
  </node>
  <node id="-2050" visible="true" lat="44.12359334" lon="-72.66821506">
    <tag k="addr:housenumber" v="150"/>
    <tag k="addr:street" v="Fairground Road"/>
    <tag k="addr:state" v="VT"/>
    <tag k="ref:vcgi:esiteid" v="448858"/>
  </node>
  <node id="-2059" visible="true" lat="44.11343506" lon="-72.65096668">
    <tag k="addr:housenumber" v="150"/>
    <tag k="addr:street" v="Old Mill Hill"/>
    <tag k="addr:state" v="VT"/>
    <tag k="ref:vcgi:esiteid" v="448867"/>
  </node>
  <node id="-2081" visible="true" lat="44.12744978" lon="-72.64909088">
    <tag k="addr:housenumber" v="439"/>
    <tag k="addr:street" v="Vermont Route 12 South"/>
    <tag k="addr:state" v="VT"/>
    <tag k="ref:vcgi:esiteid" v="448986"/>
  </node>
  <node id="-2086" visible="true" lat="44.11359819" lon="-72.62248902">
    <tag k="addr:housenumber" v="55"/>
    <tag k="addr:street" v="Loop Road"/>
    <tag k="addr:state" v="VT"/>
    <tag k="ref:vcgi:esiteid" v="448994"/>
  </node>
  <node id="-2088" visible="true" lat="44.17051976" lon="-72.62911958">
    <tag k="addr:housenumber" v="600"/>
    <tag k="addr:street" v="White Road"/>
    <tag k="addr:state" v="VT"/>
    <tag k="ref:vcgi:esiteid" v="448996"/>
  </node>
  <node id="-2114" visible="true" lat="44.1202943" lon="-72.62920946">
    <tag k="addr:housenumber" v="1565"/>
    <tag k="addr:street" v="Vermont Route 64"/>
    <tag k="addr:state" v="VT"/>
    <tag k="ref:vcgi:esiteid" v="449032"/>
  </node>
  <node id="-2120" visible="true" lat="44.15687611" lon="-72.62055054">
    <tag k="addr:housenumber" v="2601"/>
    <tag k="addr:street" v="Turkey Hill Road"/>
    <tag k="addr:state" v="VT"/>
    <tag k="ref:vcgi:esiteid" v="449040"/>
  </node>
  <node id="-2121" visible="true" lat="44.15810777" lon="-72.62114844">
    <tag k="addr:housenumber" v="2494"/>
    <tag k="addr:street" v="Turkey Hill Road"/>
    <tag k="addr:state" v="VT"/>
    <tag k="ref:vcgi:esiteid" v="449041"/>
  </node>
  <node id="-2122" visible="true" lat="44.15849483" lon="-72.62972287">
    <tag k="addr:housenumber" v="1711"/>
    <tag k="addr:street" v="Turkey Hill Road"/>
    <tag k="addr:state" v="VT"/>
    <tag k="ref:vcgi:esiteid" v="449043"/>
  </node>
  <node id="-2130" visible="true" lat="44.18257581" lon="-72.70698898">
    <tag k="addr:housenumber" v="2344"/>
    <tag k="addr:street" v="Union Brook Road"/>
    <tag k="addr:state" v="VT"/>
    <tag k="ref:vcgi:esiteid" v="449079"/>
  </node>
  <node id="-2137" visible="true" lat="44.13905171" lon="-72.66461788">
    <tag k="addr:housenumber" v="181"/>
    <tag k="addr:street" v="University Drive"/>
    <tag k="addr:state" v="VT"/>
    <tag k="ref:vcgi:esiteid" v="451534"/>
  </node>
  <node id="-2138" visible="true" lat="44.14929594" lon="-72.6697927">
    <tag k="addr:housenumber" v="536"/>
    <tag k="addr:street" v="Camp Road"/>
    <tag k="addr:state" v="VT"/>
    <tag k="ref:vcgi:esiteid" v="451544"/>
  </node>
  <node id="-2140" visible="true" lat="44.16968672" lon="-72.66616693">
    <tag k="addr:housenumber" v="743"/>
    <tag k="addr:street" v="Slaughterhouse Road"/>
    <tag k="addr:state" v="VT"/>
    <tag k="ref:vcgi:esiteid" v="451548"/>
  </node>
  <node id="-2141" visible="true" lat="44.16833202" lon="-72.66310035">
    <tag k="addr:housenumber" v="517"/>
    <tag k="addr:street" v="Slaughterhouse Road"/>
    <tag k="addr:state" v="VT"/>
    <tag k="ref:vcgi:esiteid" v="451597"/>
  </node>
  <node id="-2142" visible="true" lat="44.18049981" lon="-72.72374258">
    <tag k="addr:housenumber" v="52"/>
    <tag k="addr:street" v="Hallstrom Road"/>
    <tag k="addr:state" v="VT"/>
    <tag k="ref:vcgi:esiteid" v="451810"/>
  </node>
  <node id="-2143" visible="true" lat="44.13935017" lon="-72.65806224">
    <tag k="addr:housenumber" v="672"/>
    <tag k="addr:street" v="South Main Street"/>
    <tag k="addr:state" v="VT"/>
    <tag k="ref:vcgi:esiteid" v="452110"/>
  </node>
  <node id="-2145" visible="true" lat="44.13060326" lon="-72.74153974">
    <tag k="addr:housenumber" v="1710"/>
    <tag k="addr:street" v="Rabbit Hollow Road"/>
    <tag k="addr:state" v="VT"/>
    <tag k="ref:vcgi:esiteid" v="452909"/>
  </node>
  <node id="-2146" visible="true" lat="44.12939214" lon="-72.73353295">
    <tag k="addr:housenumber" v="2056"/>
    <tag k="addr:street" v="Little Northfield Road"/>
    <tag k="addr:state" v="VT"/>
    <tag k="ref:vcgi:esiteid" v="452910"/>
  </node>
  <node id="-2147" visible="true" lat="44.14098797" lon="-72.71701522">
    <tag k="addr:housenumber" v="2914"/>
    <tag k="addr:street" v="Stony Brook Road"/>
    <tag k="addr:state" v="VT"/>
    <tag k="ref:vcgi:esiteid" v="454930"/>
  </node>
  <node id="-2148" visible="true" lat="44.09696346" lon="-72.62815583">
    <tag k="addr:housenumber" v="1698"/>
    <tag k="addr:street" v="Loop Road"/>
    <tag k="addr:state" v="VT"/>
    <tag k="ref:vcgi:esiteid" v="455147"/>
  </node>
  <node id="-2149" visible="true" lat="44.1149209" lon="-72.64513619">
    <tag k="addr:housenumber" v="500"/>
    <tag k="addr:street" v="Old Mill Hill"/>
    <tag k="addr:state" v="VT"/>
    <tag k="ref:vcgi:esiteid" v="610082"/>
  </node>
  <node id="-2151" visible="true" lat="44.11291169" lon="-72.72011078">
    <tag k="addr:housenumber" v="152"/>
    <tag k="addr:street" v="Evans Road"/>
    <tag k="addr:state" v="VT"/>
    <tag k="ref:vcgi:esiteid" v="610544"/>
  </node>
  <node id="-2152" visible="true" lat="44.1247657" lon="-72.68217295">
    <tag k="addr:housenumber" v="482"/>
    <tag k="addr:street" v="Smith Hill Road"/>
    <tag k="addr:state" v="VT"/>
    <tag k="ref:vcgi:esiteid" v="610556"/>
  </node>
  <node id="-2153" visible="true" lat="44.12269839" lon="-72.65101932">
    <tag k="addr:housenumber" v="390"/>
    <tag k="addr:street" v="Honeysuckle Terrace"/>
    <tag k="addr:state" v="VT"/>
    <tag k="ref:vcgi:esiteid" v="610564"/>
  </node>
  <node id="-2154" visible="true" lat="44.1756687" lon="-72.65251618">
    <tag k="addr:housenumber" v="249"/>
    <tag k="addr:street" v="Chandler Road"/>
    <tag k="addr:state" v="VT"/>
    <tag k="ref:vcgi:esiteid" v="610794"/>
  </node>
  <node id="-2156" visible="true" lat="44.12990037" lon="-72.71340352">
    <tag k="addr:housenumber" v="178"/>
    <tag k="addr:street" v="Windy Meadow Road"/>
    <tag k="addr:state" v="VT"/>
    <tag k="ref:vcgi:esiteid" v="611724"/>
  </node>
  <node id="-2157" visible="true" lat="44.14694586" lon="-72.71505861">
    <tag k="addr:housenumber" v="445"/>
    <tag k="addr:street" v="Chamberlin Road"/>
    <tag k="addr:state" v="VT"/>
    <tag k="ref:vcgi:esiteid" v="611725"/>
  </node>
  <node id="-2168" visible="true" lat="44.1302219" lon="-72.60443367">
    <tag k="addr:housenumber" v="1280"/>
    <tag k="addr:street" v="Berlin Pond Road"/>
    <tag k="addr:state" v="VT"/>
    <tag k="ref:vcgi:esiteid" v="617094"/>
  </node>
  <node id="-2169" visible="true" lat="44.12518589" lon="-72.65596266">
    <tag k="addr:housenumber" v="521"/>
    <tag k="addr:street" v="Vermont Route 12 South"/>
    <tag k="addr:state" v="VT"/>
    <tag k="ref:vcgi:esiteid" v="617392"/>
  </node>
  <node id="-2170" visible="true" lat="44.13963971" lon="-72.76699371">
    <tag k="addr:housenumber" v="1391"/>
    <tag k="addr:street" v="Monti Road"/>
    <tag k="addr:state" v="VT"/>
    <tag k="ref:vcgi:esiteid" v="617654"/>
  </node>
  <node id="-2171" visible="true" lat="44.12539501" lon="-72.74296816">
    <tag k="addr:housenumber" v="1375"/>
    <tag k="addr:street" v="Rabbit Hollow Road"/>
    <tag k="addr:state" v="VT"/>
    <tag k="ref:vcgi:esiteid" v="618153"/>
  </node>
  <node id="-2174" visible="true" lat="44.11629178" lon="-72.68231406">
    <tag k="addr:housenumber" v="324"/>
    <tag k="addr:street" v="Homewilde Lane"/>
    <tag k="addr:state" v="VT"/>
    <tag k="ref:vcgi:esiteid" v="655451"/>
  </node>
  <node id="-2176" visible="true" lat="44.11924909" lon="-72.68601772">
    <tag k="addr:housenumber" v="644"/>
    <tag k="addr:street" v="Stony Brook Road"/>
    <tag k="addr:state" v="VT"/>
    <tag k="ref:vcgi:esiteid" v="655453"/>
  </node>
  <node id="-2177" visible="true" lat="44.19287406" lon="-72.71637062">
    <tag k="addr:housenumber" v="904"/>
    <tag k="addr:street" v="Bean Road"/>
    <tag k="addr:state" v="VT"/>
    <tag k="ref:vcgi:esiteid" v="655732"/>
  </node>
  <node id="-2178" visible="true" lat="44.18810845" lon="-72.71961403">
    <tag k="addr:housenumber" v="507"/>
    <tag k="addr:street" v="Bean Road"/>
    <tag k="addr:state" v="VT"/>
    <tag k="ref:vcgi:esiteid" v="655733"/>
  </node>
  <node id="-2179" visible="true" lat="44.14518525" lon="-72.67569078">
    <tag k="addr:housenumber" v="614"/>
    <tag k="addr:street" v="Terry Hill Road"/>
    <tag k="addr:state" v="VT"/>
    <tag k="ref:vcgi:esiteid" v="655734"/>
  </node>
  <node id="-2180" visible="true" lat="44.1729552" lon="-72.65596893">
    <tag k="addr:housenumber" v="263"/>
    <tag k="addr:street" v="Cox Brook Road"/>
    <tag k="addr:state" v="VT"/>
    <tag k="ref:vcgi:esiteid" v="655735"/>
  </node>
  <node id="-2185" visible="true" lat="44.14365745" lon="-72.6560687">
    <tag k="addr:housenumber" v="351"/>
    <tag k="addr:street" v="South Main Street"/>
    <tag k="addr:state" v="VT"/>
    <tag k="ref:vcgi:esiteid" v="656393"/>
  </node>
  <node id="-2186" visible="true" lat="44.14154326" lon="-72.65492394">
    <tag k="addr:housenumber" v="23"/>
    <tag k="addr:street" v="Tuckaway Lane"/>
    <tag k="addr:state" v="VT"/>
    <tag k="ref:vcgi:esiteid" v="656394"/>
  </node>
  <node id="-2187" visible="true" lat="44.13527909" lon="-72.65882329">
    <tag k="addr:housenumber" v="7"/>
    <tag k="addr:street" v="Overlook Drive"/>
    <tag k="addr:state" v="VT"/>
    <tag k="ref:vcgi:esiteid" v="700026"/>
  </node>
  <node id="-2188" visible="true" lat="44.16328726" lon="-72.73506847">
    <tag k="addr:housenumber" v="291"/>
    <tag k="addr:street" v="Woods Road"/>
    <tag k="addr:state" v="VT"/>
    <tag k="ref:vcgi:esiteid" v="750270"/>
  </node>
  <node id="-2190" visible="true" lat="44.13963164" lon="-72.65879406">
    <tag k="addr:housenumber" v="212"/>
    <tag k="addr:street" v="Harmon Drive"/>
    <tag k="addr:state" v="VT"/>
    <tag k="ref:vcgi:esiteid" v="750952"/>
  </node>
  <node id="-2191" visible="true" lat="44.14089839" lon="-72.71228059">
    <tag k="addr:housenumber" v="946"/>
    <tag k="addr:street" v="Chamberlin Road"/>
    <tag k="addr:state" v="VT"/>
    <tag k="ref:vcgi:esiteid" v="751717"/>
  </node>
  <node id="-2192" visible="true" lat="44.09398896" lon="-72.63386121">
    <tag k="addr:housenumber" v="1755"/>
    <tag k="addr:street" v="Bailey Road"/>
    <tag k="addr:state" v="VT"/>
    <tag k="ref:vcgi:esiteid" v="751719"/>
  </node>
  <node id="-2193" visible="true" lat="44.17574253" lon="-72.71232678">
    <tag k="addr:housenumber" v="2874"/>
    <tag k="addr:street" v="Union Brook Road"/>
    <tag k="addr:state" v="VT"/>
    <tag k="ref:vcgi:esiteid" v="752066"/>
  </node>
  <node id="-2194" visible="true" lat="44.13390157" lon="-72.60506916">
    <tag k="addr:housenumber" v="1539"/>
    <tag k="addr:street" v="Berlin Pond Road"/>
    <tag k="addr:state" v="VT"/>
    <tag k="ref:vcgi:esiteid" v="752198"/>
  </node>
  <node id="-2195" visible="true" lat="44.16133217" lon="-72.62065702">
    <tag k="addr:housenumber" v="2231"/>
    <tag k="addr:street" v="Turkey Hill Road"/>
    <tag k="addr:state" v="VT"/>
    <tag k="ref:vcgi:esiteid" v="752343"/>
  </node>
  <node id="-2196" visible="true" lat="44.13164318" lon="-72.60798491">
    <tag k="addr:housenumber" v="129"/>
    <tag k="addr:street" v="Fairway Road"/>
    <tag k="addr:state" v="VT"/>
    <tag k="ref:vcgi:esiteid" v="752344"/>
  </node>
  <node id="-2198" visible="true" lat="44.12473347" lon="-72.74057696">
    <tag k="addr:housenumber" v="1270"/>
    <tag k="addr:street" v="Rabbit Hollow Road"/>
    <tag k="addr:state" v="VT"/>
    <tag k="ref:vcgi:esiteid" v="752964"/>
  </node>
  <node id="-2200" visible="true" lat="44.17153337" lon="-72.64634084">
    <tag k="addr:housenumber" v="72"/>
    <tag k="addr:street" v="Burnham Road"/>
    <tag k="addr:state" v="VT"/>
    <tag k="ref:vcgi:esiteid" v="753008"/>
  </node>
  <node id="-2201" visible="true" lat="44.17996023" lon="-72.7226749">
    <tag k="addr:housenumber" v="9"/>
    <tag k="addr:street" v="Hallstrom Road"/>
    <tag k="addr:state" v="VT"/>
    <tag k="ref:vcgi:esiteid" v="753051"/>
  </node>
  <node id="-2202" visible="true" lat="44.1509705" lon="-72.72160485">
    <tag k="addr:housenumber" v="2550"/>
    <tag k="addr:street" v="West Hill Road"/>
    <tag k="addr:state" v="VT"/>
    <tag k="ref:vcgi:esiteid" v="753052"/>
  </node>
  <node id="-2203" visible="true" lat="44.10825419" lon="-72.67648223">
    <tag k="addr:housenumber" v="742"/>
    <tag k="addr:street" v="Bull Run Road"/>
    <tag k="addr:state" v="VT"/>
    <tag k="ref:vcgi:esiteid" v="753053"/>
  </node>
  <node id="-2204" visible="true" lat="44.13839904" lon="-72.70769567">
    <tag k="addr:housenumber" v="2404"/>
    <tag k="addr:street" v="Stony Brook Road"/>
    <tag k="addr:state" v="VT"/>
    <tag k="ref:vcgi:esiteid" v="753547"/>
  </node>
  <node id="-2205" visible="true" lat="44.08872286" lon="-72.62864484">
    <tag k="addr:housenumber" v="437"/>
    <tag k="addr:street" v="Frost Road"/>
    <tag k="addr:state" v="VT"/>
    <tag k="ref:vcgi:esiteid" v="753876"/>
  </node>
  <node id="-2206" visible="true" lat="44.12307006" lon="-72.65543447">
    <tag k="addr:housenumber" v="209"/>
    <tag k="addr:street" v="Honeysuckle Terrace"/>
    <tag k="addr:state" v="VT"/>
    <tag k="ref:vcgi:esiteid" v="753951"/>
  </node>
  <node id="-2207" visible="true" lat="44.09298258" lon="-72.63039341">
    <tag k="addr:housenumber" v="1727"/>
    <tag k="addr:street" v="Loop Road"/>
    <tag k="addr:state" v="VT"/>
    <tag k="ref:vcgi:esiteid" v="754365"/>
  </node>
  <node id="-2208" visible="true" lat="44.09775896" lon="-72.62777294">
    <tag k="addr:housenumber" v="1700"/>
    <tag k="addr:street" v="Loop Road"/>
    <tag k="addr:state" v="VT"/>
    <tag k="ref:vcgi:esiteid" v="754366"/>
  </node>
  <node id="-2209" visible="true" lat="44.11642857" lon="-72.68366745">
    <tag k="addr:housenumber" v="321"/>
    <tag k="addr:street" v="Homewilde Lane"/>
    <tag k="addr:state" v="VT"/>
    <tag k="ref:vcgi:esiteid" v="754405"/>
  </node>
  <node id="-2210" visible="true" lat="44.10130338" lon="-72.67609397">
    <tag k="addr:housenumber" v="1221"/>
    <tag k="addr:street" v="Bull Run Road"/>
    <tag k="addr:state" v="VT"/>
    <tag k="ref:vcgi:esiteid" v="754416"/>
  </node>
  <node id="-2211" visible="true" lat="44.10756948" lon="-72.69959988">
    <tag k="addr:housenumber" v="2657"/>
    <tag k="addr:street" v="Vermont Route 12A"/>
    <tag k="addr:state" v="VT"/>
    <tag k="ref:vcgi:esiteid" v="755352"/>
  </node>
  <node id="-2212" visible="true" lat="44.1154151" lon="-72.64979075">
    <tag k="addr:housenumber" v="426"/>
    <tag k="addr:street" v="Vermont Route 64"/>
    <tag k="addr:state" v="VT"/>
    <tag k="ref:vcgi:esiteid" v="756341"/>
  </node>
  <node id="-2213" visible="true" lat="44.12248878" lon="-72.65529085">
    <tag k="addr:housenumber" v="205"/>
    <tag k="addr:street" v="Honeysuckle Terrace"/>
    <tag k="addr:state" v="VT"/>
    <tag k="ref:vcgi:esiteid" v="756518"/>
  </node>
  <node id="-2214" visible="true" lat="44.1255106" lon="-72.66248524">
    <tag k="addr:housenumber" v="76"/>
    <tag k="addr:street" v="Meadowbrook Lane"/>
    <tag k="addr:state" v="VT"/>
    <tag k="ref:vcgi:esiteid" v="756616"/>
  </node>
  <node id="-2216" visible="true" lat="44.10166538" lon="-72.66673059">
    <tag k="addr:housenumber" v="1698"/>
    <tag k="addr:street" v="Winch Hill Road"/>
    <tag k="addr:state" v="VT"/>
    <tag k="ref:vcgi:esiteid" v="756675"/>
  </node>
  <node id="-2217" visible="true" lat="44.1261045" lon="-72.76183412">
    <tag k="addr:housenumber" v="911"/>
    <tag k="addr:street" v="Shaw Road"/>
    <tag k="addr:state" v="VT"/>
    <tag k="ref:vcgi:esiteid" v="756760"/>
  </node>
  <node id="-2218" visible="true" lat="44.13743058" lon="-72.65873283">
    <tag k="addr:housenumber" v="811"/>
    <tag k="addr:street" v="South Main Street"/>
    <tag k="addr:state" v="VT"/>
    <tag k="ref:vcgi:esiteid" v="756837"/>
  </node>
  <node id="-2219" visible="true" lat="44.17784183" lon="-72.70411347">
    <tag k="addr:housenumber" v="2342"/>
    <tag k="addr:street" v="Union Brook Road"/>
    <tag k="addr:state" v="VT"/>
    <tag k="ref:vcgi:esiteid" v="757196"/>
  </node>
  <node id="-2220" visible="true" lat="44.13513027" lon="-72.74363785">
    <tag k="addr:housenumber" v="293"/>
    <tag k="addr:street" v="Clark Road"/>
    <tag k="addr:state" v="VT"/>
    <tag k="ref:vcgi:esiteid" v="757654"/>
  </node>
  <node id="-2221" visible="true" lat="44.15581712" lon="-72.63742387">
    <tag k="addr:housenumber" v="1089"/>
    <tag k="addr:street" v="Turkey Hill Road"/>
    <tag k="addr:state" v="VT"/>
    <tag k="ref:vcgi:esiteid" v="758969"/>
  </node>
  <node id="-2222" visible="true" lat="44.11992658" lon="-72.67925903">
    <tag k="addr:housenumber" v="111"/>
    <tag k="addr:street" v="Smith Hill Road"/>
    <tag k="addr:state" v="VT"/>
    <tag k="ref:vcgi:esiteid" v="759608"/>
  </node>
  <node id="-2224" visible="true" lat="44.17671698" lon="-72.72465911">
    <tag k="addr:housenumber" v="481"/>
    <tag k="addr:street" v="Hallstrom Road"/>
    <tag k="addr:state" v="VT"/>
    <tag k="ref:vcgi:esiteid" v="760628"/>
  </node>
  <node id="-2225" visible="true" lat="44.11649839" lon="-72.68485528">
    <tag k="addr:housenumber" v="241"/>
    <tag k="addr:street" v="Homewilde Lane"/>
    <tag k="addr:state" v="VT"/>
    <tag k="ref:vcgi:esiteid" v="760678"/>
  </node>
  <node id="-2226" visible="true" lat="44.11551284" lon="-72.64507827">
    <tag k="addr:housenumber" v="495"/>
    <tag k="addr:street" v="Old Mill Hill"/>
    <tag k="addr:state" v="VT"/>
    <tag k="ref:vcgi:esiteid" v="760990"/>
  </node>
  <node id="-2227" visible="true" lat="44.12733595" lon="-72.65132916">
    <tag k="addr:housenumber" v="437"/>
    <tag k="addr:street" v="Vermont Route 12 South"/>
    <tag k="addr:state" v="VT"/>
    <tag k="ref:vcgi:esiteid" v="760991"/>
  </node>
  <node id="-2228" visible="true" lat="44.12677979" lon="-72.66234165">
    <tag k="addr:housenumber" v="31"/>
    <tag k="addr:street" v="Meadowbrook Lane"/>
    <tag k="addr:state" v="VT"/>
    <tag k="ref:vcgi:esiteid" v="761118"/>
  </node>
  <node id="-2229" visible="true" lat="44.17965516" lon="-72.67289817">
    <tag k="addr:housenumber" v="1148"/>
    <tag k="addr:street" v="Aseltine Road"/>
    <tag k="addr:state" v="VT"/>
    <tag k="ref:vcgi:esiteid" v="761256"/>
  </node>
  <node id="-2230" visible="true" lat="44.18112036" lon="-72.67521125">
    <tag k="addr:housenumber" v="1135"/>
    <tag k="addr:street" v="Aseltine Road"/>
    <tag k="addr:state" v="VT"/>
    <tag k="ref:vcgi:esiteid" v="761257"/>
  </node>
  <node id="-2231" visible="true" lat="44.11247524" lon="-72.67553167">
    <tag k="addr:housenumber" v="284"/>
    <tag k="addr:street" v="Bull Run Road"/>
    <tag k="addr:state" v="VT"/>
    <tag k="ref:vcgi:esiteid" v="761440"/>
  </node>
  <node id="-2232" visible="true" lat="44.11638996" lon="-72.64286969">
    <tag k="addr:housenumber" v="597"/>
    <tag k="addr:street" v="Old Mill Hill"/>
    <tag k="addr:state" v="VT"/>
    <tag k="ref:vcgi:esiteid" v="761505"/>
  </node>
  <node id="-2233" visible="true" lat="44.1354207" lon="-72.74281153">
    <tag k="addr:housenumber" v="316"/>
    <tag k="addr:street" v="Clark Road"/>
    <tag k="addr:state" v="VT"/>
    <tag k="ref:vcgi:esiteid" v="761596"/>
  </node>
  <node id="-2234" visible="true" lat="44.09565554" lon="-72.63549691">
    <tag k="addr:housenumber" v="1595"/>
    <tag k="addr:street" v="Bailey Road"/>
    <tag k="addr:state" v="VT"/>
    <tag k="ref:vcgi:esiteid" v="761755"/>
  </node>
  <node id="-2235" visible="true" lat="44.12243084" lon="-72.69075293">
    <tag k="addr:housenumber" v="654"/>
    <tag k="addr:street" v="Stony Brook Road"/>
    <tag k="addr:state" v="VT"/>
    <tag k="ref:vcgi:esiteid" v="762403"/>
  </node>
  <node id="-2236" visible="true" lat="44.12102752" lon="-72.74490564">
    <tag k="addr:housenumber" v="1245"/>
    <tag k="addr:street" v="Northfield Road"/>
    <tag k="addr:state" v="VT"/>
    <tag k="ref:vcgi:esiteid" v="763837"/>
  </node>
  <node id="-2237" visible="true" lat="44.11465151" lon="-72.6526706">
    <tag k="addr:housenumber" v="21"/>
    <tag k="addr:street" v="Old Mill Hill"/>
    <tag k="addr:state" v="VT"/>
    <tag k="ref:vcgi:esiteid" v="764820"/>
  </node>
  <node id="-2238" visible="true" lat="44.12564985" lon="-72.66291339">
    <tag k="addr:housenumber" v="74"/>
    <tag k="addr:street" v="Meadowbrook Lane"/>
    <tag k="addr:state" v="VT"/>
    <tag k="ref:vcgi:esiteid" v="765283"/>
  </node>
  <node id="-2239" visible="true" lat="44.12641566" lon="-72.66128072">
    <tag k="addr:housenumber" v="75"/>
    <tag k="addr:street" v="Meadowbrook Lane"/>
    <tag k="addr:state" v="VT"/>
    <tag k="ref:vcgi:esiteid" v="765284"/>
  </node>
  <node id="-2240" visible="true" lat="44.19585475" lon="-72.72054177">
    <tag k="addr:housenumber" v="5"/>
    <tag k="addr:street" v="Washbowl Road"/>
    <tag k="addr:state" v="VT"/>
    <tag k="ref:vcgi:esiteid" v="765285"/>
  </node>
  <node id="-2242" visible="true" lat="44.16684936" lon="-72.64640271">
    <tag k="addr:housenumber" v="375"/>
    <tag k="addr:street" v="Davis Avenue"/>
    <tag k="addr:state" v="VT"/>
    <tag k="ref:vcgi:esiteid" v="765906"/>
  </node>
  <node id="-2243" visible="true" lat="44.14739716" lon="-72.73271881">
    <tag k="addr:housenumber" v="2547"/>
    <tag k="addr:street" v="Hallstrom Road"/>
    <tag k="addr:state" v="VT"/>
    <tag k="ref:vcgi:esiteid" v="766349"/>
  </node>
  <node id="-2244" visible="true" lat="44.1520172" lon="-72.65494271">
    <tag k="addr:housenumber" v="218"/>
    <tag k="addr:street" v="North Main Street"/>
    <tag k="addr:state" v="VT"/>
    <tag k="ref:vcgi:esiteid" v="767247"/>
  </node>
  <node id="-2245" visible="true" lat="44.12478564" lon="-72.6507121">
    <tag k="addr:housenumber" v="391"/>
    <tag k="addr:street" v="Honeysuckle Terrace"/>
    <tag k="addr:state" v="VT"/>
    <tag k="ref:vcgi:esiteid" v="767248"/>
  </node>
  <node id="-2246" visible="true" lat="44.16109271" lon="-72.70063139">
    <tag k="addr:housenumber" v="1022"/>
    <tag k="addr:street" v="West Hill Road"/>
    <tag k="addr:state" v="VT"/>
    <tag k="ref:vcgi:esiteid" v="767359"/>
  </node>
  <node id="-2247" visible="true" lat="44.12496792" lon="-72.71191275">
    <tag k="addr:housenumber" v="874"/>
    <tag k="addr:street" v="Little Northfield Road"/>
    <tag k="addr:state" v="VT"/>
    <tag k="ref:vcgi:esiteid" v="767634"/>
  </node>
  <node id="-2248" visible="true" lat="44.0965027" lon="-72.64928506">
    <tag k="addr:housenumber" v="20"/>
    <tag k="addr:street" v="East Roxbury Road"/>
    <tag k="addr:state" v="VT"/>
    <tag k="ref:vcgi:esiteid" v="767651"/>
  </node>
  <node id="-2249" visible="true" lat="44.14709948" lon="-72.73485659">
    <tag k="addr:housenumber" v="3887"/>
    <tag k="addr:street" v="Stony Brook Road"/>
    <tag k="addr:state" v="VT"/>
    <tag k="ref:vcgi:esiteid" v="767786"/>
  </node>
  <node id="-2250" visible="true" lat="44.16777232" lon="-72.68964064">
    <tag k="addr:housenumber" v="1585"/>
    <tag k="addr:street" v="Union Brook Road"/>
    <tag k="addr:state" v="VT"/>
    <tag k="ref:vcgi:esiteid" v="768074"/>
  </node>
  <node id="-2251" visible="true" lat="44.09614636" lon="-72.6310439">
    <tag k="addr:housenumber" v="1794"/>
    <tag k="addr:street" v="Loop Road"/>
    <tag k="addr:state" v="VT"/>
    <tag k="ref:vcgi:esiteid" v="769478"/>
  </node>
</osm>
