<?xml version="1.0" encoding="UTF-8"?>
<osm version="0.6" generator="JOSM">
  <node id="-122" visible="true" lat="43.79416331" lon="-72.34223048">
    <tag k="addr:housenumber" v="1802"/>
    <tag k="addr:street" v="Turnpike Road"/>
    <tag k="addr:state" v="VT"/>
    <tag k="ref:vcgi:esiteid" v="182129"/>
  </node>
  <node id="-158" visible="true" lat="43.78540802" lon="-72.2729721">
    <tag k="addr:housenumber" v="319"/>
    <tag k="addr:street" v="Kerwin Hill Road"/>
    <tag k="addr:state" v="VT"/>
    <tag k="ref:vcgi:esiteid" v="182166"/>
  </node>
  <node id="-162" visible="true" lat="43.78512606" lon="-72.27438515">
    <tag k="addr:housenumber" v="355"/>
    <tag k="addr:street" v="Kerwin Hill Road"/>
    <tag k="addr:state" v="VT"/>
    <tag k="ref:vcgi:esiteid" v="182170"/>
  </node>
  <node id="-191" visible="true" lat="43.78285197" lon="-72.25697101">
    <tag k="addr:housenumber" v="34"/>
    <tag k="addr:street" v="Academy Road"/>
    <tag k="addr:state" v="VT"/>
    <tag k="ref:vcgi:esiteid" v="182200"/>
  </node>
  <node id="-194" visible="true" lat="43.78245544" lon="-72.28906249">
    <tag k="addr:housenumber" v="107"/>
    <tag k="addr:street" v="Ladeau Road"/>
    <tag k="addr:state" v="VT"/>
    <tag k="ref:vcgi:esiteid" v="182203"/>
  </node>
  <node id="-206" visible="true" lat="43.78148902" lon="-72.30278584">
    <tag k="addr:housenumber" v="1249"/>
    <tag k="addr:street" v="New Boston Road"/>
    <tag k="addr:state" v="VT"/>
    <tag k="ref:vcgi:esiteid" v="182215"/>
  </node>
  <node id="-207" visible="true" lat="43.78099441" lon="-72.25408172">
    <tag k="addr:housenumber" v="537"/>
    <tag k="addr:street" v="Campbell Flats Road"/>
    <tag k="addr:state" v="VT"/>
    <tag k="ref:vcgi:esiteid" v="182216"/>
  </node>
  <node id="-230" visible="true" lat="43.77809524" lon="-72.2986679">
    <tag k="addr:housenumber" v="1090"/>
    <tag k="addr:street" v="New Boston Road"/>
    <tag k="addr:state" v="VT"/>
    <tag k="ref:vcgi:esiteid" v="182240"/>
  </node>
  <node id="-248" visible="true" lat="43.77492726" lon="-72.30094069">
    <tag k="addr:housenumber" v="1003"/>
    <tag k="addr:street" v="New Boston Road"/>
    <tag k="addr:state" v="VT"/>
    <tag k="ref:vcgi:esiteid" v="182258"/>
  </node>
  <node id="-294" visible="true" lat="43.76936595" lon="-72.33093126">
    <tag k="addr:housenumber" v="1184"/>
    <tag k="addr:street" v="Turnpike Road"/>
    <tag k="addr:state" v="VT"/>
    <tag k="ref:vcgi:esiteid" v="182305"/>
  </node>
  <node id="-303" visible="true" lat="43.7685531" lon="-72.21369187">
    <tag k="addr:housenumber" v="1769"/>
    <tag k="addr:street" v="U.S. Route 5 North"/>
    <tag k="addr:state" v="VT"/>
    <tag k="ref:vcgi:esiteid" v="182314"/>
  </node>
  <node id="-305" visible="true" lat="43.76846732" lon="-72.25636945">
    <tag k="addr:housenumber" v="1422"/>
    <tag k="addr:street" v="Union Village Road"/>
    <tag k="addr:state" v="VT"/>
    <tag k="ref:vcgi:esiteid" v="182316"/>
  </node>
  <node id="-311" visible="true" lat="43.76768112" lon="-72.21622467">
    <tag k="addr:housenumber" v="1729"/>
    <tag k="addr:street" v="U.S. Route 5 North"/>
    <tag k="addr:state" v="VT"/>
    <tag k="ref:vcgi:esiteid" v="182322"/>
  </node>
  <node id="-312" visible="true" lat="43.76770708" lon="-72.2609717">
    <tag k="addr:housenumber" v="1401"/>
    <tag k="addr:street" v="Union Village Road"/>
    <tag k="addr:state" v="VT"/>
    <tag k="ref:vcgi:esiteid" v="182323"/>
  </node>
  <node id="-329" visible="true" lat="43.76636063" lon="-72.21949079">
    <tag k="addr:housenumber" v="1649"/>
    <tag k="addr:street" v="U.S. Route 5 North"/>
    <tag k="addr:state" v="VT"/>
    <tag k="ref:vcgi:esiteid" v="182340"/>
  </node>
  <node id="-334" visible="true" lat="43.76600265" lon="-72.23717498">
    <tag k="addr:housenumber" v="143"/>
    <tag k="addr:street" v="Hogback Road"/>
    <tag k="addr:state" v="VT"/>
    <tag k="ref:vcgi:esiteid" v="182345"/>
  </node>
  <node id="-343" visible="true" lat="43.76551437" lon="-72.37107848">
    <tag k="addr:housenumber" v="272"/>
    <tag k="addr:street" v="Chapel Hill Road"/>
    <tag k="addr:state" v="VT"/>
    <tag k="ref:vcgi:esiteid" v="182354"/>
  </node>
  <node id="-374" visible="true" lat="43.7634468" lon="-72.23791503">
    <tag k="addr:housenumber" v="202"/>
    <tag k="addr:street" v="Route 132"/>
    <tag k="addr:state" v="VT"/>
    <tag k="ref:vcgi:esiteid" v="182386"/>
  </node>
  <node id="-469" visible="true" lat="43.75749969" lon="-72.3280487">
    <tag k="addr:housenumber" v="19"/>
    <tag k="addr:street" v="Upper Turnpike Road"/>
    <tag k="addr:state" v="VT"/>
    <tag k="ref:vcgi:esiteid" v="182482"/>
  </node>
  <node id="-479" visible="true" lat="43.75649099" lon="-72.22995043">
    <tag k="addr:housenumber" v="1399"/>
    <tag k="addr:street" v="U.S. Route 5 North"/>
    <tag k="addr:state" v="VT"/>
    <tag k="ref:vcgi:esiteid" v="182492"/>
  </node>
  <node id="-522" visible="true" lat="43.75436782" lon="-72.28308868">
    <tag k="addr:housenumber" v="913"/>
    <tag k="addr:street" v="Union Village Road"/>
    <tag k="addr:state" v="VT"/>
    <tag k="ref:vcgi:esiteid" v="182535"/>
  </node>
  <node id="-531" visible="true" lat="43.7533957" lon="-72.27977236">
    <tag k="addr:housenumber" v="914"/>
    <tag k="addr:street" v="Union Village Road"/>
    <tag k="addr:state" v="VT"/>
    <tag k="ref:vcgi:esiteid" v="182544"/>
  </node>
  <node id="-534" visible="true" lat="43.75342941" lon="-72.36656189">
    <tag k="addr:housenumber" v="66"/>
    <tag k="addr:street" v="Tucker Hill Road"/>
    <tag k="addr:state" v="VT"/>
    <tag k="ref:vcgi:esiteid" v="182547"/>
  </node>
  <node id="-581" visible="true" lat="43.74887493" lon="-72.23210547">
    <tag k="addr:housenumber" v="1224"/>
    <tag k="addr:street" v="U.S. Route 5 North"/>
    <tag k="addr:state" v="VT"/>
    <tag k="ref:vcgi:esiteid" v="182594"/>
  </node>
  <node id="-592" visible="true" lat="43.74874496" lon="-72.23445892">
    <tag k="addr:housenumber" v="1190"/>
    <tag k="addr:street" v="U.S. Route 5 North"/>
    <tag k="addr:state" v="VT"/>
    <tag k="ref:vcgi:esiteid" v="182605"/>
  </node>
  <node id="-617" visible="true" lat="43.74752807" lon="-72.23872375">
    <tag k="addr:housenumber" v="1111"/>
    <tag k="addr:street" v="U.S. Route 5 North"/>
    <tag k="addr:state" v="VT"/>
    <tag k="ref:vcgi:esiteid" v="182630"/>
  </node>
  <node id="-677" visible="true" lat="43.74201062" lon="-72.31928749">
    <tag k="addr:housenumber" v="522"/>
    <tag k="addr:street" v="Turnpike Road"/>
    <tag k="addr:state" v="VT"/>
    <tag k="ref:vcgi:esiteid" v="182692"/>
  </node>
  <node id="-684" visible="true" lat="43.74089285" lon="-72.387788">
    <tag k="addr:housenumber" v="192"/>
    <tag k="addr:street" v="Sue Spaulding Road"/>
    <tag k="addr:state" v="VT"/>
    <tag k="ref:vcgi:esiteid" v="182700"/>
  </node>
  <node id="-705" visible="true" lat="43.73934555" lon="-72.3211975">
    <tag k="addr:housenumber" v="449"/>
    <tag k="addr:street" v="Turnpike Road"/>
    <tag k="addr:state" v="VT"/>
    <tag k="ref:vcgi:esiteid" v="182721"/>
  </node>
  <node id="-727" visible="true" lat="43.73740768" lon="-72.40107727">
    <tag k="addr:housenumber" v="501"/>
    <tag k="addr:street" v="Tigertown Road"/>
    <tag k="addr:state" v="VT"/>
    <tag k="ref:vcgi:esiteid" v="182743"/>
  </node>
  <node id="-735" visible="true" lat="43.73655319" lon="-72.26406097">
    <tag k="addr:housenumber" v="627"/>
    <tag k="addr:street" v="U.S. Route 5 North"/>
    <tag k="addr:state" v="VT"/>
    <tag k="ref:vcgi:esiteid" v="182751"/>
  </node>
  <node id="-743" visible="true" lat="43.73587417" lon="-72.26408386">
    <tag k="addr:housenumber" v="625"/>
    <tag k="addr:street" v="U.S. Route 5 North"/>
    <tag k="addr:state" v="VT"/>
    <tag k="ref:vcgi:esiteid" v="182759"/>
  </node>
  <node id="-782" visible="true" lat="43.73280334" lon="-72.33353424">
    <tag k="addr:housenumber" v="648"/>
    <tag k="addr:street" v="Beaver Meadow Road"/>
    <tag k="addr:state" v="VT"/>
    <tag k="ref:vcgi:esiteid" v="182800"/>
  </node>
  <node id="-826" visible="true" lat="43.72852032" lon="-72.30966708">
    <tag k="addr:housenumber" v="128"/>
    <tag k="addr:street" v="Union Village Road"/>
    <tag k="addr:state" v="VT"/>
    <tag k="ref:vcgi:esiteid" v="182847"/>
  </node>
  <node id="-850" visible="true" lat="43.73241424" lon="-72.39015013">
    <tag k="addr:housenumber" v="1696"/>
    <tag k="addr:street" v="Podunk Road"/>
    <tag k="addr:state" v="VT"/>
    <tag k="ref:vcgi:esiteid" v="182872"/>
  </node>
  <node id="-867" visible="true" lat="43.72595596" lon="-72.27857971">
    <tag k="addr:housenumber" v="288"/>
    <tag k="addr:street" v="U.S. Route 5 North"/>
    <tag k="addr:state" v="VT"/>
    <tag k="ref:vcgi:esiteid" v="182891"/>
  </node>
  <node id="-887" visible="true" lat="43.72539901" lon="-72.32332611">
    <tag k="addr:housenumber" v="386"/>
    <tag k="addr:street" v="Beaver Meadow Road"/>
    <tag k="addr:state" v="VT"/>
    <tag k="ref:vcgi:esiteid" v="182912"/>
  </node>
  <node id="-888" visible="true" lat="43.72539138" lon="-72.32287597">
    <tag k="addr:housenumber" v="394"/>
    <tag k="addr:street" v="Beaver Meadow Road"/>
    <tag k="addr:state" v="VT"/>
    <tag k="ref:vcgi:esiteid" v="182913"/>
  </node>
  <node id="-894" visible="true" lat="43.72701947" lon="-72.39249679">
    <tag k="addr:housenumber" v="1476"/>
    <tag k="addr:street" v="Podunk Road"/>
    <tag k="addr:state" v="VT"/>
    <tag k="ref:vcgi:esiteid" v="182922"/>
  </node>
  <node id="-906" visible="true" lat="43.72467306" lon="-72.31252011">
    <tag k="addr:housenumber" v="66"/>
    <tag k="addr:street" v="Turnpike Road"/>
    <tag k="addr:state" v="VT"/>
    <tag k="ref:vcgi:esiteid" v="182935"/>
  </node>
  <node id="-922" visible="true" lat="43.7240682" lon="-72.32133086">
    <tag k="addr:housenumber" v="82"/>
    <tag k="addr:street" v="Glen Ridge Road"/>
    <tag k="addr:state" v="VT"/>
    <tag k="ref:vcgi:esiteid" v="182953"/>
  </node>
  <node id="-929" visible="true" lat="43.72385043" lon="-72.31864542">
    <tag k="addr:housenumber" v="34"/>
    <tag k="addr:street" v="Glen Ridge Road"/>
    <tag k="addr:state" v="VT"/>
    <tag k="ref:vcgi:esiteid" v="182961"/>
  </node>
  <node id="-939" visible="true" lat="43.72358308" lon="-72.305328">
    <tag k="addr:housenumber" v="66"/>
    <tag k="addr:street" v="Willey Hill Road"/>
    <tag k="addr:state" v="VT"/>
    <tag k="ref:vcgi:esiteid" v="182971"/>
  </node>
  <node id="-952" visible="true" lat="43.72307586" lon="-72.31682586">
    <tag k="addr:housenumber" v="18"/>
    <tag k="addr:street" v="Glen Ridge Road"/>
    <tag k="addr:state" v="VT"/>
    <tag k="ref:vcgi:esiteid" v="182987"/>
  </node>
  <node id="-1080" visible="true" lat="43.71853637" lon="-72.30831909">
    <tag k="addr:housenumber" v="49"/>
    <tag k="addr:street" v="Hazen Street"/>
    <tag k="addr:state" v="VT"/>
    <tag k="ref:vcgi:esiteid" v="183125"/>
  </node>
  <node id="-1093" visible="true" lat="43.71814727" lon="-72.28735351">
    <tag k="addr:housenumber" v="34"/>
    <tag k="addr:street" v="U.S. Route 5 North"/>
    <tag k="addr:state" v="VT"/>
    <tag k="ref:vcgi:esiteid" v="183139"/>
  </node>
  <node id="-1102" visible="true" lat="43.71790313" lon="-72.28770446">
    <tag k="addr:housenumber" v="28"/>
    <tag k="addr:street" v="U.S. Route 5 North"/>
    <tag k="addr:state" v="VT"/>
    <tag k="ref:vcgi:esiteid" v="183148"/>
  </node>
  <node id="-1111" visible="true" lat="43.71773529" lon="-72.28806304">
    <tag k="addr:housenumber" v="22"/>
    <tag k="addr:street" v="U.S. Route 5 North"/>
    <tag k="addr:state" v="VT"/>
    <tag k="ref:vcgi:esiteid" v="183157"/>
  </node>
  <node id="-1149" visible="true" lat="43.71670315" lon="-72.28973636">
    <tag k="addr:housenumber" v="349"/>
    <tag k="addr:street" v="River Road"/>
    <tag k="addr:state" v="VT"/>
    <tag k="ref:vcgi:esiteid" v="183201"/>
  </node>
  <node id="-1168" visible="true" lat="43.71612746" lon="-72.30745722">
    <tag k="addr:housenumber" v="10"/>
    <tag k="addr:street" v="Hazen Street"/>
    <tag k="addr:state" v="VT"/>
    <tag k="ref:vcgi:esiteid" v="183221"/>
  </node>
  <node id="-1180" visible="true" lat="43.71563299" lon="-72.30782397">
    <tag k="addr:housenumber" v="16"/>
    <tag k="addr:street" v="Firehouse Lane"/>
    <tag k="addr:state" v="VT"/>
    <tag k="ref:vcgi:esiteid" v="183233"/>
  </node>
  <node id="-1274" visible="true" lat="43.71381363" lon="-72.30857924">
    <tag k="addr:housenumber" v="295"/>
    <tag k="addr:street" v="Main Street"/>
    <tag k="addr:state" v="VT"/>
    <tag k="ref:vcgi:esiteid" v="183341"/>
  </node>
  <node id="-1337" visible="true" lat="43.71008673" lon="-72.36205356">
    <tag k="addr:housenumber" v="208"/>
    <tag k="addr:street" v="Joshua Road"/>
    <tag k="addr:state" v="VT"/>
    <tag k="ref:vcgi:esiteid" v="183409"/>
  </node>
  <node id="-1391" visible="true" lat="43.70552713" lon="-72.30087577">
    <tag k="addr:housenumber" v="31"/>
    <tag k="addr:street" v="River Road"/>
    <tag k="addr:state" v="VT"/>
    <tag k="ref:vcgi:esiteid" v="183467"/>
  </node>
  <node id="-1392" visible="true" lat="43.70532516" lon="-72.30094342">
    <tag k="addr:housenumber" v="21"/>
    <tag k="addr:street" v="River Road"/>
    <tag k="addr:state" v="VT"/>
    <tag k="ref:vcgi:esiteid" v="183468"/>
  </node>
  <node id="-1396" visible="true" lat="43.70513629" lon="-72.30149876">
    <tag k="addr:housenumber" v="12"/>
    <tag k="addr:street" v="Ledyard Lane"/>
    <tag k="addr:state" v="VT"/>
    <tag k="ref:vcgi:esiteid" v="183472"/>
  </node>
  <node id="-1397" visible="true" lat="43.70499038" lon="-72.31044006">
    <tag k="addr:housenumber" v="80"/>
    <tag k="addr:street" v="U.S. Route 5 South"/>
    <tag k="addr:state" v="VT"/>
    <tag k="ref:vcgi:esiteid" v="183473"/>
  </node>
  <node id="-1399" visible="true" lat="43.70489883" lon="-72.30088043">
    <tag k="addr:housenumber" v="15"/>
    <tag k="addr:street" v="River Road"/>
    <tag k="addr:state" v="VT"/>
    <tag k="ref:vcgi:esiteid" v="183475"/>
  </node>
  <node id="-1400" visible="true" lat="43.7047348" lon="-72.30168151">
    <tag k="addr:housenumber" v="18"/>
    <tag k="addr:street" v="Ledyard Lane"/>
    <tag k="addr:state" v="VT"/>
    <tag k="ref:vcgi:esiteid" v="183476"/>
  </node>
  <node id="-1409" visible="true" lat="43.70449287" lon="-72.30130971">
    <tag k="addr:housenumber" v="11"/>
    <tag k="addr:street" v="Ledyard Lane"/>
    <tag k="addr:state" v="VT"/>
    <tag k="ref:vcgi:esiteid" v="183486"/>
  </node>
  <node id="-1417" visible="true" lat="43.70366052" lon="-72.31271579">
    <tag k="addr:housenumber" v="132"/>
    <tag k="addr:street" v="U.S. Route 5 South"/>
    <tag k="addr:state" v="VT"/>
    <tag k="ref:vcgi:esiteid" v="183494"/>
  </node>
  <node id="-1421" visible="true" lat="43.70319088" lon="-72.31217934">
    <tag k="addr:housenumber" v="133"/>
    <tag k="addr:street" v="U.S. Route 5 South"/>
    <tag k="addr:state" v="VT"/>
    <tag k="ref:vcgi:esiteid" v="183498"/>
  </node>
  <node id="-1423" visible="true" lat="43.70280819" lon="-72.31286007">
    <tag k="addr:housenumber" v="147"/>
    <tag k="addr:street" v="U.S. Route 5 South"/>
    <tag k="addr:state" v="VT"/>
    <tag k="ref:vcgi:esiteid" v="183500"/>
  </node>
  <node id="-1424" visible="true" lat="43.70271535" lon="-72.31144457">
    <tag k="addr:housenumber" v="135"/>
    <tag k="addr:street" v="U.S. Route 5 South"/>
    <tag k="addr:state" v="VT"/>
    <tag k="ref:vcgi:esiteid" v="183501"/>
  </node>
  <node id="-1435" visible="true" lat="43.70067821" lon="-72.31453343">
    <tag k="addr:housenumber" v="221"/>
    <tag k="addr:street" v="U.S. Route 5 South"/>
    <tag k="addr:state" v="VT"/>
    <tag k="ref:vcgi:esiteid" v="183512"/>
  </node>
  <node id="-1437" visible="true" lat="43.69934844" lon="-72.31717681">
    <tag k="addr:housenumber" v="256"/>
    <tag k="addr:street" v="U.S. Route 5 South"/>
    <tag k="addr:state" v="VT"/>
    <tag k="ref:vcgi:esiteid" v="183514"/>
  </node>
  <node id="-1438" visible="true" lat="43.69931793" lon="-72.31741333">
    <tag k="addr:housenumber" v="258"/>
    <tag k="addr:street" v="U.S. Route 5 South"/>
    <tag k="addr:state" v="VT"/>
    <tag k="ref:vcgi:esiteid" v="183515"/>
  </node>
  <node id="-1439" visible="true" lat="43.69800954" lon="-72.31700484">
    <tag k="addr:housenumber" v="287"/>
    <tag k="addr:street" v="U.S. Route 5 South"/>
    <tag k="addr:state" v="VT"/>
    <tag k="ref:vcgi:esiteid" v="183516"/>
  </node>
  <node id="-1440" visible="true" lat="43.69732251" lon="-72.31713014">
    <tag k="addr:housenumber" v="301"/>
    <tag k="addr:street" v="U.S. Route 5 South"/>
    <tag k="addr:state" v="VT"/>
    <tag k="ref:vcgi:esiteid" v="183517"/>
  </node>
  <node id="-1443" visible="true" lat="43.69685729" lon="-72.31755225">
    <tag k="addr:housenumber" v="303"/>
    <tag k="addr:street" v="U.S. Route 5 South"/>
    <tag k="addr:state" v="VT"/>
    <tag k="ref:vcgi:esiteid" v="183520"/>
  </node>
  <node id="-1447" visible="true" lat="43.6958676" lon="-72.31640291">
    <tag k="addr:housenumber" v="317"/>
    <tag k="addr:street" v="U.S. Route 5 South"/>
    <tag k="addr:state" v="VT"/>
    <tag k="ref:vcgi:esiteid" v="183524"/>
  </node>
  <node id="-1449" visible="true" lat="43.7165849" lon="-72.29004614">
    <tag k="addr:housenumber" v="347"/>
    <tag k="addr:street" v="River Road"/>
    <tag k="addr:state" v="VT"/>
    <tag k="ref:vcgi:esiteid" v="183526"/>
  </node>
  <node id="-1477" visible="true" lat="43.77391136" lon="-72.29976482">
    <tag k="addr:housenumber" v="1004"/>
    <tag k="addr:street" v="New Boston Road"/>
    <tag k="addr:state" v="VT"/>
    <tag k="ref:vcgi:esiteid" v="333920"/>
  </node>
  <node id="-1494" visible="true" lat="43.76591314" lon="-72.21813397">
    <tag k="addr:housenumber" v="218"/>
    <tag k="addr:street" v="Kendall Station Road"/>
    <tag k="addr:state" v="VT"/>
    <tag k="ref:vcgi:esiteid" v="334703"/>
  </node>
  <node id="-1509" visible="true" lat="43.75625492" lon="-72.31499165">
    <tag k="addr:housenumber" v="557"/>
    <tag k="addr:street" v="New Boston Road"/>
    <tag k="addr:state" v="VT"/>
    <tag k="ref:vcgi:esiteid" v="334721"/>
  </node>
  <node id="-1520" visible="true" lat="43.7500877" lon="-72.29586917">
    <tag k="addr:housenumber" v="153"/>
    <tag k="addr:street" v="Bradley Hill Road"/>
    <tag k="addr:state" v="VT"/>
    <tag k="ref:vcgi:esiteid" v="334732"/>
  </node>
  <node id="-1527" visible="true" lat="43.75349651" lon="-72.2725755">
    <tag k="addr:housenumber" v="694"/>
    <tag k="addr:street" v="Goodrich Four Corners Road"/>
    <tag k="addr:state" v="VT"/>
    <tag k="ref:vcgi:esiteid" v="334739"/>
  </node>
  <node id="-1529" visible="true" lat="43.76583994" lon="-72.26137461">
    <tag k="addr:housenumber" v="27"/>
    <tag k="addr:street" v="Middle Road"/>
    <tag k="addr:state" v="VT"/>
    <tag k="ref:vcgi:esiteid" v="334741"/>
  </node>
  <node id="-1540" visible="true" lat="43.72727701" lon="-72.38692789">
    <tag k="addr:housenumber" v="577"/>
    <tag k="addr:street" v="Burton Woods Road"/>
    <tag k="addr:state" v="VT"/>
    <tag k="ref:vcgi:esiteid" v="334752"/>
  </node>
  <node id="-1543" visible="true" lat="43.74033039" lon="-72.31719446">
    <tag k="addr:housenumber" v="440"/>
    <tag k="addr:street" v="Turnpike Road"/>
    <tag k="addr:state" v="VT"/>
    <tag k="ref:vcgi:esiteid" v="334755"/>
  </node>
  <node id="-1549" visible="true" lat="43.72027356" lon="-72.32160232">
    <tag k="addr:housenumber" v="108"/>
    <tag k="addr:street" v="Dutton Hill"/>
    <tag k="addr:state" v="VT"/>
    <tag k="ref:vcgi:esiteid" v="334910"/>
  </node>
  <node id="-1562" visible="true" lat="43.71370491" lon="-72.30873546">
    <tag k="addr:housenumber" v="293"/>
    <tag k="addr:street" v="Main Street"/>
    <tag k="addr:state" v="VT"/>
    <tag k="ref:vcgi:esiteid" v="334923"/>
  </node>
  <node id="-1564" visible="true" lat="43.71314576" lon="-72.30788011">
    <tag k="addr:housenumber" v="286"/>
    <tag k="addr:street" v="Main Street"/>
    <tag k="addr:state" v="VT"/>
    <tag k="ref:vcgi:esiteid" v="334925"/>
  </node>
  <node id="-1566" visible="true" lat="43.71011661" lon="-72.31360895">
    <tag k="addr:housenumber" v="93"/>
    <tag k="addr:street" v="Elm Street"/>
    <tag k="addr:state" v="VT"/>
    <tag k="ref:vcgi:esiteid" v="334927"/>
  </node>
  <node id="-1569" visible="true" lat="43.73892026" lon="-72.35171648">
    <tag k="addr:housenumber" v="940"/>
    <tag k="addr:street" v="Bragg Hill Road"/>
    <tag k="addr:state" v="VT"/>
    <tag k="ref:vcgi:esiteid" v="334930"/>
  </node>
  <node id="-1575" visible="true" lat="43.78103612" lon="-72.25400726">
    <tag k="addr:housenumber" v="539"/>
    <tag k="addr:street" v="Campbell Flats Road"/>
    <tag k="addr:state" v="VT"/>
    <tag k="ref:vcgi:esiteid" v="335075"/>
  </node>
  <node id="-1591" visible="true" lat="43.74365693" lon="-72.28360899">
    <tag k="addr:housenumber" v="720"/>
    <tag k="addr:street" v="Union Village Road"/>
    <tag k="addr:state" v="VT"/>
    <tag k="ref:vcgi:esiteid" v="335111"/>
  </node>
  <node id="-1595" visible="true" lat="43.72551305" lon="-72.31973343">
    <tag k="addr:housenumber" v="311"/>
    <tag k="addr:street" v="Beaver Meadow Road"/>
    <tag k="addr:state" v="VT"/>
    <tag k="ref:vcgi:esiteid" v="335120"/>
  </node>
  <node id="-1602" visible="true" lat="43.72649462" lon="-72.29392004">
    <tag k="addr:housenumber" v="111"/>
    <tag k="addr:street" v="Hawk Pine Road"/>
    <tag k="addr:state" v="VT"/>
    <tag k="ref:vcgi:esiteid" v="335127"/>
  </node>
  <node id="-1610" visible="true" lat="43.69798428" lon="-72.31482039">
    <tag k="addr:housenumber" v="223"/>
    <tag k="addr:street" v="U.S. Route 5 South"/>
    <tag k="addr:state" v="VT"/>
    <tag k="ref:vcgi:esiteid" v="337021"/>
  </node>
  <node id="-1612" visible="true" lat="43.72418001" lon="-72.2914336">
    <tag k="addr:housenumber" v="201"/>
    <tag k="addr:street" v="Upper Loveland Road"/>
    <tag k="addr:state" v="VT"/>
    <tag k="ref:vcgi:esiteid" v="338432"/>
  </node>
  <node id="-1614" visible="true" lat="43.76079663" lon="-72.35029013">
    <tag k="addr:housenumber" v="1284"/>
    <tag k="addr:street" v="Beaver Meadow Road"/>
    <tag k="addr:state" v="VT"/>
    <tag k="ref:vcgi:esiteid" v="340785"/>
  </node>
  <node id="-1618" visible="true" lat="43.78675612" lon="-72.27460086">
    <tag k="addr:housenumber" v="350"/>
    <tag k="addr:street" v="Kerwin Hill Road"/>
    <tag k="addr:state" v="VT"/>
    <tag k="ref:vcgi:esiteid" v="446360"/>
  </node>
  <node id="-1626" visible="true" lat="43.72648943" lon="-72.36667104">
    <tag k="addr:housenumber" v="561"/>
    <tag k="addr:street" v="Burton Woods Road"/>
    <tag k="addr:state" v="VT"/>
    <tag k="ref:vcgi:esiteid" v="450357"/>
  </node>
  <node id="-1627" visible="true" lat="43.72962097" lon="-72.38120844">
    <tag k="addr:housenumber" v="561"/>
    <tag k="addr:street" v="Burton Woods Road"/>
    <tag k="addr:state" v="VT"/>
    <tag k="ref:vcgi:esiteid" v="450391"/>
  </node>
  <node id="-1629" visible="true" lat="43.71847988" lon="-72.31535484">
    <tag k="addr:housenumber" v="7"/>
    <tag k="addr:street" v="Bragg Hill Road"/>
    <tag k="addr:state" v="VT"/>
    <tag k="ref:vcgi:esiteid" v="450717"/>
  </node>
  <node id="-1631" visible="true" lat="43.7407205" lon="-72.32544731">
    <tag k="addr:housenumber" v="332"/>
    <tag k="addr:street" v="Brigham Hill Road"/>
    <tag k="addr:state" v="VT"/>
    <tag k="ref:vcgi:esiteid" v="450719"/>
  </node>
  <node id="-1633" visible="true" lat="43.76432773" lon="-72.37804394">
    <tag k="addr:housenumber" v="10"/>
    <tag k="addr:street" v="Ridgewood Hill"/>
    <tag k="addr:state" v="VT"/>
    <tag k="ref:vcgi:esiteid" v="450735"/>
  </node>
  <node id="-1644" visible="true" lat="43.75505559" lon="-72.29422356">
    <tag k="addr:housenumber" v="276"/>
    <tag k="addr:street" v="Bradley Hill Road"/>
    <tag k="addr:state" v="VT"/>
    <tag k="ref:vcgi:esiteid" v="617619"/>
  </node>
  <node id="-1645" visible="true" lat="43.75893169" lon="-72.30740716">
    <tag k="addr:housenumber" v="633"/>
    <tag k="addr:street" v="New Boston Road"/>
    <tag k="addr:state" v="VT"/>
    <tag k="ref:vcgi:esiteid" v="618472"/>
  </node>
  <node id="-1646" visible="true" lat="43.70577521" lon="-72.32184637">
    <tag k="addr:housenumber" v="278"/>
    <tag k="addr:street" v="Hopson Road"/>
    <tag k="addr:state" v="VT"/>
    <tag k="ref:vcgi:esiteid" v="620163"/>
  </node>
  <node id="-1648" visible="true" lat="43.71480318" lon="-72.30776385">
    <tag k="addr:housenumber" v="4"/>
    <tag k="addr:street" v="Lary Lane"/>
    <tag k="addr:state" v="VT"/>
    <tag k="ref:vcgi:esiteid" v="620530"/>
  </node>
  <node id="-1649" visible="true" lat="43.75399851" lon="-72.29399601">
    <tag k="addr:housenumber" v="228"/>
    <tag k="addr:street" v="Bradley Hill Road"/>
    <tag k="addr:state" v="VT"/>
    <tag k="ref:vcgi:esiteid" v="620742"/>
  </node>
  <node id="-1653" visible="true" lat="43.71119237" lon="-72.34660947">
    <tag k="addr:housenumber" v="870"/>
    <tag k="addr:street" v="Newton Lane"/>
    <tag k="addr:state" v="VT"/>
    <tag k="ref:vcgi:esiteid" v="656216"/>
  </node>
  <node id="-1654" visible="true" lat="43.727862" lon="-72.31280147">
    <tag k="addr:housenumber" v="129"/>
    <tag k="addr:street" v="Union Village Road"/>
    <tag k="addr:state" v="VT"/>
    <tag k="ref:vcgi:esiteid" v="656395"/>
  </node>
  <node id="-1660" visible="true" lat="43.77436992" lon="-72.34015834">
    <tag k="addr:housenumber" v="1329"/>
    <tag k="addr:street" v="Turnpike Road"/>
    <tag k="addr:state" v="VT"/>
    <tag k="ref:vcgi:esiteid" v="750980"/>
  </node>
  <node id="-1662" visible="true" lat="43.76461015" lon="-72.29780815">
    <tag k="addr:housenumber" v="44"/>
    <tag k="addr:street" v="Barbara Lee Lane"/>
    <tag k="addr:state" v="VT"/>
    <tag k="ref:vcgi:esiteid" v="752733"/>
  </node>
  <node id="-1670" visible="true" lat="43.7164228" lon="-72.3034695">
    <tag k="addr:housenumber" v="81"/>
    <tag k="addr:street" v="Cliff Street"/>
    <tag k="addr:state" v="VT"/>
    <tag k="ref:vcgi:esiteid" v="753656"/>
  </node>
  <node id="-1673" visible="true" lat="43.78972052" lon="-72.30897514">
    <tag k="addr:housenumber" v="1506"/>
    <tag k="addr:street" v="New Boston Road"/>
    <tag k="addr:state" v="VT"/>
    <tag k="ref:vcgi:esiteid" v="754338"/>
  </node>
  <node id="-1675" visible="true" lat="43.74691167" lon="-72.32575965">
    <tag k="addr:housenumber" v="650"/>
    <tag k="addr:street" v="Turnpike Road"/>
    <tag k="addr:state" v="VT"/>
    <tag k="ref:vcgi:esiteid" v="755659"/>
  </node>
  <node id="-1676" visible="true" lat="43.71428848" lon="-72.30904428">
    <tag k="addr:housenumber" v="311"/>
    <tag k="addr:street" v="Main Street"/>
    <tag k="addr:state" v="VT"/>
    <tag k="ref:vcgi:esiteid" v="755959"/>
  </node>
  <node id="-1678" visible="true" lat="43.73798372" lon="-72.3163763">
    <tag k="addr:housenumber" v="25"/>
    <tag k="addr:street" v="New Boston Road"/>
    <tag k="addr:state" v="VT"/>
    <tag k="ref:vcgi:esiteid" v="756849"/>
  </node>
  <node id="-1680" visible="true" lat="43.72721774" lon="-72.32513246">
    <tag k="addr:housenumber" v="440"/>
    <tag k="addr:street" v="Beaver Meadow Road"/>
    <tag k="addr:state" v="VT"/>
    <tag k="ref:vcgi:esiteid" v="759006"/>
  </node>
  <node id="-1682" visible="true" lat="43.76257549" lon="-72.37781839">
    <tag k="addr:housenumber" v="33"/>
    <tag k="addr:street" v="Mitchell Brook Road"/>
    <tag k="addr:state" v="VT"/>
    <tag k="ref:vcgi:esiteid" v="760473"/>
  </node>
  <node id="-1683" visible="true" lat="43.77277817" lon="-72.21121092">
    <tag k="addr:housenumber" v="31"/>
    <tag k="addr:street" v="Stevens Road"/>
    <tag k="addr:state" v="VT"/>
    <tag k="ref:vcgi:esiteid" v="760739"/>
  </node>
  <node id="-1684" visible="true" lat="43.74497035" lon="-72.32571634">
    <tag k="addr:housenumber" v="599"/>
    <tag k="addr:street" v="Turnpike Road"/>
    <tag k="addr:state" v="VT"/>
    <tag k="ref:vcgi:esiteid" v="760740"/>
  </node>
  <node id="-1685" visible="true" lat="43.74756537" lon="-72.32502919">
    <tag k="addr:housenumber" v="658"/>
    <tag k="addr:street" v="Turnpike Road"/>
    <tag k="addr:state" v="VT"/>
    <tag k="ref:vcgi:esiteid" v="761278"/>
  </node>
  <node id="-1686" visible="true" lat="43.76931655" lon="-72.3650144">
    <tag k="addr:housenumber" v="165"/>
    <tag k="addr:street" v="Stagecoach Road"/>
    <tag k="addr:state" v="VT"/>
    <tag k="ref:vcgi:esiteid" v="761279"/>
  </node>
  <node id="-1687" visible="true" lat="43.76959528" lon="-72.25641777">
    <tag k="addr:housenumber" v="1458"/>
    <tag k="addr:street" v="Union Village Road"/>
    <tag k="addr:state" v="VT"/>
    <tag k="ref:vcgi:esiteid" v="762324"/>
  </node>
  <node id="-1688" visible="true" lat="43.72357408" lon="-72.29843866">
    <tag k="addr:housenumber" v="205"/>
    <tag k="addr:street" v="Hawk Pine Road"/>
    <tag k="addr:state" v="VT"/>
    <tag k="ref:vcgi:esiteid" v="763077"/>
  </node>
  <node id="-1689" visible="true" lat="43.78705049" lon="-72.29314292">
    <tag k="addr:housenumber" v="132"/>
    <tag k="addr:street" v="Norford Lake Road"/>
    <tag k="addr:state" v="VT"/>
    <tag k="ref:vcgi:esiteid" v="763425"/>
  </node>
  <node id="-1690" visible="true" lat="43.72396105" lon="-72.30405125">
    <tag k="addr:housenumber" v="68"/>
    <tag k="addr:street" v="Willey Hill Road"/>
    <tag k="addr:state" v="VT"/>
    <tag k="ref:vcgi:esiteid" v="763856"/>
  </node>
  <node id="-1691" visible="true" lat="43.76046187" lon="-72.27858953">
    <tag k="addr:housenumber" v="110"/>
    <tag k="addr:street" v="Pattrell Road"/>
    <tag k="addr:state" v="VT"/>
    <tag k="ref:vcgi:esiteid" v="765522"/>
  </node>
  <node id="-1692" visible="true" lat="43.72982201" lon="-72.29637645">
    <tag k="addr:housenumber" v="194"/>
    <tag k="addr:street" v="Maple Hill Road"/>
    <tag k="addr:state" v="VT"/>
    <tag k="ref:vcgi:esiteid" v="765720"/>
  </node>
  <node id="-1693" visible="true" lat="43.74779445" lon="-72.32712239">
    <tag k="addr:housenumber" v="665"/>
    <tag k="addr:street" v="Turnpike Road"/>
    <tag k="addr:state" v="VT"/>
    <tag k="ref:vcgi:esiteid" v="765749"/>
  </node>
  <node id="-1694" visible="true" lat="43.74837114" lon="-72.32737696">
    <tag k="addr:housenumber" v="675"/>
    <tag k="addr:street" v="Turnpike Road"/>
    <tag k="addr:state" v="VT"/>
    <tag k="ref:vcgi:esiteid" v="765750"/>
  </node>
  <node id="-1695" visible="true" lat="43.74872407" lon="-72.32769789">
    <tag k="addr:housenumber" v="685"/>
    <tag k="addr:street" v="Turnpike Road"/>
    <tag k="addr:state" v="VT"/>
    <tag k="ref:vcgi:esiteid" v="765751"/>
  </node>
  <node id="-1696" visible="true" lat="43.74770153" lon="-72.33262688">
    <tag k="addr:housenumber" v="661"/>
    <tag k="addr:street" v="Turnpike Road"/>
    <tag k="addr:state" v="VT"/>
    <tag k="ref:vcgi:esiteid" v="765752"/>
  </node>
  <node id="-1697" visible="true" lat="43.74746926" lon="-72.29072316">
    <tag k="addr:housenumber" v="42"/>
    <tag k="addr:street" v="Bradley Hill Road"/>
    <tag k="addr:state" v="VT"/>
    <tag k="ref:vcgi:esiteid" v="765753"/>
  </node>
  <node id="-1698" visible="true" lat="43.74345792" lon="-72.2912039">
    <tag k="addr:housenumber" v="600"/>
    <tag k="addr:street" v="Union Village Road"/>
    <tag k="addr:state" v="VT"/>
    <tag k="ref:vcgi:esiteid" v="765754"/>
  </node>
  <node id="-1699" visible="true" lat="43.72017291" lon="-72.32079887">
    <tag k="addr:housenumber" v="100"/>
    <tag k="addr:street" v="Dutton Hill"/>
    <tag k="addr:state" v="VT"/>
    <tag k="ref:vcgi:esiteid" v="765755"/>
  </node>
  <node id="-1700" visible="true" lat="43.71685088" lon="-72.30716258">
    <tag k="addr:housenumber" v="18"/>
    <tag k="addr:street" v="Dorrance Drive"/>
    <tag k="addr:state" v="VT"/>
    <tag k="ref:vcgi:esiteid" v="765756"/>
  </node>
  <node id="-1701" visible="true" lat="43.77945584" lon="-72.25902858">
    <tag k="addr:housenumber" v="737"/>
    <tag k="addr:street" v="Route 132"/>
    <tag k="addr:state" v="VT"/>
    <tag k="ref:vcgi:esiteid" v="765867"/>
  </node>
  <node id="-1702" visible="true" lat="43.76965757" lon="-72.2977432">
    <tag k="addr:housenumber" v="119"/>
    <tag k="addr:street" v="Barbara Lee Lane"/>
    <tag k="addr:state" v="VT"/>
    <tag k="ref:vcgi:esiteid" v="766416"/>
  </node>
  <node id="-1703" visible="true" lat="43.78797472" lon="-72.29655333">
    <tag k="addr:housenumber" v="145"/>
    <tag k="addr:street" v="Norford Lake Road"/>
    <tag k="addr:state" v="VT"/>
    <tag k="ref:vcgi:esiteid" v="767123"/>
  </node>
  <node id="-1704" visible="true" lat="43.74471249" lon="-72.32435783">
    <tag k="addr:housenumber" v="595"/>
    <tag k="addr:street" v="Turnpike Road"/>
    <tag k="addr:state" v="VT"/>
    <tag k="ref:vcgi:esiteid" v="767939"/>
  </node>
  <node id="-1705" visible="true" lat="43.78699513" lon="-72.26650115">
    <tag k="addr:housenumber" v="782"/>
    <tag k="addr:street" v="Pattrell Road"/>
    <tag k="addr:state" v="VT"/>
    <tag k="ref:vcgi:esiteid" v="768408"/>
  </node>
  <node id="-1706" visible="true" lat="43.77305579" lon="-72.29451818">
    <tag k="addr:housenumber" v="99"/>
    <tag k="addr:street" v="Meetinghouse Road"/>
    <tag k="addr:state" v="VT"/>
    <tag k="ref:vcgi:esiteid" v="768481"/>
  </node>
  <node id="-1708" visible="true" lat="43.74682583" lon="-72.26360588">
    <tag k="addr:housenumber" v="213"/>
    <tag k="addr:street" v="Town Farm Road"/>
    <tag k="addr:state" v="VT"/>
    <tag k="ref:vcgi:esiteid" v="769093"/>
  </node>
  <node id="-1709" visible="true" lat="43.7623583" lon="-72.24636955">
    <tag k="addr:housenumber" v="225"/>
    <tag k="addr:street" v="Waterman Hill Road"/>
    <tag k="addr:state" v="VT"/>
    <tag k="ref:vcgi:esiteid" v="769094"/>
  </node>
  <node id="-1711" visible="true" lat="43.75007967" lon="-72.32727881">
    <tag k="addr:housenumber" v="722"/>
    <tag k="addr:street" v="Turnpike Road"/>
    <tag k="addr:state" v="VT"/>
    <tag k="ref:vcgi:esiteid" v="770086"/>
  </node>
  <node id="-1713" visible="true" lat="43.73896347" lon="-72.27263174">
    <tag k="addr:housenumber" v="64"/>
    <tag k="addr:street" v="Bullock Road"/>
    <tag k="addr:state" v="VT"/>
    <tag k="ref:vcgi:esiteid" v="900047"/>
  </node>
  <node id="-1714" visible="true" lat="43.71143574" lon="-72.31651175">
    <tag k="addr:housenumber" v="137"/>
    <tag k="addr:street" v="Hopson Road"/>
    <tag k="addr:state" v="VT"/>
    <tag k="ref:vcgi:esiteid" v="900207"/>
  </node>
  <node id="-1715" visible="true" lat="43.70483744" lon="-72.30543786">
    <tag k="addr:housenumber" v="2"/>
    <tag k="addr:street" v="Montshire Road"/>
    <tag k="addr:state" v="VT"/>
    <tag k="ref:vcgi:esiteid" v="900487"/>
  </node>
  <node id="-1717" visible="true" lat="43.69767" lon="-72.31517">
    <tag k="addr:housenumber" v="225"/>
    <tag k="addr:street" v="U.S. Route 5 South"/>
    <tag k="addr:state" v="VT"/>
    <tag k="ref:vcgi:esiteid" v="1050644"/>
  </node>
  <node id="-1718" visible="true" lat="43.70312518" lon="-72.30841437">
    <tag k="addr:housenumber" v="214"/>
    <tag k="addr:street" v="Interstate 91 North"/>
    <tag k="addr:state" v="VT"/>
    <tag k="ref:vcgi:esiteid" v="1050646"/>
  </node>
  <node id="-1719" visible="true" lat="43.71808065" lon="-72.29242732">
    <tag k="addr:housenumber" v="636"/>
    <tag k="addr:street" v="Interstate 91 North"/>
    <tag k="addr:state" v="VT"/>
    <tag k="ref:vcgi:esiteid" v="1050647"/>
  </node>
  <node id="-1720" visible="true" lat="43.72948276" lon="-72.28079791">
    <tag k="addr:housenumber" v="958"/>
    <tag k="addr:street" v="Interstate 91 North"/>
    <tag k="addr:state" v="VT"/>
    <tag k="ref:vcgi:esiteid" v="1050648"/>
  </node>
  <node id="-1721" visible="true" lat="43.74076744" lon="-72.26694833">
    <tag k="addr:housenumber" v="1296"/>
    <tag k="addr:street" v="Interstate 91 North"/>
    <tag k="addr:state" v="VT"/>
    <tag k="ref:vcgi:esiteid" v="1050649"/>
  </node>
  <node id="-1722" visible="true" lat="43.74917" lon="-72.2505">
    <tag k="addr:housenumber" v="812"/>
    <tag k="addr:street" v="Interstate 91 South"/>
    <tag k="addr:state" v="VT"/>
    <tag k="ref:vcgi:esiteid" v="1050650"/>
  </node>
  <node id="-1723" visible="true" lat="43.75364947" lon="-72.23878002">
    <tag k="addr:housenumber" v="1837"/>
    <tag k="addr:street" v="Interstate 91 North"/>
    <tag k="addr:state" v="VT"/>
    <tag k="ref:vcgi:esiteid" v="1050651"/>
  </node>
  <node id="-1724" visible="true" lat="43.76674756" lon="-72.22351223">
    <tag k="addr:housenumber" v="2226"/>
    <tag k="addr:street" v="Interstate 91 North"/>
    <tag k="addr:state" v="VT"/>
    <tag k="ref:vcgi:esiteid" v="1050652"/>
  </node>
  <node id="-1725" visible="true" lat="43.72160831" lon="-72.33905702">
    <tag k="addr:housenumber" v="468"/>
    <tag k="addr:street" v="Bragg Hill Road"/>
    <tag k="addr:state" v="VT"/>
    <tag k="ref:vcgi:esiteid" v="1050672"/>
  </node>
</osm>
