<?xml version="1.0" encoding="UTF-8"?>
<osm version="0.6" generator="JOSM">
  <node id="-375" visible="true" lat="43.71503212" lon="-72.30753685">
    <!-- multiple: "8 Carpenter Street, Norwich, VT" Multiple exact matches in OSM. -->
    <tag k="addr:city" v="Norwich"/>
    <tag k="addr:housenumber" v="8"/>
    <tag k="addr:street" v="Carpenter Street"/>
    <tag k="addr:state" v="VT"/>
    <tag k="ref:vcgi:esiteid" v="183281"/>
  </node>
  <node id="-445" visible="true" lat="43.71655959" lon="-72.29011736">
    <!-- multiple: "345 River Road, Norwich, VT" Multiple exact matches in OSM. -->
    <tag k="addr:city" v="Norwich"/>
    <tag k="addr:housenumber" v="345"/>
    <tag k="addr:street" v="River Road"/>
    <tag k="addr:state" v="VT"/>
    <tag k="ref:vcgi:esiteid" v="183527"/>
  </node>
  <node id="-475" visible="true" lat="43.71544265" lon="-72.30885314">
    <!-- multiple: "2 Beaver Meadow Road, Norwich, VT" Multiple exact matches in OSM. -->
    <tag k="addr:city" v="Norwich"/>
    <tag k="addr:housenumber" v="2"/>
    <tag k="addr:street" v="Beaver Meadow Road"/>
    <tag k="addr:state" v="VT"/>
    <tag k="ref:vcgi:esiteid" v="183253"/>
  </node>
  <node id="-534" visible="true" lat="43.71482073" lon="-72.30893312">
    <!-- multiple: "319 Main Street, Norwich, VT" Multiple exact matches in OSM. -->
    <tag k="addr:city" v="Norwich"/>
    <tag k="addr:housenumber" v="319"/>
    <tag k="addr:street" v="Main Street"/>
    <tag k="addr:state" v="VT"/>
    <tag k="ref:vcgi:esiteid" v="183297"/>
  </node>
  <node id="-536" visible="true" lat="43.77936925" lon="-72.25828395">
    <!-- multiple: "742 Route 132, Norwich, VT" Multiple exact matches in OSM. -->
    <tag k="addr:city" v="Norwich"/>
    <tag k="addr:housenumber" v="742"/>
    <tag k="addr:street" v="Route 132"/>
    <tag k="addr:state" v="VT"/>
    <tag k="ref:vcgi:esiteid" v="182228"/>
  </node>
  <node id="-720" visible="true" lat="43.7148214" lon="-72.30822848">
    <!-- multiple: "320 Main Street, Norwich, VT" Multiple exact matches in OSM. -->
    <tag k="addr:city" v="Norwich"/>
    <tag k="addr:housenumber" v="320"/>
    <tag k="addr:street" v="Main Street"/>
    <tag k="addr:state" v="VT"/>
    <tag k="ref:vcgi:esiteid" v="183296"/>
  </node>
  <node id="-744" visible="true" lat="43.71347447" lon="-72.30851375">
    <!-- multiple: "291 Main Street, Norwich, VT" Multiple exact matches in OSM. -->
    <tag k="addr:city" v="Norwich"/>
    <tag k="addr:housenumber" v="291"/>
    <tag k="addr:street" v="Main Street"/>
    <tag k="addr:state" v="VT"/>
    <tag k="ref:vcgi:esiteid" v="183346"/>
  </node>
  <node id="-777" visible="true" lat="43.71433184" lon="-72.30880374">
    <!-- multiple: "309 Main Street, Norwich, VT" Multiple exact matches in OSM. -->
    <tag k="addr:city" v="Norwich"/>
    <tag k="addr:housenumber" v="309"/>
    <tag k="addr:street" v="Main Street"/>
    <tag k="addr:state" v="VT"/>
    <tag k="ref:vcgi:esiteid" v="183310"/>
  </node>
  <node id="-781" visible="true" lat="43.71328371" lon="-72.30850765">
    <!-- multiple: "289 Main Street, Norwich, VT" Multiple exact matches in OSM. -->
    <tag k="addr:city" v="Norwich"/>
    <tag k="addr:housenumber" v="289"/>
    <tag k="addr:street" v="Main Street"/>
    <tag k="addr:state" v="VT"/>
    <tag k="ref:vcgi:esiteid" v="183349"/>
  </node>
  <node id="-829" visible="true" lat="43.71274185" lon="-72.3084793">
    <!-- multiple: "277 Main Street, Norwich, VT" Multiple exact matches in OSM. -->
    <tag k="addr:city" v="Norwich"/>
    <tag k="addr:housenumber" v="277"/>
    <tag k="addr:street" v="Main Street"/>
    <tag k="addr:state" v="VT"/>
    <tag k="ref:vcgi:esiteid" v="183362"/>
  </node>
  <node id="-1216" visible="true" lat="43.71563429" lon="-72.3092725">
    <!-- multiple: "8 Beaver Meadow Road, Norwich, VT" Multiple exact matches in OSM. -->
    <tag k="addr:city" v="Norwich"/>
    <tag k="addr:housenumber" v="8"/>
    <tag k="addr:street" v="Beaver Meadow Road"/>
    <tag k="addr:state" v="VT"/>
    <tag k="ref:vcgi:esiteid" v="183244"/>
  </node>
</osm>
