<?xml version="1.0" encoding="UTF-8"?>
<osm version="0.6" generator="JOSM">
  <node id="-148" visible="true" lat="43.78605373" lon="-72.25920164">
    <!-- conflict: "923 Route 132, Norwich, VT" No match in OSM, but a different address exists <5m away: "923 VT-132, Norwich, VT" -->
    <tag k="addr:city" v="Norwich"/>
    <tag k="addr:housenumber" v="923"/>
    <tag k="addr:street" v="Route 132"/>
    <tag k="addr:state" v="VT"/>
    <tag k="ref:vcgi:esiteid" v="182155"/>
  </node>
  <node id="-177" visible="true" lat="43.78443246" lon="-72.25924671">
    <!-- conflict: "925 Route 132, Norwich, VT" No match in OSM, but a different address exists <5m away: "925 VT-132, Norwich, VT" -->
    <tag k="addr:city" v="Norwich"/>
    <tag k="addr:housenumber" v="925"/>
    <tag k="addr:street" v="Route 132"/>
    <tag k="addr:state" v="VT"/>
    <tag k="ref:vcgi:esiteid" v="182184"/>
  </node>
  <node id="-311" visible="true" lat="43.7680587" lon="-72.21433304">
    <!-- conflict: "1743 U.S. Route 5 North, Norwich, VT" No match in OSM, but a different address exists <5m away: "1743 US Route 5, Norwich, VT" -->
    <tag k="addr:city" v="Norwich"/>
    <tag k="addr:housenumber" v="1743"/>
    <tag k="addr:street" v="U.S. Route 5 North"/>
    <tag k="addr:state" v="VT"/>
    <tag k="ref:vcgi:esiteid" v="182320"/>
  </node>
  <node id="-315" visible="true" lat="43.7677576" lon="-72.21526218">
    <!-- conflict: "1737 U.S. Route 5 North, Norwich, VT" No match in OSM, but a different address exists <5m away: "1737 US Route 5, Norwich, VT" -->
    <tag k="addr:city" v="Norwich"/>
    <tag k="addr:housenumber" v="1737"/>
    <tag k="addr:street" v="U.S. Route 5 North"/>
    <tag k="addr:state" v="VT"/>
    <tag k="ref:vcgi:esiteid" v="182324"/>
  </node>
  <node id="-317" visible="true" lat="43.76771545" lon="-72.37422943">
    <!-- conflict: "65 Sugarhouse Road, Norwich, VT" Fuzzy match to "65 Sugar House Road, Norwich, VT" -->
    <tag k="addr:city" v="Norwich"/>
    <tag k="addr:housenumber" v="65"/>
    <tag k="addr:street" v="Sugarhouse Road"/>
    <tag k="addr:state" v="VT"/>
    <tag k="ref:vcgi:esiteid" v="182326"/>
  </node>
  <node id="-318" visible="true" lat="43.76741705" lon="-72.21681107">
    <!-- conflict: "1717 U.S. Route 5 North, Norwich, VT" No match in OSM, but a different address exists <5m away: "1717 US Route 5, Norwich, VT" -->
    <tag k="addr:city" v="Norwich"/>
    <tag k="addr:housenumber" v="1717"/>
    <tag k="addr:street" v="U.S. Route 5 North"/>
    <tag k="addr:state" v="VT"/>
    <tag k="ref:vcgi:esiteid" v="182327"/>
  </node>
  <node id="-323" visible="true" lat="43.76675578" lon="-72.21797553">
    <!-- conflict: "1701 U.S. Route 5 North, Norwich, VT" No match in OSM, but a different address exists <5m away: "1701 US Route 5, Norwich, VT" -->
    <tag k="addr:city" v="Norwich"/>
    <tag k="addr:housenumber" v="1701"/>
    <tag k="addr:street" v="U.S. Route 5 North"/>
    <tag k="addr:state" v="VT"/>
    <tag k="ref:vcgi:esiteid" v="182332"/>
  </node>
  <node id="-348" visible="true" lat="43.765316" lon="-72.38341522">
    <!-- conflict: "66 Ridgewood Hill, Norwich, VT" Fuzzy match to "66 Ridgewood Hill Road, Norwich, VT" -->
    <tag k="addr:city" v="Norwich"/>
    <tag k="addr:housenumber" v="66"/>
    <tag k="addr:street" v="Ridgewood Hill"/>
    <tag k="addr:state" v="VT"/>
    <tag k="ref:vcgi:esiteid" v="182357"/>
  </node>
  <node id="-357" visible="true" lat="43.76456451" lon="-72.37862396">
    <!-- conflict: "24 Ridgewood Hill, Norwich, VT" Fuzzy match to "24 Ridgewood Hill Road, Norwich, VT" -->
    <tag k="addr:city" v="Norwich"/>
    <tag k="addr:housenumber" v="24"/>
    <tag k="addr:street" v="Ridgewood Hill"/>
    <tag k="addr:state" v="VT"/>
    <tag k="ref:vcgi:esiteid" v="182366"/>
  </node>
  <node id="-366" visible="true" lat="43.76419673" lon="-72.37949481">
    <!-- conflict: "27 Ridgewood Hill, Norwich, VT" Fuzzy match to "27 Ridgewood Hill Road, Norwich, VT" -->
    <tag k="addr:city" v="Norwich"/>
    <tag k="addr:housenumber" v="27"/>
    <tag k="addr:street" v="Ridgewood Hill"/>
    <tag k="addr:state" v="VT"/>
    <tag k="ref:vcgi:esiteid" v="182376"/>
  </node>
  <node id="-457" visible="true" lat="43.75844955" lon="-72.2279129">
    <!-- conflict: "1440 U.S. Route 5 North, Norwich, VT" Fuzzy match to "1440 US Route 5 North, Norwich, VT" -->
    <tag k="addr:city" v="Norwich"/>
    <tag k="addr:housenumber" v="1440"/>
    <tag k="addr:street" v="U.S. Route 5 North"/>
    <tag k="addr:state" v="VT"/>
    <tag k="ref:vcgi:esiteid" v="182467"/>
  </node>
  <node id="-476" visible="true" lat="43.7571907" lon="-72.33746337">
    <!-- conflict: "108 Bobwhite Lane, Norwich, VT" Fuzzy match to "108 Bob White Lane, Norwich, VT" -->
    <tag k="addr:city" v="Norwich"/>
    <tag k="addr:housenumber" v="108"/>
    <tag k="addr:street" v="Bobwhite Lane"/>
    <tag k="addr:state" v="VT"/>
    <tag k="ref:vcgi:esiteid" v="182487"/>
  </node>
  <node id="-505" visible="true" lat="43.75551223" lon="-72.33228301">
    <!-- conflict: "102 Bobwhite Lane, Norwich, VT" Fuzzy match to "102 Bob White Lane, Norwich, VT" -->
    <tag k="addr:city" v="Norwich"/>
    <tag k="addr:housenumber" v="102"/>
    <tag k="addr:street" v="Bobwhite Lane"/>
    <tag k="addr:state" v="VT"/>
    <tag k="ref:vcgi:esiteid" v="182516"/>
  </node>
  <node id="-557" visible="true" lat="43.75200475" lon="-72.33120726">
    <!-- conflict: "37 Bobwhite Lane, Norwich, VT" Fuzzy match to "37 Bob White Lane, Norwich, VT" -->
    <tag k="addr:city" v="Norwich"/>
    <tag k="addr:housenumber" v="37"/>
    <tag k="addr:street" v="Bobwhite Lane"/>
    <tag k="addr:state" v="VT"/>
    <tag k="ref:vcgi:esiteid" v="182568"/>
  </node>
  <node id="-558" visible="true" lat="43.75182089" lon="-72.32995339">
    <!-- conflict: "23 Bobwhite Lane, Norwich, VT" Fuzzy match to "23 Bob White Lane, Norwich, VT" -->
    <tag k="addr:city" v="Norwich"/>
    <tag k="addr:housenumber" v="23"/>
    <tag k="addr:street" v="Bobwhite Lane"/>
    <tag k="addr:state" v="VT"/>
    <tag k="ref:vcgi:esiteid" v="182569"/>
  </node>
  <node id="-578" visible="true" lat="43.74934121" lon="-72.23240342">
    <!-- conflict: "1222 U.S. Route 5 North, Norwich, VT" No match in OSM, but a different address exists <5m away: "1222 US Route 5, Norwich, VT" -->
    <tag k="addr:city" v="Norwich"/>
    <tag k="addr:housenumber" v="1222"/>
    <tag k="addr:street" v="U.S. Route 5 North"/>
    <tag k="addr:state" v="VT"/>
    <tag k="ref:vcgi:esiteid" v="182589"/>
  </node>
  <node id="-608" visible="true" lat="43.7480812" lon="-72.23757934">
    <!-- conflict: "1141 U.S. Route 5 North, Norwich, VT" No match in OSM, but a different address exists <5m away: "1141 US Route 5, Norwich, VT" -->
    <tag k="addr:city" v="Norwich"/>
    <tag k="addr:housenumber" v="1141"/>
    <tag k="addr:street" v="U.S. Route 5 North"/>
    <tag k="addr:state" v="VT"/>
    <tag k="ref:vcgi:esiteid" v="182619"/>
  </node>
  <node id="-642" visible="true" lat="43.74598005" lon="-72.29495557">
    <!-- conflict: "60 Bradley Hill Road, Norwich, VT" Fuzzy match to "60 Bradley Hill Road, , " -->
    <tag k="addr:city" v="Norwich"/>
    <tag k="addr:housenumber" v="60"/>
    <tag k="addr:street" v="Bradley Hill Road"/>
    <tag k="addr:state" v="VT"/>
    <tag k="ref:vcgi:esiteid" v="182654"/>
  </node>
  <node id="-776" visible="true" lat="43.73356628" lon="-72.27299499">
    <!-- conflict: "445 U.S. Route 5 North, Norwich, VT" No match in OSM, but a different address exists <5m away: "445 US Route 5, Norwich, VT" -->
    <tag k="addr:city" v="Norwich"/>
    <tag k="addr:housenumber" v="445"/>
    <tag k="addr:street" v="U.S. Route 5 North"/>
    <tag k="addr:state" v="VT"/>
    <tag k="ref:vcgi:esiteid" v="182792"/>
  </node>
  <node id="-779" visible="true" lat="43.73338814" lon="-72.2732773">
    <!-- conflict: "443 U.S. Route 5 North, Norwich, VT" No match in OSM, but a different address exists <5m away: "443 US Route 5, Norwich, VT" -->
    <tag k="addr:city" v="Norwich"/>
    <tag k="addr:housenumber" v="443"/>
    <tag k="addr:street" v="U.S. Route 5 North"/>
    <tag k="addr:state" v="VT"/>
    <tag k="ref:vcgi:esiteid" v="182795"/>
  </node>
  <node id="-786" visible="true" lat="43.73218536" lon="-72.27408599">
    <!-- conflict: "419 U.S. Route 5 North, Norwich, VT" No match in OSM, but a different address exists <5m away: "419 US Route 5, Norwich, VT" -->
    <tag k="addr:city" v="Norwich"/>
    <tag k="addr:housenumber" v="419"/>
    <tag k="addr:street" v="U.S. Route 5 North"/>
    <tag k="addr:state" v="VT"/>
    <tag k="ref:vcgi:esiteid" v="182803"/>
  </node>
  <node id="-829" visible="true" lat="43.72822335" lon="-72.27655856">
    <!-- conflict: "319 U.S. Route 5 North, Norwich, VT" No match in OSM, but a different address exists <5m away: "319 US Route 5, Norwich, VT" -->
    <tag k="addr:city" v="Norwich"/>
    <tag k="addr:housenumber" v="319"/>
    <tag k="addr:street" v="U.S. Route 5 North"/>
    <tag k="addr:state" v="VT"/>
    <tag k="ref:vcgi:esiteid" v="182848"/>
  </node>
  <node id="-835" visible="true" lat="43.72811885" lon="-72.27694079">
    <!-- conflict: "317 U.S. Route 5 North, Norwich, VT" No match in OSM, but a different address exists <5m away: "317 US Route 5, Norwich, VT" -->
    <tag k="addr:city" v="Norwich"/>
    <tag k="addr:housenumber" v="317"/>
    <tag k="addr:street" v="U.S. Route 5 North"/>
    <tag k="addr:state" v="VT"/>
    <tag k="ref:vcgi:esiteid" v="182854"/>
  </node>
  <node id="-891" visible="true" lat="43.72527313" lon="-72.32060241">
    <!-- conflict: "80 Glen Ridge Road, Norwich, VT" No match in OSM, but a different address exists <5m away: "80 Glenridge Road, Norwich, VT" -->
    <tag k="addr:city" v="Norwich"/>
    <tag k="addr:housenumber" v="80"/>
    <tag k="addr:street" v="Glen Ridge Road"/>
    <tag k="addr:state" v="VT"/>
    <tag k="ref:vcgi:esiteid" v="182915"/>
  </node>
  <node id="-907" visible="true" lat="43.72470112" lon="-72.32014729">
    <!-- conflict: "64 Glen Ridge Road, Norwich, VT" No match in OSM, but a different address exists <5m away: "64 Glenridge Road, Norwich, VT" -->
    <tag k="addr:city" v="Norwich"/>
    <tag k="addr:housenumber" v="64"/>
    <tag k="addr:street" v="Glen Ridge Road"/>
    <tag k="addr:state" v="VT"/>
    <tag k="ref:vcgi:esiteid" v="182934"/>
  </node>
  <node id="-927" visible="true" lat="43.72401918" lon="-72.3193241">
    <!-- conflict: "44 Glen Ridge Road, Norwich, VT" No match in OSM, but a different address exists <5m away: "44 Glenridge Road, Norwich, VT" -->
    <tag k="addr:city" v="Norwich"/>
    <tag k="addr:housenumber" v="44"/>
    <tag k="addr:street" v="Glen Ridge Road"/>
    <tag k="addr:state" v="VT"/>
    <tag k="ref:vcgi:esiteid" v="182956"/>
  </node>
  <node id="-933" visible="true" lat="43.72361837" lon="-72.31965659">
    <!-- conflict: "63 Glen Ridge Road, Norwich, VT" No match in OSM, but a different address exists <5m away: "63 Glenridge Road, Norwich, VT" -->
    <tag k="addr:city" v="Norwich"/>
    <tag k="addr:housenumber" v="63"/>
    <tag k="addr:street" v="Glen Ridge Road"/>
    <tag k="addr:state" v="VT"/>
    <tag k="ref:vcgi:esiteid" v="182963"/>
  </node>
  <node id="-935" visible="true" lat="43.72351117" lon="-72.31912601">
    <!-- conflict: "53 Glen Ridge Road, Norwich, VT" No match in OSM, but a different address exists <5m away: "53 Glenridge Road, Norwich, VT" -->
    <tag k="addr:city" v="Norwich"/>
    <tag k="addr:housenumber" v="53"/>
    <tag k="addr:street" v="Glen Ridge Road"/>
    <tag k="addr:state" v="VT"/>
    <tag k="ref:vcgi:esiteid" v="182965"/>
  </node>
  <node id="-942" visible="true" lat="43.72317401" lon="-72.31831624">
    <!-- conflict: "35 Glen Ridge Road, Norwich, VT" No match in OSM, but a different address exists <5m away: "35 Glenridge Road, Norwich, VT" -->
    <tag k="addr:city" v="Norwich"/>
    <tag k="addr:housenumber" v="35"/>
    <tag k="addr:street" v="Glen Ridge Road"/>
    <tag k="addr:state" v="VT"/>
    <tag k="ref:vcgi:esiteid" v="182972"/>
  </node>
  <node id="-948" visible="true" lat="43.72324255" lon="-72.32108751">
    <!-- conflict: "79 Glen Ridge Road, Norwich, VT" No match in OSM, but a different address exists <5m away: "79 Glenridge Road, Norwich, VT" -->
    <tag k="addr:city" v="Norwich"/>
    <tag k="addr:housenumber" v="79"/>
    <tag k="addr:street" v="Glen Ridge Road"/>
    <tag k="addr:state" v="VT"/>
    <tag k="ref:vcgi:esiteid" v="182978"/>
  </node>
  <node id="-959" visible="true" lat="43.72297645" lon="-72.32020901">
    <!-- conflict: "73 Glen Ridge Road, Norwich, VT" No match in OSM, but a different address exists <5m away: "73 Glenridge Road, Norwich, VT" -->
    <tag k="addr:city" v="Norwich"/>
    <tag k="addr:housenumber" v="73"/>
    <tag k="addr:street" v="Glen Ridge Road"/>
    <tag k="addr:state" v="VT"/>
    <tag k="ref:vcgi:esiteid" v="182993"/>
  </node>
  <node id="-1065" visible="true" lat="43.7192039" lon="-72.30915603">
    <!-- conflict: "422 Main Street, Norwich, VT" No match in OSM, but a different address exists <5m away: "422 Hazen Street, Norwich, VT" -->
    <tag k="addr:city" v="Norwich"/>
    <tag k="addr:housenumber" v="422"/>
    <tag k="addr:street" v="Main Street"/>
    <tag k="addr:state" v="VT"/>
    <tag k="ref:vcgi:esiteid" v="183103"/>
  </node>
  <node id="-1071" visible="true" lat="43.71894764" lon="-72.29891236">
    <!-- conflict: "65 Four Wheel Drive, Norwich, VT" Fuzzy match to "65 Four Wheel Drive, , " -->
    <tag k="addr:city" v="Norwich"/>
    <tag k="addr:housenumber" v="65"/>
    <tag k="addr:street" v="Four Wheel Drive"/>
    <tag k="addr:state" v="VT"/>
    <tag k="ref:vcgi:esiteid" v="183110"/>
  </node>
  <node id="-1076" visible="true" lat="43.71891564" lon="-72.30903329">
    <!-- conflict: "410 Main Street, Norwich, VT" No match in OSM, but a different address exists <5m away: "410 Hazen Street, Norwich, VT" -->
    <tag k="addr:city" v="Norwich"/>
    <tag k="addr:housenumber" v="410"/>
    <tag k="addr:street" v="Main Street"/>
    <tag k="addr:state" v="VT"/>
    <tag k="ref:vcgi:esiteid" v="183117"/>
  </node>
  <node id="-1084" visible="true" lat="43.71851715" lon="-72.28681603">
    <!-- conflict: "48 U.S. Route 5 North, Norwich, VT" No match in OSM, but a different address exists <5m away: "48 US Route 5, Norwich, VT" -->
    <tag k="addr:city" v="Norwich"/>
    <tag k="addr:housenumber" v="48"/>
    <tag k="addr:street" v="U.S. Route 5 North"/>
    <tag k="addr:state" v="VT"/>
    <tag k="ref:vcgi:esiteid" v="183128"/>
  </node>
  <node id="-1107" visible="true" lat="43.71774715" lon="-72.31211501">
    <!-- conflict: "70 Beaver Meadow Road, Norwich, VT" Fuzzy match to "70 Beaver Meadow Road, Norwich, " -->
    <tag k="addr:city" v="Norwich"/>
    <tag k="addr:housenumber" v="70"/>
    <tag k="addr:street" v="Beaver Meadow Road"/>
    <tag k="addr:state" v="VT"/>
    <tag k="ref:vcgi:esiteid" v="183151"/>
  </node>
  <node id="-1170" visible="true" lat="43.71608953" lon="-72.3075624">
    <!-- conflict: "10 Hazen Street, Norwich, VT" No match in OSM, but a different address exists <5m away: " , Norwich, " -->
    <tag k="addr:city" v="Norwich"/>
    <tag k="addr:housenumber" v="10"/>
    <tag k="addr:street" v="Hazen Street"/>
    <tag k="addr:state" v="VT"/>
    <tag k="ref:vcgi:esiteid" v="183221"/>
  </node>
  <node id="-1199" visible="true" lat="43.71546465" lon="-72.31329679">
    <!-- conflict: "28 Hopson Road, Norwich, VT" Fuzzy match to "28 Hopson Road, , " -->
    <tag k="addr:city" v="Norwich"/>
    <tag k="addr:housenumber" v="28"/>
    <tag k="addr:street" v="Hopson Road"/>
    <tag k="addr:state" v="VT"/>
    <tag k="ref:vcgi:esiteid" v="183254"/>
  </node>
  <node id="-1269" visible="true" lat="43.7139698" lon="-72.30741626">
    <!-- conflict: "15 Church Street, Norwich, VT" Fuzzy match to "15 Church Street, Norwich, " -->
    <tag k="addr:city" v="Norwich"/>
    <tag k="addr:housenumber" v="15"/>
    <tag k="addr:street" v="Church Street"/>
    <tag k="addr:state" v="VT"/>
    <tag k="ref:vcgi:esiteid" v="183333"/>
  </node>
  <node id="-1361" visible="true" lat="43.708814" lon="-72.3245512">
    <!-- conflict: "64 Hickory Ridge, Norwich, VT" Fuzzy match to "64 Hickory Ridge Road, Norwich, VT" -->
    <tag k="addr:city" v="Norwich"/>
    <tag k="addr:housenumber" v="64"/>
    <tag k="addr:street" v="Hickory Ridge"/>
    <tag k="addr:state" v="VT"/>
    <tag k="ref:vcgi:esiteid" v="183433"/>
  </node>
  <node id="-1371" visible="true" lat="43.70809229" lon="-72.32444335">
    <!-- conflict: "80 Hickory Ridge, Norwich, VT" Fuzzy match to "80 Hickory Ridge Road, Norwich, VT" -->
    <tag k="addr:city" v="Norwich"/>
    <tag k="addr:housenumber" v="80"/>
    <tag k="addr:street" v="Hickory Ridge"/>
    <tag k="addr:state" v="VT"/>
    <tag k="ref:vcgi:esiteid" v="183444"/>
  </node>
  <node id="-1376" visible="true" lat="43.70716014" lon="-72.32402947">
    <!-- conflict: "101 Hickory Ridge, Norwich, VT" Fuzzy match to "101 Hickory Ridge Road, Norwich, VT" -->
    <tag k="addr:city" v="Norwich"/>
    <tag k="addr:housenumber" v="101"/>
    <tag k="addr:street" v="Hickory Ridge"/>
    <tag k="addr:state" v="VT"/>
    <tag k="ref:vcgi:esiteid" v="183449"/>
  </node>
  <node id="-1387" visible="true" lat="43.70609283" lon="-72.32463836">
    <!-- conflict: "121 Hickory Ridge, Norwich, VT" Fuzzy match to "121 Hickory Ridge Road, Norwich, VT" -->
    <tag k="addr:city" v="Norwich"/>
    <tag k="addr:housenumber" v="121"/>
    <tag k="addr:street" v="Hickory Ridge"/>
    <tag k="addr:state" v="VT"/>
    <tag k="ref:vcgi:esiteid" v="183461"/>
  </node>
  <node id="-1389" visible="true" lat="43.70602417" lon="-72.32575988">
    <!-- conflict: "144 Hickory Ridge, Norwich, VT" Fuzzy match to "144 Hickory Ridge Road, Norwich, VT" -->
    <tag k="addr:city" v="Norwich"/>
    <tag k="addr:housenumber" v="144"/>
    <tag k="addr:street" v="Hickory Ridge"/>
    <tag k="addr:state" v="VT"/>
    <tag k="ref:vcgi:esiteid" v="183463"/>
  </node>
  <node id="-1397" visible="true" lat="43.70529742" lon="-72.3087495">
    <!-- conflict: "63 U.S. Route 5 South, Norwich, VT" No match in OSM, but a different address exists <5m away: "63 US Route 5, Norwich, VT" -->
    <tag k="addr:city" v="Norwich"/>
    <tag k="addr:housenumber" v="63"/>
    <tag k="addr:street" v="U.S. Route 5 South"/>
    <tag k="addr:state" v="VT"/>
    <tag k="ref:vcgi:esiteid" v="183471"/>
  </node>
  <node id="-1400" visible="true" lat="43.70495986" lon="-72.32578277">
    <!-- conflict: "137 Hickory Ridge, Norwich, VT" Fuzzy match to "137 Hickory Ridge Road, Norwich, VT" -->
    <tag k="addr:city" v="Norwich"/>
    <tag k="addr:housenumber" v="137"/>
    <tag k="addr:street" v="Hickory Ridge"/>
    <tag k="addr:state" v="VT"/>
    <tag k="ref:vcgi:esiteid" v="183474"/>
  </node>
  <node id="-1405" visible="true" lat="43.70469668" lon="-72.30088092">
    <!-- conflict: "2 Ledyard Lane, Norwich, VT" Fuzzy match to "2 Ledyard Lane, Norwich, " -->
    <tag k="addr:city" v="Norwich"/>
    <tag k="addr:housenumber" v="2"/>
    <tag k="addr:street" v="Ledyard Lane"/>
    <tag k="addr:state" v="VT"/>
    <tag k="ref:vcgi:esiteid" v="183479"/>
  </node>
  <node id="-1417" visible="true" lat="43.70379257" lon="-72.32618713">
    <!-- conflict: "159 Hickory Ridge, Norwich, VT" Fuzzy match to "159 Hickory Ridge Road, Norwich, VT" -->
    <tag k="addr:city" v="Norwich"/>
    <tag k="addr:housenumber" v="159"/>
    <tag k="addr:street" v="Hickory Ridge"/>
    <tag k="addr:state" v="VT"/>
    <tag k="ref:vcgi:esiteid" v="183492"/>
  </node>
  <node id="-1428" visible="true" lat="43.70242793" lon="-72.3133164">
    <!-- conflict: "155 U.S. Route 5 South, Norwich, VT" No match in OSM, but a different address exists <5m away: "163 Route 5 South, Norwich, VT" -->
    <tag k="addr:city" v="Norwich"/>
    <tag k="addr:housenumber" v="155"/>
    <tag k="addr:street" v="U.S. Route 5 South"/>
    <tag k="addr:state" v="VT"/>
    <tag k="ref:vcgi:esiteid" v="183503"/>
  </node>
  <node id="-1438" visible="true" lat="43.70027415" lon="-72.30513957">
    <!-- conflict: "35 Montshire Road, Norwich, VT" No match in OSM, but a different address exists <5m away: "1 Montshire Road, Norwich, VT" -->
    <tag k="addr:city" v="Norwich"/>
    <tag k="addr:housenumber" v="35"/>
    <tag k="addr:street" v="Montshire Road"/>
    <tag k="addr:state" v="VT"/>
    <tag k="ref:vcgi:esiteid" v="183513"/>
  </node>
  <node id="-1443" visible="true" lat="43.69735012" lon="-72.31891156">
    <!-- conflict: "304 U.S. Route 5 South, Norwich, VT" No match in OSM, but a different address exists <5m away: "304 US Route 5, Norwich, VT" -->
    <tag k="addr:city" v="Norwich"/>
    <tag k="addr:housenumber" v="304"/>
    <tag k="addr:street" v="U.S. Route 5 South"/>
    <tag k="addr:state" v="VT"/>
    <tag k="ref:vcgi:esiteid" v="183518"/>
  </node>
  <node id="-1444" visible="true" lat="43.69706332" lon="-72.31881738">
    <!-- conflict: "318 U.S. Route 5 South, Norwich, VT" No match in OSM, but a different address exists <5m away: "318 US Route 5, Norwich, VT" -->
    <tag k="addr:city" v="Norwich"/>
    <tag k="addr:housenumber" v="318"/>
    <tag k="addr:street" v="U.S. Route 5 South"/>
    <tag k="addr:state" v="VT"/>
    <tag k="ref:vcgi:esiteid" v="183519"/>
  </node>
  <node id="-1446" visible="true" lat="43.69670623" lon="-72.31911482">
    <!-- conflict: "320 U.S. Route 5 South, Norwich, VT" No match in OSM, but a different address exists <5m away: "320 US Route 5, Norwich, VT" -->
    <tag k="addr:city" v="Norwich"/>
    <tag k="addr:housenumber" v="320"/>
    <tag k="addr:street" v="U.S. Route 5 South"/>
    <tag k="addr:state" v="VT"/>
    <tag k="ref:vcgi:esiteid" v="183521"/>
  </node>
  <node id="-1447" visible="true" lat="43.6964977" lon="-72.31830057">
    <!-- conflict: "319 U.S. Route 5 South, Norwich, VT" No match in OSM, but a different address exists <5m away: "319 US Route 5, Norwich, VT" -->
    <tag k="addr:city" v="Norwich"/>
    <tag k="addr:housenumber" v="319"/>
    <tag k="addr:street" v="U.S. Route 5 South"/>
    <tag k="addr:state" v="VT"/>
    <tag k="ref:vcgi:esiteid" v="183522"/>
  </node>
  <node id="-1448" visible="true" lat="43.69631936" lon="-72.31842715">
    <!-- conflict: "321 U.S. Route 5 South, Norwich, VT" No match in OSM, but a different address exists <5m away: "321 US Route 5, Norwich, VT" -->
    <tag k="addr:city" v="Norwich"/>
    <tag k="addr:housenumber" v="321"/>
    <tag k="addr:street" v="U.S. Route 5 South"/>
    <tag k="addr:state" v="VT"/>
    <tag k="ref:vcgi:esiteid" v="183523"/>
  </node>
  <node id="-1500" visible="true" lat="43.76721094" lon="-72.21805063">
    <!-- conflict: "1703 U.S. Route 5 North, Norwich, VT" No match in OSM, but a different address exists <5m away: "1703 US Route 5, Norwich, VT" -->
    <tag k="addr:city" v="Norwich"/>
    <tag k="addr:housenumber" v="1703"/>
    <tag k="addr:street" v="U.S. Route 5 North"/>
    <tag k="addr:state" v="VT"/>
    <tag k="ref:vcgi:esiteid" v="334707"/>
  </node>
  <node id="-1501" visible="true" lat="43.7672865" lon="-72.2174191">
    <!-- conflict: "1705 U.S. Route 5 North, Norwich, VT" No match in OSM, but a different address exists <5m away: "1705 US Route 5, Norwich, VT" -->
    <tag k="addr:city" v="Norwich"/>
    <tag k="addr:housenumber" v="1705"/>
    <tag k="addr:street" v="U.S. Route 5 North"/>
    <tag k="addr:state" v="VT"/>
    <tag k="ref:vcgi:esiteid" v="334709"/>
  </node>
  <node id="-1504" visible="true" lat="43.75243015" lon="-72.33274034">
    <!-- conflict: "75 Bobwhite Lane, Norwich, VT" Fuzzy match to "75 Bob White Lane, Norwich, VT" -->
    <tag k="addr:city" v="Norwich"/>
    <tag k="addr:housenumber" v="75"/>
    <tag k="addr:street" v="Bobwhite Lane"/>
    <tag k="addr:state" v="VT"/>
    <tag k="ref:vcgi:esiteid" v="334712"/>
  </node>
  <node id="-1505" visible="true" lat="43.75390896" lon="-72.33115992">
    <!-- conflict: "50 Bobwhite Lane, Norwich, VT" Fuzzy match to "50 Bob White Lane, Norwich, VT" -->
    <tag k="addr:city" v="Norwich"/>
    <tag k="addr:housenumber" v="50"/>
    <tag k="addr:street" v="Bobwhite Lane"/>
    <tag k="addr:state" v="VT"/>
    <tag k="ref:vcgi:esiteid" v="334713"/>
  </node>
  <node id="-1506" visible="true" lat="43.75374158" lon="-72.33244478">
    <!-- conflict: "76 Bobwhite Lane, Norwich, VT" Fuzzy match to "76 Bob White Lane, Norwich, VT" -->
    <tag k="addr:city" v="Norwich"/>
    <tag k="addr:housenumber" v="76"/>
    <tag k="addr:street" v="Bobwhite Lane"/>
    <tag k="addr:state" v="VT"/>
    <tag k="ref:vcgi:esiteid" v="334714"/>
  </node>
  <node id="-1626" visible="true" lat="43.72487417" lon="-72.32072546">
    <!-- conflict: "76 Glen Ridge Road, Norwich, VT" No match in OSM, but a different address exists <5m away: "76 Glenridge Road, Norwich, VT" -->
    <tag k="addr:city" v="Norwich"/>
    <tag k="addr:housenumber" v="76"/>
    <tag k="addr:street" v="Glen Ridge Road"/>
    <tag k="addr:state" v="VT"/>
    <tag k="ref:vcgi:esiteid" v="449398"/>
  </node>
</osm>
