<?xml version="1.0" encoding="UTF-8"?>
<osm version="0.6" generator="JOSM" upload="false">
  <node id="-119" visible="true" lat="44.20036487" lon="-72.40361751">
    <tag k="addr:housenumber" v="769"/>
    <tag k="addr:street" v="Reservoir Road"/>
    <tag k="addr:state" v="VT"/>
    <tag k="ref:vcgi:esiteid" v="183557"/>
  </node>
  <node id="-120" visible="true" lat="44.19957053" lon="-72.40159858">
    <tag k="addr:housenumber" v="8"/>
    <tag k="addr:street" v="Smith Road"/>
    <tag k="addr:state" v="VT"/>
    <tag k="ref:vcgi:esiteid" v="183558"/>
  </node>
  <node id="-123" visible="true" lat="44.19880566" lon="-72.40111253">
    <tag k="addr:housenumber" v="16"/>
    <tag k="addr:street" v="Smith Road"/>
    <tag k="addr:state" v="VT"/>
    <tag k="ref:vcgi:esiteid" v="183561"/>
  </node>
  <node id="-124" visible="true" lat="44.19886398" lon="-72.40327453">
    <tag k="addr:housenumber" v="745"/>
    <tag k="addr:street" v="Reservoir Road"/>
    <tag k="addr:state" v="VT"/>
    <tag k="ref:vcgi:esiteid" v="183562"/>
  </node>
  <node id="-125" visible="true" lat="44.19879913" lon="-72.40460968">
    <tag k="addr:housenumber" v="733"/>
    <tag k="addr:street" v="Reservoir Road"/>
    <tag k="addr:state" v="VT"/>
    <tag k="ref:vcgi:esiteid" v="183563"/>
  </node>
  <node id="-127" visible="true" lat="44.19724382" lon="-72.40019736">
    <tag k="addr:housenumber" v="40"/>
    <tag k="addr:street" v="Smith Road"/>
    <tag k="addr:state" v="VT"/>
    <tag k="ref:vcgi:esiteid" v="183565"/>
  </node>
  <node id="-128" visible="true" lat="44.19691848" lon="-72.4063797">
    <tag k="addr:housenumber" v="705"/>
    <tag k="addr:street" v="Reservoir Road"/>
    <tag k="addr:state" v="VT"/>
    <tag k="ref:vcgi:esiteid" v="183566"/>
  </node>
  <node id="-129" visible="true" lat="44.19668894" lon="-72.39994225">
    <tag k="addr:housenumber" v="48"/>
    <tag k="addr:street" v="Smith Road"/>
    <tag k="addr:state" v="VT"/>
    <tag k="ref:vcgi:esiteid" v="183567"/>
  </node>
  <node id="-130" visible="true" lat="44.196783" lon="-72.3986313">
    <tag k="addr:housenumber" v="57"/>
    <tag k="addr:street" v="Smith Road"/>
    <tag k="addr:state" v="VT"/>
    <tag k="ref:vcgi:esiteid" v="183568"/>
  </node>
  <node id="-131" visible="true" lat="44.19758367" lon="-72.40849017">
    <tag k="addr:housenumber" v="701"/>
    <tag k="addr:street" v="Reservoir Road"/>
    <tag k="addr:state" v="VT"/>
    <tag k="ref:vcgi:esiteid" v="183569"/>
  </node>
  <node id="-132" visible="true" lat="44.19659423" lon="-72.40728759">
    <tag k="addr:housenumber" v="697"/>
    <tag k="addr:street" v="Reservoir Road"/>
    <tag k="addr:state" v="VT"/>
    <tag k="ref:vcgi:esiteid" v="183570"/>
  </node>
  <node id="-133" visible="true" lat="44.19650268" lon="-72.40619659">
    <tag k="addr:housenumber" v="704"/>
    <tag k="addr:street" v="Reservoir Road"/>
    <tag k="addr:state" v="VT"/>
    <tag k="ref:vcgi:esiteid" v="183571"/>
  </node>
  <node id="-135" visible="true" lat="44.19621384" lon="-72.39963644">
    <tag k="addr:housenumber" v="56"/>
    <tag k="addr:street" v="Smith Road"/>
    <tag k="addr:state" v="VT"/>
    <tag k="ref:vcgi:esiteid" v="183573"/>
  </node>
  <node id="-136" visible="true" lat="44.1960664" lon="-72.39783727">
    <tag k="addr:housenumber" v="61"/>
    <tag k="addr:street" v="Smith Road"/>
    <tag k="addr:state" v="VT"/>
    <tag k="ref:vcgi:esiteid" v="183574"/>
  </node>
  <node id="-137" visible="true" lat="44.19612855" lon="-72.40273461">
    <tag k="addr:housenumber" v="728"/>
    <tag k="addr:street" v="Reservoir Road"/>
    <tag k="addr:state" v="VT"/>
    <tag k="ref:vcgi:esiteid" v="183575"/>
  </node>
  <node id="-138" visible="true" lat="44.19617843" lon="-72.40757751">
    <tag k="addr:housenumber" v="689"/>
    <tag k="addr:street" v="Reservoir Road"/>
    <tag k="addr:state" v="VT"/>
    <tag k="ref:vcgi:esiteid" v="183576"/>
  </node>
  <node id="-139" visible="true" lat="44.1957817" lon="-72.40808868">
    <tag k="addr:housenumber" v="681"/>
    <tag k="addr:street" v="Reservoir Road"/>
    <tag k="addr:state" v="VT"/>
    <tag k="ref:vcgi:esiteid" v="183577"/>
  </node>
  <node id="-140" visible="true" lat="44.19571304" lon="-72.40626525">
    <tag k="addr:housenumber" v="692"/>
    <tag k="addr:street" v="Reservoir Road"/>
    <tag k="addr:state" v="VT"/>
    <tag k="ref:vcgi:esiteid" v="183578"/>
  </node>
  <node id="-141" visible="true" lat="44.19519795" lon="-72.39903211">
    <tag k="addr:housenumber" v="72"/>
    <tag k="addr:street" v="Smith Road"/>
    <tag k="addr:state" v="VT"/>
    <tag k="ref:vcgi:esiteid" v="183579"/>
  </node>
  <node id="-142" visible="true" lat="44.19524383" lon="-72.39792632">
    <tag k="addr:housenumber" v="73"/>
    <tag k="addr:street" v="Smith Road"/>
    <tag k="addr:state" v="VT"/>
    <tag k="ref:vcgi:esiteid" v="183580"/>
  </node>
  <node id="-143" visible="true" lat="44.19498443" lon="-72.4050064">
    <tag k="addr:housenumber" v="28"/>
    <tag k="addr:street" v="Griggs Road"/>
    <tag k="addr:state" v="VT"/>
    <tag k="ref:vcgi:esiteid" v="183581"/>
  </node>
  <node id="-144" visible="true" lat="44.19478607" lon="-72.40711212">
    <tag k="addr:housenumber" v="680"/>
    <tag k="addr:street" v="Reservoir Road"/>
    <tag k="addr:state" v="VT"/>
    <tag k="ref:vcgi:esiteid" v="183582"/>
  </node>
  <node id="-145" visible="true" lat="44.19450378" lon="-72.40864562">
    <tag k="addr:housenumber" v="676"/>
    <tag k="addr:street" v="Reservoir Road"/>
    <tag k="addr:state" v="VT"/>
    <tag k="ref:vcgi:esiteid" v="183583"/>
  </node>
  <node id="-146" visible="true" lat="44.19413757" lon="-72.41017913">
    <tag k="addr:housenumber" v="652"/>
    <tag k="addr:street" v="Reservoir Road"/>
    <tag k="addr:state" v="VT"/>
    <tag k="ref:vcgi:esiteid" v="183584"/>
  </node>
  <node id="-147" visible="true" lat="44.1936813" lon="-72.40473278">
    <tag k="addr:housenumber" v="57"/>
    <tag k="addr:street" v="Griggs Road"/>
    <tag k="addr:state" v="VT"/>
    <tag k="ref:vcgi:esiteid" v="183585"/>
  </node>
  <node id="-148" visible="true" lat="44.19334411" lon="-72.41176605">
    <tag k="addr:housenumber" v="632"/>
    <tag k="addr:street" v="Reservoir Road"/>
    <tag k="addr:state" v="VT"/>
    <tag k="ref:vcgi:esiteid" v="183586"/>
  </node>
  <node id="-149" visible="true" lat="44.19332885" lon="-72.39768219">
    <tag k="addr:housenumber" v="100"/>
    <tag k="addr:street" v="Smith Road"/>
    <tag k="addr:state" v="VT"/>
    <tag k="ref:vcgi:esiteid" v="183587"/>
  </node>
  <node id="-151" visible="true" lat="44.19218298" lon="-72.39671537">
    <tag k="addr:housenumber" v="120"/>
    <tag k="addr:street" v="Smith Road"/>
    <tag k="addr:state" v="VT"/>
    <tag k="ref:vcgi:esiteid" v="183589"/>
  </node>
  <node id="-152" visible="true" lat="44.19198002" lon="-72.41349296">
    <tag k="addr:housenumber" v="8"/>
    <tag k="addr:street" v="Trickle Brook Drive"/>
    <tag k="addr:state" v="VT"/>
    <tag k="ref:vcgi:esiteid" v="183590"/>
  </node>
  <node id="-154" visible="true" lat="44.19180492" lon="-72.39607207">
    <tag k="addr:housenumber" v="125"/>
    <tag k="addr:street" v="Smith Road"/>
    <tag k="addr:state" v="VT"/>
    <tag k="ref:vcgi:esiteid" v="183592"/>
  </node>
  <node id="-155" visible="true" lat="44.19169575" lon="-72.40910011">
    <tag k="addr:housenumber" v="48"/>
    <tag k="addr:street" v="Trickle Brook Drive"/>
    <tag k="addr:state" v="VT"/>
    <tag k="ref:vcgi:esiteid" v="183593"/>
  </node>
  <node id="-156" visible="true" lat="44.19108461" lon="-72.39528891">
    <tag k="addr:housenumber" v="133"/>
    <tag k="addr:street" v="Smith Road"/>
    <tag k="addr:state" v="VT"/>
    <tag k="ref:vcgi:esiteid" v="183594"/>
  </node>
  <node id="-157" visible="true" lat="44.19115423" lon="-72.41118651">
    <tag k="addr:housenumber" v="24"/>
    <tag k="addr:street" v="Trickle Brook Drive"/>
    <tag k="addr:state" v="VT"/>
    <tag k="ref:vcgi:esiteid" v="183595"/>
  </node>
  <node id="-159" visible="true" lat="44.18992614" lon="-72.39534759">
    <tag k="addr:housenumber" v="152"/>
    <tag k="addr:street" v="Smith Road"/>
    <tag k="addr:state" v="VT"/>
    <tag k="ref:vcgi:esiteid" v="183597"/>
  </node>
  <node id="-160" visible="true" lat="44.18976592" lon="-72.3944931">
    <tag k="addr:housenumber" v="161"/>
    <tag k="addr:street" v="Smith Road"/>
    <tag k="addr:state" v="VT"/>
    <tag k="ref:vcgi:esiteid" v="183598"/>
  </node>
  <node id="-161" visible="true" lat="44.18930921" lon="-72.39464787">
    <tag k="addr:housenumber" v="164"/>
    <tag k="addr:street" v="Smith Road"/>
    <tag k="addr:state" v="VT"/>
    <tag k="ref:vcgi:esiteid" v="183599"/>
  </node>
  <node id="-162" visible="true" lat="44.18934723" lon="-72.41478024">
    <tag k="addr:housenumber" v="15"/>
    <tag k="addr:street" v="Knapp Drive"/>
    <tag k="addr:state" v="VT"/>
    <tag k="ref:vcgi:esiteid" v="183600"/>
  </node>
  <node id="-163" visible="true" lat="44.18125064" lon="-72.4289417">
    <tag k="addr:housenumber" v="69"/>
    <tag k="addr:street" v="Lords Road"/>
    <tag k="addr:state" v="VT"/>
    <tag k="ref:vcgi:esiteid" v="183601"/>
  </node>
  <node id="-164" visible="true" lat="44.18055012" lon="-72.42746664">
    <tag k="addr:housenumber" v="49"/>
    <tag k="addr:street" v="Lords Road"/>
    <tag k="addr:state" v="VT"/>
    <tag k="ref:vcgi:esiteid" v="183602"/>
  </node>
  <node id="-165" visible="true" lat="44.1802522" lon="-72.42616325">
    <tag k="addr:housenumber" v="37"/>
    <tag k="addr:street" v="Lords Road"/>
    <tag k="addr:state" v="VT"/>
    <tag k="ref:vcgi:esiteid" v="183603"/>
  </node>
  <node id="-166" visible="true" lat="44.17858108" lon="-72.41450139">
    <tag k="addr:housenumber" v="489"/>
    <tag k="addr:street" v="George Street"/>
    <tag k="addr:state" v="VT"/>
    <tag k="ref:vcgi:esiteid" v="183604"/>
  </node>
  <node id="-167" visible="true" lat="44.17713165" lon="-72.39005279">
    <tag k="addr:housenumber" v="357"/>
    <tag k="addr:street" v="Smith Road"/>
    <tag k="addr:state" v="VT"/>
    <tag k="ref:vcgi:esiteid" v="183605"/>
  </node>
  <node id="-168" visible="true" lat="44.17479705" lon="-72.41160583">
    <tag k="addr:housenumber" v="436"/>
    <tag k="addr:street" v="George Street"/>
    <tag k="addr:state" v="VT"/>
    <tag k="ref:vcgi:esiteid" v="183606"/>
  </node>
  <node id="-169" visible="true" lat="44.17086791" lon="-72.41227722">
    <tag k="addr:housenumber" v="377"/>
    <tag k="addr:street" v="George Street"/>
    <tag k="addr:state" v="VT"/>
    <tag k="ref:vcgi:esiteid" v="183607"/>
  </node>
  <node id="-170" visible="true" lat="44.17047119" lon="-72.41154479">
    <tag k="addr:housenumber" v="372"/>
    <tag k="addr:street" v="George Street"/>
    <tag k="addr:state" v="VT"/>
    <tag k="ref:vcgi:esiteid" v="183608"/>
  </node>
  <node id="-171" visible="true" lat="44.17041396" lon="-72.43080902">
    <tag k="addr:housenumber" v="1101"/>
    <tag k="addr:street" v="Partridge Road"/>
    <tag k="addr:state" v="VT"/>
    <tag k="ref:vcgi:esiteid" v="183609"/>
  </node>
  <node id="-172" visible="true" lat="44.16753387" lon="-72.41113281">
    <tag k="addr:housenumber" v="332"/>
    <tag k="addr:street" v="George Street"/>
    <tag k="addr:state" v="VT"/>
    <tag k="ref:vcgi:esiteid" v="183610"/>
  </node>
  <node id="-174" visible="true" lat="44.16646194" lon="-72.4148941">
    <tag k="addr:housenumber" v="313"/>
    <tag k="addr:street" v="George Street"/>
    <tag k="addr:state" v="VT"/>
    <tag k="ref:vcgi:esiteid" v="183612"/>
  </node>
  <node id="-175" visible="true" lat="44.1662178" lon="-72.411026">
    <tag k="addr:housenumber" v="320"/>
    <tag k="addr:street" v="George Street"/>
    <tag k="addr:state" v="VT"/>
    <tag k="ref:vcgi:esiteid" v="183613"/>
  </node>
  <node id="-179" visible="true" lat="44.16504669" lon="-72.41117858">
    <tag k="addr:housenumber" v="296"/>
    <tag k="addr:street" v="George Street"/>
    <tag k="addr:state" v="VT"/>
    <tag k="ref:vcgi:esiteid" v="183617"/>
  </node>
  <node id="-181" visible="true" lat="44.16339874" lon="-72.40945434">
    <tag k="addr:housenumber" v="264"/>
    <tag k="addr:street" v="George Street"/>
    <tag k="addr:state" v="VT"/>
    <tag k="ref:vcgi:esiteid" v="183620"/>
  </node>
  <node id="-183" visible="true" lat="44.16296005" lon="-72.3900299">
    <tag k="addr:housenumber" v="109"/>
    <tag k="addr:street" v="Bennetts Mill Road"/>
    <tag k="addr:state" v="VT"/>
    <tag k="ref:vcgi:esiteid" v="183622"/>
  </node>
  <node id="-185" visible="true" lat="44.16293334" lon="-72.40958404">
    <tag k="addr:housenumber" v="261"/>
    <tag k="addr:street" v="George Street"/>
    <tag k="addr:state" v="VT"/>
    <tag k="ref:vcgi:esiteid" v="183624"/>
  </node>
  <node id="-186" visible="true" lat="44.16277423" lon="-72.40744658">
    <tag k="addr:housenumber" v="244"/>
    <tag k="addr:street" v="George Street"/>
    <tag k="addr:state" v="VT"/>
    <tag k="ref:vcgi:esiteid" v="183625"/>
  </node>
  <node id="-188" visible="true" lat="44.16236877" lon="-72.40691375">
    <tag k="addr:housenumber" v="236"/>
    <tag k="addr:street" v="George Street"/>
    <tag k="addr:state" v="VT"/>
    <tag k="ref:vcgi:esiteid" v="183627"/>
  </node>
  <node id="-190" visible="true" lat="44.16142158" lon="-72.40689711">
    <tag k="addr:housenumber" v="232"/>
    <tag k="addr:street" v="George Street"/>
    <tag k="addr:state" v="VT"/>
    <tag k="ref:vcgi:esiteid" v="183629"/>
  </node>
  <node id="-191" visible="true" lat="44.16116612" lon="-72.3917776">
    <tag k="addr:housenumber" v="73"/>
    <tag k="addr:street" v="Bennetts Mill Road"/>
    <tag k="addr:state" v="VT"/>
    <tag k="ref:vcgi:esiteid" v="183630"/>
  </node>
  <node id="-193" visible="true" lat="44.15978566" lon="-72.40719602">
    <tag k="addr:housenumber" v="205"/>
    <tag k="addr:street" v="George Street"/>
    <tag k="addr:state" v="VT"/>
    <tag k="ref:vcgi:esiteid" v="183632"/>
  </node>
  <node id="-195" visible="true" lat="44.15916442" lon="-72.40644073">
    <tag k="addr:housenumber" v="200"/>
    <tag k="addr:street" v="George Street"/>
    <tag k="addr:state" v="VT"/>
    <tag k="ref:vcgi:esiteid" v="183634"/>
  </node>
  <node id="-196" visible="true" lat="44.15864181" lon="-72.40704345">
    <tag k="addr:housenumber" v="193"/>
    <tag k="addr:street" v="George Street"/>
    <tag k="addr:state" v="VT"/>
    <tag k="ref:vcgi:esiteid" v="183635"/>
  </node>
  <node id="-198" visible="true" lat="44.15800476" lon="-72.40459442">
    <tag k="addr:housenumber" v="172"/>
    <tag k="addr:street" v="George Street"/>
    <tag k="addr:state" v="VT"/>
    <tag k="ref:vcgi:esiteid" v="183637"/>
  </node>
  <node id="-199" visible="true" lat="44.15773391" lon="-72.4029541">
    <tag k="addr:housenumber" v="152"/>
    <tag k="addr:street" v="George Street"/>
    <tag k="addr:state" v="VT"/>
    <tag k="ref:vcgi:esiteid" v="183638"/>
  </node>
  <node id="-201" visible="true" lat="44.15733718" lon="-72.40219879">
    <tag k="addr:housenumber" v="144"/>
    <tag k="addr:street" v="George Street"/>
    <tag k="addr:state" v="VT"/>
    <tag k="ref:vcgi:esiteid" v="183640"/>
  </node>
  <node id="-202" visible="true" lat="44.15752576" lon="-72.39522677">
    <tag k="addr:housenumber" v="53"/>
    <tag k="addr:street" v="Beard Road"/>
    <tag k="addr:state" v="VT"/>
    <tag k="ref:vcgi:esiteid" v="183641"/>
  </node>
  <node id="-204" visible="true" lat="44.15680694" lon="-72.40348815">
    <tag k="addr:housenumber" v="153"/>
    <tag k="addr:street" v="George Street"/>
    <tag k="addr:state" v="VT"/>
    <tag k="ref:vcgi:esiteid" v="183643"/>
  </node>
  <node id="-206" visible="true" lat="44.15677607" lon="-72.39975288">
    <tag k="addr:housenumber" v="120"/>
    <tag k="addr:street" v="George Street"/>
    <tag k="addr:state" v="VT"/>
    <tag k="ref:vcgi:esiteid" v="183645"/>
  </node>
  <node id="-210" visible="true" lat="44.1562969" lon="-72.40077484">
    <tag k="addr:housenumber" v="125"/>
    <tag k="addr:street" v="George Street"/>
    <tag k="addr:state" v="VT"/>
    <tag k="ref:vcgi:esiteid" v="183649"/>
  </node>
  <node id="-211" visible="true" lat="44.1560679" lon="-72.39888716">
    <tag k="addr:housenumber" v="108"/>
    <tag k="addr:street" v="George Street"/>
    <tag k="addr:state" v="VT"/>
    <tag k="ref:vcgi:esiteid" v="183650"/>
  </node>
  <node id="-212" visible="true" lat="44.15578712" lon="-72.43153495">
    <tag k="addr:housenumber" v="45"/>
    <tag k="addr:street" v="Reservoir Road"/>
    <tag k="addr:state" v="VT"/>
    <tag k="ref:vcgi:esiteid" v="183651"/>
  </node>
  <node id="-213" visible="true" lat="44.15561294" lon="-72.40486907">
    <tag k="addr:housenumber" v="321"/>
    <tag k="addr:street" v="U.S. Route 302"/>
    <tag k="addr:state" v="VT"/>
    <tag k="ref:vcgi:esiteid" v="183652"/>
  </node>
  <node id="-214" visible="true" lat="44.15555968" lon="-72.4322338">
    <tag k="addr:housenumber" v="13"/>
    <tag k="addr:street" v="Moran Road"/>
    <tag k="addr:state" v="VT"/>
    <tag k="ref:vcgi:esiteid" v="183653"/>
  </node>
  <node id="-217" visible="true" lat="44.15484677" lon="-72.43188817">
    <tag k="addr:housenumber" v="35"/>
    <tag k="addr:street" v="Reservoir Road"/>
    <tag k="addr:state" v="VT"/>
    <tag k="ref:vcgi:esiteid" v="183656"/>
  </node>
  <node id="-218" visible="true" lat="44.15395736" lon="-72.40006256">
    <tag k="addr:housenumber" v="77"/>
    <tag k="addr:street" v="George Street"/>
    <tag k="addr:state" v="VT"/>
    <tag k="ref:vcgi:esiteid" v="183657"/>
  </node>
  <node id="-219" visible="true" lat="44.15357869" lon="-72.43135369">
    <tag k="addr:housenumber" v="13"/>
    <tag k="addr:street" v="Reservoir Road"/>
    <tag k="addr:state" v="VT"/>
    <tag k="ref:vcgi:esiteid" v="183658"/>
  </node>
  <node id="-220" visible="true" lat="44.15306763" lon="-72.43094968">
    <tag k="addr:housenumber" v="5"/>
    <tag k="addr:street" v="Reservoir Road"/>
    <tag k="addr:state" v="VT"/>
    <tag k="ref:vcgi:esiteid" v="183660"/>
  </node>
  <node id="-223" visible="true" lat="44.15151235" lon="-72.35412694">
    <tag k="addr:housenumber" v="140"/>
    <tag k="addr:street" v="Provencher Lane"/>
    <tag k="addr:state" v="VT"/>
    <tag k="ref:vcgi:esiteid" v="183663"/>
  </node>
  <node id="-226" visible="true" lat="44.15074434" lon="-72.35613258">
    <tag k="addr:housenumber" v="137"/>
    <tag k="addr:street" v="Provencher Lane"/>
    <tag k="addr:state" v="VT"/>
    <tag k="ref:vcgi:esiteid" v="183666"/>
  </node>
  <node id="-227" visible="true" lat="44.15063466" lon="-72.35640576">
    <tag k="addr:housenumber" v="133"/>
    <tag k="addr:street" v="Provencher Lane"/>
    <tag k="addr:state" v="VT"/>
    <tag k="ref:vcgi:esiteid" v="183667"/>
  </node>
  <node id="-228" visible="true" lat="44.1506073" lon="-72.35420677">
    <tag k="addr:housenumber" v="128"/>
    <tag k="addr:street" v="Provencher Lane"/>
    <tag k="addr:state" v="VT"/>
    <tag k="ref:vcgi:esiteid" v="183668"/>
  </node>
  <node id="-229" visible="true" lat="44.1503601" lon="-72.40689087">
    <tag k="addr:housenumber" v="313"/>
    <tag k="addr:street" v="U.S. Route 302"/>
    <tag k="addr:state" v="VT"/>
    <tag k="ref:vcgi:esiteid" v="183669"/>
  </node>
  <node id="-230" visible="true" lat="44.15025329" lon="-72.41384887">
    <tag k="addr:housenumber" v="253"/>
    <tag k="addr:street" v="U.S. Route 302"/>
    <tag k="addr:state" v="VT"/>
    <tag k="ref:vcgi:esiteid" v="183670"/>
  </node>
  <node id="-231" visible="true" lat="44.15042075" lon="-72.40091545">
    <tag k="addr:housenumber" v="29"/>
    <tag k="addr:street" v="George Street"/>
    <tag k="addr:state" v="VT"/>
    <tag k="ref:vcgi:esiteid" v="183671"/>
  </node>
  <node id="-232" visible="true" lat="44.14984634" lon="-72.40147726">
    <tag k="addr:housenumber" v="21"/>
    <tag k="addr:street" v="George Street"/>
    <tag k="addr:state" v="VT"/>
    <tag k="ref:vcgi:esiteid" v="183672"/>
  </node>
  <node id="-233" visible="true" lat="44.14985275" lon="-72.4004603">
    <tag k="addr:housenumber" v="24"/>
    <tag k="addr:street" v="George Street"/>
    <tag k="addr:state" v="VT"/>
    <tag k="ref:vcgi:esiteid" v="183673"/>
  </node>
  <node id="-234" visible="true" lat="44.1495285" lon="-72.41221618">
    <tag k="addr:housenumber" v="268"/>
    <tag k="addr:street" v="U.S. Route 302"/>
    <tag k="addr:state" v="VT"/>
    <tag k="ref:vcgi:esiteid" v="183674"/>
  </node>
  <node id="-235" visible="true" lat="44.14918147" lon="-72.40133346">
    <tag k="addr:housenumber" v="15"/>
    <tag k="addr:street" v="George Street"/>
    <tag k="addr:state" v="VT"/>
    <tag k="ref:vcgi:esiteid" v="183675"/>
  </node>
  <node id="-236" visible="true" lat="44.1490322" lon="-72.40360053">
    <tag k="addr:housenumber" v="357"/>
    <tag k="addr:street" v="U.S. Route 302"/>
    <tag k="addr:state" v="VT"/>
    <tag k="ref:vcgi:esiteid" v="183676"/>
  </node>
  <node id="-238" visible="true" lat="44.1488851" lon="-72.40250916">
    <tag k="addr:housenumber" v="369"/>
    <tag k="addr:street" v="U.S. Route 302"/>
    <tag k="addr:state" v="VT"/>
    <tag k="ref:vcgi:esiteid" v="183678"/>
  </node>
  <node id="-239" visible="true" lat="44.14876155" lon="-72.40185846">
    <tag k="addr:housenumber" v="379"/>
    <tag k="addr:street" v="U.S. Route 302"/>
    <tag k="addr:state" v="VT"/>
    <tag k="ref:vcgi:esiteid" v="183679"/>
  </node>
  <node id="-240" visible="true" lat="44.14871693" lon="-72.40116842">
    <tag k="addr:housenumber" v="383"/>
    <tag k="addr:street" v="U.S. Route 302"/>
    <tag k="addr:state" v="VT"/>
    <tag k="ref:vcgi:esiteid" v="183680"/>
  </node>
  <node id="-241" visible="true" lat="44.1486788" lon="-72.3929899">
    <tag k="addr:housenumber" v="24"/>
    <tag k="addr:street" v="Senecal Road"/>
    <tag k="addr:state" v="VT"/>
    <tag k="ref:vcgi:esiteid" v="183681"/>
  </node>
  <node id="-242" visible="true" lat="44.14849679" lon="-72.4038444">
    <tag k="addr:housenumber" v="356"/>
    <tag k="addr:street" v="U.S. Route 302"/>
    <tag k="addr:state" v="VT"/>
    <tag k="ref:vcgi:esiteid" v="183682"/>
  </node>
  <node id="-243" visible="true" lat="44.14854869" lon="-72.39888504">
    <tag k="addr:housenumber" v="409"/>
    <tag k="addr:street" v="U.S. Route 302"/>
    <tag k="addr:state" v="VT"/>
    <tag k="ref:vcgi:esiteid" v="183683"/>
  </node>
  <node id="-244" visible="true" lat="44.14847946" lon="-72.40322112">
    <tag k="addr:housenumber" v="364"/>
    <tag k="addr:street" v="U.S. Route 302"/>
    <tag k="addr:state" v="VT"/>
    <tag k="ref:vcgi:esiteid" v="183684"/>
  </node>
  <node id="-245" visible="true" lat="44.14841021" lon="-72.40266895">
    <tag k="addr:housenumber" v="368"/>
    <tag k="addr:street" v="U.S. Route 302"/>
    <tag k="addr:state" v="VT"/>
    <tag k="ref:vcgi:esiteid" v="183685"/>
  </node>
  <node id="-246" visible="true" lat="44.14844131" lon="-72.43669891">
    <tag k="addr:housenumber" v="13"/>
    <tag k="addr:street" v="Vermont Route 110"/>
    <tag k="addr:state" v="VT"/>
    <tag k="ref:vcgi:esiteid" v="183686"/>
  </node>
  <node id="-247" visible="true" lat="44.14837079" lon="-72.4019264">
    <tag k="addr:housenumber" v="380"/>
    <tag k="addr:street" v="U.S. Route 302"/>
    <tag k="addr:state" v="VT"/>
    <tag k="ref:vcgi:esiteid" v="183687"/>
  </node>
  <node id="-248" visible="true" lat="44.1483345" lon="-72.41382598">
    <tag k="addr:housenumber" v="24"/>
    <tag k="addr:street" v="Tucker Road"/>
    <tag k="addr:state" v="VT"/>
    <tag k="ref:vcgi:esiteid" v="183688"/>
  </node>
  <node id="-250" visible="true" lat="44.14804077" lon="-72.40122222">
    <tag k="addr:housenumber" v="392"/>
    <tag k="addr:street" v="U.S. Route 302"/>
    <tag k="addr:state" v="VT"/>
    <tag k="ref:vcgi:esiteid" v="183690"/>
  </node>
  <node id="-252" visible="true" lat="44.14793781" lon="-72.39678392">
    <tag k="addr:housenumber" v="425"/>
    <tag k="addr:street" v="U.S. Route 302"/>
    <tag k="addr:state" v="VT"/>
    <tag k="ref:vcgi:esiteid" v="183692"/>
  </node>
  <node id="-253" visible="true" lat="44.14786529" lon="-72.39044189">
    <tag k="addr:housenumber" v="485"/>
    <tag k="addr:street" v="U.S. Route 302"/>
    <tag k="addr:state" v="VT"/>
    <tag k="ref:vcgi:esiteid" v="183693"/>
  </node>
  <node id="-254" visible="true" lat="44.14774133" lon="-72.4370593">
    <tag k="addr:housenumber" v="20"/>
    <tag k="addr:street" v="Vermont Route 110"/>
    <tag k="addr:state" v="VT"/>
    <tag k="ref:vcgi:esiteid" v="183694"/>
  </node>
  <node id="-255" visible="true" lat="44.14768151" lon="-72.39529695">
    <tag k="addr:housenumber" v="441"/>
    <tag k="addr:street" v="U.S. Route 302"/>
    <tag k="addr:state" v="VT"/>
    <tag k="ref:vcgi:esiteid" v="183695"/>
  </node>
  <node id="-257" visible="true" lat="44.14761733" lon="-72.38881785">
    <tag k="addr:housenumber" v="501"/>
    <tag k="addr:street" v="U.S. Route 302"/>
    <tag k="addr:state" v="VT"/>
    <tag k="ref:vcgi:esiteid" v="183697"/>
  </node>
  <node id="-258" visible="true" lat="44.14748764" lon="-72.39119059">
    <tag k="addr:housenumber" v="481"/>
    <tag k="addr:street" v="U.S. Route 302"/>
    <tag k="addr:state" v="VT"/>
    <tag k="ref:vcgi:esiteid" v="183698"/>
  </node>
  <node id="-259" visible="true" lat="44.14722823" lon="-72.38690287">
    <tag k="addr:housenumber" v="517"/>
    <tag k="addr:street" v="U.S. Route 302"/>
    <tag k="addr:state" v="VT"/>
    <tag k="ref:vcgi:esiteid" v="183699"/>
  </node>
  <node id="-260" visible="true" lat="44.14722824" lon="-72.39444732">
    <tag k="addr:housenumber" v="452"/>
    <tag k="addr:street" v="U.S. Route 302"/>
    <tag k="addr:state" v="VT"/>
    <tag k="ref:vcgi:esiteid" v="183700"/>
  </node>
  <node id="-261" visible="true" lat="44.14712142" lon="-72.39221954">
    <tag k="addr:housenumber" v="472"/>
    <tag k="addr:street" v="U.S. Route 302"/>
    <tag k="addr:state" v="VT"/>
    <tag k="ref:vcgi:esiteid" v="183701"/>
  </node>
  <node id="-263" visible="true" lat="44.14684357" lon="-72.39696307">
    <tag k="addr:housenumber" v="428"/>
    <tag k="addr:street" v="U.S. Route 302"/>
    <tag k="addr:state" v="VT"/>
    <tag k="ref:vcgi:esiteid" v="183703"/>
  </node>
  <node id="-264" visible="true" lat="44.14688238" lon="-72.40270954">
    <tag k="addr:housenumber" v="25"/>
    <tag k="addr:street" v="Richardson Road"/>
    <tag k="addr:state" v="VT"/>
    <tag k="ref:vcgi:esiteid" v="183704"/>
  </node>
  <node id="-265" visible="true" lat="44.14667927" lon="-72.3550057">
    <tag k="addr:housenumber" v="80"/>
    <tag k="addr:street" v="Provencher Lane"/>
    <tag k="addr:state" v="VT"/>
    <tag k="ref:vcgi:esiteid" v="183705"/>
  </node>
  <node id="-266" visible="true" lat="44.14675801" lon="-72.43750802">
    <tag k="addr:housenumber" v="24"/>
    <tag k="addr:street" v="Vermont Route 110"/>
    <tag k="addr:state" v="VT"/>
    <tag k="ref:vcgi:esiteid" v="183706"/>
  </node>
  <node id="-267" visible="true" lat="44.14659881" lon="-72.39010722">
    <tag k="addr:housenumber" v="496"/>
    <tag k="addr:street" v="U.S. Route 302"/>
    <tag k="addr:state" v="VT"/>
    <tag k="ref:vcgi:esiteid" v="183707"/>
  </node>
  <node id="-268" visible="true" lat="44.1465915" lon="-72.43623116">
    <tag k="addr:housenumber" v="36"/>
    <tag k="addr:street" v="Vermont Route 110"/>
    <tag k="addr:state" v="VT"/>
    <tag k="ref:vcgi:esiteid" v="183708"/>
  </node>
  <node id="-270" visible="true" lat="44.14638201" lon="-72.43517437">
    <tag k="addr:housenumber" v="44"/>
    <tag k="addr:street" v="Vermont Route 110"/>
    <tag k="addr:state" v="VT"/>
    <tag k="ref:vcgi:esiteid" v="183710"/>
  </node>
  <node id="-271" visible="true" lat="44.14623641" lon="-72.38461405">
    <tag k="addr:housenumber" v="548"/>
    <tag k="addr:street" v="U.S. Route 302"/>
    <tag k="addr:state" v="VT"/>
    <tag k="ref:vcgi:esiteid" v="183711"/>
  </node>
  <node id="-272" visible="true" lat="44.14586597" lon="-72.38301725">
    <tag k="addr:housenumber" v="564"/>
    <tag k="addr:street" v="U.S. Route 302"/>
    <tag k="addr:state" v="VT"/>
    <tag k="ref:vcgi:esiteid" v="183712"/>
  </node>
  <node id="-274" visible="true" lat="44.14596718" lon="-72.38159894">
    <tag k="addr:housenumber" v="580"/>
    <tag k="addr:street" v="U.S. Route 302"/>
    <tag k="addr:state" v="VT"/>
    <tag k="ref:vcgi:esiteid" v="183714"/>
  </node>
  <node id="-275" visible="true" lat="44.14556884" lon="-72.32260894">
    <tag k="addr:housenumber" v="57"/>
    <tag k="addr:street" v="Clement Road"/>
    <tag k="addr:state" v="VT"/>
    <tag k="ref:vcgi:esiteid" v="183715"/>
  </node>
  <node id="-276" visible="true" lat="44.14559173" lon="-72.37953949">
    <tag k="addr:housenumber" v="608"/>
    <tag k="addr:street" v="U.S. Route 302"/>
    <tag k="addr:state" v="VT"/>
    <tag k="ref:vcgi:esiteid" v="183716"/>
  </node>
  <node id="-278" visible="true" lat="44.14533233" lon="-72.43427378">
    <tag k="addr:housenumber" v="61"/>
    <tag k="addr:street" v="Vermont Route 110"/>
    <tag k="addr:state" v="VT"/>
    <tag k="ref:vcgi:esiteid" v="183718"/>
  </node>
  <node id="-279" visible="true" lat="44.14510726" lon="-72.3784495">
    <tag k="addr:housenumber" v="612"/>
    <tag k="addr:street" v="U.S. Route 302"/>
    <tag k="addr:state" v="VT"/>
    <tag k="ref:vcgi:esiteid" v="183719"/>
  </node>
  <node id="-280" visible="true" lat="44.1450653" lon="-72.4031372">
    <tag k="addr:housenumber" v="49"/>
    <tag k="addr:street" v="Richardson Road"/>
    <tag k="addr:state" v="VT"/>
    <tag k="ref:vcgi:esiteid" v="183720"/>
  </node>
  <node id="-282" visible="true" lat="44.14485578" lon="-72.37278086">
    <tag k="addr:housenumber" v="673"/>
    <tag k="addr:street" v="U.S. Route 302"/>
    <tag k="addr:state" v="VT"/>
    <tag k="ref:vcgi:esiteid" v="183722"/>
  </node>
  <node id="-283" visible="true" lat="44.14479529" lon="-72.37251212">
    <tag k="addr:housenumber" v="677"/>
    <tag k="addr:street" v="U.S. Route 302"/>
    <tag k="addr:state" v="VT"/>
    <tag k="ref:vcgi:esiteid" v="183723"/>
  </node>
  <node id="-285" visible="true" lat="44.144818" lon="-72.4340875">
    <tag k="addr:housenumber" v="69"/>
    <tag k="addr:street" v="Vermont Route 110"/>
    <tag k="addr:state" v="VT"/>
    <tag k="ref:vcgi:esiteid" v="183725"/>
  </node>
  <node id="-286" visible="true" lat="44.1446582" lon="-72.37603183">
    <tag k="addr:housenumber" v="644"/>
    <tag k="addr:street" v="U.S. Route 302"/>
    <tag k="addr:state" v="VT"/>
    <tag k="ref:vcgi:esiteid" v="183726"/>
  </node>
  <node id="-287" visible="true" lat="44.14474267" lon="-72.37086555">
    <tag k="addr:housenumber" v="689"/>
    <tag k="addr:street" v="U.S. Route 302"/>
    <tag k="addr:state" v="VT"/>
    <tag k="ref:vcgi:esiteid" v="183727"/>
  </node>
  <node id="-289" visible="true" lat="44.14441022" lon="-72.3748599">
    <tag k="addr:housenumber" v="656"/>
    <tag k="addr:street" v="U.S. Route 302"/>
    <tag k="addr:state" v="VT"/>
    <tag k="ref:vcgi:esiteid" v="183729"/>
  </node>
  <node id="-290" visible="true" lat="44.14440488" lon="-72.33240507">
    <tag k="addr:housenumber" v="33"/>
    <tag k="addr:street" v="Cramp Road"/>
    <tag k="addr:state" v="VT"/>
    <tag k="ref:vcgi:esiteid" v="183730"/>
  </node>
  <node id="-291" visible="true" lat="44.14424872" lon="-72.37093834">
    <tag k="addr:housenumber" v="684"/>
    <tag k="addr:street" v="U.S. Route 302"/>
    <tag k="addr:state" v="VT"/>
    <tag k="ref:vcgi:esiteid" v="183731"/>
  </node>
  <node id="-292" visible="true" lat="44.14407688" lon="-72.32206076">
    <tag k="addr:housenumber" v="44"/>
    <tag k="addr:street" v="Clement Road"/>
    <tag k="addr:state" v="VT"/>
    <tag k="ref:vcgi:esiteid" v="183733"/>
  </node>
  <node id="-293" visible="true" lat="44.14409092" lon="-72.33110212">
    <tag k="addr:housenumber" v="28"/>
    <tag k="addr:street" v="Cramp Road"/>
    <tag k="addr:state" v="VT"/>
    <tag k="ref:vcgi:esiteid" v="183734"/>
  </node>
  <node id="-294" visible="true" lat="44.14396274" lon="-72.37304332">
    <tag k="addr:housenumber" v="672"/>
    <tag k="addr:street" v="U.S. Route 302"/>
    <tag k="addr:state" v="VT"/>
    <tag k="ref:vcgi:esiteid" v="183735"/>
  </node>
  <node id="-296" visible="true" lat="44.14380977" lon="-72.39676279">
    <tag k="addr:housenumber" v="57"/>
    <tag k="addr:street" v="Manning Road"/>
    <tag k="addr:state" v="VT"/>
    <tag k="ref:vcgi:esiteid" v="183737"/>
  </node>
  <node id="-297" visible="true" lat="44.14352035" lon="-72.32204437">
    <tag k="addr:housenumber" v="36"/>
    <tag k="addr:street" v="Clement Road"/>
    <tag k="addr:state" v="VT"/>
    <tag k="ref:vcgi:esiteid" v="183738"/>
  </node>
  <node id="-299" visible="true" lat="44.14340972" lon="-72.40397644">
    <tag k="addr:housenumber" v="73"/>
    <tag k="addr:street" v="Richardson Road"/>
    <tag k="addr:state" v="VT"/>
    <tag k="ref:vcgi:esiteid" v="183740"/>
  </node>
  <node id="-300" visible="true" lat="44.14334869" lon="-72.38979339">
    <tag k="addr:housenumber" v="57"/>
    <tag k="addr:street" v="Prechtl Road"/>
    <tag k="addr:state" v="VT"/>
    <tag k="ref:vcgi:esiteid" v="183741"/>
  </node>
  <node id="-301" visible="true" lat="44.14322695" lon="-72.32687332">
    <tag k="addr:housenumber" v="1157"/>
    <tag k="addr:street" v="U.S. Route 302"/>
    <tag k="addr:state" v="VT"/>
    <tag k="ref:vcgi:esiteid" v="183742"/>
  </node>
  <node id="-303" visible="true" lat="44.14298248" lon="-72.32228851">
    <tag k="addr:housenumber" v="32"/>
    <tag k="addr:street" v="Clement Road"/>
    <tag k="addr:state" v="VT"/>
    <tag k="ref:vcgi:esiteid" v="183744"/>
  </node>
  <node id="-304" visible="true" lat="44.14291763" lon="-72.32254791">
    <tag k="addr:housenumber" v="25"/>
    <tag k="addr:street" v="Clement Road"/>
    <tag k="addr:state" v="VT"/>
    <tag k="ref:vcgi:esiteid" v="183745"/>
  </node>
  <node id="-305" visible="true" lat="44.14295578" lon="-72.4343043">
    <tag k="addr:housenumber" v="88"/>
    <tag k="addr:street" v="Vermont Route 110"/>
    <tag k="addr:state" v="VT"/>
    <tag k="ref:vcgi:esiteid" v="183746"/>
  </node>
  <node id="-307" visible="true" lat="44.14261627" lon="-72.39096934">
    <tag k="addr:housenumber" v="64"/>
    <tag k="addr:street" v="Prechtl Road"/>
    <tag k="addr:state" v="VT"/>
    <tag k="ref:vcgi:esiteid" v="183748"/>
  </node>
  <node id="-308" visible="true" lat="44.14249028" lon="-72.32122084">
    <tag k="addr:housenumber" v="20"/>
    <tag k="addr:street" v="Clement Road"/>
    <tag k="addr:state" v="VT"/>
    <tag k="ref:vcgi:esiteid" v="183749"/>
  </node>
  <node id="-310" visible="true" lat="44.14249192" lon="-72.32519074">
    <tag k="addr:housenumber" v="1165"/>
    <tag k="addr:street" v="U.S. Route 302"/>
    <tag k="addr:state" v="VT"/>
    <tag k="ref:vcgi:esiteid" v="183751"/>
  </node>
  <node id="-311" visible="true" lat="44.14195909" lon="-72.32489192">
    <tag k="addr:housenumber" v="1168"/>
    <tag k="addr:street" v="U.S. Route 302"/>
    <tag k="addr:state" v="VT"/>
    <tag k="ref:vcgi:esiteid" v="183753"/>
  </node>
  <node id="-312" visible="true" lat="44.14208554" lon="-72.32817076">
    <tag k="addr:housenumber" v="1136"/>
    <tag k="addr:street" v="U.S. Route 302"/>
    <tag k="addr:state" v="VT"/>
    <tag k="ref:vcgi:esiteid" v="183754"/>
  </node>
  <node id="-313" visible="true" lat="44.1420249" lon="-72.33167814">
    <tag k="addr:housenumber" v="1100"/>
    <tag k="addr:street" v="U.S. Route 302"/>
    <tag k="addr:state" v="VT"/>
    <tag k="ref:vcgi:esiteid" v="183755"/>
  </node>
  <node id="-314" visible="true" lat="44.14214706" lon="-72.3893814">
    <tag k="addr:housenumber" v="69"/>
    <tag k="addr:street" v="Prechtl Road"/>
    <tag k="addr:state" v="VT"/>
    <tag k="ref:vcgi:esiteid" v="183756"/>
  </node>
  <node id="-316" visible="true" lat="44.14210484" lon="-72.32574768">
    <tag k="addr:housenumber" v="1160"/>
    <tag k="addr:street" v="U.S. Route 302"/>
    <tag k="addr:state" v="VT"/>
    <tag k="ref:vcgi:esiteid" v="183759"/>
  </node>
  <node id="-317" visible="true" lat="44.14195966" lon="-72.33361051">
    <tag k="addr:housenumber" v="1081"/>
    <tag k="addr:street" v="U.S. Route 302"/>
    <tag k="addr:state" v="VT"/>
    <tag k="ref:vcgi:esiteid" v="183760"/>
  </node>
  <node id="-318" visible="true" lat="44.14167004" lon="-72.33220331">
    <tag k="addr:housenumber" v="1092"/>
    <tag k="addr:street" v="U.S. Route 302"/>
    <tag k="addr:state" v="VT"/>
    <tag k="ref:vcgi:esiteid" v="183761"/>
  </node>
  <node id="-319" visible="true" lat="44.14197443" lon="-72.39754209">
    <tag k="addr:housenumber" v="84"/>
    <tag k="addr:street" v="Manning Road"/>
    <tag k="addr:state" v="VT"/>
    <tag k="ref:vcgi:esiteid" v="183762"/>
  </node>
  <node id="-320" visible="true" lat="44.14190244" lon="-72.33758543">
    <tag k="addr:housenumber" v="1037"/>
    <tag k="addr:street" v="U.S. Route 302"/>
    <tag k="addr:state" v="VT"/>
    <tag k="ref:vcgi:esiteid" v="183763"/>
  </node>
  <node id="-321" visible="true" lat="44.14177274" lon="-72.33502958">
    <tag k="addr:housenumber" v="1065"/>
    <tag k="addr:street" v="U.S. Route 302"/>
    <tag k="addr:state" v="VT"/>
    <tag k="ref:vcgi:esiteid" v="183764"/>
  </node>
  <node id="-322" visible="true" lat="44.14176657" lon="-72.33440791">
    <tag k="addr:housenumber" v="1069"/>
    <tag k="addr:street" v="U.S. Route 302"/>
    <tag k="addr:state" v="VT"/>
    <tag k="ref:vcgi:esiteid" v="183765"/>
  </node>
  <node id="-323" visible="true" lat="44.14178653" lon="-72.32157103">
    <tag k="addr:housenumber" v="12"/>
    <tag k="addr:street" v="Clement Road"/>
    <tag k="addr:state" v="VT"/>
    <tag k="ref:vcgi:esiteid" v="183766"/>
  </node>
  <node id="-324" visible="true" lat="44.14165257" lon="-72.40517052">
    <tag k="addr:housenumber" v="97"/>
    <tag k="addr:street" v="Richardson Road"/>
    <tag k="addr:state" v="VT"/>
    <tag k="ref:vcgi:esiteid" v="183767"/>
  </node>
  <node id="-325" visible="true" lat="44.14143829" lon="-72.33078593">
    <tag k="addr:housenumber" v="1112"/>
    <tag k="addr:street" v="U.S. Route 302"/>
    <tag k="addr:state" v="VT"/>
    <tag k="ref:vcgi:esiteid" v="183768"/>
  </node>
  <node id="-326" visible="true" lat="44.14147393" lon="-72.331495">
    <tag k="addr:housenumber" v="1096"/>
    <tag k="addr:street" v="U.S. Route 302"/>
    <tag k="addr:state" v="VT"/>
    <tag k="ref:vcgi:esiteid" v="183769"/>
  </node>
  <node id="-327" visible="true" lat="44.14139938" lon="-72.3230656">
    <tag k="addr:housenumber" v="1192"/>
    <tag k="addr:street" v="U.S. Route 302"/>
    <tag k="addr:state" v="VT"/>
    <tag k="ref:vcgi:esiteid" v="183770"/>
  </node>
  <node id="-328" visible="true" lat="44.14131687" lon="-72.33648188">
    <tag k="addr:housenumber" v="1048"/>
    <tag k="addr:street" v="U.S. Route 302"/>
    <tag k="addr:state" v="VT"/>
    <tag k="ref:vcgi:esiteid" v="183771"/>
  </node>
  <node id="-329" visible="true" lat="44.14144743" lon="-72.3946628">
    <tag k="addr:housenumber" v="87"/>
    <tag k="addr:street" v="Manning Road"/>
    <tag k="addr:state" v="VT"/>
    <tag k="ref:vcgi:esiteid" v="183772"/>
  </node>
  <node id="-330" visible="true" lat="44.14127096" lon="-72.3965487">
    <tag k="addr:housenumber" v="88"/>
    <tag k="addr:street" v="Manning Road"/>
    <tag k="addr:state" v="VT"/>
    <tag k="ref:vcgi:esiteid" v="183773"/>
  </node>
  <node id="-331" visible="true" lat="44.14123149" lon="-72.32175725">
    <tag k="addr:housenumber" v="4"/>
    <tag k="addr:street" v="Clement Road"/>
    <tag k="addr:state" v="VT"/>
    <tag k="ref:vcgi:esiteid" v="183774"/>
  </node>
  <node id="-332" visible="true" lat="44.14114139" lon="-72.32115907">
    <tag k="addr:housenumber" v="6"/>
    <tag k="addr:street" v="Clement Road"/>
    <tag k="addr:state" v="VT"/>
    <tag k="ref:vcgi:esiteid" v="183775"/>
  </node>
  <node id="-333" visible="true" lat="44.14108276" lon="-72.39074707">
    <tag k="addr:housenumber" v="84"/>
    <tag k="addr:street" v="Prechtl Road"/>
    <tag k="addr:state" v="VT"/>
    <tag k="ref:vcgi:esiteid" v="183776"/>
  </node>
  <node id="-334" visible="true" lat="44.14098654" lon="-72.34713543">
    <tag k="addr:housenumber" v="16"/>
    <tag k="addr:street" v="Riddel Pond Road"/>
    <tag k="addr:state" v="VT"/>
    <tag k="ref:vcgi:esiteid" v="183777"/>
  </node>
  <node id="-335" visible="true" lat="44.1406784" lon="-72.32112121">
    <tag k="addr:housenumber" v="1213"/>
    <tag k="addr:street" v="U.S. Route 302"/>
    <tag k="addr:state" v="VT"/>
    <tag k="ref:vcgi:esiteid" v="183778"/>
  </node>
  <node id="-336" visible="true" lat="44.1405791" lon="-72.31810816">
    <tag k="addr:housenumber" v="1241"/>
    <tag k="addr:street" v="U.S. Route 302"/>
    <tag k="addr:state" v="VT"/>
    <tag k="ref:vcgi:esiteid" v="183779"/>
  </node>
  <node id="-337" visible="true" lat="44.14058685" lon="-72.38954264">
    <tag k="addr:housenumber" v="97"/>
    <tag k="addr:street" v="Prechtl Road"/>
    <tag k="addr:state" v="VT"/>
    <tag k="ref:vcgi:esiteid" v="183780"/>
  </node>
  <node id="-341" visible="true" lat="44.1386954" lon="-72.32240359">
    <tag k="addr:housenumber" v="16"/>
    <tag k="addr:street" v="Wilson Drive"/>
    <tag k="addr:state" v="VT"/>
    <tag k="ref:vcgi:esiteid" v="183784"/>
  </node>
  <node id="-342" visible="true" lat="44.13953502" lon="-72.32064729">
    <tag k="addr:housenumber" v="8"/>
    <tag k="addr:street" v="Wilson Drive"/>
    <tag k="addr:state" v="VT"/>
    <tag k="ref:vcgi:esiteid" v="183785"/>
  </node>
  <node id="-343" visible="true" lat="44.13932725" lon="-72.32096923">
    <tag k="addr:housenumber" v="9"/>
    <tag k="addr:street" v="Wilson Drive"/>
    <tag k="addr:state" v="VT"/>
    <tag k="ref:vcgi:esiteid" v="183786"/>
  </node>
  <node id="-344" visible="true" lat="44.13942336" lon="-72.38889414">
    <tag k="addr:housenumber" v="113"/>
    <tag k="addr:street" v="Prechtl Road"/>
    <tag k="addr:state" v="VT"/>
    <tag k="ref:vcgi:esiteid" v="183787"/>
  </node>
  <node id="-345" visible="true" lat="44.13914423" lon="-72.43271289">
    <tag k="addr:housenumber" v="149"/>
    <tag k="addr:street" v="Vermont Route 110"/>
    <tag k="addr:state" v="VT"/>
    <tag k="ref:vcgi:esiteid" v="183788"/>
  </node>
  <node id="-346" visible="true" lat="44.13883972" lon="-72.40415191">
    <tag k="addr:housenumber" v="145"/>
    <tag k="addr:street" v="Richardson Road"/>
    <tag k="addr:state" v="VT"/>
    <tag k="ref:vcgi:esiteid" v="183789"/>
  </node>
  <node id="-348" visible="true" lat="44.13865661" lon="-72.39156443">
    <tag k="addr:housenumber" v="140"/>
    <tag k="addr:street" v="Prechtl Road"/>
    <tag k="addr:state" v="VT"/>
    <tag k="ref:vcgi:esiteid" v="183791"/>
  </node>
  <node id="-350" visible="true" lat="44.13829844" lon="-72.3875144">
    <tag k="addr:housenumber" v="137"/>
    <tag k="addr:street" v="Prechtl Road"/>
    <tag k="addr:state" v="VT"/>
    <tag k="ref:vcgi:esiteid" v="183793"/>
  </node>
  <node id="-353" visible="true" lat="44.13778456" lon="-72.40401569">
    <tag k="addr:housenumber" v="149"/>
    <tag k="addr:street" v="Richardson Road"/>
    <tag k="addr:state" v="VT"/>
    <tag k="ref:vcgi:esiteid" v="183796"/>
  </node>
  <node id="-355" visible="true" lat="44.13726806" lon="-72.38992411">
    <tag k="addr:housenumber" v="160"/>
    <tag k="addr:street" v="Prechtl Road"/>
    <tag k="addr:state" v="VT"/>
    <tag k="ref:vcgi:esiteid" v="183798"/>
  </node>
  <node id="-357" visible="true" lat="44.13703107" lon="-72.34477232">
    <tag k="addr:housenumber" v="77"/>
    <tag k="addr:street" v="Riddel Pond Road"/>
    <tag k="addr:state" v="VT"/>
    <tag k="ref:vcgi:esiteid" v="183800"/>
  </node>
  <node id="-360" visible="true" lat="44.13695352" lon="-72.39077963">
    <tag k="addr:housenumber" v="168"/>
    <tag k="addr:street" v="Prechtl Road"/>
    <tag k="addr:state" v="VT"/>
    <tag k="ref:vcgi:esiteid" v="183803"/>
  </node>
  <node id="-361" visible="true" lat="44.13693237" lon="-72.40671539">
    <tag k="addr:housenumber" v="165"/>
    <tag k="addr:street" v="Richardson Road"/>
    <tag k="addr:state" v="VT"/>
    <tag k="ref:vcgi:esiteid" v="183804"/>
  </node>
  <node id="-364" visible="true" lat="44.13676196" lon="-72.39238507">
    <tag k="addr:housenumber" v="180"/>
    <tag k="addr:street" v="Prechtl Road"/>
    <tag k="addr:state" v="VT"/>
    <tag k="ref:vcgi:esiteid" v="183807"/>
  </node>
  <node id="-365" visible="true" lat="44.13658142" lon="-72.40763092">
    <tag k="addr:housenumber" v="176"/>
    <tag k="addr:street" v="Richardson Road"/>
    <tag k="addr:state" v="VT"/>
    <tag k="ref:vcgi:esiteid" v="183808"/>
  </node>
  <node id="-366" visible="true" lat="44.13652594" lon="-72.39138023">
    <tag k="addr:housenumber" v="176"/>
    <tag k="addr:street" v="Prechtl Road"/>
    <tag k="addr:state" v="VT"/>
    <tag k="ref:vcgi:esiteid" v="183809"/>
  </node>
  <node id="-369" visible="true" lat="44.13613128" lon="-72.43310546">
    <tag k="addr:housenumber" v="192"/>
    <tag k="addr:street" v="Vermont Route 110"/>
    <tag k="addr:state" v="VT"/>
    <tag k="ref:vcgi:esiteid" v="183812"/>
  </node>
  <node id="-370" visible="true" lat="44.13593673" lon="-72.39284515">
    <tag k="addr:housenumber" v="192"/>
    <tag k="addr:street" v="Prechtl Road"/>
    <tag k="addr:state" v="VT"/>
    <tag k="ref:vcgi:esiteid" v="183813"/>
  </node>
  <node id="-371" visible="true" lat="44.13554763" lon="-72.40812683">
    <tag k="addr:housenumber" v="188"/>
    <tag k="addr:street" v="Richardson Road"/>
    <tag k="addr:state" v="VT"/>
    <tag k="ref:vcgi:esiteid" v="183814"/>
  </node>
  <node id="-373" visible="true" lat="44.1352806" lon="-72.39131266">
    <tag k="addr:housenumber" v="185"/>
    <tag k="addr:street" v="Prechtl Road"/>
    <tag k="addr:state" v="VT"/>
    <tag k="ref:vcgi:esiteid" v="183816"/>
  </node>
  <node id="-374" visible="true" lat="44.13544245" lon="-72.41836525">
    <tag k="addr:housenumber" v="39"/>
    <tag k="addr:street" v="Spencer Road"/>
    <tag k="addr:state" v="VT"/>
    <tag k="ref:vcgi:esiteid" v="183817"/>
  </node>
  <node id="-377" visible="true" lat="44.13490741" lon="-72.43231759">
    <tag k="addr:housenumber" v="208"/>
    <tag k="addr:street" v="Vermont Route 110"/>
    <tag k="addr:state" v="VT"/>
    <tag k="ref:vcgi:esiteid" v="183820"/>
  </node>
  <node id="-378" visible="true" lat="44.1348114" lon="-72.4187622">
    <tag k="addr:housenumber" v="37"/>
    <tag k="addr:street" v="Spencer Road"/>
    <tag k="addr:state" v="VT"/>
    <tag k="ref:vcgi:esiteid" v="183821"/>
  </node>
  <node id="-379" visible="true" lat="44.13438793" lon="-72.41736184">
    <tag k="addr:housenumber" v="49"/>
    <tag k="addr:street" v="Spencer Road"/>
    <tag k="addr:state" v="VT"/>
    <tag k="ref:vcgi:esiteid" v="183822"/>
  </node>
  <node id="-380" visible="true" lat="44.13418197" lon="-72.3506251">
    <tag k="addr:housenumber" v="69"/>
    <tag k="addr:street" v="Peake Cemetery Road"/>
    <tag k="addr:state" v="VT"/>
    <tag k="ref:vcgi:esiteid" v="183823"/>
  </node>
  <node id="-382" visible="true" lat="44.1342314" lon="-72.4167925">
    <tag k="addr:housenumber" v="51"/>
    <tag k="addr:street" v="Spencer Road"/>
    <tag k="addr:state" v="VT"/>
    <tag k="ref:vcgi:esiteid" v="183825"/>
  </node>
  <node id="-383" visible="true" lat="44.13409018" lon="-72.41624014">
    <tag k="addr:housenumber" v="55"/>
    <tag k="addr:street" v="Spencer Road"/>
    <tag k="addr:state" v="VT"/>
    <tag k="ref:vcgi:esiteid" v="183826"/>
  </node>
  <node id="-384" visible="true" lat="44.13389968" lon="-72.40998077">
    <tag k="addr:housenumber" v="232"/>
    <tag k="addr:street" v="Richardson Road"/>
    <tag k="addr:state" v="VT"/>
    <tag k="ref:vcgi:esiteid" v="183827"/>
  </node>
  <node id="-385" visible="true" lat="44.13393351" lon="-72.41549653">
    <tag k="addr:housenumber" v="63"/>
    <tag k="addr:street" v="Spencer Road"/>
    <tag k="addr:state" v="VT"/>
    <tag k="ref:vcgi:esiteid" v="183828"/>
  </node>
  <node id="-387" visible="true" lat="44.13346099" lon="-72.41337585">
    <tag k="addr:housenumber" v="73"/>
    <tag k="addr:street" v="Spencer Road"/>
    <tag k="addr:state" v="VT"/>
    <tag k="ref:vcgi:esiteid" v="183830"/>
  </node>
  <node id="-389" visible="true" lat="44.13286856" lon="-72.41596984">
    <tag k="addr:housenumber" v="16"/>
    <tag k="addr:street" v="Leclair Lane"/>
    <tag k="addr:state" v="VT"/>
    <tag k="ref:vcgi:esiteid" v="183832"/>
  </node>
  <node id="-390" visible="true" lat="44.13254431" lon="-72.43157603">
    <tag k="addr:housenumber" v="240"/>
    <tag k="addr:street" v="Vermont Route 110"/>
    <tag k="addr:state" v="VT"/>
    <tag k="ref:vcgi:esiteid" v="183833"/>
  </node>
  <node id="-391" visible="true" lat="44.13198471" lon="-72.42316436">
    <tag k="addr:housenumber" v="277"/>
    <tag k="addr:street" v="Tucker Road"/>
    <tag k="addr:state" v="VT"/>
    <tag k="ref:vcgi:esiteid" v="183834"/>
  </node>
  <node id="-393" visible="true" lat="44.13138972" lon="-72.41558516">
    <tag k="addr:housenumber" v="29"/>
    <tag k="addr:street" v="Leclair Lane"/>
    <tag k="addr:state" v="VT"/>
    <tag k="ref:vcgi:esiteid" v="183836"/>
  </node>
  <node id="-394" visible="true" lat="44.13061904" lon="-72.43066406">
    <tag k="addr:housenumber" v="265"/>
    <tag k="addr:street" v="Vermont Route 110"/>
    <tag k="addr:state" v="VT"/>
    <tag k="ref:vcgi:esiteid" v="183837"/>
  </node>
  <node id="-395" visible="true" lat="44.13032531" lon="-72.41425323">
    <tag k="addr:housenumber" v="61"/>
    <tag k="addr:street" v="Leclair Lane"/>
    <tag k="addr:state" v="VT"/>
    <tag k="ref:vcgi:esiteid" v="183838"/>
  </node>
  <node id="-398" visible="true" lat="44.12926128" lon="-72.42698597">
    <tag k="addr:housenumber" v="325"/>
    <tag k="addr:street" v="Tucker Road"/>
    <tag k="addr:state" v="VT"/>
    <tag k="ref:vcgi:esiteid" v="183841"/>
  </node>
  <node id="-405" visible="true" lat="44.12735366" lon="-72.41226298">
    <tag k="addr:housenumber" v="44"/>
    <tag k="addr:street" v="Cyr Road"/>
    <tag k="addr:state" v="VT"/>
    <tag k="ref:vcgi:esiteid" v="183848"/>
  </node>
  <node id="-409" visible="true" lat="44.12685775" lon="-72.412736">
    <tag k="addr:housenumber" v="52"/>
    <tag k="addr:street" v="Cyr Road"/>
    <tag k="addr:state" v="VT"/>
    <tag k="ref:vcgi:esiteid" v="183852"/>
  </node>
  <node id="-416" visible="true" lat="44.12543651" lon="-72.4277467">
    <tag k="addr:housenumber" v="337"/>
    <tag k="addr:street" v="Vermont Route 110"/>
    <tag k="addr:state" v="VT"/>
    <tag k="ref:vcgi:esiteid" v="183859"/>
  </node>
  <node id="-418" visible="true" lat="44.12509918" lon="-72.43039703">
    <tag k="addr:housenumber" v="354"/>
    <tag k="addr:street" v="Vermont Route 110"/>
    <tag k="addr:state" v="VT"/>
    <tag k="ref:vcgi:esiteid" v="183861"/>
  </node>
  <node id="-420" visible="true" lat="44.12475585" lon="-72.4304428">
    <tag k="addr:housenumber" v="352"/>
    <tag k="addr:street" v="Vermont Route 110"/>
    <tag k="addr:state" v="VT"/>
    <tag k="ref:vcgi:esiteid" v="183863"/>
  </node>
  <node id="-421" visible="true" lat="44.12459241" lon="-72.42789325">
    <tag k="addr:housenumber" v="357"/>
    <tag k="addr:street" v="Vermont Route 110"/>
    <tag k="addr:state" v="VT"/>
    <tag k="ref:vcgi:esiteid" v="183864"/>
  </node>
  <node id="-422" visible="true" lat="44.12335205" lon="-72.40802001">
    <tag k="addr:housenumber" v="153"/>
    <tag k="addr:street" v="Emery Road"/>
    <tag k="addr:state" v="VT"/>
    <tag k="ref:vcgi:esiteid" v="183865"/>
  </node>
  <node id="-424" visible="true" lat="44.12318131" lon="-72.42056183">
    <tag k="addr:housenumber" v="148"/>
    <tag k="addr:street" v="Cyr Road"/>
    <tag k="addr:state" v="VT"/>
    <tag k="ref:vcgi:esiteid" v="183867"/>
  </node>
  <node id="-426" visible="true" lat="44.12056732" lon="-72.40999603">
    <tag k="addr:housenumber" v="197"/>
    <tag k="addr:street" v="Emery Road"/>
    <tag k="addr:state" v="VT"/>
    <tag k="ref:vcgi:esiteid" v="183869"/>
  </node>
  <node id="-428" visible="true" lat="44.11895694" lon="-72.413631">
    <tag k="addr:housenumber" v="240"/>
    <tag k="addr:street" v="Emery Road"/>
    <tag k="addr:state" v="VT"/>
    <tag k="ref:vcgi:esiteid" v="183871"/>
  </node>
  <node id="-429" visible="true" lat="44.11860776" lon="-72.41107974">
    <tag k="addr:housenumber" v="233"/>
    <tag k="addr:street" v="Emery Road"/>
    <tag k="addr:state" v="VT"/>
    <tag k="ref:vcgi:esiteid" v="183872"/>
  </node>
  <node id="-466" visible="true" lat="44.15994329" lon="-72.40625532">
    <tag k="addr:housenumber" v="208"/>
    <tag k="addr:street" v="George Street"/>
    <tag k="addr:state" v="VT"/>
    <tag k="ref:vcgi:esiteid" v="183909"/>
  </node>
  <node id="-467" visible="true" lat="44.13277152" lon="-72.41721959">
    <tag k="addr:housenumber" v="52"/>
    <tag k="addr:street" v="Spencer Road"/>
    <tag k="addr:state" v="VT"/>
    <tag k="ref:vcgi:esiteid" v="183910"/>
  </node>
  <node id="-468" visible="true" lat="44.13389587" lon="-72.41820526">
    <tag k="addr:housenumber" v="46"/>
    <tag k="addr:street" v="Spencer Road"/>
    <tag k="addr:state" v="VT"/>
    <tag k="ref:vcgi:esiteid" v="183911"/>
  </node>
  <node id="-469" visible="true" lat="44.13346862" lon="-72.41600036">
    <tag k="addr:housenumber" v="4"/>
    <tag k="addr:street" v="Leclair Lane"/>
    <tag k="addr:state" v="VT"/>
    <tag k="ref:vcgi:esiteid" v="183912"/>
  </node>
  <node id="-470" visible="true" lat="44.13300991" lon="-72.41670071">
    <tag k="addr:housenumber" v="56"/>
    <tag k="addr:street" v="Spencer Road"/>
    <tag k="addr:state" v="VT"/>
    <tag k="ref:vcgi:esiteid" v="183913"/>
  </node>
  <node id="-471" visible="true" lat="44.13245903" lon="-72.41688425">
    <tag k="addr:housenumber" v="58"/>
    <tag k="addr:street" v="Spencer Road"/>
    <tag k="addr:state" v="VT"/>
    <tag k="ref:vcgi:esiteid" v="183914"/>
  </node>
  <node id="-472" visible="true" lat="44.13197326" lon="-72.41790008">
    <tag k="addr:housenumber" v="54"/>
    <tag k="addr:street" v="Spencer Road"/>
    <tag k="addr:state" v="VT"/>
    <tag k="ref:vcgi:esiteid" v="183915"/>
  </node>
  <node id="-473" visible="true" lat="44.13119125" lon="-72.41313171">
    <tag k="addr:housenumber" v="90"/>
    <tag k="addr:street" v="Spencer Road"/>
    <tag k="addr:state" v="VT"/>
    <tag k="ref:vcgi:esiteid" v="183916"/>
  </node>
  <node id="-474" visible="true" lat="44.13087081" lon="-72.41207885">
    <tag k="addr:housenumber" v="88"/>
    <tag k="addr:street" v="Spencer Road"/>
    <tag k="addr:state" v="VT"/>
    <tag k="ref:vcgi:esiteid" v="183917"/>
  </node>
  <node id="-484" visible="true" lat="44.13410316" lon="-72.41978716">
    <tag k="addr:housenumber" v="34"/>
    <tag k="addr:street" v="Spencer Road"/>
    <tag k="addr:state" v="VT"/>
    <tag k="ref:vcgi:esiteid" v="183927"/>
  </node>
  <node id="-485" visible="true" lat="44.15470536" lon="-72.43103534">
    <tag k="addr:housenumber" v="30"/>
    <tag k="addr:street" v="Reservoir Road"/>
    <tag k="addr:state" v="VT"/>
    <tag k="ref:vcgi:esiteid" v="183928"/>
  </node>
  <node id="-504" visible="true" lat="44.1980812" lon="-72.39897811">
    <tag k="addr:housenumber" v="14"/>
    <tag k="addr:street" v="R B B Drive"/>
    <tag k="addr:state" v="VT"/>
    <tag k="ref:vcgi:esiteid" v="183947"/>
  </node>
  <node id="-507" visible="true" lat="44.19870733" lon="-72.39872894">
    <tag k="addr:housenumber" v="18"/>
    <tag k="addr:street" v="R B B Drive"/>
    <tag k="addr:state" v="VT"/>
    <tag k="ref:vcgi:esiteid" v="183950"/>
  </node>
  <node id="-510" visible="true" lat="44.19224825" lon="-72.41083163">
    <tag k="addr:housenumber" v="37"/>
    <tag k="addr:street" v="Trickle Brook Drive"/>
    <tag k="addr:state" v="VT"/>
    <tag k="ref:vcgi:esiteid" v="183953"/>
  </node>
  <node id="-511" visible="true" lat="44.154422" lon="-72.43182914">
    <tag k="addr:housenumber" v="29"/>
    <tag k="addr:street" v="Reservoir Road"/>
    <tag k="addr:state" v="VT"/>
    <tag k="ref:vcgi:esiteid" v="183954"/>
  </node>
  <node id="-513" visible="true" lat="44.16888581" lon="-72.39151212">
    <tag k="addr:housenumber" v="203"/>
    <tag k="addr:street" v="Bennetts Mill Road"/>
    <tag k="addr:state" v="VT"/>
    <tag k="ref:vcgi:esiteid" v="183957"/>
  </node>
  <node id="-519" visible="true" lat="44.14815923" lon="-72.43760076">
    <tag k="addr:housenumber" v="12"/>
    <tag k="addr:street" v="Vermont Route 110"/>
    <tag k="addr:state" v="VT"/>
    <tag k="ref:vcgi:esiteid" v="183964"/>
  </node>
  <node id="-520" visible="true" lat="44.13317604" lon="-72.42075531">
    <tag k="addr:housenumber" v="26"/>
    <tag k="addr:street" v="Spencer Road"/>
    <tag k="addr:state" v="VT"/>
    <tag k="ref:vcgi:esiteid" v="183965"/>
  </node>
  <node id="-523" visible="true" lat="44.14308648" lon="-72.33366625">
    <tag k="addr:housenumber" v="1075"/>
    <tag k="addr:street" v="U.S. Route 302"/>
    <tag k="addr:state" v="VT"/>
    <tag k="ref:vcgi:esiteid" v="183969"/>
  </node>
  <node id="-526" visible="true" lat="44.14828549" lon="-72.39337164">
    <tag k="addr:housenumber" v="17"/>
    <tag k="addr:street" v="Senecal Road"/>
    <tag k="addr:state" v="VT"/>
    <tag k="ref:vcgi:esiteid" v="183972"/>
  </node>
  <node id="-529" visible="true" lat="44.18831847" lon="-72.39436643">
    <tag k="addr:housenumber" v="10"/>
    <tag k="addr:street" v="Wesley Drive"/>
    <tag k="addr:state" v="VT"/>
    <tag k="ref:vcgi:esiteid" v="183975"/>
  </node>
  <node id="-530" visible="true" lat="44.1882814" lon="-72.39423365">
    <tag k="addr:housenumber" v="9"/>
    <tag k="addr:street" v="Wesley Drive"/>
    <tag k="addr:state" v="VT"/>
    <tag k="ref:vcgi:esiteid" v="183976"/>
  </node>
  <node id="-531" visible="true" lat="44.21589628" lon="-72.40641971">
    <tag k="addr:housenumber" v="415"/>
    <tag k="addr:street" v="Maxfield Road"/>
    <tag k="addr:state" v="VT"/>
    <tag k="ref:vcgi:esiteid" v="183977"/>
  </node>
  <node id="-532" visible="true" lat="44.18866201" lon="-72.39543359">
    <tag k="addr:housenumber" v="166"/>
    <tag k="addr:street" v="Smith Road"/>
    <tag k="addr:state" v="VT"/>
    <tag k="ref:vcgi:esiteid" v="183979"/>
  </node>
  <node id="-533" visible="true" lat="44.14325978" lon="-72.39779627">
    <tag k="addr:housenumber" v="48"/>
    <tag k="addr:street" v="Manning Road"/>
    <tag k="addr:state" v="VT"/>
    <tag k="ref:vcgi:esiteid" v="183981"/>
  </node>
  <node id="-536" visible="true" lat="44.13919914" lon="-72.39092017">
    <tag k="addr:housenumber" v="126"/>
    <tag k="addr:street" v="Prechtl Road"/>
    <tag k="addr:state" v="VT"/>
    <tag k="ref:vcgi:esiteid" v="183984"/>
  </node>
  <node id="-539" visible="true" lat="44.18800566" lon="-72.39344003">
    <tag k="addr:housenumber" v="5"/>
    <tag k="addr:street" v="Kimberlee Lane"/>
    <tag k="addr:state" v="VT"/>
    <tag k="ref:vcgi:esiteid" v="183989"/>
  </node>
  <node id="-540" visible="true" lat="44.18798119" lon="-72.39360427">
    <tag k="addr:housenumber" v="7"/>
    <tag k="addr:street" v="Kimberlee Lane"/>
    <tag k="addr:state" v="VT"/>
    <tag k="ref:vcgi:esiteid" v="183990"/>
  </node>
  <node id="-541" visible="true" lat="44.1880932" lon="-72.39425355">
    <tag k="addr:housenumber" v="10"/>
    <tag k="addr:street" v="Kimberlee Lane"/>
    <tag k="addr:state" v="VT"/>
    <tag k="ref:vcgi:esiteid" v="183991"/>
  </node>
  <node id="-542" visible="true" lat="44.11942795" lon="-72.4105973">
    <tag k="addr:housenumber" v="219"/>
    <tag k="addr:street" v="Emery Road"/>
    <tag k="addr:state" v="VT"/>
    <tag k="ref:vcgi:esiteid" v="183992"/>
  </node>
  <node id="-543" visible="true" lat="44.15948953" lon="-72.39437155">
    <tag k="addr:housenumber" v="27"/>
    <tag k="addr:street" v="Bennetts Mill Road"/>
    <tag k="addr:state" v="VT"/>
    <tag k="ref:vcgi:esiteid" v="183993"/>
  </node>
  <node id="-545" visible="true" lat="44.13567341" lon="-72.42012778">
    <tag k="addr:housenumber" v="31"/>
    <tag k="addr:street" v="Spencer Road"/>
    <tag k="addr:state" v="VT"/>
    <tag k="ref:vcgi:esiteid" v="183995"/>
  </node>
  <node id="-546" visible="true" lat="44.14905646" lon="-72.35385531">
    <tag k="addr:housenumber" v="100"/>
    <tag k="addr:street" v="Provencher Lane"/>
    <tag k="addr:state" v="VT"/>
    <tag k="ref:vcgi:esiteid" v="183996"/>
  </node>
  <node id="-555" visible="true" lat="44.19072787" lon="-72.41259417">
    <tag k="addr:housenumber" v="28"/>
    <tag k="addr:street" v="Knapp Drive"/>
    <tag k="addr:state" v="VT"/>
    <tag k="ref:vcgi:esiteid" v="184006"/>
  </node>
  <node id="-558" visible="true" lat="44.1882271" lon="-72.39355733">
    <tag k="addr:housenumber" v="6"/>
    <tag k="addr:street" v="Kimberlee Lane"/>
    <tag k="addr:state" v="VT"/>
    <tag k="ref:vcgi:esiteid" v="184010"/>
  </node>
  <node id="-559" visible="true" lat="44.19586456" lon="-72.40377906">
    <tag k="addr:housenumber" v="27"/>
    <tag k="addr:street" v="Griggs Road"/>
    <tag k="addr:state" v="VT"/>
    <tag k="ref:vcgi:esiteid" v="184011"/>
  </node>
  <node id="-560" visible="true" lat="44.13060984" lon="-72.44159263">
    <tag k="addr:housenumber" v="1571"/>
    <tag k="addr:street" v="Lowery Road"/>
    <tag k="addr:state" v="VT"/>
    <tag k="ref:vcgi:esiteid" v="184012"/>
  </node>
  <node id="-562" visible="true" lat="44.20004483" lon="-72.4010465">
    <tag k="addr:housenumber" v="9"/>
    <tag k="addr:street" v="Smith Road"/>
    <tag k="addr:state" v="VT"/>
    <tag k="ref:vcgi:esiteid" v="184015"/>
  </node>
  <node id="-564" visible="true" lat="44.14922373" lon="-72.40193528">
    <tag k="addr:housenumber" v="7"/>
    <tag k="addr:street" v="Freeman Way"/>
    <tag k="addr:state" v="VT"/>
    <tag k="ref:vcgi:esiteid" v="184017"/>
  </node>
  <node id="-565" visible="true" lat="44.1493554" lon="-72.40150483">
    <tag k="addr:housenumber" v="8"/>
    <tag k="addr:street" v="Freeman Way"/>
    <tag k="addr:state" v="VT"/>
    <tag k="ref:vcgi:esiteid" v="184018"/>
  </node>
  <node id="-566" visible="true" lat="44.13595971" lon="-72.34252015">
    <tag k="addr:housenumber" v="29"/>
    <tag k="addr:street" v="Bagley Road"/>
    <tag k="addr:state" v="VT"/>
    <tag k="ref:vcgi:esiteid" v="184019"/>
  </node>
  <node id="-568" visible="true" lat="44.18831693" lon="-72.39360695">
    <tag k="addr:housenumber" v="8"/>
    <tag k="addr:street" v="Kimberlee Lane"/>
    <tag k="addr:state" v="VT"/>
    <tag k="ref:vcgi:esiteid" v="184021"/>
  </node>
  <node id="-569" visible="true" lat="44.19133035" lon="-72.41024987">
    <tag k="addr:housenumber" v="36"/>
    <tag k="addr:street" v="Trickle Brook Drive"/>
    <tag k="addr:state" v="VT"/>
    <tag k="ref:vcgi:esiteid" v="184022"/>
  </node>
  <node id="-570" visible="true" lat="44.19246566" lon="-72.41224362">
    <tag k="addr:housenumber" v="20"/>
    <tag k="addr:street" v="Trickle Brook Drive"/>
    <tag k="addr:state" v="VT"/>
    <tag k="ref:vcgi:esiteid" v="184023"/>
  </node>
  <node id="-571" visible="true" lat="44.17871088" lon="-72.41371888">
    <tag k="addr:housenumber" v="490"/>
    <tag k="addr:street" v="George Street"/>
    <tag k="addr:state" v="VT"/>
    <tag k="ref:vcgi:esiteid" v="184024"/>
  </node>
  <node id="-573" visible="true" lat="44.1325379" lon="-72.41533011">
    <tag k="addr:housenumber" v="19"/>
    <tag k="addr:street" v="Leclair Lane"/>
    <tag k="addr:state" v="VT"/>
    <tag k="ref:vcgi:esiteid" v="184026"/>
  </node>
  <node id="-576" visible="true" lat="44.19848793" lon="-72.39970078">
    <tag k="addr:housenumber" v="11"/>
    <tag k="addr:street" v="R B B Drive"/>
    <tag k="addr:state" v="VT"/>
    <tag k="ref:vcgi:esiteid" v="184030"/>
  </node>
  <node id="-581" visible="true" lat="44.13099927" lon="-72.42897282">
    <tag k="addr:housenumber" v="11"/>
    <tag k="addr:street" v="Hide Away Drive"/>
    <tag k="addr:state" v="VT"/>
    <tag k="ref:vcgi:esiteid" v="184035"/>
  </node>
  <node id="-583" visible="true" lat="44.15030979" lon="-72.4024421">
    <tag k="addr:housenumber" v="19"/>
    <tag k="addr:street" v="Freeman Way"/>
    <tag k="addr:state" v="VT"/>
    <tag k="ref:vcgi:esiteid" v="307838"/>
  </node>
  <node id="-584" visible="true" lat="44.13175338" lon="-72.42764025">
    <tag k="addr:housenumber" v="27"/>
    <tag k="addr:street" v="Hide Away Drive"/>
    <tag k="addr:state" v="VT"/>
    <tag k="ref:vcgi:esiteid" v="307839"/>
  </node>
  <node id="-585" visible="true" lat="44.13881013" lon="-72.43256677">
    <tag k="addr:housenumber" v="151"/>
    <tag k="addr:street" v="Vermont Route 110"/>
    <tag k="addr:state" v="VT"/>
    <tag k="ref:vcgi:esiteid" v="307840"/>
  </node>
  <node id="-589" visible="true" lat="44.14263214" lon="-72.317562">
    <tag k="addr:housenumber" v="7"/>
    <tag k="addr:street" v="U.S. Route 302"/>
    <tag k="addr:state" v="VT"/>
    <tag k="ref:vcgi:esiteid" v="309130"/>
  </node>
  <node id="-590" visible="true" lat="44.14173614" lon="-72.32683693">
    <tag k="addr:housenumber" v="1150"/>
    <tag k="addr:street" v="U.S. Route 302"/>
    <tag k="addr:state" v="VT"/>
    <tag k="ref:vcgi:esiteid" v="313178"/>
  </node>
  <node id="-594" visible="true" lat="44.13171728" lon="-72.42820789">
    <tag k="addr:housenumber" v="25"/>
    <tag k="addr:street" v="Hide Away Drive"/>
    <tag k="addr:state" v="VT"/>
    <tag k="ref:vcgi:esiteid" v="315469"/>
  </node>
  <node id="-595" visible="true" lat="44.1996986" lon="-72.39931142">
    <tag k="addr:housenumber" v="19"/>
    <tag k="addr:street" v="R B B Drive"/>
    <tag k="addr:state" v="VT"/>
    <tag k="ref:vcgi:esiteid" v="315470"/>
  </node>
  <node id="-600" visible="true" lat="44.14033149" lon="-72.40415326">
    <tag k="addr:housenumber" v="111"/>
    <tag k="addr:street" v="Richardson Road"/>
    <tag k="addr:state" v="VT"/>
    <tag k="ref:vcgi:esiteid" v="326417"/>
  </node>
  <node id="-601" visible="true" lat="44.11770611" lon="-72.409312">
    <tag k="addr:housenumber" v="237"/>
    <tag k="addr:street" v="Emery Road"/>
    <tag k="addr:state" v="VT"/>
    <tag k="ref:vcgi:esiteid" v="326418"/>
  </node>
  <node id="-602" visible="true" lat="44.12387094" lon="-72.40849537">
    <tag k="addr:housenumber" v="150"/>
    <tag k="addr:street" v="Emery Road"/>
    <tag k="addr:state" v="VT"/>
    <tag k="ref:vcgi:esiteid" v="326885"/>
  </node>
  <node id="-604" visible="true" lat="44.1314927" lon="-72.42853186">
    <tag k="addr:housenumber" v="23"/>
    <tag k="addr:street" v="Hide Away Drive"/>
    <tag k="addr:state" v="VT"/>
    <tag k="ref:vcgi:esiteid" v="328732"/>
  </node>
  <node id="-605" visible="true" lat="44.15655222" lon="-72.40258016">
    <tag k="addr:housenumber" v="145"/>
    <tag k="addr:street" v="George Street"/>
    <tag k="addr:state" v="VT"/>
    <tag k="ref:vcgi:esiteid" v="331836"/>
  </node>
  <node id="-606" visible="true" lat="44.14508444" lon="-72.37733562">
    <tag k="addr:housenumber" v="636"/>
    <tag k="addr:street" v="U.S. Route 302"/>
    <tag k="addr:state" v="VT"/>
    <tag k="ref:vcgi:esiteid" v="331837"/>
  </node>
  <node id="-607" visible="true" lat="44.13613247" lon="-72.39663403">
    <tag k="addr:housenumber" v="200"/>
    <tag k="addr:street" v="Prechtl Road"/>
    <tag k="addr:state" v="VT"/>
    <tag k="ref:vcgi:esiteid" v="331838"/>
  </node>
  <node id="-608" visible="true" lat="44.14033127" lon="-72.43151065">
    <tag k="addr:housenumber" v="12"/>
    <tag k="addr:street" v="Morrie Drive"/>
    <tag k="addr:state" v="VT"/>
    <tag k="ref:vcgi:esiteid" v="334773"/>
  </node>
  <node id="-609" visible="true" lat="44.13041208" lon="-72.42983423">
    <tag k="addr:housenumber" v="352"/>
    <tag k="addr:street" v="Tucker Road"/>
    <tag k="addr:state" v="VT"/>
    <tag k="ref:vcgi:esiteid" v="334774"/>
  </node>
  <node id="-611" visible="true" lat="44.13528669" lon="-72.39782294">
    <tag k="addr:housenumber" v="170"/>
    <tag k="addr:street" v="Keane Mountain Way"/>
    <tag k="addr:state" v="VT"/>
    <tag k="ref:vcgi:esiteid" v="337827"/>
  </node>
  <node id="-612" visible="true" lat="44.13428601" lon="-72.42320066">
    <tag k="addr:housenumber" v="248"/>
    <tag k="addr:street" v="Tucker Road"/>
    <tag k="addr:state" v="VT"/>
    <tag k="ref:vcgi:esiteid" v="337828"/>
  </node>
  <node id="-614" visible="true" lat="44.13109805" lon="-72.42847085">
    <tag k="addr:housenumber" v="15"/>
    <tag k="addr:street" v="Hide Away Drive"/>
    <tag k="addr:state" v="VT"/>
    <tag k="ref:vcgi:esiteid" v="337830"/>
  </node>
  <node id="-616" visible="true" lat="44.14507012" lon="-72.32018564">
    <tag k="addr:housenumber" v="64"/>
    <tag k="addr:street" v="Clement Road"/>
    <tag k="addr:state" v="VT"/>
    <tag k="ref:vcgi:esiteid" v="337832"/>
  </node>
  <node id="-618" visible="true" lat="44.13530851" lon="-72.39375933">
    <tag k="addr:housenumber" v="204"/>
    <tag k="addr:street" v="Prechtl Road"/>
    <tag k="addr:state" v="VT"/>
    <tag k="ref:vcgi:esiteid" v="337834"/>
  </node>
  <node id="-620" visible="true" lat="44.14092047" lon="-72.43262236">
    <tag k="addr:housenumber" v="9"/>
    <tag k="addr:street" v="Morrie Drive"/>
    <tag k="addr:state" v="VT"/>
    <tag k="ref:vcgi:esiteid" v="338578"/>
  </node>
  <node id="-623" visible="true" lat="44.14036146" lon="-72.43279134">
    <tag k="addr:housenumber" v="8"/>
    <tag k="addr:street" v="Morrie Drive"/>
    <tag k="addr:state" v="VT"/>
    <tag k="ref:vcgi:esiteid" v="339796"/>
  </node>
  <node id="-624" visible="true" lat="44.13030687" lon="-72.42851861">
    <tag k="addr:housenumber" v="5"/>
    <tag k="addr:street" v="Hide Away Drive"/>
    <tag k="addr:state" v="VT"/>
    <tag k="ref:vcgi:esiteid" v="339797"/>
  </node>
  <node id="-625" visible="true" lat="44.14250669" lon="-72.39686835">
    <tag k="addr:housenumber" v="68"/>
    <tag k="addr:street" v="Manning Road"/>
    <tag k="addr:state" v="VT"/>
    <tag k="ref:vcgi:esiteid" v="339798"/>
  </node>
  <node id="-626" visible="true" lat="44.14408632" lon="-72.39128912">
    <tag k="addr:housenumber" v="48"/>
    <tag k="addr:street" v="Prechtl Road"/>
    <tag k="addr:state" v="VT"/>
    <tag k="ref:vcgi:esiteid" v="339802"/>
  </node>
  <node id="-627" visible="true" lat="44.18655298" lon="-72.39201489">
    <tag k="addr:housenumber" v="21"/>
    <tag k="addr:street" v="Butterfield Woods Drive"/>
    <tag k="addr:state" v="VT"/>
    <tag k="ref:vcgi:esiteid" v="341305"/>
  </node>
  <node id="-635" visible="true" lat="44.15311364" lon="-72.40272474">
    <tag k="addr:housenumber" v="53"/>
    <tag k="addr:street" v="Freeman Way"/>
    <tag k="addr:state" v="VT"/>
    <tag k="ref:vcgi:esiteid" v="345914"/>
  </node>
  <node id="-637" visible="true" lat="44.13993005" lon="-72.40571341">
    <tag k="addr:housenumber" v="121"/>
    <tag k="addr:street" v="Richardson Road"/>
    <tag k="addr:state" v="VT"/>
    <tag k="ref:vcgi:esiteid" v="345917"/>
  </node>
  <node id="-643" visible="true" lat="44.20941824" lon="-72.42221711">
    <tag k="addr:housenumber" v="112"/>
    <tag k="addr:street" v="Preston Road"/>
    <tag k="addr:state" v="VT"/>
    <tag k="ref:vcgi:esiteid" v="365548"/>
  </node>
  <node id="-644" visible="true" lat="44.13213948" lon="-72.43047368">
    <tag k="addr:housenumber" v="33"/>
    <tag k="addr:street" v="Hide Away Drive Extension"/>
    <tag k="addr:state" v="VT"/>
    <tag k="ref:vcgi:esiteid" v="446484"/>
  </node>
  <node id="-645" visible="true" lat="44.13123847" lon="-72.42999782">
    <tag k="addr:housenumber" v="17"/>
    <tag k="addr:street" v="Hide Away Drive Extension"/>
    <tag k="addr:state" v="VT"/>
    <tag k="ref:vcgi:esiteid" v="446485"/>
  </node>
  <node id="-646" visible="true" lat="44.16610654" lon="-72.41483029">
    <tag k="addr:housenumber" v="311"/>
    <tag k="addr:street" v="George Street"/>
    <tag k="addr:state" v="VT"/>
    <tag k="ref:vcgi:esiteid" v="446528"/>
  </node>
  <node id="-652" visible="true" lat="44.18628751" lon="-72.39226968">
    <tag k="addr:housenumber" v="23"/>
    <tag k="addr:street" v="Butterfield Woods Drive"/>
    <tag k="addr:state" v="VT"/>
    <tag k="ref:vcgi:esiteid" v="448540"/>
  </node>
  <node id="-656" visible="true" lat="44.14589251" lon="-72.38160855">
    <tag k="addr:housenumber" v="582"/>
    <tag k="addr:street" v="U.S. Route 302"/>
    <tag k="addr:state" v="VT"/>
    <tag k="ref:vcgi:esiteid" v="448597"/>
  </node>
  <node id="-657" visible="true" lat="44.13377686" lon="-72.41189314">
    <tag k="addr:housenumber" v="87"/>
    <tag k="addr:street" v="Spencer Road"/>
    <tag k="addr:state" v="VT"/>
    <tag k="ref:vcgi:esiteid" v="448598"/>
  </node>
  <node id="-658" visible="true" lat="44.12737005" lon="-72.43076231">
    <tag k="addr:housenumber" v="310"/>
    <tag k="addr:street" v="Vermont Route 110"/>
    <tag k="addr:state" v="VT"/>
    <tag k="ref:vcgi:esiteid" v="449677"/>
  </node>
  <node id="-663" visible="true" lat="44.13284904" lon="-72.43085722">
    <tag k="addr:housenumber" v="231"/>
    <tag k="addr:street" v="Vermont Route 110"/>
    <tag k="addr:state" v="VT"/>
    <tag k="ref:vcgi:esiteid" v="453640"/>
  </node>
  <node id="-664" visible="true" lat="44.13377115" lon="-72.43084627">
    <tag k="addr:housenumber" v="215"/>
    <tag k="addr:street" v="Vermont Route 110"/>
    <tag k="addr:state" v="VT"/>
    <tag k="ref:vcgi:esiteid" v="453642"/>
  </node>
  <node id="-665" visible="true" lat="44.13485757" lon="-72.43106075">
    <tag k="addr:housenumber" v="207"/>
    <tag k="addr:street" v="Vermont Route 110"/>
    <tag k="addr:state" v="VT"/>
    <tag k="ref:vcgi:esiteid" v="453643"/>
  </node>
  <node id="-666" visible="true" lat="44.13764962" lon="-72.40526447">
    <tag k="addr:housenumber" v="157"/>
    <tag k="addr:street" v="Richardson Road"/>
    <tag k="addr:state" v="VT"/>
    <tag k="ref:vcgi:esiteid" v="453644"/>
  </node>
  <node id="-669" visible="true" lat="44.13980983" lon="-72.32138954">
    <tag k="addr:housenumber" v="12"/>
    <tag k="addr:street" v="Wilson Drive"/>
    <tag k="addr:state" v="VT"/>
    <tag k="ref:vcgi:esiteid" v="611387"/>
  </node>
  <node id="-672" visible="true" lat="44.14832188" lon="-72.36769557">
    <tag k="addr:housenumber" v="683"/>
    <tag k="addr:street" v="U.S. Route 302"/>
    <tag k="addr:state" v="VT"/>
    <tag k="ref:vcgi:esiteid" v="612896"/>
  </node>
  <node id="-677" visible="true" lat="44.12861357" lon="-72.42762512">
    <tag k="addr:housenumber" v="319"/>
    <tag k="addr:street" v="Vermont Route 110"/>
    <tag k="addr:state" v="VT"/>
    <tag k="ref:vcgi:esiteid" v="750458"/>
  </node>
  <node id="-695" visible="true" lat="44.11799506" lon="-72.40797453">
    <tag k="addr:housenumber" v="239"/>
    <tag k="addr:street" v="Emery Road"/>
    <tag k="addr:state" v="VT"/>
    <tag k="ref:vcgi:esiteid" v="766267"/>
  </node>
  <node id="-697" visible="true" lat="44.11892082" lon="-72.41124881">
    <tag k="addr:housenumber" v="229"/>
    <tag k="addr:street" v="Emery Road"/>
    <tag k="addr:state" v="VT"/>
    <tag k="ref:vcgi:esiteid" v="766357"/>
  </node>
</osm>
