<?xml version="1.0" encoding="UTF-8"?>
<osm version="0.6" generator="JOSM">
  <node id="-106" visible="true" lat="44.8140929" lon="-72.20633723">
    <tag k="addr:city" v="Orleans"/>
    <tag k="addr:housenumber" v="17"/>
    <tag k="addr:street" v="High Street"/>
    <tag k="addr:state" v="VT"/>
    <tag k="ref:vcgi:esiteid" v="14237"/>
  </node>
  <node id="-110" visible="true" lat="44.8137468" lon="-72.19117578">
    <tag k="addr:city" v="Orleans"/>
    <tag k="addr:housenumber" v="312"/>
    <tag k="addr:street" v="East Street"/>
    <tag k="addr:state" v="VT"/>
    <tag k="ref:vcgi:esiteid" v="14243"/>
  </node>
  <node id="-111" visible="true" lat="44.81370442" lon="-72.20583846">
    <tag k="addr:city" v="Orleans"/>
    <tag k="addr:housenumber" v="16"/>
    <tag k="addr:street" v="High Street"/>
    <tag k="addr:state" v="VT"/>
    <tag k="ref:vcgi:esiteid" v="14244"/>
  </node>
  <node id="-112" visible="true" lat="44.8136033" lon="-72.20637844">
    <tag k="addr:city" v="Orleans"/>
    <tag k="addr:housenumber" v="15"/>
    <tag k="addr:street" v="High Street"/>
    <tag k="addr:state" v="VT"/>
    <tag k="ref:vcgi:esiteid" v="14245"/>
  </node>
  <node id="-115" visible="true" lat="44.81317925" lon="-72.20628015">
    <tag k="addr:city" v="Orleans"/>
    <tag k="addr:housenumber" v="11"/>
    <tag k="addr:street" v="High Street"/>
    <tag k="addr:state" v="VT"/>
    <tag k="ref:vcgi:esiteid" v="14248"/>
  </node>
  <node id="-118" visible="true" lat="44.81300337" lon="-72.20539809">
    <tag k="addr:city" v="Orleans"/>
    <tag k="addr:housenumber" v="11"/>
    <tag k="addr:street" v="Cliff Street"/>
    <tag k="addr:state" v="VT"/>
    <tag k="ref:vcgi:esiteid" v="14251"/>
  </node>
  <node id="-119" visible="true" lat="44.81301295" lon="-72.20581322">
    <tag k="addr:city" v="Orleans"/>
    <tag k="addr:housenumber" v="10"/>
    <tag k="addr:street" v="High Street"/>
    <tag k="addr:state" v="VT"/>
    <tag k="ref:vcgi:esiteid" v="14252"/>
  </node>
  <node id="-121" visible="true" lat="44.81297914" lon="-72.20628241">
    <tag k="addr:city" v="Orleans"/>
    <tag k="addr:housenumber" v="9"/>
    <tag k="addr:street" v="High Street"/>
    <tag k="addr:state" v="VT"/>
    <tag k="ref:vcgi:esiteid" v="14254"/>
  </node>
  <node id="-122" visible="true" lat="44.81288888" lon="-72.19264431">
    <tag k="addr:city" v="Orleans"/>
    <tag k="addr:housenumber" v="240"/>
    <tag k="addr:street" v="East Street"/>
    <tag k="addr:state" v="VT"/>
    <tag k="ref:vcgi:esiteid" v="14256"/>
  </node>
  <node id="-123" visible="true" lat="44.81271734" lon="-72.19365313">
    <tag k="addr:city" v="Orleans"/>
    <tag k="addr:housenumber" v="197"/>
    <tag k="addr:street" v="East Street"/>
    <tag k="addr:state" v="VT"/>
    <tag k="ref:vcgi:esiteid" v="14257"/>
  </node>
  <node id="-125" visible="true" lat="44.81259536" lon="-72.20584553">
    <tag k="addr:city" v="Orleans"/>
    <tag k="addr:housenumber" v="6"/>
    <tag k="addr:street" v="High Street"/>
    <tag k="addr:state" v="VT"/>
    <tag k="ref:vcgi:esiteid" v="14259"/>
  </node>
  <node id="-126" visible="true" lat="44.81258303" lon="-72.19320365">
    <tag k="addr:city" v="Orleans"/>
    <tag k="addr:housenumber" v="200"/>
    <tag k="addr:street" v="East Street"/>
    <tag k="addr:state" v="VT"/>
    <tag k="ref:vcgi:esiteid" v="14260"/>
  </node>
  <node id="-127" visible="true" lat="44.81263815" lon="-72.20521248">
    <tag k="addr:city" v="Orleans"/>
    <tag k="addr:housenumber" v="9"/>
    <tag k="addr:street" v="Cliff Street"/>
    <tag k="addr:state" v="VT"/>
    <tag k="ref:vcgi:esiteid" v="14261"/>
  </node>
  <node id="-129" visible="true" lat="44.81248161" lon="-72.2072123">
    <tag k="addr:city" v="Orleans"/>
    <tag k="addr:housenumber" v="38"/>
    <tag k="addr:street" v="North Avenue"/>
    <tag k="addr:state" v="VT"/>
    <tag k="ref:vcgi:esiteid" v="14264"/>
  </node>
  <node id="-130" visible="true" lat="44.81246267" lon="-72.20518959">
    <tag k="addr:city" v="Orleans"/>
    <tag k="addr:housenumber" v="5"/>
    <tag k="addr:street" v="Cliff Street"/>
    <tag k="addr:state" v="VT"/>
    <tag k="ref:vcgi:esiteid" v="14266"/>
  </node>
  <node id="-133" visible="true" lat="44.812248" lon="-72.20639586">
    <tag k="addr:city" v="Orleans"/>
    <tag k="addr:housenumber" v="1"/>
    <tag k="addr:street" v="High Street"/>
    <tag k="addr:state" v="VT"/>
    <tag k="ref:vcgi:esiteid" v="14269"/>
  </node>
  <node id="-134" visible="true" lat="44.81232125" lon="-72.20668923">
    <tag k="addr:city" v="Orleans"/>
    <tag k="addr:housenumber" v="30"/>
    <tag k="addr:street" v="North Avenue"/>
    <tag k="addr:state" v="VT"/>
    <tag k="ref:vcgi:esiteid" v="14270"/>
  </node>
  <node id="-135" visible="true" lat="44.81220245" lon="-72.20519256">
    <tag k="addr:city" v="Orleans"/>
    <tag k="addr:housenumber" v="20"/>
    <tag k="addr:street" v="North Avenue"/>
    <tag k="addr:state" v="VT"/>
    <tag k="ref:vcgi:esiteid" v="14271"/>
  </node>
  <node id="-136" visible="true" lat="44.81218231" lon="-72.20429699">
    <tag k="addr:city" v="Orleans"/>
    <tag k="addr:housenumber" v="2"/>
    <tag k="addr:street" v="Cliff Street"/>
    <tag k="addr:state" v="VT"/>
    <tag k="ref:vcgi:esiteid" v="14272"/>
  </node>
  <node id="-137" visible="true" lat="44.81202054" lon="-72.20683101">
    <tag k="addr:city" v="Orleans"/>
    <tag k="addr:housenumber" v="41"/>
    <tag k="addr:street" v="North Avenue"/>
    <tag k="addr:state" v="VT"/>
    <tag k="ref:vcgi:esiteid" v="14273"/>
  </node>
  <node id="-138" visible="true" lat="44.81193199" lon="-72.20563597">
    <tag k="addr:city" v="Orleans"/>
    <tag k="addr:housenumber" v="26"/>
    <tag k="addr:street" v="North Avenue"/>
    <tag k="addr:state" v="VT"/>
    <tag k="ref:vcgi:esiteid" v="14274"/>
  </node>
  <node id="-139" visible="true" lat="44.81181621" lon="-72.20416902">
    <tag k="addr:city" v="Orleans"/>
    <tag k="addr:housenumber" v="10"/>
    <tag k="addr:street" v="North Avenue"/>
    <tag k="addr:state" v="VT"/>
    <tag k="ref:vcgi:esiteid" v="14275"/>
  </node>
  <node id="-141" visible="true" lat="44.81172083" lon="-72.20631926">
    <tag k="addr:city" v="Orleans"/>
    <tag k="addr:housenumber" v="33"/>
    <tag k="addr:street" v="North Avenue"/>
    <tag k="addr:state" v="VT"/>
    <tag k="ref:vcgi:esiteid" v="14277"/>
  </node>
  <node id="-142" visible="true" lat="44.81180225" lon="-72.20523026">
    <tag k="addr:city" v="Orleans"/>
    <tag k="addr:housenumber" v="22"/>
    <tag k="addr:street" v="North Avenue"/>
    <tag k="addr:state" v="VT"/>
    <tag k="ref:vcgi:esiteid" v="14279"/>
  </node>
  <node id="-143" visible="true" lat="44.81170261" lon="-72.20606611">
    <tag k="addr:city" v="Orleans"/>
    <tag k="addr:housenumber" v="29"/>
    <tag k="addr:street" v="North Avenue"/>
    <tag k="addr:state" v="VT"/>
    <tag k="ref:vcgi:esiteid" v="14280"/>
  </node>
  <node id="-144" visible="true" lat="44.81155444" lon="-72.19509405">
    <tag k="addr:city" v="Orleans"/>
    <tag k="addr:housenumber" v="69"/>
    <tag k="addr:street" v="East Street"/>
    <tag k="addr:state" v="VT"/>
    <tag k="ref:vcgi:esiteid" v="14282"/>
  </node>
  <node id="-145" visible="true" lat="44.81149773" lon="-72.2053373">
    <tag k="addr:city" v="Orleans"/>
    <tag k="addr:housenumber" v="21"/>
    <tag k="addr:street" v="North Avenue"/>
    <tag k="addr:state" v="VT"/>
    <tag k="ref:vcgi:esiteid" v="14283"/>
  </node>
  <node id="-146" visible="true" lat="44.81157065" lon="-72.20565213">
    <tag k="addr:city" v="Orleans"/>
    <tag k="addr:housenumber" v="25"/>
    <tag k="addr:street" v="North Avenue"/>
    <tag k="addr:state" v="VT"/>
    <tag k="ref:vcgi:esiteid" v="14284"/>
  </node>
  <node id="-147" visible="true" lat="44.81150958" lon="-72.19544141">
    <tag k="addr:city" v="Orleans"/>
    <tag k="addr:housenumber" v="61"/>
    <tag k="addr:street" v="East Street"/>
    <tag k="addr:state" v="VT"/>
    <tag k="ref:vcgi:esiteid" v="14285"/>
  </node>
  <node id="-148" visible="true" lat="44.81127095" lon="-72.20528574">
    <tag k="addr:city" v="Orleans"/>
    <tag k="addr:housenumber" v="19"/>
    <tag k="addr:street" v="North Avenue"/>
    <tag k="addr:state" v="VT"/>
    <tag k="ref:vcgi:esiteid" v="14286"/>
  </node>
  <node id="-150" visible="true" lat="44.81131362" lon="-72.20446014">
    <tag k="addr:city" v="Orleans"/>
    <tag k="addr:housenumber" v="15"/>
    <tag k="addr:street" v="North Avenue"/>
    <tag k="addr:state" v="VT"/>
    <tag k="ref:vcgi:esiteid" v="14288"/>
  </node>
  <node id="-151" visible="true" lat="44.81124364" lon="-72.20577719">
    <tag k="addr:city" v="Orleans"/>
    <tag k="addr:housenumber" v="38"/>
    <tag k="addr:street" v="Prospect Street"/>
    <tag k="addr:state" v="VT"/>
    <tag k="ref:vcgi:esiteid" v="14289"/>
  </node>
  <node id="-153" visible="true" lat="44.81125314" lon="-72.20625136">
    <tag k="addr:city" v="Orleans"/>
    <tag k="addr:housenumber" v="21"/>
    <tag k="addr:street" v="Prospect Street"/>
    <tag k="addr:state" v="VT"/>
    <tag k="ref:vcgi:esiteid" v="14291"/>
  </node>
  <node id="-154" visible="true" lat="44.81121208" lon="-72.20302537">
    <tag k="addr:city" v="Orleans"/>
    <tag k="addr:housenumber" v="4"/>
    <tag k="addr:street" v="Main Street"/>
    <tag k="addr:state" v="VT"/>
    <tag k="ref:vcgi:esiteid" v="14292"/>
  </node>
  <node id="-155" visible="true" lat="44.81129503" lon="-72.20481065">
    <tag k="addr:city" v="Orleans"/>
    <tag k="addr:housenumber" v="17"/>
    <tag k="addr:street" v="North Avenue"/>
    <tag k="addr:state" v="VT"/>
    <tag k="ref:vcgi:esiteid" v="14293"/>
  </node>
  <node id="-156" visible="true" lat="44.81116104" lon="-72.19609069">
    <tag k="addr:city" v="Orleans"/>
    <tag k="addr:housenumber" v="56"/>
    <tag k="addr:street" v="East Street"/>
    <tag k="addr:state" v="VT"/>
    <tag k="ref:vcgi:esiteid" v="14294"/>
  </node>
  <node id="-157" visible="true" lat="44.81108196" lon="-72.20697354">
    <tag k="addr:city" v="Orleans"/>
    <tag k="addr:housenumber" v="17"/>
    <tag k="addr:street" v="Prospect Street"/>
    <tag k="addr:state" v="VT"/>
    <tag k="ref:vcgi:esiteid" v="14295"/>
  </node>
  <node id="-158" visible="true" lat="44.81113208" lon="-72.20536479">
    <tag k="addr:city" v="Orleans"/>
    <tag k="addr:housenumber" v="34"/>
    <tag k="addr:street" v="South Avenue"/>
    <tag k="addr:state" v="VT"/>
    <tag k="ref:vcgi:esiteid" v="14296"/>
  </node>
  <node id="-159" visible="true" lat="44.81116528" lon="-72.20640084">
    <tag k="addr:city" v="Orleans"/>
    <tag k="addr:housenumber" v="19"/>
    <tag k="addr:street" v="Prospect Street"/>
    <tag k="addr:state" v="VT"/>
    <tag k="ref:vcgi:esiteid" v="14298"/>
  </node>
  <node id="-160" visible="true" lat="44.81112019" lon="-72.20313454">
    <tag k="addr:city" v="Orleans"/>
    <tag k="addr:housenumber" v="12"/>
    <tag k="addr:street" v="Main Street"/>
    <tag k="addr:state" v="VT"/>
    <tag k="ref:vcgi:esiteid" v="14299"/>
  </node>
  <node id="-161" visible="true" lat="44.81096566" lon="-72.20065553">
    <tag k="addr:city" v="Orleans"/>
    <tag k="addr:housenumber" v="24"/>
    <tag k="addr:street" v="Church Street"/>
    <tag k="addr:state" v="VT"/>
    <tag k="ref:vcgi:esiteid" v="14300"/>
  </node>
  <node id="-163" visible="true" lat="44.81102371" lon="-72.20131683">
    <tag k="addr:city" v="Orleans"/>
    <tag k="addr:housenumber" v="12"/>
    <tag k="addr:street" v="Church Street"/>
    <tag k="addr:state" v="VT"/>
    <tag k="ref:vcgi:esiteid" v="14303"/>
  </node>
  <node id="-164" visible="true" lat="44.81098129" lon="-72.20032128">
    <tag k="addr:city" v="Orleans"/>
    <tag k="addr:housenumber" v="26"/>
    <tag k="addr:street" v="Church Street"/>
    <tag k="addr:state" v="VT"/>
    <tag k="ref:vcgi:esiteid" v="14304"/>
  </node>
  <node id="-165" visible="true" lat="44.81104613" lon="-72.20445407">
    <tag k="addr:city" v="Orleans"/>
    <tag k="addr:housenumber" v="26"/>
    <tag k="addr:street" v="South Avenue"/>
    <tag k="addr:state" v="VT"/>
    <tag k="ref:vcgi:esiteid" v="14305"/>
  </node>
  <node id="-166" visible="true" lat="44.81096222" lon="-72.20007714">
    <tag k="addr:city" v="Orleans"/>
    <tag k="addr:housenumber" v="28"/>
    <tag k="addr:street" v="Church Street"/>
    <tag k="addr:state" v="VT"/>
    <tag k="ref:vcgi:esiteid" v="14306"/>
  </node>
  <node id="-168" visible="true" lat="44.81096267" lon="-72.20301056">
    <tag k="addr:city" v="Orleans"/>
    <tag k="addr:housenumber" v="15"/>
    <tag k="addr:street" v="Main Street"/>
    <tag k="addr:state" v="VT"/>
    <tag k="ref:vcgi:esiteid" v="14308"/>
  </node>
  <node id="-169" visible="true" lat="44.81096486" lon="-72.20496661">
    <tag k="addr:city" v="Orleans"/>
    <tag k="addr:housenumber" v="30"/>
    <tag k="addr:street" v="South Avenue"/>
    <tag k="addr:state" v="VT"/>
    <tag k="ref:vcgi:esiteid" v="14309"/>
  </node>
  <node id="-170" visible="true" lat="44.81098237" lon="-72.20079723">
    <tag k="addr:city" v="Orleans"/>
    <tag k="addr:housenumber" v="20"/>
    <tag k="addr:street" v="Church Street"/>
    <tag k="addr:state" v="VT"/>
    <tag k="ref:vcgi:esiteid" v="14311"/>
  </node>
  <node id="-171" visible="true" lat="44.81066309" lon="-72.20063517">
    <tag k="addr:city" v="Orleans"/>
    <tag k="addr:housenumber" v="6"/>
    <tag k="addr:street" v="Liberty Street"/>
    <tag k="addr:state" v="VT"/>
    <tag k="ref:vcgi:esiteid" v="14312"/>
  </node>
  <node id="-173" visible="true" lat="44.81089197" lon="-72.1995765">
    <tag k="addr:city" v="Orleans"/>
    <tag k="addr:housenumber" v="23"/>
    <tag k="addr:street" v="East Street"/>
    <tag k="addr:state" v="VT"/>
    <tag k="ref:vcgi:esiteid" v="14316"/>
  </node>
  <node id="-174" visible="true" lat="44.81104783" lon="-72.19642341">
    <tag k="addr:city" v="Orleans"/>
    <tag k="addr:housenumber" v="1"/>
    <tag k="addr:street" v="Willoughby Avenue"/>
    <tag k="addr:state" v="VT"/>
    <tag k="ref:vcgi:esiteid" v="14317"/>
  </node>
  <node id="-175" visible="true" lat="44.81081678" lon="-72.20609321">
    <tag k="addr:city" v="Orleans"/>
    <tag k="addr:housenumber" v="37"/>
    <tag k="addr:street" v="Prospect Street"/>
    <tag k="addr:state" v="VT"/>
    <tag k="ref:vcgi:esiteid" v="14318"/>
  </node>
  <node id="-176" visible="true" lat="44.81076521" lon="-72.19693874">
    <tag k="addr:city" v="Orleans"/>
    <tag k="addr:housenumber" v="2"/>
    <tag k="addr:street" v="Willoughby Avenue"/>
    <tag k="addr:state" v="VT"/>
    <tag k="ref:vcgi:esiteid" v="14319"/>
  </node>
  <node id="-177" visible="true" lat="44.81082899" lon="-72.19974959">
    <tag k="addr:city" v="Orleans"/>
    <tag k="addr:housenumber" v="21"/>
    <tag k="addr:street" v="East Street"/>
    <tag k="addr:state" v="VT"/>
    <tag k="ref:vcgi:esiteid" v="14320"/>
  </node>
  <node id="-178" visible="true" lat="44.81087587" lon="-72.20815">
    <tag k="addr:city" v="Orleans"/>
    <tag k="addr:housenumber" v="4"/>
    <tag k="addr:street" v="Williams Street"/>
    <tag k="addr:state" v="VT"/>
    <tag k="ref:vcgi:esiteid" v="14321"/>
  </node>
  <node id="-179" visible="true" lat="44.81072981" lon="-72.20310562">
    <tag k="addr:city" v="Orleans"/>
    <tag k="addr:housenumber" v="17"/>
    <tag k="addr:street" v="Main Street"/>
    <tag k="addr:state" v="VT"/>
    <tag k="ref:vcgi:esiteid" v="14322"/>
  </node>
  <node id="-180" visible="true" lat="44.81074446" lon="-72.20011055">
    <tag k="addr:city" v="Orleans"/>
    <tag k="addr:housenumber" v="17"/>
    <tag k="addr:street" v="East Street"/>
    <tag k="addr:state" v="VT"/>
    <tag k="ref:vcgi:esiteid" v="14323"/>
  </node>
  <node id="-182" visible="true" lat="44.81089796" lon="-72.20371508">
    <tag k="addr:city" v="Orleans"/>
    <tag k="addr:housenumber" v="24"/>
    <tag k="addr:street" v="Main Street"/>
    <tag k="addr:state" v="VT"/>
    <tag k="ref:vcgi:esiteid" v="14325"/>
  </node>
  <node id="-183" visible="true" lat="44.81079268" lon="-72.19613515">
    <tag k="addr:city" v="Orleans"/>
    <tag k="addr:housenumber" v="5"/>
    <tag k="addr:street" v="Willoughby Avenue"/>
    <tag k="addr:state" v="VT"/>
    <tag k="ref:vcgi:esiteid" v="14326"/>
  </node>
  <node id="-184" visible="true" lat="44.810675" lon="-72.20750243">
    <tag k="addr:city" v="Orleans"/>
    <tag k="addr:housenumber" v="1"/>
    <tag k="addr:street" v="Williams Street"/>
    <tag k="addr:state" v="VT"/>
    <tag k="ref:vcgi:esiteid" v="14327"/>
  </node>
  <node id="-185" visible="true" lat="44.81072194" lon="-72.20665342">
    <tag k="addr:city" v="Orleans"/>
    <tag k="addr:housenumber" v="15"/>
    <tag k="addr:street" v="Prospect Street"/>
    <tag k="addr:state" v="VT"/>
    <tag k="ref:vcgi:esiteid" v="14328"/>
  </node>
  <node id="-187" visible="true" lat="44.81060175" lon="-72.2018055">
    <tag k="addr:city" v="Orleans"/>
    <tag k="addr:housenumber" v="15"/>
    <tag k="addr:street" v="Water Street"/>
    <tag k="addr:state" v="VT"/>
    <tag k="ref:vcgi:esiteid" v="14330"/>
  </node>
  <node id="-188" visible="true" lat="44.81029037" lon="-72.20044693">
    <tag k="addr:city" v="Orleans"/>
    <tag k="addr:housenumber" v="8"/>
    <tag k="addr:street" v="Liberty Street"/>
    <tag k="addr:state" v="VT"/>
    <tag k="ref:vcgi:esiteid" v="14331"/>
  </node>
  <node id="-189" visible="true" lat="44.81065255" lon="-72.2052423">
    <tag k="addr:city" v="Orleans"/>
    <tag k="addr:housenumber" v="29"/>
    <tag k="addr:street" v="South Avenue"/>
    <tag k="addr:state" v="VT"/>
    <tag k="ref:vcgi:esiteid" v="14332"/>
  </node>
  <node id="-190" visible="true" lat="44.8105746" lon="-72.20238559">
    <tag k="addr:city" v="Orleans"/>
    <tag k="addr:housenumber" v="2"/>
    <tag k="addr:street" v="Water Street"/>
    <tag k="addr:state" v="VT"/>
    <tag k="ref:vcgi:esiteid" v="14333"/>
  </node>
  <node id="-191" visible="true" lat="44.81066766" lon="-72.19935465">
    <tag k="addr:city" v="Orleans"/>
    <tag k="addr:housenumber" v="28"/>
    <tag k="addr:street" v="East Street"/>
    <tag k="addr:state" v="VT"/>
    <tag k="ref:vcgi:esiteid" v="14335"/>
  </node>
  <node id="-192" visible="true" lat="44.81060409" lon="-72.19965362">
    <tag k="addr:city" v="Orleans"/>
    <tag k="addr:housenumber" v="26"/>
    <tag k="addr:street" v="East Street"/>
    <tag k="addr:state" v="VT"/>
    <tag k="ref:vcgi:esiteid" v="14336"/>
  </node>
  <node id="-193" visible="true" lat="44.81071691" lon="-72.20574121">
    <tag k="addr:city" v="Orleans"/>
    <tag k="addr:housenumber" v="35"/>
    <tag k="addr:street" v="South Avenue"/>
    <tag k="addr:state" v="VT"/>
    <tag k="ref:vcgi:esiteid" v="14337"/>
  </node>
  <node id="-194" visible="true" lat="44.81054392" lon="-72.20085842">
    <tag k="addr:city" v="Orleans"/>
    <tag k="addr:housenumber" v="9"/>
    <tag k="addr:street" v="East Street"/>
    <tag k="addr:state" v="VT"/>
    <tag k="ref:vcgi:esiteid" v="14339"/>
  </node>
  <node id="-195" visible="true" lat="44.81060168" lon="-72.1958681">
    <tag k="addr:city" v="Orleans"/>
    <tag k="addr:housenumber" v="7"/>
    <tag k="addr:street" v="Willoughby Avenue"/>
    <tag k="addr:state" v="VT"/>
    <tag k="ref:vcgi:esiteid" v="14340"/>
  </node>
  <node id="-196" visible="true" lat="44.81051254" lon="-72.1998825">
    <tag k="addr:city" v="Orleans"/>
    <tag k="addr:housenumber" v="22"/>
    <tag k="addr:street" v="East Street"/>
    <tag k="addr:state" v="VT"/>
    <tag k="ref:vcgi:esiteid" v="14341"/>
  </node>
  <node id="-197" visible="true" lat="44.81032781" lon="-72.20457085">
    <tag k="addr:city" v="Orleans"/>
    <tag k="addr:housenumber" v="13"/>
    <tag k="addr:street" v="Cross Street"/>
    <tag k="addr:state" v="VT"/>
    <tag k="ref:vcgi:esiteid" v="14342"/>
  </node>
  <node id="-198" visible="true" lat="44.81051789" lon="-72.20108052">
    <tag k="addr:city" v="Orleans"/>
    <tag k="addr:housenumber" v="7"/>
    <tag k="addr:street" v="East Street"/>
    <tag k="addr:state" v="VT"/>
    <tag k="ref:vcgi:esiteid" v="14344"/>
  </node>
  <node id="-199" visible="true" lat="44.81042476" lon="-72.20687158">
    <tag k="addr:city" v="Orleans"/>
    <tag k="addr:housenumber" v="11"/>
    <tag k="addr:street" v="Prospect Street"/>
    <tag k="addr:state" v="VT"/>
    <tag k="ref:vcgi:esiteid" v="14345"/>
  </node>
  <node id="-200" visible="true" lat="44.81048092" lon="-72.19997662">
    <tag k="addr:city" v="Orleans"/>
    <tag k="addr:housenumber" v="18"/>
    <tag k="addr:street" v="East Street"/>
    <tag k="addr:state" v="VT"/>
    <tag k="ref:vcgi:esiteid" v="14346"/>
  </node>
  <node id="-201" visible="true" lat="44.81055783" lon="-72.20504184">
    <tag k="addr:city" v="Orleans"/>
    <tag k="addr:housenumber" v="27"/>
    <tag k="addr:street" v="South Avenue"/>
    <tag k="addr:state" v="VT"/>
    <tag k="ref:vcgi:esiteid" v="14347"/>
  </node>
  <node id="-202" visible="true" lat="44.81038943" lon="-72.20174215">
    <tag k="addr:city" v="Orleans"/>
    <tag k="addr:housenumber" v="21"/>
    <tag k="addr:street" v="Water Street"/>
    <tag k="addr:state" v="VT"/>
    <tag k="ref:vcgi:esiteid" v="14348"/>
  </node>
  <node id="-203" visible="true" lat="44.81044597" lon="-72.20143577">
    <tag k="addr:city" v="Orleans"/>
    <tag k="addr:housenumber" v="5"/>
    <tag k="addr:street" v="East Street"/>
    <tag k="addr:state" v="VT"/>
    <tag k="ref:vcgi:esiteid" v="14350"/>
  </node>
  <node id="-204" visible="true" lat="44.81008723" lon="-72.20027565">
    <tag k="addr:city" v="Orleans"/>
    <tag k="addr:housenumber" v="12"/>
    <tag k="addr:street" v="Liberty Street"/>
    <tag k="addr:state" v="VT"/>
    <tag k="ref:vcgi:esiteid" v="14351"/>
  </node>
  <node id="-205" visible="true" lat="44.8103485" lon="-72.19622802">
    <tag k="addr:city" v="Orleans"/>
    <tag k="addr:housenumber" v="8"/>
    <tag k="addr:street" v="Willoughby Avenue"/>
    <tag k="addr:state" v="VT"/>
    <tag k="ref:vcgi:esiteid" v="14352"/>
  </node>
  <node id="-206" visible="true" lat="44.81036171" lon="-72.20428562">
    <tag k="addr:city" v="Orleans"/>
    <tag k="addr:housenumber" v="11"/>
    <tag k="addr:street" v="South Avenue"/>
    <tag k="addr:state" v="VT"/>
    <tag k="ref:vcgi:esiteid" v="14353"/>
  </node>
  <node id="-207" visible="true" lat="44.81031036" lon="-72.20240783">
    <tag k="addr:city" v="Orleans"/>
    <tag k="addr:housenumber" v="22"/>
    <tag k="addr:street" v="Water Street"/>
    <tag k="addr:state" v="VT"/>
    <tag k="ref:vcgi:esiteid" v="14355"/>
  </node>
  <node id="-208" visible="true" lat="44.81027237" lon="-72.19541702">
    <tag k="addr:city" v="Orleans"/>
    <tag k="addr:housenumber" v="11"/>
    <tag k="addr:street" v="Willoughby Avenue"/>
    <tag k="addr:state" v="VT"/>
    <tag k="ref:vcgi:esiteid" v="14356"/>
  </node>
  <node id="-209" visible="true" lat="44.81023217" lon="-72.20621215">
    <tag k="addr:city" v="Orleans"/>
    <tag k="addr:housenumber" v="14"/>
    <tag k="addr:street" v="Prospect Street"/>
    <tag k="addr:state" v="VT"/>
    <tag k="ref:vcgi:esiteid" v="14357"/>
  </node>
  <node id="-210" visible="true" lat="44.81049912" lon="-72.19931451">
    <tag k="addr:city" v="Orleans"/>
    <tag k="addr:housenumber" v="2"/>
    <tag k="addr:street" v="Union Street"/>
    <tag k="addr:state" v="VT"/>
    <tag k="ref:vcgi:esiteid" v="14358"/>
  </node>
  <node id="-211" visible="true" lat="44.81017684" lon="-72.19599151">
    <tag k="addr:city" v="Orleans"/>
    <tag k="addr:housenumber" v="10"/>
    <tag k="addr:street" v="Willoughby Avenue"/>
    <tag k="addr:state" v="VT"/>
    <tag k="ref:vcgi:esiteid" v="14360"/>
  </node>
  <node id="-212" visible="true" lat="44.81021336" lon="-72.19927463">
    <tag k="addr:city" v="Orleans"/>
    <tag k="addr:housenumber" v="6"/>
    <tag k="addr:street" v="Union Street"/>
    <tag k="addr:state" v="VT"/>
    <tag k="ref:vcgi:esiteid" v="14361"/>
  </node>
  <node id="-213" visible="true" lat="44.81024924" lon="-72.20411527">
    <tag k="addr:city" v="Orleans"/>
    <tag k="addr:housenumber" v="64"/>
    <tag k="addr:street" v="Main Street"/>
    <tag k="addr:state" v="VT"/>
    <tag k="ref:vcgi:esiteid" v="14362"/>
  </node>
  <node id="-215" visible="true" lat="44.8101245" lon="-72.19981037">
    <tag k="addr:city" v="Orleans"/>
    <tag k="addr:housenumber" v="11"/>
    <tag k="addr:street" v="Liberty Street"/>
    <tag k="addr:state" v="VT"/>
    <tag k="ref:vcgi:esiteid" v="14366"/>
  </node>
  <node id="-216" visible="true" lat="44.81018153" lon="-72.20426261">
    <tag k="addr:city" v="Orleans"/>
    <tag k="addr:housenumber" v="66"/>
    <tag k="addr:street" v="Main Street"/>
    <tag k="addr:state" v="VT"/>
    <tag k="ref:vcgi:esiteid" v="14368"/>
  </node>
  <node id="-218" visible="true" lat="44.81010932" lon="-72.20952537">
    <tag k="addr:city" v="Orleans"/>
    <tag k="addr:housenumber" v="42"/>
    <tag k="addr:street" v="Irasburg Street"/>
    <tag k="addr:state" v="VT"/>
    <tag k="ref:vcgi:esiteid" v="14370"/>
  </node>
  <node id="-219" visible="true" lat="44.81007549" lon="-72.19917336">
    <tag k="addr:city" v="Orleans"/>
    <tag k="addr:housenumber" v="8"/>
    <tag k="addr:street" v="Union Street"/>
    <tag k="addr:state" v="VT"/>
    <tag k="ref:vcgi:esiteid" v="14371"/>
  </node>
  <node id="-220" visible="true" lat="44.8100254" lon="-72.20922019">
    <tag k="addr:city" v="Orleans"/>
    <tag k="addr:housenumber" v="40"/>
    <tag k="addr:street" v="Irasburg Street"/>
    <tag k="addr:state" v="VT"/>
    <tag k="ref:vcgi:esiteid" v="14372"/>
  </node>
  <node id="-221" visible="true" lat="44.8098706" lon="-72.20500367">
    <tag k="addr:city" v="Orleans"/>
    <tag k="addr:housenumber" v="8"/>
    <tag k="addr:street" v="Cross Street"/>
    <tag k="addr:state" v="VT"/>
    <tag k="ref:vcgi:esiteid" v="14373"/>
  </node>
  <node id="-222" visible="true" lat="44.80993142" lon="-72.20873798">
    <tag k="addr:city" v="Orleans"/>
    <tag k="addr:housenumber" v="36"/>
    <tag k="addr:street" v="Irasburg Street"/>
    <tag k="addr:state" v="VT"/>
    <tag k="ref:vcgi:esiteid" v="14375"/>
  </node>
  <node id="-223" visible="true" lat="44.80982644" lon="-72.20551559">
    <tag k="addr:city" v="Orleans"/>
    <tag k="addr:housenumber" v="5"/>
    <tag k="addr:street" v="Cross Street"/>
    <tag k="addr:state" v="VT"/>
    <tag k="ref:vcgi:esiteid" v="14376"/>
  </node>
  <node id="-224" visible="true" lat="44.80992403" lon="-72.20440603">
    <tag k="addr:city" v="Orleans"/>
    <tag k="addr:housenumber" v="72"/>
    <tag k="addr:street" v="Main Street"/>
    <tag k="addr:state" v="VT"/>
    <tag k="ref:vcgi:esiteid" v="14377"/>
  </node>
  <node id="-225" visible="true" lat="44.80988465" lon="-72.20707989">
    <tag k="addr:city" v="Orleans"/>
    <tag k="addr:housenumber" v="5"/>
    <tag k="addr:street" v="Prospect Street"/>
    <tag k="addr:state" v="VT"/>
    <tag k="ref:vcgi:esiteid" v="14378"/>
  </node>
  <node id="-226" visible="true" lat="44.80976968" lon="-72.19968945">
    <tag k="addr:city" v="Orleans"/>
    <tag k="addr:housenumber" v="19"/>
    <tag k="addr:street" v="Liberty Street"/>
    <tag k="addr:state" v="VT"/>
    <tag k="ref:vcgi:esiteid" v="14380"/>
  </node>
  <node id="-228" visible="true" lat="44.80963465" lon="-72.20462094">
    <tag k="addr:city" v="Orleans"/>
    <tag k="addr:housenumber" v="100"/>
    <tag k="addr:street" v="Main Street"/>
    <tag k="addr:state" v="VT"/>
    <tag k="ref:vcgi:esiteid" v="14382"/>
  </node>
  <node id="-229" visible="true" lat="44.80973585" lon="-72.19939912">
    <tag k="addr:city" v="Orleans"/>
    <tag k="addr:housenumber" v="19"/>
    <tag k="addr:street" v="School Street"/>
    <tag k="addr:state" v="VT"/>
    <tag k="ref:vcgi:esiteid" v="14383"/>
  </node>
  <node id="-230" visible="true" lat="44.80971721" lon="-72.19544905">
    <tag k="addr:city" v="Orleans"/>
    <tag k="addr:housenumber" v="57"/>
    <tag k="addr:street" v="School Street"/>
    <tag k="addr:state" v="VT"/>
    <tag k="ref:vcgi:esiteid" v="14384"/>
  </node>
  <node id="-231" visible="true" lat="44.80959579" lon="-72.20569049">
    <tag k="addr:city" v="Orleans"/>
    <tag k="addr:housenumber" v="3"/>
    <tag k="addr:street" v="Cross Street"/>
    <tag k="addr:state" v="VT"/>
    <tag k="ref:vcgi:esiteid" v="14385"/>
  </node>
  <node id="-232" visible="true" lat="44.80963414" lon="-72.20186853">
    <tag k="addr:city" v="Orleans"/>
    <tag k="addr:housenumber" v="36"/>
    <tag k="addr:street" v="Water Street"/>
    <tag k="addr:state" v="VT"/>
    <tag k="ref:vcgi:esiteid" v="14388"/>
  </node>
  <node id="-233" visible="true" lat="44.80943451" lon="-72.19838017">
    <tag k="addr:city" v="Orleans"/>
    <tag k="addr:housenumber" v="34"/>
    <tag k="addr:street" v="School Street"/>
    <tag k="addr:state" v="VT"/>
    <tag k="ref:vcgi:esiteid" v="14390"/>
  </node>
  <node id="-234" visible="true" lat="44.80963552" lon="-72.20138651">
    <tag k="addr:city" v="Orleans"/>
    <tag k="addr:housenumber" v="1"/>
    <tag k="addr:street" v="School Street"/>
    <tag k="addr:state" v="VT"/>
    <tag k="ref:vcgi:esiteid" v="14391"/>
  </node>
  <node id="-235" visible="true" lat="44.80942406" lon="-72.19804741">
    <tag k="addr:city" v="Orleans"/>
    <tag k="addr:housenumber" v="38"/>
    <tag k="addr:street" v="School Street"/>
    <tag k="addr:state" v="VT"/>
    <tag k="ref:vcgi:esiteid" v="14392"/>
  </node>
  <node id="-236" visible="true" lat="44.8094197" lon="-72.1987057">
    <tag k="addr:city" v="Orleans"/>
    <tag k="addr:housenumber" v="32"/>
    <tag k="addr:street" v="School Street"/>
    <tag k="addr:state" v="VT"/>
    <tag k="ref:vcgi:esiteid" v="14393"/>
  </node>
  <node id="-237" visible="true" lat="44.80945743" lon="-72.20867196">
    <tag k="addr:city" v="Orleans"/>
    <tag k="addr:housenumber" v="35"/>
    <tag k="addr:street" v="Irasburg Street"/>
    <tag k="addr:state" v="VT"/>
    <tag k="ref:vcgi:esiteid" v="14394"/>
  </node>
  <node id="-238" visible="true" lat="44.80946176" lon="-72.20951142">
    <tag k="addr:city" v="Orleans"/>
    <tag k="addr:housenumber" v="4"/>
    <tag k="addr:street" v="Chandler Avenue"/>
    <tag k="addr:state" v="VT"/>
    <tag k="ref:vcgi:esiteid" v="14395"/>
  </node>
  <node id="-239" visible="true" lat="44.8094853" lon="-72.20909753">
    <tag k="addr:city" v="Orleans"/>
    <tag k="addr:housenumber" v="1"/>
    <tag k="addr:street" v="Chandler Avenue"/>
    <tag k="addr:state" v="VT"/>
    <tag k="ref:vcgi:esiteid" v="14397"/>
  </node>
  <node id="-240" visible="true" lat="44.80958391" lon="-72.20800856">
    <tag k="addr:city" v="Orleans"/>
    <tag k="addr:housenumber" v="26"/>
    <tag k="addr:street" v="Irasburg Street"/>
    <tag k="addr:state" v="VT"/>
    <tag k="ref:vcgi:esiteid" v="14399"/>
  </node>
  <node id="-241" visible="true" lat="44.8094635" lon="-72.1962738">
    <tag k="addr:city" v="Orleans"/>
    <tag k="addr:housenumber" v="54"/>
    <tag k="addr:street" v="School Street"/>
    <tag k="addr:state" v="VT"/>
    <tag k="ref:vcgi:esiteid" v="14400"/>
  </node>
  <node id="-242" visible="true" lat="44.80948638" lon="-72.20748901">
    <tag k="addr:city" v="Orleans"/>
    <tag k="addr:housenumber" v="20"/>
    <tag k="addr:street" v="Irasburg Street"/>
    <tag k="addr:state" v="VT"/>
    <tag k="ref:vcgi:esiteid" v="14401"/>
  </node>
  <node id="-243" visible="true" lat="44.80936598" lon="-72.20071229">
    <tag k="addr:city" v="Orleans"/>
    <tag k="addr:housenumber" v="10"/>
    <tag k="addr:street" v="School Street"/>
    <tag k="addr:state" v="VT"/>
    <tag k="ref:vcgi:esiteid" v="14402"/>
  </node>
  <node id="-244" visible="true" lat="44.80954958" lon="-72.20780256">
    <tag k="addr:city" v="Orleans"/>
    <tag k="addr:housenumber" v="24"/>
    <tag k="addr:street" v="Irasburg Street"/>
    <tag k="addr:state" v="VT"/>
    <tag k="ref:vcgi:esiteid" v="14403"/>
  </node>
  <node id="-245" visible="true" lat="44.80944442" lon="-72.20723724">
    <tag k="addr:city" v="Orleans"/>
    <tag k="addr:housenumber" v="18"/>
    <tag k="addr:street" v="Irasburg Street"/>
    <tag k="addr:state" v="VT"/>
    <tag k="ref:vcgi:esiteid" v="14404"/>
  </node>
  <node id="-246" visible="true" lat="44.80937055" lon="-72.20017862">
    <tag k="addr:city" v="Orleans"/>
    <tag k="addr:housenumber" v="16"/>
    <tag k="addr:street" v="School Street"/>
    <tag k="addr:state" v="VT"/>
    <tag k="ref:vcgi:esiteid" v="14405"/>
  </node>
  <node id="-247" visible="true" lat="44.80936049" lon="-72.20127646">
    <tag k="addr:city" v="Orleans"/>
    <tag k="addr:housenumber" v="2"/>
    <tag k="addr:street" v="School Street"/>
    <tag k="addr:state" v="VT"/>
    <tag k="ref:vcgi:esiteid" v="14406"/>
  </node>
  <node id="-248" visible="true" lat="44.80937037" lon="-72.20918024">
    <tag k="addr:city" v="Orleans"/>
    <tag k="addr:housenumber" v="3"/>
    <tag k="addr:street" v="Chandler Avenue"/>
    <tag k="addr:state" v="VT"/>
    <tag k="ref:vcgi:esiteid" v="14408"/>
  </node>
  <node id="-249" visible="true" lat="44.80948473" lon="-72.20761183">
    <tag k="addr:city" v="Orleans"/>
    <tag k="addr:housenumber" v="22"/>
    <tag k="addr:street" v="Irasburg Street"/>
    <tag k="addr:state" v="VT"/>
    <tag k="ref:vcgi:esiteid" v="14410"/>
  </node>
  <node id="-250" visible="true" lat="44.80943474" lon="-72.20688099">
    <tag k="addr:city" v="Orleans"/>
    <tag k="addr:housenumber" v="16"/>
    <tag k="addr:street" v="Irasburg Street"/>
    <tag k="addr:state" v="VT"/>
    <tag k="ref:vcgi:esiteid" v="14411"/>
  </node>
  <node id="-251" visible="true" lat="44.80938301" lon="-72.21009425">
    <tag k="addr:city" v="Orleans"/>
    <tag k="addr:housenumber" v="45"/>
    <tag k="addr:street" v="Irasburg Street"/>
    <tag k="addr:state" v="VT"/>
    <tag k="ref:vcgi:esiteid" v="14412"/>
  </node>
  <node id="-252" visible="true" lat="44.80936431" lon="-72.2095642">
    <tag k="addr:city" v="Orleans"/>
    <tag k="addr:housenumber" v="6"/>
    <tag k="addr:street" v="Chandler Avenue"/>
    <tag k="addr:state" v="VT"/>
    <tag k="ref:vcgi:esiteid" v="14413"/>
  </node>
  <node id="-253" visible="true" lat="44.80941236" lon="-72.20626371">
    <tag k="addr:city" v="Orleans"/>
    <tag k="addr:housenumber" v="10"/>
    <tag k="addr:street" v="Irasburg Street"/>
    <tag k="addr:state" v="VT"/>
    <tag k="ref:vcgi:esiteid" v="14414"/>
  </node>
  <node id="-254" visible="true" lat="44.80943074" lon="-72.20653726">
    <tag k="addr:city" v="Orleans"/>
    <tag k="addr:housenumber" v="12"/>
    <tag k="addr:street" v="Irasburg Street"/>
    <tag k="addr:state" v="VT"/>
    <tag k="ref:vcgi:esiteid" v="14415"/>
  </node>
  <node id="-255" visible="true" lat="44.80925343" lon="-72.20805189">
    <tag k="addr:city" v="Orleans"/>
    <tag k="addr:housenumber" v="23"/>
    <tag k="addr:street" v="Irasburg Street"/>
    <tag k="addr:state" v="VT"/>
    <tag k="ref:vcgi:esiteid" v="14416"/>
  </node>
  <node id="-256" visible="true" lat="44.80923717" lon="-72.20171246">
    <tag k="addr:city" v="Orleans"/>
    <tag k="addr:housenumber" v="38"/>
    <tag k="addr:street" v="Water Street"/>
    <tag k="addr:state" v="VT"/>
    <tag k="ref:vcgi:esiteid" v="14418"/>
  </node>
  <node id="-257" visible="true" lat="44.80921355" lon="-72.20928842">
    <tag k="addr:city" v="Orleans"/>
    <tag k="addr:housenumber" v="5"/>
    <tag k="addr:street" v="Chandler Avenue"/>
    <tag k="addr:state" v="VT"/>
    <tag k="ref:vcgi:esiteid" v="14419"/>
  </node>
  <node id="-258" visible="true" lat="44.80922699" lon="-72.2011795">
    <tag k="addr:city" v="Orleans"/>
    <tag k="addr:housenumber" v="41"/>
    <tag k="addr:street" v="Water Street"/>
    <tag k="addr:state" v="VT"/>
    <tag k="ref:vcgi:esiteid" v="14420"/>
  </node>
  <node id="-259" visible="true" lat="44.80921936" lon="-72.20787048">
    <tag k="addr:city" v="Orleans"/>
    <tag k="addr:housenumber" v="21"/>
    <tag k="addr:street" v="Irasburg Street"/>
    <tag k="addr:state" v="VT"/>
    <tag k="ref:vcgi:esiteid" v="14421"/>
  </node>
  <node id="-260" visible="true" lat="44.80908054" lon="-72.20114479">
    <tag k="addr:city" v="Orleans"/>
    <tag k="addr:housenumber" v="45"/>
    <tag k="addr:street" v="Water Street"/>
    <tag k="addr:state" v="VT"/>
    <tag k="ref:vcgi:esiteid" v="14422"/>
  </node>
  <node id="-261" visible="true" lat="44.80921173" lon="-72.20967102">
    <tag k="addr:city" v="Orleans"/>
    <tag k="addr:housenumber" v="8"/>
    <tag k="addr:street" v="Chandler Avenue"/>
    <tag k="addr:state" v="VT"/>
    <tag k="ref:vcgi:esiteid" v="14423"/>
  </node>
  <node id="-262" visible="true" lat="44.80914622" lon="-72.19935793">
    <tag k="addr:city" v="Orleans"/>
    <tag k="addr:housenumber" v="24"/>
    <tag k="addr:street" v="School Street"/>
    <tag k="addr:state" v="VT"/>
    <tag k="ref:vcgi:esiteid" v="14424"/>
  </node>
  <node id="-263" visible="true" lat="44.80912961" lon="-72.19988904">
    <tag k="addr:city" v="Orleans"/>
    <tag k="addr:housenumber" v="18"/>
    <tag k="addr:street" v="School Street"/>
    <tag k="addr:state" v="VT"/>
    <tag k="ref:vcgi:esiteid" v="14425"/>
  </node>
  <node id="-264" visible="true" lat="44.80908654" lon="-72.20938017">
    <tag k="addr:city" v="Orleans"/>
    <tag k="addr:housenumber" v="7"/>
    <tag k="addr:street" v="Chandler Avenue"/>
    <tag k="addr:state" v="VT"/>
    <tag k="ref:vcgi:esiteid" v="14426"/>
  </node>
  <node id="-265" visible="true" lat="44.80915832" lon="-72.20861053">
    <tag k="addr:city" v="Orleans"/>
    <tag k="addr:housenumber" v="31"/>
    <tag k="addr:street" v="Irasburg Street"/>
    <tag k="addr:state" v="VT"/>
    <tag k="ref:vcgi:esiteid" v="14427"/>
  </node>
  <node id="-266" visible="true" lat="44.80913162" lon="-72.20688629">
    <tag k="addr:city" v="Orleans"/>
    <tag k="addr:housenumber" v="11"/>
    <tag k="addr:street" v="Irasburg Street"/>
    <tag k="addr:state" v="VT"/>
    <tag k="ref:vcgi:esiteid" v="14429"/>
  </node>
  <node id="-267" visible="true" lat="44.80911254" lon="-72.20645141">
    <tag k="addr:city" v="Orleans"/>
    <tag k="addr:housenumber" v="7"/>
    <tag k="addr:street" v="Irasburg Street"/>
    <tag k="addr:state" v="VT"/>
    <tag k="ref:vcgi:esiteid" v="14430"/>
  </node>
  <node id="-268" visible="true" lat="44.8090302" lon="-72.20162833">
    <tag k="addr:city" v="Orleans"/>
    <tag k="addr:housenumber" v="44"/>
    <tag k="addr:street" v="Water Street"/>
    <tag k="addr:state" v="VT"/>
    <tag k="ref:vcgi:esiteid" v="14431"/>
  </node>
  <node id="-269" visible="true" lat="44.8091011" lon="-72.20976257">
    <tag k="addr:city" v="Orleans"/>
    <tag k="addr:housenumber" v="10"/>
    <tag k="addr:street" v="Chandler Avenue"/>
    <tag k="addr:state" v="VT"/>
    <tag k="ref:vcgi:esiteid" v="14432"/>
  </node>
  <node id="-270" visible="true" lat="44.80914325" lon="-72.20760092">
    <tag k="addr:city" v="Orleans"/>
    <tag k="addr:housenumber" v="13"/>
    <tag k="addr:street" v="Irasburg Street"/>
    <tag k="addr:state" v="VT"/>
    <tag k="ref:vcgi:esiteid" v="14433"/>
  </node>
  <node id="-271" visible="true" lat="44.80896587" lon="-72.20456774">
    <tag k="addr:city" v="Orleans"/>
    <tag k="addr:housenumber" v="115"/>
    <tag k="addr:street" v="Main Street"/>
    <tag k="addr:state" v="VT"/>
    <tag k="ref:vcgi:esiteid" v="14434"/>
  </node>
  <node id="-272" visible="true" lat="44.80897396" lon="-72.20947822">
    <tag k="addr:city" v="Orleans"/>
    <tag k="addr:housenumber" v="9"/>
    <tag k="addr:street" v="Chandler Avenue"/>
    <tag k="addr:state" v="VT"/>
    <tag k="ref:vcgi:esiteid" v="14435"/>
  </node>
  <node id="-273" visible="true" lat="44.80898363" lon="-72.20203257">
    <tag k="addr:city" v="Orleans"/>
    <tag k="addr:housenumber" v="4"/>
    <tag k="addr:street" v="South Street"/>
    <tag k="addr:state" v="VT"/>
    <tag k="ref:vcgi:esiteid" v="14436"/>
  </node>
  <node id="-274" visible="true" lat="44.80893518" lon="-72.19754728">
    <tag k="addr:city" v="Orleans"/>
    <tag k="addr:housenumber" v="7"/>
    <tag k="addr:street" v="Marston Avenue"/>
    <tag k="addr:state" v="VT"/>
    <tag k="ref:vcgi:esiteid" v="14437"/>
  </node>
  <node id="-275" visible="true" lat="44.80894399" lon="-72.2099779">
    <tag k="addr:city" v="Orleans"/>
    <tag k="addr:housenumber" v="12"/>
    <tag k="addr:street" v="Chandler Avenue"/>
    <tag k="addr:state" v="VT"/>
    <tag k="ref:vcgi:esiteid" v="14438"/>
  </node>
  <node id="-276" visible="true" lat="44.80897718" lon="-72.2076086">
    <tag k="addr:city" v="Orleans"/>
    <tag k="addr:housenumber" v="17"/>
    <tag k="addr:street" v="Irasburg Street"/>
    <tag k="addr:state" v="VT"/>
    <tag k="ref:vcgi:esiteid" v="14439"/>
  </node>
  <node id="-277" visible="true" lat="44.80871466" lon="-72.20100496">
    <tag k="addr:city" v="Orleans"/>
    <tag k="addr:housenumber" v="51"/>
    <tag k="addr:street" v="Water Street"/>
    <tag k="addr:state" v="VT"/>
    <tag k="ref:vcgi:esiteid" v="14440"/>
  </node>
  <node id="-278" visible="true" lat="44.80882866" lon="-72.19859177">
    <tag k="addr:city" v="Orleans"/>
    <tag k="addr:housenumber" v="4"/>
    <tag k="addr:street" v="Marcotte Place"/>
    <tag k="addr:state" v="VT"/>
    <tag k="ref:vcgi:esiteid" v="14442"/>
  </node>
  <node id="-279" visible="true" lat="44.80879581" lon="-72.20953341">
    <tag k="addr:city" v="Orleans"/>
    <tag k="addr:housenumber" v="11"/>
    <tag k="addr:street" v="Chandler Avenue"/>
    <tag k="addr:state" v="VT"/>
    <tag k="ref:vcgi:esiteid" v="14443"/>
  </node>
  <node id="-280" visible="true" lat="44.80871517" lon="-72.20146223">
    <tag k="addr:city" v="Orleans"/>
    <tag k="addr:housenumber" v="46"/>
    <tag k="addr:street" v="Water Street"/>
    <tag k="addr:state" v="VT"/>
    <tag k="ref:vcgi:esiteid" v="14445"/>
  </node>
  <node id="-281" visible="true" lat="44.80872824" lon="-72.20237092">
    <tag k="addr:city" v="Orleans"/>
    <tag k="addr:housenumber" v="6"/>
    <tag k="addr:street" v="South Street"/>
    <tag k="addr:state" v="VT"/>
    <tag k="ref:vcgi:esiteid" v="14446"/>
  </node>
  <node id="-282" visible="true" lat="44.80862965" lon="-72.20199044">
    <tag k="addr:city" v="Orleans"/>
    <tag k="addr:housenumber" v="3"/>
    <tag k="addr:street" v="South Street"/>
    <tag k="addr:state" v="VT"/>
    <tag k="ref:vcgi:esiteid" v="14448"/>
  </node>
  <node id="-283" visible="true" lat="44.8086366" lon="-72.20914816">
    <tag k="addr:city" v="Orleans"/>
    <tag k="addr:housenumber" v="13"/>
    <tag k="addr:street" v="Chandler Avenue"/>
    <tag k="addr:state" v="VT"/>
    <tag k="ref:vcgi:esiteid" v="14449"/>
  </node>
  <node id="-284" visible="true" lat="44.80854659" lon="-72.19839341">
    <tag k="addr:city" v="Orleans"/>
    <tag k="addr:housenumber" v="3"/>
    <tag k="addr:street" v="Marcotte Place"/>
    <tag k="addr:state" v="VT"/>
    <tag k="ref:vcgi:esiteid" v="14450"/>
  </node>
  <node id="-285" visible="true" lat="44.80860857" lon="-72.19711414">
    <tag k="addr:city" v="Orleans"/>
    <tag k="addr:housenumber" v="27"/>
    <tag k="addr:street" v="Cottage Street"/>
    <tag k="addr:state" v="VT"/>
    <tag k="ref:vcgi:esiteid" v="14452"/>
  </node>
  <node id="-286" visible="true" lat="44.80844974" lon="-72.20857644">
    <tag k="addr:city" v="Orleans"/>
    <tag k="addr:housenumber" v="15"/>
    <tag k="addr:street" v="Chandler Avenue"/>
    <tag k="addr:state" v="VT"/>
    <tag k="ref:vcgi:esiteid" v="14453"/>
  </node>
  <node id="-287" visible="true" lat="44.80848647" lon="-72.2013195">
    <tag k="addr:city" v="Orleans"/>
    <tag k="addr:housenumber" v="48"/>
    <tag k="addr:street" v="Water Street"/>
    <tag k="addr:state" v="VT"/>
    <tag k="ref:vcgi:esiteid" v="14454"/>
  </node>
  <node id="-288" visible="true" lat="44.80851852" lon="-72.20087788">
    <tag k="addr:city" v="Orleans"/>
    <tag k="addr:housenumber" v="55"/>
    <tag k="addr:street" v="Water Street"/>
    <tag k="addr:state" v="VT"/>
    <tag k="ref:vcgi:esiteid" v="14455"/>
  </node>
  <node id="-289" visible="true" lat="44.80840005" lon="-72.19798369">
    <tag k="addr:city" v="Orleans"/>
    <tag k="addr:housenumber" v="12"/>
    <tag k="addr:street" v="Marston Avenue"/>
    <tag k="addr:state" v="VT"/>
    <tag k="ref:vcgi:esiteid" v="14456"/>
  </node>
  <node id="-290" visible="true" lat="44.80840659" lon="-72.1975756">
    <tag k="addr:city" v="Orleans"/>
    <tag k="addr:housenumber" v="13"/>
    <tag k="addr:street" v="Marston Avenue"/>
    <tag k="addr:state" v="VT"/>
    <tag k="ref:vcgi:esiteid" v="14457"/>
  </node>
  <node id="-291" visible="true" lat="44.80844659" lon="-72.20197908">
    <tag k="addr:city" v="Orleans"/>
    <tag k="addr:housenumber" v="7"/>
    <tag k="addr:street" v="South Street"/>
    <tag k="addr:state" v="VT"/>
    <tag k="ref:vcgi:esiteid" v="14458"/>
  </node>
  <node id="-292" visible="true" lat="44.80825687" lon="-72.20071811">
    <tag k="addr:city" v="Orleans"/>
    <tag k="addr:housenumber" v="61"/>
    <tag k="addr:street" v="Water Street"/>
    <tag k="addr:state" v="VT"/>
    <tag k="ref:vcgi:esiteid" v="14459"/>
  </node>
  <node id="-293" visible="true" lat="44.80823891" lon="-72.1971371">
    <tag k="addr:city" v="Orleans"/>
    <tag k="addr:housenumber" v="26"/>
    <tag k="addr:street" v="Cottage Street"/>
    <tag k="addr:state" v="VT"/>
    <tag k="ref:vcgi:esiteid" v="14460"/>
  </node>
  <node id="-294" visible="true" lat="44.80812871" lon="-72.19747937">
    <tag k="addr:city" v="Orleans"/>
    <tag k="addr:housenumber" v="24"/>
    <tag k="addr:street" v="Cottage Street"/>
    <tag k="addr:state" v="VT"/>
    <tag k="ref:vcgi:esiteid" v="14461"/>
  </node>
  <node id="-295" visible="true" lat="44.80801656" lon="-72.19774319">
    <tag k="addr:city" v="Orleans"/>
    <tag k="addr:housenumber" v="22"/>
    <tag k="addr:street" v="Cottage Street"/>
    <tag k="addr:state" v="VT"/>
    <tag k="ref:vcgi:esiteid" v="14462"/>
  </node>
  <node id="-297" visible="true" lat="44.80816624" lon="-72.19054835">
    <tag k="addr:city" v="Orleans"/>
    <tag k="addr:housenumber" v="303"/>
    <tag k="addr:street" v="Willoughby Avenue"/>
    <tag k="addr:state" v="VT"/>
    <tag k="ref:vcgi:esiteid" v="14464"/>
  </node>
  <node id="-298" visible="true" lat="44.80805203" lon="-72.20251938">
    <tag k="addr:city" v="Orleans"/>
    <tag k="addr:housenumber" v="16"/>
    <tag k="addr:street" v="South Street"/>
    <tag k="addr:state" v="VT"/>
    <tag k="ref:vcgi:esiteid" v="14465"/>
  </node>
  <node id="-299" visible="true" lat="44.80804255" lon="-72.1988317">
    <tag k="addr:city" v="Orleans"/>
    <tag k="addr:housenumber" v="15"/>
    <tag k="addr:street" v="Cottage Street"/>
    <tag k="addr:state" v="VT"/>
    <tag k="ref:vcgi:esiteid" v="14466"/>
  </node>
  <node id="-300" visible="true" lat="44.80811357" lon="-72.20136007">
    <tag k="addr:city" v="Orleans"/>
    <tag k="addr:housenumber" v="52"/>
    <tag k="addr:street" v="Water Street"/>
    <tag k="addr:state" v="VT"/>
    <tag k="ref:vcgi:esiteid" v="14469"/>
  </node>
  <node id="-301" visible="true" lat="44.80782889" lon="-72.19833215">
    <tag k="addr:city" v="Orleans"/>
    <tag k="addr:housenumber" v="14"/>
    <tag k="addr:street" v="Cottage Street"/>
    <tag k="addr:state" v="VT"/>
    <tag k="ref:vcgi:esiteid" v="14470"/>
  </node>
  <node id="-302" visible="true" lat="44.80792711" lon="-72.19916875">
    <tag k="addr:city" v="Orleans"/>
    <tag k="addr:housenumber" v="11"/>
    <tag k="addr:street" v="Cottage Street"/>
    <tag k="addr:state" v="VT"/>
    <tag k="ref:vcgi:esiteid" v="14471"/>
  </node>
  <node id="-303" visible="true" lat="44.80774378" lon="-72.19867089">
    <tag k="addr:city" v="Orleans"/>
    <tag k="addr:housenumber" v="12"/>
    <tag k="addr:street" v="Cottage Street"/>
    <tag k="addr:state" v="VT"/>
    <tag k="ref:vcgi:esiteid" v="14472"/>
  </node>
  <node id="-304" visible="true" lat="44.80780827" lon="-72.20509982">
    <tag k="addr:city" v="Orleans"/>
    <tag k="addr:housenumber" v="30"/>
    <tag k="addr:street" v="Railroad Avenue"/>
    <tag k="addr:state" v="VT"/>
    <tag k="ref:vcgi:esiteid" v="14473"/>
  </node>
  <node id="-305" visible="true" lat="44.80781936" lon="-72.1996231">
    <tag k="addr:city" v="Orleans"/>
    <tag k="addr:housenumber" v="7"/>
    <tag k="addr:street" v="Cottage Street"/>
    <tag k="addr:state" v="VT"/>
    <tag k="ref:vcgi:esiteid" v="14474"/>
  </node>
  <node id="-306" visible="true" lat="44.80770259" lon="-72.19210777">
    <tag k="addr:city" v="Orleans"/>
    <tag k="addr:housenumber" v="282"/>
    <tag k="addr:street" v="Willoughby Avenue"/>
    <tag k="addr:state" v="VT"/>
    <tag k="ref:vcgi:esiteid" v="14475"/>
  </node>
  <node id="-307" visible="true" lat="44.80775114" lon="-72.18919029">
    <tag k="addr:city" v="Orleans"/>
    <tag k="addr:housenumber" v="377"/>
    <tag k="addr:street" v="Willoughby Avenue"/>
    <tag k="addr:state" v="VT"/>
    <tag k="ref:vcgi:esiteid" v="14476"/>
  </node>
  <node id="-308" visible="true" lat="44.80793614" lon="-72.18995562">
    <tag k="addr:city" v="Orleans"/>
    <tag k="addr:housenumber" v="341"/>
    <tag k="addr:street" v="Willoughby Avenue"/>
    <tag k="addr:state" v="VT"/>
    <tag k="ref:vcgi:esiteid" v="14478"/>
  </node>
  <node id="-309" visible="true" lat="44.80756696" lon="-72.1886394">
    <tag k="addr:city" v="Orleans"/>
    <tag k="addr:housenumber" v="403"/>
    <tag k="addr:street" v="Willoughby Avenue"/>
    <tag k="addr:state" v="VT"/>
    <tag k="ref:vcgi:esiteid" v="14479"/>
  </node>
  <node id="-310" visible="true" lat="44.80753923" lon="-72.19938075">
    <tag k="addr:city" v="Orleans"/>
    <tag k="addr:housenumber" v="6"/>
    <tag k="addr:street" v="Cottage Street"/>
    <tag k="addr:state" v="VT"/>
    <tag k="ref:vcgi:esiteid" v="14480"/>
  </node>
  <node id="-311" visible="true" lat="44.80763244" lon="-72.20150756">
    <tag k="addr:city" v="Orleans"/>
    <tag k="addr:housenumber" v="60"/>
    <tag k="addr:street" v="Water Street"/>
    <tag k="addr:state" v="VT"/>
    <tag k="ref:vcgi:esiteid" v="14481"/>
  </node>
  <node id="-312" visible="true" lat="44.807621" lon="-72.20015716">
    <tag k="addr:city" v="Orleans"/>
    <tag k="addr:housenumber" v="65"/>
    <tag k="addr:street" v="Water Street"/>
    <tag k="addr:state" v="VT"/>
    <tag k="ref:vcgi:esiteid" v="14482"/>
  </node>
  <node id="-313" visible="true" lat="44.80770813" lon="-72.20081947">
    <tag k="addr:city" v="Orleans"/>
    <tag k="addr:housenumber" v="58"/>
    <tag k="addr:street" v="Water Street"/>
    <tag k="addr:state" v="VT"/>
    <tag k="ref:vcgi:esiteid" v="14483"/>
  </node>
  <node id="-314" visible="true" lat="44.80800663" lon="-72.20370036">
    <tag k="addr:city" v="Orleans"/>
    <tag k="addr:housenumber" v="27"/>
    <tag k="addr:street" v="Railroad Avenue"/>
    <tag k="addr:state" v="VT"/>
    <tag k="ref:vcgi:esiteid" v="14484"/>
  </node>
  <node id="-315" visible="true" lat="44.80755361" lon="-72.20268304">
    <tag k="addr:city" v="Orleans"/>
    <tag k="addr:housenumber" v="28"/>
    <tag k="addr:street" v="South Street"/>
    <tag k="addr:state" v="VT"/>
    <tag k="ref:vcgi:esiteid" v="14486"/>
  </node>
  <node id="-316" visible="true" lat="44.80744171" lon="-72.20052337">
    <tag k="addr:city" v="Orleans"/>
    <tag k="addr:housenumber" v="64"/>
    <tag k="addr:street" v="Water Street"/>
    <tag k="addr:state" v="VT"/>
    <tag k="ref:vcgi:esiteid" v="14488"/>
  </node>
  <node id="-317" visible="true" lat="44.80740092" lon="-72.19981659">
    <tag k="addr:city" v="Orleans"/>
    <tag k="addr:housenumber" v="69"/>
    <tag k="addr:street" v="Water Street"/>
    <tag k="addr:state" v="VT"/>
    <tag k="ref:vcgi:esiteid" v="14489"/>
  </node>
  <node id="-318" visible="true" lat="44.80732927" lon="-72.18798677">
    <tag k="addr:city" v="Orleans"/>
    <tag k="addr:housenumber" v="433"/>
    <tag k="addr:street" v="Willoughby Avenue"/>
    <tag k="addr:state" v="VT"/>
    <tag k="ref:vcgi:esiteid" v="14490"/>
  </node>
  <node id="-319" visible="true" lat="44.80724696" lon="-72.20331873">
    <tag k="addr:city" v="Orleans"/>
    <tag k="addr:housenumber" v="44"/>
    <tag k="addr:street" v="Railroad Avenue"/>
    <tag k="addr:state" v="VT"/>
    <tag k="ref:vcgi:esiteid" v="14491"/>
  </node>
  <node id="-320" visible="true" lat="44.80721263" lon="-72.20308221">
    <tag k="addr:city" v="Orleans"/>
    <tag k="addr:housenumber" v="46"/>
    <tag k="addr:street" v="Railroad Avenue"/>
    <tag k="addr:state" v="VT"/>
    <tag k="ref:vcgi:esiteid" v="14492"/>
  </node>
  <node id="-321" visible="true" lat="44.80733458" lon="-72.20042836">
    <tag k="addr:city" v="Orleans"/>
    <tag k="addr:housenumber" v="66"/>
    <tag k="addr:street" v="Water Street"/>
    <tag k="addr:state" v="VT"/>
    <tag k="ref:vcgi:esiteid" v="14493"/>
  </node>
  <node id="-322" visible="true" lat="44.80703565" lon="-72.20238086">
    <tag k="addr:city" v="Orleans"/>
    <tag k="addr:housenumber" v="35"/>
    <tag k="addr:street" v="South Street"/>
    <tag k="addr:state" v="VT"/>
    <tag k="ref:vcgi:esiteid" v="14495"/>
  </node>
  <node id="-324" visible="true" lat="44.80706154" lon="-72.19031081">
    <tag k="addr:city" v="Orleans"/>
    <tag k="addr:housenumber" v="354"/>
    <tag k="addr:street" v="Willoughby Avenue"/>
    <tag k="addr:state" v="VT"/>
    <tag k="ref:vcgi:esiteid" v="14497"/>
  </node>
  <node id="-325" visible="true" lat="44.80722611" lon="-72.20599655">
    <tag k="addr:city" v="Orleans"/>
    <tag k="addr:housenumber" v="32"/>
    <tag k="addr:street" v="Railroad Avenue"/>
    <tag k="addr:state" v="VT"/>
    <tag k="ref:vcgi:esiteid" v="14498"/>
  </node>
  <node id="-328" visible="true" lat="44.8069136" lon="-72.18718792">
    <tag k="addr:city" v="Orleans"/>
    <tag k="addr:housenumber" v="481"/>
    <tag k="addr:street" v="Willoughby Avenue"/>
    <tag k="addr:state" v="VT"/>
    <tag k="ref:vcgi:esiteid" v="14501"/>
  </node>
  <node id="-329" visible="true" lat="44.80670415" lon="-72.20250628">
    <tag k="addr:city" v="Orleans"/>
    <tag k="addr:housenumber" v="41"/>
    <tag k="addr:street" v="South Street"/>
    <tag k="addr:state" v="VT"/>
    <tag k="ref:vcgi:esiteid" v="14503"/>
  </node>
  <node id="-334" visible="true" lat="44.80663588" lon="-72.20172783">
    <tag k="addr:city" v="Orleans"/>
    <tag k="addr:housenumber" v="70"/>
    <tag k="addr:street" v="Water Street"/>
    <tag k="addr:state" v="VT"/>
    <tag k="ref:vcgi:esiteid" v="14509"/>
  </node>
  <node id="-341" visible="true" lat="44.80614307" lon="-72.20257557">
    <tag k="addr:city" v="Orleans"/>
    <tag k="addr:housenumber" v="47"/>
    <tag k="addr:street" v="South Street"/>
    <tag k="addr:state" v="VT"/>
    <tag k="ref:vcgi:esiteid" v="14516"/>
  </node>
  <node id="-352" visible="true" lat="44.81003055" lon="-72.20434366">
    <tag k="addr:city" v="Orleans"/>
    <tag k="addr:housenumber" v="70"/>
    <tag k="addr:street" v="Main Street"/>
    <tag k="addr:state" v="VT"/>
    <tag k="ref:vcgi:esiteid" v="15411"/>
  </node>
  <node id="-353" visible="true" lat="44.81188969" lon="-72.20642542">
    <tag k="addr:city" v="Orleans"/>
    <tag k="addr:housenumber" v="35"/>
    <tag k="addr:street" v="North Avenue"/>
    <tag k="addr:state" v="VT"/>
    <tag k="ref:vcgi:esiteid" v="15412"/>
  </node>
  <node id="-355" visible="true" lat="44.80684737" lon="-72.20356928">
    <tag k="addr:city" v="Orleans"/>
    <tag k="addr:housenumber" v="10"/>
    <tag k="addr:street" v="First Avenue"/>
    <tag k="addr:state" v="VT"/>
    <tag k="ref:vcgi:esiteid" v="15414"/>
  </node>
  <node id="-356" visible="true" lat="44.80693012" lon="-72.20320804">
    <tag k="addr:city" v="Orleans"/>
    <tag k="addr:housenumber" v="4"/>
    <tag k="addr:street" v="First Avenue"/>
    <tag k="addr:state" v="VT"/>
    <tag k="ref:vcgi:esiteid" v="15418"/>
  </node>
  <node id="-357" visible="true" lat="44.80951732" lon="-72.20514125">
    <tag k="addr:city" v="Orleans"/>
    <tag k="addr:housenumber" v="102"/>
    <tag k="addr:street" v="Main Street"/>
    <tag k="addr:state" v="VT"/>
    <tag k="ref:vcgi:esiteid" v="15420"/>
  </node>
  <node id="-358" visible="true" lat="44.81640519" lon="-72.20663924">
    <tag k="addr:city" v="Orleans"/>
    <tag k="addr:housenumber" v="21"/>
    <tag k="addr:street" v="High Street"/>
    <tag k="addr:state" v="VT"/>
    <tag k="ref:vcgi:esiteid" v="15421"/>
  </node>
  <node id="-359" visible="true" lat="44.80574143" lon="-72.19014416">
    <tag k="addr:city" v="Orleans"/>
    <tag k="addr:housenumber" v="298"/>
    <tag k="addr:street" v="Willoughby Avenue"/>
    <tag k="addr:state" v="VT"/>
    <tag k="ref:vcgi:esiteid" v="15425"/>
  </node>
  <node id="-360" visible="true" lat="44.80887732" lon="-72.19669552">
    <tag k="addr:city" v="Orleans"/>
    <tag k="addr:housenumber" v="29"/>
    <tag k="addr:street" v="Cottage Street"/>
    <tag k="addr:state" v="VT"/>
    <tag k="ref:vcgi:esiteid" v="15430"/>
  </node>
  <node id="-361" visible="true" lat="44.80941589" lon="-72.1969685">
    <tag k="addr:city" v="Orleans"/>
    <tag k="addr:housenumber" v="48"/>
    <tag k="addr:street" v="School Street"/>
    <tag k="addr:state" v="VT"/>
    <tag k="ref:vcgi:esiteid" v="15431"/>
  </node>
  <node id="-362" visible="true" lat="44.80943168" lon="-72.19730889">
    <tag k="addr:city" v="Orleans"/>
    <tag k="addr:housenumber" v="42"/>
    <tag k="addr:street" v="School Street"/>
    <tag k="addr:state" v="VT"/>
    <tag k="ref:vcgi:esiteid" v="15432"/>
  </node>
  <node id="-363" visible="true" lat="44.8094266" lon="-72.19752912">
    <tag k="addr:city" v="Orleans"/>
    <tag k="addr:housenumber" v="40"/>
    <tag k="addr:street" v="School Street"/>
    <tag k="addr:state" v="VT"/>
    <tag k="ref:vcgi:esiteid" v="15433"/>
  </node>
  <node id="-364" visible="true" lat="44.80865107" lon="-72.19797866">
    <tag k="addr:city" v="Orleans"/>
    <tag k="addr:housenumber" v="10"/>
    <tag k="addr:street" v="Marston Avenue"/>
    <tag k="addr:state" v="VT"/>
    <tag k="ref:vcgi:esiteid" v="15434"/>
  </node>
  <node id="-365" visible="true" lat="44.80886474" lon="-72.19842378">
    <tag k="addr:city" v="Orleans"/>
    <tag k="addr:housenumber" v="2"/>
    <tag k="addr:street" v="Marcotte Place"/>
    <tag k="addr:state" v="VT"/>
    <tag k="ref:vcgi:esiteid" v="15435"/>
  </node>
  <node id="-366" visible="true" lat="44.80902576" lon="-72.19800113">
    <tag k="addr:city" v="Orleans"/>
    <tag k="addr:housenumber" v="6"/>
    <tag k="addr:street" v="Marston Avenue"/>
    <tag k="addr:state" v="VT"/>
    <tag k="ref:vcgi:esiteid" v="15436"/>
  </node>
  <node id="-367" visible="true" lat="44.80817312" lon="-72.1984861">
    <tag k="addr:city" v="Orleans"/>
    <tag k="addr:housenumber" v="21"/>
    <tag k="addr:street" v="Cottage Street"/>
    <tag k="addr:state" v="VT"/>
    <tag k="ref:vcgi:esiteid" v="15437"/>
  </node>
  <node id="-371" visible="true" lat="44.81436336" lon="-72.19175705">
    <tag k="addr:city" v="Orleans"/>
    <tag k="addr:housenumber" v="321"/>
    <tag k="addr:street" v="East Street"/>
    <tag k="addr:state" v="VT"/>
    <tag k="ref:vcgi:esiteid" v="15441"/>
  </node>
  <node id="-372" visible="true" lat="44.80985532" lon="-72.19610786">
    <tag k="addr:city" v="Orleans"/>
    <tag k="addr:housenumber" v="55"/>
    <tag k="addr:street" v="School Street"/>
    <tag k="addr:state" v="VT"/>
    <tag k="ref:vcgi:esiteid" v="15442"/>
  </node>
  <node id="-373" visible="true" lat="44.81138426" lon="-72.19609673">
    <tag k="addr:city" v="Orleans"/>
    <tag k="addr:housenumber" v="57"/>
    <tag k="addr:street" v="East Street"/>
    <tag k="addr:state" v="VT"/>
    <tag k="ref:vcgi:esiteid" v="15443"/>
  </node>
  <node id="-374" visible="true" lat="44.81048965" lon="-72.19646453">
    <tag k="addr:city" v="Orleans"/>
    <tag k="addr:housenumber" v="4"/>
    <tag k="addr:street" v="Willoughby Avenue"/>
    <tag k="addr:state" v="VT"/>
    <tag k="ref:vcgi:esiteid" v="15444"/>
  </node>
  <node id="-375" visible="true" lat="44.80906252" lon="-72.19561514">
    <tag k="addr:city" v="Orleans"/>
    <tag k="addr:housenumber" v="56"/>
    <tag k="addr:street" v="School Street"/>
    <tag k="addr:state" v="VT"/>
    <tag k="ref:vcgi:esiteid" v="15445"/>
  </node>
  <node id="-376" visible="true" lat="44.80969068" lon="-72.2071997">
    <tag k="addr:city" v="Orleans"/>
    <tag k="addr:housenumber" v="1"/>
    <tag k="addr:street" v="Prospect Street"/>
    <tag k="addr:state" v="VT"/>
    <tag k="ref:vcgi:esiteid" v="15446"/>
  </node>
  <node id="-377" visible="true" lat="44.80973962" lon="-72.20939333">
    <tag k="addr:city" v="Orleans"/>
    <tag k="addr:housenumber" v="39"/>
    <tag k="addr:street" v="Irasburg Street"/>
    <tag k="addr:state" v="VT"/>
    <tag k="ref:vcgi:esiteid" v="15447"/>
  </node>
  <node id="-378" visible="true" lat="44.80963859" lon="-72.20997982">
    <tag k="addr:city" v="Orleans"/>
    <tag k="addr:housenumber" v="43"/>
    <tag k="addr:street" v="Irasburg Street"/>
    <tag k="addr:state" v="VT"/>
    <tag k="ref:vcgi:esiteid" v="15448"/>
  </node>
  <node id="-379" visible="true" lat="44.80979002" lon="-72.20962843">
    <tag k="addr:city" v="Orleans"/>
    <tag k="addr:housenumber" v="41"/>
    <tag k="addr:street" v="Irasburg Street"/>
    <tag k="addr:state" v="VT"/>
    <tag k="ref:vcgi:esiteid" v="15449"/>
  </node>
  <node id="-380" visible="true" lat="44.80956804" lon="-72.2089411">
    <tag k="addr:city" v="Orleans"/>
    <tag k="addr:housenumber" v="37"/>
    <tag k="addr:street" v="Irasburg Street"/>
    <tag k="addr:state" v="VT"/>
    <tag k="ref:vcgi:esiteid" v="15450"/>
  </node>
  <node id="-381" visible="true" lat="44.80985292" lon="-72.20469555">
    <tag k="addr:city" v="Orleans"/>
    <tag k="addr:housenumber" v="84"/>
    <tag k="addr:street" v="Main Street"/>
    <tag k="addr:state" v="VT"/>
    <tag k="ref:vcgi:esiteid" v="15451"/>
  </node>
  <node id="-383" visible="true" lat="44.81066469" lon="-72.20374329">
    <tag k="addr:city" v="Orleans"/>
    <tag k="addr:housenumber" v="38"/>
    <tag k="addr:street" v="Main Street"/>
    <tag k="addr:state" v="VT"/>
    <tag k="ref:vcgi:esiteid" v="15453"/>
  </node>
  <node id="-384" visible="true" lat="44.81255602" lon="-72.20629298">
    <tag k="addr:city" v="Orleans"/>
    <tag k="addr:housenumber" v="5"/>
    <tag k="addr:street" v="High Street"/>
    <tag k="addr:state" v="VT"/>
    <tag k="ref:vcgi:esiteid" v="15454"/>
  </node>
  <node id="-385" visible="true" lat="44.81268923" lon="-72.20458">
    <tag k="addr:city" v="Orleans"/>
    <tag k="addr:housenumber" v="4"/>
    <tag k="addr:street" v="Cliff Street"/>
    <tag k="addr:state" v="VT"/>
    <tag k="ref:vcgi:esiteid" v="15456"/>
  </node>
  <node id="-386" visible="true" lat="44.81172246" lon="-72.20468579">
    <tag k="addr:city" v="Orleans"/>
    <tag k="addr:housenumber" v="12"/>
    <tag k="addr:street" v="North Avenue"/>
    <tag k="addr:state" v="VT"/>
    <tag k="ref:vcgi:esiteid" v="15457"/>
  </node>
  <node id="-387" visible="true" lat="44.81033315" lon="-72.20214519">
    <tag k="addr:city" v="Orleans"/>
    <tag k="addr:housenumber" v="16"/>
    <tag k="addr:street" v="Water Street"/>
    <tag k="addr:state" v="VT"/>
    <tag k="ref:vcgi:esiteid" v="15459"/>
  </node>
  <node id="-388" visible="true" lat="44.81019645" lon="-72.20208261">
    <tag k="addr:city" v="Orleans"/>
    <tag k="addr:housenumber" v="26"/>
    <tag k="addr:street" v="Water Street"/>
    <tag k="addr:state" v="VT"/>
    <tag k="ref:vcgi:esiteid" v="15460"/>
  </node>
  <node id="-389" visible="true" lat="44.80973723" lon="-72.20016075">
    <tag k="addr:city" v="Orleans"/>
    <tag k="addr:housenumber" v="15"/>
    <tag k="addr:street" v="School Street"/>
    <tag k="addr:state" v="VT"/>
    <tag k="ref:vcgi:esiteid" v="15461"/>
  </node>
  <node id="-390" visible="true" lat="44.80970271" lon="-72.20041412">
    <tag k="addr:city" v="Orleans"/>
    <tag k="addr:housenumber" v="11"/>
    <tag k="addr:street" v="School Street"/>
    <tag k="addr:state" v="VT"/>
    <tag k="ref:vcgi:esiteid" v="15462"/>
  </node>
  <node id="-391" visible="true" lat="44.80965676" lon="-72.20097236">
    <tag k="addr:city" v="Orleans"/>
    <tag k="addr:housenumber" v="5"/>
    <tag k="addr:street" v="School Street"/>
    <tag k="addr:state" v="VT"/>
    <tag k="ref:vcgi:esiteid" v="15463"/>
  </node>
  <node id="-392" visible="true" lat="44.80974402" lon="-72.19908298">
    <tag k="addr:city" v="Orleans"/>
    <tag k="addr:housenumber" v="21"/>
    <tag k="addr:street" v="School Street"/>
    <tag k="addr:state" v="VT"/>
    <tag k="ref:vcgi:esiteid" v="15464"/>
  </node>
  <node id="-393" visible="true" lat="44.81019849" lon="-72.20087689">
    <tag k="addr:city" v="Orleans"/>
    <tag k="addr:housenumber" v="10"/>
    <tag k="addr:street" v="East Street"/>
    <tag k="addr:state" v="VT"/>
    <tag k="ref:vcgi:esiteid" v="15465"/>
  </node>
  <node id="-394" visible="true" lat="44.81014689" lon="-72.2010829">
    <tag k="addr:city" v="Orleans"/>
    <tag k="addr:housenumber" v="6"/>
    <tag k="addr:street" v="East Street"/>
    <tag k="addr:state" v="VT"/>
    <tag k="ref:vcgi:esiteid" v="15466"/>
  </node>
  <node id="-415" visible="true" lat="44.81003739" lon="-72.20257342">
    <tag k="addr:city" v="Orleans"/>
    <tag k="addr:housenumber" v="28"/>
    <tag k="addr:street" v="Water Street"/>
    <tag k="addr:state" v="VT"/>
    <tag k="ref:vcgi:esiteid" v="15556"/>
  </node>
  <node id="-416" visible="true" lat="44.80962917" lon="-72.20224454">
    <tag k="addr:city" v="Orleans"/>
    <tag k="addr:housenumber" v="30"/>
    <tag k="addr:street" v="Water Street"/>
    <tag k="addr:state" v="VT"/>
    <tag k="ref:vcgi:esiteid" v="15557"/>
  </node>
  <node id="-417" visible="true" lat="44.809508" lon="-72.20246376">
    <tag k="addr:city" v="Orleans"/>
    <tag k="addr:housenumber" v="32"/>
    <tag k="addr:street" v="Water Street"/>
    <tag k="addr:state" v="VT"/>
    <tag k="ref:vcgi:esiteid" v="15558"/>
  </node>
  <node id="-418" visible="true" lat="44.80899326" lon="-72.20568178">
    <tag k="addr:city" v="Orleans"/>
    <tag k="addr:housenumber" v="120"/>
    <tag k="addr:street" v="Main Street"/>
    <tag k="addr:state" v="VT"/>
    <tag k="ref:vcgi:esiteid" v="15559"/>
  </node>
  <node id="-421" visible="true" lat="44.80968391" lon="-72.20068585">
    <tag k="addr:city" v="Orleans"/>
    <tag k="addr:housenumber" v="7"/>
    <tag k="addr:street" v="School Street"/>
    <tag k="addr:state" v="VT"/>
    <tag k="ref:vcgi:esiteid" v="15636"/>
  </node>
  <node id="-422" visible="true" lat="44.80750951" lon="-72.20552822">
    <tag k="addr:city" v="Orleans"/>
    <tag k="addr:housenumber" v="28"/>
    <tag k="addr:street" v="Railroad Avenue"/>
    <tag k="addr:state" v="VT"/>
    <tag k="ref:vcgi:esiteid" v="15646"/>
  </node>
  <node id="-427" visible="true" lat="44.80613196" lon="-72.20509985">
    <tag k="addr:city" v="Orleans"/>
    <tag k="addr:housenumber" v="118"/>
    <tag k="addr:street" v="Ethan Allen Lane"/>
    <tag k="addr:state" v="VT"/>
    <tag k="ref:vcgi:esiteid" v="15675"/>
  </node>
  <node id="-435" visible="true" lat="44.81493784" lon="-72.20766022">
    <tag k="addr:city" v="Orleans"/>
    <tag k="addr:housenumber" v="19"/>
    <tag k="addr:street" v="High Street"/>
    <tag k="addr:state" v="VT"/>
    <tag k="ref:vcgi:esiteid" v="15709"/>
  </node>
  <node id="-441" visible="true" lat="44.8078298" lon="-72.20317951">
    <tag k="addr:city" v="Orleans"/>
    <tag k="addr:housenumber" v="63"/>
    <tag k="addr:street" v="Railroad Avenue"/>
    <tag k="addr:state" v="VT"/>
    <tag k="ref:vcgi:esiteid" v="333611"/>
  </node>
  <node id="-442" visible="true" lat="44.81099939" lon="-72.20414001">
    <tag k="addr:city" v="Orleans"/>
    <tag k="addr:housenumber" v="14"/>
    <tag k="addr:street" v="South Avenue"/>
    <tag k="addr:state" v="VT"/>
    <tag k="ref:vcgi:esiteid" v="334975"/>
  </node>
  <node id="-447" visible="true" lat="44.81100168" lon="-72.203651">
    <tag k="addr:city" v="Orleans"/>
    <tag k="addr:housenumber" v="20"/>
    <tag k="addr:street" v="Main Street"/>
    <tag k="addr:state" v="VT"/>
    <tag k="ref:vcgi:esiteid" v="751495"/>
  </node>
  <node id="-449" visible="true" lat="44.81168453" lon="-72.1937901">
    <tag k="addr:city" v="Orleans"/>
    <tag k="addr:housenumber" v="150"/>
    <tag k="addr:street" v="East Street"/>
    <tag k="addr:state" v="VT"/>
    <tag k="ref:vcgi:esiteid" v="752001"/>
  </node>
  <node id="-450" visible="true" lat="44.81224313" lon="-72.19344513">
    <tag k="addr:city" v="Orleans"/>
    <tag k="addr:housenumber" v="170"/>
    <tag k="addr:street" v="East Street"/>
    <tag k="addr:state" v="VT"/>
    <tag k="ref:vcgi:esiteid" v="752002"/>
  </node>
  <node id="-464" visible="true" lat="44.80848467" lon="-72.20256536">
    <tag k="addr:city" v="Orleans"/>
    <tag k="addr:housenumber" v="8"/>
    <tag k="addr:street" v="South Street"/>
    <tag k="addr:state" v="VT"/>
    <tag k="ref:vcgi:esiteid" v="758238"/>
  </node>
</osm>
