<?xml version="1.0" encoding="UTF-8"?>
<osm version="0.6" generator="JOSM" upload="false">
  <node id="-120" visible="true" lat="43.8469636" lon="-73.33037484">
    <tag k="addr:housenumber" v="141"/>
    <tag k="addr:street" v="Hemenway Hill Road"/>
    <tag k="addr:state" v="VT"/>
    <tag k="ref:vcgi:esiteid" v="184054"/>
  </node>
  <node id="-122" visible="true" lat="43.84680354" lon="-73.33160325">
    <tag k="addr:housenumber" v="144"/>
    <tag k="addr:street" v="Hemenway Hill Road"/>
    <tag k="addr:state" v="VT"/>
    <tag k="ref:vcgi:esiteid" v="184056"/>
  </node>
  <node id="-126" visible="true" lat="43.84557277" lon="-73.33053333">
    <tag k="addr:housenumber" v="142"/>
    <tag k="addr:street" v="Hemenway Hill Road"/>
    <tag k="addr:state" v="VT"/>
    <tag k="ref:vcgi:esiteid" v="184060"/>
  </node>
  <node id="-136" visible="true" lat="43.8426808" lon="-73.36701435">
    <tag k="addr:housenumber" v="7"/>
    <tag k="addr:street" v="Sampson Road"/>
    <tag k="addr:state" v="VT"/>
    <tag k="ref:vcgi:esiteid" v="184070"/>
  </node>
  <node id="-138" visible="true" lat="43.84218579" lon="-73.36706518">
    <tag k="addr:housenumber" v="9"/>
    <tag k="addr:street" v="Sampson Road"/>
    <tag k="addr:state" v="VT"/>
    <tag k="ref:vcgi:esiteid" v="184073"/>
  </node>
  <node id="-140" visible="true" lat="43.84190874" lon="-73.36722187">
    <tag k="addr:housenumber" v="11"/>
    <tag k="addr:street" v="Sampson Road"/>
    <tag k="addr:state" v="VT"/>
    <tag k="ref:vcgi:esiteid" v="184075"/>
  </node>
  <node id="-142" visible="true" lat="43.84151378" lon="-73.36741849">
    <tag k="addr:housenumber" v="13"/>
    <tag k="addr:street" v="Sampson Road"/>
    <tag k="addr:state" v="VT"/>
    <tag k="ref:vcgi:esiteid" v="184077"/>
  </node>
  <node id="-144" visible="true" lat="43.84129227" lon="-73.36753972">
    <tag k="addr:housenumber" v="15"/>
    <tag k="addr:street" v="Sampson Road"/>
    <tag k="addr:state" v="VT"/>
    <tag k="ref:vcgi:esiteid" v="184079"/>
  </node>
  <node id="-257" visible="true" lat="43.81848288" lon="-73.38463818">
    <tag k="addr:housenumber" v="497"/>
    <tag k="addr:street" v="Mount Independence Road"/>
    <tag k="addr:state" v="VT"/>
    <tag k="ref:vcgi:esiteid" v="184195"/>
  </node>
  <node id="-258" visible="true" lat="43.81886413" lon="-73.27347467">
    <tag k="addr:housenumber" v="10"/>
    <tag k="addr:street" v="Hibbard Hill Road"/>
    <tag k="addr:state" v="VT"/>
    <tag k="ref:vcgi:esiteid" v="184196"/>
  </node>
  <node id="-266" visible="true" lat="43.81712018" lon="-73.27456142">
    <tag k="addr:housenumber" v="129"/>
    <tag k="addr:street" v="Daigneault Hill Road"/>
    <tag k="addr:state" v="VT"/>
    <tag k="ref:vcgi:esiteid" v="184204"/>
  </node>
  <node id="-268" visible="true" lat="43.81551941" lon="-73.27511965">
    <tag k="addr:housenumber" v="121"/>
    <tag k="addr:street" v="Daigneault Hill Road"/>
    <tag k="addr:state" v="VT"/>
    <tag k="ref:vcgi:esiteid" v="184206"/>
  </node>
  <node id="-275" visible="true" lat="43.81337357" lon="-73.2901535">
    <tag k="addr:housenumber" v="191"/>
    <tag k="addr:street" v="North Orwell Road"/>
    <tag k="addr:state" v="VT"/>
    <tag k="ref:vcgi:esiteid" v="184213"/>
  </node>
  <node id="-279" visible="true" lat="43.81273119" lon="-73.27780989">
    <tag k="addr:housenumber" v="92"/>
    <tag k="addr:street" v="Daigneault Hill Road"/>
    <tag k="addr:state" v="VT"/>
    <tag k="ref:vcgi:esiteid" v="184218"/>
  </node>
  <node id="-281" visible="true" lat="43.81269677" lon="-73.283708">
    <tag k="addr:housenumber" v="54"/>
    <tag k="addr:street" v="Daigneault Hill Road"/>
    <tag k="addr:state" v="VT"/>
    <tag k="ref:vcgi:esiteid" v="184220"/>
  </node>
  <node id="-288" visible="true" lat="43.8118676" lon="-73.29403661">
    <tag k="addr:housenumber" v="176"/>
    <tag k="addr:street" v="North Orwell Road"/>
    <tag k="addr:state" v="VT"/>
    <tag k="ref:vcgi:esiteid" v="184227"/>
  </node>
  <node id="-289" visible="true" lat="43.8116854" lon="-73.29359169">
    <tag k="addr:housenumber" v="177"/>
    <tag k="addr:street" v="North Orwell Road"/>
    <tag k="addr:state" v="VT"/>
    <tag k="ref:vcgi:esiteid" v="184228"/>
  </node>
  <node id="-290" visible="true" lat="43.81183408" lon="-73.29393871">
    <tag k="addr:housenumber" v="174"/>
    <tag k="addr:street" v="North Orwell Road"/>
    <tag k="addr:state" v="VT"/>
    <tag k="ref:vcgi:esiteid" v="184229"/>
  </node>
  <node id="-292" visible="true" lat="43.81133806" lon="-73.29423644">
    <tag k="addr:housenumber" v="168"/>
    <tag k="addr:street" v="North Orwell Road"/>
    <tag k="addr:state" v="VT"/>
    <tag k="ref:vcgi:esiteid" v="184231"/>
  </node>
  <node id="-294" visible="true" lat="43.81107545" lon="-73.28832914">
    <tag k="addr:housenumber" v="34"/>
    <tag k="addr:street" v="Daigneault Hill Road"/>
    <tag k="addr:state" v="VT"/>
    <tag k="ref:vcgi:esiteid" v="184233"/>
  </node>
  <node id="-296" visible="true" lat="43.8108974" lon="-73.29498755">
    <tag k="addr:housenumber" v="162"/>
    <tag k="addr:street" v="North Orwell Road"/>
    <tag k="addr:state" v="VT"/>
    <tag k="ref:vcgi:esiteid" v="184235"/>
  </node>
  <node id="-298" visible="true" lat="43.81063181" lon="-73.28290326">
    <tag k="addr:housenumber" v="64"/>
    <tag k="addr:street" v="Daigneault Hill Road"/>
    <tag k="addr:state" v="VT"/>
    <tag k="ref:vcgi:esiteid" v="184237"/>
  </node>
  <node id="-299" visible="true" lat="43.8102159" lon="-73.2954565">
    <tag k="addr:housenumber" v="156"/>
    <tag k="addr:street" v="North Orwell Road"/>
    <tag k="addr:state" v="VT"/>
    <tag k="ref:vcgi:esiteid" v="184238"/>
  </node>
  <node id="-302" visible="true" lat="43.80964792" lon="-73.28605427">
    <tag k="addr:housenumber" v="50"/>
    <tag k="addr:street" v="Daigneault Hill Road"/>
    <tag k="addr:state" v="VT"/>
    <tag k="ref:vcgi:esiteid" v="184241"/>
  </node>
  <node id="-305" visible="true" lat="43.80893178" lon="-73.28670548">
    <tag k="addr:housenumber" v="47"/>
    <tag k="addr:street" v="Daigneault Hill Road"/>
    <tag k="addr:state" v="VT"/>
    <tag k="ref:vcgi:esiteid" v="184244"/>
  </node>
  <node id="-307" visible="true" lat="43.80872205" lon="-73.29111898">
    <tag k="addr:housenumber" v="15"/>
    <tag k="addr:street" v="Daigneault Hill Road"/>
    <tag k="addr:state" v="VT"/>
    <tag k="ref:vcgi:esiteid" v="184246"/>
  </node>
  <node id="-319" visible="true" lat="43.80585473" lon="-73.2957828">
    <tag k="addr:housenumber" v="75"/>
    <tag k="addr:street" v="North Orwell Road"/>
    <tag k="addr:state" v="VT"/>
    <tag k="ref:vcgi:esiteid" v="184258"/>
  </node>
  <node id="-321" visible="true" lat="43.80559124" lon="-73.30535192">
    <!-- match: "344 Vermont Route 22A, , VT"  ignoring missing state when matching to "344 Vermont Route 22A, , " -->
    <tag k="addr:housenumber" v="344"/>
    <tag k="addr:street" v="Vermont Route 22A"/>
    <tag k="addr:state" v="VT"/>
    <tag k="ref:vcgi:esiteid" v="184260"/>
  </node>
  <node id="-323" visible="true" lat="43.80571814" lon="-73.29703441">
    <tag k="addr:housenumber" v="52"/>
    <tag k="addr:street" v="North Orwell Road"/>
    <tag k="addr:state" v="VT"/>
    <tag k="ref:vcgi:esiteid" v="184262"/>
  </node>
  <node id="-326" visible="true" lat="43.8051991" lon="-73.29709634">
    <tag k="addr:housenumber" v="36"/>
    <tag k="addr:street" v="North Orwell Road"/>
    <tag k="addr:state" v="VT"/>
    <tag k="ref:vcgi:esiteid" v="184265"/>
  </node>
  <node id="-327" visible="true" lat="43.80510733" lon="-73.29660703">
    <tag k="addr:housenumber" v="47"/>
    <tag k="addr:street" v="North Orwell Road"/>
    <tag k="addr:state" v="VT"/>
    <tag k="ref:vcgi:esiteid" v="184266"/>
  </node>
  <node id="-328" visible="true" lat="43.80494178" lon="-73.29744158">
    <tag k="addr:housenumber" v="28"/>
    <tag k="addr:street" v="North Orwell Road"/>
    <tag k="addr:state" v="VT"/>
    <tag k="ref:vcgi:esiteid" v="184267"/>
  </node>
  <node id="-329" visible="true" lat="43.8047758" lon="-73.29688992">
    <tag k="addr:housenumber" v="29"/>
    <tag k="addr:street" v="North Orwell Road"/>
    <tag k="addr:state" v="VT"/>
    <tag k="ref:vcgi:esiteid" v="184268"/>
  </node>
  <node id="-332" visible="true" lat="43.80458925" lon="-73.29704083">
    <tag k="addr:housenumber" v="23"/>
    <tag k="addr:street" v="North Orwell Road"/>
    <tag k="addr:state" v="VT"/>
    <tag k="ref:vcgi:esiteid" v="184271"/>
  </node>
  <node id="-333" visible="true" lat="43.80452551" lon="-73.29845076">
    <tag k="addr:housenumber" v="498"/>
    <tag k="addr:street" v="Main Street"/>
    <tag k="addr:state" v="VT"/>
    <tag k="ref:vcgi:esiteid" v="184272"/>
  </node>
  <node id="-334" visible="true" lat="43.804509" lon="-73.29758305">
    <tag k="addr:housenumber" v="18"/>
    <tag k="addr:street" v="North Orwell Road"/>
    <tag k="addr:state" v="VT"/>
    <tag k="ref:vcgi:esiteid" v="184273"/>
  </node>
  <node id="-336" visible="true" lat="43.80431064" lon="-73.29698662">
    <tag k="addr:housenumber" v="13"/>
    <tag k="addr:street" v="North Orwell Road"/>
    <tag k="addr:state" v="VT"/>
    <tag k="ref:vcgi:esiteid" v="184275"/>
  </node>
  <node id="-337" visible="true" lat="43.80428903" lon="-73.29968701">
    <tag k="addr:housenumber" v="480"/>
    <tag k="addr:street" v="Main Street"/>
    <tag k="addr:state" v="VT"/>
    <tag k="ref:vcgi:esiteid" v="184276"/>
  </node>
  <node id="-338" visible="true" lat="43.80434247" lon="-73.29780284">
    <tag k="addr:housenumber" v="8"/>
    <tag k="addr:street" v="North Orwell Road"/>
    <tag k="addr:state" v="VT"/>
    <tag k="ref:vcgi:esiteid" v="184277"/>
  </node>
  <node id="-340" visible="true" lat="43.80419683" lon="-73.30069702">
    <tag k="addr:housenumber" v="464"/>
    <tag k="addr:street" v="Main Street"/>
    <tag k="addr:state" v="VT"/>
    <tag k="ref:vcgi:esiteid" v="184279"/>
  </node>
  <node id="-342" visible="true" lat="43.80406052" lon="-73.29800385">
    <tag k="addr:housenumber" v="2"/>
    <tag k="addr:street" v="North Orwell Road"/>
    <tag k="addr:state" v="VT"/>
    <tag k="ref:vcgi:esiteid" v="184281"/>
  </node>
  <node id="-343" visible="true" lat="43.80407183" lon="-73.29740948">
    <tag k="addr:housenumber" v="7"/>
    <tag k="addr:street" v="North Orwell Road"/>
    <tag k="addr:state" v="VT"/>
    <tag k="ref:vcgi:esiteid" v="184282"/>
  </node>
  <node id="-346" visible="true" lat="43.80406156" lon="-73.2959711">
    <tag k="addr:housenumber" v="560"/>
    <tag k="addr:street" v="Main Street"/>
    <tag k="addr:state" v="VT"/>
    <tag k="ref:vcgi:esiteid" v="184285"/>
  </node>
  <node id="-349" visible="true" lat="43.80406361" lon="-73.29680719">
    <tag k="addr:housenumber" v="538"/>
    <tag k="addr:street" v="Main Street"/>
    <tag k="addr:state" v="VT"/>
    <tag k="ref:vcgi:esiteid" v="184288"/>
  </node>
  <node id="-352" visible="true" lat="43.80386748" lon="-73.30537799">
    <!-- match: "330 Vermont Route 22A, , VT"  ignoring missing state when matching to "330 Vermont Route 22A, , " -->
    <tag k="addr:housenumber" v="330"/>
    <tag k="addr:street" v="Vermont Route 22A"/>
    <tag k="addr:state" v="VT"/>
    <tag k="ref:vcgi:esiteid" v="184291"/>
  </node>
  <node id="-354" visible="true" lat="43.80386426" lon="-73.3015126">
    <tag k="addr:housenumber" v="436"/>
    <tag k="addr:street" v="Main Street"/>
    <tag k="addr:state" v="VT"/>
    <tag k="ref:vcgi:esiteid" v="184294"/>
  </node>
  <node id="-355" visible="true" lat="43.80361652" lon="-73.29641686">
    <tag k="addr:housenumber" v="537"/>
    <tag k="addr:street" v="Main Street"/>
    <tag k="addr:state" v="VT"/>
    <tag k="ref:vcgi:esiteid" v="184295"/>
  </node>
  <node id="-359" visible="true" lat="43.80365896" lon="-73.30215696">
    <tag k="addr:housenumber" v="406"/>
    <tag k="addr:street" v="Main Street"/>
    <tag k="addr:state" v="VT"/>
    <tag k="ref:vcgi:esiteid" v="184299"/>
  </node>
  <node id="-361" visible="true" lat="43.80349276" lon="-73.29785541">
    <tag k="addr:housenumber" v="505"/>
    <tag k="addr:street" v="Main Street"/>
    <tag k="addr:state" v="VT"/>
    <tag k="ref:vcgi:esiteid" v="184302"/>
  </node>
  <node id="-362" visible="true" lat="43.80366538" lon="-73.30267057">
    <tag k="addr:housenumber" v="400"/>
    <tag k="addr:street" v="Main Street"/>
    <tag k="addr:state" v="VT"/>
    <tag k="ref:vcgi:esiteid" v="184303"/>
  </node>
  <node id="-365" visible="true" lat="43.80352665" lon="-73.29687772">
    <tag k="addr:housenumber" v="531"/>
    <tag k="addr:street" v="Main Street"/>
    <tag k="addr:state" v="VT"/>
    <tag k="ref:vcgi:esiteid" v="184306"/>
  </node>
  <node id="-366" visible="true" lat="43.80345626" lon="-73.29871629">
    <tag k="addr:housenumber" v="491"/>
    <tag k="addr:street" v="Main Street"/>
    <tag k="addr:state" v="VT"/>
    <tag k="ref:vcgi:esiteid" v="184307"/>
  </node>
  <node id="-367" visible="true" lat="43.80338802" lon="-73.29834803">
    <tag k="addr:housenumber" v="501"/>
    <tag k="addr:street" v="Main Street"/>
    <tag k="addr:state" v="VT"/>
    <tag k="ref:vcgi:esiteid" v="184308"/>
  </node>
  <node id="-368" visible="true" lat="43.80355252" lon="-73.29837363">
    <tag k="addr:housenumber" v="499"/>
    <tag k="addr:street" v="Main Street"/>
    <tag k="addr:state" v="VT"/>
    <tag k="ref:vcgi:esiteid" v="184309"/>
  </node>
  <node id="-372" visible="true" lat="43.80311652" lon="-73.29977564">
    <tag k="addr:housenumber" v="467"/>
    <tag k="addr:street" v="Main Street"/>
    <tag k="addr:state" v="VT"/>
    <tag k="ref:vcgi:esiteid" v="184313"/>
  </node>
  <node id="-373" visible="true" lat="43.80338581" lon="-73.2997889">
    <tag k="addr:housenumber" v="473"/>
    <tag k="addr:street" v="Main Street"/>
    <tag k="addr:state" v="VT"/>
    <tag k="ref:vcgi:esiteid" v="184314"/>
  </node>
  <node id="-375" visible="true" lat="43.80331337" lon="-73.3004852">
    <tag k="addr:housenumber" v="461"/>
    <tag k="addr:street" v="Main Street"/>
    <tag k="addr:state" v="VT"/>
    <tag k="ref:vcgi:esiteid" v="184316"/>
  </node>
  <node id="-376" visible="true" lat="43.80343735" lon="-73.29916233">
    <tag k="addr:housenumber" v="485"/>
    <tag k="addr:street" v="Main Street"/>
    <tag k="addr:state" v="VT"/>
    <tag k="ref:vcgi:esiteid" v="184317"/>
  </node>
  <node id="-379" visible="true" lat="43.80327869" lon="-73.30159942">
    <tag k="addr:housenumber" v="435"/>
    <tag k="addr:street" v="Main Street"/>
    <tag k="addr:state" v="VT"/>
    <tag k="ref:vcgi:esiteid" v="184320"/>
  </node>
  <node id="-380" visible="true" lat="43.80334141" lon="-73.29551532">
    <tag k="addr:housenumber" v="14"/>
    <tag k="addr:street" v="Church Street"/>
    <tag k="addr:state" v="VT"/>
    <tag k="ref:vcgi:esiteid" v="184321"/>
  </node>
  <node id="-382" visible="true" lat="43.80328867" lon="-73.30286349">
    <tag k="addr:housenumber" v="399"/>
    <tag k="addr:street" v="Main Street"/>
    <tag k="addr:state" v="VT"/>
    <tag k="ref:vcgi:esiteid" v="184323"/>
  </node>
  <node id="-383" visible="true" lat="43.80321952" lon="-73.30199137">
    <tag k="addr:housenumber" v="413"/>
    <tag k="addr:street" v="Main Street"/>
    <tag k="addr:state" v="VT"/>
    <tag k="ref:vcgi:esiteid" v="184324"/>
  </node>
  <node id="-385" visible="true" lat="43.80332027" lon="-73.29471785">
    <tag k="addr:housenumber" v="567"/>
    <tag k="addr:street" v="Main Street"/>
    <tag k="addr:state" v="VT"/>
    <tag k="ref:vcgi:esiteid" v="184326"/>
  </node>
  <node id="-386" visible="true" lat="43.80308766" lon="-73.29552749">
    <tag k="addr:housenumber" v="20"/>
    <tag k="addr:street" v="Church Street"/>
    <tag k="addr:state" v="VT"/>
    <tag k="ref:vcgi:esiteid" v="184328"/>
  </node>
  <node id="-387" visible="true" lat="43.80299163" lon="-73.30355402">
    <tag k="addr:housenumber" v="385"/>
    <tag k="addr:street" v="Main Street"/>
    <tag k="addr:state" v="VT"/>
    <tag k="ref:vcgi:esiteid" v="184329"/>
  </node>
  <node id="-388" visible="true" lat="43.803014" lon="-73.29614928">
    <tag k="addr:housenumber" v="23"/>
    <tag k="addr:street" v="Church Street"/>
    <tag k="addr:state" v="VT"/>
    <tag k="ref:vcgi:esiteid" v="184330"/>
  </node>
  <node id="-392" visible="true" lat="43.80286959" lon="-73.29745362">
    <tag k="addr:housenumber" v="45"/>
    <tag k="addr:street" v="Roberts Avenue"/>
    <tag k="addr:state" v="VT"/>
    <tag k="ref:vcgi:esiteid" v="184334"/>
  </node>
  <node id="-394" visible="true" lat="43.8026473" lon="-73.29787865">
    <tag k="addr:housenumber" v="46"/>
    <tag k="addr:street" v="Roberts Avenue"/>
    <tag k="addr:state" v="VT"/>
    <tag k="ref:vcgi:esiteid" v="184337"/>
  </node>
  <node id="-395" visible="true" lat="43.80257844" lon="-73.29742435">
    <tag k="addr:housenumber" v="37"/>
    <tag k="addr:street" v="Roberts Avenue"/>
    <tag k="addr:state" v="VT"/>
    <tag k="ref:vcgi:esiteid" v="184338"/>
  </node>
  <node id="-396" visible="true" lat="43.80258784" lon="-73.29557612">
    <tag k="addr:housenumber" v="34"/>
    <tag k="addr:street" v="Church Street"/>
    <tag k="addr:state" v="VT"/>
    <tag k="ref:vcgi:esiteid" v="184339"/>
  </node>
  <node id="-399" visible="true" lat="43.80215334" lon="-73.29756254">
    <tag k="addr:housenumber" v="28"/>
    <tag k="addr:street" v="Roberts Avenue"/>
    <tag k="addr:state" v="VT"/>
    <tag k="ref:vcgi:esiteid" v="184342"/>
  </node>
  <node id="-401" visible="true" lat="43.80206762" lon="-73.29685943">
    <tag k="addr:housenumber" v="16"/>
    <tag k="addr:street" v="Roberts Avenue"/>
    <tag k="addr:state" v="VT"/>
    <tag k="ref:vcgi:esiteid" v="184344"/>
  </node>
  <node id="-402" visible="true" lat="43.80221763" lon="-73.29803932">
    <tag k="addr:housenumber" v="34"/>
    <tag k="addr:street" v="Roberts Avenue"/>
    <tag k="addr:state" v="VT"/>
    <tag k="ref:vcgi:esiteid" v="184345"/>
  </node>
  <node id="-405" visible="true" lat="43.80211248" lon="-73.29613785">
    <tag k="addr:housenumber" v="59"/>
    <tag k="addr:street" v="Church Street"/>
    <tag k="addr:state" v="VT"/>
    <tag k="ref:vcgi:esiteid" v="184348"/>
  </node>
  <node id="-407" visible="true" lat="43.80209895" lon="-73.29574723">
    <tag k="addr:housenumber" v="46"/>
    <tag k="addr:street" v="Church Street"/>
    <tag k="addr:state" v="VT"/>
    <tag k="ref:vcgi:esiteid" v="184351"/>
  </node>
  <node id="-409" visible="true" lat="43.8019148" lon="-73.29574809">
    <tag k="addr:housenumber" v="48"/>
    <tag k="addr:street" v="Church Street"/>
    <tag k="addr:state" v="VT"/>
    <tag k="ref:vcgi:esiteid" v="184353"/>
  </node>
  <node id="-416" visible="true" lat="43.80176245" lon="-73.29618172">
    <tag k="addr:housenumber" v="65"/>
    <tag k="addr:street" v="Church Street"/>
    <tag k="addr:state" v="VT"/>
    <tag k="ref:vcgi:esiteid" v="184360"/>
  </node>
  <node id="-421" visible="true" lat="43.8013528" lon="-73.29618392">
    <tag k="addr:housenumber" v="73"/>
    <tag k="addr:street" v="Church Street"/>
    <tag k="addr:state" v="VT"/>
    <tag k="ref:vcgi:esiteid" v="184365"/>
  </node>
  <node id="-422" visible="true" lat="43.80138035" lon="-73.29577528">
    <tag k="addr:housenumber" v="66"/>
    <tag k="addr:street" v="Church Street"/>
    <tag k="addr:state" v="VT"/>
    <tag k="ref:vcgi:esiteid" v="184366"/>
  </node>
  <node id="-429" visible="true" lat="43.80093678" lon="-73.29592586">
    <tag k="addr:housenumber" v="81"/>
    <tag k="addr:street" v="Church Street"/>
    <tag k="addr:state" v="VT"/>
    <tag k="ref:vcgi:esiteid" v="184373"/>
  </node>
  <node id="-432" visible="true" lat="43.8006486" lon="-73.2958102">
    <tag k="addr:housenumber" v="85"/>
    <tag k="addr:street" v="Church Street"/>
    <tag k="addr:state" v="VT"/>
    <tag k="ref:vcgi:esiteid" v="184376"/>
  </node>
  <node id="-435" visible="true" lat="43.80047151" lon="-73.29538142">
    <tag k="addr:housenumber" v="86"/>
    <tag k="addr:street" v="Church Street"/>
    <tag k="addr:state" v="VT"/>
    <tag k="ref:vcgi:esiteid" v="184379"/>
  </node>
  <node id="-437" visible="true" lat="43.80034447" lon="-73.29577114">
    <tag k="addr:housenumber" v="103"/>
    <tag k="addr:street" v="Church Street"/>
    <tag k="addr:state" v="VT"/>
    <tag k="ref:vcgi:esiteid" v="184382"/>
  </node>
  <node id="-441" visible="true" lat="43.7996506" lon="-73.2955329">
    <tag k="addr:housenumber" v="109"/>
    <tag k="addr:street" v="Church Street"/>
    <tag k="addr:state" v="VT"/>
    <tag k="ref:vcgi:esiteid" v="184386"/>
  </node>
  <node id="-447" visible="true" lat="43.79882922" lon="-73.29606563">
    <tag k="addr:housenumber" v="155"/>
    <tag k="addr:street" v="Church Street"/>
    <tag k="addr:state" v="VT"/>
    <tag k="ref:vcgi:esiteid" v="184392"/>
  </node>
  <node id="-452" visible="true" lat="43.79834258" lon="-73.29760896">
    <tag k="addr:housenumber" v="131"/>
    <tag k="addr:street" v="Church Street"/>
    <tag k="addr:state" v="VT"/>
    <tag k="ref:vcgi:esiteid" v="184397"/>
  </node>
  <node id="-463" visible="true" lat="43.79606333" lon="-73.24359561">
    <tag k="addr:housenumber" v="21"/>
    <tag k="addr:street" v="Young Road"/>
    <tag k="addr:state" v="VT"/>
    <tag k="ref:vcgi:esiteid" v="184408"/>
  </node>
  <node id="-495" visible="true" lat="43.79229736" lon="-73.29037476">
    <tag k="addr:housenumber" v="18"/>
    <tag k="addr:street" v="Conkey Hill Road"/>
    <tag k="addr:state" v="VT"/>
    <tag k="ref:vcgi:esiteid" v="184441"/>
  </node>
  <node id="-498" visible="true" lat="43.79226077" lon="-73.28923213">
    <tag k="addr:housenumber" v="24"/>
    <tag k="addr:street" v="Conkey Hill Road"/>
    <tag k="addr:state" v="VT"/>
    <tag k="ref:vcgi:esiteid" v="184444"/>
  </node>
  <node id="-501" visible="true" lat="43.79204133" lon="-73.28501249">
    <tag k="addr:housenumber" v="47"/>
    <tag k="addr:street" v="Conkey Hill Road"/>
    <tag k="addr:state" v="VT"/>
    <tag k="ref:vcgi:esiteid" v="184447"/>
  </node>
  <node id="-505" visible="true" lat="43.79131035" lon="-73.2941579">
    <tag k="addr:housenumber" v="57"/>
    <tag k="addr:street" v="Sanford Road"/>
    <tag k="addr:state" v="VT"/>
    <tag k="ref:vcgi:esiteid" v="184451"/>
  </node>
  <node id="-506" visible="true" lat="43.79144723" lon="-73.2935042">
    <tag k="addr:housenumber" v="55"/>
    <tag k="addr:street" v="Sanford Road"/>
    <tag k="addr:state" v="VT"/>
    <tag k="ref:vcgi:esiteid" v="184452"/>
  </node>
  <node id="-703" visible="true" lat="43.80406632" lon="-73.29671987">
    <tag k="addr:housenumber" v="544"/>
    <tag k="addr:street" v="Main Street"/>
    <tag k="addr:state" v="VT"/>
    <tag k="ref:vcgi:esiteid" v="184653"/>
  </node>
  <node id="-715" visible="true" lat="43.80364295" lon="-73.2960627">
    <tag k="addr:housenumber" v="7"/>
    <tag k="addr:street" v="Church Street"/>
    <tag k="addr:state" v="VT"/>
    <tag k="ref:vcgi:esiteid" v="184666"/>
  </node>
  <node id="-716" visible="true" lat="43.80365095" lon="-73.29542531">
    <tag k="addr:housenumber" v="8"/>
    <tag k="addr:street" v="Church Street"/>
    <tag k="addr:state" v="VT"/>
    <tag k="ref:vcgi:esiteid" v="184667"/>
  </node>
  <node id="-718" visible="true" lat="43.84339893" lon="-73.36287473">
    <tag k="addr:housenumber" v="3"/>
    <tag k="addr:street" v="Vermont Route 73"/>
    <tag k="addr:state" v="VT"/>
    <tag k="ref:vcgi:esiteid" v="184669"/>
  </node>
  <node id="-719" visible="true" lat="43.84386843" lon="-73.36411756">
    <tag k="addr:housenumber" v="57"/>
    <tag k="addr:street" v="Meadow Lane"/>
    <tag k="addr:state" v="VT"/>
    <tag k="ref:vcgi:esiteid" v="184670"/>
  </node>
  <node id="-720" visible="true" lat="43.84303322" lon="-73.36275651">
    <tag k="addr:housenumber" v="5"/>
    <tag k="addr:street" v="Vermont Route 73"/>
    <tag k="addr:state" v="VT"/>
    <tag k="ref:vcgi:esiteid" v="184671"/>
  </node>
  <node id="-721" visible="true" lat="43.84354215" lon="-73.3667095">
    <tag k="addr:housenumber" v="171"/>
    <tag k="addr:street" v="Meadow Lane"/>
    <tag k="addr:state" v="VT"/>
    <tag k="ref:vcgi:esiteid" v="184672"/>
  </node>
  <node id="-722" visible="true" lat="43.84271096" lon="-73.36645036">
    <tag k="addr:housenumber" v="6"/>
    <tag k="addr:street" v="Sampson Road"/>
    <tag k="addr:state" v="VT"/>
    <tag k="ref:vcgi:esiteid" v="184673"/>
  </node>
  <node id="-723" visible="true" lat="43.84293163" lon="-73.36626262">
    <tag k="addr:housenumber" v="5"/>
    <tag k="addr:street" v="Sampson Road"/>
    <tag k="addr:state" v="VT"/>
    <tag k="ref:vcgi:esiteid" v="184674"/>
  </node>
  <node id="-724" visible="true" lat="43.8408511" lon="-73.36771156">
    <tag k="addr:housenumber" v="21"/>
    <tag k="addr:street" v="Sampson Road"/>
    <tag k="addr:state" v="VT"/>
    <tag k="ref:vcgi:esiteid" v="184675"/>
  </node>
  <node id="-725" visible="true" lat="43.8402325" lon="-73.36797929">
    <tag k="addr:housenumber" v="23"/>
    <tag k="addr:street" v="Sampson Road"/>
    <tag k="addr:state" v="VT"/>
    <tag k="ref:vcgi:esiteid" v="184676"/>
  </node>
  <node id="-726" visible="true" lat="43.83961223" lon="-73.36832563">
    <tag k="addr:housenumber" v="25"/>
    <tag k="addr:street" v="Sampson Road"/>
    <tag k="addr:state" v="VT"/>
    <tag k="ref:vcgi:esiteid" v="184677"/>
  </node>
  <node id="-739" visible="true" lat="43.83821941" lon="-73.21989483">
    <tag k="addr:housenumber" v="298"/>
    <tag k="addr:street" v="Old Sawmill Road"/>
    <tag k="addr:state" v="VT"/>
    <tag k="ref:vcgi:esiteid" v="184690"/>
  </node>
  <node id="-741" visible="true" lat="43.80312806" lon="-73.29836284">
    <tag k="addr:housenumber" v="56"/>
    <tag k="addr:street" v="Roberts Avenue"/>
    <tag k="addr:state" v="VT"/>
    <tag k="ref:vcgi:esiteid" v="184692"/>
  </node>
  <node id="-742" visible="true" lat="43.80284865" lon="-73.29842604">
    <tag k="addr:housenumber" v="60"/>
    <tag k="addr:street" v="Roberts Avenue"/>
    <tag k="addr:state" v="VT"/>
    <tag k="ref:vcgi:esiteid" v="184693"/>
  </node>
  <node id="-743" visible="true" lat="43.8028347" lon="-73.29807937">
    <tag k="addr:housenumber" v="54"/>
    <tag k="addr:street" v="Roberts Avenue"/>
    <tag k="addr:state" v="VT"/>
    <tag k="ref:vcgi:esiteid" v="184694"/>
  </node>
  <node id="-744" visible="true" lat="43.80281258" lon="-73.29788384">
    <tag k="addr:housenumber" v="50"/>
    <tag k="addr:street" v="Roberts Avenue"/>
    <tag k="addr:state" v="VT"/>
    <tag k="ref:vcgi:esiteid" v="184695"/>
  </node>
  <node id="-751" visible="true" lat="43.84313255" lon="-73.36595073">
    <tag k="addr:housenumber" v="3"/>
    <tag k="addr:street" v="Sampson Road"/>
    <tag k="addr:state" v="VT"/>
    <tag k="ref:vcgi:esiteid" v="184702"/>
  </node>
  <node id="-752" visible="true" lat="43.84272557" lon="-73.36613032">
    <tag k="addr:housenumber" v="2"/>
    <tag k="addr:street" v="Sampson Road"/>
    <tag k="addr:state" v="VT"/>
    <tag k="ref:vcgi:esiteid" v="184703"/>
  </node>
  <node id="-761" visible="true" lat="43.80617271" lon="-73.29568486">
    <tag k="addr:housenumber" v="77"/>
    <tag k="addr:street" v="North Orwell Road"/>
    <tag k="addr:state" v="VT"/>
    <tag k="ref:vcgi:esiteid" v="184712"/>
  </node>
  <node id="-762" visible="true" lat="43.80429558" lon="-73.29733436">
    <tag k="addr:housenumber" v="11"/>
    <tag k="addr:street" v="North Orwell Road"/>
    <tag k="addr:state" v="VT"/>
    <tag k="ref:vcgi:esiteid" v="184713"/>
  </node>
  <node id="-803" visible="true" lat="43.84754845" lon="-73.24007543">
    <tag k="addr:housenumber" v="54"/>
    <tag k="addr:street" v="Murray Road"/>
    <tag k="addr:state" v="VT"/>
    <tag k="ref:vcgi:esiteid" v="184754"/>
  </node>
  <node id="-806" visible="true" lat="43.80407183" lon="-73.29661313">
    <tag k="addr:housenumber" v="546"/>
    <tag k="addr:street" v="Main Street"/>
    <tag k="addr:state" v="VT"/>
    <tag k="ref:vcgi:esiteid" v="184758"/>
  </node>
  <node id="-818" visible="true" lat="43.81169232" lon="-73.28032081">
    <tag k="addr:housenumber" v="66"/>
    <tag k="addr:street" v="Daigneault Hill Road"/>
    <tag k="addr:state" v="VT"/>
    <tag k="ref:vcgi:esiteid" v="184771"/>
  </node>
  <node id="-820" visible="true" lat="43.83921891" lon="-73.21973839">
    <tag k="addr:housenumber" v="302"/>
    <tag k="addr:street" v="Old Sawmill Road"/>
    <tag k="addr:state" v="VT"/>
    <tag k="ref:vcgi:esiteid" v="184773"/>
  </node>
  <node id="-835" visible="true" lat="43.81133069" lon="-73.279221">
    <tag k="addr:housenumber" v="81"/>
    <tag k="addr:street" v="Daigneault Hill Road"/>
    <tag k="addr:state" v="VT"/>
    <tag k="ref:vcgi:esiteid" v="309216"/>
  </node>
  <node id="-838" visible="true" lat="43.81441984" lon="-73.27999974">
    <tag k="addr:housenumber" v="68"/>
    <tag k="addr:street" v="Daigneault Hill Road"/>
    <tag k="addr:state" v="VT"/>
    <tag k="ref:vcgi:esiteid" v="315213"/>
  </node>
  <node id="-873" visible="true" lat="43.80957231" lon="-73.29090055">
    <tag k="addr:housenumber" v="18"/>
    <tag k="addr:street" v="Daigneault Hill Road"/>
    <tag k="addr:state" v="VT"/>
    <tag k="ref:vcgi:esiteid" v="451954"/>
  </node>
  <node id="-916" visible="true" lat="43.80407729" lon="-73.29653521">
    <tag k="addr:housenumber" v="548"/>
    <tag k="addr:street" v="Main Street"/>
    <tag k="addr:state" v="VT"/>
    <tag k="ref:vcgi:esiteid" v="763401"/>
  </node>
</osm>
