<?xml version="1.0" encoding="UTF-8"?>
<osm version="0.6" generator="JOSM">
  <node id="-142" visible="true" lat="43.37979507" lon="-73.19402313">
    <!-- conflict: "3341 Vermont Route 30, Pawlet, VT" No match in OSM, but a different address exists <5m away: "3341 Vt Route 30, Pawlet, VT" -->
    <tag k="addr:city" v="Pawlet"/>
    <tag k="addr:housenumber" v="3341"/>
    <tag k="addr:street" v="Vermont Route 30"/>
    <tag k="addr:state" v="VT"/>
    <tag k="ref:vcgi:esiteid" v="185294"/>
  </node>
  <node id="-156" visible="true" lat="43.37583771" lon="-73.19947863">
    <!-- conflict: "3069 Vermont Route 30, Pawlet, VT" No match in OSM, but a different address exists <5m away: "3069 Vt Route 30, Pawlet, VT" -->
    <tag k="addr:city" v="Pawlet"/>
    <tag k="addr:housenumber" v="3069"/>
    <tag k="addr:street" v="Vermont Route 30"/>
    <tag k="addr:state" v="VT"/>
    <tag k="ref:vcgi:esiteid" v="185323"/>
  </node>
  <node id="-157" visible="true" lat="43.37576053" lon="-73.20003014">
    <!-- conflict: "3053 Vermont Route 30, Pawlet, VT" No match in OSM, but a different address exists <5m away: "3053 Vt Route 30, West Pawlet, VT" -->
    <tag k="addr:city" v="Pawlet"/>
    <tag k="addr:housenumber" v="3053"/>
    <tag k="addr:street" v="Vermont Route 30"/>
    <tag k="addr:state" v="VT"/>
    <tag k="ref:vcgi:esiteid" v="185324"/>
  </node>
  <node id="-161" visible="true" lat="43.37509536" lon="-73.19396972">
    <!-- conflict: "3339 Vermont Route 30, Pawlet, VT" No match in OSM, but a different address exists <5m away: "3339 Vt Route 30, Pawlet, VT" -->
    <tag k="addr:city" v="Pawlet"/>
    <tag k="addr:housenumber" v="3339"/>
    <tag k="addr:street" v="Vermont Route 30"/>
    <tag k="addr:state" v="VT"/>
    <tag k="ref:vcgi:esiteid" v="185328"/>
  </node>
  <node id="-177" visible="true" lat="43.37248993" lon="-73.19017029">
    <!-- conflict: "3618 Vermont Route 30, Pawlet, VT" No match in OSM, but a different address exists <5m away: "3618 Vt Route 30, Pawlet, VT" -->
    <tag k="addr:city" v="Pawlet"/>
    <tag k="addr:housenumber" v="3618"/>
    <tag k="addr:street" v="Vermont Route 30"/>
    <tag k="addr:state" v="VT"/>
    <tag k="ref:vcgi:esiteid" v="185349"/>
  </node>
  <node id="-180" visible="true" lat="43.3717916" lon="-73.18826966">
    <!-- conflict: "3723 Vermont Route 30, Pawlet, VT" No match in OSM, but a different address exists <5m away: "3723 Vt Route 30, Pawlet, VT" -->
    <tag k="addr:city" v="Pawlet"/>
    <tag k="addr:housenumber" v="3723"/>
    <tag k="addr:street" v="Vermont Route 30"/>
    <tag k="addr:state" v="VT"/>
    <tag k="ref:vcgi:esiteid" v="185356"/>
  </node>
  <node id="-191" visible="true" lat="43.37051198" lon="-73.18586176">
    <!-- conflict: "3871 Vermont Route 30, Pawlet, VT" No match in OSM, but a different address exists <5m away: "3871 Vt Route 30, Pawlet, VT" -->
    <tag k="addr:city" v="Pawlet"/>
    <tag k="addr:housenumber" v="3871"/>
    <tag k="addr:street" v="Vermont Route 30"/>
    <tag k="addr:state" v="VT"/>
    <tag k="ref:vcgi:esiteid" v="185369"/>
  </node>
  <node id="-200" visible="true" lat="43.36971076" lon="-73.18507507">
    <!-- conflict: "3937 Vermont Route 30, Pawlet, VT" No match in OSM, but a different address exists <5m away: "3937 Vt Route 30, Pawlet, VT" -->
    <tag k="addr:city" v="Pawlet"/>
    <tag k="addr:housenumber" v="3937"/>
    <tag k="addr:street" v="Vermont Route 30"/>
    <tag k="addr:state" v="VT"/>
    <tag k="ref:vcgi:esiteid" v="185380"/>
  </node>
  <node id="-235" visible="true" lat="43.35979843" lon="-73.1842575">
    <!-- conflict: "4617 Vermont Route 30, Pawlet, VT" No match in OSM, but a different address exists <5m away: "4617 Vt Route 30, Pawlet, VT" -->
    <tag k="addr:city" v="Pawlet"/>
    <tag k="addr:housenumber" v="4617"/>
    <tag k="addr:street" v="Vermont Route 30"/>
    <tag k="addr:state" v="VT"/>
    <tag k="ref:vcgi:esiteid" v="185454"/>
  </node>
  <node id="-236" visible="true" lat="43.35961151" lon="-73.18432617">
    <!-- conflict: "4629 Vermont Route 30, Pawlet, VT" No match in OSM, but a different address exists <5m away: "4629 Vt Route 30, Pawlet, VT" -->
    <tag k="addr:city" v="Pawlet"/>
    <tag k="addr:housenumber" v="4629"/>
    <tag k="addr:street" v="Vermont Route 30"/>
    <tag k="addr:state" v="VT"/>
    <tag k="ref:vcgi:esiteid" v="185456"/>
  </node>
  <node id="-268" visible="true" lat="43.35391616" lon="-73.18056487">
    <!-- conflict: "5063 Vermont Route 30, Pawlet, VT" No match in OSM, but a different address exists <5m away: "5063 Vt Route 30, Pawlet, VT" -->
    <tag k="addr:city" v="Pawlet"/>
    <tag k="addr:housenumber" v="5063"/>
    <tag k="addr:street" v="Vermont Route 30"/>
    <tag k="addr:state" v="VT"/>
    <tag k="ref:vcgi:esiteid" v="185553"/>
  </node>
  <node id="-273" visible="true" lat="43.3528862" lon="-73.15234375">
    <!-- conflict: "1382 Vermont Route 133, Pawlet, VT" No match in OSM, but a different address exists <5m away: "1382 Vt Route 133, Pawlet, VT" -->
    <tag k="addr:city" v="Pawlet"/>
    <tag k="addr:housenumber" v="1382"/>
    <tag k="addr:street" v="Vermont Route 133"/>
    <tag k="addr:state" v="VT"/>
    <tag k="ref:vcgi:esiteid" v="185578"/>
  </node>
  <node id="-276" visible="true" lat="43.35216723" lon="-73.18205423">
    <!-- conflict: "5170 Vermont Route 30, Pawlet, VT" No match in OSM, but a different address exists <5m away: "5170 Vt Route 30, Pawlet, VT" -->
    <tag k="addr:city" v="Pawlet"/>
    <tag k="addr:housenumber" v="5170"/>
    <tag k="addr:street" v="Vermont Route 30"/>
    <tag k="addr:state" v="VT"/>
    <tag k="ref:vcgi:esiteid" v="185587"/>
  </node>
  <node id="-279" visible="true" lat="43.3510437" lon="-73.18235778">
    <!-- conflict: "5258 Vermont Route 30, Pawlet, VT" No match in OSM, but a different address exists <5m away: "5258 Vt Route 30, Pawlet, VT" -->
    <tag k="addr:city" v="Pawlet"/>
    <tag k="addr:housenumber" v="5258"/>
    <tag k="addr:street" v="Vermont Route 30"/>
    <tag k="addr:state" v="VT"/>
    <tag k="ref:vcgi:esiteid" v="185599"/>
  </node>
  <node id="-286" visible="true" lat="43.34901809" lon="-73.1606903">
    <!-- conflict: "875 Vermont Route 133, Pawlet, VT" No match in OSM, but a different address exists <5m away: "875 Vt Route 133, Pawlet, VT" -->
    <tag k="addr:city" v="Pawlet"/>
    <tag k="addr:housenumber" v="875"/>
    <tag k="addr:street" v="Vermont Route 133"/>
    <tag k="addr:state" v="VT"/>
    <tag k="ref:vcgi:esiteid" v="185609"/>
  </node>
  <node id="-290" visible="true" lat="43.34884262" lon="-73.1630783">
    <!-- conflict: "735 Vermont Route 133, Pawlet, VT" No match in OSM, but a different address exists <5m away: "735 Vt Route 133, Pawlet, VT" -->
    <tag k="addr:city" v="Pawlet"/>
    <tag k="addr:housenumber" v="735"/>
    <tag k="addr:street" v="Vermont Route 133"/>
    <tag k="addr:state" v="VT"/>
    <tag k="ref:vcgi:esiteid" v="185613"/>
  </node>
  <node id="-294" visible="true" lat="43.34846878" lon="-73.16296386">
    <!-- conflict: "733 Vermont Route 133, Pawlet, VT" No match in OSM, but a different address exists <5m away: "733 Vt Route 133, Pawlet, VT" -->
    <tag k="addr:city" v="Pawlet"/>
    <tag k="addr:housenumber" v="733"/>
    <tag k="addr:street" v="Vermont Route 133"/>
    <tag k="addr:state" v="VT"/>
    <tag k="ref:vcgi:esiteid" v="185617"/>
  </node>
  <node id="-298" visible="true" lat="43.34839128" lon="-73.16424218">
    <!-- conflict: "681 Vermont Route 133, Pawlet, VT" No match in OSM, but a different address exists <5m away: "681 Vt Route 133, Pawlet, VT" -->
    <tag k="addr:city" v="Pawlet"/>
    <tag k="addr:housenumber" v="681"/>
    <tag k="addr:street" v="Vermont Route 133"/>
    <tag k="addr:state" v="VT"/>
    <tag k="ref:vcgi:esiteid" v="185621"/>
  </node>
  <node id="-302" visible="true" lat="43.34825515" lon="-73.16283416">
    <!-- conflict: "751 Vermont Route 133, Pawlet, VT" No match in OSM, but a different address exists <5m away: "751 Vt Route 133, Pawlet, VT" -->
    <tag k="addr:city" v="Pawlet"/>
    <tag k="addr:housenumber" v="751"/>
    <tag k="addr:street" v="Vermont Route 133"/>
    <tag k="addr:state" v="VT"/>
    <tag k="ref:vcgi:esiteid" v="185625"/>
  </node>
  <node id="-304" visible="true" lat="43.34814834" lon="-73.17326355">
    <!-- conflict: "225 Vermont Route 133, Pawlet, VT" No match in OSM, but a different address exists <5m away: "225 Vt Route 133, Pawlet, VT" -->
    <tag k="addr:city" v="Pawlet"/>
    <tag k="addr:housenumber" v="225"/>
    <tag k="addr:street" v="Vermont Route 133"/>
    <tag k="addr:state" v="VT"/>
    <tag k="ref:vcgi:esiteid" v="185627"/>
  </node>
  <node id="-307" visible="true" lat="43.34809494" lon="-73.17119598">
    <!-- conflict: "328 Vermont Route 133, Pawlet, VT" No match in OSM, but a different address exists <5m away: "328 Vt Route 133, Pawlet, VT" -->
    <tag k="addr:city" v="Pawlet"/>
    <tag k="addr:housenumber" v="328"/>
    <tag k="addr:street" v="Vermont Route 133"/>
    <tag k="addr:state" v="VT"/>
    <tag k="ref:vcgi:esiteid" v="185630"/>
  </node>
  <node id="-311" visible="true" lat="43.34792327" lon="-73.17297363">
    <!-- conflict: "232 Vermont Route 133, Pawlet, VT" No match in OSM, but a different address exists <5m away: "232 Vt Route 133, Pawlet, VT" -->
    <tag k="addr:city" v="Pawlet"/>
    <tag k="addr:housenumber" v="232"/>
    <tag k="addr:street" v="Vermont Route 133"/>
    <tag k="addr:state" v="VT"/>
    <tag k="ref:vcgi:esiteid" v="185636"/>
  </node>
  <node id="-316" visible="true" lat="43.34785842" lon="-73.17402648">
    <!-- conflict: "183 Vermont Route 133, Pawlet, VT" No match in OSM, but a different address exists <5m away: "183 Vt Route 133, Pawlet, VT" -->
    <tag k="addr:city" v="Pawlet"/>
    <tag k="addr:housenumber" v="183"/>
    <tag k="addr:street" v="Vermont Route 133"/>
    <tag k="addr:state" v="VT"/>
    <tag k="ref:vcgi:esiteid" v="185641"/>
  </node>
  <node id="-319" visible="true" lat="43.34781515" lon="-73.17095469">
    <!-- conflict: "354 Vermont Route 133, Pawlet, VT" No match in OSM, but a different address exists <5m away: "354 Vt Route 133, Pawlet, VT" -->
    <tag k="addr:city" v="Pawlet"/>
    <tag k="addr:housenumber" v="354"/>
    <tag k="addr:street" v="Vermont Route 133"/>
    <tag k="addr:state" v="VT"/>
    <tag k="ref:vcgi:esiteid" v="185644"/>
  </node>
  <node id="-320" visible="true" lat="43.34782176" lon="-73.18090881">
    <!-- conflict: "5581 Vermont Route 30, Pawlet, VT" No match in OSM, but a different address exists <5m away: "5581 Vt Route 30, Pawlet, VT" -->
    <tag k="addr:city" v="Pawlet"/>
    <tag k="addr:housenumber" v="5581"/>
    <tag k="addr:street" v="Vermont Route 30"/>
    <tag k="addr:state" v="VT"/>
    <tag k="ref:vcgi:esiteid" v="185645"/>
  </node>
  <node id="-321" visible="true" lat="43.34771286" lon="-73.17355287">
    <!-- conflict: "200 Vermont Route 133, Pawlet, VT" No match in OSM, but a different address exists <5m away: "200 Vt Route 133, Pawlet, VT" -->
    <tag k="addr:city" v="Pawlet"/>
    <tag k="addr:housenumber" v="200"/>
    <tag k="addr:street" v="Vermont Route 133"/>
    <tag k="addr:state" v="VT"/>
    <tag k="ref:vcgi:esiteid" v="185646"/>
  </node>
  <node id="-326" visible="true" lat="43.3473787" lon="-73.1742055">
    <!-- conflict: "162 Vermont Route 133, Pawlet, VT" No match in OSM, but a different address exists <5m away: "162 Vt Route 133, Pawlet, VT" -->
    <tag k="addr:city" v="Pawlet"/>
    <tag k="addr:housenumber" v="162"/>
    <tag k="addr:street" v="Vermont Route 133"/>
    <tag k="addr:state" v="VT"/>
    <tag k="ref:vcgi:esiteid" v="185651"/>
  </node>
  <node id="-328" visible="true" lat="43.34732818" lon="-73.17459106">
    <!-- conflict: "140 Vermont Route 133, Pawlet, VT" No match in OSM, but a different address exists <5m away: "140 Vt Route 133, Pawlet, VT" -->
    <tag k="addr:city" v="Pawlet"/>
    <tag k="addr:housenumber" v="140"/>
    <tag k="addr:street" v="Vermont Route 133"/>
    <tag k="addr:state" v="VT"/>
    <tag k="ref:vcgi:esiteid" v="185653"/>
  </node>
  <node id="-330" visible="true" lat="43.34690097" lon="-73.17761492">
    <!-- conflict: "5707 Vermont Route 30, Pawlet, VT" No match in OSM, but a different address exists <5m away: "5707 Vt Route 30, Pawlet, VT" -->
    <tag k="addr:city" v="Pawlet"/>
    <tag k="addr:housenumber" v="5707"/>
    <tag k="addr:street" v="Vermont Route 30"/>
    <tag k="addr:state" v="VT"/>
    <tag k="ref:vcgi:esiteid" v="185656"/>
  </node>
  <node id="-331" visible="true" lat="43.34688339" lon="-73.1768282">
    <!-- conflict: "27 Vermont Route 133, Pawlet, VT" No match in OSM, but a different address exists <5m away: "27 Vt Route 133, Pawlet, VT" -->
    <tag k="addr:city" v="Pawlet"/>
    <tag k="addr:housenumber" v="27"/>
    <tag k="addr:street" v="Vermont Route 133"/>
    <tag k="addr:state" v="VT"/>
    <tag k="ref:vcgi:esiteid" v="185657"/>
  </node>
  <node id="-332" visible="true" lat="43.34669265" lon="-73.17656103">
    <!-- conflict: "38 Vermont Route 133, Pawlet, VT" No match in OSM, but a different address exists <5m away: "38 Vt Route 133, Pawlet, VT" -->
    <tag k="addr:city" v="Pawlet"/>
    <tag k="addr:housenumber" v="38"/>
    <tag k="addr:street" v="Vermont Route 133"/>
    <tag k="addr:state" v="VT"/>
    <tag k="ref:vcgi:esiteid" v="185659"/>
  </node>
  <node id="-335" visible="true" lat="43.34651544" lon="-73.17703828">
    <!-- conflict: "6 Vermont Route 133, Pawlet, VT" No match in OSM, but a different address exists <5m away: "6 Vt Route 133, Pawlet, VT" -->
    <tag k="addr:city" v="Pawlet"/>
    <tag k="addr:housenumber" v="6"/>
    <tag k="addr:street" v="Vermont Route 133"/>
    <tag k="addr:state" v="VT"/>
    <tag k="ref:vcgi:esiteid" v="185662"/>
  </node>
  <node id="-337" visible="true" lat="43.34630203" lon="-73.17703247">
    <!-- conflict: "5757 Vermont Route 30, Pawlet, VT" No match in OSM, but a different address exists <5m away: "5757 Vt Route 30, Pawlet, VT" -->
    <tag k="addr:city" v="Pawlet"/>
    <tag k="addr:housenumber" v="5757"/>
    <tag k="addr:street" v="Vermont Route 30"/>
    <tag k="addr:state" v="VT"/>
    <tag k="ref:vcgi:esiteid" v="185665"/>
  </node>
  <node id="-342" visible="true" lat="43.34598541" lon="-73.1774826">
    <!-- conflict: "5782 Vermont Route 30, Pawlet, VT" No match in OSM, but a different address exists <5m away: "5782 Vt Route 30, Pawlet, VT" -->
    <tag k="addr:city" v="Pawlet"/>
    <tag k="addr:housenumber" v="5782"/>
    <tag k="addr:street" v="Vermont Route 30"/>
    <tag k="addr:state" v="VT"/>
    <tag k="ref:vcgi:esiteid" v="185670"/>
  </node>
  <node id="-344" visible="true" lat="43.3459366" lon="-73.17705361">
    <!-- conflict: "5807 Vermont Route 30, Pawlet, VT" No match in OSM, but a different address exists <5m away: "5807 Vt Route 30, Pawlet, VT" -->
    <tag k="addr:city" v="Pawlet"/>
    <tag k="addr:housenumber" v="5807"/>
    <tag k="addr:street" v="Vermont Route 30"/>
    <tag k="addr:state" v="VT"/>
    <tag k="ref:vcgi:esiteid" v="185672"/>
  </node>
  <node id="-358" visible="true" lat="43.34534454" lon="-73.17753601">
    <!-- conflict: "5826 Vermont Route 30, Pawlet, VT" No match in OSM, but a different address exists <5m away: "5826 Vt Route 30, Pawlet, VT" -->
    <tag k="addr:city" v="Pawlet"/>
    <tag k="addr:housenumber" v="5826"/>
    <tag k="addr:street" v="Vermont Route 30"/>
    <tag k="addr:state" v="VT"/>
    <tag k="ref:vcgi:esiteid" v="185687"/>
  </node>
  <node id="-362" visible="true" lat="43.3452755" lon="-73.17716584">
    <!-- conflict: "5829 Vermont Route 30, Pawlet, VT" No match in OSM, but a different address exists <5m away: "5829 Vt Route 30, Pawlet, VT" -->
    <tag k="addr:city" v="Pawlet"/>
    <tag k="addr:housenumber" v="5829"/>
    <tag k="addr:street" v="Vermont Route 30"/>
    <tag k="addr:state" v="VT"/>
    <tag k="ref:vcgi:esiteid" v="185691"/>
  </node>
  <node id="-363" visible="true" lat="43.34521102" lon="-73.17755127">
    <!-- conflict: "5834 Vermont Route 30, Pawlet, VT" No match in OSM, but a different address exists <5m away: "5834 Vt Route 30, Pawlet, VT" -->
    <tag k="addr:city" v="Pawlet"/>
    <tag k="addr:housenumber" v="5834"/>
    <tag k="addr:street" v="Vermont Route 30"/>
    <tag k="addr:state" v="VT"/>
    <tag k="ref:vcgi:esiteid" v="185692"/>
  </node>
  <node id="-366" visible="true" lat="43.344944" lon="-73.17757415">
    <!-- conflict: "5852 Vermont Route 30, Pawlet, VT" No match in OSM, but a different address exists <5m away: "5852 Vt Route 30, Pawlet, VT" -->
    <tag k="addr:city" v="Pawlet"/>
    <tag k="addr:housenumber" v="5852"/>
    <tag k="addr:street" v="Vermont Route 30"/>
    <tag k="addr:state" v="VT"/>
    <tag k="ref:vcgi:esiteid" v="185695"/>
  </node>
  <node id="-368" visible="true" lat="43.34477224" lon="-73.17707799">
    <!-- conflict: "5859 Vermont Route 30, Pawlet, VT" No match in OSM, but a different address exists <5m away: "5859 Vt Route 30, Pawlet, VT" -->
    <tag k="addr:city" v="Pawlet"/>
    <tag k="addr:housenumber" v="5859"/>
    <tag k="addr:street" v="Vermont Route 30"/>
    <tag k="addr:state" v="VT"/>
    <tag k="ref:vcgi:esiteid" v="185698"/>
  </node>
  <node id="-371" visible="true" lat="43.34475477" lon="-73.17779607">
    <!-- conflict: "5866 Vermont Route 30, Pawlet, VT" No match in OSM, but a different address exists <5m away: "5866 Vt Route 30, Pawlet, VT" -->
    <tag k="addr:city" v="Pawlet"/>
    <tag k="addr:housenumber" v="5866"/>
    <tag k="addr:street" v="Vermont Route 30"/>
    <tag k="addr:state" v="VT"/>
    <tag k="ref:vcgi:esiteid" v="185702"/>
  </node>
  <node id="-373" visible="true" lat="43.3445549" lon="-73.17751312">
    <!-- conflict: "5878 Vermont Route 30, Pawlet, VT" No match in OSM, but a different address exists <5m away: "5878 Vt Route 30, Pawlet, VT" -->
    <tag k="addr:city" v="Pawlet"/>
    <tag k="addr:housenumber" v="5878"/>
    <tag k="addr:street" v="Vermont Route 30"/>
    <tag k="addr:state" v="VT"/>
    <tag k="ref:vcgi:esiteid" v="185704"/>
  </node>
  <node id="-374" visible="true" lat="43.34431554" lon="-73.17694068">
    <!-- conflict: "5901 Vermont Route 30, Pawlet, VT" No match in OSM, but a different address exists <5m away: "5901 Vt Route 30, Pawlet, VT" -->
    <tag k="addr:city" v="Pawlet"/>
    <tag k="addr:housenumber" v="5901"/>
    <tag k="addr:street" v="Vermont Route 30"/>
    <tag k="addr:state" v="VT"/>
    <tag k="ref:vcgi:esiteid" v="185705"/>
  </node>
  <node id="-375" visible="true" lat="43.34430695" lon="-73.1778093">
    <!-- conflict: "5894 Vermont Route 30, Pawlet, VT" No match in OSM, but a different address exists <5m away: "5894 Vt Route 30, Pawlet, VT" -->
    <tag k="addr:city" v="Pawlet"/>
    <tag k="addr:housenumber" v="5894"/>
    <tag k="addr:street" v="Vermont Route 30"/>
    <tag k="addr:state" v="VT"/>
    <tag k="ref:vcgi:esiteid" v="185706"/>
  </node>
  <node id="-377" visible="true" lat="43.34404393" lon="-73.17778208">
    <!-- conflict: "5892 Vermont Route 30, Pawlet, VT" No match in OSM, but a different address exists <5m away: "5892 Vt Route 30, Pawlet, VT" -->
    <tag k="addr:city" v="Pawlet"/>
    <tag k="addr:housenumber" v="5892"/>
    <tag k="addr:street" v="Vermont Route 30"/>
    <tag k="addr:state" v="VT"/>
    <tag k="ref:vcgi:esiteid" v="185708"/>
  </node>
  <node id="-379" visible="true" lat="43.3438252" lon="-73.17686241">
    <!-- conflict: "5919 Vermont Route 30, Pawlet, VT" No match in OSM, but a different address exists <5m away: "5919 Vt Route 30, Pawlet, VT" -->
    <tag k="addr:city" v="Pawlet"/>
    <tag k="addr:housenumber" v="5919"/>
    <tag k="addr:street" v="Vermont Route 30"/>
    <tag k="addr:state" v="VT"/>
    <tag k="ref:vcgi:esiteid" v="185710"/>
  </node>
  <node id="-381" visible="true" lat="43.34355228" lon="-73.17819423">
    <!-- conflict: "5936 Vermont Route 30, Pawlet, VT" No match in OSM, but a different address exists <5m away: "5936 Vt Route 30, Pawlet, VT" -->
    <tag k="addr:city" v="Pawlet"/>
    <tag k="addr:housenumber" v="5936"/>
    <tag k="addr:street" v="Vermont Route 30"/>
    <tag k="addr:state" v="VT"/>
    <tag k="ref:vcgi:esiteid" v="185712"/>
  </node>
  <node id="-383" visible="true" lat="43.34344863" lon="-73.17678833">
    <!-- conflict: "5973 Vermont Route 30, Pawlet, VT" No match in OSM, but a different address exists <5m away: "5973 Vt Route 30, Pawlet, VT" -->
    <tag k="addr:city" v="Pawlet"/>
    <tag k="addr:housenumber" v="5973"/>
    <tag k="addr:street" v="Vermont Route 30"/>
    <tag k="addr:state" v="VT"/>
    <tag k="ref:vcgi:esiteid" v="185714"/>
  </node>
  <node id="-392" visible="true" lat="43.34192275" lon="-73.17758941">
    <!-- conflict: "6022 Vermont Route 30, Pawlet, VT" No match in OSM, but a different address exists <5m away: "6022 Vt Route 30, Pawlet, VT" -->
    <tag k="addr:city" v="Pawlet"/>
    <tag k="addr:housenumber" v="6022"/>
    <tag k="addr:street" v="Vermont Route 30"/>
    <tag k="addr:state" v="VT"/>
    <tag k="ref:vcgi:esiteid" v="185725"/>
  </node>
  <node id="-396" visible="true" lat="43.34106063" lon="-73.17629241">
    <!-- conflict: "6147 Vermont Route 30, Pawlet, VT" No match in OSM, but a different address exists <5m away: "6147 Vt Route 30, Pawlet, VT" -->
    <tag k="addr:city" v="Pawlet"/>
    <tag k="addr:housenumber" v="6147"/>
    <tag k="addr:street" v="Vermont Route 30"/>
    <tag k="addr:state" v="VT"/>
    <tag k="ref:vcgi:esiteid" v="185729"/>
  </node>
  <node id="-399" visible="true" lat="43.34044265" lon="-73.17827606">
    <!-- conflict: "6138 Vermont Route 30, Pawlet, VT" No match in OSM, but a different address exists <5m away: "6138 Vt Route 30, Pawlet, VT" -->
    <tag k="addr:city" v="Pawlet"/>
    <tag k="addr:housenumber" v="6138"/>
    <tag k="addr:street" v="Vermont Route 30"/>
    <tag k="addr:state" v="VT"/>
    <tag k="ref:vcgi:esiteid" v="185733"/>
  </node>
  <node id="-400" visible="true" lat="43.34050604" lon="-73.17613941">
    <!-- conflict: "6165 Vermont Route 30, Pawlet, VT" No match in OSM, but a different address exists <5m away: "6165 Vt Route 30, Pawlet, VT" -->
    <tag k="addr:city" v="Pawlet"/>
    <tag k="addr:housenumber" v="6165"/>
    <tag k="addr:street" v="Vermont Route 30"/>
    <tag k="addr:state" v="VT"/>
    <tag k="ref:vcgi:esiteid" v="185734"/>
  </node>
  <node id="-401" visible="true" lat="43.34030914" lon="-73.17429351">
    <!-- conflict: "6181 Vermont Route 30, Pawlet, VT" No match in OSM, but a different address exists <5m away: "6181 Vt Route 30, Pawlet, VT" -->
    <tag k="addr:city" v="Pawlet"/>
    <tag k="addr:housenumber" v="6181"/>
    <tag k="addr:street" v="Vermont Route 30"/>
    <tag k="addr:state" v="VT"/>
    <tag k="ref:vcgi:esiteid" v="185736"/>
  </node>
  <node id="-411" visible="true" lat="43.33841705" lon="-73.17693328">
    <!-- conflict: "6304 Vermont Route 30, Pawlet, VT" No match in OSM, but a different address exists <5m away: "6304 Vt Route 30, Pawlet, VT" -->
    <tag k="addr:city" v="Pawlet"/>
    <tag k="addr:housenumber" v="6304"/>
    <tag k="addr:street" v="Vermont Route 30"/>
    <tag k="addr:state" v="VT"/>
    <tag k="ref:vcgi:esiteid" v="185746"/>
  </node>
  <node id="-431" visible="true" lat="43.33208846" lon="-73.17463683">
    <!-- conflict: "6821 Vermont Route 30, Pawlet, VT" No match in OSM, but a different address exists <5m away: "6821 Vt Route 30, Pawlet, VT" -->
    <tag k="addr:city" v="Pawlet"/>
    <tag k="addr:housenumber" v="6821"/>
    <tag k="addr:street" v="Vermont Route 30"/>
    <tag k="addr:state" v="VT"/>
    <tag k="ref:vcgi:esiteid" v="185777"/>
  </node>
  <node id="-436" visible="true" lat="43.33070373" lon="-73.17497253">
    <!-- conflict: "6852 Vermont Route 30, Pawlet, VT" No match in OSM, but a different address exists <5m away: "6852 Vt Route 30, Pawlet, VT" -->
    <tag k="addr:city" v="Pawlet"/>
    <tag k="addr:housenumber" v="6852"/>
    <tag k="addr:street" v="Vermont Route 30"/>
    <tag k="addr:state" v="VT"/>
    <tag k="ref:vcgi:esiteid" v="185784"/>
  </node>
  <node id="-437" visible="true" lat="43.33037185" lon="-73.17409515">
    <!-- conflict: "6891 Vermont Route 30, Pawlet, VT" No match in OSM, but a different address exists <5m away: "6891 Vt Route 30, Pawlet, VT" -->
    <tag k="addr:city" v="Pawlet"/>
    <tag k="addr:housenumber" v="6891"/>
    <tag k="addr:street" v="Vermont Route 30"/>
    <tag k="addr:state" v="VT"/>
    <tag k="ref:vcgi:esiteid" v="185785"/>
  </node>
  <node id="-438" visible="true" lat="43.33031463" lon="-73.17373657">
    <!-- conflict: "6911 Vermont Route 30, Pawlet, VT" No match in OSM, but a different address exists <5m away: "6911 Vt Route 30, Pawlet, VT" -->
    <tag k="addr:city" v="Pawlet"/>
    <tag k="addr:housenumber" v="6911"/>
    <tag k="addr:street" v="Vermont Route 30"/>
    <tag k="addr:state" v="VT"/>
    <tag k="ref:vcgi:esiteid" v="185786"/>
  </node>
  <node id="-440" visible="true" lat="43.33007431" lon="-73.17386627">
    <!-- conflict: "6913 Vermont Route 30, Pawlet, VT" No match in OSM, but a different address exists <5m away: "6913 Vt Route 30, Pawlet, VT" -->
    <tag k="addr:city" v="Pawlet"/>
    <tag k="addr:housenumber" v="6913"/>
    <tag k="addr:street" v="Vermont Route 30"/>
    <tag k="addr:state" v="VT"/>
    <tag k="ref:vcgi:esiteid" v="185788"/>
  </node>
  <node id="-441" visible="true" lat="43.32986669" lon="-73.17455422">
    <!-- conflict: "6910 Vermont Route 30, Pawlet, VT" No match in OSM, but a different address exists <5m away: "6910 Vt Route 30, Pawlet, VT" -->
    <tag k="addr:city" v="Pawlet"/>
    <tag k="addr:housenumber" v="6910"/>
    <tag k="addr:street" v="Vermont Route 30"/>
    <tag k="addr:state" v="VT"/>
    <tag k="ref:vcgi:esiteid" v="185790"/>
  </node>
  <node id="-446" visible="true" lat="43.32955169" lon="-73.1741867">
    <!-- conflict: "6942 Vermont Route 30, Pawlet, VT" No match in OSM, but a different address exists <5m away: "6942 Vt Route 30, Pawlet, VT" -->
    <tag k="addr:city" v="Pawlet"/>
    <tag k="addr:housenumber" v="6942"/>
    <tag k="addr:street" v="Vermont Route 30"/>
    <tag k="addr:state" v="VT"/>
    <tag k="ref:vcgi:esiteid" v="185796"/>
  </node>
  <node id="-447" visible="true" lat="43.32940673" lon="-73.17468261">
    <!-- conflict: "6954 Vermont Route 30, Pawlet, VT" No match in OSM, but a different address exists <5m away: "6954 Vt Route 30, Pawlet, VT" -->
    <tag k="addr:city" v="Pawlet"/>
    <tag k="addr:housenumber" v="6954"/>
    <tag k="addr:street" v="Vermont Route 30"/>
    <tag k="addr:state" v="VT"/>
    <tag k="ref:vcgi:esiteid" v="185797"/>
  </node>
  <node id="-449" visible="true" lat="43.32902526" lon="-73.17333984">
    <!-- conflict: "6991 Vermont Route 30, Pawlet, VT" No match in OSM, but a different address exists <5m away: "6991 Vt Route 30, Pawlet, VT" -->
    <tag k="addr:city" v="Pawlet"/>
    <tag k="addr:housenumber" v="6991"/>
    <tag k="addr:street" v="Vermont Route 30"/>
    <tag k="addr:state" v="VT"/>
    <tag k="ref:vcgi:esiteid" v="185800"/>
  </node>
  <node id="-451" visible="true" lat="43.3286972" lon="-73.17310333">
    <!-- conflict: "7017 Vermont Route 30, Pawlet, VT" No match in OSM, but a different address exists <5m away: "7017 Vt Route 30, Pawlet, VT" -->
    <tag k="addr:city" v="Pawlet"/>
    <tag k="addr:housenumber" v="7017"/>
    <tag k="addr:street" v="Vermont Route 30"/>
    <tag k="addr:state" v="VT"/>
    <tag k="ref:vcgi:esiteid" v="185802"/>
  </node>
  <node id="-452" visible="true" lat="43.32855605" lon="-73.1735382">
    <!-- conflict: "7016 Vermont Route 30, Pawlet, VT" No match in OSM, but a different address exists <5m away: "7016 Vt Route 30, Pawlet, VT" -->
    <tag k="addr:city" v="Pawlet"/>
    <tag k="addr:housenumber" v="7016"/>
    <tag k="addr:street" v="Vermont Route 30"/>
    <tag k="addr:state" v="VT"/>
    <tag k="ref:vcgi:esiteid" v="185803"/>
  </node>
  <node id="-453" visible="true" lat="43.32866726" lon="-73.17433145">
    <!-- conflict: "7008 Vermont Route 30, Pawlet, VT" No match in OSM, but a different address exists <5m away: "7008 Vt Route 30, Pawlet, VT" -->
    <tag k="addr:city" v="Pawlet"/>
    <tag k="addr:housenumber" v="7008"/>
    <tag k="addr:street" v="Vermont Route 30"/>
    <tag k="addr:state" v="VT"/>
    <tag k="ref:vcgi:esiteid" v="185804"/>
  </node>
  <node id="-456" visible="true" lat="43.32754516" lon="-73.17286682">
    <!-- conflict: "7094 Vermont Route 30, Pawlet, VT" No match in OSM, but a different address exists <5m away: "7094 Vt Route 30, Pawlet, VT" -->
    <tag k="addr:city" v="Pawlet"/>
    <tag k="addr:housenumber" v="7094"/>
    <tag k="addr:street" v="Vermont Route 30"/>
    <tag k="addr:state" v="VT"/>
    <tag k="ref:vcgi:esiteid" v="185808"/>
  </node>
  <node id="-457" visible="true" lat="43.32724762" lon="-73.17190551">
    <!-- conflict: "7135 Vermont Route 30, Pawlet, VT" No match in OSM, but a different address exists <5m away: "7135 Vt Route 30, Pawlet, VT" -->
    <tag k="addr:city" v="Pawlet"/>
    <tag k="addr:housenumber" v="7135"/>
    <tag k="addr:street" v="Vermont Route 30"/>
    <tag k="addr:state" v="VT"/>
    <tag k="ref:vcgi:esiteid" v="185809"/>
  </node>
  <node id="-476" visible="true" lat="43.32138061" lon="-73.17299652">
    <!-- conflict: "7550 Vermont Route 30, Pawlet, VT" No match in OSM, but a different address exists <5m away: "7550 Vt Route 30, Pawlet, VT" -->
    <tag k="addr:city" v="Pawlet"/>
    <tag k="addr:housenumber" v="7550"/>
    <tag k="addr:street" v="Vermont Route 30"/>
    <tag k="addr:state" v="VT"/>
    <tag k="ref:vcgi:esiteid" v="185846"/>
  </node>
  <node id="-487" visible="true" lat="43.31738281" lon="-73.17116546">
    <!-- conflict: "7837 Vermont Route 30, Pawlet, VT" No match in OSM, but a different address exists <5m away: "7837 Vt Route 30, Pawlet, VT" -->
    <tag k="addr:city" v="Pawlet"/>
    <tag k="addr:housenumber" v="7837"/>
    <tag k="addr:street" v="Vermont Route 30"/>
    <tag k="addr:state" v="VT"/>
    <tag k="ref:vcgi:esiteid" v="185861"/>
  </node>
  <node id="-489" visible="true" lat="43.31692123" lon="-73.17108154">
    <!-- conflict: "7869 Vermont Route 30, Pawlet, VT" No match in OSM, but a different address exists <5m away: "7869 Vt Route 30, Pawlet, VT" -->
    <tag k="addr:city" v="Pawlet"/>
    <tag k="addr:housenumber" v="7869"/>
    <tag k="addr:street" v="Vermont Route 30"/>
    <tag k="addr:state" v="VT"/>
    <tag k="ref:vcgi:esiteid" v="185863"/>
  </node>
  <node id="-490" visible="true" lat="43.31674575" lon="-73.17098236">
    <!-- conflict: "7883 Vermont Route 30, Pawlet, VT" No match in OSM, but a different address exists <5m away: "7883 Vt Route 30, Pawlet, VT" -->
    <tag k="addr:city" v="Pawlet"/>
    <tag k="addr:housenumber" v="7883"/>
    <tag k="addr:street" v="Vermont Route 30"/>
    <tag k="addr:state" v="VT"/>
    <tag k="ref:vcgi:esiteid" v="185864"/>
  </node>
  <node id="-495" visible="true" lat="43.31520984" lon="-73.17032583">
    <!-- conflict: "7995 Vermont Route 30, Pawlet, VT" No match in OSM, but a different address exists <5m away: "7995 Vt Route 30, Pawlet, VT" -->
    <tag k="addr:city" v="Pawlet"/>
    <tag k="addr:housenumber" v="7995"/>
    <tag k="addr:street" v="Vermont Route 30"/>
    <tag k="addr:state" v="VT"/>
    <tag k="ref:vcgi:esiteid" v="185871"/>
  </node>
  <node id="-499" visible="true" lat="43.31315558" lon="-73.17006109">
    <!-- conflict: "8128 Vermont Route 30, Pawlet, VT" No match in OSM, but a different address exists <5m away: "8128 Vt Route 30, Pawlet, VT" -->
    <tag k="addr:city" v="Pawlet"/>
    <tag k="addr:housenumber" v="8128"/>
    <tag k="addr:street" v="Vermont Route 30"/>
    <tag k="addr:state" v="VT"/>
    <tag k="ref:vcgi:esiteid" v="185875"/>
  </node>
  <node id="-503" visible="true" lat="43.31217598" lon="-73.16877083">
    <!-- conflict: "8217 Vermont Route 30, Pawlet, VT" No match in OSM, but a different address exists <5m away: "8217 Vt Route 30, Pawlet, VT" -->
    <tag k="addr:city" v="Pawlet"/>
    <tag k="addr:housenumber" v="8217"/>
    <tag k="addr:street" v="Vermont Route 30"/>
    <tag k="addr:state" v="VT"/>
    <tag k="ref:vcgi:esiteid" v="185879"/>
  </node>
  <node id="-509" visible="true" lat="43.32974624" lon="-73.17365264">
    <!-- conflict: "6935 Vermont Route 30, Pawlet, VT" No match in OSM, but a different address exists <5m away: "6935 Vt Route 30, Pawlet, VT" -->
    <tag k="addr:city" v="Pawlet"/>
    <tag k="addr:housenumber" v="6935"/>
    <tag k="addr:street" v="Vermont Route 30"/>
    <tag k="addr:state" v="VT"/>
    <tag k="ref:vcgi:esiteid" v="185890"/>
  </node>
  <node id="-512" visible="true" lat="43.33486938" lon="-73.17716217">
    <!-- conflict: "6564 Vermont Route 30, Pawlet, VT" No match in OSM, but a different address exists <5m away: "6564 Vt Route 30, Pawlet, VT" -->
    <tag k="addr:city" v="Pawlet"/>
    <tag k="addr:housenumber" v="6564"/>
    <tag k="addr:street" v="Vermont Route 30"/>
    <tag k="addr:state" v="VT"/>
    <tag k="ref:vcgi:esiteid" v="185894"/>
  </node>
  <node id="-531" visible="true" lat="43.40280674" lon="-73.12989607">
    <!-- conflict: "4891 Vermont Route 133, Pawlet, VT" No match in OSM, but a different address exists <5m away: "4891 Vt Route 133, Pawlet, VT" -->
    <tag k="addr:city" v="Pawlet"/>
    <tag k="addr:housenumber" v="4891"/>
    <tag k="addr:street" v="Vermont Route 133"/>
    <tag k="addr:state" v="VT"/>
    <tag k="ref:vcgi:esiteid" v="185925"/>
  </node>
</osm>
