<?xml version="1.0" encoding="UTF-8"?>
<osm version="0.6" generator="JOSM">
  <node id="-122" visible="true" lat="44.3716258" lon="-72.19031535">
    <tag k="addr:housenumber" v="2671"/>
    <tag k="addr:street" v="Slack Street"/>
    <tag k="addr:state" v="VT"/>
    <tag k="ref:vcgi:esiteid" v="185974"/>
  </node>
  <node id="-125" visible="true" lat="44.36997145" lon="-72.18364034">
    <tag k="addr:housenumber" v="3031"/>
    <tag k="addr:street" v="Slack Street"/>
    <tag k="addr:state" v="VT"/>
    <tag k="ref:vcgi:esiteid" v="185977"/>
  </node>
  <node id="-126" visible="true" lat="44.36971664" lon="-72.19226074">
    <tag k="addr:housenumber" v="2494"/>
    <tag k="addr:street" v="Slack Street"/>
    <tag k="addr:state" v="VT"/>
    <tag k="ref:vcgi:esiteid" v="185978"/>
  </node>
  <node id="-127" visible="true" lat="44.36737358" lon="-72.15267894">
    <tag k="addr:housenumber" v="1797"/>
    <tag k="addr:street" v="Peacham Danville Road"/>
    <tag k="addr:state" v="VT"/>
    <tag k="ref:vcgi:esiteid" v="185979"/>
  </node>
  <node id="-128" visible="true" lat="44.36715316" lon="-72.19490814">
    <tag k="addr:housenumber" v="2268"/>
    <tag k="addr:street" v="Slack Street"/>
    <tag k="addr:state" v="VT"/>
    <tag k="ref:vcgi:esiteid" v="185980"/>
  </node>
  <node id="-129" visible="true" lat="44.36651219" lon="-72.14746911">
    <tag k="addr:housenumber" v="2048"/>
    <tag k="addr:street" v="Old County Road"/>
    <tag k="addr:state" v="VT"/>
    <tag k="ref:vcgi:esiteid" v="185981"/>
  </node>
  <node id="-130" visible="true" lat="44.36642642" lon="-72.1819227">
    <tag k="addr:housenumber" v="2996"/>
    <tag k="addr:street" v="Slack Street"/>
    <tag k="addr:state" v="VT"/>
    <tag k="ref:vcgi:esiteid" v="185982"/>
  </node>
  <node id="-133" visible="true" lat="44.36623874" lon="-72.19600286">
    <tag k="addr:housenumber" v="2128"/>
    <tag k="addr:street" v="Slack Street"/>
    <tag k="addr:state" v="VT"/>
    <tag k="ref:vcgi:esiteid" v="185985"/>
  </node>
  <node id="-134" visible="true" lat="44.36597085" lon="-72.1473398">
    <tag k="addr:housenumber" v="1988"/>
    <tag k="addr:street" v="Old County Road"/>
    <tag k="addr:state" v="VT"/>
    <tag k="ref:vcgi:esiteid" v="185986"/>
  </node>
  <node id="-135" visible="true" lat="44.36534866" lon="-72.14832296">
    <tag k="addr:housenumber" v="1953"/>
    <tag k="addr:street" v="Old County Road"/>
    <tag k="addr:state" v="VT"/>
    <tag k="ref:vcgi:esiteid" v="185987"/>
  </node>
  <node id="-136" visible="true" lat="44.36542129" lon="-72.18032836">
    <tag k="addr:housenumber" v="3215"/>
    <tag k="addr:street" v="Bayley Hazen Road"/>
    <tag k="addr:state" v="VT"/>
    <tag k="ref:vcgi:esiteid" v="185988"/>
  </node>
  <node id="-137" visible="true" lat="44.36301559" lon="-72.17965843">
    <tag k="addr:housenumber" v="3095"/>
    <tag k="addr:street" v="Bayley Hazen Road"/>
    <tag k="addr:state" v="VT"/>
    <tag k="ref:vcgi:esiteid" v="185989"/>
  </node>
  <node id="-140" visible="true" lat="44.36286163" lon="-72.17386627">
    <tag k="addr:housenumber" v="107"/>
    <tag k="addr:street" v="Still Run"/>
    <tag k="addr:state" v="VT"/>
    <tag k="ref:vcgi:esiteid" v="185992"/>
  </node>
  <node id="-141" visible="true" lat="44.36281585" lon="-72.19392395">
    <tag k="addr:housenumber" v="1860"/>
    <tag k="addr:street" v="Slack Street"/>
    <tag k="addr:state" v="VT"/>
    <tag k="ref:vcgi:esiteid" v="185993"/>
  </node>
  <node id="-142" visible="true" lat="44.3623848" lon="-72.17373657">
    <tag k="addr:housenumber" v="108"/>
    <tag k="addr:street" v="Still Run"/>
    <tag k="addr:state" v="VT"/>
    <tag k="ref:vcgi:esiteid" v="185994"/>
  </node>
  <node id="-144" visible="true" lat="44.36122131" lon="-72.24447632">
    <tag k="addr:housenumber" v="4433"/>
    <tag k="addr:street" v="Macks Mountain Road"/>
    <tag k="addr:state" v="VT"/>
    <tag k="ref:vcgi:esiteid" v="185996"/>
  </node>
  <node id="-146" visible="true" lat="44.36102676" lon="-72.24693298">
    <tag k="addr:housenumber" v="4565"/>
    <tag k="addr:street" v="Macks Mountain Road"/>
    <tag k="addr:state" v="VT"/>
    <tag k="ref:vcgi:esiteid" v="185998"/>
  </node>
  <node id="-147" visible="true" lat="44.36075974" lon="-72.24119568">
    <tag k="addr:housenumber" v="4278"/>
    <tag k="addr:street" v="Macks Mountain Road"/>
    <tag k="addr:state" v="VT"/>
    <tag k="ref:vcgi:esiteid" v="185999"/>
  </node>
  <node id="-149" visible="true" lat="44.36027145" lon="-72.17205048">
    <tag k="addr:housenumber" v="699"/>
    <tag k="addr:street" v="Peacham Danville Road"/>
    <tag k="addr:state" v="VT"/>
    <tag k="ref:vcgi:esiteid" v="186001"/>
  </node>
  <node id="-150" visible="true" lat="44.35979462" lon="-72.17131805">
    <tag k="addr:housenumber" v="734"/>
    <tag k="addr:street" v="Peacham Danville Road"/>
    <tag k="addr:state" v="VT"/>
    <tag k="ref:vcgi:esiteid" v="186002"/>
  </node>
  <node id="-151" visible="true" lat="44.35964584" lon="-72.17195129">
    <tag k="addr:housenumber" v="692"/>
    <tag k="addr:street" v="Peacham Danville Road"/>
    <tag k="addr:state" v="VT"/>
    <tag k="ref:vcgi:esiteid" v="186003"/>
  </node>
  <node id="-152" visible="true" lat="44.35951614" lon="-72.14888763">
    <tag k="addr:housenumber" v="1537"/>
    <tag k="addr:street" v="Old County Road"/>
    <tag k="addr:state" v="VT"/>
    <tag k="ref:vcgi:esiteid" v="186004"/>
  </node>
  <node id="-153" visible="true" lat="44.35942078" lon="-72.17340088">
    <tag k="addr:housenumber" v="11"/>
    <tag k="addr:street" v="Ewell Mill Road"/>
    <tag k="addr:state" v="VT"/>
    <tag k="ref:vcgi:esiteid" v="186005"/>
  </node>
  <node id="-154" visible="true" lat="44.35903931" lon="-72.17302704">
    <tag k="addr:housenumber" v="600"/>
    <tag k="addr:street" v="Peacham Danville Road"/>
    <tag k="addr:state" v="VT"/>
    <tag k="ref:vcgi:esiteid" v="186006"/>
  </node>
  <node id="-155" visible="true" lat="44.35901095" lon="-72.24428645">
    <tag k="addr:housenumber" v="115"/>
    <tag k="addr:street" v="Hookerville Cutoff"/>
    <tag k="addr:state" v="VT"/>
    <tag k="ref:vcgi:esiteid" v="186007"/>
  </node>
  <node id="-156" visible="true" lat="44.35873794" lon="-72.23775482">
    <tag k="addr:housenumber" v="4080"/>
    <tag k="addr:street" v="Macks Mountain Road"/>
    <tag k="addr:state" v="VT"/>
    <tag k="ref:vcgi:esiteid" v="186008"/>
  </node>
  <node id="-157" visible="true" lat="44.35854174" lon="-72.17347602">
    <tag k="addr:housenumber" v="13"/>
    <tag k="addr:street" v="East Peacham Road"/>
    <tag k="addr:state" v="VT"/>
    <tag k="ref:vcgi:esiteid" v="186009"/>
  </node>
  <node id="-158" visible="true" lat="44.35788345" lon="-72.17533874">
    <tag k="addr:housenumber" v="487"/>
    <tag k="addr:street" v="Peacham Danville Road"/>
    <tag k="addr:state" v="VT"/>
    <tag k="ref:vcgi:esiteid" v="186010"/>
  </node>
  <node id="-159" visible="true" lat="44.35784311" lon="-72.23012751">
    <tag k="addr:housenumber" v="3752"/>
    <tag k="addr:street" v="Macks Mountain Road"/>
    <tag k="addr:state" v="VT"/>
    <tag k="ref:vcgi:esiteid" v="186011"/>
  </node>
  <node id="-162" visible="true" lat="44.35784712" lon="-72.23226088">
    <tag k="addr:housenumber" v="3764"/>
    <tag k="addr:street" v="Macks Mountain Road"/>
    <tag k="addr:state" v="VT"/>
    <tag k="ref:vcgi:esiteid" v="186014"/>
  </node>
  <node id="-164" visible="true" lat="44.35763259" lon="-72.23276293">
    <tag k="addr:housenumber" v="3814"/>
    <tag k="addr:street" v="Macks Mountain Road"/>
    <tag k="addr:state" v="VT"/>
    <tag k="ref:vcgi:esiteid" v="186016"/>
  </node>
  <node id="-165" visible="true" lat="44.35733967" lon="-72.16582949">
    <tag k="addr:housenumber" v="313"/>
    <tag k="addr:street" v="Taylor Road"/>
    <tag k="addr:state" v="VT"/>
    <tag k="ref:vcgi:esiteid" v="186017"/>
  </node>
  <node id="-166" visible="true" lat="44.35715484" lon="-72.17407226">
    <tag k="addr:housenumber" v="464"/>
    <tag k="addr:street" v="Peacham Danville Road"/>
    <tag k="addr:state" v="VT"/>
    <tag k="ref:vcgi:esiteid" v="186018"/>
  </node>
  <node id="-168" visible="true" lat="44.35679627" lon="-72.14871216">
    <tag k="addr:housenumber" v="1356"/>
    <tag k="addr:street" v="Old County Road"/>
    <tag k="addr:state" v="VT"/>
    <tag k="ref:vcgi:esiteid" v="186020"/>
  </node>
  <node id="-170" visible="true" lat="44.35662079" lon="-72.22943878">
    <tag k="addr:housenumber" v="3644"/>
    <tag k="addr:street" v="Macks Mountain Road"/>
    <tag k="addr:state" v="VT"/>
    <tag k="ref:vcgi:esiteid" v="186022"/>
  </node>
  <node id="-171" visible="true" lat="44.35623169" lon="-72.17651367">
    <tag k="addr:housenumber" v="335"/>
    <tag k="addr:street" v="Peacham Danville Road"/>
    <tag k="addr:state" v="VT"/>
    <tag k="ref:vcgi:esiteid" v="186023"/>
  </node>
  <node id="-177" visible="true" lat="44.35402407" lon="-72.22754648">
    <tag k="addr:housenumber" v="3495"/>
    <tag k="addr:street" v="Macks Mountain Road"/>
    <tag k="addr:state" v="VT"/>
    <tag k="ref:vcgi:esiteid" v="186029"/>
  </node>
  <node id="-178" visible="true" lat="44.35422536" lon="-72.15108191">
    <tag k="addr:housenumber" v="1138"/>
    <tag k="addr:street" v="Old County Road"/>
    <tag k="addr:state" v="VT"/>
    <tag k="ref:vcgi:esiteid" v="186030"/>
  </node>
  <node id="-179" visible="true" lat="44.3540802" lon="-72.18822479">
    <tag k="addr:housenumber" v="1183"/>
    <tag k="addr:street" v="Slack Street"/>
    <tag k="addr:state" v="VT"/>
    <tag k="ref:vcgi:esiteid" v="186031"/>
  </node>
  <node id="-180" visible="true" lat="44.35374542" lon="-72.22660247">
    <tag k="addr:housenumber" v="3399"/>
    <tag k="addr:street" v="Macks Mountain Road"/>
    <tag k="addr:state" v="VT"/>
    <tag k="ref:vcgi:esiteid" v="186032"/>
  </node>
  <node id="-181" visible="true" lat="44.35308427" lon="-72.15379031">
    <tag k="addr:housenumber" v="995"/>
    <tag k="addr:street" v="Old County Road"/>
    <tag k="addr:state" v="VT"/>
    <tag k="ref:vcgi:esiteid" v="186033"/>
  </node>
  <node id="-182" visible="true" lat="44.35202721" lon="-72.2247206">
    <tag k="addr:housenumber" v="3385"/>
    <tag k="addr:street" v="Macks Mountain Road"/>
    <tag k="addr:state" v="VT"/>
    <tag k="ref:vcgi:esiteid" v="186034"/>
  </node>
  <node id="-183" visible="true" lat="44.34845385" lon="-72.23909986">
    <tag k="addr:housenumber" v="3525"/>
    <tag k="addr:street" v="Macks Mountain Road"/>
    <tag k="addr:state" v="VT"/>
    <tag k="ref:vcgi:esiteid" v="186035"/>
  </node>
  <node id="-184" visible="true" lat="44.35282898" lon="-72.17207336">
    <tag k="addr:housenumber" v="422"/>
    <tag k="addr:street" v="East Peacham Road"/>
    <tag k="addr:state" v="VT"/>
    <tag k="ref:vcgi:esiteid" v="186036"/>
  </node>
  <node id="-185" visible="true" lat="44.35314747" lon="-72.22330186">
    <tag k="addr:housenumber" v="3262"/>
    <tag k="addr:street" v="Macks Mountain Road"/>
    <tag k="addr:state" v="VT"/>
    <tag k="ref:vcgi:esiteid" v="186037"/>
  </node>
  <node id="-186" visible="true" lat="44.35228438" lon="-72.15625305">
    <tag k="addr:housenumber" v="845"/>
    <tag k="addr:street" v="Old County Road"/>
    <tag k="addr:state" v="VT"/>
    <tag k="ref:vcgi:esiteid" v="186038"/>
  </node>
  <node id="-187" visible="true" lat="44.35265793" lon="-72.17100728">
    <tag k="addr:housenumber" v="455"/>
    <tag k="addr:street" v="East Peacham Road"/>
    <tag k="addr:state" v="VT"/>
    <tag k="ref:vcgi:esiteid" v="186039"/>
  </node>
  <node id="-189" visible="true" lat="44.35163508" lon="-72.22402575">
    <tag k="addr:housenumber" v="3207"/>
    <tag k="addr:street" v="Macks Mountain Road"/>
    <tag k="addr:state" v="VT"/>
    <tag k="ref:vcgi:esiteid" v="186041"/>
  </node>
  <node id="-191" visible="true" lat="44.35089267" lon="-72.21942153">
    <tag k="addr:housenumber" v="3056"/>
    <tag k="addr:street" v="Macks Mountain Road"/>
    <tag k="addr:state" v="VT"/>
    <tag k="ref:vcgi:esiteid" v="186043"/>
  </node>
  <node id="-195" visible="true" lat="44.34673329" lon="-72.16091133">
    <tag k="addr:housenumber" v="467"/>
    <tag k="addr:street" v="Old County Road"/>
    <tag k="addr:state" v="VT"/>
    <tag k="ref:vcgi:esiteid" v="186047"/>
  </node>
  <node id="-196" visible="true" lat="44.34663773" lon="-72.15956116">
    <tag k="addr:housenumber" v="465"/>
    <tag k="addr:street" v="Old County Road"/>
    <tag k="addr:state" v="VT"/>
    <tag k="ref:vcgi:esiteid" v="186048"/>
  </node>
  <node id="-198" visible="true" lat="44.34614563" lon="-72.16294861">
    <tag k="addr:housenumber" v="1087"/>
    <tag k="addr:street" v="East Peacham Road"/>
    <tag k="addr:state" v="VT"/>
    <tag k="ref:vcgi:esiteid" v="186050"/>
  </node>
  <node id="-199" visible="true" lat="44.34617614" lon="-72.25408172">
    <tag k="addr:housenumber" v="505"/>
    <tag k="addr:street" v="Peacham Pond Road"/>
    <tag k="addr:state" v="VT"/>
    <tag k="ref:vcgi:esiteid" v="186051"/>
  </node>
  <node id="-200" visible="true" lat="44.34594065" lon="-72.21619687">
    <tag k="addr:housenumber" v="2621"/>
    <tag k="addr:street" v="Macks Mountain Road"/>
    <tag k="addr:state" v="VT"/>
    <tag k="ref:vcgi:esiteid" v="186052"/>
  </node>
  <node id="-201" visible="true" lat="44.34581757" lon="-72.1641922">
    <tag k="addr:housenumber" v="1044"/>
    <tag k="addr:street" v="East Peacham Road"/>
    <tag k="addr:state" v="VT"/>
    <tag k="ref:vcgi:esiteid" v="186053"/>
  </node>
  <node id="-203" visible="true" lat="44.34569931" lon="-72.18688965">
    <tag k="addr:housenumber" v="242"/>
    <tag k="addr:street" v="Penny Street"/>
    <tag k="addr:state" v="VT"/>
    <tag k="ref:vcgi:esiteid" v="186055"/>
  </node>
  <node id="-204" visible="true" lat="44.34543188" lon="-72.15867409">
    <tag k="addr:housenumber" v="364"/>
    <tag k="addr:street" v="Old County Road"/>
    <tag k="addr:state" v="VT"/>
    <tag k="ref:vcgi:esiteid" v="186056"/>
  </node>
  <node id="-205" visible="true" lat="44.34518051" lon="-72.15979004">
    <tag k="addr:housenumber" v="309"/>
    <tag k="addr:street" v="Old County Road"/>
    <tag k="addr:state" v="VT"/>
    <tag k="ref:vcgi:esiteid" v="186057"/>
  </node>
  <node id="-209" visible="true" lat="44.34410476" lon="-72.21438598">
    <tag k="addr:housenumber" v="2467"/>
    <tag k="addr:street" v="Macks Mountain Road"/>
    <tag k="addr:state" v="VT"/>
    <tag k="ref:vcgi:esiteid" v="186061"/>
  </node>
  <node id="-210" visible="true" lat="44.34389114" lon="-72.18105316">
    <tag k="addr:housenumber" v="322"/>
    <tag k="addr:street" v="Slack Street"/>
    <tag k="addr:state" v="VT"/>
    <tag k="ref:vcgi:esiteid" v="186062"/>
  </node>
  <node id="-211" visible="true" lat="44.34365844" lon="-72.17652893">
    <tag k="addr:housenumber" v="1721"/>
    <tag k="addr:street" v="Bayley Hazen Road"/>
    <tag k="addr:state" v="VT"/>
    <tag k="ref:vcgi:esiteid" v="186063"/>
  </node>
  <node id="-213" visible="true" lat="44.3429985" lon="-72.16203308">
    <tag k="addr:housenumber" v="1272"/>
    <tag k="addr:street" v="East Peacham Road"/>
    <tag k="addr:state" v="VT"/>
    <tag k="ref:vcgi:esiteid" v="186066"/>
  </node>
  <node id="-216" visible="true" lat="44.34233093" lon="-72.18706512">
    <tag k="addr:housenumber" v="756"/>
    <tag k="addr:street" v="Hapenny Road"/>
    <tag k="addr:state" v="VT"/>
    <tag k="ref:vcgi:esiteid" v="186069"/>
  </node>
  <node id="-217" visible="true" lat="44.34228515" lon="-72.17965698">
    <tag k="addr:housenumber" v="238"/>
    <tag k="addr:street" v="Slack Street"/>
    <tag k="addr:state" v="VT"/>
    <tag k="ref:vcgi:esiteid" v="186070"/>
  </node>
  <node id="-218" visible="true" lat="44.34245622" lon="-72.26575764">
    <tag k="addr:housenumber" v="123"/>
    <tag k="addr:street" v="Kellogg Mill Road"/>
    <tag k="addr:state" v="VT"/>
    <tag k="ref:vcgi:esiteid" v="186071"/>
  </node>
  <node id="-220" visible="true" lat="44.34197617" lon="-72.18989563">
    <tag k="addr:housenumber" v="719"/>
    <tag k="addr:street" v="Hapenny Road"/>
    <tag k="addr:state" v="VT"/>
    <tag k="ref:vcgi:esiteid" v="186073"/>
  </node>
  <node id="-221" visible="true" lat="44.34189987" lon="-72.17630004">
    <tag k="addr:housenumber" v="1599"/>
    <tag k="addr:street" v="Bayley Hazen Road"/>
    <tag k="addr:state" v="VT"/>
    <tag k="ref:vcgi:esiteid" v="186074"/>
  </node>
  <node id="-223" visible="true" lat="44.34179306" lon="-72.21330261">
    <tag k="addr:housenumber" v="116"/>
    <tag k="addr:street" v="Lanesboro Road"/>
    <tag k="addr:state" v="VT"/>
    <tag k="ref:vcgi:esiteid" v="186076"/>
  </node>
  <node id="-224" visible="true" lat="44.34145355" lon="-72.16221618">
    <tag k="addr:housenumber" v="1518"/>
    <tag k="addr:street" v="East Peacham Road"/>
    <tag k="addr:state" v="VT"/>
    <tag k="ref:vcgi:esiteid" v="186077"/>
  </node>
  <node id="-225" visible="true" lat="44.34159088" lon="-72.26387786">
    <tag k="addr:housenumber" v="169"/>
    <tag k="addr:street" v="Peacham Pond Road"/>
    <tag k="addr:state" v="VT"/>
    <tag k="ref:vcgi:esiteid" v="186078"/>
  </node>
  <node id="-226" visible="true" lat="44.34132767" lon="-72.15939331">
    <tag k="addr:housenumber" v="80"/>
    <tag k="addr:street" v="Old County Road"/>
    <tag k="addr:state" v="VT"/>
    <tag k="ref:vcgi:esiteid" v="186079"/>
  </node>
  <node id="-227" visible="true" lat="44.34128189" lon="-72.17781066">
    <tag k="addr:housenumber" v="123"/>
    <tag k="addr:street" v="Slack Street"/>
    <tag k="addr:state" v="VT"/>
    <tag k="ref:vcgi:esiteid" v="186080"/>
  </node>
  <node id="-228" visible="true" lat="44.34124374" lon="-72.174263">
    <tag k="addr:housenumber" v="1510"/>
    <tag k="addr:street" v="Bayley Hazen Road"/>
    <tag k="addr:state" v="VT"/>
    <tag k="ref:vcgi:esiteid" v="186081"/>
  </node>
  <node id="-229" visible="true" lat="44.33868896" lon="-72.26203337">
    <tag k="addr:housenumber" v="306"/>
    <tag k="addr:street" v="Peacham Pond Road"/>
    <tag k="addr:state" v="VT"/>
    <tag k="ref:vcgi:esiteid" v="186082"/>
  </node>
  <node id="-232" visible="true" lat="44.34090805" lon="-72.16835784">
    <tag k="addr:housenumber" v="1614"/>
    <tag k="addr:street" v="Bayley Hazen Road"/>
    <tag k="addr:state" v="VT"/>
    <tag k="ref:vcgi:esiteid" v="186085"/>
  </node>
  <node id="-233" visible="true" lat="44.34011149" lon="-72.26150139">
    <tag k="addr:housenumber" v="150"/>
    <tag k="addr:street" v="Peacham Pond Road"/>
    <tag k="addr:state" v="VT"/>
    <tag k="ref:vcgi:esiteid" v="186086"/>
  </node>
  <node id="-234" visible="true" lat="44.34084701" lon="-72.18850708">
    <tag k="addr:housenumber" v="603"/>
    <tag k="addr:street" v="Hapenny Road"/>
    <tag k="addr:state" v="VT"/>
    <tag k="ref:vcgi:esiteid" v="186087"/>
  </node>
  <node id="-235" visible="true" lat="44.34090606" lon="-72.26687389">
    <tag k="addr:housenumber" v="232"/>
    <tag k="addr:street" v="Kellogg Mill Road"/>
    <tag k="addr:state" v="VT"/>
    <tag k="ref:vcgi:esiteid" v="186088"/>
  </node>
  <node id="-236" visible="true" lat="44.34045964" lon="-72.1529652">
    <tag k="addr:housenumber" v="368"/>
    <tag k="addr:street" v="Thaddeus Stevens Road"/>
    <tag k="addr:state" v="VT"/>
    <tag k="ref:vcgi:esiteid" v="186089"/>
  </node>
  <node id="-237" visible="true" lat="44.34025016" lon="-72.15285112">
    <tag k="addr:housenumber" v="348"/>
    <tag k="addr:street" v="Thaddeus Stevens Road"/>
    <tag k="addr:state" v="VT"/>
    <tag k="ref:vcgi:esiteid" v="186090"/>
  </node>
  <node id="-238" visible="true" lat="44.34012384" lon="-72.15980069">
    <tag k="addr:housenumber" v="1494"/>
    <tag k="addr:street" v="East Peacham Road"/>
    <tag k="addr:state" v="VT"/>
    <tag k="ref:vcgi:esiteid" v="186091"/>
  </node>
  <node id="-239" visible="true" lat="44.34027101" lon="-72.26833432">
    <tag k="addr:housenumber" v="326"/>
    <tag k="addr:street" v="Kellogg Mill Road"/>
    <tag k="addr:state" v="VT"/>
    <tag k="ref:vcgi:esiteid" v="186092"/>
  </node>
  <node id="-240" visible="true" lat="44.33999369" lon="-72.15527122">
    <tag k="addr:housenumber" v="237"/>
    <tag k="addr:street" v="Thaddeus Stevens Road"/>
    <tag k="addr:state" v="VT"/>
    <tag k="ref:vcgi:esiteid" v="186093"/>
  </node>
  <node id="-241" visible="true" lat="44.34002686" lon="-72.20529175">
    <tag k="addr:housenumber" v="1950"/>
    <tag k="addr:street" v="Macks Mountain Road"/>
    <tag k="addr:state" v="VT"/>
    <tag k="ref:vcgi:esiteid" v="186094"/>
  </node>
  <node id="-242" visible="true" lat="44.33983994" lon="-72.15406036">
    <tag k="addr:housenumber" v="292"/>
    <tag k="addr:street" v="Thaddeus Stevens Road"/>
    <tag k="addr:state" v="VT"/>
    <tag k="ref:vcgi:esiteid" v="186095"/>
  </node>
  <node id="-243" visible="true" lat="44.33965301" lon="-72.1735382">
    <tag k="addr:housenumber" v="1384"/>
    <tag k="addr:street" v="Bayley Hazen Road"/>
    <tag k="addr:state" v="VT"/>
    <tag k="ref:vcgi:esiteid" v="186096"/>
  </node>
  <node id="-244" visible="true" lat="44.3395958" lon="-72.15958405">
    <tag k="addr:housenumber" v="1538"/>
    <tag k="addr:street" v="East Peacham Road"/>
    <tag k="addr:state" v="VT"/>
    <tag k="ref:vcgi:esiteid" v="186097"/>
  </node>
  <node id="-245" visible="true" lat="44.33964261" lon="-72.2102679">
    <tag k="addr:housenumber" v="2021"/>
    <tag k="addr:street" v="Macks Mountain Road"/>
    <tag k="addr:state" v="VT"/>
    <tag k="ref:vcgi:esiteid" v="186098"/>
  </node>
  <node id="-246" visible="true" lat="44.33917703" lon="-72.15957466">
    <tag k="addr:housenumber" v="1556"/>
    <tag k="addr:street" v="East Peacham Road"/>
    <tag k="addr:state" v="VT"/>
    <tag k="ref:vcgi:esiteid" v="186099"/>
  </node>
  <node id="-247" visible="true" lat="44.33884254" lon="-72.1548958">
    <tag k="addr:housenumber" v="244"/>
    <tag k="addr:street" v="Thaddeus Stevens Road"/>
    <tag k="addr:state" v="VT"/>
    <tag k="ref:vcgi:esiteid" v="186100"/>
  </node>
  <node id="-248" visible="true" lat="44.33896979" lon="-72.18542169">
    <tag k="addr:housenumber" v="510"/>
    <tag k="addr:street" v="Hapenny Road"/>
    <tag k="addr:state" v="VT"/>
    <tag k="ref:vcgi:esiteid" v="186101"/>
  </node>
  <node id="-249" visible="true" lat="44.33877456" lon="-72.15926188">
    <tag k="addr:housenumber" v="1594"/>
    <tag k="addr:street" v="East Peacham Road"/>
    <tag k="addr:state" v="VT"/>
    <tag k="ref:vcgi:esiteid" v="186102"/>
  </node>
  <node id="-251" visible="true" lat="44.33868103" lon="-72.15687203">
    <tag k="addr:housenumber" v="135"/>
    <tag k="addr:street" v="Thaddeus Stevens Road"/>
    <tag k="addr:state" v="VT"/>
    <tag k="ref:vcgi:esiteid" v="186104"/>
  </node>
  <node id="-252" visible="true" lat="44.33861542" lon="-72.15857696">
    <tag k="addr:housenumber" v="1619"/>
    <tag k="addr:street" v="East Peacham Road"/>
    <tag k="addr:state" v="VT"/>
    <tag k="ref:vcgi:esiteid" v="186105"/>
  </node>
  <node id="-255" visible="true" lat="44.33860397" lon="-72.20820617">
    <tag k="addr:housenumber" v="1993"/>
    <tag k="addr:street" v="Macks Mountain Road"/>
    <tag k="addr:state" v="VT"/>
    <tag k="ref:vcgi:esiteid" v="186108"/>
  </node>
  <node id="-256" visible="true" lat="44.33851237" lon="-72.18594241">
    <tag k="addr:housenumber" v="469"/>
    <tag k="addr:street" v="Hapenny Road"/>
    <tag k="addr:state" v="VT"/>
    <tag k="ref:vcgi:esiteid" v="186109"/>
  </node>
  <node id="-257" visible="true" lat="44.33842468" lon="-72.15644073">
    <tag k="addr:housenumber" v="158"/>
    <tag k="addr:street" v="Thaddeus Stevens Road"/>
    <tag k="addr:state" v="VT"/>
    <tag k="ref:vcgi:esiteid" v="186110"/>
  </node>
  <node id="-258" visible="true" lat="44.3383255" lon="-72.15882874">
    <tag k="addr:housenumber" v="1634"/>
    <tag k="addr:street" v="East Peacham Road"/>
    <tag k="addr:state" v="VT"/>
    <tag k="ref:vcgi:esiteid" v="186111"/>
  </node>
  <node id="-259" visible="true" lat="44.33812714" lon="-72.15705109">
    <tag k="addr:housenumber" v="104"/>
    <tag k="addr:street" v="Thaddeus Stevens Road"/>
    <tag k="addr:state" v="VT"/>
    <tag k="ref:vcgi:esiteid" v="186112"/>
  </node>
  <node id="-260" visible="true" lat="44.33594447" lon="-72.25640032">
    <tag k="addr:housenumber" v="674"/>
    <tag k="addr:street" v="Peacham Pond Road"/>
    <tag k="addr:state" v="VT"/>
    <tag k="ref:vcgi:esiteid" v="186113"/>
  </node>
  <node id="-262" visible="true" lat="44.33797073" lon="-72.15856933">
    <tag k="addr:housenumber" v="1660"/>
    <tag k="addr:street" v="East Peacham Road"/>
    <tag k="addr:state" v="VT"/>
    <tag k="ref:vcgi:esiteid" v="186115"/>
  </node>
  <node id="-263" visible="true" lat="44.33793865" lon="-72.21843872">
    <tag k="addr:housenumber" v="483"/>
    <tag k="addr:street" v="Lanesboro Road"/>
    <tag k="addr:state" v="VT"/>
    <tag k="ref:vcgi:esiteid" v="186116"/>
  </node>
  <node id="-264" visible="true" lat="44.33778035" lon="-72.20134273">
    <tag k="addr:housenumber" v="1697"/>
    <tag k="addr:street" v="Macks Mountain Road"/>
    <tag k="addr:state" v="VT"/>
    <tag k="ref:vcgi:esiteid" v="186117"/>
  </node>
  <node id="-265" visible="true" lat="44.33735656" lon="-72.15895843">
    <tag k="addr:housenumber" v="827"/>
    <tag k="addr:street" v="Old Cemetery Road"/>
    <tag k="addr:state" v="VT"/>
    <tag k="ref:vcgi:esiteid" v="186118"/>
  </node>
  <node id="-266" visible="true" lat="44.33731079" lon="-72.15699005">
    <tag k="addr:housenumber" v="1749"/>
    <tag k="addr:street" v="East Peacham Road"/>
    <tag k="addr:state" v="VT"/>
    <tag k="ref:vcgi:esiteid" v="186119"/>
  </node>
  <node id="-267" visible="true" lat="44.33705902" lon="-72.16005706">
    <tag k="addr:housenumber" v="771"/>
    <tag k="addr:street" v="Old Cemetery Road"/>
    <tag k="addr:state" v="VT"/>
    <tag k="ref:vcgi:esiteid" v="186120"/>
  </node>
  <node id="-268" visible="true" lat="44.33681869" lon="-72.17350768">
    <tag k="addr:housenumber" v="1224"/>
    <tag k="addr:street" v="Bayley Hazen Road"/>
    <tag k="addr:state" v="VT"/>
    <tag k="ref:vcgi:esiteid" v="186121"/>
  </node>
  <node id="-269" visible="true" lat="44.33681488" lon="-72.17459106">
    <tag k="addr:housenumber" v="1239"/>
    <tag k="addr:street" v="Bayley Hazen Road"/>
    <tag k="addr:state" v="VT"/>
    <tag k="ref:vcgi:esiteid" v="186122"/>
  </node>
  <node id="-270" visible="true" lat="44.3367157" lon="-72.15513611">
    <tag k="addr:housenumber" v="1853"/>
    <tag k="addr:street" v="East Peacham Road"/>
    <tag k="addr:state" v="VT"/>
    <tag k="ref:vcgi:esiteid" v="186123"/>
  </node>
  <node id="-271" visible="true" lat="44.33658981" lon="-72.15464783">
    <tag k="addr:housenumber" v="1879"/>
    <tag k="addr:street" v="East Peacham Road"/>
    <tag k="addr:state" v="VT"/>
    <tag k="ref:vcgi:esiteid" v="186124"/>
  </node>
  <node id="-272" visible="true" lat="44.33608245" lon="-72.1576004">
    <tag k="addr:housenumber" v="139"/>
    <tag k="addr:street" v="Hollow Woods Road"/>
    <tag k="addr:state" v="VT"/>
    <tag k="ref:vcgi:esiteid" v="186125"/>
  </node>
  <node id="-273" visible="true" lat="44.33598709" lon="-72.16219329">
    <tag k="addr:housenumber" v="603"/>
    <tag k="addr:street" v="Old Cemetery Road"/>
    <tag k="addr:state" v="VT"/>
    <tag k="ref:vcgi:esiteid" v="186126"/>
  </node>
  <node id="-274" visible="true" lat="44.33597564" lon="-72.17420959">
    <tag k="addr:housenumber" v="1177"/>
    <tag k="addr:street" v="Bayley Hazen Road"/>
    <tag k="addr:state" v="VT"/>
    <tag k="ref:vcgi:esiteid" v="186127"/>
  </node>
  <node id="-275" visible="true" lat="44.33618573" lon="-72.25316414">
    <tag k="addr:housenumber" v="1068"/>
    <tag k="addr:street" v="Peacham Pond Road"/>
    <tag k="addr:state" v="VT"/>
    <tag k="ref:vcgi:esiteid" v="186128"/>
  </node>
  <node id="-276" visible="true" lat="44.33574676" lon="-72.16145324">
    <tag k="addr:housenumber" v="660"/>
    <tag k="addr:street" v="Old Cemetery Road"/>
    <tag k="addr:state" v="VT"/>
    <tag k="ref:vcgi:esiteid" v="186129"/>
  </node>
  <node id="-277" visible="true" lat="44.33528137" lon="-72.18474578">
    <tag k="addr:housenumber" v="276"/>
    <tag k="addr:street" v="Hapenny Road"/>
    <tag k="addr:state" v="VT"/>
    <tag k="ref:vcgi:esiteid" v="186130"/>
  </node>
  <node id="-278" visible="true" lat="44.33512496" lon="-72.15705871">
    <tag k="addr:housenumber" v="209"/>
    <tag k="addr:street" v="Hollow Woods Road"/>
    <tag k="addr:state" v="VT"/>
    <tag k="ref:vcgi:esiteid" v="186131"/>
  </node>
  <node id="-279" visible="true" lat="44.33515167" lon="-72.17546844">
    <tag k="addr:housenumber" v="1107"/>
    <tag k="addr:street" v="Bayley Hazen Road"/>
    <tag k="addr:state" v="VT"/>
    <tag k="ref:vcgi:esiteid" v="186132"/>
  </node>
  <node id="-282" visible="true" lat="44.33452606" lon="-72.15924835">
    <tag k="addr:housenumber" v="164"/>
    <tag k="addr:street" v="Hollow Woods Road"/>
    <tag k="addr:state" v="VT"/>
    <tag k="ref:vcgi:esiteid" v="186135"/>
  </node>
  <node id="-284" visible="true" lat="44.33434677" lon="-72.1733551">
    <tag k="addr:housenumber" v="1057"/>
    <tag k="addr:street" v="Bayley Hazen Road"/>
    <tag k="addr:state" v="VT"/>
    <tag k="ref:vcgi:esiteid" v="186137"/>
  </node>
  <node id="-287" visible="true" lat="44.33448499" lon="-72.26435408">
    <tag k="addr:housenumber" v="92"/>
    <tag k="addr:street" v="Spur Road"/>
    <tag k="addr:state" v="VT"/>
    <tag k="ref:vcgi:esiteid" v="186140"/>
  </node>
  <node id="-288" visible="true" lat="44.33420181" lon="-72.17480468">
    <tag k="addr:housenumber" v="1045"/>
    <tag k="addr:street" v="Bayley Hazen Road"/>
    <tag k="addr:state" v="VT"/>
    <tag k="ref:vcgi:esiteid" v="186141"/>
  </node>
  <node id="-289" visible="true" lat="44.33386993" lon="-72.15673828">
    <tag k="addr:housenumber" v="293"/>
    <tag k="addr:street" v="Hollow Woods Road"/>
    <tag k="addr:state" v="VT"/>
    <tag k="ref:vcgi:esiteid" v="186142"/>
  </node>
  <node id="-291" visible="true" lat="44.33383011" lon="-72.26556956">
    <tag k="addr:housenumber" v="501"/>
    <tag k="addr:street" v="Onion Point"/>
    <tag k="addr:state" v="VT"/>
    <tag k="ref:vcgi:esiteid" v="186144"/>
  </node>
  <node id="-292" visible="true" lat="44.33374023" lon="-72.25793457">
    <tag k="addr:housenumber" v="122"/>
    <tag k="addr:street" v="Spur Road"/>
    <tag k="addr:state" v="VT"/>
    <tag k="ref:vcgi:esiteid" v="186145"/>
  </node>
  <node id="-293" visible="true" lat="44.33365758" lon="-72.2661102">
    <tag k="addr:housenumber" v="508"/>
    <tag k="addr:street" v="Onion Point"/>
    <tag k="addr:state" v="VT"/>
    <tag k="ref:vcgi:esiteid" v="186146"/>
  </node>
  <node id="-295" visible="true" lat="44.33335964" lon="-72.26563104">
    <tag k="addr:housenumber" v="513"/>
    <tag k="addr:street" v="Onion Point"/>
    <tag k="addr:state" v="VT"/>
    <tag k="ref:vcgi:esiteid" v="186148"/>
  </node>
  <node id="-296" visible="true" lat="44.33342416" lon="-72.25347837">
    <tag k="addr:housenumber" v="1262"/>
    <tag k="addr:street" v="Peacham Pond Road"/>
    <tag k="addr:state" v="VT"/>
    <tag k="ref:vcgi:esiteid" v="186149"/>
  </node>
  <node id="-298" visible="true" lat="44.33342125" lon="-72.26622334">
    <tag k="addr:housenumber" v="524"/>
    <tag k="addr:street" v="Onion Point"/>
    <tag k="addr:state" v="VT"/>
    <tag k="ref:vcgi:esiteid" v="186151"/>
  </node>
  <node id="-300" visible="true" lat="44.33327484" lon="-72.25331878">
    <tag k="addr:housenumber" v="1272"/>
    <tag k="addr:street" v="Peacham Pond Road"/>
    <tag k="addr:state" v="VT"/>
    <tag k="ref:vcgi:esiteid" v="186153"/>
  </node>
  <node id="-303" visible="true" lat="44.33279419" lon="-72.15792083">
    <tag k="addr:housenumber" v="370"/>
    <tag k="addr:street" v="Hollow Woods Road"/>
    <tag k="addr:state" v="VT"/>
    <tag k="ref:vcgi:esiteid" v="186156"/>
  </node>
  <node id="-304" visible="true" lat="44.33295616" lon="-72.25318356">
    <tag k="addr:housenumber" v="1288"/>
    <tag k="addr:street" v="Peacham Pond Road"/>
    <tag k="addr:state" v="VT"/>
    <tag k="ref:vcgi:esiteid" v="186157"/>
  </node>
  <node id="-305" visible="true" lat="44.33287347" lon="-72.18580922">
    <tag k="addr:housenumber" v="74"/>
    <tag k="addr:street" v="Hapenny Road"/>
    <tag k="addr:state" v="VT"/>
    <tag k="ref:vcgi:esiteid" v="186158"/>
  </node>
  <node id="-306" visible="true" lat="44.33273991" lon="-72.25273383">
    <tag k="addr:housenumber" v="1316"/>
    <tag k="addr:street" v="Peacham Pond Road"/>
    <tag k="addr:state" v="VT"/>
    <tag k="ref:vcgi:esiteid" v="186159"/>
  </node>
  <node id="-307" visible="true" lat="44.33277893" lon="-72.26579284">
    <tag k="addr:housenumber" v="563"/>
    <tag k="addr:street" v="Onion Point"/>
    <tag k="addr:state" v="VT"/>
    <tag k="ref:vcgi:esiteid" v="186160"/>
  </node>
  <node id="-308" visible="true" lat="44.33240509" lon="-72.16436004">
    <tag k="addr:housenumber" v="384"/>
    <tag k="addr:street" v="Old Cemetery Road"/>
    <tag k="addr:state" v="VT"/>
    <tag k="ref:vcgi:esiteid" v="186161"/>
  </node>
  <node id="-309" visible="true" lat="44.33264434" lon="-72.18945678">
    <tag k="addr:housenumber" v="952"/>
    <tag k="addr:street" v="Macks Mountain Road"/>
    <tag k="addr:state" v="VT"/>
    <tag k="ref:vcgi:esiteid" v="186162"/>
  </node>
  <node id="-310" visible="true" lat="44.3322122" lon="-72.1871665">
    <tag k="addr:housenumber" v="842"/>
    <tag k="addr:street" v="Macks Mountain Road"/>
    <tag k="addr:state" v="VT"/>
    <tag k="ref:vcgi:esiteid" v="186163"/>
  </node>
  <node id="-311" visible="true" lat="44.33218383" lon="-72.26607513">
    <tag k="addr:housenumber" v="611"/>
    <tag k="addr:street" v="Onion Point"/>
    <tag k="addr:state" v="VT"/>
    <tag k="ref:vcgi:esiteid" v="186164"/>
  </node>
  <node id="-312" visible="true" lat="44.33191299" lon="-72.17251587">
    <tag k="addr:housenumber" v="897"/>
    <tag k="addr:street" v="Bayley Hazen Road"/>
    <tag k="addr:state" v="VT"/>
    <tag k="ref:vcgi:esiteid" v="186165"/>
  </node>
  <node id="-313" visible="true" lat="44.33203506" lon="-72.26596832">
    <tag k="addr:housenumber" v="613"/>
    <tag k="addr:street" v="Onion Point"/>
    <tag k="addr:state" v="VT"/>
    <tag k="ref:vcgi:esiteid" v="186166"/>
  </node>
  <node id="-315" visible="true" lat="44.33155822" lon="-72.16608428">
    <tag k="addr:housenumber" v="290"/>
    <tag k="addr:street" v="Old Cemetery Road"/>
    <tag k="addr:state" v="VT"/>
    <tag k="ref:vcgi:esiteid" v="186168"/>
  </node>
  <node id="-316" visible="true" lat="44.33165908" lon="-72.25173586">
    <tag k="addr:housenumber" v="1408"/>
    <tag k="addr:street" v="Peacham Pond Road"/>
    <tag k="addr:state" v="VT"/>
    <tag k="ref:vcgi:esiteid" v="186169"/>
  </node>
  <node id="-317" visible="true" lat="44.33174896" lon="-72.26580047">
    <tag k="addr:housenumber" v="647"/>
    <tag k="addr:street" v="Onion Point"/>
    <tag k="addr:state" v="VT"/>
    <tag k="ref:vcgi:esiteid" v="186170"/>
  </node>
  <node id="-318" visible="true" lat="44.33146667" lon="-72.26588439">
    <tag k="addr:housenumber" v="661"/>
    <tag k="addr:street" v="Onion Point"/>
    <tag k="addr:state" v="VT"/>
    <tag k="ref:vcgi:esiteid" v="186171"/>
  </node>
  <node id="-319" visible="true" lat="44.33139419" lon="-72.25150299">
    <tag k="addr:housenumber" v="1434"/>
    <tag k="addr:street" v="Peacham Pond Road"/>
    <tag k="addr:state" v="VT"/>
    <tag k="ref:vcgi:esiteid" v="186172"/>
  </node>
  <node id="-321" visible="true" lat="44.33096313" lon="-72.1721878">
    <tag k="addr:housenumber" v="819"/>
    <tag k="addr:street" v="Bayley Hazen Road"/>
    <tag k="addr:state" v="VT"/>
    <tag k="ref:vcgi:esiteid" v="186174"/>
  </node>
  <node id="-322" visible="true" lat="44.33116912" lon="-72.26559448">
    <tag k="addr:housenumber" v="667"/>
    <tag k="addr:street" v="Onion Point"/>
    <tag k="addr:state" v="VT"/>
    <tag k="ref:vcgi:esiteid" v="186175"/>
  </node>
  <node id="-323" visible="true" lat="44.33108139" lon="-72.26554107">
    <tag k="addr:housenumber" v="671"/>
    <tag k="addr:street" v="Onion Point"/>
    <tag k="addr:state" v="VT"/>
    <tag k="ref:vcgi:esiteid" v="186176"/>
  </node>
  <node id="-324" visible="true" lat="44.33085622" lon="-72.25122525">
    <tag k="addr:housenumber" v="1468"/>
    <tag k="addr:street" v="Peacham Pond Road"/>
    <tag k="addr:state" v="VT"/>
    <tag k="ref:vcgi:esiteid" v="186177"/>
  </node>
  <node id="-325" visible="true" lat="44.33090209" lon="-72.26577758">
    <tag k="addr:housenumber" v="699"/>
    <tag k="addr:street" v="Onion Point"/>
    <tag k="addr:state" v="VT"/>
    <tag k="ref:vcgi:esiteid" v="186178"/>
  </node>
  <node id="-326" visible="true" lat="44.33089065" lon="-72.26535034">
    <tag k="addr:housenumber" v="697"/>
    <tag k="addr:street" v="Onion Point"/>
    <tag k="addr:state" v="VT"/>
    <tag k="ref:vcgi:esiteid" v="186179"/>
  </node>
  <node id="-327" visible="true" lat="44.33082961" lon="-72.26609802">
    <tag k="addr:housenumber" v="703"/>
    <tag k="addr:street" v="Onion Point"/>
    <tag k="addr:state" v="VT"/>
    <tag k="ref:vcgi:esiteid" v="186180"/>
  </node>
  <node id="-328" visible="true" lat="44.33073425" lon="-72.26622772">
    <tag k="addr:housenumber" v="707"/>
    <tag k="addr:street" v="Onion Point"/>
    <tag k="addr:state" v="VT"/>
    <tag k="ref:vcgi:esiteid" v="186181"/>
  </node>
  <node id="-329" visible="true" lat="44.33070754" lon="-72.26644897">
    <tag k="addr:housenumber" v="709"/>
    <tag k="addr:street" v="Onion Point"/>
    <tag k="addr:state" v="VT"/>
    <tag k="ref:vcgi:esiteid" v="186182"/>
  </node>
  <node id="-330" visible="true" lat="44.33051313" lon="-72.25103719">
    <tag k="addr:housenumber" v="1494"/>
    <tag k="addr:street" v="Peacham Pond Road"/>
    <tag k="addr:state" v="VT"/>
    <tag k="ref:vcgi:esiteid" v="186183"/>
  </node>
  <node id="-331" visible="true" lat="44.33055877" lon="-72.26664733">
    <tag k="addr:housenumber" v="721"/>
    <tag k="addr:street" v="Onion Point"/>
    <tag k="addr:state" v="VT"/>
    <tag k="ref:vcgi:esiteid" v="186184"/>
  </node>
  <node id="-332" visible="true" lat="44.33052825" lon="-72.26718139">
    <tag k="addr:housenumber" v="739"/>
    <tag k="addr:street" v="Onion Point"/>
    <tag k="addr:state" v="VT"/>
    <tag k="ref:vcgi:esiteid" v="186185"/>
  </node>
  <node id="-333" visible="true" lat="44.33024075" lon="-72.25097122">
    <tag k="addr:housenumber" v="1508"/>
    <tag k="addr:street" v="Peacham Pond Road"/>
    <tag k="addr:state" v="VT"/>
    <tag k="ref:vcgi:esiteid" v="186186"/>
  </node>
  <node id="-337" visible="true" lat="44.32986521" lon="-72.25083379">
    <tag k="addr:housenumber" v="1536"/>
    <tag k="addr:street" v="Peacham Pond Road"/>
    <tag k="addr:state" v="VT"/>
    <tag k="ref:vcgi:esiteid" v="186190"/>
  </node>
  <node id="-338" visible="true" lat="44.3297615" lon="-72.17093658">
    <tag k="addr:housenumber" v="720"/>
    <tag k="addr:street" v="Bayley Hazen Road"/>
    <tag k="addr:state" v="VT"/>
    <tag k="ref:vcgi:esiteid" v="186191"/>
  </node>
  <node id="-339" visible="true" lat="44.32966232" lon="-72.17127227">
    <tag k="addr:housenumber" v="719"/>
    <tag k="addr:street" v="Bayley Hazen Road"/>
    <tag k="addr:state" v="VT"/>
    <tag k="ref:vcgi:esiteid" v="186192"/>
  </node>
  <node id="-340" visible="true" lat="44.32988738" lon="-72.26785278">
    <tag k="addr:housenumber" v="803"/>
    <tag k="addr:street" v="Onion Point"/>
    <tag k="addr:state" v="VT"/>
    <tag k="ref:vcgi:esiteid" v="186193"/>
  </node>
  <node id="-343" visible="true" lat="44.32947921" lon="-72.17082977">
    <tag k="addr:housenumber" v="700"/>
    <tag k="addr:street" v="Bayley Hazen Road"/>
    <tag k="addr:state" v="VT"/>
    <tag k="ref:vcgi:esiteid" v="186196"/>
  </node>
  <node id="-344" visible="true" lat="44.3296318" lon="-72.26683044">
    <tag k="addr:housenumber" v="861"/>
    <tag k="addr:street" v="Onion Point"/>
    <tag k="addr:state" v="VT"/>
    <tag k="ref:vcgi:esiteid" v="186197"/>
  </node>
  <node id="-348" visible="true" lat="44.32922363" lon="-72.17066192">
    <tag k="addr:housenumber" v="680"/>
    <tag k="addr:street" v="Bayley Hazen Road"/>
    <tag k="addr:state" v="VT"/>
    <tag k="ref:vcgi:esiteid" v="186201"/>
  </node>
  <node id="-350" visible="true" lat="44.32909774" lon="-72.17001342">
    <tag k="addr:housenumber" v="33"/>
    <tag k="addr:street" v="Old Cemetery Road"/>
    <tag k="addr:state" v="VT"/>
    <tag k="ref:vcgi:esiteid" v="186203"/>
  </node>
  <node id="-351" visible="true" lat="44.32909393" lon="-72.17104339">
    <tag k="addr:housenumber" v="679"/>
    <tag k="addr:street" v="Bayley Hazen Road"/>
    <tag k="addr:state" v="VT"/>
    <tag k="ref:vcgi:esiteid" v="186204"/>
  </node>
  <node id="-352" visible="true" lat="44.32937097" lon="-72.2503731">
    <tag k="addr:housenumber" v="1594"/>
    <tag k="addr:street" v="Peacham Pond Road"/>
    <tag k="addr:state" v="VT"/>
    <tag k="ref:vcgi:esiteid" v="186205"/>
  </node>
  <node id="-354" visible="true" lat="44.32894134" lon="-72.16964721">
    <tag k="addr:housenumber" v="40"/>
    <tag k="addr:street" v="Old Cemetery Road"/>
    <tag k="addr:state" v="VT"/>
    <tag k="ref:vcgi:esiteid" v="186207"/>
  </node>
  <node id="-355" visible="true" lat="44.32891845" lon="-72.17042541">
    <tag k="addr:housenumber" v="656"/>
    <tag k="addr:street" v="Bayley Hazen Road"/>
    <tag k="addr:state" v="VT"/>
    <tag k="ref:vcgi:esiteid" v="186208"/>
  </node>
  <node id="-356" visible="true" lat="44.32915115" lon="-72.26731872">
    <tag k="addr:housenumber" v="860"/>
    <tag k="addr:street" v="Onion Point"/>
    <tag k="addr:state" v="VT"/>
    <tag k="ref:vcgi:esiteid" v="186209"/>
  </node>
  <node id="-357" visible="true" lat="44.32905306" lon="-72.17811339">
    <tag k="addr:housenumber" v="320"/>
    <tag k="addr:street" v="Macks Mountain Road"/>
    <tag k="addr:state" v="VT"/>
    <tag k="ref:vcgi:esiteid" v="186210"/>
  </node>
  <node id="-358" visible="true" lat="44.32890319" lon="-72.17092895">
    <tag k="addr:housenumber" v="665"/>
    <tag k="addr:street" v="Bayley Hazen Road"/>
    <tag k="addr:state" v="VT"/>
    <tag k="ref:vcgi:esiteid" v="186211"/>
  </node>
  <node id="-359" visible="true" lat="44.32907486" lon="-72.26717376">
    <tag k="addr:housenumber" v="870"/>
    <tag k="addr:street" v="Onion Point"/>
    <tag k="addr:state" v="VT"/>
    <tag k="ref:vcgi:esiteid" v="186212"/>
  </node>
  <node id="-360" visible="true" lat="44.32858062" lon="-72.17864364">
    <tag k="addr:housenumber" v="355"/>
    <tag k="addr:street" v="Macks Mountain Road"/>
    <tag k="addr:state" v="VT"/>
    <tag k="ref:vcgi:esiteid" v="186213"/>
  </node>
  <node id="-361" visible="true" lat="44.32897949" lon="-72.26696777">
    <tag k="addr:housenumber" v="882"/>
    <tag k="addr:street" v="Onion Point"/>
    <tag k="addr:state" v="VT"/>
    <tag k="ref:vcgi:esiteid" v="186214"/>
  </node>
  <node id="-362" visible="true" lat="44.32892608" lon="-72.26643371">
    <tag k="addr:housenumber" v="896"/>
    <tag k="addr:street" v="Onion Point"/>
    <tag k="addr:state" v="VT"/>
    <tag k="ref:vcgi:esiteid" v="186215"/>
  </node>
  <node id="-363" visible="true" lat="44.32910007" lon="-72.25041035">
    <tag k="addr:housenumber" v="1622"/>
    <tag k="addr:street" v="Peacham Pond Road"/>
    <tag k="addr:state" v="VT"/>
    <tag k="ref:vcgi:esiteid" v="186216"/>
  </node>
  <node id="-364" visible="true" lat="44.32889175" lon="-72.26682281">
    <tag k="addr:housenumber" v="892"/>
    <tag k="addr:street" v="Onion Point"/>
    <tag k="addr:state" v="VT"/>
    <tag k="ref:vcgi:esiteid" v="186217"/>
  </node>
  <node id="-366" visible="true" lat="44.32884597" lon="-72.26662445">
    <tag k="addr:housenumber" v="894"/>
    <tag k="addr:street" v="Onion Point"/>
    <tag k="addr:state" v="VT"/>
    <tag k="ref:vcgi:esiteid" v="186219"/>
  </node>
  <node id="-367" visible="true" lat="44.32863008" lon="-72.17002005">
    <tag k="addr:housenumber" v="624"/>
    <tag k="addr:street" v="Bayley Hazen Road"/>
    <tag k="addr:state" v="VT"/>
    <tag k="ref:vcgi:esiteid" v="186220"/>
  </node>
  <node id="-370" visible="true" lat="44.32847849" lon="-72.16987106">
    <tag k="addr:housenumber" v="614"/>
    <tag k="addr:street" v="Bayley Hazen Road"/>
    <tag k="addr:state" v="VT"/>
    <tag k="ref:vcgi:esiteid" v="186223"/>
  </node>
  <node id="-371" visible="true" lat="44.32882163" lon="-72.25026672">
    <tag k="addr:housenumber" v="1642"/>
    <tag k="addr:street" v="Peacham Pond Road"/>
    <tag k="addr:state" v="VT"/>
    <tag k="ref:vcgi:esiteid" v="186224"/>
  </node>
  <node id="-372" visible="true" lat="44.3283474" lon="-72.1697746">
    <tag k="addr:housenumber" v="604"/>
    <tag k="addr:street" v="Bayley Hazen Road"/>
    <tag k="addr:state" v="VT"/>
    <tag k="ref:vcgi:esiteid" v="186225"/>
  </node>
  <node id="-373" visible="true" lat="44.32831573" lon="-72.17094421">
    <tag k="addr:housenumber" v="38"/>
    <tag k="addr:street" v="Church Street"/>
    <tag k="addr:state" v="VT"/>
    <tag k="ref:vcgi:esiteid" v="186226"/>
  </node>
  <node id="-375" visible="true" lat="44.32846965" lon="-72.25018469">
    <tag k="addr:housenumber" v="1650"/>
    <tag k="addr:street" v="Peacham Pond Road"/>
    <tag k="addr:state" v="VT"/>
    <tag k="ref:vcgi:esiteid" v="186228"/>
  </node>
  <node id="-376" visible="true" lat="44.32831372" lon="-72.25339198">
    <tag k="addr:housenumber" v="1913"/>
    <tag k="addr:street" v="Peacham Pond Road"/>
    <tag k="addr:state" v="VT"/>
    <tag k="ref:vcgi:esiteid" v="186229"/>
  </node>
  <node id="-377" visible="true" lat="44.32812881" lon="-72.17042541">
    <tag k="addr:housenumber" v="613"/>
    <tag k="addr:street" v="Bayley Hazen Road"/>
    <tag k="addr:state" v="VT"/>
    <tag k="ref:vcgi:esiteid" v="186230"/>
  </node>
  <node id="-379" visible="true" lat="44.32819304" lon="-72.16967422">
    <tag k="addr:housenumber" v="588"/>
    <tag k="addr:street" v="Bayley Hazen Road"/>
    <tag k="addr:state" v="VT"/>
    <tag k="ref:vcgi:esiteid" v="186232"/>
  </node>
  <node id="-380" visible="true" lat="44.32825936" lon="-72.25024901">
    <tag k="addr:housenumber" v="1674"/>
    <tag k="addr:street" v="Peacham Pond Road"/>
    <tag k="addr:state" v="VT"/>
    <tag k="ref:vcgi:esiteid" v="186233"/>
  </node>
  <node id="-382" visible="true" lat="44.32816559" lon="-72.25288098">
    <tag k="addr:housenumber" v="1898"/>
    <tag k="addr:street" v="Peacham Pond Road"/>
    <tag k="addr:state" v="VT"/>
    <tag k="ref:vcgi:esiteid" v="186235"/>
  </node>
  <node id="-383" visible="true" lat="44.32788085" lon="-72.17765045">
    <tag k="addr:housenumber" v="275"/>
    <tag k="addr:street" v="Macks Mountain Road"/>
    <tag k="addr:state" v="VT"/>
    <tag k="ref:vcgi:esiteid" v="186236"/>
  </node>
  <node id="-384" visible="true" lat="44.32811112" lon="-72.25030727">
    <tag k="addr:housenumber" v="1686"/>
    <tag k="addr:street" v="Peacham Pond Road"/>
    <tag k="addr:state" v="VT"/>
    <tag k="ref:vcgi:esiteid" v="186237"/>
  </node>
  <node id="-385" visible="true" lat="44.32797002" lon="-72.25317889">
    <tag k="addr:housenumber" v="1903"/>
    <tag k="addr:street" v="Peacham Pond Road"/>
    <tag k="addr:state" v="VT"/>
    <tag k="ref:vcgi:esiteid" v="186238"/>
  </node>
  <node id="-386" visible="true" lat="44.32796405" lon="-72.25218548">
    <tag k="addr:housenumber" v="1864"/>
    <tag k="addr:street" v="Peacham Pond Road"/>
    <tag k="addr:state" v="VT"/>
    <tag k="ref:vcgi:esiteid" v="186239"/>
  </node>
  <node id="-387" visible="true" lat="44.32769775" lon="-72.171669">
    <tag k="addr:housenumber" v="94"/>
    <tag k="addr:street" v="Church Street"/>
    <tag k="addr:state" v="VT"/>
    <tag k="ref:vcgi:esiteid" v="186240"/>
  </node>
  <node id="-390" visible="true" lat="44.32781245" lon="-72.25295106">
    <tag k="addr:housenumber" v="1883"/>
    <tag k="addr:street" v="Peacham Pond Road"/>
    <tag k="addr:state" v="VT"/>
    <tag k="ref:vcgi:esiteid" v="186243"/>
  </node>
  <node id="-391" visible="true" lat="44.32778517" lon="-72.25032248">
    <tag k="addr:housenumber" v="1704"/>
    <tag k="addr:street" v="Peacham Pond Road"/>
    <tag k="addr:state" v="VT"/>
    <tag k="ref:vcgi:esiteid" v="186244"/>
  </node>
  <node id="-392" visible="true" lat="44.32772005" lon="-72.25259032">
    <tag k="addr:housenumber" v="1875"/>
    <tag k="addr:street" v="Peacham Pond Road"/>
    <tag k="addr:state" v="VT"/>
    <tag k="ref:vcgi:esiteid" v="186245"/>
  </node>
  <node id="-393" visible="true" lat="44.32757949" lon="-72.17608642">
    <tag k="addr:housenumber" v="206"/>
    <tag k="addr:street" v="Macks Mountain Road"/>
    <tag k="addr:state" v="VT"/>
    <tag k="ref:vcgi:esiteid" v="186246"/>
  </node>
  <node id="-394" visible="true" lat="44.32742958" lon="-72.16980067">
    <tag k="addr:housenumber" v="555"/>
    <tag k="addr:street" v="Bayley Hazen Road"/>
    <tag k="addr:state" v="VT"/>
    <tag k="ref:vcgi:esiteid" v="186247"/>
  </node>
  <node id="-395" visible="true" lat="44.32751572" lon="-72.25224202">
    <tag k="addr:housenumber" v="1849"/>
    <tag k="addr:street" v="Peacham Pond Road"/>
    <tag k="addr:state" v="VT"/>
    <tag k="ref:vcgi:esiteid" v="186248"/>
  </node>
  <node id="-396" visible="true" lat="44.32732391" lon="-72.1721878">
    <tag k="addr:housenumber" v="132"/>
    <tag k="addr:street" v="Church Street"/>
    <tag k="addr:state" v="VT"/>
    <tag k="ref:vcgi:esiteid" v="186249"/>
  </node>
  <node id="-397" visible="true" lat="44.32714525" lon="-72.16949418">
    <tag k="addr:housenumber" v="535"/>
    <tag k="addr:street" v="Bayley Hazen Road"/>
    <tag k="addr:state" v="VT"/>
    <tag k="ref:vcgi:esiteid" v="186250"/>
  </node>
  <node id="-399" visible="true" lat="44.32716751" lon="-72.171669">
    <tag k="addr:housenumber" v="121"/>
    <tag k="addr:street" v="Church Street"/>
    <tag k="addr:state" v="VT"/>
    <tag k="ref:vcgi:esiteid" v="186252"/>
  </node>
  <node id="-401" visible="true" lat="44.32709121" lon="-72.17243957">
    <tag k="addr:housenumber" v="150"/>
    <tag k="addr:street" v="Church Street"/>
    <tag k="addr:state" v="VT"/>
    <tag k="ref:vcgi:esiteid" v="186254"/>
  </node>
  <node id="-402" visible="true" lat="44.3272165" lon="-72.25162811">
    <tag k="addr:housenumber" v="1813"/>
    <tag k="addr:street" v="Peacham Pond Road"/>
    <tag k="addr:state" v="VT"/>
    <tag k="ref:vcgi:esiteid" v="186255"/>
  </node>
  <node id="-403" visible="true" lat="44.32695388" lon="-72.16936492">
    <tag k="addr:housenumber" v="511"/>
    <tag k="addr:street" v="Bayley Hazen Road"/>
    <tag k="addr:state" v="VT"/>
    <tag k="ref:vcgi:esiteid" v="186256"/>
  </node>
  <node id="-404" visible="true" lat="44.32694625" lon="-72.17547607">
    <tag k="addr:housenumber" v="154"/>
    <tag k="addr:street" v="Macks Mountain Road"/>
    <tag k="addr:state" v="VT"/>
    <tag k="ref:vcgi:esiteid" v="186257"/>
  </node>
  <node id="-405" visible="true" lat="44.32688713" lon="-72.17044694">
    <tag k="addr:housenumber" v="63"/>
    <tag k="addr:street" v="Church Street"/>
    <tag k="addr:state" v="VT"/>
    <tag k="ref:vcgi:esiteid" v="186258"/>
  </node>
  <node id="-406" visible="true" lat="44.32702186" lon="-72.25133568">
    <tag k="addr:housenumber" v="1799"/>
    <tag k="addr:street" v="Peacham Pond Road"/>
    <tag k="addr:state" v="VT"/>
    <tag k="ref:vcgi:esiteid" v="186259"/>
  </node>
  <node id="-407" visible="true" lat="44.32679367" lon="-72.17209625">
    <tag k="addr:housenumber" v="153"/>
    <tag k="addr:street" v="Church Street"/>
    <tag k="addr:state" v="VT"/>
    <tag k="ref:vcgi:esiteid" v="186260"/>
  </node>
  <node id="-408" visible="true" lat="44.32677459" lon="-72.17119598">
    <tag k="addr:housenumber" v="135"/>
    <tag k="addr:street" v="Church Street"/>
    <tag k="addr:state" v="VT"/>
    <tag k="ref:vcgi:esiteid" v="186261"/>
  </node>
  <node id="-409" visible="true" lat="44.3266338" lon="-72.17586565">
    <tag k="addr:housenumber" v="147"/>
    <tag k="addr:street" v="Macks Mountain Road"/>
    <tag k="addr:state" v="VT"/>
    <tag k="ref:vcgi:esiteid" v="186262"/>
  </node>
  <node id="-410" visible="true" lat="44.32654571" lon="-72.1682434">
    <tag k="addr:housenumber" v="458"/>
    <tag k="addr:street" v="Bayley Hazen Road"/>
    <tag k="addr:state" v="VT"/>
    <tag k="ref:vcgi:esiteid" v="186263"/>
  </node>
  <node id="-412" visible="true" lat="44.3265419" lon="-72.16887664">
    <tag k="addr:housenumber" v="475"/>
    <tag k="addr:street" v="Bayley Hazen Road"/>
    <tag k="addr:state" v="VT"/>
    <tag k="ref:vcgi:esiteid" v="186265"/>
  </node>
  <node id="-413" visible="true" lat="44.32653808" lon="-72.17487335">
    <tag k="addr:housenumber" v="110"/>
    <tag k="addr:street" v="Macks Mountain Road"/>
    <tag k="addr:state" v="VT"/>
    <tag k="ref:vcgi:esiteid" v="186266"/>
  </node>
  <node id="-415" visible="true" lat="44.32674856" lon="-72.25096252">
    <tag k="addr:housenumber" v="1771"/>
    <tag k="addr:street" v="Peacham Pond Road"/>
    <tag k="addr:state" v="VT"/>
    <tag k="ref:vcgi:esiteid" v="186268"/>
  </node>
  <node id="-416" visible="true" lat="44.32641601" lon="-72.17259216">
    <tag k="addr:housenumber" v="185"/>
    <tag k="addr:street" v="Church Street"/>
    <tag k="addr:state" v="VT"/>
    <tag k="ref:vcgi:esiteid" v="186269"/>
  </node>
  <node id="-418" visible="true" lat="44.3265732" lon="-72.25073446">
    <tag k="addr:housenumber" v="1765"/>
    <tag k="addr:street" v="Peacham Pond Road"/>
    <tag k="addr:state" v="VT"/>
    <tag k="ref:vcgi:esiteid" v="186271"/>
  </node>
  <node id="-420" visible="true" lat="44.32617187" lon="-72.16857147">
    <tag k="addr:housenumber" v="443"/>
    <tag k="addr:street" v="Bayley Hazen Road"/>
    <tag k="addr:state" v="VT"/>
    <tag k="ref:vcgi:esiteid" v="186273"/>
  </node>
  <node id="-423" visible="true" lat="44.32606336" lon="-72.1727825">
    <tag k="addr:housenumber" v="35"/>
    <tag k="addr:street" v="Academy Hill"/>
    <tag k="addr:state" v="VT"/>
    <tag k="ref:vcgi:esiteid" v="186276"/>
  </node>
  <node id="-425" visible="true" lat="44.3260184" lon="-72.16651955">
    <tag k="addr:housenumber" v="340"/>
    <tag k="addr:street" v="Bayley Hazen Road"/>
    <tag k="addr:state" v="VT"/>
    <tag k="ref:vcgi:esiteid" v="186278"/>
  </node>
  <node id="-426" visible="true" lat="44.32579435" lon="-72.167662">
    <tag k="addr:housenumber" v="398"/>
    <tag k="addr:street" v="Bayley Hazen Road"/>
    <tag k="addr:state" v="VT"/>
    <tag k="ref:vcgi:esiteid" v="186279"/>
  </node>
  <node id="-429" visible="true" lat="44.32544326" lon="-72.16841125">
    <tag k="addr:housenumber" v="791"/>
    <tag k="addr:street" v="South Main Street"/>
    <tag k="addr:state" v="VT"/>
    <tag k="ref:vcgi:esiteid" v="186282"/>
  </node>
  <node id="-430" visible="true" lat="44.32539367" lon="-72.16769409">
    <tag k="addr:housenumber" v="780"/>
    <tag k="addr:street" v="South Main Street"/>
    <tag k="addr:state" v="VT"/>
    <tag k="ref:vcgi:esiteid" v="186283"/>
  </node>
  <node id="-431" visible="true" lat="44.32518005" lon="-72.16810608">
    <tag k="addr:housenumber" v="769"/>
    <tag k="addr:street" v="South Main Street"/>
    <tag k="addr:state" v="VT"/>
    <tag k="ref:vcgi:esiteid" v="186284"/>
  </node>
  <node id="-432" visible="true" lat="44.3249855" lon="-72.16750335">
    <tag k="addr:housenumber" v="752"/>
    <tag k="addr:street" v="South Main Street"/>
    <tag k="addr:state" v="VT"/>
    <tag k="ref:vcgi:esiteid" v="186285"/>
  </node>
  <node id="-433" visible="true" lat="44.32492065" lon="-72.16799163">
    <tag k="addr:housenumber" v="749"/>
    <tag k="addr:street" v="South Main Street"/>
    <tag k="addr:state" v="VT"/>
    <tag k="ref:vcgi:esiteid" v="186286"/>
  </node>
  <node id="-434" visible="true" lat="44.32423782" lon="-72.16925048">
    <tag k="addr:housenumber" v="775"/>
    <tag k="addr:street" v="South Main Street"/>
    <tag k="addr:state" v="VT"/>
    <tag k="ref:vcgi:esiteid" v="186287"/>
  </node>
  <node id="-436" visible="true" lat="44.32265853" lon="-72.16588592">
    <tag k="addr:housenumber" v="148"/>
    <tag k="addr:street" v="Bayley Hazen Road"/>
    <tag k="addr:state" v="VT"/>
    <tag k="ref:vcgi:esiteid" v="186289"/>
  </node>
  <node id="-439" visible="true" lat="44.32142563" lon="-72.17909662">
    <tag k="addr:housenumber" v="637"/>
    <tag k="addr:street" v="Maple Tree Lane"/>
    <tag k="addr:state" v="VT"/>
    <tag k="ref:vcgi:esiteid" v="186292"/>
  </node>
  <node id="-440" visible="true" lat="44.32070159" lon="-72.1767807">
    <tag k="addr:housenumber" v="514"/>
    <tag k="addr:street" v="Maple Tree Lane"/>
    <tag k="addr:state" v="VT"/>
    <tag k="ref:vcgi:esiteid" v="186293"/>
  </node>
  <node id="-441" visible="true" lat="44.32033157" lon="-72.16539764">
    <tag k="addr:housenumber" v="6"/>
    <tag k="addr:street" v="Bayley Hazen Road"/>
    <tag k="addr:state" v="VT"/>
    <tag k="ref:vcgi:esiteid" v="186294"/>
  </node>
  <node id="-443" visible="true" lat="44.3201065" lon="-72.17469024">
    <tag k="addr:housenumber" v="400"/>
    <tag k="addr:street" v="Maple Tree Lane"/>
    <tag k="addr:state" v="VT"/>
    <tag k="ref:vcgi:esiteid" v="186296"/>
  </node>
  <node id="-444" visible="true" lat="44.32006073" lon="-72.17672729">
    <tag k="addr:housenumber" v="22"/>
    <tag k="addr:street" v="County Road"/>
    <tag k="addr:state" v="VT"/>
    <tag k="ref:vcgi:esiteid" v="186297"/>
  </node>
  <node id="-445" visible="true" lat="44.31929882" lon="-72.1667674">
    <tag k="addr:housenumber" v="360"/>
    <tag k="addr:street" v="South Main Street"/>
    <tag k="addr:state" v="VT"/>
    <tag k="ref:vcgi:esiteid" v="186298"/>
  </node>
  <node id="-446" visible="true" lat="44.31858826" lon="-72.17176819">
    <tag k="addr:housenumber" v="227"/>
    <tag k="addr:street" v="Maple Tree Lane"/>
    <tag k="addr:state" v="VT"/>
    <tag k="ref:vcgi:esiteid" v="186299"/>
  </node>
  <node id="-447" visible="true" lat="44.31834412" lon="-72.17041016">
    <tag k="addr:housenumber" v="157"/>
    <tag k="addr:street" v="Maple Tree Lane"/>
    <tag k="addr:state" v="VT"/>
    <tag k="ref:vcgi:esiteid" v="186300"/>
  </node>
  <node id="-448" visible="true" lat="44.31834793" lon="-72.17246246">
    <tag k="addr:housenumber" v="253"/>
    <tag k="addr:street" v="Maple Tree Lane"/>
    <tag k="addr:state" v="VT"/>
    <tag k="ref:vcgi:esiteid" v="186301"/>
  </node>
  <node id="-449" visible="true" lat="44.31856799" lon="-72.1677166">
    <tag k="addr:housenumber" v="18"/>
    <tag k="addr:street" v="Maple Tree Lane"/>
    <tag k="addr:state" v="VT"/>
    <tag k="ref:vcgi:esiteid" v="186302"/>
  </node>
  <node id="-450" visible="true" lat="44.31827275" lon="-72.1683434">
    <tag k="addr:housenumber" v="50"/>
    <tag k="addr:street" v="Maple Tree Lane"/>
    <tag k="addr:state" v="VT"/>
    <tag k="ref:vcgi:esiteid" v="186303"/>
  </node>
  <node id="-451" visible="true" lat="44.3182531" lon="-72.16697501">
    <tag k="addr:housenumber" v="282"/>
    <tag k="addr:street" v="South Main Street"/>
    <tag k="addr:state" v="VT"/>
    <tag k="ref:vcgi:esiteid" v="186304"/>
  </node>
  <node id="-453" visible="true" lat="44.31717483" lon="-72.18481578">
    <tag k="addr:housenumber" v="2877"/>
    <tag k="addr:street" v="Green Bay Loop"/>
    <tag k="addr:state" v="VT"/>
    <tag k="ref:vcgi:esiteid" v="186306"/>
  </node>
  <node id="-456" visible="true" lat="44.31593704" lon="-72.16701508">
    <tag k="addr:housenumber" v="125"/>
    <tag k="addr:street" v="South Main Street"/>
    <tag k="addr:state" v="VT"/>
    <tag k="ref:vcgi:esiteid" v="186309"/>
  </node>
  <node id="-457" visible="true" lat="44.31521218" lon="-72.16626818">
    <tag k="addr:housenumber" v="68"/>
    <tag k="addr:street" v="South Main Street"/>
    <tag k="addr:state" v="VT"/>
    <tag k="ref:vcgi:esiteid" v="186310"/>
  </node>
  <node id="-458" visible="true" lat="44.31498347" lon="-72.16667575">
    <tag k="addr:housenumber" v="55"/>
    <tag k="addr:street" v="South Main Street"/>
    <tag k="addr:state" v="VT"/>
    <tag k="ref:vcgi:esiteid" v="186311"/>
  </node>
  <node id="-463" visible="true" lat="44.31420428" lon="-72.16724758">
    <tag k="addr:housenumber" v="24"/>
    <tag k="addr:street" v="Governor Mattocks Road"/>
    <tag k="addr:state" v="VT"/>
    <tag k="ref:vcgi:esiteid" v="186316"/>
  </node>
  <node id="-464" visible="true" lat="44.31428504" lon="-72.19365796">
    <tag k="addr:housenumber" v="2395"/>
    <tag k="addr:street" v="Green Bay Loop"/>
    <tag k="addr:state" v="VT"/>
    <tag k="ref:vcgi:esiteid" v="186317"/>
  </node>
  <node id="-465" visible="true" lat="44.31399917" lon="-72.16777039">
    <tag k="addr:housenumber" v="52"/>
    <tag k="addr:street" v="Governor Mattocks Road"/>
    <tag k="addr:state" v="VT"/>
    <tag k="ref:vcgi:esiteid" v="186318"/>
  </node>
  <node id="-466" visible="true" lat="44.3139801" lon="-72.16700745">
    <tag k="addr:housenumber" v="17"/>
    <tag k="addr:street" v="Governor Mattocks Road"/>
    <tag k="addr:state" v="VT"/>
    <tag k="ref:vcgi:esiteid" v="186319"/>
  </node>
  <node id="-467" visible="true" lat="44.31391528" lon="-72.16655198">
    <tag k="addr:housenumber" v="15"/>
    <tag k="addr:street" v="Peacham Groton Road"/>
    <tag k="addr:state" v="VT"/>
    <tag k="ref:vcgi:esiteid" v="186320"/>
  </node>
  <node id="-468" visible="true" lat="44.31374711" lon="-72.16821103">
    <tag k="addr:housenumber" v="86"/>
    <tag k="addr:street" v="Governor Mattocks Road"/>
    <tag k="addr:state" v="VT"/>
    <tag k="ref:vcgi:esiteid" v="186321"/>
  </node>
  <node id="-469" visible="true" lat="44.31362152" lon="-72.16655731">
    <tag k="addr:housenumber" v="43"/>
    <tag k="addr:street" v="Peacham Groton Road"/>
    <tag k="addr:state" v="VT"/>
    <tag k="ref:vcgi:esiteid" v="186322"/>
  </node>
  <node id="-470" visible="true" lat="44.31357575" lon="-72.16698456">
    <tag k="addr:housenumber" v="42"/>
    <tag k="addr:street" v="Peacham Groton Road"/>
    <tag k="addr:state" v="VT"/>
    <tag k="ref:vcgi:esiteid" v="186323"/>
  </node>
  <node id="-472" visible="true" lat="44.31337357" lon="-72.1682663">
    <tag k="addr:housenumber" v="97"/>
    <tag k="addr:street" v="Governor Mattocks Road"/>
    <tag k="addr:state" v="VT"/>
    <tag k="ref:vcgi:esiteid" v="186325"/>
  </node>
  <node id="-473" visible="true" lat="44.31341166" lon="-72.19778937">
    <tag k="addr:housenumber" v="2169"/>
    <tag k="addr:street" v="Green Bay Loop"/>
    <tag k="addr:state" v="VT"/>
    <tag k="ref:vcgi:esiteid" v="186326"/>
  </node>
  <node id="-474" visible="true" lat="44.31311798" lon="-72.16634369">
    <tag k="addr:housenumber" v="79"/>
    <tag k="addr:street" v="Peacham Groton Road"/>
    <tag k="addr:state" v="VT"/>
    <tag k="ref:vcgi:esiteid" v="186327"/>
  </node>
  <node id="-475" visible="true" lat="44.31308746" lon="-72.16683197">
    <tag k="addr:housenumber" v="76"/>
    <tag k="addr:street" v="Peacham Groton Road"/>
    <tag k="addr:state" v="VT"/>
    <tag k="ref:vcgi:esiteid" v="186328"/>
  </node>
  <node id="-476" visible="true" lat="44.31274151" lon="-72.17836113">
    <tag k="addr:housenumber" v="543"/>
    <tag k="addr:street" v="County Road"/>
    <tag k="addr:state" v="VT"/>
    <tag k="ref:vcgi:esiteid" v="186329"/>
  </node>
  <node id="-477" visible="true" lat="44.31267548" lon="-72.16678619">
    <tag k="addr:housenumber" v="104"/>
    <tag k="addr:street" v="Peacham Groton Road"/>
    <tag k="addr:state" v="VT"/>
    <tag k="ref:vcgi:esiteid" v="186330"/>
  </node>
  <node id="-479" visible="true" lat="44.31212234" lon="-72.16613006">
    <tag k="addr:housenumber" v="147"/>
    <tag k="addr:street" v="Peacham Groton Road"/>
    <tag k="addr:state" v="VT"/>
    <tag k="ref:vcgi:esiteid" v="186332"/>
  </node>
  <node id="-482" visible="true" lat="44.31175232" lon="-72.1667099">
    <tag k="addr:housenumber" v="168"/>
    <tag k="addr:street" v="Peacham Groton Road"/>
    <tag k="addr:state" v="VT"/>
    <tag k="ref:vcgi:esiteid" v="186335"/>
  </node>
  <node id="-488" visible="true" lat="44.31093597" lon="-72.1648407">
    <tag k="addr:housenumber" v="267"/>
    <tag k="addr:street" v="Peacham Groton Road"/>
    <tag k="addr:state" v="VT"/>
    <tag k="ref:vcgi:esiteid" v="186341"/>
  </node>
  <node id="-493" visible="true" lat="44.31034124" lon="-72.15889035">
    <tag k="addr:housenumber" v="536"/>
    <tag k="addr:street" v="Peacham Barnet Road"/>
    <tag k="addr:state" v="VT"/>
    <tag k="ref:vcgi:esiteid" v="186346"/>
  </node>
  <node id="-499" visible="true" lat="44.30914773" lon="-72.15519336">
    <tag k="addr:housenumber" v="678"/>
    <tag k="addr:street" v="Peacham Barnet Road"/>
    <tag k="addr:state" v="VT"/>
    <tag k="ref:vcgi:esiteid" v="186352"/>
  </node>
  <node id="-500" visible="true" lat="44.30899302" lon="-72.15466383">
    <tag k="addr:housenumber" v="722"/>
    <tag k="addr:street" v="Peacham Barnet Road"/>
    <tag k="addr:state" v="VT"/>
    <tag k="ref:vcgi:esiteid" v="186353"/>
  </node>
  <node id="-502" visible="true" lat="44.30878238" lon="-72.15337279">
    <tag k="addr:housenumber" v="45"/>
    <tag k="addr:street" v="Aiken Farm Road"/>
    <tag k="addr:state" v="VT"/>
    <tag k="ref:vcgi:esiteid" v="186355"/>
  </node>
  <node id="-503" visible="true" lat="44.30858781" lon="-72.15400051">
    <tag k="addr:housenumber" v="45"/>
    <tag k="addr:street" v="Farrow Farm Road"/>
    <tag k="addr:state" v="VT"/>
    <tag k="ref:vcgi:esiteid" v="186356"/>
  </node>
  <node id="-505" visible="true" lat="44.30835342" lon="-72.15268707">
    <tag k="addr:housenumber" v="828"/>
    <tag k="addr:street" v="Peacham Barnet Road"/>
    <tag k="addr:state" v="VT"/>
    <tag k="ref:vcgi:esiteid" v="186358"/>
  </node>
  <node id="-506" visible="true" lat="44.3082161" lon="-72.15496063">
    <tag k="addr:housenumber" v="86"/>
    <tag k="addr:street" v="Farrow Farm Road"/>
    <tag k="addr:state" v="VT"/>
    <tag k="ref:vcgi:esiteid" v="186359"/>
  </node>
  <node id="-512" visible="true" lat="44.30768585" lon="-72.18217468">
    <tag k="addr:housenumber" v="914"/>
    <tag k="addr:street" v="County Road"/>
    <tag k="addr:state" v="VT"/>
    <tag k="ref:vcgi:esiteid" v="186365"/>
  </node>
  <node id="-519" visible="true" lat="44.30672454" lon="-72.1531372">
    <tag k="addr:housenumber" v="158"/>
    <tag k="addr:street" v="Aiken Farm Road"/>
    <tag k="addr:state" v="VT"/>
    <tag k="ref:vcgi:esiteid" v="186372"/>
  </node>
  <node id="-527" visible="true" lat="44.30605686" lon="-72.15640534">
    <tag k="addr:housenumber" v="250"/>
    <tag k="addr:street" v="Farrow Farm Road"/>
    <tag k="addr:state" v="VT"/>
    <tag k="ref:vcgi:esiteid" v="186380"/>
  </node>
  <node id="-528" visible="true" lat="44.30587387" lon="-72.18231964">
    <tag k="addr:housenumber" v="1061"/>
    <tag k="addr:street" v="County Road"/>
    <tag k="addr:state" v="VT"/>
    <tag k="ref:vcgi:esiteid" v="186381"/>
  </node>
  <node id="-540" visible="true" lat="44.30426788" lon="-72.18403625">
    <tag k="addr:housenumber" v="1194"/>
    <tag k="addr:street" v="County Road"/>
    <tag k="addr:state" v="VT"/>
    <tag k="ref:vcgi:esiteid" v="186393"/>
  </node>
  <node id="-553" visible="true" lat="44.29806561" lon="-72.18478214">
    <tag k="addr:housenumber" v="1643"/>
    <tag k="addr:street" v="County Road"/>
    <tag k="addr:state" v="VT"/>
    <tag k="ref:vcgi:esiteid" v="186406"/>
  </node>
  <node id="-554" visible="true" lat="44.29700223" lon="-72.18349211">
    <tag k="addr:housenumber" v="15"/>
    <tag k="addr:street" v="Great Road"/>
    <tag k="addr:state" v="VT"/>
    <tag k="ref:vcgi:esiteid" v="186410"/>
  </node>
  <node id="-555" visible="true" lat="44.29561233" lon="-72.18541717">
    <tag k="addr:housenumber" v="42"/>
    <tag k="addr:street" v="Great Road"/>
    <tag k="addr:state" v="VT"/>
    <tag k="ref:vcgi:esiteid" v="186411"/>
  </node>
  <node id="-558" visible="true" lat="44.29169845" lon="-72.18991088">
    <tag k="addr:housenumber" v="2139"/>
    <tag k="addr:street" v="County Road"/>
    <tag k="addr:state" v="VT"/>
    <tag k="ref:vcgi:esiteid" v="186414"/>
  </node>
  <node id="-562" visible="true" lat="44.28118133" lon="-72.18715667">
    <tag k="addr:housenumber" v="1104"/>
    <tag k="addr:street" v="Great Road"/>
    <tag k="addr:state" v="VT"/>
    <tag k="ref:vcgi:esiteid" v="186418"/>
  </node>
  <node id="-563" visible="true" lat="44.28094482" lon="-72.19950103">
    <tag k="addr:housenumber" v="3038"/>
    <tag k="addr:street" v="County Road"/>
    <tag k="addr:state" v="VT"/>
    <tag k="ref:vcgi:esiteid" v="186419"/>
  </node>
  <node id="-564" visible="true" lat="44.27893448" lon="-72.18730164">
    <tag k="addr:housenumber" v="1223"/>
    <tag k="addr:street" v="Great Road"/>
    <tag k="addr:state" v="VT"/>
    <tag k="ref:vcgi:esiteid" v="186420"/>
  </node>
  <node id="-565" visible="true" lat="44.27780532" lon="-72.18977355">
    <tag k="addr:housenumber" v="1372"/>
    <tag k="addr:street" v="Great Road"/>
    <tag k="addr:state" v="VT"/>
    <tag k="ref:vcgi:esiteid" v="186421"/>
  </node>
  <node id="-566" visible="true" lat="44.27773666" lon="-72.19231415">
    <tag k="addr:housenumber" v="1400"/>
    <tag k="addr:street" v="Great Road"/>
    <tag k="addr:state" v="VT"/>
    <tag k="ref:vcgi:esiteid" v="186422"/>
  </node>
  <node id="-567" visible="true" lat="44.27744293" lon="-72.18808746">
    <tag k="addr:housenumber" v="1349"/>
    <tag k="addr:street" v="Great Road"/>
    <tag k="addr:state" v="VT"/>
    <tag k="ref:vcgi:esiteid" v="186423"/>
  </node>
  <node id="-571" visible="true" lat="44.35407923" lon="-72.15052906">
    <tag k="addr:housenumber" v="1140"/>
    <tag k="addr:street" v="Old County Road"/>
    <tag k="addr:state" v="VT"/>
    <tag k="ref:vcgi:esiteid" v="186427"/>
  </node>
  <node id="-572" visible="true" lat="44.36450577" lon="-72.19536591">
    <tag k="addr:housenumber" v="2025"/>
    <tag k="addr:street" v="Slack Street"/>
    <tag k="addr:state" v="VT"/>
    <tag k="ref:vcgi:esiteid" v="186428"/>
  </node>
  <node id="-573" visible="true" lat="44.36269997" lon="-72.19722761">
    <tag k="addr:housenumber" v="1871"/>
    <tag k="addr:street" v="Slack Street"/>
    <tag k="addr:state" v="VT"/>
    <tag k="ref:vcgi:esiteid" v="186429"/>
  </node>
  <node id="-574" visible="true" lat="44.35868072" lon="-72.19282532">
    <tag k="addr:housenumber" v="1581"/>
    <tag k="addr:street" v="Slack Street"/>
    <tag k="addr:state" v="VT"/>
    <tag k="ref:vcgi:esiteid" v="186430"/>
  </node>
  <node id="-575" visible="true" lat="44.28889846" lon="-72.18302917">
    <tag k="addr:housenumber" v="520"/>
    <tag k="addr:street" v="Great Road"/>
    <tag k="addr:state" v="VT"/>
    <tag k="ref:vcgi:esiteid" v="186431"/>
  </node>
  <node id="-576" visible="true" lat="44.28648758" lon="-72.18039703">
    <tag k="addr:housenumber" v="184"/>
    <tag k="addr:street" v="Field Road"/>
    <tag k="addr:state" v="VT"/>
    <tag k="ref:vcgi:esiteid" v="186432"/>
  </node>
  <node id="-577" visible="true" lat="44.28519681" lon="-72.17872083">
    <tag k="addr:housenumber" v="311"/>
    <tag k="addr:street" v="Field Road"/>
    <tag k="addr:state" v="VT"/>
    <tag k="ref:vcgi:esiteid" v="186433"/>
  </node>
  <node id="-578" visible="true" lat="44.28486251" lon="-72.18461608">
    <tag k="addr:housenumber" v="820"/>
    <tag k="addr:street" v="Great Road"/>
    <tag k="addr:state" v="VT"/>
    <tag k="ref:vcgi:esiteid" v="186434"/>
  </node>
  <node id="-581" visible="true" lat="44.34376379" lon="-72.1597297">
    <tag k="addr:housenumber" v="219"/>
    <tag k="addr:street" v="Old County Road"/>
    <tag k="addr:state" v="VT"/>
    <tag k="ref:vcgi:esiteid" v="186437"/>
  </node>
  <node id="-582" visible="true" lat="44.29109421" lon="-72.18576099">
    <tag k="addr:housenumber" v="240"/>
    <tag k="addr:street" v="Great Road"/>
    <tag k="addr:state" v="VT"/>
    <tag k="ref:vcgi:esiteid" v="186438"/>
  </node>
  <node id="-586" visible="true" lat="44.34146078" lon="-72.25982316">
    <tag k="addr:housenumber" v="235"/>
    <tag k="addr:street" v="Peacham Pond Road"/>
    <tag k="addr:state" v="VT"/>
    <tag k="ref:vcgi:esiteid" v="186442"/>
  </node>
  <node id="-591" visible="true" lat="44.33411601" lon="-72.259205">
    <tag k="addr:housenumber" v="116"/>
    <tag k="addr:street" v="Spur Road"/>
    <tag k="addr:state" v="VT"/>
    <tag k="ref:vcgi:esiteid" v="186447"/>
  </node>
  <node id="-592" visible="true" lat="44.3330929" lon="-72.26563911">
    <tag k="addr:housenumber" v="531"/>
    <tag k="addr:street" v="Onion Point"/>
    <tag k="addr:state" v="VT"/>
    <tag k="ref:vcgi:esiteid" v="186448"/>
  </node>
  <node id="-593" visible="true" lat="44.32945035" lon="-72.26776843">
    <tag k="addr:housenumber" v="840"/>
    <tag k="addr:street" v="Onion Point"/>
    <tag k="addr:state" v="VT"/>
    <tag k="ref:vcgi:esiteid" v="186449"/>
  </node>
  <node id="-597" visible="true" lat="44.34503158" lon="-72.26521735">
    <tag k="addr:housenumber" v="83"/>
    <tag k="addr:street" v="Kellogg Mill Road"/>
    <tag k="addr:state" v="VT"/>
    <tag k="ref:vcgi:esiteid" v="186453"/>
  </node>
  <node id="-598" visible="true" lat="44.36605963" lon="-72.24281669">
    <tag k="addr:housenumber" v="4606"/>
    <tag k="addr:street" v="Macks Mountain Road"/>
    <tag k="addr:state" v="VT"/>
    <tag k="ref:vcgi:esiteid" v="186454"/>
  </node>
  <node id="-601" visible="true" lat="44.36005604" lon="-72.1963629">
    <tag k="addr:housenumber" v="1711"/>
    <tag k="addr:street" v="Slack Street"/>
    <tag k="addr:state" v="VT"/>
    <tag k="ref:vcgi:esiteid" v="186458"/>
  </node>
  <node id="-602" visible="true" lat="44.36992407" lon="-72.19785596">
    <tag k="addr:housenumber" v="2475"/>
    <tag k="addr:street" v="Slack Street"/>
    <tag k="addr:state" v="VT"/>
    <tag k="ref:vcgi:esiteid" v="186459"/>
  </node>
  <node id="-604" visible="true" lat="44.34962656" lon="-72.16937557">
    <tag k="addr:housenumber" v="750"/>
    <tag k="addr:street" v="East Peacham Road"/>
    <tag k="addr:state" v="VT"/>
    <tag k="ref:vcgi:esiteid" v="186461"/>
  </node>
  <node id="-606" visible="true" lat="44.32872436" lon="-72.17079255">
    <tag k="addr:housenumber" v="643"/>
    <tag k="addr:street" v="Bayley Hazen Road"/>
    <tag k="addr:state" v="VT"/>
    <tag k="ref:vcgi:esiteid" v="186463"/>
  </node>
  <node id="-608" visible="true" lat="44.33206084" lon="-72.1898905">
    <tag k="addr:housenumber" v="955"/>
    <tag k="addr:street" v="Macks Mountain Road"/>
    <tag k="addr:state" v="VT"/>
    <tag k="ref:vcgi:esiteid" v="186465"/>
  </node>
  <node id="-609" visible="true" lat="44.33619214" lon="-72.19677236">
    <tag k="addr:housenumber" v="1521"/>
    <tag k="addr:street" v="Macks Mountain Road"/>
    <tag k="addr:state" v="VT"/>
    <tag k="ref:vcgi:esiteid" v="186466"/>
  </node>
  <node id="-610" visible="true" lat="44.3261014" lon="-72.16774804">
    <tag k="addr:housenumber" v="424"/>
    <tag k="addr:street" v="Bayley Hazen Road"/>
    <tag k="addr:state" v="VT"/>
    <tag k="ref:vcgi:esiteid" v="186467"/>
  </node>
  <node id="-612" visible="true" lat="44.32322738" lon="-72.17851591">
    <tag k="addr:housenumber" v="320"/>
    <tag k="addr:street" v="Academy Hill"/>
    <tag k="addr:state" v="VT"/>
    <tag k="ref:vcgi:esiteid" v="186469"/>
  </node>
  <node id="-614" visible="true" lat="44.34387469" lon="-72.1615506">
    <tag k="addr:housenumber" v="1267"/>
    <tag k="addr:street" v="East Peacham Road"/>
    <tag k="addr:state" v="VT"/>
    <tag k="ref:vcgi:esiteid" v="186471"/>
  </node>
  <node id="-615" visible="true" lat="44.34239718" lon="-72.16191742">
    <tag k="addr:housenumber" v="1350"/>
    <tag k="addr:street" v="East Peacham Road"/>
    <tag k="addr:state" v="VT"/>
    <tag k="ref:vcgi:esiteid" v="186472"/>
  </node>
  <node id="-617" visible="true" lat="44.3280616" lon="-72.24945072">
    <tag k="addr:housenumber" v="1679"/>
    <tag k="addr:street" v="Peacham Pond Road"/>
    <tag k="addr:state" v="VT"/>
    <tag k="ref:vcgi:esiteid" v="186474"/>
  </node>
  <node id="-618" visible="true" lat="44.3261343" lon="-72.25062265">
    <tag k="addr:housenumber" v="1769"/>
    <tag k="addr:street" v="Peacham Pond Road"/>
    <tag k="addr:state" v="VT"/>
    <tag k="ref:vcgi:esiteid" v="186475"/>
  </node>
  <node id="-625" visible="true" lat="44.33934362" lon="-72.1597216">
    <tag k="addr:housenumber" v="1552"/>
    <tag k="addr:street" v="East Peacham Road"/>
    <tag k="addr:state" v="VT"/>
    <tag k="ref:vcgi:esiteid" v="186482"/>
  </node>
  <node id="-631" visible="true" lat="44.33555989" lon="-72.26382596">
    <tag k="addr:housenumber" v="40"/>
    <tag k="addr:street" v="Spur Road"/>
    <tag k="addr:state" v="VT"/>
    <tag k="ref:vcgi:esiteid" v="186489"/>
  </node>
  <node id="-633" visible="true" lat="44.35527023" lon="-72.18514435">
    <tag k="addr:housenumber" v="101"/>
    <tag k="addr:street" v="Gracie Drive"/>
    <tag k="addr:state" v="VT"/>
    <tag k="ref:vcgi:esiteid" v="305493"/>
  </node>
  <node id="-635" visible="true" lat="44.33516023" lon="-72.2681768">
    <tag k="addr:housenumber" v="285"/>
    <tag k="addr:street" v="Onion Point"/>
    <tag k="addr:state" v="VT"/>
    <tag k="ref:vcgi:esiteid" v="305926"/>
  </node>
  <node id="-636" visible="true" lat="44.33981707" lon="-72.19162377">
    <tag k="addr:housenumber" v="601"/>
    <tag k="addr:street" v="Hapenny Road"/>
    <tag k="addr:state" v="VT"/>
    <tag k="ref:vcgi:esiteid" v="306116"/>
  </node>
  <node id="-641" visible="true" lat="44.28852293" lon="-72.2048005">
    <tag k="addr:housenumber" v="683"/>
    <tag k="addr:street" v="Green Bay Loop"/>
    <tag k="addr:state" v="VT"/>
    <tag k="ref:vcgi:esiteid" v="307027"/>
  </node>
  <node id="-642" visible="true" lat="44.33548523" lon="-72.21636136">
    <tag k="addr:housenumber" v="201"/>
    <tag k="addr:street" v="Foster Pond Road"/>
    <tag k="addr:state" v="VT"/>
    <tag k="ref:vcgi:esiteid" v="307671"/>
  </node>
  <node id="-643" visible="true" lat="44.3353484" lon="-72.21799308">
    <tag k="addr:housenumber" v="200"/>
    <tag k="addr:street" v="Foster Pond Road"/>
    <tag k="addr:state" v="VT"/>
    <tag k="ref:vcgi:esiteid" v="307672"/>
  </node>
  <node id="-644" visible="true" lat="44.39017565" lon="-72.22769463">
    <tag k="addr:housenumber" v="38"/>
    <tag k="addr:street" v="Scottland Way"/>
    <tag k="addr:state" v="VT"/>
    <tag k="ref:vcgi:esiteid" v="315478"/>
  </node>
  <node id="-645" visible="true" lat="44.33233978" lon="-72.25238963">
    <tag k="addr:housenumber" v="1320"/>
    <tag k="addr:street" v="Peacham Pond Road"/>
    <tag k="addr:state" v="VT"/>
    <tag k="ref:vcgi:esiteid" v="317483"/>
  </node>
  <node id="-647" visible="true" lat="44.38982004" lon="-72.22310392">
    <tag k="addr:housenumber" v="333"/>
    <tag k="addr:street" v="Scottland Way"/>
    <tag k="addr:state" v="VT"/>
    <tag k="ref:vcgi:esiteid" v="329712"/>
  </node>
  <node id="-651" visible="true" lat="44.36242672" lon="-72.24698257">
    <tag k="addr:housenumber" v="5115"/>
    <tag k="addr:street" v="Macks Mountain Road"/>
    <tag k="addr:state" v="VT"/>
    <tag k="ref:vcgi:esiteid" v="335443"/>
  </node>
  <node id="-653" visible="true" lat="44.36397656" lon="-72.24876018">
    <tag k="addr:housenumber" v="4735"/>
    <tag k="addr:street" v="Macks Mountain Road"/>
    <tag k="addr:state" v="VT"/>
    <tag k="ref:vcgi:esiteid" v="335829"/>
  </node>
  <node id="-655" visible="true" lat="44.29289236" lon="-72.19116598">
    <tag k="addr:housenumber" v="2150"/>
    <tag k="addr:street" v="County Road"/>
    <tag k="addr:state" v="VT"/>
    <tag k="ref:vcgi:esiteid" v="337048"/>
  </node>
  <node id="-657" visible="true" lat="44.33351671" lon="-72.16533479">
    <tag k="addr:housenumber" v="403"/>
    <tag k="addr:street" v="Old Cemetery Road"/>
    <tag k="addr:state" v="VT"/>
    <tag k="ref:vcgi:esiteid" v="340845"/>
  </node>
  <node id="-660" visible="true" lat="44.28904498" lon="-72.20775191">
    <tag k="addr:housenumber" v="685"/>
    <tag k="addr:street" v="Green Bay Loop"/>
    <tag k="addr:state" v="VT"/>
    <tag k="ref:vcgi:esiteid" v="341301"/>
  </node>
  <node id="-665" visible="true" lat="44.28191478" lon="-72.18354105">
    <tag k="addr:housenumber" v="999"/>
    <tag k="addr:street" v="Great Road"/>
    <tag k="addr:state" v="VT"/>
    <tag k="ref:vcgi:esiteid" v="345584"/>
  </node>
  <node id="-666" visible="true" lat="44.2832931" lon="-72.18437575">
    <tag k="addr:housenumber" v="907"/>
    <tag k="addr:street" v="Great Road"/>
    <tag k="addr:state" v="VT"/>
    <tag k="ref:vcgi:esiteid" v="345585"/>
  </node>
  <node id="-676" visible="true" lat="44.34042186" lon="-72.17618428">
    <tag k="addr:housenumber" v="43"/>
    <tag k="addr:street" v="Slack Street"/>
    <tag k="addr:state" v="VT"/>
    <tag k="ref:vcgi:esiteid" v="446340"/>
  </node>
  <node id="-677" visible="true" lat="44.38947888" lon="-72.22107198">
    <tag k="addr:housenumber" v="445"/>
    <tag k="addr:street" v="Scottland Way"/>
    <tag k="addr:state" v="VT"/>
    <tag k="ref:vcgi:esiteid" v="446359"/>
  </node>
  <node id="-678" visible="true" lat="44.34828323" lon="-72.19343495">
    <tag k="addr:housenumber" v="621"/>
    <tag k="addr:street" v="Penny Street"/>
    <tag k="addr:state" v="VT"/>
    <tag k="ref:vcgi:esiteid" v="446390"/>
  </node>
  <node id="-680" visible="true" lat="44.35930698" lon="-72.1898194">
    <tag k="addr:housenumber" v="1714"/>
    <tag k="addr:street" v="Slack Street"/>
    <tag k="addr:state" v="VT"/>
    <tag k="ref:vcgi:esiteid" v="446571"/>
  </node>
  <node id="-681" visible="true" lat="44.33813147" lon="-72.25498436">
    <tag k="addr:housenumber" v="700"/>
    <tag k="addr:street" v="Peacham Pond Road"/>
    <tag k="addr:state" v="VT"/>
    <tag k="ref:vcgi:esiteid" v="447927"/>
  </node>
  <node id="-683" visible="true" lat="44.326601" lon="-72.17180743">
    <tag k="addr:housenumber" v="145"/>
    <tag k="addr:street" v="Church Street"/>
    <tag k="addr:state" v="VT"/>
    <tag k="ref:vcgi:esiteid" v="451313"/>
  </node>
  <node id="-685" visible="true" lat="44.33624925" lon="-72.25550358">
    <tag k="addr:housenumber" v="676"/>
    <tag k="addr:street" v="Peacham Pond Road"/>
    <tag k="addr:state" v="VT"/>
    <tag k="ref:vcgi:esiteid" v="454799"/>
  </node>
</osm>
