<?xml version="1.0" encoding="UTF-8"?>
<osm version="0.6" generator="JOSM">
  <node id="-101" visible="true" lat="44.39172287" lon="-72.22734547">
    <tag k="addr:city" v="Peacham"/>
    <tag k="addr:housenumber" v="618"/>
    <tag k="addr:street" v="Young Farm Road"/>
    <tag k="addr:state" v="VT"/>
    <tag k="ref:vcgi:esiteid" v="185952"/>
  </node>
  <node id="-102" visible="true" lat="44.3915961" lon="-72.22904362">
    <tag k="addr:city" v="Peacham"/>
    <tag k="addr:housenumber" v="756"/>
    <tag k="addr:street" v="Young Farm Road"/>
    <tag k="addr:state" v="VT"/>
    <tag k="ref:vcgi:esiteid" v="185953"/>
  </node>
  <node id="-103" visible="true" lat="44.39060211" lon="-72.22953796">
    <tag k="addr:city" v="Peacham"/>
    <tag k="addr:housenumber" v="379"/>
    <tag k="addr:street" v="Young Farm Road"/>
    <tag k="addr:state" v="VT"/>
    <tag k="ref:vcgi:esiteid" v="185954"/>
  </node>
  <node id="-104" visible="true" lat="44.39004517" lon="-72.22981262">
    <tag k="addr:city" v="Peacham"/>
    <tag k="addr:housenumber" v="399"/>
    <tag k="addr:street" v="Young Farm Road"/>
    <tag k="addr:state" v="VT"/>
    <tag k="ref:vcgi:esiteid" v="185955"/>
  </node>
  <node id="-105" visible="true" lat="44.38961029" lon="-72.23014069">
    <tag k="addr:city" v="Peacham"/>
    <tag k="addr:housenumber" v="433"/>
    <tag k="addr:street" v="Young Farm Road"/>
    <tag k="addr:state" v="VT"/>
    <tag k="ref:vcgi:esiteid" v="185956"/>
  </node>
  <node id="-106" visible="true" lat="44.38710758" lon="-72.20341837">
    <tag k="addr:city" v="Peacham"/>
    <tag k="addr:housenumber" v="5244"/>
    <tag k="addr:street" v="Bayley Hazen Road"/>
    <tag k="addr:state" v="VT"/>
    <tag k="ref:vcgi:esiteid" v="185957"/>
  </node>
  <node id="-107" visible="true" lat="44.38557072" lon="-72.17585576">
    <tag k="addr:city" v="Peacham"/>
    <tag k="addr:housenumber" v="1780"/>
    <tag k="addr:street" v="Keiser Pond Road"/>
    <tag k="addr:state" v="VT"/>
    <tag k="ref:vcgi:esiteid" v="185958"/>
  </node>
  <node id="-108" visible="true" lat="44.38408279" lon="-72.17932892">
    <tag k="addr:city" v="Peacham"/>
    <tag k="addr:housenumber" v="307"/>
    <tag k="addr:street" v="Deweysburg Road"/>
    <tag k="addr:state" v="VT"/>
    <tag k="ref:vcgi:esiteid" v="185960"/>
  </node>
  <node id="-109" visible="true" lat="44.38539112" lon="-72.19433738">
    <tag k="addr:city" v="Peacham"/>
    <tag k="addr:housenumber" v="4922"/>
    <tag k="addr:street" v="Bayley Hazen Road"/>
    <tag k="addr:state" v="VT"/>
    <tag k="ref:vcgi:esiteid" v="185961"/>
  </node>
  <node id="-110" visible="true" lat="44.38353294" lon="-72.20392243">
    <tag k="addr:city" v="Peacham"/>
    <tag k="addr:housenumber" v="4931"/>
    <tag k="addr:street" v="Bayley Hazen Road"/>
    <tag k="addr:state" v="VT"/>
    <tag k="ref:vcgi:esiteid" v="185962"/>
  </node>
  <node id="-111" visible="true" lat="44.38297124" lon="-72.19784758">
    <tag k="addr:city" v="Peacham"/>
    <tag k="addr:housenumber" v="4812"/>
    <tag k="addr:street" v="Bayley Hazen Road"/>
    <tag k="addr:state" v="VT"/>
    <tag k="ref:vcgi:esiteid" v="185963"/>
  </node>
  <node id="-112" visible="true" lat="44.38190842" lon="-72.1974411">
    <tag k="addr:city" v="Peacham"/>
    <tag k="addr:housenumber" v="4754"/>
    <tag k="addr:street" v="Bayley Hazen Road"/>
    <tag k="addr:state" v="VT"/>
    <tag k="ref:vcgi:esiteid" v="185964"/>
  </node>
  <node id="-113" visible="true" lat="44.38187408" lon="-72.19966125">
    <tag k="addr:city" v="Peacham"/>
    <tag k="addr:housenumber" v="4805"/>
    <tag k="addr:street" v="Bayley Hazen Road"/>
    <tag k="addr:state" v="VT"/>
    <tag k="ref:vcgi:esiteid" v="185965"/>
  </node>
  <node id="-114" visible="true" lat="44.38015335" lon="-72.1947162">
    <tag k="addr:city" v="Peacham"/>
    <tag k="addr:housenumber" v="4573"/>
    <tag k="addr:street" v="Bayley Hazen Road"/>
    <tag k="addr:state" v="VT"/>
    <tag k="ref:vcgi:esiteid" v="185966"/>
  </node>
  <node id="-115" visible="true" lat="44.37564794" lon="-72.19105118">
    <tag k="addr:city" v="Peacham"/>
    <tag k="addr:housenumber" v="4465"/>
    <tag k="addr:street" v="Bayley Hazen Road"/>
    <tag k="addr:state" v="VT"/>
    <tag k="ref:vcgi:esiteid" v="185967"/>
  </node>
  <node id="-116" visible="true" lat="44.37926102" lon="-72.23709106">
    <tag k="addr:city" v="Peacham"/>
    <tag k="addr:housenumber" v="169"/>
    <tag k="addr:street" v="Cow Hill Road"/>
    <tag k="addr:state" v="VT"/>
    <tag k="ref:vcgi:esiteid" v="185968"/>
  </node>
  <node id="-117" visible="true" lat="44.37881638" lon="-72.19013151">
    <tag k="addr:city" v="Peacham"/>
    <tag k="addr:housenumber" v="4364"/>
    <tag k="addr:street" v="Bayley Hazen Road"/>
    <tag k="addr:state" v="VT"/>
    <tag k="ref:vcgi:esiteid" v="185969"/>
  </node>
  <node id="-118" visible="true" lat="44.37874603" lon="-72.23589325">
    <tag k="addr:city" v="Peacham"/>
    <tag k="addr:housenumber" v="213"/>
    <tag k="addr:street" v="Cow Hill Road"/>
    <tag k="addr:state" v="VT"/>
    <tag k="ref:vcgi:esiteid" v="185970"/>
  </node>
  <node id="-119" visible="true" lat="44.37613878" lon="-72.19068409">
    <tag k="addr:city" v="Peacham"/>
    <tag k="addr:housenumber" v="4287"/>
    <tag k="addr:street" v="Bayley Hazen Road"/>
    <tag k="addr:state" v="VT"/>
    <tag k="ref:vcgi:esiteid" v="185971"/>
  </node>
  <node id="-120" visible="true" lat="44.37754763" lon="-72.18772865">
    <tag k="addr:city" v="Peacham"/>
    <tag k="addr:housenumber" v="4190"/>
    <tag k="addr:street" v="Bayley Hazen Road"/>
    <tag k="addr:state" v="VT"/>
    <tag k="ref:vcgi:esiteid" v="185972"/>
  </node>
  <node id="-121" visible="true" lat="44.37393763" lon="-72.18375823">
    <tag k="addr:city" v="Peacham"/>
    <tag k="addr:housenumber" v="3859"/>
    <tag k="addr:street" v="Bayley Hazen Road"/>
    <tag k="addr:state" v="VT"/>
    <tag k="ref:vcgi:esiteid" v="185973"/>
  </node>
  <node id="-123" visible="true" lat="44.37245715" lon="-72.17514814">
    <tag k="addr:city" v="Peacham"/>
    <tag k="addr:housenumber" v="655"/>
    <tag k="addr:street" v="Keiser Pond Road"/>
    <tag k="addr:state" v="VT"/>
    <tag k="ref:vcgi:esiteid" v="185975"/>
  </node>
  <node id="-124" visible="true" lat="44.36998549" lon="-72.24773477">
    <tag k="addr:city" v="Peacham"/>
    <tag k="addr:housenumber" v="5112"/>
    <tag k="addr:street" v="Macks Mountain Road"/>
    <tag k="addr:state" v="VT"/>
    <tag k="ref:vcgi:esiteid" v="185976"/>
  </node>
  <node id="-131" visible="true" lat="44.36629486" lon="-72.15625763">
    <tag k="addr:city" v="Peacham"/>
    <tag k="addr:housenumber" v="1608"/>
    <tag k="addr:street" v="Peacham Danville Road"/>
    <tag k="addr:state" v="VT"/>
    <tag k="ref:vcgi:esiteid" v="185983"/>
  </node>
  <node id="-132" visible="true" lat="44.36607149" lon="-72.16004212">
    <tag k="addr:city" v="Peacham"/>
    <tag k="addr:housenumber" v="1423"/>
    <tag k="addr:street" v="Peacham Danville Road"/>
    <tag k="addr:state" v="VT"/>
    <tag k="ref:vcgi:esiteid" v="185984"/>
  </node>
  <node id="-138" visible="true" lat="44.36313689" lon="-72.1650656">
    <tag k="addr:city" v="Peacham"/>
    <tag k="addr:housenumber" v="1090"/>
    <tag k="addr:street" v="Peacham Danville Road"/>
    <tag k="addr:state" v="VT"/>
    <tag k="ref:vcgi:esiteid" v="185990"/>
  </node>
  <node id="-139" visible="true" lat="44.36312827" lon="-72.16617931">
    <tag k="addr:city" v="Peacham"/>
    <tag k="addr:housenumber" v="1047"/>
    <tag k="addr:street" v="Peacham Danville Road"/>
    <tag k="addr:state" v="VT"/>
    <tag k="ref:vcgi:esiteid" v="185991"/>
  </node>
  <node id="-143" visible="true" lat="44.36208993" lon="-72.16773199">
    <tag k="addr:city" v="Peacham"/>
    <tag k="addr:housenumber" v="7"/>
    <tag k="addr:street" v="Keiser Pond Road"/>
    <tag k="addr:state" v="VT"/>
    <tag k="ref:vcgi:esiteid" v="185995"/>
  </node>
  <node id="-145" visible="true" lat="44.3608017" lon="-72.12388611">
    <tag k="addr:city" v="Peacham"/>
    <tag k="addr:housenumber" v="2913"/>
    <tag k="addr:street" v="Thaddeus Stevens Road"/>
    <tag k="addr:state" v="VT"/>
    <tag k="ref:vcgi:esiteid" v="185997"/>
  </node>
  <node id="-148" visible="true" lat="44.36035156" lon="-72.17602539">
    <tag k="addr:city" v="Peacham"/>
    <tag k="addr:housenumber" v="331"/>
    <tag k="addr:street" v="Ewell Mill Road"/>
    <tag k="addr:state" v="VT"/>
    <tag k="ref:vcgi:esiteid" v="186000"/>
  </node>
  <node id="-160" visible="true" lat="44.35747528" lon="-72.1235733">
    <tag k="addr:city" v="Peacham"/>
    <tag k="addr:housenumber" v="2676"/>
    <tag k="addr:street" v="Thaddeus Stevens Road"/>
    <tag k="addr:state" v="VT"/>
    <tag k="ref:vcgi:esiteid" v="186012"/>
  </node>
  <node id="-161" visible="true" lat="44.35782043" lon="-72.09982243">
    <tag k="addr:city" v="Peacham"/>
    <tag k="addr:housenumber" v="1017"/>
    <tag k="addr:street" v="Rake Factory Road"/>
    <tag k="addr:state" v="VT"/>
    <tag k="ref:vcgi:esiteid" v="186013"/>
  </node>
  <node id="-163" visible="true" lat="44.35723114" lon="-72.12740326">
    <tag k="addr:city" v="Peacham"/>
    <tag k="addr:housenumber" v="1219"/>
    <tag k="addr:street" v="East Hill Road"/>
    <tag k="addr:state" v="VT"/>
    <tag k="ref:vcgi:esiteid" v="186015"/>
  </node>
  <node id="-167" visible="true" lat="44.3567543" lon="-72.12882233">
    <tag k="addr:city" v="Peacham"/>
    <tag k="addr:housenumber" v="1147"/>
    <tag k="addr:street" v="East Hill Road"/>
    <tag k="addr:state" v="VT"/>
    <tag k="ref:vcgi:esiteid" v="186019"/>
  </node>
  <node id="-169" visible="true" lat="44.35966026" lon="-72.2065704">
    <tag k="addr:city" v="Peacham"/>
    <tag k="addr:housenumber" v="1535"/>
    <tag k="addr:street" v="Penny Street"/>
    <tag k="addr:state" v="VT"/>
    <tag k="ref:vcgi:esiteid" v="186021"/>
  </node>
  <node id="-172" visible="true" lat="44.35576248" lon="-72.10901642">
    <tag k="addr:city" v="Peacham"/>
    <tag k="addr:housenumber" v="497"/>
    <tag k="addr:street" v="Rake Factory Road"/>
    <tag k="addr:state" v="VT"/>
    <tag k="ref:vcgi:esiteid" v="186024"/>
  </node>
  <node id="-173" visible="true" lat="44.35572203" lon="-72.22454049">
    <tag k="addr:city" v="Peacham"/>
    <tag k="addr:housenumber" v="3554"/>
    <tag k="addr:street" v="Macks Mountain Road"/>
    <tag k="addr:state" v="VT"/>
    <tag k="ref:vcgi:esiteid" v="186025"/>
  </node>
  <node id="-174" visible="true" lat="44.35533324" lon="-72.17798522">
    <tag k="addr:city" v="Peacham"/>
    <tag k="addr:housenumber" v="2528"/>
    <tag k="addr:street" v="Bayley Hazen Road"/>
    <tag k="addr:state" v="VT"/>
    <tag k="ref:vcgi:esiteid" v="186026"/>
  </node>
  <node id="-175" visible="true" lat="44.35475968" lon="-72.10871315">
    <tag k="addr:city" v="Peacham"/>
    <tag k="addr:housenumber" v="440"/>
    <tag k="addr:street" v="Rake Factory Road"/>
    <tag k="addr:state" v="VT"/>
    <tag k="ref:vcgi:esiteid" v="186027"/>
  </node>
  <node id="-176" visible="true" lat="44.35465521" lon="-72.11018897">
    <tag k="addr:city" v="Peacham"/>
    <tag k="addr:housenumber" v="343"/>
    <tag k="addr:street" v="Rake Factory Road"/>
    <tag k="addr:state" v="VT"/>
    <tag k="ref:vcgi:esiteid" v="186028"/>
  </node>
  <node id="-188" visible="true" lat="44.35775489" lon="-72.20457932">
    <tag k="addr:city" v="Peacham"/>
    <tag k="addr:housenumber" v="931"/>
    <tag k="addr:street" v="Penny Street"/>
    <tag k="addr:state" v="VT"/>
    <tag k="ref:vcgi:esiteid" v="186040"/>
  </node>
  <node id="-190" visible="true" lat="44.35129166" lon="-72.19642639">
    <tag k="addr:city" v="Peacham"/>
    <tag k="addr:housenumber" v="859"/>
    <tag k="addr:street" v="Penny Street"/>
    <tag k="addr:state" v="VT"/>
    <tag k="ref:vcgi:esiteid" v="186042"/>
  </node>
  <node id="-192" visible="true" lat="44.35050201" lon="-72.1256485">
    <tag k="addr:city" v="Peacham"/>
    <tag k="addr:housenumber" v="2113"/>
    <tag k="addr:street" v="Thaddeus Stevens Road"/>
    <tag k="addr:state" v="VT"/>
    <tag k="ref:vcgi:esiteid" v="186044"/>
  </node>
  <node id="-193" visible="true" lat="44.34862099" lon="-72.10728007">
    <tag k="addr:city" v="Peacham"/>
    <tag k="addr:housenumber" v="825"/>
    <tag k="addr:street" v="Varnum Street"/>
    <tag k="addr:state" v="VT"/>
    <tag k="ref:vcgi:esiteid" v="186045"/>
  </node>
  <node id="-194" visible="true" lat="44.34809514" lon="-72.15879257">
    <tag k="addr:city" v="Peacham"/>
    <tag k="addr:housenumber" v="547"/>
    <tag k="addr:street" v="Old County Road"/>
    <tag k="addr:state" v="VT"/>
    <tag k="ref:vcgi:esiteid" v="186046"/>
  </node>
  <node id="-197" visible="true" lat="44.3462944" lon="-72.13323975">
    <tag k="addr:city" v="Peacham"/>
    <tag k="addr:housenumber" v="1767"/>
    <tag k="addr:street" v="Thaddeus Stevens Road"/>
    <tag k="addr:state" v="VT"/>
    <tag k="ref:vcgi:esiteid" v="186049"/>
  </node>
  <node id="-202" visible="true" lat="44.34568787" lon="-72.131073">
    <tag k="addr:city" v="Peacham"/>
    <tag k="addr:housenumber" v="1766"/>
    <tag k="addr:street" v="Thaddeus Stevens Road"/>
    <tag k="addr:state" v="VT"/>
    <tag k="ref:vcgi:esiteid" v="186054"/>
  </node>
  <node id="-206" visible="true" lat="44.34495972" lon="-72.14485834">
    <tag k="addr:city" v="Peacham"/>
    <tag k="addr:housenumber" v="171"/>
    <tag k="addr:street" v="Way Road"/>
    <tag k="addr:state" v="VT"/>
    <tag k="ref:vcgi:esiteid" v="186058"/>
  </node>
  <node id="-207" visible="true" lat="44.34423797" lon="-72.14325459">
    <tag k="addr:city" v="Peacham"/>
    <tag k="addr:housenumber" v="98"/>
    <tag k="addr:street" v="Way Road"/>
    <tag k="addr:state" v="VT"/>
    <tag k="ref:vcgi:esiteid" v="186059"/>
  </node>
  <node id="-208" visible="true" lat="44.34427261" lon="-72.13457489">
    <tag k="addr:city" v="Peacham"/>
    <tag k="addr:housenumber" v="1493"/>
    <tag k="addr:street" v="Thaddeus Stevens Road"/>
    <tag k="addr:state" v="VT"/>
    <tag k="ref:vcgi:esiteid" v="186060"/>
  </node>
  <node id="-212" visible="true" lat="44.34353372" lon="-72.14301407">
    <tag k="addr:city" v="Peacham"/>
    <tag k="addr:housenumber" v="969"/>
    <tag k="addr:street" v="Thaddeus Stevens Road"/>
    <tag k="addr:state" v="VT"/>
    <tag k="ref:vcgi:esiteid" v="186065"/>
  </node>
  <node id="-214" visible="true" lat="44.34243011" lon="-72.14696503">
    <tag k="addr:city" v="Peacham"/>
    <tag k="addr:housenumber" v="767"/>
    <tag k="addr:street" v="Thaddeus Stevens Road"/>
    <tag k="addr:state" v="VT"/>
    <tag k="ref:vcgi:esiteid" v="186067"/>
  </node>
  <node id="-215" visible="true" lat="44.34227371" lon="-72.1353836">
    <tag k="addr:city" v="Peacham"/>
    <tag k="addr:housenumber" v="1365"/>
    <tag k="addr:street" v="Thaddeus Stevens Road"/>
    <tag k="addr:state" v="VT"/>
    <tag k="ref:vcgi:esiteid" v="186068"/>
  </node>
  <node id="-219" visible="true" lat="44.34193039" lon="-72.13502503">
    <tag k="addr:city" v="Peacham"/>
    <tag k="addr:housenumber" v="31"/>
    <tag k="addr:street" v="Somers Road"/>
    <tag k="addr:state" v="VT"/>
    <tag k="ref:vcgi:esiteid" v="186072"/>
  </node>
  <node id="-222" visible="true" lat="44.34160614" lon="-72.11914825">
    <tag k="addr:city" v="Peacham"/>
    <tag k="addr:housenumber" v="706"/>
    <tag k="addr:street" v="Morrison Hill Road"/>
    <tag k="addr:state" v="VT"/>
    <tag k="ref:vcgi:esiteid" v="186075"/>
  </node>
  <node id="-230" visible="true" lat="44.34098002" lon="-72.14645647">
    <tag k="addr:city" v="Peacham"/>
    <tag k="addr:housenumber" v="696"/>
    <tag k="addr:street" v="Thaddeus Stevens Road"/>
    <tag k="addr:state" v="VT"/>
    <tag k="ref:vcgi:esiteid" v="186083"/>
  </node>
  <node id="-231" visible="true" lat="44.34085846" lon="-72.11917877">
    <tag k="addr:city" v="Peacham"/>
    <tag k="addr:housenumber" v="752"/>
    <tag k="addr:street" v="Morrison Hill Road"/>
    <tag k="addr:state" v="VT"/>
    <tag k="ref:vcgi:esiteid" v="186084"/>
  </node>
  <node id="-250" visible="true" lat="44.33892822" lon="-72.26538085">
    <tag k="addr:city" v="Peacham"/>
    <tag k="addr:housenumber" v="333"/>
    <tag k="addr:street" v="Kellogg Mill Road"/>
    <tag k="addr:state" v="VT"/>
    <tag k="ref:vcgi:esiteid" v="186103"/>
  </node>
  <node id="-253" visible="true" lat="44.33716829" lon="-72.22782688">
    <tag k="addr:city" v="Peacham"/>
    <tag k="addr:housenumber" v="850"/>
    <tag k="addr:street" v="Lanesboro Road"/>
    <tag k="addr:state" v="VT"/>
    <tag k="ref:vcgi:esiteid" v="186106"/>
  </node>
  <node id="-254" visible="true" lat="44.33866482" lon="-72.12563875">
    <tag k="addr:city" v="Peacham"/>
    <tag k="addr:housenumber" v="575"/>
    <tag k="addr:street" v="Somers Road"/>
    <tag k="addr:state" v="VT"/>
    <tag k="ref:vcgi:esiteid" v="186107"/>
  </node>
  <node id="-261" visible="true" lat="44.33788681" lon="-72.11915588">
    <tag k="addr:city" v="Peacham"/>
    <tag k="addr:housenumber" v="950"/>
    <tag k="addr:street" v="Somers Road"/>
    <tag k="addr:state" v="VT"/>
    <tag k="ref:vcgi:esiteid" v="186114"/>
  </node>
  <node id="-280" visible="true" lat="44.33489227" lon="-72.14987946">
    <tag k="addr:city" v="Peacham"/>
    <tag k="addr:housenumber" v="2173"/>
    <tag k="addr:street" v="East Peacham Road"/>
    <tag k="addr:state" v="VT"/>
    <tag k="ref:vcgi:esiteid" v="186133"/>
  </node>
  <node id="-281" visible="true" lat="44.33310506" lon="-72.23469003">
    <tag k="addr:city" v="Peacham"/>
    <tag k="addr:housenumber" v="1381"/>
    <tag k="addr:street" v="Lanesboro Road"/>
    <tag k="addr:state" v="VT"/>
    <tag k="ref:vcgi:esiteid" v="186134"/>
  </node>
  <node id="-283" visible="true" lat="44.33434296" lon="-72.13960266">
    <tag k="addr:city" v="Peacham"/>
    <tag k="addr:housenumber" v="391"/>
    <tag k="addr:street" v="Blanchard Hill Road"/>
    <tag k="addr:state" v="VT"/>
    <tag k="ref:vcgi:esiteid" v="186136"/>
  </node>
  <node id="-285" visible="true" lat="44.33427811" lon="-72.15035248">
    <tag k="addr:city" v="Peacham"/>
    <tag k="addr:housenumber" v="2144"/>
    <tag k="addr:street" v="East Peacham Road"/>
    <tag k="addr:state" v="VT"/>
    <tag k="ref:vcgi:esiteid" v="186138"/>
  </node>
  <node id="-286" visible="true" lat="44.33422089" lon="-72.14425659">
    <tag k="addr:city" v="Peacham"/>
    <tag k="addr:housenumber" v="59"/>
    <tag k="addr:street" v="Lamprecht Lane"/>
    <tag k="addr:state" v="VT"/>
    <tag k="ref:vcgi:esiteid" v="186139"/>
  </node>
  <node id="-290" visible="true" lat="44.3305897" lon="-72.20489404">
    <tag k="addr:city" v="Peacham"/>
    <tag k="addr:housenumber" v="1129"/>
    <tag k="addr:street" v="Macks Mountain Road"/>
    <tag k="addr:state" v="VT"/>
    <tag k="ref:vcgi:esiteid" v="186143"/>
  </node>
  <node id="-294" visible="true" lat="44.33359146" lon="-72.26548767">
    <tag k="addr:city" v="Peacham"/>
    <tag k="addr:housenumber" v="505"/>
    <tag k="addr:street" v="Onion Point"/>
    <tag k="addr:state" v="VT"/>
    <tag k="ref:vcgi:esiteid" v="186147"/>
  </node>
  <node id="-297" visible="true" lat="44.33333969" lon="-72.21626281">
    <tag k="addr:city" v="Peacham"/>
    <tag k="addr:housenumber" v="343"/>
    <tag k="addr:street" v="Foster Pond Road"/>
    <tag k="addr:state" v="VT"/>
    <tag k="ref:vcgi:esiteid" v="186150"/>
  </node>
  <node id="-299" visible="true" lat="44.33308792" lon="-72.13631439">
    <tag k="addr:city" v="Peacham"/>
    <tag k="addr:housenumber" v="561"/>
    <tag k="addr:street" v="Blanchard Hill Road"/>
    <tag k="addr:state" v="VT"/>
    <tag k="ref:vcgi:esiteid" v="186152"/>
  </node>
  <node id="-301" visible="true" lat="44.332901" lon="-72.13864899">
    <tag k="addr:city" v="Peacham"/>
    <tag k="addr:housenumber" v="448"/>
    <tag k="addr:street" v="Blanchard Hill Road"/>
    <tag k="addr:state" v="VT"/>
    <tag k="ref:vcgi:esiteid" v="186154"/>
  </node>
  <node id="-302" visible="true" lat="44.33290863" lon="-72.17677307">
    <tag k="addr:city" v="Peacham"/>
    <tag k="addr:housenumber" v="941"/>
    <tag k="addr:street" v="Bayley Hazen Road"/>
    <tag k="addr:state" v="VT"/>
    <tag k="ref:vcgi:esiteid" v="186155"/>
  </node>
  <node id="-314" visible="true" lat="44.33128808" lon="-72.21552294">
    <tag k="addr:city" v="Peacham"/>
    <tag k="addr:housenumber" v="445"/>
    <tag k="addr:street" v="Foster Pond Road"/>
    <tag k="addr:state" v="VT"/>
    <tag k="ref:vcgi:esiteid" v="186167"/>
  </node>
  <node id="-320" visible="true" lat="44.33110046" lon="-72.21853637">
    <tag k="addr:city" v="Peacham"/>
    <tag k="addr:housenumber" v="508"/>
    <tag k="addr:street" v="Foster Pond Road"/>
    <tag k="addr:state" v="VT"/>
    <tag k="ref:vcgi:esiteid" v="186173"/>
  </node>
  <node id="-334" visible="true" lat="44.32997512" lon="-72.1606903">
    <tag k="addr:city" v="Peacham"/>
    <tag k="addr:housenumber" v="638"/>
    <tag k="addr:street" v="Hollow Woods Road"/>
    <tag k="addr:state" v="VT"/>
    <tag k="ref:vcgi:esiteid" v="186187"/>
  </node>
  <node id="-335" visible="true" lat="44.33021926" lon="-72.26816558">
    <tag k="addr:city" v="Peacham"/>
    <tag k="addr:housenumber" v="784"/>
    <tag k="addr:street" v="Onion Point"/>
    <tag k="addr:state" v="VT"/>
    <tag k="ref:vcgi:esiteid" v="186188"/>
  </node>
  <node id="-336" visible="true" lat="44.3299179" lon="-72.1795578">
    <tag k="addr:city" v="Peacham"/>
    <tag k="addr:housenumber" v="440"/>
    <tag k="addr:street" v="Macks Mountain Road"/>
    <tag k="addr:state" v="VT"/>
    <tag k="ref:vcgi:esiteid" v="186189"/>
  </node>
  <node id="-341" visible="true" lat="44.32986831" lon="-72.26824188">
    <tag k="addr:city" v="Peacham"/>
    <tag k="addr:housenumber" v="802"/>
    <tag k="addr:street" v="Onion Point"/>
    <tag k="addr:state" v="VT"/>
    <tag k="ref:vcgi:esiteid" v="186194"/>
  </node>
  <node id="-342" visible="true" lat="44.32962036" lon="-72.1687622">
    <tag k="addr:city" v="Peacham"/>
    <tag k="addr:housenumber" v="102"/>
    <tag k="addr:street" v="Old Cemetery Road"/>
    <tag k="addr:state" v="VT"/>
    <tag k="ref:vcgi:esiteid" v="186195"/>
  </node>
  <node id="-345" visible="true" lat="44.32956695" lon="-72.26795959">
    <tag k="addr:city" v="Peacham"/>
    <tag k="addr:housenumber" v="820"/>
    <tag k="addr:street" v="Onion Point"/>
    <tag k="addr:state" v="VT"/>
    <tag k="ref:vcgi:esiteid" v="186198"/>
  </node>
  <node id="-346" visible="true" lat="44.32929611" lon="-72.16925048">
    <tag k="addr:city" v="Peacham"/>
    <tag k="addr:housenumber" v="70"/>
    <tag k="addr:street" v="Old Cemetery Road"/>
    <tag k="addr:state" v="VT"/>
    <tag k="ref:vcgi:esiteid" v="186199"/>
  </node>
  <node id="-347" visible="true" lat="44.3294754" lon="-72.2665863">
    <tag k="addr:city" v="Peacham"/>
    <tag k="addr:housenumber" v="875"/>
    <tag k="addr:street" v="Onion Point"/>
    <tag k="addr:state" v="VT"/>
    <tag k="ref:vcgi:esiteid" v="186200"/>
  </node>
  <node id="-349" visible="true" lat="44.32920456" lon="-72.16991424">
    <tag k="addr:city" v="Peacham"/>
    <tag k="addr:housenumber" v="41"/>
    <tag k="addr:street" v="Old Cemetery Road"/>
    <tag k="addr:state" v="VT"/>
    <tag k="ref:vcgi:esiteid" v="186202"/>
  </node>
  <node id="-353" visible="true" lat="44.32923126" lon="-72.26642608">
    <tag k="addr:city" v="Peacham"/>
    <tag k="addr:housenumber" v="893"/>
    <tag k="addr:street" v="Onion Point"/>
    <tag k="addr:state" v="VT"/>
    <tag k="ref:vcgi:esiteid" v="186206"/>
  </node>
  <node id="-365" visible="true" lat="44.32861328" lon="-72.1707077">
    <tag k="addr:city" v="Peacham"/>
    <tag k="addr:housenumber" v="641"/>
    <tag k="addr:street" v="Bayley Hazen Road"/>
    <tag k="addr:state" v="VT"/>
    <tag k="ref:vcgi:esiteid" v="186218"/>
  </node>
  <node id="-368" visible="true" lat="44.32885308" lon="-72.21440745">
    <tag k="addr:city" v="Peacham"/>
    <tag k="addr:housenumber" v="701"/>
    <tag k="addr:street" v="Foster Pond Road"/>
    <tag k="addr:state" v="VT"/>
    <tag k="ref:vcgi:esiteid" v="186221"/>
  </node>
  <node id="-369" visible="true" lat="44.32845306" lon="-72.14879608">
    <tag k="addr:city" v="Peacham"/>
    <tag k="addr:housenumber" v="20"/>
    <tag k="addr:street" v="Brick Kiln Road"/>
    <tag k="addr:state" v="VT"/>
    <tag k="ref:vcgi:esiteid" v="186222"/>
  </node>
  <node id="-374" visible="true" lat="44.32833862" lon="-72.18191528">
    <tag k="addr:city" v="Peacham"/>
    <tag k="addr:housenumber" v="409"/>
    <tag k="addr:street" v="Macks Mountain Road"/>
    <tag k="addr:state" v="VT"/>
    <tag k="ref:vcgi:esiteid" v="186227"/>
  </node>
  <node id="-378" visible="true" lat="44.32812118" lon="-72.17124176">
    <tag k="addr:city" v="Peacham"/>
    <tag k="addr:housenumber" v="56"/>
    <tag k="addr:street" v="Church Street"/>
    <tag k="addr:state" v="VT"/>
    <tag k="ref:vcgi:esiteid" v="186231"/>
  </node>
  <node id="-381" visible="true" lat="44.32775833" lon="-72.13778433">
    <tag k="addr:city" v="Peacham"/>
    <tag k="addr:housenumber" v="2888"/>
    <tag k="addr:street" v="East Peacham Road"/>
    <tag k="addr:state" v="VT"/>
    <tag k="ref:vcgi:esiteid" v="186234"/>
  </node>
  <node id="-388" visible="true" lat="44.32744339" lon="-72.21505913">
    <tag k="addr:city" v="Peacham"/>
    <tag k="addr:housenumber" v="775"/>
    <tag k="addr:street" v="Foster Pond Road"/>
    <tag k="addr:state" v="VT"/>
    <tag k="ref:vcgi:esiteid" v="186241"/>
  </node>
  <node id="-389" visible="true" lat="44.32764181" lon="-72.17106232">
    <tag k="addr:city" v="Peacham"/>
    <tag k="addr:housenumber" v="79"/>
    <tag k="addr:street" v="Church Street"/>
    <tag k="addr:state" v="VT"/>
    <tag k="ref:vcgi:esiteid" v="186242"/>
  </node>
  <node id="-398" visible="true" lat="44.32723666" lon="-72.16879072">
    <tag k="addr:city" v="Peacham"/>
    <tag k="addr:housenumber" v="480"/>
    <tag k="addr:street" v="Bayley Hazen Road"/>
    <tag k="addr:state" v="VT"/>
    <tag k="ref:vcgi:esiteid" v="186251"/>
  </node>
  <node id="-400" visible="true" lat="44.32715225" lon="-72.18431091">
    <tag k="addr:city" v="Peacham"/>
    <tag k="addr:housenumber" v="10"/>
    <tag k="addr:street" v="Snow Farm Road"/>
    <tag k="addr:state" v="VT"/>
    <tag k="ref:vcgi:esiteid" v="186253"/>
  </node>
  <node id="-411" visible="true" lat="44.32651955" lon="-72.18509188">
    <tag k="addr:city" v="Peacham"/>
    <tag k="addr:housenumber" v="51"/>
    <tag k="addr:street" v="Snow Farm Road"/>
    <tag k="addr:state" v="VT"/>
    <tag k="ref:vcgi:esiteid" v="186264"/>
  </node>
  <node id="-414" visible="true" lat="44.32677106" lon="-72.18637585">
    <tag k="addr:city" v="Peacham"/>
    <tag k="addr:housenumber" v="122"/>
    <tag k="addr:street" v="Snow Farm Road"/>
    <tag k="addr:state" v="VT"/>
    <tag k="ref:vcgi:esiteid" v="186267"/>
  </node>
  <node id="-417" visible="true" lat="44.32644849" lon="-72.17413265">
    <tag k="addr:city" v="Peacham"/>
    <tag k="addr:housenumber" v="64"/>
    <tag k="addr:street" v="Macks Mountain Road"/>
    <tag k="addr:state" v="VT"/>
    <tag k="ref:vcgi:esiteid" v="186270"/>
  </node>
  <node id="-419" visible="true" lat="44.32648849" lon="-72.21302032">
    <tag k="addr:city" v="Peacham"/>
    <tag k="addr:housenumber" v="929"/>
    <tag k="addr:street" v="Foster Pond Road"/>
    <tag k="addr:state" v="VT"/>
    <tag k="ref:vcgi:esiteid" v="186272"/>
  </node>
  <node id="-421" visible="true" lat="44.32598495" lon="-72.14866638">
    <tag k="addr:city" v="Peacham"/>
    <tag k="addr:housenumber" v="171"/>
    <tag k="addr:street" v="Brick Kiln Road"/>
    <tag k="addr:state" v="VT"/>
    <tag k="ref:vcgi:esiteid" v="186274"/>
  </node>
  <node id="-422" visible="true" lat="44.3260765" lon="-72.18800353">
    <tag k="addr:city" v="Peacham"/>
    <tag k="addr:housenumber" v="98"/>
    <tag k="addr:street" v="Worcester Road"/>
    <tag k="addr:state" v="VT"/>
    <tag k="ref:vcgi:esiteid" v="186275"/>
  </node>
  <node id="-424" visible="true" lat="44.32581835" lon="-72.1864256">
    <tag k="addr:city" v="Peacham"/>
    <tag k="addr:housenumber" v="123"/>
    <tag k="addr:street" v="Snow Farm Road"/>
    <tag k="addr:state" v="VT"/>
    <tag k="ref:vcgi:esiteid" v="186277"/>
  </node>
  <node id="-427" visible="true" lat="44.32571792" lon="-72.21013641">
    <tag k="addr:city" v="Peacham"/>
    <tag k="addr:housenumber" v="1125"/>
    <tag k="addr:street" v="Foster Pond Road"/>
    <tag k="addr:state" v="VT"/>
    <tag k="ref:vcgi:esiteid" v="186280"/>
  </node>
  <node id="-428" visible="true" lat="44.325531" lon="-72.1437149">
    <tag k="addr:city" v="Peacham"/>
    <tag k="addr:housenumber" v="800"/>
    <tag k="addr:street" v="Stevenson Road"/>
    <tag k="addr:state" v="VT"/>
    <tag k="ref:vcgi:esiteid" v="186281"/>
  </node>
  <node id="-435" visible="true" lat="44.32385253" lon="-72.13898467">
    <tag k="addr:city" v="Peacham"/>
    <tag k="addr:housenumber" v="1034"/>
    <tag k="addr:street" v="Stevenson Road"/>
    <tag k="addr:state" v="VT"/>
    <tag k="ref:vcgi:esiteid" v="186288"/>
  </node>
  <node id="-437" visible="true" lat="44.32231903" lon="-72.18656921">
    <tag k="addr:city" v="Peacham"/>
    <tag k="addr:housenumber" v="210"/>
    <tag k="addr:street" v="Worcester Road"/>
    <tag k="addr:state" v="VT"/>
    <tag k="ref:vcgi:esiteid" v="186290"/>
  </node>
  <node id="-438" visible="true" lat="44.32215197" lon="-72.15656318">
    <tag k="addr:city" v="Peacham"/>
    <tag k="addr:housenumber" v="1128"/>
    <tag k="addr:street" v="Hollow Woods Road"/>
    <tag k="addr:state" v="VT"/>
    <tag k="ref:vcgi:esiteid" v="186291"/>
  </node>
  <node id="-442" visible="true" lat="44.32037353" lon="-72.18678283">
    <tag k="addr:city" v="Peacham"/>
    <tag k="addr:housenumber" v="371"/>
    <tag k="addr:street" v="Worcester Road"/>
    <tag k="addr:state" v="VT"/>
    <tag k="ref:vcgi:esiteid" v="186295"/>
  </node>
  <node id="-452" visible="true" lat="44.31813049" lon="-72.15509796">
    <tag k="addr:city" v="Peacham"/>
    <tag k="addr:housenumber" v="1404"/>
    <tag k="addr:street" v="Hollow Woods Road"/>
    <tag k="addr:state" v="VT"/>
    <tag k="ref:vcgi:esiteid" v="186305"/>
  </node>
  <node id="-454" visible="true" lat="44.3156384" lon="-72.29084827">
    <tag k="addr:city" v="Peacham"/>
    <tag k="addr:housenumber" v="1636"/>
    <tag k="addr:street" v="Vermont Route 232"/>
    <tag k="addr:state" v="VT"/>
    <tag k="ref:vcgi:esiteid" v="186307"/>
  </node>
  <node id="-455" visible="true" lat="44.31680679" lon="-72.15412902">
    <tag k="addr:city" v="Peacham"/>
    <tag k="addr:housenumber" v="970"/>
    <tag k="addr:street" v="Old West Road"/>
    <tag k="addr:state" v="VT"/>
    <tag k="ref:vcgi:esiteid" v="186308"/>
  </node>
  <node id="-460" visible="true" lat="44.31447376" lon="-72.16730793">
    <tag k="addr:city" v="Peacham"/>
    <tag k="addr:housenumber" v="3"/>
    <tag k="addr:street" v="South Main Street"/>
    <tag k="addr:state" v="VT"/>
    <tag k="ref:vcgi:esiteid" v="186313"/>
  </node>
  <node id="-461" visible="true" lat="44.31455993" lon="-72.20893859">
    <tag k="addr:city" v="Peacham"/>
    <tag k="addr:housenumber" v="509"/>
    <tag k="addr:street" v="Devils Hill Road"/>
    <tag k="addr:state" v="VT"/>
    <tag k="ref:vcgi:esiteid" v="186314"/>
  </node>
  <node id="-462" visible="true" lat="44.31438827" lon="-72.21043396">
    <tag k="addr:city" v="Peacham"/>
    <tag k="addr:housenumber" v="555"/>
    <tag k="addr:street" v="Devils Hill Road"/>
    <tag k="addr:state" v="VT"/>
    <tag k="ref:vcgi:esiteid" v="186315"/>
  </node>
  <node id="-471" visible="true" lat="44.31352997" lon="-72.16252899">
    <tag k="addr:city" v="Peacham"/>
    <tag k="addr:housenumber" v="208"/>
    <tag k="addr:street" v="Peacham Barnet Road"/>
    <tag k="addr:state" v="VT"/>
    <tag k="ref:vcgi:esiteid" v="186324"/>
  </node>
  <node id="-478" visible="true" lat="44.31283265" lon="-72.21552148">
    <tag k="addr:city" v="Peacham"/>
    <tag k="addr:housenumber" v="912"/>
    <tag k="addr:street" v="Devils Hill Road"/>
    <tag k="addr:state" v="VT"/>
    <tag k="ref:vcgi:esiteid" v="186331"/>
  </node>
  <node id="-480" visible="true" lat="44.31210447" lon="-72.1475716">
    <tag k="addr:city" v="Peacham"/>
    <tag k="addr:housenumber" v="500"/>
    <tag k="addr:street" v="Old West Road"/>
    <tag k="addr:state" v="VT"/>
    <tag k="ref:vcgi:esiteid" v="186333"/>
  </node>
  <node id="-481" visible="true" lat="44.31191253" lon="-72.20150756">
    <tag k="addr:city" v="Peacham"/>
    <tag k="addr:housenumber" v="1973"/>
    <tag k="addr:street" v="Green Bay Loop"/>
    <tag k="addr:state" v="VT"/>
    <tag k="ref:vcgi:esiteid" v="186334"/>
  </node>
  <node id="-483" visible="true" lat="44.31128196" lon="-72.21527853">
    <tag k="addr:city" v="Peacham"/>
    <tag k="addr:housenumber" v="81"/>
    <tag k="addr:street" v="Claude Field Lane"/>
    <tag k="addr:state" v="VT"/>
    <tag k="ref:vcgi:esiteid" v="186336"/>
  </node>
  <node id="-484" visible="true" lat="44.31120125" lon="-72.21715562">
    <tag k="addr:city" v="Peacham"/>
    <tag k="addr:housenumber" v="979"/>
    <tag k="addr:street" v="Devils Hill Road"/>
    <tag k="addr:state" v="VT"/>
    <tag k="ref:vcgi:esiteid" v="186337"/>
  </node>
  <node id="-485" visible="true" lat="44.31082148" lon="-72.21418178">
    <tag k="addr:city" v="Peacham"/>
    <tag k="addr:housenumber" v="807"/>
    <tag k="addr:street" v="Devils Hill Road"/>
    <tag k="addr:state" v="VT"/>
    <tag k="ref:vcgi:esiteid" v="186338"/>
  </node>
  <node id="-486" visible="true" lat="44.31105722" lon="-72.21663714">
    <tag k="addr:city" v="Peacham"/>
    <tag k="addr:housenumber" v="34"/>
    <tag k="addr:street" v="Claude Field Lane"/>
    <tag k="addr:state" v="VT"/>
    <tag k="ref:vcgi:esiteid" v="186339"/>
  </node>
  <node id="-487" visible="true" lat="44.31094624" lon="-72.21730737">
    <tag k="addr:city" v="Peacham"/>
    <tag k="addr:housenumber" v="981"/>
    <tag k="addr:street" v="Devils Hill Road"/>
    <tag k="addr:state" v="VT"/>
    <tag k="ref:vcgi:esiteid" v="186340"/>
  </node>
  <node id="-489" visible="true" lat="44.31105726" lon="-72.21545675">
    <tag k="addr:city" v="Peacham"/>
    <tag k="addr:housenumber" v="101"/>
    <tag k="addr:street" v="Claude Field Lane"/>
    <tag k="addr:state" v="VT"/>
    <tag k="ref:vcgi:esiteid" v="186342"/>
  </node>
  <node id="-490" visible="true" lat="44.31092071" lon="-72.21907043">
    <tag k="addr:city" v="Peacham"/>
    <tag k="addr:housenumber" v="1023"/>
    <tag k="addr:street" v="Devils Hill Road"/>
    <tag k="addr:state" v="VT"/>
    <tag k="ref:vcgi:esiteid" v="186343"/>
  </node>
  <node id="-491" visible="true" lat="44.31068101" lon="-72.21613162">
    <tag k="addr:city" v="Peacham"/>
    <tag k="addr:housenumber" v="118"/>
    <tag k="addr:street" v="Claude Field Lane"/>
    <tag k="addr:state" v="VT"/>
    <tag k="ref:vcgi:esiteid" v="186344"/>
  </node>
  <node id="-494" visible="true" lat="44.31006945" lon="-72.21915572">
    <tag k="addr:city" v="Peacham"/>
    <tag k="addr:housenumber" v="1001"/>
    <tag k="addr:street" v="Devils Hill Road"/>
    <tag k="addr:state" v="VT"/>
    <tag k="ref:vcgi:esiteid" v="186347"/>
  </node>
  <node id="-495" visible="true" lat="44.310009" lon="-72.2149353">
    <tag k="addr:city" v="Peacham"/>
    <tag k="addr:housenumber" v="184"/>
    <tag k="addr:street" v="Claude Field Lane"/>
    <tag k="addr:state" v="VT"/>
    <tag k="ref:vcgi:esiteid" v="186348"/>
  </node>
  <node id="-496" visible="true" lat="44.309803" lon="-72.21504974">
    <tag k="addr:city" v="Peacham"/>
    <tag k="addr:housenumber" v="192"/>
    <tag k="addr:street" v="Claude Field Lane"/>
    <tag k="addr:state" v="VT"/>
    <tag k="ref:vcgi:esiteid" v="186349"/>
  </node>
  <node id="-497" visible="true" lat="44.30952351" lon="-72.21883333">
    <tag k="addr:city" v="Peacham"/>
    <tag k="addr:housenumber" v="1003"/>
    <tag k="addr:street" v="Devils Hill Road"/>
    <tag k="addr:state" v="VT"/>
    <tag k="ref:vcgi:esiteid" v="186350"/>
  </node>
  <node id="-498" visible="true" lat="44.30945587" lon="-72.21469116">
    <tag k="addr:city" v="Peacham"/>
    <tag k="addr:housenumber" v="222"/>
    <tag k="addr:street" v="Claude Field Lane"/>
    <tag k="addr:state" v="VT"/>
    <tag k="ref:vcgi:esiteid" v="186351"/>
  </node>
  <node id="-501" visible="true" lat="44.30896879" lon="-72.21379345">
    <tag k="addr:city" v="Peacham"/>
    <tag k="addr:housenumber" v="266"/>
    <tag k="addr:street" v="Claude Field Lane"/>
    <tag k="addr:state" v="VT"/>
    <tag k="ref:vcgi:esiteid" v="186354"/>
  </node>
  <node id="-504" visible="true" lat="44.3086264" lon="-72.20071509">
    <tag k="addr:city" v="Peacham"/>
    <tag k="addr:housenumber" v="1759"/>
    <tag k="addr:street" v="Green Bay Loop"/>
    <tag k="addr:state" v="VT"/>
    <tag k="ref:vcgi:esiteid" v="186357"/>
  </node>
  <node id="-507" visible="true" lat="44.30812072" lon="-72.21305847">
    <tag k="addr:city" v="Peacham"/>
    <tag k="addr:housenumber" v="290"/>
    <tag k="addr:street" v="Claude Field Lane"/>
    <tag k="addr:state" v="VT"/>
    <tag k="ref:vcgi:esiteid" v="186360"/>
  </node>
  <node id="-508" visible="true" lat="44.30824449" lon="-72.21004709">
    <tag k="addr:city" v="Peacham"/>
    <tag k="addr:housenumber" v="538"/>
    <tag k="addr:street" v="The Lane"/>
    <tag k="addr:state" v="VT"/>
    <tag k="ref:vcgi:esiteid" v="186361"/>
  </node>
  <node id="-509" visible="true" lat="44.30787277" lon="-72.19944319">
    <tag k="addr:city" v="Peacham"/>
    <tag k="addr:housenumber" v="1643"/>
    <tag k="addr:street" v="Green Bay Loop"/>
    <tag k="addr:state" v="VT"/>
    <tag k="ref:vcgi:esiteid" v="186362"/>
  </node>
  <node id="-511" visible="true" lat="44.30781936" lon="-72.21019744">
    <tag k="addr:city" v="Peacham"/>
    <tag k="addr:housenumber" v="557"/>
    <tag k="addr:street" v="The Lane"/>
    <tag k="addr:state" v="VT"/>
    <tag k="ref:vcgi:esiteid" v="186364"/>
  </node>
  <node id="-513" visible="true" lat="44.30738777" lon="-72.20984118">
    <tag k="addr:city" v="Peacham"/>
    <tag k="addr:housenumber" v="515"/>
    <tag k="addr:street" v="The Lane"/>
    <tag k="addr:state" v="VT"/>
    <tag k="ref:vcgi:esiteid" v="186366"/>
  </node>
  <node id="-514" visible="true" lat="44.30706875" lon="-72.20886635">
    <tag k="addr:city" v="Peacham"/>
    <tag k="addr:housenumber" v="485"/>
    <tag k="addr:street" v="The Lane"/>
    <tag k="addr:state" v="VT"/>
    <tag k="ref:vcgi:esiteid" v="186367"/>
  </node>
  <node id="-515" visible="true" lat="44.30717287" lon="-72.20941808">
    <tag k="addr:city" v="Peacham"/>
    <tag k="addr:housenumber" v="495"/>
    <tag k="addr:street" v="The Lane"/>
    <tag k="addr:state" v="VT"/>
    <tag k="ref:vcgi:esiteid" v="186368"/>
  </node>
  <node id="-516" visible="true" lat="44.30704928" lon="-72.2092423">
    <tag k="addr:city" v="Peacham"/>
    <tag k="addr:housenumber" v="491"/>
    <tag k="addr:street" v="The Lane"/>
    <tag k="addr:state" v="VT"/>
    <tag k="ref:vcgi:esiteid" v="186369"/>
  </node>
  <node id="-517" visible="true" lat="44.30677197" lon="-72.20865288">
    <tag k="addr:city" v="Peacham"/>
    <tag k="addr:housenumber" v="16"/>
    <tag k="addr:street" v="Camp Road"/>
    <tag k="addr:state" v="VT"/>
    <tag k="ref:vcgi:esiteid" v="186370"/>
  </node>
  <node id="-518" visible="true" lat="44.30688095" lon="-72.20818328">
    <tag k="addr:city" v="Peacham"/>
    <tag k="addr:housenumber" v="22"/>
    <tag k="addr:street" v="Camp Road"/>
    <tag k="addr:state" v="VT"/>
    <tag k="ref:vcgi:esiteid" v="186371"/>
  </node>
  <node id="-520" visible="true" lat="44.30670928" lon="-72.2084732">
    <tag k="addr:city" v="Peacham"/>
    <tag k="addr:housenumber" v="20"/>
    <tag k="addr:street" v="Camp Road"/>
    <tag k="addr:state" v="VT"/>
    <tag k="ref:vcgi:esiteid" v="186373"/>
  </node>
  <node id="-521" visible="true" lat="44.30655769" lon="-72.20800548">
    <tag k="addr:city" v="Peacham"/>
    <tag k="addr:housenumber" v="50"/>
    <tag k="addr:street" v="Camp Road"/>
    <tag k="addr:state" v="VT"/>
    <tag k="ref:vcgi:esiteid" v="186374"/>
  </node>
  <node id="-522" visible="true" lat="44.3063474" lon="-72.20776559">
    <tag k="addr:city" v="Peacham"/>
    <tag k="addr:housenumber" v="66"/>
    <tag k="addr:street" v="Camp Road"/>
    <tag k="addr:state" v="VT"/>
    <tag k="ref:vcgi:esiteid" v="186375"/>
  </node>
  <node id="-523" visible="true" lat="44.30635471" lon="-72.20107254">
    <tag k="addr:city" v="Peacham"/>
    <tag k="addr:housenumber" v="1531"/>
    <tag k="addr:street" v="Green Bay Loop"/>
    <tag k="addr:state" v="VT"/>
    <tag k="ref:vcgi:esiteid" v="186376"/>
  </node>
  <node id="-524" visible="true" lat="44.30623346" lon="-72.20746727">
    <tag k="addr:city" v="Peacham"/>
    <tag k="addr:housenumber" v="90"/>
    <tag k="addr:street" v="Camp Road"/>
    <tag k="addr:state" v="VT"/>
    <tag k="ref:vcgi:esiteid" v="186377"/>
  </node>
  <node id="-525" visible="true" lat="44.30598227" lon="-72.20710699">
    <tag k="addr:city" v="Peacham"/>
    <tag k="addr:housenumber" v="94"/>
    <tag k="addr:street" v="Camp Road"/>
    <tag k="addr:state" v="VT"/>
    <tag k="ref:vcgi:esiteid" v="186378"/>
  </node>
  <node id="-526" visible="true" lat="44.30607903" lon="-72.20727811">
    <tag k="addr:city" v="Peacham"/>
    <tag k="addr:housenumber" v="92"/>
    <tag k="addr:street" v="Camp Road"/>
    <tag k="addr:state" v="VT"/>
    <tag k="ref:vcgi:esiteid" v="186379"/>
  </node>
  <node id="-529" visible="true" lat="44.30589456" lon="-72.16675433">
    <tag k="addr:city" v="Peacham"/>
    <tag k="addr:housenumber" v="100"/>
    <tag k="addr:street" v="Gov Wentworth Grant Road"/>
    <tag k="addr:state" v="VT"/>
    <tag k="ref:vcgi:esiteid" v="186382"/>
  </node>
  <node id="-530" visible="true" lat="44.30577968" lon="-72.20170041">
    <tag k="addr:city" v="Peacham"/>
    <tag k="addr:housenumber" v="1483"/>
    <tag k="addr:street" v="Green Bay Loop"/>
    <tag k="addr:state" v="VT"/>
    <tag k="ref:vcgi:esiteid" v="186383"/>
  </node>
  <node id="-531" visible="true" lat="44.30585861" lon="-72.2067871">
    <tag k="addr:city" v="Peacham"/>
    <tag k="addr:housenumber" v="120"/>
    <tag k="addr:street" v="Camp Road"/>
    <tag k="addr:state" v="VT"/>
    <tag k="ref:vcgi:esiteid" v="186384"/>
  </node>
  <node id="-532" visible="true" lat="44.30584393" lon="-72.2063624">
    <tag k="addr:city" v="Peacham"/>
    <tag k="addr:housenumber" v="152"/>
    <tag k="addr:street" v="Camp Road"/>
    <tag k="addr:state" v="VT"/>
    <tag k="ref:vcgi:esiteid" v="186385"/>
  </node>
  <node id="-533" visible="true" lat="44.30564352" lon="-72.20598803">
    <tag k="addr:city" v="Peacham"/>
    <tag k="addr:housenumber" v="182"/>
    <tag k="addr:street" v="Camp Road"/>
    <tag k="addr:state" v="VT"/>
    <tag k="ref:vcgi:esiteid" v="186386"/>
  </node>
  <node id="-534" visible="true" lat="44.304873" lon="-72.1652912">
    <tag k="addr:city" v="Peacham"/>
    <tag k="addr:housenumber" v="646"/>
    <tag k="addr:street" v="Peacham Groton Road"/>
    <tag k="addr:state" v="VT"/>
    <tag k="ref:vcgi:esiteid" v="186387"/>
  </node>
  <node id="-535" visible="true" lat="44.30481338" lon="-72.20277404">
    <tag k="addr:city" v="Peacham"/>
    <tag k="addr:housenumber" v="1391"/>
    <tag k="addr:street" v="Green Bay Loop"/>
    <tag k="addr:state" v="VT"/>
    <tag k="ref:vcgi:esiteid" v="186388"/>
  </node>
  <node id="-536" visible="true" lat="44.30450452" lon="-72.20875041">
    <tag k="addr:city" v="Peacham"/>
    <tag k="addr:housenumber" v="411"/>
    <tag k="addr:street" v="Martins Pond Lane"/>
    <tag k="addr:state" v="VT"/>
    <tag k="ref:vcgi:esiteid" v="186389"/>
  </node>
  <node id="-537" visible="true" lat="44.30447006" lon="-72.21065521">
    <tag k="addr:city" v="Peacham"/>
    <tag k="addr:housenumber" v="355"/>
    <tag k="addr:street" v="Martins Pond Lane"/>
    <tag k="addr:state" v="VT"/>
    <tag k="ref:vcgi:esiteid" v="186390"/>
  </node>
  <node id="-538" visible="true" lat="44.30442175" lon="-72.21043062">
    <tag k="addr:city" v="Peacham"/>
    <tag k="addr:housenumber" v="357"/>
    <tag k="addr:street" v="Martins Pond Lane"/>
    <tag k="addr:state" v="VT"/>
    <tag k="ref:vcgi:esiteid" v="186391"/>
  </node>
  <node id="-539" visible="true" lat="44.30449899" lon="-72.20934081">
    <tag k="addr:city" v="Peacham"/>
    <tag k="addr:housenumber" v="401"/>
    <tag k="addr:street" v="Martins Pond Lane"/>
    <tag k="addr:state" v="VT"/>
    <tag k="ref:vcgi:esiteid" v="186392"/>
  </node>
  <node id="-541" visible="true" lat="44.30442589" lon="-72.20971009">
    <tag k="addr:city" v="Peacham"/>
    <tag k="addr:housenumber" v="383"/>
    <tag k="addr:street" v="Martins Pond Lane"/>
    <tag k="addr:state" v="VT"/>
    <tag k="ref:vcgi:esiteid" v="186394"/>
  </node>
  <node id="-542" visible="true" lat="44.30365315" lon="-72.20347408">
    <tag k="addr:city" v="Peacham"/>
    <tag k="addr:housenumber" v="1298"/>
    <tag k="addr:street" v="Green Bay Loop"/>
    <tag k="addr:state" v="VT"/>
    <tag k="ref:vcgi:esiteid" v="186395"/>
  </node>
  <node id="-543" visible="true" lat="44.30335617" lon="-72.16996002">
    <tag k="addr:city" v="Peacham"/>
    <tag k="addr:housenumber" v="330"/>
    <tag k="addr:street" v="Gov Wentworth Grant Road"/>
    <tag k="addr:state" v="VT"/>
    <tag k="ref:vcgi:esiteid" v="186396"/>
  </node>
  <node id="-544" visible="true" lat="44.30211203" lon="-72.20445313">
    <tag k="addr:city" v="Peacham"/>
    <tag k="addr:housenumber" v="1178"/>
    <tag k="addr:street" v="Green Bay Loop"/>
    <tag k="addr:state" v="VT"/>
    <tag k="ref:vcgi:esiteid" v="186397"/>
  </node>
  <node id="-545" visible="true" lat="44.30224373" lon="-72.21251407">
    <tag k="addr:city" v="Peacham"/>
    <tag k="addr:housenumber" v="219"/>
    <tag k="addr:street" v="Martins Pond Lane"/>
    <tag k="addr:state" v="VT"/>
    <tag k="ref:vcgi:esiteid" v="186398"/>
  </node>
  <node id="-546" visible="true" lat="44.30177249" lon="-72.20461486">
    <tag k="addr:city" v="Peacham"/>
    <tag k="addr:housenumber" v="1150"/>
    <tag k="addr:street" v="Green Bay Loop"/>
    <tag k="addr:state" v="VT"/>
    <tag k="ref:vcgi:esiteid" v="186399"/>
  </node>
  <node id="-547" visible="true" lat="44.30132055" lon="-72.20474193">
    <tag k="addr:city" v="Peacham"/>
    <tag k="addr:housenumber" v="1116"/>
    <tag k="addr:street" v="Green Bay Loop"/>
    <tag k="addr:state" v="VT"/>
    <tag k="ref:vcgi:esiteid" v="186400"/>
  </node>
  <node id="-548" visible="true" lat="44.30110667" lon="-72.20565253">
    <tag k="addr:city" v="Peacham"/>
    <tag k="addr:housenumber" v="1087"/>
    <tag k="addr:street" v="Green Bay Loop"/>
    <tag k="addr:state" v="VT"/>
    <tag k="ref:vcgi:esiteid" v="186401"/>
  </node>
  <node id="-549" visible="true" lat="44.30046681" lon="-72.17125215">
    <tag k="addr:city" v="Peacham"/>
    <tag k="addr:housenumber" v="529"/>
    <tag k="addr:street" v="Gov Wentworth Grant Road"/>
    <tag k="addr:state" v="VT"/>
    <tag k="ref:vcgi:esiteid" v="186402"/>
  </node>
  <node id="-550" visible="true" lat="44.29983359" lon="-72.21531256">
    <tag k="addr:city" v="Peacham"/>
    <tag k="addr:housenumber" v="217"/>
    <tag k="addr:street" v="Martins Pond Lane"/>
    <tag k="addr:state" v="VT"/>
    <tag k="ref:vcgi:esiteid" v="186403"/>
  </node>
  <node id="-551" visible="true" lat="44.29964594" lon="-72.30187126">
    <tag k="addr:city" v="Peacham"/>
    <tag k="addr:housenumber" v="273"/>
    <tag k="addr:street" v="Vermont Route 232"/>
    <tag k="addr:state" v="VT"/>
    <tag k="ref:vcgi:esiteid" v="186404"/>
  </node>
  <node id="-552" visible="true" lat="44.29848621" lon="-72.20503835">
    <tag k="addr:city" v="Peacham"/>
    <tag k="addr:housenumber" v="931"/>
    <tag k="addr:street" v="Green Bay Loop"/>
    <tag k="addr:state" v="VT"/>
    <tag k="ref:vcgi:esiteid" v="186405"/>
  </node>
  <node id="-556" visible="true" lat="44.29346436" lon="-72.20015055">
    <tag k="addr:city" v="Peacham"/>
    <tag k="addr:housenumber" v="485"/>
    <tag k="addr:street" v="Green Bay Loop"/>
    <tag k="addr:state" v="VT"/>
    <tag k="ref:vcgi:esiteid" v="186412"/>
  </node>
  <node id="-557" visible="true" lat="44.29277801" lon="-72.19668579">
    <tag k="addr:city" v="Peacham"/>
    <tag k="addr:housenumber" v="304"/>
    <tag k="addr:street" v="Green Bay Loop"/>
    <tag k="addr:state" v="VT"/>
    <tag k="ref:vcgi:esiteid" v="186413"/>
  </node>
  <node id="-559" visible="true" lat="44.29154968" lon="-72.19348907">
    <tag k="addr:city" v="Peacham"/>
    <tag k="addr:housenumber" v="124"/>
    <tag k="addr:street" v="Green Bay Loop"/>
    <tag k="addr:state" v="VT"/>
    <tag k="ref:vcgi:esiteid" v="186415"/>
  </node>
  <node id="-560" visible="true" lat="44.29141235" lon="-72.19824218">
    <tag k="addr:city" v="Peacham"/>
    <tag k="addr:housenumber" v="339"/>
    <tag k="addr:street" v="Green Bay Loop"/>
    <tag k="addr:state" v="VT"/>
    <tag k="ref:vcgi:esiteid" v="186416"/>
  </node>
  <node id="-561" visible="true" lat="44.2899058" lon="-72.19104422">
    <tag k="addr:city" v="Peacham"/>
    <tag k="addr:housenumber" v="2215"/>
    <tag k="addr:street" v="County Road"/>
    <tag k="addr:state" v="VT"/>
    <tag k="ref:vcgi:esiteid" v="186417"/>
  </node>
  <node id="-568" visible="true" lat="44.34662247" lon="-72.18877411">
    <tag k="addr:city" v="Peacham"/>
    <tag k="addr:housenumber" v="358"/>
    <tag k="addr:street" v="Penny Street"/>
    <tag k="addr:state" v="VT"/>
    <tag k="ref:vcgi:esiteid" v="186424"/>
  </node>
  <node id="-569" visible="true" lat="44.33732986" lon="-72.13552856">
    <tag k="addr:city" v="Peacham"/>
    <tag k="addr:housenumber" v="850"/>
    <tag k="addr:street" v="Blanchard Hill Road"/>
    <tag k="addr:state" v="VT"/>
    <tag k="ref:vcgi:esiteid" v="186425"/>
  </node>
  <node id="-570" visible="true" lat="44.33091978" lon="-72.18121773">
    <tag k="addr:city" v="Peacham"/>
    <tag k="addr:housenumber" v="510"/>
    <tag k="addr:street" v="Macks Mountain Road"/>
    <tag k="addr:state" v="VT"/>
    <tag k="ref:vcgi:esiteid" v="186426"/>
  </node>
  <node id="-579" visible="true" lat="44.35342684" lon="-72.12289957">
    <tag k="addr:city" v="Peacham"/>
    <tag k="addr:housenumber" v="21"/>
    <tag k="addr:street" v="Varnum Street"/>
    <tag k="addr:state" v="VT"/>
    <tag k="ref:vcgi:esiteid" v="186435"/>
  </node>
  <node id="-580" visible="true" lat="44.33844729" lon="-72.12119543">
    <tag k="addr:city" v="Peacham"/>
    <tag k="addr:housenumber" v="949"/>
    <tag k="addr:street" v="Somers Road"/>
    <tag k="addr:state" v="VT"/>
    <tag k="ref:vcgi:esiteid" v="186436"/>
  </node>
  <node id="-583" visible="true" lat="44.39350652" lon="-72.21818815">
    <tag k="addr:city" v="Peacham"/>
    <tag k="addr:housenumber" v="485"/>
    <tag k="addr:street" v="Farmer Johns Road"/>
    <tag k="addr:state" v="VT"/>
    <tag k="ref:vcgi:esiteid" v="186439"/>
  </node>
  <node id="-584" visible="true" lat="44.3925169" lon="-72.21740577">
    <tag k="addr:city" v="Peacham"/>
    <tag k="addr:housenumber" v="558"/>
    <tag k="addr:street" v="Farmer Johns Road"/>
    <tag k="addr:state" v="VT"/>
    <tag k="ref:vcgi:esiteid" v="186440"/>
  </node>
  <node id="-585" visible="true" lat="44.36771137" lon="-72.16061053">
    <tag k="addr:city" v="Peacham"/>
    <tag k="addr:housenumber" v="318"/>
    <tag k="addr:street" v="Keiser Pond Road"/>
    <tag k="addr:state" v="VT"/>
    <tag k="ref:vcgi:esiteid" v="186441"/>
  </node>
  <node id="-587" visible="true" lat="44.37668848" lon="-72.18930893">
    <tag k="addr:city" v="Peacham"/>
    <tag k="addr:housenumber" v="4285"/>
    <tag k="addr:street" v="Bayley Hazen Road"/>
    <tag k="addr:state" v="VT"/>
    <tag k="ref:vcgi:esiteid" v="186443"/>
  </node>
  <node id="-588" visible="true" lat="44.36299817" lon="-72.1643093">
    <tag k="addr:city" v="Peacham"/>
    <tag k="addr:housenumber" v="1130"/>
    <tag k="addr:street" v="Peacham Danville Road"/>
    <tag k="addr:state" v="VT"/>
    <tag k="ref:vcgi:esiteid" v="186444"/>
  </node>
  <node id="-589" visible="true" lat="44.37375974" lon="-72.18379798">
    <tag k="addr:city" v="Peacham"/>
    <tag k="addr:housenumber" v="3857"/>
    <tag k="addr:street" v="Bayley Hazen Road"/>
    <tag k="addr:state" v="VT"/>
    <tag k="ref:vcgi:esiteid" v="186445"/>
  </node>
  <node id="-590" visible="true" lat="44.34676671" lon="-72.16583568">
    <tag k="addr:city" v="Peacham"/>
    <tag k="addr:housenumber" v="842"/>
    <tag k="addr:street" v="East Peacham Road"/>
    <tag k="addr:state" v="VT"/>
    <tag k="ref:vcgi:esiteid" v="186446"/>
  </node>
  <node id="-594" visible="true" lat="44.29706206" lon="-72.20658062">
    <tag k="addr:city" v="Peacham"/>
    <tag k="addr:housenumber" v="927"/>
    <tag k="addr:street" v="Green Bay Loop"/>
    <tag k="addr:state" v="VT"/>
    <tag k="ref:vcgi:esiteid" v="186450"/>
  </node>
  <node id="-595" visible="true" lat="44.33259774" lon="-72.153246">
    <tag k="addr:city" v="Peacham"/>
    <tag k="addr:housenumber" v="385"/>
    <tag k="addr:street" v="Hollow Woods Road"/>
    <tag k="addr:state" v="VT"/>
    <tag k="ref:vcgi:esiteid" v="186451"/>
  </node>
  <node id="-596" visible="true" lat="44.32979615" lon="-72.18507894">
    <tag k="addr:city" v="Peacham"/>
    <tag k="addr:housenumber" v="1353"/>
    <tag k="addr:street" v="Maple Tree Lane"/>
    <tag k="addr:state" v="VT"/>
    <tag k="ref:vcgi:esiteid" v="186452"/>
  </node>
  <node id="-600" visible="true" lat="44.2982341" lon="-72.20410387">
    <tag k="addr:city" v="Peacham"/>
    <tag k="addr:housenumber" v="904"/>
    <tag k="addr:street" v="Green Bay Loop"/>
    <tag k="addr:state" v="VT"/>
    <tag k="ref:vcgi:esiteid" v="186457"/>
  </node>
  <node id="-603" visible="true" lat="44.36254678" lon="-72.16047779">
    <tag k="addr:city" v="Peacham"/>
    <tag k="addr:housenumber" v="1184"/>
    <tag k="addr:street" v="Peacham Danville Road"/>
    <tag k="addr:state" v="VT"/>
    <tag k="ref:vcgi:esiteid" v="186460"/>
  </node>
  <node id="-605" visible="true" lat="44.36624657" lon="-72.16476915">
    <tag k="addr:city" v="Peacham"/>
    <tag k="addr:housenumber" v="320"/>
    <tag k="addr:street" v="Keiser Pond Road"/>
    <tag k="addr:state" v="VT"/>
    <tag k="ref:vcgi:esiteid" v="186462"/>
  </node>
  <node id="-607" visible="true" lat="44.29837687" lon="-72.16292369">
    <tag k="addr:city" v="Peacham"/>
    <tag k="addr:housenumber" v="1105"/>
    <tag k="addr:street" v="Peacham Groton Road"/>
    <tag k="addr:state" v="VT"/>
    <tag k="ref:vcgi:esiteid" v="186464"/>
  </node>
  <node id="-611" visible="true" lat="44.32387846" lon="-72.14130644">
    <tag k="addr:city" v="Peacham"/>
    <tag k="addr:housenumber" v="1026"/>
    <tag k="addr:street" v="Stevenson Road"/>
    <tag k="addr:state" v="VT"/>
    <tag k="ref:vcgi:esiteid" v="186468"/>
  </node>
  <node id="-613" visible="true" lat="44.33425425" lon="-72.14239779">
    <tag k="addr:city" v="Peacham"/>
    <tag k="addr:housenumber" v="291"/>
    <tag k="addr:street" v="Blanchard Hill Road"/>
    <tag k="addr:state" v="VT"/>
    <tag k="ref:vcgi:esiteid" v="186470"/>
  </node>
  <node id="-616" visible="true" lat="44.36561458" lon="-72.159379">
    <tag k="addr:city" v="Peacham"/>
    <tag k="addr:housenumber" v="1424"/>
    <tag k="addr:street" v="Peacham Danville Road"/>
    <tag k="addr:state" v="VT"/>
    <tag k="ref:vcgi:esiteid" v="186473"/>
  </node>
  <node id="-619" visible="true" lat="44.3925697" lon="-72.21681138">
    <tag k="addr:city" v="Peacham"/>
    <tag k="addr:housenumber" v="589"/>
    <tag k="addr:street" v="Farmer Johns Road"/>
    <tag k="addr:state" v="VT"/>
    <tag k="ref:vcgi:esiteid" v="186476"/>
  </node>
  <node id="-620" visible="true" lat="44.38975154" lon="-72.21488293">
    <tag k="addr:city" v="Peacham"/>
    <tag k="addr:housenumber" v="801"/>
    <tag k="addr:street" v="Farmer Johns Road"/>
    <tag k="addr:state" v="VT"/>
    <tag k="ref:vcgi:esiteid" v="186477"/>
  </node>
  <node id="-621" visible="true" lat="44.3904077" lon="-72.21807951">
    <tag k="addr:city" v="Peacham"/>
    <tag k="addr:housenumber" v="824"/>
    <tag k="addr:street" v="Farmer Johns Road"/>
    <tag k="addr:state" v="VT"/>
    <tag k="ref:vcgi:esiteid" v="186478"/>
  </node>
  <node id="-622" visible="true" lat="44.30920175" lon="-72.21439205">
    <tag k="addr:city" v="Peacham"/>
    <tag k="addr:housenumber" v="232"/>
    <tag k="addr:street" v="Claude Field Lane"/>
    <tag k="addr:state" v="VT"/>
    <tag k="ref:vcgi:esiteid" v="186479"/>
  </node>
  <node id="-623" visible="true" lat="44.31105775" lon="-72.21763316">
    <tag k="addr:city" v="Peacham"/>
    <tag k="addr:housenumber" v="983"/>
    <tag k="addr:street" v="Devils Hill Road"/>
    <tag k="addr:state" v="VT"/>
    <tag k="ref:vcgi:esiteid" v="186480"/>
  </node>
  <node id="-624" visible="true" lat="44.34139618" lon="-72.15755105">
    <tag k="addr:city" v="Peacham"/>
    <tag k="addr:housenumber" v="1497"/>
    <tag k="addr:street" v="East Peacham Road"/>
    <tag k="addr:state" v="VT"/>
    <tag k="ref:vcgi:esiteid" v="186481"/>
  </node>
  <node id="-626" visible="true" lat="44.29325468" lon="-72.19798528">
    <tag k="addr:city" v="Peacham"/>
    <tag k="addr:housenumber" v="400"/>
    <tag k="addr:street" v="Green Bay Loop"/>
    <tag k="addr:state" v="VT"/>
    <tag k="ref:vcgi:esiteid" v="186483"/>
  </node>
  <node id="-627" visible="true" lat="44.34111876" lon="-72.26089779">
    <tag k="addr:city" v="Peacham"/>
    <tag k="addr:housenumber" v="232"/>
    <tag k="addr:street" v="Peacham Pond Road"/>
    <tag k="addr:state" v="VT"/>
    <tag k="ref:vcgi:esiteid" v="186484"/>
  </node>
  <node id="-628" visible="true" lat="44.33639173" lon="-72.27082488">
    <tag k="addr:city" v="Peacham"/>
    <tag k="addr:housenumber" v="181"/>
    <tag k="addr:street" v="Onion Point"/>
    <tag k="addr:state" v="VT"/>
    <tag k="ref:vcgi:esiteid" v="186485"/>
  </node>
  <node id="-629" visible="true" lat="44.36696214" lon="-72.2162503">
    <tag k="addr:city" v="Peacham"/>
    <tag k="addr:housenumber" v="1979"/>
    <tag k="addr:street" v="Penny Street"/>
    <tag k="addr:state" v="VT"/>
    <tag k="ref:vcgi:esiteid" v="186486"/>
  </node>
  <node id="-630" visible="true" lat="44.32785119" lon="-72.28336674">
    <tag k="addr:city" v="Peacham"/>
    <tag k="addr:housenumber" v="3889"/>
    <tag k="addr:street" v="Vermont Route 232"/>
    <tag k="addr:state" v="VT"/>
    <tag k="ref:vcgi:esiteid" v="186487"/>
  </node>
  <node id="-632" visible="true" lat="44.3338756" lon="-72.26780668">
    <tag k="addr:city" v="Peacham"/>
    <tag k="addr:housenumber" v="300"/>
    <tag k="addr:street" v="Onion Point"/>
    <tag k="addr:state" v="VT"/>
    <tag k="ref:vcgi:esiteid" v="186490"/>
  </node>
  <node id="-634" visible="true" lat="44.32961378" lon="-72.25060346">
    <tag k="addr:city" v="Peacham"/>
    <tag k="addr:housenumber" v="1546"/>
    <tag k="addr:street" v="Peacham Pond Road"/>
    <tag k="addr:state" v="VT"/>
    <tag k="ref:vcgi:esiteid" v="305499"/>
  </node>
  <node id="-637" visible="true" lat="44.3271029" lon="-72.13156108">
    <tag k="addr:city" v="Peacham"/>
    <tag k="addr:housenumber" v="3197"/>
    <tag k="addr:street" v="East Peacham Road"/>
    <tag k="addr:state" v="VT"/>
    <tag k="ref:vcgi:esiteid" v="306117"/>
  </node>
  <node id="-638" visible="true" lat="44.32832871" lon="-72.13356446">
    <tag k="addr:city" v="Peacham"/>
    <tag k="addr:housenumber" v="3195"/>
    <tag k="addr:street" v="East Peacham Road"/>
    <tag k="addr:state" v="VT"/>
    <tag k="ref:vcgi:esiteid" v="306118"/>
  </node>
  <node id="-639" visible="true" lat="44.29520665" lon="-72.20277815">
    <tag k="addr:city" v="Peacham"/>
    <tag k="addr:housenumber" v="630"/>
    <tag k="addr:street" v="Green Bay Loop"/>
    <tag k="addr:state" v="VT"/>
    <tag k="ref:vcgi:esiteid" v="307024"/>
  </node>
  <node id="-640" visible="true" lat="44.29251523" lon="-72.20527997">
    <tag k="addr:city" v="Peacham"/>
    <tag k="addr:housenumber" v="681"/>
    <tag k="addr:street" v="Green Bay Loop"/>
    <tag k="addr:state" v="VT"/>
    <tag k="ref:vcgi:esiteid" v="307026"/>
  </node>
  <node id="-648" visible="true" lat="44.32470451" lon="-72.16578654">
    <tag k="addr:city" v="Peacham"/>
    <tag k="addr:housenumber" v="336"/>
    <tag k="addr:street" v="Bayley Hazen Road"/>
    <tag k="addr:state" v="VT"/>
    <tag k="ref:vcgi:esiteid" v="332011"/>
  </node>
  <node id="-650" visible="true" lat="44.36734275" lon="-72.17302481">
    <tag k="addr:city" v="Peacham"/>
    <tag k="addr:housenumber" v="361"/>
    <tag k="addr:street" v="Keiser Pond Road"/>
    <tag k="addr:state" v="VT"/>
    <tag k="ref:vcgi:esiteid" v="335442"/>
  </node>
  <node id="-652" visible="true" lat="44.31495794" lon="-72.2274444">
    <tag k="addr:city" v="Peacham"/>
    <tag k="addr:housenumber" v="1555"/>
    <tag k="addr:street" v="Devils Hill Road"/>
    <tag k="addr:state" v="VT"/>
    <tag k="ref:vcgi:esiteid" v="335828"/>
  </node>
  <node id="-656" visible="true" lat="44.36421653" lon="-72.1667111">
    <tag k="addr:city" v="Peacham"/>
    <tag k="addr:housenumber" v="151"/>
    <tag k="addr:street" v="Keiser Pond Road"/>
    <tag k="addr:state" v="VT"/>
    <tag k="ref:vcgi:esiteid" v="340215"/>
  </node>
  <node id="-658" visible="true" lat="44.31197101" lon="-72.21846821">
    <tag k="addr:city" v="Peacham"/>
    <tag k="addr:housenumber" v="1068"/>
    <tag k="addr:street" v="Devils Hill Road"/>
    <tag k="addr:state" v="VT"/>
    <tag k="ref:vcgi:esiteid" v="341299"/>
  </node>
  <node id="-659" visible="true" lat="44.3042422" lon="-72.20532126">
    <tag k="addr:city" v="Peacham"/>
    <tag k="addr:housenumber" v="1327"/>
    <tag k="addr:street" v="Green Bay Loop"/>
    <tag k="addr:state" v="VT"/>
    <tag k="ref:vcgi:esiteid" v="341300"/>
  </node>
  <node id="-663" visible="true" lat="44.35126191" lon="-72.11618214">
    <tag k="addr:city" v="Peacham"/>
    <tag k="addr:housenumber" v="437"/>
    <tag k="addr:street" v="Varnum Street"/>
    <tag k="addr:state" v="VT"/>
    <tag k="ref:vcgi:esiteid" v="341889"/>
  </node>
  <node id="-664" visible="true" lat="44.33048952" lon="-72.18041437">
    <tag k="addr:city" v="Peacham"/>
    <tag k="addr:housenumber" v="500"/>
    <tag k="addr:street" v="Macks Mountain Road"/>
    <tag k="addr:state" v="VT"/>
    <tag k="ref:vcgi:esiteid" v="345583"/>
  </node>
  <node id="-667" visible="true" lat="44.36676737" lon="-72.16805225">
    <tag k="addr:city" v="Peacham"/>
    <tag k="addr:housenumber" v="303"/>
    <tag k="addr:street" v="Keiser Pond Road"/>
    <tag k="addr:state" v="VT"/>
    <tag k="ref:vcgi:esiteid" v="345614"/>
  </node>
  <node id="-668" visible="true" lat="44.35322695" lon="-72.10109193">
    <tag k="addr:city" v="Peacham"/>
    <tag k="addr:housenumber" v="1260"/>
    <tag k="addr:street" v="Rake Factory Road"/>
    <tag k="addr:state" v="VT"/>
    <tag k="ref:vcgi:esiteid" v="365400"/>
  </node>
  <node id="-669" visible="true" lat="44.35667113" lon="-72.0977142">
    <tag k="addr:city" v="Peacham"/>
    <tag k="addr:housenumber" v="1300"/>
    <tag k="addr:street" v="Rake Factory Road"/>
    <tag k="addr:state" v="VT"/>
    <tag k="ref:vcgi:esiteid" v="365401"/>
  </node>
  <node id="-670" visible="true" lat="44.36527778" lon="-72.14710842">
    <tag k="addr:city" v="Peacham"/>
    <tag k="addr:housenumber" v="1942"/>
    <tag k="addr:street" v="Old County Road"/>
    <tag k="addr:state" v="VT"/>
    <tag k="ref:vcgi:esiteid" v="365539"/>
  </node>
  <node id="-671" visible="true" lat="44.38347048" lon="-72.19193216">
    <tag k="addr:city" v="Peacham"/>
    <tag k="addr:housenumber" v="4646"/>
    <tag k="addr:street" v="Bayley Hazen Road"/>
    <tag k="addr:state" v="VT"/>
    <tag k="ref:vcgi:esiteid" v="365542"/>
  </node>
  <node id="-672" visible="true" lat="44.3495243" lon="-72.22219011">
    <tag k="addr:city" v="Peacham"/>
    <tag k="addr:housenumber" v="3081"/>
    <tag k="addr:street" v="Macks Mountain Road"/>
    <tag k="addr:state" v="VT"/>
    <tag k="ref:vcgi:esiteid" v="365546"/>
  </node>
  <node id="-673" visible="true" lat="44.3411436" lon="-72.26559672">
    <tag k="addr:city" v="Peacham"/>
    <tag k="addr:housenumber" v="41"/>
    <tag k="addr:street" v="Peacham Pond Road"/>
    <tag k="addr:state" v="VT"/>
    <tag k="ref:vcgi:esiteid" v="365570"/>
  </node>
  <node id="-674" visible="true" lat="44.33758251" lon="-72.23355982">
    <tag k="addr:city" v="Peacham"/>
    <tag k="addr:housenumber" v="1300"/>
    <tag k="addr:street" v="Lanesboro Road"/>
    <tag k="addr:state" v="VT"/>
    <tag k="ref:vcgi:esiteid" v="365574"/>
  </node>
  <node id="-675" visible="true" lat="44.32251521" lon="-72.13783442">
    <tag k="addr:city" v="Peacham"/>
    <tag k="addr:housenumber" v="1114"/>
    <tag k="addr:street" v="Stevenson Road"/>
    <tag k="addr:state" v="VT"/>
    <tag k="ref:vcgi:esiteid" v="365623"/>
  </node>
  <node id="-679" visible="true" lat="44.36609906" lon="-72.16021687">
    <tag k="addr:city" v="Peacham"/>
    <tag k="addr:housenumber" v="1425"/>
    <tag k="addr:street" v="Peacham Danville Road"/>
    <tag k="addr:state" v="VT"/>
    <tag k="ref:vcgi:esiteid" v="446391"/>
  </node>
  <node id="-682" visible="true" lat="44.36953749" lon="-72.17739392">
    <tag k="addr:city" v="Peacham"/>
    <tag k="addr:housenumber" v="3456"/>
    <tag k="addr:street" v="Bayley Hazen Road"/>
    <tag k="addr:state" v="VT"/>
    <tag k="ref:vcgi:esiteid" v="449911"/>
  </node>
  <node id="-684" visible="true" lat="44.34872627" lon="-72.12687554">
    <tag k="addr:city" v="Peacham"/>
    <tag k="addr:housenumber" v="2018"/>
    <tag k="addr:street" v="Thaddeus Stevens Road"/>
    <tag k="addr:state" v="VT"/>
    <tag k="ref:vcgi:esiteid" v="451568"/>
  </node>
  <node id="-688" visible="true" lat="44.33410688" lon="-72.26139807">
    <tag k="addr:city" v="Peacham"/>
    <tag k="addr:housenumber" v="262"/>
    <tag k="addr:street" v="Spur Road"/>
    <tag k="addr:state" v="VT"/>
    <tag k="ref:vcgi:esiteid" v="611494"/>
  </node>
  <node id="-696" visible="true" lat="44.38482065" lon="-72.17073253">
    <tag k="addr:city" v="Peacham"/>
    <tag k="addr:housenumber" v="1400"/>
    <tag k="addr:street" v="Harveys Hollow Road"/>
    <tag k="addr:state" v="VT"/>
    <tag k="ref:vcgi:esiteid" v="617168"/>
  </node>
  <node id="-697" visible="true" lat="44.39181524" lon="-72.20423109">
    <tag k="addr:city" v="Peacham"/>
    <tag k="addr:housenumber" v="1128"/>
    <tag k="addr:street" v="Woodward Road"/>
    <tag k="addr:state" v="VT"/>
    <tag k="ref:vcgi:esiteid" v="618052"/>
  </node>
  <node id="-700" visible="true" lat="44.3223273" lon="-72.13556681">
    <tag k="addr:city" v="Peacham"/>
    <tag k="addr:housenumber" v="712"/>
    <tag k="addr:street" v="Stevenson Road"/>
    <tag k="addr:state" v="VT"/>
    <tag k="ref:vcgi:esiteid" v="619796"/>
  </node>
  <node id="-701" visible="true" lat="44.38769506" lon="-72.22677306">
    <tag k="addr:city" v="Peacham"/>
    <tag k="addr:housenumber" v="240"/>
    <tag k="addr:street" v="Scottland Way"/>
    <tag k="addr:state" v="VT"/>
    <tag k="ref:vcgi:esiteid" v="620309"/>
  </node>
  <node id="-702" visible="true" lat="44.30486133" lon="-72.16801223">
    <tag k="addr:city" v="Peacham"/>
    <tag k="addr:housenumber" v="210"/>
    <tag k="addr:street" v="Gov Wentworth Grant Road"/>
    <tag k="addr:state" v="VT"/>
    <tag k="ref:vcgi:esiteid" v="620638"/>
  </node>
  <node id="-703" visible="true" lat="44.35765159" lon="-72.16714887">
    <tag k="addr:city" v="Peacham"/>
    <tag k="addr:housenumber" v="120"/>
    <tag k="addr:street" v="Taylor Road"/>
    <tag k="addr:state" v="VT"/>
    <tag k="ref:vcgi:esiteid" v="700199"/>
  </node>
  <node id="-704" visible="true" lat="44.35733266" lon="-72.16801691">
    <tag k="addr:city" v="Peacham"/>
    <tag k="addr:housenumber" v="122"/>
    <tag k="addr:street" v="Taylor Road"/>
    <tag k="addr:state" v="VT"/>
    <tag k="ref:vcgi:esiteid" v="700200"/>
  </node>
  <node id="-705" visible="true" lat="44.35572523" lon="-72.1630876">
    <tag k="addr:city" v="Peacham"/>
    <tag k="addr:housenumber" v="326"/>
    <tag k="addr:street" v="Taylor Road"/>
    <tag k="addr:state" v="VT"/>
    <tag k="ref:vcgi:esiteid" v="700201"/>
  </node>
  <node id="-706" visible="true" lat="44.35573656" lon="-72.1645113">
    <tag k="addr:city" v="Peacham"/>
    <tag k="addr:housenumber" v="324"/>
    <tag k="addr:street" v="Taylor Road"/>
    <tag k="addr:state" v="VT"/>
    <tag k="ref:vcgi:esiteid" v="700202"/>
  </node>
  <node id="-707" visible="true" lat="44.38264685" lon="-72.17172478">
    <tag k="addr:city" v="Peacham"/>
    <tag k="addr:housenumber" v="1578"/>
    <tag k="addr:street" v="Keiser Pond Road"/>
    <tag k="addr:state" v="VT"/>
    <tag k="ref:vcgi:esiteid" v="750114"/>
  </node>
  <node id="-709" visible="true" lat="44.32229448" lon="-72.18386091">
    <tag k="addr:city" v="Peacham"/>
    <tag k="addr:housenumber" v="189"/>
    <tag k="addr:street" v="Worcester Road"/>
    <tag k="addr:state" v="VT"/>
    <tag k="ref:vcgi:esiteid" v="750116"/>
  </node>
  <node id="-710" visible="true" lat="44.36087749" lon="-72.16754394">
    <tag k="addr:city" v="Peacham"/>
    <tag k="addr:housenumber" v="880"/>
    <tag k="addr:street" v="Peacham Danville Road"/>
    <tag k="addr:state" v="VT"/>
    <tag k="ref:vcgi:esiteid" v="751644"/>
  </node>
  <node id="-711" visible="true" lat="44.36972799" lon="-72.16798377">
    <tag k="addr:city" v="Peacham"/>
    <tag k="addr:housenumber" v="518"/>
    <tag k="addr:street" v="Keiser Pond Road"/>
    <tag k="addr:state" v="VT"/>
    <tag k="ref:vcgi:esiteid" v="753391"/>
  </node>
  <node id="-712" visible="true" lat="44.32734229" lon="-72.25103375">
    <tag k="addr:city" v="Peacham"/>
    <tag k="addr:housenumber" v="1786"/>
    <tag k="addr:street" v="Peacham Pond Road"/>
    <tag k="addr:state" v="VT"/>
    <tag k="ref:vcgi:esiteid" v="756670"/>
  </node>
  <node id="-713" visible="true" lat="44.33865094" lon="-72.2434001">
    <tag k="addr:city" v="Peacham"/>
    <tag k="addr:housenumber" v="1920"/>
    <tag k="addr:street" v="Lanesboro Road"/>
    <tag k="addr:state" v="VT"/>
    <tag k="ref:vcgi:esiteid" v="756815"/>
  </node>
  <node id="-714" visible="true" lat="44.359514" lon="-72.25526029">
    <tag k="addr:city" v="Peacham"/>
    <tag k="addr:housenumber" v="680"/>
    <tag k="addr:street" v="Hookerville Cutoff"/>
    <tag k="addr:state" v="VT"/>
    <tag k="ref:vcgi:esiteid" v="756816"/>
  </node>
  <node id="-715" visible="true" lat="44.35855288" lon="-72.25373646">
    <tag k="addr:city" v="Peacham"/>
    <tag k="addr:housenumber" v="235"/>
    <tag k="addr:street" v="Hookerville Cutoff"/>
    <tag k="addr:state" v="VT"/>
    <tag k="ref:vcgi:esiteid" v="756818"/>
  </node>
  <node id="-717" visible="true" lat="44.30323346" lon="-72.1604683">
    <tag k="addr:city" v="Peacham"/>
    <tag k="addr:housenumber" v="983"/>
    <tag k="addr:street" v="Peacham Groton Road"/>
    <tag k="addr:state" v="VT"/>
    <tag k="ref:vcgi:esiteid" v="759413"/>
  </node>
  <node id="-718" visible="true" lat="44.30218727" lon="-72.16354609">
    <tag k="addr:city" v="Peacham"/>
    <tag k="addr:housenumber" v="901"/>
    <tag k="addr:street" v="Peacham Groton Road"/>
    <tag k="addr:state" v="VT"/>
    <tag k="ref:vcgi:esiteid" v="759414"/>
  </node>
  <node id="-719" visible="true" lat="44.32965747" lon="-72.15755657">
    <tag k="addr:city" v="Peacham"/>
    <tag k="addr:housenumber" v="599"/>
    <tag k="addr:street" v="Hollow Woods Road"/>
    <tag k="addr:state" v="VT"/>
    <tag k="ref:vcgi:esiteid" v="760177"/>
  </node>
  <node id="-720" visible="true" lat="44.35502586" lon="-72.17678136">
    <tag k="addr:city" v="Peacham"/>
    <tag k="addr:housenumber" v="253"/>
    <tag k="addr:street" v="Peacham Danville Road"/>
    <tag k="addr:state" v="VT"/>
    <tag k="ref:vcgi:esiteid" v="760178"/>
  </node>
  <node id="-721" visible="true" lat="44.33324955" lon="-72.18579128">
    <tag k="addr:city" v="Peacham"/>
    <tag k="addr:housenumber" v="96"/>
    <tag k="addr:street" v="Hapenny Road"/>
    <tag k="addr:state" v="VT"/>
    <tag k="ref:vcgi:esiteid" v="760238"/>
  </node>
  <node id="-722" visible="true" lat="44.33779644" lon="-72.2527961">
    <tag k="addr:city" v="Peacham"/>
    <tag k="addr:housenumber" v="920"/>
    <tag k="addr:street" v="Peacham Pond Road"/>
    <tag k="addr:state" v="VT"/>
    <tag k="ref:vcgi:esiteid" v="761587"/>
  </node>
  <node id="-723" visible="true" lat="44.33959174" lon="-72.17310955">
    <tag k="addr:city" v="Peacham"/>
    <tag k="addr:housenumber" v="1386"/>
    <tag k="addr:street" v="Bayley Hazen Road"/>
    <tag k="addr:state" v="VT"/>
    <tag k="ref:vcgi:esiteid" v="768064"/>
  </node>
  <node id="-724" visible="true" lat="44.32641736" lon="-72.17379485">
    <tag k="addr:city" v="Peacham"/>
    <tag k="addr:housenumber" v="50"/>
    <tag k="addr:street" v="Macks Mountain Road"/>
    <tag k="addr:state" v="VT"/>
    <tag k="ref:vcgi:esiteid" v="768434"/>
  </node>
  <node id="-727" visible="true" lat="44.30480281" lon="-72.16430653">
    <tag k="addr:city" v="Peacham"/>
    <tag k="addr:housenumber" v="659"/>
    <tag k="addr:street" v="Peacham Groton Road"/>
    <tag k="addr:state" v="VT"/>
    <tag k="ref:vcgi:esiteid" v="1050898"/>
  </node>
  <node id="-728" visible="true" lat="44.30954444" lon="-72.15416011">
    <tag k="addr:city" v="Peacham"/>
    <tag k="addr:housenumber" v="2010"/>
    <tag k="addr:street" v="Hollow Woods Road"/>
    <tag k="addr:state" v="VT"/>
    <tag k="ref:vcgi:esiteid" v="1050899"/>
  </node>
  <node id="-729" visible="true" lat="44.31717" lon="-72.167">
    <tag k="addr:city" v="Peacham"/>
    <tag k="addr:housenumber" v="205"/>
    <tag k="addr:street" v="South Main Street"/>
    <tag k="addr:state" v="VT"/>
    <tag k="ref:vcgi:esiteid" v="1050900"/>
  </node>
  <node id="-730" visible="true" lat="44.32615982" lon="-72.17393824">
    <tag k="addr:city" v="Peacham"/>
    <tag k="addr:housenumber" v="57"/>
    <tag k="addr:street" v="Macks Mountain Road"/>
    <tag k="addr:state" v="VT"/>
    <tag k="ref:vcgi:esiteid" v="1050901"/>
  </node>
  <node id="-731" visible="true" lat="44.32565683" lon="-72.16550728">
    <tag k="addr:city" v="Peacham"/>
    <tag k="addr:housenumber" v="342"/>
    <tag k="addr:street" v="Bayley Hazen Road"/>
    <tag k="addr:state" v="VT"/>
    <tag k="ref:vcgi:esiteid" v="1050902"/>
  </node>
  <node id="-732" visible="true" lat="44.30677863" lon="-72.18287635">
    <tag k="addr:city" v="Peacham"/>
    <tag k="addr:housenumber" v="1010"/>
    <tag k="addr:street" v="County Road"/>
    <tag k="addr:state" v="VT"/>
    <tag k="ref:vcgi:esiteid" v="1050903"/>
  </node>
  <node id="-733" visible="true" lat="44.28767" lon="-72.18333">
    <tag k="addr:city" v="Peacham"/>
    <tag k="addr:housenumber" v="614"/>
    <tag k="addr:street" v="Great Road"/>
    <tag k="addr:state" v="VT"/>
    <tag k="ref:vcgi:esiteid" v="1050904"/>
  </node>
  <node id="-734" visible="true" lat="44.29769784" lon="-72.2066278">
    <tag k="addr:city" v="Peacham"/>
    <tag k="addr:housenumber" v="889"/>
    <tag k="addr:street" v="Green Bay Loop"/>
    <tag k="addr:state" v="VT"/>
    <tag k="ref:vcgi:esiteid" v="1050905"/>
  </node>
  <node id="-735" visible="true" lat="44.35946418" lon="-72.24502879">
    <tag k="addr:city" v="Peacham"/>
    <tag k="addr:housenumber" v="135"/>
    <tag k="addr:street" v="Hookerville Cutoff"/>
    <tag k="addr:state" v="VT"/>
    <tag k="ref:vcgi:esiteid" v="1050913"/>
  </node>
  <node id="-736" visible="true" lat="44.34291093" lon="-72.14371687">
    <tag k="addr:city" v="Peacham"/>
    <tag k="addr:housenumber" v="898"/>
    <tag k="addr:street" v="Thaddeus Stevens Road"/>
    <tag k="addr:state" v="VT"/>
    <tag k="ref:vcgi:esiteid" v="1050914"/>
  </node>
  <node id="-737" visible="true" lat="44.33283" lon="-72.13567">
    <tag k="addr:city" v="Peacham"/>
    <tag k="addr:housenumber" v="556"/>
    <tag k="addr:street" v="Blanchard Hill Road"/>
    <tag k="addr:state" v="VT"/>
    <tag k="ref:vcgi:esiteid" v="1050915"/>
  </node>
  <node id="-738" visible="true" lat="44.3135" lon="-72.19533">
    <tag k="addr:city" v="Peacham"/>
    <tag k="addr:housenumber" v="2285"/>
    <tag k="addr:street" v="Green Bay Loop"/>
    <tag k="addr:state" v="VT"/>
    <tag k="ref:vcgi:esiteid" v="1050916"/>
  </node>
  <node id="-739" visible="true" lat="44.31454893" lon="-72.2072791">
    <tag k="addr:city" v="Peacham"/>
    <tag k="addr:housenumber" v="413"/>
    <tag k="addr:street" v="Devils Hill Road"/>
    <tag k="addr:state" v="VT"/>
    <tag k="ref:vcgi:esiteid" v="1050917"/>
  </node>
</osm>
