<?xml version="1.0" encoding="UTF-8"?>
<osm version="0.6" generator="JOSM">
  <node id="-104" visible="true" lat="43.29840511" lon="-72.86224915">
    <tag k="addr:city" v="Peru"/>
    <tag k="addr:housenumber" v="81"/>
    <tag k="addr:street" v="Russet Hill Road"/>
    <tag k="addr:state" v="VT"/>
    <tag k="ref:vcgi:esiteid" v="186491"/>
  </node>
  <node id="-105" visible="true" lat="43.28392245" lon="-72.87832187">
    <tag k="addr:city" v="Peru"/>
    <tag k="addr:housenumber" v="1092"/>
    <tag k="addr:street" v="Little Michigan Road"/>
    <tag k="addr:state" v="VT"/>
    <tag k="ref:vcgi:esiteid" v="186492"/>
  </node>
  <node id="-122" visible="true" lat="43.26609462" lon="-72.89373928">
    <tag k="addr:city" v="Peru"/>
    <tag k="addr:housenumber" v="573"/>
    <tag k="addr:street" v="Priest Lane"/>
    <tag k="addr:state" v="VT"/>
    <tag k="ref:vcgi:esiteid" v="186509"/>
  </node>
  <node id="-123" visible="true" lat="43.26491763" lon="-72.89857747">
    <tag k="addr:city" v="Peru"/>
    <tag k="addr:housenumber" v="303"/>
    <tag k="addr:street" v="Priest Lane"/>
    <tag k="addr:state" v="VT"/>
    <tag k="ref:vcgi:esiteid" v="186510"/>
  </node>
  <node id="-124" visible="true" lat="43.26427706" lon="-72.88485849">
    <tag k="addr:city" v="Peru"/>
    <tag k="addr:housenumber" v="538"/>
    <tag k="addr:street" v="Stone Place Road"/>
    <tag k="addr:state" v="VT"/>
    <tag k="ref:vcgi:esiteid" v="186511"/>
  </node>
  <node id="-125" visible="true" lat="43.2640915" lon="-72.88487755">
    <tag k="addr:city" v="Peru"/>
    <tag k="addr:housenumber" v="518"/>
    <tag k="addr:street" v="Stone Place Road"/>
    <tag k="addr:state" v="VT"/>
    <tag k="ref:vcgi:esiteid" v="186512"/>
  </node>
  <node id="-126" visible="true" lat="43.26410912" lon="-72.89870265">
    <tag k="addr:city" v="Peru"/>
    <tag k="addr:housenumber" v="308"/>
    <tag k="addr:street" v="Priest Lane"/>
    <tag k="addr:state" v="VT"/>
    <tag k="ref:vcgi:esiteid" v="186513"/>
  </node>
  <node id="-127" visible="true" lat="43.26361338" lon="-72.90182977">
    <tag k="addr:city" v="Peru"/>
    <tag k="addr:housenumber" v="163"/>
    <tag k="addr:street" v="Priest Lane"/>
    <tag k="addr:state" v="VT"/>
    <tag k="ref:vcgi:esiteid" v="186514"/>
  </node>
  <node id="-129" visible="true" lat="43.26343396" lon="-72.86365773">
    <tag k="addr:city" v="Peru"/>
    <tag k="addr:housenumber" v="3221"/>
    <tag k="addr:street" v="Hapgood Pond Road"/>
    <tag k="addr:state" v="VT"/>
    <tag k="ref:vcgi:esiteid" v="186517"/>
  </node>
  <node id="-130" visible="true" lat="43.26298498" lon="-72.86712716">
    <tag k="addr:city" v="Peru"/>
    <tag k="addr:housenumber" v="3068"/>
    <tag k="addr:street" v="Hapgood Pond Road"/>
    <tag k="addr:state" v="VT"/>
    <tag k="ref:vcgi:esiteid" v="186518"/>
  </node>
  <node id="-133" visible="true" lat="43.26190866" lon="-72.86911035">
    <tag k="addr:city" v="Peru"/>
    <tag k="addr:housenumber" v="2936"/>
    <tag k="addr:street" v="Hapgood Pond Road"/>
    <tag k="addr:state" v="VT"/>
    <tag k="ref:vcgi:esiteid" v="186521"/>
  </node>
  <node id="-134" visible="true" lat="43.26013303" lon="-72.91084636">
    <tag k="addr:city" v="Peru"/>
    <tag k="addr:housenumber" v="555"/>
    <tag k="addr:street" v="Doc Farnum Road"/>
    <tag k="addr:state" v="VT"/>
    <tag k="ref:vcgi:esiteid" v="186522"/>
  </node>
  <node id="-135" visible="true" lat="43.25983148" lon="-72.87685339">
    <tag k="addr:city" v="Peru"/>
    <tag k="addr:housenumber" v="2495"/>
    <tag k="addr:street" v="Hapgood Pond Road"/>
    <tag k="addr:state" v="VT"/>
    <tag k="ref:vcgi:esiteid" v="186523"/>
  </node>
  <node id="-136" visible="true" lat="43.25962231" lon="-72.8765093">
    <tag k="addr:city" v="Peru"/>
    <tag k="addr:housenumber" v="2493"/>
    <tag k="addr:street" v="Hapgood Pond Road"/>
    <tag k="addr:state" v="VT"/>
    <tag k="ref:vcgi:esiteid" v="186524"/>
  </node>
  <node id="-137" visible="true" lat="43.25937942" lon="-72.87947427">
    <tag k="addr:city" v="Peru"/>
    <tag k="addr:housenumber" v="2347"/>
    <tag k="addr:street" v="Hapgood Pond Road"/>
    <tag k="addr:state" v="VT"/>
    <tag k="ref:vcgi:esiteid" v="186525"/>
  </node>
  <node id="-139" visible="true" lat="43.25884456" lon="-72.88109736">
    <tag k="addr:city" v="Peru"/>
    <tag k="addr:housenumber" v="89"/>
    <tag k="addr:street" v="Stone Place Road"/>
    <tag k="addr:state" v="VT"/>
    <tag k="ref:vcgi:esiteid" v="186527"/>
  </node>
  <node id="-140" visible="true" lat="43.25846032" lon="-72.90629156">
    <tag k="addr:city" v="Peru"/>
    <tag k="addr:housenumber" v="325"/>
    <tag k="addr:street" v="Doc Farnum Road"/>
    <tag k="addr:state" v="VT"/>
    <tag k="ref:vcgi:esiteid" v="186528"/>
  </node>
  <node id="-142" visible="true" lat="43.25781072" lon="-72.90362278">
    <tag k="addr:city" v="Peru"/>
    <tag k="addr:housenumber" v="155"/>
    <tag k="addr:street" v="Doc Farnum Road"/>
    <tag k="addr:state" v="VT"/>
    <tag k="ref:vcgi:esiteid" v="186530"/>
  </node>
  <node id="-143" visible="true" lat="43.257796" lon="-72.90245498">
    <tag k="addr:city" v="Peru"/>
    <tag k="addr:housenumber" v="51"/>
    <tag k="addr:street" v="Doc Farnum Road"/>
    <tag k="addr:state" v="VT"/>
    <tag k="ref:vcgi:esiteid" v="186531"/>
  </node>
  <node id="-145" visible="true" lat="43.25633207" lon="-72.90482811">
    <tag k="addr:city" v="Peru"/>
    <tag k="addr:housenumber" v="274"/>
    <tag k="addr:street" v="Catlin Road"/>
    <tag k="addr:state" v="VT"/>
    <tag k="ref:vcgi:esiteid" v="186533"/>
  </node>
  <node id="-147" visible="true" lat="43.2562117" lon="-72.9003343">
    <tag k="addr:city" v="Peru"/>
    <tag k="addr:housenumber" v="995"/>
    <tag k="addr:street" v="North Road"/>
    <tag k="addr:state" v="VT"/>
    <tag k="ref:vcgi:esiteid" v="186535"/>
  </node>
  <node id="-148" visible="true" lat="43.25608542" lon="-72.90231694">
    <tag k="addr:city" v="Peru"/>
    <tag k="addr:housenumber" v="128"/>
    <tag k="addr:street" v="Catlin Road"/>
    <tag k="addr:state" v="VT"/>
    <tag k="ref:vcgi:esiteid" v="186536"/>
  </node>
  <node id="-151" visible="true" lat="43.25518148" lon="-72.902045">
    <tag k="addr:city" v="Peru"/>
    <tag k="addr:housenumber" v="93"/>
    <tag k="addr:street" v="Catlin Road"/>
    <tag k="addr:state" v="VT"/>
    <tag k="ref:vcgi:esiteid" v="186539"/>
  </node>
  <node id="-152" visible="true" lat="43.25485405" lon="-72.89930069">
    <tag k="addr:city" v="Peru"/>
    <tag k="addr:housenumber" v="881"/>
    <tag k="addr:street" v="North Road"/>
    <tag k="addr:state" v="VT"/>
    <tag k="ref:vcgi:esiteid" v="186540"/>
  </node>
  <node id="-156" visible="true" lat="43.2519914" lon="-72.90271669">
    <tag k="addr:city" v="Peru"/>
    <tag k="addr:housenumber" v="426"/>
    <tag k="addr:street" v="Savage Road"/>
    <tag k="addr:state" v="VT"/>
    <tag k="ref:vcgi:esiteid" v="186546"/>
  </node>
  <node id="-157" visible="true" lat="43.2513966" lon="-72.89911194">
    <tag k="addr:city" v="Peru"/>
    <tag k="addr:housenumber" v="240"/>
    <tag k="addr:street" v="Savage Road"/>
    <tag k="addr:state" v="VT"/>
    <tag k="ref:vcgi:esiteid" v="186547"/>
  </node>
  <node id="-159" visible="true" lat="43.25001532" lon="-72.90467288">
    <tag k="addr:city" v="Peru"/>
    <tag k="addr:housenumber" v="563"/>
    <tag k="addr:street" v="Savage Road"/>
    <tag k="addr:state" v="VT"/>
    <tag k="ref:vcgi:esiteid" v="186549"/>
  </node>
  <node id="-166" visible="true" lat="43.2490921" lon="-72.90945559">
    <tag k="addr:city" v="Peru"/>
    <tag k="addr:housenumber" v="808"/>
    <tag k="addr:street" v="Moss Brook Road"/>
    <tag k="addr:state" v="VT"/>
    <tag k="ref:vcgi:esiteid" v="186556"/>
  </node>
  <node id="-173" visible="true" lat="43.24663658" lon="-72.91406003">
    <tag k="addr:city" v="Peru"/>
    <tag k="addr:housenumber" v="1072"/>
    <tag k="addr:street" v="Moss Brook Road"/>
    <tag k="addr:state" v="VT"/>
    <tag k="ref:vcgi:esiteid" v="186563"/>
  </node>
  <node id="-194" visible="true" lat="43.2439267" lon="-72.90663858">
    <tag k="addr:city" v="Peru"/>
    <tag k="addr:housenumber" v="628"/>
    <tag k="addr:street" v="Moss Brook Road"/>
    <tag k="addr:state" v="VT"/>
    <tag k="ref:vcgi:esiteid" v="186585"/>
  </node>
  <node id="-195" visible="true" lat="43.24374405" lon="-72.90206117">
    <tag k="addr:city" v="Peru"/>
    <tag k="addr:housenumber" v="394"/>
    <tag k="addr:street" v="Moss Brook Road"/>
    <tag k="addr:state" v="VT"/>
    <tag k="ref:vcgi:esiteid" v="186586"/>
  </node>
  <node id="-196" visible="true" lat="43.24378865" lon="-72.90078303">
    <tag k="addr:city" v="Peru"/>
    <tag k="addr:housenumber" v="326"/>
    <tag k="addr:street" v="Moss Brook Road"/>
    <tag k="addr:state" v="VT"/>
    <tag k="ref:vcgi:esiteid" v="186587"/>
  </node>
  <node id="-197" visible="true" lat="43.2436829" lon="-72.90056079">
    <tag k="addr:city" v="Peru"/>
    <tag k="addr:housenumber" v="318"/>
    <tag k="addr:street" v="Moss Brook Road"/>
    <tag k="addr:state" v="VT"/>
    <tag k="ref:vcgi:esiteid" v="186588"/>
  </node>
  <node id="-199" visible="true" lat="43.24364622" lon="-72.90752869">
    <tag k="addr:city" v="Peru"/>
    <tag k="addr:housenumber" v="672"/>
    <tag k="addr:street" v="Moss Brook Road"/>
    <tag k="addr:state" v="VT"/>
    <tag k="ref:vcgi:esiteid" v="186590"/>
  </node>
  <node id="-201" visible="true" lat="43.24364749" lon="-72.8658948">
    <tag k="addr:city" v="Peru"/>
    <tag k="addr:housenumber" v="498"/>
    <tag k="addr:street" v="Forest Mountain Road"/>
    <tag k="addr:state" v="VT"/>
    <tag k="ref:vcgi:esiteid" v="186592"/>
  </node>
  <node id="-202" visible="true" lat="43.24368283" lon="-72.8972297">
    <tag k="addr:city" v="Peru"/>
    <tag k="addr:housenumber" v="148"/>
    <tag k="addr:street" v="Moss Brook Road"/>
    <tag k="addr:state" v="VT"/>
    <tag k="ref:vcgi:esiteid" v="186593"/>
  </node>
  <node id="-208" visible="true" lat="43.24335453" lon="-72.90145035">
    <tag k="addr:city" v="Peru"/>
    <tag k="addr:housenumber" v="351"/>
    <tag k="addr:street" v="Moss Brook Road"/>
    <tag k="addr:state" v="VT"/>
    <tag k="ref:vcgi:esiteid" v="186599"/>
  </node>
  <node id="-210" visible="true" lat="43.2429887" lon="-72.90408494">
    <tag k="addr:city" v="Peru"/>
    <tag k="addr:housenumber" v="447"/>
    <tag k="addr:street" v="Moss Brook Road"/>
    <tag k="addr:state" v="VT"/>
    <tag k="ref:vcgi:esiteid" v="186601"/>
  </node>
  <node id="-211" visible="true" lat="43.24290203" lon="-72.86541968">
    <tag k="addr:city" v="Peru"/>
    <tag k="addr:housenumber" v="484"/>
    <tag k="addr:street" v="Forest Mountain Road"/>
    <tag k="addr:state" v="VT"/>
    <tag k="ref:vcgi:esiteid" v="186602"/>
  </node>
  <node id="-217" visible="true" lat="43.24207615" lon="-72.89801765">
    <tag k="addr:city" v="Peru"/>
    <tag k="addr:housenumber" v="215"/>
    <tag k="addr:street" v="Moss Brook Road"/>
    <tag k="addr:state" v="VT"/>
    <tag k="ref:vcgi:esiteid" v="186608"/>
  </node>
  <node id="-219" visible="true" lat="43.24217179" lon="-72.86540503">
    <tag k="addr:city" v="Peru"/>
    <tag k="addr:housenumber" v="464"/>
    <tag k="addr:street" v="Forest Mountain Road"/>
    <tag k="addr:state" v="VT"/>
    <tag k="ref:vcgi:esiteid" v="186610"/>
  </node>
  <node id="-220" visible="true" lat="43.24183481" lon="-72.89805236">
    <tag k="addr:city" v="Peru"/>
    <tag k="addr:housenumber" v="217"/>
    <tag k="addr:street" v="Moss Brook Road"/>
    <tag k="addr:state" v="VT"/>
    <tag k="ref:vcgi:esiteid" v="186611"/>
  </node>
  <node id="-224" visible="true" lat="43.24182934" lon="-72.86588741">
    <tag k="addr:city" v="Peru"/>
    <tag k="addr:housenumber" v="404"/>
    <tag k="addr:street" v="Forest Mountain Road"/>
    <tag k="addr:state" v="VT"/>
    <tag k="ref:vcgi:esiteid" v="186615"/>
  </node>
  <node id="-225" visible="true" lat="43.24169107" lon="-72.86556716">
    <tag k="addr:city" v="Peru"/>
    <tag k="addr:housenumber" v="400"/>
    <tag k="addr:street" v="Forest Mountain Road"/>
    <tag k="addr:state" v="VT"/>
    <tag k="ref:vcgi:esiteid" v="186616"/>
  </node>
  <node id="-232" visible="true" lat="43.24101632" lon="-72.90013165">
    <tag k="addr:city" v="Peru"/>
    <tag k="addr:housenumber" v="675"/>
    <tag k="addr:street" v="Hapgood Pond Road"/>
    <tag k="addr:state" v="VT"/>
    <tag k="ref:vcgi:esiteid" v="186623"/>
  </node>
  <node id="-249" visible="true" lat="43.2398207" lon="-72.8977951">
    <tag k="addr:city" v="Peru"/>
    <tag k="addr:housenumber" v="583"/>
    <tag k="addr:street" v="Hapgood Pond Road"/>
    <tag k="addr:state" v="VT"/>
    <tag k="ref:vcgi:esiteid" v="186640"/>
  </node>
  <node id="-253" visible="true" lat="43.23973646" lon="-72.89675203">
    <tag k="addr:city" v="Peru"/>
    <tag k="addr:housenumber" v="635"/>
    <tag k="addr:street" v="Hapgood Pond Road"/>
    <tag k="addr:state" v="VT"/>
    <tag k="ref:vcgi:esiteid" v="186644"/>
  </node>
  <node id="-257" visible="true" lat="43.23925048" lon="-72.89493352">
    <tag k="addr:city" v="Peru"/>
    <tag k="addr:housenumber" v="668"/>
    <tag k="addr:street" v="Hapgood Pond Road"/>
    <tag k="addr:state" v="VT"/>
    <tag k="ref:vcgi:esiteid" v="186648"/>
  </node>
  <node id="-266" visible="true" lat="43.23899105" lon="-72.89822454">
    <tag k="addr:city" v="Peru"/>
    <tag k="addr:housenumber" v="581"/>
    <tag k="addr:street" v="Hapgood Pond Road"/>
    <tag k="addr:state" v="VT"/>
    <tag k="ref:vcgi:esiteid" v="186657"/>
  </node>
  <node id="-279" visible="true" lat="43.23796438" lon="-72.90008459">
    <tag k="addr:city" v="Peru"/>
    <tag k="addr:housenumber" v="449"/>
    <tag k="addr:street" v="Hapgood Pond Road"/>
    <tag k="addr:state" v="VT"/>
    <tag k="ref:vcgi:esiteid" v="186670"/>
  </node>
  <node id="-283" visible="true" lat="43.23774391" lon="-72.90365115">
    <tag k="addr:city" v="Peru"/>
    <tag k="addr:housenumber" v="184"/>
    <tag k="addr:street" v="Adams Lane"/>
    <tag k="addr:state" v="VT"/>
    <tag k="ref:vcgi:esiteid" v="186674"/>
  </node>
  <node id="-284" visible="true" lat="43.23770895" lon="-72.89801595">
    <tag k="addr:city" v="Peru"/>
    <tag k="addr:housenumber" v="473"/>
    <tag k="addr:street" v="Hapgood Pond Road"/>
    <tag k="addr:state" v="VT"/>
    <tag k="ref:vcgi:esiteid" v="186675"/>
  </node>
  <node id="-285" visible="true" lat="43.23760009" lon="-72.89705313">
    <tag k="addr:city" v="Peru"/>
    <tag k="addr:housenumber" v="516"/>
    <tag k="addr:street" v="Hapgood Pond Road"/>
    <tag k="addr:state" v="VT"/>
    <tag k="ref:vcgi:esiteid" v="186676"/>
  </node>
  <node id="-289" visible="true" lat="43.23680493" lon="-72.89778911">
    <tag k="addr:city" v="Peru"/>
    <tag k="addr:housenumber" v="442"/>
    <tag k="addr:street" v="Hapgood Pond Road"/>
    <tag k="addr:state" v="VT"/>
    <tag k="ref:vcgi:esiteid" v="186680"/>
  </node>
  <node id="-291" visible="true" lat="43.23647126" lon="-72.89901666">
    <tag k="addr:city" v="Peru"/>
    <tag k="addr:housenumber" v="389"/>
    <tag k="addr:street" v="Hapgood Pond Road"/>
    <tag k="addr:state" v="VT"/>
    <tag k="ref:vcgi:esiteid" v="186682"/>
  </node>
  <node id="-293" visible="true" lat="43.23601439" lon="-72.90089262">
    <tag k="addr:city" v="Peru"/>
    <tag k="addr:housenumber" v="102"/>
    <tag k="addr:street" v="Adams Lane"/>
    <tag k="addr:state" v="VT"/>
    <tag k="ref:vcgi:esiteid" v="186684"/>
  </node>
  <node id="-294" visible="true" lat="43.23616729" lon="-72.90161171">
    <tag k="addr:city" v="Peru"/>
    <tag k="addr:housenumber" v="122"/>
    <tag k="addr:street" v="Adams Lane"/>
    <tag k="addr:state" v="VT"/>
    <tag k="ref:vcgi:esiteid" v="186685"/>
  </node>
  <node id="-296" visible="true" lat="43.23610693" lon="-72.89781658">
    <tag k="addr:city" v="Peru"/>
    <tag k="addr:housenumber" v="444"/>
    <tag k="addr:street" v="Hapgood Pond Road"/>
    <tag k="addr:state" v="VT"/>
    <tag k="ref:vcgi:esiteid" v="186687"/>
  </node>
  <node id="-300" visible="true" lat="43.23596672" lon="-72.90000379">
    <tag k="addr:city" v="Peru"/>
    <tag k="addr:housenumber" v="70"/>
    <tag k="addr:street" v="Adams Lane"/>
    <tag k="addr:state" v="VT"/>
    <tag k="ref:vcgi:esiteid" v="186691"/>
  </node>
  <node id="-318" visible="true" lat="43.23435575" lon="-72.89952704">
    <tag k="addr:city" v="Peru"/>
    <tag k="addr:housenumber" v="253"/>
    <tag k="addr:street" v="Hapgood Pond Road"/>
    <tag k="addr:state" v="VT"/>
    <tag k="ref:vcgi:esiteid" v="186709"/>
  </node>
  <node id="-323" visible="true" lat="43.23396686" lon="-72.89944168">
    <tag k="addr:city" v="Peru"/>
    <tag k="addr:housenumber" v="235"/>
    <tag k="addr:street" v="Hapgood Pond Road"/>
    <tag k="addr:state" v="VT"/>
    <tag k="ref:vcgi:esiteid" v="186715"/>
  </node>
  <node id="-329" visible="true" lat="43.23334896" lon="-72.89777551">
    <tag k="addr:city" v="Peru"/>
    <tag k="addr:housenumber" v="218"/>
    <tag k="addr:street" v="Hapgood Pond Road"/>
    <tag k="addr:state" v="VT"/>
    <tag k="ref:vcgi:esiteid" v="186722"/>
  </node>
  <node id="-333" visible="true" lat="43.23273096" lon="-72.8983173">
    <tag k="addr:city" v="Peru"/>
    <tag k="addr:housenumber" v="144"/>
    <tag k="addr:street" v="Hapgood Pond Road"/>
    <tag k="addr:state" v="VT"/>
    <tag k="ref:vcgi:esiteid" v="186726"/>
  </node>
  <node id="-334" visible="true" lat="43.23216542" lon="-72.89945174">
    <tag k="addr:city" v="Peru"/>
    <tag k="addr:housenumber" v="109"/>
    <tag k="addr:street" v="Hapgood Pond Road"/>
    <tag k="addr:state" v="VT"/>
    <tag k="ref:vcgi:esiteid" v="186727"/>
  </node>
  <node id="-338" visible="true" lat="43.23208598" lon="-72.89848209">
    <tag k="addr:city" v="Peru"/>
    <tag k="addr:housenumber" v="98"/>
    <tag k="addr:street" v="Hapgood Pond Road"/>
    <tag k="addr:state" v="VT"/>
    <tag k="ref:vcgi:esiteid" v="186731"/>
  </node>
  <node id="-339" visible="true" lat="43.2318973" lon="-72.89655079">
    <tag k="addr:city" v="Peru"/>
    <tag k="addr:housenumber" v="119"/>
    <tag k="addr:street" v="Main Street"/>
    <tag k="addr:state" v="VT"/>
    <tag k="ref:vcgi:esiteid" v="186732"/>
  </node>
  <node id="-340" visible="true" lat="43.23166281" lon="-72.89764616">
    <tag k="addr:city" v="Peru"/>
    <tag k="addr:housenumber" v="172"/>
    <tag k="addr:street" v="Main Street"/>
    <tag k="addr:state" v="VT"/>
    <tag k="ref:vcgi:esiteid" v="186733"/>
  </node>
  <node id="-341" visible="true" lat="43.23131043" lon="-72.89692082">
    <tag k="addr:city" v="Peru"/>
    <tag k="addr:housenumber" v="167"/>
    <tag k="addr:street" v="Main Street"/>
    <tag k="addr:state" v="VT"/>
    <tag k="ref:vcgi:esiteid" v="186734"/>
  </node>
  <node id="-344" visible="true" lat="43.23086354" lon="-72.89926926">
    <tag k="addr:city" v="Peru"/>
    <tag k="addr:housenumber" v="15"/>
    <tag k="addr:street" v="Hapgood Pond Road"/>
    <tag k="addr:state" v="VT"/>
    <tag k="ref:vcgi:esiteid" v="186737"/>
  </node>
  <node id="-345" visible="true" lat="43.23057478" lon="-72.89942492">
    <tag k="addr:city" v="Peru"/>
    <tag k="addr:housenumber" v="292"/>
    <tag k="addr:street" v="Main Street"/>
    <tag k="addr:state" v="VT"/>
    <tag k="ref:vcgi:esiteid" v="186738"/>
  </node>
  <node id="-346" visible="true" lat="43.23050222" lon="-72.89964351">
    <tag k="addr:city" v="Peru"/>
    <tag k="addr:housenumber" v="302"/>
    <tag k="addr:street" v="Main Street"/>
    <tag k="addr:state" v="VT"/>
    <tag k="ref:vcgi:esiteid" v="186739"/>
  </node>
  <node id="-347" visible="true" lat="43.230333" lon="-72.89958527">
    <tag k="addr:city" v="Peru"/>
    <tag k="addr:housenumber" v="310"/>
    <tag k="addr:street" v="Main Street"/>
    <tag k="addr:state" v="VT"/>
    <tag k="ref:vcgi:esiteid" v="186740"/>
  </node>
  <node id="-348" visible="true" lat="43.2301368" lon="-72.89982021">
    <tag k="addr:city" v="Peru"/>
    <tag k="addr:housenumber" v="322"/>
    <tag k="addr:street" v="Main Street"/>
    <tag k="addr:state" v="VT"/>
    <tag k="ref:vcgi:esiteid" v="186741"/>
  </node>
  <node id="-350" visible="true" lat="43.23006249" lon="-72.89923472">
    <tag k="addr:city" v="Peru"/>
    <tag k="addr:housenumber" v="305"/>
    <tag k="addr:street" v="Main Street"/>
    <tag k="addr:state" v="VT"/>
    <tag k="ref:vcgi:esiteid" v="186743"/>
  </node>
  <node id="-351" visible="true" lat="43.23000329" lon="-72.89999569">
    <tag k="addr:city" v="Peru"/>
    <tag k="addr:housenumber" v="334"/>
    <tag k="addr:street" v="Main Street"/>
    <tag k="addr:state" v="VT"/>
    <tag k="ref:vcgi:esiteid" v="186744"/>
  </node>
  <node id="-352" visible="true" lat="43.23000527" lon="-72.89936442">
    <tag k="addr:city" v="Peru"/>
    <tag k="addr:housenumber" v="311"/>
    <tag k="addr:street" v="Main Street"/>
    <tag k="addr:state" v="VT"/>
    <tag k="ref:vcgi:esiteid" v="186745"/>
  </node>
  <node id="-354" visible="true" lat="43.22981255" lon="-72.90037716">
    <tag k="addr:city" v="Peru"/>
    <tag k="addr:housenumber" v="344"/>
    <tag k="addr:street" v="Main Street"/>
    <tag k="addr:state" v="VT"/>
    <tag k="ref:vcgi:esiteid" v="186747"/>
  </node>
  <node id="-355" visible="true" lat="43.22979276" lon="-72.89959406">
    <tag k="addr:city" v="Peru"/>
    <tag k="addr:housenumber" v="329"/>
    <tag k="addr:street" v="Main Street"/>
    <tag k="addr:state" v="VT"/>
    <tag k="ref:vcgi:esiteid" v="186748"/>
  </node>
  <node id="-356" visible="true" lat="43.22956463" lon="-72.90096309">
    <tag k="addr:city" v="Peru"/>
    <tag k="addr:housenumber" v="402"/>
    <tag k="addr:street" v="Main Street"/>
    <tag k="addr:state" v="VT"/>
    <tag k="ref:vcgi:esiteid" v="186750"/>
  </node>
  <node id="-358" visible="true" lat="43.2293856" lon="-72.90694407">
    <tag k="addr:city" v="Peru"/>
    <tag k="addr:housenumber" v="94"/>
    <tag k="addr:street" v="Pierce Road"/>
    <tag k="addr:state" v="VT"/>
    <tag k="ref:vcgi:esiteid" v="186752"/>
  </node>
  <node id="-359" visible="true" lat="43.22927297" lon="-72.90007316">
    <tag k="addr:city" v="Peru"/>
    <tag k="addr:housenumber" v="373"/>
    <tag k="addr:street" v="Main Street"/>
    <tag k="addr:state" v="VT"/>
    <tag k="ref:vcgi:esiteid" v="186753"/>
  </node>
  <node id="-360" visible="true" lat="43.22924064" lon="-72.90037767">
    <tag k="addr:city" v="Peru"/>
    <tag k="addr:housenumber" v="385"/>
    <tag k="addr:street" v="Main Street"/>
    <tag k="addr:state" v="VT"/>
    <tag k="ref:vcgi:esiteid" v="186754"/>
  </node>
  <node id="-362" visible="true" lat="43.22883938" lon="-72.90487745">
    <tag k="addr:city" v="Peru"/>
    <tag k="addr:housenumber" v="536"/>
    <tag k="addr:street" v="Main Street"/>
    <tag k="addr:state" v="VT"/>
    <tag k="ref:vcgi:esiteid" v="186756"/>
  </node>
  <node id="-363" visible="true" lat="43.22867561" lon="-72.91291456">
    <tag k="addr:city" v="Peru"/>
    <tag k="addr:housenumber" v="325"/>
    <tag k="addr:street" v="Pierce Road"/>
    <tag k="addr:state" v="VT"/>
    <tag k="ref:vcgi:esiteid" v="186757"/>
  </node>
  <node id="-364" visible="true" lat="43.22862615" lon="-72.9105575">
    <tag k="addr:city" v="Peru"/>
    <tag k="addr:housenumber" v="206"/>
    <tag k="addr:street" v="Pierce Road"/>
    <tag k="addr:state" v="VT"/>
    <tag k="ref:vcgi:esiteid" v="186758"/>
  </node>
  <node id="-365" visible="true" lat="43.22862625" lon="-72.91094971">
    <tag k="addr:city" v="Peru"/>
    <tag k="addr:housenumber" v="208"/>
    <tag k="addr:street" v="Pierce Road"/>
    <tag k="addr:state" v="VT"/>
    <tag k="ref:vcgi:esiteid" v="186759"/>
  </node>
  <node id="-366" visible="true" lat="43.22845471" lon="-72.90241159">
    <tag k="addr:city" v="Peru"/>
    <tag k="addr:housenumber" v="504"/>
    <tag k="addr:street" v="Main Street"/>
    <tag k="addr:state" v="VT"/>
    <tag k="ref:vcgi:esiteid" v="186760"/>
  </node>
  <node id="-369" visible="true" lat="43.22725966" lon="-72.91090063">
    <tag k="addr:city" v="Peru"/>
    <tag k="addr:housenumber" v="187"/>
    <tag k="addr:street" v="Pierce Road"/>
    <tag k="addr:state" v="VT"/>
    <tag k="ref:vcgi:esiteid" v="186763"/>
  </node>
  <node id="-374" visible="true" lat="43.22634573" lon="-72.90816498">
    <tag k="addr:city" v="Peru"/>
    <tag k="addr:housenumber" v="44"/>
    <tag k="addr:street" v="Pierce Road"/>
    <tag k="addr:state" v="VT"/>
    <tag k="ref:vcgi:esiteid" v="186768"/>
  </node>
  <node id="-376" visible="true" lat="43.22631976" lon="-72.90945896">
    <tag k="addr:city" v="Peru"/>
    <tag k="addr:housenumber" v="85"/>
    <tag k="addr:street" v="Pierce Road"/>
    <tag k="addr:state" v="VT"/>
    <tag k="ref:vcgi:esiteid" v="186770"/>
  </node>
  <node id="-377" visible="true" lat="43.2260122" lon="-72.91584036">
    <tag k="addr:city" v="Peru"/>
    <tag k="addr:housenumber" v="341"/>
    <tag k="addr:street" v="Bradford Road"/>
    <tag k="addr:state" v="VT"/>
    <tag k="ref:vcgi:esiteid" v="186771"/>
  </node>
  <node id="-381" visible="true" lat="43.22540312" lon="-72.91485786">
    <tag k="addr:city" v="Peru"/>
    <tag k="addr:housenumber" v="252"/>
    <tag k="addr:street" v="Bradford Road"/>
    <tag k="addr:state" v="VT"/>
    <tag k="ref:vcgi:esiteid" v="186775"/>
  </node>
  <node id="-387" visible="true" lat="43.22341914" lon="-72.90975605">
    <tag k="addr:city" v="Peru"/>
    <tag k="addr:housenumber" v="80"/>
    <tag k="addr:street" v="Bromley Farm Road"/>
    <tag k="addr:state" v="VT"/>
    <tag k="ref:vcgi:esiteid" v="186781"/>
  </node>
  <node id="-390" visible="true" lat="43.2223299" lon="-72.90980154">
    <tag k="addr:city" v="Peru"/>
    <tag k="addr:housenumber" v="146"/>
    <tag k="addr:street" v="Bromley Farm Road"/>
    <tag k="addr:state" v="VT"/>
    <tag k="ref:vcgi:esiteid" v="186784"/>
  </node>
  <node id="-393" visible="true" lat="43.22076616" lon="-72.90968256">
    <tag k="addr:city" v="Peru"/>
    <tag k="addr:housenumber" v="274"/>
    <tag k="addr:street" v="Bromley Farm Road"/>
    <tag k="addr:state" v="VT"/>
    <tag k="ref:vcgi:esiteid" v="186787"/>
  </node>
  <node id="-397" visible="true" lat="43.21914487" lon="-72.91835372">
    <tag k="addr:city" v="Peru"/>
    <tag k="addr:housenumber" v="3059"/>
    <tag k="addr:street" v="Vermont Route 11"/>
    <tag k="addr:state" v="VT"/>
    <tag k="ref:vcgi:esiteid" v="186791"/>
  </node>
  <node id="-403" visible="true" lat="43.21689608" lon="-72.9326069">
    <tag k="addr:city" v="Peru"/>
    <tag k="addr:housenumber" v="221"/>
    <tag k="addr:street" v="Russel Road"/>
    <tag k="addr:state" v="VT"/>
    <tag k="ref:vcgi:esiteid" v="186799"/>
  </node>
  <node id="-407" visible="true" lat="43.21569612" lon="-72.92654696">
    <tag k="addr:city" v="Peru"/>
    <tag k="addr:housenumber" v="128"/>
    <tag k="addr:street" v="Russel Road"/>
    <tag k="addr:state" v="VT"/>
    <tag k="ref:vcgi:esiteid" v="186803"/>
  </node>
  <node id="-429" visible="true" lat="43.21423353" lon="-72.93096842">
    <tag k="addr:city" v="Peru"/>
    <tag k="addr:housenumber" v="3900"/>
    <tag k="addr:street" v="Vermont Route 11"/>
    <tag k="addr:state" v="VT"/>
    <tag k="ref:vcgi:esiteid" v="186829"/>
  </node>
  <node id="-432" visible="true" lat="43.21403868" lon="-72.92839409">
    <tag k="addr:city" v="Peru"/>
    <tag k="addr:housenumber" v="3776"/>
    <tag k="addr:street" v="Vermont Route 11"/>
    <tag k="addr:state" v="VT"/>
    <tag k="ref:vcgi:esiteid" v="186832"/>
  </node>
  <node id="-439" visible="true" lat="43.21396604" lon="-72.9290462">
    <tag k="addr:city" v="Peru"/>
    <tag k="addr:housenumber" v="3810"/>
    <tag k="addr:street" v="Vermont Route 11"/>
    <tag k="addr:state" v="VT"/>
    <tag k="ref:vcgi:esiteid" v="186841"/>
  </node>
  <node id="-459" visible="true" lat="43.21317585" lon="-72.9246381">
    <tag k="addr:city" v="Peru"/>
    <tag k="addr:housenumber" v="179"/>
    <tag k="addr:street" v="Old Manchester Road"/>
    <tag k="addr:state" v="VT"/>
    <tag k="ref:vcgi:esiteid" v="186869"/>
  </node>
  <node id="-553" visible="true" lat="43.26363991" lon="-72.86438908">
    <tag k="addr:city" v="Peru"/>
    <tag k="addr:housenumber" v="3239"/>
    <tag k="addr:street" v="Hapgood Pond Road"/>
    <tag k="addr:state" v="VT"/>
    <tag k="ref:vcgi:esiteid" v="186976"/>
  </node>
  <node id="-554" visible="true" lat="43.25694267" lon="-72.89909886">
    <tag k="addr:city" v="Peru"/>
    <tag k="addr:housenumber" v="1056"/>
    <tag k="addr:street" v="North Road"/>
    <tag k="addr:state" v="VT"/>
    <tag k="ref:vcgi:esiteid" v="186977"/>
  </node>
  <node id="-555" visible="true" lat="43.23319773" lon="-72.899439">
    <tag k="addr:city" v="Peru"/>
    <tag k="addr:housenumber" v="179"/>
    <tag k="addr:street" v="Hapgood Pond Road"/>
    <tag k="addr:state" v="VT"/>
    <tag k="ref:vcgi:esiteid" v="186978"/>
  </node>
  <node id="-558" visible="true" lat="43.23902308" lon="-72.86565169">
    <tag k="addr:city" v="Peru"/>
    <tag k="addr:housenumber" v="150"/>
    <tag k="addr:street" v="Mountain Ridge Road"/>
    <tag k="addr:state" v="VT"/>
    <tag k="ref:vcgi:esiteid" v="186981"/>
  </node>
  <node id="-559" visible="true" lat="43.23839403" lon="-72.86570908">
    <tag k="addr:city" v="Peru"/>
    <tag k="addr:housenumber" v="127"/>
    <tag k="addr:street" v="Mountain Ridge Road"/>
    <tag k="addr:state" v="VT"/>
    <tag k="ref:vcgi:esiteid" v="186982"/>
  </node>
  <node id="-561" visible="true" lat="43.23511077" lon="-72.90180733">
    <tag k="addr:city" v="Peru"/>
    <tag k="addr:housenumber" v="139"/>
    <tag k="addr:street" v="Adams Lane"/>
    <tag k="addr:state" v="VT"/>
    <tag k="ref:vcgi:esiteid" v="186985"/>
  </node>
  <node id="-562" visible="true" lat="43.23531729" lon="-72.90295178">
    <tag k="addr:city" v="Peru"/>
    <tag k="addr:housenumber" v="165"/>
    <tag k="addr:street" v="Adams Lane"/>
    <tag k="addr:state" v="VT"/>
    <tag k="ref:vcgi:esiteid" v="186986"/>
  </node>
  <node id="-563" visible="true" lat="43.2347668" lon="-72.9073306">
    <tag k="addr:city" v="Peru"/>
    <tag k="addr:housenumber" v="187"/>
    <tag k="addr:street" v="Adams Lane"/>
    <tag k="addr:state" v="VT"/>
    <tag k="ref:vcgi:esiteid" v="186987"/>
  </node>
  <node id="-569" visible="true" lat="43.26175334" lon="-72.86701363">
    <tag k="addr:city" v="Peru"/>
    <tag k="addr:housenumber" v="3024"/>
    <tag k="addr:street" v="Hapgood Pond Road"/>
    <tag k="addr:state" v="VT"/>
    <tag k="ref:vcgi:esiteid" v="186993"/>
  </node>
  <node id="-570" visible="true" lat="43.28445834" lon="-72.87843627">
    <tag k="addr:city" v="Peru"/>
    <tag k="addr:housenumber" v="1140"/>
    <tag k="addr:street" v="Little Michigan Road"/>
    <tag k="addr:state" v="VT"/>
    <tag k="ref:vcgi:esiteid" v="186994"/>
  </node>
  <node id="-572" visible="true" lat="43.25286553" lon="-72.9070201">
    <tag k="addr:city" v="Peru"/>
    <tag k="addr:housenumber" v="537"/>
    <tag k="addr:street" v="Mad Tom Notch Road"/>
    <tag k="addr:state" v="VT"/>
    <tag k="ref:vcgi:esiteid" v="186996"/>
  </node>
  <node id="-590" visible="true" lat="43.2380561" lon="-72.86580709">
    <tag k="addr:city" v="Peru"/>
    <tag k="addr:housenumber" v="93"/>
    <tag k="addr:street" v="Mountain Ridge Road"/>
    <tag k="addr:state" v="VT"/>
    <tag k="ref:vcgi:esiteid" v="187014"/>
  </node>
  <node id="-596" visible="true" lat="43.23833396" lon="-72.89808541">
    <tag k="addr:city" v="Peru"/>
    <tag k="addr:housenumber" v="561"/>
    <tag k="addr:street" v="Hapgood Pond Road"/>
    <tag k="addr:state" v="VT"/>
    <tag k="ref:vcgi:esiteid" v="187021"/>
  </node>
  <node id="-603" visible="true" lat="43.23843967" lon="-72.89811535">
    <tag k="addr:city" v="Peru"/>
    <tag k="addr:housenumber" v="563"/>
    <tag k="addr:street" v="Hapgood Pond Road"/>
    <tag k="addr:state" v="VT"/>
    <tag k="ref:vcgi:esiteid" v="311156"/>
  </node>
  <node id="-604" visible="true" lat="43.26572375" lon="-72.90011109">
    <tag k="addr:city" v="Peru"/>
    <tag k="addr:housenumber" v="261"/>
    <tag k="addr:street" v="Priest Lane"/>
    <tag k="addr:state" v="VT"/>
    <tag k="ref:vcgi:esiteid" v="311157"/>
  </node>
</osm>
