<?xml version="1.0" encoding="UTF-8"?>
<osm version="0.6" generator="JOSM" upload="false">
  <node id="-106" visible="true" lat="43.28344827" lon="-72.91467889">
    <tag k="addr:city" v="Peru"/>
    <tag k="addr:housenumber" v="2956"/>
    <tag k="addr:street" v="North Road"/>
    <tag k="addr:state" v="VT"/>
    <tag k="ref:vcgi:esiteid" v="186493"/>
  </node>
  <node id="-107" visible="true" lat="43.28175695" lon="-72.91561733">
    <tag k="addr:city" v="Peru"/>
    <tag k="addr:housenumber" v="2815"/>
    <tag k="addr:street" v="North Road"/>
    <tag k="addr:state" v="VT"/>
    <tag k="ref:vcgi:esiteid" v="186494"/>
  </node>
  <node id="-108" visible="true" lat="43.28098727" lon="-72.87408095">
    <tag k="addr:city" v="Peru"/>
    <tag k="addr:housenumber" v="803"/>
    <tag k="addr:street" v="Little Michigan Road"/>
    <tag k="addr:state" v="VT"/>
    <tag k="ref:vcgi:esiteid" v="186495"/>
  </node>
  <node id="-109" visible="true" lat="43.28074005" lon="-72.9148916">
    <tag k="addr:city" v="Peru"/>
    <tag k="addr:housenumber" v="2737"/>
    <tag k="addr:street" v="North Road"/>
    <tag k="addr:state" v="VT"/>
    <tag k="ref:vcgi:esiteid" v="186496"/>
  </node>
  <node id="-110" visible="true" lat="43.2806123" lon="-72.91493907">
    <tag k="addr:city" v="Peru"/>
    <tag k="addr:housenumber" v="2731"/>
    <tag k="addr:street" v="North Road"/>
    <tag k="addr:state" v="VT"/>
    <tag k="ref:vcgi:esiteid" v="186497"/>
  </node>
  <node id="-111" visible="true" lat="43.28001204" lon="-72.8705679">
    <tag k="addr:city" v="Peru"/>
    <tag k="addr:housenumber" v="558"/>
    <tag k="addr:street" v="Little Michigan Road"/>
    <tag k="addr:state" v="VT"/>
    <tag k="ref:vcgi:esiteid" v="186498"/>
  </node>
  <node id="-112" visible="true" lat="43.2794694" lon="-72.91488019">
    <tag k="addr:city" v="Peru"/>
    <tag k="addr:housenumber" v="2669"/>
    <tag k="addr:street" v="North Road"/>
    <tag k="addr:state" v="VT"/>
    <tag k="ref:vcgi:esiteid" v="186499"/>
  </node>
  <node id="-113" visible="true" lat="43.27926841" lon="-72.86863326">
    <tag k="addr:city" v="Peru"/>
    <tag k="addr:housenumber" v="452"/>
    <tag k="addr:street" v="Little Michigan Road"/>
    <tag k="addr:state" v="VT"/>
    <tag k="ref:vcgi:esiteid" v="186500"/>
  </node>
  <node id="-114" visible="true" lat="43.2788088" lon="-72.86850325">
    <tag k="addr:city" v="Peru"/>
    <tag k="addr:housenumber" v="454"/>
    <tag k="addr:street" v="Little Michigan Road"/>
    <tag k="addr:state" v="VT"/>
    <tag k="ref:vcgi:esiteid" v="186501"/>
  </node>
  <node id="-115" visible="true" lat="43.27813145" lon="-72.91177264">
    <tag k="addr:city" v="Peru"/>
    <tag k="addr:housenumber" v="2502"/>
    <tag k="addr:street" v="North Road"/>
    <tag k="addr:state" v="VT"/>
    <tag k="ref:vcgi:esiteid" v="186502"/>
  </node>
  <node id="-116" visible="true" lat="43.27793191" lon="-72.91149247">
    <tag k="addr:city" v="Peru"/>
    <tag k="addr:housenumber" v="2498"/>
    <tag k="addr:street" v="North Road"/>
    <tag k="addr:state" v="VT"/>
    <tag k="ref:vcgi:esiteid" v="186503"/>
  </node>
  <node id="-117" visible="true" lat="43.2779159" lon="-72.86724887">
    <tag k="addr:city" v="Peru"/>
    <tag k="addr:housenumber" v="27"/>
    <tag k="addr:street" v="Danby Mount Tabor Road"/>
    <tag k="addr:state" v="VT"/>
    <tag k="ref:vcgi:esiteid" v="186504"/>
  </node>
  <node id="-118" visible="true" lat="43.27687074" lon="-72.91223334">
    <tag k="addr:city" v="Peru"/>
    <tag k="addr:housenumber" v="2471"/>
    <tag k="addr:street" v="North Road"/>
    <tag k="addr:state" v="VT"/>
    <tag k="ref:vcgi:esiteid" v="186505"/>
  </node>
  <node id="-119" visible="true" lat="43.27691255" lon="-72.86660864">
    <tag k="addr:city" v="Peru"/>
    <tag k="addr:housenumber" v="323"/>
    <tag k="addr:street" v="Little Michigan Road"/>
    <tag k="addr:state" v="VT"/>
    <tag k="ref:vcgi:esiteid" v="186506"/>
  </node>
  <node id="-120" visible="true" lat="43.27619938" lon="-72.86266679">
    <tag k="addr:city" v="Peru"/>
    <tag k="addr:housenumber" v="168"/>
    <tag k="addr:street" v="Little Michigan Road"/>
    <tag k="addr:state" v="VT"/>
    <tag k="ref:vcgi:esiteid" v="186507"/>
  </node>
  <node id="-121" visible="true" lat="43.27564499" lon="-72.91040401">
    <tag k="addr:city" v="Peru"/>
    <tag k="addr:housenumber" v="2335"/>
    <tag k="addr:street" v="North Road"/>
    <tag k="addr:state" v="VT"/>
    <tag k="ref:vcgi:esiteid" v="186508"/>
  </node>
  <node id="-128" visible="true" lat="43.26419774" lon="-72.87005348">
    <tag k="addr:city" v="Peru"/>
    <tag k="addr:housenumber" v="2935"/>
    <tag k="addr:street" v="Hapgood Pond Road"/>
    <tag k="addr:state" v="VT"/>
    <tag k="ref:vcgi:esiteid" v="186515"/>
  </node>
  <node id="-138" visible="true" lat="43.25931423" lon="-72.9014417">
    <tag k="addr:city" v="Peru"/>
    <tag k="addr:housenumber" v="1205"/>
    <tag k="addr:street" v="North Road"/>
    <tag k="addr:state" v="VT"/>
    <tag k="ref:vcgi:esiteid" v="186526"/>
  </node>
  <node id="-141" visible="true" lat="43.25809151" lon="-72.91607369">
    <tag k="addr:city" v="Peru"/>
    <tag k="addr:housenumber" v="557"/>
    <tag k="addr:street" v="Doc Farnum Road"/>
    <tag k="addr:state" v="VT"/>
    <tag k="ref:vcgi:esiteid" v="186529"/>
  </node>
  <node id="-144" visible="true" lat="43.25707675" lon="-72.87055934">
    <tag k="addr:city" v="Peru"/>
    <tag k="addr:housenumber" v="288"/>
    <tag k="addr:street" v="Moffit Road"/>
    <tag k="addr:state" v="VT"/>
    <tag k="ref:vcgi:esiteid" v="186532"/>
  </node>
  <node id="-146" visible="true" lat="43.25643356" lon="-72.86985725">
    <tag k="addr:city" v="Peru"/>
    <tag k="addr:housenumber" v="327"/>
    <tag k="addr:street" v="Moffit Road"/>
    <tag k="addr:state" v="VT"/>
    <tag k="ref:vcgi:esiteid" v="186534"/>
  </node>
  <node id="-149" visible="true" lat="43.2560835" lon="-72.87073896">
    <tag k="addr:city" v="Peru"/>
    <tag k="addr:housenumber" v="356"/>
    <tag k="addr:street" v="Moffit Road"/>
    <tag k="addr:state" v="VT"/>
    <tag k="ref:vcgi:esiteid" v="186537"/>
  </node>
  <node id="-150" visible="true" lat="43.25529682" lon="-72.9130966">
    <tag k="addr:city" v="Peru"/>
    <tag k="addr:housenumber" v="774"/>
    <tag k="addr:street" v="Mad Tom Notch Road"/>
    <tag k="addr:state" v="VT"/>
    <tag k="ref:vcgi:esiteid" v="186538"/>
  </node>
  <node id="-153" visible="true" lat="43.25474774" lon="-72.87075163">
    <tag k="addr:city" v="Peru"/>
    <tag k="addr:housenumber" v="446"/>
    <tag k="addr:street" v="Moffit Road"/>
    <tag k="addr:state" v="VT"/>
    <tag k="ref:vcgi:esiteid" v="186541"/>
  </node>
  <node id="-154" visible="true" lat="43.25432236" lon="-72.90446767">
    <tag k="addr:city" v="Peru"/>
    <tag k="addr:housenumber" v="337"/>
    <tag k="addr:street" v="Mad Tom Notch Road"/>
    <tag k="addr:state" v="VT"/>
    <tag k="ref:vcgi:esiteid" v="186542"/>
  </node>
  <node id="-155" visible="true" lat="43.25224376" lon="-72.89195663">
    <tag k="addr:city" v="Peru"/>
    <tag k="addr:housenumber" v="1615"/>
    <tag k="addr:street" v="Hapgood Pond Road"/>
    <tag k="addr:state" v="VT"/>
    <tag k="ref:vcgi:esiteid" v="186545"/>
  </node>
  <node id="-158" visible="true" lat="43.25083545" lon="-72.87013723">
    <tag k="addr:city" v="Peru"/>
    <tag k="addr:housenumber" v="130"/>
    <tag k="addr:street" v="Red Maple Road"/>
    <tag k="addr:state" v="VT"/>
    <tag k="ref:vcgi:esiteid" v="186548"/>
  </node>
  <node id="-160" visible="true" lat="43.25022326" lon="-72.87095816">
    <tag k="addr:city" v="Peru"/>
    <tag k="addr:housenumber" v="79"/>
    <tag k="addr:street" v="Red Maple Road"/>
    <tag k="addr:state" v="VT"/>
    <tag k="ref:vcgi:esiteid" v="186550"/>
  </node>
  <node id="-161" visible="true" lat="43.25010339" lon="-72.87110102">
    <tag k="addr:city" v="Peru"/>
    <tag k="addr:housenumber" v="67"/>
    <tag k="addr:street" v="Red Maple Road"/>
    <tag k="addr:state" v="VT"/>
    <tag k="ref:vcgi:esiteid" v="186551"/>
  </node>
  <node id="-162" visible="true" lat="43.25010875" lon="-72.87043484">
    <tag k="addr:city" v="Peru"/>
    <tag k="addr:housenumber" v="74"/>
    <tag k="addr:street" v="Red Maple Road"/>
    <tag k="addr:state" v="VT"/>
    <tag k="ref:vcgi:esiteid" v="186552"/>
  </node>
  <node id="-163" visible="true" lat="43.24967401" lon="-72.90114688">
    <tag k="addr:city" v="Peru"/>
    <tag k="addr:housenumber" v="395"/>
    <tag k="addr:street" v="Savage Road"/>
    <tag k="addr:state" v="VT"/>
    <tag k="ref:vcgi:esiteid" v="186553"/>
  </node>
  <node id="-164" visible="true" lat="43.24962634" lon="-72.87107287">
    <tag k="addr:city" v="Peru"/>
    <tag k="addr:housenumber" v="22"/>
    <tag k="addr:street" v="Red Maple Road"/>
    <tag k="addr:state" v="VT"/>
    <tag k="ref:vcgi:esiteid" v="186554"/>
  </node>
  <node id="-165" visible="true" lat="43.24936476" lon="-72.87182436">
    <tag k="addr:city" v="Peru"/>
    <tag k="addr:housenumber" v="2"/>
    <tag k="addr:street" v="Red Maple Road"/>
    <tag k="addr:state" v="VT"/>
    <tag k="ref:vcgi:esiteid" v="186555"/>
  </node>
  <node id="-167" visible="true" lat="43.24916873" lon="-72.87260782">
    <tag k="addr:city" v="Peru"/>
    <tag k="addr:housenumber" v="742"/>
    <tag k="addr:street" v="Anderson Road"/>
    <tag k="addr:state" v="VT"/>
    <tag k="ref:vcgi:esiteid" v="186557"/>
  </node>
  <node id="-168" visible="true" lat="43.24893372" lon="-72.87158628">
    <tag k="addr:city" v="Peru"/>
    <tag k="addr:housenumber" v="763"/>
    <tag k="addr:street" v="Anderson Road"/>
    <tag k="addr:state" v="VT"/>
    <tag k="ref:vcgi:esiteid" v="186558"/>
  </node>
  <node id="-169" visible="true" lat="43.2485309" lon="-72.87229225">
    <tag k="addr:city" v="Peru"/>
    <tag k="addr:housenumber" v="782"/>
    <tag k="addr:street" v="Anderson Road"/>
    <tag k="addr:state" v="VT"/>
    <tag k="ref:vcgi:esiteid" v="186559"/>
  </node>
  <node id="-170" visible="true" lat="43.24769419" lon="-72.87199795">
    <tag k="addr:city" v="Peru"/>
    <tag k="addr:housenumber" v="824"/>
    <tag k="addr:street" v="Anderson Road"/>
    <tag k="addr:state" v="VT"/>
    <tag k="ref:vcgi:esiteid" v="186560"/>
  </node>
  <node id="-171" visible="true" lat="43.2476806" lon="-72.87048767">
    <tag k="addr:city" v="Peru"/>
    <tag k="addr:housenumber" v="867"/>
    <tag k="addr:street" v="Anderson Road"/>
    <tag k="addr:state" v="VT"/>
    <tag k="ref:vcgi:esiteid" v="186561"/>
  </node>
  <node id="-172" visible="true" lat="43.2470525" lon="-72.86876047">
    <tag k="addr:city" v="Peru"/>
    <tag k="addr:housenumber" v="96"/>
    <tag k="addr:street" v="Breznick Road"/>
    <tag k="addr:state" v="VT"/>
    <tag k="ref:vcgi:esiteid" v="186562"/>
  </node>
  <node id="-174" visible="true" lat="43.24694059" lon="-72.87142444">
    <tag k="addr:city" v="Peru"/>
    <tag k="addr:housenumber" v="928"/>
    <tag k="addr:street" v="Anderson Road"/>
    <tag k="addr:state" v="VT"/>
    <tag k="ref:vcgi:esiteid" v="186564"/>
  </node>
  <node id="-175" visible="true" lat="43.24658594" lon="-72.87246124">
    <tag k="addr:city" v="Peru"/>
    <tag k="addr:housenumber" v="104"/>
    <tag k="addr:street" v="Aldrich Road"/>
    <tag k="addr:state" v="VT"/>
    <tag k="ref:vcgi:esiteid" v="186565"/>
  </node>
  <node id="-176" visible="true" lat="43.24628827" lon="-72.86980211">
    <tag k="addr:city" v="Peru"/>
    <tag k="addr:housenumber" v="983"/>
    <tag k="addr:street" v="Anderson Road"/>
    <tag k="addr:state" v="VT"/>
    <tag k="ref:vcgi:esiteid" v="186566"/>
  </node>
  <node id="-177" visible="true" lat="43.24617202" lon="-72.86870273">
    <tag k="addr:city" v="Peru"/>
    <tag k="addr:housenumber" v="38"/>
    <tag k="addr:street" v="Breznick Road"/>
    <tag k="addr:state" v="VT"/>
    <tag k="ref:vcgi:esiteid" v="186568"/>
  </node>
  <node id="-178" visible="true" lat="43.24590321" lon="-72.86867133">
    <tag k="addr:city" v="Peru"/>
    <tag k="addr:housenumber" v="24"/>
    <tag k="addr:street" v="Breznick Road"/>
    <tag k="addr:state" v="VT"/>
    <tag k="ref:vcgi:esiteid" v="186569"/>
  </node>
  <node id="-179" visible="true" lat="43.24560472" lon="-72.89363905">
    <tag k="addr:city" v="Peru"/>
    <tag k="addr:housenumber" v="155"/>
    <tag k="addr:street" v="North Road"/>
    <tag k="addr:state" v="VT"/>
    <tag k="ref:vcgi:esiteid" v="186570"/>
  </node>
  <node id="-180" visible="true" lat="43.24558003" lon="-72.8700844">
    <tag k="addr:city" v="Peru"/>
    <tag k="addr:housenumber" v="17"/>
    <tag k="addr:street" v="Aldrich Road"/>
    <tag k="addr:state" v="VT"/>
    <tag k="ref:vcgi:esiteid" v="186571"/>
  </node>
  <node id="-181" visible="true" lat="43.24568986" lon="-72.86826212">
    <tag k="addr:city" v="Peru"/>
    <tag k="addr:housenumber" v="1077"/>
    <tag k="addr:street" v="Anderson Road"/>
    <tag k="addr:state" v="VT"/>
    <tag k="ref:vcgi:esiteid" v="186572"/>
  </node>
  <node id="-182" visible="true" lat="43.24539394" lon="-72.87213227">
    <tag k="addr:city" v="Peru"/>
    <tag k="addr:housenumber" v="112"/>
    <tag k="addr:street" v="Aldrich Road"/>
    <tag k="addr:state" v="VT"/>
    <tag k="ref:vcgi:esiteid" v="186573"/>
  </node>
  <node id="-183" visible="true" lat="43.2454166" lon="-72.90061532">
    <tag k="addr:city" v="Peru"/>
    <tag k="addr:housenumber" v="135"/>
    <tag k="addr:street" v="Batchelders Barn Road"/>
    <tag k="addr:state" v="VT"/>
    <tag k="ref:vcgi:esiteid" v="186574"/>
  </node>
  <node id="-184" visible="true" lat="43.24545116" lon="-72.87126397">
    <tag k="addr:city" v="Peru"/>
    <tag k="addr:housenumber" v="85"/>
    <tag k="addr:street" v="Aldrich Road"/>
    <tag k="addr:state" v="VT"/>
    <tag k="ref:vcgi:esiteid" v="186575"/>
  </node>
  <node id="-185" visible="true" lat="43.24518579" lon="-72.86916394">
    <tag k="addr:city" v="Peru"/>
    <tag k="addr:housenumber" v="1070"/>
    <tag k="addr:street" v="Anderson Road"/>
    <tag k="addr:state" v="VT"/>
    <tag k="ref:vcgi:esiteid" v="186576"/>
  </node>
  <node id="-186" visible="true" lat="43.24498071" lon="-72.87238785">
    <tag k="addr:city" v="Peru"/>
    <tag k="addr:housenumber" v="146"/>
    <tag k="addr:street" v="Aldrich Road"/>
    <tag k="addr:state" v="VT"/>
    <tag k="ref:vcgi:esiteid" v="186577"/>
  </node>
  <node id="-187" visible="true" lat="43.24489615" lon="-72.87007756">
    <tag k="addr:city" v="Peru"/>
    <tag k="addr:housenumber" v="37"/>
    <tag k="addr:street" v="Aldrich Road"/>
    <tag k="addr:state" v="VT"/>
    <tag k="ref:vcgi:esiteid" v="186578"/>
  </node>
  <node id="-188" visible="true" lat="43.24437897" lon="-72.89340645">
    <tag k="addr:city" v="Peru"/>
    <tag k="addr:housenumber" v="1005"/>
    <tag k="addr:street" v="Hapgood Pond Road"/>
    <tag k="addr:state" v="VT"/>
    <tag k="ref:vcgi:esiteid" v="186579"/>
  </node>
  <node id="-189" visible="true" lat="43.24445208" lon="-72.89210309">
    <tag k="addr:city" v="Peru"/>
    <tag k="addr:housenumber" v="1084"/>
    <tag k="addr:street" v="Hapgood Pond Road"/>
    <tag k="addr:state" v="VT"/>
    <tag k="ref:vcgi:esiteid" v="186580"/>
  </node>
  <node id="-190" visible="true" lat="43.24423792" lon="-72.86707821">
    <tag k="addr:city" v="Peru"/>
    <tag k="addr:housenumber" v="1188"/>
    <tag k="addr:street" v="Anderson Road"/>
    <tag k="addr:state" v="VT"/>
    <tag k="ref:vcgi:esiteid" v="186581"/>
  </node>
  <node id="-191" visible="true" lat="43.24410731" lon="-72.89427151">
    <tag k="addr:city" v="Peru"/>
    <tag k="addr:housenumber" v="45"/>
    <tag k="addr:street" v="North Road"/>
    <tag k="addr:state" v="VT"/>
    <tag k="ref:vcgi:esiteid" v="186582"/>
  </node>
  <node id="-192" visible="true" lat="43.24411746" lon="-72.86808214">
    <tag k="addr:city" v="Peru"/>
    <tag k="addr:housenumber" v="1138"/>
    <tag k="addr:street" v="Anderson Road"/>
    <tag k="addr:state" v="VT"/>
    <tag k="ref:vcgi:esiteid" v="186583"/>
  </node>
  <node id="-193" visible="true" lat="43.24391276" lon="-72.89448514">
    <tag k="addr:city" v="Peru"/>
    <tag k="addr:housenumber" v="29"/>
    <tag k="addr:street" v="North Road"/>
    <tag k="addr:state" v="VT"/>
    <tag k="ref:vcgi:esiteid" v="186584"/>
  </node>
  <node id="-198" visible="true" lat="43.24385667" lon="-72.86662603">
    <tag k="addr:city" v="Peru"/>
    <tag k="addr:housenumber" v="504"/>
    <tag k="addr:street" v="Forest Mountain Road"/>
    <tag k="addr:state" v="VT"/>
    <tag k="ref:vcgi:esiteid" v="186589"/>
  </node>
  <node id="-200" visible="true" lat="43.24375081" lon="-72.87123317">
    <tag k="addr:city" v="Peru"/>
    <tag k="addr:housenumber" v="274"/>
    <tag k="addr:street" v="Aldrich Road"/>
    <tag k="addr:state" v="VT"/>
    <tag k="ref:vcgi:esiteid" v="186591"/>
  </node>
  <node id="-203" visible="true" lat="43.24364947" lon="-72.89291195">
    <tag k="addr:city" v="Peru"/>
    <tag k="addr:housenumber" v="954"/>
    <tag k="addr:street" v="Hapgood Pond Road"/>
    <tag k="addr:state" v="VT"/>
    <tag k="ref:vcgi:esiteid" v="186594"/>
  </node>
  <node id="-204" visible="true" lat="43.24359113" lon="-72.89918383">
    <tag k="addr:city" v="Peru"/>
    <tag k="addr:housenumber" v="244"/>
    <tag k="addr:street" v="Moss Brook Road"/>
    <tag k="addr:state" v="VT"/>
    <tag k="ref:vcgi:esiteid" v="186595"/>
  </node>
  <node id="-205" visible="true" lat="43.2436141" lon="-72.89237464">
    <tag k="addr:city" v="Peru"/>
    <tag k="addr:housenumber" v="956"/>
    <tag k="addr:street" v="Hapgood Pond Road"/>
    <tag k="addr:state" v="VT"/>
    <tag k="ref:vcgi:esiteid" v="186596"/>
  </node>
  <node id="-206" visible="true" lat="43.24341544" lon="-72.89464256">
    <tag k="addr:city" v="Peru"/>
    <tag k="addr:housenumber" v="9"/>
    <tag k="addr:street" v="North Road"/>
    <tag k="addr:state" v="VT"/>
    <tag k="ref:vcgi:esiteid" v="186597"/>
  </node>
  <node id="-207" visible="true" lat="43.24344254" lon="-72.87193298">
    <tag k="addr:city" v="Peru"/>
    <tag k="addr:housenumber" v="222"/>
    <tag k="addr:street" v="Aldrich Road"/>
    <tag k="addr:state" v="VT"/>
    <tag k="ref:vcgi:esiteid" v="186598"/>
  </node>
  <node id="-209" visible="true" lat="43.24308026" lon="-72.89380811">
    <tag k="addr:city" v="Peru"/>
    <tag k="addr:housenumber" v="938"/>
    <tag k="addr:street" v="Hapgood Pond Road"/>
    <tag k="addr:state" v="VT"/>
    <tag k="ref:vcgi:esiteid" v="186600"/>
  </node>
  <node id="-212" visible="true" lat="43.24283551" lon="-72.86692937">
    <tag k="addr:city" v="Peru"/>
    <tag k="addr:housenumber" v="533"/>
    <tag k="addr:street" v="Forest Mountain Road"/>
    <tag k="addr:state" v="VT"/>
    <tag k="ref:vcgi:esiteid" v="186603"/>
  </node>
  <node id="-213" visible="true" lat="43.24269791" lon="-72.8693731">
    <tag k="addr:city" v="Peru"/>
    <tag k="addr:housenumber" v="632"/>
    <tag k="addr:street" v="Forest Mountain Road"/>
    <tag k="addr:state" v="VT"/>
    <tag k="ref:vcgi:esiteid" v="186604"/>
  </node>
  <node id="-214" visible="true" lat="43.24259624" lon="-72.86753278">
    <tag k="addr:city" v="Peru"/>
    <tag k="addr:housenumber" v="559"/>
    <tag k="addr:street" v="Forest Mountain Road"/>
    <tag k="addr:state" v="VT"/>
    <tag k="ref:vcgi:esiteid" v="186605"/>
  </node>
  <node id="-215" visible="true" lat="43.24249373" lon="-72.86801707">
    <tag k="addr:city" v="Peru"/>
    <tag k="addr:housenumber" v="613"/>
    <tag k="addr:street" v="Forest Mountain Road"/>
    <tag k="addr:state" v="VT"/>
    <tag k="ref:vcgi:esiteid" v="186606"/>
  </node>
  <node id="-216" visible="true" lat="43.24230602" lon="-72.87028203">
    <tag k="addr:city" v="Peru"/>
    <tag k="addr:housenumber" v="708"/>
    <tag k="addr:street" v="Forest Mountain Road"/>
    <tag k="addr:state" v="VT"/>
    <tag k="ref:vcgi:esiteid" v="186607"/>
  </node>
  <node id="-218" visible="true" lat="43.24189853" lon="-72.89303358">
    <tag k="addr:city" v="Peru"/>
    <tag k="addr:housenumber" v="935"/>
    <tag k="addr:street" v="Lovers Lane"/>
    <tag k="addr:state" v="VT"/>
    <tag k="ref:vcgi:esiteid" v="186609"/>
  </node>
  <node id="-221" visible="true" lat="43.24183654" lon="-72.8857607">
    <tag k="addr:city" v="Peru"/>
    <tag k="addr:housenumber" v="499"/>
    <tag k="addr:street" v="Lovers Lane"/>
    <tag k="addr:state" v="VT"/>
    <tag k="ref:vcgi:esiteid" v="186612"/>
  </node>
  <node id="-222" visible="true" lat="43.24172891" lon="-72.8695797">
    <tag k="addr:city" v="Peru"/>
    <tag k="addr:housenumber" v="701"/>
    <tag k="addr:street" v="Forest Mountain Road"/>
    <tag k="addr:state" v="VT"/>
    <tag k="ref:vcgi:esiteid" v="186613"/>
  </node>
  <node id="-223" visible="true" lat="43.24169938" lon="-72.90641672">
    <tag k="addr:city" v="Peru"/>
    <tag k="addr:housenumber" v="653"/>
    <tag k="addr:street" v="Moss Brook Road"/>
    <tag k="addr:state" v="VT"/>
    <tag k="ref:vcgi:esiteid" v="186614"/>
  </node>
  <node id="-226" visible="true" lat="43.24150466" lon="-72.885837">
    <tag k="addr:city" v="Peru"/>
    <tag k="addr:housenumber" v="479"/>
    <tag k="addr:street" v="Lovers Lane"/>
    <tag k="addr:state" v="VT"/>
    <tag k="ref:vcgi:esiteid" v="186617"/>
  </node>
  <node id="-227" visible="true" lat="43.24141105" lon="-72.87770965">
    <tag k="addr:city" v="Peru"/>
    <tag k="addr:housenumber" v="656"/>
    <tag k="addr:street" v="Glen Road"/>
    <tag k="addr:state" v="VT"/>
    <tag k="ref:vcgi:esiteid" v="186618"/>
  </node>
  <node id="-228" visible="true" lat="43.24131497" lon="-72.89047362">
    <tag k="addr:city" v="Peru"/>
    <tag k="addr:housenumber" v="302"/>
    <tag k="addr:street" v="Sugar Hill"/>
    <tag k="addr:state" v="VT"/>
    <tag k="ref:vcgi:esiteid" v="186619"/>
  </node>
  <node id="-229" visible="true" lat="43.24128175" lon="-72.89319383">
    <tag k="addr:city" v="Peru"/>
    <tag k="addr:housenumber" v="59"/>
    <tag k="addr:street" v="Spruce Lane"/>
    <tag k="addr:state" v="VT"/>
    <tag k="ref:vcgi:esiteid" v="186620"/>
  </node>
  <node id="-230" visible="true" lat="43.24132675" lon="-72.87174652">
    <tag k="addr:city" v="Peru"/>
    <tag k="addr:housenumber" v="719"/>
    <tag k="addr:street" v="Forest Mountain Road"/>
    <tag k="addr:state" v="VT"/>
    <tag k="ref:vcgi:esiteid" v="186621"/>
  </node>
  <node id="-231" visible="true" lat="43.24122042" lon="-72.87846677">
    <tag k="addr:city" v="Peru"/>
    <tag k="addr:housenumber" v="710"/>
    <tag k="addr:street" v="Glen Road"/>
    <tag k="addr:state" v="VT"/>
    <tag k="ref:vcgi:esiteid" v="186622"/>
  </node>
  <node id="-233" visible="true" lat="43.2408904" lon="-72.8913422">
    <tag k="addr:city" v="Peru"/>
    <tag k="addr:housenumber" v="116"/>
    <tag k="addr:street" v="Sugar Hill"/>
    <tag k="addr:state" v="VT"/>
    <tag k="ref:vcgi:esiteid" v="186624"/>
  </node>
  <node id="-234" visible="true" lat="43.24066523" lon="-72.89584739">
    <tag k="addr:city" v="Peru"/>
    <tag k="addr:housenumber" v="727"/>
    <tag k="addr:street" v="Hapgood Pond Road"/>
    <tag k="addr:state" v="VT"/>
    <tag k="ref:vcgi:esiteid" v="186625"/>
  </node>
  <node id="-235" visible="true" lat="43.24054148" lon="-72.87760403">
    <tag k="addr:city" v="Peru"/>
    <tag k="addr:housenumber" v="675"/>
    <tag k="addr:street" v="Glen Road"/>
    <tag k="addr:state" v="VT"/>
    <tag k="ref:vcgi:esiteid" v="186626"/>
  </node>
  <node id="-236" visible="true" lat="43.24053003" lon="-72.87724545">
    <tag k="addr:city" v="Peru"/>
    <tag k="addr:housenumber" v="629"/>
    <tag k="addr:street" v="Glen Road"/>
    <tag k="addr:state" v="VT"/>
    <tag k="ref:vcgi:esiteid" v="186627"/>
  </node>
  <node id="-237" visible="true" lat="43.24051849" lon="-72.87307039">
    <tag k="addr:city" v="Peru"/>
    <tag k="addr:housenumber" v="458"/>
    <tag k="addr:street" v="Glen Road"/>
    <tag k="addr:state" v="VT"/>
    <tag k="ref:vcgi:esiteid" v="186628"/>
  </node>
  <node id="-238" visible="true" lat="43.24032154" lon="-72.89072224">
    <tag k="addr:city" v="Peru"/>
    <tag k="addr:housenumber" v="154"/>
    <tag k="addr:street" v="Sugar Hill"/>
    <tag k="addr:state" v="VT"/>
    <tag k="ref:vcgi:esiteid" v="186629"/>
  </node>
  <node id="-239" visible="true" lat="43.24024005" lon="-72.87222848">
    <tag k="addr:city" v="Peru"/>
    <tag k="addr:housenumber" v="274"/>
    <tag k="addr:street" v="Hide And Seek Road"/>
    <tag k="addr:state" v="VT"/>
    <tag k="ref:vcgi:esiteid" v="186630"/>
  </node>
  <node id="-240" visible="true" lat="43.2403125" lon="-72.87628224">
    <tag k="addr:city" v="Peru"/>
    <tag k="addr:housenumber" v="589"/>
    <tag k="addr:street" v="Glen Road"/>
    <tag k="addr:state" v="VT"/>
    <tag k="ref:vcgi:esiteid" v="186631"/>
  </node>
  <node id="-241" visible="true" lat="43.24027787" lon="-72.86779043">
    <tag k="addr:city" v="Peru"/>
    <tag k="addr:housenumber" v="291"/>
    <tag k="addr:street" v="Forest Mountain Road"/>
    <tag k="addr:state" v="VT"/>
    <tag k="ref:vcgi:esiteid" v="186632"/>
  </node>
  <node id="-242" visible="true" lat="43.24024935" lon="-72.87548268">
    <tag k="addr:city" v="Peru"/>
    <tag k="addr:housenumber" v="569"/>
    <tag k="addr:street" v="Glen Road"/>
    <tag k="addr:state" v="VT"/>
    <tag k="ref:vcgi:esiteid" v="186633"/>
  </node>
  <node id="-243" visible="true" lat="43.2400845" lon="-72.88519144">
    <tag k="addr:city" v="Peru"/>
    <tag k="addr:housenumber" v="377"/>
    <tag k="addr:street" v="Lovers Lane"/>
    <tag k="addr:state" v="VT"/>
    <tag k="ref:vcgi:esiteid" v="186634"/>
  </node>
  <node id="-244" visible="true" lat="43.24016759" lon="-72.87421432">
    <tag k="addr:city" v="Peru"/>
    <tag k="addr:housenumber" v="338"/>
    <tag k="addr:street" v="Three Pond Road"/>
    <tag k="addr:state" v="VT"/>
    <tag k="ref:vcgi:esiteid" v="186635"/>
  </node>
  <node id="-245" visible="true" lat="43.24010292" lon="-72.87677397">
    <tag k="addr:city" v="Peru"/>
    <tag k="addr:housenumber" v="627"/>
    <tag k="addr:street" v="Glen Road"/>
    <tag k="addr:state" v="VT"/>
    <tag k="ref:vcgi:esiteid" v="186636"/>
  </node>
  <node id="-246" visible="true" lat="43.24018277" lon="-72.86643776">
    <tag k="addr:city" v="Peru"/>
    <tag k="addr:housenumber" v="292"/>
    <tag k="addr:street" v="Forest Mountain Road"/>
    <tag k="addr:state" v="VT"/>
    <tag k="ref:vcgi:esiteid" v="186637"/>
  </node>
  <node id="-247" visible="true" lat="43.24001117" lon="-72.87138905">
    <tag k="addr:city" v="Peru"/>
    <tag k="addr:housenumber" v="258"/>
    <tag k="addr:street" v="Hide And Seek Road"/>
    <tag k="addr:state" v="VT"/>
    <tag k="ref:vcgi:esiteid" v="186638"/>
  </node>
  <node id="-248" visible="true" lat="43.23991756" lon="-72.87530656">
    <tag k="addr:city" v="Peru"/>
    <tag k="addr:housenumber" v="303"/>
    <tag k="addr:street" v="Three Pond Road"/>
    <tag k="addr:state" v="VT"/>
    <tag k="ref:vcgi:esiteid" v="186639"/>
  </node>
  <node id="-250" visible="true" lat="43.23978658" lon="-72.88502515">
    <tag k="addr:city" v="Peru"/>
    <tag k="addr:housenumber" v="375"/>
    <tag k="addr:street" v="Lovers Lane"/>
    <tag k="addr:state" v="VT"/>
    <tag k="ref:vcgi:esiteid" v="186641"/>
  </node>
  <node id="-251" visible="true" lat="43.23983964" lon="-72.87026913">
    <tag k="addr:city" v="Peru"/>
    <tag k="addr:housenumber" v="228"/>
    <tag k="addr:street" v="Hide And Seek Road"/>
    <tag k="addr:state" v="VT"/>
    <tag k="ref:vcgi:esiteid" v="186642"/>
  </node>
  <node id="-252" visible="true" lat="43.23980527" lon="-72.87345842">
    <tag k="addr:city" v="Peru"/>
    <tag k="addr:housenumber" v="414"/>
    <tag k="addr:street" v="Glen Road"/>
    <tag k="addr:state" v="VT"/>
    <tag k="ref:vcgi:esiteid" v="186643"/>
  </node>
  <node id="-254" visible="true" lat="43.23970975" lon="-72.87848986">
    <tag k="addr:city" v="Peru"/>
    <tag k="addr:housenumber" v="123"/>
    <tag k="addr:street" v="Hill Drive"/>
    <tag k="addr:state" v="VT"/>
    <tag k="ref:vcgi:esiteid" v="186645"/>
  </node>
  <node id="-255" visible="true" lat="43.23953242" lon="-72.87427542">
    <tag k="addr:city" v="Peru"/>
    <tag k="addr:housenumber" v="312"/>
    <tag k="addr:street" v="Three Pond Road"/>
    <tag k="addr:state" v="VT"/>
    <tag k="ref:vcgi:esiteid" v="186646"/>
  </node>
  <node id="-256" visible="true" lat="43.23943522" lon="-72.86687188">
    <tag k="addr:city" v="Peru"/>
    <tag k="addr:housenumber" v="252"/>
    <tag k="addr:street" v="Forest Mountain Road"/>
    <tag k="addr:state" v="VT"/>
    <tag k="ref:vcgi:esiteid" v="186647"/>
  </node>
  <node id="-258" visible="true" lat="43.2393781" lon="-72.8679036">
    <tag k="addr:city" v="Peru"/>
    <tag k="addr:housenumber" v="215"/>
    <tag k="addr:street" v="Forest Mountain Road"/>
    <tag k="addr:state" v="VT"/>
    <tag k="ref:vcgi:esiteid" v="186649"/>
  </node>
  <node id="-259" visible="true" lat="43.23926931" lon="-72.87011686">
    <tag k="addr:city" v="Peru"/>
    <tag k="addr:housenumber" v="184"/>
    <tag k="addr:street" v="Hide And Seek Road"/>
    <tag k="addr:state" v="VT"/>
    <tag k="ref:vcgi:esiteid" v="186650"/>
  </node>
  <node id="-260" visible="true" lat="43.23924313" lon="-72.88285753">
    <tag k="addr:city" v="Peru"/>
    <tag k="addr:housenumber" v="306"/>
    <tag k="addr:street" v="Lovers Lane"/>
    <tag k="addr:state" v="VT"/>
    <tag k="ref:vcgi:esiteid" v="186651"/>
  </node>
  <node id="-261" visible="true" lat="43.23929212" lon="-72.87273409">
    <tag k="addr:city" v="Peru"/>
    <tag k="addr:housenumber" v="334"/>
    <tag k="addr:street" v="Glen Road"/>
    <tag k="addr:state" v="VT"/>
    <tag k="ref:vcgi:esiteid" v="186652"/>
  </node>
  <node id="-262" visible="true" lat="43.23932444" lon="-72.87627482">
    <tag k="addr:city" v="Peru"/>
    <tag k="addr:housenumber" v="255"/>
    <tag k="addr:street" v="Three Pond Road"/>
    <tag k="addr:state" v="VT"/>
    <tag k="ref:vcgi:esiteid" v="186653"/>
  </node>
  <node id="-263" visible="true" lat="43.23921191" lon="-72.87751087">
    <tag k="addr:city" v="Peru"/>
    <tag k="addr:housenumber" v="113"/>
    <tag k="addr:street" v="Hill Drive"/>
    <tag k="addr:state" v="VT"/>
    <tag k="ref:vcgi:esiteid" v="186654"/>
  </node>
  <node id="-264" visible="true" lat="43.23908023" lon="-72.88409794">
    <tag k="addr:city" v="Peru"/>
    <tag k="addr:housenumber" v="275"/>
    <tag k="addr:street" v="Lovers Lane"/>
    <tag k="addr:state" v="VT"/>
    <tag k="ref:vcgi:esiteid" v="186655"/>
  </node>
  <node id="-265" visible="true" lat="43.23915293" lon="-72.86703972">
    <tag k="addr:city" v="Peru"/>
    <tag k="addr:housenumber" v="228"/>
    <tag k="addr:street" v="Forest Mountain Road"/>
    <tag k="addr:state" v="VT"/>
    <tag k="ref:vcgi:esiteid" v="186656"/>
  </node>
  <node id="-267" visible="true" lat="43.23900808" lon="-72.86837171">
    <tag k="addr:city" v="Peru"/>
    <tag k="addr:housenumber" v="191"/>
    <tag k="addr:street" v="Forest Mountain Road"/>
    <tag k="addr:state" v="VT"/>
    <tag k="ref:vcgi:esiteid" v="186658"/>
  </node>
  <node id="-268" visible="true" lat="43.23904414" lon="-72.87552161">
    <tag k="addr:city" v="Peru"/>
    <tag k="addr:housenumber" v="230"/>
    <tag k="addr:street" v="Three Pond Road"/>
    <tag k="addr:state" v="VT"/>
    <tag k="ref:vcgi:esiteid" v="186659"/>
  </node>
  <node id="-269" visible="true" lat="43.2389601" lon="-72.87485125">
    <tag k="addr:city" v="Peru"/>
    <tag k="addr:housenumber" v="282"/>
    <tag k="addr:street" v="Three Pond Road"/>
    <tag k="addr:state" v="VT"/>
    <tag k="ref:vcgi:esiteid" v="186660"/>
  </node>
  <node id="-270" visible="true" lat="43.23874688" lon="-72.87187279">
    <tag k="addr:city" v="Peru"/>
    <tag k="addr:housenumber" v="335"/>
    <tag k="addr:street" v="Hide And Seek Road"/>
    <tag k="addr:state" v="VT"/>
    <tag k="ref:vcgi:esiteid" v="186661"/>
  </node>
  <node id="-271" visible="true" lat="43.2387149" lon="-72.86729945">
    <tag k="addr:city" v="Peru"/>
    <tag k="addr:housenumber" v="192"/>
    <tag k="addr:street" v="Forest Mountain Road"/>
    <tag k="addr:state" v="VT"/>
    <tag k="ref:vcgi:esiteid" v="186662"/>
  </node>
  <node id="-272" visible="true" lat="43.23893553" lon="-72.87383689">
    <tag k="addr:city" v="Peru"/>
    <tag k="addr:housenumber" v="377"/>
    <tag k="addr:street" v="Glen Road"/>
    <tag k="addr:state" v="VT"/>
    <tag k="ref:vcgi:esiteid" v="186663"/>
  </node>
  <node id="-273" visible="true" lat="43.23861304" lon="-72.86989913">
    <tag k="addr:city" v="Peru"/>
    <tag k="addr:housenumber" v="148"/>
    <tag k="addr:street" v="Hide And Seek Road"/>
    <tag k="addr:state" v="VT"/>
    <tag k="ref:vcgi:esiteid" v="186664"/>
  </node>
  <node id="-274" visible="true" lat="43.23847951" lon="-72.87232254">
    <tag k="addr:city" v="Peru"/>
    <tag k="addr:housenumber" v="286"/>
    <tag k="addr:street" v="Glen Road"/>
    <tag k="addr:state" v="VT"/>
    <tag k="ref:vcgi:esiteid" v="186665"/>
  </node>
  <node id="-275" visible="true" lat="43.23819905" lon="-72.88323716">
    <tag k="addr:city" v="Peru"/>
    <tag k="addr:housenumber" v="218"/>
    <tag k="addr:street" v="Lovers Lane"/>
    <tag k="addr:state" v="VT"/>
    <tag k="ref:vcgi:esiteid" v="186666"/>
  </node>
  <node id="-276" visible="true" lat="43.23822372" lon="-72.87591011">
    <tag k="addr:city" v="Peru"/>
    <tag k="addr:housenumber" v="159"/>
    <tag k="addr:street" v="Three Pond Road"/>
    <tag k="addr:state" v="VT"/>
    <tag k="ref:vcgi:esiteid" v="186667"/>
  </node>
  <node id="-277" visible="true" lat="43.23818024" lon="-72.87289615">
    <tag k="addr:city" v="Peru"/>
    <tag k="addr:housenumber" v="25"/>
    <tag k="addr:street" v="Frog Crossing"/>
    <tag k="addr:state" v="VT"/>
    <tag k="ref:vcgi:esiteid" v="186668"/>
  </node>
  <node id="-278" visible="true" lat="43.23798574" lon="-72.87467615">
    <tag k="addr:city" v="Peru"/>
    <tag k="addr:housenumber" v="140"/>
    <tag k="addr:street" v="Three Pond Road"/>
    <tag k="addr:state" v="VT"/>
    <tag k="ref:vcgi:esiteid" v="186669"/>
  </node>
  <node id="-280" visible="true" lat="43.2380444" lon="-72.86748232">
    <tag k="addr:city" v="Peru"/>
    <tag k="addr:housenumber" v="116"/>
    <tag k="addr:street" v="Forest Mountain Road"/>
    <tag k="addr:state" v="VT"/>
    <tag k="ref:vcgi:esiteid" v="186671"/>
  </node>
  <node id="-281" visible="true" lat="43.23792464" lon="-72.87139852">
    <tag k="addr:city" v="Peru"/>
    <tag k="addr:housenumber" v="142"/>
    <tag k="addr:street" v="Frog Crossing"/>
    <tag k="addr:state" v="VT"/>
    <tag k="ref:vcgi:esiteid" v="186672"/>
  </node>
  <node id="-282" visible="true" lat="43.23777636" lon="-72.87393043">
    <tag k="addr:city" v="Peru"/>
    <tag k="addr:housenumber" v="221"/>
    <tag k="addr:street" v="Glen Road"/>
    <tag k="addr:state" v="VT"/>
    <tag k="ref:vcgi:esiteid" v="186673"/>
  </node>
  <node id="-286" visible="true" lat="43.23724745" lon="-72.87117536">
    <tag k="addr:city" v="Peru"/>
    <tag k="addr:housenumber" v="102"/>
    <tag k="addr:street" v="Frog Crossing"/>
    <tag k="addr:state" v="VT"/>
    <tag k="ref:vcgi:esiteid" v="186677"/>
  </node>
  <node id="-287" visible="true" lat="43.23709507" lon="-72.87499093">
    <tag k="addr:city" v="Peru"/>
    <tag k="addr:housenumber" v="49"/>
    <tag k="addr:street" v="Three Pond Road"/>
    <tag k="addr:state" v="VT"/>
    <tag k="ref:vcgi:esiteid" v="186678"/>
  </node>
  <node id="-288" visible="true" lat="43.237123" lon="-72.86723968">
    <tag k="addr:city" v="Peru"/>
    <tag k="addr:housenumber" v="75"/>
    <tag k="addr:street" v="Forest Mountain Road"/>
    <tag k="addr:state" v="VT"/>
    <tag k="ref:vcgi:esiteid" v="186679"/>
  </node>
  <node id="-290" visible="true" lat="43.23681452" lon="-72.87802853">
    <tag k="addr:city" v="Peru"/>
    <tag k="addr:housenumber" v="718"/>
    <tag k="addr:street" v="Vermont Route 11"/>
    <tag k="addr:state" v="VT"/>
    <tag k="ref:vcgi:esiteid" v="186681"/>
  </node>
  <node id="-292" visible="true" lat="43.23646744" lon="-72.87273096">
    <tag k="addr:city" v="Peru"/>
    <tag k="addr:housenumber" v="106"/>
    <tag k="addr:street" v="Glen Road"/>
    <tag k="addr:state" v="VT"/>
    <tag k="ref:vcgi:esiteid" v="186683"/>
  </node>
  <node id="-295" visible="true" lat="43.23650582" lon="-72.88020006">
    <tag k="addr:city" v="Peru"/>
    <tag k="addr:housenumber" v="20"/>
    <tag k="addr:street" v="Birch Hill Farm Road"/>
    <tag k="addr:state" v="VT"/>
    <tag k="ref:vcgi:esiteid" v="186686"/>
  </node>
  <node id="-297" visible="true" lat="43.23617073" lon="-72.88204979">
    <tag k="addr:city" v="Peru"/>
    <tag k="addr:housenumber" v="45"/>
    <tag k="addr:street" v="Birch Hill Farm Road"/>
    <tag k="addr:state" v="VT"/>
    <tag k="ref:vcgi:esiteid" v="186688"/>
  </node>
  <node id="-298" visible="true" lat="43.23623613" lon="-72.86843828">
    <tag k="addr:city" v="Peru"/>
    <tag k="addr:housenumber" v="162"/>
    <tag k="addr:street" v="Vermont Route 11"/>
    <tag k="addr:state" v="VT"/>
    <tag k="ref:vcgi:esiteid" v="186689"/>
  </node>
  <node id="-299" visible="true" lat="43.23618637" lon="-72.86613202">
    <tag k="addr:city" v="Peru"/>
    <tag k="addr:housenumber" v="49"/>
    <tag k="addr:street" v="Vermont Route 11"/>
    <tag k="addr:state" v="VT"/>
    <tag k="ref:vcgi:esiteid" v="186690"/>
  </node>
  <node id="-301" visible="true" lat="43.23574229" lon="-72.87229531">
    <tag k="addr:city" v="Peru"/>
    <tag k="addr:housenumber" v="58"/>
    <tag k="addr:street" v="Glen Road"/>
    <tag k="addr:state" v="VT"/>
    <tag k="ref:vcgi:esiteid" v="186692"/>
  </node>
  <node id="-302" visible="true" lat="43.23586594" lon="-72.86662985">
    <tag k="addr:city" v="Peru"/>
    <tag k="addr:housenumber" v="81"/>
    <tag k="addr:street" v="Vermont Route 11"/>
    <tag k="addr:state" v="VT"/>
    <tag k="ref:vcgi:esiteid" v="186693"/>
  </node>
  <node id="-303" visible="true" lat="43.23589594" lon="-72.86907636">
    <tag k="addr:city" v="Peru"/>
    <tag k="addr:housenumber" v="190"/>
    <tag k="addr:street" v="Vermont Route 11"/>
    <tag k="addr:state" v="VT"/>
    <tag k="ref:vcgi:esiteid" v="186694"/>
  </node>
  <node id="-304" visible="true" lat="43.23538064" lon="-72.86806031">
    <tag k="addr:city" v="Peru"/>
    <tag k="addr:housenumber" v="159"/>
    <tag k="addr:street" v="Vermont Route 11"/>
    <tag k="addr:state" v="VT"/>
    <tag k="ref:vcgi:esiteid" v="186695"/>
  </node>
  <node id="-305" visible="true" lat="43.23526878" lon="-72.87122096">
    <tag k="addr:city" v="Peru"/>
    <tag k="addr:housenumber" v="302"/>
    <tag k="addr:street" v="Vermont Route 11"/>
    <tag k="addr:state" v="VT"/>
    <tag k="ref:vcgi:esiteid" v="186696"/>
  </node>
  <node id="-306" visible="true" lat="43.23517417" lon="-72.87405667">
    <tag k="addr:city" v="Peru"/>
    <tag k="addr:housenumber" v="39"/>
    <tag k="addr:street" v="Glen Road"/>
    <tag k="addr:state" v="VT"/>
    <tag k="ref:vcgi:esiteid" v="186697"/>
  </node>
  <node id="-307" visible="true" lat="43.2350611" lon="-72.86943856">
    <tag k="addr:city" v="Peru"/>
    <tag k="addr:housenumber" v="193"/>
    <tag k="addr:street" v="Vermont Route 11"/>
    <tag k="addr:state" v="VT"/>
    <tag k="ref:vcgi:esiteid" v="186698"/>
  </node>
  <node id="-308" visible="true" lat="43.23481571" lon="-72.87903137">
    <tag k="addr:city" v="Peru"/>
    <tag k="addr:housenumber" v="723"/>
    <tag k="addr:street" v="Vermont Route 11"/>
    <tag k="addr:state" v="VT"/>
    <tag k="ref:vcgi:esiteid" v="186699"/>
  </node>
  <node id="-309" visible="true" lat="43.23478488" lon="-72.87728017">
    <tag k="addr:city" v="Peru"/>
    <tag k="addr:housenumber" v="656"/>
    <tag k="addr:street" v="Vermont Route 11"/>
    <tag k="addr:state" v="VT"/>
    <tag k="ref:vcgi:esiteid" v="186700"/>
  </node>
  <node id="-310" visible="true" lat="43.23460767" lon="-72.88544483">
    <tag k="addr:city" v="Peru"/>
    <tag k="addr:housenumber" v="32"/>
    <tag k="addr:street" v="Beechwood Lane"/>
    <tag k="addr:state" v="VT"/>
    <tag k="ref:vcgi:esiteid" v="186701"/>
  </node>
  <node id="-311" visible="true" lat="43.23465193" lon="-72.88645241">
    <tag k="addr:city" v="Peru"/>
    <tag k="addr:housenumber" v="1111"/>
    <tag k="addr:street" v="Vermont Route 11"/>
    <tag k="addr:state" v="VT"/>
    <tag k="ref:vcgi:esiteid" v="186702"/>
  </node>
  <node id="-312" visible="true" lat="43.23465738" lon="-72.87384908">
    <tag k="addr:city" v="Peru"/>
    <tag k="addr:housenumber" v="464"/>
    <tag k="addr:street" v="Vermont Route 11"/>
    <tag k="addr:state" v="VT"/>
    <tag k="ref:vcgi:esiteid" v="186703"/>
  </node>
  <node id="-313" visible="true" lat="43.23420887" lon="-72.8889308">
    <tag k="addr:city" v="Peru"/>
    <tag k="addr:housenumber" v="1245"/>
    <tag k="addr:street" v="Vermont Route 11"/>
    <tag k="addr:state" v="VT"/>
    <tag k="ref:vcgi:esiteid" v="186704"/>
  </node>
  <node id="-314" visible="true" lat="43.2343324" lon="-72.87190585">
    <tag k="addr:city" v="Peru"/>
    <tag k="addr:housenumber" v="16"/>
    <tag k="addr:street" v="Burnt Meadow Road"/>
    <tag k="addr:state" v="VT"/>
    <tag k="ref:vcgi:esiteid" v="186705"/>
  </node>
  <node id="-315" visible="true" lat="43.2347224" lon="-72.87656051">
    <tag k="addr:city" v="Peru"/>
    <tag k="addr:housenumber" v="604"/>
    <tag k="addr:street" v="Vermont Route 11"/>
    <tag k="addr:state" v="VT"/>
    <tag k="ref:vcgi:esiteid" v="186706"/>
  </node>
  <node id="-316" visible="true" lat="43.23441162" lon="-72.8843662">
    <tag k="addr:city" v="Peru"/>
    <tag k="addr:housenumber" v="61"/>
    <tag k="addr:street" v="Beechwood Lane"/>
    <tag k="addr:state" v="VT"/>
    <tag k="ref:vcgi:esiteid" v="186707"/>
  </node>
  <node id="-317" visible="true" lat="43.23453336" lon="-72.87553353">
    <tag k="addr:city" v="Peru"/>
    <tag k="addr:housenumber" v="558"/>
    <tag k="addr:street" v="Vermont Route 11"/>
    <tag k="addr:state" v="VT"/>
    <tag k="ref:vcgi:esiteid" v="186708"/>
  </node>
  <node id="-319" visible="true" lat="43.23429929" lon="-72.8728683">
    <tag k="addr:city" v="Peru"/>
    <tag k="addr:housenumber" v="385"/>
    <tag k="addr:street" v="Vermont Route 11"/>
    <tag k="addr:state" v="VT"/>
    <tag k="ref:vcgi:esiteid" v="186711"/>
  </node>
  <node id="-320" visible="true" lat="43.23432211" lon="-72.8731896">
    <tag k="addr:city" v="Peru"/>
    <tag k="addr:housenumber" v="427"/>
    <tag k="addr:street" v="Vermont Route 11"/>
    <tag k="addr:state" v="VT"/>
    <tag k="ref:vcgi:esiteid" v="186712"/>
  </node>
  <node id="-321" visible="true" lat="43.23413049" lon="-72.87353158">
    <tag k="addr:city" v="Peru"/>
    <tag k="addr:housenumber" v="459"/>
    <tag k="addr:street" v="Vermont Route 11"/>
    <tag k="addr:state" v="VT"/>
    <tag k="ref:vcgi:esiteid" v="186713"/>
  </node>
  <node id="-322" visible="true" lat="43.23398972" lon="-72.87465414">
    <tag k="addr:city" v="Peru"/>
    <tag k="addr:housenumber" v="499"/>
    <tag k="addr:street" v="Vermont Route 11"/>
    <tag k="addr:state" v="VT"/>
    <tag k="ref:vcgi:esiteid" v="186714"/>
  </node>
  <node id="-324" visible="true" lat="43.23368799" lon="-72.87207843">
    <tag k="addr:city" v="Peru"/>
    <tag k="addr:housenumber" v="62"/>
    <tag k="addr:street" v="Burnt Meadow Road"/>
    <tag k="addr:state" v="VT"/>
    <tag k="ref:vcgi:esiteid" v="186716"/>
  </node>
  <node id="-325" visible="true" lat="43.233698" lon="-72.87708979">
    <tag k="addr:city" v="Peru"/>
    <tag k="addr:housenumber" v="601"/>
    <tag k="addr:street" v="Vermont Route 11"/>
    <tag k="addr:state" v="VT"/>
    <tag k="ref:vcgi:esiteid" v="186717"/>
  </node>
  <node id="-326" visible="true" lat="43.23343294" lon="-72.88746965">
    <tag k="addr:city" v="Peru"/>
    <tag k="addr:housenumber" v="71"/>
    <tag k="addr:street" v="Yaks Way"/>
    <tag k="addr:state" v="VT"/>
    <tag k="ref:vcgi:esiteid" v="186719"/>
  </node>
  <node id="-327" visible="true" lat="43.23361678" lon="-72.88301876">
    <tag k="addr:city" v="Peru"/>
    <tag k="addr:housenumber" v="110"/>
    <tag k="addr:street" v="Halstead Lane North"/>
    <tag k="addr:state" v="VT"/>
    <tag k="ref:vcgi:esiteid" v="186720"/>
  </node>
  <node id="-328" visible="true" lat="43.23363221" lon="-72.87554328">
    <tag k="addr:city" v="Peru"/>
    <tag k="addr:housenumber" v="575"/>
    <tag k="addr:street" v="Vermont Route 11"/>
    <tag k="addr:state" v="VT"/>
    <tag k="ref:vcgi:esiteid" v="186721"/>
  </node>
  <node id="-330" visible="true" lat="43.2333735" lon="-72.87726697">
    <tag k="addr:city" v="Peru"/>
    <tag k="addr:housenumber" v="603"/>
    <tag k="addr:street" v="Vermont Route 11"/>
    <tag k="addr:state" v="VT"/>
    <tag k="ref:vcgi:esiteid" v="186723"/>
  </node>
  <node id="-331" visible="true" lat="43.23308655" lon="-72.87154606">
    <tag k="addr:city" v="Peru"/>
    <tag k="addr:housenumber" v="118"/>
    <tag k="addr:street" v="Burnt Meadow Road"/>
    <tag k="addr:state" v="VT"/>
    <tag k="ref:vcgi:esiteid" v="186724"/>
  </node>
  <node id="-332" visible="true" lat="43.23276835" lon="-72.88885465">
    <tag k="addr:city" v="Peru"/>
    <tag k="addr:housenumber" v="143"/>
    <tag k="addr:street" v="Yaks Way"/>
    <tag k="addr:state" v="VT"/>
    <tag k="ref:vcgi:esiteid" v="186725"/>
  </node>
  <node id="-335" visible="true" lat="43.23227137" lon="-72.88570655">
    <tag k="addr:city" v="Peru"/>
    <tag k="addr:housenumber" v="246"/>
    <tag k="addr:street" v="Beechwood Lane"/>
    <tag k="addr:state" v="VT"/>
    <tag k="ref:vcgi:esiteid" v="186728"/>
  </node>
  <node id="-336" visible="true" lat="43.23224052" lon="-72.88379361">
    <tag k="addr:city" v="Peru"/>
    <tag k="addr:housenumber" v="27"/>
    <tag k="addr:street" v="Beechnut Drive"/>
    <tag k="addr:state" v="VT"/>
    <tag k="ref:vcgi:esiteid" v="186729"/>
  </node>
  <node id="-337" visible="true" lat="43.23214318" lon="-72.87229287">
    <tag k="addr:city" v="Peru"/>
    <tag k="addr:housenumber" v="220"/>
    <tag k="addr:street" v="Burnt Meadow Road"/>
    <tag k="addr:state" v="VT"/>
    <tag k="ref:vcgi:esiteid" v="186730"/>
  </node>
  <node id="-342" visible="true" lat="43.23128526" lon="-72.87156043">
    <tag k="addr:city" v="Peru"/>
    <tag k="addr:housenumber" v="249"/>
    <tag k="addr:street" v="Burnt Meadow Road"/>
    <tag k="addr:state" v="VT"/>
    <tag k="ref:vcgi:esiteid" v="186735"/>
  </node>
  <node id="-343" visible="true" lat="43.23105422" lon="-72.88532701">
    <tag k="addr:city" v="Peru"/>
    <tag k="addr:housenumber" v="262"/>
    <tag k="addr:street" v="Beechwood Lane"/>
    <tag k="addr:state" v="VT"/>
    <tag k="ref:vcgi:esiteid" v="186736"/>
  </node>
  <node id="-349" visible="true" lat="43.23005303" lon="-72.89395598">
    <tag k="addr:city" v="Peru"/>
    <tag k="addr:housenumber" v="1747"/>
    <tag k="addr:street" v="Vermont Route 11"/>
    <tag k="addr:state" v="VT"/>
    <tag k="ref:vcgi:esiteid" v="186742"/>
  </node>
  <node id="-353" visible="true" lat="43.22988155" lon="-72.89409209">
    <tag k="addr:city" v="Peru"/>
    <tag k="addr:housenumber" v="1745"/>
    <tag k="addr:street" v="Vermont Route 11"/>
    <tag k="addr:state" v="VT"/>
    <tag k="ref:vcgi:esiteid" v="186746"/>
  </node>
  <node id="-357" visible="true" lat="43.22958047" lon="-72.87156638">
    <tag k="addr:city" v="Peru"/>
    <tag k="addr:housenumber" v="350"/>
    <tag k="addr:street" v="Burnt Meadow Road"/>
    <tag k="addr:state" v="VT"/>
    <tag k="ref:vcgi:esiteid" v="186751"/>
  </node>
  <node id="-361" visible="true" lat="43.22903519" lon="-72.88338223">
    <tag k="addr:city" v="Peru"/>
    <tag k="addr:housenumber" v="441"/>
    <tag k="addr:street" v="Beechwood Lane"/>
    <tag k="addr:state" v="VT"/>
    <tag k="ref:vcgi:esiteid" v="186755"/>
  </node>
  <node id="-367" visible="true" lat="43.22831723" lon="-72.90072278">
    <tag k="addr:city" v="Peru"/>
    <tag k="addr:housenumber" v="425"/>
    <tag k="addr:street" v="Main Street"/>
    <tag k="addr:state" v="VT"/>
    <tag k="ref:vcgi:esiteid" v="186761"/>
  </node>
  <node id="-368" visible="true" lat="43.228057" lon="-72.88359771">
    <tag k="addr:city" v="Peru"/>
    <tag k="addr:housenumber" v="455"/>
    <tag k="addr:street" v="Beechwood Lane"/>
    <tag k="addr:state" v="VT"/>
    <tag k="ref:vcgi:esiteid" v="186762"/>
  </node>
  <node id="-370" visible="true" lat="43.22704491" lon="-72.90074638">
    <tag k="addr:city" v="Peru"/>
    <tag k="addr:housenumber" v="2001"/>
    <tag k="addr:street" v="Vermont Route 11"/>
    <tag k="addr:state" v="VT"/>
    <tag k="ref:vcgi:esiteid" v="186764"/>
  </node>
  <node id="-371" visible="true" lat="43.22685614" lon="-72.89636811">
    <tag k="addr:city" v="Peru"/>
    <tag k="addr:housenumber" v="215"/>
    <tag k="addr:street" v="South Road"/>
    <tag k="addr:state" v="VT"/>
    <tag k="ref:vcgi:esiteid" v="186765"/>
  </node>
  <node id="-373" visible="true" lat="43.22676843" lon="-72.8986973">
    <tag k="addr:city" v="Peru"/>
    <tag k="addr:housenumber" v="240"/>
    <tag k="addr:street" v="South Road"/>
    <tag k="addr:state" v="VT"/>
    <tag k="ref:vcgi:esiteid" v="186767"/>
  </node>
  <node id="-378" visible="true" lat="43.22592936" lon="-72.90209134">
    <tag k="addr:city" v="Peru"/>
    <tag k="addr:housenumber" v="2121"/>
    <tag k="addr:street" v="Vermont Route 11"/>
    <tag k="addr:state" v="VT"/>
    <tag k="ref:vcgi:esiteid" v="186772"/>
  </node>
  <node id="-379" visible="true" lat="43.22549744" lon="-72.90023678">
    <tag k="addr:city" v="Peru"/>
    <tag k="addr:housenumber" v="2109"/>
    <tag k="addr:street" v="Vermont Route 11"/>
    <tag k="addr:state" v="VT"/>
    <tag k="ref:vcgi:esiteid" v="186773"/>
  </node>
  <node id="-382" visible="true" lat="43.2254468" lon="-72.89764584">
    <tag k="addr:city" v="Peru"/>
    <tag k="addr:housenumber" v="348"/>
    <tag k="addr:street" v="South Road"/>
    <tag k="addr:state" v="VT"/>
    <tag k="ref:vcgi:esiteid" v="186776"/>
  </node>
  <node id="-383" visible="true" lat="43.2252026" lon="-72.88203039">
    <tag k="addr:city" v="Peru"/>
    <tag k="addr:housenumber" v="543"/>
    <tag k="addr:street" v="Halstead Lane"/>
    <tag k="addr:state" v="VT"/>
    <tag k="ref:vcgi:esiteid" v="186777"/>
  </node>
  <node id="-384" visible="true" lat="43.22527846" lon="-72.89479593">
    <tag k="addr:city" v="Peru"/>
    <tag k="addr:housenumber" v="425"/>
    <tag k="addr:street" v="South Road"/>
    <tag k="addr:state" v="VT"/>
    <tag k="ref:vcgi:esiteid" v="186778"/>
  </node>
  <node id="-386" visible="true" lat="43.22394662" lon="-72.88185842">
    <tag k="addr:city" v="Peru"/>
    <tag k="addr:housenumber" v="474"/>
    <tag k="addr:street" v="Halstead Lane"/>
    <tag k="addr:state" v="VT"/>
    <tag k="ref:vcgi:esiteid" v="186780"/>
  </node>
  <node id="-388" visible="true" lat="43.22270395" lon="-72.89597052">
    <tag k="addr:city" v="Peru"/>
    <tag k="addr:housenumber" v="492"/>
    <tag k="addr:street" v="South Road"/>
    <tag k="addr:state" v="VT"/>
    <tag k="ref:vcgi:esiteid" v="186782"/>
  </node>
  <node id="-391" visible="true" lat="43.22229608" lon="-72.8937788">
    <tag k="addr:city" v="Peru"/>
    <tag k="addr:housenumber" v="601"/>
    <tag k="addr:street" v="South Road"/>
    <tag k="addr:state" v="VT"/>
    <tag k="ref:vcgi:esiteid" v="186785"/>
  </node>
  <node id="-392" visible="true" lat="43.22085778" lon="-72.89531849">
    <tag k="addr:city" v="Peru"/>
    <tag k="addr:housenumber" v="736"/>
    <tag k="addr:street" v="South Road"/>
    <tag k="addr:state" v="VT"/>
    <tag k="ref:vcgi:esiteid" v="186786"/>
  </node>
  <node id="-394" visible="true" lat="43.2202092" lon="-72.89438577">
    <tag k="addr:city" v="Peru"/>
    <tag k="addr:housenumber" v="757"/>
    <tag k="addr:street" v="South Road"/>
    <tag k="addr:state" v="VT"/>
    <tag k="ref:vcgi:esiteid" v="186788"/>
  </node>
  <node id="-395" visible="true" lat="43.22012908" lon="-72.89491479">
    <tag k="addr:city" v="Peru"/>
    <tag k="addr:housenumber" v="770"/>
    <tag k="addr:street" v="South Road"/>
    <tag k="addr:state" v="VT"/>
    <tag k="ref:vcgi:esiteid" v="186789"/>
  </node>
  <node id="-396" visible="true" lat="43.21983439" lon="-72.89521139">
    <tag k="addr:city" v="Peru"/>
    <tag k="addr:housenumber" v="788"/>
    <tag k="addr:street" v="South Road"/>
    <tag k="addr:state" v="VT"/>
    <tag k="ref:vcgi:esiteid" v="186790"/>
  </node>
  <node id="-398" visible="true" lat="43.21913513" lon="-72.89452724">
    <tag k="addr:city" v="Peru"/>
    <tag k="addr:housenumber" v="823"/>
    <tag k="addr:street" v="South Road"/>
    <tag k="addr:state" v="VT"/>
    <tag k="ref:vcgi:esiteid" v="186793"/>
  </node>
  <node id="-399" visible="true" lat="43.21875379" lon="-72.89487404">
    <tag k="addr:city" v="Peru"/>
    <tag k="addr:housenumber" v="873"/>
    <tag k="addr:street" v="South Road"/>
    <tag k="addr:state" v="VT"/>
    <tag k="ref:vcgi:esiteid" v="186794"/>
  </node>
  <node id="-400" visible="true" lat="43.21854181" lon="-72.89640174">
    <tag k="addr:city" v="Peru"/>
    <tag k="addr:housenumber" v="950"/>
    <tag k="addr:street" v="South Road"/>
    <tag k="addr:state" v="VT"/>
    <tag k="ref:vcgi:esiteid" v="186795"/>
  </node>
  <node id="-401" visible="true" lat="43.21829989" lon="-72.89520251">
    <tag k="addr:city" v="Peru"/>
    <tag k="addr:housenumber" v="893"/>
    <tag k="addr:street" v="South Road"/>
    <tag k="addr:state" v="VT"/>
    <tag k="ref:vcgi:esiteid" v="186796"/>
  </node>
  <node id="-402" visible="true" lat="43.21913907" lon="-72.89753391">
    <tag k="addr:city" v="Peru"/>
    <tag k="addr:housenumber" v="954"/>
    <tag k="addr:street" v="South Road"/>
    <tag k="addr:state" v="VT"/>
    <tag k="ref:vcgi:esiteid" v="186798"/>
  </node>
  <node id="-404" visible="true" lat="43.21689434" lon="-72.90999481">
    <tag k="addr:city" v="Peru"/>
    <tag k="addr:housenumber" v="935"/>
    <tag k="addr:street" v="Old Manchester Road"/>
    <tag k="addr:state" v="VT"/>
    <tag k="ref:vcgi:esiteid" v="186800"/>
  </node>
  <node id="-405" visible="true" lat="43.21680638" lon="-72.89760608">
    <tag k="addr:city" v="Peru"/>
    <tag k="addr:housenumber" v="954"/>
    <tag k="addr:street" v="South Road"/>
    <tag k="addr:state" v="VT"/>
    <tag k="ref:vcgi:esiteid" v="186801"/>
  </node>
  <node id="-406" visible="true" lat="43.21652082" lon="-72.89651277">
    <tag k="addr:city" v="Peru"/>
    <tag k="addr:housenumber" v="996"/>
    <tag k="addr:street" v="South Road"/>
    <tag k="addr:state" v="VT"/>
    <tag k="ref:vcgi:esiteid" v="186802"/>
  </node>
  <node id="-408" visible="true" lat="43.21532738" lon="-72.9435519">
    <tag k="addr:city" v="Peru"/>
    <tag k="addr:housenumber" v="95"/>
    <tag k="addr:street" v="Birches Way"/>
    <tag k="addr:state" v="VT"/>
    <tag k="ref:vcgi:esiteid" v="186804"/>
  </node>
  <node id="-409" visible="true" lat="43.21535044" lon="-72.94724837">
    <tag k="addr:city" v="Peru"/>
    <tag k="addr:housenumber" v="146"/>
    <tag k="addr:street" v="Ridges Way"/>
    <tag k="addr:state" v="VT"/>
    <tag k="ref:vcgi:esiteid" v="186805"/>
  </node>
  <node id="-410" visible="true" lat="43.21532871" lon="-72.94523104">
    <tag k="addr:city" v="Peru"/>
    <tag k="addr:housenumber" v="96"/>
    <tag k="addr:street" v="Ridges Way"/>
    <tag k="addr:state" v="VT"/>
    <tag k="ref:vcgi:esiteid" v="186806"/>
  </node>
  <node id="-411" visible="true" lat="43.2153249" lon="-72.94556673">
    <tag k="addr:city" v="Peru"/>
    <tag k="addr:housenumber" v="100"/>
    <tag k="addr:street" v="Ridges Way"/>
    <tag k="addr:state" v="VT"/>
    <tag k="ref:vcgi:esiteid" v="186807"/>
  </node>
  <node id="-412" visible="true" lat="43.21519245" lon="-72.94672248">
    <tag k="addr:city" v="Peru"/>
    <tag k="addr:housenumber" v="151"/>
    <tag k="addr:street" v="Ridges Way"/>
    <tag k="addr:state" v="VT"/>
    <tag k="ref:vcgi:esiteid" v="186808"/>
  </node>
  <node id="-413" visible="true" lat="43.21505992" lon="-72.94553782">
    <tag k="addr:city" v="Peru"/>
    <tag k="addr:housenumber" v="86"/>
    <tag k="addr:street" v="Ridges Way"/>
    <tag k="addr:state" v="VT"/>
    <tag k="ref:vcgi:esiteid" v="186809"/>
  </node>
  <node id="-414" visible="true" lat="43.21502122" lon="-72.94694847">
    <tag k="addr:city" v="Peru"/>
    <tag k="addr:housenumber" v="173"/>
    <tag k="addr:street" v="Ridges Way"/>
    <tag k="addr:state" v="VT"/>
    <tag k="ref:vcgi:esiteid" v="186811"/>
  </node>
  <node id="-415" visible="true" lat="43.21509464" lon="-72.94463859">
    <tag k="addr:city" v="Peru"/>
    <tag k="addr:housenumber" v="53"/>
    <tag k="addr:street" v="Birches Way"/>
    <tag k="addr:state" v="VT"/>
    <tag k="ref:vcgi:esiteid" v="186812"/>
  </node>
  <node id="-416" visible="true" lat="43.21486486" lon="-72.94520809">
    <tag k="addr:city" v="Peru"/>
    <tag k="addr:housenumber" v="32"/>
    <tag k="addr:street" v="Ridges Way"/>
    <tag k="addr:state" v="VT"/>
    <tag k="ref:vcgi:esiteid" v="186813"/>
  </node>
  <node id="-417" visible="true" lat="43.21485903" lon="-72.94204824">
    <tag k="addr:city" v="Peru"/>
    <tag k="addr:housenumber" v="38"/>
    <tag k="addr:street" v="Farm Road"/>
    <tag k="addr:state" v="VT"/>
    <tag k="ref:vcgi:esiteid" v="186814"/>
  </node>
  <node id="-418" visible="true" lat="43.21482801" lon="-72.9427567">
    <tag k="addr:city" v="Peru"/>
    <tag k="addr:housenumber" v="78"/>
    <tag k="addr:street" v="Farm Road"/>
    <tag k="addr:state" v="VT"/>
    <tag k="ref:vcgi:esiteid" v="186815"/>
  </node>
  <node id="-419" visible="true" lat="43.21479352" lon="-72.94720371">
    <tag k="addr:city" v="Peru"/>
    <tag k="addr:housenumber" v="189"/>
    <tag k="addr:street" v="Ridges Way"/>
    <tag k="addr:state" v="VT"/>
    <tag k="ref:vcgi:esiteid" v="186817"/>
  </node>
  <node id="-420" visible="true" lat="43.21470111" lon="-72.94346402">
    <tag k="addr:city" v="Peru"/>
    <tag k="addr:housenumber" v="30"/>
    <tag k="addr:street" v="Birches Run"/>
    <tag k="addr:state" v="VT"/>
    <tag k="ref:vcgi:esiteid" v="186818"/>
  </node>
  <node id="-421" visible="true" lat="43.21484375" lon="-72.89595521">
    <tag k="addr:city" v="Peru"/>
    <tag k="addr:housenumber" v="1020"/>
    <tag k="addr:street" v="South Road"/>
    <tag k="addr:state" v="VT"/>
    <tag k="ref:vcgi:esiteid" v="186819"/>
  </node>
  <node id="-422" visible="true" lat="43.21469146" lon="-72.94650629">
    <tag k="addr:city" v="Peru"/>
    <tag k="addr:housenumber" v="82"/>
    <tag k="addr:street" v="Ridges Run"/>
    <tag k="addr:state" v="VT"/>
    <tag k="ref:vcgi:esiteid" v="186820"/>
  </node>
  <node id="-423" visible="true" lat="43.21457857" lon="-72.94568543">
    <tag k="addr:city" v="Peru"/>
    <tag k="addr:housenumber" v="43"/>
    <tag k="addr:street" v="Ridges Way"/>
    <tag k="addr:state" v="VT"/>
    <tag k="ref:vcgi:esiteid" v="186821"/>
  </node>
  <node id="-424" visible="true" lat="43.21445246" lon="-72.94615051">
    <tag k="addr:city" v="Peru"/>
    <tag k="addr:housenumber" v="57"/>
    <tag k="addr:street" v="Ridges Way"/>
    <tag k="addr:state" v="VT"/>
    <tag k="ref:vcgi:esiteid" v="186822"/>
  </node>
  <node id="-425" visible="true" lat="43.21442569" lon="-72.9472202">
    <tag k="addr:city" v="Peru"/>
    <tag k="addr:housenumber" v="67"/>
    <tag k="addr:street" v="Ridges Run"/>
    <tag k="addr:state" v="VT"/>
    <tag k="ref:vcgi:esiteid" v="186824"/>
  </node>
  <node id="-426" visible="true" lat="43.21455016" lon="-72.94468199">
    <tag k="addr:city" v="Peru"/>
    <tag k="addr:housenumber" v="21"/>
    <tag k="addr:street" v="Birches Way"/>
    <tag k="addr:state" v="VT"/>
    <tag k="ref:vcgi:esiteid" v="186825"/>
  </node>
  <node id="-427" visible="true" lat="43.21423472" lon="-72.94277806">
    <tag k="addr:city" v="Peru"/>
    <tag k="addr:housenumber" v="31"/>
    <tag k="addr:street" v="Farm Road"/>
    <tag k="addr:state" v="VT"/>
    <tag k="ref:vcgi:esiteid" v="186827"/>
  </node>
  <node id="-428" visible="true" lat="43.2143221" lon="-72.94375976">
    <tag k="addr:city" v="Peru"/>
    <tag k="addr:housenumber" v="37"/>
    <tag k="addr:street" v="Birches Run"/>
    <tag k="addr:state" v="VT"/>
    <tag k="ref:vcgi:esiteid" v="186828"/>
  </node>
  <node id="-430" visible="true" lat="43.21420645" lon="-72.94168751">
    <tag k="addr:city" v="Peru"/>
    <tag k="addr:housenumber" v="388"/>
    <tag k="addr:street" v="Ethan Allen Trail"/>
    <tag k="addr:state" v="VT"/>
    <tag k="ref:vcgi:esiteid" v="186830"/>
  </node>
  <node id="-431" visible="true" lat="43.21406011" lon="-72.94551424">
    <tag k="addr:city" v="Peru"/>
    <tag k="addr:housenumber" v="573"/>
    <tag k="addr:street" v="Ethan Allen Trail"/>
    <tag k="addr:state" v="VT"/>
    <tag k="ref:vcgi:esiteid" v="186831"/>
  </node>
  <node id="-433" visible="true" lat="43.21400803" lon="-72.94513653">
    <tag k="addr:city" v="Peru"/>
    <tag k="addr:housenumber" v="555"/>
    <tag k="addr:street" v="Ethan Allen Trail"/>
    <tag k="addr:state" v="VT"/>
    <tag k="ref:vcgi:esiteid" v="186833"/>
  </node>
  <node id="-434" visible="true" lat="43.21391009" lon="-72.94592614">
    <tag k="addr:city" v="Peru"/>
    <tag k="addr:housenumber" v="22"/>
    <tag k="addr:street" v="Clover Lane"/>
    <tag k="addr:state" v="VT"/>
    <tag k="ref:vcgi:esiteid" v="186836"/>
  </node>
  <node id="-435" visible="true" lat="43.21395077" lon="-72.94453769">
    <tag k="addr:city" v="Peru"/>
    <tag k="addr:housenumber" v="9"/>
    <tag k="addr:street" v="Clover Hill Road"/>
    <tag k="addr:state" v="VT"/>
    <tag k="ref:vcgi:esiteid" v="186837"/>
  </node>
  <node id="-436" visible="true" lat="43.21387515" lon="-72.93428848">
    <tag k="addr:city" v="Peru"/>
    <tag k="addr:housenumber" v="22"/>
    <tag k="addr:street" v="Bromley Lodge Road"/>
    <tag k="addr:state" v="VT"/>
    <tag k="ref:vcgi:esiteid" v="186838"/>
  </node>
  <node id="-437" visible="true" lat="43.21400518" lon="-72.93522323">
    <tag k="addr:city" v="Peru"/>
    <tag k="addr:housenumber" v="160"/>
    <tag k="addr:street" v="Bromley Lodge Road"/>
    <tag k="addr:state" v="VT"/>
    <tag k="ref:vcgi:esiteid" v="186839"/>
  </node>
  <node id="-438" visible="true" lat="43.21388523" lon="-72.94048698">
    <tag k="addr:city" v="Peru"/>
    <tag k="addr:housenumber" v="63"/>
    <tag k="addr:street" v="The Pines"/>
    <tag k="addr:state" v="VT"/>
    <tag k="ref:vcgi:esiteid" v="186840"/>
  </node>
  <node id="-440" visible="true" lat="43.21377841" lon="-72.944827">
    <tag k="addr:city" v="Peru"/>
    <tag k="addr:housenumber" v="27"/>
    <tag k="addr:street" v="Clover Hill Road"/>
    <tag k="addr:state" v="VT"/>
    <tag k="ref:vcgi:esiteid" v="186842"/>
  </node>
  <node id="-441" visible="true" lat="43.21377988" lon="-72.93992963">
    <tag k="addr:city" v="Peru"/>
    <tag k="addr:housenumber" v="96"/>
    <tag k="addr:street" v="The Pines"/>
    <tag k="addr:state" v="VT"/>
    <tag k="ref:vcgi:esiteid" v="186844"/>
  </node>
  <node id="-442" visible="true" lat="43.21367923" lon="-72.94519321">
    <tag k="addr:city" v="Peru"/>
    <tag k="addr:housenumber" v="43"/>
    <tag k="addr:street" v="Clover Hill Road"/>
    <tag k="addr:state" v="VT"/>
    <tag k="ref:vcgi:esiteid" v="186845"/>
  </node>
  <node id="-443" visible="true" lat="43.2136812" lon="-72.94585748">
    <tag k="addr:city" v="Peru"/>
    <tag k="addr:housenumber" v="38"/>
    <tag k="addr:street" v="Clover Lane"/>
    <tag k="addr:state" v="VT"/>
    <tag k="ref:vcgi:esiteid" v="186846"/>
  </node>
  <node id="-444" visible="true" lat="43.21364517" lon="-72.94155574">
    <tag k="addr:city" v="Peru"/>
    <tag k="addr:housenumber" v="366"/>
    <tag k="addr:street" v="Ethan Allen Trail"/>
    <tag k="addr:state" v="VT"/>
    <tag k="ref:vcgi:esiteid" v="186848"/>
  </node>
  <node id="-445" visible="true" lat="43.21357638" lon="-72.94454539">
    <tag k="addr:city" v="Peru"/>
    <tag k="addr:housenumber" v="66"/>
    <tag k="addr:street" v="Clover Pond Road"/>
    <tag k="addr:state" v="VT"/>
    <tag k="ref:vcgi:esiteid" v="186850"/>
  </node>
  <node id="-446" visible="true" lat="43.21358707" lon="-72.94712454">
    <tag k="addr:city" v="Peru"/>
    <tag k="addr:housenumber" v="677"/>
    <tag k="addr:street" v="Ethan Allen Trail"/>
    <tag k="addr:state" v="VT"/>
    <tag k="ref:vcgi:esiteid" v="186852"/>
  </node>
  <node id="-447" visible="true" lat="43.21346893" lon="-72.94038895">
    <tag k="addr:city" v="Peru"/>
    <tag k="addr:housenumber" v="72"/>
    <tag k="addr:street" v="The Pines"/>
    <tag k="addr:state" v="VT"/>
    <tag k="ref:vcgi:esiteid" v="186853"/>
  </node>
  <node id="-448" visible="true" lat="43.21343308" lon="-72.94224407">
    <tag k="addr:city" v="Peru"/>
    <tag k="addr:housenumber" v="372"/>
    <tag k="addr:street" v="Minute Man Lane"/>
    <tag k="addr:state" v="VT"/>
    <tag k="ref:vcgi:esiteid" v="186854"/>
  </node>
  <node id="-449" visible="true" lat="43.21339694" lon="-72.94501773">
    <tag k="addr:city" v="Peru"/>
    <tag k="addr:housenumber" v="79"/>
    <tag k="addr:street" v="Clover Lane"/>
    <tag k="addr:state" v="VT"/>
    <tag k="ref:vcgi:esiteid" v="186855"/>
  </node>
  <node id="-450" visible="true" lat="43.21352861" lon="-72.89381502">
    <tag k="addr:city" v="Peru"/>
    <tag k="addr:housenumber" v="1265"/>
    <tag k="addr:street" v="South Road"/>
    <tag k="addr:state" v="VT"/>
    <tag k="ref:vcgi:esiteid" v="186856"/>
  </node>
  <node id="-451" visible="true" lat="43.21340179" lon="-72.93502047">
    <tag k="addr:city" v="Peru"/>
    <tag k="addr:housenumber" v="124"/>
    <tag k="addr:street" v="Bromley Lodge Road"/>
    <tag k="addr:state" v="VT"/>
    <tag k="ref:vcgi:esiteid" v="186857"/>
  </node>
  <node id="-452" visible="true" lat="43.21332828" lon="-72.94553653">
    <tag k="addr:city" v="Peru"/>
    <tag k="addr:housenumber" v="66"/>
    <tag k="addr:street" v="Clover Lane"/>
    <tag k="addr:state" v="VT"/>
    <tag k="ref:vcgi:esiteid" v="186858"/>
  </node>
  <node id="-453" visible="true" lat="43.21330263" lon="-72.94415972">
    <tag k="addr:city" v="Peru"/>
    <tag k="addr:housenumber" v="47"/>
    <tag k="addr:street" v="Clover Pond Road"/>
    <tag k="addr:state" v="VT"/>
    <tag k="ref:vcgi:esiteid" v="186860"/>
  </node>
  <node id="-454" visible="true" lat="43.21330261" lon="-72.93537906">
    <tag k="addr:city" v="Peru"/>
    <tag k="addr:housenumber" v="144"/>
    <tag k="addr:street" v="Bromley Lodge Road"/>
    <tag k="addr:state" v="VT"/>
    <tag k="ref:vcgi:esiteid" v="186861"/>
  </node>
  <node id="-455" visible="true" lat="43.2132445" lon="-72.94459879">
    <tag k="addr:city" v="Peru"/>
    <tag k="addr:housenumber" v="67"/>
    <tag k="addr:street" v="Clover Pond Road"/>
    <tag k="addr:state" v="VT"/>
    <tag k="ref:vcgi:esiteid" v="186863"/>
  </node>
  <node id="-456" visible="true" lat="43.21320314" lon="-72.94713603">
    <tag k="addr:city" v="Peru"/>
    <tag k="addr:housenumber" v="687"/>
    <tag k="addr:street" v="Ethan Allen Trail"/>
    <tag k="addr:state" v="VT"/>
    <tag k="ref:vcgi:esiteid" v="186864"/>
  </node>
  <node id="-457" visible="true" lat="43.21312641" lon="-72.9426681">
    <tag k="addr:city" v="Peru"/>
    <tag k="addr:housenumber" v="336"/>
    <tag k="addr:street" v="Minute Man Lane"/>
    <tag k="addr:state" v="VT"/>
    <tag k="ref:vcgi:esiteid" v="186865"/>
  </node>
  <node id="-458" visible="true" lat="43.21307471" lon="-72.94372925">
    <tag k="addr:city" v="Peru"/>
    <tag k="addr:housenumber" v="11"/>
    <tag k="addr:street" v="Clovers Way"/>
    <tag k="addr:state" v="VT"/>
    <tag k="ref:vcgi:esiteid" v="186867"/>
  </node>
  <node id="-460" visible="true" lat="43.2130698" lon="-72.94535646">
    <tag k="addr:city" v="Peru"/>
    <tag k="addr:housenumber" v="84"/>
    <tag k="addr:street" v="Clover Lane"/>
    <tag k="addr:state" v="VT"/>
    <tag k="ref:vcgi:esiteid" v="186870"/>
  </node>
  <node id="-461" visible="true" lat="43.2130164" lon="-72.94502076">
    <tag k="addr:city" v="Peru"/>
    <tag k="addr:housenumber" v="94"/>
    <tag k="addr:street" v="Clover Lane"/>
    <tag k="addr:state" v="VT"/>
    <tag k="ref:vcgi:esiteid" v="186871"/>
  </node>
  <node id="-462" visible="true" lat="43.21297168" lon="-72.94450196">
    <tag k="addr:city" v="Peru"/>
    <tag k="addr:housenumber" v="45"/>
    <tag k="addr:street" v="Clovers Way"/>
    <tag k="addr:state" v="VT"/>
    <tag k="ref:vcgi:esiteid" v="186872"/>
  </node>
  <node id="-463" visible="true" lat="43.21290301" lon="-72.94418915">
    <tag k="addr:city" v="Peru"/>
    <tag k="addr:housenumber" v="33"/>
    <tag k="addr:street" v="Clovers Way"/>
    <tag k="addr:state" v="VT"/>
    <tag k="ref:vcgi:esiteid" v="186873"/>
  </node>
  <node id="-464" visible="true" lat="43.21288365" lon="-72.93319393">
    <tag k="addr:city" v="Peru"/>
    <tag k="addr:housenumber" v="70"/>
    <tag k="addr:street" v="Service Road"/>
    <tag k="addr:state" v="VT"/>
    <tag k="ref:vcgi:esiteid" v="186874"/>
  </node>
  <node id="-465" visible="true" lat="43.21274716" lon="-72.94335071">
    <tag k="addr:city" v="Peru"/>
    <tag k="addr:housenumber" v="304"/>
    <tag k="addr:street" v="Minute Man Lane"/>
    <tag k="addr:state" v="VT"/>
    <tag k="ref:vcgi:esiteid" v="186876"/>
  </node>
  <node id="-466" visible="true" lat="43.21286562" lon="-72.88646857">
    <tag k="addr:city" v="Peru"/>
    <tag k="addr:housenumber" v="447"/>
    <tag k="addr:street" v="Rock Bottom Lane"/>
    <tag k="addr:state" v="VT"/>
    <tag k="ref:vcgi:esiteid" v="186877"/>
  </node>
  <node id="-467" visible="true" lat="43.21280772" lon="-72.93375489">
    <tag k="addr:city" v="Peru"/>
    <tag k="addr:housenumber" v="92"/>
    <tag k="addr:street" v="Service Road"/>
    <tag k="addr:state" v="VT"/>
    <tag k="ref:vcgi:esiteid" v="186878"/>
  </node>
  <node id="-468" visible="true" lat="43.21254761" lon="-72.94732004">
    <tag k="addr:city" v="Peru"/>
    <tag k="addr:housenumber" v="12"/>
    <tag k="addr:street" v="Sugar Brook Road"/>
    <tag k="addr:state" v="VT"/>
    <tag k="ref:vcgi:esiteid" v="186879"/>
  </node>
  <node id="-469" visible="true" lat="43.21249169" lon="-72.94309772">
    <tag k="addr:city" v="Peru"/>
    <tag k="addr:housenumber" v="242"/>
    <tag k="addr:street" v="Minute Man Lane"/>
    <tag k="addr:state" v="VT"/>
    <tag k="ref:vcgi:esiteid" v="186880"/>
  </node>
  <node id="-470" visible="true" lat="43.21252982" lon="-72.94002628">
    <tag k="addr:city" v="Peru"/>
    <tag k="addr:housenumber" v="256"/>
    <tag k="addr:street" v="Sap Bucket Circle"/>
    <tag k="addr:state" v="VT"/>
    <tag k="ref:vcgi:esiteid" v="186881"/>
  </node>
  <node id="-471" visible="true" lat="43.2124771" lon="-72.94054358">
    <tag k="addr:city" v="Peru"/>
    <tag k="addr:housenumber" v="276"/>
    <tag k="addr:street" v="Sap Bucket Circle"/>
    <tag k="addr:state" v="VT"/>
    <tag k="ref:vcgi:esiteid" v="186882"/>
  </node>
  <node id="-472" visible="true" lat="43.2124325" lon="-72.94101941">
    <tag k="addr:city" v="Peru"/>
    <tag k="addr:housenumber" v="300"/>
    <tag k="addr:street" v="Sap Bucket Circle"/>
    <tag k="addr:state" v="VT"/>
    <tag k="ref:vcgi:esiteid" v="186883"/>
  </node>
  <node id="-473" visible="true" lat="43.21235941" lon="-72.93364746">
    <tag k="addr:city" v="Peru"/>
    <tag k="addr:housenumber" v="95"/>
    <tag k="addr:street" v="Service Road"/>
    <tag k="addr:state" v="VT"/>
    <tag k="ref:vcgi:esiteid" v="186884"/>
  </node>
  <node id="-474" visible="true" lat="43.21234807" lon="-72.94270039">
    <tag k="addr:city" v="Peru"/>
    <tag k="addr:housenumber" v="47"/>
    <tag k="addr:street" v="Blackberry Lane"/>
    <tag k="addr:state" v="VT"/>
    <tag k="ref:vcgi:esiteid" v="186885"/>
  </node>
  <node id="-475" visible="true" lat="43.21227846" lon="-72.9336479">
    <tag k="addr:city" v="Peru"/>
    <tag k="addr:housenumber" v="97"/>
    <tag k="addr:street" v="Service Road"/>
    <tag k="addr:state" v="VT"/>
    <tag k="ref:vcgi:esiteid" v="186886"/>
  </node>
  <node id="-476" visible="true" lat="43.21223877" lon="-72.94728548">
    <tag k="addr:city" v="Peru"/>
    <tag k="addr:housenumber" v="34"/>
    <tag k="addr:street" v="Sugar Brook Road"/>
    <tag k="addr:state" v="VT"/>
    <tag k="ref:vcgi:esiteid" v="186888"/>
  </node>
  <node id="-477" visible="true" lat="43.21217016" lon="-72.94198533">
    <tag k="addr:city" v="Peru"/>
    <tag k="addr:housenumber" v="54"/>
    <tag k="addr:street" v="Blackberry Lane"/>
    <tag k="addr:state" v="VT"/>
    <tag k="ref:vcgi:esiteid" v="186889"/>
  </node>
  <node id="-478" visible="true" lat="43.21215485" lon="-72.94676669">
    <tag k="addr:city" v="Peru"/>
    <tag k="addr:housenumber" v="35"/>
    <tag k="addr:street" v="Sugar Brook Road"/>
    <tag k="addr:state" v="VT"/>
    <tag k="ref:vcgi:esiteid" v="186891"/>
  </node>
  <node id="-479" visible="true" lat="43.21241886" lon="-72.93656955">
    <tag k="addr:city" v="Peru"/>
    <tag k="addr:housenumber" v="4216"/>
    <tag k="addr:street" v="Vermont Route 11"/>
    <tag k="addr:state" v="VT"/>
    <tag k="ref:vcgi:esiteid" v="186892"/>
  </node>
  <node id="-480" visible="true" lat="43.21188016" lon="-72.94280075">
    <tag k="addr:city" v="Peru"/>
    <tag k="addr:housenumber" v="20"/>
    <tag k="addr:street" v="Blackberry Lane"/>
    <tag k="addr:state" v="VT"/>
    <tag k="ref:vcgi:esiteid" v="186893"/>
  </node>
  <node id="-481" visible="true" lat="43.21195055" lon="-72.93861113">
    <tag k="addr:city" v="Peru"/>
    <tag k="addr:housenumber" v="208"/>
    <tag k="addr:street" v="Sap Bucket Circle"/>
    <tag k="addr:state" v="VT"/>
    <tag k="ref:vcgi:esiteid" v="186894"/>
  </node>
  <node id="-482" visible="true" lat="43.21186166" lon="-72.93979109">
    <tag k="addr:city" v="Peru"/>
    <tag k="addr:housenumber" v="227"/>
    <tag k="addr:street" v="Sap Bucket Circle"/>
    <tag k="addr:state" v="VT"/>
    <tag k="ref:vcgi:esiteid" v="186896"/>
  </node>
  <node id="-483" visible="true" lat="43.21178901" lon="-72.94223479">
    <tag k="addr:city" v="Peru"/>
    <tag k="addr:housenumber" v="36"/>
    <tag k="addr:street" v="Blackberry Lane"/>
    <tag k="addr:state" v="VT"/>
    <tag k="ref:vcgi:esiteid" v="186897"/>
  </node>
  <node id="-484" visible="true" lat="43.21177449" lon="-72.94125597">
    <tag k="addr:city" v="Peru"/>
    <tag k="addr:housenumber" v="317"/>
    <tag k="addr:street" v="Sap Bucket Circle"/>
    <tag k="addr:state" v="VT"/>
    <tag k="ref:vcgi:esiteid" v="186898"/>
  </node>
  <node id="-485" visible="true" lat="43.21176956" lon="-72.94682009">
    <tag k="addr:city" v="Peru"/>
    <tag k="addr:housenumber" v="59"/>
    <tag k="addr:street" v="Sugar Brook Road"/>
    <tag k="addr:state" v="VT"/>
    <tag k="ref:vcgi:esiteid" v="186899"/>
  </node>
  <node id="-486" visible="true" lat="43.21177617" lon="-72.94739905">
    <tag k="addr:city" v="Peru"/>
    <tag k="addr:housenumber" v="66"/>
    <tag k="addr:street" v="Sugar Brook Road"/>
    <tag k="addr:state" v="VT"/>
    <tag k="ref:vcgi:esiteid" v="186900"/>
  </node>
  <node id="-487" visible="true" lat="43.2116731" lon="-72.94569681">
    <tag k="addr:city" v="Peru"/>
    <tag k="addr:housenumber" v="821"/>
    <tag k="addr:street" v="Ethan Allen Trail"/>
    <tag k="addr:state" v="VT"/>
    <tag k="ref:vcgi:esiteid" v="186901"/>
  </node>
  <node id="-488" visible="true" lat="43.21192488" lon="-72.88179926">
    <tag k="addr:city" v="Peru"/>
    <tag k="addr:housenumber" v="392"/>
    <tag k="addr:street" v="Rock Bottom Lane"/>
    <tag k="addr:state" v="VT"/>
    <tag k="ref:vcgi:esiteid" v="186902"/>
  </node>
  <node id="-489" visible="true" lat="43.21181889" lon="-72.94055671">
    <tag k="addr:city" v="Peru"/>
    <tag k="addr:housenumber" v="285"/>
    <tag k="addr:street" v="Sap Bucket Circle"/>
    <tag k="addr:state" v="VT"/>
    <tag k="ref:vcgi:esiteid" v="186903"/>
  </node>
  <node id="-490" visible="true" lat="43.21167132" lon="-72.94366764">
    <tag k="addr:city" v="Peru"/>
    <tag k="addr:housenumber" v="187"/>
    <tag k="addr:street" v="Minute Man Lane"/>
    <tag k="addr:state" v="VT"/>
    <tag k="ref:vcgi:esiteid" v="186904"/>
  </node>
  <node id="-491" visible="true" lat="43.21177288" lon="-72.88600956">
    <tag k="addr:city" v="Peru"/>
    <tag k="addr:housenumber" v="445"/>
    <tag k="addr:street" v="Rock Bottom Lane"/>
    <tag k="addr:state" v="VT"/>
    <tag k="ref:vcgi:esiteid" v="186905"/>
  </node>
  <node id="-492" visible="true" lat="43.2115483" lon="-72.94299804">
    <tag k="addr:city" v="Peru"/>
    <tag k="addr:housenumber" v="188"/>
    <tag k="addr:street" v="Minute Man Lane"/>
    <tag k="addr:state" v="VT"/>
    <tag k="ref:vcgi:esiteid" v="186906"/>
  </node>
  <node id="-493" visible="true" lat="43.21148577" lon="-72.90909395">
    <tag k="addr:city" v="Peru"/>
    <tag k="addr:housenumber" v="983"/>
    <tag k="addr:street" v="Old Manchester Road"/>
    <tag k="addr:state" v="VT"/>
    <tag k="ref:vcgi:esiteid" v="186907"/>
  </node>
  <node id="-494" visible="true" lat="43.21162921" lon="-72.93387369">
    <tag k="addr:city" v="Peru"/>
    <tag k="addr:housenumber" v="159"/>
    <tag k="addr:street" v="Service Road"/>
    <tag k="addr:state" v="VT"/>
    <tag k="ref:vcgi:esiteid" v="186908"/>
  </node>
  <node id="-495" visible="true" lat="43.21142068" lon="-72.94233905">
    <tag k="addr:city" v="Peru"/>
    <tag k="addr:housenumber" v="213"/>
    <tag k="addr:street" v="Ethan Allen Trail"/>
    <tag k="addr:state" v="VT"/>
    <tag k="ref:vcgi:esiteid" v="186909"/>
  </node>
  <node id="-496" visible="true" lat="43.21149458" lon="-72.93995588">
    <tag k="addr:city" v="Peru"/>
    <tag k="addr:housenumber" v="157"/>
    <tag k="addr:street" v="Sap Bucket Circle"/>
    <tag k="addr:state" v="VT"/>
    <tag k="ref:vcgi:esiteid" v="186910"/>
  </node>
  <node id="-497" visible="true" lat="43.21146539" lon="-72.94108553">
    <tag k="addr:city" v="Peru"/>
    <tag k="addr:housenumber" v="208"/>
    <tag k="addr:street" v="Ethan Allen Trail"/>
    <tag k="addr:state" v="VT"/>
    <tag k="ref:vcgi:esiteid" v="186911"/>
  </node>
  <node id="-498" visible="true" lat="43.21135376" lon="-72.94734652">
    <tag k="addr:city" v="Peru"/>
    <tag k="addr:housenumber" v="88"/>
    <tag k="addr:street" v="Sugar Brook Road"/>
    <tag k="addr:state" v="VT"/>
    <tag k="ref:vcgi:esiteid" v="186913"/>
  </node>
  <node id="-499" visible="true" lat="43.21123523" lon="-72.94636331">
    <tag k="addr:city" v="Peru"/>
    <tag k="addr:housenumber" v="111"/>
    <tag k="addr:street" v="Sugar Brook Road"/>
    <tag k="addr:state" v="VT"/>
    <tag k="ref:vcgi:esiteid" v="186914"/>
  </node>
  <node id="-500" visible="true" lat="43.21127091" lon="-72.93867999">
    <tag k="addr:city" v="Peru"/>
    <tag k="addr:housenumber" v="188"/>
    <tag k="addr:street" v="Sap Bucket Circle"/>
    <tag k="addr:state" v="VT"/>
    <tag k="ref:vcgi:esiteid" v="186915"/>
  </node>
  <node id="-501" visible="true" lat="43.21123237" lon="-72.94567443">
    <tag k="addr:city" v="Peru"/>
    <tag k="addr:housenumber" v="871"/>
    <tag k="addr:street" v="Ethan Allen Trail"/>
    <tag k="addr:state" v="VT"/>
    <tag k="ref:vcgi:esiteid" v="186917"/>
  </node>
  <node id="-502" visible="true" lat="43.21114096" lon="-72.94397153">
    <tag k="addr:city" v="Peru"/>
    <tag k="addr:housenumber" v="36"/>
    <tag k="addr:street" v="Minute Man Way"/>
    <tag k="addr:state" v="VT"/>
    <tag k="ref:vcgi:esiteid" v="186918"/>
  </node>
  <node id="-503" visible="true" lat="43.21115989" lon="-72.94523192">
    <tag k="addr:city" v="Peru"/>
    <tag k="addr:housenumber" v="85"/>
    <tag k="addr:street" v="Minute Man Way"/>
    <tag k="addr:state" v="VT"/>
    <tag k="ref:vcgi:esiteid" v="186919"/>
  </node>
  <node id="-504" visible="true" lat="43.2111684" lon="-72.94324043">
    <tag k="addr:city" v="Peru"/>
    <tag k="addr:housenumber" v="146"/>
    <tag k="addr:street" v="Minute Man Lane"/>
    <tag k="addr:state" v="VT"/>
    <tag k="ref:vcgi:esiteid" v="186921"/>
  </node>
  <node id="-505" visible="true" lat="43.21119862" lon="-72.92799954">
    <tag k="addr:city" v="Peru"/>
    <tag k="addr:housenumber" v="126"/>
    <tag k="addr:street" v="Hubble Road"/>
    <tag k="addr:state" v="VT"/>
    <tag k="ref:vcgi:esiteid" v="186922"/>
  </node>
  <node id="-506" visible="true" lat="43.21117673" lon="-72.9404007">
    <tag k="addr:city" v="Peru"/>
    <tag k="addr:housenumber" v="127"/>
    <tag k="addr:street" v="Sap Bucket Circle"/>
    <tag k="addr:state" v="VT"/>
    <tag k="ref:vcgi:esiteid" v="186924"/>
  </node>
  <node id="-507" visible="true" lat="43.21128861" lon="-72.88156271">
    <tag k="addr:city" v="Peru"/>
    <tag k="addr:housenumber" v="382"/>
    <tag k="addr:street" v="Rock Bottom Lane"/>
    <tag k="addr:state" v="VT"/>
    <tag k="ref:vcgi:esiteid" v="186925"/>
  </node>
  <node id="-508" visible="true" lat="43.21095387" lon="-72.94482705">
    <tag k="addr:city" v="Peru"/>
    <tag k="addr:housenumber" v="71"/>
    <tag k="addr:street" v="Minute Man Way"/>
    <tag k="addr:state" v="VT"/>
    <tag k="ref:vcgi:esiteid" v="186926"/>
  </node>
  <node id="-509" visible="true" lat="43.21104045" lon="-72.94098565">
    <tag k="addr:city" v="Peru"/>
    <tag k="addr:housenumber" v="97"/>
    <tag k="addr:street" v="Sap Bucket Circle"/>
    <tag k="addr:state" v="VT"/>
    <tag k="ref:vcgi:esiteid" v="186927"/>
  </node>
  <node id="-510" visible="true" lat="43.21096405" lon="-72.94171872">
    <tag k="addr:city" v="Peru"/>
    <tag k="addr:housenumber" v="188"/>
    <tag k="addr:street" v="Ethan Allen Trail"/>
    <tag k="addr:state" v="VT"/>
    <tag k="ref:vcgi:esiteid" v="186928"/>
  </node>
  <node id="-511" visible="true" lat="43.21096" lon="-72.93925742">
    <tag k="addr:city" v="Peru"/>
    <tag k="addr:housenumber" v="166"/>
    <tag k="addr:street" v="Sap Bucket Circle"/>
    <tag k="addr:state" v="VT"/>
    <tag k="ref:vcgi:esiteid" v="186929"/>
  </node>
  <node id="-512" visible="true" lat="43.21091479" lon="-72.93774559">
    <tag k="addr:city" v="Peru"/>
    <tag k="addr:housenumber" v="4324"/>
    <tag k="addr:street" v="Vermont Route 11"/>
    <tag k="addr:state" v="VT"/>
    <tag k="ref:vcgi:esiteid" v="186930"/>
  </node>
  <node id="-513" visible="true" lat="43.21083652" lon="-72.94251564">
    <tag k="addr:city" v="Peru"/>
    <tag k="addr:housenumber" v="173"/>
    <tag k="addr:street" v="Ethan Allen Trail"/>
    <tag k="addr:state" v="VT"/>
    <tag k="ref:vcgi:esiteid" v="186931"/>
  </node>
  <node id="-514" visible="true" lat="43.21088988" lon="-72.93968968">
    <tag k="addr:city" v="Peru"/>
    <tag k="addr:housenumber" v="152"/>
    <tag k="addr:street" v="Sap Bucket Circle"/>
    <tag k="addr:state" v="VT"/>
    <tag k="ref:vcgi:esiteid" v="186932"/>
  </node>
  <node id="-515" visible="true" lat="43.21075341" lon="-72.94430176">
    <tag k="addr:city" v="Peru"/>
    <tag k="addr:housenumber" v="19"/>
    <tag k="addr:street" v="Minute Man Way"/>
    <tag k="addr:state" v="VT"/>
    <tag k="ref:vcgi:esiteid" v="186933"/>
  </node>
  <node id="-516" visible="true" lat="43.21071236" lon="-72.94663852">
    <tag k="addr:city" v="Peru"/>
    <tag k="addr:housenumber" v="132"/>
    <tag k="addr:street" v="Sugar Brook Road"/>
    <tag k="addr:state" v="VT"/>
    <tag k="ref:vcgi:esiteid" v="186935"/>
  </node>
  <node id="-517" visible="true" lat="43.21067098" lon="-72.92490369">
    <tag k="addr:city" v="Peru"/>
    <tag k="addr:housenumber" v="131"/>
    <tag k="addr:street" v="Hubble Road"/>
    <tag k="addr:state" v="VT"/>
    <tag k="ref:vcgi:esiteid" v="186937"/>
  </node>
  <node id="-518" visible="true" lat="43.21064239" lon="-72.94561355">
    <tag k="addr:city" v="Peru"/>
    <tag k="addr:housenumber" v="915"/>
    <tag k="addr:street" v="Ethan Allen Trail"/>
    <tag k="addr:state" v="VT"/>
    <tag k="ref:vcgi:esiteid" v="186938"/>
  </node>
  <node id="-519" visible="true" lat="43.21073501" lon="-72.93798282">
    <tag k="addr:city" v="Peru"/>
    <tag k="addr:housenumber" v="4348"/>
    <tag k="addr:street" v="Vermont Route 11"/>
    <tag k="addr:state" v="VT"/>
    <tag k="ref:vcgi:esiteid" v="186939"/>
  </node>
  <node id="-520" visible="true" lat="43.21057712" lon="-72.94320991">
    <tag k="addr:city" v="Peru"/>
    <tag k="addr:housenumber" v="126"/>
    <tag k="addr:street" v="Minute Man Lane"/>
    <tag k="addr:state" v="VT"/>
    <tag k="ref:vcgi:esiteid" v="186940"/>
  </node>
  <node id="-521" visible="true" lat="43.21055087" lon="-72.92216566">
    <tag k="addr:city" v="Peru"/>
    <tag k="addr:housenumber" v="133"/>
    <tag k="addr:street" v="Hubble Road"/>
    <tag k="addr:state" v="VT"/>
    <tag k="ref:vcgi:esiteid" v="186941"/>
  </node>
  <node id="-522" visible="true" lat="43.21053257" lon="-72.94503619">
    <tag k="addr:city" v="Peru"/>
    <tag k="addr:housenumber" v="44"/>
    <tag k="addr:street" v="Minute Man Lane"/>
    <tag k="addr:state" v="VT"/>
    <tag k="ref:vcgi:esiteid" v="186942"/>
  </node>
  <node id="-523" visible="true" lat="43.21057185" lon="-72.93826087">
    <tag k="addr:city" v="Peru"/>
    <tag k="addr:housenumber" v="4362"/>
    <tag k="addr:street" v="Vermont Route 11"/>
    <tag k="addr:state" v="VT"/>
    <tag k="ref:vcgi:esiteid" v="186943"/>
  </node>
  <node id="-524" visible="true" lat="43.21030974" lon="-72.94546997">
    <tag k="addr:city" v="Peru"/>
    <tag k="addr:housenumber" v="935"/>
    <tag k="addr:street" v="Ethan Allen Trail"/>
    <tag k="addr:state" v="VT"/>
    <tag k="ref:vcgi:esiteid" v="186945"/>
  </node>
  <node id="-525" visible="true" lat="43.21042097" lon="-72.94279937">
    <tag k="addr:city" v="Peru"/>
    <tag k="addr:housenumber" v="139"/>
    <tag k="addr:street" v="Ethan Allen Trail"/>
    <tag k="addr:state" v="VT"/>
    <tag k="ref:vcgi:esiteid" v="186947"/>
  </node>
  <node id="-526" visible="true" lat="43.21027815" lon="-72.94445605">
    <tag k="addr:city" v="Peru"/>
    <tag k="addr:housenumber" v="82"/>
    <tag k="addr:street" v="Minute Man Lane"/>
    <tag k="addr:state" v="VT"/>
    <tag k="ref:vcgi:esiteid" v="186948"/>
  </node>
  <node id="-527" visible="true" lat="43.21026289" lon="-72.94389148">
    <tag k="addr:city" v="Peru"/>
    <tag k="addr:housenumber" v="98"/>
    <tag k="addr:street" v="Minute Man Lane"/>
    <tag k="addr:state" v="VT"/>
    <tag k="ref:vcgi:esiteid" v="186949"/>
  </node>
  <node id="-528" visible="true" lat="43.21016317" lon="-72.94152267">
    <tag k="addr:city" v="Peru"/>
    <tag k="addr:housenumber" v="68"/>
    <tag k="addr:street" v="Willows Way"/>
    <tag k="addr:state" v="VT"/>
    <tag k="ref:vcgi:esiteid" v="186950"/>
  </node>
  <node id="-529" visible="true" lat="43.21022418" lon="-72.88420589">
    <tag k="addr:city" v="Peru"/>
    <tag k="addr:housenumber" v="279"/>
    <tag k="addr:street" v="Rock Bottom Lane"/>
    <tag k="addr:state" v="VT"/>
    <tag k="ref:vcgi:esiteid" v="186951"/>
  </node>
  <node id="-530" visible="true" lat="43.20994486" lon="-72.94529803">
    <tag k="addr:city" v="Peru"/>
    <tag k="addr:housenumber" v="26"/>
    <tag k="addr:street" v="High Ridge Road"/>
    <tag k="addr:state" v="VT"/>
    <tag k="ref:vcgi:esiteid" v="186952"/>
  </node>
  <node id="-531" visible="true" lat="43.21001572" lon="-72.87990664">
    <tag k="addr:city" v="Peru"/>
    <tag k="addr:housenumber" v="384"/>
    <tag k="addr:street" v="Rock Bottom Lane"/>
    <tag k="addr:state" v="VT"/>
    <tag k="ref:vcgi:esiteid" v="186953"/>
  </node>
  <node id="-532" visible="true" lat="43.20968759" lon="-72.94342946">
    <tag k="addr:city" v="Peru"/>
    <tag k="addr:housenumber" v="116"/>
    <tag k="addr:street" v="High Ridge Road"/>
    <tag k="addr:state" v="VT"/>
    <tag k="ref:vcgi:esiteid" v="186954"/>
  </node>
  <node id="-533" visible="true" lat="43.20958479" lon="-72.94434219">
    <tag k="addr:city" v="Peru"/>
    <tag k="addr:housenumber" v="74"/>
    <tag k="addr:street" v="High Ridge Road"/>
    <tag k="addr:state" v="VT"/>
    <tag k="ref:vcgi:esiteid" v="186955"/>
  </node>
  <node id="-534" visible="true" lat="43.20958098" lon="-72.94388443">
    <tag k="addr:city" v="Peru"/>
    <tag k="addr:housenumber" v="96"/>
    <tag k="addr:street" v="High Ridge Road"/>
    <tag k="addr:state" v="VT"/>
    <tag k="ref:vcgi:esiteid" v="186956"/>
  </node>
  <node id="-535" visible="true" lat="43.20961757" lon="-72.92657755">
    <tag k="addr:city" v="Peru"/>
    <tag k="addr:housenumber" v="212"/>
    <tag k="addr:street" v="Hubble Road"/>
    <tag k="addr:state" v="VT"/>
    <tag k="ref:vcgi:esiteid" v="186957"/>
  </node>
  <node id="-536" visible="true" lat="43.20940662" lon="-72.94220202">
    <tag k="addr:city" v="Peru"/>
    <tag k="addr:housenumber" v="66"/>
    <tag k="addr:street" v="Ethan Allen Trail"/>
    <tag k="addr:state" v="VT"/>
    <tag k="ref:vcgi:esiteid" v="186959"/>
  </node>
  <node id="-537" visible="true" lat="43.20949383" lon="-72.88368721">
    <tag k="addr:city" v="Peru"/>
    <tag k="addr:housenumber" v="281"/>
    <tag k="addr:street" v="Rock Bottom Lane"/>
    <tag k="addr:state" v="VT"/>
    <tag k="ref:vcgi:esiteid" v="186960"/>
  </node>
  <node id="-538" visible="true" lat="43.20920206" lon="-72.8995523">
    <tag k="addr:city" v="Peru"/>
    <tag k="addr:housenumber" v="1547"/>
    <tag k="addr:street" v="Old Manchester Road"/>
    <tag k="addr:state" v="VT"/>
    <tag k="ref:vcgi:esiteid" v="186961"/>
  </node>
  <node id="-539" visible="true" lat="43.2090301" lon="-72.90059828">
    <tag k="addr:city" v="Peru"/>
    <tag k="addr:housenumber" v="1461"/>
    <tag k="addr:street" v="Old Manchester Road"/>
    <tag k="addr:state" v="VT"/>
    <tag k="ref:vcgi:esiteid" v="186962"/>
  </node>
  <node id="-540" visible="true" lat="43.20907094" lon="-72.88652938">
    <tag k="addr:city" v="Peru"/>
    <tag k="addr:housenumber" v="1949"/>
    <tag k="addr:street" v="South Road"/>
    <tag k="addr:state" v="VT"/>
    <tag k="ref:vcgi:esiteid" v="186963"/>
  </node>
  <node id="-541" visible="true" lat="43.20893976" lon="-72.8985505">
    <tag k="addr:city" v="Peru"/>
    <tag k="addr:housenumber" v="1549"/>
    <tag k="addr:street" v="Old Manchester Road"/>
    <tag k="addr:state" v="VT"/>
    <tag k="ref:vcgi:esiteid" v="186964"/>
  </node>
  <node id="-542" visible="true" lat="43.20863581" lon="-72.92492371">
    <tag k="addr:city" v="Peru"/>
    <tag k="addr:housenumber" v="308"/>
    <tag k="addr:street" v="Hubble Road"/>
    <tag k="addr:state" v="VT"/>
    <tag k="ref:vcgi:esiteid" v="186965"/>
  </node>
  <node id="-543" visible="true" lat="43.20816187" lon="-72.89867949">
    <tag k="addr:city" v="Peru"/>
    <tag k="addr:housenumber" v="1577"/>
    <tag k="addr:street" v="Old Manchester Road"/>
    <tag k="addr:state" v="VT"/>
    <tag k="ref:vcgi:esiteid" v="186966"/>
  </node>
  <node id="-544" visible="true" lat="43.20808598" lon="-72.88759252">
    <tag k="addr:city" v="Peru"/>
    <tag k="addr:housenumber" v="1866"/>
    <tag k="addr:street" v="South Road"/>
    <tag k="addr:state" v="VT"/>
    <tag k="ref:vcgi:esiteid" v="186967"/>
  </node>
  <node id="-545" visible="true" lat="43.20786816" lon="-72.89473238">
    <tag k="addr:city" v="Peru"/>
    <tag k="addr:housenumber" v="168"/>
    <tag k="addr:street" v="Walts Camp Road"/>
    <tag k="addr:state" v="VT"/>
    <tag k="ref:vcgi:esiteid" v="186968"/>
  </node>
  <node id="-546" visible="true" lat="43.20771811" lon="-72.9001584">
    <tag k="addr:city" v="Peru"/>
    <tag k="addr:housenumber" v="1550"/>
    <tag k="addr:street" v="Old Manchester Road"/>
    <tag k="addr:state" v="VT"/>
    <tag k="ref:vcgi:esiteid" v="186969"/>
  </node>
  <node id="-547" visible="true" lat="43.20736654" lon="-72.89865127">
    <tag k="addr:city" v="Peru"/>
    <tag k="addr:housenumber" v="1634"/>
    <tag k="addr:street" v="Old Manchester Road"/>
    <tag k="addr:state" v="VT"/>
    <tag k="ref:vcgi:esiteid" v="186970"/>
  </node>
  <node id="-548" visible="true" lat="43.2066418" lon="-72.89530102">
    <tag k="addr:city" v="Peru"/>
    <tag k="addr:housenumber" v="251"/>
    <tag k="addr:street" v="Walts Camp Road"/>
    <tag k="addr:state" v="VT"/>
    <tag k="ref:vcgi:esiteid" v="186971"/>
  </node>
  <node id="-549" visible="true" lat="43.23443513" lon="-72.88757066">
    <tag k="addr:city" v="Peru"/>
    <tag k="addr:housenumber" v="37"/>
    <tag k="addr:street" v="Yaks Way"/>
    <tag k="addr:state" v="VT"/>
    <tag k="ref:vcgi:esiteid" v="186972"/>
  </node>
  <node id="-550" visible="true" lat="43.25770434" lon="-72.87067761">
    <tag k="addr:city" v="Peru"/>
    <tag k="addr:housenumber" v="230"/>
    <tag k="addr:street" v="Moffit Road"/>
    <tag k="addr:state" v="VT"/>
    <tag k="ref:vcgi:esiteid" v="186973"/>
  </node>
  <node id="-551" visible="true" lat="43.22797345" lon="-72.8851364">
    <tag k="addr:city" v="Peru"/>
    <tag k="addr:housenumber" v="398"/>
    <tag k="addr:street" v="Beechwood Lane"/>
    <tag k="addr:state" v="VT"/>
    <tag k="ref:vcgi:esiteid" v="186974"/>
  </node>
  <node id="-552" visible="true" lat="43.20974157" lon="-72.94485164">
    <tag k="addr:city" v="Peru"/>
    <tag k="addr:housenumber" v="38"/>
    <tag k="addr:street" v="High Ridge Road"/>
    <tag k="addr:state" v="VT"/>
    <tag k="ref:vcgi:esiteid" v="186975"/>
  </node>
  <node id="-557" visible="true" lat="43.21587934" lon="-72.89621018">
    <tag k="addr:city" v="Peru"/>
    <tag k="addr:housenumber" v="998"/>
    <tag k="addr:street" v="South Road"/>
    <tag k="addr:state" v="VT"/>
    <tag k="ref:vcgi:esiteid" v="186980"/>
  </node>
  <node id="-560" visible="true" lat="43.237093" lon="-72.86583001">
    <tag k="addr:city" v="Peru"/>
    <tag k="addr:housenumber" v="41"/>
    <tag k="addr:street" v="Mountain Ridge Road"/>
    <tag k="addr:state" v="VT"/>
    <tag k="ref:vcgi:esiteid" v="186983"/>
  </node>
  <node id="-564" visible="true" lat="43.25098425" lon="-72.86722366">
    <tag k="addr:city" v="Peru"/>
    <tag k="addr:housenumber" v="143"/>
    <tag k="addr:street" v="Nichols Road"/>
    <tag k="addr:state" v="VT"/>
    <tag k="ref:vcgi:esiteid" v="186988"/>
  </node>
  <node id="-565" visible="true" lat="43.2498805" lon="-72.86499094">
    <tag k="addr:city" v="Peru"/>
    <tag k="addr:housenumber" v="123"/>
    <tag k="addr:street" v="Nichols Road"/>
    <tag k="addr:state" v="VT"/>
    <tag k="ref:vcgi:esiteid" v="186989"/>
  </node>
  <node id="-566" visible="true" lat="43.23004199" lon="-72.88085305">
    <tag k="addr:city" v="Peru"/>
    <tag k="addr:housenumber" v="259"/>
    <tag k="addr:street" v="Beechnut Drive"/>
    <tag k="addr:state" v="VT"/>
    <tag k="ref:vcgi:esiteid" v="186990"/>
  </node>
  <node id="-567" visible="true" lat="43.23080919" lon="-72.8809879">
    <tag k="addr:city" v="Peru"/>
    <tag k="addr:housenumber" v="229"/>
    <tag k="addr:street" v="Beechnut Drive"/>
    <tag k="addr:state" v="VT"/>
    <tag k="ref:vcgi:esiteid" v="186991"/>
  </node>
  <node id="-568" visible="true" lat="43.23352054" lon="-72.885493">
    <tag k="addr:city" v="Peru"/>
    <tag k="addr:housenumber" v="120"/>
    <tag k="addr:street" v="Beechwood Lane"/>
    <tag k="addr:state" v="VT"/>
    <tag k="ref:vcgi:esiteid" v="186992"/>
  </node>
  <node id="-571" visible="true" lat="43.20656688" lon="-72.89469273">
    <tag k="addr:city" v="Peru"/>
    <tag k="addr:housenumber" v="1805"/>
    <tag k="addr:street" v="Old Manchester Road"/>
    <tag k="addr:state" v="VT"/>
    <tag k="ref:vcgi:esiteid" v="186995"/>
  </node>
  <node id="-573" visible="true" lat="43.23127312" lon="-72.88255571">
    <tag k="addr:city" v="Peru"/>
    <tag k="addr:housenumber" v="200"/>
    <tag k="addr:street" v="Beechnut Drive"/>
    <tag k="addr:state" v="VT"/>
    <tag k="ref:vcgi:esiteid" v="186997"/>
  </node>
  <node id="-574" visible="true" lat="43.24179149" lon="-72.8717371">
    <tag k="addr:city" v="Peru"/>
    <tag k="addr:housenumber" v="710"/>
    <tag k="addr:street" v="Forest Mountain Road"/>
    <tag k="addr:state" v="VT"/>
    <tag k="ref:vcgi:esiteid" v="186998"/>
  </node>
  <node id="-575" visible="true" lat="43.23025698" lon="-72.88168366">
    <tag k="addr:city" v="Peru"/>
    <tag k="addr:housenumber" v="282"/>
    <tag k="addr:street" v="Beechnut Drive"/>
    <tag k="addr:state" v="VT"/>
    <tag k="ref:vcgi:esiteid" v="186999"/>
  </node>
  <node id="-576" visible="true" lat="43.23159402" lon="-72.88140717">
    <tag k="addr:city" v="Peru"/>
    <tag k="addr:housenumber" v="127"/>
    <tag k="addr:street" v="Beechnut Drive"/>
    <tag k="addr:state" v="VT"/>
    <tag k="ref:vcgi:esiteid" v="187000"/>
  </node>
  <node id="-577" visible="true" lat="43.22926179" lon="-72.88059517">
    <tag k="addr:city" v="Peru"/>
    <tag k="addr:housenumber" v="317"/>
    <tag k="addr:street" v="Beechnut Drive"/>
    <tag k="addr:state" v="VT"/>
    <tag k="ref:vcgi:esiteid" v="187001"/>
  </node>
  <node id="-578" visible="true" lat="43.23643085" lon="-72.89052855">
    <tag k="addr:city" v="Peru"/>
    <tag k="addr:housenumber" v="88"/>
    <tag k="addr:street" v="Cedar Lane"/>
    <tag k="addr:state" v="VT"/>
    <tag k="ref:vcgi:esiteid" v="187002"/>
  </node>
  <node id="-579" visible="true" lat="43.23667284" lon="-72.88664748">
    <tag k="addr:city" v="Peru"/>
    <tag k="addr:housenumber" v="288"/>
    <tag k="addr:street" v="Cedar Lane"/>
    <tag k="addr:state" v="VT"/>
    <tag k="ref:vcgi:esiteid" v="187003"/>
  </node>
  <node id="-580" visible="true" lat="43.2370098" lon="-72.88854788">
    <tag k="addr:city" v="Peru"/>
    <tag k="addr:housenumber" v="152"/>
    <tag k="addr:street" v="Cedar Lane"/>
    <tag k="addr:state" v="VT"/>
    <tag k="ref:vcgi:esiteid" v="187004"/>
  </node>
  <node id="-581" visible="true" lat="43.27069029" lon="-72.90344442">
    <tag k="addr:city" v="Peru"/>
    <tag k="addr:housenumber" v="1934"/>
    <tag k="addr:street" v="North Road"/>
    <tag k="addr:state" v="VT"/>
    <tag k="ref:vcgi:esiteid" v="187005"/>
  </node>
  <node id="-582" visible="true" lat="43.26823492" lon="-72.90035287">
    <tag k="addr:city" v="Peru"/>
    <tag k="addr:housenumber" v="1936"/>
    <tag k="addr:street" v="North Road"/>
    <tag k="addr:state" v="VT"/>
    <tag k="ref:vcgi:esiteid" v="187006"/>
  </node>
  <node id="-584" visible="true" lat="43.2411329" lon="-72.90226246">
    <tag k="addr:city" v="Peru"/>
    <tag k="addr:housenumber" v="445"/>
    <tag k="addr:street" v="Moss Brook Road"/>
    <tag k="addr:state" v="VT"/>
    <tag k="ref:vcgi:esiteid" v="187008"/>
  </node>
  <node id="-585" visible="true" lat="43.24188712" lon="-72.89409225">
    <tag k="addr:city" v="Peru"/>
    <tag k="addr:housenumber" v="995"/>
    <tag k="addr:street" v="Lovers Lane"/>
    <tag k="addr:state" v="VT"/>
    <tag k="ref:vcgi:esiteid" v="187009"/>
  </node>
  <node id="-586" visible="true" lat="43.2379942" lon="-72.89261659">
    <tag k="addr:city" v="Peru"/>
    <tag k="addr:housenumber" v="253"/>
    <tag k="addr:street" v="Spruce Lane"/>
    <tag k="addr:state" v="VT"/>
    <tag k="ref:vcgi:esiteid" v="187010"/>
  </node>
  <node id="-587" visible="true" lat="43.23706709" lon="-72.89506762">
    <tag k="addr:city" v="Peru"/>
    <tag k="addr:housenumber" v="304"/>
    <tag k="addr:street" v="Spruce Lane"/>
    <tag k="addr:state" v="VT"/>
    <tag k="ref:vcgi:esiteid" v="187011"/>
  </node>
  <node id="-588" visible="true" lat="43.2163211" lon="-72.89163091">
    <tag k="addr:city" v="Peru"/>
    <tag k="addr:housenumber" v="935"/>
    <tag k="addr:street" v="South Road"/>
    <tag k="addr:state" v="VT"/>
    <tag k="ref:vcgi:esiteid" v="187012"/>
  </node>
  <node id="-589" visible="true" lat="43.22526433" lon="-72.88393741">
    <tag k="addr:city" v="Peru"/>
    <tag k="addr:housenumber" v="503"/>
    <tag k="addr:street" v="Halstead Lane"/>
    <tag k="addr:state" v="VT"/>
    <tag k="ref:vcgi:esiteid" v="187013"/>
  </node>
  <node id="-591" visible="true" lat="43.23773299" lon="-72.87201887">
    <tag k="addr:city" v="Peru"/>
    <tag k="addr:housenumber" v="63"/>
    <tag k="addr:street" v="Frog Crossing"/>
    <tag k="addr:state" v="VT"/>
    <tag k="ref:vcgi:esiteid" v="187015"/>
  </node>
  <node id="-592" visible="true" lat="43.23939037" lon="-72.87998934">
    <tag k="addr:city" v="Peru"/>
    <tag k="addr:housenumber" v="225"/>
    <tag k="addr:street" v="Birch Hill Farm Road"/>
    <tag k="addr:state" v="VT"/>
    <tag k="ref:vcgi:esiteid" v="187016"/>
  </node>
  <node id="-593" visible="true" lat="43.23898111" lon="-72.92105236">
    <tag k="addr:city" v="Peru"/>
    <tag k="addr:housenumber" v="1280"/>
    <tag k="addr:street" v="Pierce Road"/>
    <tag k="addr:state" v="VT"/>
    <tag k="ref:vcgi:esiteid" v="187017"/>
  </node>
  <node id="-594" visible="true" lat="43.2445616" lon="-72.87231266">
    <tag k="addr:city" v="Peru"/>
    <tag k="addr:housenumber" v="196"/>
    <tag k="addr:street" v="Aldrich Road"/>
    <tag k="addr:state" v="VT"/>
    <tag k="ref:vcgi:esiteid" v="187019"/>
  </node>
  <node id="-595" visible="true" lat="43.21369064" lon="-72.9346882">
    <tag k="addr:city" v="Peru"/>
    <tag k="addr:housenumber" v="44"/>
    <tag k="addr:street" v="Bromley Lodge Road"/>
    <tag k="addr:state" v="VT"/>
    <tag k="ref:vcgi:esiteid" v="187020"/>
  </node>
  <node id="-597" visible="true" lat="43.20993557" lon="-72.94181001">
    <tag k="addr:city" v="Peru"/>
    <tag k="addr:housenumber" v="46"/>
    <tag k="addr:street" v="Willows Way"/>
    <tag k="addr:state" v="VT"/>
    <tag k="ref:vcgi:esiteid" v="187022"/>
  </node>
  <node id="-598" visible="true" lat="43.21044592" lon="-72.94108722">
    <tag k="addr:city" v="Peru"/>
    <tag k="addr:housenumber" v="100"/>
    <tag k="addr:street" v="Willows Way"/>
    <tag k="addr:state" v="VT"/>
    <tag k="ref:vcgi:esiteid" v="187023"/>
  </node>
  <node id="-599" visible="true" lat="43.21054666" lon="-72.90010005">
    <tag k="addr:city" v="Peru"/>
    <tag k="addr:housenumber" v="1551"/>
    <tag k="addr:street" v="Old Manchester Road"/>
    <tag k="addr:state" v="VT"/>
    <tag k="ref:vcgi:esiteid" v="187024"/>
  </node>
  <node id="-600" visible="true" lat="43.23829006" lon="-72.88079025">
    <tag k="addr:city" v="Peru"/>
    <tag k="addr:housenumber" v="222"/>
    <tag k="addr:street" v="Birch Hill Farm Road"/>
    <tag k="addr:state" v="VT"/>
    <tag k="ref:vcgi:esiteid" v="187025"/>
  </node>
  <node id="-601" visible="true" lat="43.20696371" lon="-72.87055619">
    <tag k="addr:city" v="Peru"/>
    <tag k="addr:housenumber" v="56"/>
    <tag k="addr:street" v="South Road"/>
    <tag k="addr:state" v="VT"/>
    <tag k="ref:vcgi:esiteid" v="296968"/>
  </node>
  <node id="-602" visible="true" lat="43.23062095" lon="-72.8723915">
    <tag k="addr:city" v="Peru"/>
    <tag k="addr:housenumber" v="280"/>
    <tag k="addr:street" v="Burnt Meadow Road"/>
    <tag k="addr:state" v="VT"/>
    <tag k="ref:vcgi:esiteid" v="309217"/>
  </node>
  <node id="-605" visible="true" lat="43.25329197" lon="-72.86822617">
    <tag k="addr:city" v="Peru"/>
    <tag k="addr:housenumber" v="683"/>
    <tag k="addr:street" v="Moffit Road"/>
    <tag k="addr:state" v="VT"/>
    <tag k="ref:vcgi:esiteid" v="315368"/>
  </node>
  <node id="-606" visible="true" lat="43.23866516" lon="-72.87306181">
    <tag k="addr:city" v="Peru"/>
    <tag k="addr:housenumber" v="287"/>
    <tag k="addr:street" v="Glen Road"/>
    <tag k="addr:state" v="VT"/>
    <tag k="ref:vcgi:esiteid" v="317250"/>
  </node>
  <node id="-607" visible="true" lat="43.23497105" lon="-72.86699402">
    <tag k="addr:city" v="Peru"/>
    <tag k="addr:housenumber" v="61"/>
    <tag k="addr:street" v="Vermont Route 11"/>
    <tag k="addr:state" v="VT"/>
    <tag k="ref:vcgi:esiteid" v="326886"/>
  </node>
  <node id="-608" visible="true" lat="43.23776245" lon="-72.89394446">
    <tag k="addr:city" v="Peru"/>
    <tag k="addr:housenumber" v="296"/>
    <tag k="addr:street" v="Spruce Lane"/>
    <tag k="addr:state" v="VT"/>
    <tag k="ref:vcgi:esiteid" v="327060"/>
  </node>
  <node id="-609" visible="true" lat="43.23559616" lon="-72.88508067">
    <tag k="addr:city" v="Peru"/>
    <tag k="addr:housenumber" v="1020"/>
    <tag k="addr:street" v="Vermont Route 11"/>
    <tag k="addr:state" v="VT"/>
    <tag k="ref:vcgi:esiteid" v="331002"/>
  </node>
  <node id="-610" visible="true" lat="43.2462168" lon="-72.87145182">
    <tag k="addr:city" v="Peru"/>
    <tag k="addr:housenumber" v="49"/>
    <tag k="addr:street" v="Aldrich Road"/>
    <tag k="addr:state" v="VT"/>
    <tag k="ref:vcgi:esiteid" v="333646"/>
  </node>
  <node id="-611" visible="true" lat="43.20682774" lon="-72.89745178">
    <tag k="addr:city" v="Peru"/>
    <tag k="addr:housenumber" v="1700"/>
    <tag k="addr:street" v="Old Manchester Road"/>
    <tag k="addr:state" v="VT"/>
    <tag k="ref:vcgi:esiteid" v="333729"/>
  </node>
  <node id="-612" visible="true" lat="43.22917048" lon="-72.89749029">
    <tag k="addr:city" v="Peru"/>
    <tag k="addr:housenumber" v="1811"/>
    <tag k="addr:street" v="Vermont Route 11"/>
    <tag k="addr:state" v="VT"/>
    <tag k="ref:vcgi:esiteid" v="334989"/>
  </node>
  <node id="-614" visible="true" lat="43.25919973" lon="-72.90050794">
    <tag k="addr:city" v="Peru"/>
    <tag k="addr:housenumber" v="1210"/>
    <tag k="addr:street" v="North Road"/>
    <tag k="addr:state" v="VT"/>
    <tag k="ref:vcgi:esiteid" v="343689"/>
  </node>
  <node id="-615" visible="true" lat="43.22850859" lon="-72.89706037">
    <tag k="addr:city" v="Peru"/>
    <tag k="addr:housenumber" v="149"/>
    <tag k="addr:street" v="South Road"/>
    <tag k="addr:state" v="VT"/>
    <tag k="ref:vcgi:esiteid" v="451302"/>
  </node>
  <node id="-616" visible="true" lat="43.22651227" lon="-72.88358729">
    <tag k="addr:city" v="Peru"/>
    <tag k="addr:housenumber" v="505"/>
    <tag k="addr:street" v="Halstead Lane"/>
    <tag k="addr:state" v="VT"/>
    <tag k="ref:vcgi:esiteid" v="610552"/>
  </node>
  <node id="-617" visible="true" lat="43.23688423" lon="-72.89341552">
    <tag k="addr:city" v="Peru"/>
    <tag k="addr:housenumber" v="300"/>
    <tag k="addr:street" v="Spruce Lane"/>
    <tag k="addr:state" v="VT"/>
    <tag k="ref:vcgi:esiteid" v="610942"/>
  </node>
  <node id="-618" visible="true" lat="43.24964145" lon="-72.87039143">
    <tag k="addr:city" v="Peru"/>
    <tag k="addr:housenumber" v="14"/>
    <tag k="addr:street" v="Red Maple Road"/>
    <tag k="addr:state" v="VT"/>
    <tag k="ref:vcgi:esiteid" v="610944"/>
  </node>
  <node id="-619" visible="true" lat="43.23355776" lon="-72.87631208">
    <tag k="addr:city" v="Peru"/>
    <tag k="addr:housenumber" v="587"/>
    <tag k="addr:street" v="Vermont Route 11"/>
    <tag k="addr:state" v="VT"/>
    <tag k="ref:vcgi:esiteid" v="610946"/>
  </node>
  <node id="-620" visible="true" lat="43.21925467" lon="-72.91056884">
    <tag k="addr:city" v="Peru"/>
    <tag k="addr:housenumber" v="428"/>
    <tag k="addr:street" v="Bromley Farm Road"/>
    <tag k="addr:state" v="VT"/>
    <tag k="ref:vcgi:esiteid" v="611642"/>
  </node>
  <node id="-621" visible="true" lat="43.21041121" lon="-72.93848007">
    <tag k="addr:city" v="Peru"/>
    <tag k="addr:housenumber" v="4370"/>
    <tag k="addr:street" v="Vermont Route 11"/>
    <tag k="addr:state" v="VT"/>
    <tag k="ref:vcgi:esiteid" v="612071"/>
  </node>
  <node id="-622" visible="true" lat="43.21064263" lon="-72.93800113">
    <tag k="addr:city" v="Peru"/>
    <tag k="addr:housenumber" v="4366"/>
    <tag k="addr:street" v="Vermont Route 11"/>
    <tag k="addr:state" v="VT"/>
    <tag k="ref:vcgi:esiteid" v="612072"/>
  </node>
  <node id="-623" visible="true" lat="43.22977229" lon="-72.90147302">
    <tag k="addr:city" v="Peru"/>
    <tag k="addr:housenumber" v="422"/>
    <tag k="addr:street" v="Main Street"/>
    <tag k="addr:state" v="VT"/>
    <tag k="ref:vcgi:esiteid" v="612082"/>
  </node>
  <node id="-626" visible="true" lat="43.2176935" lon="-72.93244526">
    <tag k="addr:city" v="Peru"/>
    <tag k="addr:housenumber" v="223"/>
    <tag k="addr:street" v="Russel Road"/>
    <tag k="addr:state" v="VT"/>
    <tag k="ref:vcgi:esiteid" v="613585"/>
  </node>
  <node id="-627" visible="true" lat="43.21613451" lon="-72.9259248">
    <tag k="addr:city" v="Peru"/>
    <tag k="addr:housenumber" v="51"/>
    <tag k="addr:street" v="Seesaws Run West"/>
    <tag k="addr:state" v="VT"/>
    <tag k="ref:vcgi:esiteid" v="613586"/>
  </node>
  <node id="-629" visible="true" lat="43.23715685" lon="-72.88731109">
    <tag k="addr:city" v="Peru"/>
    <tag k="addr:housenumber" v="220"/>
    <tag k="addr:street" v="Cedar Lane"/>
    <tag k="addr:state" v="VT"/>
    <tag k="ref:vcgi:esiteid" v="613592"/>
  </node>
  <node id="-633" visible="true" lat="43.23273583" lon="-72.8735839">
    <tag k="addr:city" v="Peru"/>
    <tag k="addr:housenumber" v="387"/>
    <tag k="addr:street" v="Vermont Route 11"/>
    <tag k="addr:state" v="VT"/>
    <tag k="ref:vcgi:esiteid" v="613620"/>
  </node>
  <node id="-668" visible="true" lat="43.25424916" lon="-72.91873494">
    <tag k="addr:city" v="Peru"/>
    <tag k="addr:housenumber" v="1070"/>
    <tag k="addr:street" v="Mad Tom Notch Road"/>
    <tag k="addr:state" v="VT"/>
    <tag k="ref:vcgi:esiteid" v="613655"/>
  </node>
  <node id="-669" visible="true" lat="43.25800839" lon="-72.93879441">
    <tag k="addr:city" v="Peru"/>
    <tag k="addr:housenumber" v="2140"/>
    <tag k="addr:street" v="Mad Tom Notch Road"/>
    <tag k="addr:state" v="VT"/>
    <tag k="ref:vcgi:esiteid" v="613656"/>
  </node>
  <node id="-688" visible="true" lat="43.23143547" lon="-72.87321722">
    <tag k="addr:city" v="Peru"/>
    <tag k="addr:housenumber" v="260"/>
    <tag k="addr:street" v="Burnt Meadow Road"/>
    <tag k="addr:state" v="VT"/>
    <tag k="ref:vcgi:esiteid" v="618420"/>
  </node>
  <node id="-689" visible="true" lat="43.21776712" lon="-72.92643963">
    <tag k="addr:city" v="Peru"/>
    <tag k="addr:housenumber" v="160"/>
    <tag k="addr:street" v="Seesaws Run East"/>
    <tag k="addr:state" v="VT"/>
    <tag k="ref:vcgi:esiteid" v="620417"/>
  </node>
  <node id="-690" visible="true" lat="43.22364803" lon="-72.89326481">
    <tag k="addr:city" v="Peru"/>
    <tag k="addr:housenumber" v="1420"/>
    <tag k="addr:street" v="Rock Bottom Lane"/>
    <tag k="addr:state" v="VT"/>
    <tag k="ref:vcgi:esiteid" v="655755"/>
  </node>
  <node id="-693" visible="true" lat="43.21652903" lon="-72.92496352">
    <tag k="addr:city" v="Peru"/>
    <tag k="addr:housenumber" v="30"/>
    <tag k="addr:street" v="Seesaws Run East"/>
    <tag k="addr:state" v="VT"/>
    <tag k="ref:vcgi:esiteid" v="753869"/>
  </node>
  <node id="-694" visible="true" lat="43.21663163" lon="-72.92558926">
    <tag k="addr:city" v="Peru"/>
    <tag k="addr:housenumber" v="10"/>
    <tag k="addr:street" v="Bootleggers Alley"/>
    <tag k="addr:state" v="VT"/>
    <tag k="ref:vcgi:esiteid" v="753870"/>
  </node>
  <node id="-695" visible="true" lat="43.21649065" lon="-72.92623386">
    <tag k="addr:city" v="Peru"/>
    <tag k="addr:housenumber" v="24"/>
    <tag k="addr:street" v="Bootleggers Alley"/>
    <tag k="addr:state" v="VT"/>
    <tag k="ref:vcgi:esiteid" v="753871"/>
  </node>
  <node id="-696" visible="true" lat="43.21633656" lon="-72.92647535">
    <tag k="addr:city" v="Peru"/>
    <tag k="addr:housenumber" v="46"/>
    <tag k="addr:street" v="Bootleggers Alley"/>
    <tag k="addr:state" v="VT"/>
    <tag k="ref:vcgi:esiteid" v="753872"/>
  </node>
  <node id="-697" visible="true" lat="43.21618662" lon="-72.92668466">
    <tag k="addr:city" v="Peru"/>
    <tag k="addr:housenumber" v="68"/>
    <tag k="addr:street" v="Bootleggers Alley"/>
    <tag k="addr:state" v="VT"/>
    <tag k="ref:vcgi:esiteid" v="753873"/>
  </node>
  <node id="-698" visible="true" lat="43.21596648" lon="-72.92541387">
    <tag k="addr:city" v="Peru"/>
    <tag k="addr:housenumber" v="17"/>
    <tag k="addr:street" v="Seesaws Run West"/>
    <tag k="addr:state" v="VT"/>
    <tag k="ref:vcgi:esiteid" v="753874"/>
  </node>
  <node id="-699" visible="true" lat="43.21308369" lon="-72.93405466">
    <tag k="addr:city" v="Peru"/>
    <tag k="addr:housenumber" v="4077"/>
    <tag k="addr:street" v="Vermont Route 11"/>
    <tag k="addr:state" v="VT"/>
    <tag k="ref:vcgi:esiteid" v="755135"/>
  </node>
  <node id="-700" visible="true" lat="43.21735866" lon="-72.92599655">
    <tag k="addr:city" v="Peru"/>
    <tag k="addr:housenumber" v="120"/>
    <tag k="addr:street" v="Seesaws Run East"/>
    <tag k="addr:state" v="VT"/>
    <tag k="ref:vcgi:esiteid" v="756862"/>
  </node>
  <node id="-701" visible="true" lat="43.20920007" lon="-72.93851314">
    <tag k="addr:city" v="Peru"/>
    <tag k="addr:housenumber" v="490"/>
    <tag k="addr:street" v="Bromley Lodge Road"/>
    <tag k="addr:state" v="VT"/>
    <tag k="ref:vcgi:esiteid" v="761060"/>
  </node>
  <node id="-702" visible="true" lat="43.2128858" lon="-72.93216914">
    <tag k="addr:city" v="Peru"/>
    <tag k="addr:housenumber" v="27"/>
    <tag k="addr:street" v="Service Road"/>
    <tag k="addr:state" v="VT"/>
    <tag k="ref:vcgi:esiteid" v="762729"/>
  </node>
  <node id="-703" visible="true" lat="43.24690744" lon="-72.86994648">
    <tag k="addr:city" v="Peru"/>
    <tag k="addr:housenumber" v="945"/>
    <tag k="addr:street" v="Anderson Road"/>
    <tag k="addr:state" v="VT"/>
    <tag k="ref:vcgi:esiteid" v="763115"/>
  </node>
  <node id="-704" visible="true" lat="43.2610586" lon="-72.90474286">
    <tag k="addr:city" v="Peru"/>
    <tag k="addr:housenumber" v="59"/>
    <tag k="addr:street" v="Styles Lane"/>
    <tag k="addr:state" v="VT"/>
    <tag k="ref:vcgi:esiteid" v="763175"/>
  </node>
  <node id="-705" visible="true" lat="43.2449475" lon="-72.89317047">
    <tag k="addr:city" v="Peru"/>
    <tag k="addr:housenumber" v="120"/>
    <tag k="addr:street" v="North Road"/>
    <tag k="addr:state" v="VT"/>
    <tag k="ref:vcgi:esiteid" v="764858"/>
  </node>
  <node id="-706" visible="true" lat="43.24629629" lon="-72.89363363">
    <tag k="addr:city" v="Peru"/>
    <tag k="addr:housenumber" v="205"/>
    <tag k="addr:street" v="North Road"/>
    <tag k="addr:state" v="VT"/>
    <tag k="ref:vcgi:esiteid" v="764859"/>
  </node>
  <node id="-707" visible="true" lat="43.2550955" lon="-72.91531088">
    <tag k="addr:city" v="Peru"/>
    <tag k="addr:housenumber" v="850"/>
    <tag k="addr:street" v="Mad Tom Notch Road"/>
    <tag k="addr:state" v="VT"/>
    <tag k="ref:vcgi:esiteid" v="765560"/>
  </node>
  <node id="-710" visible="true" lat="43.25152768" lon="-72.91657817">
    <tag k="addr:city" v="Peru"/>
    <tag k="addr:housenumber" v="435"/>
    <tag k="addr:street" v="Moonshine Lane"/>
    <tag k="addr:state" v="VT"/>
    <tag k="ref:vcgi:esiteid" v="765599"/>
  </node>
  <node id="-713" visible="true" lat="43.22825195" lon="-72.88267507">
    <tag k="addr:city" v="Peru"/>
    <tag k="addr:housenumber" v="320"/>
    <tag k="addr:street" v="Beechnut Drive"/>
    <tag k="addr:state" v="VT"/>
    <tag k="ref:vcgi:esiteid" v="767243"/>
  </node>
  <node id="-714" visible="true" lat="43.2347487" lon="-72.86766608">
    <tag k="addr:city" v="Peru"/>
    <tag k="addr:housenumber" v="191"/>
    <tag k="addr:street" v="Vermont Route 11"/>
    <tag k="addr:state" v="VT"/>
    <tag k="ref:vcgi:esiteid" v="767265"/>
  </node>
  <node id="-715" visible="true" lat="43.23616441" lon="-72.88267416">
    <tag k="addr:city" v="Peru"/>
    <tag k="addr:housenumber" v="50"/>
    <tag k="addr:street" v="Lovers Lane"/>
    <tag k="addr:state" v="VT"/>
    <tag k="ref:vcgi:esiteid" v="769114"/>
  </node>
  <node id="-716" visible="true" lat="43.23094225" lon="-72.88401815">
    <tag k="addr:city" v="Peru"/>
    <tag k="addr:housenumber" v="311"/>
    <tag k="addr:street" v="Beechwood Lane"/>
    <tag k="addr:state" v="VT"/>
    <tag k="ref:vcgi:esiteid" v="769649"/>
  </node>
  <node id="-717" visible="true" lat="43.29723513" lon="-72.86088805">
    <tag k="addr:city" v="Peru"/>
    <tag k="addr:housenumber" v="69"/>
    <tag k="addr:street" v="Russet Hill Road"/>
    <tag k="addr:state" v="VT"/>
    <tag k="ref:vcgi:esiteid" v="769954"/>
  </node>
  <node id="-718" visible="true" lat="43.297643" lon="-72.86224423">
    <tag k="addr:city" v="Peru"/>
    <tag k="addr:housenumber" v="75"/>
    <tag k="addr:street" v="Russet Hill Road"/>
    <tag k="addr:state" v="VT"/>
    <tag k="ref:vcgi:esiteid" v="769955"/>
  </node>
  <node id="-719" visible="true" lat="43.23751417" lon="-72.8871985">
    <tag k="addr:city" v="Peru"/>
    <tag k="addr:housenumber" v="223"/>
    <tag k="addr:street" v="Cedar Lane"/>
    <tag k="addr:state" v="VT"/>
    <tag k="ref:vcgi:esiteid" v="800012"/>
  </node>
  <node id="-720" visible="true" lat="43.22155165" lon="-72.9383915">
    <tag k="addr:city" v="Peru"/>
    <tag k="addr:housenumber" v="156"/>
    <tag k="addr:street" v="Bromley Lodge Road"/>
    <tag k="addr:state" v="VT"/>
    <tag k="ref:vcgi:esiteid" v="900448"/>
  </node>
  <node id="-721" visible="true" lat="43.26827201" lon="-72.87136626">
    <tag k="addr:city" v="Peru"/>
    <tag k="addr:housenumber" v="3069"/>
    <tag k="addr:street" v="Hapgood Pond Road"/>
    <tag k="addr:state" v="VT"/>
    <tag k="ref:vcgi:esiteid" v="900461"/>
  </node>
  <node id="-723" visible="true" lat="43.21112624" lon="-72.93521877">
    <tag k="addr:city" v="Peru"/>
    <tag k="addr:housenumber" v="237"/>
    <tag k="addr:street" v="Service Road"/>
    <tag k="addr:state" v="VT"/>
    <tag k="ref:vcgi:esiteid" v="1050338"/>
  </node>
  <node id="-724" visible="true" lat="43.2353742" lon="-72.96086539">
    <tag k="addr:city" v="Peru"/>
    <tag k="addr:housenumber" v="8676"/>
    <tag k="addr:street" v="Nfh"/>
    <tag k="addr:state" v="VT"/>
    <tag k="ref:vcgi:esiteid" v="1050340"/>
  </node>
  <node id="-725" visible="true" lat="43.27744485" lon="-72.90986893">
    <tag k="addr:city" v="Peru"/>
    <tag k="addr:housenumber" v="2596"/>
    <tag k="addr:street" v="North Road"/>
    <tag k="addr:state" v="VT"/>
    <tag k="ref:vcgi:esiteid" v="1050361"/>
  </node>
</osm>
