<?xml version="1.0" encoding="UTF-8"?>
<osm version="0.6" generator="JOSM">
  <node id="-126" visible="true" lat="43.76782951" lon="-72.81413797">
    <tag k="addr:city" v="Pittsfield"/>
    <tag k="addr:housenumber" v="17"/>
    <tag k="addr:street" v="Lower Michigan Road"/>
    <tag k="addr:state" v="VT"/>
    <tag k="ref:vcgi:esiteid" v="187054"/>
  </node>
  <node id="-138" visible="true" lat="43.74663886" lon="-72.82160981">
    <tag k="addr:city" v="Pittsfield"/>
    <tag k="addr:housenumber" v="53"/>
    <tag k="addr:street" v="Bakers Road"/>
    <tag k="addr:state" v="VT"/>
    <tag k="ref:vcgi:esiteid" v="187067"/>
  </node>
  <node id="-143" visible="true" lat="43.73805249" lon="-72.82063303">
    <tag k="addr:city" v="Pittsfield"/>
    <tag k="addr:housenumber" v="14"/>
    <tag k="addr:street" v="Stonewood Crossing"/>
    <tag k="addr:state" v="VT"/>
    <tag k="ref:vcgi:esiteid" v="187072"/>
  </node>
  <node id="-144" visible="true" lat="43.74041945" lon="-72.82332766">
    <tag k="addr:city" v="Pittsfield"/>
    <tag k="addr:housenumber" v="286"/>
    <tag k="addr:street" v="Stonewood Crossing"/>
    <tag k="addr:state" v="VT"/>
    <tag k="ref:vcgi:esiteid" v="187073"/>
  </node>
  <node id="-149" visible="true" lat="43.72762258" lon="-72.82440666">
    <tag k="addr:city" v="Pittsfield"/>
    <tag k="addr:housenumber" v="30"/>
    <tag k="addr:street" v="Fellows Road"/>
    <tag k="addr:state" v="VT"/>
    <tag k="ref:vcgi:esiteid" v="187078"/>
  </node>
  <node id="-150" visible="true" lat="43.72688275" lon="-72.82441013">
    <tag k="addr:city" v="Pittsfield"/>
    <tag k="addr:housenumber" v="116"/>
    <tag k="addr:street" v="Fellows Road"/>
    <tag k="addr:state" v="VT"/>
    <tag k="ref:vcgi:esiteid" v="187079"/>
  </node>
  <node id="-153" visible="true" lat="43.72623343" lon="-72.82415454">
    <tag k="addr:city" v="Pittsfield"/>
    <tag k="addr:housenumber" v="58"/>
    <tag k="addr:street" v="Hadley Lane"/>
    <tag k="addr:state" v="VT"/>
    <tag k="ref:vcgi:esiteid" v="187082"/>
  </node>
  <node id="-154" visible="true" lat="43.72453119" lon="-72.82428244">
    <tag k="addr:city" v="Pittsfield"/>
    <tag k="addr:housenumber" v="165"/>
    <tag k="addr:street" v="Hadley Lane"/>
    <tag k="addr:state" v="VT"/>
    <tag k="ref:vcgi:esiteid" v="187083"/>
  </node>
  <node id="-155" visible="true" lat="43.72521449" lon="-72.82417176">
    <tag k="addr:city" v="Pittsfield"/>
    <tag k="addr:housenumber" v="113"/>
    <tag k="addr:street" v="Hadley Lane"/>
    <tag k="addr:state" v="VT"/>
    <tag k="ref:vcgi:esiteid" v="187084"/>
  </node>
  <node id="-156" visible="true" lat="43.72566513" lon="-72.82399742">
    <tag k="addr:city" v="Pittsfield"/>
    <tag k="addr:housenumber" v="63"/>
    <tag k="addr:street" v="Hadley Lane"/>
    <tag k="addr:state" v="VT"/>
    <tag k="ref:vcgi:esiteid" v="187085"/>
  </node>
  <node id="-158" visible="true" lat="43.71869228" lon="-72.82476635">
    <tag k="addr:city" v="Pittsfield"/>
    <tag k="addr:housenumber" v="4"/>
    <tag k="addr:street" v="Leigh Kelly Drive"/>
    <tag k="addr:state" v="VT"/>
    <tag k="ref:vcgi:esiteid" v="187087"/>
  </node>
  <node id="-159" visible="true" lat="43.71867291" lon="-72.82501043">
    <tag k="addr:city" v="Pittsfield"/>
    <tag k="addr:housenumber" v="3"/>
    <tag k="addr:street" v="Leigh Kelly Drive"/>
    <tag k="addr:state" v="VT"/>
    <tag k="ref:vcgi:esiteid" v="187088"/>
  </node>
  <node id="-160" visible="true" lat="43.76897956" lon="-72.81521395">
    <tag k="addr:city" v="Pittsfield"/>
    <tag k="addr:housenumber" v="130"/>
    <tag k="addr:street" v="Lower Michigan Road"/>
    <tag k="addr:state" v="VT"/>
    <tag k="ref:vcgi:esiteid" v="187089"/>
  </node>
  <node id="-161" visible="true" lat="43.76962678" lon="-72.81727397">
    <tag k="addr:city" v="Pittsfield"/>
    <tag k="addr:housenumber" v="182"/>
    <tag k="addr:street" v="Lower Michigan Road"/>
    <tag k="addr:state" v="VT"/>
    <tag k="ref:vcgi:esiteid" v="187090"/>
  </node>
  <node id="-162" visible="true" lat="43.77038496" lon="-72.81648337">
    <tag k="addr:city" v="Pittsfield"/>
    <tag k="addr:housenumber" v="236"/>
    <tag k="addr:street" v="Lower Michigan Road"/>
    <tag k="addr:state" v="VT"/>
    <tag k="ref:vcgi:esiteid" v="187091"/>
  </node>
  <node id="-170" visible="true" lat="43.77375156" lon="-72.83444936">
    <tag k="addr:city" v="Pittsfield"/>
    <tag k="addr:housenumber" v="99"/>
    <tag k="addr:street" v="Crossover Road"/>
    <tag k="addr:state" v="VT"/>
    <tag k="ref:vcgi:esiteid" v="187099"/>
  </node>
  <node id="-171" visible="true" lat="43.77385741" lon="-72.83573296">
    <tag k="addr:city" v="Pittsfield"/>
    <tag k="addr:housenumber" v="56"/>
    <tag k="addr:street" v="Crossover Road"/>
    <tag k="addr:state" v="VT"/>
    <tag k="ref:vcgi:esiteid" v="187100"/>
  </node>
  <node id="-172" visible="true" lat="43.7732307" lon="-72.83672306">
    <tag k="addr:city" v="Pittsfield"/>
    <tag k="addr:housenumber" v="1247"/>
    <tag k="addr:street" v="Lower Michigan Road"/>
    <tag k="addr:state" v="VT"/>
    <tag k="ref:vcgi:esiteid" v="187101"/>
  </node>
  <node id="-173" visible="true" lat="43.77261528" lon="-72.83431618">
    <tag k="addr:city" v="Pittsfield"/>
    <tag k="addr:housenumber" v="1119"/>
    <tag k="addr:street" v="Lower Michigan Road"/>
    <tag k="addr:state" v="VT"/>
    <tag k="ref:vcgi:esiteid" v="187102"/>
  </node>
  <node id="-174" visible="true" lat="43.77280183" lon="-72.83411032">
    <tag k="addr:city" v="Pittsfield"/>
    <tag k="addr:housenumber" v="1105"/>
    <tag k="addr:street" v="Lower Michigan Road"/>
    <tag k="addr:state" v="VT"/>
    <tag k="ref:vcgi:esiteid" v="187103"/>
  </node>
  <node id="-183" visible="true" lat="43.76966628" lon="-72.82202429">
    <tag k="addr:city" v="Pittsfield"/>
    <tag k="addr:housenumber" v="223"/>
    <tag k="addr:street" v="Sugar Maple Drive"/>
    <tag k="addr:state" v="VT"/>
    <tag k="ref:vcgi:esiteid" v="187112"/>
  </node>
  <node id="-184" visible="true" lat="43.77010161" lon="-72.81893616">
    <tag k="addr:city" v="Pittsfield"/>
    <tag k="addr:housenumber" v="59"/>
    <tag k="addr:street" v="Sugar Maple Drive"/>
    <tag k="addr:state" v="VT"/>
    <tag k="ref:vcgi:esiteid" v="187113"/>
  </node>
  <node id="-185" visible="true" lat="43.76845872" lon="-72.81558142">
    <tag k="addr:city" v="Pittsfield"/>
    <tag k="addr:housenumber" v="99"/>
    <tag k="addr:street" v="Lower Michigan Road"/>
    <tag k="addr:state" v="VT"/>
    <tag k="ref:vcgi:esiteid" v="187114"/>
  </node>
  <node id="-186" visible="true" lat="43.76828315" lon="-72.81526826">
    <tag k="addr:city" v="Pittsfield"/>
    <tag k="addr:housenumber" v="79"/>
    <tag k="addr:street" v="Lower Michigan Road"/>
    <tag k="addr:state" v="VT"/>
    <tag k="ref:vcgi:esiteid" v="187115"/>
  </node>
  <node id="-187" visible="true" lat="43.76809804" lon="-72.81484872">
    <tag k="addr:city" v="Pittsfield"/>
    <tag k="addr:housenumber" v="55"/>
    <tag k="addr:street" v="Lower Michigan Road"/>
    <tag k="addr:state" v="VT"/>
    <tag k="ref:vcgi:esiteid" v="187116"/>
  </node>
  <node id="-188" visible="true" lat="43.75530211" lon="-72.8217247">
    <tag k="addr:city" v="Pittsfield"/>
    <tag k="addr:housenumber" v="90"/>
    <tag k="addr:street" v="Townsend Brook Road"/>
    <tag k="addr:state" v="VT"/>
    <tag k="ref:vcgi:esiteid" v="187117"/>
  </node>
  <node id="-190" visible="true" lat="43.75286797" lon="-72.82701048">
    <tag k="addr:city" v="Pittsfield"/>
    <tag k="addr:housenumber" v="38"/>
    <tag k="addr:street" v="Lookout Road"/>
    <tag k="addr:state" v="VT"/>
    <tag k="ref:vcgi:esiteid" v="187119"/>
  </node>
  <node id="-191" visible="true" lat="43.75377676" lon="-72.82599984">
    <tag k="addr:city" v="Pittsfield"/>
    <tag k="addr:housenumber" v="82"/>
    <tag k="addr:street" v="Lookout Road"/>
    <tag k="addr:state" v="VT"/>
    <tag k="ref:vcgi:esiteid" v="187120"/>
  </node>
  <node id="-192" visible="true" lat="43.75453814" lon="-72.82606662">
    <tag k="addr:city" v="Pittsfield"/>
    <tag k="addr:housenumber" v="140"/>
    <tag k="addr:street" v="Lookout Road"/>
    <tag k="addr:state" v="VT"/>
    <tag k="ref:vcgi:esiteid" v="187121"/>
  </node>
  <node id="-193" visible="true" lat="43.7554752" lon="-72.82602775">
    <tag k="addr:city" v="Pittsfield"/>
    <tag k="addr:housenumber" v="168"/>
    <tag k="addr:street" v="Lookout Road"/>
    <tag k="addr:state" v="VT"/>
    <tag k="ref:vcgi:esiteid" v="187122"/>
  </node>
  <node id="-194" visible="true" lat="43.75587496" lon="-72.82644578">
    <tag k="addr:city" v="Pittsfield"/>
    <tag k="addr:housenumber" v="224"/>
    <tag k="addr:street" v="Lookout Road"/>
    <tag k="addr:state" v="VT"/>
    <tag k="ref:vcgi:esiteid" v="187123"/>
  </node>
  <node id="-195" visible="true" lat="43.75685077" lon="-72.82679651">
    <tag k="addr:city" v="Pittsfield"/>
    <tag k="addr:housenumber" v="274"/>
    <tag k="addr:street" v="Lookout Road"/>
    <tag k="addr:state" v="VT"/>
    <tag k="ref:vcgi:esiteid" v="187124"/>
  </node>
  <node id="-200" visible="true" lat="43.75586852" lon="-72.82767982">
    <tag k="addr:city" v="Pittsfield"/>
    <tag k="addr:housenumber" v="253"/>
    <tag k="addr:street" v="Lookout Road"/>
    <tag k="addr:state" v="VT"/>
    <tag k="ref:vcgi:esiteid" v="187129"/>
  </node>
  <node id="-201" visible="true" lat="43.75402968" lon="-72.82714391">
    <tag k="addr:city" v="Pittsfield"/>
    <tag k="addr:housenumber" v="71"/>
    <tag k="addr:street" v="Lookout Road"/>
    <tag k="addr:state" v="VT"/>
    <tag k="ref:vcgi:esiteid" v="187130"/>
  </node>
  <node id="-202" visible="true" lat="43.7538849" lon="-72.82836556">
    <tag k="addr:city" v="Pittsfield"/>
    <tag k="addr:housenumber" v="248"/>
    <tag k="addr:street" v="Tozier Hill Road"/>
    <tag k="addr:state" v="VT"/>
    <tag k="ref:vcgi:esiteid" v="187131"/>
  </node>
  <node id="-203" visible="true" lat="43.75411872" lon="-72.82942037">
    <tag k="addr:city" v="Pittsfield"/>
    <tag k="addr:housenumber" v="26"/>
    <tag k="addr:street" v="Fiddlehead Lane"/>
    <tag k="addr:state" v="VT"/>
    <tag k="ref:vcgi:esiteid" v="187132"/>
  </node>
  <node id="-204" visible="true" lat="43.75452587" lon="-72.82824543">
    <tag k="addr:city" v="Pittsfield"/>
    <tag k="addr:housenumber" v="18"/>
    <tag k="addr:street" v="Partridge Road"/>
    <tag k="addr:state" v="VT"/>
    <tag k="ref:vcgi:esiteid" v="187133"/>
  </node>
  <node id="-205" visible="true" lat="43.75442803" lon="-72.82758695">
    <tag k="addr:city" v="Pittsfield"/>
    <tag k="addr:housenumber" v="50"/>
    <tag k="addr:street" v="Partridge Road"/>
    <tag k="addr:state" v="VT"/>
    <tag k="ref:vcgi:esiteid" v="187134"/>
  </node>
  <node id="-206" visible="true" lat="43.75513343" lon="-72.82850766">
    <tag k="addr:city" v="Pittsfield"/>
    <tag k="addr:housenumber" v="15"/>
    <tag k="addr:street" v="Partridge Road"/>
    <tag k="addr:state" v="VT"/>
    <tag k="ref:vcgi:esiteid" v="187135"/>
  </node>
  <node id="-216" visible="true" lat="43.75422993" lon="-72.83039856">
    <tag k="addr:city" v="Pittsfield"/>
    <tag k="addr:housenumber" v="37"/>
    <tag k="addr:street" v="Fiddlehead Lane"/>
    <tag k="addr:state" v="VT"/>
    <tag k="ref:vcgi:esiteid" v="187145"/>
  </node>
  <node id="-219" visible="true" lat="43.75331862" lon="-72.83092344">
    <tag k="addr:city" v="Pittsfield"/>
    <tag k="addr:housenumber" v="369"/>
    <tag k="addr:street" v="Tozier Hill Road"/>
    <tag k="addr:state" v="VT"/>
    <tag k="ref:vcgi:esiteid" v="187148"/>
  </node>
  <node id="-220" visible="true" lat="43.75322647" lon="-72.82970402">
    <tag k="addr:city" v="Pittsfield"/>
    <tag k="addr:housenumber" v="309"/>
    <tag k="addr:street" v="Tozier Hill Road"/>
    <tag k="addr:state" v="VT"/>
    <tag k="ref:vcgi:esiteid" v="187149"/>
  </node>
  <node id="-221" visible="true" lat="43.75302068" lon="-72.82836593">
    <tag k="addr:city" v="Pittsfield"/>
    <tag k="addr:housenumber" v="217"/>
    <tag k="addr:street" v="Tozier Hill Road"/>
    <tag k="addr:state" v="VT"/>
    <tag k="ref:vcgi:esiteid" v="187150"/>
  </node>
  <node id="-226" visible="true" lat="43.75236656" lon="-72.82360572">
    <tag k="addr:city" v="Pittsfield"/>
    <tag k="addr:housenumber" v="295"/>
    <tag k="addr:street" v="Townsend Brook Road"/>
    <tag k="addr:state" v="VT"/>
    <tag k="ref:vcgi:esiteid" v="187155"/>
  </node>
  <node id="-227" visible="true" lat="43.75325288" lon="-72.82314883">
    <tag k="addr:city" v="Pittsfield"/>
    <tag k="addr:housenumber" v="241"/>
    <tag k="addr:street" v="Townsend Brook Road"/>
    <tag k="addr:state" v="VT"/>
    <tag k="ref:vcgi:esiteid" v="187156"/>
  </node>
  <node id="-229" visible="true" lat="43.7542326" lon="-72.82197122">
    <tag k="addr:city" v="Pittsfield"/>
    <tag k="addr:housenumber" v="121"/>
    <tag k="addr:street" v="Townsend Brook Road"/>
    <tag k="addr:state" v="VT"/>
    <tag k="ref:vcgi:esiteid" v="187158"/>
  </node>
  <node id="-230" visible="true" lat="43.75485646" lon="-72.82127321">
    <tag k="addr:city" v="Pittsfield"/>
    <tag k="addr:housenumber" v="77"/>
    <tag k="addr:street" v="Townsend Brook Road"/>
    <tag k="addr:state" v="VT"/>
    <tag k="ref:vcgi:esiteid" v="187159"/>
  </node>
  <node id="-232" visible="true" lat="43.73355366" lon="-72.81977478">
    <tag k="addr:city" v="Pittsfield"/>
    <tag k="addr:housenumber" v="54"/>
    <tag k="addr:street" v="Johnson Brook Road"/>
    <tag k="addr:state" v="VT"/>
    <tag k="ref:vcgi:esiteid" v="187161"/>
  </node>
  <node id="-233" visible="true" lat="43.73296353" lon="-72.81833222">
    <tag k="addr:city" v="Pittsfield"/>
    <tag k="addr:housenumber" v="130"/>
    <tag k="addr:street" v="Johnson Brook Road"/>
    <tag k="addr:state" v="VT"/>
    <tag k="ref:vcgi:esiteid" v="187162"/>
  </node>
  <node id="-234" visible="true" lat="43.73602055" lon="-72.81952785">
    <tag k="addr:city" v="Pittsfield"/>
    <tag k="addr:housenumber" v="10"/>
    <tag k="addr:street" v="Old School House Drive"/>
    <tag k="addr:state" v="VT"/>
    <tag k="ref:vcgi:esiteid" v="187163"/>
  </node>
  <node id="-235" visible="true" lat="43.73501122" lon="-72.8200561">
    <tag k="addr:city" v="Pittsfield"/>
    <tag k="addr:housenumber" v="90"/>
    <tag k="addr:street" v="Old School House Drive"/>
    <tag k="addr:state" v="VT"/>
    <tag k="ref:vcgi:esiteid" v="187164"/>
  </node>
  <node id="-236" visible="true" lat="43.73423922" lon="-72.81934976">
    <tag k="addr:city" v="Pittsfield"/>
    <tag k="addr:housenumber" v="97"/>
    <tag k="addr:street" v="Old School House Drive"/>
    <tag k="addr:state" v="VT"/>
    <tag k="ref:vcgi:esiteid" v="187165"/>
  </node>
  <node id="-237" visible="true" lat="43.73488976" lon="-72.81877407">
    <tag k="addr:city" v="Pittsfield"/>
    <tag k="addr:housenumber" v="45"/>
    <tag k="addr:street" v="Old School House Drive"/>
    <tag k="addr:state" v="VT"/>
    <tag k="ref:vcgi:esiteid" v="187166"/>
  </node>
  <node id="-238" visible="true" lat="43.73512533" lon="-72.81827366">
    <tag k="addr:city" v="Pittsfield"/>
    <tag k="addr:housenumber" v="19"/>
    <tag k="addr:street" v="Old School House Drive"/>
    <tag k="addr:state" v="VT"/>
    <tag k="ref:vcgi:esiteid" v="187167"/>
  </node>
  <node id="-241" visible="true" lat="43.73364135" lon="-72.81473811">
    <tag k="addr:city" v="Pittsfield"/>
    <tag k="addr:housenumber" v="433"/>
    <tag k="addr:street" v="South Hill Road"/>
    <tag k="addr:state" v="VT"/>
    <tag k="ref:vcgi:esiteid" v="187170"/>
  </node>
  <node id="-242" visible="true" lat="43.73416046" lon="-72.81518491">
    <tag k="addr:city" v="Pittsfield"/>
    <tag k="addr:housenumber" v="50"/>
    <tag k="addr:street" v="Northern Exposure"/>
    <tag k="addr:state" v="VT"/>
    <tag k="ref:vcgi:esiteid" v="187171"/>
  </node>
  <node id="-243" visible="true" lat="43.73489005" lon="-72.81577928">
    <tag k="addr:city" v="Pittsfield"/>
    <tag k="addr:housenumber" v="86"/>
    <tag k="addr:street" v="Northern Exposure"/>
    <tag k="addr:state" v="VT"/>
    <tag k="ref:vcgi:esiteid" v="187172"/>
  </node>
  <node id="-244" visible="true" lat="43.73470854" lon="-72.81651906">
    <tag k="addr:city" v="Pittsfield"/>
    <tag k="addr:housenumber" v="275"/>
    <tag k="addr:street" v="South Hill Road"/>
    <tag k="addr:state" v="VT"/>
    <tag k="ref:vcgi:esiteid" v="187173"/>
  </node>
  <node id="-245" visible="true" lat="43.73479143" lon="-72.81723946">
    <tag k="addr:city" v="Pittsfield"/>
    <tag k="addr:housenumber" v="231"/>
    <tag k="addr:street" v="South Hill Road"/>
    <tag k="addr:state" v="VT"/>
    <tag k="ref:vcgi:esiteid" v="187174"/>
  </node>
  <node id="-246" visible="true" lat="43.73595739" lon="-72.81773903">
    <tag k="addr:city" v="Pittsfield"/>
    <tag k="addr:housenumber" v="117"/>
    <tag k="addr:street" v="South Hill Road"/>
    <tag k="addr:state" v="VT"/>
    <tag k="ref:vcgi:esiteid" v="187175"/>
  </node>
  <node id="-248" visible="true" lat="43.74010213" lon="-72.81979578">
    <tag k="addr:city" v="Pittsfield"/>
    <tag k="addr:housenumber" v="14"/>
    <tag k="addr:street" v="Graysville Drive"/>
    <tag k="addr:state" v="VT"/>
    <tag k="ref:vcgi:esiteid" v="187177"/>
  </node>
  <node id="-252" visible="true" lat="43.74203802" lon="-72.81884686">
    <tag k="addr:city" v="Pittsfield"/>
    <tag k="addr:housenumber" v="115"/>
    <tag k="addr:street" v="Graysville Drive"/>
    <tag k="addr:state" v="VT"/>
    <tag k="ref:vcgi:esiteid" v="187181"/>
  </node>
  <node id="-253" visible="true" lat="43.74136071" lon="-72.81952488">
    <tag k="addr:city" v="Pittsfield"/>
    <tag k="addr:housenumber" v="75"/>
    <tag k="addr:street" v="Graysville Drive"/>
    <tag k="addr:state" v="VT"/>
    <tag k="ref:vcgi:esiteid" v="187182"/>
  </node>
  <node id="-255" visible="true" lat="43.74334809" lon="-72.81906111">
    <tag k="addr:city" v="Pittsfield"/>
    <tag k="addr:housenumber" v="70"/>
    <tag k="addr:street" v="Fifield Drive"/>
    <tag k="addr:state" v="VT"/>
    <tag k="ref:vcgi:esiteid" v="187184"/>
  </node>
  <node id="-256" visible="true" lat="43.74401435" lon="-72.81916493">
    <tag k="addr:city" v="Pittsfield"/>
    <tag k="addr:housenumber" v="72"/>
    <tag k="addr:street" v="Fifield Drive"/>
    <tag k="addr:state" v="VT"/>
    <tag k="ref:vcgi:esiteid" v="187185"/>
  </node>
  <node id="-257" visible="true" lat="43.7449336" lon="-72.81956513">
    <tag k="addr:city" v="Pittsfield"/>
    <tag k="addr:housenumber" v="143"/>
    <tag k="addr:street" v="Fifield Drive"/>
    <tag k="addr:state" v="VT"/>
    <tag k="ref:vcgi:esiteid" v="187186"/>
  </node>
  <node id="-278" visible="true" lat="43.77381821" lon="-72.81833716">
    <tag k="addr:city" v="Pittsfield"/>
    <tag k="addr:housenumber" v="286"/>
    <tag k="addr:street" v="Upper Michigan Road"/>
    <tag k="addr:state" v="VT"/>
    <tag k="ref:vcgi:esiteid" v="187208"/>
  </node>
  <node id="-279" visible="true" lat="43.77365427" lon="-72.81965691">
    <tag k="addr:city" v="Pittsfield"/>
    <tag k="addr:housenumber" v="340"/>
    <tag k="addr:street" v="Upper Michigan Road"/>
    <tag k="addr:state" v="VT"/>
    <tag k="ref:vcgi:esiteid" v="187209"/>
  </node>
  <node id="-280" visible="true" lat="43.77440939" lon="-72.82185214">
    <tag k="addr:city" v="Pittsfield"/>
    <tag k="addr:housenumber" v="474"/>
    <tag k="addr:street" v="Upper Michigan Road"/>
    <tag k="addr:state" v="VT"/>
    <tag k="ref:vcgi:esiteid" v="187210"/>
  </node>
  <node id="-281" visible="true" lat="43.77413859" lon="-72.82400901">
    <tag k="addr:city" v="Pittsfield"/>
    <tag k="addr:housenumber" v="47"/>
    <tag k="addr:street" v="Hawk Mountain Road"/>
    <tag k="addr:state" v="VT"/>
    <tag k="ref:vcgi:esiteid" v="187211"/>
  </node>
  <node id="-283" visible="true" lat="43.77502836" lon="-72.83538161">
    <tag k="addr:city" v="Pittsfield"/>
    <tag k="addr:housenumber" v="1152"/>
    <tag k="addr:street" v="Upper Michigan Road"/>
    <tag k="addr:state" v="VT"/>
    <tag k="ref:vcgi:esiteid" v="187213"/>
  </node>
  <node id="-284" visible="true" lat="43.77674836" lon="-72.83976043">
    <tag k="addr:city" v="Pittsfield"/>
    <tag k="addr:housenumber" v="1398"/>
    <tag k="addr:street" v="Upper Michigan Road"/>
    <tag k="addr:state" v="VT"/>
    <tag k="ref:vcgi:esiteid" v="187214"/>
  </node>
  <node id="-285" visible="true" lat="43.77706659" lon="-72.84023278">
    <tag k="addr:city" v="Pittsfield"/>
    <tag k="addr:housenumber" v="1430"/>
    <tag k="addr:street" v="Upper Michigan Road"/>
    <tag k="addr:state" v="VT"/>
    <tag k="ref:vcgi:esiteid" v="187215"/>
  </node>
  <node id="-286" visible="true" lat="43.77900248" lon="-72.84189535">
    <tag k="addr:city" v="Pittsfield"/>
    <tag k="addr:housenumber" v="74"/>
    <tag k="addr:street" v="Four Wheel Drive"/>
    <tag k="addr:state" v="VT"/>
    <tag k="ref:vcgi:esiteid" v="187216"/>
  </node>
  <node id="-287" visible="true" lat="43.77955371" lon="-72.84230318">
    <tag k="addr:city" v="Pittsfield"/>
    <tag k="addr:housenumber" v="130"/>
    <tag k="addr:street" v="Four Wheel Drive"/>
    <tag k="addr:state" v="VT"/>
    <tag k="ref:vcgi:esiteid" v="187217"/>
  </node>
  <node id="-288" visible="true" lat="43.77897362" lon="-72.84302254">
    <tag k="addr:city" v="Pittsfield"/>
    <tag k="addr:housenumber" v="1622"/>
    <tag k="addr:street" v="Upper Michigan Road"/>
    <tag k="addr:state" v="VT"/>
    <tag k="ref:vcgi:esiteid" v="187218"/>
  </node>
  <node id="-289" visible="true" lat="43.77965997" lon="-72.84396418">
    <tag k="addr:city" v="Pittsfield"/>
    <tag k="addr:housenumber" v="1712"/>
    <tag k="addr:street" v="Upper Michigan Road"/>
    <tag k="addr:state" v="VT"/>
    <tag k="ref:vcgi:esiteid" v="187219"/>
  </node>
  <node id="-290" visible="true" lat="43.78016981" lon="-72.84462323">
    <tag k="addr:city" v="Pittsfield"/>
    <tag k="addr:housenumber" v="1760"/>
    <tag k="addr:street" v="Upper Michigan Road"/>
    <tag k="addr:state" v="VT"/>
    <tag k="ref:vcgi:esiteid" v="187220"/>
  </node>
  <node id="-307" visible="true" lat="43.77877806" lon="-72.84611011">
    <tag k="addr:city" v="Pittsfield"/>
    <tag k="addr:housenumber" v="1661"/>
    <tag k="addr:street" v="Upper Michigan Road"/>
    <tag k="addr:state" v="VT"/>
    <tag k="ref:vcgi:esiteid" v="187238"/>
  </node>
  <node id="-309" visible="true" lat="43.77518781" lon="-72.84015336">
    <tag k="addr:city" v="Pittsfield"/>
    <tag k="addr:housenumber" v="230"/>
    <tag k="addr:street" v="Butter Nut Lane"/>
    <tag k="addr:state" v="VT"/>
    <tag k="ref:vcgi:esiteid" v="187240"/>
  </node>
  <node id="-310" visible="true" lat="43.77436647" lon="-72.83684535">
    <tag k="addr:city" v="Pittsfield"/>
    <tag k="addr:housenumber" v="69"/>
    <tag k="addr:street" v="Butter Nut Lane"/>
    <tag k="addr:state" v="VT"/>
    <tag k="ref:vcgi:esiteid" v="187241"/>
  </node>
  <node id="-311" visible="true" lat="43.77367208" lon="-72.82662235">
    <tag k="addr:city" v="Pittsfield"/>
    <tag k="addr:housenumber" v="95"/>
    <tag k="addr:street" v="Hawk Path"/>
    <tag k="addr:state" v="VT"/>
    <tag k="ref:vcgi:esiteid" v="187242"/>
  </node>
  <node id="-312" visible="true" lat="43.77349551" lon="-72.82584419">
    <tag k="addr:city" v="Pittsfield"/>
    <tag k="addr:housenumber" v="67"/>
    <tag k="addr:street" v="Hawk Path"/>
    <tag k="addr:state" v="VT"/>
    <tag k="ref:vcgi:esiteid" v="187243"/>
  </node>
  <node id="-313" visible="true" lat="43.77341939" lon="-72.82519926">
    <tag k="addr:city" v="Pittsfield"/>
    <tag k="addr:housenumber" v="23"/>
    <tag k="addr:street" v="Hawk Path"/>
    <tag k="addr:state" v="VT"/>
    <tag k="ref:vcgi:esiteid" v="187244"/>
  </node>
  <node id="-314" visible="true" lat="43.77464616" lon="-72.82490007">
    <tag k="addr:city" v="Pittsfield"/>
    <tag k="addr:housenumber" v="86"/>
    <tag k="addr:street" v="Hawk Lane"/>
    <tag k="addr:state" v="VT"/>
    <tag k="ref:vcgi:esiteid" v="187245"/>
  </node>
  <node id="-316" visible="true" lat="43.77616469" lon="-72.82411513">
    <tag k="addr:city" v="Pittsfield"/>
    <tag k="addr:housenumber" v="222"/>
    <tag k="addr:street" v="Hawk Lane"/>
    <tag k="addr:state" v="VT"/>
    <tag k="ref:vcgi:esiteid" v="187247"/>
  </node>
  <node id="-317" visible="true" lat="43.776559" lon="-72.82352484">
    <tag k="addr:city" v="Pittsfield"/>
    <tag k="addr:housenumber" v="264"/>
    <tag k="addr:street" v="Hawk Lane"/>
    <tag k="addr:state" v="VT"/>
    <tag k="ref:vcgi:esiteid" v="187248"/>
  </node>
  <node id="-319" visible="true" lat="43.77702342" lon="-72.82373558">
    <tag k="addr:city" v="Pittsfield"/>
    <tag k="addr:housenumber" v="273"/>
    <tag k="addr:street" v="Hawk Lane"/>
    <tag k="addr:state" v="VT"/>
    <tag k="ref:vcgi:esiteid" v="187250"/>
  </node>
  <node id="-320" visible="true" lat="43.77654317" lon="-72.8259988">
    <tag k="addr:city" v="Pittsfield"/>
    <tag k="addr:housenumber" v="62"/>
    <tag k="addr:street" v="Glen Road West"/>
    <tag k="addr:state" v="VT"/>
    <tag k="ref:vcgi:esiteid" v="187251"/>
  </node>
  <node id="-322" visible="true" lat="43.77441811" lon="-72.8264252">
    <tag k="addr:city" v="Pittsfield"/>
    <tag k="addr:housenumber" v="49"/>
    <tag k="addr:street" v="Hawk Lane"/>
    <tag k="addr:state" v="VT"/>
    <tag k="ref:vcgi:esiteid" v="187253"/>
  </node>
  <node id="-323" visible="true" lat="43.7737784" lon="-72.82275622">
    <tag k="addr:city" v="Pittsfield"/>
    <tag k="addr:housenumber" v="20"/>
    <tag k="addr:street" v="Hawk Run"/>
    <tag k="addr:state" v="VT"/>
    <tag k="ref:vcgi:esiteid" v="187254"/>
  </node>
  <node id="-326" visible="true" lat="43.7731989" lon="-72.81727256">
    <tag k="addr:city" v="Pittsfield"/>
    <tag k="addr:housenumber" v="201"/>
    <tag k="addr:street" v="Upper Michigan Road"/>
    <tag k="addr:state" v="VT"/>
    <tag k="ref:vcgi:esiteid" v="187257"/>
  </node>
  <node id="-333" visible="true" lat="43.77693748" lon="-72.82112142">
    <tag k="addr:city" v="Pittsfield"/>
    <tag k="addr:housenumber" v="112"/>
    <tag k="addr:street" v="Hawk Trail"/>
    <tag k="addr:state" v="VT"/>
    <tag k="ref:vcgi:esiteid" v="187264"/>
  </node>
  <node id="-335" visible="true" lat="43.77740006" lon="-72.82116107">
    <tag k="addr:city" v="Pittsfield"/>
    <tag k="addr:housenumber" v="30"/>
    <tag k="addr:street" v="Moose Run"/>
    <tag k="addr:state" v="VT"/>
    <tag k="ref:vcgi:esiteid" v="187266"/>
  </node>
  <node id="-336" visible="true" lat="43.77883556" lon="-72.81959528">
    <tag k="addr:city" v="Pittsfield"/>
    <tag k="addr:housenumber" v="122"/>
    <tag k="addr:street" v="Moose Run"/>
    <tag k="addr:state" v="VT"/>
    <tag k="ref:vcgi:esiteid" v="187267"/>
  </node>
  <node id="-337" visible="true" lat="43.78125566" lon="-72.81998305">
    <tag k="addr:city" v="Pittsfield"/>
    <tag k="addr:housenumber" v="298"/>
    <tag k="addr:street" v="Moose Run"/>
    <tag k="addr:state" v="VT"/>
    <tag k="ref:vcgi:esiteid" v="187268"/>
  </node>
  <node id="-338" visible="true" lat="43.77924842" lon="-72.82195259">
    <tag k="addr:city" v="Pittsfield"/>
    <tag k="addr:housenumber" v="366"/>
    <tag k="addr:street" v="Hawk Mountain Road"/>
    <tag k="addr:state" v="VT"/>
    <tag k="ref:vcgi:esiteid" v="187269"/>
  </node>
  <node id="-339" visible="true" lat="43.77871668" lon="-72.82262628">
    <tag k="addr:city" v="Pittsfield"/>
    <tag k="addr:housenumber" v="430"/>
    <tag k="addr:street" v="Hawk Mountain Road"/>
    <tag k="addr:state" v="VT"/>
    <tag k="ref:vcgi:esiteid" v="187270"/>
  </node>
  <node id="-340" visible="true" lat="43.77844197" lon="-72.82354577">
    <tag k="addr:city" v="Pittsfield"/>
    <tag k="addr:housenumber" v="436"/>
    <tag k="addr:street" v="Hawk Mountain Road"/>
    <tag k="addr:state" v="VT"/>
    <tag k="ref:vcgi:esiteid" v="187271"/>
  </node>
  <node id="-342" visible="true" lat="43.77787999" lon="-72.82561547">
    <tag k="addr:city" v="Pittsfield"/>
    <tag k="addr:housenumber" v="590"/>
    <tag k="addr:street" v="Hawk Mountain Road"/>
    <tag k="addr:state" v="VT"/>
    <tag k="ref:vcgi:esiteid" v="187273"/>
  </node>
  <node id="-343" visible="true" lat="43.77825737" lon="-72.8268542">
    <tag k="addr:city" v="Pittsfield"/>
    <tag k="addr:housenumber" v="800"/>
    <tag k="addr:street" v="Hawk Mountain Road"/>
    <tag k="addr:state" v="VT"/>
    <tag k="ref:vcgi:esiteid" v="187274"/>
  </node>
  <node id="-344" visible="true" lat="43.77884204" lon="-72.82607479">
    <tag k="addr:city" v="Pittsfield"/>
    <tag k="addr:housenumber" v="846"/>
    <tag k="addr:street" v="Hawk Mountain Road"/>
    <tag k="addr:state" v="VT"/>
    <tag k="ref:vcgi:esiteid" v="187275"/>
  </node>
  <node id="-345" visible="true" lat="43.77871341" lon="-72.82514041">
    <tag k="addr:city" v="Pittsfield"/>
    <tag k="addr:housenumber" v="1006"/>
    <tag k="addr:street" v="Hawk Mountain Road"/>
    <tag k="addr:state" v="VT"/>
    <tag k="ref:vcgi:esiteid" v="187276"/>
  </node>
  <node id="-347" visible="true" lat="43.77923127" lon="-72.82393477">
    <tag k="addr:city" v="Pittsfield"/>
    <tag k="addr:housenumber" v="1060"/>
    <tag k="addr:street" v="Hawk Mountain Road"/>
    <tag k="addr:state" v="VT"/>
    <tag k="ref:vcgi:esiteid" v="187278"/>
  </node>
  <node id="-348" visible="true" lat="43.78018784" lon="-72.82354212">
    <tag k="addr:city" v="Pittsfield"/>
    <tag k="addr:housenumber" v="1114"/>
    <tag k="addr:street" v="Hawk Mountain Road"/>
    <tag k="addr:state" v="VT"/>
    <tag k="ref:vcgi:esiteid" v="187279"/>
  </node>
  <node id="-349" visible="true" lat="43.78324462" lon="-72.822833">
    <tag k="addr:city" v="Pittsfield"/>
    <tag k="addr:housenumber" v="98"/>
    <tag k="addr:street" v="Wilcox Peak Road"/>
    <tag k="addr:state" v="VT"/>
    <tag k="ref:vcgi:esiteid" v="187280"/>
  </node>
  <node id="-351" visible="true" lat="43.78088012" lon="-72.82584514">
    <tag k="addr:city" v="Pittsfield"/>
    <tag k="addr:housenumber" v="937"/>
    <tag k="addr:street" v="Hawk Mountain Road"/>
    <tag k="addr:state" v="VT"/>
    <tag k="ref:vcgi:esiteid" v="187282"/>
  </node>
  <node id="-353" visible="true" lat="43.77697066" lon="-72.82608214">
    <tag k="addr:city" v="Pittsfield"/>
    <tag k="addr:housenumber" v="585"/>
    <tag k="addr:street" v="Hawk Mountain Road"/>
    <tag k="addr:state" v="VT"/>
    <tag k="ref:vcgi:esiteid" v="187284"/>
  </node>
  <node id="-354" visible="true" lat="43.77732133" lon="-72.82449023">
    <tag k="addr:city" v="Pittsfield"/>
    <tag k="addr:housenumber" v="565"/>
    <tag k="addr:street" v="Hawk Mountain Road"/>
    <tag k="addr:state" v="VT"/>
    <tag k="ref:vcgi:esiteid" v="187285"/>
  </node>
  <node id="-355" visible="true" lat="43.77744948" lon="-72.82378902">
    <tag k="addr:city" v="Pittsfield"/>
    <tag k="addr:housenumber" v="469"/>
    <tag k="addr:street" v="Hawk Mountain Road"/>
    <tag k="addr:state" v="VT"/>
    <tag k="ref:vcgi:esiteid" v="187286"/>
  </node>
  <node id="-356" visible="true" lat="43.77798219" lon="-72.82297262">
    <tag k="addr:city" v="Pittsfield"/>
    <tag k="addr:housenumber" v="449"/>
    <tag k="addr:street" v="Hawk Mountain Road"/>
    <tag k="addr:state" v="VT"/>
    <tag k="ref:vcgi:esiteid" v="187287"/>
  </node>
  <node id="-358" visible="true" lat="43.77606792" lon="-72.82330126">
    <tag k="addr:city" v="Pittsfield"/>
    <tag k="addr:housenumber" v="171"/>
    <tag k="addr:street" v="Hawk Mountain Road"/>
    <tag k="addr:state" v="VT"/>
    <tag k="ref:vcgi:esiteid" v="187289"/>
  </node>
  <node id="-359" visible="true" lat="43.77543588" lon="-72.82377682">
    <tag k="addr:city" v="Pittsfield"/>
    <tag k="addr:housenumber" v="99"/>
    <tag k="addr:street" v="Hawk Mountain Road"/>
    <tag k="addr:state" v="VT"/>
    <tag k="ref:vcgi:esiteid" v="187290"/>
  </node>
  <node id="-362" visible="true" lat="43.75885461" lon="-72.81411271">
    <tag k="addr:city" v="Pittsfield"/>
    <tag k="addr:housenumber" v="402"/>
    <tag k="addr:street" v="Tweed River Drive"/>
    <tag k="addr:state" v="VT"/>
    <tag k="ref:vcgi:esiteid" v="187293"/>
  </node>
  <node id="-363" visible="true" lat="43.75824763" lon="-72.81403206">
    <tag k="addr:city" v="Pittsfield"/>
    <tag k="addr:housenumber" v="8"/>
    <tag k="addr:street" v="Park Place"/>
    <tag k="addr:state" v="VT"/>
    <tag k="ref:vcgi:esiteid" v="187294"/>
  </node>
  <node id="-365" visible="true" lat="43.75858986" lon="-72.81558384">
    <tag k="addr:city" v="Pittsfield"/>
    <tag k="addr:housenumber" v="125"/>
    <tag k="addr:street" v="Park Place"/>
    <tag k="addr:state" v="VT"/>
    <tag k="ref:vcgi:esiteid" v="187296"/>
  </node>
  <node id="-366" visible="true" lat="43.75818465" lon="-72.81591472">
    <tag k="addr:city" v="Pittsfield"/>
    <tag k="addr:housenumber" v="115"/>
    <tag k="addr:street" v="Park Place"/>
    <tag k="addr:state" v="VT"/>
    <tag k="ref:vcgi:esiteid" v="187298"/>
  </node>
  <node id="-368" visible="true" lat="43.75978398" lon="-72.81176336">
    <tag k="addr:city" v="Pittsfield"/>
    <tag k="addr:housenumber" v="219"/>
    <tag k="addr:street" v="Heritage Heights"/>
    <tag k="addr:state" v="VT"/>
    <tag k="ref:vcgi:esiteid" v="187300"/>
  </node>
  <node id="-369" visible="true" lat="43.75928681" lon="-72.81203509">
    <tag k="addr:city" v="Pittsfield"/>
    <tag k="addr:housenumber" v="199"/>
    <tag k="addr:street" v="Heritage Heights"/>
    <tag k="addr:state" v="VT"/>
    <tag k="ref:vcgi:esiteid" v="187301"/>
  </node>
  <node id="-370" visible="true" lat="43.75870797" lon="-72.81222511">
    <tag k="addr:city" v="Pittsfield"/>
    <tag k="addr:housenumber" v="165"/>
    <tag k="addr:street" v="Heritage Heights"/>
    <tag k="addr:state" v="VT"/>
    <tag k="ref:vcgi:esiteid" v="187302"/>
  </node>
  <node id="-371" visible="true" lat="43.75824472" lon="-72.81223782">
    <tag k="addr:city" v="Pittsfield"/>
    <tag k="addr:housenumber" v="109"/>
    <tag k="addr:street" v="Heritage Heights"/>
    <tag k="addr:state" v="VT"/>
    <tag k="ref:vcgi:esiteid" v="187303"/>
  </node>
  <node id="-372" visible="true" lat="43.75731534" lon="-72.81256129">
    <tag k="addr:city" v="Pittsfield"/>
    <tag k="addr:housenumber" v="565"/>
    <tag k="addr:street" v="Tweed River Drive"/>
    <tag k="addr:state" v="VT"/>
    <tag k="ref:vcgi:esiteid" v="187304"/>
  </node>
  <node id="-373" visible="true" lat="43.75811084" lon="-72.81316861">
    <tag k="addr:city" v="Pittsfield"/>
    <tag k="addr:housenumber" v="485"/>
    <tag k="addr:street" v="Tweed River Drive"/>
    <tag k="addr:state" v="VT"/>
    <tag k="ref:vcgi:esiteid" v="187305"/>
  </node>
  <node id="-374" visible="true" lat="43.75978472" lon="-72.81282966">
    <tag k="addr:city" v="Pittsfield"/>
    <tag k="addr:housenumber" v="64"/>
    <tag k="addr:street" v="Dove Drive"/>
    <tag k="addr:state" v="VT"/>
    <tag k="ref:vcgi:esiteid" v="187306"/>
  </node>
  <node id="-375" visible="true" lat="43.75998102" lon="-72.81352134">
    <tag k="addr:city" v="Pittsfield"/>
    <tag k="addr:housenumber" v="53"/>
    <tag k="addr:street" v="Dove Drive"/>
    <tag k="addr:state" v="VT"/>
    <tag k="ref:vcgi:esiteid" v="187307"/>
  </node>
  <node id="-377" visible="true" lat="43.763689" lon="-72.81672005">
    <tag k="addr:city" v="Pittsfield"/>
    <tag k="addr:housenumber" v="57"/>
    <tag k="addr:street" v="Tweed River Drive"/>
    <tag k="addr:state" v="VT"/>
    <tag k="ref:vcgi:esiteid" v="187309"/>
  </node>
  <node id="-401" visible="true" lat="43.77631378" lon="-72.8068616">
    <tag k="addr:city" v="Pittsfield"/>
    <tag k="addr:housenumber" v="39"/>
    <tag k="addr:street" v="Diablo Lane"/>
    <tag k="addr:state" v="VT"/>
    <tag k="ref:vcgi:esiteid" v="187337"/>
  </node>
  <node id="-404" visible="true" lat="43.78039055" lon="-72.79832043">
    <tag k="addr:city" v="Pittsfield"/>
    <tag k="addr:housenumber" v="64"/>
    <tag k="addr:street" v="Pine Needle Hill Road"/>
    <tag k="addr:state" v="VT"/>
    <tag k="ref:vcgi:esiteid" v="187340"/>
  </node>
  <node id="-405" visible="true" lat="43.78102116" lon="-72.79845618">
    <tag k="addr:city" v="Pittsfield"/>
    <tag k="addr:housenumber" v="120"/>
    <tag k="addr:street" v="Pine Needle Hill Road"/>
    <tag k="addr:state" v="VT"/>
    <tag k="ref:vcgi:esiteid" v="187341"/>
  </node>
  <node id="-406" visible="true" lat="43.77994794" lon="-72.79885946">
    <tag k="addr:city" v="Pittsfield"/>
    <tag k="addr:housenumber" v="70"/>
    <tag k="addr:street" v="Guernsey Hollow Road"/>
    <tag k="addr:state" v="VT"/>
    <tag k="ref:vcgi:esiteid" v="187342"/>
  </node>
  <node id="-412" visible="true" lat="43.78761995" lon="-72.80047224">
    <tag k="addr:city" v="Pittsfield"/>
    <tag k="addr:housenumber" v="121"/>
    <tag k="addr:street" v="Jenny Pond Road"/>
    <tag k="addr:state" v="VT"/>
    <tag k="ref:vcgi:esiteid" v="187348"/>
  </node>
  <node id="-413" visible="true" lat="43.78910234" lon="-72.80093073">
    <tag k="addr:city" v="Pittsfield"/>
    <tag k="addr:housenumber" v="102"/>
    <tag k="addr:street" v="Silver Spring Hill Road"/>
    <tag k="addr:state" v="VT"/>
    <tag k="ref:vcgi:esiteid" v="187349"/>
  </node>
  <node id="-414" visible="true" lat="43.78971173" lon="-72.80007052">
    <tag k="addr:city" v="Pittsfield"/>
    <tag k="addr:housenumber" v="194"/>
    <tag k="addr:street" v="Silver Spring Hill Road"/>
    <tag k="addr:state" v="VT"/>
    <tag k="ref:vcgi:esiteid" v="187350"/>
  </node>
  <node id="-415" visible="true" lat="43.7889353" lon="-72.79956195">
    <tag k="addr:city" v="Pittsfield"/>
    <tag k="addr:housenumber" v="270"/>
    <tag k="addr:street" v="Silver Spring Hill Road"/>
    <tag k="addr:state" v="VT"/>
    <tag k="ref:vcgi:esiteid" v="187351"/>
  </node>
  <node id="-417" visible="true" lat="43.79030568" lon="-72.79912593">
    <tag k="addr:city" v="Pittsfield"/>
    <tag k="addr:housenumber" v="239"/>
    <tag k="addr:street" v="Silver Spring Hill Road"/>
    <tag k="addr:state" v="VT"/>
    <tag k="ref:vcgi:esiteid" v="187353"/>
  </node>
  <node id="-418" visible="true" lat="43.79058969" lon="-72.80090768">
    <tag k="addr:city" v="Pittsfield"/>
    <tag k="addr:housenumber" v="163"/>
    <tag k="addr:street" v="Silver Spring Hill Road"/>
    <tag k="addr:state" v="VT"/>
    <tag k="ref:vcgi:esiteid" v="187354"/>
  </node>
  <node id="-419" visible="true" lat="43.79118392" lon="-72.80132225">
    <tag k="addr:city" v="Pittsfield"/>
    <tag k="addr:housenumber" v="165"/>
    <tag k="addr:street" v="Silver Spring Hill Road"/>
    <tag k="addr:state" v="VT"/>
    <tag k="ref:vcgi:esiteid" v="187355"/>
  </node>
  <node id="-426" visible="true" lat="43.7864869" lon="-72.80280375">
    <tag k="addr:city" v="Pittsfield"/>
    <tag k="addr:housenumber" v="32"/>
    <tag k="addr:street" v="Forsha Road"/>
    <tag k="addr:state" v="VT"/>
    <tag k="ref:vcgi:esiteid" v="187362"/>
  </node>
  <node id="-427" visible="true" lat="43.78776843" lon="-72.80494835">
    <tag k="addr:city" v="Pittsfield"/>
    <tag k="addr:housenumber" v="238"/>
    <tag k="addr:street" v="Forsha Road"/>
    <tag k="addr:state" v="VT"/>
    <tag k="ref:vcgi:esiteid" v="187363"/>
  </node>
  <node id="-428" visible="true" lat="43.7888538" lon="-72.80835025">
    <tag k="addr:city" v="Pittsfield"/>
    <tag k="addr:housenumber" v="410"/>
    <tag k="addr:street" v="Forsha Road"/>
    <tag k="addr:state" v="VT"/>
    <tag k="ref:vcgi:esiteid" v="187364"/>
  </node>
  <node id="-429" visible="true" lat="43.7887359" lon="-72.81071617">
    <tag k="addr:city" v="Pittsfield"/>
    <tag k="addr:housenumber" v="447"/>
    <tag k="addr:street" v="Forsha Road"/>
    <tag k="addr:state" v="VT"/>
    <tag k="ref:vcgi:esiteid" v="187366"/>
  </node>
  <node id="-430" visible="true" lat="43.78769209" lon="-72.80694403">
    <tag k="addr:city" v="Pittsfield"/>
    <tag k="addr:housenumber" v="277"/>
    <tag k="addr:street" v="Forsha Road"/>
    <tag k="addr:state" v="VT"/>
    <tag k="ref:vcgi:esiteid" v="187367"/>
  </node>
  <node id="-431" visible="true" lat="43.78514221" lon="-72.80317107">
    <tag k="addr:city" v="Pittsfield"/>
    <tag k="addr:housenumber" v="44"/>
    <tag k="addr:street" v="Eagle Rock Road"/>
    <tag k="addr:state" v="VT"/>
    <tag k="ref:vcgi:esiteid" v="187368"/>
  </node>
  <node id="-432" visible="true" lat="43.78442666" lon="-72.80397257">
    <tag k="addr:city" v="Pittsfield"/>
    <tag k="addr:housenumber" v="118"/>
    <tag k="addr:street" v="Eagle Rock Road"/>
    <tag k="addr:state" v="VT"/>
    <tag k="ref:vcgi:esiteid" v="187369"/>
  </node>
  <node id="-433" visible="true" lat="43.78427139" lon="-72.80435844">
    <tag k="addr:city" v="Pittsfield"/>
    <tag k="addr:housenumber" v="176"/>
    <tag k="addr:street" v="Eagle Rock Road"/>
    <tag k="addr:state" v="VT"/>
    <tag k="ref:vcgi:esiteid" v="187370"/>
  </node>
  <node id="-434" visible="true" lat="43.78405034" lon="-72.80363381">
    <tag k="addr:city" v="Pittsfield"/>
    <tag k="addr:housenumber" v="179"/>
    <tag k="addr:street" v="Eagle Rock Road"/>
    <tag k="addr:state" v="VT"/>
    <tag k="ref:vcgi:esiteid" v="187371"/>
  </node>
  <node id="-435" visible="true" lat="43.78388274" lon="-72.80268992">
    <tag k="addr:city" v="Pittsfield"/>
    <tag k="addr:housenumber" v="153"/>
    <tag k="addr:street" v="Eagle Rock Road"/>
    <tag k="addr:state" v="VT"/>
    <tag k="ref:vcgi:esiteid" v="187372"/>
  </node>
  <node id="-437" visible="true" lat="43.78031771" lon="-72.8025188">
    <tag k="addr:city" v="Pittsfield"/>
    <tag k="addr:housenumber" v="217"/>
    <tag k="addr:street" v="Music Mountain Road"/>
    <tag k="addr:state" v="VT"/>
    <tag k="ref:vcgi:esiteid" v="187374"/>
  </node>
  <node id="-445" visible="true" lat="43.7741474" lon="-72.82412103">
    <tag k="addr:city" v="Pittsfield"/>
    <tag k="addr:housenumber" v="6"/>
    <tag k="addr:street" v="Hawk Lane"/>
    <tag k="addr:state" v="VT"/>
    <tag k="ref:vcgi:esiteid" v="187382"/>
  </node>
  <node id="-456" visible="true" lat="43.73278504" lon="-72.81633551">
    <tag k="addr:city" v="Pittsfield"/>
    <tag k="addr:housenumber" v="46"/>
    <tag k="addr:street" v="Camp 12 Road"/>
    <tag k="addr:state" v="VT"/>
    <tag k="ref:vcgi:esiteid" v="187394"/>
  </node>
  <node id="-462" visible="true" lat="43.73354138" lon="-72.81876466">
    <tag k="addr:city" v="Pittsfield"/>
    <tag k="addr:housenumber" v="91"/>
    <tag k="addr:street" v="Johnson Brook Road"/>
    <tag k="addr:state" v="VT"/>
    <tag k="ref:vcgi:esiteid" v="187401"/>
  </node>
  <node id="-463" visible="true" lat="43.77413595" lon="-72.83634304">
    <tag k="addr:city" v="Pittsfield"/>
    <tag k="addr:housenumber" v="54"/>
    <tag k="addr:street" v="Crossover Road"/>
    <tag k="addr:state" v="VT"/>
    <tag k="ref:vcgi:esiteid" v="187402"/>
  </node>
  <node id="-465" visible="true" lat="43.73622907" lon="-72.81681037">
    <tag k="addr:city" v="Pittsfield"/>
    <tag k="addr:housenumber" v="187"/>
    <tag k="addr:street" v="South Hill Road"/>
    <tag k="addr:state" v="VT"/>
    <tag k="ref:vcgi:esiteid" v="187404"/>
  </node>
  <node id="-468" visible="true" lat="43.77769736" lon="-72.84304803">
    <tag k="addr:city" v="Pittsfield"/>
    <tag k="addr:housenumber" v="1575"/>
    <tag k="addr:street" v="Upper Michigan Road"/>
    <tag k="addr:state" v="VT"/>
    <tag k="ref:vcgi:esiteid" v="187407"/>
  </node>
  <node id="-469" visible="true" lat="43.75512034" lon="-72.82745207">
    <tag k="addr:city" v="Pittsfield"/>
    <tag k="addr:housenumber" v="75"/>
    <tag k="addr:street" v="Partridge Road"/>
    <tag k="addr:state" v="VT"/>
    <tag k="ref:vcgi:esiteid" v="187408"/>
  </node>
  <node id="-470" visible="true" lat="43.78861344" lon="-72.80177601">
    <tag k="addr:city" v="Pittsfield"/>
    <tag k="addr:housenumber" v="42"/>
    <tag k="addr:street" v="Jenny Pond Road"/>
    <tag k="addr:state" v="VT"/>
    <tag k="ref:vcgi:esiteid" v="187409"/>
  </node>
  <node id="-472" visible="true" lat="43.75532058" lon="-72.82458931">
    <tag k="addr:city" v="Pittsfield"/>
    <tag k="addr:housenumber" v="91"/>
    <tag k="addr:street" v="Bombadil Path"/>
    <tag k="addr:state" v="VT"/>
    <tag k="ref:vcgi:esiteid" v="187412"/>
  </node>
  <node id="-474" visible="true" lat="43.72345043" lon="-72.82486813">
    <tag k="addr:city" v="Pittsfield"/>
    <tag k="addr:housenumber" v="237"/>
    <tag k="addr:street" v="Hadley Lane"/>
    <tag k="addr:state" v="VT"/>
    <tag k="ref:vcgi:esiteid" v="187414"/>
  </node>
  <node id="-476" visible="true" lat="43.78002694" lon="-72.81954126">
    <tag k="addr:city" v="Pittsfield"/>
    <tag k="addr:housenumber" v="200"/>
    <tag k="addr:street" v="Moose Run"/>
    <tag k="addr:state" v="VT"/>
    <tag k="ref:vcgi:esiteid" v="187416"/>
  </node>
  <node id="-481" visible="true" lat="43.7538864" lon="-72.82390246">
    <tag k="addr:city" v="Pittsfield"/>
    <tag k="addr:housenumber" v="218"/>
    <tag k="addr:street" v="Townsend Brook Road"/>
    <tag k="addr:state" v="VT"/>
    <tag k="ref:vcgi:esiteid" v="312289"/>
  </node>
  <node id="-482" visible="true" lat="43.75333214" lon="-72.82413363">
    <tag k="addr:city" v="Pittsfield"/>
    <tag k="addr:housenumber" v="230"/>
    <tag k="addr:street" v="Townsend Brook Road"/>
    <tag k="addr:state" v="VT"/>
    <tag k="ref:vcgi:esiteid" v="312290"/>
  </node>
  <node id="-483" visible="true" lat="43.75361816" lon="-72.82746568">
    <tag k="addr:city" v="Pittsfield"/>
    <tag k="addr:housenumber" v="39"/>
    <tag k="addr:street" v="Lookout Road"/>
    <tag k="addr:state" v="VT"/>
    <tag k="ref:vcgi:esiteid" v="312291"/>
  </node>
  <node id="-485" visible="true" lat="43.79014579" lon="-72.81187482">
    <tag k="addr:city" v="Pittsfield"/>
    <tag k="addr:housenumber" v="461"/>
    <tag k="addr:street" v="Forsha Road"/>
    <tag k="addr:state" v="VT"/>
    <tag k="ref:vcgi:esiteid" v="312295"/>
  </node>
  <node id="-487" visible="true" lat="43.75455337" lon="-72.82089683">
    <tag k="addr:city" v="Pittsfield"/>
    <tag k="addr:housenumber" v="87"/>
    <tag k="addr:street" v="Townsend Brook Road"/>
    <tag k="addr:state" v="VT"/>
    <tag k="ref:vcgi:esiteid" v="316003"/>
  </node>
  <node id="-488" visible="true" lat="43.75428185" lon="-72.82144983">
    <tag k="addr:city" v="Pittsfield"/>
    <tag k="addr:housenumber" v="89"/>
    <tag k="addr:street" v="Townsend Brook Road"/>
    <tag k="addr:state" v="VT"/>
    <tag k="ref:vcgi:esiteid" v="316004"/>
  </node>
  <node id="-491" visible="true" lat="43.73748741" lon="-72.81914211">
    <tag k="addr:city" v="Pittsfield"/>
    <tag k="addr:housenumber" v="111"/>
    <tag k="addr:street" v="South Hill Road"/>
    <tag k="addr:state" v="VT"/>
    <tag k="ref:vcgi:esiteid" v="325282"/>
  </node>
  <node id="-508" visible="true" lat="43.75859149" lon="-72.81306878">
    <tag k="addr:city" v="Pittsfield"/>
    <tag k="addr:housenumber" v="461"/>
    <tag k="addr:street" v="Tweed River Drive"/>
    <tag k="addr:state" v="VT"/>
    <tag k="ref:vcgi:esiteid" v="345593"/>
  </node>
</osm>
