<?xml version="1.0" encoding="UTF-8"?>
<osm version="0.6" generator="JOSM" upload="false">
  <node id="-312" visible="true" lat="43.71922409" lon="-73.04027519">
    <tag k="addr:housenumber" v="13"/>
    <tag k="addr:street" v="Kendall Hill Road"/>
    <tag k="addr:state" v="VT"/>
    <tag k="ref:vcgi:esiteid" v="187642"/>
  </node>
  <node id="-326" visible="true" lat="43.71855669" lon="-73.04017666">
    <tag k="addr:housenumber" v="4943"/>
    <tag k="addr:street" v="U.S. Route 7"/>
    <tag k="addr:state" v="VT"/>
    <tag k="ref:vcgi:esiteid" v="187656"/>
  </node>
  <node id="-338" visible="true" lat="43.7180258" lon="-73.03954967">
    <tag k="addr:housenumber" v="11"/>
    <tag k="addr:street" v="Pinewoods Road"/>
    <tag k="addr:state" v="VT"/>
    <tag k="ref:vcgi:esiteid" v="187674"/>
  </node>
  <node id="-343" visible="true" lat="43.71747537" lon="-73.04002159">
    <tag k="addr:housenumber" v="4875"/>
    <tag k="addr:street" v="U.S. Route 7"/>
    <tag k="addr:state" v="VT"/>
    <tag k="ref:vcgi:esiteid" v="187679"/>
  </node>
  <node id="-356" visible="true" lat="43.71721477" lon="-73.01746613">
    <tag k="addr:housenumber" v="92"/>
    <tag k="addr:street" v="Dorfner Drive"/>
    <tag k="addr:state" v="VT"/>
    <tag k="ref:vcgi:esiteid" v="187696"/>
  </node>
  <node id="-364" visible="true" lat="43.71681416" lon="-73.03928722">
    <tag k="addr:housenumber" v="4814"/>
    <tag k="addr:street" v="U.S. Route 7"/>
    <tag k="addr:state" v="VT"/>
    <tag k="ref:vcgi:esiteid" v="187704"/>
  </node>
  <node id="-366" visible="true" lat="43.71656678" lon="-73.0363051">
    <tag k="addr:housenumber" v="184"/>
    <tag k="addr:street" v="Pinewoods Road"/>
    <tag k="addr:state" v="VT"/>
    <tag k="ref:vcgi:esiteid" v="187707"/>
  </node>
  <node id="-371" visible="true" lat="43.71655842" lon="-73.03971887">
    <tag k="addr:housenumber" v="4803"/>
    <tag k="addr:street" v="U.S. Route 7"/>
    <tag k="addr:state" v="VT"/>
    <tag k="ref:vcgi:esiteid" v="187714"/>
  </node>
  <node id="-380" visible="true" lat="43.71626331" lon="-73.03730003">
    <tag k="addr:housenumber" v="170"/>
    <tag k="addr:street" v="Pinewoods Road"/>
    <tag k="addr:state" v="VT"/>
    <tag k="ref:vcgi:esiteid" v="187724"/>
  </node>
  <node id="-388" visible="true" lat="43.71601825" lon="-73.03977234">
    <tag k="addr:housenumber" v="4769"/>
    <tag k="addr:street" v="U.S. Route 7"/>
    <tag k="addr:state" v="VT"/>
    <tag k="ref:vcgi:esiteid" v="187732"/>
  </node>
  <node id="-389" visible="true" lat="43.71603143" lon="-73.0365818">
    <tag k="addr:housenumber" v="172"/>
    <tag k="addr:street" v="Pinewoods Road"/>
    <tag k="addr:state" v="VT"/>
    <tag k="ref:vcgi:esiteid" v="187733"/>
  </node>
  <node id="-393" visible="true" lat="43.71589471" lon="-73.04091375">
    <tag k="addr:housenumber" v="4791"/>
    <tag k="addr:street" v="U.S. Route 7"/>
    <tag k="addr:state" v="VT"/>
    <tag k="ref:vcgi:esiteid" v="187737"/>
  </node>
  <node id="-400" visible="true" lat="43.71575632" lon="-73.03840561">
    <tag k="addr:housenumber" v="4730"/>
    <tag k="addr:street" v="U.S. Route 7"/>
    <tag k="addr:state" v="VT"/>
    <tag k="ref:vcgi:esiteid" v="187744"/>
  </node>
  <node id="-406" visible="true" lat="43.71541212" lon="-73.01903655">
    <tag k="addr:housenumber" v="405"/>
    <tag k="addr:street" v="Academy Road"/>
    <tag k="addr:state" v="VT"/>
    <tag k="ref:vcgi:esiteid" v="187750"/>
  </node>
  <node id="-424" visible="true" lat="43.71475767" lon="-73.03845447">
    <tag k="addr:housenumber" v="4663"/>
    <tag k="addr:street" v="U.S. Route 7"/>
    <tag k="addr:state" v="VT"/>
    <tag k="ref:vcgi:esiteid" v="187771"/>
  </node>
  <node id="-425" visible="true" lat="43.71474904" lon="-73.01507105">
    <tag k="addr:housenumber" v="197"/>
    <tag k="addr:street" v="Academy Road"/>
    <tag k="addr:state" v="VT"/>
    <tag k="ref:vcgi:esiteid" v="187772"/>
  </node>
  <node id="-428" visible="true" lat="43.71451889" lon="-73.03875501">
    <tag k="addr:housenumber" v="4665"/>
    <tag k="addr:street" v="U.S. Route 7"/>
    <tag k="addr:state" v="VT"/>
    <tag k="ref:vcgi:esiteid" v="187775"/>
  </node>
  <node id="-429" visible="true" lat="43.71443393" lon="-73.01763154">
    <tag k="addr:housenumber" v="317"/>
    <tag k="addr:street" v="Academy Road"/>
    <tag k="addr:state" v="VT"/>
    <tag k="ref:vcgi:esiteid" v="187776"/>
  </node>
  <node id="-444" visible="true" lat="43.71432389" lon="-73.03654788">
    <tag k="addr:housenumber" v="4578"/>
    <tag k="addr:street" v="U.S. Route 7"/>
    <tag k="addr:state" v="VT"/>
    <tag k="ref:vcgi:esiteid" v="187791"/>
  </node>
  <node id="-460" visible="true" lat="43.7137494" lon="-73.03755203">
    <tag k="addr:housenumber" v="4601"/>
    <tag k="addr:street" v="U.S. Route 7"/>
    <tag k="addr:state" v="VT"/>
    <tag k="ref:vcgi:esiteid" v="187808"/>
  </node>
  <node id="-467" visible="true" lat="43.7136116" lon="-73.03734588">
    <tag k="addr:housenumber" v="4569"/>
    <tag k="addr:street" v="U.S. Route 7"/>
    <tag k="addr:state" v="VT"/>
    <tag k="ref:vcgi:esiteid" v="187816"/>
  </node>
  <node id="-479" visible="true" lat="43.713118" lon="-73.01387833">
    <tag k="addr:housenumber" v="494"/>
    <tag k="addr:street" v="Furnace Road"/>
    <tag k="addr:state" v="VT"/>
    <tag k="ref:vcgi:esiteid" v="187831"/>
  </node>
  <node id="-495" visible="true" lat="43.71230123" lon="-73.01541916">
    <tag k="addr:housenumber" v="411"/>
    <tag k="addr:street" v="Furnace Road"/>
    <tag k="addr:state" v="VT"/>
    <tag k="ref:vcgi:esiteid" v="187849"/>
  </node>
  <node id="-512" visible="true" lat="43.71140688" lon="-73.01545844">
    <tag k="addr:housenumber" v="355"/>
    <tag k="addr:street" v="Furnace Road"/>
    <tag k="addr:state" v="VT"/>
    <tag k="ref:vcgi:esiteid" v="187866"/>
  </node>
  <node id="-514" visible="true" lat="43.71118991" lon="-73.01486517">
    <tag k="addr:housenumber" v="338"/>
    <tag k="addr:street" v="Furnace Road"/>
    <tag k="addr:state" v="VT"/>
    <tag k="ref:vcgi:esiteid" v="187868"/>
  </node>
  <node id="-519" visible="true" lat="43.71087131" lon="-73.01492356">
    <tag k="addr:housenumber" v="318"/>
    <tag k="addr:street" v="Furnace Road"/>
    <tag k="addr:state" v="VT"/>
    <tag k="ref:vcgi:esiteid" v="187873"/>
  </node>
  <node id="-528" visible="true" lat="43.71047763" lon="-73.01505629">
    <tag k="addr:housenumber" v="288"/>
    <tag k="addr:street" v="Furnace Road"/>
    <tag k="addr:state" v="VT"/>
    <tag k="ref:vcgi:esiteid" v="187884"/>
  </node>
  <node id="-532" visible="true" lat="43.71012397" lon="-73.01519518">
    <tag k="addr:housenumber" v="268"/>
    <tag k="addr:street" v="Furnace Road"/>
    <tag k="addr:state" v="VT"/>
    <tag k="ref:vcgi:esiteid" v="187888"/>
  </node>
  <node id="-540" visible="true" lat="43.70974458" lon="-73.01604358">
    <tag k="addr:housenumber" v="221"/>
    <tag k="addr:street" v="Furnace Road"/>
    <tag k="addr:state" v="VT"/>
    <tag k="ref:vcgi:esiteid" v="187897"/>
  </node>
  <node id="-542" visible="true" lat="43.70956831" lon="-73.01561536">
    <tag k="addr:housenumber" v="226"/>
    <tag k="addr:street" v="Furnace Road"/>
    <tag k="addr:state" v="VT"/>
    <tag k="ref:vcgi:esiteid" v="187899"/>
  </node>
  <node id="-546" visible="true" lat="43.70932236" lon="-73.01628206">
    <tag k="addr:housenumber" v="201"/>
    <tag k="addr:street" v="Furnace Road"/>
    <tag k="addr:state" v="VT"/>
    <tag k="ref:vcgi:esiteid" v="187903"/>
  </node>
  <node id="-553" visible="true" lat="43.7087911" lon="-73.01668494">
    <tag k="addr:housenumber" v="157"/>
    <tag k="addr:street" v="Furnace Road"/>
    <tag k="addr:state" v="VT"/>
    <tag k="ref:vcgi:esiteid" v="187910"/>
  </node>
  <node id="-558" visible="true" lat="43.70851581" lon="-73.01675164">
    <tag k="addr:housenumber" v="141"/>
    <tag k="addr:street" v="Furnace Road"/>
    <tag k="addr:state" v="VT"/>
    <tag k="ref:vcgi:esiteid" v="187916"/>
  </node>
  <node id="-566" visible="true" lat="43.70787845" lon="-73.02942646">
    <tag k="addr:housenumber" v="4013"/>
    <tag k="addr:street" v="U.S. Route 7"/>
    <tag k="addr:state" v="VT"/>
    <tag k="ref:vcgi:esiteid" v="187926"/>
  </node>
  <node id="-568" visible="true" lat="43.70794102" lon="-73.0163924">
    <tag k="addr:housenumber" v="104"/>
    <tag k="addr:street" v="Furnace Road"/>
    <tag k="addr:state" v="VT"/>
    <tag k="ref:vcgi:esiteid" v="187928"/>
  </node>
  <node id="-569" visible="true" lat="43.7079277" lon="-73.01593017">
    <tag k="addr:housenumber" v="28"/>
    <tag k="addr:street" v="Randall Park Road"/>
    <tag k="addr:state" v="VT"/>
    <tag k="ref:vcgi:esiteid" v="187929"/>
  </node>
  <node id="-570" visible="true" lat="43.7076697" lon="-73.02918464">
    <tag k="addr:housenumber" v="3997"/>
    <tag k="addr:street" v="U.S. Route 7"/>
    <tag k="addr:state" v="VT"/>
    <tag k="ref:vcgi:esiteid" v="187930"/>
  </node>
  <node id="-573" visible="true" lat="43.70770355" lon="-73.01639851">
    <tag k="addr:housenumber" v="82"/>
    <tag k="addr:street" v="Furnace Road"/>
    <tag k="addr:state" v="VT"/>
    <tag k="ref:vcgi:esiteid" v="187933"/>
  </node>
  <node id="-575" visible="true" lat="43.70770252" lon="-73.02824225">
    <tag k="addr:housenumber" v="64"/>
    <tag k="addr:street" v="Village Green"/>
    <tag k="addr:state" v="VT"/>
    <tag k="ref:vcgi:esiteid" v="187935"/>
  </node>
  <node id="-576" visible="true" lat="43.70754618" lon="-73.02917199">
    <tag k="addr:housenumber" v="3981"/>
    <tag k="addr:street" v="U.S. Route 7"/>
    <tag k="addr:state" v="VT"/>
    <tag k="ref:vcgi:esiteid" v="187936"/>
  </node>
  <node id="-577" visible="true" lat="43.7076143" lon="-73.01707636">
    <tag k="addr:housenumber" v="77"/>
    <tag k="addr:street" v="Furnace Road"/>
    <tag k="addr:state" v="VT"/>
    <tag k="ref:vcgi:esiteid" v="187937"/>
  </node>
  <node id="-580" visible="true" lat="43.70760359" lon="-73.02818008">
    <tag k="addr:housenumber" v="58"/>
    <tag k="addr:street" v="Village Green"/>
    <tag k="addr:state" v="VT"/>
    <tag k="ref:vcgi:esiteid" v="187940"/>
  </node>
  <node id="-581" visible="true" lat="43.70749664" lon="-73.0281372">
    <tag k="addr:housenumber" v="52"/>
    <tag k="addr:street" v="Village Green"/>
    <tag k="addr:state" v="VT"/>
    <tag k="ref:vcgi:esiteid" v="187941"/>
  </node>
  <node id="-583" visible="true" lat="43.70745576" lon="-73.01654485">
    <tag k="addr:housenumber" v="66"/>
    <tag k="addr:street" v="Furnace Road"/>
    <tag k="addr:state" v="VT"/>
    <tag k="ref:vcgi:esiteid" v="187945"/>
  </node>
  <node id="-584" visible="true" lat="43.70724579" lon="-73.02876619">
    <tag k="addr:housenumber" v="3953"/>
    <tag k="addr:street" v="U.S. Route 7"/>
    <tag k="addr:state" v="VT"/>
    <tag k="ref:vcgi:esiteid" v="187946"/>
  </node>
  <node id="-585" visible="true" lat="43.70734023" lon="-73.02806854">
    <tag k="addr:housenumber" v="40"/>
    <tag k="addr:street" v="Village Green"/>
    <tag k="addr:state" v="VT"/>
    <tag k="ref:vcgi:esiteid" v="187947"/>
  </node>
  <node id="-588" visible="true" lat="43.70730734" lon="-73.01705594">
    <tag k="addr:housenumber" v="53"/>
    <tag k="addr:street" v="Furnace Road"/>
    <tag k="addr:state" v="VT"/>
    <tag k="ref:vcgi:esiteid" v="187950"/>
  </node>
  <node id="-589" visible="true" lat="43.70726289" lon="-73.01654991">
    <tag k="addr:housenumber" v="54"/>
    <tag k="addr:street" v="Furnace Road"/>
    <tag k="addr:state" v="VT"/>
    <tag k="ref:vcgi:esiteid" v="187951"/>
  </node>
  <node id="-592" visible="true" lat="43.70704111" lon="-73.02406387">
    <tag k="addr:housenumber" v="3692"/>
    <tag k="addr:street" v="U.S. Route 7"/>
    <tag k="addr:state" v="VT"/>
    <tag k="ref:vcgi:esiteid" v="187954"/>
  </node>
  <node id="-594" visible="true" lat="43.70699488" lon="-73.02862528">
    <tag k="addr:housenumber" v="3935"/>
    <tag k="addr:street" v="U.S. Route 7"/>
    <tag k="addr:state" v="VT"/>
    <tag k="ref:vcgi:esiteid" v="187956"/>
  </node>
  <node id="-597" visible="true" lat="43.7068765" lon="-73.02851967">
    <tag k="addr:housenumber" v="3925"/>
    <tag k="addr:street" v="U.S. Route 7"/>
    <tag k="addr:state" v="VT"/>
    <tag k="ref:vcgi:esiteid" v="187960"/>
  </node>
  <node id="-598" visible="true" lat="43.706977" lon="-73.02782213">
    <tag k="addr:housenumber" v="14"/>
    <tag k="addr:street" v="Village Green"/>
    <tag k="addr:state" v="VT"/>
    <tag k="ref:vcgi:esiteid" v="187962"/>
  </node>
  <node id="-599" visible="true" lat="43.70673357" lon="-73.02491843">
    <tag k="addr:housenumber" v="3730"/>
    <tag k="addr:street" v="U.S. Route 7"/>
    <tag k="addr:state" v="VT"/>
    <tag k="ref:vcgi:esiteid" v="187964"/>
  </node>
  <node id="-601" visible="true" lat="43.70671857" lon="-73.02519133">
    <tag k="addr:housenumber" v="3748"/>
    <tag k="addr:street" v="U.S. Route 7"/>
    <tag k="addr:state" v="VT"/>
    <tag k="ref:vcgi:esiteid" v="187966"/>
  </node>
  <node id="-603" visible="true" lat="43.70671246" lon="-73.02550174">
    <tag k="addr:housenumber" v="3758"/>
    <tag k="addr:street" v="U.S. Route 7"/>
    <tag k="addr:state" v="VT"/>
    <tag k="ref:vcgi:esiteid" v="187968"/>
  </node>
  <node id="-604" visible="true" lat="43.70668931" lon="-73.02155249">
    <tag k="addr:housenumber" v="3563"/>
    <tag k="addr:street" v="U.S. Route 7"/>
    <tag k="addr:state" v="VT"/>
    <tag k="ref:vcgi:esiteid" v="187970"/>
  </node>
  <node id="-605" visible="true" lat="43.70682814" lon="-73.02760704">
    <tag k="addr:housenumber" v="3892"/>
    <tag k="addr:street" v="U.S. Route 7"/>
    <tag k="addr:state" v="VT"/>
    <tag k="ref:vcgi:esiteid" v="187971"/>
  </node>
  <node id="-607" visible="true" lat="43.70664926" lon="-73.02760773">
    <tag k="addr:housenumber" v="3880"/>
    <tag k="addr:street" v="U.S. Route 7"/>
    <tag k="addr:state" v="VT"/>
    <tag k="ref:vcgi:esiteid" v="187973"/>
  </node>
  <node id="-608" visible="true" lat="43.70672225" lon="-73.02453613">
    <tag k="addr:housenumber" v="3714"/>
    <tag k="addr:street" v="U.S. Route 7"/>
    <tag k="addr:state" v="VT"/>
    <tag k="ref:vcgi:esiteid" v="187974"/>
  </node>
  <node id="-612" visible="true" lat="43.70661386" lon="-73.02050569">
    <tag k="addr:housenumber" v="3505"/>
    <tag k="addr:street" v="U.S. Route 7"/>
    <tag k="addr:state" v="VT"/>
    <tag k="ref:vcgi:esiteid" v="187980"/>
  </node>
  <node id="-617" visible="true" lat="43.70658946" lon="-73.02014852">
    <tag k="addr:housenumber" v="10"/>
    <tag k="addr:street" v="Pleasant Street"/>
    <tag k="addr:state" v="VT"/>
    <tag k="ref:vcgi:esiteid" v="187986"/>
  </node>
  <node id="-618" visible="true" lat="43.70655963" lon="-73.02100657">
    <tag k="addr:housenumber" v="24"/>
    <tag k="addr:street" v="Mechanic Street"/>
    <tag k="addr:state" v="VT"/>
    <tag k="ref:vcgi:esiteid" v="187987"/>
  </node>
  <node id="-621" visible="true" lat="43.70663864" lon="-73.01608207">
    <tag k="addr:housenumber" v="3286"/>
    <tag k="addr:street" v="U.S. Route 7"/>
    <tag k="addr:state" v="VT"/>
    <tag k="ref:vcgi:esiteid" v="187990"/>
  </node>
  <node id="-622" visible="true" lat="43.70654878" lon="-73.01579476">
    <tag k="addr:housenumber" v="3274"/>
    <tag k="addr:street" v="U.S. Route 7"/>
    <tag k="addr:state" v="VT"/>
    <tag k="ref:vcgi:esiteid" v="187991"/>
  </node>
  <node id="-624" visible="true" lat="43.70655441" lon="-73.01548766">
    <tag k="addr:housenumber" v="3258"/>
    <tag k="addr:street" v="U.S. Route 7"/>
    <tag k="addr:state" v="VT"/>
    <tag k="ref:vcgi:esiteid" v="187995"/>
  </node>
  <node id="-625" visible="true" lat="43.70654678" lon="-73.01557922">
    <tag k="addr:housenumber" v="3262"/>
    <tag k="addr:street" v="U.S. Route 7"/>
    <tag k="addr:state" v="VT"/>
    <tag k="ref:vcgi:esiteid" v="187996"/>
  </node>
  <node id="-627" visible="true" lat="43.70650482" lon="-73.0152893">
    <tag k="addr:housenumber" v="3248"/>
    <tag k="addr:street" v="U.S. Route 7"/>
    <tag k="addr:state" v="VT"/>
    <tag k="ref:vcgi:esiteid" v="187999"/>
  </node>
  <node id="-631" visible="true" lat="43.70642901" lon="-73.02258341">
    <tag k="addr:housenumber" v="3599"/>
    <tag k="addr:street" v="U.S. Route 7"/>
    <tag k="addr:state" v="VT"/>
    <tag k="ref:vcgi:esiteid" v="188004"/>
  </node>
  <node id="-633" visible="true" lat="43.70618624" lon="-73.01684079">
    <tag k="addr:housenumber" v="3325"/>
    <tag k="addr:street" v="U.S. Route 7"/>
    <tag k="addr:state" v="VT"/>
    <tag k="ref:vcgi:esiteid" v="188006"/>
  </node>
  <node id="-634" visible="true" lat="43.70632738" lon="-73.02431656">
    <tag k="addr:housenumber" v="3705"/>
    <tag k="addr:street" v="U.S. Route 7"/>
    <tag k="addr:state" v="VT"/>
    <tag k="ref:vcgi:esiteid" v="188007"/>
  </node>
  <node id="-635" visible="true" lat="43.70646508" lon="-73.01494337">
    <tag k="addr:housenumber" v="3232"/>
    <tag k="addr:street" v="U.S. Route 7"/>
    <tag k="addr:state" v="VT"/>
    <tag k="ref:vcgi:esiteid" v="188008"/>
  </node>
  <node id="-636" visible="true" lat="43.70621199" lon="-73.02633553">
    <tag k="addr:housenumber" v="3815"/>
    <tag k="addr:street" v="U.S. Route 7"/>
    <tag k="addr:state" v="VT"/>
    <tag k="ref:vcgi:esiteid" v="188009"/>
  </node>
  <node id="-637" visible="true" lat="43.70622223" lon="-73.01629326">
    <tag k="addr:housenumber" v="3295"/>
    <tag k="addr:street" v="U.S. Route 7"/>
    <tag k="addr:state" v="VT"/>
    <tag k="ref:vcgi:esiteid" v="188010"/>
  </node>
  <node id="-638" visible="true" lat="43.70633307" lon="-73.01795053">
    <tag k="addr:housenumber" v="3377"/>
    <tag k="addr:street" v="U.S. Route 7"/>
    <tag k="addr:state" v="VT"/>
    <tag k="ref:vcgi:esiteid" v="188011"/>
  </node>
  <node id="-639" visible="true" lat="43.70625245" lon="-73.01587235">
    <tag k="addr:housenumber" v="3277"/>
    <tag k="addr:street" v="U.S. Route 7"/>
    <tag k="addr:state" v="VT"/>
    <tag k="ref:vcgi:esiteid" v="188012"/>
  </node>
  <node id="-640" visible="true" lat="43.70623871" lon="-73.01750432">
    <tag k="addr:housenumber" v="3357"/>
    <tag k="addr:street" v="U.S. Route 7"/>
    <tag k="addr:state" v="VT"/>
    <tag k="ref:vcgi:esiteid" v="188014"/>
  </node>
  <node id="-641" visible="true" lat="43.7063733" lon="-73.01465413">
    <tag k="addr:housenumber" v="3222"/>
    <tag k="addr:street" v="U.S. Route 7"/>
    <tag k="addr:state" v="VT"/>
    <tag k="ref:vcgi:esiteid" v="188015"/>
  </node>
  <node id="-642" visible="true" lat="43.70623268" lon="-73.02605273">
    <tag k="addr:housenumber" v="3799"/>
    <tag k="addr:street" v="U.S. Route 7"/>
    <tag k="addr:state" v="VT"/>
    <tag k="ref:vcgi:esiteid" v="188016"/>
  </node>
  <node id="-643" visible="true" lat="43.70630798" lon="-73.01712852">
    <tag k="addr:housenumber" v="11"/>
    <tag k="addr:street" v="Field Avenue"/>
    <tag k="addr:state" v="VT"/>
    <tag k="ref:vcgi:esiteid" v="188017"/>
  </node>
  <node id="-644" visible="true" lat="43.70625103" lon="-73.0282561">
    <tag k="addr:housenumber" v="28"/>
    <tag k="addr:street" v="Elm Street"/>
    <tag k="addr:state" v="VT"/>
    <tag k="ref:vcgi:esiteid" v="188018"/>
  </node>
  <node id="-645" visible="true" lat="43.70623365" lon="-73.0268678">
    <tag k="addr:housenumber" v="840"/>
    <tag k="addr:street" v="Arch Street"/>
    <tag k="addr:state" v="VT"/>
    <tag k="ref:vcgi:esiteid" v="188019"/>
  </node>
  <node id="-647" visible="true" lat="43.70621626" lon="-73.02106797">
    <tag k="addr:housenumber" v="50"/>
    <tag k="addr:street" v="Mechanic Street"/>
    <tag k="addr:state" v="VT"/>
    <tag k="ref:vcgi:esiteid" v="188021"/>
  </node>
  <node id="-651" visible="true" lat="43.70610523" lon="-73.02019978">
    <tag k="addr:housenumber" v="42"/>
    <tag k="addr:street" v="Pleasant Street"/>
    <tag k="addr:state" v="VT"/>
    <tag k="ref:vcgi:esiteid" v="188026"/>
  </node>
  <node id="-652" visible="true" lat="43.70600804" lon="-73.02813007">
    <tag k="addr:housenumber" v="42"/>
    <tag k="addr:street" v="Elm Street"/>
    <tag k="addr:state" v="VT"/>
    <tag k="ref:vcgi:esiteid" v="188027"/>
  </node>
  <node id="-653" visible="true" lat="43.7060451" lon="-73.02730276">
    <tag k="addr:housenumber" v="853"/>
    <tag k="addr:street" v="Arch Street"/>
    <tag k="addr:state" v="VT"/>
    <tag k="ref:vcgi:esiteid" v="188028"/>
  </node>
  <node id="-654" visible="true" lat="43.706116" lon="-73.02048897">
    <tag k="addr:housenumber" v="18"/>
    <tag k="addr:street" v="Cross Street"/>
    <tag k="addr:state" v="VT"/>
    <tag k="ref:vcgi:esiteid" v="188029"/>
  </node>
  <node id="-655" visible="true" lat="43.70609664" lon="-73.01439666">
    <tag k="addr:housenumber" v="3200"/>
    <tag k="addr:street" v="U.S. Route 7"/>
    <tag k="addr:state" v="VT"/>
    <tag k="ref:vcgi:esiteid" v="188030"/>
  </node>
  <node id="-658" visible="true" lat="43.70600813" lon="-73.02605756">
    <tag k="addr:housenumber" v="788"/>
    <tag k="addr:street" v="Arch Street"/>
    <tag k="addr:state" v="VT"/>
    <tag k="ref:vcgi:esiteid" v="188034"/>
  </node>
  <node id="-660" visible="true" lat="43.7058524" lon="-73.02031377">
    <tag k="addr:housenumber" v="13"/>
    <tag k="addr:street" v="Cross Street"/>
    <tag k="addr:state" v="VT"/>
    <tag k="ref:vcgi:esiteid" v="188036"/>
  </node>
  <node id="-661" visible="true" lat="43.70578723" lon="-73.02670011">
    <tag k="addr:housenumber" v="815"/>
    <tag k="addr:street" v="Arch Street"/>
    <tag k="addr:state" v="VT"/>
    <tag k="ref:vcgi:esiteid" v="188037"/>
  </node>
  <node id="-662" visible="true" lat="43.70564248" lon="-73.01898765">
    <tag k="addr:housenumber" v="3447"/>
    <tag k="addr:street" v="U.S. Route 7"/>
    <tag k="addr:state" v="VT"/>
    <tag k="ref:vcgi:esiteid" v="188038"/>
  </node>
  <node id="-663" visible="true" lat="43.7058979" lon="-73.01416363">
    <tag k="addr:housenumber" v="3186"/>
    <tag k="addr:street" v="U.S. Route 7"/>
    <tag k="addr:state" v="VT"/>
    <tag k="ref:vcgi:esiteid" v="188039"/>
  </node>
  <node id="-665" visible="true" lat="43.7056491" lon="-73.02102153">
    <tag k="addr:housenumber" v="84"/>
    <tag k="addr:street" v="Mechanic Street"/>
    <tag k="addr:state" v="VT"/>
    <tag k="ref:vcgi:esiteid" v="188043"/>
  </node>
  <node id="-667" visible="true" lat="43.70564042" lon="-73.01447597">
    <tag k="addr:housenumber" v="3183"/>
    <tag k="addr:street" v="U.S. Route 7"/>
    <tag k="addr:state" v="VT"/>
    <tag k="ref:vcgi:esiteid" v="188045"/>
  </node>
  <node id="-668" visible="true" lat="43.70572568" lon="-73.02061082">
    <tag k="addr:housenumber" v="87"/>
    <tag k="addr:street" v="Mechanic Street"/>
    <tag k="addr:state" v="VT"/>
    <tag k="ref:vcgi:esiteid" v="188046"/>
  </node>
  <node id="-669" visible="true" lat="43.70559209" lon="-73.02621527">
    <tag k="addr:housenumber" v="789"/>
    <tag k="addr:street" v="Arch Street"/>
    <tag k="addr:state" v="VT"/>
    <tag k="ref:vcgi:esiteid" v="188047"/>
  </node>
  <node id="-670" visible="true" lat="43.70560087" lon="-73.02449607">
    <tag k="addr:housenumber" v="710"/>
    <tag k="addr:street" v="Arch Street"/>
    <tag k="addr:state" v="VT"/>
    <tag k="ref:vcgi:esiteid" v="188048"/>
  </node>
  <node id="-671" visible="true" lat="43.70574707" lon="-73.01668973">
    <tag k="addr:housenumber" v="69"/>
    <tag k="addr:street" v="Field Avenue"/>
    <tag k="addr:state" v="VT"/>
    <tag k="ref:vcgi:esiteid" v="188049"/>
  </node>
  <node id="-673" visible="true" lat="43.70547854" lon="-73.02575668">
    <tag k="addr:housenumber" v="761"/>
    <tag k="addr:street" v="Arch Street"/>
    <tag k="addr:state" v="VT"/>
    <tag k="ref:vcgi:esiteid" v="188051"/>
  </node>
  <node id="-674" visible="true" lat="43.7055839" lon="-73.01719198">
    <tag k="addr:housenumber" v="72"/>
    <tag k="addr:street" v="Field Avenue"/>
    <tag k="addr:state" v="VT"/>
    <tag k="ref:vcgi:esiteid" v="188052"/>
  </node>
  <node id="-675" visible="true" lat="43.70554725" lon="-73.02071186">
    <tag k="addr:housenumber" v="95"/>
    <tag k="addr:street" v="Mechanic Street"/>
    <tag k="addr:state" v="VT"/>
    <tag k="ref:vcgi:esiteid" v="188053"/>
  </node>
  <node id="-676" visible="true" lat="43.70563023" lon="-73.02279471">
    <tag k="addr:housenumber" v="606"/>
    <tag k="addr:street" v="Arch Street"/>
    <tag k="addr:state" v="VT"/>
    <tag k="ref:vcgi:esiteid" v="188054"/>
  </node>
  <node id="-677" visible="true" lat="43.70552333" lon="-73.01387037">
    <tag k="addr:housenumber" v="3162"/>
    <tag k="addr:street" v="U.S. Route 7"/>
    <tag k="addr:state" v="VT"/>
    <tag k="ref:vcgi:esiteid" v="188055"/>
  </node>
  <node id="-678" visible="true" lat="43.70555077" lon="-73.0240318">
    <tag k="addr:housenumber" v="688"/>
    <tag k="addr:street" v="Arch Street"/>
    <tag k="addr:state" v="VT"/>
    <tag k="ref:vcgi:esiteid" v="188057"/>
  </node>
  <node id="-679" visible="true" lat="43.70550756" lon="-73.01435924">
    <tag k="addr:housenumber" v="3169"/>
    <tag k="addr:street" v="U.S. Route 7"/>
    <tag k="addr:state" v="VT"/>
    <tag k="ref:vcgi:esiteid" v="188058"/>
  </node>
  <node id="-680" visible="true" lat="43.7054785" lon="-73.02722705">
    <tag k="addr:housenumber" v="97"/>
    <tag k="addr:street" v="Elm Street"/>
    <tag k="addr:state" v="VT"/>
    <tag k="ref:vcgi:esiteid" v="188059"/>
  </node>
  <node id="-681" visible="true" lat="43.70530953" lon="-73.02040778">
    <tag k="addr:housenumber" v="92"/>
    <tag k="addr:street" v="Pleasant Street"/>
    <tag k="addr:state" v="VT"/>
    <tag k="ref:vcgi:esiteid" v="188060"/>
  </node>
  <node id="-683" visible="true" lat="43.70529921" lon="-73.02064964">
    <tag k="addr:housenumber" v="107"/>
    <tag k="addr:street" v="Mechanic Street"/>
    <tag k="addr:state" v="VT"/>
    <tag k="ref:vcgi:esiteid" v="188062"/>
  </node>
  <node id="-686" visible="true" lat="43.70527251" lon="-73.01421826">
    <tag k="addr:housenumber" v="3153"/>
    <tag k="addr:street" v="U.S. Route 7"/>
    <tag k="addr:state" v="VT"/>
    <tag k="ref:vcgi:esiteid" v="188065"/>
  </node>
  <node id="-687" visible="true" lat="43.70537064" lon="-73.01648608">
    <tag k="addr:housenumber" v="91"/>
    <tag k="addr:street" v="Field Avenue"/>
    <tag k="addr:state" v="VT"/>
    <tag k="ref:vcgi:esiteid" v="188066"/>
  </node>
  <node id="-688" visible="true" lat="43.70515544" lon="-73.02714788">
    <tag k="addr:housenumber" v="111"/>
    <tag k="addr:street" v="Elm Street"/>
    <tag k="addr:state" v="VT"/>
    <tag k="ref:vcgi:esiteid" v="188067"/>
  </node>
  <node id="-689" visible="true" lat="43.70526504" lon="-73.02259826">
    <tag k="addr:housenumber" v="608"/>
    <tag k="addr:street" v="Arch Street"/>
    <tag k="addr:state" v="VT"/>
    <tag k="ref:vcgi:esiteid" v="188068"/>
  </node>
  <node id="-690" visible="true" lat="43.7051832" lon="-73.02326654">
    <tag k="addr:housenumber" v="636"/>
    <tag k="addr:street" v="Arch Street"/>
    <tag k="addr:state" v="VT"/>
    <tag k="ref:vcgi:esiteid" v="188069"/>
  </node>
  <node id="-692" visible="true" lat="43.70527284" lon="-73.02362212">
    <tag k="addr:housenumber" v="654"/>
    <tag k="addr:street" v="Arch Street"/>
    <tag k="addr:state" v="VT"/>
    <tag k="ref:vcgi:esiteid" v="188071"/>
  </node>
  <node id="-693" visible="true" lat="43.7051959" lon="-73.01328996">
    <tag k="addr:housenumber" v="3114"/>
    <tag k="addr:street" v="U.S. Route 7"/>
    <tag k="addr:state" v="VT"/>
    <tag k="ref:vcgi:esiteid" v="188073"/>
  </node>
  <node id="-694" visible="true" lat="43.70516586" lon="-73.01295471">
    <tag k="addr:housenumber" v="3116"/>
    <tag k="addr:street" v="U.S. Route 7"/>
    <tag k="addr:state" v="VT"/>
    <tag k="ref:vcgi:esiteid" v="188074"/>
  </node>
  <node id="-695" visible="true" lat="43.70506622" lon="-73.02073409">
    <tag k="addr:housenumber" v="125"/>
    <tag k="addr:street" v="Mechanic Street"/>
    <tag k="addr:state" v="VT"/>
    <tag k="ref:vcgi:esiteid" v="188075"/>
  </node>
  <node id="-696" visible="true" lat="43.70503413" lon="-73.02772624">
    <tag k="addr:housenumber" v="116"/>
    <tag k="addr:street" v="Elm Street"/>
    <tag k="addr:state" v="VT"/>
    <tag k="ref:vcgi:esiteid" v="188076"/>
  </node>
  <node id="-697" visible="true" lat="43.7049654" lon="-73.01718192">
    <tag k="addr:housenumber" v="106"/>
    <tag k="addr:street" v="Field Avenue"/>
    <tag k="addr:state" v="VT"/>
    <tag k="ref:vcgi:esiteid" v="188077"/>
  </node>
  <node id="-698" visible="true" lat="43.70493759" lon="-73.02380209">
    <tag k="addr:housenumber" v="661"/>
    <tag k="addr:street" v="Arch Street"/>
    <tag k="addr:state" v="VT"/>
    <tag k="ref:vcgi:esiteid" v="188078"/>
  </node>
  <node id="-699" visible="true" lat="43.70506114" lon="-73.01396012">
    <tag k="addr:housenumber" v="3129"/>
    <tag k="addr:street" v="U.S. Route 7"/>
    <tag k="addr:state" v="VT"/>
    <tag k="ref:vcgi:esiteid" v="188079"/>
  </node>
  <node id="-700" visible="true" lat="43.7049274" lon="-73.02706966">
    <tag k="addr:housenumber" v="129"/>
    <tag k="addr:street" v="Elm Street"/>
    <tag k="addr:state" v="VT"/>
    <tag k="ref:vcgi:esiteid" v="188081"/>
  </node>
  <node id="-703" visible="true" lat="43.70490321" lon="-73.02118057">
    <tag k="addr:housenumber" v="142"/>
    <tag k="addr:street" v="Mechanic Street"/>
    <tag k="addr:state" v="VT"/>
    <tag k="ref:vcgi:esiteid" v="188084"/>
  </node>
  <node id="-704" visible="true" lat="43.70490081" lon="-73.01315262">
    <tag k="addr:housenumber" v="3104"/>
    <tag k="addr:street" v="U.S. Route 7"/>
    <tag k="addr:state" v="VT"/>
    <tag k="ref:vcgi:esiteid" v="188085"/>
  </node>
  <node id="-705" visible="true" lat="43.7048127" lon="-73.02761449">
    <tag k="addr:housenumber" v="132"/>
    <tag k="addr:street" v="Elm Street"/>
    <tag k="addr:state" v="VT"/>
    <tag k="ref:vcgi:esiteid" v="188086"/>
  </node>
  <node id="-709" visible="true" lat="43.70474613" lon="-73.02353595">
    <tag k="addr:housenumber" v="641"/>
    <tag k="addr:street" v="Arch Street"/>
    <tag k="addr:state" v="VT"/>
    <tag k="ref:vcgi:esiteid" v="188090"/>
  </node>
  <node id="-711" visible="true" lat="43.70469471" lon="-73.02319706">
    <tag k="addr:housenumber" v="627"/>
    <tag k="addr:street" v="Arch Street"/>
    <tag k="addr:state" v="VT"/>
    <tag k="ref:vcgi:esiteid" v="188092"/>
  </node>
  <node id="-713" visible="true" lat="43.70468715" lon="-73.02695946">
    <tag k="addr:housenumber" v="153"/>
    <tag k="addr:street" v="Elm Street"/>
    <tag k="addr:state" v="VT"/>
    <tag k="ref:vcgi:esiteid" v="188095"/>
  </node>
  <node id="-717" visible="true" lat="43.70454755" lon="-73.01370214">
    <tag k="addr:housenumber" v="3093"/>
    <tag k="addr:street" v="U.S. Route 7"/>
    <tag k="addr:state" v="VT"/>
    <tag k="ref:vcgi:esiteid" v="188099"/>
  </node>
  <node id="-719" visible="true" lat="43.70443087" lon="-73.0274495">
    <tag k="addr:housenumber" v="162"/>
    <tag k="addr:street" v="Elm Street"/>
    <tag k="addr:state" v="VT"/>
    <tag k="ref:vcgi:esiteid" v="188102"/>
  </node>
  <node id="-722" visible="true" lat="43.7044677" lon="-73.02763882">
    <tag k="addr:housenumber" v="14"/>
    <tag k="addr:street" v="Town Hill Road"/>
    <tag k="addr:state" v="VT"/>
    <tag k="ref:vcgi:esiteid" v="188105"/>
  </node>
  <node id="-724" visible="true" lat="43.70446742" lon="-73.01298045">
    <tag k="addr:housenumber" v="3066"/>
    <tag k="addr:street" v="U.S. Route 7"/>
    <tag k="addr:state" v="VT"/>
    <tag k="ref:vcgi:esiteid" v="188107"/>
  </node>
  <node id="-727" visible="true" lat="43.70425713" lon="-73.02679026">
    <tag k="addr:housenumber" v="175"/>
    <tag k="addr:street" v="Elm Street"/>
    <tag k="addr:state" v="VT"/>
    <tag k="ref:vcgi:esiteid" v="188110"/>
  </node>
  <node id="-730" visible="true" lat="43.70410169" lon="-73.01338356">
    <tag k="addr:housenumber" v="3067"/>
    <tag k="addr:street" v="U.S. Route 7"/>
    <tag k="addr:state" v="VT"/>
    <tag k="ref:vcgi:esiteid" v="188113"/>
  </node>
  <node id="-735" visible="true" lat="43.70390694" lon="-73.02019497">
    <tag k="addr:housenumber" v="465"/>
    <tag k="addr:street" v="Arch Street"/>
    <tag k="addr:state" v="VT"/>
    <tag k="ref:vcgi:esiteid" v="188118"/>
  </node>
  <node id="-736" visible="true" lat="43.70405212" lon="-73.01479267">
    <tag k="addr:housenumber" v="220"/>
    <tag k="addr:street" v="Arch Street"/>
    <tag k="addr:state" v="VT"/>
    <tag k="ref:vcgi:esiteid" v="188120"/>
  </node>
  <node id="-738" visible="true" lat="43.70366049" lon="-73.01319964">
    <tag k="addr:housenumber" v="3027"/>
    <tag k="addr:street" v="U.S. Route 7"/>
    <tag k="addr:state" v="VT"/>
    <tag k="ref:vcgi:esiteid" v="188122"/>
  </node>
  <node id="-740" visible="true" lat="43.70367375" lon="-73.01915451">
    <tag k="addr:housenumber" v="449"/>
    <tag k="addr:street" v="Arch Street"/>
    <tag k="addr:state" v="VT"/>
    <tag k="ref:vcgi:esiteid" v="188124"/>
  </node>
  <node id="-745" visible="true" lat="43.70347558" lon="-73.01303872">
    <tag k="addr:housenumber" v="3011"/>
    <tag k="addr:street" v="U.S. Route 7"/>
    <tag k="addr:state" v="VT"/>
    <tag k="ref:vcgi:esiteid" v="188129"/>
  </node>
  <node id="-746" visible="true" lat="43.70351551" lon="-73.01461974">
    <tag k="addr:housenumber" v="172"/>
    <tag k="addr:street" v="Arch Street"/>
    <tag k="addr:state" v="VT"/>
    <tag k="ref:vcgi:esiteid" v="188130"/>
  </node>
  <node id="-757" visible="true" lat="43.70313742" lon="-73.01505389">
    <tag k="addr:housenumber" v="194"/>
    <tag k="addr:street" v="Arch Street"/>
    <tag k="addr:state" v="VT"/>
    <tag k="ref:vcgi:esiteid" v="188142"/>
  </node>
  <node id="-762" visible="true" lat="43.70251061" lon="-73.01533461">
    <tag k="addr:housenumber" v="201"/>
    <tag k="addr:street" v="Arch Street"/>
    <tag k="addr:state" v="VT"/>
    <tag k="ref:vcgi:esiteid" v="188148"/>
  </node>
  <node id="-1213" visible="true" lat="43.66963197" lon="-72.98701106">
    <tag k="addr:housenumber" v="63"/>
    <tag k="addr:street" v="Alpine Acres"/>
    <tag k="addr:state" v="VT"/>
    <tag k="ref:vcgi:esiteid" v="188617"/>
  </node>
  <node id="-1214" visible="true" lat="43.66915989" lon="-72.98818325">
    <tag k="addr:housenumber" v="46"/>
    <tag k="addr:street" v="Alpine Acres"/>
    <tag k="addr:state" v="VT"/>
    <tag k="ref:vcgi:esiteid" v="188618"/>
  </node>
  <node id="-1216" visible="true" lat="43.66871263" lon="-72.98718228">
    <tag k="addr:housenumber" v="62"/>
    <tag k="addr:street" v="Alpine Acres"/>
    <tag k="addr:state" v="VT"/>
    <tag k="ref:vcgi:esiteid" v="188620"/>
  </node>
  <node id="-1242" visible="true" lat="43.7067357" lon="-73.01716174">
    <tag k="addr:housenumber" v="3356"/>
    <tag k="addr:street" v="U.S. Route 7"/>
    <tag k="addr:state" v="VT"/>
    <tag k="ref:vcgi:esiteid" v="188646"/>
  </node>
  <node id="-1274" visible="true" lat="43.70493411" lon="-73.02033643">
    <tag k="addr:housenumber" v="150"/>
    <tag k="addr:street" v="Pleasant Street"/>
    <tag k="addr:state" v="VT"/>
    <tag k="ref:vcgi:esiteid" v="188680"/>
  </node>
  <node id="-1275" visible="true" lat="43.70235891" lon="-73.01825503">
    <tag k="addr:housenumber" v="305"/>
    <tag k="addr:street" v="Arch Street"/>
    <tag k="addr:state" v="VT"/>
    <tag k="ref:vcgi:esiteid" v="188681"/>
  </node>
  <node id="-1291" visible="true" lat="43.70595594" lon="-73.02297515">
    <tag k="addr:housenumber" v="45"/>
    <tag k="addr:street" v="Conway Hill"/>
    <tag k="addr:state" v="VT"/>
    <tag k="ref:vcgi:esiteid" v="188697"/>
  </node>
  <node id="-1292" visible="true" lat="43.70641622" lon="-73.02321548">
    <tag k="addr:housenumber" v="3657"/>
    <tag k="addr:street" v="U.S. Route 7"/>
    <tag k="addr:state" v="VT"/>
    <tag k="ref:vcgi:esiteid" v="188698"/>
  </node>
  <node id="-1303" visible="true" lat="43.7046044" lon="-73.02040312">
    <tag k="addr:housenumber" v="152"/>
    <tag k="addr:street" v="Pleasant Street"/>
    <tag k="addr:state" v="VT"/>
    <tag k="ref:vcgi:esiteid" v="188709"/>
  </node>
  <node id="-1311" visible="true" lat="43.71209778" lon="-73.01909028">
    <tag k="addr:housenumber" v="223"/>
    <tag k="addr:street" v="Recreation Area Road"/>
    <tag k="addr:state" v="VT"/>
    <tag k="ref:vcgi:esiteid" v="188717"/>
  </node>
  <node id="-1329" visible="true" lat="43.7081034" lon="-73.02975085">
    <tag k="addr:housenumber" v="4035"/>
    <tag k="addr:street" v="U.S. Route 7"/>
    <tag k="addr:state" v="VT"/>
    <tag k="ref:vcgi:esiteid" v="188736"/>
  </node>
  <node id="-1330" visible="true" lat="43.70678478" lon="-73.02890555">
    <tag k="addr:housenumber" v="3917"/>
    <tag k="addr:street" v="U.S. Route 7"/>
    <tag k="addr:state" v="VT"/>
    <tag k="ref:vcgi:esiteid" v="188737"/>
  </node>
  <node id="-1331" visible="true" lat="43.7066613" lon="-73.02837806">
    <tag k="addr:housenumber" v="3911"/>
    <tag k="addr:street" v="U.S. Route 7"/>
    <tag k="addr:state" v="VT"/>
    <tag k="ref:vcgi:esiteid" v="188738"/>
  </node>
  <node id="-1332" visible="true" lat="43.70632661" lon="-73.02833254">
    <tag k="addr:housenumber" v="24"/>
    <tag k="addr:street" v="Elm Street"/>
    <tag k="addr:state" v="VT"/>
    <tag k="ref:vcgi:esiteid" v="188739"/>
  </node>
  <node id="-1333" visible="true" lat="43.70714244" lon="-73.02793715">
    <tag k="addr:housenumber" v="26"/>
    <tag k="addr:street" v="Village Green"/>
    <tag k="addr:state" v="VT"/>
    <tag k="ref:vcgi:esiteid" v="188740"/>
  </node>
  <node id="-1334" visible="true" lat="43.70599099" lon="-73.02754748">
    <tag k="addr:housenumber" v="861"/>
    <tag k="addr:street" v="Arch Street"/>
    <tag k="addr:state" v="VT"/>
    <tag k="ref:vcgi:esiteid" v="188741"/>
  </node>
  <node id="-1335" visible="true" lat="43.70588207" lon="-73.02698461">
    <tag k="addr:housenumber" v="829"/>
    <tag k="addr:street" v="Arch Street"/>
    <tag k="addr:state" v="VT"/>
    <tag k="ref:vcgi:esiteid" v="188742"/>
  </node>
  <node id="-1336" visible="true" lat="43.70573278" lon="-73.0264816">
    <tag k="addr:housenumber" v="803"/>
    <tag k="addr:street" v="Arch Street"/>
    <tag k="addr:state" v="VT"/>
    <tag k="ref:vcgi:esiteid" v="188743"/>
  </node>
  <node id="-1337" visible="true" lat="43.70616751" lon="-73.02539791">
    <tag k="addr:housenumber" v="758"/>
    <tag k="addr:street" v="Arch Street"/>
    <tag k="addr:state" v="VT"/>
    <tag k="ref:vcgi:esiteid" v="188744"/>
  </node>
  <node id="-1338" visible="true" lat="43.70639768" lon="-73.02369559">
    <tag k="addr:housenumber" v="3679"/>
    <tag k="addr:street" v="U.S. Route 7"/>
    <tag k="addr:state" v="VT"/>
    <tag k="ref:vcgi:esiteid" v="188745"/>
  </node>
  <node id="-1340" visible="true" lat="43.70676588" lon="-73.01669875">
    <tag k="addr:housenumber" v="16"/>
    <tag k="addr:street" v="Furnace Road"/>
    <tag k="addr:state" v="VT"/>
    <tag k="ref:vcgi:esiteid" v="188747"/>
  </node>
  <node id="-1341" visible="true" lat="43.70665426" lon="-73.01638235">
    <tag k="addr:housenumber" v="3302"/>
    <tag k="addr:street" v="U.S. Route 7"/>
    <tag k="addr:state" v="VT"/>
    <tag k="ref:vcgi:esiteid" v="188748"/>
  </node>
  <node id="-1342" visible="true" lat="43.7063373" lon="-73.01648932">
    <tag k="addr:housenumber" v="3307"/>
    <tag k="addr:street" v="U.S. Route 7"/>
    <tag k="addr:state" v="VT"/>
    <tag k="ref:vcgi:esiteid" v="188749"/>
  </node>
  <node id="-1343" visible="true" lat="43.70315398" lon="-73.01603629">
    <tag k="addr:housenumber" v="247"/>
    <tag k="addr:street" v="Arch Street"/>
    <tag k="addr:state" v="VT"/>
    <tag k="ref:vcgi:esiteid" v="188750"/>
  </node>
  <node id="-1367" visible="true" lat="43.66973319" lon="-72.98863149">
    <tag k="addr:housenumber" v="13"/>
    <tag k="addr:street" v="Alpine Acres"/>
    <tag k="addr:state" v="VT"/>
    <tag k="ref:vcgi:esiteid" v="188774"/>
  </node>
  <node id="-1410" visible="true" lat="43.7062473" lon="-73.02287351">
    <tag k="addr:housenumber" v="25"/>
    <tag k="addr:street" v="Conway Hill"/>
    <tag k="addr:state" v="VT"/>
    <tag k="ref:vcgi:esiteid" v="188818"/>
  </node>
  <node id="-1491" visible="true" lat="43.71684863" lon="-73.01875653">
    <tag k="addr:housenumber" v="47"/>
    <tag k="addr:street" v="Dorfner Drive"/>
    <tag k="addr:state" v="VT"/>
    <tag k="ref:vcgi:esiteid" v="344699"/>
  </node>
  <node id="-1492" visible="true" lat="43.71638843" lon="-73.01823957">
    <tag k="addr:housenumber" v="62"/>
    <tag k="addr:street" v="Dorfner Drive"/>
    <tag k="addr:state" v="VT"/>
    <tag k="ref:vcgi:esiteid" v="344700"/>
  </node>
  <node id="-1514" visible="true" lat="43.7190074" lon="-73.04251784">
    <tag k="addr:housenumber" v="141"/>
    <tag k="addr:street" v="Kendall Hill Road"/>
    <tag k="addr:state" v="VT"/>
    <tag k="ref:vcgi:esiteid" v="452355"/>
  </node>
  <node id="-1561" visible="true" lat="43.67534128" lon="-72.9922325">
    <tag k="addr:housenumber" v="100"/>
    <tag k="addr:street" v="Winslow Lane"/>
    <tag k="addr:state" v="VT"/>
    <tag k="ref:vcgi:esiteid" v="755761"/>
  </node>
</osm>
