<?xml version="1.0" encoding="UTF-8"?>
<osm version="0.6" generator="JOSM">
  <node id="-104" visible="true" lat="44.28211413" lon="-72.43791751">
    <!-- conflict: "327 Vermont Route 214, Plainfield, VT" No match in OSM, but a different address exists <5m away: "327 Vt Route 214, Plainfield, VT" -->
    <tag k="addr:city" v="Plainfield"/>
    <tag k="addr:housenumber" v="327"/>
    <tag k="addr:street" v="Vermont Route 214"/>
    <tag k="addr:state" v="VT"/>
    <tag k="ref:vcgi:esiteid" v="188855"/>
  </node>
  <node id="-106" visible="true" lat="44.28151694" lon="-72.43903983">
    <!-- conflict: "68 Loop Road, Plainfield, VT" No match in OSM, but a different address exists <5m away: "108 Loop Road, Plainfield, VT" -->
    <tag k="addr:city" v="Plainfield"/>
    <tag k="addr:housenumber" v="68"/>
    <tag k="addr:street" v="Loop Road"/>
    <tag k="addr:state" v="VT"/>
    <tag k="ref:vcgi:esiteid" v="188857"/>
  </node>
  <node id="-110" visible="true" lat="44.2812456" lon="-72.43910307">
    <!-- conflict: "72 Loop Road, Plainfield, VT" No match in OSM, but a different address exists <5m away: "112 Loop Road, Plainfield, VT" -->
    <tag k="addr:city" v="Plainfield"/>
    <tag k="addr:housenumber" v="72"/>
    <tag k="addr:street" v="Loop Road"/>
    <tag k="addr:state" v="VT"/>
    <tag k="ref:vcgi:esiteid" v="188861"/>
  </node>
  <node id="-112" visible="true" lat="44.28132933" lon="-72.43780188">
    <!-- conflict: "8 Loop Road, Plainfield, VT" No match in OSM, but a different address exists <5m away: "46 Loop Road, Plainfield, VT" -->
    <tag k="addr:city" v="Plainfield"/>
    <tag k="addr:housenumber" v="8"/>
    <tag k="addr:street" v="Loop Road"/>
    <tag k="addr:state" v="VT"/>
    <tag k="ref:vcgi:esiteid" v="188863"/>
  </node>
  <node id="-113" visible="true" lat="44.28113937" lon="-72.43859863">
    <!-- conflict: "91 Loop Road, Plainfield, VT" No match in OSM, but a different address exists <5m away: "81 Loop Road, Plainfield, VT" -->
    <tag k="addr:city" v="Plainfield"/>
    <tag k="addr:housenumber" v="91"/>
    <tag k="addr:street" v="Loop Road"/>
    <tag k="addr:state" v="VT"/>
    <tag k="ref:vcgi:esiteid" v="188864"/>
  </node>
  <node id="-115" visible="true" lat="44.28094355" lon="-72.43810867">
    <!-- conflict: "19 Loop Road, Plainfield, VT" No match in OSM, but a different address exists <5m away: "57 Loop Road, Plainfield, VT" -->
    <tag k="addr:city" v="Plainfield"/>
    <tag k="addr:housenumber" v="19"/>
    <tag k="addr:street" v="Loop Road"/>
    <tag k="addr:state" v="VT"/>
    <tag k="ref:vcgi:esiteid" v="188867"/>
  </node>
  <node id="-116" visible="true" lat="44.2808927" lon="-72.43887679">
    <!-- conflict: "86 Loop Road, Plainfield, VT" No match in OSM, but a different address exists <5m away: "126 Loop Road, Plainfield, VT" -->
    <tag k="addr:city" v="Plainfield"/>
    <tag k="addr:housenumber" v="86"/>
    <tag k="addr:street" v="Loop Road"/>
    <tag k="addr:state" v="VT"/>
    <tag k="ref:vcgi:esiteid" v="188868"/>
  </node>
  <node id="-117" visible="true" lat="44.28088286" lon="-72.43739523">
    <!-- conflict: "90 Dormitory Road, Plainfield, VT" No match in OSM, but a different address exists <5m away: "7 Dormitory Road, Plainfield, VT" -->
    <tag k="addr:city" v="Plainfield"/>
    <tag k="addr:housenumber" v="90"/>
    <tag k="addr:street" v="Dormitory Road"/>
    <tag k="addr:state" v="VT"/>
    <tag k="ref:vcgi:esiteid" v="188869"/>
  </node>
  <node id="-119" visible="true" lat="44.28061453" lon="-72.43744168">
    <!-- conflict: "50 Dormitory Road, Plainfield, VT" No match in OSM, but a different address exists <5m away: "29 Dormitory Road, Plainfield, VT" -->
    <tag k="addr:city" v="Plainfield"/>
    <tag k="addr:housenumber" v="50"/>
    <tag k="addr:street" v="Dormitory Road"/>
    <tag k="addr:state" v="VT"/>
    <tag k="ref:vcgi:esiteid" v="188871"/>
  </node>
  <node id="-120" visible="true" lat="44.28034032" lon="-72.43775675">
    <!-- conflict: "45 Dormitory Road, Plainfield, VT" No match in OSM, but a different address exists <5m away: "46 Dormitory Road, Plainfield, VT" -->
    <tag k="addr:city" v="Plainfield"/>
    <tag k="addr:housenumber" v="45"/>
    <tag k="addr:street" v="Dormitory Road"/>
    <tag k="addr:state" v="VT"/>
    <tag k="ref:vcgi:esiteid" v="188872"/>
  </node>
  <node id="-121" visible="true" lat="44.28008691" lon="-72.437501">
    <!-- conflict: "26 Dormitory Road, Plainfield, VT" No match in OSM, but a different address exists <5m away: "65 Dormitory Road, Plainfield, VT" -->
    <tag k="addr:city" v="Plainfield"/>
    <tag k="addr:housenumber" v="26"/>
    <tag k="addr:street" v="Dormitory Road"/>
    <tag k="addr:state" v="VT"/>
    <tag k="ref:vcgi:esiteid" v="188873"/>
  </node>
  <node id="-122" visible="true" lat="44.28001476" lon="-72.4378956">
    <!-- conflict: "21 Dormitory Road, Plainfield, VT" No match in OSM, but a different address exists <5m away: "78 Dormitory Road, Plainfield, VT" -->
    <tag k="addr:city" v="Plainfield"/>
    <tag k="addr:housenumber" v="21"/>
    <tag k="addr:street" v="Dormitory Road"/>
    <tag k="addr:state" v="VT"/>
    <tag k="ref:vcgi:esiteid" v="188874"/>
  </node>
  <node id="-123" visible="true" lat="44.27966804" lon="-72.43543247">
    <!-- conflict: "114 Vermont Route 214, Plainfield, VT" No match in OSM, but a different address exists <5m away: "114 Vt Route 214, Plainfield, VT" -->
    <tag k="addr:city" v="Plainfield"/>
    <tag k="addr:housenumber" v="114"/>
    <tag k="addr:street" v="Vermont Route 214"/>
    <tag k="addr:state" v="VT"/>
    <tag k="ref:vcgi:esiteid" v="188876"/>
  </node>
  <node id="-128" visible="true" lat="44.27907299" lon="-72.43844542">
    <!-- conflict: "123 Pitkin Road, Plainfield, VT" No match in OSM, but a different address exists <5m away: "165 Pitkin Road, Plainfield, VT" -->
    <tag k="addr:city" v="Plainfield"/>
    <tag k="addr:housenumber" v="123"/>
    <tag k="addr:street" v="Pitkin Road"/>
    <tag k="addr:state" v="VT"/>
    <tag k="ref:vcgi:esiteid" v="188881"/>
  </node>
  <node id="-178" visible="true" lat="44.27781588" lon="-72.42440441">
    <!-- conflict: "69 Main Street, Plainfield, VT" Fuzzy match to "69 Main Street, , " -->
    <tag k="addr:city" v="Plainfield"/>
    <tag k="addr:housenumber" v="69"/>
    <tag k="addr:street" v="Main Street"/>
    <tag k="addr:state" v="VT"/>
    <tag k="ref:vcgi:esiteid" v="188941"/>
  </node>
  <node id="-570" visible="true" lat="44.28185377" lon="-72.43594284">
    <!-- conflict: "35 Sugarwood Road, Plainfield, VT" No match in OSM, but a different address exists <5m away: "30 Greatwood Drive, Plainfield, VT" -->
    <tag k="addr:city" v="Plainfield"/>
    <tag k="addr:housenumber" v="35"/>
    <tag k="addr:street" v="Sugarwood Road"/>
    <tag k="addr:state" v="VT"/>
    <tag k="ref:vcgi:esiteid" v="189345"/>
  </node>
  <node id="-672" visible="true" lat="44.21769548" lon="-72.40564151">
    <!-- conflict: "415 Maxfield Road, Plainfield, VT" Fuzzy match to "415 Maxfield Road, Orange, VT" -->
    <tag k="addr:city" v="Plainfield"/>
    <tag k="addr:housenumber" v="415"/>
    <tag k="addr:street" v="Maxfield Road"/>
    <tag k="addr:state" v="VT"/>
    <tag k="ref:vcgi:esiteid" v="341860"/>
  </node>
</osm>
