<?xml version="1.0" encoding="UTF-8"?>
<osm version="0.6" generator="JOSM">
  <node id="-100" visible="true" lat="44.23258618" lon="-72.3855608">
    <tag k="addr:city" v="Plainfield"/>
    <tag k="addr:housenumber" v="466"/>
    <tag k="addr:street" v="Spruce Mountain Road"/>
    <tag k="addr:state" v="VT"/>
    <tag k="ref:vcgi:esiteid" v="10"/>
  </node>
  <node id="-101" visible="true" lat="44.28426547" lon="-72.44029831">
    <tag k="addr:city" v="Plainfield"/>
    <tag k="addr:housenumber" v="545"/>
    <tag k="addr:street" v="Vermont Route 214"/>
    <tag k="addr:state" v="VT"/>
    <tag k="ref:vcgi:esiteid" v="188852"/>
  </node>
  <node id="-102" visible="true" lat="44.28376129" lon="-72.43627816">
    <tag k="addr:city" v="Plainfield"/>
    <tag k="addr:housenumber" v="161"/>
    <tag k="addr:street" v="Greatwood Drive"/>
    <tag k="addr:state" v="VT"/>
    <tag k="ref:vcgi:esiteid" v="188853"/>
  </node>
  <node id="-103" visible="true" lat="44.28306009" lon="-72.43541655">
    <tag k="addr:city" v="Plainfield"/>
    <tag k="addr:housenumber" v="122"/>
    <tag k="addr:street" v="Greatwood Drive"/>
    <tag k="addr:state" v="VT"/>
    <tag k="ref:vcgi:esiteid" v="188854"/>
  </node>
  <node id="-111" visible="true" lat="44.28140195" lon="-72.43828447">
    <tag k="addr:city" v="Plainfield"/>
    <tag k="addr:housenumber" v="30"/>
    <tag k="addr:street" v="Loop Road"/>
    <tag k="addr:state" v="VT"/>
    <tag k="ref:vcgi:esiteid" v="188862"/>
  </node>
  <node id="-124" visible="true" lat="44.27963111" lon="-72.42613206">
    <tag k="addr:city" v="Plainfield"/>
    <tag k="addr:housenumber" v="103"/>
    <tag k="addr:street" v="Harvey Hill"/>
    <tag k="addr:state" v="VT"/>
    <tag k="ref:vcgi:esiteid" v="188877"/>
  </node>
  <node id="-129" visible="true" lat="44.27983293" lon="-72.42852111">
    <tag k="addr:city" v="Plainfield"/>
    <tag k="addr:housenumber" v="85"/>
    <tag k="addr:street" v="Harvey Hill"/>
    <tag k="addr:state" v="VT"/>
    <tag k="ref:vcgi:esiteid" v="188882"/>
  </node>
  <node id="-135" visible="true" lat="44.27918052" lon="-72.42652781">
    <tag k="addr:city" v="Plainfield"/>
    <tag k="addr:housenumber" v="73"/>
    <tag k="addr:street" v="Harvey Hill"/>
    <tag k="addr:state" v="VT"/>
    <tag k="ref:vcgi:esiteid" v="188889"/>
  </node>
  <node id="-137" visible="true" lat="44.27885093" lon="-72.43817232">
    <tag k="addr:city" v="Plainfield"/>
    <tag k="addr:housenumber" v="167"/>
    <tag k="addr:street" v="Pitkin Road"/>
    <tag k="addr:state" v="VT"/>
    <tag k="ref:vcgi:esiteid" v="188891"/>
  </node>
  <node id="-139" visible="true" lat="44.27898241" lon="-72.42579827">
    <tag k="addr:city" v="Plainfield"/>
    <tag k="addr:housenumber" v="54"/>
    <tag k="addr:street" v="Harvey Hill"/>
    <tag k="addr:state" v="VT"/>
    <tag k="ref:vcgi:esiteid" v="188896"/>
  </node>
  <node id="-140" visible="true" lat="44.27883959" lon="-72.43078942">
    <tag k="addr:city" v="Plainfield"/>
    <tag k="addr:housenumber" v="91"/>
    <tag k="addr:street" v="Robert Lane"/>
    <tag k="addr:state" v="VT"/>
    <tag k="ref:vcgi:esiteid" v="188897"/>
  </node>
  <node id="-143" visible="true" lat="44.27860425" lon="-72.43901347">
    <tag k="addr:city" v="Plainfield"/>
    <tag k="addr:housenumber" v="178"/>
    <tag k="addr:street" v="Pitkin Road"/>
    <tag k="addr:state" v="VT"/>
    <tag k="ref:vcgi:esiteid" v="188901"/>
  </node>
  <node id="-144" visible="true" lat="44.27862891" lon="-72.42620273">
    <tag k="addr:city" v="Plainfield"/>
    <tag k="addr:housenumber" v="37"/>
    <tag k="addr:street" v="Harvey Hill"/>
    <tag k="addr:state" v="VT"/>
    <tag k="ref:vcgi:esiteid" v="188902"/>
  </node>
  <node id="-150" visible="true" lat="44.27863862" lon="-72.42711215">
    <tag k="addr:city" v="Plainfield"/>
    <tag k="addr:housenumber" v="80"/>
    <tag k="addr:street" v="High Street"/>
    <tag k="addr:state" v="VT"/>
    <tag k="ref:vcgi:esiteid" v="188908"/>
  </node>
  <node id="-173" visible="true" lat="44.27799266" lon="-72.42464701">
    <tag k="addr:city" v="Plainfield"/>
    <tag k="addr:housenumber" v="61"/>
    <tag k="addr:street" v="Main Street"/>
    <tag k="addr:state" v="VT"/>
    <tag k="ref:vcgi:esiteid" v="188934"/>
  </node>
  <node id="-188" visible="true" lat="44.27770023" lon="-72.42961899">
    <tag k="addr:city" v="Plainfield"/>
    <tag k="addr:housenumber" v="201"/>
    <tag k="addr:street" v="High Street"/>
    <tag k="addr:state" v="VT"/>
    <tag k="ref:vcgi:esiteid" v="188953"/>
  </node>
  <node id="-210" visible="true" lat="44.27695719" lon="-72.41614222">
    <tag k="addr:city" v="Plainfield"/>
    <tag k="addr:housenumber" v="23"/>
    <tag k="addr:street" v="East Hill Road"/>
    <tag k="addr:state" v="VT"/>
    <tag k="ref:vcgi:esiteid" v="188978"/>
  </node>
  <node id="-225" visible="true" lat="44.27635592" lon="-72.4158194">
    <tag k="addr:city" v="Plainfield"/>
    <tag k="addr:housenumber" v="65"/>
    <tag k="addr:street" v="East Hill Road"/>
    <tag k="addr:state" v="VT"/>
    <tag k="ref:vcgi:esiteid" v="188996"/>
  </node>
  <node id="-228" visible="true" lat="44.27638405" lon="-72.42664238">
    <tag k="addr:city" v="Plainfield"/>
    <tag k="addr:housenumber" v="28"/>
    <tag k="addr:street" v="Recreation Field Road"/>
    <tag k="addr:state" v="VT"/>
    <tag k="ref:vcgi:esiteid" v="188999"/>
  </node>
  <node id="-233" visible="true" lat="44.27606643" lon="-72.41560968">
    <tag k="addr:city" v="Plainfield"/>
    <tag k="addr:housenumber" v="81"/>
    <tag k="addr:street" v="East Hill Road"/>
    <tag k="addr:state" v="VT"/>
    <tag k="ref:vcgi:esiteid" v="189004"/>
  </node>
  <node id="-237" visible="true" lat="44.27593148" lon="-72.42578557">
    <tag k="addr:city" v="Plainfield"/>
    <tag k="addr:housenumber" v="110"/>
    <tag k="addr:street" v="Mill Street"/>
    <tag k="addr:state" v="VT"/>
    <tag k="ref:vcgi:esiteid" v="189008"/>
  </node>
  <node id="-244" visible="true" lat="44.2756018" lon="-72.41524158">
    <tag k="addr:city" v="Plainfield"/>
    <tag k="addr:housenumber" v="131"/>
    <tag k="addr:street" v="East Hill Road"/>
    <tag k="addr:state" v="VT"/>
    <tag k="ref:vcgi:esiteid" v="189015"/>
  </node>
  <node id="-258" visible="true" lat="44.27500962" lon="-72.41486745">
    <tag k="addr:city" v="Plainfield"/>
    <tag k="addr:housenumber" v="173"/>
    <tag k="addr:street" v="East Hill Road"/>
    <tag k="addr:state" v="VT"/>
    <tag k="ref:vcgi:esiteid" v="189031"/>
  </node>
  <node id="-260" visible="true" lat="44.2744905" lon="-72.43280825">
    <tag k="addr:city" v="Plainfield"/>
    <tag k="addr:housenumber" v="203"/>
    <tag k="addr:street" v="Martin Meadow Road"/>
    <tag k="addr:state" v="VT"/>
    <tag k="ref:vcgi:esiteid" v="189033"/>
  </node>
  <node id="-263" visible="true" lat="44.27398264" lon="-72.41425148">
    <tag k="addr:city" v="Plainfield"/>
    <tag k="addr:housenumber" v="247"/>
    <tag k="addr:street" v="East Hill Road"/>
    <tag k="addr:state" v="VT"/>
    <tag k="ref:vcgi:esiteid" v="189036"/>
  </node>
  <node id="-265" visible="true" lat="44.27352905" lon="-72.42938232">
    <tag k="addr:city" v="Plainfield"/>
    <tag k="addr:housenumber" v="251"/>
    <tag k="addr:street" v="Recreation Field Road"/>
    <tag k="addr:state" v="VT"/>
    <tag k="ref:vcgi:esiteid" v="189038"/>
  </node>
  <node id="-266" visible="true" lat="44.27334976" lon="-72.42053222">
    <tag k="addr:city" v="Plainfield"/>
    <tag k="addr:housenumber" v="235"/>
    <tag k="addr:street" v="Brook Road"/>
    <tag k="addr:state" v="VT"/>
    <tag k="ref:vcgi:esiteid" v="189039"/>
  </node>
  <node id="-267" visible="true" lat="44.27327346" lon="-72.42118835">
    <tag k="addr:city" v="Plainfield"/>
    <tag k="addr:housenumber" v="270"/>
    <tag k="addr:street" v="Brook Road"/>
    <tag k="addr:state" v="VT"/>
    <tag k="ref:vcgi:esiteid" v="189040"/>
  </node>
  <node id="-270" visible="true" lat="44.27267837" lon="-72.41980743">
    <tag k="addr:city" v="Plainfield"/>
    <tag k="addr:housenumber" v="303"/>
    <tag k="addr:street" v="Brook Road"/>
    <tag k="addr:state" v="VT"/>
    <tag k="ref:vcgi:esiteid" v="189043"/>
  </node>
  <node id="-272" visible="true" lat="44.27216339" lon="-72.43532562">
    <tag k="addr:city" v="Plainfield"/>
    <tag k="addr:housenumber" v="581"/>
    <tag k="addr:street" v="Recreation Field Road"/>
    <tag k="addr:state" v="VT"/>
    <tag k="ref:vcgi:esiteid" v="189045"/>
  </node>
  <node id="-273" visible="true" lat="44.27216339" lon="-72.44753265">
    <tag k="addr:city" v="Plainfield"/>
    <tag k="addr:housenumber" v="83"/>
    <tag k="addr:street" v="Country Club Road"/>
    <tag k="addr:state" v="VT"/>
    <tag k="ref:vcgi:esiteid" v="189046"/>
  </node>
  <node id="-279" visible="true" lat="44.27132415" lon="-72.41978454">
    <tag k="addr:city" v="Plainfield"/>
    <tag k="addr:housenumber" v="424"/>
    <tag k="addr:street" v="Brook Road"/>
    <tag k="addr:state" v="VT"/>
    <tag k="ref:vcgi:esiteid" v="189052"/>
  </node>
  <node id="-285" visible="true" lat="44.27016062" lon="-72.44996812">
    <tag k="addr:city" v="Plainfield"/>
    <tag k="addr:housenumber" v="260"/>
    <tag k="addr:street" v="Country Club Road"/>
    <tag k="addr:state" v="VT"/>
    <tag k="ref:vcgi:esiteid" v="189058"/>
  </node>
  <node id="-298" visible="true" lat="44.26711654" lon="-72.42877197">
    <tag k="addr:city" v="Plainfield"/>
    <tag k="addr:housenumber" v="176"/>
    <tag k="addr:street" v="Middle Road"/>
    <tag k="addr:state" v="VT"/>
    <tag k="ref:vcgi:esiteid" v="189071"/>
  </node>
  <node id="-299" visible="true" lat="44.2669487" lon="-72.41075134">
    <tag k="addr:city" v="Plainfield"/>
    <tag k="addr:housenumber" v="599"/>
    <tag k="addr:street" v="Cameron Road"/>
    <tag k="addr:state" v="VT"/>
    <tag k="ref:vcgi:esiteid" v="189072"/>
  </node>
  <node id="-301" visible="true" lat="44.2665596" lon="-72.40969085">
    <tag k="addr:city" v="Plainfield"/>
    <tag k="addr:housenumber" v="659"/>
    <tag k="addr:street" v="Cameron Road"/>
    <tag k="addr:state" v="VT"/>
    <tag k="ref:vcgi:esiteid" v="189074"/>
  </node>
  <node id="-303" visible="true" lat="44.26618576" lon="-72.44980621">
    <tag k="addr:city" v="Plainfield"/>
    <tag k="addr:housenumber" v="570"/>
    <tag k="addr:street" v="Country Club Road"/>
    <tag k="addr:state" v="VT"/>
    <tag k="ref:vcgi:esiteid" v="189076"/>
  </node>
  <node id="-304" visible="true" lat="44.2662641" lon="-72.4472773">
    <tag k="addr:city" v="Plainfield"/>
    <tag k="addr:housenumber" v="569"/>
    <tag k="addr:street" v="Country Club Road"/>
    <tag k="addr:state" v="VT"/>
    <tag k="ref:vcgi:esiteid" v="189077"/>
  </node>
  <node id="-305" visible="true" lat="44.26631142" lon="-72.42924235">
    <tag k="addr:city" v="Plainfield"/>
    <tag k="addr:housenumber" v="252"/>
    <tag k="addr:street" v="Middle Road"/>
    <tag k="addr:state" v="VT"/>
    <tag k="ref:vcgi:esiteid" v="189078"/>
  </node>
  <node id="-306" visible="true" lat="44.26595306" lon="-72.40968322">
    <tag k="addr:city" v="Plainfield"/>
    <tag k="addr:housenumber" v="682"/>
    <tag k="addr:street" v="Cameron Road"/>
    <tag k="addr:state" v="VT"/>
    <tag k="ref:vcgi:esiteid" v="189079"/>
  </node>
  <node id="-308" visible="true" lat="44.2649568" lon="-72.42188568">
    <tag k="addr:city" v="Plainfield"/>
    <tag k="addr:housenumber" v="399"/>
    <tag k="addr:street" v="Upper Road"/>
    <tag k="addr:state" v="VT"/>
    <tag k="ref:vcgi:esiteid" v="189081"/>
  </node>
  <node id="-309" visible="true" lat="44.26500417" lon="-72.42875489">
    <tag k="addr:city" v="Plainfield"/>
    <tag k="addr:housenumber" v="320"/>
    <tag k="addr:street" v="Middle Road"/>
    <tag k="addr:state" v="VT"/>
    <tag k="ref:vcgi:esiteid" v="189082"/>
  </node>
  <node id="-311" visible="true" lat="44.26483907" lon="-72.42790094">
    <tag k="addr:city" v="Plainfield"/>
    <tag k="addr:housenumber" v="335"/>
    <tag k="addr:street" v="Middle Road"/>
    <tag k="addr:state" v="VT"/>
    <tag k="ref:vcgi:esiteid" v="189084"/>
  </node>
  <node id="-313" visible="true" lat="44.26440429" lon="-72.42856598">
    <tag k="addr:city" v="Plainfield"/>
    <tag k="addr:housenumber" v="358"/>
    <tag k="addr:street" v="Middle Road"/>
    <tag k="addr:state" v="VT"/>
    <tag k="ref:vcgi:esiteid" v="189086"/>
  </node>
  <node id="-315" visible="true" lat="44.26371563" lon="-72.44872752">
    <tag k="addr:city" v="Plainfield"/>
    <tag k="addr:housenumber" v="729"/>
    <tag k="addr:street" v="Country Club Road"/>
    <tag k="addr:state" v="VT"/>
    <tag k="ref:vcgi:esiteid" v="189088"/>
  </node>
  <node id="-316" visible="true" lat="44.26385692" lon="-72.42856417">
    <tag k="addr:city" v="Plainfield"/>
    <tag k="addr:housenumber" v="402"/>
    <tag k="addr:street" v="Middle Road"/>
    <tag k="addr:state" v="VT"/>
    <tag k="ref:vcgi:esiteid" v="189089"/>
  </node>
  <node id="-317" visible="true" lat="44.26384085" lon="-72.45064364">
    <tag k="addr:city" v="Plainfield"/>
    <tag k="addr:housenumber" v="788"/>
    <tag k="addr:street" v="Country Club Road"/>
    <tag k="addr:state" v="VT"/>
    <tag k="ref:vcgi:esiteid" v="189090"/>
  </node>
  <node id="-319" visible="true" lat="44.26353835" lon="-72.41168975">
    <tag k="addr:city" v="Plainfield"/>
    <tag k="addr:housenumber" v="1119"/>
    <tag k="addr:street" v="Brook Road"/>
    <tag k="addr:state" v="VT"/>
    <tag k="ref:vcgi:esiteid" v="189092"/>
  </node>
  <node id="-321" visible="true" lat="44.26315443" lon="-72.45125">
    <tag k="addr:city" v="Plainfield"/>
    <tag k="addr:housenumber" v="846"/>
    <tag k="addr:street" v="Country Club Road"/>
    <tag k="addr:state" v="VT"/>
    <tag k="ref:vcgi:esiteid" v="189094"/>
  </node>
  <node id="-324" visible="true" lat="44.26228332" lon="-72.42759704">
    <tag k="addr:city" v="Plainfield"/>
    <tag k="addr:housenumber" v="503"/>
    <tag k="addr:street" v="Middle Road"/>
    <tag k="addr:state" v="VT"/>
    <tag k="ref:vcgi:esiteid" v="189097"/>
  </node>
  <node id="-325" visible="true" lat="44.26196289" lon="-72.42469787">
    <tag k="addr:city" v="Plainfield"/>
    <tag k="addr:housenumber" v="648"/>
    <tag k="addr:street" v="Upper Road"/>
    <tag k="addr:state" v="VT"/>
    <tag k="ref:vcgi:esiteid" v="189098"/>
  </node>
  <node id="-326" visible="true" lat="44.26162719" lon="-72.42500305">
    <tag k="addr:city" v="Plainfield"/>
    <tag k="addr:housenumber" v="674"/>
    <tag k="addr:street" v="Upper Road"/>
    <tag k="addr:state" v="VT"/>
    <tag k="ref:vcgi:esiteid" v="189099"/>
  </node>
  <node id="-327" visible="true" lat="44.26140975" lon="-72.39737701">
    <tag k="addr:city" v="Plainfield"/>
    <tag k="addr:housenumber" v="7"/>
    <tag k="addr:street" v="Batchelder Road"/>
    <tag k="addr:state" v="VT"/>
    <tag k="ref:vcgi:esiteid" v="189100"/>
  </node>
  <node id="-328" visible="true" lat="44.26107406" lon="-72.42551422">
    <tag k="addr:city" v="Plainfield"/>
    <tag k="addr:housenumber" v="718"/>
    <tag k="addr:street" v="Upper Road"/>
    <tag k="addr:state" v="VT"/>
    <tag k="ref:vcgi:esiteid" v="189101"/>
  </node>
  <node id="-333" visible="true" lat="44.26060297" lon="-72.42632271">
    <tag k="addr:city" v="Plainfield"/>
    <tag k="addr:housenumber" v="113"/>
    <tag k="addr:street" v="Center School Road"/>
    <tag k="addr:state" v="VT"/>
    <tag k="ref:vcgi:esiteid" v="189106"/>
  </node>
  <node id="-334" visible="true" lat="44.26012039" lon="-72.42599487">
    <tag k="addr:city" v="Plainfield"/>
    <tag k="addr:housenumber" v="786"/>
    <tag k="addr:street" v="Upper Road"/>
    <tag k="addr:state" v="VT"/>
    <tag k="ref:vcgi:esiteid" v="189107"/>
  </node>
  <node id="-336" visible="true" lat="44.26009368" lon="-72.42913055">
    <tag k="addr:city" v="Plainfield"/>
    <tag k="addr:housenumber" v="678"/>
    <tag k="addr:street" v="Middle Road"/>
    <tag k="addr:state" v="VT"/>
    <tag k="ref:vcgi:esiteid" v="189109"/>
  </node>
  <node id="-337" visible="true" lat="44.2600751" lon="-72.42539769">
    <tag k="addr:city" v="Plainfield"/>
    <tag k="addr:housenumber" v="785"/>
    <tag k="addr:street" v="Upper Road"/>
    <tag k="addr:state" v="VT"/>
    <tag k="ref:vcgi:esiteid" v="189110"/>
  </node>
  <node id="-338" visible="true" lat="44.26130051" lon="-72.44351163">
    <tag k="addr:city" v="Plainfield"/>
    <tag k="addr:housenumber" v="1098"/>
    <tag k="addr:street" v="Lower Road"/>
    <tag k="addr:state" v="VT"/>
    <tag k="ref:vcgi:esiteid" v="189111"/>
  </node>
  <node id="-340" visible="true" lat="44.25898745" lon="-72.45390476">
    <tag k="addr:city" v="Plainfield"/>
    <tag k="addr:housenumber" v="1159"/>
    <tag k="addr:street" v="Country Club Road"/>
    <tag k="addr:state" v="VT"/>
    <tag k="ref:vcgi:esiteid" v="189113"/>
  </node>
  <node id="-341" visible="true" lat="44.25900268" lon="-72.42872619">
    <tag k="addr:city" v="Plainfield"/>
    <tag k="addr:housenumber" v="732"/>
    <tag k="addr:street" v="Middle Road"/>
    <tag k="addr:state" v="VT"/>
    <tag k="ref:vcgi:esiteid" v="189114"/>
  </node>
  <node id="-342" visible="true" lat="44.25855636" lon="-72.42581176">
    <tag k="addr:city" v="Plainfield"/>
    <tag k="addr:housenumber" v="893"/>
    <tag k="addr:street" v="Upper Road"/>
    <tag k="addr:state" v="VT"/>
    <tag k="ref:vcgi:esiteid" v="189115"/>
  </node>
  <node id="-345" visible="true" lat="44.25842653" lon="-72.41462131">
    <tag k="addr:city" v="Plainfield"/>
    <tag k="addr:housenumber" v="521"/>
    <tag k="addr:street" v="Lindemann Lane"/>
    <tag k="addr:state" v="VT"/>
    <tag k="ref:vcgi:esiteid" v="189118"/>
  </node>
  <node id="-346" visible="true" lat="44.25813675" lon="-72.42849731">
    <tag k="addr:city" v="Plainfield"/>
    <tag k="addr:housenumber" v="794"/>
    <tag k="addr:street" v="Middle Road"/>
    <tag k="addr:state" v="VT"/>
    <tag k="ref:vcgi:esiteid" v="189119"/>
  </node>
  <node id="-347" visible="true" lat="44.25798034" lon="-72.41809845">
    <tag k="addr:city" v="Plainfield"/>
    <tag k="addr:housenumber" v="407"/>
    <tag k="addr:street" v="Lindemann Lane"/>
    <tag k="addr:state" v="VT"/>
    <tag k="ref:vcgi:esiteid" v="189120"/>
  </node>
  <node id="-349" visible="true" lat="44.25751113" lon="-72.42134094">
    <tag k="addr:city" v="Plainfield"/>
    <tag k="addr:housenumber" v="272"/>
    <tag k="addr:street" v="Lindemann Lane"/>
    <tag k="addr:state" v="VT"/>
    <tag k="ref:vcgi:esiteid" v="189122"/>
  </node>
  <node id="-351" visible="true" lat="44.25720368" lon="-72.42447389">
    <tag k="addr:city" v="Plainfield"/>
    <tag k="addr:housenumber" v="1017"/>
    <tag k="addr:street" v="Upper Road"/>
    <tag k="addr:state" v="VT"/>
    <tag k="ref:vcgi:esiteid" v="189124"/>
  </node>
  <node id="-356" visible="true" lat="44.25659011" lon="-72.44475978">
    <tag k="addr:city" v="Plainfield"/>
    <tag k="addr:housenumber" v="1370"/>
    <tag k="addr:street" v="Lower Road"/>
    <tag k="addr:state" v="VT"/>
    <tag k="ref:vcgi:esiteid" v="189129"/>
  </node>
  <node id="-358" visible="true" lat="44.25623558" lon="-72.42626811">
    <tag k="addr:city" v="Plainfield"/>
    <tag k="addr:housenumber" v="1068"/>
    <tag k="addr:street" v="Upper Road"/>
    <tag k="addr:state" v="VT"/>
    <tag k="ref:vcgi:esiteid" v="189131"/>
  </node>
  <node id="-359" visible="true" lat="44.25622558" lon="-72.43085479">
    <tag k="addr:city" v="Plainfield"/>
    <tag k="addr:housenumber" v="986"/>
    <tag k="addr:street" v="Middle Road"/>
    <tag k="addr:state" v="VT"/>
    <tag k="ref:vcgi:esiteid" v="189132"/>
  </node>
  <node id="-363" visible="true" lat="44.25572509" lon="-72.44149524">
    <tag k="addr:city" v="Plainfield"/>
    <tag k="addr:housenumber" v="114"/>
    <tag k="addr:street" v="Cerutti Road"/>
    <tag k="addr:state" v="VT"/>
    <tag k="ref:vcgi:esiteid" v="189136"/>
  </node>
  <node id="-364" visible="true" lat="44.25577686" lon="-72.42847799">
    <tag k="addr:city" v="Plainfield"/>
    <tag k="addr:housenumber" v="955"/>
    <tag k="addr:street" v="Middle Road"/>
    <tag k="addr:state" v="VT"/>
    <tag k="ref:vcgi:esiteid" v="189137"/>
  </node>
  <node id="-366" visible="true" lat="44.25539161" lon="-72.42885641">
    <tag k="addr:city" v="Plainfield"/>
    <tag k="addr:housenumber" v="985"/>
    <tag k="addr:street" v="Middle Road"/>
    <tag k="addr:state" v="VT"/>
    <tag k="ref:vcgi:esiteid" v="189139"/>
  </node>
  <node id="-367" visible="true" lat="44.25504016" lon="-72.43939606">
    <tag k="addr:city" v="Plainfield"/>
    <tag k="addr:housenumber" v="215"/>
    <tag k="addr:street" v="Cerutti Road"/>
    <tag k="addr:state" v="VT"/>
    <tag k="ref:vcgi:esiteid" v="189140"/>
  </node>
  <node id="-368" visible="true" lat="44.25503817" lon="-72.42136384">
    <tag k="addr:city" v="Plainfield"/>
    <tag k="addr:housenumber" v="1039"/>
    <tag k="addr:street" v="Upper Road"/>
    <tag k="addr:state" v="VT"/>
    <tag k="ref:vcgi:esiteid" v="189141"/>
  </node>
  <node id="-370" visible="true" lat="44.25492477" lon="-72.41921997">
    <tag k="addr:city" v="Plainfield"/>
    <tag k="addr:housenumber" v="396"/>
    <tag k="addr:street" v="Lindemann Lane"/>
    <tag k="addr:state" v="VT"/>
    <tag k="ref:vcgi:esiteid" v="189143"/>
  </node>
  <node id="-372" visible="true" lat="44.25457382" lon="-72.43013763">
    <tag k="addr:city" v="Plainfield"/>
    <tag k="addr:housenumber" v="1066"/>
    <tag k="addr:street" v="Middle Road"/>
    <tag k="addr:state" v="VT"/>
    <tag k="ref:vcgi:esiteid" v="189145"/>
  </node>
  <node id="-374" visible="true" lat="44.25416065" lon="-72.46100636">
    <tag k="addr:city" v="Plainfield"/>
    <tag k="addr:housenumber" v="1634"/>
    <tag k="addr:street" v="Country Club Road"/>
    <tag k="addr:state" v="VT"/>
    <tag k="ref:vcgi:esiteid" v="189147"/>
  </node>
  <node id="-375" visible="true" lat="44.25408866" lon="-72.44594084">
    <tag k="addr:city" v="Plainfield"/>
    <tag k="addr:housenumber" v="1526"/>
    <tag k="addr:street" v="Lower Road"/>
    <tag k="addr:state" v="VT"/>
    <tag k="ref:vcgi:esiteid" v="189148"/>
  </node>
  <node id="-376" visible="true" lat="44.25360121" lon="-72.45771067">
    <tag k="addr:city" v="Plainfield"/>
    <tag k="addr:housenumber" v="1585"/>
    <tag k="addr:street" v="Country Club Road"/>
    <tag k="addr:state" v="VT"/>
    <tag k="ref:vcgi:esiteid" v="189149"/>
  </node>
  <node id="-377" visible="true" lat="44.25319671" lon="-72.40089416">
    <tag k="addr:city" v="Plainfield"/>
    <tag k="addr:housenumber" v="783"/>
    <tag k="addr:street" v="Fowler Road"/>
    <tag k="addr:state" v="VT"/>
    <tag k="ref:vcgi:esiteid" v="189150"/>
  </node>
  <node id="-379" visible="true" lat="44.25298953" lon="-72.46220579">
    <tag k="addr:city" v="Plainfield"/>
    <tag k="addr:housenumber" v="1726"/>
    <tag k="addr:street" v="Country Club Road"/>
    <tag k="addr:state" v="VT"/>
    <tag k="ref:vcgi:esiteid" v="189152"/>
  </node>
  <node id="-381" visible="true" lat="44.25284164" lon="-72.46493351">
    <tag k="addr:city" v="Plainfield"/>
    <tag k="addr:housenumber" v="342"/>
    <tag k="addr:street" v="Drake Road"/>
    <tag k="addr:state" v="VT"/>
    <tag k="ref:vcgi:esiteid" v="189154"/>
  </node>
  <node id="-383" visible="true" lat="44.2525711" lon="-72.43108367">
    <tag k="addr:city" v="Plainfield"/>
    <tag k="addr:housenumber" v="1211"/>
    <tag k="addr:street" v="Middle Road"/>
    <tag k="addr:state" v="VT"/>
    <tag k="ref:vcgi:esiteid" v="189156"/>
  </node>
  <node id="-384" visible="true" lat="44.25245101" lon="-72.44651418">
    <tag k="addr:city" v="Plainfield"/>
    <tag k="addr:housenumber" v="1642"/>
    <tag k="addr:street" v="Lower Road"/>
    <tag k="addr:state" v="VT"/>
    <tag k="ref:vcgi:esiteid" v="189157"/>
  </node>
  <node id="-386" visible="true" lat="44.25202877" lon="-72.42343713">
    <tag k="addr:city" v="Plainfield"/>
    <tag k="addr:housenumber" v="1369"/>
    <tag k="addr:street" v="Upper Road"/>
    <tag k="addr:state" v="VT"/>
    <tag k="ref:vcgi:esiteid" v="189159"/>
  </node>
  <node id="-388" visible="true" lat="44.2512967" lon="-72.46537946">
    <tag k="addr:city" v="Plainfield"/>
    <tag k="addr:housenumber" v="276"/>
    <tag k="addr:street" v="Drake Road"/>
    <tag k="addr:state" v="VT"/>
    <tag k="ref:vcgi:esiteid" v="189161"/>
  </node>
  <node id="-390" visible="true" lat="44.25071467" lon="-72.46614234">
    <tag k="addr:city" v="Plainfield"/>
    <tag k="addr:housenumber" v="297"/>
    <tag k="addr:street" v="Drake Road"/>
    <tag k="addr:state" v="VT"/>
    <tag k="ref:vcgi:esiteid" v="189163"/>
  </node>
  <node id="-391" visible="true" lat="44.25045644" lon="-72.46695122">
    <tag k="addr:city" v="Plainfield"/>
    <tag k="addr:housenumber" v="335"/>
    <tag k="addr:street" v="Drake Road"/>
    <tag k="addr:state" v="VT"/>
    <tag k="ref:vcgi:esiteid" v="189164"/>
  </node>
  <node id="-392" visible="true" lat="44.25029339" lon="-72.46539094">
    <tag k="addr:city" v="Plainfield"/>
    <tag k="addr:housenumber" v="1976"/>
    <tag k="addr:street" v="Country Club Road"/>
    <tag k="addr:state" v="VT"/>
    <tag k="ref:vcgi:esiteid" v="189165"/>
  </node>
  <node id="-393" visible="true" lat="44.25031128" lon="-72.41775847">
    <tag k="addr:city" v="Plainfield"/>
    <tag k="addr:housenumber" v="399"/>
    <tag k="addr:street" v="Bartlett Road"/>
    <tag k="addr:state" v="VT"/>
    <tag k="ref:vcgi:esiteid" v="189166"/>
  </node>
  <node id="-394" visible="true" lat="44.25013351" lon="-72.39092254">
    <tag k="addr:city" v="Plainfield"/>
    <tag k="addr:housenumber" v="2590"/>
    <tag k="addr:street" v="East Hill Road"/>
    <tag k="addr:state" v="VT"/>
    <tag k="ref:vcgi:esiteid" v="189167"/>
  </node>
  <node id="-395" visible="true" lat="44.24980647" lon="-72.46579623">
    <tag k="addr:city" v="Plainfield"/>
    <tag k="addr:housenumber" v="2014"/>
    <tag k="addr:street" v="Country Club Road"/>
    <tag k="addr:state" v="VT"/>
    <tag k="ref:vcgi:esiteid" v="189168"/>
  </node>
  <node id="-396" visible="true" lat="44.24959564" lon="-72.42350769">
    <tag k="addr:city" v="Plainfield"/>
    <tag k="addr:housenumber" v="1531"/>
    <tag k="addr:street" v="Upper Road"/>
    <tag k="addr:state" v="VT"/>
    <tag k="ref:vcgi:esiteid" v="189169"/>
  </node>
  <node id="-397" visible="true" lat="44.24968787" lon="-72.46338543">
    <tag k="addr:city" v="Plainfield"/>
    <tag k="addr:housenumber" v="142"/>
    <tag k="addr:street" v="Drake Road"/>
    <tag k="addr:state" v="VT"/>
    <tag k="ref:vcgi:esiteid" v="189170"/>
  </node>
  <node id="-398" visible="true" lat="44.24957358" lon="-72.46598348">
    <tag k="addr:city" v="Plainfield"/>
    <tag k="addr:housenumber" v="2040"/>
    <tag k="addr:street" v="Country Club Road"/>
    <tag k="addr:state" v="VT"/>
    <tag k="ref:vcgi:esiteid" v="189171"/>
  </node>
  <node id="-399" visible="true" lat="44.24912017" lon="-72.41818941">
    <tag k="addr:city" v="Plainfield"/>
    <tag k="addr:housenumber" v="322"/>
    <tag k="addr:street" v="Bartlett Road"/>
    <tag k="addr:state" v="VT"/>
    <tag k="ref:vcgi:esiteid" v="189172"/>
  </node>
  <node id="-400" visible="true" lat="44.24910354" lon="-72.39004516">
    <tag k="addr:city" v="Plainfield"/>
    <tag k="addr:housenumber" v="2665"/>
    <tag k="addr:street" v="East Hill Road"/>
    <tag k="addr:state" v="VT"/>
    <tag k="ref:vcgi:esiteid" v="189173"/>
  </node>
  <node id="-401" visible="true" lat="44.24928169" lon="-72.46634502">
    <tag k="addr:city" v="Plainfield"/>
    <tag k="addr:housenumber" v="2068"/>
    <tag k="addr:street" v="Country Club Road"/>
    <tag k="addr:state" v="VT"/>
    <tag k="ref:vcgi:esiteid" v="189174"/>
  </node>
  <node id="-402" visible="true" lat="44.24893947" lon="-72.46661472">
    <tag k="addr:city" v="Plainfield"/>
    <tag k="addr:housenumber" v="2102"/>
    <tag k="addr:street" v="Country Club Road"/>
    <tag k="addr:state" v="VT"/>
    <tag k="ref:vcgi:esiteid" v="189175"/>
  </node>
  <node id="-403" visible="true" lat="44.24871063" lon="-72.38734436">
    <tag k="addr:city" v="Plainfield"/>
    <tag k="addr:housenumber" v="154"/>
    <tag k="addr:street" v="Woodcock Road"/>
    <tag k="addr:state" v="VT"/>
    <tag k="ref:vcgi:esiteid" v="189176"/>
  </node>
  <node id="-404" visible="true" lat="44.24887621" lon="-72.42238237">
    <tag k="addr:city" v="Plainfield"/>
    <tag k="addr:housenumber" v="53"/>
    <tag k="addr:street" v="Bartlett Road"/>
    <tag k="addr:state" v="VT"/>
    <tag k="ref:vcgi:esiteid" v="189177"/>
  </node>
  <node id="-405" visible="true" lat="44.24878735" lon="-72.45058149">
    <tag k="addr:city" v="Plainfield"/>
    <tag k="addr:housenumber" v="1990"/>
    <tag k="addr:street" v="Lower Road"/>
    <tag k="addr:state" v="VT"/>
    <tag k="ref:vcgi:esiteid" v="189178"/>
  </node>
  <node id="-406" visible="true" lat="44.24845504" lon="-72.38344574">
    <tag k="addr:city" v="Plainfield"/>
    <tag k="addr:housenumber" v="210"/>
    <tag k="addr:street" v="Woodcock Road"/>
    <tag k="addr:state" v="VT"/>
    <tag k="ref:vcgi:esiteid" v="189179"/>
  </node>
  <node id="-407" visible="true" lat="44.24863418" lon="-72.46687671">
    <tag k="addr:city" v="Plainfield"/>
    <tag k="addr:housenumber" v="2132"/>
    <tag k="addr:street" v="Country Club Road"/>
    <tag k="addr:state" v="VT"/>
    <tag k="ref:vcgi:esiteid" v="189180"/>
  </node>
  <node id="-408" visible="true" lat="44.24842071" lon="-72.39002227">
    <tag k="addr:city" v="Plainfield"/>
    <tag k="addr:housenumber" v="21"/>
    <tag k="addr:street" v="Woodcock Road"/>
    <tag k="addr:state" v="VT"/>
    <tag k="ref:vcgi:esiteid" v="189181"/>
  </node>
  <node id="-409" visible="true" lat="44.24848968" lon="-72.42136735">
    <tag k="addr:city" v="Plainfield"/>
    <tag k="addr:housenumber" v="113"/>
    <tag k="addr:street" v="Bartlett Road"/>
    <tag k="addr:state" v="VT"/>
    <tag k="ref:vcgi:esiteid" v="189182"/>
  </node>
  <node id="-410" visible="true" lat="44.24802017" lon="-72.42375183">
    <tag k="addr:city" v="Plainfield"/>
    <tag k="addr:housenumber" v="1640"/>
    <tag k="addr:street" v="Upper Road"/>
    <tag k="addr:state" v="VT"/>
    <tag k="ref:vcgi:esiteid" v="189183"/>
  </node>
  <node id="-411" visible="true" lat="44.24773788" lon="-72.37431335">
    <tag k="addr:city" v="Plainfield"/>
    <tag k="addr:housenumber" v="907"/>
    <tag k="addr:street" v="Bean Road"/>
    <tag k="addr:state" v="VT"/>
    <tag k="ref:vcgi:esiteid" v="189184"/>
  </node>
  <node id="-412" visible="true" lat="44.24769973" lon="-72.39855194">
    <tag k="addr:city" v="Plainfield"/>
    <tag k="addr:housenumber" v="975"/>
    <tag k="addr:street" v="Fowler Road"/>
    <tag k="addr:state" v="VT"/>
    <tag k="ref:vcgi:esiteid" v="189185"/>
  </node>
  <node id="-413" visible="true" lat="44.24744412" lon="-72.43604423">
    <tag k="addr:city" v="Plainfield"/>
    <tag k="addr:housenumber" v="1620"/>
    <tag k="addr:street" v="Middle Road"/>
    <tag k="addr:state" v="VT"/>
    <tag k="ref:vcgi:esiteid" v="189186"/>
  </node>
  <node id="-415" visible="true" lat="44.24686422" lon="-72.4678695">
    <tag k="addr:city" v="Plainfield"/>
    <tag k="addr:housenumber" v="2220"/>
    <tag k="addr:street" v="Country Club Road"/>
    <tag k="addr:state" v="VT"/>
    <tag k="ref:vcgi:esiteid" v="189188"/>
  </node>
  <node id="-416" visible="true" lat="44.24659728" lon="-72.4066391">
    <tag k="addr:city" v="Plainfield"/>
    <tag k="addr:housenumber" v="2351"/>
    <tag k="addr:street" v="Brook Road"/>
    <tag k="addr:state" v="VT"/>
    <tag k="ref:vcgi:esiteid" v="189189"/>
  </node>
  <node id="-418" visible="true" lat="44.24612426" lon="-72.4159851">
    <tag k="addr:city" v="Plainfield"/>
    <tag k="addr:housenumber" v="180"/>
    <tag k="addr:street" v="Bartlett Road"/>
    <tag k="addr:state" v="VT"/>
    <tag k="ref:vcgi:esiteid" v="189191"/>
  </node>
  <node id="-419" visible="true" lat="44.24607467" lon="-72.37732696">
    <tag k="addr:city" v="Plainfield"/>
    <tag k="addr:housenumber" v="683"/>
    <tag k="addr:street" v="Bean Road"/>
    <tag k="addr:state" v="VT"/>
    <tag k="ref:vcgi:esiteid" v="189192"/>
  </node>
  <node id="-420" visible="true" lat="44.24595086" lon="-72.46814505">
    <tag k="addr:city" v="Plainfield"/>
    <tag k="addr:housenumber" v="2300"/>
    <tag k="addr:street" v="Country Club Road"/>
    <tag k="addr:state" v="VT"/>
    <tag k="ref:vcgi:esiteid" v="189193"/>
  </node>
  <node id="-421" visible="true" lat="44.24375544" lon="-72.43159874">
    <tag k="addr:city" v="Plainfield"/>
    <tag k="addr:housenumber" v="1775"/>
    <tag k="addr:street" v="Middle Road"/>
    <tag k="addr:state" v="VT"/>
    <tag k="ref:vcgi:esiteid" v="189194"/>
  </node>
  <node id="-422" visible="true" lat="44.24532201" lon="-72.44985286">
    <tag k="addr:city" v="Plainfield"/>
    <tag k="addr:housenumber" v="2173"/>
    <tag k="addr:street" v="Lower Road"/>
    <tag k="addr:state" v="VT"/>
    <tag k="ref:vcgi:esiteid" v="189195"/>
  </node>
  <node id="-424" visible="true" lat="44.24516296" lon="-72.42201995">
    <tag k="addr:city" v="Plainfield"/>
    <tag k="addr:housenumber" v="125"/>
    <tag k="addr:street" v="Farnham Road"/>
    <tag k="addr:state" v="VT"/>
    <tag k="ref:vcgi:esiteid" v="189197"/>
  </node>
  <node id="-425" visible="true" lat="44.24473965" lon="-72.45030284">
    <tag k="addr:city" v="Plainfield"/>
    <tag k="addr:housenumber" v="2191"/>
    <tag k="addr:street" v="Lower Road"/>
    <tag k="addr:state" v="VT"/>
    <tag k="ref:vcgi:esiteid" v="189198"/>
  </node>
  <node id="-427" visible="true" lat="44.24486871" lon="-72.4687239">
    <tag k="addr:city" v="Plainfield"/>
    <tag k="addr:housenumber" v="2358"/>
    <tag k="addr:street" v="Country Club Road"/>
    <tag k="addr:state" v="VT"/>
    <tag k="ref:vcgi:esiteid" v="189200"/>
  </node>
  <node id="-428" visible="true" lat="44.24494611" lon="-72.45312258">
    <tag k="addr:city" v="Plainfield"/>
    <tag k="addr:housenumber" v="2260"/>
    <tag k="addr:street" v="Lower Road"/>
    <tag k="addr:state" v="VT"/>
    <tag k="ref:vcgi:esiteid" v="189201"/>
  </node>
  <node id="-430" visible="true" lat="44.24458313" lon="-72.40763854">
    <tag k="addr:city" v="Plainfield"/>
    <tag k="addr:housenumber" v="2514"/>
    <tag k="addr:street" v="Brook Road"/>
    <tag k="addr:state" v="VT"/>
    <tag k="ref:vcgi:esiteid" v="189203"/>
  </node>
  <node id="-432" visible="true" lat="44.24432754" lon="-72.43740081">
    <tag k="addr:city" v="Plainfield"/>
    <tag k="addr:housenumber" v="1861"/>
    <tag k="addr:street" v="Middle Road"/>
    <tag k="addr:state" v="VT"/>
    <tag k="ref:vcgi:esiteid" v="189205"/>
  </node>
  <node id="-434" visible="true" lat="44.24430458" lon="-72.42588227">
    <tag k="addr:city" v="Plainfield"/>
    <tag k="addr:housenumber" v="1928"/>
    <tag k="addr:street" v="Upper Road"/>
    <tag k="addr:state" v="VT"/>
    <tag k="ref:vcgi:esiteid" v="189207"/>
  </node>
  <node id="-435" visible="true" lat="44.24402691" lon="-72.45107361">
    <tag k="addr:city" v="Plainfield"/>
    <tag k="addr:housenumber" v="2273"/>
    <tag k="addr:street" v="Lower Road"/>
    <tag k="addr:state" v="VT"/>
    <tag k="ref:vcgi:esiteid" v="189208"/>
  </node>
  <node id="-438" visible="true" lat="44.24404146" lon="-72.40493184">
    <tag k="addr:city" v="Plainfield"/>
    <tag k="addr:housenumber" v="137"/>
    <tag k="addr:street" v="Gray Road"/>
    <tag k="addr:state" v="VT"/>
    <tag k="ref:vcgi:esiteid" v="189211"/>
  </node>
  <node id="-439" visible="true" lat="44.24398947" lon="-72.46871145">
    <tag k="addr:city" v="Plainfield"/>
    <tag k="addr:housenumber" v="2446"/>
    <tag k="addr:street" v="Country Club Road"/>
    <tag k="addr:state" v="VT"/>
    <tag k="ref:vcgi:esiteid" v="189212"/>
  </node>
  <node id="-440" visible="true" lat="44.24357223" lon="-72.40616607">
    <tag k="addr:city" v="Plainfield"/>
    <tag k="addr:housenumber" v="82"/>
    <tag k="addr:street" v="Gray Road"/>
    <tag k="addr:state" v="VT"/>
    <tag k="ref:vcgi:esiteid" v="189213"/>
  </node>
  <node id="-441" visible="true" lat="44.2431323" lon="-72.40692677">
    <tag k="addr:city" v="Plainfield"/>
    <tag k="addr:housenumber" v="2601"/>
    <tag k="addr:street" v="Brook Road"/>
    <tag k="addr:state" v="VT"/>
    <tag k="ref:vcgi:esiteid" v="189214"/>
  </node>
  <node id="-442" visible="true" lat="44.24327468" lon="-72.43799591">
    <tag k="addr:city" v="Plainfield"/>
    <tag k="addr:housenumber" v="1939"/>
    <tag k="addr:street" v="Middle Road"/>
    <tag k="addr:state" v="VT"/>
    <tag k="ref:vcgi:esiteid" v="189215"/>
  </node>
  <node id="-443" visible="true" lat="44.24332214" lon="-72.4018451">
    <tag k="addr:city" v="Plainfield"/>
    <tag k="addr:housenumber" v="303"/>
    <tag k="addr:street" v="Gray Road"/>
    <tag k="addr:state" v="VT"/>
    <tag k="ref:vcgi:esiteid" v="189216"/>
  </node>
  <node id="-444" visible="true" lat="44.24311828" lon="-72.46911621">
    <tag k="addr:city" v="Plainfield"/>
    <tag k="addr:housenumber" v="2516"/>
    <tag k="addr:street" v="Country Club Road"/>
    <tag k="addr:state" v="VT"/>
    <tag k="ref:vcgi:esiteid" v="189217"/>
  </node>
  <node id="-445" visible="true" lat="44.24293493" lon="-72.45093068">
    <tag k="addr:city" v="Plainfield"/>
    <tag k="addr:housenumber" v="2321"/>
    <tag k="addr:street" v="Lower Road"/>
    <tag k="addr:state" v="VT"/>
    <tag k="ref:vcgi:esiteid" v="189218"/>
  </node>
  <node id="-446" visible="true" lat="44.24293136" lon="-72.40258788">
    <tag k="addr:city" v="Plainfield"/>
    <tag k="addr:housenumber" v="246"/>
    <tag k="addr:street" v="Gray Road"/>
    <tag k="addr:state" v="VT"/>
    <tag k="ref:vcgi:esiteid" v="189219"/>
  </node>
  <node id="-449" visible="true" lat="44.24228305" lon="-72.45399666">
    <tag k="addr:city" v="Plainfield"/>
    <tag k="addr:housenumber" v="2460"/>
    <tag k="addr:street" v="Lower Road"/>
    <tag k="addr:state" v="VT"/>
    <tag k="ref:vcgi:esiteid" v="189222"/>
  </node>
  <node id="-450" visible="true" lat="44.24222748" lon="-72.46770172">
    <tag k="addr:city" v="Plainfield"/>
    <tag k="addr:housenumber" v="2537"/>
    <tag k="addr:street" v="Country Club Road"/>
    <tag k="addr:state" v="VT"/>
    <tag k="ref:vcgi:esiteid" v="189223"/>
  </node>
  <node id="-451" visible="true" lat="44.24197006" lon="-72.40714263">
    <tag k="addr:city" v="Plainfield"/>
    <tag k="addr:housenumber" v="2681"/>
    <tag k="addr:street" v="Brook Road"/>
    <tag k="addr:state" v="VT"/>
    <tag k="ref:vcgi:esiteid" v="189224"/>
  </node>
  <node id="-452" visible="true" lat="44.24176025" lon="-72.4400177">
    <tag k="addr:city" v="Plainfield"/>
    <tag k="addr:housenumber" v="2084"/>
    <tag k="addr:street" v="Middle Road"/>
    <tag k="addr:state" v="VT"/>
    <tag k="ref:vcgi:esiteid" v="189225"/>
  </node>
  <node id="-453" visible="true" lat="44.24170093" lon="-72.3987028">
    <tag k="addr:city" v="Plainfield"/>
    <tag k="addr:housenumber" v="487"/>
    <tag k="addr:street" v="Gray Road"/>
    <tag k="addr:state" v="VT"/>
    <tag k="ref:vcgi:esiteid" v="189226"/>
  </node>
  <node id="-454" visible="true" lat="44.2414346" lon="-72.45487567">
    <tag k="addr:city" v="Plainfield"/>
    <tag k="addr:housenumber" v="2504"/>
    <tag k="addr:street" v="Lower Road"/>
    <tag k="addr:state" v="VT"/>
    <tag k="ref:vcgi:esiteid" v="189227"/>
  </node>
  <node id="-455" visible="true" lat="44.24123382" lon="-72.4519577">
    <tag k="addr:city" v="Plainfield"/>
    <tag k="addr:housenumber" v="2459"/>
    <tag k="addr:street" v="Lower Road"/>
    <tag k="addr:state" v="VT"/>
    <tag k="ref:vcgi:esiteid" v="189228"/>
  </node>
  <node id="-456" visible="true" lat="44.24121214" lon="-72.42837272">
    <tag k="addr:city" v="Plainfield"/>
    <tag k="addr:housenumber" v="2174"/>
    <tag k="addr:street" v="Upper Road"/>
    <tag k="addr:state" v="VT"/>
    <tag k="ref:vcgi:esiteid" v="189229"/>
  </node>
  <node id="-458" visible="true" lat="44.24078369" lon="-72.4045639">
    <tag k="addr:city" v="Plainfield"/>
    <tag k="addr:housenumber" v="188"/>
    <tag k="addr:street" v="Percys Place"/>
    <tag k="addr:state" v="VT"/>
    <tag k="ref:vcgi:esiteid" v="189231"/>
  </node>
  <node id="-459" visible="true" lat="44.24057006" lon="-72.39823913">
    <tag k="addr:city" v="Plainfield"/>
    <tag k="addr:housenumber" v="550"/>
    <tag k="addr:street" v="Gray Road"/>
    <tag k="addr:state" v="VT"/>
    <tag k="ref:vcgi:esiteid" v="189232"/>
  </node>
  <node id="-461" visible="true" lat="44.24060418" lon="-72.39496027">
    <tag k="addr:city" v="Plainfield"/>
    <tag k="addr:housenumber" v="695"/>
    <tag k="addr:street" v="Gray Road"/>
    <tag k="addr:state" v="VT"/>
    <tag k="ref:vcgi:esiteid" v="189234"/>
  </node>
  <node id="-462" visible="true" lat="44.24035644" lon="-72.39572143">
    <tag k="addr:city" v="Plainfield"/>
    <tag k="addr:housenumber" v="662"/>
    <tag k="addr:street" v="Gray Road"/>
    <tag k="addr:state" v="VT"/>
    <tag k="ref:vcgi:esiteid" v="189235"/>
  </node>
  <node id="-463" visible="true" lat="44.24022448" lon="-72.4292283">
    <tag k="addr:city" v="Plainfield"/>
    <tag k="addr:housenumber" v="2250"/>
    <tag k="addr:street" v="Upper Road"/>
    <tag k="addr:state" v="VT"/>
    <tag k="ref:vcgi:esiteid" v="189236"/>
  </node>
  <node id="-465" visible="true" lat="44.24006652" lon="-72.39672851">
    <tag k="addr:city" v="Plainfield"/>
    <tag k="addr:housenumber" v="614"/>
    <tag k="addr:street" v="Gray Road"/>
    <tag k="addr:state" v="VT"/>
    <tag k="ref:vcgi:esiteid" v="189238"/>
  </node>
  <node id="-466" visible="true" lat="44.24003478" lon="-72.4283224">
    <tag k="addr:city" v="Plainfield"/>
    <tag k="addr:housenumber" v="2245"/>
    <tag k="addr:street" v="Upper Road"/>
    <tag k="addr:state" v="VT"/>
    <tag k="ref:vcgi:esiteid" v="189239"/>
  </node>
  <node id="-467" visible="true" lat="44.23993702" lon="-72.45713192">
    <tag k="addr:city" v="Plainfield"/>
    <tag k="addr:housenumber" v="2698"/>
    <tag k="addr:street" v="Lower Road"/>
    <tag k="addr:state" v="VT"/>
    <tag k="ref:vcgi:esiteid" v="189240"/>
  </node>
  <node id="-468" visible="true" lat="44.24003219" lon="-72.40345001">
    <tag k="addr:city" v="Plainfield"/>
    <tag k="addr:housenumber" v="202"/>
    <tag k="addr:street" v="Percys Place"/>
    <tag k="addr:state" v="VT"/>
    <tag k="ref:vcgi:esiteid" v="189241"/>
  </node>
  <node id="-469" visible="true" lat="44.23895351" lon="-72.47128055">
    <tag k="addr:city" v="Plainfield"/>
    <tag k="addr:housenumber" v="2832"/>
    <tag k="addr:street" v="Country Club Road"/>
    <tag k="addr:state" v="VT"/>
    <tag k="ref:vcgi:esiteid" v="189242"/>
  </node>
  <node id="-470" visible="true" lat="44.23843023" lon="-72.45812902">
    <tag k="addr:city" v="Plainfield"/>
    <tag k="addr:housenumber" v="2792"/>
    <tag k="addr:street" v="Lower Road"/>
    <tag k="addr:state" v="VT"/>
    <tag k="ref:vcgi:esiteid" v="189243"/>
  </node>
  <node id="-472" visible="true" lat="44.23834228" lon="-72.4411087">
    <tag k="addr:city" v="Plainfield"/>
    <tag k="addr:housenumber" v="2381"/>
    <tag k="addr:street" v="Middle Road"/>
    <tag k="addr:state" v="VT"/>
    <tag k="ref:vcgi:esiteid" v="189245"/>
  </node>
  <node id="-473" visible="true" lat="44.23831176" lon="-72.44591522">
    <tag k="addr:city" v="Plainfield"/>
    <tag k="addr:housenumber" v="2472"/>
    <tag k="addr:street" v="Middle Road"/>
    <tag k="addr:state" v="VT"/>
    <tag k="ref:vcgi:esiteid" v="189246"/>
  </node>
  <node id="-474" visible="true" lat="44.23823165" lon="-72.43034362">
    <tag k="addr:city" v="Plainfield"/>
    <tag k="addr:housenumber" v="2400"/>
    <tag k="addr:street" v="Upper Road"/>
    <tag k="addr:state" v="VT"/>
    <tag k="ref:vcgi:esiteid" v="189247"/>
  </node>
  <node id="-475" visible="true" lat="44.23810195" lon="-72.38769531">
    <tag k="addr:city" v="Plainfield"/>
    <tag k="addr:housenumber" v="172"/>
    <tag k="addr:street" v="Dix Hill Road"/>
    <tag k="addr:state" v="VT"/>
    <tag k="ref:vcgi:esiteid" v="189248"/>
  </node>
  <node id="-476" visible="true" lat="44.23790307" lon="-72.40630218">
    <tag k="addr:city" v="Plainfield"/>
    <tag k="addr:housenumber" v="3003"/>
    <tag k="addr:street" v="Brook Road"/>
    <tag k="addr:state" v="VT"/>
    <tag k="ref:vcgi:esiteid" v="189249"/>
  </node>
  <node id="-477" visible="true" lat="44.23768997" lon="-72.44664764">
    <tag k="addr:city" v="Plainfield"/>
    <tag k="addr:housenumber" v="2508"/>
    <tag k="addr:street" v="Middle Road"/>
    <tag k="addr:state" v="VT"/>
    <tag k="ref:vcgi:esiteid" v="189250"/>
  </node>
  <node id="-478" visible="true" lat="44.23765945" lon="-72.40727996">
    <tag k="addr:city" v="Plainfield"/>
    <tag k="addr:housenumber" v="2996"/>
    <tag k="addr:street" v="Brook Road"/>
    <tag k="addr:state" v="VT"/>
    <tag k="ref:vcgi:esiteid" v="189251"/>
  </node>
  <node id="-479" visible="true" lat="44.237755" lon="-72.45902219">
    <tag k="addr:city" v="Plainfield"/>
    <tag k="addr:housenumber" v="2886"/>
    <tag k="addr:street" v="Lower Road"/>
    <tag k="addr:state" v="VT"/>
    <tag k="ref:vcgi:esiteid" v="189252"/>
  </node>
  <node id="-482" visible="true" lat="44.23703003" lon="-72.4354248">
    <tag k="addr:city" v="Plainfield"/>
    <tag k="addr:housenumber" v="2534"/>
    <tag k="addr:street" v="Upper Road"/>
    <tag k="addr:state" v="VT"/>
    <tag k="ref:vcgi:esiteid" v="189255"/>
  </node>
  <node id="-483" visible="true" lat="44.23685414" lon="-72.46058916">
    <tag k="addr:city" v="Plainfield"/>
    <tag k="addr:housenumber" v="2980"/>
    <tag k="addr:street" v="Lower Road"/>
    <tag k="addr:state" v="VT"/>
    <tag k="ref:vcgi:esiteid" v="189256"/>
  </node>
  <node id="-484" visible="true" lat="44.23673227" lon="-72.44583885">
    <tag k="addr:city" v="Plainfield"/>
    <tag k="addr:housenumber" v="145"/>
    <tag k="addr:street" v="Gonyeau Road"/>
    <tag k="addr:state" v="VT"/>
    <tag k="ref:vcgi:esiteid" v="189257"/>
  </node>
  <node id="-485" visible="true" lat="44.23650741" lon="-72.38581848">
    <tag k="addr:city" v="Plainfield"/>
    <tag k="addr:housenumber" v="345"/>
    <tag k="addr:street" v="Dix Hill Road"/>
    <tag k="addr:state" v="VT"/>
    <tag k="ref:vcgi:esiteid" v="189258"/>
  </node>
  <node id="-486" visible="true" lat="44.23651123" lon="-72.44170379">
    <tag k="addr:city" v="Plainfield"/>
    <tag k="addr:housenumber" v="2469"/>
    <tag k="addr:street" v="Middle Road"/>
    <tag k="addr:state" v="VT"/>
    <tag k="ref:vcgi:esiteid" v="189259"/>
  </node>
  <node id="-487" visible="true" lat="44.23630523" lon="-72.43452453">
    <tag k="addr:city" v="Plainfield"/>
    <tag k="addr:housenumber" v="2532"/>
    <tag k="addr:street" v="Upper Road"/>
    <tag k="addr:state" v="VT"/>
    <tag k="ref:vcgi:esiteid" v="189260"/>
  </node>
  <node id="-488" visible="true" lat="44.23615497" lon="-72.45795927">
    <tag k="addr:city" v="Plainfield"/>
    <tag k="addr:housenumber" v="2763"/>
    <tag k="addr:street" v="Lower Road"/>
    <tag k="addr:state" v="VT"/>
    <tag k="ref:vcgi:esiteid" v="189261"/>
  </node>
  <node id="-490" visible="true" lat="44.23577117" lon="-72.40866088">
    <tag k="addr:city" v="Plainfield"/>
    <tag k="addr:housenumber" v="58"/>
    <tag k="addr:street" v="Lee Road"/>
    <tag k="addr:state" v="VT"/>
    <tag k="ref:vcgi:esiteid" v="189263"/>
  </node>
  <node id="-491" visible="true" lat="44.23542404" lon="-72.38705444">
    <tag k="addr:city" v="Plainfield"/>
    <tag k="addr:housenumber" v="332"/>
    <tag k="addr:street" v="Dix Hill Road"/>
    <tag k="addr:state" v="VT"/>
    <tag k="ref:vcgi:esiteid" v="189264"/>
  </node>
  <node id="-492" visible="true" lat="44.2353096" lon="-72.43204498">
    <tag k="addr:city" v="Plainfield"/>
    <tag k="addr:housenumber" v="2619"/>
    <tag k="addr:street" v="Upper Road"/>
    <tag k="addr:state" v="VT"/>
    <tag k="ref:vcgi:esiteid" v="189265"/>
  </node>
  <node id="-493" visible="true" lat="44.23528289" lon="-72.4331665">
    <tag k="addr:city" v="Plainfield"/>
    <tag k="addr:housenumber" v="2654"/>
    <tag k="addr:street" v="Upper Road"/>
    <tag k="addr:state" v="VT"/>
    <tag k="ref:vcgi:esiteid" v="189266"/>
  </node>
  <node id="-494" visible="true" lat="44.23482833" lon="-72.40655828">
    <tag k="addr:city" v="Plainfield"/>
    <tag k="addr:housenumber" v="3171"/>
    <tag k="addr:street" v="Brook Road"/>
    <tag k="addr:state" v="VT"/>
    <tag k="ref:vcgi:esiteid" v="189267"/>
  </node>
  <node id="-496" visible="true" lat="44.2349702" lon="-72.47312032">
    <tag k="addr:city" v="Plainfield"/>
    <tag k="addr:housenumber" v="3134"/>
    <tag k="addr:street" v="Country Club Road"/>
    <tag k="addr:state" v="VT"/>
    <tag k="ref:vcgi:esiteid" v="189269"/>
  </node>
  <node id="-497" visible="true" lat="44.23462676" lon="-72.38211059">
    <tag k="addr:city" v="Plainfield"/>
    <tag k="addr:housenumber" v="681"/>
    <tag k="addr:street" v="Spruce Mountain Road"/>
    <tag k="addr:state" v="VT"/>
    <tag k="ref:vcgi:esiteid" v="189270"/>
  </node>
  <node id="-499" visible="true" lat="44.23439011" lon="-72.46228189">
    <tag k="addr:city" v="Plainfield"/>
    <tag k="addr:housenumber" v="3132"/>
    <tag k="addr:street" v="Lower Road"/>
    <tag k="addr:state" v="VT"/>
    <tag k="ref:vcgi:esiteid" v="189272"/>
  </node>
  <node id="-500" visible="true" lat="44.23412322" lon="-72.38700103">
    <tag k="addr:city" v="Plainfield"/>
    <tag k="addr:housenumber" v="495"/>
    <tag k="addr:street" v="Spruce Mountain Road"/>
    <tag k="addr:state" v="VT"/>
    <tag k="ref:vcgi:esiteid" v="189273"/>
  </node>
  <node id="-501" visible="true" lat="44.23415374" lon="-72.45375061">
    <tag k="addr:city" v="Plainfield"/>
    <tag k="addr:housenumber" v="2980"/>
    <tag k="addr:street" v="Middle Road"/>
    <tag k="addr:state" v="VT"/>
    <tag k="ref:vcgi:esiteid" v="189274"/>
  </node>
  <node id="-502" visible="true" lat="44.23355865" lon="-72.4642105">
    <tag k="addr:city" v="Plainfield"/>
    <tag k="addr:housenumber" v="3242"/>
    <tag k="addr:street" v="Lower Road"/>
    <tag k="addr:state" v="VT"/>
    <tag k="ref:vcgi:esiteid" v="189275"/>
  </node>
  <node id="-503" visible="true" lat="44.23317771" lon="-72.38214286">
    <tag k="addr:city" v="Plainfield"/>
    <tag k="addr:housenumber" v="712"/>
    <tag k="addr:street" v="Spruce Mountain Road"/>
    <tag k="addr:state" v="VT"/>
    <tag k="ref:vcgi:esiteid" v="189276"/>
  </node>
  <node id="-505" visible="true" lat="44.23309326" lon="-72.39073181">
    <tag k="addr:city" v="Plainfield"/>
    <tag k="addr:housenumber" v="131"/>
    <tag k="addr:street" v="Spruce Mountain Road"/>
    <tag k="addr:state" v="VT"/>
    <tag k="ref:vcgi:esiteid" v="189278"/>
  </node>
  <node id="-506" visible="true" lat="44.23308563" lon="-72.40729522">
    <tag k="addr:city" v="Plainfield"/>
    <tag k="addr:housenumber" v="3316"/>
    <tag k="addr:street" v="Brook Road"/>
    <tag k="addr:state" v="VT"/>
    <tag k="ref:vcgi:esiteid" v="189279"/>
  </node>
  <node id="-507" visible="true" lat="44.23309324" lon="-72.4582986">
    <tag k="addr:city" v="Plainfield"/>
    <tag k="addr:housenumber" v="255"/>
    <tag k="addr:street" v="Flood Road"/>
    <tag k="addr:state" v="VT"/>
    <tag k="ref:vcgi:esiteid" v="189280"/>
  </node>
  <node id="-508" visible="true" lat="44.23310613" lon="-72.44454679">
    <tag k="addr:city" v="Plainfield"/>
    <tag k="addr:housenumber" v="301"/>
    <tag k="addr:street" v="Gonyeau Road"/>
    <tag k="addr:state" v="VT"/>
    <tag k="ref:vcgi:esiteid" v="189281"/>
  </node>
  <node id="-509" visible="true" lat="44.23277664" lon="-72.442276">
    <tag k="addr:city" v="Plainfield"/>
    <tag k="addr:housenumber" v="375"/>
    <tag k="addr:street" v="Gonyeau Road"/>
    <tag k="addr:state" v="VT"/>
    <tag k="ref:vcgi:esiteid" v="189282"/>
  </node>
  <node id="-511" visible="true" lat="44.23264694" lon="-72.44303893">
    <tag k="addr:city" v="Plainfield"/>
    <tag k="addr:housenumber" v="371"/>
    <tag k="addr:street" v="Gonyeau Road"/>
    <tag k="addr:state" v="VT"/>
    <tag k="ref:vcgi:esiteid" v="189284"/>
  </node>
  <node id="-512" visible="true" lat="44.23261112" lon="-72.4649064">
    <tag k="addr:city" v="Plainfield"/>
    <tag k="addr:housenumber" v="3302"/>
    <tag k="addr:street" v="Lower Road"/>
    <tag k="addr:state" v="VT"/>
    <tag k="ref:vcgi:esiteid" v="189285"/>
  </node>
  <node id="-513" visible="true" lat="44.23246765" lon="-72.41577911">
    <tag k="addr:city" v="Plainfield"/>
    <tag k="addr:housenumber" v="620"/>
    <tag k="addr:street" v="Lee Road"/>
    <tag k="addr:state" v="VT"/>
    <tag k="ref:vcgi:esiteid" v="189286"/>
  </node>
  <node id="-514" visible="true" lat="44.23220578" lon="-72.3903512">
    <tag k="addr:city" v="Plainfield"/>
    <tag k="addr:housenumber" v="180"/>
    <tag k="addr:street" v="Spruce Mountain Road"/>
    <tag k="addr:state" v="VT"/>
    <tag k="ref:vcgi:esiteid" v="189287"/>
  </node>
  <node id="-515" visible="true" lat="44.23215011" lon="-72.38807686">
    <tag k="addr:city" v="Plainfield"/>
    <tag k="addr:housenumber" v="271"/>
    <tag k="addr:street" v="Spruce Mountain Road"/>
    <tag k="addr:state" v="VT"/>
    <tag k="ref:vcgi:esiteid" v="189288"/>
  </node>
  <node id="-516" visible="true" lat="44.23194682" lon="-72.38788841">
    <tag k="addr:city" v="Plainfield"/>
    <tag k="addr:housenumber" v="303"/>
    <tag k="addr:street" v="Spruce Mountain Road"/>
    <tag k="addr:state" v="VT"/>
    <tag k="ref:vcgi:esiteid" v="189289"/>
  </node>
  <node id="-517" visible="true" lat="44.23156844" lon="-72.43821441">
    <tag k="addr:city" v="Plainfield"/>
    <tag k="addr:housenumber" v="3006"/>
    <tag k="addr:street" v="Upper Road"/>
    <tag k="addr:state" v="VT"/>
    <tag k="ref:vcgi:esiteid" v="189290"/>
  </node>
  <node id="-518" visible="true" lat="44.23155382" lon="-72.46067283">
    <tag k="addr:city" v="Plainfield"/>
    <tag k="addr:housenumber" v="144"/>
    <tag k="addr:street" v="Flood Road"/>
    <tag k="addr:state" v="VT"/>
    <tag k="ref:vcgi:esiteid" v="189291"/>
  </node>
  <node id="-519" visible="true" lat="44.23162649" lon="-72.44199157">
    <tag k="addr:city" v="Plainfield"/>
    <tag k="addr:housenumber" v="471"/>
    <tag k="addr:street" v="Gonyeau Road"/>
    <tag k="addr:state" v="VT"/>
    <tag k="ref:vcgi:esiteid" v="189292"/>
  </node>
  <node id="-521" visible="true" lat="44.23074701" lon="-72.45871742">
    <tag k="addr:city" v="Plainfield"/>
    <tag k="addr:housenumber" v="268"/>
    <tag k="addr:street" v="Flood Road"/>
    <tag k="addr:state" v="VT"/>
    <tag k="ref:vcgi:esiteid" v="189294"/>
  </node>
  <node id="-523" visible="true" lat="44.23085789" lon="-72.40583407">
    <tag k="addr:city" v="Plainfield"/>
    <tag k="addr:housenumber" v="25"/>
    <tag k="addr:street" v="Peaceful Way"/>
    <tag k="addr:state" v="VT"/>
    <tag k="ref:vcgi:esiteid" v="189296"/>
  </node>
  <node id="-525" visible="true" lat="44.22994995" lon="-72.4363861">
    <tag k="addr:city" v="Plainfield"/>
    <tag k="addr:housenumber" v="769"/>
    <tag k="addr:street" v="Gonyeau Road"/>
    <tag k="addr:state" v="VT"/>
    <tag k="ref:vcgi:esiteid" v="189298"/>
  </node>
  <node id="-526" visible="true" lat="44.22958626" lon="-72.40558969">
    <tag k="addr:city" v="Plainfield"/>
    <tag k="addr:housenumber" v="3556"/>
    <tag k="addr:street" v="Brook Road"/>
    <tag k="addr:state" v="VT"/>
    <tag k="ref:vcgi:esiteid" v="189299"/>
  </node>
  <node id="-529" visible="true" lat="44.22932734" lon="-72.38448738">
    <tag k="addr:city" v="Plainfield"/>
    <tag k="addr:housenumber" v="332"/>
    <tag k="addr:street" v="Spruce Mountain Road"/>
    <tag k="addr:state" v="VT"/>
    <tag k="ref:vcgi:esiteid" v="189302"/>
  </node>
  <node id="-530" visible="true" lat="44.22939543" lon="-72.43499093">
    <tag k="addr:city" v="Plainfield"/>
    <tag k="addr:housenumber" v="849"/>
    <tag k="addr:street" v="Gonyeau Road"/>
    <tag k="addr:state" v="VT"/>
    <tag k="ref:vcgi:esiteid" v="189303"/>
  </node>
  <node id="-531" visible="true" lat="44.22920608" lon="-72.38625335">
    <tag k="addr:city" v="Plainfield"/>
    <tag k="addr:housenumber" v="330"/>
    <tag k="addr:street" v="Spruce Mountain Road"/>
    <tag k="addr:state" v="VT"/>
    <tag k="ref:vcgi:esiteid" v="189304"/>
  </node>
  <node id="-533" visible="true" lat="44.22854257" lon="-72.43520666">
    <tag k="addr:city" v="Plainfield"/>
    <tag k="addr:housenumber" v="898"/>
    <tag k="addr:street" v="Gonyeau Road"/>
    <tag k="addr:state" v="VT"/>
    <tag k="ref:vcgi:esiteid" v="189306"/>
  </node>
  <node id="-534" visible="true" lat="44.22822198" lon="-72.43525404">
    <tag k="addr:city" v="Plainfield"/>
    <tag k="addr:housenumber" v="900"/>
    <tag k="addr:street" v="Gonyeau Road"/>
    <tag k="addr:state" v="VT"/>
    <tag k="ref:vcgi:esiteid" v="189307"/>
  </node>
  <node id="-536" visible="true" lat="44.228096" lon="-72.40481567">
    <tag k="addr:city" v="Plainfield"/>
    <tag k="addr:housenumber" v="3704"/>
    <tag k="addr:street" v="Brook Road"/>
    <tag k="addr:state" v="VT"/>
    <tag k="ref:vcgi:esiteid" v="189309"/>
  </node>
  <node id="-537" visible="true" lat="44.22765731" lon="-72.43138122">
    <tag k="addr:city" v="Plainfield"/>
    <tag k="addr:housenumber" v="1065"/>
    <tag k="addr:street" v="Gonyeau Road"/>
    <tag k="addr:state" v="VT"/>
    <tag k="ref:vcgi:esiteid" v="189310"/>
  </node>
  <node id="-555" visible="true" lat="44.2164931" lon="-72.38839818">
    <tag k="addr:city" v="Plainfield"/>
    <tag k="addr:housenumber" v="547"/>
    <tag k="addr:street" v="Gore Road"/>
    <tag k="addr:state" v="VT"/>
    <tag k="ref:vcgi:esiteid" v="189328"/>
  </node>
  <node id="-556" visible="true" lat="44.21650435" lon="-72.39022064">
    <tag k="addr:city" v="Plainfield"/>
    <tag k="addr:housenumber" v="514"/>
    <tag k="addr:street" v="Gore Road"/>
    <tag k="addr:state" v="VT"/>
    <tag k="ref:vcgi:esiteid" v="189329"/>
  </node>
  <node id="-557" visible="true" lat="44.21632385" lon="-72.39675903">
    <tag k="addr:city" v="Plainfield"/>
    <tag k="addr:housenumber" v="4645"/>
    <tag k="addr:street" v="Brook Road"/>
    <tag k="addr:state" v="VT"/>
    <tag k="ref:vcgi:esiteid" v="189330"/>
  </node>
  <node id="-558" visible="true" lat="44.21629714" lon="-72.39865875">
    <tag k="addr:city" v="Plainfield"/>
    <tag k="addr:housenumber" v="4614"/>
    <tag k="addr:street" v="Brook Road"/>
    <tag k="addr:state" v="VT"/>
    <tag k="ref:vcgi:esiteid" v="189331"/>
  </node>
  <node id="-559" visible="true" lat="44.21444881" lon="-72.3874302">
    <tag k="addr:city" v="Plainfield"/>
    <tag k="addr:housenumber" v="786"/>
    <tag k="addr:street" v="Gore Road"/>
    <tag k="addr:state" v="VT"/>
    <tag k="ref:vcgi:esiteid" v="189332"/>
  </node>
  <node id="-560" visible="true" lat="44.21400303" lon="-72.38207222">
    <tag k="addr:city" v="Plainfield"/>
    <tag k="addr:housenumber" v="962"/>
    <tag k="addr:street" v="Gore Road"/>
    <tag k="addr:state" v="VT"/>
    <tag k="ref:vcgi:esiteid" v="189333"/>
  </node>
  <node id="-575" visible="true" lat="44.25891061" lon="-72.44695599">
    <tag k="addr:city" v="Plainfield"/>
    <tag k="addr:housenumber" v="158"/>
    <tag k="addr:street" v="New Hamburger Road"/>
    <tag k="addr:state" v="VT"/>
    <tag k="ref:vcgi:esiteid" v="189349"/>
  </node>
  <node id="-576" visible="true" lat="44.2576223" lon="-72.4464144">
    <tag k="addr:city" v="Plainfield"/>
    <tag k="addr:housenumber" v="154"/>
    <tag k="addr:street" v="New Hamburger Road"/>
    <tag k="addr:state" v="VT"/>
    <tag k="ref:vcgi:esiteid" v="189350"/>
  </node>
  <node id="-577" visible="true" lat="44.25644372" lon="-72.4459374">
    <tag k="addr:city" v="Plainfield"/>
    <tag k="addr:housenumber" v="149"/>
    <tag k="addr:street" v="New Hamburger Road"/>
    <tag k="addr:state" v="VT"/>
    <tag k="ref:vcgi:esiteid" v="189351"/>
  </node>
  <node id="-578" visible="true" lat="44.2562593" lon="-72.41577572">
    <tag k="addr:city" v="Plainfield"/>
    <tag k="addr:housenumber" v="520"/>
    <tag k="addr:street" v="Lindemann Lane"/>
    <tag k="addr:state" v="VT"/>
    <tag k="ref:vcgi:esiteid" v="189352"/>
  </node>
  <node id="-579" visible="true" lat="44.24652481" lon="-72.40853881">
    <tag k="addr:city" v="Plainfield"/>
    <tag k="addr:housenumber" v="2364"/>
    <tag k="addr:street" v="Brook Road"/>
    <tag k="addr:state" v="VT"/>
    <tag k="ref:vcgi:esiteid" v="189353"/>
  </node>
  <node id="-580" visible="true" lat="44.24539947" lon="-72.40873718">
    <tag k="addr:city" v="Plainfield"/>
    <tag k="addr:housenumber" v="2366"/>
    <tag k="addr:street" v="Brook Road"/>
    <tag k="addr:state" v="VT"/>
    <tag k="ref:vcgi:esiteid" v="189354"/>
  </node>
  <node id="-582" visible="true" lat="44.26610382" lon="-72.45231657">
    <tag k="addr:city" v="Plainfield"/>
    <tag k="addr:housenumber" v="578"/>
    <tag k="addr:street" v="Country Club Road"/>
    <tag k="addr:state" v="VT"/>
    <tag k="ref:vcgi:esiteid" v="189356"/>
  </node>
  <node id="-583" visible="true" lat="44.24918794" lon="-72.44898754">
    <tag k="addr:city" v="Plainfield"/>
    <tag k="addr:housenumber" v="1800"/>
    <tag k="addr:street" v="Lower Road"/>
    <tag k="addr:state" v="VT"/>
    <tag k="ref:vcgi:esiteid" v="189357"/>
  </node>
  <node id="-585" visible="true" lat="44.23291117" lon="-72.46022572">
    <tag k="addr:city" v="Plainfield"/>
    <tag k="addr:housenumber" v="145"/>
    <tag k="addr:street" v="Flood Road"/>
    <tag k="addr:state" v="VT"/>
    <tag k="ref:vcgi:esiteid" v="189359"/>
  </node>
  <node id="-586" visible="true" lat="44.24213381" lon="-72.46955866">
    <tag k="addr:city" v="Plainfield"/>
    <tag k="addr:housenumber" v="2600"/>
    <tag k="addr:street" v="Country Club Road"/>
    <tag k="addr:state" v="VT"/>
    <tag k="ref:vcgi:esiteid" v="189360"/>
  </node>
  <node id="-587" visible="true" lat="44.24246978" lon="-72.43873596">
    <tag k="addr:city" v="Plainfield"/>
    <tag k="addr:housenumber" v="1989"/>
    <tag k="addr:street" v="Middle Road"/>
    <tag k="addr:state" v="VT"/>
    <tag k="ref:vcgi:esiteid" v="189361"/>
  </node>
  <node id="-589" visible="true" lat="44.24100464" lon="-72.39621556">
    <tag k="addr:city" v="Plainfield"/>
    <tag k="addr:housenumber" v="631"/>
    <tag k="addr:street" v="Gray Road"/>
    <tag k="addr:state" v="VT"/>
    <tag k="ref:vcgi:esiteid" v="189363"/>
  </node>
  <node id="-590" visible="true" lat="44.27421763" lon="-72.43161327">
    <tag k="addr:city" v="Plainfield"/>
    <tag k="addr:housenumber" v="147"/>
    <tag k="addr:street" v="Martin Meadow Road"/>
    <tag k="addr:state" v="VT"/>
    <tag k="ref:vcgi:esiteid" v="189364"/>
  </node>
  <node id="-593" visible="true" lat="44.21722793" lon="-72.40267944">
    <tag k="addr:city" v="Plainfield"/>
    <tag k="addr:housenumber" v="99"/>
    <tag k="addr:street" v="Perkins Road"/>
    <tag k="addr:state" v="VT"/>
    <tag k="ref:vcgi:esiteid" v="189367"/>
  </node>
  <node id="-594" visible="true" lat="44.21561278" lon="-72.40248657">
    <tag k="addr:city" v="Plainfield"/>
    <tag k="addr:housenumber" v="199"/>
    <tag k="addr:street" v="Perkins Road"/>
    <tag k="addr:state" v="VT"/>
    <tag k="ref:vcgi:esiteid" v="189368"/>
  </node>
  <node id="-595" visible="true" lat="44.24290847" lon="-72.37691497">
    <tag k="addr:city" v="Plainfield"/>
    <tag k="addr:housenumber" v="740"/>
    <tag k="addr:street" v="Bean Road"/>
    <tag k="addr:state" v="VT"/>
    <tag k="ref:vcgi:esiteid" v="189369"/>
  </node>
  <node id="-596" visible="true" lat="44.24249649" lon="-72.37104797">
    <tag k="addr:city" v="Plainfield"/>
    <tag k="addr:housenumber" v="744"/>
    <tag k="addr:street" v="Bean Road"/>
    <tag k="addr:state" v="VT"/>
    <tag k="ref:vcgi:esiteid" v="189370"/>
  </node>
  <node id="-597" visible="true" lat="44.24225997" lon="-72.37673187">
    <tag k="addr:city" v="Plainfield"/>
    <tag k="addr:housenumber" v="742"/>
    <tag k="addr:street" v="Bean Road"/>
    <tag k="addr:state" v="VT"/>
    <tag k="ref:vcgi:esiteid" v="189371"/>
  </node>
  <node id="-598" visible="true" lat="44.24110031" lon="-72.38727569">
    <tag k="addr:city" v="Plainfield"/>
    <tag k="addr:housenumber" v="3289"/>
    <tag k="addr:street" v="East Hill Road"/>
    <tag k="addr:state" v="VT"/>
    <tag k="ref:vcgi:esiteid" v="189372"/>
  </node>
  <node id="-599" visible="true" lat="44.27716431" lon="-72.42454157">
    <tag k="addr:city" v="Plainfield"/>
    <tag k="addr:housenumber" v="33"/>
    <tag k="addr:street" v="Mill Street"/>
    <tag k="addr:state" v="VT"/>
    <tag k="ref:vcgi:esiteid" v="189373"/>
  </node>
  <node id="-602" visible="true" lat="44.27808738" lon="-72.42195187">
    <tag k="addr:city" v="Plainfield"/>
    <tag k="addr:housenumber" v="193"/>
    <tag k="addr:street" v="Main Street"/>
    <tag k="addr:state" v="VT"/>
    <tag k="ref:vcgi:esiteid" v="189376"/>
  </node>
  <node id="-605" visible="true" lat="44.27791601" lon="-72.42195175">
    <tag k="addr:city" v="Plainfield"/>
    <tag k="addr:housenumber" v="191"/>
    <tag k="addr:street" v="Main Street"/>
    <tag k="addr:state" v="VT"/>
    <tag k="ref:vcgi:esiteid" v="189379"/>
  </node>
  <node id="-611" visible="true" lat="44.21953739" lon="-72.41332803">
    <tag k="addr:city" v="Plainfield"/>
    <tag k="addr:housenumber" v="865"/>
    <tag k="addr:street" v="Maxfield Road"/>
    <tag k="addr:state" v="VT"/>
    <tag k="ref:vcgi:esiteid" v="189386"/>
  </node>
  <node id="-612" visible="true" lat="44.25884549" lon="-72.44507248">
    <tag k="addr:city" v="Plainfield"/>
    <tag k="addr:housenumber" v="114"/>
    <tag k="addr:street" v="New Hamburger Road"/>
    <tag k="addr:state" v="VT"/>
    <tag k="ref:vcgi:esiteid" v="189387"/>
  </node>
  <node id="-613" visible="true" lat="44.25724127" lon="-72.44659145">
    <tag k="addr:city" v="Plainfield"/>
    <tag k="addr:housenumber" v="155"/>
    <tag k="addr:street" v="New Hamburger Road"/>
    <tag k="addr:state" v="VT"/>
    <tag k="ref:vcgi:esiteid" v="189388"/>
  </node>
  <node id="-614" visible="true" lat="44.23345869" lon="-72.41436963">
    <tag k="addr:city" v="Plainfield"/>
    <tag k="addr:housenumber" v="515"/>
    <tag k="addr:street" v="Lee Road"/>
    <tag k="addr:state" v="VT"/>
    <tag k="ref:vcgi:esiteid" v="189389"/>
  </node>
  <node id="-615" visible="true" lat="44.23232645" lon="-72.4447417">
    <tag k="addr:city" v="Plainfield"/>
    <tag k="addr:housenumber" v="324"/>
    <tag k="addr:street" v="Gonyeau Road"/>
    <tag k="addr:state" v="VT"/>
    <tag k="ref:vcgi:esiteid" v="189390"/>
  </node>
  <node id="-616" visible="true" lat="44.23647335" lon="-72.42775205">
    <tag k="addr:city" v="Plainfield"/>
    <tag k="addr:housenumber" v="2461"/>
    <tag k="addr:street" v="Upper Road"/>
    <tag k="addr:state" v="VT"/>
    <tag k="ref:vcgi:esiteid" v="189391"/>
  </node>
  <node id="-617" visible="true" lat="44.2343967" lon="-72.44524562">
    <tag k="addr:city" v="Plainfield"/>
    <tag k="addr:housenumber" v="203"/>
    <tag k="addr:street" v="Gonyeau Road"/>
    <tag k="addr:state" v="VT"/>
    <tag k="ref:vcgi:esiteid" v="189392"/>
  </node>
  <node id="-618" visible="true" lat="44.23457277" lon="-72.45844767">
    <tag k="addr:city" v="Plainfield"/>
    <tag k="addr:housenumber" v="3003"/>
    <tag k="addr:street" v="Lower Road"/>
    <tag k="addr:state" v="VT"/>
    <tag k="ref:vcgi:esiteid" v="189393"/>
  </node>
  <node id="-619" visible="true" lat="44.2349724" lon="-72.44602815">
    <tag k="addr:city" v="Plainfield"/>
    <tag k="addr:housenumber" v="201"/>
    <tag k="addr:street" v="Gonyeau Road"/>
    <tag k="addr:state" v="VT"/>
    <tag k="ref:vcgi:esiteid" v="189394"/>
  </node>
  <node id="-620" visible="true" lat="44.23961782" lon="-72.47075127">
    <tag k="addr:city" v="Plainfield"/>
    <tag k="addr:housenumber" v="2780"/>
    <tag k="addr:street" v="Country Club Road"/>
    <tag k="addr:state" v="VT"/>
    <tag k="ref:vcgi:esiteid" v="189395"/>
  </node>
  <node id="-622" visible="true" lat="44.23341251" lon="-72.44668054">
    <tag k="addr:city" v="Plainfield"/>
    <tag k="addr:housenumber" v="250"/>
    <tag k="addr:street" v="Gonyeau Road"/>
    <tag k="addr:state" v="VT"/>
    <tag k="ref:vcgi:esiteid" v="189397"/>
  </node>
  <node id="-623" visible="true" lat="44.23565577" lon="-72.4618193">
    <tag k="addr:city" v="Plainfield"/>
    <tag k="addr:housenumber" v="3030"/>
    <tag k="addr:street" v="Lower Road"/>
    <tag k="addr:state" v="VT"/>
    <tag k="ref:vcgi:esiteid" v="189398"/>
  </node>
  <node id="-624" visible="true" lat="44.24703121" lon="-72.40880909">
    <tag k="addr:city" v="Plainfield"/>
    <tag k="addr:housenumber" v="2270"/>
    <tag k="addr:street" v="Brook Road"/>
    <tag k="addr:state" v="VT"/>
    <tag k="ref:vcgi:esiteid" v="189399"/>
  </node>
  <node id="-626" visible="true" lat="44.22110526" lon="-72.41007393">
    <tag k="addr:city" v="Plainfield"/>
    <tag k="addr:housenumber" v="660"/>
    <tag k="addr:street" v="Maxfield Road"/>
    <tag k="addr:state" v="VT"/>
    <tag k="ref:vcgi:esiteid" v="189401"/>
  </node>
  <node id="-627" visible="true" lat="44.21198033" lon="-72.38451815">
    <tag k="addr:city" v="Plainfield"/>
    <tag k="addr:housenumber" v="1070"/>
    <tag k="addr:street" v="Gore Road"/>
    <tag k="addr:state" v="VT"/>
    <tag k="ref:vcgi:esiteid" v="189402"/>
  </node>
  <node id="-628" visible="true" lat="44.23804335" lon="-72.42432139">
    <tag k="addr:city" v="Plainfield"/>
    <tag k="addr:housenumber" v="2205"/>
    <tag k="addr:street" v="Upper Road"/>
    <tag k="addr:state" v="VT"/>
    <tag k="ref:vcgi:esiteid" v="189404"/>
  </node>
  <node id="-629" visible="true" lat="44.25792106" lon="-72.4270249">
    <tag k="addr:city" v="Plainfield"/>
    <tag k="addr:housenumber" v="970"/>
    <tag k="addr:street" v="Upper Road"/>
    <tag k="addr:state" v="VT"/>
    <tag k="ref:vcgi:esiteid" v="189405"/>
  </node>
  <node id="-631" visible="true" lat="44.24112899" lon="-72.40059284">
    <tag k="addr:city" v="Plainfield"/>
    <tag k="addr:housenumber" v="400"/>
    <tag k="addr:street" v="Gray Road"/>
    <tag k="addr:state" v="VT"/>
    <tag k="ref:vcgi:esiteid" v="189407"/>
  </node>
  <node id="-632" visible="true" lat="44.23453982" lon="-72.38501315">
    <tag k="addr:city" v="Plainfield"/>
    <tag k="addr:housenumber" v="551"/>
    <tag k="addr:street" v="Spruce Mountain Road"/>
    <tag k="addr:state" v="VT"/>
    <tag k="ref:vcgi:esiteid" v="189408"/>
  </node>
  <node id="-633" visible="true" lat="44.2348535" lon="-72.38487836">
    <tag k="addr:city" v="Plainfield"/>
    <tag k="addr:housenumber" v="553"/>
    <tag k="addr:street" v="Spruce Mountain Road"/>
    <tag k="addr:state" v="VT"/>
    <tag k="ref:vcgi:esiteid" v="189409"/>
  </node>
  <node id="-635" visible="true" lat="44.27937244" lon="-72.42544876">
    <tag k="addr:city" v="Plainfield"/>
    <tag k="addr:housenumber" v="50"/>
    <tag k="addr:street" v="Harvey Hill"/>
    <tag k="addr:state" v="VT"/>
    <tag k="ref:vcgi:esiteid" v="189411"/>
  </node>
  <node id="-636" visible="true" lat="44.25990382" lon="-72.42692402">
    <tag k="addr:city" v="Plainfield"/>
    <tag k="addr:housenumber" v="110"/>
    <tag k="addr:street" v="Center School Road"/>
    <tag k="addr:state" v="VT"/>
    <tag k="ref:vcgi:esiteid" v="189412"/>
  </node>
  <node id="-638" visible="true" lat="44.27931421" lon="-72.43741681">
    <tag k="addr:city" v="Plainfield"/>
    <tag k="addr:housenumber" v="65"/>
    <tag k="addr:street" v="Pitkin Road"/>
    <tag k="addr:state" v="VT"/>
    <tag k="ref:vcgi:esiteid" v="189416"/>
  </node>
  <node id="-639" visible="true" lat="44.23054486" lon="-72.38749622">
    <tag k="addr:city" v="Plainfield"/>
    <tag k="addr:housenumber" v="310"/>
    <tag k="addr:street" v="Spruce Mountain Road"/>
    <tag k="addr:state" v="VT"/>
    <tag k="ref:vcgi:esiteid" v="189417"/>
  </node>
  <node id="-640" visible="true" lat="44.22494853" lon="-72.43022925">
    <tag k="addr:city" v="Plainfield"/>
    <tag k="addr:housenumber" v="1300"/>
    <tag k="addr:street" v="Gonyeau Road"/>
    <tag k="addr:state" v="VT"/>
    <tag k="ref:vcgi:esiteid" v="189418"/>
  </node>
  <node id="-642" visible="true" lat="44.24613007" lon="-72.44896181">
    <tag k="addr:city" v="Plainfield"/>
    <tag k="addr:housenumber" v="2141"/>
    <tag k="addr:street" v="Lower Road"/>
    <tag k="addr:state" v="VT"/>
    <tag k="ref:vcgi:esiteid" v="189420"/>
  </node>
  <node id="-643" visible="true" lat="44.27954285" lon="-72.42309233">
    <tag k="addr:city" v="Plainfield"/>
    <tag k="addr:housenumber" v="169"/>
    <tag k="addr:street" v="School Street"/>
    <tag k="addr:state" v="VT"/>
    <tag k="ref:vcgi:esiteid" v="189421"/>
  </node>
  <node id="-644" visible="true" lat="44.24116093" lon="-72.46972331">
    <tag k="addr:city" v="Plainfield"/>
    <tag k="addr:housenumber" v="2650"/>
    <tag k="addr:street" v="Country Club Road"/>
    <tag k="addr:state" v="VT"/>
    <tag k="ref:vcgi:esiteid" v="189422"/>
  </node>
  <node id="-645" visible="true" lat="44.25421662" lon="-72.4274476">
    <tag k="addr:city" v="Plainfield"/>
    <tag k="addr:housenumber" v="995"/>
    <tag k="addr:street" v="Middle Road"/>
    <tag k="addr:state" v="VT"/>
    <tag k="ref:vcgi:esiteid" v="189423"/>
  </node>
  <node id="-646" visible="true" lat="44.24937002" lon="-72.42020487">
    <tag k="addr:city" v="Plainfield"/>
    <tag k="addr:housenumber" v="321"/>
    <tag k="addr:street" v="Bartlett Road"/>
    <tag k="addr:state" v="VT"/>
    <tag k="ref:vcgi:esiteid" v="189424"/>
  </node>
  <node id="-647" visible="true" lat="44.24502393" lon="-72.43371641">
    <tag k="addr:city" v="Plainfield"/>
    <tag k="addr:housenumber" v="1773"/>
    <tag k="addr:street" v="Middle Road"/>
    <tag k="addr:state" v="VT"/>
    <tag k="ref:vcgi:esiteid" v="189425"/>
  </node>
  <node id="-648" visible="true" lat="44.27783795" lon="-72.42454799">
    <tag k="addr:city" v="Plainfield"/>
    <tag k="addr:housenumber" v="65"/>
    <tag k="addr:street" v="Main Street"/>
    <tag k="addr:state" v="VT"/>
    <tag k="ref:vcgi:esiteid" v="189426"/>
  </node>
  <node id="-649" visible="true" lat="44.23744972" lon="-72.43148911">
    <tag k="addr:city" v="Plainfield"/>
    <tag k="addr:housenumber" v="2500"/>
    <tag k="addr:street" v="Upper Road"/>
    <tag k="addr:state" v="VT"/>
    <tag k="ref:vcgi:esiteid" v="189427"/>
  </node>
  <node id="-650" visible="true" lat="44.2783179" lon="-72.42654728">
    <tag k="addr:city" v="Plainfield"/>
    <tag k="addr:housenumber" v="36"/>
    <tag k="addr:street" v="High Street"/>
    <tag k="addr:state" v="VT"/>
    <tag k="ref:vcgi:esiteid" v="306204"/>
  </node>
  <node id="-651" visible="true" lat="44.27556234" lon="-72.41596621">
    <tag k="addr:city" v="Plainfield"/>
    <tag k="addr:housenumber" v="84"/>
    <tag k="addr:street" v="East Hill Road"/>
    <tag k="addr:state" v="VT"/>
    <tag k="ref:vcgi:esiteid" v="312274"/>
  </node>
  <node id="-652" visible="true" lat="44.27590269" lon="-72.41618576">
    <tag k="addr:city" v="Plainfield"/>
    <tag k="addr:housenumber" v="82"/>
    <tag k="addr:street" v="East Hill Road"/>
    <tag k="addr:state" v="VT"/>
    <tag k="ref:vcgi:esiteid" v="312275"/>
  </node>
  <node id="-653" visible="true" lat="44.25479809" lon="-72.44300782">
    <tag k="addr:city" v="Plainfield"/>
    <tag k="addr:housenumber" v="1375"/>
    <tag k="addr:street" v="Lower Road"/>
    <tag k="addr:state" v="VT"/>
    <tag k="ref:vcgi:esiteid" v="312276"/>
  </node>
  <node id="-655" visible="true" lat="44.24158382" lon="-72.42699641">
    <tag k="addr:city" v="Plainfield"/>
    <tag k="addr:housenumber" v="2095"/>
    <tag k="addr:street" v="Upper Road"/>
    <tag k="addr:state" v="VT"/>
    <tag k="ref:vcgi:esiteid" v="312278"/>
  </node>
  <node id="-657" visible="true" lat="44.25579565" lon="-72.44349264">
    <tag k="addr:city" v="Plainfield"/>
    <tag k="addr:housenumber" v="1295"/>
    <tag k="addr:street" v="Lower Road"/>
    <tag k="addr:state" v="VT"/>
    <tag k="ref:vcgi:esiteid" v="313475"/>
  </node>
  <node id="-658" visible="true" lat="44.23071026" lon="-72.40213456">
    <tag k="addr:city" v="Plainfield"/>
    <tag k="addr:housenumber" v="129"/>
    <tag k="addr:street" v="Peaceful Way"/>
    <tag k="addr:state" v="VT"/>
    <tag k="ref:vcgi:esiteid" v="332291"/>
  </node>
  <node id="-659" visible="true" lat="44.21457635" lon="-72.38559584">
    <tag k="addr:city" v="Plainfield"/>
    <tag k="addr:housenumber" v="800"/>
    <tag k="addr:street" v="Gore Road"/>
    <tag k="addr:state" v="VT"/>
    <tag k="ref:vcgi:esiteid" v="332292"/>
  </node>
  <node id="-661" visible="true" lat="44.26980603" lon="-72.41604984">
    <tag k="addr:city" v="Plainfield"/>
    <tag k="addr:housenumber" v="280"/>
    <tag k="addr:street" v="Cameron Road"/>
    <tag k="addr:state" v="VT"/>
    <tag k="ref:vcgi:esiteid" v="335445"/>
  </node>
  <node id="-662" visible="true" lat="44.22919386" lon="-72.40305515">
    <tag k="addr:city" v="Plainfield"/>
    <tag k="addr:housenumber" v="220"/>
    <tag k="addr:street" v="Peaceful Way"/>
    <tag k="addr:state" v="VT"/>
    <tag k="ref:vcgi:esiteid" v="335487"/>
  </node>
  <node id="-663" visible="true" lat="44.24862254" lon="-72.4035509">
    <tag k="addr:city" v="Plainfield"/>
    <tag k="addr:housenumber" v="700"/>
    <tag k="addr:street" v="Fowler Road"/>
    <tag k="addr:state" v="VT"/>
    <tag k="ref:vcgi:esiteid" v="335490"/>
  </node>
  <node id="-664" visible="true" lat="44.24177677" lon="-72.39822789">
    <tag k="addr:city" v="Plainfield"/>
    <tag k="addr:housenumber" v="593"/>
    <tag k="addr:street" v="Gray Road"/>
    <tag k="addr:state" v="VT"/>
    <tag k="ref:vcgi:esiteid" v="336652"/>
  </node>
  <node id="-669" visible="true" lat="44.25387527" lon="-72.4443129">
    <tag k="addr:city" v="Plainfield"/>
    <tag k="addr:housenumber" v="1475"/>
    <tag k="addr:street" v="Lower Road"/>
    <tag k="addr:state" v="VT"/>
    <tag k="ref:vcgi:esiteid" v="339913"/>
  </node>
  <node id="-670" visible="true" lat="44.2375808" lon="-72.46886142">
    <tag k="addr:city" v="Plainfield"/>
    <tag k="addr:housenumber" v="2845"/>
    <tag k="addr:street" v="Country Club Road"/>
    <tag k="addr:state" v="VT"/>
    <tag k="ref:vcgi:esiteid" v="340616"/>
  </node>
  <node id="-671" visible="true" lat="44.24560708" lon="-72.39603772">
    <tag k="addr:city" v="Plainfield"/>
    <tag k="addr:housenumber" v="1179"/>
    <tag k="addr:street" v="Fowler Road"/>
    <tag k="addr:state" v="VT"/>
    <tag k="ref:vcgi:esiteid" v="340987"/>
  </node>
  <node id="-675" visible="true" lat="44.23387023" lon="-72.46723486">
    <tag k="addr:city" v="Plainfield"/>
    <tag k="addr:housenumber" v="3400"/>
    <tag k="addr:street" v="Lower Road"/>
    <tag k="addr:state" v="VT"/>
    <tag k="ref:vcgi:esiteid" v="343469"/>
  </node>
  <node id="-679" visible="true" lat="44.26667464" lon="-72.39860993">
    <tag k="addr:city" v="Plainfield"/>
    <tag k="addr:housenumber" v="1073"/>
    <tag k="addr:street" v="East Hill Road"/>
    <tag k="addr:state" v="VT"/>
    <tag k="ref:vcgi:esiteid" v="345810"/>
  </node>
  <node id="-680" visible="true" lat="44.22506558" lon="-72.39991136">
    <tag k="addr:city" v="Plainfield"/>
    <tag k="addr:housenumber" v="4595"/>
    <tag k="addr:street" v="East Hill Road"/>
    <tag k="addr:state" v="VT"/>
    <tag k="ref:vcgi:esiteid" v="345828"/>
  </node>
  <node id="-681" visible="true" lat="44.21596973" lon="-72.38654545">
    <tag k="addr:city" v="Plainfield"/>
    <tag k="addr:housenumber" v="783"/>
    <tag k="addr:street" v="Gore Road"/>
    <tag k="addr:state" v="VT"/>
    <tag k="ref:vcgi:esiteid" v="345829"/>
  </node>
  <node id="-682" visible="true" lat="44.25391617" lon="-72.45892298">
    <tag k="addr:city" v="Plainfield"/>
    <tag k="addr:housenumber" v="1587"/>
    <tag k="addr:street" v="Country Club Road"/>
    <tag k="addr:state" v="VT"/>
    <tag k="ref:vcgi:esiteid" v="365407"/>
  </node>
  <node id="-684" visible="true" lat="44.28142761" lon="-72.43744089">
    <tag k="addr:city" v="Plainfield"/>
    <tag k="addr:housenumber" v="94"/>
    <tag k="addr:street" v="Dormitory Road"/>
    <tag k="addr:state" v="VT"/>
    <tag k="ref:vcgi:esiteid" v="448186"/>
  </node>
  <node id="-687" visible="true" lat="44.25677177" lon="-72.42572088">
    <tag k="addr:city" v="Plainfield"/>
    <tag k="addr:housenumber" v="1000"/>
    <tag k="addr:street" v="Upper Road"/>
    <tag k="addr:state" v="VT"/>
    <tag k="ref:vcgi:esiteid" v="452849"/>
  </node>
  <node id="-688" visible="true" lat="44.2647254" lon="-72.44948805">
    <tag k="addr:city" v="Plainfield"/>
    <tag k="addr:housenumber" v="700"/>
    <tag k="addr:street" v="Country Club Road"/>
    <tag k="addr:state" v="VT"/>
    <tag k="ref:vcgi:esiteid" v="455626"/>
  </node>
  <node id="-691" visible="true" lat="44.26474697" lon="-72.42115274">
    <tag k="addr:city" v="Plainfield"/>
    <tag k="addr:housenumber" v="397"/>
    <tag k="addr:street" v="Upper Road"/>
    <tag k="addr:state" v="VT"/>
    <tag k="ref:vcgi:esiteid" v="610941"/>
  </node>
  <node id="-694" visible="true" lat="44.26153961" lon="-72.45022679">
    <tag k="addr:city" v="Plainfield"/>
    <tag k="addr:housenumber" v="905"/>
    <tag k="addr:street" v="Country Club Road"/>
    <tag k="addr:state" v="VT"/>
    <tag k="ref:vcgi:esiteid" v="612968"/>
  </node>
  <node id="-697" visible="true" lat="44.28395742" lon="-72.43472954">
    <tag k="addr:city" v="Plainfield"/>
    <tag k="addr:housenumber" v="180"/>
    <tag k="addr:street" v="Greatwood Drive"/>
    <tag k="addr:state" v="VT"/>
    <tag k="ref:vcgi:esiteid" v="617623"/>
  </node>
  <node id="-698" visible="true" lat="44.26411925" lon="-72.43985241">
    <tag k="addr:city" v="Plainfield"/>
    <tag k="addr:housenumber" v="711"/>
    <tag k="addr:street" v="Lower Road"/>
    <tag k="addr:state" v="VT"/>
    <tag k="ref:vcgi:esiteid" v="620641"/>
  </node>
  <node id="-699" visible="true" lat="44.23180467" lon="-72.39425716">
    <tag k="addr:city" v="Plainfield"/>
    <tag k="addr:housenumber" v="3905"/>
    <tag k="addr:street" v="East Hill Road"/>
    <tag k="addr:state" v="VT"/>
    <tag k="ref:vcgi:esiteid" v="700137"/>
  </node>
  <node id="-700" visible="true" lat="44.25397727" lon="-72.42499161">
    <tag k="addr:city" v="Plainfield"/>
    <tag k="addr:housenumber" v="1260"/>
    <tag k="addr:street" v="Upper Road"/>
    <tag k="addr:state" v="VT"/>
    <tag k="ref:vcgi:esiteid" v="750590"/>
  </node>
  <node id="-701" visible="true" lat="44.27782998" lon="-72.41861583">
    <tag k="addr:city" v="Plainfield"/>
    <tag k="addr:housenumber" v="355"/>
    <tag k="addr:street" v="Main Street"/>
    <tag k="addr:state" v="VT"/>
    <tag k="ref:vcgi:esiteid" v="753587"/>
  </node>
  <node id="-702" visible="true" lat="44.27781173" lon="-72.41806898">
    <tag k="addr:city" v="Plainfield"/>
    <tag k="addr:housenumber" v="391"/>
    <tag k="addr:street" v="Main Street"/>
    <tag k="addr:state" v="VT"/>
    <tag k="ref:vcgi:esiteid" v="753588"/>
  </node>
  <node id="-703" visible="true" lat="44.27780813" lon="-72.41802424">
    <tag k="addr:city" v="Plainfield"/>
    <tag k="addr:housenumber" v="405"/>
    <tag k="addr:street" v="Main Street"/>
    <tag k="addr:state" v="VT"/>
    <tag k="ref:vcgi:esiteid" v="753589"/>
  </node>
  <node id="-704" visible="true" lat="44.28061705" lon="-72.43863542">
    <tag k="addr:city" v="Plainfield"/>
    <tag k="addr:housenumber" v="88"/>
    <tag k="addr:street" v="Loop Road"/>
    <tag k="addr:state" v="VT"/>
    <tag k="ref:vcgi:esiteid" v="755466"/>
  </node>
  <node id="-706" visible="true" lat="44.24263069" lon="-72.42802138">
    <tag k="addr:city" v="Plainfield"/>
    <tag k="addr:housenumber" v="2000"/>
    <tag k="addr:street" v="Upper Road"/>
    <tag k="addr:state" v="VT"/>
    <tag k="ref:vcgi:esiteid" v="755980"/>
  </node>
  <node id="-707" visible="true" lat="44.23503941" lon="-72.40331751">
    <tag k="addr:city" v="Plainfield"/>
    <tag k="addr:housenumber" v="3173"/>
    <tag k="addr:street" v="Brook Road"/>
    <tag k="addr:state" v="VT"/>
    <tag k="ref:vcgi:esiteid" v="756591"/>
  </node>
  <node id="-708" visible="true" lat="44.26404296" lon="-72.43121269">
    <tag k="addr:city" v="Plainfield"/>
    <tag k="addr:housenumber" v="440"/>
    <tag k="addr:street" v="Middle Road"/>
    <tag k="addr:state" v="VT"/>
    <tag k="ref:vcgi:esiteid" v="756671"/>
  </node>
  <node id="-709" visible="true" lat="44.28432758" lon="-72.4354285">
    <tag k="addr:city" v="Plainfield"/>
    <tag k="addr:housenumber" v="210"/>
    <tag k="addr:street" v="Greatwood Drive"/>
    <tag k="addr:state" v="VT"/>
    <tag k="ref:vcgi:esiteid" v="756867"/>
  </node>
  <node id="-710" visible="true" lat="44.26775455" lon="-72.43232736">
    <tag k="addr:city" v="Plainfield"/>
    <tag k="addr:housenumber" v="280"/>
    <tag k="addr:street" v="Lower Road"/>
    <tag k="addr:state" v="VT"/>
    <tag k="ref:vcgi:esiteid" v="757170"/>
  </node>
  <node id="-711" visible="true" lat="44.22832178" lon="-72.43401441">
    <tag k="addr:city" v="Plainfield"/>
    <tag k="addr:housenumber" v="910"/>
    <tag k="addr:street" v="Gonyeau Road"/>
    <tag k="addr:state" v="VT"/>
    <tag k="ref:vcgi:esiteid" v="757296"/>
  </node>
  <node id="-712" visible="true" lat="44.25694494" lon="-72.45663662">
    <tag k="addr:city" v="Plainfield"/>
    <tag k="addr:housenumber" v="1355"/>
    <tag k="addr:street" v="Country Club Road"/>
    <tag k="addr:state" v="VT"/>
    <tag k="ref:vcgi:esiteid" v="758187"/>
  </node>
  <node id="-713" visible="true" lat="44.2330747" lon="-72.39392368">
    <tag k="addr:city" v="Plainfield"/>
    <tag k="addr:housenumber" v="3814"/>
    <tag k="addr:street" v="East Hill Road"/>
    <tag k="addr:state" v="VT"/>
    <tag k="ref:vcgi:esiteid" v="759235"/>
  </node>
  <node id="-714" visible="true" lat="44.23588816" lon="-72.4735754">
    <tag k="addr:city" v="Plainfield"/>
    <tag k="addr:housenumber" v="3040"/>
    <tag k="addr:street" v="Country Club Road"/>
    <tag k="addr:state" v="VT"/>
    <tag k="ref:vcgi:esiteid" v="759368"/>
  </node>
  <node id="-715" visible="true" lat="44.23313148" lon="-72.45015545">
    <tag k="addr:city" v="Plainfield"/>
    <tag k="addr:housenumber" v="2851"/>
    <tag k="addr:street" v="Middle Road"/>
    <tag k="addr:state" v="VT"/>
    <tag k="ref:vcgi:esiteid" v="759962"/>
  </node>
  <node id="-716" visible="true" lat="44.26997189" lon="-72.44939018">
    <tag k="addr:city" v="Plainfield"/>
    <tag k="addr:housenumber" v="297"/>
    <tag k="addr:street" v="Country Club Road"/>
    <tag k="addr:state" v="VT"/>
    <tag k="ref:vcgi:esiteid" v="760209"/>
  </node>
  <node id="-717" visible="true" lat="44.27068632" lon="-72.44945298">
    <tag k="addr:city" v="Plainfield"/>
    <tag k="addr:housenumber" v="299"/>
    <tag k="addr:street" v="Country Club Road"/>
    <tag k="addr:state" v="VT"/>
    <tag k="ref:vcgi:esiteid" v="760210"/>
  </node>
  <node id="-718" visible="true" lat="44.25475175" lon="-72.4369874">
    <tag k="addr:city" v="Plainfield"/>
    <tag k="addr:housenumber" v="255"/>
    <tag k="addr:street" v="Cerutti Road"/>
    <tag k="addr:state" v="VT"/>
    <tag k="ref:vcgi:esiteid" v="760525"/>
  </node>
  <node id="-719" visible="true" lat="44.27018902" lon="-72.40215958">
    <tag k="addr:city" v="Plainfield"/>
    <tag k="addr:housenumber" v="929"/>
    <tag k="addr:street" v="East Hill Road"/>
    <tag k="addr:state" v="VT"/>
    <tag k="ref:vcgi:esiteid" v="760756"/>
  </node>
  <node id="-720" visible="true" lat="44.25239934" lon="-72.46373624">
    <tag k="addr:city" v="Plainfield"/>
    <tag k="addr:housenumber" v="1816"/>
    <tag k="addr:street" v="Country Club Road"/>
    <tag k="addr:state" v="VT"/>
    <tag k="ref:vcgi:esiteid" v="764106"/>
  </node>
  <node id="-721" visible="true" lat="44.23489408" lon="-72.37797899">
    <tag k="addr:city" v="Plainfield"/>
    <tag k="addr:housenumber" v="1026"/>
    <tag k="addr:street" v="Spruce Mountain Road"/>
    <tag k="addr:state" v="VT"/>
    <tag k="ref:vcgi:esiteid" v="800138"/>
  </node>
  <node id="-722" visible="true" lat="44.26514843" lon="-72.42162437">
    <tag k="addr:city" v="Plainfield"/>
    <tag k="addr:housenumber" v="381"/>
    <tag k="addr:street" v="Upper Road"/>
    <tag k="addr:state" v="VT"/>
    <tag k="ref:vcgi:esiteid" v="900347"/>
  </node>
  <node id="-726" visible="true" lat="44.27644072" lon="-72.42732292">
    <tag k="addr:city" v="Plainfield"/>
    <tag k="addr:housenumber" v="76"/>
    <tag k="addr:street" v="Recreation Field Road"/>
    <tag k="addr:state" v="VT"/>
    <tag k="ref:vcgi:esiteid" v="1050908"/>
  </node>
  <node id="-727" visible="true" lat="44.23361085" lon="-72.37958358">
    <tag k="addr:city" v="Plainfield"/>
    <tag k="addr:housenumber" v="801"/>
    <tag k="addr:street" v="Spruce Mountain Road"/>
    <tag k="addr:state" v="VT"/>
    <tag k="ref:vcgi:esiteid" v="1050935"/>
  </node>
</osm>
