<?xml version="1.0" encoding="UTF-8"?>
<osm version="0.6" generator="JOSM">
  <node id="-105" visible="true" lat="44.28214723" lon="-72.43442698">
    <tag k="addr:city" v="Plainfield"/>
    <tag k="addr:housenumber" v="115"/>
    <tag k="addr:street" v="Sugarwood Road"/>
    <tag k="addr:state" v="VT"/>
    <tag k="ref:vcgi:esiteid" v="188856"/>
  </node>
  <node id="-107" visible="true" lat="44.28122729" lon="-72.43631768">
    <tag k="addr:city" v="Plainfield"/>
    <tag k="addr:housenumber" v="26"/>
    <tag k="addr:street" v="Sugarwood Road"/>
    <tag k="addr:state" v="VT"/>
    <tag k="ref:vcgi:esiteid" v="188858"/>
  </node>
  <node id="-108" visible="true" lat="44.28147761" lon="-72.43879224">
    <tag k="addr:city" v="Plainfield"/>
    <tag k="addr:housenumber" v="64"/>
    <tag k="addr:street" v="Loop Road"/>
    <tag k="addr:state" v="VT"/>
    <tag k="ref:vcgi:esiteid" v="188859"/>
  </node>
  <node id="-109" visible="true" lat="44.28107849" lon="-72.43487412">
    <tag k="addr:city" v="Plainfield"/>
    <tag k="addr:housenumber" v="110"/>
    <tag k="addr:street" v="Sugarwood Road"/>
    <tag k="addr:state" v="VT"/>
    <tag k="ref:vcgi:esiteid" v="188860"/>
  </node>
  <node id="-114" visible="true" lat="44.28092491" lon="-72.43583027">
    <tag k="addr:city" v="Plainfield"/>
    <tag k="addr:housenumber" v="54"/>
    <tag k="addr:street" v="Sugarwood Road"/>
    <tag k="addr:state" v="VT"/>
    <tag k="ref:vcgi:esiteid" v="188866"/>
  </node>
  <node id="-118" visible="true" lat="44.28058542" lon="-72.43374284">
    <tag k="addr:city" v="Plainfield"/>
    <tag k="addr:housenumber" v="193"/>
    <tag k="addr:street" v="Sugarwood Road"/>
    <tag k="addr:state" v="VT"/>
    <tag k="ref:vcgi:esiteid" v="188870"/>
  </node>
  <node id="-125" visible="true" lat="44.2795923" lon="-72.42296408">
    <tag k="addr:city" v="Plainfield"/>
    <tag k="addr:housenumber" v="171"/>
    <tag k="addr:street" v="School Street"/>
    <tag k="addr:state" v="VT"/>
    <tag k="ref:vcgi:esiteid" v="188878"/>
  </node>
  <node id="-126" visible="true" lat="44.27941737" lon="-72.43776412">
    <tag k="addr:city" v="Plainfield"/>
    <tag k="addr:housenumber" v="93"/>
    <tag k="addr:street" v="Pitkin Road"/>
    <tag k="addr:state" v="VT"/>
    <tag k="ref:vcgi:esiteid" v="188879"/>
  </node>
  <node id="-127" visible="true" lat="44.27946723" lon="-72.42318298">
    <tag k="addr:city" v="Plainfield"/>
    <tag k="addr:housenumber" v="161"/>
    <tag k="addr:street" v="School Street"/>
    <tag k="addr:state" v="VT"/>
    <tag k="ref:vcgi:esiteid" v="188880"/>
  </node>
  <node id="-130" visible="true" lat="44.27926056" lon="-72.42257147">
    <tag k="addr:city" v="Plainfield"/>
    <tag k="addr:housenumber" v="170"/>
    <tag k="addr:street" v="School Street"/>
    <tag k="addr:state" v="VT"/>
    <tag k="ref:vcgi:esiteid" v="188883"/>
  </node>
  <node id="-131" visible="true" lat="44.27914911" lon="-72.42393683">
    <tag k="addr:city" v="Plainfield"/>
    <tag k="addr:housenumber" v="123"/>
    <tag k="addr:street" v="School Street"/>
    <tag k="addr:state" v="VT"/>
    <tag k="ref:vcgi:esiteid" v="188884"/>
  </node>
  <node id="-132" visible="true" lat="44.2793274" lon="-72.42337797">
    <tag k="addr:city" v="Plainfield"/>
    <tag k="addr:housenumber" v="143"/>
    <tag k="addr:street" v="School Street"/>
    <tag k="addr:state" v="VT"/>
    <tag k="ref:vcgi:esiteid" v="188885"/>
  </node>
  <node id="-133" visible="true" lat="44.27915023" lon="-72.42280402">
    <tag k="addr:city" v="Plainfield"/>
    <tag k="addr:housenumber" v="162"/>
    <tag k="addr:street" v="School Street"/>
    <tag k="addr:state" v="VT"/>
    <tag k="ref:vcgi:esiteid" v="188886"/>
  </node>
  <node id="-134" visible="true" lat="44.27909892" lon="-72.43934871">
    <tag k="addr:city" v="Plainfield"/>
    <tag k="addr:housenumber" v="148"/>
    <tag k="addr:street" v="Pitkin Road"/>
    <tag k="addr:state" v="VT"/>
    <tag k="ref:vcgi:esiteid" v="188887"/>
  </node>
  <node id="-136" visible="true" lat="44.27898099" lon="-72.42306741">
    <tag k="addr:city" v="Plainfield"/>
    <tag k="addr:housenumber" v="142"/>
    <tag k="addr:street" v="School Street"/>
    <tag k="addr:state" v="VT"/>
    <tag k="ref:vcgi:esiteid" v="188890"/>
  </node>
  <node id="-138" visible="true" lat="44.27893716" lon="-72.43716138">
    <tag k="addr:city" v="Plainfield"/>
    <tag k="addr:housenumber" v="23"/>
    <tag k="addr:street" v="Pitkin Road"/>
    <tag k="addr:state" v="VT"/>
    <tag k="ref:vcgi:esiteid" v="188894"/>
  </node>
  <node id="-141" visible="true" lat="44.27871864" lon="-72.4236254">
    <tag k="addr:city" v="Plainfield"/>
    <tag k="addr:housenumber" v="112"/>
    <tag k="addr:street" v="School Street"/>
    <tag k="addr:state" v="VT"/>
    <tag k="ref:vcgi:esiteid" v="188899"/>
  </node>
  <node id="-142" visible="true" lat="44.2787902" lon="-72.42416474">
    <tag k="addr:city" v="Plainfield"/>
    <tag k="addr:housenumber" v="93"/>
    <tag k="addr:street" v="School Street"/>
    <tag k="addr:state" v="VT"/>
    <tag k="ref:vcgi:esiteid" v="188900"/>
  </node>
  <node id="-145" visible="true" lat="44.27872241" lon="-72.43855586">
    <tag k="addr:city" v="Plainfield"/>
    <tag k="addr:housenumber" v="187"/>
    <tag k="addr:street" v="Pitkin Road"/>
    <tag k="addr:state" v="VT"/>
    <tag k="ref:vcgi:esiteid" v="188903"/>
  </node>
  <node id="-146" visible="true" lat="44.27872354" lon="-72.42437423">
    <tag k="addr:city" v="Plainfield"/>
    <tag k="addr:housenumber" v="79"/>
    <tag k="addr:street" v="School Street"/>
    <tag k="addr:state" v="VT"/>
    <tag k="ref:vcgi:esiteid" v="188904"/>
  </node>
  <node id="-147" visible="true" lat="44.2784979" lon="-72.42411673">
    <tag k="addr:city" v="Plainfield"/>
    <tag k="addr:housenumber" v="90"/>
    <tag k="addr:street" v="School Street"/>
    <tag k="addr:state" v="VT"/>
    <tag k="ref:vcgi:esiteid" v="188905"/>
  </node>
  <node id="-148" visible="true" lat="44.27857453" lon="-72.42396177">
    <tag k="addr:city" v="Plainfield"/>
    <tag k="addr:housenumber" v="98"/>
    <tag k="addr:street" v="School Street"/>
    <tag k="addr:state" v="VT"/>
    <tag k="ref:vcgi:esiteid" v="188906"/>
  </node>
  <node id="-149" visible="true" lat="44.27860769" lon="-72.42463591">
    <tag k="addr:city" v="Plainfield"/>
    <tag k="addr:housenumber" v="61"/>
    <tag k="addr:street" v="School Street"/>
    <tag k="addr:state" v="VT"/>
    <tag k="ref:vcgi:esiteid" v="188907"/>
  </node>
  <node id="-151" visible="true" lat="44.27845764" lon="-72.42435455">
    <tag k="addr:city" v="Plainfield"/>
    <tag k="addr:housenumber" v="72"/>
    <tag k="addr:street" v="School Street"/>
    <tag k="addr:state" v="VT"/>
    <tag k="ref:vcgi:esiteid" v="188909"/>
  </node>
  <node id="-152" visible="true" lat="44.27847365" lon="-72.42491561">
    <tag k="addr:city" v="Plainfield"/>
    <tag k="addr:housenumber" v="45"/>
    <tag k="addr:street" v="School Street"/>
    <tag k="addr:state" v="VT"/>
    <tag k="ref:vcgi:esiteid" v="188910"/>
  </node>
  <node id="-153" visible="true" lat="44.27839047" lon="-72.4245133">
    <tag k="addr:city" v="Plainfield"/>
    <tag k="addr:housenumber" v="60"/>
    <tag k="addr:street" v="School Street"/>
    <tag k="addr:state" v="VT"/>
    <tag k="ref:vcgi:esiteid" v="188911"/>
  </node>
  <node id="-154" visible="true" lat="44.27866428" lon="-72.43802147">
    <tag k="addr:city" v="Plainfield"/>
    <tag k="addr:housenumber" v="227"/>
    <tag k="addr:street" v="Pitkin Road"/>
    <tag k="addr:state" v="VT"/>
    <tag k="ref:vcgi:esiteid" v="188913"/>
  </node>
  <node id="-155" visible="true" lat="44.2781578" lon="-72.43862781">
    <tag k="addr:city" v="Plainfield"/>
    <tag k="addr:housenumber" v="206"/>
    <tag k="addr:street" v="Pitkin Road"/>
    <tag k="addr:state" v="VT"/>
    <tag k="ref:vcgi:esiteid" v="188914"/>
  </node>
  <node id="-156" visible="true" lat="44.27825239" lon="-72.43124701">
    <tag k="addr:city" v="Plainfield"/>
    <tag k="addr:housenumber" v="268"/>
    <tag k="addr:street" v="High Street"/>
    <tag k="addr:state" v="VT"/>
    <tag k="ref:vcgi:esiteid" v="188915"/>
  </node>
  <node id="-157" visible="true" lat="44.27827421" lon="-72.4267191">
    <tag k="addr:city" v="Plainfield"/>
    <tag k="addr:housenumber" v="50"/>
    <tag k="addr:street" v="High Street"/>
    <tag k="addr:state" v="VT"/>
    <tag k="ref:vcgi:esiteid" v="188916"/>
  </node>
  <node id="-158" visible="true" lat="44.27826035" lon="-72.42753502">
    <tag k="addr:city" v="Plainfield"/>
    <tag k="addr:housenumber" v="88"/>
    <tag k="addr:street" v="High Street"/>
    <tag k="addr:state" v="VT"/>
    <tag k="ref:vcgi:esiteid" v="188917"/>
  </node>
  <node id="-159" visible="true" lat="44.27834159" lon="-72.42718588">
    <tag k="addr:city" v="Plainfield"/>
    <tag k="addr:housenumber" v="70"/>
    <tag k="addr:street" v="High Street"/>
    <tag k="addr:state" v="VT"/>
    <tag k="ref:vcgi:esiteid" v="188918"/>
  </node>
  <node id="-160" visible="true" lat="44.2782836" lon="-72.42642786">
    <tag k="addr:city" v="Plainfield"/>
    <tag k="addr:housenumber" v="34"/>
    <tag k="addr:street" v="High Street"/>
    <tag k="addr:state" v="VT"/>
    <tag k="ref:vcgi:esiteid" v="188919"/>
  </node>
  <node id="-161" visible="true" lat="44.27826065" lon="-72.42551416">
    <tag k="addr:city" v="Plainfield"/>
    <tag k="addr:housenumber" v="15"/>
    <tag k="addr:street" v="School Street"/>
    <tag k="addr:state" v="VT"/>
    <tag k="ref:vcgi:esiteid" v="188920"/>
  </node>
  <node id="-162" visible="true" lat="44.27832827" lon="-72.42612128">
    <tag k="addr:city" v="Plainfield"/>
    <tag k="addr:housenumber" v="18"/>
    <tag k="addr:street" v="High Street"/>
    <tag k="addr:state" v="VT"/>
    <tag k="ref:vcgi:esiteid" v="188921"/>
  </node>
  <node id="-163" visible="true" lat="44.27822227" lon="-72.42792412">
    <tag k="addr:city" v="Plainfield"/>
    <tag k="addr:housenumber" v="108"/>
    <tag k="addr:street" v="High Street"/>
    <tag k="addr:state" v="VT"/>
    <tag k="ref:vcgi:esiteid" v="188922"/>
  </node>
  <node id="-164" visible="true" lat="44.27813509" lon="-72.42837364">
    <tag k="addr:city" v="Plainfield"/>
    <tag k="addr:housenumber" v="124"/>
    <tag k="addr:street" v="High Street"/>
    <tag k="addr:state" v="VT"/>
    <tag k="ref:vcgi:esiteid" v="188923"/>
  </node>
  <node id="-165" visible="true" lat="44.2780075" lon="-72.42689514">
    <tag k="addr:city" v="Plainfield"/>
    <tag k="addr:housenumber" v="55"/>
    <tag k="addr:street" v="High Street"/>
    <tag k="addr:state" v="VT"/>
    <tag k="ref:vcgi:esiteid" v="188924"/>
  </node>
  <node id="-166" visible="true" lat="44.2780075" lon="-72.4271698">
    <tag k="addr:city" v="Plainfield"/>
    <tag k="addr:housenumber" v="69"/>
    <tag k="addr:street" v="High Street"/>
    <tag k="addr:state" v="VT"/>
    <tag k="ref:vcgi:esiteid" v="188926"/>
  </node>
  <node id="-167" visible="true" lat="44.27803609" lon="-72.42879167">
    <tag k="addr:city" v="Plainfield"/>
    <tag k="addr:housenumber" v="146"/>
    <tag k="addr:street" v="High Street"/>
    <tag k="addr:state" v="VT"/>
    <tag k="ref:vcgi:esiteid" v="188927"/>
  </node>
  <node id="-168" visible="true" lat="44.27817024" lon="-72.43032357">
    <tag k="addr:city" v="Plainfield"/>
    <tag k="addr:housenumber" v="252"/>
    <tag k="addr:street" v="High Street"/>
    <tag k="addr:state" v="VT"/>
    <tag k="ref:vcgi:esiteid" v="188928"/>
  </node>
  <node id="-169" visible="true" lat="44.27797698" lon="-72.42626953">
    <tag k="addr:city" v="Plainfield"/>
    <tag k="addr:housenumber" v="25"/>
    <tag k="addr:street" v="High Street"/>
    <tag k="addr:state" v="VT"/>
    <tag k="ref:vcgi:esiteid" v="188930"/>
  </node>
  <node id="-170" visible="true" lat="44.27787398" lon="-72.42808394">
    <tag k="addr:city" v="Plainfield"/>
    <tag k="addr:housenumber" v="119"/>
    <tag k="addr:street" v="High Street"/>
    <tag k="addr:state" v="VT"/>
    <tag k="ref:vcgi:esiteid" v="188931"/>
  </node>
  <node id="-171" visible="true" lat="44.2779999" lon="-72.42669333">
    <tag k="addr:city" v="Plainfield"/>
    <tag k="addr:housenumber" v="49"/>
    <tag k="addr:street" v="High Street"/>
    <tag k="addr:state" v="VT"/>
    <tag k="ref:vcgi:esiteid" v="188932"/>
  </node>
  <node id="-172" visible="true" lat="44.27813692" lon="-72.42996504">
    <tag k="addr:city" v="Plainfield"/>
    <tag k="addr:housenumber" v="230"/>
    <tag k="addr:street" v="High Street"/>
    <tag k="addr:state" v="VT"/>
    <tag k="ref:vcgi:esiteid" v="188933"/>
  </node>
  <node id="-174" visible="true" lat="44.27800084" lon="-72.42932882">
    <tag k="addr:city" v="Plainfield"/>
    <tag k="addr:housenumber" v="182"/>
    <tag k="addr:street" v="High Street"/>
    <tag k="addr:state" v="VT"/>
    <tag k="ref:vcgi:esiteid" v="188935"/>
  </node>
  <node id="-175" visible="true" lat="44.27792267" lon="-72.42573769">
    <tag k="addr:city" v="Plainfield"/>
    <tag k="addr:housenumber" v="1"/>
    <tag k="addr:street" v="High Street"/>
    <tag k="addr:state" v="VT"/>
    <tag k="ref:vcgi:esiteid" v="188936"/>
  </node>
  <node id="-176" visible="true" lat="44.27784405" lon="-72.4241625">
    <tag k="addr:city" v="Plainfield"/>
    <tag k="addr:housenumber" v="87"/>
    <tag k="addr:street" v="Main Street"/>
    <tag k="addr:state" v="VT"/>
    <tag k="ref:vcgi:esiteid" v="188938"/>
  </node>
  <node id="-177" visible="true" lat="44.27785154" lon="-72.43181451">
    <tag k="addr:city" v="Plainfield"/>
    <tag k="addr:housenumber" v="189"/>
    <tag k="addr:street" v="Towne Avenue"/>
    <tag k="addr:state" v="VT"/>
    <tag k="ref:vcgi:esiteid" v="188939"/>
  </node>
  <node id="-178" visible="true" lat="44.2778778" lon="-72.42543792">
    <tag k="addr:city" v="Plainfield"/>
    <tag k="addr:housenumber" v="16"/>
    <tag k="addr:street" v="Main Street"/>
    <tag k="addr:state" v="VT"/>
    <tag k="ref:vcgi:esiteid" v="188940"/>
  </node>
  <node id="-180" visible="true" lat="44.27780541" lon="-72.42387097">
    <tag k="addr:city" v="Plainfield"/>
    <tag k="addr:housenumber" v="99"/>
    <tag k="addr:street" v="Main Street"/>
    <tag k="addr:state" v="VT"/>
    <tag k="ref:vcgi:esiteid" v="188942"/>
  </node>
  <node id="-181" visible="true" lat="44.27784542" lon="-72.42369575">
    <tag k="addr:city" v="Plainfield"/>
    <tag k="addr:housenumber" v="109"/>
    <tag k="addr:street" v="Main Street"/>
    <tag k="addr:state" v="VT"/>
    <tag k="ref:vcgi:esiteid" v="188945"/>
  </node>
  <node id="-182" visible="true" lat="44.27784956" lon="-72.42475854">
    <tag k="addr:city" v="Plainfield"/>
    <tag k="addr:housenumber" v="53"/>
    <tag k="addr:street" v="Main Street"/>
    <tag k="addr:state" v="VT"/>
    <tag k="ref:vcgi:esiteid" v="188946"/>
  </node>
  <node id="-183" visible="true" lat="44.27787073" lon="-72.42487548">
    <tag k="addr:city" v="Plainfield"/>
    <tag k="addr:housenumber" v="39"/>
    <tag k="addr:street" v="Main Street"/>
    <tag k="addr:state" v="VT"/>
    <tag k="ref:vcgi:esiteid" v="188947"/>
  </node>
  <node id="-184" visible="true" lat="44.27770068" lon="-72.42865768">
    <tag k="addr:city" v="Plainfield"/>
    <tag k="addr:housenumber" v="151"/>
    <tag k="addr:street" v="High Street"/>
    <tag k="addr:state" v="VT"/>
    <tag k="ref:vcgi:esiteid" v="188949"/>
  </node>
  <node id="-185" visible="true" lat="44.27782204" lon="-72.42356719">
    <tag k="addr:city" v="Plainfield"/>
    <tag k="addr:housenumber" v="117"/>
    <tag k="addr:street" v="Main Street"/>
    <tag k="addr:state" v="VT"/>
    <tag k="ref:vcgi:esiteid" v="188950"/>
  </node>
  <node id="-186" visible="true" lat="44.27768926" lon="-72.43036816">
    <tag k="addr:city" v="Plainfield"/>
    <tag k="addr:housenumber" v="227"/>
    <tag k="addr:street" v="High Street"/>
    <tag k="addr:state" v="VT"/>
    <tag k="ref:vcgi:esiteid" v="188951"/>
  </node>
  <node id="-187" visible="true" lat="44.27776208" lon="-72.43111123">
    <tag k="addr:city" v="Plainfield"/>
    <tag k="addr:housenumber" v="190"/>
    <tag k="addr:street" v="Towne Avenue"/>
    <tag k="addr:state" v="VT"/>
    <tag k="ref:vcgi:esiteid" v="188952"/>
  </node>
  <node id="-189" visible="true" lat="44.27766635" lon="-72.43012558">
    <tag k="addr:city" v="Plainfield"/>
    <tag k="addr:housenumber" v="223"/>
    <tag k="addr:street" v="High Street"/>
    <tag k="addr:state" v="VT"/>
    <tag k="ref:vcgi:esiteid" v="188954"/>
  </node>
  <node id="-190" visible="true" lat="44.27767698" lon="-72.42926485">
    <tag k="addr:city" v="Plainfield"/>
    <tag k="addr:housenumber" v="173"/>
    <tag k="addr:street" v="High Street"/>
    <tag k="addr:state" v="VT"/>
    <tag k="ref:vcgi:esiteid" v="188955"/>
  </node>
  <node id="-191" visible="true" lat="44.27752813" lon="-72.43305005">
    <tag k="addr:city" v="Plainfield"/>
    <tag k="addr:housenumber" v="157"/>
    <tag k="addr:street" v="Towne Avenue"/>
    <tag k="addr:state" v="VT"/>
    <tag k="ref:vcgi:esiteid" v="188957"/>
  </node>
  <node id="-192" visible="true" lat="44.27754675" lon="-72.4233677">
    <tag k="addr:city" v="Plainfield"/>
    <tag k="addr:housenumber" v="120"/>
    <tag k="addr:street" v="Main Street"/>
    <tag k="addr:state" v="VT"/>
    <tag k="ref:vcgi:esiteid" v="188958"/>
  </node>
  <node id="-193" visible="true" lat="44.27754099" lon="-72.42361516">
    <tag k="addr:city" v="Plainfield"/>
    <tag k="addr:housenumber" v="108"/>
    <tag k="addr:street" v="Main Street"/>
    <tag k="addr:state" v="VT"/>
    <tag k="ref:vcgi:esiteid" v="188960"/>
  </node>
  <node id="-194" visible="true" lat="44.27753453" lon="-72.42310116">
    <tag k="addr:city" v="Plainfield"/>
    <tag k="addr:housenumber" v="132"/>
    <tag k="addr:street" v="Main Street"/>
    <tag k="addr:state" v="VT"/>
    <tag k="ref:vcgi:esiteid" v="188961"/>
  </node>
  <node id="-195" visible="true" lat="44.27749832" lon="-72.42408673">
    <tag k="addr:city" v="Plainfield"/>
    <tag k="addr:housenumber" v="88"/>
    <tag k="addr:street" v="Main Street"/>
    <tag k="addr:state" v="VT"/>
    <tag k="ref:vcgi:esiteid" v="188962"/>
  </node>
  <node id="-196" visible="true" lat="44.27742956" lon="-72.42210564">
    <tag k="addr:city" v="Plainfield"/>
    <tag k="addr:housenumber" v="13"/>
    <tag k="addr:street" v="Creamery Street"/>
    <tag k="addr:state" v="VT"/>
    <tag k="ref:vcgi:esiteid" v="188963"/>
  </node>
  <node id="-197" visible="true" lat="44.27748933" lon="-72.43124987">
    <tag k="addr:city" v="Plainfield"/>
    <tag k="addr:housenumber" v="140"/>
    <tag k="addr:street" v="Towne Avenue"/>
    <tag k="addr:state" v="VT"/>
    <tag k="ref:vcgi:esiteid" v="188964"/>
  </node>
  <node id="-198" visible="true" lat="44.27722394" lon="-72.42214704">
    <tag k="addr:city" v="Plainfield"/>
    <tag k="addr:housenumber" v="23"/>
    <tag k="addr:street" v="Creamery Street"/>
    <tag k="addr:state" v="VT"/>
    <tag k="ref:vcgi:esiteid" v="188965"/>
  </node>
  <node id="-199" visible="true" lat="44.27723312" lon="-72.42253112">
    <tag k="addr:city" v="Plainfield"/>
    <tag k="addr:housenumber" v="30"/>
    <tag k="addr:street" v="Creamery Street"/>
    <tag k="addr:state" v="VT"/>
    <tag k="ref:vcgi:esiteid" v="188966"/>
  </node>
  <node id="-200" visible="true" lat="44.27733675" lon="-72.43036332">
    <tag k="addr:city" v="Plainfield"/>
    <tag k="addr:housenumber" v="90"/>
    <tag k="addr:street" v="Towne Avenue"/>
    <tag k="addr:state" v="VT"/>
    <tag k="ref:vcgi:esiteid" v="188967"/>
  </node>
  <node id="-201" visible="true" lat="44.27717297" lon="-72.43154149">
    <tag k="addr:city" v="Plainfield"/>
    <tag k="addr:housenumber" v="147"/>
    <tag k="addr:street" v="Towne Avenue"/>
    <tag k="addr:state" v="VT"/>
    <tag k="ref:vcgi:esiteid" v="188968"/>
  </node>
  <node id="-202" visible="true" lat="44.27726846" lon="-72.42976975">
    <tag k="addr:city" v="Plainfield"/>
    <tag k="addr:housenumber" v="56"/>
    <tag k="addr:street" v="Towne Avenue"/>
    <tag k="addr:state" v="VT"/>
    <tag k="ref:vcgi:esiteid" v="188969"/>
  </node>
  <node id="-203" visible="true" lat="44.27714962" lon="-72.42407705">
    <tag k="addr:city" v="Plainfield"/>
    <tag k="addr:housenumber" v="78"/>
    <tag k="addr:street" v="Main Street"/>
    <tag k="addr:state" v="VT"/>
    <tag k="ref:vcgi:esiteid" v="188970"/>
  </node>
  <node id="-204" visible="true" lat="44.27704591" lon="-72.43070993">
    <tag k="addr:city" v="Plainfield"/>
    <tag k="addr:housenumber" v="111"/>
    <tag k="addr:street" v="Towne Avenue"/>
    <tag k="addr:state" v="VT"/>
    <tag k="ref:vcgi:esiteid" v="188972"/>
  </node>
  <node id="-205" visible="true" lat="44.27716447" lon="-72.4321973">
    <tag k="addr:city" v="Plainfield"/>
    <tag k="addr:housenumber" v="155"/>
    <tag k="addr:street" v="Towne Avenue"/>
    <tag k="addr:state" v="VT"/>
    <tag k="ref:vcgi:esiteid" v="188973"/>
  </node>
  <node id="-206" visible="true" lat="44.27705001" lon="-72.42250823">
    <tag k="addr:city" v="Plainfield"/>
    <tag k="addr:housenumber" v="42"/>
    <tag k="addr:street" v="Creamery Street"/>
    <tag k="addr:state" v="VT"/>
    <tag k="ref:vcgi:esiteid" v="188974"/>
  </node>
  <node id="-207" visible="true" lat="44.2770869" lon="-72.42553232">
    <tag k="addr:city" v="Plainfield"/>
    <tag k="addr:housenumber" v="50"/>
    <tag k="addr:street" v="Mill Street"/>
    <tag k="addr:state" v="VT"/>
    <tag k="ref:vcgi:esiteid" v="188975"/>
  </node>
  <node id="-208" visible="true" lat="44.27703021" lon="-72.42293067">
    <tag k="addr:city" v="Plainfield"/>
    <tag k="addr:housenumber" v="56"/>
    <tag k="addr:street" v="Creamery Street"/>
    <tag k="addr:state" v="VT"/>
    <tag k="ref:vcgi:esiteid" v="188976"/>
  </node>
  <node id="-209" visible="true" lat="44.27696615" lon="-72.43023828">
    <tag k="addr:city" v="Plainfield"/>
    <tag k="addr:housenumber" v="10"/>
    <tag k="addr:street" v="Martin Meadow Road"/>
    <tag k="addr:state" v="VT"/>
    <tag k="ref:vcgi:esiteid" v="188977"/>
  </node>
  <node id="-211" visible="true" lat="44.27687035" lon="-72.42559037">
    <tag k="addr:city" v="Plainfield"/>
    <tag k="addr:housenumber" v="64"/>
    <tag k="addr:street" v="Mill Street"/>
    <tag k="addr:state" v="VT"/>
    <tag k="ref:vcgi:esiteid" v="188979"/>
  </node>
  <node id="-212" visible="true" lat="44.27686783" lon="-72.4316573">
    <tag k="addr:city" v="Plainfield"/>
    <tag k="addr:housenumber" v="34"/>
    <tag k="addr:street" v="Walker Lane"/>
    <tag k="addr:state" v="VT"/>
    <tag k="ref:vcgi:esiteid" v="188980"/>
  </node>
  <node id="-213" visible="true" lat="44.27683056" lon="-72.43124085">
    <tag k="addr:city" v="Plainfield"/>
    <tag k="addr:housenumber" v="31"/>
    <tag k="addr:street" v="Walker Lane"/>
    <tag k="addr:state" v="VT"/>
    <tag k="ref:vcgi:esiteid" v="188981"/>
  </node>
  <node id="-214" visible="true" lat="44.27680009" lon="-72.42506862">
    <tag k="addr:city" v="Plainfield"/>
    <tag k="addr:housenumber" v="23"/>
    <tag k="addr:street" v="Hudson Avenue"/>
    <tag k="addr:state" v="VT"/>
    <tag k="ref:vcgi:esiteid" v="188983"/>
  </node>
  <node id="-215" visible="true" lat="44.2767512" lon="-72.42979006">
    <tag k="addr:city" v="Plainfield"/>
    <tag k="addr:housenumber" v="29"/>
    <tag k="addr:street" v="Martin Meadow Road"/>
    <tag k="addr:state" v="VT"/>
    <tag k="ref:vcgi:esiteid" v="188984"/>
  </node>
  <node id="-216" visible="true" lat="44.27654877" lon="-72.42512099">
    <tag k="addr:city" v="Plainfield"/>
    <tag k="addr:housenumber" v="10"/>
    <tag k="addr:street" v="Hudson Avenue"/>
    <tag k="addr:state" v="VT"/>
    <tag k="ref:vcgi:esiteid" v="188986"/>
  </node>
  <node id="-217" visible="true" lat="44.27665807" lon="-72.430519">
    <tag k="addr:city" v="Plainfield"/>
    <tag k="addr:housenumber" v="297"/>
    <tag k="addr:street" v="Martin Meadow Road"/>
    <tag k="addr:state" v="VT"/>
    <tag k="ref:vcgi:esiteid" v="188987"/>
  </node>
  <node id="-218" visible="true" lat="44.27676274" lon="-72.42321512">
    <tag k="addr:city" v="Plainfield"/>
    <tag k="addr:housenumber" v="58"/>
    <tag k="addr:street" v="Creamery Street"/>
    <tag k="addr:state" v="VT"/>
    <tag k="ref:vcgi:esiteid" v="188988"/>
  </node>
  <node id="-219" visible="true" lat="44.27653884" lon="-72.42256927">
    <tag k="addr:city" v="Plainfield"/>
    <tag k="addr:housenumber" v="78"/>
    <tag k="addr:street" v="Creamery Street"/>
    <tag k="addr:state" v="VT"/>
    <tag k="ref:vcgi:esiteid" v="188989"/>
  </node>
  <node id="-220" visible="true" lat="44.27664837" lon="-72.42451949">
    <tag k="addr:city" v="Plainfield"/>
    <tag k="addr:housenumber" v="39"/>
    <tag k="addr:street" v="Hudson Avenue"/>
    <tag k="addr:state" v="VT"/>
    <tag k="ref:vcgi:esiteid" v="188990"/>
  </node>
  <node id="-221" visible="true" lat="44.27656729" lon="-72.42420459">
    <tag k="addr:city" v="Plainfield"/>
    <tag k="addr:housenumber" v="55"/>
    <tag k="addr:street" v="Hudson Avenue"/>
    <tag k="addr:state" v="VT"/>
    <tag k="ref:vcgi:esiteid" v="188991"/>
  </node>
  <node id="-222" visible="true" lat="44.27640933" lon="-72.4320628">
    <tag k="addr:city" v="Plainfield"/>
    <tag k="addr:housenumber" v="62"/>
    <tag k="addr:street" v="Walker Lane"/>
    <tag k="addr:state" v="VT"/>
    <tag k="ref:vcgi:esiteid" v="188992"/>
  </node>
  <node id="-223" visible="true" lat="44.27644351" lon="-72.42469717">
    <tag k="addr:city" v="Plainfield"/>
    <tag k="addr:housenumber" v="36"/>
    <tag k="addr:street" v="Hudson Avenue"/>
    <tag k="addr:state" v="VT"/>
    <tag k="ref:vcgi:esiteid" v="188994"/>
  </node>
  <node id="-224" visible="true" lat="44.27637674" lon="-72.42443256">
    <tag k="addr:city" v="Plainfield"/>
    <tag k="addr:housenumber" v="48"/>
    <tag k="addr:street" v="Hudson Avenue"/>
    <tag k="addr:state" v="VT"/>
    <tag k="ref:vcgi:esiteid" v="188995"/>
  </node>
  <node id="-226" visible="true" lat="44.2764452" lon="-72.42567939">
    <tag k="addr:city" v="Plainfield"/>
    <tag k="addr:housenumber" v="96"/>
    <tag k="addr:street" v="Mill Street"/>
    <tag k="addr:state" v="VT"/>
    <tag k="ref:vcgi:esiteid" v="188997"/>
  </node>
  <node id="-227" visible="true" lat="44.27642197" lon="-72.42991332">
    <tag k="addr:city" v="Plainfield"/>
    <tag k="addr:housenumber" v="51"/>
    <tag k="addr:street" v="Martin Meadow Road"/>
    <tag k="addr:state" v="VT"/>
    <tag k="ref:vcgi:esiteid" v="188998"/>
  </node>
  <node id="-229" visible="true" lat="44.27630949" lon="-72.42268572">
    <tag k="addr:city" v="Plainfield"/>
    <tag k="addr:housenumber" v="96"/>
    <tag k="addr:street" v="Creamery Street"/>
    <tag k="addr:state" v="VT"/>
    <tag k="ref:vcgi:esiteid" v="189000"/>
  </node>
  <node id="-230" visible="true" lat="44.276348" lon="-72.43101289">
    <tag k="addr:city" v="Plainfield"/>
    <tag k="addr:housenumber" v="263"/>
    <tag k="addr:street" v="Martin Meadow Road"/>
    <tag k="addr:state" v="VT"/>
    <tag k="ref:vcgi:esiteid" v="189001"/>
  </node>
  <node id="-231" visible="true" lat="44.27619839" lon="-72.42524593">
    <tag k="addr:city" v="Plainfield"/>
    <tag k="addr:housenumber" v="107"/>
    <tag k="addr:street" v="Mill Street"/>
    <tag k="addr:state" v="VT"/>
    <tag k="ref:vcgi:esiteid" v="189002"/>
  </node>
  <node id="-232" visible="true" lat="44.27614508" lon="-72.43216072">
    <tag k="addr:city" v="Plainfield"/>
    <tag k="addr:housenumber" v="82"/>
    <tag k="addr:street" v="Walker Lane"/>
    <tag k="addr:state" v="VT"/>
    <tag k="ref:vcgi:esiteid" v="189003"/>
  </node>
  <node id="-234" visible="true" lat="44.27615545" lon="-72.43132538">
    <tag k="addr:city" v="Plainfield"/>
    <tag k="addr:housenumber" v="247"/>
    <tag k="addr:street" v="Martin Meadow Road"/>
    <tag k="addr:state" v="VT"/>
    <tag k="ref:vcgi:esiteid" v="189005"/>
  </node>
  <node id="-235" visible="true" lat="44.27612433" lon="-72.42995607">
    <tag k="addr:city" v="Plainfield"/>
    <tag k="addr:housenumber" v="71"/>
    <tag k="addr:street" v="Martin Meadow Road"/>
    <tag k="addr:state" v="VT"/>
    <tag k="ref:vcgi:esiteid" v="189006"/>
  </node>
  <node id="-236" visible="true" lat="44.27601242" lon="-72.42216491">
    <tag k="addr:city" v="Plainfield"/>
    <tag k="addr:housenumber" v="113"/>
    <tag k="addr:street" v="Creamery Street"/>
    <tag k="addr:state" v="VT"/>
    <tag k="ref:vcgi:esiteid" v="189007"/>
  </node>
  <node id="-238" visible="true" lat="44.27608155" lon="-72.42311625">
    <tag k="addr:city" v="Plainfield"/>
    <tag k="addr:housenumber" v="123"/>
    <tag k="addr:street" v="Hudson Avenue"/>
    <tag k="addr:state" v="VT"/>
    <tag k="ref:vcgi:esiteid" v="189009"/>
  </node>
  <node id="-239" visible="true" lat="44.27593892" lon="-72.43166405">
    <tag k="addr:city" v="Plainfield"/>
    <tag k="addr:housenumber" v="223"/>
    <tag k="addr:street" v="Martin Meadow Road"/>
    <tag k="addr:state" v="VT"/>
    <tag k="ref:vcgi:esiteid" v="189010"/>
  </node>
  <node id="-240" visible="true" lat="44.27584275" lon="-72.42993939">
    <tag k="addr:city" v="Plainfield"/>
    <tag k="addr:housenumber" v="85"/>
    <tag k="addr:street" v="Martin Meadow Road"/>
    <tag k="addr:state" v="VT"/>
    <tag k="ref:vcgi:esiteid" v="189011"/>
  </node>
  <node id="-241" visible="true" lat="44.27582276" lon="-72.42514458">
    <tag k="addr:city" v="Plainfield"/>
    <tag k="addr:housenumber" v="133"/>
    <tag k="addr:street" v="Mill Street"/>
    <tag k="addr:state" v="VT"/>
    <tag k="ref:vcgi:esiteid" v="189012"/>
  </node>
  <node id="-242" visible="true" lat="44.27595134" lon="-72.42804727">
    <tag k="addr:city" v="Plainfield"/>
    <tag k="addr:housenumber" v="146"/>
    <tag k="addr:street" v="Recreation Field Road"/>
    <tag k="addr:state" v="VT"/>
    <tag k="ref:vcgi:esiteid" v="189013"/>
  </node>
  <node id="-243" visible="true" lat="44.27586742" lon="-72.43184014">
    <tag k="addr:city" v="Plainfield"/>
    <tag k="addr:housenumber" v="215"/>
    <tag k="addr:street" v="Martin Meadow Road"/>
    <tag k="addr:state" v="VT"/>
    <tag k="ref:vcgi:esiteid" v="189014"/>
  </node>
  <node id="-245" visible="true" lat="44.27556984" lon="-72.42437233">
    <tag k="addr:city" v="Plainfield"/>
    <tag k="addr:housenumber" v="35"/>
    <tag k="addr:street" v="Brook Road"/>
    <tag k="addr:state" v="VT"/>
    <tag k="ref:vcgi:esiteid" v="189017"/>
  </node>
  <node id="-246" visible="true" lat="44.27548217" lon="-72.42187357">
    <tag k="addr:city" v="Plainfield"/>
    <tag k="addr:housenumber" v="133"/>
    <tag k="addr:street" v="Creamery Street"/>
    <tag k="addr:state" v="VT"/>
    <tag k="ref:vcgi:esiteid" v="189018"/>
  </node>
  <node id="-247" visible="true" lat="44.27536392" lon="-72.42481231">
    <tag k="addr:city" v="Plainfield"/>
    <tag k="addr:housenumber" v="12"/>
    <tag k="addr:street" v="Brook Road"/>
    <tag k="addr:state" v="VT"/>
    <tag k="ref:vcgi:esiteid" v="189019"/>
  </node>
  <node id="-248" visible="true" lat="44.27542478" lon="-72.42366193">
    <tag k="addr:city" v="Plainfield"/>
    <tag k="addr:housenumber" v="65"/>
    <tag k="addr:street" v="Brook Road"/>
    <tag k="addr:state" v="VT"/>
    <tag k="ref:vcgi:esiteid" v="189020"/>
  </node>
  <node id="-249" visible="true" lat="44.27519143" lon="-72.42424786">
    <tag k="addr:city" v="Plainfield"/>
    <tag k="addr:housenumber" v="42"/>
    <tag k="addr:street" v="Brook Road"/>
    <tag k="addr:state" v="VT"/>
    <tag k="ref:vcgi:esiteid" v="189021"/>
  </node>
  <node id="-250" visible="true" lat="44.27511802" lon="-72.4316239">
    <tag k="addr:city" v="Plainfield"/>
    <tag k="addr:housenumber" v="179"/>
    <tag k="addr:street" v="Martin Meadow Road"/>
    <tag k="addr:state" v="VT"/>
    <tag k="ref:vcgi:esiteid" v="189022"/>
  </node>
  <node id="-251" visible="true" lat="44.27540473" lon="-72.42310674">
    <tag k="addr:city" v="Plainfield"/>
    <tag k="addr:housenumber" v="99"/>
    <tag k="addr:street" v="Brook Road"/>
    <tag k="addr:state" v="VT"/>
    <tag k="ref:vcgi:esiteid" v="189023"/>
  </node>
  <node id="-252" visible="true" lat="44.27517891" lon="-72.43055506">
    <tag k="addr:city" v="Plainfield"/>
    <tag k="addr:housenumber" v="133"/>
    <tag k="addr:street" v="Martin Meadow Road"/>
    <tag k="addr:state" v="VT"/>
    <tag k="ref:vcgi:esiteid" v="189024"/>
  </node>
  <node id="-253" visible="true" lat="44.27531415" lon="-72.42175818">
    <tag k="addr:city" v="Plainfield"/>
    <tag k="addr:housenumber" v="135"/>
    <tag k="addr:street" v="Creamery Street"/>
    <tag k="addr:state" v="VT"/>
    <tag k="ref:vcgi:esiteid" v="189025"/>
  </node>
  <node id="-254" visible="true" lat="44.27499502" lon="-72.42311215">
    <tag k="addr:city" v="Plainfield"/>
    <tag k="addr:housenumber" v="100"/>
    <tag k="addr:street" v="Brook Road"/>
    <tag k="addr:state" v="VT"/>
    <tag k="ref:vcgi:esiteid" v="189026"/>
  </node>
  <node id="-255" visible="true" lat="44.27511215" lon="-72.42247009">
    <tag k="addr:city" v="Plainfield"/>
    <tag k="addr:housenumber" v="175"/>
    <tag k="addr:street" v="Creamery Street"/>
    <tag k="addr:state" v="VT"/>
    <tag k="ref:vcgi:esiteid" v="189027"/>
  </node>
  <node id="-256" visible="true" lat="44.27521308" lon="-72.4239408">
    <tag k="addr:city" v="Plainfield"/>
    <tag k="addr:housenumber" v="60"/>
    <tag k="addr:street" v="Brook Road"/>
    <tag k="addr:state" v="VT"/>
    <tag k="ref:vcgi:esiteid" v="189028"/>
  </node>
  <node id="-257" visible="true" lat="44.27497017" lon="-72.43129521">
    <tag k="addr:city" v="Plainfield"/>
    <tag k="addr:housenumber" v="163"/>
    <tag k="addr:street" v="Martin Meadow Road"/>
    <tag k="addr:state" v="VT"/>
    <tag k="ref:vcgi:esiteid" v="189029"/>
  </node>
  <node id="-259" visible="true" lat="44.27489471" lon="-72.42290496">
    <tag k="addr:city" v="Plainfield"/>
    <tag k="addr:housenumber" v="118"/>
    <tag k="addr:street" v="Brook Road"/>
    <tag k="addr:state" v="VT"/>
    <tag k="ref:vcgi:esiteid" v="189032"/>
  </node>
  <node id="-261" visible="true" lat="44.27452943" lon="-72.42495181">
    <tag k="addr:city" v="Plainfield"/>
    <tag k="addr:housenumber" v="70"/>
    <tag k="addr:street" v="Barre Hill"/>
    <tag k="addr:state" v="VT"/>
    <tag k="ref:vcgi:esiteid" v="189034"/>
  </node>
  <node id="-262" visible="true" lat="44.27436057" lon="-72.42446009">
    <tag k="addr:city" v="Plainfield"/>
    <tag k="addr:housenumber" v="79"/>
    <tag k="addr:street" v="Barre Hill"/>
    <tag k="addr:state" v="VT"/>
    <tag k="ref:vcgi:esiteid" v="189035"/>
  </node>
  <node id="-264" visible="true" lat="44.27379989" lon="-72.42404937">
    <tag k="addr:city" v="Plainfield"/>
    <tag k="addr:housenumber" v="125"/>
    <tag k="addr:street" v="Barre Hill"/>
    <tag k="addr:state" v="VT"/>
    <tag k="ref:vcgi:esiteid" v="189037"/>
  </node>
  <node id="-268" visible="true" lat="44.27306747" lon="-72.42449188">
    <tag k="addr:city" v="Plainfield"/>
    <tag k="addr:housenumber" v="169"/>
    <tag k="addr:street" v="Barre Hill"/>
    <tag k="addr:state" v="VT"/>
    <tag k="ref:vcgi:esiteid" v="189041"/>
  </node>
  <node id="-269" visible="true" lat="44.27272415" lon="-72.42433929">
    <tag k="addr:city" v="Plainfield"/>
    <tag k="addr:housenumber" v="193"/>
    <tag k="addr:street" v="Barre Hill"/>
    <tag k="addr:state" v="VT"/>
    <tag k="ref:vcgi:esiteid" v="189042"/>
  </node>
  <node id="-271" visible="true" lat="44.27243667" lon="-72.41772304">
    <tag k="addr:city" v="Plainfield"/>
    <tag k="addr:housenumber" v="99"/>
    <tag k="addr:street" v="Cameron Road"/>
    <tag k="addr:state" v="VT"/>
    <tag k="ref:vcgi:esiteid" v="189044"/>
  </node>
  <node id="-274" visible="true" lat="44.2719078" lon="-72.41239166">
    <tag k="addr:city" v="Plainfield"/>
    <tag k="addr:housenumber" v="435"/>
    <tag k="addr:street" v="East Hill Road"/>
    <tag k="addr:state" v="VT"/>
    <tag k="ref:vcgi:esiteid" v="189047"/>
  </node>
  <node id="-275" visible="true" lat="44.27174113" lon="-72.41833667">
    <tag k="addr:city" v="Plainfield"/>
    <tag k="addr:housenumber" v="86"/>
    <tag k="addr:street" v="Cameron Road"/>
    <tag k="addr:state" v="VT"/>
    <tag k="ref:vcgi:esiteid" v="189048"/>
  </node>
  <node id="-276" visible="true" lat="44.2716484" lon="-72.4099121">
    <tag k="addr:city" v="Plainfield"/>
    <tag k="addr:housenumber" v="557"/>
    <tag k="addr:street" v="East Hill Road"/>
    <tag k="addr:state" v="VT"/>
    <tag k="ref:vcgi:esiteid" v="189049"/>
  </node>
  <node id="-277" visible="true" lat="44.27157592" lon="-72.42577362">
    <tag k="addr:city" v="Plainfield"/>
    <tag k="addr:housenumber" v="308"/>
    <tag k="addr:street" v="Barre Hill"/>
    <tag k="addr:state" v="VT"/>
    <tag k="ref:vcgi:esiteid" v="189050"/>
  </node>
  <node id="-278" visible="true" lat="44.27155685" lon="-72.42442321">
    <tag k="addr:city" v="Plainfield"/>
    <tag k="addr:housenumber" v="269"/>
    <tag k="addr:street" v="Barre Hill"/>
    <tag k="addr:state" v="VT"/>
    <tag k="ref:vcgi:esiteid" v="189051"/>
  </node>
  <node id="-280" visible="true" lat="44.27112197" lon="-72.40846252">
    <tag k="addr:city" v="Plainfield"/>
    <tag k="addr:housenumber" v="637"/>
    <tag k="addr:street" v="East Hill Road"/>
    <tag k="addr:state" v="VT"/>
    <tag k="ref:vcgi:esiteid" v="189053"/>
  </node>
  <node id="-281" visible="true" lat="44.27090049" lon="-72.41739877">
    <tag k="addr:city" v="Plainfield"/>
    <tag k="addr:housenumber" v="168"/>
    <tag k="addr:street" v="Cameron Road"/>
    <tag k="addr:state" v="VT"/>
    <tag k="ref:vcgi:esiteid" v="189054"/>
  </node>
  <node id="-282" visible="true" lat="44.27058384" lon="-72.41717478">
    <tag k="addr:city" v="Plainfield"/>
    <tag k="addr:housenumber" v="190"/>
    <tag k="addr:street" v="Cameron Road"/>
    <tag k="addr:state" v="VT"/>
    <tag k="ref:vcgi:esiteid" v="189055"/>
  </node>
  <node id="-283" visible="true" lat="44.27063369" lon="-72.42733001">
    <tag k="addr:city" v="Plainfield"/>
    <tag k="addr:housenumber" v="400"/>
    <tag k="addr:street" v="Barre Hill"/>
    <tag k="addr:state" v="VT"/>
    <tag k="ref:vcgi:esiteid" v="189056"/>
  </node>
  <node id="-284" visible="true" lat="44.27059555" lon="-72.42635345">
    <tag k="addr:city" v="Plainfield"/>
    <tag k="addr:housenumber" v="391"/>
    <tag k="addr:street" v="Barre Hill"/>
    <tag k="addr:state" v="VT"/>
    <tag k="ref:vcgi:esiteid" v="189057"/>
  </node>
  <node id="-286" visible="true" lat="44.26970999" lon="-72.41846631">
    <tag k="addr:city" v="Plainfield"/>
    <tag k="addr:housenumber" v="511"/>
    <tag k="addr:street" v="Brook Road"/>
    <tag k="addr:state" v="VT"/>
    <tag k="ref:vcgi:esiteid" v="189059"/>
  </node>
  <node id="-287" visible="true" lat="44.26947784" lon="-72.40489196">
    <tag k="addr:city" v="Plainfield"/>
    <tag k="addr:housenumber" v="858"/>
    <tag k="addr:street" v="East Hill Road"/>
    <tag k="addr:state" v="VT"/>
    <tag k="ref:vcgi:esiteid" v="189060"/>
  </node>
  <node id="-288" visible="true" lat="44.26894378" lon="-72.43002319">
    <tag k="addr:city" v="Plainfield"/>
    <tag k="addr:housenumber" v="134"/>
    <tag k="addr:street" v="Lower Road"/>
    <tag k="addr:state" v="VT"/>
    <tag k="ref:vcgi:esiteid" v="189061"/>
  </node>
  <node id="-289" visible="true" lat="44.26884841" lon="-72.42841339">
    <tag k="addr:city" v="Plainfield"/>
    <tag k="addr:housenumber" v="61"/>
    <tag k="addr:street" v="Lower Road"/>
    <tag k="addr:state" v="VT"/>
    <tag k="ref:vcgi:esiteid" v="189062"/>
  </node>
  <node id="-290" visible="true" lat="44.2684822" lon="-72.4193573">
    <tag k="addr:city" v="Plainfield"/>
    <tag k="addr:housenumber" v="127"/>
    <tag k="addr:street" v="Upper Road"/>
    <tag k="addr:state" v="VT"/>
    <tag k="ref:vcgi:esiteid" v="189063"/>
  </node>
  <node id="-291" visible="true" lat="44.26839446" lon="-72.41781616">
    <tag k="addr:city" v="Plainfield"/>
    <tag k="addr:housenumber" v="652"/>
    <tag k="addr:street" v="Brook Road"/>
    <tag k="addr:state" v="VT"/>
    <tag k="ref:vcgi:esiteid" v="189064"/>
  </node>
  <node id="-292" visible="true" lat="44.26778343" lon="-72.43049428">
    <tag k="addr:city" v="Plainfield"/>
    <tag k="addr:housenumber" v="177"/>
    <tag k="addr:street" v="Lower Road"/>
    <tag k="addr:state" v="VT"/>
    <tag k="ref:vcgi:esiteid" v="189065"/>
  </node>
  <node id="-293" visible="true" lat="44.26750392" lon="-72.40390814">
    <tag k="addr:city" v="Plainfield"/>
    <tag k="addr:housenumber" v="1028"/>
    <tag k="addr:street" v="East Hill Road"/>
    <tag k="addr:state" v="VT"/>
    <tag k="ref:vcgi:esiteid" v="189066"/>
  </node>
  <node id="-294" visible="true" lat="44.26769256" lon="-72.41268157">
    <tag k="addr:city" v="Plainfield"/>
    <tag k="addr:housenumber" v="492"/>
    <tag k="addr:street" v="Cameron Road"/>
    <tag k="addr:state" v="VT"/>
    <tag k="ref:vcgi:esiteid" v="189067"/>
  </node>
  <node id="-295" visible="true" lat="44.2676773" lon="-72.41167449">
    <tag k="addr:city" v="Plainfield"/>
    <tag k="addr:housenumber" v="533"/>
    <tag k="addr:street" v="Cameron Road"/>
    <tag k="addr:state" v="VT"/>
    <tag k="ref:vcgi:esiteid" v="189068"/>
  </node>
  <node id="-296" visible="true" lat="44.26752956" lon="-72.42775497">
    <tag k="addr:city" v="Plainfield"/>
    <tag k="addr:housenumber" v="131"/>
    <tag k="addr:street" v="Middle Road"/>
    <tag k="addr:state" v="VT"/>
    <tag k="ref:vcgi:esiteid" v="189069"/>
  </node>
  <node id="-297" visible="true" lat="44.26755334" lon="-72.4357099">
    <tag k="addr:city" v="Plainfield"/>
    <tag k="addr:housenumber" v="390"/>
    <tag k="addr:street" v="Lower Road"/>
    <tag k="addr:state" v="VT"/>
    <tag k="ref:vcgi:esiteid" v="189070"/>
  </node>
  <node id="-300" visible="true" lat="44.26660749" lon="-72.43243232">
    <tag k="addr:city" v="Plainfield"/>
    <tag k="addr:housenumber" v="259"/>
    <tag k="addr:street" v="Lower Road"/>
    <tag k="addr:state" v="VT"/>
    <tag k="ref:vcgi:esiteid" v="189073"/>
  </node>
  <node id="-302" visible="true" lat="44.26633337" lon="-72.40356607">
    <tag k="addr:city" v="Plainfield"/>
    <tag k="addr:housenumber" v="1094"/>
    <tag k="addr:street" v="East Hill Road"/>
    <tag k="addr:state" v="VT"/>
    <tag k="ref:vcgi:esiteid" v="189075"/>
  </node>
  <node id="-307" visible="true" lat="44.26567938" lon="-72.43638297">
    <tag k="addr:city" v="Plainfield"/>
    <tag k="addr:housenumber" v="535"/>
    <tag k="addr:street" v="Lower Road"/>
    <tag k="addr:state" v="VT"/>
    <tag k="ref:vcgi:esiteid" v="189080"/>
  </node>
  <node id="-310" visible="true" lat="44.26488215" lon="-72.43882691">
    <tag k="addr:city" v="Plainfield"/>
    <tag k="addr:housenumber" v="645"/>
    <tag k="addr:street" v="Lower Road"/>
    <tag k="addr:state" v="VT"/>
    <tag k="ref:vcgi:esiteid" v="189083"/>
  </node>
  <node id="-312" visible="true" lat="44.26468276" lon="-72.4122467">
    <tag k="addr:city" v="Plainfield"/>
    <tag k="addr:housenumber" v="1034"/>
    <tag k="addr:street" v="Brook Road"/>
    <tag k="addr:state" v="VT"/>
    <tag k="ref:vcgi:esiteid" v="189085"/>
  </node>
  <node id="-314" visible="true" lat="44.26408655" lon="-72.44143905">
    <tag k="addr:city" v="Plainfield"/>
    <tag k="addr:housenumber" v="806"/>
    <tag k="addr:street" v="Lower Road"/>
    <tag k="addr:state" v="VT"/>
    <tag k="ref:vcgi:esiteid" v="189087"/>
  </node>
  <node id="-318" visible="true" lat="44.26358795" lon="-72.394104">
    <tag k="addr:city" v="Plainfield"/>
    <tag k="addr:housenumber" v="220"/>
    <tag k="addr:street" v="Batchelder Road"/>
    <tag k="addr:state" v="VT"/>
    <tag k="ref:vcgi:esiteid" v="189091"/>
  </node>
  <node id="-320" visible="true" lat="44.26299667" lon="-72.44207763">
    <tag k="addr:city" v="Plainfield"/>
    <tag k="addr:housenumber" v="863"/>
    <tag k="addr:street" v="Lower Road"/>
    <tag k="addr:state" v="VT"/>
    <tag k="ref:vcgi:esiteid" v="189093"/>
  </node>
  <node id="-322" visible="true" lat="44.262928" lon="-72.40235137">
    <tag k="addr:city" v="Plainfield"/>
    <tag k="addr:housenumber" v="1350"/>
    <tag k="addr:street" v="East Hill Road"/>
    <tag k="addr:state" v="VT"/>
    <tag k="ref:vcgi:esiteid" v="189095"/>
  </node>
  <node id="-323" visible="true" lat="44.26254272" lon="-72.41072845">
    <tag k="addr:city" v="Plainfield"/>
    <tag k="addr:housenumber" v="1175"/>
    <tag k="addr:street" v="Brook Road"/>
    <tag k="addr:state" v="VT"/>
    <tag k="ref:vcgi:esiteid" v="189096"/>
  </node>
  <node id="-329" visible="true" lat="44.26101219" lon="-72.38985155">
    <tag k="addr:city" v="Plainfield"/>
    <tag k="addr:housenumber" v="162"/>
    <tag k="addr:street" v="Katuah Road"/>
    <tag k="addr:state" v="VT"/>
    <tag k="ref:vcgi:esiteid" v="189102"/>
  </node>
  <node id="-330" visible="true" lat="44.2609291" lon="-72.39810943">
    <tag k="addr:city" v="Plainfield"/>
    <tag k="addr:housenumber" v="1628"/>
    <tag k="addr:street" v="East Hill Road"/>
    <tag k="addr:state" v="VT"/>
    <tag k="ref:vcgi:esiteid" v="189103"/>
  </node>
  <node id="-331" visible="true" lat="44.26094619" lon="-72.39163196">
    <tag k="addr:city" v="Plainfield"/>
    <tag k="addr:housenumber" v="61"/>
    <tag k="addr:street" v="Katuah Road"/>
    <tag k="addr:state" v="VT"/>
    <tag k="ref:vcgi:esiteid" v="189104"/>
  </node>
  <node id="-332" visible="true" lat="44.26033782" lon="-72.4103012">
    <tag k="addr:city" v="Plainfield"/>
    <tag k="addr:housenumber" v="1333"/>
    <tag k="addr:street" v="Brook Road"/>
    <tag k="addr:state" v="VT"/>
    <tag k="ref:vcgi:esiteid" v="189105"/>
  </node>
  <node id="-335" visible="true" lat="44.26025225" lon="-72.39152851">
    <tag k="addr:city" v="Plainfield"/>
    <tag k="addr:housenumber" v="1911"/>
    <tag k="addr:street" v="East Hill Road"/>
    <tag k="addr:state" v="VT"/>
    <tag k="ref:vcgi:esiteid" v="189108"/>
  </node>
  <node id="-339" visible="true" lat="44.25935264" lon="-72.44012372">
    <tag k="addr:city" v="Plainfield"/>
    <tag k="addr:housenumber" v="1061"/>
    <tag k="addr:street" v="Lower Road"/>
    <tag k="addr:state" v="VT"/>
    <tag k="ref:vcgi:esiteid" v="189112"/>
  </node>
  <node id="-343" visible="true" lat="44.25838943" lon="-72.3712301">
    <tag k="addr:city" v="Plainfield"/>
    <tag k="addr:housenumber" v="1671"/>
    <tag k="addr:street" v="Bean Road"/>
    <tag k="addr:state" v="VT"/>
    <tag k="ref:vcgi:esiteid" v="189116"/>
  </node>
  <node id="-344" visible="true" lat="44.25844955" lon="-72.39220428">
    <tag k="addr:city" v="Plainfield"/>
    <tag k="addr:housenumber" v="1998"/>
    <tag k="addr:street" v="East Hill Road"/>
    <tag k="addr:state" v="VT"/>
    <tag k="ref:vcgi:esiteid" v="189117"/>
  </node>
  <node id="-348" visible="true" lat="44.2578506" lon="-72.39127181">
    <tag k="addr:city" v="Plainfield"/>
    <tag k="addr:housenumber" v="2053"/>
    <tag k="addr:street" v="East Hill Road"/>
    <tag k="addr:state" v="VT"/>
    <tag k="ref:vcgi:esiteid" v="189121"/>
  </node>
  <node id="-350" visible="true" lat="44.25716018" lon="-72.44335174">
    <tag k="addr:city" v="Plainfield"/>
    <tag k="addr:housenumber" v="1263"/>
    <tag k="addr:street" v="Lower Road"/>
    <tag k="addr:state" v="VT"/>
    <tag k="ref:vcgi:esiteid" v="189123"/>
  </node>
  <node id="-352" visible="true" lat="44.25712676" lon="-72.44440721">
    <tag k="addr:city" v="Plainfield"/>
    <tag k="addr:housenumber" v="1298"/>
    <tag k="addr:street" v="Lower Road"/>
    <tag k="addr:state" v="VT"/>
    <tag k="ref:vcgi:esiteid" v="189125"/>
  </node>
  <node id="-353" visible="true" lat="44.25701522" lon="-72.37172698">
    <tag k="addr:city" v="Plainfield"/>
    <tag k="addr:housenumber" v="1603"/>
    <tag k="addr:street" v="Bean Road"/>
    <tag k="addr:state" v="VT"/>
    <tag k="ref:vcgi:esiteid" v="189126"/>
  </node>
  <node id="-354" visible="true" lat="44.25667572" lon="-72.39099121">
    <tag k="addr:city" v="Plainfield"/>
    <tag k="addr:housenumber" v="2129"/>
    <tag k="addr:street" v="East Hill Road"/>
    <tag k="addr:state" v="VT"/>
    <tag k="ref:vcgi:esiteid" v="189127"/>
  </node>
  <node id="-355" visible="true" lat="44.25651798" lon="-72.38928044">
    <tag k="addr:city" v="Plainfield"/>
    <tag k="addr:housenumber" v="2099"/>
    <tag k="addr:street" v="East Hill Road"/>
    <tag k="addr:state" v="VT"/>
    <tag k="ref:vcgi:esiteid" v="189128"/>
  </node>
  <node id="-357" visible="true" lat="44.25668402" lon="-72.44446992">
    <tag k="addr:city" v="Plainfield"/>
    <tag k="addr:housenumber" v="1368"/>
    <tag k="addr:street" v="Lower Road"/>
    <tag k="addr:state" v="VT"/>
    <tag k="ref:vcgi:esiteid" v="189130"/>
  </node>
  <node id="-360" visible="true" lat="44.25638648" lon="-72.40935036">
    <tag k="addr:city" v="Plainfield"/>
    <tag k="addr:housenumber" v="149"/>
    <tag k="addr:street" v="Fowler Road"/>
    <tag k="addr:state" v="VT"/>
    <tag k="ref:vcgi:esiteid" v="189133"/>
  </node>
  <node id="-361" visible="true" lat="44.25607978" lon="-72.40801435">
    <tag k="addr:city" v="Plainfield"/>
    <tag k="addr:housenumber" v="185"/>
    <tag k="addr:street" v="Fowler Road"/>
    <tag k="addr:state" v="VT"/>
    <tag k="ref:vcgi:esiteid" v="189134"/>
  </node>
  <node id="-362" visible="true" lat="44.25611811" lon="-72.40861773">
    <tag k="addr:city" v="Plainfield"/>
    <tag k="addr:housenumber" v="183"/>
    <tag k="addr:street" v="Fowler Road"/>
    <tag k="addr:state" v="VT"/>
    <tag k="ref:vcgi:esiteid" v="189135"/>
  </node>
  <node id="-365" visible="true" lat="44.25567245" lon="-72.39002227">
    <tag k="addr:city" v="Plainfield"/>
    <tag k="addr:housenumber" v="2197"/>
    <tag k="addr:street" v="East Hill Road"/>
    <tag k="addr:state" v="VT"/>
    <tag k="ref:vcgi:esiteid" v="189138"/>
  </node>
  <node id="-369" visible="true" lat="44.25514984" lon="-72.41002655">
    <tag k="addr:city" v="Plainfield"/>
    <tag k="addr:housenumber" v="1735"/>
    <tag k="addr:street" v="Brook Road"/>
    <tag k="addr:state" v="VT"/>
    <tag k="ref:vcgi:esiteid" v="189142"/>
  </node>
  <node id="-371" visible="true" lat="44.2546463" lon="-72.40714263">
    <tag k="addr:city" v="Plainfield"/>
    <tag k="addr:housenumber" v="299"/>
    <tag k="addr:street" v="Fowler Road"/>
    <tag k="addr:state" v="VT"/>
    <tag k="ref:vcgi:esiteid" v="189144"/>
  </node>
  <node id="-373" visible="true" lat="44.25424575" lon="-72.40704345">
    <tag k="addr:city" v="Plainfield"/>
    <tag k="addr:housenumber" v="324"/>
    <tag k="addr:street" v="Fowler Road"/>
    <tag k="addr:state" v="VT"/>
    <tag k="ref:vcgi:esiteid" v="189146"/>
  </node>
  <node id="-378" visible="true" lat="44.25313186" lon="-72.39071655">
    <tag k="addr:city" v="Plainfield"/>
    <tag k="addr:housenumber" v="2372"/>
    <tag k="addr:street" v="East Hill Road"/>
    <tag k="addr:state" v="VT"/>
    <tag k="ref:vcgi:esiteid" v="189151"/>
  </node>
  <node id="-380" visible="true" lat="44.25294876" lon="-72.40528869">
    <tag k="addr:city" v="Plainfield"/>
    <tag k="addr:housenumber" v="445"/>
    <tag k="addr:street" v="Fowler Road"/>
    <tag k="addr:state" v="VT"/>
    <tag k="ref:vcgi:esiteid" v="189153"/>
  </node>
  <node id="-382" visible="true" lat="44.25274276" lon="-72.39093017">
    <tag k="addr:city" v="Plainfield"/>
    <tag k="addr:housenumber" v="2398"/>
    <tag k="addr:street" v="East Hill Road"/>
    <tag k="addr:state" v="VT"/>
    <tag k="ref:vcgi:esiteid" v="189155"/>
  </node>
  <node id="-385" visible="true" lat="44.2521553" lon="-72.38350677">
    <tag k="addr:city" v="Plainfield"/>
    <tag k="addr:housenumber" v="458"/>
    <tag k="addr:street" v="Woodcock Road"/>
    <tag k="addr:state" v="VT"/>
    <tag k="ref:vcgi:esiteid" v="189158"/>
  </node>
  <node id="-387" visible="true" lat="44.2517395" lon="-72.40472412">
    <tag k="addr:city" v="Plainfield"/>
    <tag k="addr:housenumber" v="532"/>
    <tag k="addr:street" v="Fowler Road"/>
    <tag k="addr:state" v="VT"/>
    <tag k="ref:vcgi:esiteid" v="189160"/>
  </node>
  <node id="-389" visible="true" lat="44.25104141" lon="-72.38523864">
    <tag k="addr:city" v="Plainfield"/>
    <tag k="addr:housenumber" v="311"/>
    <tag k="addr:street" v="Woodcock Road"/>
    <tag k="addr:state" v="VT"/>
    <tag k="ref:vcgi:esiteid" v="189162"/>
  </node>
  <node id="-414" visible="true" lat="44.24693679" lon="-72.39409637">
    <tag k="addr:city" v="Plainfield"/>
    <tag k="addr:housenumber" v="1199"/>
    <tag k="addr:street" v="Fowler Road"/>
    <tag k="addr:state" v="VT"/>
    <tag k="ref:vcgi:esiteid" v="189187"/>
  </node>
  <node id="-417" visible="true" lat="44.24655151" lon="-72.39063262">
    <tag k="addr:city" v="Plainfield"/>
    <tag k="addr:housenumber" v="2832"/>
    <tag k="addr:street" v="East Hill Road"/>
    <tag k="addr:state" v="VT"/>
    <tag k="ref:vcgi:esiteid" v="189190"/>
  </node>
  <node id="-423" visible="true" lat="44.24518966" lon="-72.39471435">
    <tag k="addr:city" v="Plainfield"/>
    <tag k="addr:housenumber" v="1273"/>
    <tag k="addr:street" v="Fowler Road"/>
    <tag k="addr:state" v="VT"/>
    <tag k="ref:vcgi:esiteid" v="189196"/>
  </node>
  <node id="-426" visible="true" lat="44.24446232" lon="-72.39259292">
    <tag k="addr:city" v="Plainfield"/>
    <tag k="addr:housenumber" v="1321"/>
    <tag k="addr:street" v="Fowler Road"/>
    <tag k="addr:state" v="VT"/>
    <tag k="ref:vcgi:esiteid" v="189199"/>
  </node>
  <node id="-429" visible="true" lat="44.24449893" lon="-72.3841303">
    <tag k="addr:city" v="Plainfield"/>
    <tag k="addr:housenumber" v="320"/>
    <tag k="addr:street" v="Bean Road"/>
    <tag k="addr:state" v="VT"/>
    <tag k="ref:vcgi:esiteid" v="189202"/>
  </node>
  <node id="-431" visible="true" lat="44.24441033" lon="-72.38822127">
    <tag k="addr:city" v="Plainfield"/>
    <tag k="addr:housenumber" v="125"/>
    <tag k="addr:street" v="Bean Road"/>
    <tag k="addr:state" v="VT"/>
    <tag k="ref:vcgi:esiteid" v="189204"/>
  </node>
  <node id="-433" visible="true" lat="44.24397223" lon="-72.39092334">
    <tag k="addr:city" v="Plainfield"/>
    <tag k="addr:housenumber" v="2994"/>
    <tag k="addr:street" v="East Hill Road"/>
    <tag k="addr:state" v="VT"/>
    <tag k="ref:vcgi:esiteid" v="189206"/>
  </node>
  <node id="-436" visible="true" lat="44.24405055" lon="-72.38902262">
    <tag k="addr:city" v="Plainfield"/>
    <tag k="addr:housenumber" v="81"/>
    <tag k="addr:street" v="Bean Road"/>
    <tag k="addr:state" v="VT"/>
    <tag k="ref:vcgi:esiteid" v="189209"/>
  </node>
  <node id="-437" visible="true" lat="44.24385388" lon="-72.38768828">
    <tag k="addr:city" v="Plainfield"/>
    <tag k="addr:housenumber" v="134"/>
    <tag k="addr:street" v="Bean Road"/>
    <tag k="addr:state" v="VT"/>
    <tag k="ref:vcgi:esiteid" v="189210"/>
  </node>
  <node id="-447" visible="true" lat="44.24235534" lon="-72.39144897">
    <tag k="addr:city" v="Plainfield"/>
    <tag k="addr:housenumber" v="3084"/>
    <tag k="addr:street" v="East Hill Road"/>
    <tag k="addr:state" v="VT"/>
    <tag k="ref:vcgi:esiteid" v="189220"/>
  </node>
  <node id="-448" visible="true" lat="44.24249943" lon="-72.38934572">
    <tag k="addr:city" v="Plainfield"/>
    <tag k="addr:housenumber" v="3135"/>
    <tag k="addr:street" v="East Hill Road"/>
    <tag k="addr:state" v="VT"/>
    <tag k="ref:vcgi:esiteid" v="189221"/>
  </node>
  <node id="-457" visible="true" lat="44.2410736" lon="-72.38870239">
    <tag k="addr:city" v="Plainfield"/>
    <tag k="addr:housenumber" v="3235"/>
    <tag k="addr:street" v="East Hill Road"/>
    <tag k="addr:state" v="VT"/>
    <tag k="ref:vcgi:esiteid" v="189230"/>
  </node>
  <node id="-460" visible="true" lat="44.24052047" lon="-72.38887786">
    <tag k="addr:city" v="Plainfield"/>
    <tag k="addr:housenumber" v="3291"/>
    <tag k="addr:street" v="East Hill Road"/>
    <tag k="addr:state" v="VT"/>
    <tag k="ref:vcgi:esiteid" v="189233"/>
  </node>
  <node id="-464" visible="true" lat="44.24008941" lon="-72.38884735">
    <tag k="addr:city" v="Plainfield"/>
    <tag k="addr:housenumber" v="3293"/>
    <tag k="addr:street" v="East Hill Road"/>
    <tag k="addr:state" v="VT"/>
    <tag k="ref:vcgi:esiteid" v="189237"/>
  </node>
  <node id="-471" visible="true" lat="44.23838424" lon="-72.39033508">
    <tag k="addr:city" v="Plainfield"/>
    <tag k="addr:housenumber" v="3409"/>
    <tag k="addr:street" v="East Hill Road"/>
    <tag k="addr:state" v="VT"/>
    <tag k="ref:vcgi:esiteid" v="189244"/>
  </node>
  <node id="-480" visible="true" lat="44.23753356" lon="-72.3918457">
    <tag k="addr:city" v="Plainfield"/>
    <tag k="addr:housenumber" v="3496"/>
    <tag k="addr:street" v="East Hill Road"/>
    <tag k="addr:state" v="VT"/>
    <tag k="ref:vcgi:esiteid" v="189253"/>
  </node>
  <node id="-481" visible="true" lat="44.23735046" lon="-72.39133453">
    <tag k="addr:city" v="Plainfield"/>
    <tag k="addr:housenumber" v="3499"/>
    <tag k="addr:street" v="East Hill Road"/>
    <tag k="addr:state" v="VT"/>
    <tag k="ref:vcgi:esiteid" v="189254"/>
  </node>
  <node id="-489" visible="true" lat="44.23597335" lon="-72.39243316">
    <tag k="addr:city" v="Plainfield"/>
    <tag k="addr:housenumber" v="3606"/>
    <tag k="addr:street" v="East Hill Road"/>
    <tag k="addr:state" v="VT"/>
    <tag k="ref:vcgi:esiteid" v="189262"/>
  </node>
  <node id="-495" visible="true" lat="44.23495455" lon="-72.39225631">
    <tag k="addr:city" v="Plainfield"/>
    <tag k="addr:housenumber" v="3669"/>
    <tag k="addr:street" v="East Hill Road"/>
    <tag k="addr:state" v="VT"/>
    <tag k="ref:vcgi:esiteid" v="189268"/>
  </node>
  <node id="-498" visible="true" lat="44.23445892" lon="-72.39356994">
    <tag k="addr:city" v="Plainfield"/>
    <tag k="addr:housenumber" v="3742"/>
    <tag k="addr:street" v="East Hill Road"/>
    <tag k="addr:state" v="VT"/>
    <tag k="ref:vcgi:esiteid" v="189271"/>
  </node>
  <node id="-504" visible="true" lat="44.23311636" lon="-72.39329627">
    <tag k="addr:city" v="Plainfield"/>
    <tag k="addr:housenumber" v="3809"/>
    <tag k="addr:street" v="East Hill Road"/>
    <tag k="addr:state" v="VT"/>
    <tag k="ref:vcgi:esiteid" v="189277"/>
  </node>
  <node id="-510" visible="true" lat="44.2328102" lon="-72.47229749">
    <tag k="addr:city" v="Plainfield"/>
    <tag k="addr:housenumber" v="3277"/>
    <tag k="addr:street" v="Country Club Road"/>
    <tag k="addr:state" v="VT"/>
    <tag k="ref:vcgi:esiteid" v="189283"/>
  </node>
  <node id="-520" visible="true" lat="44.23114486" lon="-72.39595293">
    <tag k="addr:city" v="Plainfield"/>
    <tag k="addr:housenumber" v="3956"/>
    <tag k="addr:street" v="East Hill Road"/>
    <tag k="addr:state" v="VT"/>
    <tag k="ref:vcgi:esiteid" v="189293"/>
  </node>
  <node id="-522" visible="true" lat="44.23073959" lon="-72.45600891">
    <tag k="addr:city" v="Plainfield"/>
    <tag k="addr:housenumber" v="3194"/>
    <tag k="addr:street" v="Middle Road"/>
    <tag k="addr:state" v="VT"/>
    <tag k="ref:vcgi:esiteid" v="189295"/>
  </node>
  <node id="-524" visible="true" lat="44.23044917" lon="-72.44056848">
    <tag k="addr:city" v="Plainfield"/>
    <tag k="addr:housenumber" v="560"/>
    <tag k="addr:street" v="Gonyeau Road"/>
    <tag k="addr:state" v="VT"/>
    <tag k="ref:vcgi:esiteid" v="189297"/>
  </node>
  <node id="-527" visible="true" lat="44.22968687" lon="-72.39549071">
    <tag k="addr:city" v="Plainfield"/>
    <tag k="addr:housenumber" v="4095"/>
    <tag k="addr:street" v="East Hill Road"/>
    <tag k="addr:state" v="VT"/>
    <tag k="ref:vcgi:esiteid" v="189300"/>
  </node>
  <node id="-528" visible="true" lat="44.22962168" lon="-72.43904646">
    <tag k="addr:city" v="Plainfield"/>
    <tag k="addr:housenumber" v="3156"/>
    <tag k="addr:street" v="Upper Road"/>
    <tag k="addr:state" v="VT"/>
    <tag k="ref:vcgi:esiteid" v="189301"/>
  </node>
  <node id="-532" visible="true" lat="44.22882651" lon="-72.4397279">
    <tag k="addr:city" v="Plainfield"/>
    <tag k="addr:housenumber" v="3240"/>
    <tag k="addr:street" v="Upper Road"/>
    <tag k="addr:state" v="VT"/>
    <tag k="ref:vcgi:esiteid" v="189305"/>
  </node>
  <node id="-535" visible="true" lat="44.22802769" lon="-72.44055891">
    <tag k="addr:city" v="Plainfield"/>
    <tag k="addr:housenumber" v="3276"/>
    <tag k="addr:street" v="Upper Road"/>
    <tag k="addr:state" v="VT"/>
    <tag k="ref:vcgi:esiteid" v="189308"/>
  </node>
  <node id="-538" visible="true" lat="44.22735591" lon="-72.39922828">
    <tag k="addr:city" v="Plainfield"/>
    <tag k="addr:housenumber" v="4304"/>
    <tag k="addr:street" v="East Hill Road"/>
    <tag k="addr:state" v="VT"/>
    <tag k="ref:vcgi:esiteid" v="189311"/>
  </node>
  <node id="-539" visible="true" lat="44.2273207" lon="-72.44052397">
    <tag k="addr:city" v="Plainfield"/>
    <tag k="addr:housenumber" v="3330"/>
    <tag k="addr:street" v="Upper Road"/>
    <tag k="addr:state" v="VT"/>
    <tag k="ref:vcgi:esiteid" v="189312"/>
  </node>
  <node id="-540" visible="true" lat="44.22566165" lon="-72.43690002">
    <tag k="addr:city" v="Plainfield"/>
    <tag k="addr:housenumber" v="3361"/>
    <tag k="addr:street" v="Upper Road"/>
    <tag k="addr:state" v="VT"/>
    <tag k="ref:vcgi:esiteid" v="189313"/>
  </node>
  <node id="-541" visible="true" lat="44.22372482" lon="-72.39988635">
    <tag k="addr:city" v="Plainfield"/>
    <tag k="addr:housenumber" v="4127"/>
    <tag k="addr:street" v="Brook Road"/>
    <tag k="addr:state" v="VT"/>
    <tag k="ref:vcgi:esiteid" v="189314"/>
  </node>
  <node id="-542" visible="true" lat="44.22172164" lon="-72.39849853">
    <tag k="addr:city" v="Plainfield"/>
    <tag k="addr:housenumber" v="4247"/>
    <tag k="addr:street" v="Brook Road"/>
    <tag k="addr:state" v="VT"/>
    <tag k="ref:vcgi:esiteid" v="189315"/>
  </node>
  <node id="-543" visible="true" lat="44.22141647" lon="-72.4006195">
    <tag k="addr:city" v="Plainfield"/>
    <tag k="addr:housenumber" v="94"/>
    <tag k="addr:street" v="Maxfield Road"/>
    <tag k="addr:state" v="VT"/>
    <tag k="ref:vcgi:esiteid" v="189316"/>
  </node>
  <node id="-544" visible="true" lat="44.22106552" lon="-72.39849853">
    <tag k="addr:city" v="Plainfield"/>
    <tag k="addr:housenumber" v="4263"/>
    <tag k="addr:street" v="Brook Road"/>
    <tag k="addr:state" v="VT"/>
    <tag k="ref:vcgi:esiteid" v="189317"/>
  </node>
  <node id="-545" visible="true" lat="44.22114985" lon="-72.39446879">
    <tag k="addr:city" v="Plainfield"/>
    <tag k="addr:housenumber" v="171"/>
    <tag k="addr:street" v="Gore Road"/>
    <tag k="addr:state" v="VT"/>
    <tag k="ref:vcgi:esiteid" v="189318"/>
  </node>
  <node id="-546" visible="true" lat="44.22074529" lon="-72.39681309">
    <tag k="addr:city" v="Plainfield"/>
    <tag k="addr:housenumber" v="93"/>
    <tag k="addr:street" v="Gore Road"/>
    <tag k="addr:state" v="VT"/>
    <tag k="ref:vcgi:esiteid" v="189319"/>
  </node>
  <node id="-547" visible="true" lat="44.22044929" lon="-72.3987051">
    <tag k="addr:city" v="Plainfield"/>
    <tag k="addr:housenumber" v="4308"/>
    <tag k="addr:street" v="Brook Road"/>
    <tag k="addr:state" v="VT"/>
    <tag k="ref:vcgi:esiteid" v="189320"/>
  </node>
  <node id="-548" visible="true" lat="44.22032165" lon="-72.39598083">
    <tag k="addr:city" v="Plainfield"/>
    <tag k="addr:housenumber" v="133"/>
    <tag k="addr:street" v="Gore Road"/>
    <tag k="addr:state" v="VT"/>
    <tag k="ref:vcgi:esiteid" v="189321"/>
  </node>
  <node id="-549" visible="true" lat="44.21943373" lon="-72.39380747">
    <tag k="addr:city" v="Plainfield"/>
    <tag k="addr:housenumber" v="231"/>
    <tag k="addr:street" v="Gore Road"/>
    <tag k="addr:state" v="VT"/>
    <tag k="ref:vcgi:esiteid" v="189322"/>
  </node>
  <node id="-550" visible="true" lat="44.21978406" lon="-72.38823087">
    <tag k="addr:city" v="Plainfield"/>
    <tag k="addr:housenumber" v="401"/>
    <tag k="addr:street" v="Gore Road"/>
    <tag k="addr:state" v="VT"/>
    <tag k="ref:vcgi:esiteid" v="189323"/>
  </node>
  <node id="-551" visible="true" lat="44.21906431" lon="-72.39681897">
    <tag k="addr:city" v="Plainfield"/>
    <tag k="addr:housenumber" v="120"/>
    <tag k="addr:street" v="Gore Road"/>
    <tag k="addr:state" v="VT"/>
    <tag k="ref:vcgi:esiteid" v="189324"/>
  </node>
  <node id="-552" visible="true" lat="44.21845235" lon="-72.40289925">
    <tag k="addr:city" v="Plainfield"/>
    <tag k="addr:housenumber" v="312"/>
    <tag k="addr:street" v="Maxfield Road"/>
    <tag k="addr:state" v="VT"/>
    <tag k="ref:vcgi:esiteid" v="189325"/>
  </node>
  <node id="-553" visible="true" lat="44.21759701" lon="-72.39154461">
    <tag k="addr:city" v="Plainfield"/>
    <tag k="addr:housenumber" v="399"/>
    <tag k="addr:street" v="Gore Road"/>
    <tag k="addr:state" v="VT"/>
    <tag k="ref:vcgi:esiteid" v="189326"/>
  </node>
  <node id="-554" visible="true" lat="44.21764373" lon="-72.39226531">
    <tag k="addr:city" v="Plainfield"/>
    <tag k="addr:housenumber" v="388"/>
    <tag k="addr:street" v="Gore Road"/>
    <tag k="addr:state" v="VT"/>
    <tag k="ref:vcgi:esiteid" v="189327"/>
  </node>
  <node id="-561" visible="true" lat="44.27736919" lon="-72.4245603">
    <tag k="addr:city" v="Plainfield"/>
    <tag k="addr:housenumber" v="13"/>
    <tag k="addr:street" v="Mill Street"/>
    <tag k="addr:state" v="VT"/>
    <tag k="ref:vcgi:esiteid" v="189334"/>
  </node>
  <node id="-562" visible="true" lat="44.27714283" lon="-72.4248885">
    <tag k="addr:city" v="Plainfield"/>
    <tag k="addr:housenumber" v="35"/>
    <tag k="addr:street" v="Mill Street"/>
    <tag k="addr:state" v="VT"/>
    <tag k="ref:vcgi:esiteid" v="189335"/>
  </node>
  <node id="-563" visible="true" lat="44.27821412" lon="-72.42492217">
    <tag k="addr:city" v="Plainfield"/>
    <tag k="addr:housenumber" v="38"/>
    <tag k="addr:street" v="School Street"/>
    <tag k="addr:state" v="VT"/>
    <tag k="ref:vcgi:esiteid" v="189337"/>
  </node>
  <node id="-564" visible="true" lat="44.27803811" lon="-72.4229305">
    <tag k="addr:city" v="Plainfield"/>
    <tag k="addr:housenumber" v="153"/>
    <tag k="addr:street" v="Main Street"/>
    <tag k="addr:state" v="VT"/>
    <tag k="ref:vcgi:esiteid" v="189338"/>
  </node>
  <node id="-565" visible="true" lat="44.27784859" lon="-72.42330634">
    <tag k="addr:city" v="Plainfield"/>
    <tag k="addr:housenumber" v="127"/>
    <tag k="addr:street" v="Main Street"/>
    <tag k="addr:state" v="VT"/>
    <tag k="ref:vcgi:esiteid" v="189339"/>
  </node>
  <node id="-566" visible="true" lat="44.2778706" lon="-72.42243074">
    <tag k="addr:city" v="Plainfield"/>
    <tag k="addr:housenumber" v="169"/>
    <tag k="addr:street" v="Main Street"/>
    <tag k="addr:state" v="VT"/>
    <tag k="ref:vcgi:esiteid" v="189340"/>
  </node>
  <node id="-567" visible="true" lat="44.27782495" lon="-72.4230364">
    <tag k="addr:city" v="Plainfield"/>
    <tag k="addr:housenumber" v="139"/>
    <tag k="addr:street" v="Main Street"/>
    <tag k="addr:state" v="VT"/>
    <tag k="ref:vcgi:esiteid" v="189341"/>
  </node>
  <node id="-568" visible="true" lat="44.2778418" lon="-72.4228321">
    <tag k="addr:city" v="Plainfield"/>
    <tag k="addr:housenumber" v="149"/>
    <tag k="addr:street" v="Main Street"/>
    <tag k="addr:state" v="VT"/>
    <tag k="ref:vcgi:esiteid" v="189342"/>
  </node>
  <node id="-569" visible="true" lat="44.27753536" lon="-72.42271238">
    <tag k="addr:city" v="Plainfield"/>
    <tag k="addr:housenumber" v="154"/>
    <tag k="addr:street" v="Main Street"/>
    <tag k="addr:state" v="VT"/>
    <tag k="ref:vcgi:esiteid" v="189343"/>
  </node>
  <node id="-570" visible="true" lat="44.27756341" lon="-72.42255993">
    <tag k="addr:city" v="Plainfield"/>
    <tag k="addr:housenumber" v="162"/>
    <tag k="addr:street" v="Main Street"/>
    <tag k="addr:state" v="VT"/>
    <tag k="ref:vcgi:esiteid" v="189344"/>
  </node>
  <node id="-572" visible="true" lat="44.28020725" lon="-72.43601134">
    <tag k="addr:city" v="Plainfield"/>
    <tag k="addr:housenumber" v="50"/>
    <tag k="addr:street" v="Greenbriar Road"/>
    <tag k="addr:state" v="VT"/>
    <tag k="ref:vcgi:esiteid" v="189346"/>
  </node>
  <node id="-573" visible="true" lat="44.27833167" lon="-72.4328321">
    <tag k="addr:city" v="Plainfield"/>
    <tag k="addr:housenumber" v="346"/>
    <tag k="addr:street" v="High Street"/>
    <tag k="addr:state" v="VT"/>
    <tag k="ref:vcgi:esiteid" v="189347"/>
  </node>
  <node id="-574" visible="true" lat="44.27373504" lon="-72.43589019">
    <tag k="addr:city" v="Plainfield"/>
    <tag k="addr:housenumber" v="641"/>
    <tag k="addr:street" v="Recreation Field Road"/>
    <tag k="addr:state" v="VT"/>
    <tag k="ref:vcgi:esiteid" v="189348"/>
  </node>
  <node id="-581" visible="true" lat="44.21867865" lon="-72.40521439">
    <tag k="addr:city" v="Plainfield"/>
    <tag k="addr:housenumber" v="414"/>
    <tag k="addr:street" v="Maxfield Road"/>
    <tag k="addr:state" v="VT"/>
    <tag k="ref:vcgi:esiteid" v="189355"/>
  </node>
  <node id="-584" visible="true" lat="44.23081732" lon="-72.45105434">
    <tag k="addr:city" v="Plainfield"/>
    <tag k="addr:housenumber" v="3195"/>
    <tag k="addr:street" v="Middle Road"/>
    <tag k="addr:state" v="VT"/>
    <tag k="ref:vcgi:esiteid" v="189358"/>
  </node>
  <node id="-588" visible="true" lat="44.21828497" lon="-72.39346316">
    <tag k="addr:city" v="Plainfield"/>
    <tag k="addr:housenumber" v="300"/>
    <tag k="addr:street" v="Gore Road"/>
    <tag k="addr:state" v="VT"/>
    <tag k="ref:vcgi:esiteid" v="189362"/>
  </node>
  <node id="-591" visible="true" lat="44.27770161" lon="-72.43064018">
    <tag k="addr:city" v="Plainfield"/>
    <tag k="addr:housenumber" v="233"/>
    <tag k="addr:street" v="High Street"/>
    <tag k="addr:state" v="VT"/>
    <tag k="ref:vcgi:esiteid" v="189365"/>
  </node>
  <node id="-592" visible="true" lat="44.27485066" lon="-72.42192478">
    <tag k="addr:city" v="Plainfield"/>
    <tag k="addr:housenumber" v="151"/>
    <tag k="addr:street" v="Brook Road"/>
    <tag k="addr:state" v="VT"/>
    <tag k="ref:vcgi:esiteid" v="189366"/>
  </node>
  <node id="-600" visible="true" lat="44.27808343" lon="-72.42516325">
    <tag k="addr:city" v="Plainfield"/>
    <tag k="addr:housenumber" v="20"/>
    <tag k="addr:street" v="School Street"/>
    <tag k="addr:state" v="VT"/>
    <tag k="ref:vcgi:esiteid" v="189374"/>
  </node>
  <node id="-601" visible="true" lat="44.27841143" lon="-72.42129065">
    <tag k="addr:city" v="Plainfield"/>
    <tag k="addr:housenumber" v="165"/>
    <tag k="addr:street" v="Main Street"/>
    <tag k="addr:state" v="VT"/>
    <tag k="ref:vcgi:esiteid" v="189375"/>
  </node>
  <node id="-603" visible="true" lat="44.27795588" lon="-72.41945171">
    <tag k="addr:city" v="Plainfield"/>
    <tag k="addr:housenumber" v="317"/>
    <tag k="addr:street" v="Main Street"/>
    <tag k="addr:state" v="VT"/>
    <tag k="ref:vcgi:esiteid" v="189377"/>
  </node>
  <node id="-604" visible="true" lat="44.2779409" lon="-72.41900608">
    <tag k="addr:city" v="Plainfield"/>
    <tag k="addr:housenumber" v="345"/>
    <tag k="addr:street" v="Main Street"/>
    <tag k="addr:state" v="VT"/>
    <tag k="ref:vcgi:esiteid" v="189378"/>
  </node>
  <node id="-606" visible="true" lat="44.27760696" lon="-72.41790771">
    <tag k="addr:city" v="Plainfield"/>
    <tag k="addr:housenumber" v="384"/>
    <tag k="addr:street" v="Main Street"/>
    <tag k="addr:state" v="VT"/>
    <tag k="ref:vcgi:esiteid" v="189381"/>
  </node>
  <node id="-607" visible="true" lat="44.27741241" lon="-72.4208908">
    <tag k="addr:city" v="Plainfield"/>
    <tag k="addr:housenumber" v="268"/>
    <tag k="addr:street" v="Main Street"/>
    <tag k="addr:state" v="VT"/>
    <tag k="ref:vcgi:esiteid" v="189382"/>
  </node>
  <node id="-608" visible="true" lat="44.2773954" lon="-72.42034183">
    <tag k="addr:city" v="Plainfield"/>
    <tag k="addr:housenumber" v="296"/>
    <tag k="addr:street" v="Main Street"/>
    <tag k="addr:state" v="VT"/>
    <tag k="ref:vcgi:esiteid" v="189383"/>
  </node>
  <node id="-609" visible="true" lat="44.27752593" lon="-72.42183671">
    <tag k="addr:city" v="Plainfield"/>
    <tag k="addr:housenumber" v="192"/>
    <tag k="addr:street" v="Main Street"/>
    <tag k="addr:state" v="VT"/>
    <tag k="ref:vcgi:esiteid" v="189384"/>
  </node>
  <node id="-610" visible="true" lat="44.26187515" lon="-72.41078949">
    <tag k="addr:city" v="Plainfield"/>
    <tag k="addr:housenumber" v="1246"/>
    <tag k="addr:street" v="Brook Road"/>
    <tag k="addr:state" v="VT"/>
    <tag k="ref:vcgi:esiteid" v="189385"/>
  </node>
  <node id="-621" visible="true" lat="44.25615393" lon="-72.38771139">
    <tag k="addr:city" v="Plainfield"/>
    <tag k="addr:housenumber" v="2079"/>
    <tag k="addr:street" v="East Hill Road"/>
    <tag k="addr:state" v="VT"/>
    <tag k="ref:vcgi:esiteid" v="189396"/>
  </node>
  <node id="-625" visible="true" lat="44.21794414" lon="-72.40287853">
    <tag k="addr:city" v="Plainfield"/>
    <tag k="addr:housenumber" v="315"/>
    <tag k="addr:street" v="Maxfield Road"/>
    <tag k="addr:state" v="VT"/>
    <tag k="ref:vcgi:esiteid" v="189400"/>
  </node>
  <node id="-630" visible="true" lat="44.2686787" lon="-72.40080058">
    <tag k="addr:city" v="Plainfield"/>
    <tag k="addr:housenumber" v="963"/>
    <tag k="addr:street" v="East Hill Road"/>
    <tag k="addr:state" v="VT"/>
    <tag k="ref:vcgi:esiteid" v="189406"/>
  </node>
  <node id="-634" visible="true" lat="44.27712921" lon="-72.42433567">
    <tag k="addr:city" v="Plainfield"/>
    <tag k="addr:housenumber" v="76"/>
    <tag k="addr:street" v="Main Street"/>
    <tag k="addr:state" v="VT"/>
    <tag k="ref:vcgi:esiteid" v="189410"/>
  </node>
  <node id="-637" visible="true" lat="44.21953439" lon="-72.39602962">
    <tag k="addr:city" v="Plainfield"/>
    <tag k="addr:housenumber" v="148"/>
    <tag k="addr:street" v="Gore Road"/>
    <tag k="addr:state" v="VT"/>
    <tag k="ref:vcgi:esiteid" v="189413"/>
  </node>
  <node id="-641" visible="true" lat="44.22058619" lon="-72.39909683">
    <tag k="addr:city" v="Plainfield"/>
    <tag k="addr:housenumber" v="4306"/>
    <tag k="addr:street" v="Brook Road"/>
    <tag k="addr:state" v="VT"/>
    <tag k="ref:vcgi:esiteid" v="189419"/>
  </node>
  <node id="-654" visible="true" lat="44.2321623" lon="-72.46632948">
    <tag k="addr:city" v="Plainfield"/>
    <tag k="addr:housenumber" v="3500"/>
    <tag k="addr:street" v="Lower Road"/>
    <tag k="addr:state" v="VT"/>
    <tag k="ref:vcgi:esiteid" v="312277"/>
  </node>
  <node id="-656" visible="true" lat="44.2199216" lon="-72.39230536">
    <tag k="addr:city" v="Plainfield"/>
    <tag k="addr:housenumber" v="251"/>
    <tag k="addr:street" v="Gore Road"/>
    <tag k="addr:state" v="VT"/>
    <tag k="ref:vcgi:esiteid" v="312279"/>
  </node>
  <node id="-660" visible="true" lat="44.21746996" lon="-72.40520233">
    <tag k="addr:city" v="Plainfield"/>
    <tag k="addr:housenumber" v="413"/>
    <tag k="addr:street" v="Maxfield Road"/>
    <tag k="addr:state" v="VT"/>
    <tag k="ref:vcgi:esiteid" v="332293"/>
  </node>
  <node id="-668" visible="true" lat="44.26791996" lon="-72.40516478">
    <tag k="addr:city" v="Plainfield"/>
    <tag k="addr:housenumber" v="900"/>
    <tag k="addr:street" v="East Hill Road"/>
    <tag k="addr:state" v="VT"/>
    <tag k="ref:vcgi:esiteid" v="339684"/>
  </node>
  <node id="-672" visible="true" lat="44.26196796" lon="-72.40315431">
    <tag k="addr:city" v="Plainfield"/>
    <tag k="addr:housenumber" v="1476"/>
    <tag k="addr:street" v="East Hill Road"/>
    <tag k="addr:state" v="VT"/>
    <tag k="ref:vcgi:esiteid" v="341835"/>
  </node>
  <node id="-674" visible="true" lat="44.24827221" lon="-72.41489629">
    <tag k="addr:city" v="Plainfield"/>
    <tag k="addr:housenumber" v="375"/>
    <tag k="addr:street" v="Bartlett Road"/>
    <tag k="addr:state" v="VT"/>
    <tag k="ref:vcgi:esiteid" v="343467"/>
  </node>
  <node id="-677" visible="true" lat="44.24364991" lon="-72.39301914">
    <tag k="addr:city" v="Plainfield"/>
    <tag k="addr:housenumber" v="1400"/>
    <tag k="addr:street" v="Fowler Road"/>
    <tag k="addr:state" v="VT"/>
    <tag k="ref:vcgi:esiteid" v="345807"/>
  </node>
  <node id="-678" visible="true" lat="44.24448249" lon="-72.39459822">
    <tag k="addr:city" v="Plainfield"/>
    <tag k="addr:housenumber" v="1280"/>
    <tag k="addr:street" v="Fowler Road"/>
    <tag k="addr:state" v="VT"/>
    <tag k="ref:vcgi:esiteid" v="345808"/>
  </node>
  <node id="-683" visible="true" lat="44.22591974" lon="-72.40037766">
    <tag k="addr:city" v="Plainfield"/>
    <tag k="addr:housenumber" v="4400"/>
    <tag k="addr:street" v="East Hill Road"/>
    <tag k="addr:state" v="VT"/>
    <tag k="ref:vcgi:esiteid" v="447820"/>
  </node>
  <node id="-685" visible="true" lat="44.24342429" lon="-72.38881076">
    <tag k="addr:city" v="Plainfield"/>
    <tag k="addr:housenumber" v="100"/>
    <tag k="addr:street" v="Bean Road"/>
    <tag k="addr:state" v="VT"/>
    <tag k="ref:vcgi:esiteid" v="448229"/>
  </node>
  <node id="-686" visible="true" lat="44.23458879" lon="-72.47521654">
    <tag k="addr:city" v="Plainfield"/>
    <tag k="addr:housenumber" v="3280"/>
    <tag k="addr:street" v="Country Club Road"/>
    <tag k="addr:state" v="VT"/>
    <tag k="ref:vcgi:esiteid" v="451275"/>
  </node>
  <node id="-692" visible="true" lat="44.26514006" lon="-72.439458">
    <tag k="addr:city" v="Plainfield"/>
    <tag k="addr:housenumber" v="700"/>
    <tag k="addr:street" v="Lower Road"/>
    <tag k="addr:state" v="VT"/>
    <tag k="ref:vcgi:esiteid" v="611011"/>
  </node>
  <node id="-693" visible="true" lat="44.2432818" lon="-72.39116954">
    <tag k="addr:city" v="Plainfield"/>
    <tag k="addr:housenumber" v="1492"/>
    <tag k="addr:street" v="Fowler Road"/>
    <tag k="addr:state" v="VT"/>
    <tag k="ref:vcgi:esiteid" v="611281"/>
  </node>
</osm>
