<?xml version="1.0" encoding="UTF-8"?>
<osm version="0.6" generator="JOSM">
  <node id="-100" visible="true" lat="43.56421029" lon="-72.66474673">
    <tag k="addr:city" v="Plymouth"/>
    <tag k="addr:housenumber" v="748"/>
    <tag k="addr:street" v="Hale Hollow Road"/>
    <tag k="addr:state" v="VT"/>
    <tag k="ref:vcgi:esiteid" v="37022"/>
  </node>
  <node id="-101" visible="true" lat="43.47383118" lon="-72.74918144">
    <tag k="addr:city" v="Plymouth"/>
    <tag k="addr:housenumber" v="2835"/>
    <tag k="addr:street" v="Townsend Barn Road"/>
    <tag k="addr:state" v="VT"/>
    <tag k="ref:vcgi:esiteid" v="171017"/>
  </node>
  <node id="-105" visible="true" lat="43.58678436" lon="-72.75666046">
    <tag k="addr:city" v="Plymouth"/>
    <tag k="addr:housenumber" v="9663"/>
    <tag k="addr:street" v="Vermont Route 100"/>
    <tag k="addr:state" v="VT"/>
    <tag k="ref:vcgi:esiteid" v="189432"/>
  </node>
  <node id="-107" visible="true" lat="43.58180789" lon="-72.7570399">
    <tag k="addr:city" v="Plymouth"/>
    <tag k="addr:housenumber" v="9232"/>
    <tag k="addr:street" v="Vermont Route 100"/>
    <tag k="addr:state" v="VT"/>
    <tag k="ref:vcgi:esiteid" v="189434"/>
  </node>
  <node id="-108" visible="true" lat="43.57944276" lon="-72.75678195">
    <tag k="addr:city" v="Plymouth"/>
    <tag k="addr:housenumber" v="9144"/>
    <tag k="addr:street" v="Vermont Route 100"/>
    <tag k="addr:state" v="VT"/>
    <tag k="ref:vcgi:esiteid" v="189435"/>
  </node>
  <node id="-112" visible="true" lat="43.57715713" lon="-72.75684681">
    <tag k="addr:city" v="Plymouth"/>
    <tag k="addr:housenumber" v="155"/>
    <tag k="addr:street" v="Owen Road"/>
    <tag k="addr:state" v="VT"/>
    <tag k="ref:vcgi:esiteid" v="189439"/>
  </node>
  <node id="-113" visible="true" lat="43.57559071" lon="-72.76175791">
    <tag k="addr:city" v="Plymouth"/>
    <tag k="addr:housenumber" v="8781"/>
    <tag k="addr:street" v="Vermont Route 100"/>
    <tag k="addr:state" v="VT"/>
    <tag k="ref:vcgi:esiteid" v="189440"/>
  </node>
  <node id="-114" visible="true" lat="43.57397792" lon="-72.75886721">
    <tag k="addr:city" v="Plymouth"/>
    <tag k="addr:housenumber" v="320"/>
    <tag k="addr:street" v="Farm And Wilderness Road"/>
    <tag k="addr:state" v="VT"/>
    <tag k="ref:vcgi:esiteid" v="189441"/>
  </node>
  <node id="-115" visible="true" lat="43.57353761" lon="-72.75820101">
    <tag k="addr:city" v="Plymouth"/>
    <tag k="addr:housenumber" v="401"/>
    <tag k="addr:street" v="Farm And Wilderness Road"/>
    <tag k="addr:state" v="VT"/>
    <tag k="ref:vcgi:esiteid" v="189442"/>
  </node>
  <node id="-119" visible="true" lat="43.57080181" lon="-72.75760672">
    <tag k="addr:city" v="Plymouth"/>
    <tag k="addr:housenumber" v="540"/>
    <tag k="addr:street" v="Farm And Wilderness Road"/>
    <tag k="addr:state" v="VT"/>
    <tag k="ref:vcgi:esiteid" v="189446"/>
  </node>
  <node id="-122" visible="true" lat="43.57073015" lon="-72.7557884">
    <tag k="addr:city" v="Plymouth"/>
    <tag k="addr:housenumber" v="569"/>
    <tag k="addr:street" v="Farm And Wilderness Road"/>
    <tag k="addr:state" v="VT"/>
    <tag k="ref:vcgi:esiteid" v="189449"/>
  </node>
  <node id="-129" visible="true" lat="43.56661064" lon="-72.68201577">
    <tag k="addr:city" v="Plymouth"/>
    <tag k="addr:housenumber" v="254"/>
    <tag k="addr:street" v="Town Line Road"/>
    <tag k="addr:state" v="VT"/>
    <tag k="ref:vcgi:esiteid" v="189456"/>
  </node>
  <node id="-130" visible="true" lat="43.56616592" lon="-72.67975616">
    <tag k="addr:city" v="Plymouth"/>
    <tag k="addr:housenumber" v="201"/>
    <tag k="addr:street" v="Vermont Route 100A"/>
    <tag k="addr:state" v="VT"/>
    <tag k="ref:vcgi:esiteid" v="189457"/>
  </node>
  <node id="-131" visible="true" lat="43.56570604" lon="-72.75407351">
    <tag k="addr:city" v="Plymouth"/>
    <tag k="addr:housenumber" v="869"/>
    <tag k="addr:street" v="Farm And Wilderness Road"/>
    <tag k="addr:state" v="VT"/>
    <tag k="ref:vcgi:esiteid" v="189458"/>
  </node>
  <node id="-132" visible="true" lat="43.56531313" lon="-72.75443209">
    <tag k="addr:city" v="Plymouth"/>
    <tag k="addr:housenumber" v="950"/>
    <tag k="addr:street" v="Farm And Wilderness Road"/>
    <tag k="addr:state" v="VT"/>
    <tag k="ref:vcgi:esiteid" v="189459"/>
  </node>
  <node id="-134" visible="true" lat="43.56512413" lon="-72.68082044">
    <tag k="addr:city" v="Plymouth"/>
    <tag k="addr:housenumber" v="18"/>
    <tag k="addr:street" v="Town Line Road"/>
    <tag k="addr:state" v="VT"/>
    <tag k="ref:vcgi:esiteid" v="189461"/>
  </node>
  <node id="-141" visible="true" lat="43.56323714" lon="-72.66414596">
    <tag k="addr:city" v="Plymouth"/>
    <tag k="addr:housenumber" v="683"/>
    <tag k="addr:street" v="Hale Hollow Road"/>
    <tag k="addr:state" v="VT"/>
    <tag k="ref:vcgi:esiteid" v="189469"/>
  </node>
  <node id="-147" visible="true" lat="43.56206893" lon="-72.66445922">
    <tag k="addr:city" v="Plymouth"/>
    <tag k="addr:housenumber" v="773"/>
    <tag k="addr:street" v="Hale Hollow Road"/>
    <tag k="addr:state" v="VT"/>
    <tag k="ref:vcgi:esiteid" v="189475"/>
  </node>
  <node id="-154" visible="true" lat="43.56018236" lon="-72.75455417">
    <tag k="addr:city" v="Plymouth"/>
    <tag k="addr:housenumber" v="282"/>
    <tag k="addr:street" v="South End Road"/>
    <tag k="addr:state" v="VT"/>
    <tag k="ref:vcgi:esiteid" v="189482"/>
  </node>
  <node id="-159" visible="true" lat="43.55993448" lon="-72.66445242">
    <tag k="addr:city" v="Plymouth"/>
    <tag k="addr:housenumber" v="865"/>
    <tag k="addr:street" v="Hale Hollow Road"/>
    <tag k="addr:state" v="VT"/>
    <tag k="ref:vcgi:esiteid" v="189487"/>
  </node>
  <node id="-162" visible="true" lat="43.55909517" lon="-72.75723208">
    <tag k="addr:city" v="Plymouth"/>
    <tag k="addr:housenumber" v="138"/>
    <tag k="addr:street" v="South End Road"/>
    <tag k="addr:state" v="VT"/>
    <tag k="ref:vcgi:esiteid" v="189490"/>
  </node>
  <node id="-163" visible="true" lat="43.55881214" lon="-72.66525361">
    <tag k="addr:city" v="Plymouth"/>
    <tag k="addr:housenumber" v="1007"/>
    <tag k="addr:street" v="Hale Hollow Road"/>
    <tag k="addr:state" v="VT"/>
    <tag k="ref:vcgi:esiteid" v="189491"/>
  </node>
  <node id="-167" visible="true" lat="43.55811376" lon="-72.66497769">
    <tag k="addr:city" v="Plymouth"/>
    <tag k="addr:housenumber" v="1057"/>
    <tag k="addr:street" v="Hale Hollow Road"/>
    <tag k="addr:state" v="VT"/>
    <tag k="ref:vcgi:esiteid" v="189495"/>
  </node>
  <node id="-178" visible="true" lat="43.55413436" lon="-72.6553955">
    <tag k="addr:city" v="Plymouth"/>
    <tag k="addr:housenumber" v="1723"/>
    <tag k="addr:street" v="Hale Hollow Road"/>
    <tag k="addr:state" v="VT"/>
    <tag k="ref:vcgi:esiteid" v="189508"/>
  </node>
  <node id="-179" visible="true" lat="43.55385089" lon="-72.66145797">
    <tag k="addr:city" v="Plymouth"/>
    <tag k="addr:housenumber" v="1419"/>
    <tag k="addr:street" v="Hale Hollow Road"/>
    <tag k="addr:state" v="VT"/>
    <tag k="ref:vcgi:esiteid" v="189509"/>
  </node>
  <node id="-186" visible="true" lat="43.55273986" lon="-72.66079975">
    <tag k="addr:city" v="Plymouth"/>
    <tag k="addr:housenumber" v="1515"/>
    <tag k="addr:street" v="Hale Hollow Road"/>
    <tag k="addr:state" v="VT"/>
    <tag k="ref:vcgi:esiteid" v="189516"/>
  </node>
  <node id="-187" visible="true" lat="43.55261612" lon="-72.66159057">
    <tag k="addr:city" v="Plymouth"/>
    <tag k="addr:housenumber" v="1496"/>
    <tag k="addr:street" v="Hale Hollow Road"/>
    <tag k="addr:state" v="VT"/>
    <tag k="ref:vcgi:esiteid" v="189517"/>
  </node>
  <node id="-193" visible="true" lat="43.55177688" lon="-72.65910339">
    <tag k="addr:city" v="Plymouth"/>
    <tag k="addr:housenumber" v="1555"/>
    <tag k="addr:street" v="Hale Hollow Road"/>
    <tag k="addr:state" v="VT"/>
    <tag k="ref:vcgi:esiteid" v="189523"/>
  </node>
  <node id="-198" visible="true" lat="43.55044375" lon="-72.65875518">
    <tag k="addr:city" v="Plymouth"/>
    <tag k="addr:housenumber" v="1631"/>
    <tag k="addr:street" v="Hale Hollow Road"/>
    <tag k="addr:state" v="VT"/>
    <tag k="ref:vcgi:esiteid" v="189528"/>
  </node>
  <node id="-199" visible="true" lat="43.55026026" lon="-72.66193779">
    <tag k="addr:city" v="Plymouth"/>
    <tag k="addr:housenumber" v="1672"/>
    <tag k="addr:street" v="Hale Hollow Road"/>
    <tag k="addr:state" v="VT"/>
    <tag k="ref:vcgi:esiteid" v="189529"/>
  </node>
  <node id="-217" visible="true" lat="43.53904003" lon="-72.7445899">
    <tag k="addr:city" v="Plymouth"/>
    <tag k="addr:housenumber" v="65"/>
    <tag k="addr:street" v="Ricks Road"/>
    <tag k="addr:state" v="VT"/>
    <tag k="ref:vcgi:esiteid" v="189547"/>
  </node>
  <node id="-218" visible="true" lat="43.53886032" lon="-72.72145843">
    <tag k="addr:city" v="Plymouth"/>
    <tag k="addr:housenumber" v="211"/>
    <tag k="addr:street" v="Coolidge Farm Road"/>
    <tag k="addr:state" v="VT"/>
    <tag k="ref:vcgi:esiteid" v="189548"/>
  </node>
  <node id="-219" visible="true" lat="43.53860643" lon="-72.74327793">
    <tag k="addr:city" v="Plymouth"/>
    <tag k="addr:housenumber" v="90"/>
    <tag k="addr:street" v="Ricks Road"/>
    <tag k="addr:state" v="VT"/>
    <tag k="ref:vcgi:esiteid" v="189549"/>
  </node>
  <node id="-220" visible="true" lat="43.53846529" lon="-72.74520816">
    <tag k="addr:city" v="Plymouth"/>
    <tag k="addr:housenumber" v="20"/>
    <tag k="addr:street" v="Ricks Road"/>
    <tag k="addr:state" v="VT"/>
    <tag k="ref:vcgi:esiteid" v="189550"/>
  </node>
  <node id="-221" visible="true" lat="43.53831405" lon="-72.74616224">
    <tag k="addr:city" v="Plymouth"/>
    <tag k="addr:housenumber" v="5999"/>
    <tag k="addr:street" v="Vermont Route 100"/>
    <tag k="addr:state" v="VT"/>
    <tag k="ref:vcgi:esiteid" v="189551"/>
  </node>
  <node id="-222" visible="true" lat="43.53819656" lon="-72.72029876">
    <tag k="addr:city" v="Plymouth"/>
    <tag k="addr:housenumber" v="160"/>
    <tag k="addr:street" v="Coolidge Farm Road"/>
    <tag k="addr:state" v="VT"/>
    <tag k="ref:vcgi:esiteid" v="189552"/>
  </node>
  <node id="-223" visible="true" lat="43.53815108" lon="-72.74416459">
    <tag k="addr:city" v="Plymouth"/>
    <tag k="addr:housenumber" v="71"/>
    <tag k="addr:street" v="McDonald Road"/>
    <tag k="addr:state" v="VT"/>
    <tag k="ref:vcgi:esiteid" v="189553"/>
  </node>
  <node id="-224" visible="true" lat="43.53794267" lon="-72.74340762">
    <tag k="addr:city" v="Plymouth"/>
    <tag k="addr:housenumber" v="60"/>
    <tag k="addr:street" v="McDonald Road"/>
    <tag k="addr:state" v="VT"/>
    <tag k="ref:vcgi:esiteid" v="189555"/>
  </node>
  <node id="-226" visible="true" lat="43.53759681" lon="-72.74488249">
    <tag k="addr:city" v="Plymouth"/>
    <tag k="addr:housenumber" v="5909"/>
    <tag k="addr:street" v="Vermont Route 100"/>
    <tag k="addr:state" v="VT"/>
    <tag k="ref:vcgi:esiteid" v="189557"/>
  </node>
  <node id="-228" visible="true" lat="43.5366203" lon="-72.7481305">
    <tag k="addr:city" v="Plymouth"/>
    <tag k="addr:housenumber" v="270"/>
    <tag k="addr:street" v="Round Top Road"/>
    <tag k="addr:state" v="VT"/>
    <tag k="ref:vcgi:esiteid" v="189561"/>
  </node>
  <node id="-229" visible="true" lat="43.53668975" lon="-72.72633361">
    <tag k="addr:city" v="Plymouth"/>
    <tag k="addr:housenumber" v="196"/>
    <tag k="addr:street" v="Messer Hill Road"/>
    <tag k="addr:state" v="VT"/>
    <tag k="ref:vcgi:esiteid" v="189562"/>
  </node>
  <node id="-231" visible="true" lat="43.53641509" lon="-72.7239151">
    <tag k="addr:city" v="Plymouth"/>
    <tag k="addr:housenumber" v="122"/>
    <tag k="addr:street" v="Messer Hill Road"/>
    <tag k="addr:state" v="VT"/>
    <tag k="ref:vcgi:esiteid" v="189564"/>
  </node>
  <node id="-232" visible="true" lat="43.53631993" lon="-72.7235007">
    <tag k="addr:city" v="Plymouth"/>
    <tag k="addr:housenumber" v="106"/>
    <tag k="addr:street" v="Messer Hill Road"/>
    <tag k="addr:state" v="VT"/>
    <tag k="ref:vcgi:esiteid" v="189565"/>
  </node>
  <node id="-233" visible="true" lat="43.53627395" lon="-72.72727203">
    <tag k="addr:city" v="Plymouth"/>
    <tag k="addr:housenumber" v="291"/>
    <tag k="addr:street" v="Messer Hill Road"/>
    <tag k="addr:state" v="VT"/>
    <tag k="ref:vcgi:esiteid" v="189566"/>
  </node>
  <node id="-234" visible="true" lat="43.53613281" lon="-72.72252655">
    <tag k="addr:city" v="Plymouth"/>
    <tag k="addr:housenumber" v="56"/>
    <tag k="addr:street" v="Messer Hill Road"/>
    <tag k="addr:state" v="VT"/>
    <tag k="ref:vcgi:esiteid" v="189567"/>
  </node>
  <node id="-235" visible="true" lat="43.53593826" lon="-72.72502136">
    <tag k="addr:city" v="Plymouth"/>
    <tag k="addr:housenumber" v="175"/>
    <tag k="addr:street" v="Messer Hill Road"/>
    <tag k="addr:state" v="VT"/>
    <tag k="ref:vcgi:esiteid" v="189568"/>
  </node>
  <node id="-236" visible="true" lat="43.53593063" lon="-72.72178649">
    <tag k="addr:city" v="Plymouth"/>
    <tag k="addr:housenumber" v="16"/>
    <tag k="addr:street" v="Messer Hill Road"/>
    <tag k="addr:state" v="VT"/>
    <tag k="ref:vcgi:esiteid" v="189569"/>
  </node>
  <node id="-237" visible="true" lat="43.53579711" lon="-72.727005">
    <tag k="addr:city" v="Plymouth"/>
    <tag k="addr:housenumber" v="273"/>
    <tag k="addr:street" v="Messer Hill Road"/>
    <tag k="addr:state" v="VT"/>
    <tag k="ref:vcgi:esiteid" v="189570"/>
  </node>
  <node id="-238" visible="true" lat="43.53571504" lon="-72.74266336">
    <tag k="addr:city" v="Plymouth"/>
    <tag k="addr:housenumber" v="5742"/>
    <tag k="addr:street" v="Vermont Route 100"/>
    <tag k="addr:state" v="VT"/>
    <tag k="ref:vcgi:esiteid" v="189571"/>
  </node>
  <node id="-239" visible="true" lat="43.53567704" lon="-72.72255413">
    <tag k="addr:city" v="Plymouth"/>
    <tag k="addr:housenumber" v="43"/>
    <tag k="addr:street" v="Messer Hill Road"/>
    <tag k="addr:state" v="VT"/>
    <tag k="ref:vcgi:esiteid" v="189572"/>
  </node>
  <node id="-240" visible="true" lat="43.53564036" lon="-72.72584979">
    <tag k="addr:city" v="Plymouth"/>
    <tag k="addr:housenumber" v="203"/>
    <tag k="addr:street" v="Messer Hill Road"/>
    <tag k="addr:state" v="VT"/>
    <tag k="ref:vcgi:esiteid" v="189573"/>
  </node>
  <node id="-242" visible="true" lat="43.53560638" lon="-72.72213745">
    <tag k="addr:city" v="Plymouth"/>
    <tag k="addr:housenumber" v="236"/>
    <tag k="addr:street" v="Coolidge Memorial Road"/>
    <tag k="addr:state" v="VT"/>
    <tag k="ref:vcgi:esiteid" v="189575"/>
  </node>
  <node id="-245" visible="true" lat="43.53517964" lon="-72.74292817">
    <tag k="addr:city" v="Plymouth"/>
    <tag k="addr:housenumber" v="4"/>
    <tag k="addr:street" v="Town Office Road"/>
    <tag k="addr:state" v="VT"/>
    <tag k="ref:vcgi:esiteid" v="189578"/>
  </node>
  <node id="-247" visible="true" lat="43.53514532" lon="-72.74488568">
    <tag k="addr:city" v="Plymouth"/>
    <tag k="addr:housenumber" v="88"/>
    <tag k="addr:street" v="Anns Way"/>
    <tag k="addr:state" v="VT"/>
    <tag k="ref:vcgi:esiteid" v="189580"/>
  </node>
  <node id="-248" visible="true" lat="43.53510038" lon="-72.74200494">
    <tag k="addr:city" v="Plymouth"/>
    <tag k="addr:housenumber" v="5666"/>
    <tag k="addr:street" v="Vermont Route 100"/>
    <tag k="addr:state" v="VT"/>
    <tag k="ref:vcgi:esiteid" v="189581"/>
  </node>
  <node id="-249" visible="true" lat="43.53521346" lon="-72.72154998">
    <tag k="addr:city" v="Plymouth"/>
    <tag k="addr:housenumber" v="249"/>
    <tag k="addr:street" v="Coolidge Memorial Road"/>
    <tag k="addr:state" v="VT"/>
    <tag k="ref:vcgi:esiteid" v="189582"/>
  </node>
  <node id="-250" visible="true" lat="43.53482437" lon="-72.74456787">
    <tag k="addr:city" v="Plymouth"/>
    <tag k="addr:housenumber" v="133"/>
    <tag k="addr:street" v="Anns Way"/>
    <tag k="addr:state" v="VT"/>
    <tag k="ref:vcgi:esiteid" v="189583"/>
  </node>
  <node id="-251" visible="true" lat="43.53472307" lon="-72.74130191">
    <tag k="addr:city" v="Plymouth"/>
    <tag k="addr:housenumber" v="5668"/>
    <tag k="addr:street" v="Vermont Route 100"/>
    <tag k="addr:state" v="VT"/>
    <tag k="ref:vcgi:esiteid" v="189584"/>
  </node>
  <node id="-253" visible="true" lat="43.53454502" lon="-72.74566596">
    <tag k="addr:city" v="Plymouth"/>
    <tag k="addr:housenumber" v="520"/>
    <tag k="addr:street" v="Dead End Road"/>
    <tag k="addr:state" v="VT"/>
    <tag k="ref:vcgi:esiteid" v="189586"/>
  </node>
  <node id="-256" visible="true" lat="43.53432729" lon="-72.74546529">
    <tag k="addr:city" v="Plymouth"/>
    <tag k="addr:housenumber" v="516"/>
    <tag k="addr:street" v="Dead End Road"/>
    <tag k="addr:state" v="VT"/>
    <tag k="ref:vcgi:esiteid" v="189590"/>
  </node>
  <node id="-257" visible="true" lat="43.53418901" lon="-72.74291171">
    <tag k="addr:city" v="Plymouth"/>
    <tag k="addr:housenumber" v="68"/>
    <tag k="addr:street" v="Town Office Road"/>
    <tag k="addr:state" v="VT"/>
    <tag k="ref:vcgi:esiteid" v="189591"/>
  </node>
  <node id="-258" visible="true" lat="43.53407475" lon="-72.74528185">
    <tag k="addr:city" v="Plymouth"/>
    <tag k="addr:housenumber" v="504"/>
    <tag k="addr:street" v="Dead End Road"/>
    <tag k="addr:state" v="VT"/>
    <tag k="ref:vcgi:esiteid" v="189592"/>
  </node>
  <node id="-259" visible="true" lat="43.53385925" lon="-72.74523925">
    <tag k="addr:city" v="Plymouth"/>
    <tag k="addr:housenumber" v="468"/>
    <tag k="addr:street" v="Dead End Road"/>
    <tag k="addr:state" v="VT"/>
    <tag k="ref:vcgi:esiteid" v="189593"/>
  </node>
  <node id="-262" visible="true" lat="43.53358519" lon="-72.75276564">
    <tag k="addr:city" v="Plymouth"/>
    <tag k="addr:housenumber" v="148"/>
    <tag k="addr:street" v="Round Top Spur Road"/>
    <tag k="addr:state" v="VT"/>
    <tag k="ref:vcgi:esiteid" v="189597"/>
  </node>
  <node id="-266" visible="true" lat="43.53338057" lon="-72.75326109">
    <tag k="addr:city" v="Plymouth"/>
    <tag k="addr:housenumber" v="98"/>
    <tag k="addr:street" v="Round Top Spur Road"/>
    <tag k="addr:state" v="VT"/>
    <tag k="ref:vcgi:esiteid" v="189601"/>
  </node>
  <node id="-268" visible="true" lat="43.53333475" lon="-72.74251166">
    <tag k="addr:city" v="Plymouth"/>
    <tag k="addr:housenumber" v="142"/>
    <tag k="addr:street" v="Town Office Road"/>
    <tag k="addr:state" v="VT"/>
    <tag k="ref:vcgi:esiteid" v="189603"/>
  </node>
  <node id="-269" visible="true" lat="43.53324395" lon="-72.75493761">
    <tag k="addr:city" v="Plymouth"/>
    <tag k="addr:housenumber" v="65"/>
    <tag k="addr:street" v="Woodpecker Road"/>
    <tag k="addr:state" v="VT"/>
    <tag k="ref:vcgi:esiteid" v="189604"/>
  </node>
  <node id="-272" visible="true" lat="43.53304734" lon="-72.75407208">
    <tag k="addr:city" v="Plymouth"/>
    <tag k="addr:housenumber" v="100"/>
    <tag k="addr:street" v="Woodpecker Road"/>
    <tag k="addr:state" v="VT"/>
    <tag k="ref:vcgi:esiteid" v="189607"/>
  </node>
  <node id="-273" visible="true" lat="43.53322246" lon="-72.75372636">
    <tag k="addr:city" v="Plymouth"/>
    <tag k="addr:housenumber" v="70"/>
    <tag k="addr:street" v="Round Top Spur Road"/>
    <tag k="addr:state" v="VT"/>
    <tag k="ref:vcgi:esiteid" v="189608"/>
  </node>
  <node id="-275" visible="true" lat="43.53300509" lon="-72.75545727">
    <tag k="addr:city" v="Plymouth"/>
    <tag k="addr:housenumber" v="39"/>
    <tag k="addr:street" v="Woodpecker Road"/>
    <tag k="addr:state" v="VT"/>
    <tag k="ref:vcgi:esiteid" v="189610"/>
  </node>
  <node id="-277" visible="true" lat="43.53295135" lon="-72.7240448">
    <tag k="addr:city" v="Plymouth"/>
    <tag k="addr:housenumber" v="28"/>
    <tag k="addr:street" v="Lynds Hill Road"/>
    <tag k="addr:state" v="VT"/>
    <tag k="ref:vcgi:esiteid" v="189612"/>
  </node>
  <node id="-279" visible="true" lat="43.53289413" lon="-72.74448394">
    <tag k="addr:city" v="Plymouth"/>
    <tag k="addr:housenumber" v="396"/>
    <tag k="addr:street" v="Dead End Road"/>
    <tag k="addr:state" v="VT"/>
    <tag k="ref:vcgi:esiteid" v="189614"/>
  </node>
  <node id="-281" visible="true" lat="43.53280355" lon="-72.74276276">
    <tag k="addr:city" v="Plymouth"/>
    <tag k="addr:housenumber" v="179"/>
    <tag k="addr:street" v="Town Office Road"/>
    <tag k="addr:state" v="VT"/>
    <tag k="ref:vcgi:esiteid" v="189616"/>
  </node>
  <node id="-282" visible="true" lat="43.53261265" lon="-72.74675202">
    <tag k="addr:city" v="Plymouth"/>
    <tag k="addr:housenumber" v="162"/>
    <tag k="addr:street" v="Bear Hill Road"/>
    <tag k="addr:state" v="VT"/>
    <tag k="ref:vcgi:esiteid" v="189617"/>
  </node>
  <node id="-283" visible="true" lat="43.5326953" lon="-72.74576416">
    <tag k="addr:city" v="Plymouth"/>
    <tag k="addr:housenumber" v="87"/>
    <tag k="addr:street" v="Bear Hill Road"/>
    <tag k="addr:state" v="VT"/>
    <tag k="ref:vcgi:esiteid" v="189618"/>
  </node>
  <node id="-284" visible="true" lat="43.53244115" lon="-72.74410137">
    <tag k="addr:city" v="Plymouth"/>
    <tag k="addr:housenumber" v="360"/>
    <tag k="addr:street" v="Dead End Road"/>
    <tag k="addr:state" v="VT"/>
    <tag k="ref:vcgi:esiteid" v="189620"/>
  </node>
  <node id="-285" visible="true" lat="43.53255328" lon="-72.75524534">
    <tag k="addr:city" v="Plymouth"/>
    <tag k="addr:housenumber" v="36"/>
    <tag k="addr:street" v="Woodpecker Road"/>
    <tag k="addr:state" v="VT"/>
    <tag k="ref:vcgi:esiteid" v="189621"/>
  </node>
  <node id="-287" visible="true" lat="43.53231048" lon="-72.73025512">
    <tag k="addr:city" v="Plymouth"/>
    <tag k="addr:housenumber" v="4195"/>
    <tag k="addr:street" v="Vermont Route 100A"/>
    <tag k="addr:state" v="VT"/>
    <tag k="ref:vcgi:esiteid" v="189623"/>
  </node>
  <node id="-288" visible="true" lat="43.53220435" lon="-72.74285134">
    <tag k="addr:city" v="Plymouth"/>
    <tag k="addr:housenumber" v="334"/>
    <tag k="addr:street" v="Dead End Road"/>
    <tag k="addr:state" v="VT"/>
    <tag k="ref:vcgi:esiteid" v="189624"/>
  </node>
  <node id="-289" visible="true" lat="43.53220013" lon="-72.75665382">
    <tag k="addr:city" v="Plymouth"/>
    <tag k="addr:housenumber" v="120"/>
    <tag k="addr:street" v="Upper Round Top Road"/>
    <tag k="addr:state" v="VT"/>
    <tag k="ref:vcgi:esiteid" v="189625"/>
  </node>
  <node id="-290" visible="true" lat="43.53210301" lon="-72.75591247">
    <tag k="addr:city" v="Plymouth"/>
    <tag k="addr:housenumber" v="109"/>
    <tag k="addr:street" v="Upper Round Top Road"/>
    <tag k="addr:state" v="VT"/>
    <tag k="ref:vcgi:esiteid" v="189626"/>
  </node>
  <node id="-291" visible="true" lat="43.53178186" lon="-72.74354718">
    <tag k="addr:city" v="Plymouth"/>
    <tag k="addr:housenumber" v="314"/>
    <tag k="addr:street" v="Dead End Road"/>
    <tag k="addr:state" v="VT"/>
    <tag k="ref:vcgi:esiteid" v="189627"/>
  </node>
  <node id="-292" visible="true" lat="43.53181388" lon="-72.75600279">
    <tag k="addr:city" v="Plymouth"/>
    <tag k="addr:housenumber" v="131"/>
    <tag k="addr:street" v="Upper Round Top Road"/>
    <tag k="addr:state" v="VT"/>
    <tag k="ref:vcgi:esiteid" v="189628"/>
  </node>
  <node id="-294" visible="true" lat="43.53146839" lon="-72.75627733">
    <tag k="addr:city" v="Plymouth"/>
    <tag k="addr:housenumber" v="181"/>
    <tag k="addr:street" v="Upper Round Top Road"/>
    <tag k="addr:state" v="VT"/>
    <tag k="ref:vcgi:esiteid" v="189630"/>
  </node>
  <node id="-295" visible="true" lat="43.53153009" lon="-72.74278128">
    <tag k="addr:city" v="Plymouth"/>
    <tag k="addr:housenumber" v="280"/>
    <tag k="addr:street" v="Dead End Road"/>
    <tag k="addr:state" v="VT"/>
    <tag k="ref:vcgi:esiteid" v="189631"/>
  </node>
  <node id="-296" visible="true" lat="43.53140258" lon="-72.73908233">
    <tag k="addr:city" v="Plymouth"/>
    <tag k="addr:housenumber" v="5392"/>
    <tag k="addr:street" v="Vermont Route 100"/>
    <tag k="addr:state" v="VT"/>
    <tag k="ref:vcgi:esiteid" v="189632"/>
  </node>
  <node id="-297" visible="true" lat="43.53110048" lon="-72.73965948">
    <tag k="addr:city" v="Plymouth"/>
    <tag k="addr:housenumber" v="5391"/>
    <tag k="addr:street" v="Vermont Route 100"/>
    <tag k="addr:state" v="VT"/>
    <tag k="ref:vcgi:esiteid" v="189633"/>
  </node>
  <node id="-298" visible="true" lat="43.53118667" lon="-72.75649029">
    <tag k="addr:city" v="Plymouth"/>
    <tag k="addr:housenumber" v="183"/>
    <tag k="addr:street" v="Upper Round Top Road"/>
    <tag k="addr:state" v="VT"/>
    <tag k="ref:vcgi:esiteid" v="189634"/>
  </node>
  <node id="-299" visible="true" lat="43.53110885" lon="-72.74249267">
    <tag k="addr:city" v="Plymouth"/>
    <tag k="addr:housenumber" v="224"/>
    <tag k="addr:street" v="Dead End Road"/>
    <tag k="addr:state" v="VT"/>
    <tag k="ref:vcgi:esiteid" v="189635"/>
  </node>
  <node id="-301" visible="true" lat="43.53090348" lon="-72.75650991">
    <tag k="addr:city" v="Plymouth"/>
    <tag k="addr:housenumber" v="209"/>
    <tag k="addr:street" v="Upper Round Top Road"/>
    <tag k="addr:state" v="VT"/>
    <tag k="ref:vcgi:esiteid" v="189637"/>
  </node>
  <node id="-302" visible="true" lat="43.53087234" lon="-72.73944854">
    <tag k="addr:city" v="Plymouth"/>
    <tag k="addr:housenumber" v="5361"/>
    <tag k="addr:street" v="Vermont Route 100"/>
    <tag k="addr:state" v="VT"/>
    <tag k="ref:vcgi:esiteid" v="189638"/>
  </node>
  <node id="-303" visible="true" lat="43.53077697" lon="-72.74197387">
    <tag k="addr:city" v="Plymouth"/>
    <tag k="addr:housenumber" v="190"/>
    <tag k="addr:street" v="Dead End Road"/>
    <tag k="addr:state" v="VT"/>
    <tag k="ref:vcgi:esiteid" v="189639"/>
  </node>
  <node id="-305" visible="true" lat="43.53062439" lon="-72.73886871">
    <tag k="addr:city" v="Plymouth"/>
    <tag k="addr:housenumber" v="5340"/>
    <tag k="addr:street" v="Vermont Route 100"/>
    <tag k="addr:state" v="VT"/>
    <tag k="ref:vcgi:esiteid" v="189641"/>
  </node>
  <node id="-306" visible="true" lat="43.53030395" lon="-72.73787689">
    <tag k="addr:city" v="Plymouth"/>
    <tag k="addr:housenumber" v="4738"/>
    <tag k="addr:street" v="Vermont Route 100A"/>
    <tag k="addr:state" v="VT"/>
    <tag k="ref:vcgi:esiteid" v="189642"/>
  </node>
  <node id="-308" visible="true" lat="43.53013992" lon="-72.73834991">
    <tag k="addr:city" v="Plymouth"/>
    <tag k="addr:housenumber" v="4758"/>
    <tag k="addr:street" v="Vermont Route 100A"/>
    <tag k="addr:state" v="VT"/>
    <tag k="ref:vcgi:esiteid" v="189644"/>
  </node>
  <node id="-309" visible="true" lat="43.53011322" lon="-72.73916625">
    <tag k="addr:city" v="Plymouth"/>
    <tag k="addr:housenumber" v="5307"/>
    <tag k="addr:street" v="Vermont Route 100"/>
    <tag k="addr:state" v="VT"/>
    <tag k="ref:vcgi:esiteid" v="189645"/>
  </node>
  <node id="-310" visible="true" lat="43.53000006" lon="-72.75777327">
    <tag k="addr:city" v="Plymouth"/>
    <tag k="addr:housenumber" v="46"/>
    <tag k="addr:street" v="Snowshoe Hare Road"/>
    <tag k="addr:state" v="VT"/>
    <tag k="ref:vcgi:esiteid" v="189646"/>
  </node>
  <node id="-311" visible="true" lat="43.52999416" lon="-72.73945256">
    <tag k="addr:city" v="Plymouth"/>
    <tag k="addr:housenumber" v="28"/>
    <tag k="addr:street" v="Dead End Road"/>
    <tag k="addr:state" v="VT"/>
    <tag k="ref:vcgi:esiteid" v="189647"/>
  </node>
  <node id="-312" visible="true" lat="43.52998271" lon="-72.73971959">
    <tag k="addr:city" v="Plymouth"/>
    <tag k="addr:housenumber" v="42"/>
    <tag k="addr:street" v="Dead End Road"/>
    <tag k="addr:state" v="VT"/>
    <tag k="ref:vcgi:esiteid" v="189648"/>
  </node>
  <node id="-313" visible="true" lat="43.53004455" lon="-72.74110412">
    <tag k="addr:city" v="Plymouth"/>
    <tag k="addr:housenumber" v="122"/>
    <tag k="addr:street" v="Dead End Road"/>
    <tag k="addr:state" v="VT"/>
    <tag k="ref:vcgi:esiteid" v="189649"/>
  </node>
  <node id="-314" visible="true" lat="43.52986145" lon="-72.73833465">
    <tag k="addr:city" v="Plymouth"/>
    <tag k="addr:housenumber" v="4771"/>
    <tag k="addr:street" v="Vermont Route 100A"/>
    <tag k="addr:state" v="VT"/>
    <tag k="ref:vcgi:esiteid" v="189650"/>
  </node>
  <node id="-315" visible="true" lat="43.52982711" lon="-72.73900604">
    <tag k="addr:city" v="Plymouth"/>
    <tag k="addr:housenumber" v="7"/>
    <tag k="addr:street" v="Dead End Road"/>
    <tag k="addr:state" v="VT"/>
    <tag k="ref:vcgi:esiteid" v="189651"/>
  </node>
  <node id="-317" visible="true" lat="43.52960396" lon="-72.75802178">
    <tag k="addr:city" v="Plymouth"/>
    <tag k="addr:housenumber" v="78"/>
    <tag k="addr:street" v="Snowshoe Hare Road"/>
    <tag k="addr:state" v="VT"/>
    <tag k="ref:vcgi:esiteid" v="189653"/>
  </node>
  <node id="-319" visible="true" lat="43.52953846" lon="-72.74060118">
    <tag k="addr:city" v="Plymouth"/>
    <tag k="addr:housenumber" v="87"/>
    <tag k="addr:street" v="Dead End Road"/>
    <tag k="addr:state" v="VT"/>
    <tag k="ref:vcgi:esiteid" v="189655"/>
  </node>
  <node id="-320" visible="true" lat="43.52896478" lon="-72.73896363">
    <tag k="addr:city" v="Plymouth"/>
    <tag k="addr:housenumber" v="5227"/>
    <tag k="addr:street" v="Vermont Route 100"/>
    <tag k="addr:state" v="VT"/>
    <tag k="ref:vcgi:esiteid" v="189657"/>
  </node>
  <node id="-322" visible="true" lat="43.52868409" lon="-72.75853987">
    <tag k="addr:city" v="Plymouth"/>
    <tag k="addr:housenumber" v="150"/>
    <tag k="addr:street" v="Snowshoe Hare Road"/>
    <tag k="addr:state" v="VT"/>
    <tag k="ref:vcgi:esiteid" v="189659"/>
  </node>
  <node id="-323" visible="true" lat="43.52828033" lon="-72.75891205">
    <tag k="addr:city" v="Plymouth"/>
    <tag k="addr:housenumber" v="180"/>
    <tag k="addr:street" v="Snowshoe Hare Road"/>
    <tag k="addr:state" v="VT"/>
    <tag k="ref:vcgi:esiteid" v="189660"/>
  </node>
  <node id="-324" visible="true" lat="43.52804946" lon="-72.73786163">
    <tag k="addr:city" v="Plymouth"/>
    <tag k="addr:housenumber" v="5148"/>
    <tag k="addr:street" v="Vermont Route 100"/>
    <tag k="addr:state" v="VT"/>
    <tag k="ref:vcgi:esiteid" v="189661"/>
  </node>
  <node id="-325" visible="true" lat="43.52761077" lon="-72.7371521">
    <tag k="addr:city" v="Plymouth"/>
    <tag k="addr:housenumber" v="5100"/>
    <tag k="addr:street" v="Vermont Route 100"/>
    <tag k="addr:state" v="VT"/>
    <tag k="ref:vcgi:esiteid" v="189662"/>
  </node>
  <node id="-326" visible="true" lat="43.52758026" lon="-72.73583984">
    <tag k="addr:city" v="Plymouth"/>
    <tag k="addr:housenumber" v="5052"/>
    <tag k="addr:street" v="Vermont Route 100"/>
    <tag k="addr:state" v="VT"/>
    <tag k="ref:vcgi:esiteid" v="189663"/>
  </node>
  <node id="-327" visible="true" lat="43.52753829" lon="-72.71200561">
    <tag k="addr:city" v="Plymouth"/>
    <tag k="addr:housenumber" v="1121"/>
    <tag k="addr:street" v="Lynds Hill Road"/>
    <tag k="addr:state" v="VT"/>
    <tag k="ref:vcgi:esiteid" v="189664"/>
  </node>
  <node id="-329" visible="true" lat="43.52718734" lon="-72.73722839">
    <tag k="addr:city" v="Plymouth"/>
    <tag k="addr:housenumber" v="5083"/>
    <tag k="addr:street" v="Vermont Route 100"/>
    <tag k="addr:state" v="VT"/>
    <tag k="ref:vcgi:esiteid" v="189666"/>
  </node>
  <node id="-330" visible="true" lat="43.52692413" lon="-72.71666717">
    <tag k="addr:city" v="Plymouth"/>
    <tag k="addr:housenumber" v="864"/>
    <tag k="addr:street" v="Lynds Hill Road"/>
    <tag k="addr:state" v="VT"/>
    <tag k="ref:vcgi:esiteid" v="189667"/>
  </node>
  <node id="-331" visible="true" lat="43.52688217" lon="-72.73619079">
    <tag k="addr:city" v="Plymouth"/>
    <tag k="addr:housenumber" v="5030"/>
    <tag k="addr:street" v="Vermont Route 100"/>
    <tag k="addr:state" v="VT"/>
    <tag k="ref:vcgi:esiteid" v="189668"/>
  </node>
  <node id="-332" visible="true" lat="43.52682495" lon="-72.73662567">
    <tag k="addr:city" v="Plymouth"/>
    <tag k="addr:housenumber" v="5043"/>
    <tag k="addr:street" v="Vermont Route 100"/>
    <tag k="addr:state" v="VT"/>
    <tag k="ref:vcgi:esiteid" v="189669"/>
  </node>
  <node id="-333" visible="true" lat="43.52664947" lon="-72.7359085">
    <tag k="addr:city" v="Plymouth"/>
    <tag k="addr:housenumber" v="5008"/>
    <tag k="addr:street" v="Vermont Route 100"/>
    <tag k="addr:state" v="VT"/>
    <tag k="ref:vcgi:esiteid" v="189670"/>
  </node>
  <node id="-334" visible="true" lat="43.52640094" lon="-72.7226784">
    <tag k="addr:city" v="Plymouth"/>
    <tag k="addr:housenumber" v="469"/>
    <tag k="addr:street" v="Lynds Hill Road"/>
    <tag k="addr:state" v="VT"/>
    <tag k="ref:vcgi:esiteid" v="189671"/>
  </node>
  <node id="-335" visible="true" lat="43.52645873" lon="-72.72022247">
    <tag k="addr:city" v="Plymouth"/>
    <tag k="addr:housenumber" v="667"/>
    <tag k="addr:street" v="Lynds Hill Road"/>
    <tag k="addr:state" v="VT"/>
    <tag k="ref:vcgi:esiteid" v="189672"/>
  </node>
  <node id="-336" visible="true" lat="43.5264474" lon="-72.72380193">
    <tag k="addr:city" v="Plymouth"/>
    <tag k="addr:housenumber" v="426"/>
    <tag k="addr:street" v="Lynds Hill Road"/>
    <tag k="addr:state" v="VT"/>
    <tag k="ref:vcgi:esiteid" v="189673"/>
  </node>
  <node id="-337" visible="true" lat="43.52618026" lon="-72.71860504">
    <tag k="addr:city" v="Plymouth"/>
    <tag k="addr:housenumber" v="741"/>
    <tag k="addr:street" v="Lynds Hill Road"/>
    <tag k="addr:state" v="VT"/>
    <tag k="ref:vcgi:esiteid" v="189674"/>
  </node>
  <node id="-338" visible="true" lat="43.52590942" lon="-72.73649597">
    <tag k="addr:city" v="Plymouth"/>
    <tag k="addr:housenumber" v="60"/>
    <tag k="addr:street" v="Paille Road"/>
    <tag k="addr:state" v="VT"/>
    <tag k="ref:vcgi:esiteid" v="189675"/>
  </node>
  <node id="-339" visible="true" lat="43.52530078" lon="-72.70049373">
    <tag k="addr:city" v="Plymouth"/>
    <tag k="addr:housenumber" v="192"/>
    <tag k="addr:street" v="Windy Lane"/>
    <tag k="addr:state" v="VT"/>
    <tag k="ref:vcgi:esiteid" v="189677"/>
  </node>
  <node id="-340" visible="true" lat="43.52483359" lon="-72.70199533">
    <tag k="addr:city" v="Plymouth"/>
    <tag k="addr:housenumber" v="191"/>
    <tag k="addr:street" v="Windy Lane"/>
    <tag k="addr:state" v="VT"/>
    <tag k="ref:vcgi:esiteid" v="189678"/>
  </node>
  <node id="-343" visible="true" lat="43.52399468" lon="-72.7035934">
    <tag k="addr:city" v="Plymouth"/>
    <tag k="addr:housenumber" v="131"/>
    <tag k="addr:street" v="Windy Lane"/>
    <tag k="addr:state" v="VT"/>
    <tag k="ref:vcgi:esiteid" v="189681"/>
  </node>
  <node id="-345" visible="true" lat="43.52379695" lon="-72.73312832">
    <tag k="addr:city" v="Plymouth"/>
    <tag k="addr:housenumber" v="4772"/>
    <tag k="addr:street" v="Vermont Route 100"/>
    <tag k="addr:state" v="VT"/>
    <tag k="ref:vcgi:esiteid" v="189683"/>
  </node>
  <node id="-346" visible="true" lat="43.52357864" lon="-72.73609161">
    <tag k="addr:city" v="Plymouth"/>
    <tag k="addr:housenumber" v="177"/>
    <tag k="addr:street" v="Black River Road"/>
    <tag k="addr:state" v="VT"/>
    <tag k="ref:vcgi:esiteid" v="189684"/>
  </node>
  <node id="-347" visible="true" lat="43.52339172" lon="-72.73503875">
    <tag k="addr:city" v="Plymouth"/>
    <tag k="addr:housenumber" v="120"/>
    <tag k="addr:street" v="Black River Road"/>
    <tag k="addr:state" v="VT"/>
    <tag k="ref:vcgi:esiteid" v="189685"/>
  </node>
  <node id="-348" visible="true" lat="43.52309036" lon="-72.68913268">
    <tag k="addr:city" v="Plymouth"/>
    <tag k="addr:housenumber" v="2663"/>
    <tag k="addr:street" v="Lynds Hill Road"/>
    <tag k="addr:state" v="VT"/>
    <tag k="ref:vcgi:esiteid" v="189686"/>
  </node>
  <node id="-349" visible="true" lat="43.52302083" lon="-72.73316629">
    <tag k="addr:city" v="Plymouth"/>
    <tag k="addr:housenumber" v="4726"/>
    <tag k="addr:street" v="Vermont Route 100"/>
    <tag k="addr:state" v="VT"/>
    <tag k="ref:vcgi:esiteid" v="189687"/>
  </node>
  <node id="-350" visible="true" lat="43.52291789" lon="-72.73431876">
    <tag k="addr:city" v="Plymouth"/>
    <tag k="addr:housenumber" v="68"/>
    <tag k="addr:street" v="Black River Road"/>
    <tag k="addr:state" v="VT"/>
    <tag k="ref:vcgi:esiteid" v="189688"/>
  </node>
  <node id="-351" visible="true" lat="43.52302932" lon="-72.69727325">
    <tag k="addr:city" v="Plymouth"/>
    <tag k="addr:housenumber" v="2185"/>
    <tag k="addr:street" v="Lynds Hill Road"/>
    <tag k="addr:state" v="VT"/>
    <tag k="ref:vcgi:esiteid" v="189689"/>
  </node>
  <node id="-352" visible="true" lat="43.52302509" lon="-72.68770831">
    <tag k="addr:city" v="Plymouth"/>
    <tag k="addr:housenumber" v="2665"/>
    <tag k="addr:street" v="Lynds Hill Road"/>
    <tag k="addr:state" v="VT"/>
    <tag k="ref:vcgi:esiteid" v="189690"/>
  </node>
  <node id="-353" visible="true" lat="43.52375235" lon="-72.70059958">
    <tag k="addr:city" v="Plymouth"/>
    <tag k="addr:housenumber" v="114"/>
    <tag k="addr:street" v="Windy Lane"/>
    <tag k="addr:state" v="VT"/>
    <tag k="ref:vcgi:esiteid" v="189691"/>
  </node>
  <node id="-354" visible="true" lat="43.52254867" lon="-72.73311615">
    <tag k="addr:city" v="Plymouth"/>
    <tag k="addr:housenumber" v="4696"/>
    <tag k="addr:street" v="Vermont Route 100"/>
    <tag k="addr:state" v="VT"/>
    <tag k="ref:vcgi:esiteid" v="189692"/>
  </node>
  <node id="-355" visible="true" lat="43.52246475" lon="-72.69260406">
    <tag k="addr:city" v="Plymouth"/>
    <tag k="addr:housenumber" v="72"/>
    <tag k="addr:street" v="Johnson Farm Road"/>
    <tag k="addr:state" v="VT"/>
    <tag k="ref:vcgi:esiteid" v="189693"/>
  </node>
  <node id="-356" visible="true" lat="43.52223586" lon="-72.73473358">
    <tag k="addr:city" v="Plymouth"/>
    <tag k="addr:housenumber" v="57"/>
    <tag k="addr:street" v="Black River Road"/>
    <tag k="addr:state" v="VT"/>
    <tag k="ref:vcgi:esiteid" v="189694"/>
  </node>
  <node id="-357" visible="true" lat="43.52213668" lon="-72.73248291">
    <tag k="addr:city" v="Plymouth"/>
    <tag k="addr:housenumber" v="4674"/>
    <tag k="addr:street" v="Vermont Route 100"/>
    <tag k="addr:state" v="VT"/>
    <tag k="ref:vcgi:esiteid" v="189695"/>
  </node>
  <node id="-358" visible="true" lat="43.52204132" lon="-72.73435211">
    <tag k="addr:city" v="Plymouth"/>
    <tag k="addr:housenumber" v="25"/>
    <tag k="addr:street" v="Black River Road"/>
    <tag k="addr:state" v="VT"/>
    <tag k="ref:vcgi:esiteid" v="189696"/>
  </node>
  <node id="-359" visible="true" lat="43.52178696" lon="-72.69024829">
    <tag k="addr:city" v="Plymouth"/>
    <tag k="addr:housenumber" v="2589"/>
    <tag k="addr:street" v="Lynds Hill Road"/>
    <tag k="addr:state" v="VT"/>
    <tag k="ref:vcgi:esiteid" v="189697"/>
  </node>
  <node id="-360" visible="true" lat="43.52178573" lon="-72.73366546">
    <tag k="addr:city" v="Plymouth"/>
    <tag k="addr:housenumber" v="4645"/>
    <tag k="addr:street" v="Vermont Route 100"/>
    <tag k="addr:state" v="VT"/>
    <tag k="ref:vcgi:esiteid" v="189698"/>
  </node>
  <node id="-361" visible="true" lat="43.52204313" lon="-72.69146967">
    <tag k="addr:city" v="Plymouth"/>
    <tag k="addr:housenumber" v="2541"/>
    <tag k="addr:street" v="Lynds Hill Road"/>
    <tag k="addr:state" v="VT"/>
    <tag k="ref:vcgi:esiteid" v="189699"/>
  </node>
  <node id="-362" visible="true" lat="43.52175953" lon="-72.6943715">
    <tag k="addr:city" v="Plymouth"/>
    <tag k="addr:housenumber" v="2371"/>
    <tag k="addr:street" v="Lynds Hill Road"/>
    <tag k="addr:state" v="VT"/>
    <tag k="ref:vcgi:esiteid" v="189700"/>
  </node>
  <node id="-363" visible="true" lat="43.52177429" lon="-72.69554901">
    <tag k="addr:city" v="Plymouth"/>
    <tag k="addr:housenumber" v="2321"/>
    <tag k="addr:street" v="Lynds Hill Road"/>
    <tag k="addr:state" v="VT"/>
    <tag k="ref:vcgi:esiteid" v="189701"/>
  </node>
  <node id="-364" visible="true" lat="43.52178512" lon="-72.70329027">
    <tag k="addr:city" v="Plymouth"/>
    <tag k="addr:housenumber" v="1917"/>
    <tag k="addr:street" v="Lynds Hill Road"/>
    <tag k="addr:state" v="VT"/>
    <tag k="ref:vcgi:esiteid" v="189702"/>
  </node>
  <node id="-365" visible="true" lat="43.52135849" lon="-72.69969177">
    <tag k="addr:city" v="Plymouth"/>
    <tag k="addr:housenumber" v="2110"/>
    <tag k="addr:street" v="Lynds Hill Road"/>
    <tag k="addr:state" v="VT"/>
    <tag k="ref:vcgi:esiteid" v="189703"/>
  </node>
  <node id="-366" visible="true" lat="43.52125445" lon="-72.70069788">
    <tag k="addr:city" v="Plymouth"/>
    <tag k="addr:housenumber" v="2064"/>
    <tag k="addr:street" v="Lynds Hill Road"/>
    <tag k="addr:state" v="VT"/>
    <tag k="ref:vcgi:esiteid" v="189704"/>
  </node>
  <node id="-367" visible="true" lat="43.52117248" lon="-72.68958802">
    <tag k="addr:city" v="Plymouth"/>
    <tag k="addr:housenumber" v="2610"/>
    <tag k="addr:street" v="Lynds Hill Road"/>
    <tag k="addr:state" v="VT"/>
    <tag k="ref:vcgi:esiteid" v="189705"/>
  </node>
  <node id="-369" visible="true" lat="43.52014896" lon="-72.7075711">
    <tag k="addr:city" v="Plymouth"/>
    <tag k="addr:housenumber" v="1688"/>
    <tag k="addr:street" v="Lynds Hill Road"/>
    <tag k="addr:state" v="VT"/>
    <tag k="ref:vcgi:esiteid" v="189707"/>
  </node>
  <node id="-371" visible="true" lat="43.51977128" lon="-72.70484982">
    <tag k="addr:city" v="Plymouth"/>
    <tag k="addr:housenumber" v="1798"/>
    <tag k="addr:street" v="Lynds Hill Road"/>
    <tag k="addr:state" v="VT"/>
    <tag k="ref:vcgi:esiteid" v="189709"/>
  </node>
  <node id="-389" visible="true" lat="43.50831222" lon="-72.71337127">
    <tag k="addr:city" v="Plymouth"/>
    <tag k="addr:housenumber" v="1249"/>
    <tag k="addr:street" v="Salt Ash Road"/>
    <tag k="addr:state" v="VT"/>
    <tag k="ref:vcgi:esiteid" v="189728"/>
  </node>
  <node id="-390" visible="true" lat="43.50823703" lon="-72.71113823">
    <tag k="addr:city" v="Plymouth"/>
    <tag k="addr:housenumber" v="809"/>
    <tag k="addr:street" v="Salt Ash Road"/>
    <tag k="addr:state" v="VT"/>
    <tag k="ref:vcgi:esiteid" v="189729"/>
  </node>
  <node id="-391" visible="true" lat="43.5080221" lon="-72.7161764">
    <tag k="addr:city" v="Plymouth"/>
    <tag k="addr:housenumber" v="133"/>
    <tag k="addr:street" v="Snowy Owl Lane"/>
    <tag k="addr:state" v="VT"/>
    <tag k="ref:vcgi:esiteid" v="189730"/>
  </node>
  <node id="-393" visible="true" lat="43.50795245" lon="-72.71680684">
    <tag k="addr:city" v="Plymouth"/>
    <tag k="addr:housenumber" v="45"/>
    <tag k="addr:street" v="Osprey Place"/>
    <tag k="addr:state" v="VT"/>
    <tag k="ref:vcgi:esiteid" v="189732"/>
  </node>
  <node id="-394" visible="true" lat="43.5078502" lon="-72.72107286">
    <tag k="addr:city" v="Plymouth"/>
    <tag k="addr:housenumber" v="385"/>
    <tag k="addr:street" v="Snowy Owl Lane"/>
    <tag k="addr:state" v="VT"/>
    <tag k="ref:vcgi:esiteid" v="189733"/>
  </node>
  <node id="-396" visible="true" lat="43.50759174" lon="-72.71374054">
    <tag k="addr:city" v="Plymouth"/>
    <tag k="addr:housenumber" v="1295"/>
    <tag k="addr:street" v="Salt Ash Road"/>
    <tag k="addr:state" v="VT"/>
    <tag k="ref:vcgi:esiteid" v="189735"/>
  </node>
  <node id="-397" visible="true" lat="43.50742559" lon="-72.7179522">
    <tag k="addr:city" v="Plymouth"/>
    <tag k="addr:housenumber" v="65"/>
    <tag k="addr:street" v="Osprey Place"/>
    <tag k="addr:state" v="VT"/>
    <tag k="ref:vcgi:esiteid" v="189736"/>
  </node>
  <node id="-398" visible="true" lat="43.50735182" lon="-72.72004083">
    <tag k="addr:city" v="Plymouth"/>
    <tag k="addr:housenumber" v="151"/>
    <tag k="addr:street" v="Osprey Place"/>
    <tag k="addr:state" v="VT"/>
    <tag k="ref:vcgi:esiteid" v="189737"/>
  </node>
  <node id="-399" visible="true" lat="43.5072989" lon="-72.71905083">
    <tag k="addr:city" v="Plymouth"/>
    <tag k="addr:housenumber" v="115"/>
    <tag k="addr:street" v="Osprey Place"/>
    <tag k="addr:state" v="VT"/>
    <tag k="ref:vcgi:esiteid" v="189738"/>
  </node>
  <node id="-400" visible="true" lat="43.50721523" lon="-72.71433506">
    <tag k="addr:city" v="Plymouth"/>
    <tag k="addr:housenumber" v="1343"/>
    <tag k="addr:street" v="Salt Ash Road"/>
    <tag k="addr:state" v="VT"/>
    <tag k="ref:vcgi:esiteid" v="189739"/>
  </node>
  <node id="-401" visible="true" lat="43.50740409" lon="-72.71543642">
    <tag k="addr:city" v="Plymouth"/>
    <tag k="addr:housenumber" v="1326"/>
    <tag k="addr:street" v="Salt Ash Road"/>
    <tag k="addr:state" v="VT"/>
    <tag k="ref:vcgi:esiteid" v="189740"/>
  </node>
  <node id="-402" visible="true" lat="43.50720829" lon="-72.71173624">
    <tag k="addr:city" v="Plymouth"/>
    <tag k="addr:housenumber" v="705"/>
    <tag k="addr:street" v="Salt Ash Road"/>
    <tag k="addr:state" v="VT"/>
    <tag k="ref:vcgi:esiteid" v="189741"/>
  </node>
  <node id="-404" visible="true" lat="43.50680523" lon="-72.72210715">
    <tag k="addr:city" v="Plymouth"/>
    <tag k="addr:housenumber" v="1651"/>
    <tag k="addr:street" v="Salt Ash Road"/>
    <tag k="addr:state" v="VT"/>
    <tag k="ref:vcgi:esiteid" v="189743"/>
  </node>
  <node id="-406" visible="true" lat="43.50680541" lon="-72.71501922">
    <tag k="addr:city" v="Plymouth"/>
    <tag k="addr:housenumber" v="1383"/>
    <tag k="addr:street" v="Salt Ash Road"/>
    <tag k="addr:state" v="VT"/>
    <tag k="ref:vcgi:esiteid" v="189745"/>
  </node>
  <node id="-407" visible="true" lat="43.50672931" lon="-72.7135786">
    <tag k="addr:city" v="Plymouth"/>
    <tag k="addr:housenumber" v="138"/>
    <tag k="addr:street" v="Merlin Way"/>
    <tag k="addr:state" v="VT"/>
    <tag k="ref:vcgi:esiteid" v="189746"/>
  </node>
  <node id="-408" visible="true" lat="43.50674967" lon="-72.71823258">
    <tag k="addr:city" v="Plymouth"/>
    <tag k="addr:housenumber" v="1521"/>
    <tag k="addr:street" v="Salt Ash Road"/>
    <tag k="addr:state" v="VT"/>
    <tag k="ref:vcgi:esiteid" v="189747"/>
  </node>
  <node id="-409" visible="true" lat="43.50659942" lon="-72.71751403">
    <tag k="addr:city" v="Plymouth"/>
    <tag k="addr:housenumber" v="1477"/>
    <tag k="addr:street" v="Salt Ash Road"/>
    <tag k="addr:state" v="VT"/>
    <tag k="ref:vcgi:esiteid" v="189748"/>
  </node>
  <node id="-410" visible="true" lat="43.50671044" lon="-72.7194458">
    <tag k="addr:city" v="Plymouth"/>
    <tag k="addr:housenumber" v="1529"/>
    <tag k="addr:street" v="Salt Ash Road"/>
    <tag k="addr:state" v="VT"/>
    <tag k="ref:vcgi:esiteid" v="189749"/>
  </node>
  <node id="-411" visible="true" lat="43.5065689" lon="-72.70584106">
    <tag k="addr:city" v="Plymouth"/>
    <tag k="addr:housenumber" v="145"/>
    <tag k="addr:street" v="Blueberry Ledge Ridge"/>
    <tag k="addr:state" v="VT"/>
    <tag k="ref:vcgi:esiteid" v="189750"/>
  </node>
  <node id="-412" visible="true" lat="43.50657013" lon="-72.71657465">
    <tag k="addr:city" v="Plymouth"/>
    <tag k="addr:housenumber" v="20"/>
    <tag k="addr:street" v="Merlin Way"/>
    <tag k="addr:state" v="VT"/>
    <tag k="ref:vcgi:esiteid" v="189751"/>
  </node>
  <node id="-413" visible="true" lat="43.50647735" lon="-72.71236419">
    <tag k="addr:city" v="Plymouth"/>
    <tag k="addr:housenumber" v="129"/>
    <tag k="addr:street" v="Falcon Ridge Road"/>
    <tag k="addr:state" v="VT"/>
    <tag k="ref:vcgi:esiteid" v="189752"/>
  </node>
  <node id="-414" visible="true" lat="43.50645065" lon="-72.70666504">
    <tag k="addr:city" v="Plymouth"/>
    <tag k="addr:housenumber" v="181"/>
    <tag k="addr:street" v="Harrier Way"/>
    <tag k="addr:state" v="VT"/>
    <tag k="ref:vcgi:esiteid" v="189753"/>
  </node>
  <node id="-415" visible="true" lat="43.50644293" lon="-72.71446406">
    <tag k="addr:city" v="Plymouth"/>
    <tag k="addr:housenumber" v="84"/>
    <tag k="addr:street" v="Merlin Way"/>
    <tag k="addr:state" v="VT"/>
    <tag k="ref:vcgi:esiteid" v="189754"/>
  </node>
  <node id="-416" visible="true" lat="43.50623321" lon="-72.71096801">
    <tag k="addr:city" v="Plymouth"/>
    <tag k="addr:housenumber" v="648"/>
    <tag k="addr:street" v="Salt Ash Road"/>
    <tag k="addr:state" v="VT"/>
    <tag k="ref:vcgi:esiteid" v="189755"/>
  </node>
  <node id="-417" visible="true" lat="43.5060997" lon="-72.70842742">
    <tag k="addr:city" v="Plymouth"/>
    <tag k="addr:housenumber" v="529"/>
    <tag k="addr:street" v="East Ash Road"/>
    <tag k="addr:state" v="VT"/>
    <tag k="ref:vcgi:esiteid" v="189756"/>
  </node>
  <node id="-418" visible="true" lat="43.50604629" lon="-72.70654296">
    <tag k="addr:city" v="Plymouth"/>
    <tag k="addr:housenumber" v="159"/>
    <tag k="addr:street" v="Harrier Way"/>
    <tag k="addr:state" v="VT"/>
    <tag k="ref:vcgi:esiteid" v="189757"/>
  </node>
  <node id="-419" visible="true" lat="43.50603103" lon="-72.70576477">
    <tag k="addr:city" v="Plymouth"/>
    <tag k="addr:housenumber" v="107"/>
    <tag k="addr:street" v="Blueberry Ledge Ridge"/>
    <tag k="addr:state" v="VT"/>
    <tag k="ref:vcgi:esiteid" v="189758"/>
  </node>
  <node id="-420" visible="true" lat="43.50577315" lon="-72.71333049">
    <tag k="addr:city" v="Plymouth"/>
    <tag k="addr:housenumber" v="199"/>
    <tag k="addr:street" v="Falcon Ridge Road"/>
    <tag k="addr:state" v="VT"/>
    <tag k="ref:vcgi:esiteid" v="189759"/>
  </node>
  <node id="-421" visible="true" lat="43.50568994" lon="-72.70870654">
    <tag k="addr:city" v="Plymouth"/>
    <tag k="addr:housenumber" v="487"/>
    <tag k="addr:street" v="East Ash Road"/>
    <tag k="addr:state" v="VT"/>
    <tag k="ref:vcgi:esiteid" v="189760"/>
  </node>
  <node id="-422" visible="true" lat="43.50563374" lon="-72.71404319">
    <tag k="addr:city" v="Plymouth"/>
    <tag k="addr:housenumber" v="225"/>
    <tag k="addr:street" v="Falcon Ridge Road"/>
    <tag k="addr:state" v="VT"/>
    <tag k="ref:vcgi:esiteid" v="189761"/>
  </node>
  <node id="-423" visible="true" lat="43.50542068" lon="-72.70950317">
    <tag k="addr:city" v="Plymouth"/>
    <tag k="addr:housenumber" v="267"/>
    <tag k="addr:street" v="East Ash Road"/>
    <tag k="addr:state" v="VT"/>
    <tag k="ref:vcgi:esiteid" v="189762"/>
  </node>
  <node id="-424" visible="true" lat="43.50538253" lon="-72.70663452">
    <tag k="addr:city" v="Plymouth"/>
    <tag k="addr:housenumber" v="113"/>
    <tag k="addr:street" v="Harrier Way"/>
    <tag k="addr:state" v="VT"/>
    <tag k="ref:vcgi:esiteid" v="189763"/>
  </node>
  <node id="-425" visible="true" lat="43.50538253" lon="-72.7059555">
    <tag k="addr:city" v="Plymouth"/>
    <tag k="addr:housenumber" v="13"/>
    <tag k="addr:street" v="Blueberry Ledge Ridge"/>
    <tag k="addr:state" v="VT"/>
    <tag k="ref:vcgi:esiteid" v="189764"/>
  </node>
  <node id="-427" visible="true" lat="43.50501632" lon="-72.7059555">
    <tag k="addr:city" v="Plymouth"/>
    <tag k="addr:housenumber" v="11"/>
    <tag k="addr:street" v="Blueberry Ledge Ridge"/>
    <tag k="addr:state" v="VT"/>
    <tag k="ref:vcgi:esiteid" v="189766"/>
  </node>
  <node id="-428" visible="true" lat="43.50497436" lon="-72.70983123">
    <tag k="addr:city" v="Plymouth"/>
    <tag k="addr:housenumber" v="213"/>
    <tag k="addr:street" v="East Ash Road"/>
    <tag k="addr:state" v="VT"/>
    <tag k="ref:vcgi:esiteid" v="189767"/>
  </node>
  <node id="-429" visible="true" lat="43.50478363" lon="-72.70767211">
    <tag k="addr:city" v="Plymouth"/>
    <tag k="addr:housenumber" v="644"/>
    <tag k="addr:street" v="East Ash Road"/>
    <tag k="addr:state" v="VT"/>
    <tag k="ref:vcgi:esiteid" v="189768"/>
  </node>
  <node id="-430" visible="true" lat="43.50476429" lon="-72.71777352">
    <tag k="addr:city" v="Plymouth"/>
    <tag k="addr:housenumber" v="490"/>
    <tag k="addr:street" v="Goshawk Drive"/>
    <tag k="addr:state" v="VT"/>
    <tag k="ref:vcgi:esiteid" v="189769"/>
  </node>
  <node id="-431" visible="true" lat="43.50467681" lon="-72.71102142">
    <tag k="addr:city" v="Plymouth"/>
    <tag k="addr:housenumber" v="470"/>
    <tag k="addr:street" v="Salt Ash Road"/>
    <tag k="addr:state" v="VT"/>
    <tag k="ref:vcgi:esiteid" v="189770"/>
  </node>
  <node id="-432" visible="true" lat="43.5045092" lon="-72.71670814">
    <tag k="addr:city" v="Plymouth"/>
    <tag k="addr:housenumber" v="143"/>
    <tag k="addr:street" v="Kestrell Drive"/>
    <tag k="addr:state" v="VT"/>
    <tag k="ref:vcgi:esiteid" v="189771"/>
  </node>
  <node id="-433" visible="true" lat="43.50454712" lon="-72.70527648">
    <tag k="addr:city" v="Plymouth"/>
    <tag k="addr:housenumber" v="879"/>
    <tag k="addr:street" v="East Ash Road"/>
    <tag k="addr:state" v="VT"/>
    <tag k="ref:vcgi:esiteid" v="189772"/>
  </node>
  <node id="-434" visible="true" lat="43.5041008" lon="-72.70565795">
    <tag k="addr:city" v="Plymouth"/>
    <tag k="addr:housenumber" v="894"/>
    <tag k="addr:street" v="East Ash Road"/>
    <tag k="addr:state" v="VT"/>
    <tag k="ref:vcgi:esiteid" v="189773"/>
  </node>
  <node id="-435" visible="true" lat="43.50413447" lon="-72.715792">
    <tag k="addr:city" v="Plymouth"/>
    <tag k="addr:housenumber" v="123"/>
    <tag k="addr:street" v="Kestrell Drive"/>
    <tag k="addr:state" v="VT"/>
    <tag k="ref:vcgi:esiteid" v="189774"/>
  </node>
  <node id="-436" visible="true" lat="43.50407028" lon="-72.71262359">
    <tag k="addr:city" v="Plymouth"/>
    <tag k="addr:housenumber" v="469"/>
    <tag k="addr:street" v="Salt Ash Road"/>
    <tag k="addr:state" v="VT"/>
    <tag k="ref:vcgi:esiteid" v="189775"/>
  </node>
  <node id="-437" visible="true" lat="43.50393157" lon="-72.71849919">
    <tag k="addr:city" v="Plymouth"/>
    <tag k="addr:housenumber" v="317"/>
    <tag k="addr:street" v="Goshawk Drive"/>
    <tag k="addr:state" v="VT"/>
    <tag k="ref:vcgi:esiteid" v="189776"/>
  </node>
  <node id="-438" visible="true" lat="43.50383758" lon="-72.71792602">
    <tag k="addr:city" v="Plymouth"/>
    <tag k="addr:housenumber" v="267"/>
    <tag k="addr:street" v="Goshawk Drive"/>
    <tag k="addr:state" v="VT"/>
    <tag k="ref:vcgi:esiteid" v="189777"/>
  </node>
  <node id="-439" visible="true" lat="43.50360729" lon="-72.71419859">
    <tag k="addr:city" v="Plymouth"/>
    <tag k="addr:housenumber" v="126"/>
    <tag k="addr:street" v="Goshawk Drive"/>
    <tag k="addr:state" v="VT"/>
    <tag k="ref:vcgi:esiteid" v="189778"/>
  </node>
  <node id="-440" visible="true" lat="43.50356674" lon="-72.70537567">
    <tag k="addr:city" v="Plymouth"/>
    <tag k="addr:housenumber" v="934"/>
    <tag k="addr:street" v="East Ash Road"/>
    <tag k="addr:state" v="VT"/>
    <tag k="ref:vcgi:esiteid" v="189779"/>
  </node>
  <node id="-441" visible="true" lat="43.50356292" lon="-72.70713806">
    <tag k="addr:city" v="Plymouth"/>
    <tag k="addr:housenumber" v="726"/>
    <tag k="addr:street" v="East Ash Road"/>
    <tag k="addr:state" v="VT"/>
    <tag k="ref:vcgi:esiteid" v="189780"/>
  </node>
  <node id="-442" visible="true" lat="43.50358065" lon="-72.7150576">
    <tag k="addr:city" v="Plymouth"/>
    <tag k="addr:housenumber" v="124"/>
    <tag k="addr:street" v="Goshawk Drive"/>
    <tag k="addr:state" v="VT"/>
    <tag k="ref:vcgi:esiteid" v="189781"/>
  </node>
  <node id="-443" visible="true" lat="43.50353779" lon="-72.71311794">
    <tag k="addr:city" v="Plymouth"/>
    <tag k="addr:housenumber" v="363"/>
    <tag k="addr:street" v="Salt Ash Road"/>
    <tag k="addr:state" v="VT"/>
    <tag k="ref:vcgi:esiteid" v="189782"/>
  </node>
  <node id="-444" visible="true" lat="43.5033226" lon="-72.70515441">
    <tag k="addr:city" v="Plymouth"/>
    <tag k="addr:housenumber" v="954"/>
    <tag k="addr:street" v="East Ash Road"/>
    <tag k="addr:state" v="VT"/>
    <tag k="ref:vcgi:esiteid" v="189783"/>
  </node>
  <node id="-446" visible="true" lat="43.50292587" lon="-72.70705413">
    <tag k="addr:city" v="Plymouth"/>
    <tag k="addr:housenumber" v="760"/>
    <tag k="addr:street" v="East Ash Road"/>
    <tag k="addr:state" v="VT"/>
    <tag k="ref:vcgi:esiteid" v="189785"/>
  </node>
  <node id="-450" visible="true" lat="43.5026474" lon="-72.71223449">
    <tag k="addr:city" v="Plymouth"/>
    <tag k="addr:housenumber" v="374"/>
    <tag k="addr:street" v="Salt Ash Road"/>
    <tag k="addr:state" v="VT"/>
    <tag k="ref:vcgi:esiteid" v="189789"/>
  </node>
  <node id="-451" visible="true" lat="43.50255584" lon="-72.70835876">
    <tag k="addr:city" v="Plymouth"/>
    <tag k="addr:housenumber" v="78"/>
    <tag k="addr:street" v="Coopers Trace"/>
    <tag k="addr:state" v="VT"/>
    <tag k="ref:vcgi:esiteid" v="189790"/>
  </node>
  <node id="-452" visible="true" lat="43.50249862" lon="-72.7067871">
    <tag k="addr:city" v="Plymouth"/>
    <tag k="addr:housenumber" v="762"/>
    <tag k="addr:street" v="East Ash Road"/>
    <tag k="addr:state" v="VT"/>
    <tag k="ref:vcgi:esiteid" v="189791"/>
  </node>
  <node id="-453" visible="true" lat="43.50248147" lon="-72.71400516">
    <tag k="addr:city" v="Plymouth"/>
    <tag k="addr:housenumber" v="43"/>
    <tag k="addr:street" v="Goshawk Drive"/>
    <tag k="addr:state" v="VT"/>
    <tag k="ref:vcgi:esiteid" v="189792"/>
  </node>
  <node id="-454" visible="true" lat="43.5023384" lon="-72.70911407">
    <tag k="addr:city" v="Plymouth"/>
    <tag k="addr:housenumber" v="344"/>
    <tag k="addr:street" v="East Ash Road"/>
    <tag k="addr:state" v="VT"/>
    <tag k="ref:vcgi:esiteid" v="189793"/>
  </node>
  <node id="-457" visible="true" lat="43.50215148" lon="-72.70791625">
    <tag k="addr:city" v="Plymouth"/>
    <tag k="addr:housenumber" v="116"/>
    <tag k="addr:street" v="Coopers Trace"/>
    <tag k="addr:state" v="VT"/>
    <tag k="ref:vcgi:esiteid" v="189796"/>
  </node>
  <node id="-458" visible="true" lat="43.5020523" lon="-72.72399902">
    <tag k="addr:city" v="Plymouth"/>
    <tag k="addr:housenumber" v="63"/>
    <tag k="addr:street" v="Frog City Road"/>
    <tag k="addr:state" v="VT"/>
    <tag k="ref:vcgi:esiteid" v="189797"/>
  </node>
  <node id="-459" visible="true" lat="43.50203712" lon="-72.71315549">
    <tag k="addr:city" v="Plymouth"/>
    <tag k="addr:housenumber" v="283"/>
    <tag k="addr:street" v="Salt Ash Road"/>
    <tag k="addr:state" v="VT"/>
    <tag k="ref:vcgi:esiteid" v="189798"/>
  </node>
  <node id="-460" visible="true" lat="43.50165587" lon="-72.71147941">
    <tag k="addr:city" v="Plymouth"/>
    <tag k="addr:housenumber" v="115"/>
    <tag k="addr:street" v="Salt Ash Road"/>
    <tag k="addr:state" v="VT"/>
    <tag k="ref:vcgi:esiteid" v="189799"/>
  </node>
  <node id="-461" visible="true" lat="43.50158093" lon="-72.70735024">
    <tag k="addr:city" v="Plymouth"/>
    <tag k="addr:housenumber" v="164"/>
    <tag k="addr:street" v="Coopers Trace"/>
    <tag k="addr:state" v="VT"/>
    <tag k="ref:vcgi:esiteid" v="189800"/>
  </node>
  <node id="-463" visible="true" lat="43.50100097" lon="-72.72398801">
    <tag k="addr:city" v="Plymouth"/>
    <tag k="addr:housenumber" v="127"/>
    <tag k="addr:street" v="Frog City Road"/>
    <tag k="addr:state" v="VT"/>
    <tag k="ref:vcgi:esiteid" v="189802"/>
  </node>
  <node id="-464" visible="true" lat="43.5011177" lon="-72.70698547">
    <tag k="addr:city" v="Plymouth"/>
    <tag k="addr:housenumber" v="190"/>
    <tag k="addr:street" v="Coopers Trace"/>
    <tag k="addr:state" v="VT"/>
    <tag k="ref:vcgi:esiteid" v="189803"/>
  </node>
  <node id="-465" visible="true" lat="43.50081775" lon="-72.72601816">
    <tag k="addr:city" v="Plymouth"/>
    <tag k="addr:housenumber" v="170"/>
    <tag k="addr:street" v="Frog City Road"/>
    <tag k="addr:state" v="VT"/>
    <tag k="ref:vcgi:esiteid" v="189805"/>
  </node>
  <node id="-467" visible="true" lat="43.49994946" lon="-72.71457237">
    <tag k="addr:city" v="Plymouth"/>
    <tag k="addr:housenumber" v="75"/>
    <tag k="addr:street" v="Billings Road"/>
    <tag k="addr:state" v="VT"/>
    <tag k="ref:vcgi:esiteid" v="189807"/>
  </node>
  <node id="-468" visible="true" lat="43.5000001" lon="-72.71530444">
    <tag k="addr:city" v="Plymouth"/>
    <tag k="addr:housenumber" v="57"/>
    <tag k="addr:street" v="Billings Road"/>
    <tag k="addr:state" v="VT"/>
    <tag k="ref:vcgi:esiteid" v="189808"/>
  </node>
  <node id="-472" visible="true" lat="43.49866844" lon="-72.72509851">
    <tag k="addr:city" v="Plymouth"/>
    <tag k="addr:housenumber" v="303"/>
    <tag k="addr:street" v="Frog City Road"/>
    <tag k="addr:state" v="VT"/>
    <tag k="ref:vcgi:esiteid" v="189814"/>
  </node>
  <node id="-473" visible="true" lat="43.49835968" lon="-72.71770477">
    <tag k="addr:city" v="Plymouth"/>
    <tag k="addr:housenumber" v="156"/>
    <tag k="addr:street" v="Crimson Hawk Road"/>
    <tag k="addr:state" v="VT"/>
    <tag k="ref:vcgi:esiteid" v="189815"/>
  </node>
  <node id="-474" visible="true" lat="43.49794387" lon="-72.71701812">
    <tag k="addr:city" v="Plymouth"/>
    <tag k="addr:housenumber" v="312"/>
    <tag k="addr:street" v="Crimson Hawk Road"/>
    <tag k="addr:state" v="VT"/>
    <tag k="ref:vcgi:esiteid" v="189816"/>
  </node>
  <node id="-476" visible="true" lat="43.49778876" lon="-72.7150462">
    <tag k="addr:city" v="Plymouth"/>
    <tag k="addr:housenumber" v="323"/>
    <tag k="addr:street" v="Crimson Hawk Road"/>
    <tag k="addr:state" v="VT"/>
    <tag k="ref:vcgi:esiteid" v="189818"/>
  </node>
  <node id="-477" visible="true" lat="43.49720793" lon="-72.74107093">
    <tag k="addr:city" v="Plymouth"/>
    <tag k="addr:housenumber" v="763"/>
    <tag k="addr:street" v="Reggies Road"/>
    <tag k="addr:state" v="VT"/>
    <tag k="ref:vcgi:esiteid" v="189819"/>
  </node>
  <node id="-480" visible="true" lat="43.49726104" lon="-72.71608734">
    <tag k="addr:city" v="Plymouth"/>
    <tag k="addr:housenumber" v="314"/>
    <tag k="addr:street" v="Crimson Hawk Road"/>
    <tag k="addr:state" v="VT"/>
    <tag k="ref:vcgi:esiteid" v="189822"/>
  </node>
  <node id="-481" visible="true" lat="43.49715011" lon="-72.7173066">
    <tag k="addr:city" v="Plymouth"/>
    <tag k="addr:housenumber" v="284"/>
    <tag k="addr:street" v="Soaring Hawk Road"/>
    <tag k="addr:state" v="VT"/>
    <tag k="ref:vcgi:esiteid" v="189823"/>
  </node>
  <node id="-482" visible="true" lat="43.49699461" lon="-72.72082025">
    <tag k="addr:city" v="Plymouth"/>
    <tag k="addr:housenumber" v="472"/>
    <tag k="addr:street" v="Soaring Hawk Road"/>
    <tag k="addr:state" v="VT"/>
    <tag k="ref:vcgi:esiteid" v="189824"/>
  </node>
  <node id="-483" visible="true" lat="43.49707794" lon="-72.71559143">
    <tag k="addr:city" v="Plymouth"/>
    <tag k="addr:housenumber" v="366"/>
    <tag k="addr:street" v="Crimson Hawk Road"/>
    <tag k="addr:state" v="VT"/>
    <tag k="ref:vcgi:esiteid" v="189825"/>
  </node>
  <node id="-485" visible="true" lat="43.49675113" lon="-72.71853382">
    <tag k="addr:city" v="Plymouth"/>
    <tag k="addr:housenumber" v="405"/>
    <tag k="addr:street" v="Soaring Hawk Road"/>
    <tag k="addr:state" v="VT"/>
    <tag k="ref:vcgi:esiteid" v="189827"/>
  </node>
  <node id="-486" visible="true" lat="43.49642944" lon="-72.71498107">
    <tag k="addr:city" v="Plymouth"/>
    <tag k="addr:housenumber" v="368"/>
    <tag k="addr:street" v="Crimson Hawk Road"/>
    <tag k="addr:state" v="VT"/>
    <tag k="ref:vcgi:esiteid" v="189828"/>
  </node>
  <node id="-487" visible="true" lat="43.49640495" lon="-72.70692596">
    <tag k="addr:city" v="Plymouth"/>
    <tag k="addr:housenumber" v="180"/>
    <tag k="addr:street" v="Meadow Hawk Road"/>
    <tag k="addr:state" v="VT"/>
    <tag k="ref:vcgi:esiteid" v="189829"/>
  </node>
  <node id="-488" visible="true" lat="43.49625995" lon="-72.71882178">
    <tag k="addr:city" v="Plymouth"/>
    <tag k="addr:housenumber" v="311"/>
    <tag k="addr:street" v="Hawk Spur Road"/>
    <tag k="addr:state" v="VT"/>
    <tag k="ref:vcgi:esiteid" v="189830"/>
  </node>
  <node id="-489" visible="true" lat="43.49635372" lon="-72.70611208">
    <tag k="addr:city" v="Plymouth"/>
    <tag k="addr:housenumber" v="152"/>
    <tag k="addr:street" v="Meadow Hawk Road"/>
    <tag k="addr:state" v="VT"/>
    <tag k="ref:vcgi:esiteid" v="189831"/>
  </node>
  <node id="-491" visible="true" lat="43.49396171" lon="-72.74695617">
    <tag k="addr:city" v="Plymouth"/>
    <tag k="addr:housenumber" v="765"/>
    <tag k="addr:street" v="Reggies Road"/>
    <tag k="addr:state" v="VT"/>
    <tag k="ref:vcgi:esiteid" v="189833"/>
  </node>
  <node id="-492" visible="true" lat="43.49568308" lon="-72.71829774">
    <tag k="addr:city" v="Plymouth"/>
    <tag k="addr:housenumber" v="375"/>
    <tag k="addr:street" v="Hawk Spur Road"/>
    <tag k="addr:state" v="VT"/>
    <tag k="ref:vcgi:esiteid" v="189834"/>
  </node>
  <node id="-493" visible="true" lat="43.49576568" lon="-72.71581268">
    <tag k="addr:city" v="Plymouth"/>
    <tag k="addr:housenumber" v="232"/>
    <tag k="addr:street" v="Soaring Hawk Road"/>
    <tag k="addr:state" v="VT"/>
    <tag k="ref:vcgi:esiteid" v="189835"/>
  </node>
  <node id="-494" visible="true" lat="43.49591347" lon="-72.70701461">
    <tag k="addr:city" v="Plymouth"/>
    <tag k="addr:housenumber" v="181"/>
    <tag k="addr:street" v="Meadow Hawk Road"/>
    <tag k="addr:state" v="VT"/>
    <tag k="ref:vcgi:esiteid" v="189836"/>
  </node>
  <node id="-495" visible="true" lat="43.49563217" lon="-72.72058868">
    <tag k="addr:city" v="Plymouth"/>
    <tag k="addr:housenumber" v="261"/>
    <tag k="addr:street" v="Hawk Spur Road"/>
    <tag k="addr:state" v="VT"/>
    <tag k="ref:vcgi:esiteid" v="189837"/>
  </node>
  <node id="-496" visible="true" lat="43.49541369" lon="-72.71690977">
    <tag k="addr:city" v="Plymouth"/>
    <tag k="addr:housenumber" v="233"/>
    <tag k="addr:street" v="Soaring Hawk Road"/>
    <tag k="addr:state" v="VT"/>
    <tag k="ref:vcgi:esiteid" v="189838"/>
  </node>
  <node id="-499" visible="true" lat="43.4949789" lon="-72.72067012">
    <tag k="addr:city" v="Plymouth"/>
    <tag k="addr:housenumber" v="217"/>
    <tag k="addr:street" v="Hawk Spur Road"/>
    <tag k="addr:state" v="VT"/>
    <tag k="ref:vcgi:esiteid" v="189841"/>
  </node>
  <node id="-500" visible="true" lat="43.49451466" lon="-72.71479455">
    <tag k="addr:city" v="Plymouth"/>
    <tag k="addr:housenumber" v="548"/>
    <tag k="addr:street" v="Crimson Hawk Road"/>
    <tag k="addr:state" v="VT"/>
    <tag k="ref:vcgi:esiteid" v="189842"/>
  </node>
  <node id="-501" visible="true" lat="43.49462127" lon="-72.70599365">
    <tag k="addr:city" v="Plymouth"/>
    <tag k="addr:housenumber" v="362"/>
    <tag k="addr:street" v="Scout Camp Road"/>
    <tag k="addr:state" v="VT"/>
    <tag k="ref:vcgi:esiteid" v="189843"/>
  </node>
  <node id="-502" visible="true" lat="43.49461364" lon="-72.70675659">
    <tag k="addr:city" v="Plymouth"/>
    <tag k="addr:housenumber" v="377"/>
    <tag k="addr:street" v="Scout Camp Road"/>
    <tag k="addr:state" v="VT"/>
    <tag k="ref:vcgi:esiteid" v="189844"/>
  </node>
  <node id="-504" visible="true" lat="43.49441909" lon="-72.71659088">
    <tag k="addr:city" v="Plymouth"/>
    <tag k="addr:housenumber" v="105"/>
    <tag k="addr:street" v="Soaring Hawk Road"/>
    <tag k="addr:state" v="VT"/>
    <tag k="ref:vcgi:esiteid" v="189846"/>
  </node>
  <node id="-506" visible="true" lat="43.49411773" lon="-72.71375274">
    <tag k="addr:city" v="Plymouth"/>
    <tag k="addr:housenumber" v="559"/>
    <tag k="addr:street" v="Crimson Hawk Road"/>
    <tag k="addr:state" v="VT"/>
    <tag k="ref:vcgi:esiteid" v="189848"/>
  </node>
  <node id="-509" visible="true" lat="43.49371337" lon="-72.71889495">
    <tag k="addr:city" v="Plymouth"/>
    <tag k="addr:housenumber" v="588"/>
    <tag k="addr:street" v="Hawk Spur Road"/>
    <tag k="addr:state" v="VT"/>
    <tag k="ref:vcgi:esiteid" v="189851"/>
  </node>
  <node id="-513" visible="true" lat="43.49320619" lon="-72.71153346">
    <tag k="addr:city" v="Plymouth"/>
    <tag k="addr:housenumber" v="1017"/>
    <tag k="addr:street" v="Crown Point Road"/>
    <tag k="addr:state" v="VT"/>
    <tag k="ref:vcgi:esiteid" v="189855"/>
  </node>
  <node id="-514" visible="true" lat="43.49310445" lon="-72.71778434">
    <tag k="addr:city" v="Plymouth"/>
    <tag k="addr:housenumber" v="507"/>
    <tag k="addr:street" v="Hawk Spur Road"/>
    <tag k="addr:state" v="VT"/>
    <tag k="ref:vcgi:esiteid" v="189856"/>
  </node>
  <node id="-515" visible="true" lat="43.49278259" lon="-72.71434783">
    <tag k="addr:city" v="Plymouth"/>
    <tag k="addr:housenumber" v="810"/>
    <tag k="addr:street" v="Crown Point Road"/>
    <tag k="addr:state" v="VT"/>
    <tag k="ref:vcgi:esiteid" v="189857"/>
  </node>
  <node id="-516" visible="true" lat="43.4927864" lon="-72.71063995">
    <tag k="addr:city" v="Plymouth"/>
    <tag k="addr:housenumber" v="1039"/>
    <tag k="addr:street" v="Crown Point Road"/>
    <tag k="addr:state" v="VT"/>
    <tag k="ref:vcgi:esiteid" v="189858"/>
  </node>
  <node id="-517" visible="true" lat="43.4923961" lon="-72.70958829">
    <tag k="addr:city" v="Plymouth"/>
    <tag k="addr:housenumber" v="44"/>
    <tag k="addr:street" v="Campground Road"/>
    <tag k="addr:state" v="VT"/>
    <tag k="ref:vcgi:esiteid" v="189859"/>
  </node>
  <node id="-519" visible="true" lat="43.49221038" lon="-72.70619201">
    <tag k="addr:city" v="Plymouth"/>
    <tag k="addr:housenumber" v="178"/>
    <tag k="addr:street" v="Scout Camp Road"/>
    <tag k="addr:state" v="VT"/>
    <tag k="ref:vcgi:esiteid" v="189861"/>
  </node>
  <node id="-523" visible="true" lat="43.49191681" lon="-72.70717298">
    <tag k="addr:city" v="Plymouth"/>
    <tag k="addr:housenumber" v="157"/>
    <tag k="addr:street" v="Scout Camp Road"/>
    <tag k="addr:state" v="VT"/>
    <tag k="ref:vcgi:esiteid" v="189865"/>
  </node>
  <node id="-524" visible="true" lat="43.4918785" lon="-72.70908355">
    <tag k="addr:city" v="Plymouth"/>
    <tag k="addr:housenumber" v="29"/>
    <tag k="addr:street" v="Campground Road"/>
    <tag k="addr:state" v="VT"/>
    <tag k="ref:vcgi:esiteid" v="189866"/>
  </node>
  <node id="-525" visible="true" lat="43.4916513" lon="-72.70994118">
    <tag k="addr:city" v="Plymouth"/>
    <tag k="addr:housenumber" v="62"/>
    <tag k="addr:street" v="Campground Road"/>
    <tag k="addr:state" v="VT"/>
    <tag k="ref:vcgi:esiteid" v="189867"/>
  </node>
  <node id="-526" visible="true" lat="43.49172973" lon="-72.71886444">
    <tag k="addr:city" v="Plymouth"/>
    <tag k="addr:housenumber" v="576"/>
    <tag k="addr:street" v="Crown Point Road"/>
    <tag k="addr:state" v="VT"/>
    <tag k="ref:vcgi:esiteid" v="189868"/>
  </node>
  <node id="-531" visible="true" lat="43.49124908" lon="-72.72016906">
    <tag k="addr:city" v="Plymouth"/>
    <tag k="addr:housenumber" v="506"/>
    <tag k="addr:street" v="Crown Point Road"/>
    <tag k="addr:state" v="VT"/>
    <tag k="ref:vcgi:esiteid" v="189873"/>
  </node>
  <node id="-532" visible="true" lat="43.49123763" lon="-72.70900726">
    <tag k="addr:city" v="Plymouth"/>
    <tag k="addr:housenumber" v="81"/>
    <tag k="addr:street" v="Campground Road"/>
    <tag k="addr:state" v="VT"/>
    <tag k="ref:vcgi:esiteid" v="189874"/>
  </node>
  <node id="-534" visible="true" lat="43.49120712" lon="-72.7078247">
    <tag k="addr:city" v="Plymouth"/>
    <tag k="addr:housenumber" v="47"/>
    <tag k="addr:street" v="Scout Camp Road"/>
    <tag k="addr:state" v="VT"/>
    <tag k="ref:vcgi:esiteid" v="189876"/>
  </node>
  <node id="-535" visible="true" lat="43.49093628" lon="-72.70920562">
    <tag k="addr:city" v="Plymouth"/>
    <tag k="addr:housenumber" v="101"/>
    <tag k="addr:street" v="Campground Road"/>
    <tag k="addr:state" v="VT"/>
    <tag k="ref:vcgi:esiteid" v="189877"/>
  </node>
  <node id="-536" visible="true" lat="43.49056625" lon="-72.70909881">
    <tag k="addr:city" v="Plymouth"/>
    <tag k="addr:housenumber" v="135"/>
    <tag k="addr:street" v="Campground Road"/>
    <tag k="addr:state" v="VT"/>
    <tag k="ref:vcgi:esiteid" v="189878"/>
  </node>
  <node id="-537" visible="true" lat="43.4902153" lon="-72.70908355">
    <tag k="addr:city" v="Plymouth"/>
    <tag k="addr:housenumber" v="161"/>
    <tag k="addr:street" v="Campground Road"/>
    <tag k="addr:state" v="VT"/>
    <tag k="ref:vcgi:esiteid" v="189879"/>
  </node>
  <node id="-538" visible="true" lat="43.48987579" lon="-72.70895385">
    <tag k="addr:city" v="Plymouth"/>
    <tag k="addr:housenumber" v="183"/>
    <tag k="addr:street" v="Campground Road"/>
    <tag k="addr:state" v="VT"/>
    <tag k="ref:vcgi:esiteid" v="189880"/>
  </node>
  <node id="-545" visible="true" lat="43.48760604" lon="-72.72737121">
    <tag k="addr:city" v="Plymouth"/>
    <tag k="addr:housenumber" v="2146"/>
    <tag k="addr:street" v="Dublin Road"/>
    <tag k="addr:state" v="VT"/>
    <tag k="ref:vcgi:esiteid" v="189887"/>
  </node>
  <node id="-551" visible="true" lat="43.481781" lon="-72.725914">
    <tag k="addr:city" v="Plymouth"/>
    <tag k="addr:housenumber" v="1693"/>
    <tag k="addr:street" v="Dublin Road"/>
    <tag k="addr:state" v="VT"/>
    <tag k="ref:vcgi:esiteid" v="189893"/>
  </node>
  <node id="-554" visible="true" lat="43.48115539" lon="-72.75554656">
    <tag k="addr:city" v="Plymouth"/>
    <tag k="addr:housenumber" v="145"/>
    <tag k="addr:street" v="Unknown Soldier Road"/>
    <tag k="addr:state" v="VT"/>
    <tag k="ref:vcgi:esiteid" v="189896"/>
  </node>
  <node id="-555" visible="true" lat="43.48085022" lon="-72.72446441">
    <tag k="addr:city" v="Plymouth"/>
    <tag k="addr:housenumber" v="1606"/>
    <tag k="addr:street" v="Dublin Road"/>
    <tag k="addr:state" v="VT"/>
    <tag k="ref:vcgi:esiteid" v="189897"/>
  </node>
  <node id="-557" visible="true" lat="43.48051071" lon="-72.72503662">
    <tag k="addr:city" v="Plymouth"/>
    <tag k="addr:housenumber" v="1587"/>
    <tag k="addr:street" v="Dublin Road"/>
    <tag k="addr:state" v="VT"/>
    <tag k="ref:vcgi:esiteid" v="189899"/>
  </node>
  <node id="-559" visible="true" lat="43.48045502" lon="-72.72452251">
    <tag k="addr:city" v="Plymouth"/>
    <tag k="addr:housenumber" v="1566"/>
    <tag k="addr:street" v="Dublin Road"/>
    <tag k="addr:state" v="VT"/>
    <tag k="ref:vcgi:esiteid" v="189901"/>
  </node>
  <node id="-560" visible="true" lat="43.47986221" lon="-72.72626495">
    <tag k="addr:city" v="Plymouth"/>
    <tag k="addr:housenumber" v="1599"/>
    <tag k="addr:street" v="Dublin Road"/>
    <tag k="addr:state" v="VT"/>
    <tag k="ref:vcgi:esiteid" v="189902"/>
  </node>
  <node id="-566" visible="true" lat="43.47871398" lon="-72.72244262">
    <tag k="addr:city" v="Plymouth"/>
    <tag k="addr:housenumber" v="1392"/>
    <tag k="addr:street" v="Dublin Road"/>
    <tag k="addr:state" v="VT"/>
    <tag k="ref:vcgi:esiteid" v="189909"/>
  </node>
  <node id="-571" visible="true" lat="43.47799548" lon="-72.72065143">
    <tag k="addr:city" v="Plymouth"/>
    <tag k="addr:housenumber" v="99"/>
    <tag k="addr:street" v="Davis Road"/>
    <tag k="addr:state" v="VT"/>
    <tag k="ref:vcgi:esiteid" v="189914"/>
  </node>
  <node id="-586" visible="true" lat="43.47604199" lon="-72.75553436">
    <tag k="addr:city" v="Plymouth"/>
    <tag k="addr:housenumber" v="255"/>
    <tag k="addr:street" v="Dam Road"/>
    <tag k="addr:state" v="VT"/>
    <tag k="ref:vcgi:esiteid" v="189930"/>
  </node>
  <node id="-732" visible="true" lat="43.57212829" lon="-72.76216888">
    <tag k="addr:city" v="Plymouth"/>
    <tag k="addr:housenumber" v="8614"/>
    <tag k="addr:street" v="Vermont Route 100"/>
    <tag k="addr:state" v="VT"/>
    <tag k="ref:vcgi:esiteid" v="190079"/>
  </node>
  <node id="-741" visible="true" lat="43.52077438" lon="-72.71097255">
    <tag k="addr:city" v="Plymouth"/>
    <tag k="addr:housenumber" v="1515"/>
    <tag k="addr:street" v="Lynds Hill Road"/>
    <tag k="addr:state" v="VT"/>
    <tag k="ref:vcgi:esiteid" v="190089"/>
  </node>
  <node id="-742" visible="true" lat="43.52248106" lon="-72.71134729">
    <tag k="addr:city" v="Plymouth"/>
    <tag k="addr:housenumber" v="1511"/>
    <tag k="addr:street" v="Lynds Hill Road"/>
    <tag k="addr:state" v="VT"/>
    <tag k="ref:vcgi:esiteid" v="190090"/>
  </node>
  <node id="-744" visible="true" lat="43.52413304" lon="-72.68668578">
    <tag k="addr:city" v="Plymouth"/>
    <tag k="addr:housenumber" v="2827"/>
    <tag k="addr:street" v="Lynds Hill Road"/>
    <tag k="addr:state" v="VT"/>
    <tag k="ref:vcgi:esiteid" v="190094"/>
  </node>
  <node id="-754" visible="true" lat="43.49290345" lon="-72.71880643">
    <tag k="addr:city" v="Plymouth"/>
    <tag k="addr:housenumber" v="583"/>
    <tag k="addr:street" v="Hawk Spur Road"/>
    <tag k="addr:state" v="VT"/>
    <tag k="ref:vcgi:esiteid" v="190104"/>
  </node>
  <node id="-759" visible="true" lat="43.56410217" lon="-72.75434875">
    <tag k="addr:city" v="Plymouth"/>
    <tag k="addr:housenumber" v="1042"/>
    <tag k="addr:street" v="Farm And Wilderness Road"/>
    <tag k="addr:state" v="VT"/>
    <tag k="ref:vcgi:esiteid" v="190109"/>
  </node>
  <node id="-760" visible="true" lat="43.56325912" lon="-72.75275421">
    <tag k="addr:city" v="Plymouth"/>
    <tag k="addr:housenumber" v="1131"/>
    <tag k="addr:street" v="Farm And Wilderness Road"/>
    <tag k="addr:state" v="VT"/>
    <tag k="ref:vcgi:esiteid" v="190110"/>
  </node>
  <node id="-765" visible="true" lat="43.53898779" lon="-72.74342397">
    <tag k="addr:city" v="Plymouth"/>
    <tag k="addr:housenumber" v="100"/>
    <tag k="addr:street" v="Ricks Road"/>
    <tag k="addr:state" v="VT"/>
    <tag k="ref:vcgi:esiteid" v="190115"/>
  </node>
  <node id="-766" visible="true" lat="43.53874376" lon="-72.74407138">
    <tag k="addr:city" v="Plymouth"/>
    <tag k="addr:housenumber" v="78"/>
    <tag k="addr:street" v="Ricks Road"/>
    <tag k="addr:state" v="VT"/>
    <tag k="ref:vcgi:esiteid" v="190116"/>
  </node>
  <node id="-772" visible="true" lat="43.53458404" lon="-72.75115203">
    <tag k="addr:city" v="Plymouth"/>
    <tag k="addr:housenumber" v="515"/>
    <tag k="addr:street" v="Round Top Road"/>
    <tag k="addr:state" v="VT"/>
    <tag k="ref:vcgi:esiteid" v="190122"/>
  </node>
  <node id="-773" visible="true" lat="43.53140103" lon="-72.74389674">
    <tag k="addr:city" v="Plymouth"/>
    <tag k="addr:housenumber" v="311"/>
    <tag k="addr:street" v="Dead End Road"/>
    <tag k="addr:state" v="VT"/>
    <tag k="ref:vcgi:esiteid" v="190123"/>
  </node>
  <node id="-774" visible="true" lat="43.52034344" lon="-72.70382781">
    <tag k="addr:city" v="Plymouth"/>
    <tag k="addr:housenumber" v="1830"/>
    <tag k="addr:street" v="Lynds Hill Road"/>
    <tag k="addr:state" v="VT"/>
    <tag k="ref:vcgi:esiteid" v="190124"/>
  </node>
  <node id="-779" visible="true" lat="43.53903021" lon="-72.75023716">
    <tag k="addr:city" v="Plymouth"/>
    <tag k="addr:housenumber" v="228"/>
    <tag k="addr:street" v="Great Roaring Brook Road"/>
    <tag k="addr:state" v="VT"/>
    <tag k="ref:vcgi:esiteid" v="190129"/>
  </node>
  <node id="-780" visible="true" lat="43.53500966" lon="-72.75816683">
    <tag k="addr:city" v="Plymouth"/>
    <tag k="addr:housenumber" v="980"/>
    <tag k="addr:street" v="Great Roaring Brook Road"/>
    <tag k="addr:state" v="VT"/>
    <tag k="ref:vcgi:esiteid" v="190130"/>
  </node>
  <node id="-791" visible="true" lat="43.57767127" lon="-72.75808044">
    <tag k="addr:city" v="Plymouth"/>
    <tag k="addr:housenumber" v="115"/>
    <tag k="addr:street" v="Owen Road"/>
    <tag k="addr:state" v="VT"/>
    <tag k="ref:vcgi:esiteid" v="190143"/>
  </node>
  <node id="-794" visible="true" lat="43.53663875" lon="-72.74686677">
    <tag k="addr:city" v="Plymouth"/>
    <tag k="addr:housenumber" v="255"/>
    <tag k="addr:street" v="Round Top Road"/>
    <tag k="addr:state" v="VT"/>
    <tag k="ref:vcgi:esiteid" v="190146"/>
  </node>
  <node id="-795" visible="true" lat="43.53306953" lon="-72.74346862">
    <tag k="addr:city" v="Plymouth"/>
    <tag k="addr:housenumber" v="236"/>
    <tag k="addr:street" v="Town Office Road"/>
    <tag k="addr:state" v="VT"/>
    <tag k="ref:vcgi:esiteid" v="190147"/>
  </node>
  <node id="-797" visible="true" lat="43.52388743" lon="-72.69323131">
    <tag k="addr:city" v="Plymouth"/>
    <tag k="addr:housenumber" v="121"/>
    <tag k="addr:street" v="Johnson Farm Road"/>
    <tag k="addr:state" v="VT"/>
    <tag k="ref:vcgi:esiteid" v="190149"/>
  </node>
  <node id="-804" visible="true" lat="43.50521653" lon="-72.7108284">
    <tag k="addr:city" v="Plymouth"/>
    <tag k="addr:housenumber" v="476"/>
    <tag k="addr:street" v="Salt Ash Road"/>
    <tag k="addr:state" v="VT"/>
    <tag k="ref:vcgi:esiteid" v="190156"/>
  </node>
  <node id="-808" visible="true" lat="43.52098757" lon="-72.69225061">
    <tag k="addr:city" v="Plymouth"/>
    <tag k="addr:housenumber" v="2452"/>
    <tag k="addr:street" v="Lynds Hill Road"/>
    <tag k="addr:state" v="VT"/>
    <tag k="ref:vcgi:esiteid" v="190160"/>
  </node>
  <node id="-813" visible="true" lat="43.5358793" lon="-72.72276886">
    <tag k="addr:city" v="Plymouth"/>
    <tag k="addr:housenumber" v="65"/>
    <tag k="addr:street" v="Messer Hill Road"/>
    <tag k="addr:state" v="VT"/>
    <tag k="ref:vcgi:esiteid" v="190166"/>
  </node>
  <node id="-817" visible="true" lat="43.47944728" lon="-72.72371991">
    <tag k="addr:city" v="Plymouth"/>
    <tag k="addr:housenumber" v="1492"/>
    <tag k="addr:street" v="Dublin Road"/>
    <tag k="addr:state" v="VT"/>
    <tag k="ref:vcgi:esiteid" v="190170"/>
  </node>
  <node id="-826" visible="true" lat="43.50559664" lon="-72.71545459">
    <tag k="addr:city" v="Plymouth"/>
    <tag k="addr:housenumber" v="284"/>
    <tag k="addr:street" v="Falcon Ridge Road"/>
    <tag k="addr:state" v="VT"/>
    <tag k="ref:vcgi:esiteid" v="190179"/>
  </node>
  <node id="-828" visible="true" lat="43.50035546" lon="-72.71475333">
    <tag k="addr:city" v="Plymouth"/>
    <tag k="addr:housenumber" v="135"/>
    <tag k="addr:street" v="Billings Road"/>
    <tag k="addr:state" v="VT"/>
    <tag k="ref:vcgi:esiteid" v="190181"/>
  </node>
  <node id="-829" visible="true" lat="43.49771792" lon="-72.70607771">
    <tag k="addr:city" v="Plymouth"/>
    <tag k="addr:housenumber" v="513"/>
    <tag k="addr:street" v="Billings Road"/>
    <tag k="addr:state" v="VT"/>
    <tag k="ref:vcgi:esiteid" v="190182"/>
  </node>
  <node id="-830" visible="true" lat="43.49643965" lon="-72.70508067">
    <tag k="addr:city" v="Plymouth"/>
    <tag k="addr:housenumber" v="170"/>
    <tag k="addr:street" v="Meadow Hawk Road"/>
    <tag k="addr:state" v="VT"/>
    <tag k="ref:vcgi:esiteid" v="190183"/>
  </node>
  <node id="-831" visible="true" lat="43.53311288" lon="-72.74290263">
    <tag k="addr:city" v="Plymouth"/>
    <tag k="addr:housenumber" v="178"/>
    <tag k="addr:street" v="Town Office Road"/>
    <tag k="addr:state" v="VT"/>
    <tag k="ref:vcgi:esiteid" v="190184"/>
  </node>
  <node id="-834" visible="true" lat="43.55947308" lon="-72.66689278">
    <tag k="addr:city" v="Plymouth"/>
    <tag k="addr:housenumber" v="958"/>
    <tag k="addr:street" v="Hale Hollow Road"/>
    <tag k="addr:state" v="VT"/>
    <tag k="ref:vcgi:esiteid" v="190188"/>
  </node>
  <node id="-837" visible="true" lat="43.57118868" lon="-72.75684268">
    <tag k="addr:city" v="Plymouth"/>
    <tag k="addr:housenumber" v="525"/>
    <tag k="addr:street" v="Farm And Wilderness Road"/>
    <tag k="addr:state" v="VT"/>
    <tag k="ref:vcgi:esiteid" v="190191"/>
  </node>
  <node id="-840" visible="true" lat="43.55296004" lon="-72.75285591">
    <tag k="addr:city" v="Plymouth"/>
    <tag k="addr:housenumber" v="6868"/>
    <tag k="addr:street" v="Vermont Route 100"/>
    <tag k="addr:state" v="VT"/>
    <tag k="ref:vcgi:esiteid" v="190194"/>
  </node>
  <node id="-841" visible="true" lat="43.50405103" lon="-72.71052723">
    <tag k="addr:city" v="Plymouth"/>
    <tag k="addr:housenumber" v="51"/>
    <tag k="addr:street" v="East Ash Road"/>
    <tag k="addr:state" v="VT"/>
    <tag k="ref:vcgi:esiteid" v="190195"/>
  </node>
  <node id="-848" visible="true" lat="43.53155565" lon="-72.74723418">
    <tag k="addr:city" v="Plymouth"/>
    <tag k="addr:housenumber" v="241"/>
    <tag k="addr:street" v="Bear Hill Road"/>
    <tag k="addr:state" v="VT"/>
    <tag k="ref:vcgi:esiteid" v="190203"/>
  </node>
  <node id="-849" visible="true" lat="43.53330531" lon="-72.7464288">
    <tag k="addr:city" v="Plymouth"/>
    <tag k="addr:housenumber" v="96"/>
    <tag k="addr:street" v="Bear Hill Road"/>
    <tag k="addr:state" v="VT"/>
    <tag k="ref:vcgi:esiteid" v="190204"/>
  </node>
  <node id="-850" visible="true" lat="43.53373767" lon="-72.74622177">
    <tag k="addr:city" v="Plymouth"/>
    <tag k="addr:housenumber" v="74"/>
    <tag k="addr:street" v="Bear Hill Road"/>
    <tag k="addr:state" v="VT"/>
    <tag k="ref:vcgi:esiteid" v="190205"/>
  </node>
  <node id="-851" visible="true" lat="43.53677925" lon="-72.75134021">
    <tag k="addr:city" v="Plymouth"/>
    <tag k="addr:housenumber" v="401"/>
    <tag k="addr:street" v="Great Roaring Brook Road"/>
    <tag k="addr:state" v="VT"/>
    <tag k="ref:vcgi:esiteid" v="190206"/>
  </node>
  <node id="-853" visible="true" lat="43.50186553" lon="-72.71193102">
    <tag k="addr:city" v="Plymouth"/>
    <tag k="addr:housenumber" v="227"/>
    <tag k="addr:street" v="Salt Ash Road"/>
    <tag k="addr:state" v="VT"/>
    <tag k="ref:vcgi:esiteid" v="190208"/>
  </node>
  <node id="-856" visible="true" lat="43.52689701" lon="-72.7538848">
    <tag k="addr:city" v="Plymouth"/>
    <tag k="addr:housenumber" v="223"/>
    <tag k="addr:street" v="Upper Round Top Road Extension"/>
    <tag k="addr:state" v="VT"/>
    <tag k="ref:vcgi:esiteid" v="340706"/>
  </node>
  <node id="-857" visible="true" lat="43.57615606" lon="-72.75864864">
    <tag k="addr:city" v="Plymouth"/>
    <tag k="addr:housenumber" v="29"/>
    <tag k="addr:street" v="Owen Road"/>
    <tag k="addr:state" v="VT"/>
    <tag k="ref:vcgi:esiteid" v="341050"/>
  </node>
  <node id="-858" visible="true" lat="43.47418875" lon="-72.74857385">
    <tag k="addr:city" v="Plymouth"/>
    <tag k="addr:housenumber" v="201"/>
    <tag k="addr:street" v="Townsend Barn Road"/>
    <tag k="addr:state" v="VT"/>
    <tag k="ref:vcgi:esiteid" v="341205"/>
  </node>
  <node id="-859" visible="true" lat="43.49233143" lon="-72.71930603">
    <tag k="addr:city" v="Plymouth"/>
    <tag k="addr:housenumber" v="22"/>
    <tag k="addr:street" v="Hawk Spur Road"/>
    <tag k="addr:state" v="VT"/>
    <tag k="ref:vcgi:esiteid" v="341319"/>
  </node>
  <node id="-860" visible="true" lat="43.4949781" lon="-72.719101">
    <tag k="addr:city" v="Plymouth"/>
    <tag k="addr:housenumber" v="426"/>
    <tag k="addr:street" v="Hawk Spur Road"/>
    <tag k="addr:state" v="VT"/>
    <tag k="ref:vcgi:esiteid" v="341320"/>
  </node>
  <node id="-861" visible="true" lat="43.53730647" lon="-72.75695898">
    <tag k="addr:city" v="Plymouth"/>
    <tag k="addr:housenumber" v="700"/>
    <tag k="addr:street" v="Great Roaring Brook Road"/>
    <tag k="addr:state" v="VT"/>
    <tag k="ref:vcgi:esiteid" v="341897"/>
  </node>
  <node id="-862" visible="true" lat="43.5377431" lon="-72.75436934">
    <tag k="addr:city" v="Plymouth"/>
    <tag k="addr:housenumber" v="414"/>
    <tag k="addr:street" v="Great Roaring Brook Road"/>
    <tag k="addr:state" v="VT"/>
    <tag k="ref:vcgi:esiteid" v="341898"/>
  </node>
  <node id="-863" visible="true" lat="43.53826772" lon="-72.7531684">
    <tag k="addr:city" v="Plymouth"/>
    <tag k="addr:housenumber" v="408"/>
    <tag k="addr:street" v="Great Roaring Brook Road"/>
    <tag k="addr:state" v="VT"/>
    <tag k="ref:vcgi:esiteid" v="341899"/>
  </node>
  <node id="-864" visible="true" lat="43.53709405" lon="-72.750106">
    <tag k="addr:city" v="Plymouth"/>
    <tag k="addr:housenumber" v="365"/>
    <tag k="addr:street" v="Great Roaring Brook Road"/>
    <tag k="addr:state" v="VT"/>
    <tag k="ref:vcgi:esiteid" v="341900"/>
  </node>
  <node id="-865" visible="true" lat="43.53775052" lon="-72.75101383">
    <tag k="addr:city" v="Plymouth"/>
    <tag k="addr:housenumber" v="370"/>
    <tag k="addr:street" v="Great Roaring Brook Road"/>
    <tag k="addr:state" v="VT"/>
    <tag k="ref:vcgi:esiteid" v="341901"/>
  </node>
  <node id="-866" visible="true" lat="43.53837794" lon="-72.75051972">
    <tag k="addr:city" v="Plymouth"/>
    <tag k="addr:housenumber" v="230"/>
    <tag k="addr:street" v="Great Roaring Brook Road"/>
    <tag k="addr:state" v="VT"/>
    <tag k="ref:vcgi:esiteid" v="341902"/>
  </node>
  <node id="-867" visible="true" lat="43.54101809" lon="-72.75130335">
    <tag k="addr:city" v="Plymouth"/>
    <tag k="addr:housenumber" v="142"/>
    <tag k="addr:street" v="Great Roaring Brook Road"/>
    <tag k="addr:state" v="VT"/>
    <tag k="ref:vcgi:esiteid" v="341903"/>
  </node>
  <node id="-868" visible="true" lat="43.53108016" lon="-72.76022752">
    <tag k="addr:city" v="Plymouth"/>
    <tag k="addr:housenumber" v="1191"/>
    <tag k="addr:street" v="Great Roaring Brook Road"/>
    <tag k="addr:state" v="VT"/>
    <tag k="ref:vcgi:esiteid" v="341905"/>
  </node>
  <node id="-870" visible="true" lat="43.50695413" lon="-72.70638048">
    <tag k="addr:city" v="Plymouth"/>
    <tag k="addr:housenumber" v="239"/>
    <tag k="addr:street" v="Harrier Way"/>
    <tag k="addr:state" v="VT"/>
    <tag k="ref:vcgi:esiteid" v="341907"/>
  </node>
  <node id="-871" visible="true" lat="43.50822235" lon="-72.71429467">
    <tag k="addr:city" v="Plymouth"/>
    <tag k="addr:housenumber" v="39"/>
    <tag k="addr:street" v="Snowy Owl Lane"/>
    <tag k="addr:state" v="VT"/>
    <tag k="ref:vcgi:esiteid" v="341908"/>
  </node>
  <node id="-872" visible="true" lat="43.50804653" lon="-72.71504331">
    <tag k="addr:city" v="Plymouth"/>
    <tag k="addr:housenumber" v="51"/>
    <tag k="addr:street" v="Snowy Owl Lane"/>
    <tag k="addr:state" v="VT"/>
    <tag k="ref:vcgi:esiteid" v="341909"/>
  </node>
  <node id="-874" visible="true" lat="43.50851449" lon="-72.7217584">
    <tag k="addr:city" v="Plymouth"/>
    <tag k="addr:housenumber" v="388"/>
    <tag k="addr:street" v="Snowy Owl Lane"/>
    <tag k="addr:state" v="VT"/>
    <tag k="ref:vcgi:esiteid" v="341911"/>
  </node>
  <node id="-877" visible="true" lat="43.49971335" lon="-72.71865739">
    <tag k="addr:city" v="Plymouth"/>
    <tag k="addr:housenumber" v="42"/>
    <tag k="addr:street" v="Crimson Hawk Road"/>
    <tag k="addr:state" v="VT"/>
    <tag k="ref:vcgi:esiteid" v="341914"/>
  </node>
  <node id="-881" visible="true" lat="43.49659666" lon="-72.71969235">
    <tag k="addr:city" v="Plymouth"/>
    <tag k="addr:housenumber" v="471"/>
    <tag k="addr:street" v="Soaring Hawk Road"/>
    <tag k="addr:state" v="VT"/>
    <tag k="ref:vcgi:esiteid" v="342471"/>
  </node>
  <node id="-882" visible="true" lat="43.4963536" lon="-72.71777236">
    <tag k="addr:city" v="Plymouth"/>
    <tag k="addr:housenumber" v="297"/>
    <tag k="addr:street" v="Soaring Hawk Road"/>
    <tag k="addr:state" v="VT"/>
    <tag k="ref:vcgi:esiteid" v="342472"/>
  </node>
  <node id="-883" visible="true" lat="43.49616194" lon="-72.71606325">
    <tag k="addr:city" v="Plymouth"/>
    <tag k="addr:housenumber" v="274"/>
    <tag k="addr:street" v="Soaring Hawk Road"/>
    <tag k="addr:state" v="VT"/>
    <tag k="ref:vcgi:esiteid" v="342473"/>
  </node>
  <node id="-884" visible="true" lat="43.49395707" lon="-72.71562209">
    <tag k="addr:city" v="Plymouth"/>
    <tag k="addr:housenumber" v="68"/>
    <tag k="addr:street" v="Soaring Hawk Road"/>
    <tag k="addr:state" v="VT"/>
    <tag k="ref:vcgi:esiteid" v="342474"/>
  </node>
  <node id="-885" visible="true" lat="43.49387522" lon="-72.71469329">
    <tag k="addr:city" v="Plymouth"/>
    <tag k="addr:housenumber" v="550"/>
    <tag k="addr:street" v="Crimson Hawk Road"/>
    <tag k="addr:state" v="VT"/>
    <tag k="ref:vcgi:esiteid" v="342475"/>
  </node>
  <node id="-888" visible="true" lat="43.50298606" lon="-72.7146473">
    <tag k="addr:city" v="Plymouth"/>
    <tag k="addr:housenumber" v="81"/>
    <tag k="addr:street" v="Goshawk Drive"/>
    <tag k="addr:state" v="VT"/>
    <tag k="ref:vcgi:esiteid" v="344314"/>
  </node>
  <node id="-892" visible="true" lat="43.49300865" lon="-72.71518776">
    <tag k="addr:city" v="Plymouth"/>
    <tag k="addr:housenumber" v="759"/>
    <tag k="addr:street" v="Crown Point Road"/>
    <tag k="addr:state" v="VT"/>
    <tag k="ref:vcgi:esiteid" v="445258"/>
  </node>
  <node id="-893" visible="true" lat="43.50780747" lon="-72.71938325">
    <tag k="addr:city" v="Plymouth"/>
    <tag k="addr:housenumber" v="231"/>
    <tag k="addr:street" v="Snowy Owl Lane"/>
    <tag k="addr:state" v="VT"/>
    <tag k="ref:vcgi:esiteid" v="445259"/>
  </node>
  <node id="-896" visible="true" lat="43.52217341" lon="-72.68651846">
    <tag k="addr:city" v="Plymouth"/>
    <tag k="addr:housenumber" v="2828"/>
    <tag k="addr:street" v="Lynds Hill Road"/>
    <tag k="addr:state" v="VT"/>
    <tag k="ref:vcgi:esiteid" v="445263"/>
  </node>
  <node id="-897" visible="true" lat="43.52613008" lon="-72.6796025">
    <tag k="addr:city" v="Plymouth"/>
    <tag k="addr:housenumber" v="3057"/>
    <tag k="addr:street" v="Lynds Hill Road"/>
    <tag k="addr:state" v="VT"/>
    <tag k="ref:vcgi:esiteid" v="445264"/>
  </node>
  <node id="-901" visible="true" lat="43.56389212" lon="-72.75393649">
    <tag k="addr:city" v="Plymouth"/>
    <tag k="addr:housenumber" v="1064"/>
    <tag k="addr:street" v="Farm And Wilderness Road"/>
    <tag k="addr:state" v="VT"/>
    <tag k="ref:vcgi:esiteid" v="445339"/>
  </node>
  <node id="-902" visible="true" lat="43.56306337" lon="-72.75231681">
    <tag k="addr:city" v="Plymouth"/>
    <tag k="addr:housenumber" v="1151"/>
    <tag k="addr:street" v="Farm And Wilderness Road"/>
    <tag k="addr:state" v="VT"/>
    <tag k="ref:vcgi:esiteid" v="445340"/>
  </node>
  <node id="-903" visible="true" lat="43.56284273" lon="-72.75193763">
    <tag k="addr:city" v="Plymouth"/>
    <tag k="addr:housenumber" v="1175"/>
    <tag k="addr:street" v="Farm And Wilderness Road"/>
    <tag k="addr:state" v="VT"/>
    <tag k="ref:vcgi:esiteid" v="445341"/>
  </node>
  <node id="-904" visible="true" lat="43.56425222" lon="-72.75264109">
    <tag k="addr:city" v="Plymouth"/>
    <tag k="addr:housenumber" v="1031"/>
    <tag k="addr:street" v="Farm And Wilderness Road"/>
    <tag k="addr:state" v="VT"/>
    <tag k="ref:vcgi:esiteid" v="445342"/>
  </node>
  <node id="-905" visible="true" lat="43.56428149" lon="-72.75232681">
    <tag k="addr:city" v="Plymouth"/>
    <tag k="addr:housenumber" v="1033"/>
    <tag k="addr:street" v="Farm And Wilderness Road"/>
    <tag k="addr:state" v="VT"/>
    <tag k="ref:vcgi:esiteid" v="445343"/>
  </node>
  <node id="-921" visible="true" lat="43.4898885" lon="-72.73486694">
    <tag k="addr:city" v="Plymouth"/>
    <tag k="addr:housenumber" v="316"/>
    <tag k="addr:street" v="Bramley Kite Way"/>
    <tag k="addr:state" v="VT"/>
    <tag k="ref:vcgi:esiteid" v="450774"/>
  </node>
  <node id="-932" visible="true" lat="43.52130797" lon="-72.71058291">
    <tag k="addr:city" v="Plymouth"/>
    <tag k="addr:housenumber" v="1513"/>
    <tag k="addr:street" v="Lynds Hill Road"/>
    <tag k="addr:state" v="VT"/>
    <tag k="ref:vcgi:esiteid" v="450907"/>
  </node>
  <node id="-934" visible="true" lat="43.53205987" lon="-72.74709539">
    <tag k="addr:city" v="Plymouth"/>
    <tag k="addr:housenumber" v="210"/>
    <tag k="addr:street" v="Bear Hill Road"/>
    <tag k="addr:state" v="VT"/>
    <tag k="ref:vcgi:esiteid" v="451113"/>
  </node>
  <node id="-936" visible="true" lat="43.57922488" lon="-72.75849243">
    <tag k="addr:city" v="Plymouth"/>
    <tag k="addr:housenumber" v="9139"/>
    <tag k="addr:street" v="Vermont Route 100"/>
    <tag k="addr:state" v="VT"/>
    <tag k="ref:vcgi:esiteid" v="451116"/>
  </node>
  <node id="-937" visible="true" lat="43.49331213" lon="-72.74935937">
    <tag k="addr:city" v="Plymouth"/>
    <tag k="addr:housenumber" v="767"/>
    <tag k="addr:street" v="Reggies Road"/>
    <tag k="addr:state" v="VT"/>
    <tag k="ref:vcgi:esiteid" v="451365"/>
  </node>
  <node id="-941" visible="true" lat="43.52743784" lon="-72.67760259">
    <tag k="addr:city" v="Plymouth"/>
    <tag k="addr:housenumber" v="4202"/>
    <tag k="addr:street" v="Hale Hollow Road"/>
    <tag k="addr:state" v="VT"/>
    <tag k="ref:vcgi:esiteid" v="454522"/>
  </node>
  <node id="-942" visible="true" lat="43.5620707" lon="-72.75333433">
    <tag k="addr:city" v="Plymouth"/>
    <tag k="addr:housenumber" v="1136"/>
    <tag k="addr:street" v="Farm And Wilderness Road"/>
    <tag k="addr:state" v="VT"/>
    <tag k="ref:vcgi:esiteid" v="454809"/>
  </node>
  <node id="-945" visible="true" lat="43.57357374" lon="-72.76004586">
    <tag k="addr:city" v="Plymouth"/>
    <tag k="addr:housenumber" v="90"/>
    <tag k="addr:street" v="Farm And Wilderness Road"/>
    <tag k="addr:state" v="VT"/>
    <tag k="ref:vcgi:esiteid" v="613063"/>
  </node>
  <node id="-962" visible="true" lat="43.53333211" lon="-72.74367955">
    <tag k="addr:city" v="Plymouth"/>
    <tag k="addr:housenumber" v="238"/>
    <tag k="addr:street" v="Town Office Road"/>
    <tag k="addr:state" v="VT"/>
    <tag k="ref:vcgi:esiteid" v="700056"/>
  </node>
</osm>
