<?xml version="1.0" encoding="UTF-8"?>
<osm version="0.6" generator="JOSM">
  <node id="-102" visible="true" lat="43.47761704" lon="-72.76273953">
    <tag k="addr:housenumber" v="50"/>
    <tag k="addr:street" v="Old County Road"/>
    <tag k="addr:state" v="VT"/>
    <tag k="ref:vcgi:esiteid" v="189428"/>
  </node>
  <node id="-103" visible="true" lat="43.47639582" lon="-72.75856556">
    <tag k="addr:housenumber" v="78"/>
    <tag k="addr:street" v="Dam Road"/>
    <tag k="addr:state" v="VT"/>
    <tag k="ref:vcgi:esiteid" v="189429"/>
  </node>
  <node id="-104" visible="true" lat="43.47524075" lon="-72.75351782">
    <tag k="addr:housenumber" v="403"/>
    <tag k="addr:street" v="Dam Road"/>
    <tag k="addr:state" v="VT"/>
    <tag k="ref:vcgi:esiteid" v="189430"/>
  </node>
  <node id="-106" visible="true" lat="43.58564376" lon="-72.75771331">
    <tag k="addr:housenumber" v="9557"/>
    <tag k="addr:street" v="Vermont Route 100"/>
    <tag k="addr:state" v="VT"/>
    <tag k="ref:vcgi:esiteid" v="189433"/>
  </node>
  <node id="-116" visible="true" lat="43.57318107" lon="-72.71515668">
    <tag k="addr:housenumber" v="1159"/>
    <tag k="addr:street" v="Quarry Road"/>
    <tag k="addr:state" v="VT"/>
    <tag k="ref:vcgi:esiteid" v="189443"/>
  </node>
  <node id="-117" visible="true" lat="43.57222827" lon="-72.74369987">
    <tag k="addr:housenumber" v="3123"/>
    <tag k="addr:street" v="Messer Hill Road"/>
    <tag k="addr:state" v="VT"/>
    <tag k="ref:vcgi:esiteid" v="189444"/>
  </node>
  <node id="-118" visible="true" lat="43.57206064" lon="-72.71455929">
    <tag k="addr:housenumber" v="1088"/>
    <tag k="addr:street" v="Quarry Road"/>
    <tag k="addr:state" v="VT"/>
    <tag k="ref:vcgi:esiteid" v="189445"/>
  </node>
  <node id="-120" visible="true" lat="43.5711441" lon="-72.7621231">
    <tag k="addr:housenumber" v="8484"/>
    <tag k="addr:street" v="Vermont Route 100"/>
    <tag k="addr:state" v="VT"/>
    <tag k="ref:vcgi:esiteid" v="189447"/>
  </node>
  <node id="-121" visible="true" lat="43.5712514" lon="-72.71496788">
    <tag k="addr:housenumber" v="1018"/>
    <tag k="addr:street" v="Quarry Road"/>
    <tag k="addr:state" v="VT"/>
    <tag k="ref:vcgi:esiteid" v="189448"/>
  </node>
  <node id="-123" visible="true" lat="43.57062148" lon="-72.76187896">
    <tag k="addr:housenumber" v="8446"/>
    <tag k="addr:street" v="Vermont Route 100"/>
    <tag k="addr:state" v="VT"/>
    <tag k="ref:vcgi:esiteid" v="189450"/>
  </node>
  <node id="-124" visible="true" lat="43.56968678" lon="-72.716686">
    <tag k="addr:housenumber" v="871"/>
    <tag k="addr:street" v="Quarry Road"/>
    <tag k="addr:state" v="VT"/>
    <tag k="ref:vcgi:esiteid" v="189451"/>
  </node>
  <node id="-125" visible="true" lat="43.5692749" lon="-72.76099395">
    <tag k="addr:housenumber" v="8366"/>
    <tag k="addr:street" v="Vermont Route 100"/>
    <tag k="addr:state" v="VT"/>
    <tag k="ref:vcgi:esiteid" v="189452"/>
  </node>
  <node id="-126" visible="true" lat="43.56899222" lon="-72.71466451">
    <tag k="addr:housenumber" v="846"/>
    <tag k="addr:street" v="Quarry Road"/>
    <tag k="addr:state" v="VT"/>
    <tag k="ref:vcgi:esiteid" v="189453"/>
  </node>
  <node id="-127" visible="true" lat="43.56742095" lon="-72.76197814">
    <tag k="addr:housenumber" v="8277"/>
    <tag k="addr:street" v="Vermont Route 100"/>
    <tag k="addr:state" v="VT"/>
    <tag k="ref:vcgi:esiteid" v="189454"/>
  </node>
  <node id="-128" visible="true" lat="43.56739044" lon="-72.76054382">
    <tag k="addr:housenumber" v="8218"/>
    <tag k="addr:street" v="Vermont Route 100"/>
    <tag k="addr:state" v="VT"/>
    <tag k="ref:vcgi:esiteid" v="189455"/>
  </node>
  <node id="-132" visible="true" lat="43.56516435" lon="-72.74007357">
    <tag k="addr:housenumber" v="2543"/>
    <tag k="addr:street" v="Messer Hill Road"/>
    <tag k="addr:state" v="VT"/>
    <tag k="ref:vcgi:esiteid" v="189460"/>
  </node>
  <node id="-134" visible="true" lat="43.5649431" lon="-72.73994388">
    <tag k="addr:housenumber" v="2527"/>
    <tag k="addr:street" v="Messer Hill Road"/>
    <tag k="addr:state" v="VT"/>
    <tag k="ref:vcgi:esiteid" v="189462"/>
  </node>
  <node id="-135" visible="true" lat="43.56450955" lon="-72.6830693">
    <tag k="addr:housenumber" v="450"/>
    <tag k="addr:street" v="Vermont Route 100A"/>
    <tag k="addr:state" v="VT"/>
    <tag k="ref:vcgi:esiteid" v="189463"/>
  </node>
  <node id="-136" visible="true" lat="43.5636444" lon="-72.76013946">
    <tag k="addr:housenumber" v="7950"/>
    <tag k="addr:street" v="Vermont Route 100"/>
    <tag k="addr:state" v="VT"/>
    <tag k="ref:vcgi:esiteid" v="189465"/>
  </node>
  <node id="-137" visible="true" lat="43.56376817" lon="-72.69038333">
    <tag k="addr:housenumber" v="820"/>
    <tag k="addr:street" v="Vermont Route 100A"/>
    <tag k="addr:state" v="VT"/>
    <tag k="ref:vcgi:esiteid" v="189466"/>
  </node>
  <node id="-138" visible="true" lat="43.56375884" lon="-72.68759918">
    <tag k="addr:housenumber" v="679"/>
    <tag k="addr:street" v="Vermont Route 100A"/>
    <tag k="addr:state" v="VT"/>
    <tag k="ref:vcgi:esiteid" v="189467"/>
  </node>
  <node id="-139" visible="true" lat="43.56371476" lon="-72.69925632">
    <tag k="addr:housenumber" v="140"/>
    <tag k="addr:street" v="Bruyn Road"/>
    <tag k="addr:state" v="VT"/>
    <tag k="ref:vcgi:esiteid" v="189468"/>
  </node>
  <node id="-141" visible="true" lat="43.56311035" lon="-72.76060485">
    <tag k="addr:housenumber" v="7939"/>
    <tag k="addr:street" v="Vermont Route 100"/>
    <tag k="addr:state" v="VT"/>
    <tag k="ref:vcgi:esiteid" v="189470"/>
  </node>
  <node id="-142" visible="true" lat="43.56273057" lon="-72.69170322">
    <tag k="addr:housenumber" v="937"/>
    <tag k="addr:street" v="Vermont Route 100A"/>
    <tag k="addr:state" v="VT"/>
    <tag k="ref:vcgi:esiteid" v="189471"/>
  </node>
  <node id="-143" visible="true" lat="43.56239318" lon="-72.76002502">
    <tag k="addr:housenumber" v="7867"/>
    <tag k="addr:street" v="Vermont Route 100"/>
    <tag k="addr:state" v="VT"/>
    <tag k="ref:vcgi:esiteid" v="189472"/>
  </node>
  <node id="-144" visible="true" lat="43.56241777" lon="-72.70066013">
    <tag k="addr:housenumber" v="19"/>
    <tag k="addr:street" v="Bruyn Road"/>
    <tag k="addr:state" v="VT"/>
    <tag k="ref:vcgi:esiteid" v="189473"/>
  </node>
  <node id="-145" visible="true" lat="43.56223678" lon="-72.69810485">
    <tag k="addr:housenumber" v="1243"/>
    <tag k="addr:street" v="Vermont Route 100A"/>
    <tag k="addr:state" v="VT"/>
    <tag k="ref:vcgi:esiteid" v="189474"/>
  </node>
  <node id="-147" visible="true" lat="43.56196786" lon="-72.73817833">
    <tag k="addr:housenumber" v="2305"/>
    <tag k="addr:street" v="Messer Hill Road"/>
    <tag k="addr:state" v="VT"/>
    <tag k="ref:vcgi:esiteid" v="189476"/>
  </node>
  <node id="-148" visible="true" lat="43.56184996" lon="-72.70084627">
    <tag k="addr:housenumber" v="17"/>
    <tag k="addr:street" v="Bruyn Road"/>
    <tag k="addr:state" v="VT"/>
    <tag k="ref:vcgi:esiteid" v="189477"/>
  </node>
  <node id="-149" visible="true" lat="43.56157291" lon="-72.69935522">
    <tag k="addr:housenumber" v="1323"/>
    <tag k="addr:street" v="Vermont Route 100A"/>
    <tag k="addr:state" v="VT"/>
    <tag k="ref:vcgi:esiteid" v="189478"/>
  </node>
  <node id="-150" visible="true" lat="43.56065368" lon="-72.70095825">
    <tag k="addr:housenumber" v="1425"/>
    <tag k="addr:street" v="Vermont Route 100A"/>
    <tag k="addr:state" v="VT"/>
    <tag k="ref:vcgi:esiteid" v="189479"/>
  </node>
  <node id="-151" visible="true" lat="43.5605093" lon="-72.70854433">
    <tag k="addr:housenumber" v="227"/>
    <tag k="addr:street" v="Sawmill Road"/>
    <tag k="addr:state" v="VT"/>
    <tag k="ref:vcgi:esiteid" v="189480"/>
  </node>
  <node id="-152" visible="true" lat="43.56029892" lon="-72.70158386">
    <tag k="addr:housenumber" v="1467"/>
    <tag k="addr:street" v="Vermont Route 100A"/>
    <tag k="addr:state" v="VT"/>
    <tag k="ref:vcgi:esiteid" v="189481"/>
  </node>
  <node id="-154" visible="true" lat="43.56013107" lon="-72.70123291">
    <tag k="addr:housenumber" v="1521"/>
    <tag k="addr:street" v="Vermont Route 100A"/>
    <tag k="addr:state" v="VT"/>
    <tag k="ref:vcgi:esiteid" v="189483"/>
  </node>
  <node id="-155" visible="true" lat="43.56008148" lon="-72.70213317">
    <tag k="addr:housenumber" v="1497"/>
    <tag k="addr:street" v="Vermont Route 100A"/>
    <tag k="addr:state" v="VT"/>
    <tag k="ref:vcgi:esiteid" v="189484"/>
  </node>
  <node id="-156" visible="true" lat="43.56005265" lon="-72.70703067">
    <tag k="addr:housenumber" v="151"/>
    <tag k="addr:street" v="Sawmill Road"/>
    <tag k="addr:state" v="VT"/>
    <tag k="ref:vcgi:esiteid" v="189485"/>
  </node>
  <node id="-157" visible="true" lat="43.55987628" lon="-72.70394855">
    <tag k="addr:housenumber" v="1584"/>
    <tag k="addr:street" v="Vermont Route 100A"/>
    <tag k="addr:state" v="VT"/>
    <tag k="ref:vcgi:esiteid" v="189486"/>
  </node>
  <node id="-159" visible="true" lat="43.55939102" lon="-72.75857544">
    <tag k="addr:housenumber" v="83"/>
    <tag k="addr:street" v="South End Road"/>
    <tag k="addr:state" v="VT"/>
    <tag k="ref:vcgi:esiteid" v="189488"/>
  </node>
  <node id="-160" visible="true" lat="43.55933931" lon="-72.70494785">
    <tag k="addr:housenumber" v="37"/>
    <tag k="addr:street" v="Sawmill Road"/>
    <tag k="addr:state" v="VT"/>
    <tag k="ref:vcgi:esiteid" v="189489"/>
  </node>
  <node id="-163" visible="true" lat="43.55880143" lon="-72.70564212">
    <tag k="addr:housenumber" v="1752"/>
    <tag k="addr:street" v="Vermont Route 100A"/>
    <tag k="addr:state" v="VT"/>
    <tag k="ref:vcgi:esiteid" v="189492"/>
  </node>
  <node id="-164" visible="true" lat="43.55810008" lon="-72.73384542">
    <tag k="addr:housenumber" v="1976"/>
    <tag k="addr:street" v="Messer Hill Road"/>
    <tag k="addr:state" v="VT"/>
    <tag k="ref:vcgi:esiteid" v="189493"/>
  </node>
  <node id="-165" visible="true" lat="43.55822157" lon="-72.70618945">
    <tag k="addr:housenumber" v="1754"/>
    <tag k="addr:street" v="Vermont Route 100A"/>
    <tag k="addr:state" v="VT"/>
    <tag k="ref:vcgi:esiteid" v="189494"/>
  </node>
  <node id="-167" visible="true" lat="43.55746841" lon="-72.73317718">
    <tag k="addr:housenumber" v="1908"/>
    <tag k="addr:street" v="Messer Hill Road"/>
    <tag k="addr:state" v="VT"/>
    <tag k="ref:vcgi:esiteid" v="189496"/>
  </node>
  <node id="-168" visible="true" lat="43.55744722" lon="-72.7062601">
    <tag k="addr:housenumber" v="1782"/>
    <tag k="addr:street" v="Vermont Route 100A"/>
    <tag k="addr:state" v="VT"/>
    <tag k="ref:vcgi:esiteid" v="189497"/>
  </node>
  <node id="-169" visible="true" lat="43.55730226" lon="-72.70722904">
    <tag k="addr:housenumber" v="46"/>
    <tag k="addr:street" v="Rangers Road"/>
    <tag k="addr:state" v="VT"/>
    <tag k="ref:vcgi:esiteid" v="189498"/>
  </node>
  <node id="-170" visible="true" lat="43.55719545" lon="-72.70642795">
    <tag k="addr:housenumber" v="1802"/>
    <tag k="addr:street" v="Vermont Route 100A"/>
    <tag k="addr:state" v="VT"/>
    <tag k="ref:vcgi:esiteid" v="189499"/>
  </node>
  <node id="-171" visible="true" lat="43.55674362" lon="-72.75854492">
    <tag k="addr:housenumber" v="33"/>
    <tag k="addr:street" v="Shrewsbury Road"/>
    <tag k="addr:state" v="VT"/>
    <tag k="ref:vcgi:esiteid" v="189501"/>
  </node>
  <node id="-172" visible="true" lat="43.55680076" lon="-72.73220315">
    <tag k="addr:housenumber" v="1834"/>
    <tag k="addr:street" v="Messer Hill Road"/>
    <tag k="addr:state" v="VT"/>
    <tag k="ref:vcgi:esiteid" v="189502"/>
  </node>
  <node id="-173" visible="true" lat="43.55599594" lon="-72.73115539">
    <tag k="addr:housenumber" v="1764"/>
    <tag k="addr:street" v="Messer Hill Road"/>
    <tag k="addr:state" v="VT"/>
    <tag k="ref:vcgi:esiteid" v="189503"/>
  </node>
  <node id="-174" visible="true" lat="43.5555761" lon="-72.73199714">
    <tag k="addr:housenumber" v="1765"/>
    <tag k="addr:street" v="Messer Hill Road"/>
    <tag k="addr:state" v="VT"/>
    <tag k="ref:vcgi:esiteid" v="189504"/>
  </node>
  <node id="-175" visible="true" lat="43.55537795" lon="-72.66130065">
    <tag k="addr:housenumber" v="1149"/>
    <tag k="addr:street" v="Hale Hollow Road"/>
    <tag k="addr:state" v="VT"/>
    <tag k="ref:vcgi:esiteid" v="189506"/>
  </node>
  <node id="-176" visible="true" lat="43.55470275" lon="-72.73046875">
    <tag k="addr:housenumber" v="1673"/>
    <tag k="addr:street" v="Messer Hill Road"/>
    <tag k="addr:state" v="VT"/>
    <tag k="ref:vcgi:esiteid" v="189507"/>
  </node>
  <node id="-179" visible="true" lat="43.55364477" lon="-72.74058593">
    <tag k="addr:housenumber" v="1242"/>
    <tag k="addr:street" v="Grand View Lodge Road"/>
    <tag k="addr:state" v="VT"/>
    <tag k="ref:vcgi:esiteid" v="189510"/>
  </node>
  <node id="-180" visible="true" lat="43.55363082" lon="-72.72893524">
    <tag k="addr:housenumber" v="1570"/>
    <tag k="addr:street" v="Messer Hill Road"/>
    <tag k="addr:state" v="VT"/>
    <tag k="ref:vcgi:esiteid" v="189511"/>
  </node>
  <node id="-181" visible="true" lat="43.5534401" lon="-72.74304419">
    <tag k="addr:housenumber" v="1121"/>
    <tag k="addr:street" v="Grand View Lodge Road"/>
    <tag k="addr:state" v="VT"/>
    <tag k="ref:vcgi:esiteid" v="189512"/>
  </node>
  <node id="-182" visible="true" lat="43.55297595" lon="-72.74206596">
    <tag k="addr:housenumber" v="1119"/>
    <tag k="addr:street" v="Grand View Lodge Road"/>
    <tag k="addr:state" v="VT"/>
    <tag k="ref:vcgi:esiteid" v="189513"/>
  </node>
  <node id="-183" visible="true" lat="43.5528501" lon="-72.72860656">
    <tag k="addr:housenumber" v="1528"/>
    <tag k="addr:street" v="Messer Hill Road"/>
    <tag k="addr:state" v="VT"/>
    <tag k="ref:vcgi:esiteid" v="189514"/>
  </node>
  <node id="-184" visible="true" lat="43.55277252" lon="-72.72995758">
    <tag k="addr:housenumber" v="1477"/>
    <tag k="addr:street" v="Messer Hill Road"/>
    <tag k="addr:state" v="VT"/>
    <tag k="ref:vcgi:esiteid" v="189515"/>
  </node>
  <node id="-187" visible="true" lat="43.55243852" lon="-72.73801364">
    <tag k="addr:housenumber" v="960"/>
    <tag k="addr:street" v="Grand View Lodge Road"/>
    <tag k="addr:state" v="VT"/>
    <tag k="ref:vcgi:esiteid" v="189518"/>
  </node>
  <node id="-188" visible="true" lat="43.55185998" lon="-72.73619587">
    <tag k="addr:housenumber" v="832"/>
    <tag k="addr:street" v="Grand View Lodge Road"/>
    <tag k="addr:state" v="VT"/>
    <tag k="ref:vcgi:esiteid" v="189519"/>
  </node>
  <node id="-189" visible="true" lat="43.55188748" lon="-72.73669532">
    <tag k="addr:housenumber" v="848"/>
    <tag k="addr:street" v="Grand View Lodge Road"/>
    <tag k="addr:state" v="VT"/>
    <tag k="ref:vcgi:esiteid" v="189520"/>
  </node>
  <node id="-190" visible="true" lat="43.55169296" lon="-72.72998046">
    <tag k="addr:housenumber" v="1475"/>
    <tag k="addr:street" v="Messer Hill Road"/>
    <tag k="addr:state" v="VT"/>
    <tag k="ref:vcgi:esiteid" v="189521"/>
  </node>
  <node id="-191" visible="true" lat="43.55175018" lon="-72.69748687">
    <tag k="addr:housenumber" v="855"/>
    <tag k="addr:street" v="Coolidge State Park Road"/>
    <tag k="addr:state" v="VT"/>
    <tag k="ref:vcgi:esiteid" v="189522"/>
  </node>
  <node id="-193" visible="true" lat="43.55162811" lon="-72.69728088">
    <tag k="addr:housenumber" v="877"/>
    <tag k="addr:street" v="Coolidge State Park Road"/>
    <tag k="addr:state" v="VT"/>
    <tag k="ref:vcgi:esiteid" v="189524"/>
  </node>
  <node id="-194" visible="true" lat="43.55145263" lon="-72.72839355">
    <tag k="addr:housenumber" v="1394"/>
    <tag k="addr:street" v="Messer Hill Road"/>
    <tag k="addr:state" v="VT"/>
    <tag k="ref:vcgi:esiteid" v="189525"/>
  </node>
  <node id="-195" visible="true" lat="43.55133236" lon="-72.73584516">
    <tag k="addr:housenumber" v="790"/>
    <tag k="addr:street" v="Grand View Lodge Road"/>
    <tag k="addr:state" v="VT"/>
    <tag k="ref:vcgi:esiteid" v="189526"/>
  </node>
  <node id="-196" visible="true" lat="43.55062153" lon="-72.70974906">
    <tag k="addr:housenumber" v="22"/>
    <tag k="addr:street" v="Wheeler Bridge Road"/>
    <tag k="addr:state" v="VT"/>
    <tag k="ref:vcgi:esiteid" v="189527"/>
  </node>
  <node id="-199" visible="true" lat="43.54927594" lon="-72.71043551">
    <tag k="addr:housenumber" v="2396"/>
    <tag k="addr:street" v="Vermont Route 100A"/>
    <tag k="addr:state" v="VT"/>
    <tag k="ref:vcgi:esiteid" v="189530"/>
  </node>
  <node id="-200" visible="true" lat="43.54893014" lon="-72.65741955">
    <tag k="addr:housenumber" v="1811"/>
    <tag k="addr:street" v="Hale Hollow Road"/>
    <tag k="addr:state" v="VT"/>
    <tag k="ref:vcgi:esiteid" v="189531"/>
  </node>
  <node id="-201" visible="true" lat="43.5473442" lon="-72.71018219">
    <tag k="addr:housenumber" v="2427"/>
    <tag k="addr:street" v="Vermont Route 100A"/>
    <tag k="addr:state" v="VT"/>
    <tag k="ref:vcgi:esiteid" v="189532"/>
  </node>
  <node id="-202" visible="true" lat="43.54704049" lon="-72.65901194">
    <tag k="addr:housenumber" v="91"/>
    <tag k="addr:street" v="Apple Hill Road"/>
    <tag k="addr:state" v="VT"/>
    <tag k="ref:vcgi:esiteid" v="189533"/>
  </node>
  <node id="-203" visible="true" lat="43.54667195" lon="-72.65751633">
    <tag k="addr:housenumber" v="1974"/>
    <tag k="addr:street" v="Hale Hollow Road"/>
    <tag k="addr:state" v="VT"/>
    <tag k="ref:vcgi:esiteid" v="189534"/>
  </node>
  <node id="-204" visible="true" lat="43.54556867" lon="-72.73282229">
    <tag k="addr:housenumber" v="358"/>
    <tag k="addr:street" v="Grand View Lodge Road"/>
    <tag k="addr:state" v="VT"/>
    <tag k="ref:vcgi:esiteid" v="189535"/>
  </node>
  <node id="-205" visible="true" lat="43.54524782" lon="-72.73381748">
    <tag k="addr:housenumber" v="357"/>
    <tag k="addr:street" v="Grand View Lodge Road"/>
    <tag k="addr:state" v="VT"/>
    <tag k="ref:vcgi:esiteid" v="189536"/>
  </node>
  <node id="-206" visible="true" lat="43.54511049" lon="-72.73398532">
    <tag k="addr:housenumber" v="335"/>
    <tag k="addr:street" v="Grand View Lodge Road"/>
    <tag k="addr:state" v="VT"/>
    <tag k="ref:vcgi:esiteid" v="189537"/>
  </node>
  <node id="-207" visible="true" lat="43.54495829" lon="-72.72087918">
    <tag k="addr:housenumber" v="230"/>
    <tag k="addr:street" v="Pine Lee Road"/>
    <tag k="addr:state" v="VT"/>
    <tag k="ref:vcgi:esiteid" v="189538"/>
  </node>
  <node id="-208" visible="true" lat="43.5446434" lon="-72.7152481">
    <tag k="addr:housenumber" v="2908"/>
    <tag k="addr:street" v="Vermont Route 100A"/>
    <tag k="addr:state" v="VT"/>
    <tag k="ref:vcgi:esiteid" v="189539"/>
  </node>
  <node id="-209" visible="true" lat="43.54440477" lon="-72.7291254">
    <tag k="addr:housenumber" v="911"/>
    <tag k="addr:street" v="Messer Hill Road"/>
    <tag k="addr:state" v="VT"/>
    <tag k="ref:vcgi:esiteid" v="189540"/>
  </node>
  <node id="-210" visible="true" lat="43.54418098" lon="-72.65617575">
    <tag k="addr:housenumber" v="2150"/>
    <tag k="addr:street" v="Hale Hollow Road"/>
    <tag k="addr:state" v="VT"/>
    <tag k="ref:vcgi:esiteid" v="189541"/>
  </node>
  <node id="-211" visible="true" lat="43.54404067" lon="-72.71346282">
    <tag k="addr:housenumber" v="2823"/>
    <tag k="addr:street" v="Vermont Route 100A"/>
    <tag k="addr:state" v="VT"/>
    <tag k="ref:vcgi:esiteid" v="189542"/>
  </node>
  <node id="-212" visible="true" lat="43.54335954" lon="-72.72930087">
    <tag k="addr:housenumber" v="833"/>
    <tag k="addr:street" v="Messer Hill Road"/>
    <tag k="addr:state" v="VT"/>
    <tag k="ref:vcgi:esiteid" v="189543"/>
  </node>
  <node id="-213" visible="true" lat="43.54280641" lon="-72.72838535">
    <tag k="addr:housenumber" v="808"/>
    <tag k="addr:street" v="Messer Hill Road"/>
    <tag k="addr:state" v="VT"/>
    <tag k="ref:vcgi:esiteid" v="189544"/>
  </node>
  <node id="-214" visible="true" lat="43.54052521" lon="-72.65364781">
    <tag k="addr:housenumber" v="2441"/>
    <tag k="addr:street" v="Hale Hollow Road"/>
    <tag k="addr:state" v="VT"/>
    <tag k="ref:vcgi:esiteid" v="189545"/>
  </node>
  <node id="-215" visible="true" lat="43.53938871" lon="-72.65489307">
    <tag k="addr:housenumber" v="2547"/>
    <tag k="addr:street" v="Hale Hollow Road"/>
    <tag k="addr:state" v="VT"/>
    <tag k="ref:vcgi:esiteid" v="189546"/>
  </node>
  <node id="-224" visible="true" lat="43.53773498" lon="-72.65686798">
    <tag k="addr:housenumber" v="13"/>
    <tag k="addr:street" v="Griffin Road"/>
    <tag k="addr:state" v="VT"/>
    <tag k="ref:vcgi:esiteid" v="189556"/>
  </node>
  <node id="-226" visible="true" lat="43.53721004" lon="-72.72844734">
    <tag k="addr:housenumber" v="385"/>
    <tag k="addr:street" v="Messer Hill Road"/>
    <tag k="addr:state" v="VT"/>
    <tag k="ref:vcgi:esiteid" v="189560"/>
  </node>
  <node id="-229" visible="true" lat="43.53668845" lon="-72.65660695">
    <tag k="addr:housenumber" v="2699"/>
    <tag k="addr:street" v="Hale Hollow Road"/>
    <tag k="addr:state" v="VT"/>
    <tag k="ref:vcgi:esiteid" v="189563"/>
  </node>
  <node id="-240" visible="true" lat="43.53556612" lon="-72.74385013">
    <tag k="addr:housenumber" v="35"/>
    <tag k="addr:street" v="School Drive"/>
    <tag k="addr:state" v="VT"/>
    <tag k="ref:vcgi:esiteid" v="189574"/>
  </node>
  <node id="-242" visible="true" lat="43.53546167" lon="-72.74518239">
    <tag k="addr:housenumber" v="80"/>
    <tag k="addr:street" v="Anns Way"/>
    <tag k="addr:state" v="VT"/>
    <tag k="ref:vcgi:esiteid" v="189576"/>
  </node>
  <node id="-243" visible="true" lat="43.5354593" lon="-72.65877476">
    <tag k="addr:housenumber" v="2845"/>
    <tag k="addr:street" v="Hale Hollow Road"/>
    <tag k="addr:state" v="VT"/>
    <tag k="ref:vcgi:esiteid" v="189577"/>
  </node>
  <node id="-245" visible="true" lat="43.53527831" lon="-72.72075653">
    <tag k="addr:housenumber" v="3780"/>
    <tag k="addr:street" v="Vermont Route 100A"/>
    <tag k="addr:state" v="VT"/>
    <tag k="ref:vcgi:esiteid" v="189579"/>
  </node>
  <node id="-251" visible="true" lat="43.53478241" lon="-72.6949234">
    <tag k="addr:housenumber" v="940"/>
    <tag k="addr:street" v="Johnson Farm Road"/>
    <tag k="addr:state" v="VT"/>
    <tag k="ref:vcgi:esiteid" v="189585"/>
  </node>
  <node id="-254" visible="true" lat="43.53461309" lon="-72.6561437">
    <tag k="addr:housenumber" v="153"/>
    <tag k="addr:street" v="Merrill Hill Road"/>
    <tag k="addr:state" v="VT"/>
    <tag k="ref:vcgi:esiteid" v="189588"/>
  </node>
  <node id="-260" visible="true" lat="43.53363418" lon="-72.72743225">
    <tag k="addr:housenumber" v="4105"/>
    <tag k="addr:street" v="Vermont Route 100A"/>
    <tag k="addr:state" v="VT"/>
    <tag k="ref:vcgi:esiteid" v="189596"/>
  </node>
  <node id="-263" visible="true" lat="43.53364732" lon="-72.66411534">
    <tag k="addr:housenumber" v="3145"/>
    <tag k="addr:street" v="Hale Hollow Road"/>
    <tag k="addr:state" v="VT"/>
    <tag k="ref:vcgi:esiteid" v="189599"/>
  </node>
  <node id="-264" visible="true" lat="43.53354263" lon="-72.72348785">
    <tag k="addr:housenumber" v="3908"/>
    <tag k="addr:street" v="Vermont Route 100A"/>
    <tag k="addr:state" v="VT"/>
    <tag k="ref:vcgi:esiteid" v="189600"/>
  </node>
  <node id="-269" visible="true" lat="43.53344821" lon="-72.6546776">
    <tag k="addr:housenumber" v="313"/>
    <tag k="addr:street" v="Merrill Hill Road"/>
    <tag k="addr:state" v="VT"/>
    <tag k="ref:vcgi:esiteid" v="189605"/>
  </node>
  <node id="-275" visible="true" lat="43.53203418" lon="-72.74138607">
    <tag k="addr:housenumber" v="5537"/>
    <tag k="addr:street" v="Vermont Route 100"/>
    <tag k="addr:state" v="VT"/>
    <tag k="ref:vcgi:esiteid" v="189611"/>
  </node>
  <node id="-277" visible="true" lat="43.53288405" lon="-72.74138627">
    <tag k="addr:housenumber" v="5545"/>
    <tag k="addr:street" v="Vermont Route 100"/>
    <tag k="addr:state" v="VT"/>
    <tag k="ref:vcgi:esiteid" v="189613"/>
  </node>
  <node id="-279" visible="true" lat="43.53297974" lon="-72.65663853">
    <tag k="addr:housenumber" v="204"/>
    <tag k="addr:street" v="Merrill Hill Road"/>
    <tag k="addr:state" v="VT"/>
    <tag k="ref:vcgi:esiteid" v="189615"/>
  </node>
  <node id="-285" visible="true" lat="43.53268284" lon="-72.68715254">
    <tag k="addr:housenumber" v="708"/>
    <tag k="addr:street" v="Bradley Hill Road"/>
    <tag k="addr:state" v="VT"/>
    <tag k="ref:vcgi:esiteid" v="189622"/>
  </node>
  <node id="-292" visible="true" lat="43.53168868" lon="-72.73919677">
    <tag k="addr:housenumber" v="5410"/>
    <tag k="addr:street" v="Vermont Route 100"/>
    <tag k="addr:state" v="VT"/>
    <tag k="ref:vcgi:esiteid" v="189629"/>
  </node>
  <node id="-299" visible="true" lat="43.5301104" lon="-72.68168608">
    <tag k="addr:housenumber" v="1027"/>
    <tag k="addr:street" v="Bradley Hill Road"/>
    <tag k="addr:state" v="VT"/>
    <tag k="ref:vcgi:esiteid" v="189636"/>
  </node>
  <node id="-303" visible="true" lat="43.53079106" lon="-72.69434547">
    <tag k="addr:housenumber" v="636"/>
    <tag k="addr:street" v="Johnson Farm Road"/>
    <tag k="addr:state" v="VT"/>
    <tag k="ref:vcgi:esiteid" v="189640"/>
  </node>
  <node id="-306" visible="true" lat="43.53021621" lon="-72.74020385">
    <tag k="addr:housenumber" v="62"/>
    <tag k="addr:street" v="Dead End Road"/>
    <tag k="addr:state" v="VT"/>
    <tag k="ref:vcgi:esiteid" v="189643"/>
  </node>
  <node id="-317" visible="true" lat="43.52937811" lon="-72.72395717">
    <tag k="addr:housenumber" v="264"/>
    <tag k="addr:street" v="Lynds Hill Road"/>
    <tag k="addr:state" v="VT"/>
    <tag k="ref:vcgi:esiteid" v="189654"/>
  </node>
  <node id="-320" visible="true" lat="43.52875613" lon="-72.69199785">
    <tag k="addr:housenumber" v="502"/>
    <tag k="addr:street" v="Johnson Farm Road"/>
    <tag k="addr:state" v="VT"/>
    <tag k="ref:vcgi:esiteid" v="189658"/>
  </node>
  <node id="-327" visible="true" lat="43.52737076" lon="-72.69159545">
    <tag k="addr:housenumber" v="398"/>
    <tag k="addr:street" v="Johnson Farm Road"/>
    <tag k="addr:state" v="VT"/>
    <tag k="ref:vcgi:esiteid" v="189665"/>
  </node>
  <node id="-340" visible="true" lat="43.52437591" lon="-72.72084045">
    <tag k="addr:housenumber" v="618"/>
    <tag k="addr:street" v="Lynds Hill Road"/>
    <tag k="addr:state" v="VT"/>
    <tag k="ref:vcgi:esiteid" v="189679"/>
  </node>
  <node id="-341" visible="true" lat="43.52410888" lon="-72.705513">
    <tag k="addr:housenumber" v="1811"/>
    <tag k="addr:street" v="Lynds Hill Road"/>
    <tag k="addr:state" v="VT"/>
    <tag k="ref:vcgi:esiteid" v="189680"/>
  </node>
  <node id="-343" visible="true" lat="43.52379989" lon="-72.72361755">
    <tag k="addr:housenumber" v="506"/>
    <tag k="addr:street" v="Lynds Hill Road"/>
    <tag k="addr:state" v="VT"/>
    <tag k="ref:vcgi:esiteid" v="189682"/>
  </node>
  <node id="-367" visible="true" lat="43.52091103" lon="-72.69837117">
    <tag k="addr:housenumber" v="2192"/>
    <tag k="addr:street" v="Lynds Hill Road"/>
    <tag k="addr:state" v="VT"/>
    <tag k="ref:vcgi:esiteid" v="189706"/>
  </node>
  <node id="-369" visible="true" lat="43.51986001" lon="-72.7318968">
    <tag k="addr:housenumber" v="4490"/>
    <tag k="addr:street" v="Vermont Route 100"/>
    <tag k="addr:state" v="VT"/>
    <tag k="ref:vcgi:esiteid" v="189708"/>
  </node>
  <node id="-371" visible="true" lat="43.51868057" lon="-72.73282623">
    <tag k="addr:housenumber" v="4387"/>
    <tag k="addr:street" v="Vermont Route 100"/>
    <tag k="addr:state" v="VT"/>
    <tag k="ref:vcgi:esiteid" v="189710"/>
  </node>
  <node id="-372" visible="true" lat="43.5176148" lon="-72.73119593">
    <tag k="addr:housenumber" v="4344"/>
    <tag k="addr:street" v="Vermont Route 100"/>
    <tag k="addr:state" v="VT"/>
    <tag k="ref:vcgi:esiteid" v="189711"/>
  </node>
  <node id="-373" visible="true" lat="43.51661429" lon="-72.73220757">
    <tag k="addr:housenumber" v="4283"/>
    <tag k="addr:street" v="Vermont Route 100"/>
    <tag k="addr:state" v="VT"/>
    <tag k="ref:vcgi:esiteid" v="189712"/>
  </node>
  <node id="-374" visible="true" lat="43.51620864" lon="-72.73090362">
    <tag k="addr:housenumber" v="4246"/>
    <tag k="addr:street" v="Vermont Route 100"/>
    <tag k="addr:state" v="VT"/>
    <tag k="ref:vcgi:esiteid" v="189713"/>
  </node>
  <node id="-375" visible="true" lat="43.51168441" lon="-72.71149444">
    <tag k="addr:housenumber" v="226"/>
    <tag k="addr:street" v="Peregrine Road"/>
    <tag k="addr:state" v="VT"/>
    <tag k="ref:vcgi:esiteid" v="189715"/>
  </node>
  <node id="-376" visible="true" lat="43.51132202" lon="-72.71275329">
    <tag k="addr:housenumber" v="200"/>
    <tag k="addr:street" v="Peregrine Road"/>
    <tag k="addr:state" v="VT"/>
    <tag k="ref:vcgi:esiteid" v="189716"/>
  </node>
  <node id="-377" visible="true" lat="43.51057052" lon="-72.70922851">
    <tag k="addr:housenumber" v="966"/>
    <tag k="addr:street" v="Salt Ash Road"/>
    <tag k="addr:state" v="VT"/>
    <tag k="ref:vcgi:esiteid" v="189717"/>
  </node>
  <node id="-378" visible="true" lat="43.51027297" lon="-72.71337127">
    <tag k="addr:housenumber" v="118"/>
    <tag k="addr:street" v="Peregrine Road"/>
    <tag k="addr:state" v="VT"/>
    <tag k="ref:vcgi:esiteid" v="189718"/>
  </node>
  <node id="-379" visible="true" lat="43.51000595" lon="-72.71218872">
    <tag k="addr:housenumber" v="1091"/>
    <tag k="addr:street" v="Salt Ash Road"/>
    <tag k="addr:state" v="VT"/>
    <tag k="ref:vcgi:esiteid" v="189719"/>
  </node>
  <node id="-380" visible="true" lat="43.51005584" lon="-72.71764528">
    <tag k="addr:housenumber" v="426"/>
    <tag k="addr:street" v="Peregrine Road"/>
    <tag k="addr:state" v="VT"/>
    <tag k="ref:vcgi:esiteid" v="189720"/>
  </node>
  <node id="-381" visible="true" lat="43.50993209" lon="-72.71007999">
    <tag k="addr:housenumber" v="916"/>
    <tag k="addr:street" v="Salt Ash Road"/>
    <tag k="addr:state" v="VT"/>
    <tag k="ref:vcgi:esiteid" v="189721"/>
  </node>
  <node id="-382" visible="true" lat="43.50956344" lon="-72.71553039">
    <tag k="addr:housenumber" v="421"/>
    <tag k="addr:street" v="Peregrine Road"/>
    <tag k="addr:state" v="VT"/>
    <tag k="ref:vcgi:esiteid" v="189722"/>
  </node>
  <node id="-383" visible="true" lat="43.50949981" lon="-72.71283755">
    <tag k="addr:housenumber" v="1155"/>
    <tag k="addr:street" v="Salt Ash Road"/>
    <tag k="addr:state" v="VT"/>
    <tag k="ref:vcgi:esiteid" v="189723"/>
  </node>
  <node id="-384" visible="true" lat="43.5090599" lon="-72.71470642">
    <tag k="addr:housenumber" v="431"/>
    <tag k="addr:street" v="Peregrine Road"/>
    <tag k="addr:state" v="VT"/>
    <tag k="ref:vcgi:esiteid" v="189724"/>
  </node>
  <node id="-385" visible="true" lat="43.50863107" lon="-72.70918317">
    <tag k="addr:housenumber" v="118"/>
    <tag k="addr:street" v="Hawk Hollow Lane"/>
    <tag k="addr:state" v="VT"/>
    <tag k="ref:vcgi:esiteid" v="189725"/>
  </node>
  <node id="-386" visible="true" lat="43.50891036" lon="-72.71145071">
    <tag k="addr:housenumber" v="811"/>
    <tag k="addr:street" v="Salt Ash Road"/>
    <tag k="addr:state" v="VT"/>
    <tag k="ref:vcgi:esiteid" v="189726"/>
  </node>
  <node id="-387" visible="true" lat="43.50878265" lon="-72.70839057">
    <tag k="addr:housenumber" v="148"/>
    <tag k="addr:street" v="Hawk Hollow Lane"/>
    <tag k="addr:state" v="VT"/>
    <tag k="ref:vcgi:esiteid" v="189727"/>
  </node>
  <node id="-391" visible="true" lat="43.50810241" lon="-72.70645904">
    <tag k="addr:housenumber" v="549"/>
    <tag k="addr:street" v="East Ash Road"/>
    <tag k="addr:state" v="VT"/>
    <tag k="ref:vcgi:esiteid" v="189731"/>
  </node>
  <node id="-394" visible="true" lat="43.50772476" lon="-72.70742034">
    <tag k="addr:housenumber" v="547"/>
    <tag k="addr:street" v="East Ash Road"/>
    <tag k="addr:state" v="VT"/>
    <tag k="ref:vcgi:esiteid" v="189734"/>
  </node>
  <node id="-402" visible="true" lat="43.50717711" lon="-72.71018556">
    <tag k="addr:housenumber" v="734"/>
    <tag k="addr:street" v="Salt Ash Road"/>
    <tag k="addr:state" v="VT"/>
    <tag k="ref:vcgi:esiteid" v="189742"/>
  </node>
  <node id="-404" visible="true" lat="43.50683212" lon="-72.72559356">
    <tag k="addr:housenumber" v="3570"/>
    <tag k="addr:street" v="Vermont Route 100"/>
    <tag k="addr:state" v="VT"/>
    <tag k="ref:vcgi:esiteid" v="189744"/>
  </node>
  <node id="-425" visible="true" lat="43.50514221" lon="-72.72666931">
    <tag k="addr:housenumber" v="3399"/>
    <tag k="addr:street" v="Vermont Route 100"/>
    <tag k="addr:state" v="VT"/>
    <tag k="ref:vcgi:esiteid" v="189765"/>
  </node>
  <node id="-446" visible="true" lat="43.50282669" lon="-72.70973968">
    <tag k="addr:housenumber" v="342"/>
    <tag k="addr:street" v="East Ash Road"/>
    <tag k="addr:state" v="VT"/>
    <tag k="ref:vcgi:esiteid" v="189786"/>
  </node>
  <node id="-447" visible="true" lat="43.50277709" lon="-72.70463561">
    <tag k="addr:housenumber" v="998"/>
    <tag k="addr:street" v="East Ash Road"/>
    <tag k="addr:state" v="VT"/>
    <tag k="ref:vcgi:esiteid" v="189787"/>
  </node>
  <node id="-448" visible="true" lat="43.50273355" lon="-72.72329059">
    <tag k="addr:housenumber" v="3148"/>
    <tag k="addr:street" v="Vermont Route 100"/>
    <tag k="addr:state" v="VT"/>
    <tag k="ref:vcgi:esiteid" v="189788"/>
  </node>
  <node id="-454" visible="true" lat="43.50219345" lon="-72.70436859">
    <tag k="addr:housenumber" v="1048"/>
    <tag k="addr:street" v="East Ash Road"/>
    <tag k="addr:state" v="VT"/>
    <tag k="ref:vcgi:esiteid" v="189794"/>
  </node>
  <node id="-455" visible="true" lat="43.50217437" lon="-72.71026611">
    <tag k="addr:housenumber" v="102"/>
    <tag k="addr:street" v="East Ash Road"/>
    <tag k="addr:state" v="VT"/>
    <tag k="ref:vcgi:esiteid" v="189795"/>
  </node>
  <node id="-461" visible="true" lat="43.50154113" lon="-72.70417022">
    <tag k="addr:housenumber" v="1094"/>
    <tag k="addr:street" v="East Ash Road"/>
    <tag k="addr:state" v="VT"/>
    <tag k="ref:vcgi:esiteid" v="189801"/>
  </node>
  <node id="-465" visible="true" lat="43.50042343" lon="-72.7038803">
    <tag k="addr:housenumber" v="1174"/>
    <tag k="addr:street" v="East Ash Road"/>
    <tag k="addr:state" v="VT"/>
    <tag k="ref:vcgi:esiteid" v="189806"/>
  </node>
  <node id="-468" visible="true" lat="43.49964523" lon="-72.70361328">
    <tag k="addr:housenumber" v="1226"/>
    <tag k="addr:street" v="East Ash Road"/>
    <tag k="addr:state" v="VT"/>
    <tag k="ref:vcgi:esiteid" v="189811"/>
  </node>
  <node id="-470" visible="true" lat="43.49926376" lon="-72.70349884">
    <tag k="addr:housenumber" v="1250"/>
    <tag k="addr:street" v="East Ash Road"/>
    <tag k="addr:state" v="VT"/>
    <tag k="ref:vcgi:esiteid" v="189813"/>
  </node>
  <node id="-474" visible="true" lat="43.49794006" lon="-72.71440887">
    <tag k="addr:housenumber" v="2579"/>
    <tag k="addr:street" v="Vermont Route 100"/>
    <tag k="addr:state" v="VT"/>
    <tag k="ref:vcgi:esiteid" v="189817"/>
  </node>
  <node id="-478" visible="true" lat="43.49737988" lon="-72.71810393">
    <tag k="addr:housenumber" v="388"/>
    <tag k="addr:street" v="Soaring Hawk Road"/>
    <tag k="addr:state" v="VT"/>
    <tag k="ref:vcgi:esiteid" v="189821"/>
  </node>
  <node id="-489" visible="true" lat="43.49613952" lon="-72.71313476">
    <tag k="addr:housenumber" v="2431"/>
    <tag k="addr:street" v="Vermont Route 100"/>
    <tag k="addr:state" v="VT"/>
    <tag k="ref:vcgi:esiteid" v="189832"/>
  </node>
  <node id="-496" visible="true" lat="43.49545288" lon="-72.71161651">
    <tag k="addr:housenumber" v="2370"/>
    <tag k="addr:street" v="Vermont Route 100"/>
    <tag k="addr:state" v="VT"/>
    <tag k="ref:vcgi:esiteid" v="189839"/>
  </node>
  <node id="-497" visible="true" lat="43.49498718" lon="-72.71138992">
    <tag k="addr:housenumber" v="17"/>
    <tag k="addr:street" v="Whitetail Trace"/>
    <tag k="addr:state" v="VT"/>
    <tag k="ref:vcgi:esiteid" v="189840"/>
  </node>
  <node id="-502" visible="true" lat="43.49454116" lon="-72.71231079">
    <tag k="addr:housenumber" v="2331"/>
    <tag k="addr:street" v="Vermont Route 100"/>
    <tag k="addr:state" v="VT"/>
    <tag k="ref:vcgi:esiteid" v="189845"/>
  </node>
  <node id="-504" visible="true" lat="43.49412467" lon="-72.70825103">
    <tag k="addr:housenumber" v="149"/>
    <tag k="addr:street" v="Hawk Pond Road"/>
    <tag k="addr:state" v="VT"/>
    <tag k="ref:vcgi:esiteid" v="189847"/>
  </node>
  <node id="-506" visible="true" lat="43.49404359" lon="-72.71721511">
    <tag k="addr:housenumber" v="501"/>
    <tag k="addr:street" v="Hawk Spur Road"/>
    <tag k="addr:state" v="VT"/>
    <tag k="ref:vcgi:esiteid" v="189849"/>
  </node>
  <node id="-507" visible="true" lat="43.49383128" lon="-72.70741556">
    <tag k="addr:housenumber" v="162"/>
    <tag k="addr:street" v="Hawk Pond Road"/>
    <tag k="addr:state" v="VT"/>
    <tag k="ref:vcgi:esiteid" v="189850"/>
  </node>
  <node id="-509" visible="true" lat="43.49372482" lon="-72.70555114">
    <tag k="addr:housenumber" v="586"/>
    <tag k="addr:street" v="Scout Camp Road"/>
    <tag k="addr:state" v="VT"/>
    <tag k="ref:vcgi:esiteid" v="189852"/>
  </node>
  <node id="-510" visible="true" lat="43.49369208" lon="-72.71649147">
    <tag k="addr:housenumber" v="107"/>
    <tag k="addr:street" v="Soaring Hawk Road"/>
    <tag k="addr:state" v="VT"/>
    <tag k="ref:vcgi:esiteid" v="189853"/>
  </node>
  <node id="-511" visible="true" lat="43.49325958" lon="-72.71307011">
    <tag k="addr:housenumber" v="905"/>
    <tag k="addr:street" v="Crown Point Road"/>
    <tag k="addr:state" v="VT"/>
    <tag k="ref:vcgi:esiteid" v="189854"/>
  </node>
  <node id="-517" visible="true" lat="43.49220275" lon="-72.71662902">
    <tag k="addr:housenumber" v="694"/>
    <tag k="addr:street" v="Crown Point Road"/>
    <tag k="addr:state" v="VT"/>
    <tag k="ref:vcgi:esiteid" v="189860"/>
  </node>
  <node id="-519" visible="true" lat="43.49219131" lon="-72.71279907">
    <tag k="addr:housenumber" v="962"/>
    <tag k="addr:street" v="Crown Point Road"/>
    <tag k="addr:state" v="VT"/>
    <tag k="ref:vcgi:esiteid" v="189862"/>
  </node>
  <node id="-520" visible="true" lat="43.49216079" lon="-72.72133636">
    <tag k="addr:housenumber" v="463"/>
    <tag k="addr:street" v="Crown Point Road"/>
    <tag k="addr:state" v="VT"/>
    <tag k="ref:vcgi:esiteid" v="189863"/>
  </node>
  <node id="-521" visible="true" lat="43.49204635" lon="-72.70500183">
    <tag k="addr:housenumber" v="712"/>
    <tag k="addr:street" v="Scout Camp Road"/>
    <tag k="addr:state" v="VT"/>
    <tag k="ref:vcgi:esiteid" v="189864"/>
  </node>
  <node id="-526" visible="true" lat="43.49173355" lon="-72.71090698">
    <tag k="addr:housenumber" v="64"/>
    <tag k="addr:street" v="Campground Road"/>
    <tag k="addr:state" v="VT"/>
    <tag k="ref:vcgi:esiteid" v="189869"/>
  </node>
  <node id="-527" visible="true" lat="43.49168395" lon="-72.71460723">
    <tag k="addr:housenumber" v="762"/>
    <tag k="addr:street" v="Crown Point Road"/>
    <tag k="addr:state" v="VT"/>
    <tag k="ref:vcgi:esiteid" v="189870"/>
  </node>
  <node id="-528" visible="true" lat="43.49147796" lon="-72.70906066">
    <tag k="addr:housenumber" v="69"/>
    <tag k="addr:street" v="Campground Road"/>
    <tag k="addr:state" v="VT"/>
    <tag k="ref:vcgi:esiteid" v="189871"/>
  </node>
  <node id="-529" visible="true" lat="43.49146652" lon="-72.70466613">
    <tag k="addr:housenumber" v="748"/>
    <tag k="addr:street" v="Scout Camp Road"/>
    <tag k="addr:state" v="VT"/>
    <tag k="ref:vcgi:esiteid" v="189872"/>
  </node>
  <node id="-532" visible="true" lat="43.49123382" lon="-72.70576477">
    <tag k="addr:housenumber" v="148"/>
    <tag k="addr:street" v="Scout Camp Road"/>
    <tag k="addr:state" v="VT"/>
    <tag k="ref:vcgi:esiteid" v="189875"/>
  </node>
  <node id="-538" visible="true" lat="43.4895935" lon="-72.70344543">
    <tag k="addr:housenumber" v="894"/>
    <tag k="addr:street" v="Scout Camp Road"/>
    <tag k="addr:state" v="VT"/>
    <tag k="ref:vcgi:esiteid" v="189881"/>
  </node>
  <node id="-539" visible="true" lat="43.48935699" lon="-72.70874786">
    <tag k="addr:housenumber" v="220"/>
    <tag k="addr:street" v="Campground Road"/>
    <tag k="addr:state" v="VT"/>
    <tag k="ref:vcgi:esiteid" v="189882"/>
  </node>
  <node id="-540" visible="true" lat="43.48908615" lon="-72.7026596">
    <tag k="addr:housenumber" v="952"/>
    <tag k="addr:street" v="Scout Camp Road"/>
    <tag k="addr:state" v="VT"/>
    <tag k="ref:vcgi:esiteid" v="189883"/>
  </node>
  <node id="-541" visible="true" lat="43.48886489" lon="-72.70269012">
    <tag k="addr:housenumber" v="964"/>
    <tag k="addr:street" v="Scout Camp Road"/>
    <tag k="addr:state" v="VT"/>
    <tag k="ref:vcgi:esiteid" v="189884"/>
  </node>
  <node id="-542" visible="true" lat="43.4886131" lon="-72.70215165">
    <tag k="addr:housenumber" v="990"/>
    <tag k="addr:street" v="Scout Camp Road"/>
    <tag k="addr:state" v="VT"/>
    <tag k="ref:vcgi:esiteid" v="189885"/>
  </node>
  <node id="-543" visible="true" lat="43.48770516" lon="-72.70779892">
    <tag k="addr:housenumber" v="1805"/>
    <tag k="addr:street" v="Vermont Route 100"/>
    <tag k="addr:state" v="VT"/>
    <tag k="ref:vcgi:esiteid" v="189886"/>
  </node>
  <node id="-545" visible="true" lat="43.48722754" lon="-72.70106783">
    <tag k="addr:housenumber" v="1135"/>
    <tag k="addr:street" v="Scout Camp Road"/>
    <tag k="addr:state" v="VT"/>
    <tag k="ref:vcgi:esiteid" v="189888"/>
  </node>
  <node id="-546" visible="true" lat="43.48685455" lon="-72.70687103">
    <tag k="addr:housenumber" v="104"/>
    <tag k="addr:street" v="12 Road"/>
    <tag k="addr:state" v="VT"/>
    <tag k="ref:vcgi:esiteid" v="189889"/>
  </node>
  <node id="-547" visible="true" lat="43.48661471" lon="-72.70212537">
    <tag k="addr:housenumber" v="1112"/>
    <tag k="addr:street" v="Scout Camp Road"/>
    <tag k="addr:state" v="VT"/>
    <tag k="ref:vcgi:esiteid" v="189890"/>
  </node>
  <node id="-548" visible="true" lat="43.48600769" lon="-72.70685577">
    <tag k="addr:housenumber" v="49"/>
    <tag k="addr:street" v="12 Road"/>
    <tag k="addr:state" v="VT"/>
    <tag k="ref:vcgi:esiteid" v="189891"/>
  </node>
  <node id="-549" visible="true" lat="43.48413085" lon="-72.70570373">
    <tag k="addr:housenumber" v="1507"/>
    <tag k="addr:street" v="Vermont Route 100"/>
    <tag k="addr:state" v="VT"/>
    <tag k="ref:vcgi:esiteid" v="189892"/>
  </node>
  <node id="-551" visible="true" lat="43.48170471" lon="-72.70446014">
    <tag k="addr:housenumber" v="1277"/>
    <tag k="addr:street" v="Vermont Route 100"/>
    <tag k="addr:state" v="VT"/>
    <tag k="ref:vcgi:esiteid" v="189894"/>
  </node>
  <node id="-552" visible="true" lat="43.48131332" lon="-72.6997305">
    <tag k="addr:housenumber" v="1534"/>
    <tag k="addr:street" v="Scout Camp Road"/>
    <tag k="addr:state" v="VT"/>
    <tag k="ref:vcgi:esiteid" v="189895"/>
  </node>
  <node id="-555" visible="true" lat="43.48057937" lon="-72.70477294">
    <tag k="addr:housenumber" v="1275"/>
    <tag k="addr:street" v="Vermont Route 100"/>
    <tag k="addr:state" v="VT"/>
    <tag k="ref:vcgi:esiteid" v="189898"/>
  </node>
  <node id="-557" visible="true" lat="43.48016612" lon="-72.70414861">
    <tag k="addr:housenumber" v="1235"/>
    <tag k="addr:street" v="Vermont Route 100"/>
    <tag k="addr:state" v="VT"/>
    <tag k="ref:vcgi:esiteid" v="189900"/>
  </node>
  <node id="-560" visible="true" lat="43.47952269" lon="-72.69932275">
    <tag k="addr:housenumber" v="1634"/>
    <tag k="addr:street" v="Scout Camp Road"/>
    <tag k="addr:state" v="VT"/>
    <tag k="ref:vcgi:esiteid" v="189903"/>
  </node>
  <node id="-561" visible="true" lat="43.47955577" lon="-72.70327128">
    <tag k="addr:housenumber" v="22"/>
    <tag k="addr:street" v="Amherst Road"/>
    <tag k="addr:state" v="VT"/>
    <tag k="ref:vcgi:esiteid" v="189905"/>
  </node>
  <node id="-562" visible="true" lat="43.47949749" lon="-72.7019589">
    <tag k="addr:housenumber" v="80"/>
    <tag k="addr:street" v="Amherst Road"/>
    <tag k="addr:state" v="VT"/>
    <tag k="ref:vcgi:esiteid" v="189906"/>
  </node>
  <node id="-563" visible="true" lat="43.47950914" lon="-72.69875875">
    <tag k="addr:housenumber" v="1664"/>
    <tag k="addr:street" v="Scout Camp Road"/>
    <tag k="addr:state" v="VT"/>
    <tag k="ref:vcgi:esiteid" v="189907"/>
  </node>
  <node id="-564" visible="true" lat="43.47880477" lon="-72.71867027">
    <tag k="addr:housenumber" v="255"/>
    <tag k="addr:street" v="Davis Road"/>
    <tag k="addr:state" v="VT"/>
    <tag k="ref:vcgi:esiteid" v="189908"/>
  </node>
  <node id="-566" visible="true" lat="43.4785351" lon="-72.75281474">
    <tag k="addr:housenumber" v="1730"/>
    <tag k="addr:street" v="Patch Brook Road"/>
    <tag k="addr:state" v="VT"/>
    <tag k="ref:vcgi:esiteid" v="189910"/>
  </node>
  <node id="-567" visible="true" lat="43.47850418" lon="-72.70329284">
    <tag k="addr:housenumber" v="1098"/>
    <tag k="addr:street" v="Vermont Route 100"/>
    <tag k="addr:state" v="VT"/>
    <tag k="ref:vcgi:esiteid" v="189911"/>
  </node>
  <node id="-568" visible="true" lat="43.47837829" lon="-72.72489929">
    <tag k="addr:housenumber" v="1417"/>
    <tag k="addr:street" v="Dublin Road"/>
    <tag k="addr:state" v="VT"/>
    <tag k="ref:vcgi:esiteid" v="189912"/>
  </node>
  <node id="-569" visible="true" lat="43.47798189" lon="-72.75909289">
    <tag k="addr:housenumber" v="2195"/>
    <tag k="addr:street" v="Patch Brook Road"/>
    <tag k="addr:state" v="VT"/>
    <tag k="ref:vcgi:esiteid" v="189913"/>
  </node>
  <node id="-571" visible="true" lat="43.47785979" lon="-72.68715694">
    <tag k="addr:housenumber" v="582"/>
    <tag k="addr:street" v="Weaver Hill Road"/>
    <tag k="addr:state" v="VT"/>
    <tag k="ref:vcgi:esiteid" v="189915"/>
  </node>
  <node id="-572" visible="true" lat="43.4780782" lon="-72.76414452">
    <tag k="addr:housenumber" v="104"/>
    <tag k="addr:street" v="Old County Road"/>
    <tag k="addr:state" v="VT"/>
    <tag k="ref:vcgi:esiteid" v="189916"/>
  </node>
  <node id="-573" visible="true" lat="43.4772855" lon="-72.75996325">
    <tag k="addr:housenumber" v="2231"/>
    <tag k="addr:street" v="Patch Brook Road"/>
    <tag k="addr:state" v="VT"/>
    <tag k="ref:vcgi:esiteid" v="189917"/>
  </node>
  <node id="-574" visible="true" lat="43.47727584" lon="-72.72164916">
    <tag k="addr:housenumber" v="1276"/>
    <tag k="addr:street" v="Dublin Road"/>
    <tag k="addr:state" v="VT"/>
    <tag k="ref:vcgi:esiteid" v="189918"/>
  </node>
  <node id="-575" visible="true" lat="43.47710954" lon="-72.71618446">
    <tag k="addr:housenumber" v="186"/>
    <tag k="addr:street" v="Davis Road"/>
    <tag k="addr:state" v="VT"/>
    <tag k="ref:vcgi:esiteid" v="189919"/>
  </node>
  <node id="-576" visible="true" lat="43.47700881" lon="-72.72225952">
    <tag k="addr:housenumber" v="1287"/>
    <tag k="addr:street" v="Dublin Road"/>
    <tag k="addr:state" v="VT"/>
    <tag k="ref:vcgi:esiteid" v="189920"/>
  </node>
  <node id="-577" visible="true" lat="43.47692451" lon="-72.66604994">
    <tag k="addr:housenumber" v="207"/>
    <tag k="addr:street" v="Reading Pond Road"/>
    <tag k="addr:state" v="VT"/>
    <tag k="ref:vcgi:esiteid" v="189921"/>
  </node>
  <node id="-578" visible="true" lat="43.47690338" lon="-72.71708897">
    <tag k="addr:housenumber" v="142"/>
    <tag k="addr:street" v="Davis Road"/>
    <tag k="addr:state" v="VT"/>
    <tag k="ref:vcgi:esiteid" v="189922"/>
  </node>
  <node id="-579" visible="true" lat="43.47673374" lon="-72.72062638">
    <tag k="addr:housenumber" v="1212"/>
    <tag k="addr:street" v="Dublin Road"/>
    <tag k="addr:state" v="VT"/>
    <tag k="ref:vcgi:esiteid" v="189923"/>
  </node>
  <node id="-580" visible="true" lat="43.4766958" lon="-72.7559216">
    <tag k="addr:housenumber" v="197"/>
    <tag k="addr:street" v="Dam Road"/>
    <tag k="addr:state" v="VT"/>
    <tag k="ref:vcgi:esiteid" v="189924"/>
  </node>
  <node id="-581" visible="true" lat="43.47681494" lon="-72.69804409">
    <tag k="addr:housenumber" v="1960"/>
    <tag k="addr:street" v="Scout Camp Road"/>
    <tag k="addr:state" v="VT"/>
    <tag k="ref:vcgi:esiteid" v="189925"/>
  </node>
  <node id="-582" visible="true" lat="43.4766426" lon="-72.69454956">
    <tag k="addr:housenumber" v="1963"/>
    <tag k="addr:street" v="Scout Camp Road"/>
    <tag k="addr:state" v="VT"/>
    <tag k="ref:vcgi:esiteid" v="189926"/>
  </node>
  <node id="-583" visible="true" lat="43.47651435" lon="-72.69429293">
    <tag k="addr:housenumber" v="1979"/>
    <tag k="addr:street" v="Scout Camp Road"/>
    <tag k="addr:state" v="VT"/>
    <tag k="ref:vcgi:esiteid" v="189928"/>
  </node>
  <node id="-584" visible="true" lat="43.47639465" lon="-72.68779754">
    <tag k="addr:housenumber" v="432"/>
    <tag k="addr:street" v="Weaver Hill Road"/>
    <tag k="addr:state" v="VT"/>
    <tag k="ref:vcgi:esiteid" v="189929"/>
  </node>
  <node id="-586" visible="true" lat="43.47608947" lon="-72.71762847">
    <tag k="addr:housenumber" v="1042"/>
    <tag k="addr:street" v="Dublin Road"/>
    <tag k="addr:state" v="VT"/>
    <tag k="ref:vcgi:esiteid" v="189931"/>
  </node>
  <node id="-587" visible="true" lat="43.47662961" lon="-72.69577483">
    <tag k="addr:housenumber" v="2008"/>
    <tag k="addr:street" v="Scout Camp Road"/>
    <tag k="addr:state" v="VT"/>
    <tag k="ref:vcgi:esiteid" v="189932"/>
  </node>
  <node id="-588" visible="true" lat="43.47583077" lon="-72.70278929">
    <tag k="addr:housenumber" v="912"/>
    <tag k="addr:street" v="Vermont Route 100"/>
    <tag k="addr:state" v="VT"/>
    <tag k="ref:vcgi:esiteid" v="189933"/>
  </node>
  <node id="-589" visible="true" lat="43.47576044" lon="-72.75313331">
    <tag k="addr:housenumber" v="335"/>
    <tag k="addr:street" v="Dam Road"/>
    <tag k="addr:state" v="VT"/>
    <tag k="ref:vcgi:esiteid" v="189934"/>
  </node>
  <node id="-590" visible="true" lat="43.47552648" lon="-72.69599438">
    <tag k="addr:housenumber" v="2016"/>
    <tag k="addr:street" v="Scout Camp Road"/>
    <tag k="addr:state" v="VT"/>
    <tag k="ref:vcgi:esiteid" v="189935"/>
  </node>
  <node id="-591" visible="true" lat="43.47563934" lon="-72.71482849">
    <tag k="addr:housenumber" v="21"/>
    <tag k="addr:street" v="Tatro Road"/>
    <tag k="addr:state" v="VT"/>
    <tag k="ref:vcgi:esiteid" v="189936"/>
  </node>
  <node id="-592" visible="true" lat="43.47563542" lon="-72.70264457">
    <tag k="addr:housenumber" v="892"/>
    <tag k="addr:street" v="Vermont Route 100"/>
    <tag k="addr:state" v="VT"/>
    <tag k="ref:vcgi:esiteid" v="189937"/>
  </node>
  <node id="-593" visible="true" lat="43.47559738" lon="-72.68622589">
    <tag k="addr:housenumber" v="390"/>
    <tag k="addr:street" v="Weaver Hill Road"/>
    <tag k="addr:state" v="VT"/>
    <tag k="ref:vcgi:esiteid" v="189938"/>
  </node>
  <node id="-594" visible="true" lat="43.4753269" lon="-72.71716559">
    <tag k="addr:housenumber" v="981"/>
    <tag k="addr:street" v="Dublin Road"/>
    <tag k="addr:state" v="VT"/>
    <tag k="ref:vcgi:esiteid" v="189939"/>
  </node>
  <node id="-595" visible="true" lat="43.47530746" lon="-72.66126251">
    <tag k="addr:housenumber" v="2569"/>
    <tag k="addr:street" v="Kingdom Road"/>
    <tag k="addr:state" v="VT"/>
    <tag k="ref:vcgi:esiteid" v="189940"/>
  </node>
  <node id="-596" visible="true" lat="43.47531764" lon="-72.68908684">
    <tag k="addr:housenumber" v="401"/>
    <tag k="addr:street" v="Weaver Hill Road"/>
    <tag k="addr:state" v="VT"/>
    <tag k="ref:vcgi:esiteid" v="189941"/>
  </node>
  <node id="-597" visible="true" lat="43.47459411" lon="-72.71348571">
    <tag k="addr:housenumber" v="59"/>
    <tag k="addr:street" v="Tatro Road"/>
    <tag k="addr:state" v="VT"/>
    <tag k="ref:vcgi:esiteid" v="189942"/>
  </node>
  <node id="-598" visible="true" lat="43.47467041" lon="-72.66473388">
    <tag k="addr:housenumber" v="2389"/>
    <tag k="addr:street" v="Kingdom Road"/>
    <tag k="addr:state" v="VT"/>
    <tag k="ref:vcgi:esiteid" v="189943"/>
  </node>
  <node id="-599" visible="true" lat="43.47451782" lon="-72.7156372">
    <tag k="addr:housenumber" v="903"/>
    <tag k="addr:street" v="Dublin Road"/>
    <tag k="addr:state" v="VT"/>
    <tag k="ref:vcgi:esiteid" v="189944"/>
  </node>
  <node id="-600" visible="true" lat="43.47450637" lon="-72.71181488">
    <tag k="addr:housenumber" v="73"/>
    <tag k="addr:street" v="Tatro Road"/>
    <tag k="addr:state" v="VT"/>
    <tag k="ref:vcgi:esiteid" v="189945"/>
  </node>
  <node id="-601" visible="true" lat="43.47440719" lon="-72.71410369">
    <tag k="addr:housenumber" v="38"/>
    <tag k="addr:street" v="Tatro Road"/>
    <tag k="addr:state" v="VT"/>
    <tag k="ref:vcgi:esiteid" v="189947"/>
  </node>
  <node id="-602" visible="true" lat="43.47430419" lon="-72.66527557">
    <tag k="addr:housenumber" v="2357"/>
    <tag k="addr:street" v="Kingdom Road"/>
    <tag k="addr:state" v="VT"/>
    <tag k="ref:vcgi:esiteid" v="189948"/>
  </node>
  <node id="-603" visible="true" lat="43.47433813" lon="-72.71731079">
    <tag k="addr:housenumber" v="917"/>
    <tag k="addr:street" v="Dublin Road"/>
    <tag k="addr:state" v="VT"/>
    <tag k="ref:vcgi:esiteid" v="189949"/>
  </node>
  <node id="-604" visible="true" lat="43.47417068" lon="-72.71479797">
    <tag k="addr:housenumber" v="853"/>
    <tag k="addr:street" v="Dublin Road"/>
    <tag k="addr:state" v="VT"/>
    <tag k="ref:vcgi:esiteid" v="189950"/>
  </node>
  <node id="-605" visible="true" lat="43.47402191" lon="-72.66083526">
    <tag k="addr:housenumber" v="2570"/>
    <tag k="addr:street" v="Kingdom Road"/>
    <tag k="addr:state" v="VT"/>
    <tag k="ref:vcgi:esiteid" v="189952"/>
  </node>
  <node id="-606" visible="true" lat="43.47391509" lon="-72.71298217">
    <tag k="addr:housenumber" v="107"/>
    <tag k="addr:street" v="Tatro Road"/>
    <tag k="addr:state" v="VT"/>
    <tag k="ref:vcgi:esiteid" v="189953"/>
  </node>
  <node id="-607" visible="true" lat="43.47389221" lon="-72.66656494">
    <tag k="addr:housenumber" v="2293"/>
    <tag k="addr:street" v="Kingdom Road"/>
    <tag k="addr:state" v="VT"/>
    <tag k="ref:vcgi:esiteid" v="189954"/>
  </node>
  <node id="-608" visible="true" lat="43.47388581" lon="-72.66272085">
    <tag k="addr:housenumber" v="2466"/>
    <tag k="addr:street" v="Kingdom Road"/>
    <tag k="addr:state" v="VT"/>
    <tag k="ref:vcgi:esiteid" v="189955"/>
  </node>
  <node id="-609" visible="true" lat="43.47381823" lon="-72.6876911">
    <tag k="addr:housenumber" v="126"/>
    <tag k="addr:street" v="Weaver Hill Road"/>
    <tag k="addr:state" v="VT"/>
    <tag k="ref:vcgi:esiteid" v="189956"/>
  </node>
  <node id="-610" visible="true" lat="43.4737358" lon="-72.70236968">
    <tag k="addr:housenumber" v="764"/>
    <tag k="addr:street" v="Vermont Route 100"/>
    <tag k="addr:state" v="VT"/>
    <tag k="ref:vcgi:esiteid" v="189957"/>
  </node>
  <node id="-611" visible="true" lat="43.4736834" lon="-72.68919105">
    <tag k="addr:housenumber" v="265"/>
    <tag k="addr:street" v="Weaver Hill Road"/>
    <tag k="addr:state" v="VT"/>
    <tag k="ref:vcgi:esiteid" v="189958"/>
  </node>
  <node id="-612" visible="true" lat="43.47315186" lon="-72.68584024">
    <tag k="addr:housenumber" v="40"/>
    <tag k="addr:street" v="Weaver Hill Road"/>
    <tag k="addr:state" v="VT"/>
    <tag k="ref:vcgi:esiteid" v="189959"/>
  </node>
  <node id="-613" visible="true" lat="43.47267444" lon="-72.69668293">
    <tag k="addr:housenumber" v="273"/>
    <tag k="addr:street" v="Birch Landing Road"/>
    <tag k="addr:state" v="VT"/>
    <tag k="ref:vcgi:esiteid" v="189960"/>
  </node>
  <node id="-614" visible="true" lat="43.47234725" lon="-72.71354675">
    <tag k="addr:housenumber" v="707"/>
    <tag k="addr:street" v="Dublin Road"/>
    <tag k="addr:state" v="VT"/>
    <tag k="ref:vcgi:esiteid" v="189961"/>
  </node>
  <node id="-615" visible="true" lat="43.47222097" lon="-72.68231785">
    <tag k="addr:housenumber" v="51"/>
    <tag k="addr:street" v="Hillside Road"/>
    <tag k="addr:state" v="VT"/>
    <tag k="ref:vcgi:esiteid" v="189963"/>
  </node>
  <node id="-616" visible="true" lat="43.47208114" lon="-72.69793715">
    <tag k="addr:housenumber" v="71"/>
    <tag k="addr:street" v="Lakeview Road"/>
    <tag k="addr:state" v="VT"/>
    <tag k="ref:vcgi:esiteid" v="189964"/>
  </node>
  <node id="-617" visible="true" lat="43.4718576" lon="-72.69557723">
    <tag k="addr:housenumber" v="38"/>
    <tag k="addr:street" v="Birch Landing Road"/>
    <tag k="addr:state" v="VT"/>
    <tag k="ref:vcgi:esiteid" v="189965"/>
  </node>
  <node id="-618" visible="true" lat="43.47188186" lon="-72.69322967">
    <tag k="addr:housenumber" v="2377"/>
    <tag k="addr:street" v="Scout Camp Road"/>
    <tag k="addr:state" v="VT"/>
    <tag k="ref:vcgi:esiteid" v="189966"/>
  </node>
  <node id="-619" visible="true" lat="43.47172272" lon="-72.6899014">
    <tag k="addr:housenumber" v="205"/>
    <tag k="addr:street" v="Weaver Hill Road"/>
    <tag k="addr:state" v="VT"/>
    <tag k="ref:vcgi:esiteid" v="189967"/>
  </node>
  <node id="-620" visible="true" lat="43.47181453" lon="-72.6858309">
    <tag k="addr:housenumber" v="23"/>
    <tag k="addr:street" v="Weaver Hill Road"/>
    <tag k="addr:state" v="VT"/>
    <tag k="ref:vcgi:esiteid" v="189968"/>
  </node>
  <node id="-621" visible="true" lat="43.47161554" lon="-72.69783997">
    <tag k="addr:housenumber" v="63"/>
    <tag k="addr:street" v="Lakeview Road"/>
    <tag k="addr:state" v="VT"/>
    <tag k="ref:vcgi:esiteid" v="189969"/>
  </node>
  <node id="-622" visible="true" lat="43.47166132" lon="-72.68157319">
    <tag k="addr:housenumber" v="110"/>
    <tag k="addr:street" v="Hillside Road"/>
    <tag k="addr:state" v="VT"/>
    <tag k="ref:vcgi:esiteid" v="189970"/>
  </node>
  <node id="-623" visible="true" lat="43.4716246" lon="-72.68287448">
    <tag k="addr:housenumber" v="26"/>
    <tag k="addr:street" v="Hillside Road"/>
    <tag k="addr:state" v="VT"/>
    <tag k="ref:vcgi:esiteid" v="189971"/>
  </node>
  <node id="-624" visible="true" lat="43.47150039" lon="-72.70283508">
    <tag k="addr:housenumber" v="612"/>
    <tag k="addr:street" v="Vermont Route 100"/>
    <tag k="addr:state" v="VT"/>
    <tag k="ref:vcgi:esiteid" v="189972"/>
  </node>
  <node id="-625" visible="true" lat="43.47132984" lon="-72.69636279">
    <tag k="addr:housenumber" v="104"/>
    <tag k="addr:street" v="Birch Landing Road"/>
    <tag k="addr:state" v="VT"/>
    <tag k="ref:vcgi:esiteid" v="189973"/>
  </node>
  <node id="-626" visible="true" lat="43.47136937" lon="-72.68796872">
    <tag k="addr:housenumber" v="231"/>
    <tag k="addr:street" v="Pollard Road"/>
    <tag k="addr:state" v="VT"/>
    <tag k="ref:vcgi:esiteid" v="189974"/>
  </node>
  <node id="-627" visible="true" lat="43.47121023" lon="-72.70263197">
    <tag k="addr:housenumber" v="576"/>
    <tag k="addr:street" v="Vermont Route 100"/>
    <tag k="addr:state" v="VT"/>
    <tag k="ref:vcgi:esiteid" v="189975"/>
  </node>
  <node id="-628" visible="true" lat="43.47109783" lon="-72.69852475">
    <tag k="addr:housenumber" v="80"/>
    <tag k="addr:street" v="Scott Terrace"/>
    <tag k="addr:state" v="VT"/>
    <tag k="ref:vcgi:esiteid" v="189976"/>
  </node>
  <node id="-629" visible="true" lat="43.47106552" lon="-72.69507598">
    <tag k="addr:housenumber" v="79"/>
    <tag k="addr:street" v="Birch Landing Road"/>
    <tag k="addr:state" v="VT"/>
    <tag k="ref:vcgi:esiteid" v="189977"/>
  </node>
  <node id="-630" visible="true" lat="43.47110366" lon="-72.66976165">
    <tag k="addr:housenumber" v="2042"/>
    <tag k="addr:street" v="Kingdom Road"/>
    <tag k="addr:state" v="VT"/>
    <tag k="ref:vcgi:esiteid" v="189978"/>
  </node>
  <node id="-631" visible="true" lat="43.47105978" lon="-72.67747511">
    <tag k="addr:housenumber" v="1619"/>
    <tag k="addr:street" v="Kingdom Road"/>
    <tag k="addr:state" v="VT"/>
    <tag k="ref:vcgi:esiteid" v="189979"/>
  </node>
  <node id="-632" visible="true" lat="43.47115615" lon="-72.69753814">
    <tag k="addr:housenumber" v="21"/>
    <tag k="addr:street" v="Lakeview Road"/>
    <tag k="addr:state" v="VT"/>
    <tag k="ref:vcgi:esiteid" v="189980"/>
  </node>
  <node id="-633" visible="true" lat="43.47090162" lon="-72.69872241">
    <tag k="addr:housenumber" v="82"/>
    <tag k="addr:street" v="Scott Terrace"/>
    <tag k="addr:state" v="VT"/>
    <tag k="ref:vcgi:esiteid" v="189981"/>
  </node>
  <node id="-634" visible="true" lat="43.47091954" lon="-72.68184648">
    <tag k="addr:housenumber" v="1393"/>
    <tag k="addr:street" v="Kingdom Road"/>
    <tag k="addr:state" v="VT"/>
    <tag k="ref:vcgi:esiteid" v="189982"/>
  </node>
  <node id="-635" visible="true" lat="43.47081163" lon="-72.69676472">
    <tag k="addr:housenumber" v="111"/>
    <tag k="addr:street" v="Birch Landing Road"/>
    <tag k="addr:state" v="VT"/>
    <tag k="ref:vcgi:esiteid" v="189983"/>
  </node>
  <node id="-636" visible="true" lat="43.4708592" lon="-72.68135585">
    <tag k="addr:housenumber" v="1415"/>
    <tag k="addr:street" v="Kingdom Road"/>
    <tag k="addr:state" v="VT"/>
    <tag k="ref:vcgi:esiteid" v="189984"/>
  </node>
  <node id="-637" visible="true" lat="43.47072913" lon="-72.68287839">
    <tag k="addr:housenumber" v="1372"/>
    <tag k="addr:street" v="Kingdom Road"/>
    <tag k="addr:state" v="VT"/>
    <tag k="ref:vcgi:esiteid" v="189985"/>
  </node>
  <node id="-638" visible="true" lat="43.47063827" lon="-72.69564056">
    <tag k="addr:housenumber" v="101"/>
    <tag k="addr:street" v="Birch Landing Road"/>
    <tag k="addr:state" v="VT"/>
    <tag k="ref:vcgi:esiteid" v="189986"/>
  </node>
  <node id="-639" visible="true" lat="43.47060657" lon="-72.6854275">
    <tag k="addr:housenumber" v="1187"/>
    <tag k="addr:street" v="Kingdom Road"/>
    <tag k="addr:state" v="VT"/>
    <tag k="ref:vcgi:esiteid" v="189987"/>
  </node>
  <node id="-640" visible="true" lat="43.47057786" lon="-72.69957473">
    <tag k="addr:housenumber" v="241"/>
    <tag k="addr:street" v="Scott Terrace"/>
    <tag k="addr:state" v="VT"/>
    <tag k="ref:vcgi:esiteid" v="189988"/>
  </node>
  <node id="-641" visible="true" lat="43.47041702" lon="-72.71242523">
    <tag k="addr:housenumber" v="529"/>
    <tag k="addr:street" v="Dublin Road"/>
    <tag k="addr:state" v="VT"/>
    <tag k="ref:vcgi:esiteid" v="189989"/>
  </node>
  <node id="-642" visible="true" lat="43.47034075" lon="-72.69956262">
    <tag k="addr:housenumber" v="231"/>
    <tag k="addr:street" v="Scott Terrace"/>
    <tag k="addr:state" v="VT"/>
    <tag k="ref:vcgi:esiteid" v="189990"/>
  </node>
  <node id="-643" visible="true" lat="43.47020694" lon="-72.69956917">
    <tag k="addr:housenumber" v="221"/>
    <tag k="addr:street" v="Scott Terrace"/>
    <tag k="addr:state" v="VT"/>
    <tag k="ref:vcgi:esiteid" v="189991"/>
  </node>
  <node id="-644" visible="true" lat="43.47023391" lon="-72.67363738">
    <tag k="addr:housenumber" v="1827"/>
    <tag k="addr:street" v="Kingdom Road"/>
    <tag k="addr:state" v="VT"/>
    <tag k="ref:vcgi:esiteid" v="189992"/>
  </node>
  <node id="-645" visible="true" lat="43.4701275" lon="-72.69904252">
    <tag k="addr:housenumber" v="222"/>
    <tag k="addr:street" v="Scott Terrace"/>
    <tag k="addr:state" v="VT"/>
    <tag k="ref:vcgi:esiteid" v="189993"/>
  </node>
  <node id="-646" visible="true" lat="43.47004318" lon="-72.69384765">
    <tag k="addr:housenumber" v="2418"/>
    <tag k="addr:street" v="Scout Camp Road"/>
    <tag k="addr:state" v="VT"/>
    <tag k="ref:vcgi:esiteid" v="189994"/>
  </node>
  <node id="-647" visible="true" lat="43.46998134" lon="-72.69957936">
    <tag k="addr:housenumber" v="209"/>
    <tag k="addr:street" v="Scott Terrace"/>
    <tag k="addr:state" v="VT"/>
    <tag k="ref:vcgi:esiteid" v="189995"/>
  </node>
  <node id="-648" visible="true" lat="43.46983028" lon="-72.69886104">
    <tag k="addr:housenumber" v="200"/>
    <tag k="addr:street" v="Scott Terrace"/>
    <tag k="addr:state" v="VT"/>
    <tag k="ref:vcgi:esiteid" v="189996"/>
  </node>
  <node id="-649" visible="true" lat="43.46970165" lon="-72.69597799">
    <tag k="addr:housenumber" v="535"/>
    <tag k="addr:street" v="Kingdom Road"/>
    <tag k="addr:state" v="VT"/>
    <tag k="ref:vcgi:esiteid" v="189997"/>
  </node>
  <node id="-650" visible="true" lat="43.46982257" lon="-72.69956803">
    <tag k="addr:housenumber" v="195"/>
    <tag k="addr:street" v="Scott Terrace"/>
    <tag k="addr:state" v="VT"/>
    <tag k="ref:vcgi:esiteid" v="189998"/>
  </node>
  <node id="-651" visible="true" lat="43.46981811" lon="-72.69650268">
    <tag k="addr:housenumber" v="521"/>
    <tag k="addr:street" v="Kingdom Road"/>
    <tag k="addr:state" v="VT"/>
    <tag k="ref:vcgi:esiteid" v="189999"/>
  </node>
  <node id="-652" visible="true" lat="43.46962365" lon="-72.69540042">
    <tag k="addr:housenumber" v="559"/>
    <tag k="addr:street" v="Kingdom Road"/>
    <tag k="addr:state" v="VT"/>
    <tag k="ref:vcgi:esiteid" v="190000"/>
  </node>
  <node id="-653" visible="true" lat="43.46953905" lon="-72.69679862">
    <tag k="addr:housenumber" v="503"/>
    <tag k="addr:street" v="Kingdom Road"/>
    <tag k="addr:state" v="VT"/>
    <tag k="ref:vcgi:esiteid" v="190001"/>
  </node>
  <node id="-654" visible="true" lat="43.46959236" lon="-72.69955569">
    <tag k="addr:housenumber" v="181"/>
    <tag k="addr:street" v="Scott Terrace"/>
    <tag k="addr:state" v="VT"/>
    <tag k="ref:vcgi:esiteid" v="190002"/>
  </node>
  <node id="-655" visible="true" lat="43.46944836" lon="-72.69960414">
    <tag k="addr:housenumber" v="177"/>
    <tag k="addr:street" v="Scott Terrace"/>
    <tag k="addr:state" v="VT"/>
    <tag k="ref:vcgi:esiteid" v="190003"/>
  </node>
  <node id="-656" visible="true" lat="43.46948007" lon="-72.69816454">
    <tag k="addr:housenumber" v="106"/>
    <tag k="addr:street" v="Scott Terrace"/>
    <tag k="addr:state" v="VT"/>
    <tag k="ref:vcgi:esiteid" v="190004"/>
  </node>
  <node id="-657" visible="true" lat="43.46959686" lon="-72.67137146">
    <tag k="addr:housenumber" v="113"/>
    <tag k="addr:street" v="Chapman Road"/>
    <tag k="addr:state" v="VT"/>
    <tag k="ref:vcgi:esiteid" v="190005"/>
  </node>
  <node id="-658" visible="true" lat="43.46949388" lon="-72.69762566">
    <tag k="addr:housenumber" v="92"/>
    <tag k="addr:street" v="Scott Terrace"/>
    <tag k="addr:state" v="VT"/>
    <tag k="ref:vcgi:esiteid" v="190006"/>
  </node>
  <node id="-659" visible="true" lat="43.46947097" lon="-72.67223358">
    <tag k="addr:housenumber" v="76"/>
    <tag k="addr:street" v="Chapman Road"/>
    <tag k="addr:state" v="VT"/>
    <tag k="ref:vcgi:esiteid" v="190007"/>
  </node>
  <node id="-660" visible="true" lat="43.46941375" lon="-72.69873809">
    <tag k="addr:housenumber" v="136"/>
    <tag k="addr:street" v="Scott Terrace"/>
    <tag k="addr:state" v="VT"/>
    <tag k="ref:vcgi:esiteid" v="190008"/>
  </node>
  <node id="-661" visible="true" lat="43.46939086" lon="-72.7022705">
    <tag k="addr:housenumber" v="446"/>
    <tag k="addr:street" v="Vermont Route 100"/>
    <tag k="addr:state" v="VT"/>
    <tag k="ref:vcgi:esiteid" v="190009"/>
  </node>
  <node id="-662" visible="true" lat="43.46930108" lon="-72.69984318">
    <tag k="addr:housenumber" v="171"/>
    <tag k="addr:street" v="Scott Terrace"/>
    <tag k="addr:state" v="VT"/>
    <tag k="ref:vcgi:esiteid" v="190010"/>
  </node>
  <node id="-663" visible="true" lat="43.46908632" lon="-72.69747939">
    <tag k="addr:housenumber" v="467"/>
    <tag k="addr:street" v="Kingdom Road"/>
    <tag k="addr:state" v="VT"/>
    <tag k="ref:vcgi:esiteid" v="190011"/>
  </node>
  <node id="-664" visible="true" lat="43.46892443" lon="-72.71052985">
    <tag k="addr:housenumber" v="453"/>
    <tag k="addr:street" v="Dublin Road"/>
    <tag k="addr:state" v="VT"/>
    <tag k="ref:vcgi:esiteid" v="190012"/>
  </node>
  <node id="-665" visible="true" lat="43.46915809" lon="-72.69859914">
    <tag k="addr:housenumber" v="131"/>
    <tag k="addr:street" v="Scott Terrace"/>
    <tag k="addr:state" v="VT"/>
    <tag k="ref:vcgi:esiteid" v="190013"/>
  </node>
  <node id="-666" visible="true" lat="43.46915471" lon="-72.69968813">
    <tag k="addr:housenumber" v="169"/>
    <tag k="addr:street" v="Scott Terrace"/>
    <tag k="addr:state" v="VT"/>
    <tag k="ref:vcgi:esiteid" v="190014"/>
  </node>
  <node id="-667" visible="true" lat="43.46892428" lon="-72.69883879">
    <tag k="addr:housenumber" v="45"/>
    <tag k="addr:street" v="Scott Terrace"/>
    <tag k="addr:state" v="VT"/>
    <tag k="ref:vcgi:esiteid" v="190015"/>
  </node>
  <node id="-668" visible="true" lat="43.46904484" lon="-72.69961906">
    <tag k="addr:housenumber" v="167"/>
    <tag k="addr:street" v="Scott Terrace"/>
    <tag k="addr:state" v="VT"/>
    <tag k="ref:vcgi:esiteid" v="190016"/>
  </node>
  <node id="-669" visible="true" lat="43.46887588" lon="-72.672966">
    <tag k="addr:housenumber" v="64"/>
    <tag k="addr:street" v="Chapman Road"/>
    <tag k="addr:state" v="VT"/>
    <tag k="ref:vcgi:esiteid" v="190017"/>
  </node>
  <node id="-670" visible="true" lat="43.46871028" lon="-72.69888586">
    <tag k="addr:housenumber" v="43"/>
    <tag k="addr:street" v="Scott Terrace"/>
    <tag k="addr:state" v="VT"/>
    <tag k="ref:vcgi:esiteid" v="190018"/>
  </node>
  <node id="-671" visible="true" lat="43.46857071" lon="-72.69848632">
    <tag k="addr:housenumber" v="29"/>
    <tag k="addr:street" v="Scott Terrace"/>
    <tag k="addr:state" v="VT"/>
    <tag k="ref:vcgi:esiteid" v="190019"/>
  </node>
  <node id="-672" visible="true" lat="43.46847534" lon="-72.6993103">
    <tag k="addr:housenumber" v="5"/>
    <tag k="addr:street" v="Scott Terrace"/>
    <tag k="addr:state" v="VT"/>
    <tag k="ref:vcgi:esiteid" v="190020"/>
  </node>
  <node id="-673" visible="true" lat="43.46811733" lon="-72.69960365">
    <tag k="addr:housenumber" v="9"/>
    <tag k="addr:street" v="Scott Terrace"/>
    <tag k="addr:state" v="VT"/>
    <tag k="ref:vcgi:esiteid" v="190021"/>
  </node>
  <node id="-674" visible="true" lat="43.46790314" lon="-72.70938969">
    <tag k="addr:housenumber" v="343"/>
    <tag k="addr:street" v="Dublin Road"/>
    <tag k="addr:state" v="VT"/>
    <tag k="ref:vcgi:esiteid" v="190022"/>
  </node>
  <node id="-675" visible="true" lat="43.46777304" lon="-72.70807485">
    <tag k="addr:housenumber" v="286"/>
    <tag k="addr:street" v="Dublin Road"/>
    <tag k="addr:state" v="VT"/>
    <tag k="ref:vcgi:esiteid" v="190023"/>
  </node>
  <node id="-676" visible="true" lat="43.46768569" lon="-72.70230865">
    <tag k="addr:housenumber" v="331"/>
    <tag k="addr:street" v="Vermont Route 100"/>
    <tag k="addr:state" v="VT"/>
    <tag k="ref:vcgi:esiteid" v="190024"/>
  </node>
  <node id="-677" visible="true" lat="43.46724251" lon="-72.66845549">
    <tag k="addr:housenumber" v="329"/>
    <tag k="addr:street" v="Chapman Road"/>
    <tag k="addr:state" v="VT"/>
    <tag k="ref:vcgi:esiteid" v="190025"/>
  </node>
  <node id="-678" visible="true" lat="43.46702575" lon="-72.68940734">
    <tag k="addr:housenumber" v="854"/>
    <tag k="addr:street" v="Kingdom Road"/>
    <tag k="addr:state" v="VT"/>
    <tag k="ref:vcgi:esiteid" v="190026"/>
  </node>
  <node id="-679" visible="true" lat="43.4669075" lon="-72.6636734">
    <tag k="addr:housenumber" v="401"/>
    <tag k="addr:street" v="Colby Pond Road"/>
    <tag k="addr:state" v="VT"/>
    <tag k="ref:vcgi:esiteid" v="190027"/>
  </node>
  <node id="-680" visible="true" lat="43.46677398" lon="-72.70687866">
    <tag k="addr:housenumber" v="196"/>
    <tag k="addr:street" v="Dublin Road"/>
    <tag k="addr:state" v="VT"/>
    <tag k="ref:vcgi:esiteid" v="190028"/>
  </node>
  <node id="-681" visible="true" lat="43.46666183" lon="-72.66155586">
    <tag k="addr:housenumber" v="451"/>
    <tag k="addr:street" v="Colby Pond Road"/>
    <tag k="addr:state" v="VT"/>
    <tag k="ref:vcgi:esiteid" v="190029"/>
  </node>
  <node id="-682" visible="true" lat="43.4667015" lon="-72.66900634">
    <tag k="addr:housenumber" v="352"/>
    <tag k="addr:street" v="Chapman Road"/>
    <tag k="addr:state" v="VT"/>
    <tag k="ref:vcgi:esiteid" v="190030"/>
  </node>
  <node id="-683" visible="true" lat="43.46668212" lon="-72.70798002">
    <tag k="addr:housenumber" v="189"/>
    <tag k="addr:street" v="Dublin Road"/>
    <tag k="addr:state" v="VT"/>
    <tag k="ref:vcgi:esiteid" v="190031"/>
  </node>
  <node id="-684" visible="true" lat="43.46647643" lon="-72.70592498">
    <tag k="addr:housenumber" v="148"/>
    <tag k="addr:street" v="Dublin Road"/>
    <tag k="addr:state" v="VT"/>
    <tag k="ref:vcgi:esiteid" v="190032"/>
  </node>
  <node id="-685" visible="true" lat="43.4664421" lon="-72.69937133">
    <tag k="addr:housenumber" v="260"/>
    <tag k="addr:street" v="Kingdom Road"/>
    <tag k="addr:state" v="VT"/>
    <tag k="ref:vcgi:esiteid" v="190033"/>
  </node>
  <node id="-686" visible="true" lat="43.46610909" lon="-72.6673891">
    <tag k="addr:housenumber" v="429"/>
    <tag k="addr:street" v="Chapman Road"/>
    <tag k="addr:state" v="VT"/>
    <tag k="ref:vcgi:esiteid" v="190034"/>
  </node>
  <node id="-687" visible="true" lat="43.46614837" lon="-72.69960021">
    <tag k="addr:housenumber" v="236"/>
    <tag k="addr:street" v="Kingdom Road"/>
    <tag k="addr:state" v="VT"/>
    <tag k="ref:vcgi:esiteid" v="190035"/>
  </node>
  <node id="-688" visible="true" lat="43.46577392" lon="-72.70029307">
    <tag k="addr:housenumber" v="199"/>
    <tag k="addr:street" v="Kingdom Road"/>
    <tag k="addr:state" v="VT"/>
    <tag k="ref:vcgi:esiteid" v="190036"/>
  </node>
  <node id="-689" visible="true" lat="43.46572051" lon="-72.66870468">
    <tag k="addr:housenumber" v="410"/>
    <tag k="addr:street" v="Chapman Road"/>
    <tag k="addr:state" v="VT"/>
    <tag k="ref:vcgi:esiteid" v="190037"/>
  </node>
  <node id="-690" visible="true" lat="43.46568772" lon="-72.70522182">
    <tag k="addr:housenumber" v="78"/>
    <tag k="addr:street" v="Dublin Road"/>
    <tag k="addr:state" v="VT"/>
    <tag k="ref:vcgi:esiteid" v="190038"/>
  </node>
  <node id="-691" visible="true" lat="43.46562672" lon="-72.70490664">
    <tag k="addr:housenumber" v="62"/>
    <tag k="addr:street" v="Dublin Road"/>
    <tag k="addr:state" v="VT"/>
    <tag k="ref:vcgi:esiteid" v="190039"/>
  </node>
  <node id="-692" visible="true" lat="43.46577366" lon="-72.70617476">
    <tag k="addr:housenumber" v="123"/>
    <tag k="addr:street" v="Dublin Road"/>
    <tag k="addr:state" v="VT"/>
    <tag k="ref:vcgi:esiteid" v="190040"/>
  </node>
  <node id="-693" visible="true" lat="43.4656105" lon="-72.70462036">
    <tag k="addr:housenumber" v="46"/>
    <tag k="addr:street" v="Dublin Road"/>
    <tag k="addr:state" v="VT"/>
    <tag k="ref:vcgi:esiteid" v="190041"/>
  </node>
  <node id="-694" visible="true" lat="43.46544265" lon="-72.7051239">
    <tag k="addr:housenumber" v="2"/>
    <tag k="addr:street" v="Library Road"/>
    <tag k="addr:state" v="VT"/>
    <tag k="ref:vcgi:esiteid" v="190042"/>
  </node>
  <node id="-696" visible="true" lat="43.46550144" lon="-72.70246049">
    <tag k="addr:housenumber" v="45"/>
    <tag k="addr:street" v="Kingdom Road"/>
    <tag k="addr:state" v="VT"/>
    <tag k="ref:vcgi:esiteid" v="190044"/>
  </node>
  <node id="-697" visible="true" lat="43.46532821" lon="-72.70210266">
    <tag k="addr:housenumber" v="85"/>
    <tag k="addr:street" v="Kingdom Road"/>
    <tag k="addr:state" v="VT"/>
    <tag k="ref:vcgi:esiteid" v="190045"/>
  </node>
  <node id="-698" visible="true" lat="43.46529029" lon="-72.70114367">
    <tag k="addr:housenumber" v="125"/>
    <tag k="addr:street" v="Kingdom Road"/>
    <tag k="addr:state" v="VT"/>
    <tag k="ref:vcgi:esiteid" v="190046"/>
  </node>
  <node id="-699" visible="true" lat="43.46524429" lon="-72.70020294">
    <tag k="addr:housenumber" v="172"/>
    <tag k="addr:street" v="Kingdom Road"/>
    <tag k="addr:state" v="VT"/>
    <tag k="ref:vcgi:esiteid" v="190047"/>
  </node>
  <node id="-700" visible="true" lat="43.4652214" lon="-72.70458221">
    <tag k="addr:housenumber" v="39"/>
    <tag k="addr:street" v="Dublin Road"/>
    <tag k="addr:state" v="VT"/>
    <tag k="ref:vcgi:esiteid" v="190048"/>
  </node>
  <node id="-702" visible="true" lat="43.46502863" lon="-72.6680295">
    <tag k="addr:housenumber" v="538"/>
    <tag k="addr:street" v="Chapman Road"/>
    <tag k="addr:state" v="VT"/>
    <tag k="ref:vcgi:esiteid" v="190050"/>
  </node>
  <node id="-703" visible="true" lat="43.46502685" lon="-72.70068359">
    <tag k="addr:housenumber" v="148"/>
    <tag k="addr:street" v="Kingdom Road"/>
    <tag k="addr:state" v="VT"/>
    <tag k="ref:vcgi:esiteid" v="190051"/>
  </node>
  <node id="-704" visible="true" lat="43.46502304" lon="-72.70158386">
    <tag k="addr:housenumber" v="108"/>
    <tag k="addr:street" v="Kingdom Road"/>
    <tag k="addr:state" v="VT"/>
    <tag k="ref:vcgi:esiteid" v="190052"/>
  </node>
  <node id="-705" visible="true" lat="43.46446991" lon="-72.70112609">
    <tag k="addr:housenumber" v="140"/>
    <tag k="addr:street" v="Kingdom Road"/>
    <tag k="addr:state" v="VT"/>
    <tag k="ref:vcgi:esiteid" v="190053"/>
  </node>
  <node id="-706" visible="true" lat="43.46427536" lon="-72.70568084">
    <tag k="addr:housenumber" v="94"/>
    <tag k="addr:street" v="Library Road"/>
    <tag k="addr:state" v="VT"/>
    <tag k="ref:vcgi:esiteid" v="190054"/>
  </node>
  <node id="-707" visible="true" lat="43.4642601" lon="-72.6658554">
    <tag k="addr:housenumber" v="509"/>
    <tag k="addr:street" v="Chapman Road"/>
    <tag k="addr:state" v="VT"/>
    <tag k="ref:vcgi:esiteid" v="190055"/>
  </node>
  <node id="-708" visible="true" lat="43.46399724" lon="-72.70279834">
    <tag k="addr:housenumber" v="84"/>
    <tag k="addr:street" v="Dillon Road"/>
    <tag k="addr:state" v="VT"/>
    <tag k="ref:vcgi:esiteid" v="190056"/>
  </node>
  <node id="-709" visible="true" lat="43.46363425" lon="-72.70300566">
    <tag k="addr:housenumber" v="110"/>
    <tag k="addr:street" v="Dillon Road"/>
    <tag k="addr:state" v="VT"/>
    <tag k="ref:vcgi:esiteid" v="190057"/>
  </node>
  <node id="-710" visible="true" lat="43.46347808" lon="-72.69409942">
    <tag k="addr:housenumber" v="406"/>
    <tag k="addr:street" v="Buswell Pond Road"/>
    <tag k="addr:state" v="VT"/>
    <tag k="ref:vcgi:esiteid" v="190058"/>
  </node>
  <node id="-711" visible="true" lat="43.46308517" lon="-72.66604614">
    <tag k="addr:housenumber" v="619"/>
    <tag k="addr:street" v="Chapman Road"/>
    <tag k="addr:state" v="VT"/>
    <tag k="ref:vcgi:esiteid" v="190059"/>
  </node>
  <node id="-712" visible="true" lat="43.46158506" lon="-72.69374963">
    <tag k="addr:housenumber" v="590"/>
    <tag k="addr:street" v="Buswell Pond Road"/>
    <tag k="addr:state" v="VT"/>
    <tag k="ref:vcgi:esiteid" v="190060"/>
  </node>
  <node id="-713" visible="true" lat="43.46152877" lon="-72.66641998">
    <tag k="addr:housenumber" v="743"/>
    <tag k="addr:street" v="Chapman Road"/>
    <tag k="addr:state" v="VT"/>
    <tag k="ref:vcgi:esiteid" v="190061"/>
  </node>
  <node id="-714" visible="true" lat="43.46132659" lon="-72.67995452">
    <tag k="addr:housenumber" v="684"/>
    <tag k="addr:street" v="Dix Hill Road"/>
    <tag k="addr:state" v="VT"/>
    <tag k="ref:vcgi:esiteid" v="190062"/>
  </node>
  <node id="-715" visible="true" lat="43.46068572" lon="-72.66809844">
    <tag k="addr:housenumber" v="790"/>
    <tag k="addr:street" v="Chapman Road"/>
    <tag k="addr:state" v="VT"/>
    <tag k="ref:vcgi:esiteid" v="190063"/>
  </node>
  <node id="-716" visible="true" lat="43.46048354" lon="-72.68184661">
    <tag k="addr:housenumber" v="747"/>
    <tag k="addr:street" v="Dix Hill Road"/>
    <tag k="addr:state" v="VT"/>
    <tag k="ref:vcgi:esiteid" v="190064"/>
  </node>
  <node id="-717" visible="true" lat="43.45896729" lon="-72.67643539">
    <tag k="addr:housenumber" v="550"/>
    <tag k="addr:street" v="Dix Hill Road"/>
    <tag k="addr:state" v="VT"/>
    <tag k="ref:vcgi:esiteid" v="190065"/>
  </node>
  <node id="-718" visible="true" lat="43.45890426" lon="-72.67517852">
    <tag k="addr:housenumber" v="476"/>
    <tag k="addr:street" v="Dix Hill Road"/>
    <tag k="addr:state" v="VT"/>
    <tag k="ref:vcgi:esiteid" v="190066"/>
  </node>
  <node id="-719" visible="true" lat="43.45879364" lon="-72.66801452">
    <tag k="addr:housenumber" v="928"/>
    <tag k="addr:street" v="Chapman Road"/>
    <tag k="addr:state" v="VT"/>
    <tag k="ref:vcgi:esiteid" v="190067"/>
  </node>
  <node id="-720" visible="true" lat="43.45799636" lon="-72.67459106">
    <tag k="addr:housenumber" v="384"/>
    <tag k="addr:street" v="Dix Hill Road"/>
    <tag k="addr:state" v="VT"/>
    <tag k="ref:vcgi:esiteid" v="190068"/>
  </node>
  <node id="-721" visible="true" lat="43.4577992" lon="-72.67608585">
    <tag k="addr:housenumber" v="463"/>
    <tag k="addr:street" v="Dix Hill Road"/>
    <tag k="addr:state" v="VT"/>
    <tag k="ref:vcgi:esiteid" v="190069"/>
  </node>
  <node id="-722" visible="true" lat="43.45662689" lon="-72.67136382">
    <tag k="addr:housenumber" v="286"/>
    <tag k="addr:street" v="Dix Hill Road"/>
    <tag k="addr:state" v="VT"/>
    <tag k="ref:vcgi:esiteid" v="190070"/>
  </node>
  <node id="-723" visible="true" lat="43.45720979" lon="-72.67509007">
    <tag k="addr:housenumber" v="395"/>
    <tag k="addr:street" v="Dix Hill Road"/>
    <tag k="addr:state" v="VT"/>
    <tag k="ref:vcgi:esiteid" v="190071"/>
  </node>
  <node id="-724" visible="true" lat="43.4568163" lon="-72.6695105">
    <tag k="addr:housenumber" v="216"/>
    <tag k="addr:street" v="Dix Hill Road"/>
    <tag k="addr:state" v="VT"/>
    <tag k="ref:vcgi:esiteid" v="190072"/>
  </node>
  <node id="-725" visible="true" lat="43.45686716" lon="-72.66536477">
    <tag k="addr:housenumber" v="1093"/>
    <tag k="addr:street" v="Chapman Road"/>
    <tag k="addr:state" v="VT"/>
    <tag k="ref:vcgi:esiteid" v="190073"/>
  </node>
  <node id="-726" visible="true" lat="43.45562758" lon="-72.66768064">
    <tag k="addr:housenumber" v="60"/>
    <tag k="addr:street" v="Dix Hill Road"/>
    <tag k="addr:state" v="VT"/>
    <tag k="ref:vcgi:esiteid" v="190074"/>
  </node>
  <node id="-727" visible="true" lat="43.56153488" lon="-72.76004028">
    <tag k="addr:housenumber" v="7817"/>
    <tag k="addr:street" v="Vermont Route 100"/>
    <tag k="addr:state" v="VT"/>
    <tag k="ref:vcgi:esiteid" v="190075"/>
  </node>
  <node id="-728" visible="true" lat="43.56175994" lon="-72.76005554">
    <tag k="addr:housenumber" v="7823"/>
    <tag k="addr:street" v="Vermont Route 100"/>
    <tag k="addr:state" v="VT"/>
    <tag k="ref:vcgi:esiteid" v="190076"/>
  </node>
  <node id="-729" visible="true" lat="43.5637207" lon="-72.75988769">
    <tag k="addr:housenumber" v="7952"/>
    <tag k="addr:street" v="Vermont Route 100"/>
    <tag k="addr:state" v="VT"/>
    <tag k="ref:vcgi:esiteid" v="190077"/>
  </node>
  <node id="-730" visible="true" lat="43.57078552" lon="-72.7616806">
    <tag k="addr:housenumber" v="8464"/>
    <tag k="addr:street" v="Vermont Route 100"/>
    <tag k="addr:state" v="VT"/>
    <tag k="ref:vcgi:esiteid" v="190078"/>
  </node>
  <node id="-732" visible="true" lat="43.55391864" lon="-72.74306214">
    <tag k="addr:housenumber" v="1251"/>
    <tag k="addr:street" v="Grand View Lodge Road"/>
    <tag k="addr:state" v="VT"/>
    <tag k="ref:vcgi:esiteid" v="190080"/>
  </node>
  <node id="-733" visible="true" lat="43.56816629" lon="-72.68065294">
    <tag k="addr:housenumber" v="14"/>
    <tag k="addr:street" v="Vermont Route 100A"/>
    <tag k="addr:state" v="VT"/>
    <tag k="ref:vcgi:esiteid" v="190081"/>
  </node>
  <node id="-734" visible="true" lat="43.53756583" lon="-72.69069494">
    <tag k="addr:housenumber" v="151"/>
    <tag k="addr:street" v="Bradley Hill Road"/>
    <tag k="addr:state" v="VT"/>
    <tag k="ref:vcgi:esiteid" v="190082"/>
  </node>
  <node id="-735" visible="true" lat="43.53444751" lon="-72.69206917">
    <tag k="addr:housenumber" v="350"/>
    <tag k="addr:street" v="Bradley Hill Road"/>
    <tag k="addr:state" v="VT"/>
    <tag k="ref:vcgi:esiteid" v="190083"/>
  </node>
  <node id="-736" visible="true" lat="43.54741697" lon="-72.65642879">
    <tag k="addr:housenumber" v="2003"/>
    <tag k="addr:street" v="Hale Hollow Road"/>
    <tag k="addr:state" v="VT"/>
    <tag k="ref:vcgi:esiteid" v="190085"/>
  </node>
  <node id="-737" visible="true" lat="43.52965164" lon="-72.72383117">
    <tag k="addr:housenumber" v="262"/>
    <tag k="addr:street" v="Lynds Hill Road"/>
    <tag k="addr:state" v="VT"/>
    <tag k="ref:vcgi:esiteid" v="190086"/>
  </node>
  <node id="-738" visible="true" lat="43.52323532" lon="-72.72200775">
    <tag k="addr:housenumber" v="620"/>
    <tag k="addr:street" v="Lynds Hill Road"/>
    <tag k="addr:state" v="VT"/>
    <tag k="ref:vcgi:esiteid" v="190087"/>
  </node>
  <node id="-739" visible="true" lat="43.52283096" lon="-72.72014617">
    <tag k="addr:housenumber" v="622"/>
    <tag k="addr:street" v="Lynds Hill Road"/>
    <tag k="addr:state" v="VT"/>
    <tag k="ref:vcgi:esiteid" v="190088"/>
  </node>
  <node id="-742" visible="true" lat="43.51932203" lon="-72.70273958">
    <tag k="addr:housenumber" v="1922"/>
    <tag k="addr:street" v="Lynds Hill Road"/>
    <tag k="addr:state" v="VT"/>
    <tag k="ref:vcgi:esiteid" v="190092"/>
  </node>
  <node id="-744" visible="true" lat="43.4770317" lon="-72.72416687">
    <tag k="addr:housenumber" v="152"/>
    <tag k="addr:street" v="Patch Brook Road"/>
    <tag k="addr:state" v="VT"/>
    <tag k="ref:vcgi:esiteid" v="190095"/>
  </node>
  <node id="-745" visible="true" lat="43.46860504" lon="-72.69250488">
    <tag k="addr:housenumber" v="790"/>
    <tag k="addr:street" v="Kingdom Road"/>
    <tag k="addr:state" v="VT"/>
    <tag k="ref:vcgi:esiteid" v="190096"/>
  </node>
  <node id="-746" visible="true" lat="43.47210693" lon="-72.68432617">
    <tag k="addr:housenumber" v="70"/>
    <tag k="addr:street" v="Pollard Road"/>
    <tag k="addr:state" v="VT"/>
    <tag k="ref:vcgi:esiteid" v="190097"/>
  </node>
  <node id="-747" visible="true" lat="43.47458521" lon="-72.68214402">
    <tag k="addr:housenumber" v="29"/>
    <tag k="addr:street" v="Hillside Road"/>
    <tag k="addr:state" v="VT"/>
    <tag k="ref:vcgi:esiteid" v="190098"/>
  </node>
  <node id="-748" visible="true" lat="43.46161501" lon="-72.69185517">
    <tag k="addr:housenumber" v="593"/>
    <tag k="addr:street" v="Buswell Pond Road"/>
    <tag k="addr:state" v="VT"/>
    <tag k="ref:vcgi:esiteid" v="190099"/>
  </node>
  <node id="-749" visible="true" lat="43.46794787" lon="-72.66897715">
    <tag k="addr:housenumber" v="211"/>
    <tag k="addr:street" v="Chapman Road"/>
    <tag k="addr:state" v="VT"/>
    <tag k="ref:vcgi:esiteid" v="190100"/>
  </node>
  <node id="-750" visible="true" lat="43.46450064" lon="-72.66139041">
    <tag k="addr:housenumber" v="462"/>
    <tag k="addr:street" v="Colby Pond Road"/>
    <tag k="addr:state" v="VT"/>
    <tag k="ref:vcgi:esiteid" v="190101"/>
  </node>
  <node id="-751" visible="true" lat="43.49885533" lon="-72.71859724">
    <tag k="addr:housenumber" v="154"/>
    <tag k="addr:street" v="Crimson Hawk Road"/>
    <tag k="addr:state" v="VT"/>
    <tag k="ref:vcgi:esiteid" v="190102"/>
  </node>
  <node id="-752" visible="true" lat="43.53256013" lon="-72.73995914">
    <tag k="addr:housenumber" v="5460"/>
    <tag k="addr:street" v="Vermont Route 100"/>
    <tag k="addr:state" v="VT"/>
    <tag k="ref:vcgi:esiteid" v="190103"/>
  </node>
  <node id="-754" visible="true" lat="43.53624069" lon="-72.65802308">
    <tag k="addr:housenumber" v="2782"/>
    <tag k="addr:street" v="Hale Hollow Road"/>
    <tag k="addr:state" v="VT"/>
    <tag k="ref:vcgi:esiteid" v="190105"/>
  </node>
  <node id="-755" visible="true" lat="43.52912517" lon="-72.6643843">
    <tag k="addr:housenumber" v="2861"/>
    <tag k="addr:street" v="Hale Hollow Road"/>
    <tag k="addr:state" v="VT"/>
    <tag k="ref:vcgi:esiteid" v="190106"/>
  </node>
  <node id="-756" visible="true" lat="43.56861877" lon="-72.683609">
    <tag k="addr:housenumber" v="362"/>
    <tag k="addr:street" v="Town Line Road"/>
    <tag k="addr:state" v="VT"/>
    <tag k="ref:vcgi:esiteid" v="190107"/>
  </node>
  <node id="-757" visible="true" lat="43.46593093" lon="-72.66217041">
    <tag k="addr:housenumber" v="453"/>
    <tag k="addr:street" v="Colby Pond Road"/>
    <tag k="addr:state" v="VT"/>
    <tag k="ref:vcgi:esiteid" v="190108"/>
  </node>
  <node id="-760" visible="true" lat="43.53407858" lon="-72.68418294">
    <tag k="addr:housenumber" v="436"/>
    <tag k="addr:street" v="Five Corners Cemetery Road"/>
    <tag k="addr:state" v="VT"/>
    <tag k="ref:vcgi:esiteid" v="190111"/>
  </node>
  <node id="-761" visible="true" lat="43.55895021" lon="-72.75672854">
    <tag k="addr:housenumber" v="190"/>
    <tag k="addr:street" v="South End Road"/>
    <tag k="addr:state" v="VT"/>
    <tag k="ref:vcgi:esiteid" v="190112"/>
  </node>
  <node id="-763" visible="true" lat="43.5593836" lon="-72.73533034">
    <tag k="addr:housenumber" v="2000"/>
    <tag k="addr:street" v="Messer Hill Road"/>
    <tag k="addr:state" v="VT"/>
    <tag k="ref:vcgi:esiteid" v="190114"/>
  </node>
  <node id="-766" visible="true" lat="43.49094772" lon="-72.70759582">
    <tag k="addr:housenumber" v="68"/>
    <tag k="addr:street" v="Scout Camp Road"/>
    <tag k="addr:state" v="VT"/>
    <tag k="ref:vcgi:esiteid" v="190117"/>
  </node>
  <node id="-767" visible="true" lat="43.4727478" lon="-72.66993713">
    <tag k="addr:housenumber" v="2063"/>
    <tag k="addr:street" v="Kingdom Road"/>
    <tag k="addr:state" v="VT"/>
    <tag k="ref:vcgi:esiteid" v="190118"/>
  </node>
  <node id="-768" visible="true" lat="43.45727157" lon="-72.67245483">
    <tag k="addr:housenumber" v="325"/>
    <tag k="addr:street" v="Dix Hill Road"/>
    <tag k="addr:state" v="VT"/>
    <tag k="ref:vcgi:esiteid" v="190119"/>
  </node>
  <node id="-769" visible="true" lat="43.49932748" lon="-72.70786491">
    <tag k="addr:housenumber" v="351"/>
    <tag k="addr:street" v="Billings Road"/>
    <tag k="addr:state" v="VT"/>
    <tag k="ref:vcgi:esiteid" v="190120"/>
  </node>
  <node id="-770" visible="true" lat="43.53634431" lon="-72.74446048">
    <tag k="addr:housenumber" v="141"/>
    <tag k="addr:street" v="Round Top Road"/>
    <tag k="addr:state" v="VT"/>
    <tag k="ref:vcgi:esiteid" v="190121"/>
  </node>
  <node id="-774" visible="true" lat="43.47326927" lon="-72.68157728">
    <tag k="addr:housenumber" v="27"/>
    <tag k="addr:street" v="Hillside Road"/>
    <tag k="addr:state" v="VT"/>
    <tag k="ref:vcgi:esiteid" v="190125"/>
  </node>
  <node id="-775" visible="true" lat="43.54815677" lon="-72.73432828">
    <tag k="addr:housenumber" v="526"/>
    <tag k="addr:street" v="Grand View Lodge Road"/>
    <tag k="addr:state" v="VT"/>
    <tag k="ref:vcgi:esiteid" v="190126"/>
  </node>
  <node id="-776" visible="true" lat="43.48635665" lon="-72.70196441">
    <tag k="addr:housenumber" v="1108"/>
    <tag k="addr:street" v="Scout Camp Road"/>
    <tag k="addr:state" v="VT"/>
    <tag k="ref:vcgi:esiteid" v="190127"/>
  </node>
  <node id="-777" visible="true" lat="43.48935699" lon="-72.70267486">
    <tag k="addr:housenumber" v="942"/>
    <tag k="addr:street" v="Scout Camp Road"/>
    <tag k="addr:state" v="VT"/>
    <tag k="ref:vcgi:esiteid" v="190128"/>
  </node>
  <node id="-791" visible="true" lat="43.48716354" lon="-72.70709228">
    <tag k="addr:housenumber" v="120"/>
    <tag k="addr:street" v="12 Road"/>
    <tag k="addr:state" v="VT"/>
    <tag k="ref:vcgi:esiteid" v="190144"/>
  </node>
  <node id="-792" visible="true" lat="43.56473867" lon="-72.73981732">
    <tag k="addr:housenumber" v="2511"/>
    <tag k="addr:street" v="Messer Hill Road"/>
    <tag k="addr:state" v="VT"/>
    <tag k="ref:vcgi:esiteid" v="190145"/>
  </node>
  <node id="-795" visible="true" lat="43.47583141" lon="-72.75312608">
    <tag k="addr:housenumber" v="400"/>
    <tag k="addr:street" v="Dam Road"/>
    <tag k="addr:state" v="VT"/>
    <tag k="ref:vcgi:esiteid" v="190148"/>
  </node>
  <node id="-797" visible="true" lat="43.55215302" lon="-72.72836297">
    <tag k="addr:housenumber" v="1462"/>
    <tag k="addr:street" v="Messer Hill Road"/>
    <tag k="addr:state" v="VT"/>
    <tag k="ref:vcgi:esiteid" v="190150"/>
  </node>
  <node id="-798" visible="true" lat="43.46942492" lon="-72.69915821">
    <tag k="addr:housenumber" v="178"/>
    <tag k="addr:street" v="Scott Terrace"/>
    <tag k="addr:state" v="VT"/>
    <tag k="ref:vcgi:esiteid" v="190151"/>
  </node>
  <node id="-799" visible="true" lat="43.47539265" lon="-72.71416173">
    <tag k="addr:housenumber" v="25"/>
    <tag k="addr:street" v="Tatro Road"/>
    <tag k="addr:state" v="VT"/>
    <tag k="ref:vcgi:esiteid" v="190152"/>
  </node>
  <node id="-800" visible="true" lat="43.51506022" lon="-72.7054599">
    <tag k="addr:housenumber" v="1912"/>
    <tag k="addr:street" v="Lynds Hill Road"/>
    <tag k="addr:state" v="VT"/>
    <tag k="ref:vcgi:esiteid" v="190153"/>
  </node>
  <node id="-801" visible="true" lat="43.47703368" lon="-72.69466958">
    <tag k="addr:housenumber" v="1945"/>
    <tag k="addr:street" v="Scout Camp Road"/>
    <tag k="addr:state" v="VT"/>
    <tag k="ref:vcgi:esiteid" v="190154"/>
  </node>
  <node id="-802" visible="true" lat="43.47684336" lon="-72.69454822">
    <tag k="addr:housenumber" v="1951"/>
    <tag k="addr:street" v="Scout Camp Road"/>
    <tag k="addr:state" v="VT"/>
    <tag k="ref:vcgi:esiteid" v="190155"/>
  </node>
  <node id="-804" visible="true" lat="43.51009736" lon="-72.71635781">
    <tag k="addr:housenumber" v="422"/>
    <tag k="addr:street" v="Peregrine Road"/>
    <tag k="addr:state" v="VT"/>
    <tag k="ref:vcgi:esiteid" v="190157"/>
  </node>
  <node id="-805" visible="true" lat="43.45798943" lon="-72.67818479">
    <tag k="addr:housenumber" v="595"/>
    <tag k="addr:street" v="Dix Hill Road"/>
    <tag k="addr:state" v="VT"/>
    <tag k="ref:vcgi:esiteid" v="190158"/>
  </node>
  <node id="-806" visible="true" lat="43.46069994" lon="-72.67762605">
    <tag k="addr:housenumber" v="616"/>
    <tag k="addr:street" v="Dix Hill Road"/>
    <tag k="addr:state" v="VT"/>
    <tag k="ref:vcgi:esiteid" v="190159"/>
  </node>
  <node id="-808" visible="true" lat="43.55112397" lon="-72.74635015">
    <tag k="addr:housenumber" v="1123"/>
    <tag k="addr:street" v="Grand View Lodge Road"/>
    <tag k="addr:state" v="VT"/>
    <tag k="ref:vcgi:esiteid" v="190161"/>
  </node>
  <node id="-809" visible="true" lat="43.53308063" lon="-72.72556668">
    <tag k="addr:housenumber" v="3995"/>
    <tag k="addr:street" v="Vermont Route 100A"/>
    <tag k="addr:state" v="VT"/>
    <tag k="ref:vcgi:esiteid" v="190162"/>
  </node>
  <node id="-810" visible="true" lat="43.48436583" lon="-72.70597154">
    <tag k="addr:housenumber" v="1583"/>
    <tag k="addr:street" v="Vermont Route 100"/>
    <tag k="addr:state" v="VT"/>
    <tag k="ref:vcgi:esiteid" v="190164"/>
  </node>
  <node id="-811" visible="true" lat="43.57870944" lon="-72.75701244">
    <tag k="addr:housenumber" v="9106"/>
    <tag k="addr:street" v="Vermont Route 100"/>
    <tag k="addr:state" v="VT"/>
    <tag k="ref:vcgi:esiteid" v="190165"/>
  </node>
  <node id="-813" visible="true" lat="43.53418318" lon="-72.69471536">
    <tag k="addr:housenumber" v="910"/>
    <tag k="addr:street" v="Johnson Farm Road"/>
    <tag k="addr:state" v="VT"/>
    <tag k="ref:vcgi:esiteid" v="190167"/>
  </node>
  <node id="-814" visible="true" lat="43.53310351" lon="-72.69351404">
    <tag k="addr:housenumber" v="818"/>
    <tag k="addr:street" v="Johnson Farm Road"/>
    <tag k="addr:state" v="VT"/>
    <tag k="ref:vcgi:esiteid" v="190168"/>
  </node>
  <node id="-815" visible="true" lat="43.52246405" lon="-72.68971146">
    <tag k="addr:housenumber" v="2601"/>
    <tag k="addr:street" v="Lynds Hill Road"/>
    <tag k="addr:state" v="VT"/>
    <tag k="ref:vcgi:esiteid" v="190169"/>
  </node>
  <node id="-817" visible="true" lat="43.47646395" lon="-72.68933755">
    <tag k="addr:housenumber" v="441"/>
    <tag k="addr:street" v="Weaver Hill Road"/>
    <tag k="addr:state" v="VT"/>
    <tag k="ref:vcgi:esiteid" v="190171"/>
  </node>
  <node id="-818" visible="true" lat="43.47224262" lon="-72.66687293">
    <tag k="addr:housenumber" v="2284"/>
    <tag k="addr:street" v="Kingdom Road"/>
    <tag k="addr:state" v="VT"/>
    <tag k="ref:vcgi:esiteid" v="190172"/>
  </node>
  <node id="-819" visible="true" lat="43.46425684" lon="-72.70608524">
    <tag k="addr:housenumber" v="40"/>
    <tag k="addr:street" v="Spaulding Road"/>
    <tag k="addr:state" v="VT"/>
    <tag k="ref:vcgi:esiteid" v="190173"/>
  </node>
  <node id="-820" visible="true" lat="43.46475293" lon="-72.70567177">
    <tag k="addr:housenumber" v="82"/>
    <tag k="addr:street" v="Spaulding Road"/>
    <tag k="addr:state" v="VT"/>
    <tag k="ref:vcgi:esiteid" v="190174"/>
  </node>
  <node id="-821" visible="true" lat="43.4594565" lon="-72.68003865">
    <tag k="addr:housenumber" v="689"/>
    <tag k="addr:street" v="Dix Hill Road"/>
    <tag k="addr:state" v="VT"/>
    <tag k="ref:vcgi:esiteid" v="190175"/>
  </node>
  <node id="-822" visible="true" lat="43.47348476" lon="-72.672955">
    <tag k="addr:housenumber" v="1911"/>
    <tag k="addr:street" v="Kingdom Road"/>
    <tag k="addr:state" v="VT"/>
    <tag k="ref:vcgi:esiteid" v="190176"/>
  </node>
  <node id="-823" visible="true" lat="43.4692153" lon="-72.66863886">
    <tag k="addr:housenumber" v="51"/>
    <tag k="addr:street" v="Colby Pond Road"/>
    <tag k="addr:state" v="VT"/>
    <tag k="ref:vcgi:esiteid" v="190177"/>
  </node>
  <node id="-824" visible="true" lat="43.46094933" lon="-72.66298269">
    <tag k="addr:housenumber" v="813"/>
    <tag k="addr:street" v="Chapman Road"/>
    <tag k="addr:state" v="VT"/>
    <tag k="ref:vcgi:esiteid" v="190178"/>
  </node>
  <node id="-826" visible="true" lat="43.50020808" lon="-72.71628688">
    <tag k="addr:housenumber" v="2790"/>
    <tag k="addr:street" v="Vermont Route 100"/>
    <tag k="addr:state" v="VT"/>
    <tag k="ref:vcgi:esiteid" v="190180"/>
  </node>
  <node id="-831" visible="true" lat="43.47230715" lon="-72.69705644">
    <tag k="addr:housenumber" v="228"/>
    <tag k="addr:street" v="Birch Landing Road"/>
    <tag k="addr:state" v="VT"/>
    <tag k="ref:vcgi:esiteid" v="190186"/>
  </node>
  <node id="-832" visible="true" lat="43.52566275" lon="-72.68499907">
    <tag k="addr:housenumber" v="2945"/>
    <tag k="addr:street" v="Lynds Hill Road"/>
    <tag k="addr:state" v="VT"/>
    <tag k="ref:vcgi:esiteid" v="190187"/>
  </node>
  <node id="-834" visible="true" lat="43.52944314" lon="-72.69351529">
    <tag k="addr:housenumber" v="538"/>
    <tag k="addr:street" v="Johnson Farm Road"/>
    <tag k="addr:state" v="VT"/>
    <tag k="ref:vcgi:esiteid" v="190189"/>
  </node>
  <node id="-837" visible="true" lat="43.55278682" lon="-72.75590334">
    <tag k="addr:housenumber" v="7268"/>
    <tag k="addr:street" v="Vermont Route 100"/>
    <tag k="addr:state" v="VT"/>
    <tag k="ref:vcgi:esiteid" v="190192"/>
  </node>
  <node id="-838" visible="true" lat="43.55256028" lon="-72.75563741">
    <tag k="addr:housenumber" v="7068"/>
    <tag k="addr:street" v="Vermont Route 100"/>
    <tag k="addr:state" v="VT"/>
    <tag k="ref:vcgi:esiteid" v="190193"/>
  </node>
  <node id="-841" visible="true" lat="43.49725728" lon="-72.66341796">
    <tag k="addr:housenumber" v="1913"/>
    <tag k="addr:street" v="Reading Pond Road"/>
    <tag k="addr:state" v="VT"/>
    <tag k="ref:vcgi:esiteid" v="190196"/>
  </node>
  <node id="-842" visible="true" lat="43.45955747" lon="-72.68128243">
    <tag k="addr:housenumber" v="745"/>
    <tag k="addr:street" v="Dix Hill Road"/>
    <tag k="addr:state" v="VT"/>
    <tag k="ref:vcgi:esiteid" v="190197"/>
  </node>
  <node id="-843" visible="true" lat="43.49458832" lon="-72.71052723">
    <tag k="addr:housenumber" v="100"/>
    <tag k="addr:street" v="Whitetail Trace"/>
    <tag k="addr:state" v="VT"/>
    <tag k="ref:vcgi:esiteid" v="190198"/>
  </node>
  <node id="-844" visible="true" lat="43.53212559" lon="-72.69848257">
    <tag k="addr:housenumber" v="881"/>
    <tag k="addr:street" v="Johnson Farm Road"/>
    <tag k="addr:state" v="VT"/>
    <tag k="ref:vcgi:esiteid" v="190200"/>
  </node>
  <node id="-845" visible="true" lat="43.47314124" lon="-72.69609457">
    <tag k="addr:housenumber" v="289"/>
    <tag k="addr:street" v="Birch Landing Road"/>
    <tag k="addr:state" v="VT"/>
    <tag k="ref:vcgi:esiteid" v="190201"/>
  </node>
  <node id="-846" visible="true" lat="43.46718517" lon="-72.66949766">
    <tag k="addr:housenumber" v="238"/>
    <tag k="addr:street" v="Chapman Road"/>
    <tag k="addr:state" v="VT"/>
    <tag k="ref:vcgi:esiteid" v="190202"/>
  </node>
  <node id="-851" visible="true" lat="43.50942574" lon="-72.71047325">
    <tag k="addr:housenumber" v="49"/>
    <tag k="addr:street" v="Hawk Hollow Lane"/>
    <tag k="addr:state" v="VT"/>
    <tag k="ref:vcgi:esiteid" v="190207"/>
  </node>
  <node id="-853" visible="true" lat="43.54770236" lon="-72.73317448">
    <tag k="addr:housenumber" v="490"/>
    <tag k="addr:street" v="Grand View Lodge Road"/>
    <tag k="addr:state" v="VT"/>
    <tag k="ref:vcgi:esiteid" v="190209"/>
  </node>
  <node id="-854" visible="true" lat="43.55420413" lon="-72.73779931">
    <tag k="addr:housenumber" v="1380"/>
    <tag k="addr:street" v="Grand View Lodge Road"/>
    <tag k="addr:state" v="VT"/>
    <tag k="ref:vcgi:esiteid" v="338694"/>
  </node>
  <node id="-868" visible="true" lat="43.5097159" lon="-72.70870472">
    <tag k="addr:housenumber" v="149"/>
    <tag k="addr:street" v="Hawk Hollow Lane"/>
    <tag k="addr:state" v="VT"/>
    <tag k="ref:vcgi:esiteid" v="341906"/>
  </node>
  <node id="-872" visible="true" lat="43.51106312" lon="-72.71153024">
    <tag k="addr:housenumber" v="126"/>
    <tag k="addr:street" v="Peregrine Road"/>
    <tag k="addr:state" v="VT"/>
    <tag k="ref:vcgi:esiteid" v="341910"/>
  </node>
  <node id="-874" visible="true" lat="43.50969477" lon="-72.72581401">
    <tag k="addr:housenumber" v="3572"/>
    <tag k="addr:street" v="Vermont Route 100"/>
    <tag k="addr:state" v="VT"/>
    <tag k="ref:vcgi:esiteid" v="341912"/>
  </node>
  <node id="-878" visible="true" lat="43.49971666" lon="-72.70985588">
    <tag k="addr:housenumber" v="295"/>
    <tag k="addr:street" v="Billings Road"/>
    <tag k="addr:state" v="VT"/>
    <tag k="ref:vcgi:esiteid" v="341916"/>
  </node>
  <node id="-879" visible="true" lat="43.50263644" lon="-72.71120189">
    <tag k="addr:housenumber" v="40"/>
    <tag k="addr:street" v="East Ash Road"/>
    <tag k="addr:state" v="VT"/>
    <tag k="ref:vcgi:esiteid" v="341917"/>
  </node>
  <node id="-885" visible="true" lat="43.50470298" lon="-72.71139592">
    <tag k="addr:housenumber" v="468"/>
    <tag k="addr:street" v="Salt Ash Road"/>
    <tag k="addr:state" v="VT"/>
    <tag k="ref:vcgi:esiteid" v="344068"/>
  </node>
  <node id="-886" visible="true" lat="43.54640297" lon="-72.6572041">
    <tag k="addr:housenumber" v="1989"/>
    <tag k="addr:street" v="Hale Hollow Road"/>
    <tag k="addr:state" v="VT"/>
    <tag k="ref:vcgi:esiteid" v="344069"/>
  </node>
  <node id="-888" visible="true" lat="43.5666499" lon="-72.76148655">
    <tag k="addr:housenumber" v="8247"/>
    <tag k="addr:street" v="Vermont Route 100"/>
    <tag k="addr:state" v="VT"/>
    <tag k="ref:vcgi:esiteid" v="344315"/>
  </node>
  <node id="-889" visible="true" lat="43.47765011" lon="-72.68830355">
    <tag k="addr:housenumber" v="563"/>
    <tag k="addr:street" v="Weaver Hill Road"/>
    <tag k="addr:state" v="VT"/>
    <tag k="ref:vcgi:esiteid" v="344316"/>
  </node>
  <node id="-890" visible="true" lat="43.47635511" lon="-72.71954773">
    <tag k="addr:housenumber" v="34"/>
    <tag k="addr:street" v="Davis Road"/>
    <tag k="addr:state" v="VT"/>
    <tag k="ref:vcgi:esiteid" v="365189"/>
  </node>
  <node id="-893" visible="true" lat="43.5087203" lon="-72.71588221">
    <tag k="addr:housenumber" v="88"/>
    <tag k="addr:street" v="Snowy Owl Lane"/>
    <tag k="addr:state" v="VT"/>
    <tag k="ref:vcgi:esiteid" v="445260"/>
  </node>
  <node id="-894" visible="true" lat="43.5184707" lon="-72.70989558">
    <tag k="addr:housenumber" v="1546"/>
    <tag k="addr:street" v="Lynds Hill Road"/>
    <tag k="addr:state" v="VT"/>
    <tag k="ref:vcgi:esiteid" v="445261"/>
  </node>
  <node id="-897" visible="true" lat="43.54102377" lon="-72.69619595">
    <tag k="addr:housenumber" v="1632"/>
    <tag k="addr:street" v="Coolidge State Park Road"/>
    <tag k="addr:state" v="VT"/>
    <tag k="ref:vcgi:esiteid" v="445265"/>
  </node>
  <node id="-905" visible="true" lat="43.556163" lon="-72.74002094">
    <tag k="addr:housenumber" v="1244"/>
    <tag k="addr:street" v="Grand View Lodge Road"/>
    <tag k="addr:state" v="VT"/>
    <tag k="ref:vcgi:esiteid" v="445344"/>
  </node>
  <node id="-906" visible="true" lat="43.56282267" lon="-72.73873337">
    <tag k="addr:housenumber" v="2341"/>
    <tag k="addr:street" v="Messer Hill Road"/>
    <tag k="addr:state" v="VT"/>
    <tag k="ref:vcgi:esiteid" v="445345"/>
  </node>
  <node id="-907" visible="true" lat="43.56302328" lon="-72.7388455">
    <tag k="addr:housenumber" v="2345"/>
    <tag k="addr:street" v="Messer Hill Road"/>
    <tag k="addr:state" v="VT"/>
    <tag k="ref:vcgi:esiteid" v="445346"/>
  </node>
  <node id="-908" visible="true" lat="43.56350425" lon="-72.7383234">
    <tag k="addr:housenumber" v="2352"/>
    <tag k="addr:street" v="Messer Hill Road"/>
    <tag k="addr:state" v="VT"/>
    <tag k="ref:vcgi:esiteid" v="445347"/>
  </node>
  <node id="-909" visible="true" lat="43.56529346" lon="-72.72755075">
    <tag k="addr:housenumber" v="1378"/>
    <tag k="addr:street" v="Rangers Road"/>
    <tag k="addr:state" v="VT"/>
    <tag k="ref:vcgi:esiteid" v="445348"/>
  </node>
  <node id="-910" visible="true" lat="43.5597677" lon="-72.70345395">
    <tag k="addr:housenumber" v="1569"/>
    <tag k="addr:street" v="Vermont Route 100A"/>
    <tag k="addr:state" v="VT"/>
    <tag k="ref:vcgi:esiteid" v="447068"/>
  </node>
  <node id="-911" visible="true" lat="43.46624358" lon="-72.69268422">
    <tag k="addr:housenumber" v="201"/>
    <tag k="addr:street" v="Buswell Pond Road"/>
    <tag k="addr:state" v="VT"/>
    <tag k="ref:vcgi:esiteid" v="450763"/>
  </node>
  <node id="-912" visible="true" lat="43.47130386" lon="-72.68517122">
    <tag k="addr:housenumber" v="71"/>
    <tag k="addr:street" v="Pollard Road"/>
    <tag k="addr:state" v="VT"/>
    <tag k="ref:vcgi:esiteid" v="450764"/>
  </node>
  <node id="-913" visible="true" lat="43.45764739" lon="-72.67736663">
    <tag k="addr:housenumber" v="551"/>
    <tag k="addr:street" v="Dix Hill Road"/>
    <tag k="addr:state" v="VT"/>
    <tag k="ref:vcgi:esiteid" v="450766"/>
  </node>
  <node id="-914" visible="true" lat="43.50192747" lon="-72.66897373">
    <tag k="addr:housenumber" v="2485"/>
    <tag k="addr:street" v="Reading Pond Road"/>
    <tag k="addr:state" v="VT"/>
    <tag k="ref:vcgi:esiteid" v="450767"/>
  </node>
  <node id="-915" visible="true" lat="43.50432281" lon="-72.66604888">
    <tag k="addr:housenumber" v="36"/>
    <tag k="addr:street" v="Provo Hill Road"/>
    <tag k="addr:state" v="VT"/>
    <tag k="ref:vcgi:esiteid" v="450768"/>
  </node>
  <node id="-916" visible="true" lat="43.50325884" lon="-72.6640044">
    <tag k="addr:housenumber" v="2325"/>
    <tag k="addr:street" v="Reading Pond Road"/>
    <tag k="addr:state" v="VT"/>
    <tag k="ref:vcgi:esiteid" v="450769"/>
  </node>
  <node id="-917" visible="true" lat="43.5023117" lon="-72.67321491">
    <tag k="addr:housenumber" v="2809"/>
    <tag k="addr:street" v="Reading Pond Road"/>
    <tag k="addr:state" v="VT"/>
    <tag k="ref:vcgi:esiteid" v="450770"/>
  </node>
  <node id="-918" visible="true" lat="43.50015928" lon="-72.67289469">
    <tag k="addr:housenumber" v="2811"/>
    <tag k="addr:street" v="Reading Pond Road"/>
    <tag k="addr:state" v="VT"/>
    <tag k="ref:vcgi:esiteid" v="450771"/>
  </node>
  <node id="-921" visible="true" lat="43.53254861" lon="-72.65535423">
    <tag k="addr:housenumber" v="326"/>
    <tag k="addr:street" v="Merrill Hill Road"/>
    <tag k="addr:state" v="VT"/>
    <tag k="ref:vcgi:esiteid" v="450893"/>
  </node>
  <node id="-922" visible="true" lat="43.53359226" lon="-72.65228811">
    <tag k="addr:housenumber" v="445"/>
    <tag k="addr:street" v="Merrill Hill Road"/>
    <tag k="addr:state" v="VT"/>
    <tag k="ref:vcgi:esiteid" v="450894"/>
  </node>
  <node id="-923" visible="true" lat="43.46809273" lon="-72.6990181">
    <tag k="addr:housenumber" v="7"/>
    <tag k="addr:street" v="Scott Terrace"/>
    <tag k="addr:state" v="VT"/>
    <tag k="ref:vcgi:esiteid" v="450895"/>
  </node>
  <node id="-924" visible="true" lat="43.47660299" lon="-72.75485719">
    <tag k="addr:housenumber" v="277"/>
    <tag k="addr:street" v="Dam Road"/>
    <tag k="addr:state" v="VT"/>
    <tag k="ref:vcgi:esiteid" v="450896"/>
  </node>
  <node id="-925" visible="true" lat="43.47634009" lon="-72.75898073">
    <tag k="addr:housenumber" v="76"/>
    <tag k="addr:street" v="Dam Road"/>
    <tag k="addr:state" v="VT"/>
    <tag k="ref:vcgi:esiteid" v="450897"/>
  </node>
  <node id="-926" visible="true" lat="43.46847147" lon="-72.69709164">
    <tag k="addr:housenumber" v="96"/>
    <tag k="addr:street" v="Echo View Drive"/>
    <tag k="addr:state" v="VT"/>
    <tag k="ref:vcgi:esiteid" v="450901"/>
  </node>
  <node id="-927" visible="true" lat="43.46634177" lon="-72.6963238">
    <tag k="addr:housenumber" v="286"/>
    <tag k="addr:street" v="Echo View Drive"/>
    <tag k="addr:state" v="VT"/>
    <tag k="ref:vcgi:esiteid" v="450902"/>
  </node>
  <node id="-928" visible="true" lat="43.46493564" lon="-72.69694084">
    <tag k="addr:housenumber" v="502"/>
    <tag k="addr:street" v="Echo View Drive"/>
    <tag k="addr:state" v="VT"/>
    <tag k="ref:vcgi:esiteid" v="450904"/>
  </node>
  <node id="-929" visible="true" lat="43.56275603" lon="-72.68950526">
    <tag k="addr:housenumber" v="791"/>
    <tag k="addr:street" v="Vermont Route 100A"/>
    <tag k="addr:state" v="VT"/>
    <tag k="ref:vcgi:esiteid" v="450905"/>
  </node>
  <node id="-930" visible="true" lat="43.56413646" lon="-72.69355917">
    <tag k="addr:housenumber" v="856"/>
    <tag k="addr:street" v="Vermont Route 100A"/>
    <tag k="addr:state" v="VT"/>
    <tag k="ref:vcgi:esiteid" v="450906"/>
  </node>
  <node id="-932" visible="true" lat="43.52075758" lon="-72.70902426">
    <tag k="addr:housenumber" v="1671"/>
    <tag k="addr:street" v="Lynds Hill Road"/>
    <tag k="addr:state" v="VT"/>
    <tag k="ref:vcgi:esiteid" v="450908"/>
  </node>
  <node id="-934" visible="true" lat="43.56316294" lon="-72.73505326">
    <tag k="addr:housenumber" v="2334"/>
    <tag k="addr:street" v="Messer Hill Road"/>
    <tag k="addr:state" v="VT"/>
    <tag k="ref:vcgi:esiteid" v="451114"/>
  </node>
  <node id="-939" visible="true" lat="43.49586763" lon="-72.7147831">
    <tag k="addr:housenumber" v="442"/>
    <tag k="addr:street" v="Crimson Hawk Road"/>
    <tag k="addr:state" v="VT"/>
    <tag k="ref:vcgi:esiteid" v="452688"/>
  </node>
  <node id="-942" visible="true" lat="43.49314128" lon="-72.70920396">
    <tag k="addr:housenumber" v="23"/>
    <tag k="addr:street" v="Hawk Pond Road"/>
    <tag k="addr:state" v="VT"/>
    <tag k="ref:vcgi:esiteid" v="455403"/>
  </node>
  <node id="-943" visible="true" lat="43.54377902" lon="-72.71904637">
    <tag k="addr:housenumber" v="181"/>
    <tag k="addr:street" v="Pine Lee Road"/>
    <tag k="addr:state" v="VT"/>
    <tag k="ref:vcgi:esiteid" v="611771"/>
  </node>
  <node id="-945" visible="true" lat="43.49030268" lon="-72.70788456">
    <tag k="addr:housenumber" v="50"/>
    <tag k="addr:street" v="Scout Camp Road"/>
    <tag k="addr:state" v="VT"/>
    <tag k="ref:vcgi:esiteid" v="617163"/>
  </node>
  <node id="-946" visible="true" lat="43.47705397" lon="-72.75922677">
    <tag k="addr:housenumber" v="71"/>
    <tag k="addr:street" v="Dam Road"/>
    <tag k="addr:state" v="VT"/>
    <tag k="ref:vcgi:esiteid" v="617659"/>
  </node>
  <node id="-947" visible="true" lat="43.4769701" lon="-72.75840229">
    <tag k="addr:housenumber" v="97"/>
    <tag k="addr:street" v="Dam Road"/>
    <tag k="addr:state" v="VT"/>
    <tag k="ref:vcgi:esiteid" v="617660"/>
  </node>
  <node id="-948" visible="true" lat="43.47510456" lon="-72.7545829">
    <tag k="addr:housenumber" v="410"/>
    <tag k="addr:street" v="Dam Road"/>
    <tag k="addr:state" v="VT"/>
    <tag k="ref:vcgi:esiteid" v="617661"/>
  </node>
  <node id="-950" visible="true" lat="43.5046004" lon="-72.68918618">
    <tag k="addr:housenumber" v="1393"/>
    <tag k="addr:street" v="Pine Hill Road"/>
    <tag k="addr:state" v="VT"/>
    <tag k="ref:vcgi:esiteid" v="617748"/>
  </node>
  <node id="-951" visible="true" lat="43.55970338" lon="-72.7338664">
    <tag k="addr:housenumber" v="2112"/>
    <tag k="addr:street" v="Messer Hill Road"/>
    <tag k="addr:state" v="VT"/>
    <tag k="ref:vcgi:esiteid" v="620745"/>
  </node>
  <node id="-952" visible="true" lat="43.56016119" lon="-72.73578016">
    <tag k="addr:housenumber" v="2110"/>
    <tag k="addr:street" v="Messer Hill Road"/>
    <tag k="addr:state" v="VT"/>
    <tag k="ref:vcgi:esiteid" v="620746"/>
  </node>
  <node id="-957" visible="true" lat="43.53270874" lon="-72.69473684">
    <tag k="addr:housenumber" v="800"/>
    <tag k="addr:street" v="Johnson Farm Road"/>
    <tag k="addr:state" v="VT"/>
    <tag k="ref:vcgi:esiteid" v="620987"/>
  </node>
  <node id="-958" visible="true" lat="43.53849961" lon="-72.65492396">
    <tag k="addr:housenumber" v="2575"/>
    <tag k="addr:street" v="Hale Hollow Road"/>
    <tag k="addr:state" v="VT"/>
    <tag k="ref:vcgi:esiteid" v="620988"/>
  </node>
  <node id="-960" visible="true" lat="43.46833727" lon="-72.69520973">
    <tag k="addr:housenumber" v="94"/>
    <tag k="addr:street" v="Echo View Drive"/>
    <tag k="addr:state" v="VT"/>
    <tag k="ref:vcgi:esiteid" v="654847"/>
  </node>
  <node id="-961" visible="true" lat="43.50368631" lon="-72.71953976">
    <tag k="addr:housenumber" v="210"/>
    <tag k="addr:street" v="Duck Pond Drive"/>
    <tag k="addr:state" v="VT"/>
    <tag k="ref:vcgi:esiteid" v="655244"/>
  </node>
  <node id="-962" visible="true" lat="43.50265406" lon="-72.7219053">
    <tag k="addr:housenumber" v="80"/>
    <tag k="addr:street" v="Duck Pond Drive"/>
    <tag k="addr:state" v="VT"/>
    <tag k="ref:vcgi:esiteid" v="655245"/>
  </node>
  <node id="-964" visible="true" lat="43.5328894" lon="-72.74294308">
    <tag k="addr:housenumber" v="181"/>
    <tag k="addr:street" v="Town Office Road"/>
    <tag k="addr:state" v="VT"/>
    <tag k="ref:vcgi:esiteid" v="700072"/>
  </node>
  <node id="-965" visible="true" lat="43.55061422" lon="-72.71022534">
    <tag k="addr:housenumber" v="42"/>
    <tag k="addr:street" v="Wheeler Bridge Road"/>
    <tag k="addr:state" v="VT"/>
    <tag k="ref:vcgi:esiteid" v="750299"/>
  </node>
  <node id="-966" visible="true" lat="43.48001583" lon="-72.7576059">
    <tag k="addr:housenumber" v="1980"/>
    <tag k="addr:street" v="Patch Brook Road"/>
    <tag k="addr:state" v="VT"/>
    <tag k="ref:vcgi:esiteid" v="750300"/>
  </node>
  <node id="-967" visible="true" lat="43.47599828" lon="-72.70306663">
    <tag k="addr:housenumber" v="920"/>
    <tag k="addr:street" v="Vermont Route 100"/>
    <tag k="addr:state" v="VT"/>
    <tag k="ref:vcgi:esiteid" v="751645"/>
  </node>
  <node id="-968" visible="true" lat="43.4735215" lon="-72.66518579">
    <tag k="addr:housenumber" v="2354"/>
    <tag k="addr:street" v="Kingdom Road"/>
    <tag k="addr:state" v="VT"/>
    <tag k="ref:vcgi:esiteid" v="752050"/>
  </node>
  <node id="-969" visible="true" lat="43.46503604" lon="-72.70654057">
    <tag k="addr:housenumber" v="106"/>
    <tag k="addr:street" v="Spaulding Road"/>
    <tag k="addr:state" v="VT"/>
    <tag k="ref:vcgi:esiteid" v="753247"/>
  </node>
  <node id="-970" visible="true" lat="43.51771996" lon="-72.73122847">
    <tag k="addr:housenumber" v="4342"/>
    <tag k="addr:street" v="Vermont Route 100"/>
    <tag k="addr:state" v="VT"/>
    <tag k="ref:vcgi:esiteid" v="753339"/>
  </node>
  <node id="-971" visible="true" lat="43.51699862" lon="-72.73106012">
    <tag k="addr:housenumber" v="4340"/>
    <tag k="addr:street" v="Vermont Route 100"/>
    <tag k="addr:state" v="VT"/>
    <tag k="ref:vcgi:esiteid" v="753340"/>
  </node>
  <node id="-972" visible="true" lat="43.53037181" lon="-72.73768314">
    <tag k="addr:housenumber" v="4726"/>
    <tag k="addr:street" v="Vermont Route 100A"/>
    <tag k="addr:state" v="VT"/>
    <tag k="ref:vcgi:esiteid" v="753341"/>
  </node>
  <node id="-973" visible="true" lat="43.57385991" lon="-72.76177367">
    <tag k="addr:housenumber" v="8704"/>
    <tag k="addr:street" v="Vermont Route 100"/>
    <tag k="addr:state" v="VT"/>
    <tag k="ref:vcgi:esiteid" v="753342"/>
  </node>
  <node id="-974" visible="true" lat="43.52491063" lon="-72.67805428">
    <tag k="addr:housenumber" v="3208"/>
    <tag k="addr:street" v="Lynds Hill Road"/>
    <tag k="addr:state" v="VT"/>
    <tag k="ref:vcgi:esiteid" v="753570"/>
  </node>
  <node id="-975" visible="true" lat="43.53036032" lon="-72.73888821">
    <tag k="addr:housenumber" v="5334"/>
    <tag k="addr:street" v="Vermont Route 100"/>
    <tag k="addr:state" v="VT"/>
    <tag k="ref:vcgi:esiteid" v="753952"/>
  </node>
  <node id="-976" visible="true" lat="43.46451407" lon="-72.70629218">
    <tag k="addr:housenumber" v="50"/>
    <tag k="addr:street" v="Spaulding Road"/>
    <tag k="addr:state" v="VT"/>
    <tag k="ref:vcgi:esiteid" v="755069"/>
  </node>
  <node id="-978" visible="true" lat="43.55215072" lon="-72.74666592">
    <tag k="addr:housenumber" v="1125"/>
    <tag k="addr:street" v="Grand View Lodge Road"/>
    <tag k="addr:state" v="VT"/>
    <tag k="ref:vcgi:esiteid" v="755976"/>
  </node>
  <node id="-979" visible="true" lat="43.49234819" lon="-72.70760747">
    <tag k="addr:housenumber" v="128"/>
    <tag k="addr:street" v="Hawk Pond Road"/>
    <tag k="addr:state" v="VT"/>
    <tag k="ref:vcgi:esiteid" v="756290"/>
  </node>
  <node id="-981" visible="true" lat="43.51498631" lon="-72.73129001">
    <tag k="addr:housenumber" v="4140"/>
    <tag k="addr:street" v="Vermont Route 100"/>
    <tag k="addr:state" v="VT"/>
    <tag k="ref:vcgi:esiteid" v="756465"/>
  </node>
  <node id="-982" visible="true" lat="43.52848678" lon="-72.67942368">
    <tag k="addr:housenumber" v="1187"/>
    <tag k="addr:street" v="Bradley Hill Road"/>
    <tag k="addr:state" v="VT"/>
    <tag k="ref:vcgi:esiteid" v="757387"/>
  </node>
  <node id="-983" visible="true" lat="43.50376957" lon="-72.71161394">
    <tag k="addr:housenumber" v="430"/>
    <tag k="addr:street" v="Salt Ash Road"/>
    <tag k="addr:state" v="VT"/>
    <tag k="ref:vcgi:esiteid" v="757536"/>
  </node>
  <node id="-984" visible="true" lat="43.56164315" lon="-72.69296366">
    <tag k="addr:housenumber" v="1019"/>
    <tag k="addr:street" v="Vermont Route 100A"/>
    <tag k="addr:state" v="VT"/>
    <tag k="ref:vcgi:esiteid" v="758908"/>
  </node>
  <node id="-986" visible="true" lat="43.47343239" lon="-72.66902094">
    <tag k="addr:housenumber" v="2127"/>
    <tag k="addr:street" v="Kingdom Road"/>
    <tag k="addr:state" v="VT"/>
    <tag k="ref:vcgi:esiteid" v="759280"/>
  </node>
  <node id="-987" visible="true" lat="43.51179016" lon="-72.72664379">
    <tag k="addr:housenumber" v="3760"/>
    <tag k="addr:street" v="Vermont Route 100"/>
    <tag k="addr:state" v="VT"/>
    <tag k="ref:vcgi:esiteid" v="761244"/>
  </node>
  <node id="-988" visible="true" lat="43.55627301" lon="-72.73294611">
    <tag k="addr:housenumber" v="1835"/>
    <tag k="addr:street" v="Messer Hill Road"/>
    <tag k="addr:state" v="VT"/>
    <tag k="ref:vcgi:esiteid" v="761245"/>
  </node>
  <node id="-989" visible="true" lat="43.5595961" lon="-72.73547886">
    <tag k="addr:housenumber" v="2050"/>
    <tag k="addr:street" v="Messer Hill Road"/>
    <tag k="addr:state" v="VT"/>
    <tag k="ref:vcgi:esiteid" v="761246"/>
  </node>
  <node id="-990" visible="true" lat="43.52971457" lon="-72.72273763">
    <tag k="addr:housenumber" v="191"/>
    <tag k="addr:street" v="Lynds Hill Road"/>
    <tag k="addr:state" v="VT"/>
    <tag k="ref:vcgi:esiteid" v="761247"/>
  </node>
  <node id="-991" visible="true" lat="43.53240761" lon="-72.76310618">
    <tag k="addr:housenumber" v="1505"/>
    <tag k="addr:street" v="Great Roaring Brook Road"/>
    <tag k="addr:state" v="VT"/>
    <tag k="ref:vcgi:esiteid" v="761756"/>
  </node>
  <node id="-992" visible="true" lat="43.47702871" lon="-72.75764098">
    <tag k="addr:housenumber" v="123"/>
    <tag k="addr:street" v="Dam Road"/>
    <tag k="addr:state" v="VT"/>
    <tag k="ref:vcgi:esiteid" v="761978"/>
  </node>
  <node id="-993" visible="true" lat="43.5496037" lon="-72.73570164">
    <tag k="addr:housenumber" v="673"/>
    <tag k="addr:street" v="Grand View Lodge Road"/>
    <tag k="addr:state" v="VT"/>
    <tag k="ref:vcgi:esiteid" v="762109"/>
  </node>
  <node id="-994" visible="true" lat="43.54991341" lon="-72.73568302">
    <tag k="addr:housenumber" v="679"/>
    <tag k="addr:street" v="Grand View Lodge Road"/>
    <tag k="addr:state" v="VT"/>
    <tag k="ref:vcgi:esiteid" v="762110"/>
  </node>
  <node id="-995" visible="true" lat="43.55097397" lon="-72.73649919">
    <tag k="addr:housenumber" v="727"/>
    <tag k="addr:street" v="Grand View Lodge Road"/>
    <tag k="addr:state" v="VT"/>
    <tag k="ref:vcgi:esiteid" v="762111"/>
  </node>
  <node id="-996" visible="true" lat="43.55227344" lon="-72.73947962">
    <tag k="addr:housenumber" v="991"/>
    <tag k="addr:street" v="Grand View Lodge Road"/>
    <tag k="addr:state" v="VT"/>
    <tag k="ref:vcgi:esiteid" v="762112"/>
  </node>
  <node id="-997" visible="true" lat="43.55150315" lon="-72.73906742">
    <tag k="addr:housenumber" v="987"/>
    <tag k="addr:street" v="Grand View Lodge Road"/>
    <tag k="addr:state" v="VT"/>
    <tag k="ref:vcgi:esiteid" v="762113"/>
  </node>
  <node id="-998" visible="true" lat="43.54027379" lon="-72.73098543">
    <tag k="addr:housenumber" v="609"/>
    <tag k="addr:street" v="Messer Hill Road"/>
    <tag k="addr:state" v="VT"/>
    <tag k="ref:vcgi:esiteid" v="762114"/>
  </node>
  <node id="-999" visible="true" lat="43.56871322" lon="-72.71007345">
    <tag k="addr:housenumber" v="1668"/>
    <tag k="addr:street" v="Quarry Road"/>
    <tag k="addr:state" v="VT"/>
    <tag k="ref:vcgi:esiteid" v="762115"/>
  </node>
  <node id="-1000" visible="true" lat="43.56733183" lon="-72.7063931">
    <tag k="addr:housenumber" v="1672"/>
    <tag k="addr:street" v="Quarry Road"/>
    <tag k="addr:state" v="VT"/>
    <tag k="ref:vcgi:esiteid" v="762116"/>
  </node>
  <node id="-1001" visible="true" lat="43.57249622" lon="-72.72911811">
    <tag k="addr:housenumber" v="1534"/>
    <tag k="addr:street" v="Rangers Road"/>
    <tag k="addr:state" v="VT"/>
    <tag k="ref:vcgi:esiteid" v="762117"/>
  </node>
  <node id="-1002" visible="true" lat="43.57081525" lon="-72.72473908">
    <tag k="addr:housenumber" v="1532"/>
    <tag k="addr:street" v="Rangers Road"/>
    <tag k="addr:state" v="VT"/>
    <tag k="ref:vcgi:esiteid" v="762118"/>
  </node>
  <node id="-1003" visible="true" lat="43.56124171" lon="-72.71951091">
    <tag k="addr:housenumber" v="623"/>
    <tag k="addr:street" v="Rangers Road"/>
    <tag k="addr:state" v="VT"/>
    <tag k="ref:vcgi:esiteid" v="762119"/>
  </node>
  <node id="-1004" visible="true" lat="43.49994416" lon="-72.72621477">
    <tag k="addr:housenumber" v="258"/>
    <tag k="addr:street" v="Frog City Road"/>
    <tag k="addr:state" v="VT"/>
    <tag k="ref:vcgi:esiteid" v="762120"/>
  </node>
  <node id="-1005" visible="true" lat="43.46458306" lon="-72.69591562">
    <tag k="addr:housenumber" v="553"/>
    <tag k="addr:street" v="Echo View Drive"/>
    <tag k="addr:state" v="VT"/>
    <tag k="ref:vcgi:esiteid" v="762154"/>
  </node>
  <node id="-1006" visible="true" lat="43.46713421" lon="-72.69596407">
    <tag k="addr:housenumber" v="243"/>
    <tag k="addr:street" v="Echo View Drive"/>
    <tag k="addr:state" v="VT"/>
    <tag k="ref:vcgi:esiteid" v="762155"/>
  </node>
  <node id="-1007" visible="true" lat="43.56202132" lon="-72.66612403">
    <tag k="addr:housenumber" v="758"/>
    <tag k="addr:street" v="Hale Hollow Road"/>
    <tag k="addr:state" v="VT"/>
    <tag k="ref:vcgi:esiteid" v="762302"/>
  </node>
  <node id="-1008" visible="true" lat="43.46331026" lon="-72.70188596">
    <tag k="addr:housenumber" v="142"/>
    <tag k="addr:street" v="Kingdom Road"/>
    <tag k="addr:state" v="VT"/>
    <tag k="ref:vcgi:esiteid" v="763295"/>
  </node>
  <node id="-1009" visible="true" lat="43.54750542" lon="-72.73121345">
    <tag k="addr:housenumber" v="480"/>
    <tag k="addr:street" v="Grand View Lodge Road"/>
    <tag k="addr:state" v="VT"/>
    <tag k="ref:vcgi:esiteid" v="763327"/>
  </node>
  <node id="-1010" visible="true" lat="43.57682119" lon="-72.7583362">
    <tag k="addr:housenumber" v="99"/>
    <tag k="addr:street" v="Owen Road"/>
    <tag k="addr:state" v="VT"/>
    <tag k="ref:vcgi:esiteid" v="763328"/>
  </node>
  <node id="-1011" visible="true" lat="43.48435203" lon="-72.71997527">
    <tag k="addr:housenumber" v="321"/>
    <tag k="addr:street" v="Davis Road"/>
    <tag k="addr:state" v="VT"/>
    <tag k="ref:vcgi:esiteid" v="763329"/>
  </node>
  <node id="-1012" visible="true" lat="43.5495122" lon="-72.65916538">
    <tag k="addr:housenumber" v="1750"/>
    <tag k="addr:street" v="Hale Hollow Road"/>
    <tag k="addr:state" v="VT"/>
    <tag k="ref:vcgi:esiteid" v="763698"/>
  </node>
  <node id="-1013" visible="true" lat="43.52868077" lon="-72.73747615">
    <tag k="addr:housenumber" v="5166"/>
    <tag k="addr:street" v="Vermont Route 100"/>
    <tag k="addr:state" v="VT"/>
    <tag k="ref:vcgi:esiteid" v="764402"/>
  </node>
  <node id="-1014" visible="true" lat="43.51609674" lon="-72.73214008">
    <tag k="addr:housenumber" v="4257"/>
    <tag k="addr:street" v="Vermont Route 100"/>
    <tag k="addr:state" v="VT"/>
    <tag k="ref:vcgi:esiteid" v="764403"/>
  </node>
  <node id="-1015" visible="true" lat="43.52092034" lon="-72.70183157">
    <tag k="addr:housenumber" v="2000"/>
    <tag k="addr:street" v="Lynds Hill Road"/>
    <tag k="addr:state" v="VT"/>
    <tag k="ref:vcgi:esiteid" v="764404"/>
  </node>
  <node id="-1016" visible="true" lat="43.53653081" lon="-72.72064672">
    <tag k="addr:housenumber" v="58"/>
    <tag k="addr:street" v="Coolidge Farm Road"/>
    <tag k="addr:state" v="VT"/>
    <tag k="ref:vcgi:esiteid" v="765338"/>
  </node>
  <node id="-1017" visible="true" lat="43.53556666" lon="-72.72144468">
    <tag k="addr:housenumber" v="229"/>
    <tag k="addr:street" v="Coolidge Memorial Road"/>
    <tag k="addr:state" v="VT"/>
    <tag k="ref:vcgi:esiteid" v="765339"/>
  </node>
  <node id="-1018" visible="true" lat="43.53569914" lon="-72.72128317">
    <tag k="addr:housenumber" v="215"/>
    <tag k="addr:street" v="Coolidge Memorial Road"/>
    <tag k="addr:state" v="VT"/>
    <tag k="ref:vcgi:esiteid" v="765340"/>
  </node>
  <node id="-1021" visible="true" lat="43.47665949" lon="-72.75370626">
    <tag k="addr:housenumber" v="331"/>
    <tag k="addr:street" v="Dam Road"/>
    <tag k="addr:state" v="VT"/>
    <tag k="ref:vcgi:esiteid" v="766555"/>
  </node>
  <node id="-1022" visible="true" lat="43.57618083" lon="-72.76335377">
    <tag k="addr:housenumber" v="85"/>
    <tag k="addr:street" v="Pcn Road"/>
    <tag k="addr:state" v="VT"/>
    <tag k="ref:vcgi:esiteid" v="767381"/>
  </node>
  <node id="-1023" visible="true" lat="43.4628105" lon="-72.66772364">
    <tag k="addr:housenumber" v="670"/>
    <tag k="addr:street" v="Chapman Road"/>
    <tag k="addr:state" v="VT"/>
    <tag k="ref:vcgi:esiteid" v="767420"/>
  </node>
  <node id="-1025" visible="true" lat="43.5508336" lon="-72.7109841">
    <tag k="addr:housenumber" v="88"/>
    <tag k="addr:street" v="Wheeler Bridge Road"/>
    <tag k="addr:state" v="VT"/>
    <tag k="ref:vcgi:esiteid" v="769857"/>
  </node>
  <node id="-1026" visible="true" lat="43.4682574" lon="-72.70901657">
    <tag k="addr:housenumber" v="352"/>
    <tag k="addr:street" v="Dublin Road"/>
    <tag k="addr:state" v="VT"/>
    <tag k="ref:vcgi:esiteid" v="1050367"/>
  </node>
  <node id="-1027" visible="true" lat="43.47052619" lon="-72.67265405">
    <tag k="addr:housenumber" v="1887"/>
    <tag k="addr:street" v="Kingdom Road"/>
    <tag k="addr:state" v="VT"/>
    <tag k="ref:vcgi:esiteid" v="1050372"/>
  </node>
  <node id="-1028" visible="true" lat="43.49858758" lon="-72.7134953">
    <tag k="addr:housenumber" v="42"/>
    <tag k="addr:street" v="Billings Road"/>
    <tag k="addr:state" v="VT"/>
    <tag k="ref:vcgi:esiteid" v="1050377"/>
  </node>
  <node id="-1029" visible="true" lat="43.51333" lon="-72.7305">
    <tag k="addr:housenumber" v="4050"/>
    <tag k="addr:street" v="Vermont Route 100"/>
    <tag k="addr:state" v="VT"/>
    <tag k="ref:vcgi:esiteid" v="1050378"/>
  </node>
  <node id="-1030" visible="true" lat="43.52025682" lon="-72.71031152">
    <tag k="addr:housenumber" v="1544"/>
    <tag k="addr:street" v="Lynds Hill Road"/>
    <tag k="addr:state" v="VT"/>
    <tag k="ref:vcgi:esiteid" v="1050379"/>
  </node>
  <node id="-1031" visible="true" lat="43.52103321" lon="-72.69062055">
    <tag k="addr:housenumber" v="2570"/>
    <tag k="addr:street" v="Lynds Hill Road"/>
    <tag k="addr:state" v="VT"/>
    <tag k="ref:vcgi:esiteid" v="1050380"/>
  </node>
  <node id="-1032" visible="true" lat="43.53433" lon="-72.68367">
    <tag k="addr:housenumber" v="434"/>
    <tag k="addr:street" v="Five Corners Cemetery Road"/>
    <tag k="addr:state" v="VT"/>
    <tag k="ref:vcgi:esiteid" v="1050381"/>
  </node>
  <node id="-1033" visible="true" lat="43.53667" lon="-72.69467">
    <tag k="addr:housenumber" v="1076"/>
    <tag k="addr:street" v="Johnson Farm Road"/>
    <tag k="addr:state" v="VT"/>
    <tag k="ref:vcgi:esiteid" v="1050382"/>
  </node>
  <node id="-1034" visible="true" lat="43.53484321" lon="-72.72084823">
    <tag k="addr:housenumber" v="3764"/>
    <tag k="addr:street" v="Vermont Route 100A"/>
    <tag k="addr:state" v="VT"/>
    <tag k="ref:vcgi:esiteid" v="1050383"/>
  </node>
  <node id="-1035" visible="true" lat="43.5345352" lon="-72.74284809">
    <tag k="addr:housenumber" v="46"/>
    <tag k="addr:street" v="Town Office Road"/>
    <tag k="addr:state" v="VT"/>
    <tag k="ref:vcgi:esiteid" v="1050384"/>
  </node>
  <node id="-1036" visible="true" lat="43.53702034" lon="-72.74647018">
    <tag k="addr:housenumber" v="193"/>
    <tag k="addr:street" v="Round Top Road"/>
    <tag k="addr:state" v="VT"/>
    <tag k="ref:vcgi:esiteid" v="1050385"/>
  </node>
  <node id="-1037" visible="true" lat="43.56533" lon="-72.75383">
    <tag k="addr:housenumber" v="959"/>
    <tag k="addr:street" v="Farm And Wilderness Road"/>
    <tag k="addr:state" v="VT"/>
    <tag k="ref:vcgi:esiteid" v="1050386"/>
  </node>
  <node id="-1038" visible="true" lat="43.5745" lon="-72.7585">
    <tag k="addr:housenumber" v="274"/>
    <tag k="addr:street" v="Farm And Wilderness Road"/>
    <tag k="addr:state" v="VT"/>
    <tag k="ref:vcgi:esiteid" v="1050387"/>
  </node>
  <node id="-1039" visible="true" lat="43.56360548" lon="-72.686595">
    <tag k="addr:housenumber" v="627"/>
    <tag k="addr:street" v="Vermont Route 100A"/>
    <tag k="addr:state" v="VT"/>
    <tag k="ref:vcgi:esiteid" v="1050389"/>
  </node>
  <node id="-1040" visible="true" lat="43.54047218" lon="-72.69481108">
    <tag k="addr:housenumber" v="1671"/>
    <tag k="addr:street" v="Coolidge State Park Road"/>
    <tag k="addr:state" v="VT"/>
    <tag k="ref:vcgi:esiteid" v="1050814"/>
  </node>
  <node id="-1041" visible="true" lat="43.53399939" lon="-72.68140034">
    <tag k="addr:housenumber" v="482"/>
    <tag k="addr:street" v="Five Corners Cemetery Road"/>
    <tag k="addr:state" v="VT"/>
    <tag k="ref:vcgi:esiteid" v="1050815"/>
  </node>
  <node id="-1042" visible="true" lat="43.53091546" lon="-72.72327508">
    <tag k="addr:housenumber" v="173"/>
    <tag k="addr:street" v="Lynds Hill Road"/>
    <tag k="addr:state" v="VT"/>
    <tag k="ref:vcgi:esiteid" v="1050816"/>
  </node>
  <node id="-1045" visible="true" lat="43.49576428" lon="-72.70476531">
    <tag k="addr:housenumber" v="174"/>
    <tag k="addr:street" v="Meadow Hawk Road"/>
    <tag k="addr:state" v="VT"/>
    <tag k="ref:vcgi:esiteid" v="1051265"/>
  </node>
</osm>
