<?xml version="1.0" encoding="UTF-8"?>
<osm version="0.6" generator="JOSM">
  <node id="-109" visible="true" lat="43.75295277" lon="-72.51881851">
    <tag k="addr:city" v="Pomfret"/>
    <tag k="addr:housenumber" v="66"/>
    <tag k="addr:street" v="Leonard Road"/>
    <tag k="addr:state" v="VT"/>
    <tag k="ref:vcgi:esiteid" v="190215"/>
  </node>
  <node id="-124" visible="true" lat="43.74208831" lon="-72.50870513">
    <tag k="addr:city" v="Pomfret"/>
    <tag k="addr:housenumber" v="762"/>
    <tag k="addr:street" v="Blackmer Road"/>
    <tag k="addr:state" v="VT"/>
    <tag k="ref:vcgi:esiteid" v="190230"/>
  </node>
  <node id="-125" visible="true" lat="43.74204254" lon="-72.50791931">
    <tag k="addr:city" v="Pomfret"/>
    <tag k="addr:housenumber" v="764"/>
    <tag k="addr:street" v="Blackmer Road"/>
    <tag k="addr:state" v="VT"/>
    <tag k="ref:vcgi:esiteid" v="190231"/>
  </node>
  <node id="-132" visible="true" lat="43.73969824" lon="-72.51966629">
    <tag k="addr:city" v="Pomfret"/>
    <tag k="addr:housenumber" v="1634"/>
    <tag k="addr:street" v="Allen Hill Road"/>
    <tag k="addr:state" v="VT"/>
    <tag k="ref:vcgi:esiteid" v="190238"/>
  </node>
  <node id="-134" visible="true" lat="43.7388044" lon="-72.48107959">
    <tag k="addr:city" v="Pomfret"/>
    <tag k="addr:housenumber" v="1237"/>
    <tag k="addr:street" v="Caper Street"/>
    <tag k="addr:state" v="VT"/>
    <tag k="ref:vcgi:esiteid" v="190240"/>
  </node>
  <node id="-135" visible="true" lat="43.73844314" lon="-72.52350558">
    <tag k="addr:city" v="Pomfret"/>
    <tag k="addr:housenumber" v="1647"/>
    <tag k="addr:street" v="Allen Hill Road"/>
    <tag k="addr:state" v="VT"/>
    <tag k="ref:vcgi:esiteid" v="190241"/>
  </node>
  <node id="-139" visible="true" lat="43.73745727" lon="-72.52094268">
    <tag k="addr:city" v="Pomfret"/>
    <tag k="addr:housenumber" v="1502"/>
    <tag k="addr:street" v="Allen Hill Road"/>
    <tag k="addr:state" v="VT"/>
    <tag k="ref:vcgi:esiteid" v="190245"/>
  </node>
  <node id="-140" visible="true" lat="43.73735039" lon="-72.481636">
    <tag k="addr:city" v="Pomfret"/>
    <tag k="addr:housenumber" v="1159"/>
    <tag k="addr:street" v="Caper Street"/>
    <tag k="addr:state" v="VT"/>
    <tag k="ref:vcgi:esiteid" v="190246"/>
  </node>
  <node id="-145" visible="true" lat="43.736557" lon="-72.51972961">
    <tag k="addr:city" v="Pomfret"/>
    <tag k="addr:housenumber" v="1416"/>
    <tag k="addr:street" v="Allen Hill Road"/>
    <tag k="addr:state" v="VT"/>
    <tag k="ref:vcgi:esiteid" v="190251"/>
  </node>
  <node id="-149" visible="true" lat="43.73566262" lon="-72.52007363">
    <tag k="addr:city" v="Pomfret"/>
    <tag k="addr:housenumber" v="1361"/>
    <tag k="addr:street" v="Allen Hill Road"/>
    <tag k="addr:state" v="VT"/>
    <tag k="ref:vcgi:esiteid" v="190255"/>
  </node>
  <node id="-150" visible="true" lat="43.73494203" lon="-72.48039588">
    <tag k="addr:city" v="Pomfret"/>
    <tag k="addr:housenumber" v="839"/>
    <tag k="addr:street" v="Caper Street"/>
    <tag k="addr:state" v="VT"/>
    <tag k="ref:vcgi:esiteid" v="190256"/>
  </node>
  <node id="-153" visible="true" lat="43.73309872" lon="-72.51836189">
    <tag k="addr:city" v="Pomfret"/>
    <tag k="addr:housenumber" v="1175"/>
    <tag k="addr:street" v="Allen Hill Road"/>
    <tag k="addr:state" v="VT"/>
    <tag k="ref:vcgi:esiteid" v="190259"/>
  </node>
  <node id="-155" visible="true" lat="43.73238339" lon="-72.48023023">
    <tag k="addr:city" v="Pomfret"/>
    <tag k="addr:housenumber" v="773"/>
    <tag k="addr:street" v="Caper Street"/>
    <tag k="addr:state" v="VT"/>
    <tag k="ref:vcgi:esiteid" v="190261"/>
  </node>
  <node id="-158" visible="true" lat="43.73218308" lon="-72.47466972">
    <tag k="addr:city" v="Pomfret"/>
    <tag k="addr:housenumber" v="372"/>
    <tag k="addr:street" v="Cherry Hill Road"/>
    <tag k="addr:state" v="VT"/>
    <tag k="ref:vcgi:esiteid" v="190264"/>
  </node>
  <node id="-166" visible="true" lat="43.72992324" lon="-72.48284912">
    <tag k="addr:city" v="Pomfret"/>
    <tag k="addr:housenumber" v="107"/>
    <tag k="addr:street" v="Clifford Road"/>
    <tag k="addr:state" v="VT"/>
    <tag k="ref:vcgi:esiteid" v="190272"/>
  </node>
  <node id="-168" visible="true" lat="43.72977615" lon="-72.45987644">
    <tag k="addr:city" v="Pomfret"/>
    <tag k="addr:housenumber" v="433"/>
    <tag k="addr:street" v="Freeman Road"/>
    <tag k="addr:state" v="VT"/>
    <tag k="ref:vcgi:esiteid" v="190274"/>
  </node>
  <node id="-169" visible="true" lat="43.72974395" lon="-72.5340805">
    <tag k="addr:city" v="Pomfret"/>
    <tag k="addr:housenumber" v="737"/>
    <tag k="addr:street" v="Skyline Drive"/>
    <tag k="addr:state" v="VT"/>
    <tag k="ref:vcgi:esiteid" v="190275"/>
  </node>
  <node id="-171" visible="true" lat="43.72940118" lon="-72.5102919">
    <tag k="addr:city" v="Pomfret"/>
    <tag k="addr:housenumber" v="717"/>
    <tag k="addr:street" v="Allen Hill Road"/>
    <tag k="addr:state" v="VT"/>
    <tag k="ref:vcgi:esiteid" v="190277"/>
  </node>
  <node id="-177" visible="true" lat="43.72756958" lon="-72.53356933">
    <tag k="addr:city" v="Pomfret"/>
    <tag k="addr:housenumber" v="18"/>
    <tag k="addr:street" v="Twin Pond Road"/>
    <tag k="addr:state" v="VT"/>
    <tag k="ref:vcgi:esiteid" v="190283"/>
  </node>
  <node id="-179" visible="true" lat="43.7273052" lon="-72.52982503">
    <tag k="addr:city" v="Pomfret"/>
    <tag k="addr:housenumber" v="185"/>
    <tag k="addr:street" v="Twin Pond Road"/>
    <tag k="addr:state" v="VT"/>
    <tag k="ref:vcgi:esiteid" v="190285"/>
  </node>
  <node id="-180" visible="true" lat="43.72724464" lon="-72.48170407">
    <tag k="addr:city" v="Pomfret"/>
    <tag k="addr:housenumber" v="467"/>
    <tag k="addr:street" v="Caper Street"/>
    <tag k="addr:state" v="VT"/>
    <tag k="ref:vcgi:esiteid" v="190286"/>
  </node>
  <node id="-181" visible="true" lat="43.72716647" lon="-72.50386396">
    <tag k="addr:city" v="Pomfret"/>
    <tag k="addr:housenumber" v="429"/>
    <tag k="addr:street" v="Allen Hill Road"/>
    <tag k="addr:state" v="VT"/>
    <tag k="ref:vcgi:esiteid" v="190287"/>
  </node>
  <node id="-182" visible="true" lat="43.72711586" lon="-72.53738706">
    <tag k="addr:city" v="Pomfret"/>
    <tag k="addr:housenumber" v="413"/>
    <tag k="addr:street" v="Skyline Drive"/>
    <tag k="addr:state" v="VT"/>
    <tag k="ref:vcgi:esiteid" v="190288"/>
  </node>
  <node id="-188" visible="true" lat="43.72615439" lon="-72.53554544">
    <tag k="addr:city" v="Pomfret"/>
    <tag k="addr:housenumber" v="538"/>
    <tag k="addr:street" v="Skyline Drive"/>
    <tag k="addr:state" v="VT"/>
    <tag k="ref:vcgi:esiteid" v="190294"/>
  </node>
  <node id="-191" visible="true" lat="43.72588134" lon="-72.4574274">
    <tag k="addr:city" v="Pomfret"/>
    <tag k="addr:housenumber" v="137"/>
    <tag k="addr:street" v="Freeman Road"/>
    <tag k="addr:state" v="VT"/>
    <tag k="ref:vcgi:esiteid" v="190297"/>
  </node>
  <node id="-192" visible="true" lat="43.72580718" lon="-72.53822326">
    <tag k="addr:city" v="Pomfret"/>
    <tag k="addr:housenumber" v="357"/>
    <tag k="addr:street" v="Skyline Drive"/>
    <tag k="addr:state" v="VT"/>
    <tag k="ref:vcgi:esiteid" v="190298"/>
  </node>
  <node id="-195" visible="true" lat="43.72579463" lon="-72.52731561">
    <tag k="addr:city" v="Pomfret"/>
    <tag k="addr:housenumber" v="309"/>
    <tag k="addr:street" v="Twin Pond Road"/>
    <tag k="addr:state" v="VT"/>
    <tag k="ref:vcgi:esiteid" v="190301"/>
  </node>
  <node id="-200" visible="true" lat="43.72544046" lon="-72.53837832">
    <tag k="addr:city" v="Pomfret"/>
    <tag k="addr:housenumber" v="369"/>
    <tag k="addr:street" v="Skyline Drive"/>
    <tag k="addr:state" v="VT"/>
    <tag k="ref:vcgi:esiteid" v="190306"/>
  </node>
  <node id="-223" visible="true" lat="43.72373962" lon="-72.49797058">
    <tag k="addr:city" v="Pomfret"/>
    <tag k="addr:housenumber" v="60"/>
    <tag k="addr:street" v="Howe Hill Road"/>
    <tag k="addr:state" v="VT"/>
    <tag k="ref:vcgi:esiteid" v="190329"/>
  </node>
  <node id="-224" visible="true" lat="43.72370529" lon="-72.54598998">
    <tag k="addr:city" v="Pomfret"/>
    <tag k="addr:housenumber" v="2300"/>
    <tag k="addr:street" v="Webster Hill Road"/>
    <tag k="addr:state" v="VT"/>
    <tag k="ref:vcgi:esiteid" v="190330"/>
  </node>
  <node id="-227" visible="true" lat="43.72357359" lon="-72.47168338">
    <tag k="addr:city" v="Pomfret"/>
    <tag k="addr:housenumber" v="200"/>
    <tag k="addr:street" v="Maple View Road"/>
    <tag k="addr:state" v="VT"/>
    <tag k="ref:vcgi:esiteid" v="190333"/>
  </node>
  <node id="-241" visible="true" lat="43.72279739" lon="-72.47270965">
    <tag k="addr:city" v="Pomfret"/>
    <tag k="addr:housenumber" v="260"/>
    <tag k="addr:street" v="Maple View Road"/>
    <tag k="addr:state" v="VT"/>
    <tag k="ref:vcgi:esiteid" v="190347"/>
  </node>
  <node id="-244" visible="true" lat="43.72255706" lon="-72.49770355">
    <tag k="addr:city" v="Pomfret"/>
    <tag k="addr:housenumber" v="6828"/>
    <tag k="addr:street" v="Pomfret Road"/>
    <tag k="addr:state" v="VT"/>
    <tag k="ref:vcgi:esiteid" v="190350"/>
  </node>
  <node id="-245" visible="true" lat="43.72255325" lon="-72.49810791">
    <tag k="addr:city" v="Pomfret"/>
    <tag k="addr:housenumber" v="6810"/>
    <tag k="addr:street" v="Pomfret Road"/>
    <tag k="addr:state" v="VT"/>
    <tag k="ref:vcgi:esiteid" v="190351"/>
  </node>
  <node id="-259" visible="true" lat="43.7218666" lon="-72.4705429">
    <tag k="addr:city" v="Pomfret"/>
    <tag k="addr:housenumber" v="75"/>
    <tag k="addr:street" v="Maple View Road"/>
    <tag k="addr:state" v="VT"/>
    <tag k="ref:vcgi:esiteid" v="190365"/>
  </node>
  <node id="-265" visible="true" lat="43.72154235" lon="-72.52056121">
    <tag k="addr:city" v="Pomfret"/>
    <tag k="addr:housenumber" v="1039"/>
    <tag k="addr:street" v="Hewitt Hill Road"/>
    <tag k="addr:state" v="VT"/>
    <tag k="ref:vcgi:esiteid" v="190371"/>
  </node>
  <node id="-271" visible="true" lat="43.7212688" lon="-72.45439574">
    <tag k="addr:city" v="Pomfret"/>
    <tag k="addr:housenumber" v="252"/>
    <tag k="addr:street" v="Sugarhouse Road"/>
    <tag k="addr:state" v="VT"/>
    <tag k="ref:vcgi:esiteid" v="190377"/>
  </node>
  <node id="-272" visible="true" lat="43.72116853" lon="-72.52933725">
    <tag k="addr:city" v="Pomfret"/>
    <tag k="addr:housenumber" v="478"/>
    <tag k="addr:street" v="Hidden Ridge Road"/>
    <tag k="addr:state" v="VT"/>
    <tag k="ref:vcgi:esiteid" v="190378"/>
  </node>
  <node id="-274" visible="true" lat="43.72084251" lon="-72.4762684">
    <tag k="addr:city" v="Pomfret"/>
    <tag k="addr:housenumber" v="8128"/>
    <tag k="addr:street" v="Pomfret Road"/>
    <tag k="addr:state" v="VT"/>
    <tag k="ref:vcgi:esiteid" v="190380"/>
  </node>
  <node id="-280" visible="true" lat="43.72052955" lon="-72.5320312">
    <tag k="addr:city" v="Pomfret"/>
    <tag k="addr:housenumber" v="489"/>
    <tag k="addr:street" v="Windy Lane"/>
    <tag k="addr:state" v="VT"/>
    <tag k="ref:vcgi:esiteid" v="190386"/>
  </node>
  <node id="-283" visible="true" lat="43.72037977" lon="-72.52915725">
    <tag k="addr:city" v="Pomfret"/>
    <tag k="addr:housenumber" v="408"/>
    <tag k="addr:street" v="Hidden Ridge Road"/>
    <tag k="addr:state" v="VT"/>
    <tag k="ref:vcgi:esiteid" v="190389"/>
  </node>
  <node id="-289" visible="true" lat="43.71973332" lon="-72.5296602">
    <tag k="addr:city" v="Pomfret"/>
    <tag k="addr:housenumber" v="404"/>
    <tag k="addr:street" v="Hidden Ridge Road"/>
    <tag k="addr:state" v="VT"/>
    <tag k="ref:vcgi:esiteid" v="190395"/>
  </node>
  <node id="-294" visible="true" lat="43.71921818" lon="-72.52994221">
    <tag k="addr:city" v="Pomfret"/>
    <tag k="addr:housenumber" v="344"/>
    <tag k="addr:street" v="Hidden Ridge Road"/>
    <tag k="addr:state" v="VT"/>
    <tag k="ref:vcgi:esiteid" v="190400"/>
  </node>
  <node id="-304" visible="true" lat="43.71807098" lon="-72.52947235">
    <tag k="addr:city" v="Pomfret"/>
    <tag k="addr:housenumber" v="234"/>
    <tag k="addr:street" v="Hidden Ridge Road"/>
    <tag k="addr:state" v="VT"/>
    <tag k="ref:vcgi:esiteid" v="190411"/>
  </node>
  <node id="-339" visible="true" lat="43.70750961" lon="-72.44054099">
    <tag k="addr:city" v="Pomfret"/>
    <tag k="addr:housenumber" v="627"/>
    <tag k="addr:street" v="Graves Road"/>
    <tag k="addr:state" v="VT"/>
    <tag k="ref:vcgi:esiteid" v="190446"/>
  </node>
  <node id="-361" visible="true" lat="43.70476187" lon="-72.44958759">
    <tag k="addr:city" v="Pomfret"/>
    <tag k="addr:housenumber" v="897"/>
    <tag k="addr:street" v="Clay Road"/>
    <tag k="addr:state" v="VT"/>
    <tag k="ref:vcgi:esiteid" v="190469"/>
  </node>
  <node id="-368" visible="true" lat="43.70364547" lon="-72.44771519">
    <tag k="addr:city" v="Pomfret"/>
    <tag k="addr:housenumber" v="898"/>
    <tag k="addr:street" v="Clay Road"/>
    <tag k="addr:state" v="VT"/>
    <tag k="ref:vcgi:esiteid" v="190476"/>
  </node>
  <node id="-370" visible="true" lat="43.70319862" lon="-72.44680807">
    <tag k="addr:city" v="Pomfret"/>
    <tag k="addr:housenumber" v="895"/>
    <tag k="addr:street" v="Clay Road"/>
    <tag k="addr:state" v="VT"/>
    <tag k="ref:vcgi:esiteid" v="190478"/>
  </node>
  <node id="-374" visible="true" lat="43.70323884" lon="-72.45123216">
    <tag k="addr:city" v="Pomfret"/>
    <tag k="addr:housenumber" v="899"/>
    <tag k="addr:street" v="Clay Road"/>
    <tag k="addr:state" v="VT"/>
    <tag k="ref:vcgi:esiteid" v="190482"/>
  </node>
  <node id="-376" visible="true" lat="43.70262697" lon="-72.54115137">
    <tag k="addr:city" v="Pomfret"/>
    <tag k="addr:housenumber" v="1808"/>
    <tag k="addr:street" v="Bartlett Brook Road"/>
    <tag k="addr:state" v="VT"/>
    <tag k="ref:vcgi:esiteid" v="190484"/>
  </node>
  <node id="-385" visible="true" lat="43.6996994" lon="-72.51963806">
    <tag k="addr:city" v="Pomfret"/>
    <tag k="addr:housenumber" v="4727"/>
    <tag k="addr:street" v="Pomfret Road"/>
    <tag k="addr:state" v="VT"/>
    <tag k="ref:vcgi:esiteid" v="190494"/>
  </node>
  <node id="-386" visible="true" lat="43.69940178" lon="-72.5405679">
    <tag k="addr:city" v="Pomfret"/>
    <tag k="addr:housenumber" v="1631"/>
    <tag k="addr:street" v="Bartlett Brook Road"/>
    <tag k="addr:state" v="VT"/>
    <tag k="ref:vcgi:esiteid" v="190495"/>
  </node>
  <node id="-389" visible="true" lat="43.69857666" lon="-72.54032741">
    <tag k="addr:city" v="Pomfret"/>
    <tag k="addr:housenumber" v="1541"/>
    <tag k="addr:street" v="Bartlett Brook Road"/>
    <tag k="addr:state" v="VT"/>
    <tag k="ref:vcgi:esiteid" v="190498"/>
  </node>
  <node id="-392" visible="true" lat="43.69760131" lon="-72.54547882">
    <tag k="addr:city" v="Pomfret"/>
    <tag k="addr:housenumber" v="2263"/>
    <tag k="addr:street" v="Bartlett Brook Road"/>
    <tag k="addr:state" v="VT"/>
    <tag k="ref:vcgi:esiteid" v="190501"/>
  </node>
  <node id="-393" visible="true" lat="43.69737502" lon="-72.53722667">
    <tag k="addr:city" v="Pomfret"/>
    <tag k="addr:housenumber" v="1466"/>
    <tag k="addr:street" v="Bartlett Brook Road"/>
    <tag k="addr:state" v="VT"/>
    <tag k="ref:vcgi:esiteid" v="190502"/>
  </node>
  <node id="-394" visible="true" lat="43.697231" lon="-72.54757809">
    <tag k="addr:city" v="Pomfret"/>
    <tag k="addr:housenumber" v="2346"/>
    <tag k="addr:street" v="Bartlett Brook Road"/>
    <tag k="addr:state" v="VT"/>
    <tag k="ref:vcgi:esiteid" v="190503"/>
  </node>
  <node id="-396" visible="true" lat="43.69682082" lon="-72.53918072">
    <tag k="addr:city" v="Pomfret"/>
    <tag k="addr:housenumber" v="1399"/>
    <tag k="addr:street" v="Bartlett Brook Road"/>
    <tag k="addr:state" v="VT"/>
    <tag k="ref:vcgi:esiteid" v="190505"/>
  </node>
  <node id="-397" visible="true" lat="43.69652944" lon="-72.54844966">
    <tag k="addr:city" v="Pomfret"/>
    <tag k="addr:housenumber" v="2438"/>
    <tag k="addr:street" v="Bartlett Brook Road"/>
    <tag k="addr:state" v="VT"/>
    <tag k="ref:vcgi:esiteid" v="190506"/>
  </node>
  <node id="-399" visible="true" lat="43.69612724" lon="-72.54201912">
    <tag k="addr:city" v="Pomfret"/>
    <tag k="addr:housenumber" v="1449"/>
    <tag k="addr:street" v="Bartlett Brook Road"/>
    <tag k="addr:state" v="VT"/>
    <tag k="ref:vcgi:esiteid" v="190508"/>
  </node>
  <node id="-403" visible="true" lat="43.69404983" lon="-72.53733062">
    <tag k="addr:city" v="Pomfret"/>
    <tag k="addr:housenumber" v="1227"/>
    <tag k="addr:street" v="Bartlett Brook Road"/>
    <tag k="addr:state" v="VT"/>
    <tag k="ref:vcgi:esiteid" v="190512"/>
  </node>
  <node id="-407" visible="true" lat="43.69286239" lon="-72.51925983">
    <tag k="addr:city" v="Pomfret"/>
    <tag k="addr:housenumber" v="4314"/>
    <tag k="addr:street" v="Pomfret Road"/>
    <tag k="addr:state" v="VT"/>
    <tag k="ref:vcgi:esiteid" v="190516"/>
  </node>
  <node id="-408" visible="true" lat="43.69286615" lon="-72.53553674">
    <tag k="addr:city" v="Pomfret"/>
    <tag k="addr:housenumber" v="1082"/>
    <tag k="addr:street" v="Bartlett Brook Road"/>
    <tag k="addr:state" v="VT"/>
    <tag k="ref:vcgi:esiteid" v="190517"/>
  </node>
  <node id="-413" visible="true" lat="43.69115829" lon="-72.54836273">
    <tag k="addr:city" v="Pomfret"/>
    <tag k="addr:housenumber" v="2773"/>
    <tag k="addr:street" v="Bartlett Brook Road"/>
    <tag k="addr:state" v="VT"/>
    <tag k="ref:vcgi:esiteid" v="190522"/>
  </node>
  <node id="-414" visible="true" lat="43.69090446" lon="-72.53581189">
    <tag k="addr:city" v="Pomfret"/>
    <tag k="addr:housenumber" v="19"/>
    <tag k="addr:street" v="Dinsmoor Road"/>
    <tag k="addr:state" v="VT"/>
    <tag k="ref:vcgi:esiteid" v="190523"/>
  </node>
  <node id="-415" visible="true" lat="43.6906553" lon="-72.52858692">
    <tag k="addr:city" v="Pomfret"/>
    <tag k="addr:housenumber" v="741"/>
    <tag k="addr:street" v="Tom White Hill"/>
    <tag k="addr:state" v="VT"/>
    <tag k="ref:vcgi:esiteid" v="190524"/>
  </node>
  <node id="-419" visible="true" lat="43.68965148" lon="-72.52027893">
    <tag k="addr:city" v="Pomfret"/>
    <tag k="addr:housenumber" v="4056"/>
    <tag k="addr:street" v="Pomfret Road"/>
    <tag k="addr:state" v="VT"/>
    <tag k="ref:vcgi:esiteid" v="190528"/>
  </node>
  <node id="-422" visible="true" lat="43.6891365" lon="-72.56408691">
    <tag k="addr:city" v="Pomfret"/>
    <tag k="addr:housenumber" v="825"/>
    <tag k="addr:street" v="Wild Apple Road"/>
    <tag k="addr:state" v="VT"/>
    <tag k="ref:vcgi:esiteid" v="190531"/>
  </node>
  <node id="-428" visible="true" lat="43.68719863" lon="-72.55158233">
    <tag k="addr:city" v="Pomfret"/>
    <tag k="addr:housenumber" v="2916"/>
    <tag k="addr:street" v="Bartlett Brook Road"/>
    <tag k="addr:state" v="VT"/>
    <tag k="ref:vcgi:esiteid" v="190537"/>
  </node>
  <node id="-430" visible="true" lat="43.68724521" lon="-72.53123839">
    <tag k="addr:city" v="Pomfret"/>
    <tag k="addr:housenumber" v="154"/>
    <tag k="addr:street" v="Spooner Road"/>
    <tag k="addr:state" v="VT"/>
    <tag k="ref:vcgi:esiteid" v="190539"/>
  </node>
  <node id="-433" visible="true" lat="43.68675231" lon="-72.55193328">
    <tag k="addr:city" v="Pomfret"/>
    <tag k="addr:housenumber" v="2918"/>
    <tag k="addr:street" v="Bartlett Brook Road"/>
    <tag k="addr:state" v="VT"/>
    <tag k="ref:vcgi:esiteid" v="190542"/>
  </node>
  <node id="-437" visible="true" lat="43.68609373" lon="-72.56915555">
    <tag k="addr:city" v="Pomfret"/>
    <tag k="addr:housenumber" v="2262"/>
    <tag k="addr:street" v="Stage Road"/>
    <tag k="addr:state" v="VT"/>
    <tag k="ref:vcgi:esiteid" v="190546"/>
  </node>
  <node id="-440" visible="true" lat="43.68547058" lon="-72.54532623">
    <tag k="addr:city" v="Pomfret"/>
    <tag k="addr:housenumber" v="968"/>
    <tag k="addr:street" v="Totman Hill Road"/>
    <tag k="addr:state" v="VT"/>
    <tag k="ref:vcgi:esiteid" v="190549"/>
  </node>
  <node id="-459" visible="true" lat="43.67923736" lon="-72.54263305">
    <tag k="addr:city" v="Pomfret"/>
    <tag k="addr:housenumber" v="799"/>
    <tag k="addr:street" v="Totman Hill Road"/>
    <tag k="addr:state" v="VT"/>
    <tag k="ref:vcgi:esiteid" v="190568"/>
  </node>
  <node id="-489" visible="true" lat="43.6687293" lon="-72.5447813">
    <tag k="addr:city" v="Pomfret"/>
    <tag k="addr:housenumber" v="400"/>
    <tag k="addr:street" v="Stage Road"/>
    <tag k="addr:state" v="VT"/>
    <tag k="ref:vcgi:esiteid" v="190599"/>
  </node>
  <node id="-496" visible="true" lat="43.66783904" lon="-72.53430175">
    <tag k="addr:city" v="Pomfret"/>
    <tag k="addr:housenumber" v="2568"/>
    <tag k="addr:street" v="Pomfret Road"/>
    <tag k="addr:state" v="VT"/>
    <tag k="ref:vcgi:esiteid" v="190606"/>
  </node>
  <node id="-497" visible="true" lat="43.66824895" lon="-72.51725556">
    <tag k="addr:city" v="Pomfret"/>
    <tag k="addr:housenumber" v="272"/>
    <tag k="addr:street" v="Maxham Road"/>
    <tag k="addr:state" v="VT"/>
    <tag k="ref:vcgi:esiteid" v="190607"/>
  </node>
  <node id="-527" visible="true" lat="43.6648309" lon="-72.4672376">
    <tag k="addr:city" v="Pomfret"/>
    <tag k="addr:housenumber" v="591"/>
    <tag k="addr:street" v="Sugarbush Farm Road"/>
    <tag k="addr:state" v="VT"/>
    <tag k="ref:vcgi:esiteid" v="190637"/>
  </node>
  <node id="-545" visible="true" lat="43.66238876" lon="-72.52137476">
    <tag k="addr:city" v="Pomfret"/>
    <tag k="addr:housenumber" v="659"/>
    <tag k="addr:street" v="Barber Hill Road"/>
    <tag k="addr:state" v="VT"/>
    <tag k="ref:vcgi:esiteid" v="190655"/>
  </node>
  <node id="-553" visible="true" lat="43.6606825" lon="-72.52424963">
    <tag k="addr:city" v="Pomfret"/>
    <tag k="addr:housenumber" v="391"/>
    <tag k="addr:street" v="Barber Hill Road"/>
    <tag k="addr:state" v="VT"/>
    <tag k="ref:vcgi:esiteid" v="190663"/>
  </node>
  <node id="-555" visible="true" lat="43.66062905" lon="-72.5254687">
    <tag k="addr:city" v="Pomfret"/>
    <tag k="addr:housenumber" v="389"/>
    <tag k="addr:street" v="Barber Hill Road"/>
    <tag k="addr:state" v="VT"/>
    <tag k="ref:vcgi:esiteid" v="190665"/>
  </node>
  <node id="-561" visible="true" lat="43.65932636" lon="-72.52467284">
    <tag k="addr:city" v="Pomfret"/>
    <tag k="addr:housenumber" v="392"/>
    <tag k="addr:street" v="Barber Hill Road"/>
    <tag k="addr:state" v="VT"/>
    <tag k="ref:vcgi:esiteid" v="190671"/>
  </node>
  <node id="-568" visible="true" lat="43.65814903" lon="-72.53518579">
    <tag k="addr:city" v="Pomfret"/>
    <tag k="addr:housenumber" v="334"/>
    <tag k="addr:street" v="Log Cabin Drive"/>
    <tag k="addr:state" v="VT"/>
    <tag k="ref:vcgi:esiteid" v="190678"/>
  </node>
  <node id="-582" visible="true" lat="43.65474685" lon="-72.52561991">
    <tag k="addr:city" v="Pomfret"/>
    <tag k="addr:housenumber" v="117"/>
    <tag k="addr:street" v="School View Drive"/>
    <tag k="addr:state" v="VT"/>
    <tag k="ref:vcgi:esiteid" v="190693"/>
  </node>
  <node id="-610" visible="true" lat="43.69387384" lon="-72.53283888">
    <tag k="addr:city" v="Pomfret"/>
    <tag k="addr:housenumber" v="700"/>
    <tag k="addr:street" v="Tom White Hill"/>
    <tag k="addr:state" v="VT"/>
    <tag k="ref:vcgi:esiteid" v="190724"/>
  </node>
  <node id="-615" visible="true" lat="43.72916784" lon="-72.51246398">
    <tag k="addr:city" v="Pomfret"/>
    <tag k="addr:housenumber" v="831"/>
    <tag k="addr:street" v="Allen Hill Road"/>
    <tag k="addr:state" v="VT"/>
    <tag k="ref:vcgi:esiteid" v="190729"/>
  </node>
  <node id="-621" visible="true" lat="43.71466598" lon="-72.43489012">
    <tag k="addr:city" v="Pomfret"/>
    <tag k="addr:housenumber" v="460"/>
    <tag k="addr:street" v="Handy Road"/>
    <tag k="addr:state" v="VT"/>
    <tag k="ref:vcgi:esiteid" v="190738"/>
  </node>
  <node id="-623" visible="true" lat="43.71064373" lon="-72.43500053">
    <tag k="addr:city" v="Pomfret"/>
    <tag k="addr:housenumber" v="337"/>
    <tag k="addr:street" v="Graves Road"/>
    <tag k="addr:state" v="VT"/>
    <tag k="ref:vcgi:esiteid" v="190741"/>
  </node>
  <node id="-627" visible="true" lat="43.7285925" lon="-72.50844802">
    <tag k="addr:city" v="Pomfret"/>
    <tag k="addr:housenumber" v="86"/>
    <tag k="addr:street" v="Herbie Hill"/>
    <tag k="addr:state" v="VT"/>
    <tag k="ref:vcgi:esiteid" v="190745"/>
  </node>
  <node id="-631" visible="true" lat="43.65962601" lon="-72.56777165">
    <tag k="addr:city" v="Pomfret"/>
    <tag k="addr:housenumber" v="80"/>
    <tag k="addr:street" v="Vermont Route 12"/>
    <tag k="addr:state" v="VT"/>
    <tag k="ref:vcgi:esiteid" v="190751"/>
  </node>
  <node id="-639" visible="true" lat="43.65777652" lon="-72.53655879">
    <tag k="addr:city" v="Pomfret"/>
    <tag k="addr:housenumber" v="540"/>
    <tag k="addr:street" v="Log Cabin Drive"/>
    <tag k="addr:state" v="VT"/>
    <tag k="ref:vcgi:esiteid" v="190759"/>
  </node>
  <node id="-642" visible="true" lat="43.70863895" lon="-72.44197966">
    <tag k="addr:city" v="Pomfret"/>
    <tag k="addr:housenumber" v="726"/>
    <tag k="addr:street" v="Graves Road"/>
    <tag k="addr:state" v="VT"/>
    <tag k="ref:vcgi:esiteid" v="306321"/>
  </node>
  <node id="-643" visible="true" lat="43.65558514" lon="-72.52340583">
    <tag k="addr:city" v="Pomfret"/>
    <tag k="addr:housenumber" v="119"/>
    <tag k="addr:street" v="School View Drive"/>
    <tag k="addr:state" v="VT"/>
    <tag k="ref:vcgi:esiteid" v="312281"/>
  </node>
  <node id="-649" visible="true" lat="43.66281913" lon="-72.55893016">
    <tag k="addr:city" v="Pomfret"/>
    <tag k="addr:housenumber" v="847"/>
    <tag k="addr:street" v="Austin Road"/>
    <tag k="addr:state" v="VT"/>
    <tag k="ref:vcgi:esiteid" v="325240"/>
  </node>
  <node id="-652" visible="true" lat="43.6562175" lon="-72.51099173">
    <tag k="addr:city" v="Pomfret"/>
    <tag k="addr:housenumber" v="3644"/>
    <tag k="addr:street" v="Cloudland Road"/>
    <tag k="addr:state" v="VT"/>
    <tag k="ref:vcgi:esiteid" v="328324"/>
  </node>
  <node id="-658" visible="true" lat="43.71819844" lon="-72.45216186">
    <tag k="addr:city" v="Pomfret"/>
    <tag k="addr:housenumber" v="478"/>
    <tag k="addr:street" v="Sugarhouse Road"/>
    <tag k="addr:state" v="VT"/>
    <tag k="ref:vcgi:esiteid" v="329455"/>
  </node>
  <node id="-672" visible="true" lat="43.71530298" lon="-72.5349959">
    <tag k="addr:city" v="Pomfret"/>
    <tag k="addr:housenumber" v="1436"/>
    <tag k="addr:street" v="Webster Hill Road"/>
    <tag k="addr:state" v="VT"/>
    <tag k="ref:vcgi:esiteid" v="344064"/>
  </node>
  <node id="-673" visible="true" lat="43.70030296" lon="-72.56191231">
    <tag k="addr:city" v="Pomfret"/>
    <tag k="addr:housenumber" v="1434"/>
    <tag k="addr:street" v="Wild Apple Road"/>
    <tag k="addr:state" v="VT"/>
    <tag k="ref:vcgi:esiteid" v="344065"/>
  </node>
  <node id="-674" visible="true" lat="43.69289395" lon="-72.53620441">
    <tag k="addr:city" v="Pomfret"/>
    <tag k="addr:housenumber" v="1096"/>
    <tag k="addr:street" v="Bartlett Brook Road"/>
    <tag k="addr:state" v="VT"/>
    <tag k="ref:vcgi:esiteid" v="344066"/>
  </node>
  <node id="-676" visible="true" lat="43.70974097" lon="-72.50660234">
    <tag k="addr:city" v="Pomfret"/>
    <tag k="addr:housenumber" v="1069"/>
    <tag k="addr:street" v="Galaxy Hill Road"/>
    <tag k="addr:state" v="VT"/>
    <tag k="ref:vcgi:esiteid" v="345268"/>
  </node>
  <node id="-680" visible="true" lat="43.69524912" lon="-72.47535896">
    <tag k="addr:city" v="Pomfret"/>
    <tag k="addr:housenumber" v="178"/>
    <tag k="addr:street" v="Joe Ranger Road"/>
    <tag k="addr:state" v="VT"/>
    <tag k="ref:vcgi:esiteid" v="450387"/>
  </node>
  <node id="-681" visible="true" lat="43.70544573" lon="-72.46281624">
    <tag k="addr:city" v="Pomfret"/>
    <tag k="addr:housenumber" v="178"/>
    <tag k="addr:street" v="Joe Ranger Road"/>
    <tag k="addr:state" v="VT"/>
    <tag k="ref:vcgi:esiteid" v="450389"/>
  </node>
  <node id="-686" visible="true" lat="43.66444476" lon="-72.53892772">
    <tag k="addr:city" v="Pomfret"/>
    <tag k="addr:housenumber" v="1995"/>
    <tag k="addr:street" v="Pomfret Road"/>
    <tag k="addr:state" v="VT"/>
    <tag k="ref:vcgi:esiteid" v="453818"/>
  </node>
  <node id="-687" visible="true" lat="43.67973122" lon="-72.53168604">
    <tag k="addr:city" v="Pomfret"/>
    <tag k="addr:housenumber" v="138"/>
    <tag k="addr:street" v="Bartlett Brook Road"/>
    <tag k="addr:state" v="VT"/>
    <tag k="ref:vcgi:esiteid" v="455701"/>
  </node>
  <node id="-689" visible="true" lat="43.68296484" lon="-72.56307796">
    <tag k="addr:city" v="Pomfret"/>
    <tag k="addr:housenumber" v="214"/>
    <tag k="addr:street" v="Wild Apple Road"/>
    <tag k="addr:state" v="VT"/>
    <tag k="ref:vcgi:esiteid" v="611907"/>
  </node>
  <node id="-693" visible="true" lat="43.73933628" lon="-72.53027761">
    <tag k="addr:city" v="Pomfret"/>
    <tag k="addr:housenumber" v="1429"/>
    <tag k="addr:street" v="Skyline Drive"/>
    <tag k="addr:state" v="VT"/>
    <tag k="ref:vcgi:esiteid" v="612962"/>
  </node>
  <node id="-696" visible="true" lat="43.74995414" lon="-72.51971374">
    <tag k="addr:city" v="Pomfret"/>
    <tag k="addr:housenumber" v="2626"/>
    <tag k="addr:street" v="Allen Hill Road"/>
    <tag k="addr:state" v="VT"/>
    <tag k="ref:vcgi:esiteid" v="617249"/>
  </node>
  <node id="-697" visible="true" lat="43.75136114" lon="-72.52029491">
    <tag k="addr:city" v="Pomfret"/>
    <tag k="addr:housenumber" v="2650"/>
    <tag k="addr:street" v="Allen Hill Road"/>
    <tag k="addr:state" v="VT"/>
    <tag k="ref:vcgi:esiteid" v="617250"/>
  </node>
  <node id="-698" visible="true" lat="43.64331565" lon="-72.48306097">
    <tag k="addr:city" v="Pomfret"/>
    <tag k="addr:housenumber" v="321"/>
    <tag k="addr:street" v="High Pastures Road"/>
    <tag k="addr:state" v="VT"/>
    <tag k="ref:vcgi:esiteid" v="617251"/>
  </node>
  <node id="-699" visible="true" lat="43.68538894" lon="-72.52439328">
    <tag k="addr:city" v="Pomfret"/>
    <tag k="addr:housenumber" v="3535"/>
    <tag k="addr:street" v="Pomfret Road"/>
    <tag k="addr:state" v="VT"/>
    <tag k="ref:vcgi:esiteid" v="617252"/>
  </node>
  <node id="-700" visible="true" lat="43.72407375" lon="-72.47523779">
    <tag k="addr:city" v="Pomfret"/>
    <tag k="addr:housenumber" v="8126"/>
    <tag k="addr:street" v="Pomfret Road"/>
    <tag k="addr:state" v="VT"/>
    <tag k="ref:vcgi:esiteid" v="617253"/>
  </node>
  <node id="-701" visible="true" lat="43.72556015" lon="-72.49809075">
    <tag k="addr:city" v="Pomfret"/>
    <tag k="addr:housenumber" v="189"/>
    <tag k="addr:street" v="Howe Hill Road"/>
    <tag k="addr:state" v="VT"/>
    <tag k="ref:vcgi:esiteid" v="617254"/>
  </node>
  <node id="-704" visible="true" lat="43.66051092" lon="-72.52688073">
    <tag k="addr:city" v="Pomfret"/>
    <tag k="addr:housenumber" v="387"/>
    <tag k="addr:street" v="Barber Hill Road"/>
    <tag k="addr:state" v="VT"/>
    <tag k="ref:vcgi:esiteid" v="618127"/>
  </node>
  <node id="-705" visible="true" lat="43.69215274" lon="-72.53672299">
    <tag k="addr:city" v="Pomfret"/>
    <tag k="addr:housenumber" v="1041"/>
    <tag k="addr:street" v="Bartlett Brook Road"/>
    <tag k="addr:state" v="VT"/>
    <tag k="ref:vcgi:esiteid" v="752755"/>
  </node>
  <node id="-706" visible="true" lat="43.73469734" lon="-72.48005401">
    <tag k="addr:city" v="Pomfret"/>
    <tag k="addr:housenumber" v="837"/>
    <tag k="addr:street" v="Caper Street"/>
    <tag k="addr:state" v="VT"/>
    <tag k="ref:vcgi:esiteid" v="752756"/>
  </node>
  <node id="-709" visible="true" lat="43.7119053" lon="-72.49021276">
    <tag k="addr:city" v="Pomfret"/>
    <tag k="addr:housenumber" v="737"/>
    <tag k="addr:street" v="Dana Road"/>
    <tag k="addr:state" v="VT"/>
    <tag k="ref:vcgi:esiteid" v="759389"/>
  </node>
  <node id="-710" visible="true" lat="43.65602334" lon="-72.52568293">
    <tag k="addr:city" v="Pomfret"/>
    <tag k="addr:housenumber" v="1170"/>
    <tag k="addr:street" v="Pomfret Road"/>
    <tag k="addr:state" v="VT"/>
    <tag k="ref:vcgi:esiteid" v="759391"/>
  </node>
  <node id="-711" visible="true" lat="43.67703443" lon="-72.52697486">
    <tag k="addr:city" v="Pomfret"/>
    <tag k="addr:housenumber" v="3290"/>
    <tag k="addr:street" v="Pomfret Road"/>
    <tag k="addr:state" v="VT"/>
    <tag k="ref:vcgi:esiteid" v="759392"/>
  </node>
  <node id="-712" visible="true" lat="43.69487741" lon="-72.52029737">
    <tag k="addr:city" v="Pomfret"/>
    <tag k="addr:housenumber" v="4353"/>
    <tag k="addr:street" v="Pomfret Road"/>
    <tag k="addr:state" v="VT"/>
    <tag k="ref:vcgi:esiteid" v="759393"/>
  </node>
  <node id="-713" visible="true" lat="43.70560184" lon="-72.52374005">
    <tag k="addr:city" v="Pomfret"/>
    <tag k="addr:housenumber" v="710"/>
    <tag k="addr:street" v="Labounty Road"/>
    <tag k="addr:state" v="VT"/>
    <tag k="ref:vcgi:esiteid" v="759496"/>
  </node>
  <node id="-714" visible="true" lat="43.66014289" lon="-72.47068089">
    <tag k="addr:city" v="Pomfret"/>
    <tag k="addr:housenumber" v="161"/>
    <tag k="addr:street" v="Sugarbush Farm Road"/>
    <tag k="addr:state" v="VT"/>
    <tag k="ref:vcgi:esiteid" v="760163"/>
  </node>
  <node id="-715" visible="true" lat="43.72324989" lon="-72.48178145">
    <tag k="addr:city" v="Pomfret"/>
    <tag k="addr:housenumber" v="255"/>
    <tag k="addr:street" v="Caper Street"/>
    <tag k="addr:state" v="VT"/>
    <tag k="ref:vcgi:esiteid" v="760164"/>
  </node>
  <node id="-716" visible="true" lat="43.71847803" lon="-72.46479333">
    <tag k="addr:city" v="Pomfret"/>
    <tag k="addr:housenumber" v="435"/>
    <tag k="addr:street" v="Starbuck Road"/>
    <tag k="addr:state" v="VT"/>
    <tag k="ref:vcgi:esiteid" v="760165"/>
  </node>
  <node id="-717" visible="true" lat="43.72302284" lon="-72.46289531">
    <tag k="addr:city" v="Pomfret"/>
    <tag k="addr:housenumber" v="85"/>
    <tag k="addr:street" v="Starbuck Road"/>
    <tag k="addr:state" v="VT"/>
    <tag k="ref:vcgi:esiteid" v="760166"/>
  </node>
  <node id="-718" visible="true" lat="43.72047462" lon="-72.44949114">
    <tag k="addr:city" v="Pomfret"/>
    <tag k="addr:housenumber" v="579"/>
    <tag k="addr:street" v="Sugarhouse Road"/>
    <tag k="addr:state" v="VT"/>
    <tag k="ref:vcgi:esiteid" v="760167"/>
  </node>
  <node id="-719" visible="true" lat="43.74918919" lon="-72.52549195">
    <tag k="addr:city" v="Pomfret"/>
    <tag k="addr:housenumber" v="2363"/>
    <tag k="addr:street" v="Allen Hill Road"/>
    <tag k="addr:state" v="VT"/>
    <tag k="ref:vcgi:esiteid" v="760168"/>
  </node>
  <node id="-720" visible="true" lat="43.70779721" lon="-72.48013548">
    <tag k="addr:city" v="Pomfret"/>
    <tag k="addr:housenumber" v="1416"/>
    <tag k="addr:street" v="Old Kings Highway"/>
    <tag k="addr:state" v="VT"/>
    <tag k="ref:vcgi:esiteid" v="760169"/>
  </node>
  <node id="-724" visible="true" lat="43.72721608" lon="-72.50759467">
    <tag k="addr:city" v="Pomfret"/>
    <tag k="addr:housenumber" v="256"/>
    <tag k="addr:street" v="Herbie Hill"/>
    <tag k="addr:state" v="VT"/>
    <tag k="ref:vcgi:esiteid" v="760173"/>
  </node>
  <node id="-725" visible="true" lat="43.66856679" lon="-72.53400402">
    <tag k="addr:city" v="Pomfret"/>
    <tag k="addr:housenumber" v="2566"/>
    <tag k="addr:street" v="Pomfret Road"/>
    <tag k="addr:state" v="VT"/>
    <tag k="ref:vcgi:esiteid" v="760174"/>
  </node>
  <node id="-726" visible="true" lat="43.73710383" lon="-72.49859049">
    <tag k="addr:city" v="Pomfret"/>
    <tag k="addr:housenumber" v="1089"/>
    <tag k="addr:street" v="Howe Hill Road"/>
    <tag k="addr:state" v="VT"/>
    <tag k="ref:vcgi:esiteid" v="760175"/>
  </node>
  <node id="-727" visible="true" lat="43.72712852" lon="-72.47928785">
    <tag k="addr:city" v="Pomfret"/>
    <tag k="addr:housenumber" v="330"/>
    <tag k="addr:street" v="Caper Street"/>
    <tag k="addr:state" v="VT"/>
    <tag k="ref:vcgi:esiteid" v="760176"/>
  </node>
  <node id="-728" visible="true" lat="43.72692583" lon="-72.50574496">
    <tag k="addr:city" v="Pomfret"/>
    <tag k="addr:housenumber" v="370"/>
    <tag k="addr:street" v="Herbie Hill"/>
    <tag k="addr:state" v="VT"/>
    <tag k="ref:vcgi:esiteid" v="760474"/>
  </node>
  <node id="-729" visible="true" lat="43.67052991" lon="-72.5520318">
    <tag k="addr:city" v="Pomfret"/>
    <tag k="addr:housenumber" v="831"/>
    <tag k="addr:street" v="Stage Road"/>
    <tag k="addr:state" v="VT"/>
    <tag k="ref:vcgi:esiteid" v="761470"/>
  </node>
  <node id="-730" visible="true" lat="43.73051619" lon="-72.52845322">
    <tag k="addr:city" v="Pomfret"/>
    <tag k="addr:housenumber" v="151"/>
    <tag k="addr:street" v="Twin Pond Road"/>
    <tag k="addr:state" v="VT"/>
    <tag k="ref:vcgi:esiteid" v="762954"/>
  </node>
  <node id="-731" visible="true" lat="43.74609534" lon="-72.53997839">
    <tag k="addr:city" v="Pomfret"/>
    <tag k="addr:housenumber" v="4156"/>
    <tag k="addr:street" v="Allen Hill Road"/>
    <tag k="addr:state" v="VT"/>
    <tag k="ref:vcgi:esiteid" v="763960"/>
  </node>
  <node id="-732" visible="true" lat="43.66006384" lon="-72.57269788">
    <tag k="addr:city" v="Pomfret"/>
    <tag k="addr:housenumber" v="75"/>
    <tag k="addr:street" v="Wayside Road"/>
    <tag k="addr:state" v="VT"/>
    <tag k="ref:vcgi:esiteid" v="763961"/>
  </node>
  <node id="-733" visible="true" lat="43.69564492" lon="-72.52972983">
    <tag k="addr:city" v="Pomfret"/>
    <tag k="addr:housenumber" v="526"/>
    <tag k="addr:street" v="Tom White Hill"/>
    <tag k="addr:state" v="VT"/>
    <tag k="ref:vcgi:esiteid" v="764872"/>
  </node>
  <node id="-734" visible="true" lat="43.69578795" lon="-72.52917193">
    <tag k="addr:city" v="Pomfret"/>
    <tag k="addr:housenumber" v="528"/>
    <tag k="addr:street" v="Tom White Hill"/>
    <tag k="addr:state" v="VT"/>
    <tag k="ref:vcgi:esiteid" v="764873"/>
  </node>
  <node id="-735" visible="true" lat="43.71940514" lon="-72.46481111">
    <tag k="addr:city" v="Pomfret"/>
    <tag k="addr:housenumber" v="321"/>
    <tag k="addr:street" v="Starbuck Road"/>
    <tag k="addr:state" v="VT"/>
    <tag k="ref:vcgi:esiteid" v="764874"/>
  </node>
  <node id="-736" visible="true" lat="43.70423809" lon="-72.51275401">
    <tag k="addr:city" v="Pomfret"/>
    <tag k="addr:housenumber" v="397"/>
    <tag k="addr:street" v="Galaxy Hill Road"/>
    <tag k="addr:state" v="VT"/>
    <tag k="ref:vcgi:esiteid" v="764875"/>
  </node>
  <node id="-737" visible="true" lat="43.75325441" lon="-72.5178495">
    <tag k="addr:city" v="Pomfret"/>
    <tag k="addr:housenumber" v="93"/>
    <tag k="addr:street" v="Leonard Road"/>
    <tag k="addr:state" v="VT"/>
    <tag k="ref:vcgi:esiteid" v="764876"/>
  </node>
  <node id="-738" visible="true" lat="43.75337934" lon="-72.51841626">
    <tag k="addr:city" v="Pomfret"/>
    <tag k="addr:housenumber" v="57"/>
    <tag k="addr:street" v="Leonard Road"/>
    <tag k="addr:state" v="VT"/>
    <tag k="ref:vcgi:esiteid" v="764877"/>
  </node>
  <node id="-739" visible="true" lat="43.70360124" lon="-72.5091361">
    <tag k="addr:city" v="Pomfret"/>
    <tag k="addr:housenumber" v="550"/>
    <tag k="addr:street" v="Galaxy Hill Road"/>
    <tag k="addr:state" v="VT"/>
    <tag k="ref:vcgi:esiteid" v="764902"/>
  </node>
  <node id="-740" visible="true" lat="43.67981424" lon="-72.56350836">
    <tag k="addr:city" v="Pomfret"/>
    <tag k="addr:housenumber" v="1660"/>
    <tag k="addr:street" v="Stage Road"/>
    <tag k="addr:state" v="VT"/>
    <tag k="ref:vcgi:esiteid" v="765462"/>
  </node>
  <node id="-743" visible="true" lat="43.66541752" lon="-72.54282636">
    <tag k="addr:city" v="Pomfret"/>
    <tag k="addr:housenumber" v="249"/>
    <tag k="addr:street" v="Stage Road"/>
    <tag k="addr:state" v="VT"/>
    <tag k="ref:vcgi:esiteid" v="1050579"/>
  </node>
  <node id="-744" visible="true" lat="43.723" lon="-72.50233">
    <tag k="addr:city" v="Pomfret"/>
    <tag k="addr:housenumber" v="63"/>
    <tag k="addr:street" v="Hewitt Hill Road"/>
    <tag k="addr:state" v="VT"/>
    <tag k="ref:vcgi:esiteid" v="1050586"/>
  </node>
  <node id="-746" visible="true" lat="43.72126787" lon="-72.42810263">
    <tag k="addr:city" v="Pomfret"/>
    <tag k="addr:housenumber" v="10937"/>
    <tag k="addr:street" v="Pomfret Road"/>
    <tag k="addr:state" v="VT"/>
    <tag k="ref:vcgi:esiteid" v="1051029"/>
  </node>
</osm>
