<?xml version="1.0" encoding="UTF-8"?>
<osm version="0.6" generator="JOSM">
  <node id="-110" visible="true" lat="43.75243601" lon="-72.51767267">
    <!-- conflict: "68 Leonard Road, , VT" No match in OSM, but a different address exists <5m away: "114 Leonard Road, Pomfret, VT" -->
    <tag k="addr:housenumber" v="68"/>
    <tag k="addr:street" v="Leonard Road"/>
    <tag k="addr:state" v="VT"/>
    <tag k="ref:vcgi:esiteid" v="190216"/>
  </node>
  <node id="-161" visible="true" lat="43.73086448" lon="-72.48085505">
    <!-- conflict: "668 Caper Street, , VT" No match in OSM, but a different address exists <5m away: "666 Caper Street, Pomfret, VT" -->
    <tag k="addr:housenumber" v="668"/>
    <tag k="addr:street" v="Caper Street"/>
    <tag k="addr:state" v="VT"/>
    <tag k="ref:vcgi:esiteid" v="190267"/>
  </node>
  <node id="-387" visible="true" lat="43.6983205" lon="-72.53152759">
    <!-- conflict: "530 Tom White Hill, , VT" No match in OSM, but a different address exists <5m away: "765 Tom White Hill, Pomfret, VT" -->
    <tag k="addr:housenumber" v="530"/>
    <tag k="addr:street" v="Tom White Hill"/>
    <tag k="addr:state" v="VT"/>
    <tag k="ref:vcgi:esiteid" v="190499"/>
  </node>
  <node id="-405" visible="true" lat="43.69223171" lon="-72.53087311">
    <!-- conflict: "740 Tom White Hill, , VT" No match in OSM, but a different address exists <5m away: "535 Tom White Hill, Pomfret, VT" -->
    <tag k="addr:housenumber" v="740"/>
    <tag k="addr:street" v="Tom White Hill"/>
    <tag k="addr:state" v="VT"/>
    <tag k="ref:vcgi:esiteid" v="190518"/>
  </node>
  <node id="-457" visible="true" lat="43.67803955" lon="-72.49401855">
    <!-- conflict: "1128 Sessions Meadows, , VT" Fuzzy match to "1128 Sessions Meadow, Pomfret, VT" -->
    <tag k="addr:housenumber" v="1128"/>
    <tag k="addr:street" v="Sessions Meadows"/>
    <tag k="addr:state" v="VT"/>
    <tag k="ref:vcgi:esiteid" v="190570"/>
  </node>
  <node id="-459" visible="true" lat="43.67742156" lon="-72.4936676">
    <!-- conflict: "1092 Sessions Meadows, , VT" Fuzzy match to "1092 Sessions Meadow, Pomfret, VT" -->
    <tag k="addr:housenumber" v="1092"/>
    <tag k="addr:street" v="Sessions Meadows"/>
    <tag k="addr:state" v="VT"/>
    <tag k="ref:vcgi:esiteid" v="190572"/>
  </node>
  <node id="-463" visible="true" lat="43.67641907" lon="-72.49380032">
    <!-- conflict: "1016 Sessions Meadows, , VT" Fuzzy match to "1016 Sessions Meadow, Pomfret, VT" -->
    <tag k="addr:housenumber" v="1016"/>
    <tag k="addr:street" v="Sessions Meadows"/>
    <tag k="addr:state" v="VT"/>
    <tag k="ref:vcgi:esiteid" v="190576"/>
  </node>
  <node id="-466" visible="true" lat="43.67597621" lon="-72.49328703">
    <!-- conflict: "932 Sessions Meadows, , VT" Fuzzy match to "932 Sessions Meadow, Pomfret, VT" -->
    <tag k="addr:housenumber" v="932"/>
    <tag k="addr:street" v="Sessions Meadows"/>
    <tag k="addr:state" v="VT"/>
    <tag k="ref:vcgi:esiteid" v="190579"/>
  </node>
  <node id="-467" visible="true" lat="43.6757284" lon="-72.49434315">
    <!-- conflict: "957 Sessions Meadows, , VT" Fuzzy match to "957 Sessions Meadow, Pomfret, VT" -->
    <tag k="addr:housenumber" v="957"/>
    <tag k="addr:street" v="Sessions Meadows"/>
    <tag k="addr:state" v="VT"/>
    <tag k="ref:vcgi:esiteid" v="190580"/>
  </node>
  <node id="-475" visible="true" lat="43.67296546" lon="-72.49036179">
    <!-- conflict: "740 Sessions Meadows, , VT" Fuzzy match to "740 Sessions Meadow, Pomfret, VT" -->
    <tag k="addr:housenumber" v="740"/>
    <tag k="addr:street" v="Sessions Meadows"/>
    <tag k="addr:state" v="VT"/>
    <tag k="ref:vcgi:esiteid" v="190588"/>
  </node>
  <node id="-478" visible="true" lat="43.67007446" lon="-72.51242065">
    <!-- conflict: "225 Orchard Hill, , VT" Fuzzy match to "225 Orchard Hollow, Pomfret, VT" -->
    <tag k="addr:housenumber" v="225"/>
    <tag k="addr:street" v="Orchard Hill"/>
    <tag k="addr:state" v="VT"/>
    <tag k="ref:vcgi:esiteid" v="190591"/>
  </node>
  <node id="-483" visible="true" lat="43.66900052" lon="-72.48805233">
    <!-- conflict: "426 Sessions Meadows, , VT" Fuzzy match to "426 Sessions Meadow, Pomfret, VT" -->
    <tag k="addr:housenumber" v="426"/>
    <tag k="addr:street" v="Sessions Meadows"/>
    <tag k="addr:state" v="VT"/>
    <tag k="ref:vcgi:esiteid" v="190597"/>
  </node>
  <node id="-498" visible="true" lat="43.66730344" lon="-72.51580965">
    <!-- conflict: "99 Orchard Hill, , VT" Fuzzy match to "99 Orchard Hollow, Pomfret, VT" -->
    <tag k="addr:housenumber" v="99"/>
    <tag k="addr:street" v="Orchard Hill"/>
    <tag k="addr:state" v="VT"/>
    <tag k="ref:vcgi:esiteid" v="190612"/>
  </node>
  <node id="-503" visible="true" lat="43.66674409" lon="-72.51309156">
    <!-- conflict: "334 Orchard Hill, , VT" Fuzzy match to "334 Orchard Hollow, Pomfret, VT" -->
    <tag k="addr:housenumber" v="334"/>
    <tag k="addr:street" v="Orchard Hill"/>
    <tag k="addr:state" v="VT"/>
    <tag k="ref:vcgi:esiteid" v="190617"/>
  </node>
  <node id="-505" visible="true" lat="43.6659217" lon="-72.48817976">
    <!-- conflict: "199 Sessions Meadows, , VT" Fuzzy match to "199 Sessions Meadow, Pomfret, VT" -->
    <tag k="addr:housenumber" v="199"/>
    <tag k="addr:street" v="Sessions Meadows"/>
    <tag k="addr:state" v="VT"/>
    <tag k="ref:vcgi:esiteid" v="190619"/>
  </node>
  <node id="-508" visible="true" lat="43.66459568" lon="-72.48609302">
    <!-- conflict: "187 Sessions Meadows, , VT" Fuzzy match to "187 Sessions Meadow, Pomfret, VT" -->
    <tag k="addr:housenumber" v="187"/>
    <tag k="addr:street" v="Sessions Meadows"/>
    <tag k="addr:state" v="VT"/>
    <tag k="ref:vcgi:esiteid" v="190622"/>
  </node>
  <node id="-509" visible="true" lat="43.66548898" lon="-72.51641506">
    <!-- conflict: "22 Orchard Hill, , VT" Fuzzy match to "22 Orchard Hollow, Pomfret, VT" -->
    <tag k="addr:housenumber" v="22"/>
    <tag k="addr:street" v="Orchard Hill"/>
    <tag k="addr:state" v="VT"/>
    <tag k="ref:vcgi:esiteid" v="190623"/>
  </node>
  <node id="-618" visible="true" lat="43.66551681" lon="-72.53799595">
    <!-- conflict: "2026 Pomfret Road, , VT" No match in OSM, but a different address exists <5m away: " Pomfret Road, South Pomfret, " -->
    <tag k="addr:housenumber" v="2026"/>
    <tag k="addr:street" v="Pomfret Road"/>
    <tag k="addr:state" v="VT"/>
    <tag k="ref:vcgi:esiteid" v="190742"/>
  </node>
  <node id="-676" visible="true" lat="43.6772961" lon="-72.49737481">
    <!-- conflict: "1323 Sessions Meadows, , VT" Fuzzy match to "1323 Sessions Meadow, Pomfret, VT" -->
    <tag k="addr:housenumber" v="1323"/>
    <tag k="addr:street" v="Sessions Meadows"/>
    <tag k="addr:state" v="VT"/>
    <tag k="ref:vcgi:esiteid" v="452220"/>
  </node>
  <node id="-677" visible="true" lat="43.66608137" lon="-72.53893331">
    <!-- conflict: "2097 Pomfret Road, , VT" No match in OSM, but a different address exists <5m away: " Pomfret Road, South Pomfret, " -->
    <tag k="addr:housenumber" v="2097"/>
    <tag k="addr:street" v="Pomfret Road"/>
    <tag k="addr:state" v="VT"/>
    <tag k="ref:vcgi:esiteid" v="452221"/>
  </node>
</osm>
