<?xml version="1.0" encoding="UTF-8"?>
<osm version="0.6" generator="JOSM">
  <node id="-231" visible="true" lat="43.56168128" lon="-73.22532877">
    <tag k="addr:city" v="Poultney"/>
    <tag k="addr:housenumber" v="65"/>
    <tag k="addr:street" v="Saltis Road"/>
    <tag k="addr:state" v="VT"/>
    <tag k="ref:vcgi:esiteid" v="190889"/>
  </node>
  <node id="-233" visible="true" lat="43.56133605" lon="-73.22426732">
    <tag k="addr:city" v="Poultney"/>
    <tag k="addr:housenumber" v="18"/>
    <tag k="addr:street" v="Ward Road"/>
    <tag k="addr:state" v="VT"/>
    <tag k="ref:vcgi:esiteid" v="190891"/>
  </node>
  <node id="-235" visible="true" lat="43.56117386" lon="-73.22563539">
    <tag k="addr:city" v="Poultney"/>
    <tag k="addr:housenumber" v="67"/>
    <tag k="addr:street" v="Saltis Road"/>
    <tag k="addr:state" v="VT"/>
    <tag k="ref:vcgi:esiteid" v="190893"/>
  </node>
  <node id="-301" visible="true" lat="43.55013656" lon="-73.23319244">
    <tag k="addr:city" v="Poultney"/>
    <tag k="addr:housenumber" v="318"/>
    <tag k="addr:street" v="Farnam Road"/>
    <tag k="addr:state" v="VT"/>
    <tag k="ref:vcgi:esiteid" v="190959"/>
  </node>
  <node id="-303" visible="true" lat="43.54998016" lon="-73.22763061">
    <tag k="addr:city" v="Poultney"/>
    <tag k="addr:housenumber" v="48"/>
    <tag k="addr:street" v="Farnam Road"/>
    <tag k="addr:state" v="VT"/>
    <tag k="ref:vcgi:esiteid" v="190961"/>
  </node>
  <node id="-306" visible="true" lat="43.54980608" lon="-73.22641385">
    <tag k="addr:city" v="Poultney"/>
    <tag k="addr:housenumber" v="9"/>
    <tag k="addr:street" v="Hannon Road"/>
    <tag k="addr:state" v="VT"/>
    <tag k="ref:vcgi:esiteid" v="190964"/>
  </node>
  <node id="-312" visible="true" lat="43.54910278" lon="-73.22269439">
    <tag k="addr:city" v="Poultney"/>
    <tag k="addr:housenumber" v="238"/>
    <tag k="addr:street" v="Hannon Road"/>
    <tag k="addr:state" v="VT"/>
    <tag k="ref:vcgi:esiteid" v="190970"/>
  </node>
  <node id="-371" visible="true" lat="43.53627395" lon="-73.20518493">
    <tag k="addr:city" v="Poultney"/>
    <tag k="addr:housenumber" v="611"/>
    <tag k="addr:street" v="Hillside Road"/>
    <tag k="addr:state" v="VT"/>
    <tag k="ref:vcgi:esiteid" v="191029"/>
  </node>
  <node id="-389" visible="true" lat="43.53161239" lon="-73.22771453">
    <tag k="addr:city" v="Poultney"/>
    <tag k="addr:housenumber" v="60"/>
    <tag k="addr:street" v="Kerber Lane"/>
    <tag k="addr:state" v="VT"/>
    <tag k="ref:vcgi:esiteid" v="191047"/>
  </node>
  <node id="-408" visible="true" lat="43.52865574" lon="-73.22896826">
    <tag k="addr:city" v="Poultney"/>
    <tag k="addr:housenumber" v="779"/>
    <tag k="addr:street" v="Windywood Acres Road"/>
    <tag k="addr:state" v="VT"/>
    <tag k="ref:vcgi:esiteid" v="191066"/>
  </node>
  <node id="-454" visible="true" lat="43.52645366" lon="-73.24130188">
    <tag k="addr:city" v="Poultney"/>
    <tag k="addr:housenumber" v="50"/>
    <tag k="addr:street" v="Poultney Avenue"/>
    <tag k="addr:state" v="VT"/>
    <tag k="ref:vcgi:esiteid" v="191112"/>
  </node>
  <node id="-462" visible="true" lat="43.52665902" lon="-73.24315466">
    <tag k="addr:city" v="Poultney"/>
    <tag k="addr:housenumber" v="40"/>
    <tag k="addr:street" v="Boyce Avenue"/>
    <tag k="addr:state" v="VT"/>
    <tag k="ref:vcgi:esiteid" v="191121"/>
  </node>
  <node id="-464" visible="true" lat="43.52620846" lon="-73.24174626">
    <tag k="addr:city" v="Poultney"/>
    <tag k="addr:housenumber" v="32"/>
    <tag k="addr:street" v="Poultney Avenue"/>
    <tag k="addr:state" v="VT"/>
    <tag k="ref:vcgi:esiteid" v="191123"/>
  </node>
  <node id="-469" visible="true" lat="43.52621078" lon="-73.24266815">
    <tag k="addr:city" v="Poultney"/>
    <tag k="addr:housenumber" v="14"/>
    <tag k="addr:street" v="Boyce Avenue"/>
    <tag k="addr:state" v="VT"/>
    <tag k="ref:vcgi:esiteid" v="191129"/>
  </node>
  <node id="-471" visible="true" lat="43.52605566" lon="-73.24313728">
    <tag k="addr:city" v="Poultney"/>
    <tag k="addr:housenumber" v="21"/>
    <tag k="addr:street" v="Boyce Avenue"/>
    <tag k="addr:state" v="VT"/>
    <tag k="ref:vcgi:esiteid" v="191131"/>
  </node>
  <node id="-476" visible="true" lat="43.52597311" lon="-73.24192439">
    <tag k="addr:city" v="Poultney"/>
    <tag k="addr:housenumber" v="8"/>
    <tag k="addr:street" v="Poultney Avenue"/>
    <tag k="addr:state" v="VT"/>
    <tag k="ref:vcgi:esiteid" v="191136"/>
  </node>
  <node id="-523" visible="true" lat="43.52463781" lon="-73.2439779">
    <tag k="addr:city" v="Poultney"/>
    <tag k="addr:housenumber" v="670"/>
    <tag k="addr:street" v="York Street"/>
    <tag k="addr:state" v="VT"/>
    <tag k="ref:vcgi:esiteid" v="191183"/>
  </node>
  <node id="-528" visible="true" lat="43.52467434" lon="-73.24173126">
    <tag k="addr:city" v="Poultney"/>
    <tag k="addr:housenumber" v="256"/>
    <tag k="addr:street" v="Norton Avenue"/>
    <tag k="addr:state" v="VT"/>
    <tag k="ref:vcgi:esiteid" v="191188"/>
  </node>
  <node id="-529" visible="true" lat="43.5246433" lon="-73.24272603">
    <tag k="addr:city" v="Poultney"/>
    <tag k="addr:housenumber" v="624"/>
    <tag k="addr:street" v="York Street"/>
    <tag k="addr:state" v="VT"/>
    <tag k="ref:vcgi:esiteid" v="191189"/>
  </node>
  <node id="-530" visible="true" lat="43.52457588" lon="-73.23767404">
    <tag k="addr:city" v="Poultney"/>
    <tag k="addr:housenumber" v="96"/>
    <tag k="addr:street" v="School Circle"/>
    <tag k="addr:state" v="VT"/>
    <tag k="ref:vcgi:esiteid" v="191190"/>
  </node>
  <node id="-537" visible="true" lat="43.52445983" lon="-73.24378204">
    <tag k="addr:city" v="Poultney"/>
    <tag k="addr:housenumber" v="652"/>
    <tag k="addr:street" v="York Street"/>
    <tag k="addr:state" v="VT"/>
    <tag k="ref:vcgi:esiteid" v="191197"/>
  </node>
  <node id="-539" visible="true" lat="43.52449571" lon="-73.24145635">
    <tag k="addr:city" v="Poultney"/>
    <tag k="addr:housenumber" v="236"/>
    <tag k="addr:street" v="Norton Avenue"/>
    <tag k="addr:state" v="VT"/>
    <tag k="ref:vcgi:esiteid" v="191200"/>
  </node>
  <node id="-540" visible="true" lat="43.52442115" lon="-73.24209548">
    <tag k="addr:city" v="Poultney"/>
    <tag k="addr:housenumber" v="255"/>
    <tag k="addr:street" v="Norton Avenue"/>
    <tag k="addr:state" v="VT"/>
    <tag k="ref:vcgi:esiteid" v="191201"/>
  </node>
  <node id="-545" visible="true" lat="43.52432405" lon="-73.24118932">
    <tag k="addr:city" v="Poultney"/>
    <tag k="addr:housenumber" v="220"/>
    <tag k="addr:street" v="Norton Avenue"/>
    <tag k="addr:state" v="VT"/>
    <tag k="ref:vcgi:esiteid" v="191206"/>
  </node>
  <node id="-548" visible="true" lat="43.52421569" lon="-73.24179077">
    <tag k="addr:city" v="Poultney"/>
    <tag k="addr:housenumber" v="237"/>
    <tag k="addr:street" v="Norton Avenue"/>
    <tag k="addr:state" v="VT"/>
    <tag k="ref:vcgi:esiteid" v="191209"/>
  </node>
  <node id="-554" visible="true" lat="43.5241127" lon="-73.24388885">
    <tag k="addr:city" v="Poultney"/>
    <tag k="addr:housenumber" v="635"/>
    <tag k="addr:street" v="York Street"/>
    <tag k="addr:state" v="VT"/>
    <tag k="ref:vcgi:esiteid" v="191215"/>
  </node>
  <node id="-556" visible="true" lat="43.52417894" lon="-73.24092293">
    <tag k="addr:city" v="Poultney"/>
    <tag k="addr:housenumber" v="202"/>
    <tag k="addr:street" v="Norton Avenue"/>
    <tag k="addr:state" v="VT"/>
    <tag k="ref:vcgi:esiteid" v="191217"/>
  </node>
  <node id="-557" visible="true" lat="43.52401733" lon="-73.24150085">
    <tag k="addr:city" v="Poultney"/>
    <tag k="addr:housenumber" v="217"/>
    <tag k="addr:street" v="Norton Avenue"/>
    <tag k="addr:state" v="VT"/>
    <tag k="ref:vcgi:esiteid" v="191218"/>
  </node>
  <node id="-560" visible="true" lat="43.52401392" lon="-73.24297181">
    <tag k="addr:city" v="Poultney"/>
    <tag k="addr:housenumber" v="604"/>
    <tag k="addr:street" v="York Street"/>
    <tag k="addr:state" v="VT"/>
    <tag k="ref:vcgi:esiteid" v="191221"/>
  </node>
  <node id="-564" visible="true" lat="43.52384948" lon="-73.2428894">
    <tag k="addr:city" v="Poultney"/>
    <tag k="addr:housenumber" v="586"/>
    <tag k="addr:street" v="York Street"/>
    <tag k="addr:state" v="VT"/>
    <tag k="ref:vcgi:esiteid" v="191225"/>
  </node>
  <node id="-565" visible="true" lat="43.52379539" lon="-73.23791668">
    <tag k="addr:city" v="Poultney"/>
    <tag k="addr:housenumber" v="54"/>
    <tag k="addr:street" v="School Circle"/>
    <tag k="addr:state" v="VT"/>
    <tag k="ref:vcgi:esiteid" v="191226"/>
  </node>
  <node id="-573" visible="true" lat="43.52378845" lon="-73.23950958">
    <tag k="addr:city" v="Poultney"/>
    <tag k="addr:housenumber" v="289"/>
    <tag k="addr:street" v="Wilson Avenue"/>
    <tag k="addr:state" v="VT"/>
    <tag k="ref:vcgi:esiteid" v="191235"/>
  </node>
  <node id="-575" visible="true" lat="43.52380363" lon="-73.23849414">
    <tag k="addr:city" v="Poultney"/>
    <tag k="addr:housenumber" v="222"/>
    <tag k="addr:street" v="Allen Avenue"/>
    <tag k="addr:state" v="VT"/>
    <tag k="ref:vcgi:esiteid" v="191237"/>
  </node>
  <node id="-576" visible="true" lat="43.52370834" lon="-73.23910522">
    <tag k="addr:city" v="Poultney"/>
    <tag k="addr:housenumber" v="243"/>
    <tag k="addr:street" v="Allen Avenue"/>
    <tag k="addr:state" v="VT"/>
    <tag k="ref:vcgi:esiteid" v="191238"/>
  </node>
  <node id="-581" visible="true" lat="43.5236473" lon="-73.2403717">
    <tag k="addr:city" v="Poultney"/>
    <tag k="addr:housenumber" v="154"/>
    <tag k="addr:street" v="Norton Avenue"/>
    <tag k="addr:state" v="VT"/>
    <tag k="ref:vcgi:esiteid" v="191243"/>
  </node>
  <node id="-583" visible="true" lat="43.5236424" lon="-73.23825497">
    <tag k="addr:city" v="Poultney"/>
    <tag k="addr:housenumber" v="208"/>
    <tag k="addr:street" v="Allen Avenue"/>
    <tag k="addr:state" v="VT"/>
    <tag k="ref:vcgi:esiteid" v="191245"/>
  </node>
  <node id="-584" visible="true" lat="43.52360916" lon="-73.23899078">
    <tag k="addr:city" v="Poultney"/>
    <tag k="addr:housenumber" v="233"/>
    <tag k="addr:street" v="Allen Avenue"/>
    <tag k="addr:state" v="VT"/>
    <tag k="ref:vcgi:esiteid" v="191246"/>
  </node>
  <node id="-586" visible="true" lat="43.52343516" lon="-73.23878126">
    <tag k="addr:city" v="Poultney"/>
    <tag k="addr:housenumber" v="219"/>
    <tag k="addr:street" v="Allen Avenue"/>
    <tag k="addr:state" v="VT"/>
    <tag k="ref:vcgi:esiteid" v="191248"/>
  </node>
  <node id="-590" visible="true" lat="43.52348327" lon="-73.23993682">
    <tag k="addr:city" v="Poultney"/>
    <tag k="addr:housenumber" v="134"/>
    <tag k="addr:street" v="Norton Avenue"/>
    <tag k="addr:state" v="VT"/>
    <tag k="ref:vcgi:esiteid" v="191252"/>
  </node>
  <node id="-591" visible="true" lat="43.52340786" lon="-73.23860048">
    <tag k="addr:city" v="Poultney"/>
    <tag k="addr:housenumber" v="207"/>
    <tag k="addr:street" v="Allen Avenue"/>
    <tag k="addr:state" v="VT"/>
    <tag k="ref:vcgi:esiteid" v="191253"/>
  </node>
  <node id="-592" visible="true" lat="43.52342605" lon="-73.24075317">
    <tag k="addr:city" v="Poultney"/>
    <tag k="addr:housenumber" v="342"/>
    <tag k="addr:street" v="Wilson Avenue"/>
    <tag k="addr:state" v="VT"/>
    <tag k="ref:vcgi:esiteid" v="191254"/>
  </node>
  <node id="-594" visible="true" lat="43.52334853" lon="-73.23979852">
    <tag k="addr:city" v="Poultney"/>
    <tag k="addr:housenumber" v="122"/>
    <tag k="addr:street" v="Norton Avenue"/>
    <tag k="addr:state" v="VT"/>
    <tag k="ref:vcgi:esiteid" v="191257"/>
  </node>
  <node id="-597" visible="true" lat="43.52326123" lon="-73.23837817">
    <tag k="addr:city" v="Poultney"/>
    <tag k="addr:housenumber" v="195"/>
    <tag k="addr:street" v="Allen Avenue"/>
    <tag k="addr:state" v="VT"/>
    <tag k="ref:vcgi:esiteid" v="191261"/>
  </node>
  <node id="-599" visible="true" lat="43.52340521" lon="-73.23777424">
    <tag k="addr:city" v="Poultney"/>
    <tag k="addr:housenumber" v="180"/>
    <tag k="addr:street" v="Allen Avenue"/>
    <tag k="addr:state" v="VT"/>
    <tag k="ref:vcgi:esiteid" v="191263"/>
  </node>
  <node id="-601" visible="true" lat="43.52326277" lon="-73.24085482">
    <tag k="addr:city" v="Poultney"/>
    <tag k="addr:housenumber" v="350"/>
    <tag k="addr:street" v="Wilson Avenue"/>
    <tag k="addr:state" v="VT"/>
    <tag k="ref:vcgi:esiteid" v="191265"/>
  </node>
  <node id="-602" visible="true" lat="43.52323938" lon="-73.23962913">
    <tag k="addr:city" v="Poultney"/>
    <tag k="addr:housenumber" v="112"/>
    <tag k="addr:street" v="Norton Avenue"/>
    <tag k="addr:state" v="VT"/>
    <tag k="ref:vcgi:esiteid" v="191266"/>
  </node>
  <node id="-607" visible="true" lat="43.5231402" lon="-73.23948417">
    <tag k="addr:city" v="Poultney"/>
    <tag k="addr:housenumber" v="102"/>
    <tag k="addr:street" v="Norton Avenue"/>
    <tag k="addr:state" v="VT"/>
    <tag k="ref:vcgi:esiteid" v="191272"/>
  </node>
  <node id="-608" visible="true" lat="43.52298091" lon="-73.24001828">
    <tag k="addr:city" v="Poultney"/>
    <tag k="addr:housenumber" v="113"/>
    <tag k="addr:street" v="Norton Avenue"/>
    <tag k="addr:state" v="VT"/>
    <tag k="ref:vcgi:esiteid" v="191273"/>
  </node>
  <node id="-609" visible="true" lat="43.52295006" lon="-73.23798689">
    <tag k="addr:city" v="Poultney"/>
    <tag k="addr:housenumber" v="165"/>
    <tag k="addr:street" v="Allen Avenue"/>
    <tag k="addr:state" v="VT"/>
    <tag k="ref:vcgi:esiteid" v="191274"/>
  </node>
  <node id="-610" visible="true" lat="43.52304865" lon="-73.23936973">
    <tag k="addr:city" v="Poultney"/>
    <tag k="addr:housenumber" v="92"/>
    <tag k="addr:street" v="Norton Avenue"/>
    <tag k="addr:state" v="VT"/>
    <tag k="ref:vcgi:esiteid" v="191275"/>
  </node>
  <node id="-612" visible="true" lat="43.52297592" lon="-73.24145507">
    <tag k="addr:city" v="Poultney"/>
    <tag k="addr:housenumber" v="500"/>
    <tag k="addr:street" v="York Street"/>
    <tag k="addr:state" v="VT"/>
    <tag k="ref:vcgi:esiteid" v="191277"/>
  </node>
  <node id="-613" visible="true" lat="43.52296066" lon="-73.24230956">
    <tag k="addr:city" v="Poultney"/>
    <tag k="addr:housenumber" v="531"/>
    <tag k="addr:street" v="York Street"/>
    <tag k="addr:state" v="VT"/>
    <tag k="ref:vcgi:esiteid" v="191278"/>
  </node>
  <node id="-616" visible="true" lat="43.52294148" lon="-73.23920211">
    <tag k="addr:city" v="Poultney"/>
    <tag k="addr:housenumber" v="82"/>
    <tag k="addr:street" v="Norton Avenue"/>
    <tag k="addr:state" v="VT"/>
    <tag k="ref:vcgi:esiteid" v="191281"/>
  </node>
  <node id="-617" visible="true" lat="43.52283629" lon="-73.24068995">
    <tag k="addr:city" v="Poultney"/>
    <tag k="addr:housenumber" v="375"/>
    <tag k="addr:street" v="Wilson Avenue"/>
    <tag k="addr:state" v="VT"/>
    <tag k="ref:vcgi:esiteid" v="191282"/>
  </node>
  <node id="-618" visible="true" lat="43.52288829" lon="-73.23983544">
    <tag k="addr:city" v="Poultney"/>
    <tag k="addr:housenumber" v="103"/>
    <tag k="addr:street" v="Norton Avenue"/>
    <tag k="addr:state" v="VT"/>
    <tag k="ref:vcgi:esiteid" v="191283"/>
  </node>
  <node id="-621" visible="true" lat="43.52286257" lon="-73.24130683">
    <tag k="addr:city" v="Poultney"/>
    <tag k="addr:housenumber" v="488"/>
    <tag k="addr:street" v="York Street"/>
    <tag k="addr:state" v="VT"/>
    <tag k="ref:vcgi:esiteid" v="191286"/>
  </node>
  <node id="-624" visible="true" lat="43.52275466" lon="-73.23890686">
    <tag k="addr:city" v="Poultney"/>
    <tag k="addr:housenumber" v="60"/>
    <tag k="addr:street" v="Norton Avenue"/>
    <tag k="addr:state" v="VT"/>
    <tag k="ref:vcgi:esiteid" v="191290"/>
  </node>
  <node id="-625" visible="true" lat="43.52277168" lon="-73.2396791">
    <tag k="addr:city" v="Poultney"/>
    <tag k="addr:housenumber" v="93"/>
    <tag k="addr:street" v="Norton Avenue"/>
    <tag k="addr:state" v="VT"/>
    <tag k="ref:vcgi:esiteid" v="191291"/>
  </node>
  <node id="-627" visible="true" lat="43.52272415" lon="-73.23787689">
    <tag k="addr:city" v="Poultney"/>
    <tag k="addr:housenumber" v="147"/>
    <tag k="addr:street" v="Allen Avenue"/>
    <tag k="addr:state" v="VT"/>
    <tag k="ref:vcgi:esiteid" v="191293"/>
  </node>
  <node id="-633" visible="true" lat="43.52261516" lon="-73.23872115">
    <tag k="addr:city" v="Poultney"/>
    <tag k="addr:housenumber" v="50"/>
    <tag k="addr:street" v="Norton Avenue"/>
    <tag k="addr:state" v="VT"/>
    <tag k="ref:vcgi:esiteid" v="191299"/>
  </node>
  <node id="-634" visible="true" lat="43.52266897" lon="-73.23954636">
    <tag k="addr:city" v="Poultney"/>
    <tag k="addr:housenumber" v="79"/>
    <tag k="addr:street" v="Norton Avenue"/>
    <tag k="addr:state" v="VT"/>
    <tag k="ref:vcgi:esiteid" v="191300"/>
  </node>
  <node id="-635" visible="true" lat="43.52253952" lon="-73.24166316">
    <tag k="addr:city" v="Poultney"/>
    <tag k="addr:housenumber" v="385"/>
    <tag k="addr:street" v="College Street North"/>
    <tag k="addr:state" v="VT"/>
    <tag k="ref:vcgi:esiteid" v="191301"/>
  </node>
  <node id="-636" visible="true" lat="43.52263264" lon="-73.24096155">
    <tag k="addr:city" v="Poultney"/>
    <tag k="addr:housenumber" v="468"/>
    <tag k="addr:street" v="York Street"/>
    <tag k="addr:state" v="VT"/>
    <tag k="ref:vcgi:esiteid" v="191302"/>
  </node>
  <node id="-637" visible="true" lat="43.52247568" lon="-73.23923526">
    <tag k="addr:city" v="Poultney"/>
    <tag k="addr:housenumber" v="61"/>
    <tag k="addr:street" v="Norton Avenue"/>
    <tag k="addr:state" v="VT"/>
    <tag k="ref:vcgi:esiteid" v="191303"/>
  </node>
  <node id="-638" visible="true" lat="43.52250695" lon="-73.23852464">
    <tag k="addr:city" v="Poultney"/>
    <tag k="addr:housenumber" v="36"/>
    <tag k="addr:street" v="Norton Avenue"/>
    <tag k="addr:state" v="VT"/>
    <tag k="ref:vcgi:esiteid" v="191304"/>
  </node>
  <node id="-640" visible="true" lat="43.52237512" lon="-73.23911119">
    <tag k="addr:city" v="Poultney"/>
    <tag k="addr:housenumber" v="49"/>
    <tag k="addr:street" v="Norton Avenue"/>
    <tag k="addr:state" v="VT"/>
    <tag k="ref:vcgi:esiteid" v="191306"/>
  </node>
  <node id="-641" visible="true" lat="43.52246437" lon="-73.24076515">
    <tag k="addr:city" v="Poultney"/>
    <tag k="addr:housenumber" v="450"/>
    <tag k="addr:street" v="York Street"/>
    <tag k="addr:state" v="VT"/>
    <tag k="ref:vcgi:esiteid" v="191307"/>
  </node>
  <node id="-642" visible="true" lat="43.52238285" lon="-73.23831991">
    <tag k="addr:city" v="Poultney"/>
    <tag k="addr:housenumber" v="24"/>
    <tag k="addr:street" v="Norton Avenue"/>
    <tag k="addr:state" v="VT"/>
    <tag k="ref:vcgi:esiteid" v="191309"/>
  </node>
  <node id="-643" visible="true" lat="43.52228551" lon="-73.23895096">
    <tag k="addr:city" v="Poultney"/>
    <tag k="addr:housenumber" v="39"/>
    <tag k="addr:street" v="Norton Avenue"/>
    <tag k="addr:state" v="VT"/>
    <tag k="ref:vcgi:esiteid" v="191310"/>
  </node>
  <node id="-645" visible="true" lat="43.52234417" lon="-73.24053545">
    <tag k="addr:city" v="Poultney"/>
    <tag k="addr:housenumber" v="436"/>
    <tag k="addr:street" v="York Street"/>
    <tag k="addr:state" v="VT"/>
    <tag k="ref:vcgi:esiteid" v="191313"/>
  </node>
  <node id="-647" visible="true" lat="43.52223586" lon="-73.23807525">
    <tag k="addr:city" v="Poultney"/>
    <tag k="addr:housenumber" v="8"/>
    <tag k="addr:street" v="Norton Avenue"/>
    <tag k="addr:state" v="VT"/>
    <tag k="ref:vcgi:esiteid" v="191315"/>
  </node>
  <node id="-649" visible="true" lat="43.52204951" lon="-73.23175468">
    <tag k="addr:city" v="Poultney"/>
    <tag k="addr:housenumber" v="360"/>
    <tag k="addr:street" v="Beaman Street"/>
    <tag k="addr:state" v="VT"/>
    <tag k="ref:vcgi:esiteid" v="191317"/>
  </node>
  <node id="-650" visible="true" lat="43.5222357" lon="-73.24038584">
    <tag k="addr:city" v="Poultney"/>
    <tag k="addr:housenumber" v="426"/>
    <tag k="addr:street" v="York Street"/>
    <tag k="addr:state" v="VT"/>
    <tag k="ref:vcgi:esiteid" v="191318"/>
  </node>
  <node id="-652" visible="true" lat="43.52206048" lon="-73.23862666">
    <tag k="addr:city" v="Poultney"/>
    <tag k="addr:housenumber" v="19"/>
    <tag k="addr:street" v="Norton Avenue"/>
    <tag k="addr:state" v="VT"/>
    <tag k="ref:vcgi:esiteid" v="191320"/>
  </node>
  <node id="-653" visible="true" lat="43.52214431" lon="-73.24150848">
    <tag k="addr:city" v="Poultney"/>
    <tag k="addr:housenumber" v="357"/>
    <tag k="addr:street" v="College Street North"/>
    <tag k="addr:state" v="VT"/>
    <tag k="ref:vcgi:esiteid" v="191321"/>
  </node>
  <node id="-654" visible="true" lat="43.52210616" lon="-73.24083709">
    <tag k="addr:city" v="Poultney"/>
    <tag k="addr:housenumber" v="431"/>
    <tag k="addr:street" v="York Street"/>
    <tag k="addr:state" v="VT"/>
    <tag k="ref:vcgi:esiteid" v="191322"/>
  </node>
  <node id="-658" visible="true" lat="43.52193237" lon="-73.23846896">
    <tag k="addr:city" v="Poultney"/>
    <tag k="addr:housenumber" v="9"/>
    <tag k="addr:street" v="Norton Avenue"/>
    <tag k="addr:state" v="VT"/>
    <tag k="ref:vcgi:esiteid" v="191326"/>
  </node>
  <node id="-659" visible="true" lat="43.52212884" lon="-73.24022787">
    <tag k="addr:city" v="Poultney"/>
    <tag k="addr:housenumber" v="412"/>
    <tag k="addr:street" v="York Street"/>
    <tag k="addr:state" v="VT"/>
    <tag k="ref:vcgi:esiteid" v="191327"/>
  </node>
  <node id="-660" visible="true" lat="43.52194806" lon="-73.2406217">
    <tag k="addr:city" v="Poultney"/>
    <tag k="addr:housenumber" v="423"/>
    <tag k="addr:street" v="York Street"/>
    <tag k="addr:state" v="VT"/>
    <tag k="ref:vcgi:esiteid" v="191328"/>
  </node>
  <node id="-662" visible="true" lat="43.52197058" lon="-73.24133967">
    <tag k="addr:city" v="Poultney"/>
    <tag k="addr:housenumber" v="341"/>
    <tag k="addr:street" v="College Street North"/>
    <tag k="addr:state" v="VT"/>
    <tag k="ref:vcgi:esiteid" v="191330"/>
  </node>
  <node id="-665" visible="true" lat="43.52197576" lon="-73.24001553">
    <tag k="addr:city" v="Poultney"/>
    <tag k="addr:housenumber" v="400"/>
    <tag k="addr:street" v="York Street"/>
    <tag k="addr:state" v="VT"/>
    <tag k="ref:vcgi:esiteid" v="191333"/>
  </node>
  <node id="-668" visible="true" lat="43.5217685" lon="-73.24060173">
    <tag k="addr:city" v="Poultney"/>
    <tag k="addr:housenumber" v="322"/>
    <tag k="addr:street" v="College Street North"/>
    <tag k="addr:state" v="VT"/>
    <tag k="ref:vcgi:esiteid" v="191337"/>
  </node>
  <node id="-669" visible="true" lat="43.52188028" lon="-73.23992052">
    <tag k="addr:city" v="Poultney"/>
    <tag k="addr:housenumber" v="390"/>
    <tag k="addr:street" v="York Street"/>
    <tag k="addr:state" v="VT"/>
    <tag k="ref:vcgi:esiteid" v="191338"/>
  </node>
  <node id="-670" visible="true" lat="43.52177222" lon="-73.2411629">
    <tag k="addr:city" v="Poultney"/>
    <tag k="addr:housenumber" v="329"/>
    <tag k="addr:street" v="College Street North"/>
    <tag k="addr:state" v="VT"/>
    <tag k="ref:vcgi:esiteid" v="191339"/>
  </node>
  <node id="-672" visible="true" lat="43.52178954" lon="-73.23878479">
    <tag k="addr:city" v="Poultney"/>
    <tag k="addr:housenumber" v="45"/>
    <tag k="addr:street" v="Wheeler Avenue"/>
    <tag k="addr:state" v="VT"/>
    <tag k="ref:vcgi:esiteid" v="191341"/>
  </node>
  <node id="-673" visible="true" lat="43.52177047" lon="-73.24030303">
    <tag k="addr:city" v="Poultney"/>
    <tag k="addr:housenumber" v="399"/>
    <tag k="addr:street" v="York Street"/>
    <tag k="addr:state" v="VT"/>
    <tag k="ref:vcgi:esiteid" v="191342"/>
  </node>
  <node id="-674" visible="true" lat="43.52167139" lon="-73.23196182">
    <tag k="addr:city" v="Poultney"/>
    <tag k="addr:housenumber" v="322"/>
    <tag k="addr:street" v="Beaman Street"/>
    <tag k="addr:state" v="VT"/>
    <tag k="ref:vcgi:esiteid" v="191343"/>
  </node>
  <node id="-678" visible="true" lat="43.52174748" lon="-73.23971693">
    <tag k="addr:city" v="Poultney"/>
    <tag k="addr:housenumber" v="376"/>
    <tag k="addr:street" v="York Street"/>
    <tag k="addr:state" v="VT"/>
    <tag k="ref:vcgi:esiteid" v="191347"/>
  </node>
  <node id="-681" visible="true" lat="43.52156829" lon="-73.24056243">
    <tag k="addr:city" v="Poultney"/>
    <tag k="addr:housenumber" v="302"/>
    <tag k="addr:street" v="College Street North"/>
    <tag k="addr:state" v="VT"/>
    <tag k="ref:vcgi:esiteid" v="191350"/>
  </node>
  <node id="-682" visible="true" lat="43.52163497" lon="-73.23954203">
    <tag k="addr:city" v="Poultney"/>
    <tag k="addr:housenumber" v="364"/>
    <tag k="addr:street" v="York Street"/>
    <tag k="addr:state" v="VT"/>
    <tag k="ref:vcgi:esiteid" v="191351"/>
  </node>
  <node id="-684" visible="true" lat="43.52143995" lon="-73.24099416">
    <tag k="addr:city" v="Poultney"/>
    <tag k="addr:housenumber" v="305"/>
    <tag k="addr:street" v="College Street North"/>
    <tag k="addr:state" v="VT"/>
    <tag k="ref:vcgi:esiteid" v="191353"/>
  </node>
  <node id="-686" visible="true" lat="43.52144235" lon="-73.23991762">
    <tag k="addr:city" v="Poultney"/>
    <tag k="addr:housenumber" v="369"/>
    <tag k="addr:street" v="York Street"/>
    <tag k="addr:state" v="VT"/>
    <tag k="ref:vcgi:esiteid" v="191355"/>
  </node>
  <node id="-689" visible="true" lat="43.52129405" lon="-73.23968927">
    <tag k="addr:city" v="Poultney"/>
    <tag k="addr:housenumber" v="355"/>
    <tag k="addr:street" v="York Street"/>
    <tag k="addr:state" v="VT"/>
    <tag k="ref:vcgi:esiteid" v="191359"/>
  </node>
  <node id="-690" visible="true" lat="43.52148688" lon="-73.2393121">
    <tag k="addr:city" v="Poultney"/>
    <tag k="addr:housenumber" v="348"/>
    <tag k="addr:street" v="York Street"/>
    <tag k="addr:state" v="VT"/>
    <tag k="ref:vcgi:esiteid" v="191360"/>
  </node>
  <node id="-691" visible="true" lat="43.52133907" lon="-73.24044186">
    <tag k="addr:city" v="Poultney"/>
    <tag k="addr:housenumber" v="288"/>
    <tag k="addr:street" v="College Street North"/>
    <tag k="addr:state" v="VT"/>
    <tag k="ref:vcgi:esiteid" v="191361"/>
  </node>
  <node id="-693" visible="true" lat="43.52139697" lon="-73.23919265">
    <tag k="addr:city" v="Poultney"/>
    <tag k="addr:housenumber" v="340"/>
    <tag k="addr:street" v="York Street"/>
    <tag k="addr:state" v="VT"/>
    <tag k="ref:vcgi:esiteid" v="191363"/>
  </node>
  <node id="-694" visible="true" lat="43.52123765" lon="-73.23233638">
    <tag k="addr:city" v="Poultney"/>
    <tag k="addr:housenumber" v="288"/>
    <tag k="addr:street" v="Beaman Street"/>
    <tag k="addr:state" v="VT"/>
    <tag k="ref:vcgi:esiteid" v="191365"/>
  </node>
  <node id="-701" visible="true" lat="43.52109644" lon="-73.23955225">
    <tag k="addr:city" v="Poultney"/>
    <tag k="addr:housenumber" v="333"/>
    <tag k="addr:street" v="York Street"/>
    <tag k="addr:state" v="VT"/>
    <tag k="ref:vcgi:esiteid" v="191372"/>
  </node>
  <node id="-703" visible="true" lat="43.52122669" lon="-73.23893908">
    <tag k="addr:city" v="Poultney"/>
    <tag k="addr:housenumber" v="324"/>
    <tag k="addr:street" v="York Street"/>
    <tag k="addr:state" v="VT"/>
    <tag k="ref:vcgi:esiteid" v="191374"/>
  </node>
  <node id="-704" visible="true" lat="43.52116775" lon="-73.23875427">
    <tag k="addr:city" v="Poultney"/>
    <tag k="addr:housenumber" v="314"/>
    <tag k="addr:street" v="York Street"/>
    <tag k="addr:state" v="VT"/>
    <tag k="ref:vcgi:esiteid" v="191375"/>
  </node>
  <node id="-705" visible="true" lat="43.52119445" lon="-73.23278045">
    <tag k="addr:city" v="Poultney"/>
    <tag k="addr:housenumber" v="285"/>
    <tag k="addr:street" v="Beaman Street"/>
    <tag k="addr:state" v="VT"/>
    <tag k="ref:vcgi:esiteid" v="191376"/>
  </node>
  <node id="-706" visible="true" lat="43.52099575" lon="-73.23943687">
    <tag k="addr:city" v="Poultney"/>
    <tag k="addr:housenumber" v="325"/>
    <tag k="addr:street" v="York Street"/>
    <tag k="addr:state" v="VT"/>
    <tag k="ref:vcgi:esiteid" v="191377"/>
  </node>
  <node id="-707" visible="true" lat="43.52109527" lon="-73.24079132">
    <tag k="addr:city" v="Poultney"/>
    <tag k="addr:housenumber" v="279"/>
    <tag k="addr:street" v="College Street North"/>
    <tag k="addr:state" v="VT"/>
    <tag k="ref:vcgi:esiteid" v="191378"/>
  </node>
  <node id="-708" visible="true" lat="43.52110454" lon="-73.24028824">
    <tag k="addr:city" v="Poultney"/>
    <tag k="addr:housenumber" v="272"/>
    <tag k="addr:street" v="College Street North"/>
    <tag k="addr:state" v="VT"/>
    <tag k="ref:vcgi:esiteid" v="191379"/>
  </node>
  <node id="-709" visible="true" lat="43.52107238" lon="-73.23865509">
    <tag k="addr:city" v="Poultney"/>
    <tag k="addr:housenumber" v="302"/>
    <tag k="addr:street" v="York Street"/>
    <tag k="addr:state" v="VT"/>
    <tag k="ref:vcgi:esiteid" v="191381"/>
  </node>
  <node id="-710" visible="true" lat="43.52095785" lon="-73.24020456">
    <tag k="addr:city" v="Poultney"/>
    <tag k="addr:housenumber" v="260"/>
    <tag k="addr:street" v="College Street North"/>
    <tag k="addr:state" v="VT"/>
    <tag k="ref:vcgi:esiteid" v="191382"/>
  </node>
  <node id="-711" visible="true" lat="43.52088883" lon="-73.24076631">
    <tag k="addr:city" v="Poultney"/>
    <tag k="addr:housenumber" v="265"/>
    <tag k="addr:street" v="College Street North"/>
    <tag k="addr:state" v="VT"/>
    <tag k="ref:vcgi:esiteid" v="191383"/>
  </node>
  <node id="-712" visible="true" lat="43.52089196" lon="-73.23914403">
    <tag k="addr:city" v="Poultney"/>
    <tag k="addr:housenumber" v="315"/>
    <tag k="addr:street" v="York Street"/>
    <tag k="addr:state" v="VT"/>
    <tag k="ref:vcgi:esiteid" v="191384"/>
  </node>
  <node id="-713" visible="true" lat="43.52103465" lon="-73.23285319">
    <tag k="addr:city" v="Poultney"/>
    <tag k="addr:housenumber" v="273"/>
    <tag k="addr:street" v="Beaman Street"/>
    <tag k="addr:state" v="VT"/>
    <tag k="ref:vcgi:esiteid" v="191385"/>
  </node>
  <node id="-715" visible="true" lat="43.52091217" lon="-73.23848724">
    <tag k="addr:city" v="Poultney"/>
    <tag k="addr:housenumber" v="292"/>
    <tag k="addr:street" v="York Street"/>
    <tag k="addr:state" v="VT"/>
    <tag k="ref:vcgi:esiteid" v="191387"/>
  </node>
  <node id="-718" visible="true" lat="43.52085187" lon="-73.23933713">
    <tag k="addr:city" v="Poultney"/>
    <tag k="addr:housenumber" v="317"/>
    <tag k="addr:street" v="York Street"/>
    <tag k="addr:state" v="VT"/>
    <tag k="ref:vcgi:esiteid" v="191390"/>
  </node>
  <node id="-719" visible="true" lat="43.52082824" lon="-73.23828124">
    <tag k="addr:city" v="Poultney"/>
    <tag k="addr:housenumber" v="282"/>
    <tag k="addr:street" v="York Street"/>
    <tag k="addr:state" v="VT"/>
    <tag k="ref:vcgi:esiteid" v="191391"/>
  </node>
  <node id="-720" visible="true" lat="43.52081972" lon="-73.24014969">
    <tag k="addr:city" v="Poultney"/>
    <tag k="addr:housenumber" v="248"/>
    <tag k="addr:street" v="College Street North"/>
    <tag k="addr:state" v="VT"/>
    <tag k="ref:vcgi:esiteid" v="191392"/>
  </node>
  <node id="-721" visible="true" lat="43.52071251" lon="-73.23888495">
    <tag k="addr:city" v="Poultney"/>
    <tag k="addr:housenumber" v="297"/>
    <tag k="addr:street" v="York Street"/>
    <tag k="addr:state" v="VT"/>
    <tag k="ref:vcgi:esiteid" v="191393"/>
  </node>
  <node id="-722" visible="true" lat="43.52072906" lon="-73.23820495">
    <tag k="addr:city" v="Poultney"/>
    <tag k="addr:housenumber" v="270"/>
    <tag k="addr:street" v="York Street"/>
    <tag k="addr:state" v="VT"/>
    <tag k="ref:vcgi:esiteid" v="191394"/>
  </node>
  <node id="-723" visible="true" lat="43.52072934" lon="-73.24063225">
    <tag k="addr:city" v="Poultney"/>
    <tag k="addr:housenumber" v="251"/>
    <tag k="addr:street" v="College Street North"/>
    <tag k="addr:state" v="VT"/>
    <tag k="ref:vcgi:esiteid" v="191395"/>
  </node>
  <node id="-727" visible="true" lat="43.5206108" lon="-73.24005127">
    <tag k="addr:city" v="Poultney"/>
    <tag k="addr:housenumber" v="236"/>
    <tag k="addr:street" v="College Street North"/>
    <tag k="addr:state" v="VT"/>
    <tag k="ref:vcgi:esiteid" v="191399"/>
  </node>
  <node id="-729" visible="true" lat="43.52064302" lon="-73.23289404">
    <tag k="addr:city" v="Poultney"/>
    <tag k="addr:housenumber" v="249"/>
    <tag k="addr:street" v="Beaman Street"/>
    <tag k="addr:state" v="VT"/>
    <tag k="ref:vcgi:esiteid" v="191401"/>
  </node>
  <node id="-730" visible="true" lat="43.52049286" lon="-73.24056169">
    <tag k="addr:city" v="Poultney"/>
    <tag k="addr:housenumber" v="235"/>
    <tag k="addr:street" v="College Street North"/>
    <tag k="addr:state" v="VT"/>
    <tag k="ref:vcgi:esiteid" v="191402"/>
  </node>
  <node id="-731" visible="true" lat="43.52043662" lon="-73.23848384">
    <tag k="addr:city" v="Poultney"/>
    <tag k="addr:housenumber" v="271"/>
    <tag k="addr:street" v="York Street"/>
    <tag k="addr:state" v="VT"/>
    <tag k="ref:vcgi:esiteid" v="191404"/>
  </node>
  <node id="-732" visible="true" lat="43.52057664" lon="-73.23796855">
    <tag k="addr:city" v="Poultney"/>
    <tag k="addr:housenumber" v="260"/>
    <tag k="addr:street" v="York Street"/>
    <tag k="addr:state" v="VT"/>
    <tag k="ref:vcgi:esiteid" v="191405"/>
  </node>
  <node id="-733" visible="true" lat="43.5204811" lon="-73.23996734">
    <tag k="addr:city" v="Poultney"/>
    <tag k="addr:housenumber" v="224"/>
    <tag k="addr:street" v="College Street North"/>
    <tag k="addr:state" v="VT"/>
    <tag k="ref:vcgi:esiteid" v="191406"/>
  </node>
  <node id="-734" visible="true" lat="43.52032484" lon="-73.23841021">
    <tag k="addr:city" v="Poultney"/>
    <tag k="addr:housenumber" v="261"/>
    <tag k="addr:street" v="York Street"/>
    <tag k="addr:state" v="VT"/>
    <tag k="ref:vcgi:esiteid" v="191407"/>
  </node>
  <node id="-735" visible="true" lat="43.52044296" lon="-73.23779296">
    <tag k="addr:city" v="Poultney"/>
    <tag k="addr:housenumber" v="242"/>
    <tag k="addr:street" v="York Street"/>
    <tag k="addr:state" v="VT"/>
    <tag k="ref:vcgi:esiteid" v="191408"/>
  </node>
  <node id="-737" visible="true" lat="43.52046585" lon="-73.23286437">
    <tag k="addr:city" v="Poultney"/>
    <tag k="addr:housenumber" v="235"/>
    <tag k="addr:street" v="Beaman Street"/>
    <tag k="addr:state" v="VT"/>
    <tag k="ref:vcgi:esiteid" v="191410"/>
  </node>
  <node id="-738" visible="true" lat="43.5203538" lon="-73.23761428">
    <tag k="addr:city" v="Poultney"/>
    <tag k="addr:housenumber" v="234"/>
    <tag k="addr:street" v="York Street"/>
    <tag k="addr:state" v="VT"/>
    <tag k="ref:vcgi:esiteid" v="191412"/>
  </node>
  <node id="-741" visible="true" lat="43.520335" lon="-73.23238942">
    <tag k="addr:city" v="Poultney"/>
    <tag k="addr:housenumber" v="228"/>
    <tag k="addr:street" v="Beaman Street"/>
    <tag k="addr:state" v="VT"/>
    <tag k="ref:vcgi:esiteid" v="191415"/>
  </node>
  <node id="-742" visible="true" lat="43.52027786" lon="-73.2397876">
    <tag k="addr:city" v="Poultney"/>
    <tag k="addr:housenumber" v="208"/>
    <tag k="addr:street" v="College Street North"/>
    <tag k="addr:state" v="VT"/>
    <tag k="ref:vcgi:esiteid" v="191416"/>
  </node>
  <node id="-743" visible="true" lat="43.52028486" lon="-73.24043609">
    <tag k="addr:city" v="Poultney"/>
    <tag k="addr:housenumber" v="221"/>
    <tag k="addr:street" v="College Street North"/>
    <tag k="addr:state" v="VT"/>
    <tag k="ref:vcgi:esiteid" v="191417"/>
  </node>
  <node id="-744" visible="true" lat="43.5201635" lon="-73.23811856">
    <tag k="addr:city" v="Poultney"/>
    <tag k="addr:housenumber" v="243"/>
    <tag k="addr:street" v="York Street"/>
    <tag k="addr:state" v="VT"/>
    <tag k="ref:vcgi:esiteid" v="191418"/>
  </node>
  <node id="-747" visible="true" lat="43.52005572" lon="-73.23797134">
    <tag k="addr:city" v="Poultney"/>
    <tag k="addr:housenumber" v="233"/>
    <tag k="addr:street" v="York Street"/>
    <tag k="addr:state" v="VT"/>
    <tag k="ref:vcgi:esiteid" v="191421"/>
  </node>
  <node id="-749" visible="true" lat="43.52010927" lon="-73.23442641">
    <tag k="addr:city" v="Poultney"/>
    <tag k="addr:housenumber" v="212"/>
    <tag k="addr:street" v="Ideal Way"/>
    <tag k="addr:state" v="VT"/>
    <tag k="ref:vcgi:esiteid" v="191423"/>
  </node>
  <node id="-750" visible="true" lat="43.52020372" lon="-73.23740502">
    <tag k="addr:city" v="Poultney"/>
    <tag k="addr:housenumber" v="218"/>
    <tag k="addr:street" v="York Street"/>
    <tag k="addr:state" v="VT"/>
    <tag k="ref:vcgi:esiteid" v="191424"/>
  </node>
  <node id="-751" visible="true" lat="43.52014437" lon="-73.24035509">
    <tag k="addr:city" v="Poultney"/>
    <tag k="addr:housenumber" v="211"/>
    <tag k="addr:street" v="College Street North"/>
    <tag k="addr:state" v="VT"/>
    <tag k="ref:vcgi:esiteid" v="191425"/>
  </node>
  <node id="-752" visible="true" lat="43.52018619" lon="-73.23298814">
    <tag k="addr:city" v="Poultney"/>
    <tag k="addr:housenumber" v="217"/>
    <tag k="addr:street" v="Beaman Street"/>
    <tag k="addr:state" v="VT"/>
    <tag k="ref:vcgi:esiteid" v="191426"/>
  </node>
  <node id="-753" visible="true" lat="43.52053335" lon="-73.23234932">
    <tag k="addr:city" v="Poultney"/>
    <tag k="addr:housenumber" v="242"/>
    <tag k="addr:street" v="Beaman Street"/>
    <tag k="addr:state" v="VT"/>
    <tag k="ref:vcgi:esiteid" v="191427"/>
  </node>
  <node id="-754" visible="true" lat="43.52011385" lon="-73.23967995">
    <tag k="addr:city" v="Poultney"/>
    <tag k="addr:housenumber" v="196"/>
    <tag k="addr:street" v="College Street North"/>
    <tag k="addr:state" v="VT"/>
    <tag k="ref:vcgi:esiteid" v="191428"/>
  </node>
  <node id="-755" visible="true" lat="43.51995918" lon="-73.23784139">
    <tag k="addr:city" v="Poultney"/>
    <tag k="addr:housenumber" v="223"/>
    <tag k="addr:street" v="York Street"/>
    <tag k="addr:state" v="VT"/>
    <tag k="ref:vcgi:esiteid" v="191429"/>
  </node>
  <node id="-757" visible="true" lat="43.52012401" lon="-73.23236959">
    <tag k="addr:city" v="Poultney"/>
    <tag k="addr:housenumber" v="214"/>
    <tag k="addr:street" v="Beaman Street"/>
    <tag k="addr:state" v="VT"/>
    <tag k="ref:vcgi:esiteid" v="191431"/>
  </node>
  <node id="-758" visible="true" lat="43.52005004" lon="-73.2406311">
    <tag k="addr:city" v="Poultney"/>
    <tag k="addr:housenumber" v="209"/>
    <tag k="addr:street" v="College Street North"/>
    <tag k="addr:state" v="VT"/>
    <tag k="ref:vcgi:esiteid" v="191432"/>
  </node>
  <node id="-762" visible="true" lat="43.52005408" lon="-73.23721822">
    <tag k="addr:city" v="Poultney"/>
    <tag k="addr:housenumber" v="206"/>
    <tag k="addr:street" v="York Street"/>
    <tag k="addr:state" v="VT"/>
    <tag k="ref:vcgi:esiteid" v="191436"/>
  </node>
  <node id="-763" visible="true" lat="43.52000626" lon="-73.23239564">
    <tag k="addr:city" v="Poultney"/>
    <tag k="addr:housenumber" v="206"/>
    <tag k="addr:street" v="Beaman Street"/>
    <tag k="addr:state" v="VT"/>
    <tag k="ref:vcgi:esiteid" v="191437"/>
  </node>
  <node id="-764" visible="true" lat="43.51988289" lon="-73.24015802">
    <tag k="addr:city" v="Poultney"/>
    <tag k="addr:housenumber" v="189"/>
    <tag k="addr:street" v="College Street North"/>
    <tag k="addr:state" v="VT"/>
    <tag k="ref:vcgi:esiteid" v="191438"/>
  </node>
  <node id="-765" visible="true" lat="43.51981342" lon="-73.23767483">
    <tag k="addr:city" v="Poultney"/>
    <tag k="addr:housenumber" v="211"/>
    <tag k="addr:street" v="York Street"/>
    <tag k="addr:state" v="VT"/>
    <tag k="ref:vcgi:esiteid" v="191439"/>
  </node>
  <node id="-768" visible="true" lat="43.52000465" lon="-73.2366735">
    <tag k="addr:city" v="Poultney"/>
    <tag k="addr:housenumber" v="182"/>
    <tag k="addr:street" v="York Street"/>
    <tag k="addr:state" v="VT"/>
    <tag k="ref:vcgi:esiteid" v="191442"/>
  </node>
  <node id="-769" visible="true" lat="43.5197054" lon="-73.23748178">
    <tag k="addr:city" v="Poultney"/>
    <tag k="addr:housenumber" v="197"/>
    <tag k="addr:street" v="York Street"/>
    <tag k="addr:state" v="VT"/>
    <tag k="ref:vcgi:esiteid" v="191443"/>
  </node>
  <node id="-771" visible="true" lat="43.51987977" lon="-73.23693618">
    <tag k="addr:city" v="Poultney"/>
    <tag k="addr:housenumber" v="192"/>
    <tag k="addr:street" v="York Street"/>
    <tag k="addr:state" v="VT"/>
    <tag k="ref:vcgi:esiteid" v="191445"/>
  </node>
  <node id="-772" visible="true" lat="43.5197885" lon="-73.23956152">
    <tag k="addr:city" v="Poultney"/>
    <tag k="addr:housenumber" v="174"/>
    <tag k="addr:street" v="College Street North"/>
    <tag k="addr:state" v="VT"/>
    <tag k="ref:vcgi:esiteid" v="191446"/>
  </node>
  <node id="-773" visible="true" lat="43.51975393" lon="-73.2392347">
    <tag k="addr:city" v="Poultney"/>
    <tag k="addr:housenumber" v="168"/>
    <tag k="addr:street" v="College Street North"/>
    <tag k="addr:state" v="VT"/>
    <tag k="ref:vcgi:esiteid" v="191448"/>
  </node>
  <node id="-775" visible="true" lat="43.51973449" lon="-73.23295247">
    <tag k="addr:city" v="Poultney"/>
    <tag k="addr:housenumber" v="185"/>
    <tag k="addr:street" v="Beaman Street"/>
    <tag k="addr:state" v="VT"/>
    <tag k="ref:vcgi:esiteid" v="191450"/>
  </node>
  <node id="-776" visible="true" lat="43.51956333" lon="-73.24004268">
    <tag k="addr:city" v="Poultney"/>
    <tag k="addr:housenumber" v="165"/>
    <tag k="addr:street" v="College Street North"/>
    <tag k="addr:state" v="VT"/>
    <tag k="ref:vcgi:esiteid" v="191451"/>
  </node>
  <node id="-777" visible="true" lat="43.51951411" lon="-73.23665562">
    <tag k="addr:city" v="Poultney"/>
    <tag k="addr:housenumber" v="168"/>
    <tag k="addr:street" v="York Street"/>
    <tag k="addr:state" v="VT"/>
    <tag k="ref:vcgi:esiteid" v="191452"/>
  </node>
  <node id="-778" visible="true" lat="43.51953665" lon="-73.23727146">
    <tag k="addr:city" v="Poultney"/>
    <tag k="addr:housenumber" v="169"/>
    <tag k="addr:street" v="York Street"/>
    <tag k="addr:state" v="VT"/>
    <tag k="ref:vcgi:esiteid" v="191453"/>
  </node>
  <node id="-779" visible="true" lat="43.5195467" lon="-73.23944665">
    <tag k="addr:city" v="Poultney"/>
    <tag k="addr:housenumber" v="160"/>
    <tag k="addr:street" v="College Street North"/>
    <tag k="addr:state" v="VT"/>
    <tag k="ref:vcgi:esiteid" v="191454"/>
  </node>
  <node id="-781" visible="true" lat="43.51949982" lon="-73.23297916">
    <tag k="addr:city" v="Poultney"/>
    <tag k="addr:housenumber" v="167"/>
    <tag k="addr:street" v="Beaman Street"/>
    <tag k="addr:state" v="VT"/>
    <tag k="ref:vcgi:esiteid" v="191456"/>
  </node>
  <node id="-782" visible="true" lat="43.51940841" lon="-73.23240372">
    <tag k="addr:city" v="Poultney"/>
    <tag k="addr:housenumber" v="166"/>
    <tag k="addr:street" v="Beaman Street"/>
    <tag k="addr:state" v="VT"/>
    <tag k="ref:vcgi:esiteid" v="191458"/>
  </node>
  <node id="-786" visible="true" lat="43.51934924" lon="-73.23714433">
    <tag k="addr:city" v="Poultney"/>
    <tag k="addr:housenumber" v="157"/>
    <tag k="addr:street" v="York Street"/>
    <tag k="addr:state" v="VT"/>
    <tag k="ref:vcgi:esiteid" v="191462"/>
  </node>
  <node id="-787" visible="true" lat="43.51937118" lon="-73.23551098">
    <tag k="addr:city" v="Poultney"/>
    <tag k="addr:housenumber" v="154"/>
    <tag k="addr:street" v="Ideal Way"/>
    <tag k="addr:state" v="VT"/>
    <tag k="ref:vcgi:esiteid" v="191463"/>
  </node>
  <node id="-788" visible="true" lat="43.51933288" lon="-73.23291778">
    <tag k="addr:city" v="Poultney"/>
    <tag k="addr:housenumber" v="157"/>
    <tag k="addr:street" v="Beaman Street"/>
    <tag k="addr:state" v="VT"/>
    <tag k="ref:vcgi:esiteid" v="191464"/>
  </node>
  <node id="-789" visible="true" lat="43.51933433" lon="-73.24001322">
    <tag k="addr:city" v="Poultney"/>
    <tag k="addr:housenumber" v="147"/>
    <tag k="addr:street" v="College Street North"/>
    <tag k="addr:state" v="VT"/>
    <tag k="ref:vcgi:esiteid" v="191465"/>
  </node>
  <node id="-790" visible="true" lat="43.51928451" lon="-73.23947492">
    <tag k="addr:city" v="Poultney"/>
    <tag k="addr:housenumber" v="142"/>
    <tag k="addr:street" v="College Street North"/>
    <tag k="addr:state" v="VT"/>
    <tag k="ref:vcgi:esiteid" v="191466"/>
  </node>
  <node id="-791" visible="true" lat="43.51914976" lon="-73.23830449">
    <tag k="addr:city" v="Poultney"/>
    <tag k="addr:housenumber" v="276"/>
    <tag k="addr:street" v="Church Street"/>
    <tag k="addr:state" v="VT"/>
    <tag k="ref:vcgi:esiteid" v="191467"/>
  </node>
  <node id="-792" visible="true" lat="43.51913166" lon="-73.23713312">
    <tag k="addr:city" v="Poultney"/>
    <tag k="addr:housenumber" v="141"/>
    <tag k="addr:street" v="York Street"/>
    <tag k="addr:state" v="VT"/>
    <tag k="ref:vcgi:esiteid" v="191468"/>
  </node>
  <node id="-793" visible="true" lat="43.5191948" lon="-73.23208769">
    <tag k="addr:city" v="Poultney"/>
    <tag k="addr:housenumber" v="152"/>
    <tag k="addr:street" v="Beaman Street"/>
    <tag k="addr:state" v="VT"/>
    <tag k="ref:vcgi:esiteid" v="191469"/>
  </node>
  <node id="-794" visible="true" lat="43.51903727" lon="-73.23940779">
    <tag k="addr:city" v="Poultney"/>
    <tag k="addr:housenumber" v="122"/>
    <tag k="addr:street" v="College Street North"/>
    <tag k="addr:state" v="VT"/>
    <tag k="ref:vcgi:esiteid" v="191470"/>
  </node>
  <node id="-795" visible="true" lat="43.51904225" lon="-73.23295275">
    <tag k="addr:city" v="Poultney"/>
    <tag k="addr:housenumber" v="137"/>
    <tag k="addr:street" v="Beaman Street"/>
    <tag k="addr:state" v="VT"/>
    <tag k="ref:vcgi:esiteid" v="191471"/>
  </node>
  <node id="-796" visible="true" lat="43.51916151" lon="-73.22491297">
    <tag k="addr:city" v="Poultney"/>
    <tag k="addr:housenumber" v="435"/>
    <tag k="addr:street" v="East Main Street"/>
    <tag k="addr:state" v="VT"/>
    <tag k="ref:vcgi:esiteid" v="191472"/>
  </node>
  <node id="-797" visible="true" lat="43.51901359" lon="-73.24069262">
    <tag k="addr:city" v="Poultney"/>
    <tag k="addr:housenumber" v="48"/>
    <tag k="addr:street" v="Rae Terrace"/>
    <tag k="addr:state" v="VT"/>
    <tag k="ref:vcgi:esiteid" v="191473"/>
  </node>
  <node id="-798" visible="true" lat="43.5190144" lon="-73.24005063">
    <tag k="addr:city" v="Poultney"/>
    <tag k="addr:housenumber" v="125"/>
    <tag k="addr:street" v="College Street North"/>
    <tag k="addr:state" v="VT"/>
    <tag k="ref:vcgi:esiteid" v="191474"/>
  </node>
  <node id="-799" visible="true" lat="43.51900214" lon="-73.24087572">
    <tag k="addr:city" v="Poultney"/>
    <tag k="addr:housenumber" v="56"/>
    <tag k="addr:street" v="Rae Terrace"/>
    <tag k="addr:state" v="VT"/>
    <tag k="ref:vcgi:esiteid" v="191475"/>
  </node>
  <node id="-800" visible="true" lat="43.51899076" lon="-73.24106993">
    <tag k="addr:city" v="Poultney"/>
    <tag k="addr:housenumber" v="66"/>
    <tag k="addr:street" v="Rae Terrace"/>
    <tag k="addr:state" v="VT"/>
    <tag k="ref:vcgi:esiteid" v="191476"/>
  </node>
  <node id="-801" visible="true" lat="43.51897925" lon="-73.24127245">
    <tag k="addr:city" v="Poultney"/>
    <tag k="addr:housenumber" v="76"/>
    <tag k="addr:street" v="Rae Terrace"/>
    <tag k="addr:state" v="VT"/>
    <tag k="ref:vcgi:esiteid" v="191477"/>
  </node>
  <node id="-802" visible="true" lat="43.51896416" lon="-73.24152676">
    <tag k="addr:city" v="Poultney"/>
    <tag k="addr:housenumber" v="90"/>
    <tag k="addr:street" v="Rae Terrace"/>
    <tag k="addr:state" v="VT"/>
    <tag k="ref:vcgi:esiteid" v="191479"/>
  </node>
  <node id="-803" visible="true" lat="43.51892022" lon="-73.23224344">
    <tag k="addr:city" v="Poultney"/>
    <tag k="addr:housenumber" v="130"/>
    <tag k="addr:street" v="Beaman Street"/>
    <tag k="addr:state" v="VT"/>
    <tag k="ref:vcgi:esiteid" v="191481"/>
  </node>
  <node id="-804" visible="true" lat="43.5190277" lon="-73.22514343">
    <tag k="addr:city" v="Poultney"/>
    <tag k="addr:housenumber" v="421"/>
    <tag k="addr:street" v="East Main Street"/>
    <tag k="addr:state" v="VT"/>
    <tag k="ref:vcgi:esiteid" v="191482"/>
  </node>
  <node id="-805" visible="true" lat="43.51882164" lon="-73.23484952">
    <tag k="addr:city" v="Poultney"/>
    <tag k="addr:housenumber" v="104"/>
    <tag k="addr:street" v="Church Street"/>
    <tag k="addr:state" v="VT"/>
    <tag k="ref:vcgi:esiteid" v="191483"/>
  </node>
  <node id="-806" visible="true" lat="43.51894509" lon="-73.24174038">
    <tag k="addr:city" v="Poultney"/>
    <tag k="addr:housenumber" v="102"/>
    <tag k="addr:street" v="Rae Terrace"/>
    <tag k="addr:state" v="VT"/>
    <tag k="ref:vcgi:esiteid" v="191484"/>
  </node>
  <node id="-807" visible="true" lat="43.51893725" lon="-73.24218476">
    <tag k="addr:city" v="Poultney"/>
    <tag k="addr:housenumber" v="122"/>
    <tag k="addr:street" v="Rae Terrace"/>
    <tag k="addr:state" v="VT"/>
    <tag k="ref:vcgi:esiteid" v="191485"/>
  </node>
  <node id="-808" visible="true" lat="43.51901623" lon="-73.23543949">
    <tag k="addr:city" v="Poultney"/>
    <tag k="addr:housenumber" v="130"/>
    <tag k="addr:street" v="Ideal Way"/>
    <tag k="addr:state" v="VT"/>
    <tag k="ref:vcgi:esiteid" v="191486"/>
  </node>
  <node id="-809" visible="true" lat="43.51893343" lon="-73.2419864">
    <tag k="addr:city" v="Poultney"/>
    <tag k="addr:housenumber" v="112"/>
    <tag k="addr:street" v="Rae Terrace"/>
    <tag k="addr:state" v="VT"/>
    <tag k="ref:vcgi:esiteid" v="191487"/>
  </node>
  <node id="-810" visible="true" lat="43.51899337" lon="-73.22540283">
    <tag k="addr:city" v="Poultney"/>
    <tag k="addr:housenumber" v="411"/>
    <tag k="addr:street" v="East Main Street"/>
    <tag k="addr:state" v="VT"/>
    <tag k="ref:vcgi:esiteid" v="191488"/>
  </node>
  <node id="-811" visible="true" lat="43.51897551" lon="-73.23640718">
    <tag k="addr:city" v="Poultney"/>
    <tag k="addr:housenumber" v="128"/>
    <tag k="addr:street" v="York Street"/>
    <tag k="addr:state" v="VT"/>
    <tag k="ref:vcgi:esiteid" v="191489"/>
  </node>
  <node id="-812" visible="true" lat="43.51886212" lon="-73.23807852">
    <tag k="addr:city" v="Poultney"/>
    <tag k="addr:housenumber" v="266"/>
    <tag k="addr:street" v="Church Street"/>
    <tag k="addr:state" v="VT"/>
    <tag k="ref:vcgi:esiteid" v="191490"/>
  </node>
  <node id="-813" visible="true" lat="43.51889801" lon="-73.23691558">
    <tag k="addr:city" v="Poultney"/>
    <tag k="addr:housenumber" v="208"/>
    <tag k="addr:street" v="Church Street"/>
    <tag k="addr:state" v="VT"/>
    <tag k="ref:vcgi:esiteid" v="191491"/>
  </node>
  <node id="-815" visible="true" lat="43.51878953" lon="-73.24239006">
    <tag k="addr:city" v="Poultney"/>
    <tag k="addr:housenumber" v="130"/>
    <tag k="addr:street" v="Rae Terrace"/>
    <tag k="addr:state" v="VT"/>
    <tag k="ref:vcgi:esiteid" v="191493"/>
  </node>
  <node id="-816" visible="true" lat="43.51891923" lon="-73.23754776">
    <tag k="addr:city" v="Poultney"/>
    <tag k="addr:housenumber" v="238"/>
    <tag k="addr:street" v="Church Street"/>
    <tag k="addr:state" v="VT"/>
    <tag k="ref:vcgi:esiteid" v="191494"/>
  </node>
  <node id="-817" visible="true" lat="43.51891708" lon="-73.22566986">
    <tag k="addr:city" v="Poultney"/>
    <tag k="addr:housenumber" v="395"/>
    <tag k="addr:street" v="East Main Street"/>
    <tag k="addr:state" v="VT"/>
    <tag k="ref:vcgi:esiteid" v="191496"/>
  </node>
  <node id="-818" visible="true" lat="43.51887687" lon="-73.23892434">
    <tag k="addr:city" v="Poultney"/>
    <tag k="addr:housenumber" v="308"/>
    <tag k="addr:street" v="Church Street"/>
    <tag k="addr:state" v="VT"/>
    <tag k="ref:vcgi:esiteid" v="191497"/>
  </node>
  <node id="-819" visible="true" lat="43.51887305" lon="-73.23923715">
    <tag k="addr:city" v="Poultney"/>
    <tag k="addr:housenumber" v="324"/>
    <tag k="addr:street" v="Church Street"/>
    <tag k="addr:state" v="VT"/>
    <tag k="ref:vcgi:esiteid" v="191498"/>
  </node>
  <node id="-821" visible="true" lat="43.51886602" lon="-73.2373618">
    <tag k="addr:city" v="Poultney"/>
    <tag k="addr:housenumber" v="230"/>
    <tag k="addr:street" v="Church Street"/>
    <tag k="addr:state" v="VT"/>
    <tag k="ref:vcgi:esiteid" v="191500"/>
  </node>
  <node id="-822" visible="true" lat="43.51887743" lon="-73.23777326">
    <tag k="addr:city" v="Poultney"/>
    <tag k="addr:housenumber" v="252"/>
    <tag k="addr:street" v="Church Street"/>
    <tag k="addr:state" v="VT"/>
    <tag k="ref:vcgi:esiteid" v="191501"/>
  </node>
  <node id="-823" visible="true" lat="43.5188734" lon="-73.23709514">
    <tag k="addr:city" v="Poultney"/>
    <tag k="addr:housenumber" v="214"/>
    <tag k="addr:street" v="Church Street"/>
    <tag k="addr:state" v="VT"/>
    <tag k="ref:vcgi:esiteid" v="191502"/>
  </node>
  <node id="-824" visible="true" lat="43.51887001" lon="-73.2385513">
    <tag k="addr:city" v="Poultney"/>
    <tag k="addr:housenumber" v="286"/>
    <tag k="addr:street" v="Church Street"/>
    <tag k="addr:state" v="VT"/>
    <tag k="ref:vcgi:esiteid" v="191503"/>
  </node>
  <node id="-825" visible="true" lat="43.51877212" lon="-73.23641967">
    <tag k="addr:city" v="Poultney"/>
    <tag k="addr:housenumber" v="184"/>
    <tag k="addr:street" v="Church Street"/>
    <tag k="addr:state" v="VT"/>
    <tag k="ref:vcgi:esiteid" v="191506"/>
  </node>
  <node id="-828" visible="true" lat="43.5186302" lon="-73.23236581">
    <tag k="addr:city" v="Poultney"/>
    <tag k="addr:housenumber" v="112"/>
    <tag k="addr:street" v="Beaman Street"/>
    <tag k="addr:state" v="VT"/>
    <tag k="ref:vcgi:esiteid" v="191510"/>
  </node>
  <node id="-829" visible="true" lat="43.51882158" lon="-73.23543532">
    <tag k="addr:city" v="Poultney"/>
    <tag k="addr:housenumber" v="134"/>
    <tag k="addr:street" v="Church Street"/>
    <tag k="addr:state" v="VT"/>
    <tag k="ref:vcgi:esiteid" v="191511"/>
  </node>
  <node id="-830" visible="true" lat="43.51879732" lon="-73.23515962">
    <tag k="addr:city" v="Poultney"/>
    <tag k="addr:housenumber" v="120"/>
    <tag k="addr:street" v="Church Street"/>
    <tag k="addr:state" v="VT"/>
    <tag k="ref:vcgi:esiteid" v="191512"/>
  </node>
  <node id="-831" visible="true" lat="43.51883095" lon="-73.23443451">
    <tag k="addr:city" v="Poultney"/>
    <tag k="addr:housenumber" v="84"/>
    <tag k="addr:street" v="Church Street"/>
    <tag k="addr:state" v="VT"/>
    <tag k="ref:vcgi:esiteid" v="191514"/>
  </node>
  <node id="-832" visible="true" lat="43.51873779" lon="-73.22594451">
    <tag k="addr:city" v="Poultney"/>
    <tag k="addr:housenumber" v="381"/>
    <tag k="addr:street" v="East Main Street"/>
    <tag k="addr:state" v="VT"/>
    <tag k="ref:vcgi:esiteid" v="191515"/>
  </node>
  <node id="-833" visible="true" lat="43.51877999" lon="-73.23412451">
    <tag k="addr:city" v="Poultney"/>
    <tag k="addr:housenumber" v="68"/>
    <tag k="addr:street" v="Church Street"/>
    <tag k="addr:state" v="VT"/>
    <tag k="ref:vcgi:esiteid" v="191516"/>
  </node>
  <node id="-834" visible="true" lat="43.51871621" lon="-73.22432108">
    <tag k="addr:city" v="Poultney"/>
    <tag k="addr:housenumber" v="448"/>
    <tag k="addr:street" v="East Main Street"/>
    <tag k="addr:state" v="VT"/>
    <tag k="ref:vcgi:esiteid" v="191519"/>
  </node>
  <node id="-835" visible="true" lat="43.51851368" lon="-73.23829432">
    <tag k="addr:city" v="Poultney"/>
    <tag k="addr:housenumber" v="275"/>
    <tag k="addr:street" v="Church Street"/>
    <tag k="addr:state" v="VT"/>
    <tag k="ref:vcgi:esiteid" v="191522"/>
  </node>
  <node id="-837" visible="true" lat="43.5187221" lon="-73.23383542">
    <tag k="addr:city" v="Poultney"/>
    <tag k="addr:housenumber" v="54"/>
    <tag k="addr:street" v="Church Street"/>
    <tag k="addr:state" v="VT"/>
    <tag k="ref:vcgi:esiteid" v="191524"/>
  </node>
  <node id="-838" visible="true" lat="43.51860126" lon="-73.22478674">
    <tag k="addr:city" v="Poultney"/>
    <tag k="addr:housenumber" v="422"/>
    <tag k="addr:street" v="East Main Street"/>
    <tag k="addr:state" v="VT"/>
    <tag k="ref:vcgi:esiteid" v="191525"/>
  </node>
  <node id="-839" visible="true" lat="43.51866531" lon="-73.2262268">
    <tag k="addr:city" v="Poultney"/>
    <tag k="addr:housenumber" v="361"/>
    <tag k="addr:street" v="East Main Street"/>
    <tag k="addr:state" v="VT"/>
    <tag k="ref:vcgi:esiteid" v="191526"/>
  </node>
  <node id="-840" visible="true" lat="43.51870199" lon="-73.23337543">
    <tag k="addr:city" v="Poultney"/>
    <tag k="addr:housenumber" v="32"/>
    <tag k="addr:street" v="Church Street"/>
    <tag k="addr:state" v="VT"/>
    <tag k="ref:vcgi:esiteid" v="191527"/>
  </node>
  <node id="-841" visible="true" lat="43.51844798" lon="-73.23720812">
    <tag k="addr:city" v="Poultney"/>
    <tag k="addr:housenumber" v="217"/>
    <tag k="addr:street" v="Church Street"/>
    <tag k="addr:state" v="VT"/>
    <tag k="ref:vcgi:esiteid" v="191528"/>
  </node>
  <node id="-842" visible="true" lat="43.51851397" lon="-73.23880487">
    <tag k="addr:city" v="Poultney"/>
    <tag k="addr:housenumber" v="303"/>
    <tag k="addr:street" v="Church Street"/>
    <tag k="addr:state" v="VT"/>
    <tag k="ref:vcgi:esiteid" v="191529"/>
  </node>
  <node id="-843" visible="true" lat="43.51855163" lon="-73.23934576">
    <tag k="addr:city" v="Poultney"/>
    <tag k="addr:housenumber" v="100"/>
    <tag k="addr:street" v="College Street North"/>
    <tag k="addr:state" v="VT"/>
    <tag k="ref:vcgi:esiteid" v="191530"/>
  </node>
  <node id="-844" visible="true" lat="43.5186583" lon="-73.23300581">
    <tag k="addr:city" v="Poultney"/>
    <tag k="addr:housenumber" v="111"/>
    <tag k="addr:street" v="Beaman Street"/>
    <tag k="addr:state" v="VT"/>
    <tag k="ref:vcgi:esiteid" v="191531"/>
  </node>
  <node id="-845" visible="true" lat="43.51849374" lon="-73.236788">
    <tag k="addr:city" v="Poultney"/>
    <tag k="addr:housenumber" v="201"/>
    <tag k="addr:street" v="Church Street"/>
    <tag k="addr:state" v="VT"/>
    <tag k="ref:vcgi:esiteid" v="191532"/>
  </node>
  <node id="-846" visible="true" lat="43.51842128" lon="-73.23735308">
    <tag k="addr:city" v="Poultney"/>
    <tag k="addr:housenumber" v="227"/>
    <tag k="addr:street" v="Church Street"/>
    <tag k="addr:state" v="VT"/>
    <tag k="ref:vcgi:esiteid" v="191534"/>
  </node>
  <node id="-847" visible="true" lat="43.51853179" lon="-73.23860168">
    <tag k="addr:city" v="Poultney"/>
    <tag k="addr:housenumber" v="285"/>
    <tag k="addr:street" v="Church Street"/>
    <tag k="addr:state" v="VT"/>
    <tag k="ref:vcgi:esiteid" v="191535"/>
  </node>
  <node id="-850" visible="true" lat="43.51832226" lon="-73.23459571">
    <tag k="addr:city" v="Poultney"/>
    <tag k="addr:housenumber" v="89"/>
    <tag k="addr:street" v="Church Street"/>
    <tag k="addr:state" v="VT"/>
    <tag k="ref:vcgi:esiteid" v="191538"/>
  </node>
  <node id="-852" visible="true" lat="43.51847839" lon="-73.2379837">
    <tag k="addr:city" v="Poultney"/>
    <tag k="addr:housenumber" v="261"/>
    <tag k="addr:street" v="Church Street"/>
    <tag k="addr:state" v="VT"/>
    <tag k="ref:vcgi:esiteid" v="191540"/>
  </node>
  <node id="-854" visible="true" lat="43.51837608" lon="-73.2349294">
    <tag k="addr:city" v="Poultney"/>
    <tag k="addr:housenumber" v="107"/>
    <tag k="addr:street" v="Church Street"/>
    <tag k="addr:state" v="VT"/>
    <tag k="ref:vcgi:esiteid" v="191542"/>
  </node>
  <node id="-855" visible="true" lat="43.51855913" lon="-73.22639098">
    <tag k="addr:city" v="Poultney"/>
    <tag k="addr:housenumber" v="349"/>
    <tag k="addr:street" v="East Main Street"/>
    <tag k="addr:state" v="VT"/>
    <tag k="ref:vcgi:esiteid" v="191545"/>
  </node>
  <node id="-856" visible="true" lat="43.51844602" lon="-73.23761021">
    <tag k="addr:city" v="Poultney"/>
    <tag k="addr:housenumber" v="239"/>
    <tag k="addr:street" v="Church Street"/>
    <tag k="addr:state" v="VT"/>
    <tag k="ref:vcgi:esiteid" v="191546"/>
  </node>
  <node id="-857" visible="true" lat="43.51831221" lon="-73.23422101">
    <tag k="addr:city" v="Poultney"/>
    <tag k="addr:housenumber" v="69"/>
    <tag k="addr:street" v="Church Street"/>
    <tag k="addr:state" v="VT"/>
    <tag k="ref:vcgi:esiteid" v="191547"/>
  </node>
  <node id="-858" visible="true" lat="43.51830265" lon="-73.23389174">
    <tag k="addr:city" v="Poultney"/>
    <tag k="addr:housenumber" v="55"/>
    <tag k="addr:street" v="Church Street"/>
    <tag k="addr:state" v="VT"/>
    <tag k="ref:vcgi:esiteid" v="191548"/>
  </node>
  <node id="-860" visible="true" lat="43.51825679" lon="-73.23335397">
    <tag k="addr:city" v="Poultney"/>
    <tag k="addr:housenumber" v="27"/>
    <tag k="addr:street" v="Church Street"/>
    <tag k="addr:state" v="VT"/>
    <tag k="ref:vcgi:esiteid" v="191550"/>
  </node>
  <node id="-861" visible="true" lat="43.51829679" lon="-73.2335758">
    <tag k="addr:city" v="Poultney"/>
    <tag k="addr:housenumber" v="39"/>
    <tag k="addr:street" v="Church Street"/>
    <tag k="addr:state" v="VT"/>
    <tag k="ref:vcgi:esiteid" v="191551"/>
  </node>
  <node id="-862" visible="true" lat="43.51827495" lon="-73.2331887">
    <tag k="addr:city" v="Poultney"/>
    <tag k="addr:housenumber" v="17"/>
    <tag k="addr:street" v="Church Street"/>
    <tag k="addr:state" v="VT"/>
    <tag k="ref:vcgi:esiteid" v="191552"/>
  </node>
  <node id="-863" visible="true" lat="43.51836776" lon="-73.23531341">
    <tag k="addr:city" v="Poultney"/>
    <tag k="addr:housenumber" v="123"/>
    <tag k="addr:street" v="Church Street"/>
    <tag k="addr:state" v="VT"/>
    <tag k="ref:vcgi:esiteid" v="191553"/>
  </node>
  <node id="-864" visible="true" lat="43.51836549" lon="-73.23939753">
    <tag k="addr:city" v="Poultney"/>
    <tag k="addr:housenumber" v="80"/>
    <tag k="addr:street" v="College Street North"/>
    <tag k="addr:state" v="VT"/>
    <tag k="ref:vcgi:esiteid" v="191554"/>
  </node>
  <node id="-865" visible="true" lat="43.51836186" lon="-73.2253817">
    <tag k="addr:city" v="Poultney"/>
    <tag k="addr:housenumber" v="386"/>
    <tag k="addr:street" v="East Main Street"/>
    <tag k="addr:state" v="VT"/>
    <tag k="ref:vcgi:esiteid" v="191555"/>
  </node>
  <node id="-866" visible="true" lat="43.51835779" lon="-73.23510655">
    <tag k="addr:city" v="Poultney"/>
    <tag k="addr:housenumber" v="115"/>
    <tag k="addr:street" v="Church Street"/>
    <tag k="addr:state" v="VT"/>
    <tag k="ref:vcgi:esiteid" v="191556"/>
  </node>
  <node id="-868" visible="true" lat="43.51845778" lon="-73.22674588">
    <tag k="addr:city" v="Poultney"/>
    <tag k="addr:housenumber" v="333"/>
    <tag k="addr:street" v="East Main Street"/>
    <tag k="addr:state" v="VT"/>
    <tag k="ref:vcgi:esiteid" v="191560"/>
  </node>
  <node id="-869" visible="true" lat="43.51838444" lon="-73.23547477">
    <tag k="addr:city" v="Poultney"/>
    <tag k="addr:housenumber" v="135"/>
    <tag k="addr:street" v="Church Street"/>
    <tag k="addr:state" v="VT"/>
    <tag k="ref:vcgi:esiteid" v="191561"/>
  </node>
  <node id="-871" visible="true" lat="43.51826095" lon="-73.23674011">
    <tag k="addr:city" v="Poultney"/>
    <tag k="addr:housenumber" v="77"/>
    <tag k="addr:street" v="Depot Street"/>
    <tag k="addr:state" v="VT"/>
    <tag k="ref:vcgi:esiteid" v="191563"/>
  </node>
  <node id="-872" visible="true" lat="43.51818737" lon="-73.23242856">
    <tag k="addr:city" v="Poultney"/>
    <tag k="addr:housenumber" v="80"/>
    <tag k="addr:street" v="Beaman Street"/>
    <tag k="addr:state" v="VT"/>
    <tag k="ref:vcgi:esiteid" v="191564"/>
  </node>
  <node id="-873" visible="true" lat="43.51825714" lon="-73.22698974">
    <tag k="addr:city" v="Poultney"/>
    <tag k="addr:housenumber" v="313"/>
    <tag k="addr:street" v="East Main Street"/>
    <tag k="addr:state" v="VT"/>
    <tag k="ref:vcgi:esiteid" v="191565"/>
  </node>
  <node id="-874" visible="true" lat="43.51823196" lon="-73.2256938">
    <tag k="addr:city" v="Poultney"/>
    <tag k="addr:housenumber" v="372"/>
    <tag k="addr:street" v="East Main Street"/>
    <tag k="addr:state" v="VT"/>
    <tag k="ref:vcgi:esiteid" v="191566"/>
  </node>
  <node id="-875" visible="true" lat="43.51820373" lon="-73.22722625">
    <tag k="addr:city" v="Poultney"/>
    <tag k="addr:housenumber" v="299"/>
    <tag k="addr:street" v="East Main Street"/>
    <tag k="addr:state" v="VT"/>
    <tag k="ref:vcgi:esiteid" v="191567"/>
  </node>
  <node id="-877" visible="true" lat="43.51807006" lon="-73.23926737">
    <tag k="addr:city" v="Poultney"/>
    <tag k="addr:housenumber" v="60"/>
    <tag k="addr:street" v="College Street North"/>
    <tag k="addr:state" v="VT"/>
    <tag k="ref:vcgi:esiteid" v="191569"/>
  </node>
  <node id="-879" visible="true" lat="43.51812789" lon="-73.22599815">
    <tag k="addr:city" v="Poultney"/>
    <tag k="addr:housenumber" v="354"/>
    <tag k="addr:street" v="East Main Street"/>
    <tag k="addr:state" v="VT"/>
    <tag k="ref:vcgi:esiteid" v="191571"/>
  </node>
  <node id="-880" visible="true" lat="43.51811295" lon="-73.22747079">
    <tag k="addr:city" v="Poultney"/>
    <tag k="addr:housenumber" v="287"/>
    <tag k="addr:street" v="East Main Street"/>
    <tag k="addr:state" v="VT"/>
    <tag k="ref:vcgi:esiteid" v="191572"/>
  </node>
  <node id="-881" visible="true" lat="43.51808166" lon="-73.22769165">
    <tag k="addr:city" v="Poultney"/>
    <tag k="addr:housenumber" v="277"/>
    <tag k="addr:street" v="East Main Street"/>
    <tag k="addr:state" v="VT"/>
    <tag k="ref:vcgi:esiteid" v="191573"/>
  </node>
  <node id="-882" visible="true" lat="43.51783146" lon="-73.23352233">
    <tag k="addr:city" v="Poultney"/>
    <tag k="addr:housenumber" v="61"/>
    <tag k="addr:street" v="Beaman Street"/>
    <tag k="addr:state" v="VT"/>
    <tag k="ref:vcgi:esiteid" v="191574"/>
  </node>
  <node id="-883" visible="true" lat="43.51800537" lon="-73.23621368">
    <tag k="addr:city" v="Poultney"/>
    <tag k="addr:housenumber" v="66"/>
    <tag k="addr:street" v="Depot Street"/>
    <tag k="addr:state" v="VT"/>
    <tag k="ref:vcgi:esiteid" v="191576"/>
  </node>
  <node id="-884" visible="true" lat="43.51814862" lon="-73.23549276">
    <tag k="addr:city" v="Poultney"/>
    <tag k="addr:housenumber" v="76"/>
    <tag k="addr:street" v="Knapp Street"/>
    <tag k="addr:state" v="VT"/>
    <tag k="ref:vcgi:esiteid" v="191577"/>
  </node>
  <node id="-886" visible="true" lat="43.51786197" lon="-73.23547946">
    <tag k="addr:city" v="Poultney"/>
    <tag k="addr:housenumber" v="54"/>
    <tag k="addr:street" v="Knapp Street"/>
    <tag k="addr:state" v="VT"/>
    <tag k="ref:vcgi:esiteid" v="191579"/>
  </node>
  <node id="-887" visible="true" lat="43.51794262" lon="-73.23247057">
    <tag k="addr:city" v="Poultney"/>
    <tag k="addr:housenumber" v="66"/>
    <tag k="addr:street" v="Beaman Street"/>
    <tag k="addr:state" v="VT"/>
    <tag k="ref:vcgi:esiteid" v="191580"/>
  </node>
  <node id="-888" visible="true" lat="43.51781359" lon="-73.22823354">
    <tag k="addr:city" v="Poultney"/>
    <tag k="addr:housenumber" v="243"/>
    <tag k="addr:street" v="East Main Street"/>
    <tag k="addr:state" v="VT"/>
    <tag k="ref:vcgi:esiteid" v="191581"/>
  </node>
  <node id="-889" visible="true" lat="43.51787886" lon="-73.22641693">
    <tag k="addr:city" v="Poultney"/>
    <tag k="addr:housenumber" v="330"/>
    <tag k="addr:street" v="East Main Street"/>
    <tag k="addr:state" v="VT"/>
    <tag k="ref:vcgi:esiteid" v="191582"/>
  </node>
  <node id="-890" visible="true" lat="43.51795149" lon="-73.22784539">
    <tag k="addr:city" v="Poultney"/>
    <tag k="addr:housenumber" v="265"/>
    <tag k="addr:street" v="East Main Street"/>
    <tag k="addr:state" v="VT"/>
    <tag k="ref:vcgi:esiteid" v="191583"/>
  </node>
  <node id="-891" visible="true" lat="43.51785659" lon="-73.22800445">
    <tag k="addr:city" v="Poultney"/>
    <tag k="addr:housenumber" v="255"/>
    <tag k="addr:street" v="East Main Street"/>
    <tag k="addr:state" v="VT"/>
    <tag k="ref:vcgi:esiteid" v="191584"/>
  </node>
  <node id="-892" visible="true" lat="43.51757594" lon="-73.23339377">
    <tag k="addr:city" v="Poultney"/>
    <tag k="addr:housenumber" v="55"/>
    <tag k="addr:street" v="Beaman Street"/>
    <tag k="addr:state" v="VT"/>
    <tag k="ref:vcgi:esiteid" v="191586"/>
  </node>
  <node id="-893" visible="true" lat="43.51774378" lon="-73.23938107">
    <tag k="addr:city" v="Poultney"/>
    <tag k="addr:housenumber" v="38"/>
    <tag k="addr:street" v="College Street North"/>
    <tag k="addr:state" v="VT"/>
    <tag k="ref:vcgi:esiteid" v="191587"/>
  </node>
  <node id="-895" visible="true" lat="43.51778847" lon="-73.22688395">
    <tag k="addr:city" v="Poultney"/>
    <tag k="addr:housenumber" v="298"/>
    <tag k="addr:street" v="East Main Street"/>
    <tag k="addr:state" v="VT"/>
    <tag k="ref:vcgi:esiteid" v="191589"/>
  </node>
  <node id="-896" visible="true" lat="43.51769256" lon="-73.22853851">
    <tag k="addr:city" v="Poultney"/>
    <tag k="addr:housenumber" v="229"/>
    <tag k="addr:street" v="East Main Street"/>
    <tag k="addr:state" v="VT"/>
    <tag k="ref:vcgi:esiteid" v="191590"/>
  </node>
  <node id="-897" visible="true" lat="43.51769215" lon="-73.22563031">
    <tag k="addr:city" v="Poultney"/>
    <tag k="addr:housenumber" v="76"/>
    <tag k="addr:street" v="Mountain View Lane"/>
    <tag k="addr:state" v="VT"/>
    <tag k="ref:vcgi:esiteid" v="191591"/>
  </node>
  <node id="-898" visible="true" lat="43.5175639" lon="-73.22747993">
    <tag k="addr:city" v="Poultney"/>
    <tag k="addr:housenumber" v="274"/>
    <tag k="addr:street" v="East Main Street"/>
    <tag k="addr:state" v="VT"/>
    <tag k="ref:vcgi:esiteid" v="191592"/>
  </node>
  <node id="-900" visible="true" lat="43.51765469" lon="-73.2311843">
    <tag k="addr:city" v="Poultney"/>
    <tag k="addr:housenumber" v="69"/>
    <tag k="addr:street" v="East Main Street"/>
    <tag k="addr:state" v="VT"/>
    <tag k="ref:vcgi:esiteid" v="191594"/>
  </node>
  <node id="-901" visible="true" lat="43.51758194" lon="-73.2288742">
    <tag k="addr:city" v="Poultney"/>
    <tag k="addr:housenumber" v="205"/>
    <tag k="addr:street" v="East Main Street"/>
    <tag k="addr:state" v="VT"/>
    <tag k="ref:vcgi:esiteid" v="191595"/>
  </node>
  <node id="-902" visible="true" lat="43.51758063" lon="-73.23540096">
    <tag k="addr:city" v="Poultney"/>
    <tag k="addr:housenumber" v="122"/>
    <tag k="addr:street" v="Main Street"/>
    <tag k="addr:state" v="VT"/>
    <tag k="ref:vcgi:esiteid" v="191596"/>
  </node>
  <node id="-903" visible="true" lat="43.51740771" lon="-73.22602493">
    <tag k="addr:city" v="Poultney"/>
    <tag k="addr:housenumber" v="52"/>
    <tag k="addr:street" v="Mountain View Lane"/>
    <tag k="addr:state" v="VT"/>
    <tag k="ref:vcgi:esiteid" v="191597"/>
  </node>
  <node id="-905" visible="true" lat="43.51760331" lon="-73.23696116">
    <tag k="addr:city" v="Poultney"/>
    <tag k="addr:housenumber" v="206"/>
    <tag k="addr:street" v="Main Street"/>
    <tag k="addr:state" v="VT"/>
    <tag k="ref:vcgi:esiteid" v="191599"/>
  </node>
  <node id="-907" visible="true" lat="43.51730987" lon="-73.22986611">
    <tag k="addr:city" v="Poultney"/>
    <tag k="addr:housenumber" v="145"/>
    <tag k="addr:street" v="East Main Street"/>
    <tag k="addr:state" v="VT"/>
    <tag k="ref:vcgi:esiteid" v="191602"/>
  </node>
  <node id="-910" visible="true" lat="43.51738578" lon="-73.23938258">
    <tag k="addr:city" v="Poultney"/>
    <tag k="addr:housenumber" v="328"/>
    <tag k="addr:street" v="Main Street"/>
    <tag k="addr:state" v="VT"/>
    <tag k="ref:vcgi:esiteid" v="191605"/>
  </node>
  <node id="-911" visible="true" lat="43.51736291" lon="-73.23881469">
    <tag k="addr:city" v="Poultney"/>
    <tag k="addr:housenumber" v="304"/>
    <tag k="addr:street" v="Main Street"/>
    <tag k="addr:state" v="VT"/>
    <tag k="ref:vcgi:esiteid" v="191606"/>
  </node>
  <node id="-912" visible="true" lat="43.51737124" lon="-73.23906002">
    <tag k="addr:city" v="Poultney"/>
    <tag k="addr:housenumber" v="310"/>
    <tag k="addr:street" v="Main Street"/>
    <tag k="addr:state" v="VT"/>
    <tag k="ref:vcgi:esiteid" v="191607"/>
  </node>
  <node id="-913" visible="true" lat="43.51731832" lon="-73.22808103">
    <tag k="addr:city" v="Poultney"/>
    <tag k="addr:housenumber" v="236"/>
    <tag k="addr:street" v="East Main Street"/>
    <tag k="addr:state" v="VT"/>
    <tag k="ref:vcgi:esiteid" v="191608"/>
  </node>
  <node id="-914" visible="true" lat="43.51737248" lon="-73.22696642">
    <tag k="addr:city" v="Poultney"/>
    <tag k="addr:housenumber" v="386"/>
    <tag k="addr:street" v="Furnace Street"/>
    <tag k="addr:state" v="VT"/>
    <tag k="ref:vcgi:esiteid" v="191609"/>
  </node>
  <node id="-916" visible="true" lat="43.51731491" lon="-73.22930145">
    <tag k="addr:city" v="Poultney"/>
    <tag k="addr:housenumber" v="179"/>
    <tag k="addr:street" v="East Main Street"/>
    <tag k="addr:state" v="VT"/>
    <tag k="ref:vcgi:esiteid" v="191611"/>
  </node>
  <node id="-917" visible="true" lat="43.51736287" lon="-73.23860254">
    <tag k="addr:city" v="Poultney"/>
    <tag k="addr:housenumber" v="292"/>
    <tag k="addr:street" v="Main Street"/>
    <tag k="addr:state" v="VT"/>
    <tag k="ref:vcgi:esiteid" v="191612"/>
  </node>
  <node id="-918" visible="true" lat="43.51736283" lon="-73.23838845">
    <tag k="addr:city" v="Poultney"/>
    <tag k="addr:housenumber" v="280"/>
    <tag k="addr:street" v="Main Street"/>
    <tag k="addr:state" v="VT"/>
    <tag k="ref:vcgi:esiteid" v="191613"/>
  </node>
  <node id="-919" visible="true" lat="43.51734707" lon="-73.23819753">
    <tag k="addr:city" v="Poultney"/>
    <tag k="addr:housenumber" v="272"/>
    <tag k="addr:street" v="Main Street"/>
    <tag k="addr:state" v="VT"/>
    <tag k="ref:vcgi:esiteid" v="191614"/>
  </node>
  <node id="-920" visible="true" lat="43.51734385" lon="-73.23803789">
    <tag k="addr:city" v="Poultney"/>
    <tag k="addr:housenumber" v="268"/>
    <tag k="addr:street" v="Main Street"/>
    <tag k="addr:state" v="VT"/>
    <tag k="ref:vcgi:esiteid" v="191615"/>
  </node>
  <node id="-921" visible="true" lat="43.5173476" lon="-73.23789586">
    <tag k="addr:city" v="Poultney"/>
    <tag k="addr:housenumber" v="262"/>
    <tag k="addr:street" v="Main Street"/>
    <tag k="addr:state" v="VT"/>
    <tag k="ref:vcgi:esiteid" v="191616"/>
  </node>
  <node id="-922" visible="true" lat="43.5175014" lon="-73.23776733">
    <tag k="addr:city" v="Poultney"/>
    <tag k="addr:housenumber" v="256"/>
    <tag k="addr:street" v="Main Street"/>
    <tag k="addr:state" v="VT"/>
    <tag k="ref:vcgi:esiteid" v="191617"/>
  </node>
  <node id="-923" visible="true" lat="43.51732087" lon="-73.23758968">
    <tag k="addr:city" v="Poultney"/>
    <tag k="addr:housenumber" v="236"/>
    <tag k="addr:street" v="Main Street"/>
    <tag k="addr:state" v="VT"/>
    <tag k="ref:vcgi:esiteid" v="191618"/>
  </node>
  <node id="-925" visible="true" lat="43.51743746" lon="-73.23514922">
    <tag k="addr:city" v="Poultney"/>
    <tag k="addr:housenumber" v="116"/>
    <tag k="addr:street" v="Main Street"/>
    <tag k="addr:state" v="VT"/>
    <tag k="ref:vcgi:esiteid" v="191620"/>
  </node>
  <node id="-926" visible="true" lat="43.51718625" lon="-73.23043321">
    <tag k="addr:city" v="Poultney"/>
    <tag k="addr:housenumber" v="113"/>
    <tag k="addr:street" v="East Main Street"/>
    <tag k="addr:state" v="VT"/>
    <tag k="ref:vcgi:esiteid" v="191621"/>
  </node>
  <node id="-928" visible="true" lat="43.51722984" lon="-73.22832296">
    <tag k="addr:city" v="Poultney"/>
    <tag k="addr:housenumber" v="222"/>
    <tag k="addr:street" v="East Main Street"/>
    <tag k="addr:state" v="VT"/>
    <tag k="ref:vcgi:esiteid" v="191623"/>
  </node>
  <node id="-932" visible="true" lat="43.51725469" lon="-73.23661321">
    <tag k="addr:city" v="Poultney"/>
    <tag k="addr:housenumber" v="188"/>
    <tag k="addr:street" v="Main Street"/>
    <tag k="addr:state" v="VT"/>
    <tag k="ref:vcgi:esiteid" v="191628"/>
  </node>
  <node id="-933" visible="true" lat="43.51728184" lon="-73.2355618">
    <tag k="addr:city" v="Poultney"/>
    <tag k="addr:housenumber" v="138"/>
    <tag k="addr:street" v="Main Street"/>
    <tag k="addr:state" v="VT"/>
    <tag k="ref:vcgi:esiteid" v="191629"/>
  </node>
  <node id="-934" visible="true" lat="43.51730143" lon="-73.23603176">
    <tag k="addr:city" v="Poultney"/>
    <tag k="addr:housenumber" v="158"/>
    <tag k="addr:street" v="Main Street"/>
    <tag k="addr:state" v="VT"/>
    <tag k="ref:vcgi:esiteid" v="191631"/>
  </node>
  <node id="-936" visible="true" lat="43.51726777" lon="-73.23544094">
    <tag k="addr:city" v="Poultney"/>
    <tag k="addr:housenumber" v="130"/>
    <tag k="addr:street" v="Main Street"/>
    <tag k="addr:state" v="VT"/>
    <tag k="ref:vcgi:esiteid" v="191633"/>
  </node>
  <node id="-937" visible="true" lat="43.51728177" lon="-73.23583844">
    <tag k="addr:city" v="Poultney"/>
    <tag k="addr:housenumber" v="150"/>
    <tag k="addr:street" v="Main Street"/>
    <tag k="addr:state" v="VT"/>
    <tag k="ref:vcgi:esiteid" v="191634"/>
  </node>
  <node id="-938" visible="true" lat="43.51727213" lon="-73.23571111">
    <tag k="addr:city" v="Poultney"/>
    <tag k="addr:housenumber" v="144"/>
    <tag k="addr:street" v="Main Street"/>
    <tag k="addr:state" v="VT"/>
    <tag k="ref:vcgi:esiteid" v="191635"/>
  </node>
  <node id="-939" visible="true" lat="43.51726304" lon="-73.23175488">
    <tag k="addr:city" v="Poultney"/>
    <tag k="addr:housenumber" v="49"/>
    <tag k="addr:street" v="East Main Street"/>
    <tag k="addr:state" v="VT"/>
    <tag k="ref:vcgi:esiteid" v="191636"/>
  </node>
  <node id="-940" visible="true" lat="43.51736563" lon="-73.23496197">
    <tag k="addr:city" v="Poultney"/>
    <tag k="addr:housenumber" v="108"/>
    <tag k="addr:street" v="Main Street"/>
    <tag k="addr:state" v="VT"/>
    <tag k="ref:vcgi:esiteid" v="191637"/>
  </node>
  <node id="-942" visible="true" lat="43.51717206" lon="-73.22688448">
    <tag k="addr:city" v="Poultney"/>
    <tag k="addr:housenumber" v="372"/>
    <tag k="addr:street" v="Furnace Street"/>
    <tag k="addr:state" v="VT"/>
    <tag k="ref:vcgi:esiteid" v="191641"/>
  </node>
  <node id="-943" visible="true" lat="43.51720398" lon="-73.23373903">
    <tag k="addr:city" v="Poultney"/>
    <tag k="addr:housenumber" v="44"/>
    <tag k="addr:street" v="Main Street"/>
    <tag k="addr:state" v="VT"/>
    <tag k="ref:vcgi:esiteid" v="191642"/>
  </node>
  <node id="-944" visible="true" lat="43.51721323" lon="-73.23350032">
    <tag k="addr:city" v="Poultney"/>
    <tag k="addr:housenumber" v="32"/>
    <tag k="addr:street" v="Main Street"/>
    <tag k="addr:state" v="VT"/>
    <tag k="ref:vcgi:esiteid" v="191643"/>
  </node>
  <node id="-945" visible="true" lat="43.51721892" lon="-73.23317489">
    <tag k="addr:city" v="Poultney"/>
    <tag k="addr:housenumber" v="18"/>
    <tag k="addr:street" v="Main Street"/>
    <tag k="addr:state" v="VT"/>
    <tag k="ref:vcgi:esiteid" v="191644"/>
  </node>
  <node id="-946" visible="true" lat="43.51706695" lon="-73.22735595">
    <tag k="addr:city" v="Poultney"/>
    <tag k="addr:housenumber" v="367"/>
    <tag k="addr:street" v="Furnace Street"/>
    <tag k="addr:state" v="VT"/>
    <tag k="ref:vcgi:esiteid" v="191648"/>
  </node>
  <node id="-955" visible="true" lat="43.51680211" lon="-73.23690657">
    <tag k="addr:city" v="Poultney"/>
    <tag k="addr:housenumber" v="205"/>
    <tag k="addr:street" v="Main Street"/>
    <tag k="addr:state" v="VT"/>
    <tag k="ref:vcgi:esiteid" v="191658"/>
  </node>
  <node id="-960" visible="true" lat="43.51692962" lon="-73.22730255">
    <tag k="addr:city" v="Poultney"/>
    <tag k="addr:housenumber" v="355"/>
    <tag k="addr:street" v="Furnace Street"/>
    <tag k="addr:state" v="VT"/>
    <tag k="ref:vcgi:esiteid" v="191664"/>
  </node>
  <node id="-961" visible="true" lat="43.51701027" lon="-73.2422529">
    <tag k="addr:city" v="Poultney"/>
    <tag k="addr:housenumber" v="305"/>
    <tag k="addr:street" v="Rae Terrace"/>
    <tag k="addr:state" v="VT"/>
    <tag k="ref:vcgi:esiteid" v="191665"/>
  </node>
  <node id="-965" visible="true" lat="43.51680416" lon="-73.22679784">
    <tag k="addr:city" v="Poultney"/>
    <tag k="addr:housenumber" v="346"/>
    <tag k="addr:street" v="Furnace Street"/>
    <tag k="addr:state" v="VT"/>
    <tag k="ref:vcgi:esiteid" v="191669"/>
  </node>
  <node id="-972" visible="true" lat="43.51682815" lon="-73.23813007">
    <tag k="addr:city" v="Poultney"/>
    <tag k="addr:housenumber" v="267"/>
    <tag k="addr:street" v="Main Street"/>
    <tag k="addr:state" v="VT"/>
    <tag k="ref:vcgi:esiteid" v="191679"/>
  </node>
  <node id="-976" visible="true" lat="43.51668802" lon="-73.23714849">
    <tag k="addr:city" v="Poultney"/>
    <tag k="addr:housenumber" v="217"/>
    <tag k="addr:street" v="Main Street"/>
    <tag k="addr:state" v="VT"/>
    <tag k="ref:vcgi:esiteid" v="191683"/>
  </node>
  <node id="-980" visible="true" lat="43.51665737" lon="-73.23185222">
    <tag k="addr:city" v="Poultney"/>
    <tag k="addr:housenumber" v="44"/>
    <tag k="addr:street" v="East Main Street"/>
    <tag k="addr:state" v="VT"/>
    <tag k="ref:vcgi:esiteid" v="191687"/>
  </node>
  <node id="-982" visible="true" lat="43.51643376" lon="-73.24205279">
    <tag k="addr:city" v="Poultney"/>
    <tag k="addr:housenumber" v="302"/>
    <tag k="addr:street" v="Rae Terrace"/>
    <tag k="addr:state" v="VT"/>
    <tag k="ref:vcgi:esiteid" v="191689"/>
  </node>
  <node id="-983" visible="true" lat="43.51658617" lon="-73.23070121">
    <tag k="addr:city" v="Poultney"/>
    <tag k="addr:housenumber" v="102"/>
    <tag k="addr:street" v="East Main Street"/>
    <tag k="addr:state" v="VT"/>
    <tag k="ref:vcgi:esiteid" v="191690"/>
  </node>
  <node id="-984" visible="true" lat="43.51656123" lon="-73.22996031">
    <tag k="addr:city" v="Poultney"/>
    <tag k="addr:housenumber" v="154"/>
    <tag k="addr:street" v="East Main Street"/>
    <tag k="addr:state" v="VT"/>
    <tag k="ref:vcgi:esiteid" v="191691"/>
  </node>
  <node id="-986" visible="true" lat="43.51649593" lon="-73.22734941">
    <tag k="addr:city" v="Poultney"/>
    <tag k="addr:housenumber" v="329"/>
    <tag k="addr:street" v="Furnace Street"/>
    <tag k="addr:state" v="VT"/>
    <tag k="ref:vcgi:esiteid" v="191693"/>
  </node>
  <node id="-988" visible="true" lat="43.51648712" lon="-73.23304748">
    <tag k="addr:city" v="Poultney"/>
    <tag k="addr:housenumber" v="9"/>
    <tag k="addr:street" v="Main Street"/>
    <tag k="addr:state" v="VT"/>
    <tag k="ref:vcgi:esiteid" v="191695"/>
  </node>
  <node id="-989" visible="true" lat="43.51646348" lon="-73.23237145">
    <tag k="addr:city" v="Poultney"/>
    <tag k="addr:housenumber" v="29"/>
    <tag k="addr:street" v="Grove Street"/>
    <tag k="addr:state" v="VT"/>
    <tag k="ref:vcgi:esiteid" v="191696"/>
  </node>
  <node id="-992" visible="true" lat="43.51626962" lon="-73.24129413">
    <tag k="addr:city" v="Poultney"/>
    <tag k="addr:housenumber" v="63"/>
    <tag k="addr:street" v="Alumni Drive"/>
    <tag k="addr:state" v="VT"/>
    <tag k="ref:vcgi:esiteid" v="191699"/>
  </node>
  <node id="-998" visible="true" lat="43.51630805" lon="-73.23251817">
    <tag k="addr:city" v="Poultney"/>
    <tag k="addr:housenumber" v="43"/>
    <tag k="addr:street" v="Grove Street"/>
    <tag k="addr:state" v="VT"/>
    <tag k="ref:vcgi:esiteid" v="191707"/>
  </node>
  <node id="-1000" visible="true" lat="43.51619961" lon="-73.23256462">
    <tag k="addr:city" v="Poultney"/>
    <tag k="addr:housenumber" v="53"/>
    <tag k="addr:street" v="Grove Street"/>
    <tag k="addr:state" v="VT"/>
    <tag k="ref:vcgi:esiteid" v="191709"/>
  </node>
  <node id="-1003" visible="true" lat="43.51600679" lon="-73.23251983">
    <tag k="addr:city" v="Poultney"/>
    <tag k="addr:housenumber" v="61"/>
    <tag k="addr:street" v="Grove Street"/>
    <tag k="addr:state" v="VT"/>
    <tag k="ref:vcgi:esiteid" v="191712"/>
  </node>
  <node id="-1005" visible="true" lat="43.51608194" lon="-73.22673598">
    <tag k="addr:city" v="Poultney"/>
    <tag k="addr:housenumber" v="298"/>
    <tag k="addr:street" v="Furnace Street"/>
    <tag k="addr:state" v="VT"/>
    <tag k="ref:vcgi:esiteid" v="191714"/>
  </node>
  <node id="-1008" visible="true" lat="43.51608367" lon="-73.22753153">
    <tag k="addr:city" v="Poultney"/>
    <tag k="addr:housenumber" v="265"/>
    <tag k="addr:street" v="Furnace Street"/>
    <tag k="addr:state" v="VT"/>
    <tag k="ref:vcgi:esiteid" v="191717"/>
  </node>
  <node id="-1009" visible="true" lat="43.5160441" lon="-73.22910583">
    <tag k="addr:city" v="Poultney"/>
    <tag k="addr:housenumber" v="175"/>
    <tag k="addr:street" v="Furnace Street"/>
    <tag k="addr:state" v="VT"/>
    <tag k="ref:vcgi:esiteid" v="191718"/>
  </node>
  <node id="-1012" visible="true" lat="43.51605521" lon="-73.22778328">
    <tag k="addr:city" v="Poultney"/>
    <tag k="addr:housenumber" v="253"/>
    <tag k="addr:street" v="Furnace Street"/>
    <tag k="addr:state" v="VT"/>
    <tag k="ref:vcgi:esiteid" v="191721"/>
  </node>
  <node id="-1016" visible="true" lat="43.51591319" lon="-73.23193806">
    <tag k="addr:city" v="Poultney"/>
    <tag k="addr:housenumber" v="41"/>
    <tag k="addr:street" v="Furnace Street"/>
    <tag k="addr:state" v="VT"/>
    <tag k="ref:vcgi:esiteid" v="191725"/>
  </node>
  <node id="-1018" visible="true" lat="43.51589641" lon="-73.23171756">
    <tag k="addr:city" v="Poultney"/>
    <tag k="addr:housenumber" v="51"/>
    <tag k="addr:street" v="Furnace Street"/>
    <tag k="addr:state" v="VT"/>
    <tag k="ref:vcgi:esiteid" v="191727"/>
  </node>
  <node id="-1022" visible="true" lat="43.5159074" lon="-73.22805409">
    <tag k="addr:city" v="Poultney"/>
    <tag k="addr:housenumber" v="237"/>
    <tag k="addr:street" v="Furnace Street"/>
    <tag k="addr:state" v="VT"/>
    <tag k="ref:vcgi:esiteid" v="191731"/>
  </node>
  <node id="-1023" visible="true" lat="43.51597257" lon="-73.23125083">
    <tag k="addr:city" v="Poultney"/>
    <tag k="addr:housenumber" v="75"/>
    <tag k="addr:street" v="Furnace Street"/>
    <tag k="addr:state" v="VT"/>
    <tag k="ref:vcgi:esiteid" v="191732"/>
  </node>
  <node id="-1024" visible="true" lat="43.51588331" lon="-73.23250242">
    <tag k="addr:city" v="Poultney"/>
    <tag k="addr:housenumber" v="69"/>
    <tag k="addr:street" v="Grove Street"/>
    <tag k="addr:state" v="VT"/>
    <tag k="ref:vcgi:esiteid" v="191733"/>
  </node>
  <node id="-1025" visible="true" lat="43.51589605" lon="-73.23099199">
    <tag k="addr:city" v="Poultney"/>
    <tag k="addr:housenumber" v="87"/>
    <tag k="addr:street" v="Furnace Street"/>
    <tag k="addr:state" v="VT"/>
    <tag k="ref:vcgi:esiteid" v="191735"/>
  </node>
  <node id="-1026" visible="true" lat="43.51593835" lon="-73.23071103">
    <tag k="addr:city" v="Poultney"/>
    <tag k="addr:housenumber" v="101"/>
    <tag k="addr:street" v="Furnace Street"/>
    <tag k="addr:state" v="VT"/>
    <tag k="ref:vcgi:esiteid" v="191736"/>
  </node>
  <node id="-1027" visible="true" lat="43.51583704" lon="-73.22704606">
    <tag k="addr:city" v="Poultney"/>
    <tag k="addr:housenumber" v="288"/>
    <tag k="addr:street" v="Furnace Street"/>
    <tag k="addr:state" v="VT"/>
    <tag k="ref:vcgi:esiteid" v="191737"/>
  </node>
  <node id="-1034" visible="true" lat="43.51585205" lon="-73.22725906">
    <tag k="addr:city" v="Poultney"/>
    <tag k="addr:housenumber" v="276"/>
    <tag k="addr:street" v="Furnace Street"/>
    <tag k="addr:state" v="VT"/>
    <tag k="ref:vcgi:esiteid" v="191744"/>
  </node>
  <node id="-1037" visible="true" lat="43.51589071" lon="-73.22831986">
    <tag k="addr:city" v="Poultney"/>
    <tag k="addr:housenumber" v="223"/>
    <tag k="addr:street" v="Furnace Street"/>
    <tag k="addr:state" v="VT"/>
    <tag k="ref:vcgi:esiteid" v="191747"/>
  </node>
  <node id="-1039" visible="true" lat="43.5158957" lon="-73.22875052">
    <tag k="addr:city" v="Poultney"/>
    <tag k="addr:housenumber" v="199"/>
    <tag k="addr:street" v="Furnace Street"/>
    <tag k="addr:state" v="VT"/>
    <tag k="ref:vcgi:esiteid" v="191750"/>
  </node>
  <node id="-1041" visible="true" lat="43.51575028" lon="-73.2275006">
    <tag k="addr:city" v="Poultney"/>
    <tag k="addr:housenumber" v="264"/>
    <tag k="addr:street" v="Furnace Street"/>
    <tag k="addr:state" v="VT"/>
    <tag k="ref:vcgi:esiteid" v="191752"/>
  </node>
  <node id="-1043" visible="true" lat="43.51559189" lon="-73.23217516">
    <tag k="addr:city" v="Poultney"/>
    <tag k="addr:housenumber" v="28"/>
    <tag k="addr:street" v="Furnace Street"/>
    <tag k="addr:state" v="VT"/>
    <tag k="ref:vcgi:esiteid" v="191760"/>
  </node>
  <node id="-1044" visible="true" lat="43.51557611" lon="-73.22859808">
    <tag k="addr:city" v="Poultney"/>
    <tag k="addr:housenumber" v="206"/>
    <tag k="addr:street" v="Furnace Street"/>
    <tag k="addr:state" v="VT"/>
    <tag k="ref:vcgi:esiteid" v="191762"/>
  </node>
  <node id="-1045" visible="true" lat="43.51557882" lon="-73.23180352">
    <tag k="addr:city" v="Poultney"/>
    <tag k="addr:housenumber" v="50"/>
    <tag k="addr:street" v="Furnace Street"/>
    <tag k="addr:state" v="VT"/>
    <tag k="ref:vcgi:esiteid" v="191763"/>
  </node>
  <node id="-1046" visible="true" lat="43.51557062" lon="-73.23127272">
    <tag k="addr:city" v="Poultney"/>
    <tag k="addr:housenumber" v="76"/>
    <tag k="addr:street" v="Furnace Street"/>
    <tag k="addr:state" v="VT"/>
    <tag k="ref:vcgi:esiteid" v="191764"/>
  </node>
  <node id="-1047" visible="true" lat="43.51556097" lon="-73.2315751">
    <tag k="addr:city" v="Poultney"/>
    <tag k="addr:housenumber" v="58"/>
    <tag k="addr:street" v="Furnace Street"/>
    <tag k="addr:state" v="VT"/>
    <tag k="ref:vcgi:esiteid" v="191765"/>
  </node>
  <node id="-1048" visible="true" lat="43.51556834" lon="-73.23089547">
    <tag k="addr:city" v="Poultney"/>
    <tag k="addr:housenumber" v="92"/>
    <tag k="addr:street" v="Furnace Street"/>
    <tag k="addr:state" v="VT"/>
    <tag k="ref:vcgi:esiteid" v="191766"/>
  </node>
  <node id="-1049" visible="true" lat="43.5155663" lon="-73.23013698">
    <tag k="addr:city" v="Poultney"/>
    <tag k="addr:housenumber" v="132"/>
    <tag k="addr:street" v="Furnace Street"/>
    <tag k="addr:state" v="VT"/>
    <tag k="ref:vcgi:esiteid" v="191767"/>
  </node>
  <node id="-1050" visible="true" lat="43.5155602" lon="-73.23048717">
    <tag k="addr:city" v="Poultney"/>
    <tag k="addr:housenumber" v="116"/>
    <tag k="addr:street" v="Furnace Street"/>
    <tag k="addr:state" v="VT"/>
    <tag k="ref:vcgi:esiteid" v="191768"/>
  </node>
  <node id="-1051" visible="true" lat="43.51563526" lon="-73.23250924">
    <tag k="addr:city" v="Poultney"/>
    <tag k="addr:housenumber" v="87"/>
    <tag k="addr:street" v="Grove Street"/>
    <tag k="addr:state" v="VT"/>
    <tag k="ref:vcgi:esiteid" v="191769"/>
  </node>
  <node id="-1052" visible="true" lat="43.51558805" lon="-73.22975514">
    <tag k="addr:city" v="Poultney"/>
    <tag k="addr:housenumber" v="150"/>
    <tag k="addr:street" v="Furnace Street"/>
    <tag k="addr:state" v="VT"/>
    <tag k="ref:vcgi:esiteid" v="191770"/>
  </node>
  <node id="-1053" visible="true" lat="43.51557138" lon="-73.22994599">
    <tag k="addr:city" v="Poultney"/>
    <tag k="addr:housenumber" v="142"/>
    <tag k="addr:street" v="Furnace Street"/>
    <tag k="addr:state" v="VT"/>
    <tag k="ref:vcgi:esiteid" v="191771"/>
  </node>
  <node id="-1062" visible="true" lat="43.5156222" lon="-73.22742579">
    <tag k="addr:city" v="Poultney"/>
    <tag k="addr:housenumber" v="15"/>
    <tag k="addr:street" v="Lake Road"/>
    <tag k="addr:state" v="VT"/>
    <tag k="ref:vcgi:esiteid" v="191780"/>
  </node>
  <node id="-1068" visible="true" lat="43.51549513" lon="-73.22736589">
    <tag k="addr:city" v="Poultney"/>
    <tag k="addr:housenumber" v="21"/>
    <tag k="addr:street" v="Lake Road"/>
    <tag k="addr:state" v="VT"/>
    <tag k="ref:vcgi:esiteid" v="191787"/>
  </node>
  <node id="-1070" visible="true" lat="43.51540756" lon="-73.22945404">
    <tag k="addr:city" v="Poultney"/>
    <tag k="addr:housenumber" v="170"/>
    <tag k="addr:street" v="Furnace Street"/>
    <tag k="addr:state" v="VT"/>
    <tag k="ref:vcgi:esiteid" v="191789"/>
  </node>
  <node id="-1075" visible="true" lat="43.51515663" lon="-73.23259446">
    <tag k="addr:city" v="Poultney"/>
    <tag k="addr:housenumber" v="119"/>
    <tag k="addr:street" v="Grove Street"/>
    <tag k="addr:state" v="VT"/>
    <tag k="ref:vcgi:esiteid" v="191794"/>
  </node>
  <node id="-1078" visible="true" lat="43.51505661" lon="-73.23297119">
    <tag k="addr:city" v="Poultney"/>
    <tag k="addr:housenumber" v="128"/>
    <tag k="addr:street" v="Grove Street"/>
    <tag k="addr:state" v="VT"/>
    <tag k="ref:vcgi:esiteid" v="191797"/>
  </node>
  <node id="-1079" visible="true" lat="43.51499447" lon="-73.23258719">
    <tag k="addr:city" v="Poultney"/>
    <tag k="addr:housenumber" v="129"/>
    <tag k="addr:street" v="Grove Street"/>
    <tag k="addr:state" v="VT"/>
    <tag k="ref:vcgi:esiteid" v="191798"/>
  </node>
  <node id="-1083" visible="true" lat="43.51496887" lon="-73.23174285">
    <tag k="addr:city" v="Poultney"/>
    <tag k="addr:housenumber" v="135"/>
    <tag k="addr:street" v="Grove Street"/>
    <tag k="addr:state" v="VT"/>
    <tag k="ref:vcgi:esiteid" v="191802"/>
  </node>
  <node id="-1089" visible="true" lat="43.51482448" lon="-73.23259574">
    <tag k="addr:city" v="Poultney"/>
    <tag k="addr:housenumber" v="141"/>
    <tag k="addr:street" v="Grove Street"/>
    <tag k="addr:state" v="VT"/>
    <tag k="ref:vcgi:esiteid" v="191808"/>
  </node>
  <node id="-1093" visible="true" lat="43.51472091" lon="-73.23301696">
    <tag k="addr:city" v="Poultney"/>
    <tag k="addr:housenumber" v="154"/>
    <tag k="addr:street" v="Grove Street"/>
    <tag k="addr:state" v="VT"/>
    <tag k="ref:vcgi:esiteid" v="191812"/>
  </node>
  <node id="-1096" visible="true" lat="43.5147776" lon="-73.23223937">
    <tag k="addr:city" v="Poultney"/>
    <tag k="addr:housenumber" v="125"/>
    <tag k="addr:street" v="Grove Street"/>
    <tag k="addr:state" v="VT"/>
    <tag k="ref:vcgi:esiteid" v="191816"/>
  </node>
  <node id="-1097" visible="true" lat="43.51458873" lon="-73.23261943">
    <tag k="addr:city" v="Poultney"/>
    <tag k="addr:housenumber" v="155"/>
    <tag k="addr:street" v="Grove Street"/>
    <tag k="addr:state" v="VT"/>
    <tag k="ref:vcgi:esiteid" v="191817"/>
  </node>
  <node id="-1098" visible="true" lat="43.51454299" lon="-73.23312834">
    <tag k="addr:city" v="Poultney"/>
    <tag k="addr:housenumber" v="162"/>
    <tag k="addr:street" v="Grove Street"/>
    <tag k="addr:state" v="VT"/>
    <tag k="ref:vcgi:esiteid" v="191818"/>
  </node>
  <node id="-1102" visible="true" lat="43.51448972" lon="-73.2318204">
    <tag k="addr:city" v="Poultney"/>
    <tag k="addr:housenumber" v="150"/>
    <tag k="addr:street" v="Autumn Way"/>
    <tag k="addr:state" v="VT"/>
    <tag k="ref:vcgi:esiteid" v="191824"/>
  </node>
  <node id="-1105" visible="true" lat="43.51440768" lon="-73.23314792">
    <tag k="addr:city" v="Poultney"/>
    <tag k="addr:housenumber" v="174"/>
    <tag k="addr:street" v="Grove Street"/>
    <tag k="addr:state" v="VT"/>
    <tag k="ref:vcgi:esiteid" v="191828"/>
  </node>
  <node id="-1106" visible="true" lat="43.5144224" lon="-73.23265987">
    <tag k="addr:city" v="Poultney"/>
    <tag k="addr:housenumber" v="167"/>
    <tag k="addr:street" v="Grove Street"/>
    <tag k="addr:state" v="VT"/>
    <tag k="ref:vcgi:esiteid" v="191829"/>
  </node>
  <node id="-1110" visible="true" lat="43.51423276" lon="-73.23272126">
    <tag k="addr:city" v="Poultney"/>
    <tag k="addr:housenumber" v="181"/>
    <tag k="addr:street" v="Grove Street"/>
    <tag k="addr:state" v="VT"/>
    <tag k="ref:vcgi:esiteid" v="191833"/>
  </node>
  <node id="-1112" visible="true" lat="43.51417541" lon="-73.23314666">
    <tag k="addr:city" v="Poultney"/>
    <tag k="addr:housenumber" v="192"/>
    <tag k="addr:street" v="Grove Street"/>
    <tag k="addr:state" v="VT"/>
    <tag k="ref:vcgi:esiteid" v="191835"/>
  </node>
  <node id="-1113" visible="true" lat="43.51416264" lon="-73.23203309">
    <tag k="addr:city" v="Poultney"/>
    <tag k="addr:housenumber" v="180"/>
    <tag k="addr:street" v="Autumn Way"/>
    <tag k="addr:state" v="VT"/>
    <tag k="ref:vcgi:esiteid" v="191836"/>
  </node>
  <node id="-1119" visible="true" lat="43.51405477" lon="-73.23277217">
    <tag k="addr:city" v="Poultney"/>
    <tag k="addr:housenumber" v="193"/>
    <tag k="addr:street" v="Grove Street"/>
    <tag k="addr:state" v="VT"/>
    <tag k="ref:vcgi:esiteid" v="191842"/>
  </node>
  <node id="-1122" visible="true" lat="43.51388076" lon="-73.23261766">
    <tag k="addr:city" v="Poultney"/>
    <tag k="addr:housenumber" v="203"/>
    <tag k="addr:street" v="Grove Street"/>
    <tag k="addr:state" v="VT"/>
    <tag k="ref:vcgi:esiteid" v="191845"/>
  </node>
  <node id="-1123" visible="true" lat="43.51388931" lon="-73.2332077">
    <tag k="addr:city" v="Poultney"/>
    <tag k="addr:housenumber" v="210"/>
    <tag k="addr:street" v="Grove Street"/>
    <tag k="addr:state" v="VT"/>
    <tag k="ref:vcgi:esiteid" v="191846"/>
  </node>
  <node id="-1142" visible="true" lat="43.51267242" lon="-73.23312377">
    <tag k="addr:city" v="Poultney"/>
    <tag k="addr:housenumber" v="289"/>
    <tag k="addr:street" v="South Street"/>
    <tag k="addr:state" v="VT"/>
    <tag k="ref:vcgi:esiteid" v="191867"/>
  </node>
  <node id="-1148" visible="true" lat="43.5123825" lon="-73.23319244">
    <tag k="addr:city" v="Poultney"/>
    <tag k="addr:housenumber" v="311"/>
    <tag k="addr:street" v="South Street"/>
    <tag k="addr:state" v="VT"/>
    <tag k="ref:vcgi:esiteid" v="191875"/>
  </node>
  <node id="-1149" visible="true" lat="43.51233012" lon="-73.23378161">
    <tag k="addr:city" v="Poultney"/>
    <tag k="addr:housenumber" v="322"/>
    <tag k="addr:street" v="South Street"/>
    <tag k="addr:state" v="VT"/>
    <tag k="ref:vcgi:esiteid" v="191876"/>
  </node>
  <node id="-1151" visible="true" lat="43.51212813" lon="-73.23389495">
    <tag k="addr:city" v="Poultney"/>
    <tag k="addr:housenumber" v="336"/>
    <tag k="addr:street" v="South Street"/>
    <tag k="addr:state" v="VT"/>
    <tag k="ref:vcgi:esiteid" v="191878"/>
  </node>
  <node id="-1152" visible="true" lat="43.51216556" lon="-73.2332394">
    <tag k="addr:city" v="Poultney"/>
    <tag k="addr:housenumber" v="325"/>
    <tag k="addr:street" v="South Street"/>
    <tag k="addr:state" v="VT"/>
    <tag k="ref:vcgi:esiteid" v="191879"/>
  </node>
  <node id="-1153" visible="true" lat="43.51198959" lon="-73.23384857">
    <tag k="addr:city" v="Poultney"/>
    <tag k="addr:housenumber" v="344"/>
    <tag k="addr:street" v="South Street"/>
    <tag k="addr:state" v="VT"/>
    <tag k="ref:vcgi:esiteid" v="191880"/>
  </node>
  <node id="-1154" visible="true" lat="43.51193109" lon="-73.23325498">
    <tag k="addr:city" v="Poultney"/>
    <tag k="addr:housenumber" v="341"/>
    <tag k="addr:street" v="South Street"/>
    <tag k="addr:state" v="VT"/>
    <tag k="ref:vcgi:esiteid" v="191881"/>
  </node>
  <node id="-1156" visible="true" lat="43.51177978" lon="-73.23390197">
    <tag k="addr:city" v="Poultney"/>
    <tag k="addr:housenumber" v="360"/>
    <tag k="addr:street" v="South Street"/>
    <tag k="addr:state" v="VT"/>
    <tag k="ref:vcgi:esiteid" v="191883"/>
  </node>
  <node id="-1159" visible="true" lat="43.51165211" lon="-73.23400467">
    <tag k="addr:city" v="Poultney"/>
    <tag k="addr:housenumber" v="370"/>
    <tag k="addr:street" v="South Street"/>
    <tag k="addr:state" v="VT"/>
    <tag k="ref:vcgi:esiteid" v="191886"/>
  </node>
  <node id="-1164" visible="true" lat="43.51147896" lon="-73.23403924">
    <tag k="addr:city" v="Poultney"/>
    <tag k="addr:housenumber" v="374"/>
    <tag k="addr:street" v="South Street"/>
    <tag k="addr:state" v="VT"/>
    <tag k="ref:vcgi:esiteid" v="191892"/>
  </node>
  <node id="-1169" visible="true" lat="43.51129967" lon="-73.23408955">
    <tag k="addr:city" v="Poultney"/>
    <tag k="addr:housenumber" v="382"/>
    <tag k="addr:street" v="South Street"/>
    <tag k="addr:state" v="VT"/>
    <tag k="ref:vcgi:esiteid" v="191897"/>
  </node>
  <node id="-1171" visible="true" lat="43.51115071" lon="-73.23411757">
    <tag k="addr:city" v="Poultney"/>
    <tag k="addr:housenumber" v="404"/>
    <tag k="addr:street" v="South Street"/>
    <tag k="addr:state" v="VT"/>
    <tag k="ref:vcgi:esiteid" v="191899"/>
  </node>
  <node id="-1174" visible="true" lat="43.51103682" lon="-73.23421609">
    <tag k="addr:city" v="Poultney"/>
    <tag k="addr:housenumber" v="414"/>
    <tag k="addr:street" v="South Street"/>
    <tag k="addr:state" v="VT"/>
    <tag k="ref:vcgi:esiteid" v="191902"/>
  </node>
  <node id="-1183" visible="true" lat="43.50995378" lon="-73.2345665">
    <tag k="addr:city" v="Poultney"/>
    <tag k="addr:housenumber" v="490"/>
    <tag k="addr:street" v="South Street"/>
    <tag k="addr:state" v="VT"/>
    <tag k="ref:vcgi:esiteid" v="191911"/>
  </node>
  <node id="-1189" visible="true" lat="43.50955963" lon="-73.23410034">
    <tag k="addr:city" v="Poultney"/>
    <tag k="addr:housenumber" v="513"/>
    <tag k="addr:street" v="South Street"/>
    <tag k="addr:state" v="VT"/>
    <tag k="ref:vcgi:esiteid" v="191917"/>
  </node>
  <node id="-1190" visible="true" lat="43.50952529" lon="-73.23467254">
    <tag k="addr:city" v="Poultney"/>
    <tag k="addr:housenumber" v="520"/>
    <tag k="addr:street" v="South Street"/>
    <tag k="addr:state" v="VT"/>
    <tag k="ref:vcgi:esiteid" v="191918"/>
  </node>
  <node id="-1191" visible="true" lat="43.50934982" lon="-73.23419952">
    <tag k="addr:city" v="Poultney"/>
    <tag k="addr:housenumber" v="525"/>
    <tag k="addr:street" v="South Street"/>
    <tag k="addr:state" v="VT"/>
    <tag k="ref:vcgi:esiteid" v="191919"/>
  </node>
  <node id="-1193" visible="true" lat="43.50958633" lon="-73.17572021">
    <tag k="addr:city" v="Poultney"/>
    <tag k="addr:housenumber" v="131"/>
    <tag k="addr:street" v="Town Farm Road"/>
    <tag k="addr:state" v="VT"/>
    <tag k="ref:vcgi:esiteid" v="191921"/>
  </node>
  <node id="-1194" visible="true" lat="43.5092163" lon="-73.2348175">
    <tag k="addr:city" v="Poultney"/>
    <tag k="addr:housenumber" v="540"/>
    <tag k="addr:street" v="South Street"/>
    <tag k="addr:state" v="VT"/>
    <tag k="ref:vcgi:esiteid" v="191922"/>
  </node>
  <node id="-1196" visible="true" lat="43.50904846" lon="-73.23429107">
    <tag k="addr:city" v="Poultney"/>
    <tag k="addr:housenumber" v="553"/>
    <tag k="addr:street" v="South Street"/>
    <tag k="addr:state" v="VT"/>
    <tag k="ref:vcgi:esiteid" v="191924"/>
  </node>
  <node id="-1197" visible="true" lat="43.50902175" lon="-73.23482513">
    <tag k="addr:city" v="Poultney"/>
    <tag k="addr:housenumber" v="558"/>
    <tag k="addr:street" v="South Street"/>
    <tag k="addr:state" v="VT"/>
    <tag k="ref:vcgi:esiteid" v="191925"/>
  </node>
  <node id="-1203" visible="true" lat="43.50862121" lon="-73.23509979">
    <tag k="addr:city" v="Poultney"/>
    <tag k="addr:housenumber" v="584"/>
    <tag k="addr:street" v="South Street"/>
    <tag k="addr:state" v="VT"/>
    <tag k="ref:vcgi:esiteid" v="191931"/>
  </node>
  <node id="-1216" visible="true" lat="43.50681782" lon="-73.24562219">
    <tag k="addr:city" v="Poultney"/>
    <tag k="addr:housenumber" v="959"/>
    <tag k="addr:street" v="Granville Street"/>
    <tag k="addr:state" v="VT"/>
    <tag k="ref:vcgi:esiteid" v="191944"/>
  </node>
  <node id="-1229" visible="true" lat="43.50572122" lon="-73.1708734">
    <tag k="addr:city" v="Poultney"/>
    <tag k="addr:housenumber" v="31"/>
    <tag k="addr:street" v="East Road"/>
    <tag k="addr:state" v="VT"/>
    <tag k="ref:vcgi:esiteid" v="191957"/>
  </node>
  <node id="-1231" visible="true" lat="43.50506973" lon="-73.1721878">
    <tag k="addr:city" v="Poultney"/>
    <tag k="addr:housenumber" v="70"/>
    <tag k="addr:street" v="East Road"/>
    <tag k="addr:state" v="VT"/>
    <tag k="ref:vcgi:esiteid" v="191959"/>
  </node>
  <node id="-1235" visible="true" lat="43.5043284" lon="-73.17041844">
    <tag k="addr:city" v="Poultney"/>
    <tag k="addr:housenumber" v="131"/>
    <tag k="addr:street" v="East Road"/>
    <tag k="addr:state" v="VT"/>
    <tag k="ref:vcgi:esiteid" v="191964"/>
  </node>
  <node id="-1237" visible="true" lat="43.50326146" lon="-73.17630388">
    <tag k="addr:city" v="Poultney"/>
    <tag k="addr:housenumber" v="4376"/>
    <tag k="addr:street" v="Vermont Route 140"/>
    <tag k="addr:state" v="VT"/>
    <tag k="ref:vcgi:esiteid" v="191966"/>
  </node>
  <node id="-1243" visible="true" lat="43.50215911" lon="-73.17110443">
    <tag k="addr:city" v="Poultney"/>
    <tag k="addr:housenumber" v="264"/>
    <tag k="addr:street" v="East Road"/>
    <tag k="addr:state" v="VT"/>
    <tag k="ref:vcgi:esiteid" v="191973"/>
  </node>
  <node id="-1253" visible="true" lat="43.50066401" lon="-73.17260229">
    <tag k="addr:city" v="Poultney"/>
    <tag k="addr:housenumber" v="380"/>
    <tag k="addr:street" v="East Road"/>
    <tag k="addr:state" v="VT"/>
    <tag k="ref:vcgi:esiteid" v="191983"/>
  </node>
  <node id="-1260" visible="true" lat="43.4998926" lon="-73.17253916">
    <tag k="addr:city" v="Poultney"/>
    <tag k="addr:housenumber" v="382"/>
    <tag k="addr:street" v="East Road"/>
    <tag k="addr:state" v="VT"/>
    <tag k="ref:vcgi:esiteid" v="191990"/>
  </node>
  <node id="-1264" visible="true" lat="43.49983034" lon="-73.16935318">
    <tag k="addr:city" v="Poultney"/>
    <tag k="addr:housenumber" v="425"/>
    <tag k="addr:street" v="East Road"/>
    <tag k="addr:state" v="VT"/>
    <tag k="ref:vcgi:esiteid" v="191994"/>
  </node>
  <node id="-1275" visible="true" lat="43.49806914" lon="-73.17024294">
    <tag k="addr:city" v="Poultney"/>
    <tag k="addr:housenumber" v="540"/>
    <tag k="addr:street" v="East Road"/>
    <tag k="addr:state" v="VT"/>
    <tag k="ref:vcgi:esiteid" v="192005"/>
  </node>
  <node id="-1277" visible="true" lat="43.49746714" lon="-73.23561224">
    <tag k="addr:city" v="Poultney"/>
    <tag k="addr:housenumber" v="54"/>
    <tag k="addr:street" v="Jones Road"/>
    <tag k="addr:state" v="VT"/>
    <tag k="ref:vcgi:esiteid" v="192007"/>
  </node>
  <node id="-1278" visible="true" lat="43.49756512" lon="-73.23617157">
    <tag k="addr:city" v="Poultney"/>
    <tag k="addr:housenumber" v="26"/>
    <tag k="addr:street" v="Jones Road"/>
    <tag k="addr:state" v="VT"/>
    <tag k="ref:vcgi:esiteid" v="192008"/>
  </node>
  <node id="-1490" visible="true" lat="43.47447967" lon="-73.2408905">
    <tag k="addr:city" v="Poultney"/>
    <tag k="addr:housenumber" v="84"/>
    <tag k="addr:street" v="Ruby Road"/>
    <tag k="addr:state" v="VT"/>
    <tag k="ref:vcgi:esiteid" v="192223"/>
  </node>
  <node id="-1516" visible="true" lat="43.47249221" lon="-73.24424743">
    <tag k="addr:city" v="Poultney"/>
    <tag k="addr:housenumber" v="54"/>
    <tag k="addr:street" v="New Boston Road"/>
    <tag k="addr:state" v="VT"/>
    <tag k="ref:vcgi:esiteid" v="192249"/>
  </node>
  <node id="-1640" visible="true" lat="43.46566363" lon="-73.22056977">
    <tag k="addr:city" v="Poultney"/>
    <tag k="addr:housenumber" v="178"/>
    <tag k="addr:street" v="Peninsula Drive"/>
    <tag k="addr:state" v="VT"/>
    <tag k="ref:vcgi:esiteid" v="192375"/>
  </node>
  <node id="-1643" visible="true" lat="43.46495991" lon="-73.22240867">
    <tag k="addr:city" v="Poultney"/>
    <tag k="addr:housenumber" v="44"/>
    <tag k="addr:street" v="Oxbow Bay Drive"/>
    <tag k="addr:state" v="VT"/>
    <tag k="ref:vcgi:esiteid" v="192378"/>
  </node>
  <node id="-1690" visible="true" lat="43.49180755" lon="-73.23718204">
    <tag k="addr:city" v="Poultney"/>
    <tag k="addr:housenumber" v="48"/>
    <tag k="addr:street" v="Upper Road"/>
    <tag k="addr:state" v="VT"/>
    <tag k="ref:vcgi:esiteid" v="192427"/>
  </node>
  <node id="-1715" visible="true" lat="43.52524826" lon="-73.22907536">
    <tag k="addr:city" v="Poultney"/>
    <tag k="addr:housenumber" v="335"/>
    <tag k="addr:street" v="Windywood Acres Road"/>
    <tag k="addr:state" v="VT"/>
    <tag k="ref:vcgi:esiteid" v="192455"/>
  </node>
  <node id="-1726" visible="true" lat="43.51716709" lon="-73.23226321">
    <tag k="addr:city" v="Poultney"/>
    <tag k="addr:housenumber" v="21"/>
    <tag k="addr:street" v="East Main Street"/>
    <tag k="addr:state" v="VT"/>
    <tag k="ref:vcgi:esiteid" v="192469"/>
  </node>
  <node id="-1732" visible="true" lat="43.51733876" lon="-73.23301703">
    <tag k="addr:city" v="Poultney"/>
    <tag k="addr:housenumber" v="21"/>
    <tag k="addr:street" v="Beaman Street"/>
    <tag k="addr:state" v="VT"/>
    <tag k="ref:vcgi:esiteid" v="192476"/>
  </node>
  <node id="-1750" visible="true" lat="43.52312086" lon="-73.23819131">
    <tag k="addr:city" v="Poultney"/>
    <tag k="addr:housenumber" v="179"/>
    <tag k="addr:street" v="Allen Avenue"/>
    <tag k="addr:state" v="VT"/>
    <tag k="ref:vcgi:esiteid" v="311161"/>
  </node>
  <node id="-1766" visible="true" lat="43.52153593" lon="-73.2339793">
    <tag k="addr:city" v="Poultney"/>
    <tag k="addr:housenumber" v="60"/>
    <tag k="addr:street" v="Firehouse Lane"/>
    <tag k="addr:state" v="VT"/>
    <tag k="ref:vcgi:esiteid" v="315482"/>
  </node>
  <node id="-1767" visible="true" lat="43.51669209" lon="-73.23241459">
    <tag k="addr:city" v="Poultney"/>
    <tag k="addr:housenumber" v="16"/>
    <tag k="addr:street" v="East Main Street"/>
    <tag k="addr:state" v="VT"/>
    <tag k="ref:vcgi:esiteid" v="317084"/>
  </node>
  <node id="-1768" visible="true" lat="43.51661008" lon="-73.23115485">
    <tag k="addr:city" v="Poultney"/>
    <tag k="addr:housenumber" v="62"/>
    <tag k="addr:street" v="East Main Street"/>
    <tag k="addr:state" v="VT"/>
    <tag k="ref:vcgi:esiteid" v="317085"/>
  </node>
  <node id="-1775" visible="true" lat="43.5237" lon="-73.24124119">
    <tag k="addr:city" v="Poultney"/>
    <tag k="addr:housenumber" v="201"/>
    <tag k="addr:street" v="Norton Avenue"/>
    <tag k="addr:state" v="VT"/>
    <tag k="ref:vcgi:esiteid" v="337273"/>
  </node>
  <node id="-1781" visible="true" lat="43.524247" lon="-73.227442">
    <tag k="addr:city" v="Poultney"/>
    <tag k="addr:housenumber" v="331"/>
    <tag k="addr:street" v="Windywood Acres Road"/>
    <tag k="addr:state" v="VT"/>
    <tag k="ref:vcgi:esiteid" v="337509"/>
  </node>
  <node id="-1795" visible="true" lat="43.52151447" lon="-73.23453391">
    <tag k="addr:city" v="Poultney"/>
    <tag k="addr:housenumber" v="100"/>
    <tag k="addr:street" v="Firehouse Lane"/>
    <tag k="addr:state" v="VT"/>
    <tag k="ref:vcgi:esiteid" v="447915"/>
  </node>
  <node id="-1820" visible="true" lat="43.49686927" lon="-73.1696191">
    <tag k="addr:city" v="Poultney"/>
    <tag k="addr:housenumber" v="650"/>
    <tag k="addr:street" v="East Road"/>
    <tag k="addr:state" v="VT"/>
    <tag k="ref:vcgi:esiteid" v="455013"/>
  </node>
  <node id="-1845" visible="true" lat="43.52700776" lon="-73.20154342">
    <tag k="addr:city" v="Poultney"/>
    <tag k="addr:housenumber" v="110"/>
    <tag k="addr:street" v="Town Hill Road"/>
    <tag k="addr:state" v="VT"/>
    <tag k="ref:vcgi:esiteid" v="756155"/>
  </node>
</osm>
