<?xml version="1.0" encoding="UTF-8"?>
<osm version="0.6" generator="JOSM">
  <node id="-238" visible="true" lat="42.82168251" lon="-73.22601095">
    <!-- conflict: "1591 Carpenter Hill Road, Pownal, VT" Fuzzy match to "1591 Carpenter Hill Road, Bennington, VT" -->
    <tag k="addr:city" v="Pownal"/>
    <tag k="addr:housenumber" v="1591"/>
    <tag k="addr:street" v="Carpenter Hill Road"/>
    <tag k="addr:state" v="VT"/>
    <tag k="ref:vcgi:esiteid" v="192631"/>
  </node>
  <node id="-800" visible="true" lat="42.79613074" lon="-73.22582447">
    <!-- conflict: "59 East Court, Pownal, VT" Fuzzy match to "59 East Court Street, Pownal, VT" -->
    <tag k="addr:city" v="Pownal"/>
    <tag k="addr:housenumber" v="59"/>
    <tag k="addr:street" v="East Court"/>
    <tag k="addr:state" v="VT"/>
    <tag k="ref:vcgi:esiteid" v="193207"/>
  </node>
  <node id="-811" visible="true" lat="42.7959206" lon="-73.22662938">
    <!-- conflict: "38 East Court, Pownal, VT" Fuzzy match to "38 East Court Street, Pownal, VT" -->
    <tag k="addr:city" v="Pownal"/>
    <tag k="addr:housenumber" v="38"/>
    <tag k="addr:street" v="East Court"/>
    <tag k="addr:state" v="VT"/>
    <tag k="ref:vcgi:esiteid" v="193219"/>
  </node>
  <node id="-821" visible="true" lat="42.79587744" lon="-73.22582239">
    <!-- conflict: "73 East Court, Pownal, VT" Fuzzy match to "73 East Court Street, Pownal, VT" -->
    <tag k="addr:city" v="Pownal"/>
    <tag k="addr:housenumber" v="73"/>
    <tag k="addr:street" v="East Court"/>
    <tag k="addr:state" v="VT"/>
    <tag k="ref:vcgi:esiteid" v="193229"/>
  </node>
  <node id="-843" visible="true" lat="42.79555073" lon="-73.22639787">
    <!-- conflict: "98 East Court, Pownal, VT" Fuzzy match to "98 East Court Street, Pownal, VT" -->
    <tag k="addr:city" v="Pownal"/>
    <tag k="addr:housenumber" v="98"/>
    <tag k="addr:street" v="East Court"/>
    <tag k="addr:state" v="VT"/>
    <tag k="ref:vcgi:esiteid" v="193252"/>
  </node>
  <node id="-845" visible="true" lat="42.79552592" lon="-73.22584605">
    <!-- conflict: "97 East Court, Pownal, VT" Fuzzy match to "97 East Court Street, Pownal, VT" -->
    <tag k="addr:city" v="Pownal"/>
    <tag k="addr:housenumber" v="97"/>
    <tag k="addr:street" v="East Court"/>
    <tag k="addr:state" v="VT"/>
    <tag k="ref:vcgi:esiteid" v="193254"/>
  </node>
  <node id="-995" visible="true" lat="42.78972477" lon="-73.25375936">
    <!-- conflict: "2188 Vermont Route 346, Pownal, VT" No match in OSM, but a different address exists <5m away: "2188 Vt Route 346, Pownal, VT" -->
    <tag k="addr:city" v="Pownal"/>
    <tag k="addr:housenumber" v="2188"/>
    <tag k="addr:street" v="Vermont Route 346"/>
    <tag k="addr:state" v="VT"/>
    <tag k="ref:vcgi:esiteid" v="193406"/>
  </node>
  <node id="-999" visible="true" lat="42.78965992" lon="-73.25345418">
    <!-- conflict: "2190 Vermont Route 346, Pownal, VT" No match in OSM, but a different address exists <5m away: "2190 Vt Route 346, Pownal, VT" -->
    <tag k="addr:city" v="Pownal"/>
    <tag k="addr:housenumber" v="2190"/>
    <tag k="addr:street" v="Vermont Route 346"/>
    <tag k="addr:state" v="VT"/>
    <tag k="ref:vcgi:esiteid" v="193410"/>
  </node>
  <node id="-1109" visible="true" lat="42.77996743" lon="-73.24578303">
    <!-- conflict: "1465 Vermont Route 346, Pownal, VT" No match in OSM, but a different address exists <5m away: "1465 Vt Route 346, Pownal, VT" -->
    <tag k="addr:city" v="Pownal"/>
    <tag k="addr:housenumber" v="1465"/>
    <tag k="addr:street" v="Vermont Route 346"/>
    <tag k="addr:state" v="VT"/>
    <tag k="ref:vcgi:esiteid" v="193522"/>
  </node>
  <node id="-1112" visible="true" lat="42.77985649" lon="-73.24649907">
    <!-- conflict: "1467 Vermont Route 346, Pownal, VT" No match in OSM, but a different address exists <5m away: "1467 Vt Route 346, Pownal, VT" -->
    <tag k="addr:city" v="Pownal"/>
    <tag k="addr:housenumber" v="1467"/>
    <tag k="addr:street" v="Vermont Route 346"/>
    <tag k="addr:state" v="VT"/>
    <tag k="ref:vcgi:esiteid" v="193525"/>
  </node>
  <node id="-1172" visible="true" lat="42.76971401" lon="-73.23935309">
    <!-- conflict: "642 Vermont Route 346, Pownal, VT" No match in OSM, but a different address exists <5m away: "642 Vt Route 346, Pownal, VT" -->
    <tag k="addr:city" v="Pownal"/>
    <tag k="addr:housenumber" v="642"/>
    <tag k="addr:street" v="Vermont Route 346"/>
    <tag k="addr:state" v="VT"/>
    <tag k="ref:vcgi:esiteid" v="193588"/>
  </node>
  <node id="-1182" visible="true" lat="42.76906932" lon="-73.23912131">
    <!-- conflict: "594 Vermont Route 346, Pownal, VT" No match in OSM, but a different address exists <5m away: "594 Vt Route 346, Pownal, VT" -->
    <tag k="addr:city" v="Pownal"/>
    <tag k="addr:housenumber" v="594"/>
    <tag k="addr:street" v="Vermont Route 346"/>
    <tag k="addr:state" v="VT"/>
    <tag k="ref:vcgi:esiteid" v="193598"/>
  </node>
  <node id="-1187" visible="true" lat="42.76867313" lon="-73.23912807">
    <!-- conflict: "570 Vermont Route 346, Pownal, VT" No match in OSM, but a different address exists <5m away: "570 Vt Route 346, Pownal, VT" -->
    <tag k="addr:city" v="Pownal"/>
    <tag k="addr:housenumber" v="570"/>
    <tag k="addr:street" v="Vermont Route 346"/>
    <tag k="addr:state" v="VT"/>
    <tag k="ref:vcgi:esiteid" v="193603"/>
  </node>
  <node id="-1191" visible="true" lat="42.76857053" lon="-73.23962657">
    <!-- conflict: "563 Vermont Route 346, Pownal, VT" No match in OSM, but a different address exists <5m away: "563 Vt Route 346, Pownal, VT" -->
    <tag k="addr:city" v="Pownal"/>
    <tag k="addr:housenumber" v="563"/>
    <tag k="addr:street" v="Vermont Route 346"/>
    <tag k="addr:state" v="VT"/>
    <tag k="ref:vcgi:esiteid" v="193607"/>
  </node>
  <node id="-1202" visible="true" lat="42.76840391" lon="-73.23867336">
    <!-- conflict: "550 Vermont Route 346, Pownal, VT" No match in OSM, but a different address exists <5m away: "550 Vt Route 346, Pownal, VT" -->
    <tag k="addr:city" v="Pownal"/>
    <tag k="addr:housenumber" v="550"/>
    <tag k="addr:street" v="Vermont Route 346"/>
    <tag k="addr:state" v="VT"/>
    <tag k="ref:vcgi:esiteid" v="193618"/>
  </node>
  <node id="-1204" visible="true" lat="42.7683815" lon="-73.23956015">
    <!-- conflict: "547 Vermont Route 346, Pownal, VT" No match in OSM, but a different address exists <5m away: "547 Vt Route 346, Pownal, VT" -->
    <tag k="addr:city" v="Pownal"/>
    <tag k="addr:housenumber" v="547"/>
    <tag k="addr:street" v="Vermont Route 346"/>
    <tag k="addr:state" v="VT"/>
    <tag k="ref:vcgi:esiteid" v="193620"/>
  </node>
  <node id="-1343" visible="true" lat="42.76228921" lon="-73.23527284">
    <!-- conflict: "23 Cardinal Boulevard, Pownal, VT" No match in OSM, but a different address exists <5m away: "33 Cardinal Boulevard, Pownal, VT" -->
    <tag k="addr:city" v="Pownal"/>
    <tag k="addr:housenumber" v="23"/>
    <tag k="addr:street" v="Cardinal Boulevard"/>
    <tag k="addr:state" v="VT"/>
    <tag k="ref:vcgi:esiteid" v="193759"/>
  </node>
  <node id="-1558" visible="true" lat="42.74496934" lon="-73.21247993">
    <!-- conflict: "30 Lauzon Drive, Pownal, VT" No match in OSM, but a different address exists <5m away: "7987 U.S. Route 7, Pownal, VT" -->
    <tag k="addr:city" v="Pownal"/>
    <tag k="addr:housenumber" v="30"/>
    <tag k="addr:street" v="Lauzon Drive"/>
    <tag k="addr:state" v="VT"/>
    <tag k="ref:vcgi:esiteid" v="193986"/>
  </node>
  <node id="-1571" visible="true" lat="42.7676465" lon="-73.23838835">
    <!-- conflict: "467 Vermont Route 346, Pownal, VT" No match in OSM, but a different address exists <5m away: "467 Vt Route 346, Pownal, VT" -->
    <tag k="addr:city" v="Pownal"/>
    <tag k="addr:housenumber" v="467"/>
    <tag k="addr:street" v="Vermont Route 346"/>
    <tag k="addr:state" v="VT"/>
    <tag k="ref:vcgi:esiteid" v="193999"/>
  </node>
  <node id="-1572" visible="true" lat="42.76802133" lon="-73.23841997">
    <!-- conflict: "478 Vermont Route 346, Pownal, VT" No match in OSM, but a different address exists <5m away: "478 Vt Route 346, Pownal, VT" -->
    <tag k="addr:city" v="Pownal"/>
    <tag k="addr:housenumber" v="478"/>
    <tag k="addr:street" v="Vermont Route 346"/>
    <tag k="addr:state" v="VT"/>
    <tag k="ref:vcgi:esiteid" v="194000"/>
  </node>
  <node id="-1573" visible="true" lat="42.76754133" lon="-73.23732377">
    <!-- conflict: "414 Vermont Route 346, Pownal, VT" No match in OSM, but a different address exists <5m away: "414 Vt Route 346, Pownal, VT" -->
    <tag k="addr:city" v="Pownal"/>
    <tag k="addr:housenumber" v="414"/>
    <tag k="addr:street" v="Vermont Route 346"/>
    <tag k="addr:state" v="VT"/>
    <tag k="ref:vcgi:esiteid" v="194001"/>
  </node>
  <node id="-1574" visible="true" lat="42.76727066" lon="-73.23700505">
    <!-- conflict: "408 Vermont Route 346, Pownal, VT" No match in OSM, but a different address exists <5m away: "408 Vt Route 346, Pownal, VT" -->
    <tag k="addr:city" v="Pownal"/>
    <tag k="addr:housenumber" v="408"/>
    <tag k="addr:street" v="Vermont Route 346"/>
    <tag k="addr:state" v="VT"/>
    <tag k="ref:vcgi:esiteid" v="194002"/>
  </node>
  <node id="-1575" visible="true" lat="42.76692219" lon="-73.23665248">
    <!-- conflict: "388 Vermont Route 346, Pownal, VT" No match in OSM, but a different address exists <5m away: "388 Vt Route 346, Pownal, VT" -->
    <tag k="addr:city" v="Pownal"/>
    <tag k="addr:housenumber" v="388"/>
    <tag k="addr:street" v="Vermont Route 346"/>
    <tag k="addr:state" v="VT"/>
    <tag k="ref:vcgi:esiteid" v="194003"/>
  </node>
  <node id="-1576" visible="true" lat="42.7665514" lon="-73.2370146">
    <!-- conflict: "355 Vermont Route 346, Pownal, VT" No match in OSM, but a different address exists <5m away: "355 Vt Route 346, Pownal, VT" -->
    <tag k="addr:city" v="Pownal"/>
    <tag k="addr:housenumber" v="355"/>
    <tag k="addr:street" v="Vermont Route 346"/>
    <tag k="addr:state" v="VT"/>
    <tag k="ref:vcgi:esiteid" v="194004"/>
  </node>
  <node id="-1577" visible="true" lat="42.76625295" lon="-73.23682907">
    <!-- conflict: "335 Vermont Route 346, Pownal, VT" No match in OSM, but a different address exists <5m away: "335 Vt Route 346, Pownal, VT" -->
    <tag k="addr:city" v="Pownal"/>
    <tag k="addr:housenumber" v="335"/>
    <tag k="addr:street" v="Vermont Route 346"/>
    <tag k="addr:state" v="VT"/>
    <tag k="ref:vcgi:esiteid" v="194005"/>
  </node>
  <node id="-1578" visible="true" lat="42.76577622" lon="-73.23633612">
    <!-- conflict: "319 Vermont Route 346, Pownal, VT" No match in OSM, but a different address exists <5m away: "319 Vt Route 346, Pownal, VT" -->
    <tag k="addr:city" v="Pownal"/>
    <tag k="addr:housenumber" v="319"/>
    <tag k="addr:street" v="Vermont Route 346"/>
    <tag k="addr:state" v="VT"/>
    <tag k="ref:vcgi:esiteid" v="194006"/>
  </node>
  <node id="-1605" visible="true" lat="42.76742329" lon="-73.23832898">
    <!-- conflict: "471 Vermont Route 346, Pownal, VT" No match in OSM, but a different address exists <5m away: "471 Vt Route 346, Pownal, VT" -->
    <tag k="addr:city" v="Pownal"/>
    <tag k="addr:housenumber" v="471"/>
    <tag k="addr:street" v="Vermont Route 346"/>
    <tag k="addr:state" v="VT"/>
    <tag k="ref:vcgi:esiteid" v="194035"/>
  </node>
  <node id="-1606" visible="true" lat="42.7676039" lon="-73.23856756">
    <!-- conflict: "469 Vermont Route 346, Pownal, VT" No match in OSM, but a different address exists <5m away: "469 Vt Route 346, Pownal, VT" -->
    <tag k="addr:city" v="Pownal"/>
    <tag k="addr:housenumber" v="469"/>
    <tag k="addr:street" v="Vermont Route 346"/>
    <tag k="addr:state" v="VT"/>
    <tag k="ref:vcgi:esiteid" v="194036"/>
  </node>
  <node id="-1652" visible="true" lat="42.76502848" lon="-73.23607339">
    <!-- conflict: "253 Vermont Route 346, Pownal, VT" No match in OSM, but a different address exists <5m away: "253 Vt Route 346, Pownal, VT" -->
    <tag k="addr:city" v="Pownal"/>
    <tag k="addr:housenumber" v="253"/>
    <tag k="addr:street" v="Vermont Route 346"/>
    <tag k="addr:state" v="VT"/>
    <tag k="ref:vcgi:esiteid" v="194083"/>
  </node>
  <node id="-1654" visible="true" lat="42.76546963" lon="-73.23554367">
    <!-- conflict: "252 Vermont Route 346, Pownal, VT" No match in OSM, but a different address exists <5m away: "252 Vt Route 346, Pownal, VT" -->
    <tag k="addr:city" v="Pownal"/>
    <tag k="addr:housenumber" v="252"/>
    <tag k="addr:street" v="Vermont Route 346"/>
    <tag k="addr:state" v="VT"/>
    <tag k="ref:vcgi:esiteid" v="194085"/>
  </node>
  <node id="-1655" visible="true" lat="42.76516621" lon="-73.23514496">
    <!-- conflict: "224 Vermont Route 346, Pownal, VT" No match in OSM, but a different address exists <5m away: "224 Vt Route 346, Pownal, VT" -->
    <tag k="addr:city" v="Pownal"/>
    <tag k="addr:housenumber" v="224"/>
    <tag k="addr:street" v="Vermont Route 346"/>
    <tag k="addr:state" v="VT"/>
    <tag k="ref:vcgi:esiteid" v="194086"/>
  </node>
  <node id="-1656" visible="true" lat="42.76534115" lon="-73.23525911">
    <!-- conflict: "242 Vermont Route 346, Pownal, VT" No match in OSM, but a different address exists <5m away: "242 Vt Route 346, Pownal, VT" -->
    <tag k="addr:city" v="Pownal"/>
    <tag k="addr:housenumber" v="242"/>
    <tag k="addr:street" v="Vermont Route 346"/>
    <tag k="addr:state" v="VT"/>
    <tag k="ref:vcgi:esiteid" v="194087"/>
  </node>
  <node id="-1657" visible="true" lat="42.76565176" lon="-73.23626202">
    <!-- conflict: "293 Vermont Route 346, Pownal, VT" No match in OSM, but a different address exists <5m away: "293 Vt Route 346, Pownal, VT" -->
    <tag k="addr:city" v="Pownal"/>
    <tag k="addr:housenumber" v="293"/>
    <tag k="addr:street" v="Vermont Route 346"/>
    <tag k="addr:state" v="VT"/>
    <tag k="ref:vcgi:esiteid" v="194088"/>
  </node>
  <node id="-1658" visible="true" lat="42.76416543" lon="-73.23447234">
    <!-- conflict: "153 Vermont Route 346, Pownal, VT" No match in OSM, but a different address exists <5m away: "153 Vt Route 346, Pownal, VT" -->
    <tag k="addr:city" v="Pownal"/>
    <tag k="addr:housenumber" v="153"/>
    <tag k="addr:street" v="Vermont Route 346"/>
    <tag k="addr:state" v="VT"/>
    <tag k="ref:vcgi:esiteid" v="194089"/>
  </node>
  <node id="-1659" visible="true" lat="42.76399131" lon="-73.23413863">
    <!-- conflict: "143 Vermont Route 346, Pownal, VT" No match in OSM, but a different address exists <5m away: "143 Vt Route 346, Pownal, VT" -->
    <tag k="addr:city" v="Pownal"/>
    <tag k="addr:housenumber" v="143"/>
    <tag k="addr:street" v="Vermont Route 346"/>
    <tag k="addr:state" v="VT"/>
    <tag k="ref:vcgi:esiteid" v="194090"/>
  </node>
  <node id="-1660" visible="true" lat="42.76428892" lon="-73.23377168">
    <!-- conflict: "126 Vermont Route 346, Pownal, VT" No match in OSM, but a different address exists <5m away: "126 Vt Route 346, Pownal, VT" -->
    <tag k="addr:city" v="Pownal"/>
    <tag k="addr:housenumber" v="126"/>
    <tag k="addr:street" v="Vermont Route 346"/>
    <tag k="addr:state" v="VT"/>
    <tag k="ref:vcgi:esiteid" v="194091"/>
  </node>
  <node id="-1661" visible="true" lat="42.76412499" lon="-73.23315258">
    <!-- conflict: "80 Vermont Route 346, Pownal, VT" No match in OSM, but a different address exists <5m away: "80 Vt Route 346, Pownal, VT" -->
    <tag k="addr:city" v="Pownal"/>
    <tag k="addr:housenumber" v="80"/>
    <tag k="addr:street" v="Vermont Route 346"/>
    <tag k="addr:state" v="VT"/>
    <tag k="ref:vcgi:esiteid" v="194092"/>
  </node>
  <node id="-1922" visible="true" lat="42.74495536" lon="-73.21294221">
    <!-- conflict: "10 Lauzon Drive, Pownal, VT" No match in OSM, but a different address exists <5m away: "1250 Simonds Road, Williamstown, MA" -->
    <tag k="addr:city" v="Pownal"/>
    <tag k="addr:housenumber" v="10"/>
    <tag k="addr:street" v="Lauzon Drive"/>
    <tag k="addr:state" v="VT"/>
    <tag k="ref:vcgi:esiteid" v="756584"/>
  </node>
</osm>
