<?xml version="1.0" encoding="UTF-8"?>
<osm version="0.6" generator="JOSM">
  <node id="-105" visible="true" lat="43.67522419" lon="-73.04060252">
    <tag k="addr:housenumber" v="99"/>
    <tag k="addr:street" v="Gorham Bridge Road"/>
    <tag k="addr:state" v="VT"/>
    <tag k="ref:vcgi:esiteid" v="194154"/>
  </node>
  <node id="-106" visible="true" lat="43.67421437" lon="-73.03976873">
    <tag k="addr:housenumber" v="86"/>
    <tag k="addr:street" v="Gorham Bridge Road"/>
    <tag k="addr:state" v="VT"/>
    <tag k="ref:vcgi:esiteid" v="194155"/>
  </node>
  <node id="-107" visible="true" lat="43.67269591" lon="-73.03985435">
    <tag k="addr:housenumber" v="68"/>
    <tag k="addr:street" v="Gorham Bridge Road"/>
    <tag k="addr:state" v="VT"/>
    <tag k="ref:vcgi:esiteid" v="194156"/>
  </node>
  <node id="-108" visible="true" lat="43.67236827" lon="-73.03965409">
    <tag k="addr:housenumber" v="56"/>
    <tag k="addr:street" v="Gorham Bridge Road"/>
    <tag k="addr:state" v="VT"/>
    <tag k="ref:vcgi:esiteid" v="194157"/>
  </node>
  <node id="-109" visible="true" lat="43.67232059" lon="-73.03993804">
    <tag k="addr:housenumber" v="60"/>
    <tag k="addr:street" v="Gorham Bridge Road"/>
    <tag k="addr:state" v="VT"/>
    <tag k="ref:vcgi:esiteid" v="194158"/>
  </node>
  <node id="-110" visible="true" lat="43.67232272" lon="-73.04034557">
    <tag k="addr:housenumber" v="69"/>
    <tag k="addr:street" v="Gorham Bridge Road"/>
    <tag k="addr:state" v="VT"/>
    <tag k="ref:vcgi:esiteid" v="194159"/>
  </node>
  <node id="-111" visible="true" lat="43.671875" lon="-73.03973388">
    <tag k="addr:housenumber" v="50"/>
    <tag k="addr:street" v="Gorham Bridge Road"/>
    <tag k="addr:state" v="VT"/>
    <tag k="ref:vcgi:esiteid" v="194160"/>
  </node>
  <node id="-112" visible="true" lat="43.67190327" lon="-73.04045583">
    <tag k="addr:housenumber" v="55"/>
    <tag k="addr:street" v="Gorham Bridge Road"/>
    <tag k="addr:state" v="VT"/>
    <tag k="ref:vcgi:esiteid" v="194161"/>
  </node>
  <node id="-113" visible="true" lat="43.67150497" lon="-73.0404663">
    <tag k="addr:housenumber" v="60"/>
    <tag k="addr:street" v="Pleasant Street"/>
    <tag k="addr:state" v="VT"/>
    <tag k="ref:vcgi:esiteid" v="194162"/>
  </node>
  <node id="-114" visible="true" lat="43.6714841" lon="-73.03977904">
    <tag k="addr:housenumber" v="46"/>
    <tag k="addr:street" v="Gorham Bridge Road"/>
    <tag k="addr:state" v="VT"/>
    <tag k="ref:vcgi:esiteid" v="194163"/>
  </node>
  <node id="-116" visible="true" lat="43.67073398" lon="-73.03701251">
    <tag k="addr:housenumber" v="23"/>
    <tag k="addr:street" v="Elm Street"/>
    <tag k="addr:state" v="VT"/>
    <tag k="ref:vcgi:esiteid" v="194166"/>
  </node>
  <node id="-117" visible="true" lat="43.67069625" lon="-73.03736877">
    <tag k="addr:housenumber" v="17"/>
    <tag k="addr:street" v="Elm Street"/>
    <tag k="addr:state" v="VT"/>
    <tag k="ref:vcgi:esiteid" v="194167"/>
  </node>
  <node id="-118" visible="true" lat="43.67069165" lon="-73.03786316">
    <tag k="addr:housenumber" v="15"/>
    <tag k="addr:street" v="Elm Street"/>
    <tag k="addr:state" v="VT"/>
    <tag k="ref:vcgi:esiteid" v="194168"/>
  </node>
  <node id="-120" visible="true" lat="43.67043007" lon="-73.03682038">
    <tag k="addr:housenumber" v="22"/>
    <tag k="addr:street" v="Elm Street"/>
    <tag k="addr:state" v="VT"/>
    <tag k="ref:vcgi:esiteid" v="194171"/>
  </node>
  <node id="-121" visible="true" lat="43.67033767" lon="-73.03972625">
    <tag k="addr:housenumber" v="31"/>
    <tag k="addr:street" v="Gorham Bridge Road"/>
    <tag k="addr:state" v="VT"/>
    <tag k="ref:vcgi:esiteid" v="194172"/>
  </node>
  <node id="-123" visible="true" lat="43.67041065" lon="-73.03722524">
    <tag k="addr:housenumber" v="16"/>
    <tag k="addr:street" v="Elm Street"/>
    <tag k="addr:state" v="VT"/>
    <tag k="ref:vcgi:esiteid" v="194174"/>
  </node>
  <node id="-124" visible="true" lat="43.67013268" lon="-73.03932039">
    <tag k="addr:housenumber" v="29"/>
    <tag k="addr:street" v="Gorham Bridge Road"/>
    <tag k="addr:state" v="VT"/>
    <tag k="ref:vcgi:esiteid" v="194175"/>
  </node>
  <node id="-127" visible="true" lat="43.66999053" lon="-73.0351181">
    <tag k="addr:housenumber" v="41"/>
    <tag k="addr:street" v="Meadow Street"/>
    <tag k="addr:state" v="VT"/>
    <tag k="ref:vcgi:esiteid" v="194178"/>
  </node>
  <node id="-128" visible="true" lat="43.66996765" lon="-73.03549194">
    <tag k="addr:housenumber" v="37"/>
    <tag k="addr:street" v="Meadow Street"/>
    <tag k="addr:state" v="VT"/>
    <tag k="ref:vcgi:esiteid" v="194179"/>
  </node>
  <node id="-129" visible="true" lat="43.66994476" lon="-73.03577423">
    <tag k="addr:housenumber" v="33"/>
    <tag k="addr:street" v="Meadow Street"/>
    <tag k="addr:state" v="VT"/>
    <tag k="ref:vcgi:esiteid" v="194180"/>
  </node>
  <node id="-130" visible="true" lat="43.66993495" lon="-73.03608746">
    <tag k="addr:housenumber" v="29"/>
    <tag k="addr:street" v="Meadow Street"/>
    <tag k="addr:state" v="VT"/>
    <tag k="ref:vcgi:esiteid" v="194181"/>
  </node>
  <node id="-131" visible="true" lat="43.66992668" lon="-73.03637368">
    <tag k="addr:housenumber" v="25"/>
    <tag k="addr:street" v="Meadow Street"/>
    <tag k="addr:state" v="VT"/>
    <tag k="ref:vcgi:esiteid" v="194182"/>
  </node>
  <node id="-132" visible="true" lat="43.66992493" lon="-73.03666375">
    <tag k="addr:housenumber" v="23"/>
    <tag k="addr:street" v="Meadow Street"/>
    <tag k="addr:state" v="VT"/>
    <tag k="ref:vcgi:esiteid" v="194183"/>
  </node>
  <node id="-133" visible="true" lat="43.669881" lon="-73.03735921">
    <tag k="addr:housenumber" v="15"/>
    <tag k="addr:street" v="Meadow Street"/>
    <tag k="addr:state" v="VT"/>
    <tag k="ref:vcgi:esiteid" v="194184"/>
  </node>
  <node id="-135" visible="true" lat="43.67036931" lon="-73.03977201">
    <tag k="addr:housenumber" v="33"/>
    <tag k="addr:street" v="Gorham Bridge Road"/>
    <tag k="addr:state" v="VT"/>
    <tag k="ref:vcgi:esiteid" v="194186"/>
  </node>
  <node id="-136" visible="true" lat="43.66986463" lon="-73.03778547">
    <tag k="addr:housenumber" v="9"/>
    <tag k="addr:street" v="Meadow Street"/>
    <tag k="addr:state" v="VT"/>
    <tag k="ref:vcgi:esiteid" v="194188"/>
  </node>
  <node id="-139" visible="true" lat="43.66985186" lon="-73.0380349">
    <tag k="addr:housenumber" v="7"/>
    <tag k="addr:street" v="Meadow Street"/>
    <tag k="addr:state" v="VT"/>
    <tag k="ref:vcgi:esiteid" v="194191"/>
  </node>
  <node id="-141" visible="true" lat="43.66969084" lon="-73.03499281">
    <tag k="addr:housenumber" v="1"/>
    <tag k="addr:street" v="Willow Street"/>
    <tag k="addr:state" v="VT"/>
    <tag k="ref:vcgi:esiteid" v="194194"/>
  </node>
  <node id="-143" visible="true" lat="43.66957469" lon="-73.03759476">
    <tag k="addr:housenumber" v="12"/>
    <tag k="addr:street" v="Meadow Street"/>
    <tag k="addr:state" v="VT"/>
    <tag k="ref:vcgi:esiteid" v="194196"/>
  </node>
  <node id="-145" visible="true" lat="43.6695637" lon="-73.03785443">
    <tag k="addr:housenumber" v="10"/>
    <tag k="addr:street" v="Meadow Street"/>
    <tag k="addr:state" v="VT"/>
    <tag k="ref:vcgi:esiteid" v="194198"/>
  </node>
  <node id="-146" visible="true" lat="43.6695952" lon="-73.03725915">
    <tag k="addr:housenumber" v="16"/>
    <tag k="addr:street" v="Meadow Street"/>
    <tag k="addr:state" v="VT"/>
    <tag k="ref:vcgi:esiteid" v="194199"/>
  </node>
  <node id="-147" visible="true" lat="43.66970913" lon="-73.03447675">
    <tag k="addr:housenumber" v="2"/>
    <tag k="addr:street" v="Willow Street"/>
    <tag k="addr:state" v="VT"/>
    <tag k="ref:vcgi:esiteid" v="194200"/>
  </node>
  <node id="-151" visible="true" lat="43.66950847" lon="-73.03596653">
    <tag k="addr:housenumber" v="5"/>
    <tag k="addr:street" v="Beech Street"/>
    <tag k="addr:state" v="VT"/>
    <tag k="ref:vcgi:esiteid" v="194205"/>
  </node>
  <node id="-153" visible="true" lat="43.66953394" lon="-73.03827378">
    <tag k="addr:housenumber" v="4"/>
    <tag k="addr:street" v="Meadow Street"/>
    <tag k="addr:state" v="VT"/>
    <tag k="ref:vcgi:esiteid" v="194207"/>
  </node>
  <node id="-154" visible="true" lat="43.66952908" lon="-73.03424302">
    <tag k="addr:housenumber" v="6"/>
    <tag k="addr:street" v="Willow Street"/>
    <tag k="addr:state" v="VT"/>
    <tag k="ref:vcgi:esiteid" v="194208"/>
  </node>
  <node id="-159" visible="true" lat="43.66938255" lon="-73.03494974">
    <tag k="addr:housenumber" v="5"/>
    <tag k="addr:street" v="Willow Street"/>
    <tag k="addr:state" v="VT"/>
    <tag k="ref:vcgi:esiteid" v="194213"/>
  </node>
  <node id="-161" visible="true" lat="43.66923598" lon="-73.03478624">
    <tag k="addr:housenumber" v="7"/>
    <tag k="addr:street" v="Willow Street"/>
    <tag k="addr:state" v="VT"/>
    <tag k="ref:vcgi:esiteid" v="194216"/>
  </node>
  <node id="-162" visible="true" lat="43.66906191" lon="-73.03777606">
    <tag k="addr:housenumber" v="3"/>
    <tag k="addr:street" v="Gorham Bridge Road"/>
    <tag k="addr:state" v="VT"/>
    <tag k="ref:vcgi:esiteid" v="194217"/>
  </node>
  <node id="-163" visible="true" lat="43.66915814" lon="-73.03429196">
    <tag k="addr:housenumber" v="12"/>
    <tag k="addr:street" v="Willow Street"/>
    <tag k="addr:state" v="VT"/>
    <tag k="ref:vcgi:esiteid" v="194218"/>
  </node>
  <node id="-165" visible="true" lat="43.6690724" lon="-73.03748081">
    <tag k="addr:housenumber" v="1"/>
    <tag k="addr:street" v="Gorham Bridge Road"/>
    <tag k="addr:state" v="VT"/>
    <tag k="ref:vcgi:esiteid" v="194220"/>
  </node>
  <node id="-166" visible="true" lat="43.66894636" lon="-73.03849889">
    <tag k="addr:housenumber" v="11"/>
    <tag k="addr:street" v="Gorham Bridge Road"/>
    <tag k="addr:state" v="VT"/>
    <tag k="ref:vcgi:esiteid" v="194221"/>
  </node>
  <node id="-167" visible="true" lat="43.66904004" lon="-73.03806094">
    <tag k="addr:housenumber" v="7"/>
    <tag k="addr:street" v="Gorham Bridge Road"/>
    <tag k="addr:state" v="VT"/>
    <tag k="ref:vcgi:esiteid" v="194222"/>
  </node>
  <node id="-169" visible="true" lat="43.66905443" lon="-73.03547086">
    <tag k="addr:housenumber" v="11"/>
    <tag k="addr:street" v="Beech Street"/>
    <tag k="addr:state" v="VT"/>
    <tag k="ref:vcgi:esiteid" v="194224"/>
  </node>
  <node id="-170" visible="true" lat="43.66892691" lon="-73.03419125">
    <tag k="addr:housenumber" v="14"/>
    <tag k="addr:street" v="Willow Street"/>
    <tag k="addr:state" v="VT"/>
    <tag k="ref:vcgi:esiteid" v="194225"/>
  </node>
  <node id="-172" visible="true" lat="43.66896875" lon="-73.03679934">
    <tag k="addr:housenumber" v="118"/>
    <tag k="addr:street" v="North Street"/>
    <tag k="addr:state" v="VT"/>
    <tag k="ref:vcgi:esiteid" v="194227"/>
  </node>
  <node id="-175" visible="true" lat="43.66864276" lon="-73.03453721">
    <tag k="addr:housenumber" v="15"/>
    <tag k="addr:street" v="Willow Street"/>
    <tag k="addr:state" v="VT"/>
    <tag k="ref:vcgi:esiteid" v="194230"/>
  </node>
  <node id="-177" visible="true" lat="43.66854278" lon="-73.03679077">
    <tag k="addr:housenumber" v="110"/>
    <tag k="addr:street" v="North Street"/>
    <tag k="addr:state" v="VT"/>
    <tag k="ref:vcgi:esiteid" v="194233"/>
  </node>
  <node id="-190" visible="true" lat="43.66740036" lon="-73.03626251">
    <tag k="addr:housenumber" v="22"/>
    <tag k="addr:street" v="Terrace Hill"/>
    <tag k="addr:state" v="VT"/>
    <tag k="ref:vcgi:esiteid" v="194247"/>
  </node>
  <node id="-192" visible="true" lat="43.66740478" lon="-73.0397274">
    <tag k="addr:housenumber" v="13"/>
    <tag k="addr:street" v="Eden Avenue"/>
    <tag k="addr:state" v="VT"/>
    <tag k="ref:vcgi:esiteid" v="194250"/>
  </node>
  <node id="-193" visible="true" lat="43.66739983" lon="-73.03913463">
    <tag k="addr:housenumber" v="7"/>
    <tag k="addr:street" v="Eden Avenue"/>
    <tag k="addr:state" v="VT"/>
    <tag k="ref:vcgi:esiteid" v="194251"/>
  </node>
  <node id="-196" visible="true" lat="43.66710687" lon="-73.03648216">
    <tag k="addr:housenumber" v="18"/>
    <tag k="addr:street" v="Terrace Hill"/>
    <tag k="addr:state" v="VT"/>
    <tag k="ref:vcgi:esiteid" v="194254"/>
  </node>
  <node id="-198" visible="true" lat="43.66681151" lon="-73.03818177">
    <tag k="addr:housenumber" v="87"/>
    <tag k="addr:street" v="North Street"/>
    <tag k="addr:state" v="VT"/>
    <tag k="ref:vcgi:esiteid" v="194257"/>
  </node>
  <node id="-199" visible="true" lat="43.66686091" lon="-73.03649428">
    <tag k="addr:housenumber" v="14"/>
    <tag k="addr:street" v="Terrace Hill"/>
    <tag k="addr:state" v="VT"/>
    <tag k="ref:vcgi:esiteid" v="194258"/>
  </node>
  <node id="-201" visible="true" lat="43.66659568" lon="-73.04004788">
    <tag k="addr:housenumber" v="25"/>
    <tag k="addr:street" v="Florence Road"/>
    <tag k="addr:state" v="VT"/>
    <tag k="ref:vcgi:esiteid" v="194260"/>
  </node>
  <node id="-202" visible="true" lat="43.6664461" lon="-73.03783876">
    <tag k="addr:housenumber" v="80"/>
    <tag k="addr:street" v="North Street"/>
    <tag k="addr:state" v="VT"/>
    <tag k="ref:vcgi:esiteid" v="194261"/>
  </node>
  <node id="-205" visible="true" lat="43.66632703" lon="-73.02377291">
    <tag k="addr:housenumber" v="12"/>
    <tag k="addr:street" v="Newton Street"/>
    <tag k="addr:state" v="VT"/>
    <tag k="ref:vcgi:esiteid" v="194265"/>
  </node>
  <node id="-206" visible="true" lat="43.66630172" lon="-73.02421746">
    <tag k="addr:housenumber" v="18"/>
    <tag k="addr:street" v="Newton Street"/>
    <tag k="addr:state" v="VT"/>
    <tag k="ref:vcgi:esiteid" v="194266"/>
  </node>
  <node id="-207" visible="true" lat="43.6663104" lon="-73.02398876">
    <tag k="addr:housenumber" v="16"/>
    <tag k="addr:street" v="Newton Street"/>
    <tag k="addr:state" v="VT"/>
    <tag k="ref:vcgi:esiteid" v="194267"/>
  </node>
  <node id="-208" visible="true" lat="43.66619491" lon="-73.03678131">
    <tag k="addr:housenumber" v="10"/>
    <tag k="addr:street" v="Terrace Hill"/>
    <tag k="addr:state" v="VT"/>
    <tag k="ref:vcgi:esiteid" v="194268"/>
  </node>
  <node id="-210" visible="true" lat="43.66609538" lon="-73.02363519">
    <tag k="addr:housenumber" v="9"/>
    <tag k="addr:street" v="Newton Street"/>
    <tag k="addr:state" v="VT"/>
    <tag k="ref:vcgi:esiteid" v="194271"/>
  </node>
  <node id="-211" visible="true" lat="43.6660827" lon="-73.02386192">
    <tag k="addr:housenumber" v="11"/>
    <tag k="addr:street" v="Newton Street"/>
    <tag k="addr:state" v="VT"/>
    <tag k="ref:vcgi:esiteid" v="194273"/>
  </node>
  <node id="-212" visible="true" lat="43.66608638" lon="-73.02408184">
    <tag k="addr:housenumber" v="17"/>
    <tag k="addr:street" v="Newton Street"/>
    <tag k="addr:state" v="VT"/>
    <tag k="ref:vcgi:esiteid" v="194274"/>
  </node>
  <node id="-213" visible="true" lat="43.66607515" lon="-73.02431488">
    <tag k="addr:housenumber" v="19"/>
    <tag k="addr:street" v="Newton Street"/>
    <tag k="addr:state" v="VT"/>
    <tag k="ref:vcgi:esiteid" v="194275"/>
  </node>
  <node id="-216" visible="true" lat="43.66583469" lon="-73.03843997">
    <tag k="addr:housenumber" v="73"/>
    <tag k="addr:street" v="North Street"/>
    <tag k="addr:state" v="VT"/>
    <tag k="ref:vcgi:esiteid" v="194278"/>
  </node>
  <node id="-218" visible="true" lat="43.66555769" lon="-73.03953919">
    <tag k="addr:housenumber" v="27"/>
    <tag k="addr:street" v="Green Square"/>
    <tag k="addr:state" v="VT"/>
    <tag k="ref:vcgi:esiteid" v="194280"/>
  </node>
  <node id="-220" visible="true" lat="43.66543579" lon="-73.0247879">
    <tag k="addr:housenumber" v="21"/>
    <tag k="addr:street" v="Garden Street"/>
    <tag k="addr:state" v="VT"/>
    <tag k="ref:vcgi:esiteid" v="194282"/>
  </node>
  <node id="-221" visible="true" lat="43.66540757" lon="-73.03894982">
    <tag k="addr:housenumber" v="32"/>
    <tag k="addr:street" v="Green Square"/>
    <tag k="addr:state" v="VT"/>
    <tag k="ref:vcgi:esiteid" v="194283"/>
  </node>
  <node id="-223" visible="true" lat="43.66530516" lon="-73.03971126">
    <tag k="addr:housenumber" v="24"/>
    <tag k="addr:street" v="Green Square"/>
    <tag k="addr:state" v="VT"/>
    <tag k="ref:vcgi:esiteid" v="194285"/>
  </node>
  <node id="-224" visible="true" lat="43.66524505" lon="-73.02488708">
    <tag k="addr:housenumber" v="17"/>
    <tag k="addr:street" v="Garden Street"/>
    <tag k="addr:state" v="VT"/>
    <tag k="ref:vcgi:esiteid" v="194286"/>
  </node>
  <node id="-225" visible="true" lat="43.66534029" lon="-73.0244383">
    <tag k="addr:housenumber" v="22"/>
    <tag k="addr:street" v="Garden Street"/>
    <tag k="addr:state" v="VT"/>
    <tag k="ref:vcgi:esiteid" v="194287"/>
  </node>
  <node id="-226" visible="true" lat="43.66513728" lon="-73.03161942">
    <tag k="addr:housenumber" v="139"/>
    <tag k="addr:street" v="Patch Street"/>
    <tag k="addr:state" v="VT"/>
    <tag k="ref:vcgi:esiteid" v="194288"/>
  </node>
  <node id="-227" visible="true" lat="43.66522007" lon="-73.02449738">
    <tag k="addr:housenumber" v="18"/>
    <tag k="addr:street" v="Garden Street"/>
    <tag k="addr:state" v="VT"/>
    <tag k="ref:vcgi:esiteid" v="194289"/>
  </node>
  <node id="-229" visible="true" lat="43.66505346" lon="-73.0249932">
    <tag k="addr:housenumber" v="15"/>
    <tag k="addr:street" v="Garden Street"/>
    <tag k="addr:state" v="VT"/>
    <tag k="ref:vcgi:esiteid" v="194291"/>
  </node>
  <node id="-230" visible="true" lat="43.66500941" lon="-73.0239618">
    <tag k="addr:housenumber" v="6"/>
    <tag k="addr:street" v="Garden Street"/>
    <tag k="addr:state" v="VT"/>
    <tag k="ref:vcgi:esiteid" v="194292"/>
  </node>
  <node id="-232" visible="true" lat="43.66498232" lon="-73.0247016">
    <tag k="addr:housenumber" v="11"/>
    <tag k="addr:street" v="Garden Street"/>
    <tag k="addr:state" v="VT"/>
    <tag k="ref:vcgi:esiteid" v="194296"/>
  </node>
  <node id="-233" visible="true" lat="43.66462707" lon="-73.04663085">
    <tag k="addr:housenumber" v="91"/>
    <tag k="addr:street" v="Beaver Pond Road"/>
    <tag k="addr:state" v="VT"/>
    <tag k="ref:vcgi:esiteid" v="194297"/>
  </node>
  <node id="-237" visible="true" lat="43.66459772" lon="-73.02396187">
    <tag k="addr:housenumber" v="105"/>
    <tag k="addr:street" v="East Street"/>
    <tag k="addr:state" v="VT"/>
    <tag k="ref:vcgi:esiteid" v="194301"/>
  </node>
  <node id="-238" visible="true" lat="43.66455339" lon="-73.02536566">
    <tag k="addr:housenumber" v="12"/>
    <tag k="addr:street" v="Field Street"/>
    <tag k="addr:state" v="VT"/>
    <tag k="ref:vcgi:esiteid" v="194302"/>
  </node>
  <node id="-240" visible="true" lat="43.66437148" lon="-73.04624938">
    <tag k="addr:housenumber" v="87"/>
    <tag k="addr:street" v="Beaver Pond Road"/>
    <tag k="addr:state" v="VT"/>
    <tag k="ref:vcgi:esiteid" v="194304"/>
  </node>
  <node id="-241" visible="true" lat="43.66452797" lon="-73.02426657">
    <tag k="addr:housenumber" v="101"/>
    <tag k="addr:street" v="East Street"/>
    <tag k="addr:state" v="VT"/>
    <tag k="ref:vcgi:esiteid" v="194305"/>
  </node>
  <node id="-243" visible="true" lat="43.66439044" lon="-73.02521507">
    <tag k="addr:housenumber" v="8"/>
    <tag k="addr:street" v="Field Street"/>
    <tag k="addr:state" v="VT"/>
    <tag k="ref:vcgi:esiteid" v="194307"/>
  </node>
  <node id="-244" visible="true" lat="43.66412826" lon="-73.04595005">
    <tag k="addr:housenumber" v="83"/>
    <tag k="addr:street" v="Beaver Pond Road"/>
    <tag k="addr:state" v="VT"/>
    <tag k="ref:vcgi:esiteid" v="194308"/>
  </node>
  <node id="-246" visible="true" lat="43.66429124" lon="-73.02441908">
    <tag k="addr:housenumber" v="95"/>
    <tag k="addr:street" v="East Street"/>
    <tag k="addr:state" v="VT"/>
    <tag k="ref:vcgi:esiteid" v="194310"/>
  </node>
  <node id="-247" visible="true" lat="43.66429284" lon="-73.02583896">
    <tag k="addr:housenumber" v="11"/>
    <tag k="addr:street" v="Field Street"/>
    <tag k="addr:state" v="VT"/>
    <tag k="ref:vcgi:esiteid" v="194311"/>
  </node>
  <node id="-248" visible="true" lat="43.66405105" lon="-73.04676818">
    <tag k="addr:housenumber" v="26"/>
    <tag k="addr:street" v="Pond View Road"/>
    <tag k="addr:state" v="VT"/>
    <tag k="ref:vcgi:esiteid" v="194312"/>
  </node>
  <node id="-249" visible="true" lat="43.66417101" lon="-73.0249966">
    <tag k="addr:housenumber" v="89"/>
    <tag k="addr:street" v="East Street"/>
    <tag k="addr:state" v="VT"/>
    <tag k="ref:vcgi:esiteid" v="194314"/>
  </node>
  <node id="-254" visible="true" lat="43.66409141" lon="-73.0393659">
    <tag k="addr:housenumber" v="5"/>
    <tag k="addr:street" v="Green Square"/>
    <tag k="addr:state" v="VT"/>
    <tag k="ref:vcgi:esiteid" v="194319"/>
  </node>
  <node id="-255" visible="true" lat="43.66400909" lon="-73.02908325">
    <tag k="addr:housenumber" v="33"/>
    <tag k="addr:street" v="Patch Street"/>
    <tag k="addr:state" v="VT"/>
    <tag k="ref:vcgi:esiteid" v="194320"/>
  </node>
  <node id="-256" visible="true" lat="43.66401998" lon="-73.02573758">
    <tag k="addr:housenumber" v="81"/>
    <tag k="addr:street" v="East Street"/>
    <tag k="addr:state" v="VT"/>
    <tag k="ref:vcgi:esiteid" v="194322"/>
  </node>
  <node id="-257" visible="true" lat="43.66398021" lon="-73.02395302">
    <tag k="addr:housenumber" v="96"/>
    <tag k="addr:street" v="East Street"/>
    <tag k="addr:state" v="VT"/>
    <tag k="ref:vcgi:esiteid" v="194323"/>
  </node>
  <node id="-261" visible="true" lat="43.6638509" lon="-73.02449931">
    <tag k="addr:housenumber" v="90"/>
    <tag k="addr:street" v="East Street"/>
    <tag k="addr:state" v="VT"/>
    <tag k="ref:vcgi:esiteid" v="194328"/>
  </node>
  <node id="-264" visible="true" lat="43.66366195" lon="-73.02861022">
    <tag k="addr:housenumber" v="36"/>
    <tag k="addr:street" v="Patch Street"/>
    <tag k="addr:state" v="VT"/>
    <tag k="ref:vcgi:esiteid" v="194332"/>
  </node>
  <node id="-265" visible="true" lat="43.6636964" lon="-73.02834199">
    <tag k="addr:housenumber" v="40"/>
    <tag k="addr:street" v="Patch Street"/>
    <tag k="addr:state" v="VT"/>
    <tag k="ref:vcgi:esiteid" v="194333"/>
  </node>
  <node id="-266" visible="true" lat="43.66359812" lon="-73.02742652">
    <tag k="addr:housenumber" v="65"/>
    <tag k="addr:street" v="East Street"/>
    <tag k="addr:state" v="VT"/>
    <tag k="ref:vcgi:esiteid" v="194335"/>
  </node>
  <node id="-267" visible="true" lat="43.66364826" lon="-73.0250929">
    <tag k="addr:housenumber" v="64"/>
    <tag k="addr:street" v="Williams Street"/>
    <tag k="addr:state" v="VT"/>
    <tag k="ref:vcgi:esiteid" v="194336"/>
  </node>
  <node id="-273" visible="true" lat="43.66344216" lon="-73.02780763">
    <tag k="addr:housenumber" v="61"/>
    <tag k="addr:street" v="East Street"/>
    <tag k="addr:state" v="VT"/>
    <tag k="ref:vcgi:esiteid" v="194343"/>
  </node>
  <node id="-276" visible="true" lat="43.66344964" lon="-73.02419089">
    <tag k="addr:housenumber" v="51"/>
    <tag k="addr:street" v="Williams Street"/>
    <tag k="addr:state" v="VT"/>
    <tag k="ref:vcgi:esiteid" v="194346"/>
  </node>
  <node id="-279" visible="true" lat="43.66322879" lon="-73.03098452">
    <tag k="addr:housenumber" v="15"/>
    <tag k="addr:street" v="Patch Street"/>
    <tag k="addr:state" v="VT"/>
    <tag k="ref:vcgi:esiteid" v="194349"/>
  </node>
  <node id="-282" visible="true" lat="43.66304016" lon="-73.03015136">
    <tag k="addr:housenumber" v="18"/>
    <tag k="addr:street" v="Patch Street"/>
    <tag k="addr:state" v="VT"/>
    <tag k="ref:vcgi:esiteid" v="194353"/>
  </node>
  <node id="-283" visible="true" lat="43.66321208" lon="-73.02579863">
    <tag k="addr:housenumber" v="12"/>
    <tag k="addr:street" v="Curtis Street"/>
    <tag k="addr:state" v="VT"/>
    <tag k="ref:vcgi:esiteid" v="194354"/>
  </node>
  <node id="-284" visible="true" lat="43.66318819" lon="-73.02488823">
    <tag k="addr:housenumber" v="60"/>
    <tag k="addr:street" v="Williams Street"/>
    <tag k="addr:state" v="VT"/>
    <tag k="ref:vcgi:esiteid" v="194356"/>
  </node>
  <node id="-287" visible="true" lat="43.66283035" lon="-73.03073883">
    <tag k="addr:housenumber" v="9"/>
    <tag k="addr:street" v="Patch Street"/>
    <tag k="addr:state" v="VT"/>
    <tag k="ref:vcgi:esiteid" v="194360"/>
  </node>
  <node id="-295" visible="true" lat="43.66286495" lon="-73.0303249">
    <tag k="addr:housenumber" v="14"/>
    <tag k="addr:street" v="Patch Street"/>
    <tag k="addr:state" v="VT"/>
    <tag k="ref:vcgi:esiteid" v="194368"/>
  </node>
  <node id="-296" visible="true" lat="43.66273449" lon="-73.02973349">
    <tag k="addr:housenumber" v="39"/>
    <tag k="addr:street" v="East Street"/>
    <tag k="addr:state" v="VT"/>
    <tag k="ref:vcgi:esiteid" v="194369"/>
  </node>
  <node id="-301" visible="true" lat="43.6625165" lon="-73.03428499">
    <tag k="addr:housenumber" v="133"/>
    <tag k="addr:street" v="Electric Avenue"/>
    <tag k="addr:state" v="VT"/>
    <tag k="ref:vcgi:esiteid" v="194374"/>
  </node>
  <node id="-303" visible="true" lat="43.66260147" lon="-73.03079223">
    <tag k="addr:housenumber" v="5"/>
    <tag k="addr:street" v="Patch Street"/>
    <tag k="addr:state" v="VT"/>
    <tag k="ref:vcgi:esiteid" v="194376"/>
  </node>
  <node id="-304" visible="true" lat="43.66260055" lon="-73.03010461">
    <tag k="addr:housenumber" v="33"/>
    <tag k="addr:street" v="East Street"/>
    <tag k="addr:state" v="VT"/>
    <tag k="ref:vcgi:esiteid" v="194377"/>
  </node>
  <node id="-315" visible="true" lat="43.66235207" lon="-73.0308406">
    <tag k="addr:housenumber" v="1"/>
    <tag k="addr:street" v="Patch Street"/>
    <tag k="addr:state" v="VT"/>
    <tag k="ref:vcgi:esiteid" v="194388"/>
  </node>
  <node id="-318" visible="true" lat="43.6622467" lon="-73.03261566">
    <tag k="addr:housenumber" v="11"/>
    <tag k="addr:street" v="East Street"/>
    <tag k="addr:state" v="VT"/>
    <tag k="ref:vcgi:esiteid" v="194393"/>
  </node>
  <node id="-329" visible="true" lat="43.66211068" lon="-73.04271388">
    <tag k="addr:housenumber" v="17"/>
    <tag k="addr:street" v="Market Street"/>
    <tag k="addr:state" v="VT"/>
    <tag k="ref:vcgi:esiteid" v="194404"/>
  </node>
  <node id="-338" visible="true" lat="43.6620228" lon="-73.02868186">
    <tag k="addr:housenumber" v="3"/>
    <tag k="addr:street" v="Williams Street"/>
    <tag k="addr:state" v="VT"/>
    <tag k="ref:vcgi:esiteid" v="194414"/>
  </node>
  <node id="-344" visible="true" lat="43.66196993" lon="-73.04273707">
    <tag k="addr:housenumber" v="15"/>
    <tag k="addr:street" v="Market Street"/>
    <tag k="addr:state" v="VT"/>
    <tag k="ref:vcgi:esiteid" v="194420"/>
  </node>
  <node id="-356" visible="true" lat="43.6617113" lon="-73.04279973">
    <tag k="addr:housenumber" v="11"/>
    <tag k="addr:street" v="Market Street"/>
    <tag k="addr:state" v="VT"/>
    <tag k="ref:vcgi:esiteid" v="194433"/>
  </node>
  <node id="-357" visible="true" lat="43.661765" lon="-73.02854552">
    <tag k="addr:housenumber" v="9"/>
    <tag k="addr:street" v="Williams Street"/>
    <tag k="addr:state" v="VT"/>
    <tag k="ref:vcgi:esiteid" v="194434"/>
  </node>
  <node id="-361" visible="true" lat="43.6616581" lon="-73.04030276">
    <tag k="addr:housenumber" v="11"/>
    <tag k="addr:street" v="North Street"/>
    <tag k="addr:state" v="VT"/>
    <tag k="ref:vcgi:esiteid" v="194440"/>
  </node>
  <node id="-364" visible="true" lat="43.66158061" lon="-73.03984406">
    <tag k="addr:housenumber" v="12"/>
    <tag k="addr:street" v="North Street"/>
    <tag k="addr:state" v="VT"/>
    <tag k="ref:vcgi:esiteid" v="194443"/>
  </node>
  <node id="-365" visible="true" lat="43.66142654" lon="-73.0369873">
    <tag k="addr:housenumber" v="9"/>
    <tag k="addr:street" v="Pine Street"/>
    <tag k="addr:state" v="VT"/>
    <tag k="ref:vcgi:esiteid" v="194444"/>
  </node>
  <node id="-366" visible="true" lat="43.66142472" lon="-73.04322669">
    <tag k="addr:housenumber" v="3"/>
    <tag k="addr:street" v="West Street"/>
    <tag k="addr:state" v="VT"/>
    <tag k="ref:vcgi:esiteid" v="194445"/>
  </node>
  <node id="-368" visible="true" lat="43.66139602" lon="-73.04023742">
    <tag k="addr:housenumber" v="7"/>
    <tag k="addr:street" v="North Street"/>
    <tag k="addr:state" v="VT"/>
    <tag k="ref:vcgi:esiteid" v="194447"/>
  </node>
  <node id="-372" visible="true" lat="43.66129996" lon="-73.044534">
    <tag k="addr:housenumber" v="17"/>
    <tag k="addr:street" v="Beaver Pond Road"/>
    <tag k="addr:state" v="VT"/>
    <tag k="ref:vcgi:esiteid" v="194453"/>
  </node>
  <node id="-375" visible="true" lat="43.66138342" lon="-73.03979459">
    <tag k="addr:housenumber" v="8"/>
    <tag k="addr:street" v="North Street"/>
    <tag k="addr:state" v="VT"/>
    <tag k="ref:vcgi:esiteid" v="194458"/>
  </node>
  <node id="-376" visible="true" lat="43.66121518" lon="-73.04381766">
    <tag k="addr:housenumber" v="14"/>
    <tag k="addr:street" v="Beaver Pond Road"/>
    <tag k="addr:state" v="VT"/>
    <tag k="ref:vcgi:esiteid" v="194459"/>
  </node>
  <node id="-377" visible="true" lat="43.66119074" lon="-73.03724328">
    <tag k="addr:housenumber" v="40"/>
    <tag k="addr:street" v="High Street"/>
    <tag k="addr:state" v="VT"/>
    <tag k="ref:vcgi:esiteid" v="194460"/>
  </node>
  <node id="-378" visible="true" lat="43.6611061" lon="-73.04073333">
    <tag k="addr:housenumber" v="34"/>
    <tag k="addr:street" v="School Street"/>
    <tag k="addr:state" v="VT"/>
    <tag k="ref:vcgi:esiteid" v="194461"/>
  </node>
  <node id="-379" visible="true" lat="43.66111373" lon="-73.03691864">
    <tag k="addr:housenumber" v="13"/>
    <tag k="addr:street" v="Pine Street"/>
    <tag k="addr:state" v="VT"/>
    <tag k="ref:vcgi:esiteid" v="194462"/>
  </node>
  <node id="-381" visible="true" lat="43.66116883" lon="-73.03976404">
    <tag k="addr:housenumber" v="2"/>
    <tag k="addr:street" v="North Street"/>
    <tag k="addr:state" v="VT"/>
    <tag k="ref:vcgi:esiteid" v="194465"/>
  </node>
  <node id="-384" visible="true" lat="43.66112391" lon="-73.04021852">
    <tag k="addr:housenumber" v="1"/>
    <tag k="addr:street" v="North Street"/>
    <tag k="addr:state" v="VT"/>
    <tag k="ref:vcgi:esiteid" v="194468"/>
  </node>
  <node id="-387" visible="true" lat="43.66105651" lon="-73.03649902">
    <tag k="addr:housenumber" v="14"/>
    <tag k="addr:street" v="Pine Street"/>
    <tag k="addr:state" v="VT"/>
    <tag k="ref:vcgi:esiteid" v="194471"/>
  </node>
  <node id="-399" visible="true" lat="43.66077226" lon="-73.04154666">
    <tag k="addr:housenumber" v="41"/>
    <tag k="addr:street" v="School Street"/>
    <tag k="addr:state" v="VT"/>
    <tag k="ref:vcgi:esiteid" v="194487"/>
  </node>
  <node id="-402" visible="true" lat="43.66075897" lon="-73.04010009">
    <tag k="addr:housenumber" v="27"/>
    <tag k="addr:street" v="School Street"/>
    <tag k="addr:state" v="VT"/>
    <tag k="ref:vcgi:esiteid" v="194490"/>
  </node>
  <node id="-404" visible="true" lat="43.66064957" lon="-73.03672222">
    <tag k="addr:housenumber" v="19"/>
    <tag k="addr:street" v="Pine Street"/>
    <tag k="addr:state" v="VT"/>
    <tag k="ref:vcgi:esiteid" v="194492"/>
  </node>
  <node id="-405" visible="true" lat="43.6609366" lon="-73.03043023">
    <tag k="addr:housenumber" v="20"/>
    <tag k="addr:street" v="Ormsbee Avenue"/>
    <tag k="addr:state" v="VT"/>
    <tag k="ref:vcgi:esiteid" v="194493"/>
  </node>
  <node id="-409" visible="true" lat="43.66053771" lon="-73.03745269">
    <tag k="addr:housenumber" v="49"/>
    <tag k="addr:street" v="High Street"/>
    <tag k="addr:state" v="VT"/>
    <tag k="ref:vcgi:esiteid" v="194498"/>
  </node>
  <node id="-411" visible="true" lat="43.66045148" lon="-73.04339393">
    <tag k="addr:housenumber" v="19"/>
    <tag k="addr:street" v="West Street"/>
    <tag k="addr:state" v="VT"/>
    <tag k="ref:vcgi:esiteid" v="194500"/>
  </node>
  <node id="-413" visible="true" lat="43.66042333" lon="-73.03826122">
    <tag k="addr:housenumber" v="8"/>
    <tag k="addr:street" v="Gibbs Street"/>
    <tag k="addr:state" v="VT"/>
    <tag k="ref:vcgi:esiteid" v="194502"/>
  </node>
  <node id="-414" visible="true" lat="43.66044464" lon="-73.03605035">
    <tag k="addr:housenumber" v="24"/>
    <tag k="addr:street" v="Pine Street"/>
    <tag k="addr:state" v="VT"/>
    <tag k="ref:vcgi:esiteid" v="194503"/>
  </node>
  <node id="-449" visible="true" lat="43.6595726" lon="-73.0355072">
    <tag k="addr:housenumber" v="8"/>
    <tag k="addr:street" v="Powers Square"/>
    <tag k="addr:state" v="VT"/>
    <tag k="ref:vcgi:esiteid" v="194545"/>
  </node>
  <node id="-470" visible="true" lat="43.65939987" lon="-73.03521567">
    <tag k="addr:housenumber" v="15"/>
    <tag k="addr:street" v="Powers Square"/>
    <tag k="addr:state" v="VT"/>
    <tag k="ref:vcgi:esiteid" v="194567"/>
  </node>
  <node id="-473" visible="true" lat="43.65905265" lon="-73.02982131">
    <tag k="addr:housenumber" v="41"/>
    <tag k="addr:street" v="Ormsbee Avenue"/>
    <tag k="addr:state" v="VT"/>
    <tag k="ref:vcgi:esiteid" v="194571"/>
  </node>
  <node id="-479" visible="true" lat="43.65921977" lon="-73.03564845">
    <tag k="addr:housenumber" v="7"/>
    <tag k="addr:street" v="Powers Square"/>
    <tag k="addr:state" v="VT"/>
    <tag k="ref:vcgi:esiteid" v="194578"/>
  </node>
  <node id="-494" visible="true" lat="43.65885473" lon="-73.04742153">
    <tag k="addr:housenumber" v="5"/>
    <tag k="addr:street" v="McGarry Street"/>
    <tag k="addr:state" v="VT"/>
    <tag k="ref:vcgi:esiteid" v="194593"/>
  </node>
  <node id="-504" visible="true" lat="43.6586753" lon="-73.04748939">
    <tag k="addr:housenumber" v="9"/>
    <tag k="addr:street" v="McGarry Street"/>
    <tag k="addr:state" v="VT"/>
    <tag k="ref:vcgi:esiteid" v="194605"/>
  </node>
  <node id="-512" visible="true" lat="43.65875709" lon="-73.02774844">
    <tag k="addr:housenumber" v="62"/>
    <tag k="addr:street" v="Ormsbee Avenue"/>
    <tag k="addr:state" v="VT"/>
    <tag k="ref:vcgi:esiteid" v="194614"/>
  </node>
  <node id="-516" visible="true" lat="43.65863904" lon="-73.02895693">
    <tag k="addr:housenumber" v="53"/>
    <tag k="addr:street" v="Ormsbee Avenue"/>
    <tag k="addr:state" v="VT"/>
    <tag k="ref:vcgi:esiteid" v="194619"/>
  </node>
  <node id="-519" visible="true" lat="43.65848541" lon="-73.02870178">
    <tag k="addr:housenumber" v="57"/>
    <tag k="addr:street" v="Ormsbee Avenue"/>
    <tag k="addr:state" v="VT"/>
    <tag k="ref:vcgi:esiteid" v="194622"/>
  </node>
  <node id="-533" visible="true" lat="43.65826797" lon="-73.02558898">
    <tag k="addr:housenumber" v="55"/>
    <tag k="addr:street" v="Warner Avenue"/>
    <tag k="addr:state" v="VT"/>
    <tag k="ref:vcgi:esiteid" v="194638"/>
  </node>
  <node id="-534" visible="true" lat="43.65832725" lon="-73.0264222">
    <tag k="addr:housenumber" v="47"/>
    <tag k="addr:street" v="Oak Street"/>
    <tag k="addr:state" v="VT"/>
    <tag k="ref:vcgi:esiteid" v="194639"/>
  </node>
  <node id="-536" visible="true" lat="43.65827741" lon="-73.02831092">
    <tag k="addr:housenumber" v="61"/>
    <tag k="addr:street" v="Ormsbee Avenue"/>
    <tag k="addr:state" v="VT"/>
    <tag k="ref:vcgi:esiteid" v="194641"/>
  </node>
  <node id="-537" visible="true" lat="43.65836265" lon="-73.02746252">
    <tag k="addr:housenumber" v="66"/>
    <tag k="addr:street" v="Ormsbee Avenue"/>
    <tag k="addr:state" v="VT"/>
    <tag k="ref:vcgi:esiteid" v="194642"/>
  </node>
  <node id="-542" visible="true" lat="43.65812238" lon="-73.03231393">
    <tag k="addr:housenumber" v="39"/>
    <tag k="addr:street" v="South Street"/>
    <tag k="addr:state" v="VT"/>
    <tag k="ref:vcgi:esiteid" v="194647"/>
  </node>
  <node id="-545" visible="true" lat="43.65808486" lon="-73.02807617">
    <tag k="addr:housenumber" v="65"/>
    <tag k="addr:street" v="Ormsbee Avenue"/>
    <tag k="addr:state" v="VT"/>
    <tag k="ref:vcgi:esiteid" v="194650"/>
  </node>
  <node id="-549" visible="true" lat="43.6581333" lon="-73.02582538">
    <tag k="addr:housenumber" v="49"/>
    <tag k="addr:street" v="Warner Avenue"/>
    <tag k="addr:state" v="VT"/>
    <tag k="ref:vcgi:esiteid" v="194654"/>
  </node>
  <node id="-551" visible="true" lat="43.65815955" lon="-73.02722637">
    <tag k="addr:housenumber" v="70"/>
    <tag k="addr:street" v="Ormsbee Avenue"/>
    <tag k="addr:state" v="VT"/>
    <tag k="ref:vcgi:esiteid" v="194656"/>
  </node>
  <node id="-555" visible="true" lat="43.6578598" lon="-73.02616882">
    <tag k="addr:housenumber" v="45"/>
    <tag k="addr:street" v="Warner Avenue"/>
    <tag k="addr:state" v="VT"/>
    <tag k="ref:vcgi:esiteid" v="194661"/>
  </node>
  <node id="-558" visible="true" lat="43.65794314" lon="-73.02700224">
    <tag k="addr:housenumber" v="74"/>
    <tag k="addr:street" v="Ormsbee Avenue"/>
    <tag k="addr:state" v="VT"/>
    <tag k="ref:vcgi:esiteid" v="194664"/>
  </node>
  <node id="-559" visible="true" lat="43.65786673" lon="-73.02775823">
    <tag k="addr:housenumber" v="69"/>
    <tag k="addr:street" v="Ormsbee Avenue"/>
    <tag k="addr:state" v="VT"/>
    <tag k="ref:vcgi:esiteid" v="194665"/>
  </node>
  <node id="-565" visible="true" lat="43.65766403" lon="-73.02743505">
    <tag k="addr:housenumber" v="73"/>
    <tag k="addr:street" v="Ormsbee Avenue"/>
    <tag k="addr:state" v="VT"/>
    <tag k="ref:vcgi:esiteid" v="194672"/>
  </node>
  <node id="-568" visible="true" lat="43.6574974" lon="-73.02675628">
    <tag k="addr:housenumber" v="35"/>
    <tag k="addr:street" v="Warner Avenue"/>
    <tag k="addr:state" v="VT"/>
    <tag k="ref:vcgi:esiteid" v="194675"/>
  </node>
  <node id="-583" visible="true" lat="43.65667302" lon="-73.03046611">
    <tag k="addr:housenumber" v="62"/>
    <tag k="addr:street" v="South Street"/>
    <tag k="addr:state" v="VT"/>
    <tag k="ref:vcgi:esiteid" v="194692"/>
  </node>
  <node id="-585" visible="true" lat="43.65674254" lon="-73.03108178">
    <tag k="addr:housenumber" v="60"/>
    <tag k="addr:street" v="South Street"/>
    <tag k="addr:state" v="VT"/>
    <tag k="ref:vcgi:esiteid" v="194694"/>
  </node>
  <node id="-592" visible="true" lat="43.65652675" lon="-73.03101108">
    <tag k="addr:housenumber" v="64"/>
    <tag k="addr:street" v="South Street"/>
    <tag k="addr:state" v="VT"/>
    <tag k="ref:vcgi:esiteid" v="194701"/>
  </node>
  <node id="-610" visible="true" lat="43.65625442" lon="-73.03091093">
    <tag k="addr:housenumber" v="66"/>
    <tag k="addr:street" v="South Street"/>
    <tag k="addr:state" v="VT"/>
    <tag k="ref:vcgi:esiteid" v="194720"/>
  </node>
  <node id="-612" visible="true" lat="43.6562054" lon="-73.04352372">
    <tag k="addr:housenumber" v="78"/>
    <tag k="addr:street" v="West Street"/>
    <tag k="addr:state" v="VT"/>
    <tag k="ref:vcgi:esiteid" v="194722"/>
  </node>
  <node id="-613" visible="true" lat="43.65616273" lon="-73.03046295">
    <tag k="addr:housenumber" v="20"/>
    <tag k="addr:street" v="Grove Street"/>
    <tag k="addr:state" v="VT"/>
    <tag k="ref:vcgi:esiteid" v="194723"/>
  </node>
  <node id="-615" visible="true" lat="43.65581846" lon="-73.02720568">
    <tag k="addr:housenumber" v="25"/>
    <tag k="addr:street" v="Olympus Road"/>
    <tag k="addr:state" v="VT"/>
    <tag k="ref:vcgi:esiteid" v="194725"/>
  </node>
  <node id="-649" visible="true" lat="43.65414643" lon="-73.02966068">
    <tag k="addr:housenumber" v="24"/>
    <tag k="addr:street" v="Park Street"/>
    <tag k="addr:state" v="VT"/>
    <tag k="ref:vcgi:esiteid" v="194762"/>
  </node>
  <node id="-665" visible="true" lat="43.65286273" lon="-73.0292313">
    <tag k="addr:housenumber" v="19"/>
    <tag k="addr:street" v="Holden Avenue"/>
    <tag k="addr:state" v="VT"/>
    <tag k="ref:vcgi:esiteid" v="194780"/>
  </node>
  <node id="-675" visible="true" lat="43.65242959" lon="-73.04322142">
    <tag k="addr:housenumber" v="127"/>
    <tag k="addr:street" v="West Street"/>
    <tag k="addr:state" v="VT"/>
    <tag k="ref:vcgi:esiteid" v="194791"/>
  </node>
  <node id="-685" visible="true" lat="43.65167617" lon="-73.03027343">
    <tag k="addr:housenumber" v="76"/>
    <tag k="addr:street" v="Park Street"/>
    <tag k="addr:state" v="VT"/>
    <tag k="ref:vcgi:esiteid" v="194802"/>
  </node>
  <node id="-693" visible="true" lat="43.65130513" lon="-73.02994835">
    <tag k="addr:housenumber" v="2"/>
    <tag k="addr:street" v="Larson Street"/>
    <tag k="addr:state" v="VT"/>
    <tag k="ref:vcgi:esiteid" v="194811"/>
  </node>
  <node id="-702" visible="true" lat="43.65069198" lon="-73.02901458">
    <tag k="addr:housenumber" v="14"/>
    <tag k="addr:street" v="Chatterton Park"/>
    <tag k="addr:state" v="VT"/>
    <tag k="ref:vcgi:esiteid" v="194820"/>
  </node>
  <node id="-709" visible="true" lat="43.65031814" lon="-73.02894592">
    <tag k="addr:housenumber" v="15"/>
    <tag k="addr:street" v="Chatterton Park"/>
    <tag k="addr:state" v="VT"/>
    <tag k="ref:vcgi:esiteid" v="194828"/>
  </node>
  <node id="-710" visible="true" lat="43.65028762" lon="-73.03105926">
    <tag k="addr:housenumber" v="89"/>
    <tag k="addr:street" v="Park Street"/>
    <tag k="addr:state" v="VT"/>
    <tag k="ref:vcgi:esiteid" v="194829"/>
  </node>
  <node id="-733" visible="true" lat="43.64733505" lon="-73.03259277">
    <tag k="addr:housenumber" v="189"/>
    <tag k="addr:street" v="South Street"/>
    <tag k="addr:state" v="VT"/>
    <tag k="ref:vcgi:esiteid" v="194853"/>
  </node>
  <node id="-734" visible="true" lat="43.64657398" lon="-73.03180348">
    <tag k="addr:housenumber" v="202"/>
    <tag k="addr:street" v="South Street"/>
    <tag k="addr:state" v="VT"/>
    <tag k="ref:vcgi:esiteid" v="194855"/>
  </node>
  <node id="-736" visible="true" lat="43.64509332" lon="-73.03158945">
    <tag k="addr:housenumber" v="224"/>
    <tag k="addr:street" v="South Street"/>
    <tag k="addr:state" v="VT"/>
    <tag k="ref:vcgi:esiteid" v="194857"/>
  </node>
  <node id="-737" visible="true" lat="43.64448547" lon="-73.03134155">
    <tag k="addr:housenumber" v="226"/>
    <tag k="addr:street" v="South Street"/>
    <tag k="addr:state" v="VT"/>
    <tag k="ref:vcgi:esiteid" v="194858"/>
  </node>
  <node id="-739" visible="true" lat="43.64426763" lon="-73.03118062">
    <tag k="addr:housenumber" v="232"/>
    <tag k="addr:street" v="South Street"/>
    <tag k="addr:state" v="VT"/>
    <tag k="ref:vcgi:esiteid" v="194861"/>
  </node>
  <node id="-740" visible="true" lat="43.6436882" lon="-73.03185272">
    <tag k="addr:housenumber" v="239"/>
    <tag k="addr:street" v="South Street"/>
    <tag k="addr:state" v="VT"/>
    <tag k="ref:vcgi:esiteid" v="194862"/>
  </node>
  <node id="-741" visible="true" lat="43.64320754" lon="-73.03184509">
    <tag k="addr:housenumber" v="243"/>
    <tag k="addr:street" v="South Street"/>
    <tag k="addr:state" v="VT"/>
    <tag k="ref:vcgi:esiteid" v="194863"/>
  </node>
  <node id="-742" visible="true" lat="43.64212036" lon="-73.03166198">
    <tag k="addr:housenumber" v="249"/>
    <tag k="addr:street" v="South Street"/>
    <tag k="addr:state" v="VT"/>
    <tag k="ref:vcgi:esiteid" v="194864"/>
  </node>
  <node id="-743" visible="true" lat="43.64134216" lon="-73.03160095">
    <tag k="addr:housenumber" v="253"/>
    <tag k="addr:street" v="South Street"/>
    <tag k="addr:state" v="VT"/>
    <tag k="ref:vcgi:esiteid" v="194865"/>
  </node>
  <node id="-744" visible="true" lat="43.63807547" lon="-73.03202231">
    <tag k="addr:housenumber" v="604"/>
    <tag k="addr:street" v="South Street"/>
    <tag k="addr:state" v="VT"/>
    <tag k="ref:vcgi:esiteid" v="194866"/>
  </node>
  <node id="-745" visible="true" lat="43.63618342" lon="-73.03455065">
    <tag k="addr:housenumber" v="245"/>
    <tag k="addr:street" v="Vermont Route 3"/>
    <tag k="addr:state" v="VT"/>
    <tag k="ref:vcgi:esiteid" v="194867"/>
  </node>
  <node id="-746" visible="true" lat="43.63612658" lon="-73.03262705">
    <tag k="addr:housenumber" v="192"/>
    <tag k="addr:street" v="Vermont Route 3"/>
    <tag k="addr:state" v="VT"/>
    <tag k="ref:vcgi:esiteid" v="194868"/>
  </node>
  <node id="-747" visible="true" lat="43.63525091" lon="-73.03305764">
    <tag k="addr:housenumber" v="244"/>
    <tag k="addr:street" v="Vermont Route 3"/>
    <tag k="addr:state" v="VT"/>
    <tag k="ref:vcgi:esiteid" v="194869"/>
  </node>
  <node id="-755" visible="true" lat="43.62792837" lon="-73.02993512">
    <tag k="addr:housenumber" v="37"/>
    <tag k="addr:street" v="Loop Street"/>
    <tag k="addr:state" v="VT"/>
    <tag k="ref:vcgi:esiteid" v="194877"/>
  </node>
  <node id="-756" visible="true" lat="43.62773891" lon="-73.02953567">
    <tag k="addr:housenumber" v="57"/>
    <tag k="addr:street" v="Loop Street"/>
    <tag k="addr:state" v="VT"/>
    <tag k="ref:vcgi:esiteid" v="194878"/>
  </node>
  <node id="-757" visible="true" lat="43.62752693" lon="-73.03017238">
    <tag k="addr:housenumber" v="44"/>
    <tag k="addr:street" v="Loop Street"/>
    <tag k="addr:state" v="VT"/>
    <tag k="ref:vcgi:esiteid" v="194879"/>
  </node>
  <node id="-758" visible="true" lat="43.62732232" lon="-73.02932195">
    <tag k="addr:housenumber" v="69"/>
    <tag k="addr:street" v="Loop Street"/>
    <tag k="addr:state" v="VT"/>
    <tag k="ref:vcgi:esiteid" v="194880"/>
  </node>
  <node id="-780" visible="true" lat="43.66406634" lon="-73.0344532">
    <tag k="addr:housenumber" v="21"/>
    <tag k="addr:street" v="Generation Avenue"/>
    <tag k="addr:state" v="VT"/>
    <tag k="ref:vcgi:esiteid" v="194902"/>
  </node>
  <node id="-786" visible="true" lat="43.6527219" lon="-73.0411004">
    <tag k="addr:housenumber" v="100"/>
    <tag k="addr:street" v="Larry Lane"/>
    <tag k="addr:state" v="VT"/>
    <tag k="ref:vcgi:esiteid" v="194908"/>
  </node>
  <node id="-790" visible="true" lat="43.66152004" lon="-73.04646836">
    <tag k="addr:housenumber" v="26"/>
    <tag k="addr:street" v="Center Street"/>
    <tag k="addr:state" v="VT"/>
    <tag k="ref:vcgi:esiteid" v="194912"/>
  </node>
  <node id="-793" visible="true" lat="43.67427473" lon="-73.0397615">
    <tag k="addr:housenumber" v="88"/>
    <tag k="addr:street" v="Gorham Bridge Road"/>
    <tag k="addr:state" v="VT"/>
    <tag k="ref:vcgi:esiteid" v="313640"/>
  </node>
  <node id="-794" visible="true" lat="43.6743342" lon="-73.03975637">
    <tag k="addr:housenumber" v="90"/>
    <tag k="addr:street" v="Gorham Bridge Road"/>
    <tag k="addr:state" v="VT"/>
    <tag k="ref:vcgi:esiteid" v="313641"/>
  </node>
  <node id="-795" visible="true" lat="43.67201164" lon="-73.03973226">
    <tag k="addr:housenumber" v="52"/>
    <tag k="addr:street" v="Gorham Bridge Road"/>
    <tag k="addr:state" v="VT"/>
    <tag k="ref:vcgi:esiteid" v="313642"/>
  </node>
  <node id="-796" visible="true" lat="43.67069541" lon="-73.03727583">
    <tag k="addr:housenumber" v="19"/>
    <tag k="addr:street" v="Elm Street"/>
    <tag k="addr:state" v="VT"/>
    <tag k="ref:vcgi:esiteid" v="313643"/>
  </node>
  <node id="-797" visible="true" lat="43.67071999" lon="-73.03710412">
    <tag k="addr:housenumber" v="21"/>
    <tag k="addr:street" v="Elm Street"/>
    <tag k="addr:state" v="VT"/>
    <tag k="ref:vcgi:esiteid" v="313644"/>
  </node>
  <node id="-798" visible="true" lat="43.67041409" lon="-73.03712834">
    <tag k="addr:housenumber" v="18"/>
    <tag k="addr:street" v="Elm Street"/>
    <tag k="addr:state" v="VT"/>
    <tag k="ref:vcgi:esiteid" v="313645"/>
  </node>
  <node id="-799" visible="true" lat="43.67041966" lon="-73.03691564">
    <tag k="addr:housenumber" v="20"/>
    <tag k="addr:street" v="Elm Street"/>
    <tag k="addr:state" v="VT"/>
    <tag k="ref:vcgi:esiteid" v="313646"/>
  </node>
  <node id="-800" visible="true" lat="43.6698413" lon="-73.03813688">
    <tag k="addr:housenumber" v="5"/>
    <tag k="addr:street" v="Meadow Street"/>
    <tag k="addr:state" v="VT"/>
    <tag k="ref:vcgi:esiteid" v="313647"/>
  </node>
  <node id="-801" visible="true" lat="43.6698614" lon="-73.03770231">
    <tag k="addr:housenumber" v="11"/>
    <tag k="addr:street" v="Meadow Street"/>
    <tag k="addr:state" v="VT"/>
    <tag k="ref:vcgi:esiteid" v="313648"/>
  </node>
  <node id="-802" visible="true" lat="43.66988617" lon="-73.03748966">
    <tag k="addr:housenumber" v="13"/>
    <tag k="addr:street" v="Meadow Street"/>
    <tag k="addr:state" v="VT"/>
    <tag k="ref:vcgi:esiteid" v="313649"/>
  </node>
  <node id="-804" visible="true" lat="43.66991167" lon="-73.0367729">
    <tag k="addr:housenumber" v="21"/>
    <tag k="addr:street" v="Meadow Street"/>
    <tag k="addr:state" v="VT"/>
    <tag k="ref:vcgi:esiteid" v="313651"/>
  </node>
  <node id="-805" visible="true" lat="43.66993334" lon="-73.03630294">
    <tag k="addr:housenumber" v="27"/>
    <tag k="addr:street" v="Meadow Street"/>
    <tag k="addr:state" v="VT"/>
    <tag k="ref:vcgi:esiteid" v="313652"/>
  </node>
  <node id="-806" visible="true" lat="43.66994811" lon="-73.03568904">
    <tag k="addr:housenumber" v="35"/>
    <tag k="addr:street" v="Meadow Street"/>
    <tag k="addr:state" v="VT"/>
    <tag k="ref:vcgi:esiteid" v="313653"/>
  </node>
  <node id="-807" visible="true" lat="43.66997318" lon="-73.03541089">
    <tag k="addr:housenumber" v="39"/>
    <tag k="addr:street" v="Meadow Street"/>
    <tag k="addr:state" v="VT"/>
    <tag k="ref:vcgi:esiteid" v="313654"/>
  </node>
  <node id="-808" visible="true" lat="43.66995259" lon="-73.03600019">
    <tag k="addr:housenumber" v="31"/>
    <tag k="addr:street" v="Meadow Street"/>
    <tag k="addr:state" v="VT"/>
    <tag k="ref:vcgi:esiteid" v="313655"/>
  </node>
  <node id="-809" visible="true" lat="43.66946782" lon="-73.03591267">
    <tag k="addr:housenumber" v="7"/>
    <tag k="addr:street" v="Beech Street"/>
    <tag k="addr:state" v="VT"/>
    <tag k="ref:vcgi:esiteid" v="313656"/>
  </node>
  <node id="-810" visible="true" lat="43.66922356" lon="-73.03431534">
    <tag k="addr:housenumber" v="10"/>
    <tag k="addr:street" v="Willow Street"/>
    <tag k="addr:state" v="VT"/>
    <tag k="ref:vcgi:esiteid" v="313657"/>
  </node>
  <node id="-811" visible="true" lat="43.66899808" lon="-73.03423966">
    <tag k="addr:housenumber" v="16"/>
    <tag k="addr:street" v="Willow Street"/>
    <tag k="addr:state" v="VT"/>
    <tag k="ref:vcgi:esiteid" v="313658"/>
  </node>
  <node id="-812" visible="true" lat="43.66916811" lon="-73.03476563">
    <tag k="addr:housenumber" v="9"/>
    <tag k="addr:street" v="Willow Street"/>
    <tag k="addr:state" v="VT"/>
    <tag k="ref:vcgi:esiteid" v="313659"/>
  </node>
  <node id="-813" visible="true" lat="43.66957615" lon="-73.03752002">
    <tag k="addr:housenumber" v="14"/>
    <tag k="addr:street" v="Meadow Street"/>
    <tag k="addr:state" v="VT"/>
    <tag k="ref:vcgi:esiteid" v="313660"/>
  </node>
  <node id="-814" visible="true" lat="43.66959662" lon="-73.03716932">
    <tag k="addr:housenumber" v="18"/>
    <tag k="addr:street" v="Meadow Street"/>
    <tag k="addr:state" v="VT"/>
    <tag k="ref:vcgi:esiteid" v="313661"/>
  </node>
  <node id="-815" visible="true" lat="43.66861775" lon="-73.03677426">
    <tag k="addr:housenumber" v="112"/>
    <tag k="addr:street" v="North Street"/>
    <tag k="addr:state" v="VT"/>
    <tag k="ref:vcgi:esiteid" v="313662"/>
  </node>
  <node id="-816" visible="true" lat="43.6695584" lon="-73.03794311">
    <tag k="addr:housenumber" v="8"/>
    <tag k="addr:street" v="Meadow Street"/>
    <tag k="addr:state" v="VT"/>
    <tag k="ref:vcgi:esiteid" v="313663"/>
  </node>
  <node id="-817" visible="true" lat="43.66953917" lon="-73.03819898">
    <tag k="addr:housenumber" v="6"/>
    <tag k="addr:street" v="Meadow Street"/>
    <tag k="addr:state" v="VT"/>
    <tag k="ref:vcgi:esiteid" v="313664"/>
  </node>
  <node id="-818" visible="true" lat="43.66745916" lon="-73.037599">
    <tag k="addr:housenumber" v="94"/>
    <tag k="addr:street" v="North Street"/>
    <tag k="addr:state" v="VT"/>
    <tag k="ref:vcgi:esiteid" v="313665"/>
  </node>
  <node id="-819" visible="true" lat="43.66691755" lon="-73.03650532">
    <tag k="addr:housenumber" v="16"/>
    <tag k="addr:street" v="Terrace Hill"/>
    <tag k="addr:state" v="VT"/>
    <tag k="ref:vcgi:esiteid" v="313666"/>
  </node>
  <node id="-820" visible="true" lat="43.6671732" lon="-73.03648304">
    <tag k="addr:housenumber" v="20"/>
    <tag k="addr:street" v="Terrace Hill"/>
    <tag k="addr:state" v="VT"/>
    <tag k="ref:vcgi:esiteid" v="313667"/>
  </node>
  <node id="-821" visible="true" lat="43.6643152" lon="-73.04619561">
    <tag k="addr:housenumber" v="85"/>
    <tag k="addr:street" v="Beaver Pond Road"/>
    <tag k="addr:state" v="VT"/>
    <tag k="ref:vcgi:esiteid" v="313668"/>
  </node>
  <node id="-822" visible="true" lat="43.66215346" lon="-73.04267055">
    <tag k="addr:housenumber" v="19"/>
    <tag k="addr:street" v="Market Street"/>
    <tag k="addr:state" v="VT"/>
    <tag k="ref:vcgi:esiteid" v="313669"/>
  </node>
  <node id="-823" visible="true" lat="43.66192518" lon="-73.0427418">
    <tag k="addr:housenumber" v="13"/>
    <tag k="addr:street" v="Market Street"/>
    <tag k="addr:state" v="VT"/>
    <tag k="ref:vcgi:esiteid" v="313670"/>
  </node>
  <node id="-824" visible="true" lat="43.66650573" lon="-73.03780688">
    <tag k="addr:housenumber" v="82"/>
    <tag k="addr:street" v="North Street"/>
    <tag k="addr:state" v="VT"/>
    <tag k="ref:vcgi:esiteid" v="313671"/>
  </node>
  <node id="-825" visible="true" lat="43.66624845" lon="-73.03676774">
    <tag k="addr:housenumber" v="12"/>
    <tag k="addr:street" v="Terrace Hill"/>
    <tag k="addr:state" v="VT"/>
    <tag k="ref:vcgi:esiteid" v="313672"/>
  </node>
  <node id="-826" visible="true" lat="43.6657609" lon="-73.03844149">
    <tag k="addr:housenumber" v="71"/>
    <tag k="addr:street" v="North Street"/>
    <tag k="addr:state" v="VT"/>
    <tag k="ref:vcgi:esiteid" v="313673"/>
  </node>
  <node id="-827" visible="true" lat="43.66530567" lon="-73.03963116">
    <tag k="addr:housenumber" v="26"/>
    <tag k="addr:street" v="Green Square"/>
    <tag k="addr:state" v="VT"/>
    <tag k="ref:vcgi:esiteid" v="313674"/>
  </node>
  <node id="-828" visible="true" lat="43.66542225" lon="-73.0388628">
    <tag k="addr:housenumber" v="34"/>
    <tag k="addr:street" v="Green Square"/>
    <tag k="addr:state" v="VT"/>
    <tag k="ref:vcgi:esiteid" v="313675"/>
  </node>
  <node id="-829" visible="true" lat="43.66493006" lon="-73.03872472">
    <tag k="addr:housenumber" v="61"/>
    <tag k="addr:street" v="North Street"/>
    <tag k="addr:state" v="VT"/>
    <tag k="ref:vcgi:esiteid" v="313676"/>
  </node>
  <node id="-830" visible="true" lat="43.66469752" lon="-73.03879861">
    <tag k="addr:housenumber" v="57"/>
    <tag k="addr:street" v="North Street"/>
    <tag k="addr:state" v="VT"/>
    <tag k="ref:vcgi:esiteid" v="313677"/>
  </node>
  <node id="-831" visible="true" lat="43.66443064" lon="-73.03889325">
    <tag k="addr:housenumber" v="53"/>
    <tag k="addr:street" v="North Street"/>
    <tag k="addr:state" v="VT"/>
    <tag k="ref:vcgi:esiteid" v="313678"/>
  </node>
  <node id="-832" visible="true" lat="43.66411013" lon="-73.03948535">
    <tag k="addr:housenumber" v="7"/>
    <tag k="addr:street" v="Green Square"/>
    <tag k="addr:state" v="VT"/>
    <tag k="ref:vcgi:esiteid" v="313679"/>
  </node>
  <node id="-833" visible="true" lat="43.6643136" lon="-73.03949788">
    <tag k="addr:housenumber" v="4"/>
    <tag k="addr:street" v="Green Square"/>
    <tag k="addr:state" v="VT"/>
    <tag k="ref:vcgi:esiteid" v="313680"/>
  </node>
  <node id="-836" visible="true" lat="43.66242535" lon="-73.0308426">
    <tag k="addr:housenumber" v="3"/>
    <tag k="addr:street" v="Patch Street"/>
    <tag k="addr:state" v="VT"/>
    <tag k="ref:vcgi:esiteid" v="313683"/>
  </node>
  <node id="-837" visible="true" lat="43.66269885" lon="-73.02982078">
    <tag k="addr:housenumber" v="37"/>
    <tag k="addr:street" v="East Street"/>
    <tag k="addr:state" v="VT"/>
    <tag k="ref:vcgi:esiteid" v="313684"/>
  </node>
  <node id="-838" visible="true" lat="43.66261009" lon="-73.03005109">
    <tag k="addr:housenumber" v="35"/>
    <tag k="addr:street" v="East Street"/>
    <tag k="addr:state" v="VT"/>
    <tag k="ref:vcgi:esiteid" v="313685"/>
  </node>
  <node id="-839" visible="true" lat="43.66278178" lon="-73.03032299">
    <tag k="addr:housenumber" v="12"/>
    <tag k="addr:street" v="Patch Street"/>
    <tag k="addr:state" v="VT"/>
    <tag k="ref:vcgi:esiteid" v="313686"/>
  </node>
  <node id="-840" visible="true" lat="43.66309751" lon="-73.03014429">
    <tag k="addr:housenumber" v="20"/>
    <tag k="addr:street" v="Patch Street"/>
    <tag k="addr:state" v="VT"/>
    <tag k="ref:vcgi:esiteid" v="313687"/>
  </node>
  <node id="-841" visible="true" lat="43.66401622" lon="-73.02900944">
    <tag k="addr:housenumber" v="35"/>
    <tag k="addr:street" v="Patch Street"/>
    <tag k="addr:state" v="VT"/>
    <tag k="ref:vcgi:esiteid" v="313688"/>
  </node>
  <node id="-842" visible="true" lat="43.66321607" lon="-73.03090563">
    <tag k="addr:housenumber" v="13"/>
    <tag k="addr:street" v="Patch Street"/>
    <tag k="addr:state" v="VT"/>
    <tag k="ref:vcgi:esiteid" v="313689"/>
  </node>
  <node id="-843" visible="true" lat="43.66288161" lon="-73.03074006">
    <tag k="addr:housenumber" v="11"/>
    <tag k="addr:street" v="Patch Street"/>
    <tag k="addr:state" v="VT"/>
    <tag k="ref:vcgi:esiteid" v="313690"/>
  </node>
  <node id="-844" visible="true" lat="43.66264535" lon="-73.0308009">
    <tag k="addr:housenumber" v="7"/>
    <tag k="addr:street" v="Patch Street"/>
    <tag k="addr:state" v="VT"/>
    <tag k="ref:vcgi:esiteid" v="313691"/>
  </node>
  <node id="-845" visible="true" lat="43.66200345" lon="-73.02875137">
    <tag k="addr:housenumber" v="5"/>
    <tag k="addr:street" v="Williams Street"/>
    <tag k="addr:state" v="VT"/>
    <tag k="ref:vcgi:esiteid" v="313692"/>
  </node>
  <node id="-846" visible="true" lat="43.66173131" lon="-73.02862639">
    <tag k="addr:housenumber" v="11"/>
    <tag k="addr:street" v="Williams Street"/>
    <tag k="addr:state" v="VT"/>
    <tag k="ref:vcgi:esiteid" v="313693"/>
  </node>
  <node id="-847" visible="true" lat="43.66366826" lon="-73.02853453">
    <tag k="addr:housenumber" v="38"/>
    <tag k="addr:street" v="Patch Street"/>
    <tag k="addr:state" v="VT"/>
    <tag k="ref:vcgi:esiteid" v="313694"/>
  </node>
  <node id="-848" visible="true" lat="43.66371519" lon="-73.02826232">
    <tag k="addr:housenumber" v="42"/>
    <tag k="addr:street" v="Patch Street"/>
    <tag k="addr:state" v="VT"/>
    <tag k="ref:vcgi:esiteid" v="313695"/>
  </node>
  <node id="-849" visible="true" lat="43.66363399" lon="-73.02734452">
    <tag k="addr:housenumber" v="67"/>
    <tag k="addr:street" v="East Street"/>
    <tag k="addr:state" v="VT"/>
    <tag k="ref:vcgi:esiteid" v="313696"/>
  </node>
  <node id="-850" visible="true" lat="43.66325062" lon="-73.02584166">
    <tag k="addr:housenumber" v="10"/>
    <tag k="addr:street" v="Curtis Street"/>
    <tag k="addr:state" v="VT"/>
    <tag k="ref:vcgi:esiteid" v="313697"/>
  </node>
  <node id="-851" visible="true" lat="43.66550506" lon="-73.02473378">
    <tag k="addr:housenumber" v="25"/>
    <tag k="addr:street" v="Garden Street"/>
    <tag k="addr:state" v="VT"/>
    <tag k="ref:vcgi:esiteid" v="313698"/>
  </node>
  <node id="-852" visible="true" lat="43.6653121" lon="-73.02485492">
    <tag k="addr:housenumber" v="19"/>
    <tag k="addr:street" v="Garden Street"/>
    <tag k="addr:state" v="VT"/>
    <tag k="ref:vcgi:esiteid" v="313699"/>
  </node>
  <node id="-853" visible="true" lat="43.66501145" lon="-73.02478644">
    <tag k="addr:housenumber" v="13"/>
    <tag k="addr:street" v="Garden Street"/>
    <tag k="addr:state" v="VT"/>
    <tag k="ref:vcgi:esiteid" v="313700"/>
  </node>
  <node id="-854" visible="true" lat="43.66515269" lon="-73.02453625">
    <tag k="addr:housenumber" v="16"/>
    <tag k="addr:street" v="Garden Street"/>
    <tag k="addr:state" v="VT"/>
    <tag k="ref:vcgi:esiteid" v="313701"/>
  </node>
  <node id="-855" visible="true" lat="43.66542392" lon="-73.02439157">
    <tag k="addr:housenumber" v="24"/>
    <tag k="addr:street" v="Garden Street"/>
    <tag k="addr:state" v="VT"/>
    <tag k="ref:vcgi:esiteid" v="313702"/>
  </node>
  <node id="-856" visible="true" lat="43.65878918" lon="-73.04744739">
    <tag k="addr:housenumber" v="7"/>
    <tag k="addr:street" v="McGarry Street"/>
    <tag k="addr:state" v="VT"/>
    <tag k="ref:vcgi:esiteid" v="313703"/>
  </node>
  <node id="-857" visible="true" lat="43.6586206" lon="-73.04752055">
    <tag k="addr:housenumber" v="11"/>
    <tag k="addr:street" v="McGarry Street"/>
    <tag k="addr:state" v="VT"/>
    <tag k="ref:vcgi:esiteid" v="313704"/>
  </node>
  <node id="-859" visible="true" lat="43.6609787" lon="-73.04367978">
    <tag k="addr:housenumber" v="10"/>
    <tag k="addr:street" v="Beaver Pond Road"/>
    <tag k="addr:state" v="VT"/>
    <tag k="ref:vcgi:esiteid" v="313706"/>
  </node>
  <node id="-860" visible="true" lat="43.66124795" lon="-73.04448577">
    <tag k="addr:housenumber" v="15"/>
    <tag k="addr:street" v="Beaver Pond Road"/>
    <tag k="addr:state" v="VT"/>
    <tag k="ref:vcgi:esiteid" v="313707"/>
  </node>
  <node id="-861" visible="true" lat="43.66150641" lon="-73.04325774">
    <tag k="addr:housenumber" v="1"/>
    <tag k="addr:street" v="West Street"/>
    <tag k="addr:state" v="VT"/>
    <tag k="ref:vcgi:esiteid" v="313708"/>
  </node>
  <node id="-865" visible="true" lat="43.66104953" lon="-73.03689249">
    <tag k="addr:housenumber" v="15"/>
    <tag k="addr:street" v="Pine Street"/>
    <tag k="addr:state" v="VT"/>
    <tag k="ref:vcgi:esiteid" v="313712"/>
  </node>
  <node id="-866" visible="true" lat="43.65955742" lon="-73.03543654">
    <tag k="addr:housenumber" v="10"/>
    <tag k="addr:street" v="Powers Square"/>
    <tag k="addr:state" v="VT"/>
    <tag k="ref:vcgi:esiteid" v="313713"/>
  </node>
  <node id="-867" visible="true" lat="43.65922443" lon="-73.03556316">
    <tag k="addr:housenumber" v="9"/>
    <tag k="addr:street" v="Powers Square"/>
    <tag k="addr:state" v="VT"/>
    <tag k="ref:vcgi:esiteid" v="313714"/>
  </node>
  <node id="-868" visible="true" lat="43.65935244" lon="-73.03520708">
    <tag k="addr:housenumber" v="13"/>
    <tag k="addr:street" v="Powers Square"/>
    <tag k="addr:state" v="VT"/>
    <tag k="ref:vcgi:esiteid" v="313715"/>
  </node>
  <node id="-869" visible="true" lat="43.65236143" lon="-73.04321505">
    <tag k="addr:housenumber" v="129"/>
    <tag k="addr:street" v="West Street"/>
    <tag k="addr:state" v="VT"/>
    <tag k="ref:vcgi:esiteid" v="313716"/>
  </node>
  <node id="-871" visible="true" lat="43.65410377" lon="-73.02967058">
    <tag k="addr:housenumber" v="26"/>
    <tag k="addr:street" v="Park Street"/>
    <tag k="addr:state" v="VT"/>
    <tag k="ref:vcgi:esiteid" v="327452"/>
  </node>
  <node id="-872" visible="true" lat="43.65619789" lon="-73.03090551">
    <tag k="addr:housenumber" v="68"/>
    <tag k="addr:street" v="South Street"/>
    <tag k="addr:state" v="VT"/>
    <tag k="ref:vcgi:esiteid" v="327453"/>
  </node>
  <node id="-874" visible="true" lat="43.65232511" lon="-73.04115258">
    <tag k="addr:housenumber" v="105"/>
    <tag k="addr:street" v="Larry Lane"/>
    <tag k="addr:state" v="VT"/>
    <tag k="ref:vcgi:esiteid" v="329616"/>
  </node>
  <node id="-875" visible="true" lat="43.64597927" lon="-73.03157583">
    <tag k="addr:housenumber" v="212"/>
    <tag k="addr:street" v="South Street"/>
    <tag k="addr:state" v="VT"/>
    <tag k="ref:vcgi:esiteid" v="336498"/>
  </node>
  <node id="-876" visible="true" lat="43.65231659" lon="-73.04107745">
    <tag k="addr:housenumber" v="124"/>
    <tag k="addr:street" v="Larry Lane"/>
    <tag k="addr:state" v="VT"/>
    <tag k="ref:vcgi:esiteid" v="338611"/>
  </node>
  <node id="-877" visible="true" lat="43.65138238" lon="-73.03446627">
    <tag k="addr:housenumber" v="131"/>
    <tag k="addr:street" v="South Street"/>
    <tag k="addr:state" v="VT"/>
    <tag k="ref:vcgi:esiteid" v="340771"/>
  </node>
  <node id="-878" visible="true" lat="43.6920474" lon="-73.04418223">
    <tag k="addr:housenumber" v="1732"/>
    <tag k="addr:street" v="Florence Road"/>
    <tag k="addr:state" v="VT"/>
    <tag k="ref:vcgi:esiteid" v="343657"/>
  </node>
  <node id="-880" visible="true" lat="43.66739817" lon="-73.03980972">
    <tag k="addr:housenumber" v="15"/>
    <tag k="addr:street" v="Eden Avenue"/>
    <tag k="addr:state" v="VT"/>
    <tag k="ref:vcgi:esiteid" v="449901"/>
  </node>
  <node id="-881" visible="true" lat="43.65786445" lon="-73.01247635">
    <tag k="addr:housenumber" v="269"/>
    <tag k="addr:street" v="Crestway Drive"/>
    <tag k="addr:state" v="VT"/>
    <tag k="ref:vcgi:esiteid" v="450329"/>
  </node>
  <node id="-882" visible="true" lat="43.67237245" lon="-73.03971872">
    <tag k="addr:housenumber" v="58"/>
    <tag k="addr:street" v="Gorham Bridge Road"/>
    <tag k="addr:state" v="VT"/>
    <tag k="ref:vcgi:esiteid" v="455321"/>
  </node>
  <node id="-883" visible="true" lat="43.61368317" lon="-73.02658746">
    <tag k="addr:housenumber" v="2810"/>
    <tag k="addr:street" v="West Street"/>
    <tag k="addr:state" v="VT"/>
    <tag k="ref:vcgi:esiteid" v="617108"/>
  </node>
  <node id="-886" visible="true" lat="43.66485653" lon="-73.03025099">
    <tag k="addr:housenumber" v="66"/>
    <tag k="addr:street" v="Generation Avenue"/>
    <tag k="addr:state" v="VT"/>
    <tag k="ref:vcgi:esiteid" v="752156"/>
  </node>
  <node id="-887" visible="true" lat="43.66452436" lon="-73.02998563">
    <tag k="addr:housenumber" v="64"/>
    <tag k="addr:street" v="Generation Avenue"/>
    <tag k="addr:state" v="VT"/>
    <tag k="ref:vcgi:esiteid" v="752157"/>
  </node>
  <node id="-888" visible="true" lat="43.66503251" lon="-73.03209782">
    <tag k="addr:housenumber" v="141"/>
    <tag k="addr:street" v="Generation Avenue"/>
    <tag k="addr:state" v="VT"/>
    <tag k="ref:vcgi:esiteid" v="752158"/>
  </node>
  <node id="-890" visible="true" lat="43.6646858" lon="-73.02599066">
    <tag k="addr:housenumber" v="16"/>
    <tag k="addr:street" v="Field Street"/>
    <tag k="addr:state" v="VT"/>
    <tag k="ref:vcgi:esiteid" v="752161"/>
  </node>
  <node id="-893" visible="true" lat="43.66023331" lon="-73.0402223">
    <tag k="addr:housenumber" v="11"/>
    <tag k="addr:street" v="Taylor Hill"/>
    <tag k="addr:state" v="VT"/>
    <tag k="ref:vcgi:esiteid" v="752165"/>
  </node>
  <node id="-895" visible="true" lat="43.61479656" lon="-73.02843309">
    <tag k="addr:housenumber" v="2711"/>
    <tag k="addr:street" v="West Street"/>
    <tag k="addr:state" v="VT"/>
    <tag k="ref:vcgi:esiteid" v="757583"/>
  </node>
  <node id="-896" visible="true" lat="43.66834783" lon="-73.03768929">
    <tag k="addr:housenumber" v="99"/>
    <tag k="addr:street" v="North Street"/>
    <tag k="addr:state" v="VT"/>
    <tag k="ref:vcgi:esiteid" v="765902"/>
  </node>
  <node id="-897" visible="true" lat="43.69144301" lon="-73.04640971">
    <tag k="addr:housenumber" v="1725"/>
    <tag k="addr:street" v="Florence Road"/>
    <tag k="addr:state" v="VT"/>
    <tag k="ref:vcgi:esiteid" v="765903"/>
  </node>
  <node id="-898" visible="true" lat="43.68726061" lon="-73.04552201">
    <tag k="addr:housenumber" v="1600"/>
    <tag k="addr:street" v="Florence Road"/>
    <tag k="addr:state" v="VT"/>
    <tag k="ref:vcgi:esiteid" v="768473"/>
  </node>
  <node id="-899" visible="true" lat="43.6582116" lon="-73.01120023">
    <tag k="addr:housenumber" v="267"/>
    <tag k="addr:street" v="Crestway Drive"/>
    <tag k="addr:state" v="VT"/>
    <tag k="ref:vcgi:esiteid" v="1050723"/>
  </node>
</osm>
