<?xml version="1.0" encoding="UTF-8"?>
<osm version="0.6" generator="JOSM">
  <node id="-329" visible="true" lat="43.00392532" lon="-72.48124694">
    <tag k="addr:city" v="Putney"/>
    <tag k="addr:housenumber" v="100"/>
    <tag k="addr:street" v="South Pine Banks Road"/>
    <tag k="addr:state" v="VT"/>
    <tag k="ref:vcgi:esiteid" v="195146"/>
  </node>
  <node id="-361" visible="true" lat="43.00170898" lon="-72.48108673">
    <tag k="addr:city" v="Putney"/>
    <tag k="addr:housenumber" v="71"/>
    <tag k="addr:street" v="South Pine Banks Road"/>
    <tag k="addr:state" v="VT"/>
    <tag k="ref:vcgi:esiteid" v="195179"/>
  </node>
  <node id="-367" visible="true" lat="43.00115966" lon="-72.48069763">
    <tag k="addr:city" v="Putney"/>
    <tag k="addr:housenumber" v="61"/>
    <tag k="addr:street" v="South Pine Banks Road"/>
    <tag k="addr:state" v="VT"/>
    <tag k="ref:vcgi:esiteid" v="195185"/>
  </node>
  <node id="-375" visible="true" lat="43.00056076" lon="-72.48031616">
    <tag k="addr:city" v="Putney"/>
    <tag k="addr:housenumber" v="53"/>
    <tag k="addr:street" v="South Pine Banks Road"/>
    <tag k="addr:state" v="VT"/>
    <tag k="ref:vcgi:esiteid" v="195193"/>
  </node>
  <node id="-377" visible="true" lat="43.0004692" lon="-72.47941589">
    <tag k="addr:city" v="Putney"/>
    <tag k="addr:housenumber" v="48"/>
    <tag k="addr:street" v="South Pine Banks Road"/>
    <tag k="addr:state" v="VT"/>
    <tag k="ref:vcgi:esiteid" v="195195"/>
  </node>
  <node id="-387" visible="true" lat="42.99980926" lon="-72.48001098">
    <tag k="addr:city" v="Putney"/>
    <tag k="addr:housenumber" v="43"/>
    <tag k="addr:street" v="South Pine Banks Road"/>
    <tag k="addr:state" v="VT"/>
    <tag k="ref:vcgi:esiteid" v="195205"/>
  </node>
  <node id="-391" visible="true" lat="42.9996309" lon="-72.49234879">
    <tag k="addr:city" v="Putney"/>
    <tag k="addr:housenumber" v="11"/>
    <tag k="addr:street" v="Hale Drive"/>
    <tag k="addr:state" v="VT"/>
    <tag k="ref:vcgi:esiteid" v="195209"/>
  </node>
  <node id="-399" visible="true" lat="42.99878715" lon="-72.47822452">
    <tag k="addr:city" v="Putney"/>
    <tag k="addr:housenumber" v="22"/>
    <tag k="addr:street" v="South Pine Banks Road"/>
    <tag k="addr:state" v="VT"/>
    <tag k="ref:vcgi:esiteid" v="195217"/>
  </node>
  <node id="-402" visible="true" lat="42.99872589" lon="-72.47682952">
    <tag k="addr:city" v="Putney"/>
    <tag k="addr:housenumber" v="563"/>
    <tag k="addr:street" v="Bellows Falls Road"/>
    <tag k="addr:state" v="VT"/>
    <tag k="ref:vcgi:esiteid" v="195220"/>
  </node>
  <node id="-403" visible="true" lat="42.99869537" lon="-72.4936676">
    <tag k="addr:city" v="Putney"/>
    <tag k="addr:housenumber" v="10"/>
    <tag k="addr:street" v="Old Stage Road"/>
    <tag k="addr:state" v="VT"/>
    <tag k="ref:vcgi:esiteid" v="195221"/>
  </node>
  <node id="-406" visible="true" lat="42.99802398" lon="-72.49407958">
    <tag k="addr:city" v="Putney"/>
    <tag k="addr:housenumber" v="349"/>
    <tag k="addr:street" v="Bellows Falls Road"/>
    <tag k="addr:state" v="VT"/>
    <tag k="ref:vcgi:esiteid" v="195224"/>
  </node>
  <node id="-407" visible="true" lat="42.99803156" lon="-72.47661659">
    <tag k="addr:city" v="Putney"/>
    <tag k="addr:housenumber" v="556"/>
    <tag k="addr:street" v="Bellows Falls Road"/>
    <tag k="addr:state" v="VT"/>
    <tag k="ref:vcgi:esiteid" v="195225"/>
  </node>
  <node id="-420" visible="true" lat="42.99590301" lon="-72.49382781">
    <tag k="addr:city" v="Putney"/>
    <tag k="addr:housenumber" v="336"/>
    <tag k="addr:street" v="Bellows Falls Road"/>
    <tag k="addr:state" v="VT"/>
    <tag k="ref:vcgi:esiteid" v="195238"/>
  </node>
  <node id="-429" visible="true" lat="42.99493026" lon="-72.49797821">
    <tag k="addr:city" v="Putney"/>
    <tag k="addr:housenumber" v="261"/>
    <tag k="addr:street" v="Bellows Falls Road"/>
    <tag k="addr:state" v="VT"/>
    <tag k="ref:vcgi:esiteid" v="195247"/>
  </node>
  <node id="-430" visible="true" lat="42.99489212" lon="-72.48390197">
    <tag k="addr:city" v="Putney"/>
    <tag k="addr:housenumber" v="89"/>
    <tag k="addr:street" v="East Putney Falls Road"/>
    <tag k="addr:state" v="VT"/>
    <tag k="ref:vcgi:esiteid" v="195248"/>
  </node>
  <node id="-435" visible="true" lat="42.99460211" lon="-72.48370017">
    <tag k="addr:city" v="Putney"/>
    <tag k="addr:housenumber" v="95"/>
    <tag k="addr:street" v="East Putney Falls Road"/>
    <tag k="addr:state" v="VT"/>
    <tag k="ref:vcgi:esiteid" v="195253"/>
  </node>
  <node id="-438" visible="true" lat="42.99420928" lon="-72.48503112">
    <tag k="addr:city" v="Putney"/>
    <tag k="addr:housenumber" v="32"/>
    <tag k="addr:street" v="Cemetery Road"/>
    <tag k="addr:state" v="VT"/>
    <tag k="ref:vcgi:esiteid" v="195256"/>
  </node>
  <node id="-440" visible="true" lat="42.99403556" lon="-72.48193068">
    <tag k="addr:city" v="Putney"/>
    <tag k="addr:housenumber" v="15"/>
    <tag k="addr:street" v="Pierce Road"/>
    <tag k="addr:state" v="VT"/>
    <tag k="ref:vcgi:esiteid" v="195258"/>
  </node>
  <node id="-443" visible="true" lat="42.99370247" lon="-72.48370981">
    <tag k="addr:city" v="Putney"/>
    <tag k="addr:housenumber" v="104"/>
    <tag k="addr:street" v="East Putney Falls Road"/>
    <tag k="addr:state" v="VT"/>
    <tag k="ref:vcgi:esiteid" v="195261"/>
  </node>
  <node id="-447" visible="true" lat="42.99359086" lon="-72.48071194">
    <tag k="addr:city" v="Putney"/>
    <tag k="addr:housenumber" v="24"/>
    <tag k="addr:street" v="Pierce Road"/>
    <tag k="addr:state" v="VT"/>
    <tag k="ref:vcgi:esiteid" v="195265"/>
  </node>
  <node id="-451" visible="true" lat="42.9934082" lon="-72.48271179">
    <tag k="addr:city" v="Putney"/>
    <tag k="addr:housenumber" v="10"/>
    <tag k="addr:street" v="Pierce Road"/>
    <tag k="addr:state" v="VT"/>
    <tag k="ref:vcgi:esiteid" v="195269"/>
  </node>
  <node id="-456" visible="true" lat="42.99286648" lon="-72.48222956">
    <tag k="addr:city" v="Putney"/>
    <tag k="addr:housenumber" v="121"/>
    <tag k="addr:street" v="East Putney Falls Road"/>
    <tag k="addr:state" v="VT"/>
    <tag k="ref:vcgi:esiteid" v="195274"/>
  </node>
  <node id="-459" visible="true" lat="42.99260047" lon="-72.4822479">
    <tag k="addr:city" v="Putney"/>
    <tag k="addr:housenumber" v="123"/>
    <tag k="addr:street" v="East Putney Falls Road"/>
    <tag k="addr:state" v="VT"/>
    <tag k="ref:vcgi:esiteid" v="195277"/>
  </node>
  <node id="-464" visible="true" lat="42.9923172" lon="-72.49974822">
    <tag k="addr:city" v="Putney"/>
    <tag k="addr:housenumber" v="245"/>
    <tag k="addr:street" v="Bellows Falls Road"/>
    <tag k="addr:state" v="VT"/>
    <tag k="ref:vcgi:esiteid" v="195282"/>
  </node>
  <node id="-466" visible="true" lat="42.99221801" lon="-72.50042724">
    <tag k="addr:city" v="Putney"/>
    <tag k="addr:housenumber" v="241"/>
    <tag k="addr:street" v="Bellows Falls Road"/>
    <tag k="addr:state" v="VT"/>
    <tag k="ref:vcgi:esiteid" v="195284"/>
  </node>
  <node id="-470" visible="true" lat="42.99199295" lon="-72.49749755">
    <tag k="addr:city" v="Putney"/>
    <tag k="addr:housenumber" v="11"/>
    <tag k="addr:street" v="Earls Way"/>
    <tag k="addr:state" v="VT"/>
    <tag k="ref:vcgi:esiteid" v="195288"/>
  </node>
  <node id="-474" visible="true" lat="42.99171829" lon="-72.50155639">
    <tag k="addr:city" v="Putney"/>
    <tag k="addr:housenumber" v="227"/>
    <tag k="addr:street" v="Bellows Falls Road"/>
    <tag k="addr:state" v="VT"/>
    <tag k="ref:vcgi:esiteid" v="195292"/>
  </node>
  <node id="-475" visible="true" lat="42.99167251" lon="-72.48180389">
    <tag k="addr:city" v="Putney"/>
    <tag k="addr:housenumber" v="138"/>
    <tag k="addr:street" v="East Putney Falls Road"/>
    <tag k="addr:state" v="VT"/>
    <tag k="ref:vcgi:esiteid" v="195293"/>
  </node>
  <node id="-476" visible="true" lat="42.99163818" lon="-72.4820938">
    <tag k="addr:city" v="Putney"/>
    <tag k="addr:housenumber" v="136"/>
    <tag k="addr:street" v="East Putney Falls Road"/>
    <tag k="addr:state" v="VT"/>
    <tag k="ref:vcgi:esiteid" v="195294"/>
  </node>
  <node id="-477" visible="true" lat="42.99143219" lon="-72.49994659">
    <tag k="addr:city" v="Putney"/>
    <tag k="addr:housenumber" v="238"/>
    <tag k="addr:street" v="Bellows Falls Road"/>
    <tag k="addr:state" v="VT"/>
    <tag k="ref:vcgi:esiteid" v="195295"/>
  </node>
  <node id="-478" visible="true" lat="42.99138259" lon="-72.501091">
    <tag k="addr:city" v="Putney"/>
    <tag k="addr:housenumber" v="229"/>
    <tag k="addr:street" v="Bellows Falls Road"/>
    <tag k="addr:state" v="VT"/>
    <tag k="ref:vcgi:esiteid" v="195296"/>
  </node>
  <node id="-479" visible="true" lat="42.99136734" lon="-72.47910308">
    <tag k="addr:city" v="Putney"/>
    <tag k="addr:housenumber" v="165"/>
    <tag k="addr:street" v="East Putney Falls Road"/>
    <tag k="addr:state" v="VT"/>
    <tag k="ref:vcgi:esiteid" v="195297"/>
  </node>
  <node id="-483" visible="true" lat="42.99108167" lon="-72.48397009">
    <tag k="addr:city" v="Putney"/>
    <tag k="addr:housenumber" v="101"/>
    <tag k="addr:street" v="Cemetery Road"/>
    <tag k="addr:state" v="VT"/>
    <tag k="ref:vcgi:esiteid" v="195301"/>
  </node>
  <node id="-486" visible="true" lat="42.99096219" lon="-72.48339565">
    <tag k="addr:city" v="Putney"/>
    <tag k="addr:housenumber" v="105"/>
    <tag k="addr:street" v="Cemetery Road"/>
    <tag k="addr:state" v="VT"/>
    <tag k="ref:vcgi:esiteid" v="195304"/>
  </node>
  <node id="-487" visible="true" lat="42.99085235" lon="-72.50246429">
    <tag k="addr:city" v="Putney"/>
    <tag k="addr:housenumber" v="213"/>
    <tag k="addr:street" v="Bellows Falls Road"/>
    <tag k="addr:state" v="VT"/>
    <tag k="ref:vcgi:esiteid" v="195305"/>
  </node>
  <node id="-492" visible="true" lat="42.99066731" lon="-72.47993768">
    <tag k="addr:city" v="Putney"/>
    <tag k="addr:housenumber" v="158"/>
    <tag k="addr:street" v="East Putney Falls Road"/>
    <tag k="addr:state" v="VT"/>
    <tag k="ref:vcgi:esiteid" v="195310"/>
  </node>
  <node id="-502" visible="true" lat="42.99018464" lon="-72.50410355">
    <tag k="addr:city" v="Putney"/>
    <tag k="addr:housenumber" v="195"/>
    <tag k="addr:street" v="Bellows Falls Road"/>
    <tag k="addr:state" v="VT"/>
    <tag k="ref:vcgi:esiteid" v="195320"/>
  </node>
  <node id="-516" visible="true" lat="42.98935317" lon="-72.50666046">
    <tag k="addr:city" v="Putney"/>
    <tag k="addr:housenumber" v="24"/>
    <tag k="addr:street" v="Bare Hill Road"/>
    <tag k="addr:state" v="VT"/>
    <tag k="ref:vcgi:esiteid" v="195334"/>
  </node>
  <node id="-517" visible="true" lat="42.9893484" lon="-72.50455203">
    <tag k="addr:city" v="Putney"/>
    <tag k="addr:housenumber" v="183"/>
    <tag k="addr:street" v="Bellows Falls Road"/>
    <tag k="addr:state" v="VT"/>
    <tag k="ref:vcgi:esiteid" v="195335"/>
  </node>
  <node id="-518" visible="true" lat="42.98929281" lon="-72.50735935">
    <tag k="addr:city" v="Putney"/>
    <tag k="addr:housenumber" v="30"/>
    <tag k="addr:street" v="Bare Hill Road"/>
    <tag k="addr:state" v="VT"/>
    <tag k="ref:vcgi:esiteid" v="195336"/>
  </node>
  <node id="-520" visible="true" lat="42.989048" lon="-72.50608825">
    <tag k="addr:city" v="Putney"/>
    <tag k="addr:housenumber" v="12"/>
    <tag k="addr:street" v="Bare Hill Road"/>
    <tag k="addr:state" v="VT"/>
    <tag k="ref:vcgi:esiteid" v="195338"/>
  </node>
  <node id="-524" visible="true" lat="42.98882675" lon="-72.50852966">
    <tag k="addr:city" v="Putney"/>
    <tag k="addr:housenumber" v="43"/>
    <tag k="addr:street" v="Bare Hill Road"/>
    <tag k="addr:state" v="VT"/>
    <tag k="ref:vcgi:esiteid" v="195342"/>
  </node>
  <node id="-529" visible="true" lat="42.98845672" lon="-72.50753784">
    <tag k="addr:city" v="Putney"/>
    <tag k="addr:housenumber" v="23"/>
    <tag k="addr:street" v="Bare Hill Road"/>
    <tag k="addr:state" v="VT"/>
    <tag k="ref:vcgi:esiteid" v="195347"/>
  </node>
  <node id="-542" visible="true" lat="42.98757237" lon="-72.4806621">
    <tag k="addr:city" v="Putney"/>
    <tag k="addr:housenumber" v="162"/>
    <tag k="addr:street" v="Cemetery Road"/>
    <tag k="addr:state" v="VT"/>
    <tag k="ref:vcgi:esiteid" v="195361"/>
  </node>
  <node id="-543" visible="true" lat="42.98727467" lon="-72.48195711">
    <tag k="addr:city" v="Putney"/>
    <tag k="addr:housenumber" v="160"/>
    <tag k="addr:street" v="Cemetery Road"/>
    <tag k="addr:state" v="VT"/>
    <tag k="ref:vcgi:esiteid" v="195362"/>
  </node>
  <node id="-548" visible="true" lat="42.98704613" lon="-72.50580057">
    <tag k="addr:city" v="Putney"/>
    <tag k="addr:housenumber" v="7"/>
    <tag k="addr:street" v="Small Meadows Lane"/>
    <tag k="addr:state" v="VT"/>
    <tag k="ref:vcgi:esiteid" v="195367"/>
  </node>
  <node id="-555" visible="true" lat="42.98641868" lon="-72.55943683">
    <tag k="addr:city" v="Putney"/>
    <tag k="addr:housenumber" v="38"/>
    <tag k="addr:street" v="Gray Lane"/>
    <tag k="addr:state" v="VT"/>
    <tag k="ref:vcgi:esiteid" v="195374"/>
  </node>
  <node id="-562" visible="true" lat="42.98607635" lon="-72.5078125">
    <tag k="addr:city" v="Putney"/>
    <tag k="addr:housenumber" v="127"/>
    <tag k="addr:street" v="Bellows Falls Road"/>
    <tag k="addr:state" v="VT"/>
    <tag k="ref:vcgi:esiteid" v="195381"/>
  </node>
  <node id="-565" visible="true" lat="42.98595096" lon="-72.50864175">
    <tag k="addr:city" v="Putney"/>
    <tag k="addr:housenumber" v="123"/>
    <tag k="addr:street" v="Bellows Falls Road"/>
    <tag k="addr:state" v="VT"/>
    <tag k="ref:vcgi:esiteid" v="195384"/>
  </node>
  <node id="-567" visible="true" lat="42.98583602" lon="-72.4824295">
    <tag k="addr:city" v="Putney"/>
    <tag k="addr:housenumber" v="166"/>
    <tag k="addr:street" v="Cemetery Road"/>
    <tag k="addr:state" v="VT"/>
    <tag k="ref:vcgi:esiteid" v="195386"/>
  </node>
  <node id="-568" visible="true" lat="42.9857788" lon="-72.55437469">
    <tag k="addr:city" v="Putney"/>
    <tag k="addr:housenumber" v="26"/>
    <tag k="addr:street" v="Putney School Drive"/>
    <tag k="addr:state" v="VT"/>
    <tag k="ref:vcgi:esiteid" v="195387"/>
  </node>
  <node id="-573" visible="true" lat="42.9855957" lon="-72.55722808">
    <tag k="addr:city" v="Putney"/>
    <tag k="addr:housenumber" v="391"/>
    <tag k="addr:street" v="Houghton Brook Road"/>
    <tag k="addr:state" v="VT"/>
    <tag k="ref:vcgi:esiteid" v="195392"/>
  </node>
  <node id="-574" visible="true" lat="42.98541259" lon="-72.5564804">
    <tag k="addr:city" v="Putney"/>
    <tag k="addr:housenumber" v="6"/>
    <tag k="addr:street" v="Putney School Drive"/>
    <tag k="addr:state" v="VT"/>
    <tag k="ref:vcgi:esiteid" v="195393"/>
  </node>
  <node id="-575" visible="true" lat="42.98527517" lon="-72.55300519">
    <tag k="addr:city" v="Putney"/>
    <tag k="addr:housenumber" v="40"/>
    <tag k="addr:street" v="Putney School Drive"/>
    <tag k="addr:state" v="VT"/>
    <tag k="ref:vcgi:esiteid" v="195394"/>
  </node>
  <node id="-576" visible="true" lat="42.98528376" lon="-72.55811746">
    <tag k="addr:city" v="Putney"/>
    <tag k="addr:housenumber" v="12"/>
    <tag k="addr:street" v="Gray Lane"/>
    <tag k="addr:state" v="VT"/>
    <tag k="ref:vcgi:esiteid" v="195395"/>
  </node>
  <node id="-578" visible="true" lat="42.98508834" lon="-72.5090332">
    <tag k="addr:city" v="Putney"/>
    <tag k="addr:housenumber" v="109"/>
    <tag k="addr:street" v="Bellows Falls Road"/>
    <tag k="addr:state" v="VT"/>
    <tag k="ref:vcgi:esiteid" v="195397"/>
  </node>
  <node id="-582" visible="true" lat="42.98485234" lon="-72.55891662">
    <tag k="addr:city" v="Putney"/>
    <tag k="addr:housenumber" v="19"/>
    <tag k="addr:street" v="Gray Lane"/>
    <tag k="addr:state" v="VT"/>
    <tag k="ref:vcgi:esiteid" v="195401"/>
  </node>
  <node id="-584" visible="true" lat="42.98478939" lon="-72.5572662">
    <tag k="addr:city" v="Putney"/>
    <tag k="addr:housenumber" v="379"/>
    <tag k="addr:street" v="Houghton Brook Road"/>
    <tag k="addr:state" v="VT"/>
    <tag k="ref:vcgi:esiteid" v="195403"/>
  </node>
  <node id="-586" visible="true" lat="42.98477014" lon="-72.50973546">
    <tag k="addr:city" v="Putney"/>
    <tag k="addr:housenumber" v="99"/>
    <tag k="addr:street" v="Bellows Falls Road"/>
    <tag k="addr:state" v="VT"/>
    <tag k="ref:vcgi:esiteid" v="195405"/>
  </node>
  <node id="-588" visible="true" lat="42.98452606" lon="-72.52809428">
    <tag k="addr:city" v="Putney"/>
    <tag k="addr:housenumber" v="162"/>
    <tag k="addr:street" v="Westminster Road"/>
    <tag k="addr:state" v="VT"/>
    <tag k="ref:vcgi:esiteid" v="195407"/>
  </node>
  <node id="-589" visible="true" lat="42.98449138" lon="-72.4864052">
    <tag k="addr:city" v="Putney"/>
    <tag k="addr:housenumber" v="92"/>
    <tag k="addr:street" v="Wardon Road"/>
    <tag k="addr:state" v="VT"/>
    <tag k="ref:vcgi:esiteid" v="195408"/>
  </node>
  <node id="-592" visible="true" lat="42.98426055" lon="-72.51106262">
    <tag k="addr:city" v="Putney"/>
    <tag k="addr:housenumber" v="85"/>
    <tag k="addr:street" v="Bellows Falls Road"/>
    <tag k="addr:state" v="VT"/>
    <tag k="ref:vcgi:esiteid" v="195411"/>
  </node>
  <node id="-593" visible="true" lat="42.98420195" lon="-72.55750212">
    <tag k="addr:city" v="Putney"/>
    <tag k="addr:housenumber" v="373"/>
    <tag k="addr:street" v="Houghton Brook Road"/>
    <tag k="addr:state" v="VT"/>
    <tag k="ref:vcgi:esiteid" v="195412"/>
  </node>
  <node id="-594" visible="true" lat="42.98403167" lon="-72.51125335">
    <tag k="addr:city" v="Putney"/>
    <tag k="addr:housenumber" v="83"/>
    <tag k="addr:street" v="Bellows Falls Road"/>
    <tag k="addr:state" v="VT"/>
    <tag k="ref:vcgi:esiteid" v="195413"/>
  </node>
  <node id="-598" visible="true" lat="42.98389712" lon="-72.48707488">
    <tag k="addr:city" v="Putney"/>
    <tag k="addr:housenumber" v="102"/>
    <tag k="addr:street" v="Wardon Road"/>
    <tag k="addr:state" v="VT"/>
    <tag k="ref:vcgi:esiteid" v="195417"/>
  </node>
  <node id="-603" visible="true" lat="42.98360443" lon="-72.48700714">
    <tag k="addr:city" v="Putney"/>
    <tag k="addr:housenumber" v="104"/>
    <tag k="addr:street" v="Wardon Road"/>
    <tag k="addr:state" v="VT"/>
    <tag k="ref:vcgi:esiteid" v="195422"/>
  </node>
  <node id="-604" visible="true" lat="42.98353956" lon="-72.51202398">
    <tag k="addr:city" v="Putney"/>
    <tag k="addr:housenumber" v="73"/>
    <tag k="addr:street" v="Bellows Falls Road"/>
    <tag k="addr:state" v="VT"/>
    <tag k="ref:vcgi:esiteid" v="195423"/>
  </node>
  <node id="-605" visible="true" lat="42.98350143" lon="-72.51087951">
    <tag k="addr:city" v="Putney"/>
    <tag k="addr:housenumber" v="80"/>
    <tag k="addr:street" v="Bellows Falls Road"/>
    <tag k="addr:state" v="VT"/>
    <tag k="ref:vcgi:esiteid" v="195424"/>
  </node>
  <node id="-608" visible="true" lat="42.98324408" lon="-72.51216359">
    <tag k="addr:city" v="Putney"/>
    <tag k="addr:housenumber" v="67"/>
    <tag k="addr:street" v="Bellows Falls Road"/>
    <tag k="addr:state" v="VT"/>
    <tag k="ref:vcgi:esiteid" v="195427"/>
  </node>
  <node id="-610" visible="true" lat="42.98299789" lon="-72.51142883">
    <tag k="addr:city" v="Putney"/>
    <tag k="addr:housenumber" v="70"/>
    <tag k="addr:street" v="Bellows Falls Road"/>
    <tag k="addr:state" v="VT"/>
    <tag k="ref:vcgi:esiteid" v="195430"/>
  </node>
  <node id="-611" visible="true" lat="42.98290198" lon="-72.4876251">
    <tag k="addr:city" v="Putney"/>
    <tag k="addr:housenumber" v="114"/>
    <tag k="addr:street" v="Wardon Road"/>
    <tag k="addr:state" v="VT"/>
    <tag k="ref:vcgi:esiteid" v="195432"/>
  </node>
  <node id="-612" visible="true" lat="42.98286686" lon="-72.48536433">
    <tag k="addr:city" v="Putney"/>
    <tag k="addr:housenumber" v="111"/>
    <tag k="addr:street" v="Wardon Road"/>
    <tag k="addr:state" v="VT"/>
    <tag k="ref:vcgi:esiteid" v="195433"/>
  </node>
  <node id="-613" visible="true" lat="42.98272705" lon="-72.55749511">
    <tag k="addr:city" v="Putney"/>
    <tag k="addr:housenumber" v="357"/>
    <tag k="addr:street" v="Houghton Brook Road"/>
    <tag k="addr:state" v="VT"/>
    <tag k="ref:vcgi:esiteid" v="195434"/>
  </node>
  <node id="-615" visible="true" lat="42.9825619" lon="-72.52763533">
    <tag k="addr:city" v="Putney"/>
    <tag k="addr:housenumber" v="134"/>
    <tag k="addr:street" v="Westminster Road"/>
    <tag k="addr:state" v="VT"/>
    <tag k="ref:vcgi:esiteid" v="195436"/>
  </node>
  <node id="-617" visible="true" lat="42.98224827" lon="-72.4894179">
    <tag k="addr:city" v="Putney"/>
    <tag k="addr:housenumber" v="136"/>
    <tag k="addr:street" v="Wardon Road"/>
    <tag k="addr:state" v="VT"/>
    <tag k="ref:vcgi:esiteid" v="195438"/>
  </node>
  <node id="-618" visible="true" lat="42.98197174" lon="-72.48638152">
    <tag k="addr:city" v="Putney"/>
    <tag k="addr:housenumber" v="127"/>
    <tag k="addr:street" v="Wardon Road"/>
    <tag k="addr:state" v="VT"/>
    <tag k="ref:vcgi:esiteid" v="195439"/>
  </node>
  <node id="-619" visible="true" lat="42.9820419" lon="-72.52759389">
    <tag k="addr:city" v="Putney"/>
    <tag k="addr:housenumber" v="124"/>
    <tag k="addr:street" v="Westminster Road"/>
    <tag k="addr:state" v="VT"/>
    <tag k="ref:vcgi:esiteid" v="195440"/>
  </node>
  <node id="-623" visible="true" lat="42.98150744" lon="-72.48873436">
    <tag k="addr:city" v="Putney"/>
    <tag k="addr:housenumber" v="134"/>
    <tag k="addr:street" v="Wardon Road"/>
    <tag k="addr:state" v="VT"/>
    <tag k="ref:vcgi:esiteid" v="195444"/>
  </node>
  <node id="-624" visible="true" lat="42.98136901" lon="-72.51360321">
    <tag k="addr:city" v="Putney"/>
    <tag k="addr:housenumber" v="41"/>
    <tag k="addr:street" v="Bellows Falls Road"/>
    <tag k="addr:state" v="VT"/>
    <tag k="ref:vcgi:esiteid" v="195445"/>
  </node>
  <node id="-625" visible="true" lat="42.98136281" lon="-72.53174229">
    <tag k="addr:city" v="Putney"/>
    <tag k="addr:housenumber" v="20"/>
    <tag k="addr:street" v="Spring Hill Road"/>
    <tag k="addr:state" v="VT"/>
    <tag k="ref:vcgi:esiteid" v="195446"/>
  </node>
  <node id="-626" visible="true" lat="42.98116556" lon="-72.52742307">
    <tag k="addr:city" v="Putney"/>
    <tag k="addr:housenumber" v="114"/>
    <tag k="addr:street" v="Westminster Road"/>
    <tag k="addr:state" v="VT"/>
    <tag k="ref:vcgi:esiteid" v="195447"/>
  </node>
  <node id="-627" visible="true" lat="42.98112817" lon="-72.52704661">
    <tag k="addr:city" v="Putney"/>
    <tag k="addr:housenumber" v="106"/>
    <tag k="addr:street" v="Westminster Road"/>
    <tag k="addr:state" v="VT"/>
    <tag k="ref:vcgi:esiteid" v="195448"/>
  </node>
  <node id="-629" visible="true" lat="42.98110198" lon="-72.51298522">
    <tag k="addr:city" v="Putney"/>
    <tag k="addr:housenumber" v="40"/>
    <tag k="addr:street" v="Bellows Falls Road"/>
    <tag k="addr:state" v="VT"/>
    <tag k="ref:vcgi:esiteid" v="195450"/>
  </node>
  <node id="-631" visible="true" lat="42.98074758" lon="-72.48663526">
    <tag k="addr:city" v="Putney"/>
    <tag k="addr:housenumber" v="145"/>
    <tag k="addr:street" v="Wardon Road"/>
    <tag k="addr:state" v="VT"/>
    <tag k="ref:vcgi:esiteid" v="195452"/>
  </node>
  <node id="-633" visible="true" lat="42.9806153" lon="-72.52789628">
    <tag k="addr:city" v="Putney"/>
    <tag k="addr:housenumber" v="105"/>
    <tag k="addr:street" v="Westminster Road"/>
    <tag k="addr:state" v="VT"/>
    <tag k="ref:vcgi:esiteid" v="195454"/>
  </node>
  <node id="-634" visible="true" lat="42.98128658" lon="-72.55370702">
    <tag k="addr:city" v="Putney"/>
    <tag k="addr:housenumber" v="336"/>
    <tag k="addr:street" v="Houghton Brook Road"/>
    <tag k="addr:state" v="VT"/>
    <tag k="ref:vcgi:esiteid" v="195455"/>
  </node>
  <node id="-635" visible="true" lat="42.98047256" lon="-72.51456451">
    <tag k="addr:city" v="Putney"/>
    <tag k="addr:housenumber" v="31"/>
    <tag k="addr:street" v="Bellows Falls Road"/>
    <tag k="addr:state" v="VT"/>
    <tag k="ref:vcgi:esiteid" v="195456"/>
  </node>
  <node id="-637" visible="true" lat="42.9804039" lon="-72.51693725">
    <tag k="addr:city" v="Putney"/>
    <tag k="addr:housenumber" v="30"/>
    <tag k="addr:street" v="Sand Hill Road"/>
    <tag k="addr:state" v="VT"/>
    <tag k="ref:vcgi:esiteid" v="195458"/>
  </node>
  <node id="-638" visible="true" lat="42.98030471" lon="-72.5583496">
    <tag k="addr:city" v="Putney"/>
    <tag k="addr:housenumber" v="355"/>
    <tag k="addr:street" v="Houghton Brook Road"/>
    <tag k="addr:state" v="VT"/>
    <tag k="ref:vcgi:esiteid" v="195459"/>
  </node>
  <node id="-644" visible="true" lat="42.98007965" lon="-72.51779937">
    <tag k="addr:city" v="Putney"/>
    <tag k="addr:housenumber" v="18"/>
    <tag k="addr:street" v="Sand Hill Road"/>
    <tag k="addr:state" v="VT"/>
    <tag k="ref:vcgi:esiteid" v="195465"/>
  </node>
  <node id="-645" visible="true" lat="42.98003387" lon="-72.48778533">
    <tag k="addr:city" v="Putney"/>
    <tag k="addr:housenumber" v="158"/>
    <tag k="addr:street" v="Wardon Road"/>
    <tag k="addr:state" v="VT"/>
    <tag k="ref:vcgi:esiteid" v="195466"/>
  </node>
  <node id="-647" visible="true" lat="42.97992324" lon="-72.51752471">
    <tag k="addr:city" v="Putney"/>
    <tag k="addr:housenumber" v="16"/>
    <tag k="addr:street" v="Sand Hill Road"/>
    <tag k="addr:state" v="VT"/>
    <tag k="ref:vcgi:esiteid" v="195468"/>
  </node>
  <node id="-648" visible="true" lat="42.97996371" lon="-72.52796142">
    <tag k="addr:city" v="Putney"/>
    <tag k="addr:housenumber" v="97"/>
    <tag k="addr:street" v="Westminster Road"/>
    <tag k="addr:state" v="VT"/>
    <tag k="ref:vcgi:esiteid" v="195469"/>
  </node>
  <node id="-649" visible="true" lat="42.97985458" lon="-72.48735809">
    <tag k="addr:city" v="Putney"/>
    <tag k="addr:housenumber" v="159"/>
    <tag k="addr:street" v="Wardon Road"/>
    <tag k="addr:state" v="VT"/>
    <tag k="ref:vcgi:esiteid" v="195470"/>
  </node>
  <node id="-650" visible="true" lat="42.97979122" lon="-72.52924798">
    <tag k="addr:city" v="Putney"/>
    <tag k="addr:housenumber" v="27"/>
    <tag k="addr:street" v="Spring Hill Road"/>
    <tag k="addr:state" v="VT"/>
    <tag k="ref:vcgi:esiteid" v="195471"/>
  </node>
  <node id="-652" visible="true" lat="42.97989256" lon="-72.55040353">
    <tag k="addr:city" v="Putney"/>
    <tag k="addr:housenumber" v="30"/>
    <tag k="addr:street" v="Lower Farm Road"/>
    <tag k="addr:state" v="VT"/>
    <tag k="ref:vcgi:esiteid" v="195473"/>
  </node>
  <node id="-655" visible="true" lat="42.97966271" lon="-72.54992904">
    <tag k="addr:city" v="Putney"/>
    <tag k="addr:housenumber" v="28"/>
    <tag k="addr:street" v="Lower Farm Road"/>
    <tag k="addr:state" v="VT"/>
    <tag k="ref:vcgi:esiteid" v="195476"/>
  </node>
  <node id="-658" visible="true" lat="42.97935857" lon="-72.52791693">
    <tag k="addr:city" v="Putney"/>
    <tag k="addr:housenumber" v="89"/>
    <tag k="addr:street" v="Westminster Road"/>
    <tag k="addr:state" v="VT"/>
    <tag k="ref:vcgi:esiteid" v="195479"/>
  </node>
  <node id="-659" visible="true" lat="42.97911834" lon="-72.53035736">
    <tag k="addr:city" v="Putney"/>
    <tag k="addr:housenumber" v="26"/>
    <tag k="addr:street" v="Spring Hill Road"/>
    <tag k="addr:state" v="VT"/>
    <tag k="ref:vcgi:esiteid" v="195480"/>
  </node>
  <node id="-664" visible="true" lat="42.9787929" lon="-72.52710644">
    <tag k="addr:city" v="Putney"/>
    <tag k="addr:housenumber" v="82"/>
    <tag k="addr:street" v="Westminster Road"/>
    <tag k="addr:state" v="VT"/>
    <tag k="ref:vcgi:esiteid" v="195485"/>
  </node>
  <node id="-668" visible="true" lat="42.97852658" lon="-72.51633555">
    <tag k="addr:city" v="Putney"/>
    <tag k="addr:housenumber" v="12"/>
    <tag k="addr:street" v="Vinegar Lane"/>
    <tag k="addr:state" v="VT"/>
    <tag k="ref:vcgi:esiteid" v="195489"/>
  </node>
  <node id="-669" visible="true" lat="42.97853851" lon="-72.52767181">
    <tag k="addr:city" v="Putney"/>
    <tag k="addr:housenumber" v="79"/>
    <tag k="addr:street" v="Westminster Road"/>
    <tag k="addr:state" v="VT"/>
    <tag k="ref:vcgi:esiteid" v="195490"/>
  </node>
  <node id="-674" visible="true" lat="42.97833842" lon="-72.51232166">
    <tag k="addr:city" v="Putney"/>
    <tag k="addr:housenumber" v="38"/>
    <tag k="addr:street" v="Perseverance Lane"/>
    <tag k="addr:state" v="VT"/>
    <tag k="ref:vcgi:esiteid" v="195495"/>
  </node>
  <node id="-675" visible="true" lat="42.97818017" lon="-72.52699216">
    <tag k="addr:city" v="Putney"/>
    <tag k="addr:housenumber" v="72"/>
    <tag k="addr:street" v="Westminster Road"/>
    <tag k="addr:state" v="VT"/>
    <tag k="ref:vcgi:esiteid" v="195496"/>
  </node>
  <node id="-676" visible="true" lat="42.97820663" lon="-72.52757263">
    <tag k="addr:city" v="Putney"/>
    <tag k="addr:housenumber" v="75"/>
    <tag k="addr:street" v="Westminster Road"/>
    <tag k="addr:state" v="VT"/>
    <tag k="ref:vcgi:esiteid" v="195497"/>
  </node>
  <node id="-678" visible="true" lat="42.97806549" lon="-72.51525116">
    <tag k="addr:city" v="Putney"/>
    <tag k="addr:housenumber" v="19"/>
    <tag k="addr:street" v="River Road South"/>
    <tag k="addr:state" v="VT"/>
    <tag k="ref:vcgi:esiteid" v="195499"/>
  </node>
  <node id="-682" visible="true" lat="42.97790527" lon="-72.52739715">
    <tag k="addr:city" v="Putney"/>
    <tag k="addr:housenumber" v="71"/>
    <tag k="addr:street" v="Westminster Road"/>
    <tag k="addr:state" v="VT"/>
    <tag k="ref:vcgi:esiteid" v="195503"/>
  </node>
  <node id="-683" visible="true" lat="42.97774606" lon="-72.52680266">
    <tag k="addr:city" v="Putney"/>
    <tag k="addr:housenumber" v="66"/>
    <tag k="addr:street" v="Westminster Road"/>
    <tag k="addr:state" v="VT"/>
    <tag k="ref:vcgi:esiteid" v="195504"/>
  </node>
  <node id="-684" visible="true" lat="42.97773206" lon="-72.51092418">
    <tag k="addr:city" v="Putney"/>
    <tag k="addr:housenumber" v="54"/>
    <tag k="addr:street" v="Perseverance Lane"/>
    <tag k="addr:state" v="VT"/>
    <tag k="ref:vcgi:esiteid" v="195505"/>
  </node>
  <node id="-685" visible="true" lat="42.97753684" lon="-72.52651389">
    <tag k="addr:city" v="Putney"/>
    <tag k="addr:housenumber" v="62"/>
    <tag k="addr:street" v="Westminster Road"/>
    <tag k="addr:state" v="VT"/>
    <tag k="ref:vcgi:esiteid" v="195506"/>
  </node>
  <node id="-687" visible="true" lat="42.97735892" lon="-72.52970971">
    <tag k="addr:city" v="Putney"/>
    <tag k="addr:housenumber" v="38"/>
    <tag k="addr:street" v="Signal Pine Road"/>
    <tag k="addr:state" v="VT"/>
    <tag k="ref:vcgi:esiteid" v="195508"/>
  </node>
  <node id="-688" visible="true" lat="42.97743363" lon="-72.51016877">
    <tag k="addr:city" v="Putney"/>
    <tag k="addr:housenumber" v="62"/>
    <tag k="addr:street" v="Perseverance Lane"/>
    <tag k="addr:state" v="VT"/>
    <tag k="ref:vcgi:esiteid" v="195509"/>
  </node>
  <node id="-689" visible="true" lat="42.97737413" lon="-72.52713668">
    <tag k="addr:city" v="Putney"/>
    <tag k="addr:housenumber" v="4"/>
    <tag k="addr:street" v="Signal Pine Road"/>
    <tag k="addr:state" v="VT"/>
    <tag k="ref:vcgi:esiteid" v="195510"/>
  </node>
  <node id="-692" visible="true" lat="42.97720774" lon="-72.51251339">
    <tag k="addr:city" v="Putney"/>
    <tag k="addr:housenumber" v="38"/>
    <tag k="addr:street" v="Robert Rhodes Lane"/>
    <tag k="addr:state" v="VT"/>
    <tag k="ref:vcgi:esiteid" v="195513"/>
  </node>
  <node id="-693" visible="true" lat="42.97708597" lon="-72.52744845">
    <tag k="addr:city" v="Putney"/>
    <tag k="addr:housenumber" v="8"/>
    <tag k="addr:street" v="Signal Pine Road"/>
    <tag k="addr:state" v="VT"/>
    <tag k="ref:vcgi:esiteid" v="195514"/>
  </node>
  <node id="-694" visible="true" lat="42.97716094" lon="-72.52593901">
    <tag k="addr:city" v="Putney"/>
    <tag k="addr:housenumber" v="52"/>
    <tag k="addr:street" v="Kimball Hill"/>
    <tag k="addr:state" v="VT"/>
    <tag k="ref:vcgi:esiteid" v="195515"/>
  </node>
  <node id="-696" visible="true" lat="42.9770797" lon="-72.52667961">
    <tag k="addr:city" v="Putney"/>
    <tag k="addr:housenumber" v="59"/>
    <tag k="addr:street" v="Kimball Hill"/>
    <tag k="addr:state" v="VT"/>
    <tag k="ref:vcgi:esiteid" v="195517"/>
  </node>
  <node id="-697" visible="true" lat="42.97694286" lon="-72.52539231">
    <tag k="addr:city" v="Putney"/>
    <tag k="addr:housenumber" v="48"/>
    <tag k="addr:street" v="Kimball Hill"/>
    <tag k="addr:state" v="VT"/>
    <tag k="ref:vcgi:esiteid" v="195518"/>
  </node>
  <node id="-699" visible="true" lat="42.97686386" lon="-72.52983141">
    <tag k="addr:city" v="Putney"/>
    <tag k="addr:housenumber" v="37"/>
    <tag k="addr:street" v="Signal Pine Road"/>
    <tag k="addr:state" v="VT"/>
    <tag k="ref:vcgi:esiteid" v="195521"/>
  </node>
  <node id="-700" visible="true" lat="42.9759356" lon="-72.51242639">
    <tag k="addr:city" v="Putney"/>
    <tag k="addr:housenumber" v="20"/>
    <tag k="addr:street" v="Robert Rhodes Lane"/>
    <tag k="addr:state" v="VT"/>
    <tag k="ref:vcgi:esiteid" v="195522"/>
  </node>
  <node id="-701" visible="true" lat="42.9768055" lon="-72.52472443">
    <tag k="addr:city" v="Putney"/>
    <tag k="addr:housenumber" v="38"/>
    <tag k="addr:street" v="Kimball Hill"/>
    <tag k="addr:state" v="VT"/>
    <tag k="ref:vcgi:esiteid" v="195523"/>
  </node>
  <node id="-704" visible="true" lat="42.97679985" lon="-72.52859846">
    <tag k="addr:city" v="Putney"/>
    <tag k="addr:housenumber" v="24"/>
    <tag k="addr:street" v="Signal Pine Road"/>
    <tag k="addr:state" v="VT"/>
    <tag k="ref:vcgi:esiteid" v="195527"/>
  </node>
  <node id="-706" visible="true" lat="42.97666974" lon="-72.52719029">
    <tag k="addr:city" v="Putney"/>
    <tag k="addr:housenumber" v="17"/>
    <tag k="addr:street" v="Signal Pine Road"/>
    <tag k="addr:state" v="VT"/>
    <tag k="ref:vcgi:esiteid" v="195529"/>
  </node>
  <node id="-708" visible="true" lat="42.97645989" lon="-72.50947458">
    <tag k="addr:city" v="Putney"/>
    <tag k="addr:housenumber" v="63"/>
    <tag k="addr:street" v="Perseverance Lane"/>
    <tag k="addr:state" v="VT"/>
    <tag k="ref:vcgi:esiteid" v="195531"/>
  </node>
  <node id="-709" visible="true" lat="42.97655764" lon="-72.50897307">
    <tag k="addr:city" v="Putney"/>
    <tag k="addr:housenumber" v="65"/>
    <tag k="addr:street" v="Perseverance Lane"/>
    <tag k="addr:state" v="VT"/>
    <tag k="ref:vcgi:esiteid" v="195532"/>
  </node>
  <node id="-710" visible="true" lat="42.97649678" lon="-72.52518762">
    <tag k="addr:city" v="Putney"/>
    <tag k="addr:housenumber" v="1"/>
    <tag k="addr:street" v="Phineas White Lane"/>
    <tag k="addr:state" v="VT"/>
    <tag k="ref:vcgi:esiteid" v="195533"/>
  </node>
  <node id="-712" visible="true" lat="42.9764492" lon="-72.51085662">
    <tag k="addr:city" v="Putney"/>
    <tag k="addr:housenumber" v="56"/>
    <tag k="addr:street" v="Robert Rhodes Lane"/>
    <tag k="addr:state" v="VT"/>
    <tag k="ref:vcgi:esiteid" v="195535"/>
  </node>
  <node id="-713" visible="true" lat="42.9763755" lon="-72.525694">
    <tag k="addr:city" v="Putney"/>
    <tag k="addr:housenumber" v="4"/>
    <tag k="addr:street" v="Phineas White Lane"/>
    <tag k="addr:state" v="VT"/>
    <tag k="ref:vcgi:esiteid" v="195536"/>
  </node>
  <node id="-714" visible="true" lat="42.97639078" lon="-72.52651265">
    <tag k="addr:city" v="Putney"/>
    <tag k="addr:housenumber" v="12"/>
    <tag k="addr:street" v="Frost Road"/>
    <tag k="addr:state" v="VT"/>
    <tag k="ref:vcgi:esiteid" v="195537"/>
  </node>
  <node id="-715" visible="true" lat="42.97628632" lon="-72.52353549">
    <tag k="addr:city" v="Putney"/>
    <tag k="addr:housenumber" v="30"/>
    <tag k="addr:street" v="Kimball Hill"/>
    <tag k="addr:state" v="VT"/>
    <tag k="ref:vcgi:esiteid" v="195538"/>
  </node>
  <node id="-716" visible="true" lat="42.97635902" lon="-72.524647">
    <tag k="addr:city" v="Putney"/>
    <tag k="addr:housenumber" v="35"/>
    <tag k="addr:street" v="Kimball Hill"/>
    <tag k="addr:state" v="VT"/>
    <tag k="ref:vcgi:esiteid" v="195539"/>
  </node>
  <node id="-717" visible="true" lat="42.97624154" lon="-72.5282424">
    <tag k="addr:city" v="Putney"/>
    <tag k="addr:housenumber" v="5"/>
    <tag k="addr:street" v="Fred Houghton Road"/>
    <tag k="addr:state" v="VT"/>
    <tag k="ref:vcgi:esiteid" v="195540"/>
  </node>
  <node id="-720" visible="true" lat="42.97621505" lon="-72.52338973">
    <tag k="addr:city" v="Putney"/>
    <tag k="addr:housenumber" v="28"/>
    <tag k="addr:street" v="Kimball Hill"/>
    <tag k="addr:state" v="VT"/>
    <tag k="ref:vcgi:esiteid" v="195543"/>
  </node>
  <node id="-721" visible="true" lat="42.97615413" lon="-72.52535819">
    <tag k="addr:city" v="Putney"/>
    <tag k="addr:housenumber" v="5"/>
    <tag k="addr:street" v="Phineas White Lane"/>
    <tag k="addr:state" v="VT"/>
    <tag k="ref:vcgi:esiteid" v="195544"/>
  </node>
  <node id="-723" visible="true" lat="42.97617674" lon="-72.52319389">
    <tag k="addr:city" v="Putney"/>
    <tag k="addr:housenumber" v="26"/>
    <tag k="addr:street" v="Kimball Hill"/>
    <tag k="addr:state" v="VT"/>
    <tag k="ref:vcgi:esiteid" v="195546"/>
  </node>
  <node id="-725" visible="true" lat="42.97599413" lon="-72.52644488">
    <tag k="addr:city" v="Putney"/>
    <tag k="addr:housenumber" v="16"/>
    <tag k="addr:street" v="Frost Road"/>
    <tag k="addr:state" v="VT"/>
    <tag k="ref:vcgi:esiteid" v="195548"/>
  </node>
  <node id="-726" visible="true" lat="42.97592995" lon="-72.52282873">
    <tag k="addr:city" v="Putney"/>
    <tag k="addr:housenumber" v="22"/>
    <tag k="addr:street" v="Kimball Hill"/>
    <tag k="addr:state" v="VT"/>
    <tag k="ref:vcgi:esiteid" v="195549"/>
  </node>
  <node id="-727" visible="true" lat="42.97585485" lon="-72.52271834">
    <tag k="addr:city" v="Putney"/>
    <tag k="addr:housenumber" v="20"/>
    <tag k="addr:street" v="Kimball Hill"/>
    <tag k="addr:state" v="VT"/>
    <tag k="ref:vcgi:esiteid" v="195550"/>
  </node>
  <node id="-731" visible="true" lat="42.97577304" lon="-72.52254376">
    <tag k="addr:city" v="Putney"/>
    <tag k="addr:housenumber" v="18"/>
    <tag k="addr:street" v="Kimball Hill"/>
    <tag k="addr:state" v="VT"/>
    <tag k="ref:vcgi:esiteid" v="195554"/>
  </node>
  <node id="-732" visible="true" lat="42.97562897" lon="-72.52234172">
    <tag k="addr:city" v="Putney"/>
    <tag k="addr:housenumber" v="14"/>
    <tag k="addr:street" v="Kimball Hill"/>
    <tag k="addr:state" v="VT"/>
    <tag k="ref:vcgi:esiteid" v="195556"/>
  </node>
  <node id="-733" visible="true" lat="42.9755031" lon="-72.51161396">
    <tag k="addr:city" v="Putney"/>
    <tag k="addr:housenumber" v="29"/>
    <tag k="addr:street" v="Charles Drake Lane"/>
    <tag k="addr:state" v="VT"/>
    <tag k="ref:vcgi:esiteid" v="195557"/>
  </node>
  <node id="-734" visible="true" lat="42.9755844" lon="-72.52307235">
    <tag k="addr:city" v="Putney"/>
    <tag k="addr:housenumber" v="21"/>
    <tag k="addr:street" v="Kimball Hill"/>
    <tag k="addr:state" v="VT"/>
    <tag k="ref:vcgi:esiteid" v="195558"/>
  </node>
  <node id="-735" visible="true" lat="42.9755814" lon="-72.52220449">
    <tag k="addr:city" v="Putney"/>
    <tag k="addr:housenumber" v="12"/>
    <tag k="addr:street" v="Kimball Hill"/>
    <tag k="addr:state" v="VT"/>
    <tag k="ref:vcgi:esiteid" v="195559"/>
  </node>
  <node id="-736" visible="true" lat="42.97552154" lon="-72.52205027">
    <tag k="addr:city" v="Putney"/>
    <tag k="addr:housenumber" v="10"/>
    <tag k="addr:street" v="Kimball Hill"/>
    <tag k="addr:state" v="VT"/>
    <tag k="ref:vcgi:esiteid" v="195560"/>
  </node>
  <node id="-738" visible="true" lat="42.97537611" lon="-72.53095815">
    <tag k="addr:city" v="Putney"/>
    <tag k="addr:housenumber" v="28"/>
    <tag k="addr:street" v="Fred Houghton Road"/>
    <tag k="addr:state" v="VT"/>
    <tag k="ref:vcgi:esiteid" v="195563"/>
  </node>
  <node id="-742" visible="true" lat="42.97542264" lon="-72.52182758">
    <tag k="addr:city" v="Putney"/>
    <tag k="addr:housenumber" v="4"/>
    <tag k="addr:street" v="Kimball Hill"/>
    <tag k="addr:state" v="VT"/>
    <tag k="ref:vcgi:esiteid" v="195567"/>
  </node>
  <node id="-743" visible="true" lat="42.97539138" lon="-72.55043029">
    <tag k="addr:city" v="Putney"/>
    <tag k="addr:housenumber" v="41"/>
    <tag k="addr:street" v="Watt Pond Road"/>
    <tag k="addr:state" v="VT"/>
    <tag k="ref:vcgi:esiteid" v="195568"/>
  </node>
  <node id="-745" visible="true" lat="42.97536468" lon="-72.52277422">
    <tag k="addr:city" v="Putney"/>
    <tag k="addr:housenumber" v="15"/>
    <tag k="addr:street" v="Kimball Hill"/>
    <tag k="addr:state" v="VT"/>
    <tag k="ref:vcgi:esiteid" v="195571"/>
  </node>
  <node id="-747" visible="true" lat="42.9752434" lon="-72.52132888">
    <tag k="addr:city" v="Putney"/>
    <tag k="addr:housenumber" v="3"/>
    <tag k="addr:street" v="Mill Street"/>
    <tag k="addr:state" v="VT"/>
    <tag k="ref:vcgi:esiteid" v="195573"/>
  </node>
  <node id="-748" visible="true" lat="42.97528458" lon="-72.52249956">
    <tag k="addr:city" v="Putney"/>
    <tag k="addr:housenumber" v="13"/>
    <tag k="addr:street" v="Kimball Hill"/>
    <tag k="addr:state" v="VT"/>
    <tag k="ref:vcgi:esiteid" v="195574"/>
  </node>
  <node id="-751" visible="true" lat="42.97520645" lon="-72.52306968">
    <tag k="addr:city" v="Putney"/>
    <tag k="addr:housenumber" v="17"/>
    <tag k="addr:street" v="Kimball Hill"/>
    <tag k="addr:state" v="VT"/>
    <tag k="ref:vcgi:esiteid" v="195577"/>
  </node>
  <node id="-756" visible="true" lat="42.97516555" lon="-72.52224645">
    <tag k="addr:city" v="Putney"/>
    <tag k="addr:housenumber" v="133"/>
    <tag k="addr:street" v="Main Street"/>
    <tag k="addr:state" v="VT"/>
    <tag k="ref:vcgi:esiteid" v="195582"/>
  </node>
  <node id="-757" visible="true" lat="42.97507477" lon="-72.55043078">
    <tag k="addr:city" v="Putney"/>
    <tag k="addr:housenumber" v="45"/>
    <tag k="addr:street" v="Watt Pond Road"/>
    <tag k="addr:state" v="VT"/>
    <tag k="ref:vcgi:esiteid" v="195583"/>
  </node>
  <node id="-759" visible="true" lat="42.97496934" lon="-72.52151265">
    <tag k="addr:city" v="Putney"/>
    <tag k="addr:housenumber" v="132"/>
    <tag k="addr:street" v="Main Street"/>
    <tag k="addr:state" v="VT"/>
    <tag k="ref:vcgi:esiteid" v="195586"/>
  </node>
  <node id="-761" visible="true" lat="42.97491073" lon="-72.5138092">
    <tag k="addr:city" v="Putney"/>
    <tag k="addr:housenumber" v="67"/>
    <tag k="addr:street" v="River Road South"/>
    <tag k="addr:state" v="VT"/>
    <tag k="ref:vcgi:esiteid" v="195588"/>
  </node>
  <node id="-762" visible="true" lat="42.97474007" lon="-72.52113667">
    <tag k="addr:city" v="Putney"/>
    <tag k="addr:housenumber" v="8"/>
    <tag k="addr:street" v="Mill Street"/>
    <tag k="addr:state" v="VT"/>
    <tag k="ref:vcgi:esiteid" v="195589"/>
  </node>
  <node id="-763" visible="true" lat="42.97480162" lon="-72.52152291">
    <tag k="addr:city" v="Putney"/>
    <tag k="addr:housenumber" v="128"/>
    <tag k="addr:street" v="Main Street"/>
    <tag k="addr:state" v="VT"/>
    <tag k="ref:vcgi:esiteid" v="195590"/>
  </node>
  <node id="-764" visible="true" lat="42.97463122" lon="-72.52080651">
    <tag k="addr:city" v="Putney"/>
    <tag k="addr:housenumber" v="17"/>
    <tag k="addr:street" v="Christian Square"/>
    <tag k="addr:state" v="VT"/>
    <tag k="ref:vcgi:esiteid" v="195591"/>
  </node>
  <node id="-765" visible="true" lat="42.97467422" lon="-72.52044677">
    <tag k="addr:city" v="Putney"/>
    <tag k="addr:housenumber" v="18"/>
    <tag k="addr:street" v="Christian Square"/>
    <tag k="addr:state" v="VT"/>
    <tag k="ref:vcgi:esiteid" v="195592"/>
  </node>
  <node id="-766" visible="true" lat="42.97463962" lon="-72.52209805">
    <tag k="addr:city" v="Putney"/>
    <tag k="addr:housenumber" v="127"/>
    <tag k="addr:street" v="Main Street"/>
    <tag k="addr:state" v="VT"/>
    <tag k="ref:vcgi:esiteid" v="195593"/>
  </node>
  <node id="-767" visible="true" lat="42.97458267" lon="-72.55001831">
    <tag k="addr:city" v="Putney"/>
    <tag k="addr:housenumber" v="8"/>
    <tag k="addr:street" v="Garden Lane"/>
    <tag k="addr:state" v="VT"/>
    <tag k="ref:vcgi:esiteid" v="195594"/>
  </node>
  <node id="-768" visible="true" lat="42.9745903" lon="-72.52272845">
    <tag k="addr:city" v="Putney"/>
    <tag k="addr:housenumber" v="125"/>
    <tag k="addr:street" v="Main Street"/>
    <tag k="addr:state" v="VT"/>
    <tag k="ref:vcgi:esiteid" v="195595"/>
  </node>
  <node id="-769" visible="true" lat="42.97455114" lon="-72.52144912">
    <tag k="addr:city" v="Putney"/>
    <tag k="addr:housenumber" v="126"/>
    <tag k="addr:street" v="Main Street"/>
    <tag k="addr:state" v="VT"/>
    <tag k="ref:vcgi:esiteid" v="195596"/>
  </node>
  <node id="-771" visible="true" lat="42.97451961" lon="-72.51233938">
    <tag k="addr:city" v="Putney"/>
    <tag k="addr:housenumber" v="6"/>
    <tag k="addr:street" v="Charles Drake Lane"/>
    <tag k="addr:state" v="VT"/>
    <tag k="ref:vcgi:esiteid" v="195598"/>
  </node>
  <node id="-772" visible="true" lat="42.97433471" lon="-72.54863024">
    <tag k="addr:city" v="Putney"/>
    <tag k="addr:housenumber" v="22"/>
    <tag k="addr:street" v="Garden Lane"/>
    <tag k="addr:state" v="VT"/>
    <tag k="ref:vcgi:esiteid" v="195599"/>
  </node>
  <node id="-773" visible="true" lat="42.97439103" lon="-72.52102622">
    <tag k="addr:city" v="Putney"/>
    <tag k="addr:housenumber" v="9"/>
    <tag k="addr:street" v="Christian Square"/>
    <tag k="addr:state" v="VT"/>
    <tag k="ref:vcgi:esiteid" v="195600"/>
  </node>
  <node id="-774" visible="true" lat="42.97425097" lon="-72.52197372">
    <tag k="addr:city" v="Putney"/>
    <tag k="addr:housenumber" v="123"/>
    <tag k="addr:street" v="Main Street"/>
    <tag k="addr:state" v="VT"/>
    <tag k="ref:vcgi:esiteid" v="195601"/>
  </node>
  <node id="-775" visible="true" lat="42.97405407" lon="-72.52102118">
    <tag k="addr:city" v="Putney"/>
    <tag k="addr:housenumber" v="8"/>
    <tag k="addr:street" v="Christian Square"/>
    <tag k="addr:state" v="VT"/>
    <tag k="ref:vcgi:esiteid" v="195602"/>
  </node>
  <node id="-777" visible="true" lat="42.97401879" lon="-72.52196123">
    <tag k="addr:city" v="Putney"/>
    <tag k="addr:housenumber" v="119"/>
    <tag k="addr:street" v="Main Street"/>
    <tag k="addr:state" v="VT"/>
    <tag k="ref:vcgi:esiteid" v="195604"/>
  </node>
  <node id="-778" visible="true" lat="42.97376784" lon="-72.51453095">
    <tag k="addr:city" v="Putney"/>
    <tag k="addr:housenumber" v="78"/>
    <tag k="addr:street" v="River Road South"/>
    <tag k="addr:state" v="VT"/>
    <tag k="ref:vcgi:esiteid" v="195605"/>
  </node>
  <node id="-779" visible="true" lat="42.97410581" lon="-72.48426145">
    <tag k="addr:city" v="Putney"/>
    <tag k="addr:housenumber" v="433"/>
    <tag k="addr:street" v="River Road South"/>
    <tag k="addr:state" v="VT"/>
    <tag k="ref:vcgi:esiteid" v="195606"/>
  </node>
  <node id="-780" visible="true" lat="42.97396087" lon="-72.54850054">
    <tag k="addr:city" v="Putney"/>
    <tag k="addr:housenumber" v="18"/>
    <tag k="addr:street" v="Garden Lane"/>
    <tag k="addr:state" v="VT"/>
    <tag k="ref:vcgi:esiteid" v="195607"/>
  </node>
  <node id="-781" visible="true" lat="42.97399287" lon="-72.52130693">
    <tag k="addr:city" v="Putney"/>
    <tag k="addr:housenumber" v="118"/>
    <tag k="addr:street" v="Main Street"/>
    <tag k="addr:state" v="VT"/>
    <tag k="ref:vcgi:esiteid" v="195608"/>
  </node>
  <node id="-783" visible="true" lat="42.97387905" lon="-72.52149089">
    <tag k="addr:city" v="Putney"/>
    <tag k="addr:housenumber" v="114"/>
    <tag k="addr:street" v="Main Street"/>
    <tag k="addr:state" v="VT"/>
    <tag k="ref:vcgi:esiteid" v="195610"/>
  </node>
  <node id="-784" visible="true" lat="42.97367859" lon="-72.52200365">
    <tag k="addr:city" v="Putney"/>
    <tag k="addr:housenumber" v="113"/>
    <tag k="addr:street" v="Main Street"/>
    <tag k="addr:state" v="VT"/>
    <tag k="ref:vcgi:esiteid" v="195611"/>
  </node>
  <node id="-785" visible="true" lat="42.9735056" lon="-72.5215788">
    <tag k="addr:city" v="Putney"/>
    <tag k="addr:housenumber" v="112"/>
    <tag k="addr:street" v="Main Street"/>
    <tag k="addr:state" v="VT"/>
    <tag k="ref:vcgi:esiteid" v="195612"/>
  </node>
  <node id="-787" visible="true" lat="42.97348747" lon="-72.52137184">
    <tag k="addr:city" v="Putney"/>
    <tag k="addr:housenumber" v="110"/>
    <tag k="addr:street" v="Main Street"/>
    <tag k="addr:state" v="VT"/>
    <tag k="ref:vcgi:esiteid" v="195614"/>
  </node>
  <node id="-788" visible="true" lat="42.97344844" lon="-72.52292492">
    <tag k="addr:city" v="Putney"/>
    <tag k="addr:housenumber" v="11"/>
    <tag k="addr:street" v="West Street"/>
    <tag k="addr:state" v="VT"/>
    <tag k="ref:vcgi:esiteid" v="195615"/>
  </node>
  <node id="-789" visible="true" lat="42.97335815" lon="-72.52259875">
    <tag k="addr:city" v="Putney"/>
    <tag k="addr:housenumber" v="7"/>
    <tag k="addr:street" v="West Street"/>
    <tag k="addr:state" v="VT"/>
    <tag k="ref:vcgi:esiteid" v="195616"/>
  </node>
  <node id="-793" visible="true" lat="42.97314776" lon="-72.52131645">
    <tag k="addr:city" v="Putney"/>
    <tag k="addr:housenumber" v="106"/>
    <tag k="addr:street" v="Main Street"/>
    <tag k="addr:state" v="VT"/>
    <tag k="ref:vcgi:esiteid" v="195620"/>
  </node>
  <node id="-797" visible="true" lat="42.9729042" lon="-72.55038452">
    <tag k="addr:city" v="Putney"/>
    <tag k="addr:housenumber" v="73"/>
    <tag k="addr:street" v="Watt Pond Road"/>
    <tag k="addr:state" v="VT"/>
    <tag k="ref:vcgi:esiteid" v="195624"/>
  </node>
  <node id="-798" visible="true" lat="42.97278595" lon="-72.52215624">
    <tag k="addr:city" v="Putney"/>
    <tag k="addr:housenumber" v="101"/>
    <tag k="addr:street" v="Main Street"/>
    <tag k="addr:state" v="VT"/>
    <tag k="ref:vcgi:esiteid" v="195625"/>
  </node>
  <node id="-799" visible="true" lat="42.97255927" lon="-72.51429043">
    <tag k="addr:city" v="Putney"/>
    <tag k="addr:housenumber" v="27"/>
    <tag k="addr:street" v="Hi Lo Biddy Road"/>
    <tag k="addr:state" v="VT"/>
    <tag k="ref:vcgi:esiteid" v="195626"/>
  </node>
  <node id="-800" visible="true" lat="42.97263643" lon="-72.51414601">
    <tag k="addr:city" v="Putney"/>
    <tag k="addr:housenumber" v="25"/>
    <tag k="addr:street" v="Hi Lo Biddy Road"/>
    <tag k="addr:state" v="VT"/>
    <tag k="ref:vcgi:esiteid" v="195627"/>
  </node>
  <node id="-801" visible="true" lat="42.97250626" lon="-72.52233468">
    <tag k="addr:city" v="Putney"/>
    <tag k="addr:housenumber" v="97"/>
    <tag k="addr:street" v="Main Street"/>
    <tag k="addr:state" v="VT"/>
    <tag k="ref:vcgi:esiteid" v="195628"/>
  </node>
  <node id="-802" visible="true" lat="42.97233006" lon="-72.52230989">
    <tag k="addr:city" v="Putney"/>
    <tag k="addr:housenumber" v="95"/>
    <tag k="addr:street" v="Main Street"/>
    <tag k="addr:state" v="VT"/>
    <tag k="ref:vcgi:esiteid" v="195629"/>
  </node>
  <node id="-803" visible="true" lat="42.97247876" lon="-72.52176061">
    <tag k="addr:city" v="Putney"/>
    <tag k="addr:housenumber" v="94"/>
    <tag k="addr:street" v="Main Street"/>
    <tag k="addr:state" v="VT"/>
    <tag k="ref:vcgi:esiteid" v="195630"/>
  </node>
  <node id="-805" visible="true" lat="42.97213061" lon="-72.52238459">
    <tag k="addr:city" v="Putney"/>
    <tag k="addr:housenumber" v="91"/>
    <tag k="addr:street" v="Main Street"/>
    <tag k="addr:state" v="VT"/>
    <tag k="ref:vcgi:esiteid" v="195632"/>
  </node>
  <node id="-806" visible="true" lat="42.97196569" lon="-72.51194936">
    <tag k="addr:city" v="Putney"/>
    <tag k="addr:housenumber" v="111"/>
    <tag k="addr:street" v="River Road South"/>
    <tag k="addr:state" v="VT"/>
    <tag k="ref:vcgi:esiteid" v="195633"/>
  </node>
  <node id="-807" visible="true" lat="42.97198968" lon="-72.52189654">
    <tag k="addr:city" v="Putney"/>
    <tag k="addr:housenumber" v="88"/>
    <tag k="addr:street" v="Main Street"/>
    <tag k="addr:state" v="VT"/>
    <tag k="ref:vcgi:esiteid" v="195634"/>
  </node>
  <node id="-808" visible="true" lat="42.97170639" lon="-72.52269793">
    <tag k="addr:city" v="Putney"/>
    <tag k="addr:housenumber" v="91"/>
    <tag k="addr:street" v="Old Route 5 South"/>
    <tag k="addr:state" v="VT"/>
    <tag k="ref:vcgi:esiteid" v="195635"/>
  </node>
  <node id="-809" visible="true" lat="42.97152328" lon="-72.53268481">
    <tag k="addr:city" v="Putney"/>
    <tag k="addr:housenumber" v="80"/>
    <tag k="addr:street" v="Fred Houghton Road"/>
    <tag k="addr:state" v="VT"/>
    <tag k="ref:vcgi:esiteid" v="195636"/>
  </node>
  <node id="-811" visible="true" lat="42.97138214" lon="-72.52249908">
    <tag k="addr:city" v="Putney"/>
    <tag k="addr:housenumber" v="90"/>
    <tag k="addr:street" v="Old Route 5 South"/>
    <tag k="addr:state" v="VT"/>
    <tag k="ref:vcgi:esiteid" v="195638"/>
  </node>
  <node id="-814" visible="true" lat="42.97129821" lon="-72.52197314">
    <tag k="addr:city" v="Putney"/>
    <tag k="addr:housenumber" v="80"/>
    <tag k="addr:street" v="Main Street"/>
    <tag k="addr:state" v="VT"/>
    <tag k="ref:vcgi:esiteid" v="195641"/>
  </node>
  <node id="-816" visible="true" lat="42.97123483" lon="-72.55003531">
    <tag k="addr:city" v="Putney"/>
    <tag k="addr:housenumber" v="89"/>
    <tag k="addr:street" v="Watt Pond Road"/>
    <tag k="addr:state" v="VT"/>
    <tag k="ref:vcgi:esiteid" v="195643"/>
  </node>
  <node id="-817" visible="true" lat="42.9711485" lon="-72.52253155">
    <tag k="addr:city" v="Putney"/>
    <tag k="addr:housenumber" v="79"/>
    <tag k="addr:street" v="Main Street"/>
    <tag k="addr:state" v="VT"/>
    <tag k="ref:vcgi:esiteid" v="195644"/>
  </node>
  <node id="-818" visible="true" lat="42.97123187" lon="-72.53040365">
    <tag k="addr:city" v="Putney"/>
    <tag k="addr:housenumber" v="83"/>
    <tag k="addr:street" v="Fred Houghton Road"/>
    <tag k="addr:state" v="VT"/>
    <tag k="ref:vcgi:esiteid" v="195645"/>
  </node>
  <node id="-822" visible="true" lat="42.97108841" lon="-72.53546191">
    <tag k="addr:city" v="Putney"/>
    <tag k="addr:housenumber" v="134"/>
    <tag k="addr:street" v="Fred Houghton Road"/>
    <tag k="addr:state" v="VT"/>
    <tag k="ref:vcgi:esiteid" v="195649"/>
  </node>
  <node id="-823" visible="true" lat="42.9710617" lon="-72.52188873">
    <tag k="addr:city" v="Putney"/>
    <tag k="addr:housenumber" v="78"/>
    <tag k="addr:street" v="Main Street"/>
    <tag k="addr:state" v="VT"/>
    <tag k="ref:vcgi:esiteid" v="195650"/>
  </node>
  <node id="-824" visible="true" lat="42.97112773" lon="-72.51221587">
    <tag k="addr:city" v="Putney"/>
    <tag k="addr:housenumber" v="124"/>
    <tag k="addr:street" v="River Road South"/>
    <tag k="addr:state" v="VT"/>
    <tag k="ref:vcgi:esiteid" v="195651"/>
  </node>
  <node id="-826" visible="true" lat="42.97082901" lon="-72.49658567">
    <tag k="addr:city" v="Putney"/>
    <tag k="addr:housenumber" v="277"/>
    <tag k="addr:street" v="River Road South"/>
    <tag k="addr:state" v="VT"/>
    <tag k="ref:vcgi:esiteid" v="195653"/>
  </node>
  <node id="-827" visible="true" lat="42.97055613" lon="-72.52428283">
    <tag k="addr:city" v="Putney"/>
    <tag k="addr:housenumber" v="71"/>
    <tag k="addr:street" v="Old Route 5 South"/>
    <tag k="addr:state" v="VT"/>
    <tag k="ref:vcgi:esiteid" v="195654"/>
  </node>
  <node id="-829" visible="true" lat="42.97061614" lon="-72.52261138">
    <tag k="addr:city" v="Putney"/>
    <tag k="addr:housenumber" v="71"/>
    <tag k="addr:street" v="Main Street"/>
    <tag k="addr:state" v="VT"/>
    <tag k="ref:vcgi:esiteid" v="195656"/>
  </node>
  <node id="-830" visible="true" lat="42.97066783" lon="-72.52323711">
    <tag k="addr:city" v="Putney"/>
    <tag k="addr:housenumber" v="76"/>
    <tag k="addr:street" v="Old Route 5 South"/>
    <tag k="addr:state" v="VT"/>
    <tag k="ref:vcgi:esiteid" v="195657"/>
  </node>
  <node id="-831" visible="true" lat="42.97052019" lon="-72.49337867">
    <tag k="addr:city" v="Putney"/>
    <tag k="addr:housenumber" v="319"/>
    <tag k="addr:street" v="River Road South"/>
    <tag k="addr:state" v="VT"/>
    <tag k="ref:vcgi:esiteid" v="195658"/>
  </node>
  <node id="-832" visible="true" lat="42.97036743" lon="-72.51167297">
    <tag k="addr:city" v="Putney"/>
    <tag k="addr:housenumber" v="132"/>
    <tag k="addr:street" v="River Road South"/>
    <tag k="addr:state" v="VT"/>
    <tag k="ref:vcgi:esiteid" v="195659"/>
  </node>
  <node id="-833" visible="true" lat="42.97035512" lon="-72.52171879">
    <tag k="addr:city" v="Putney"/>
    <tag k="addr:housenumber" v="13"/>
    <tag k="addr:street" v="Old Depot Road"/>
    <tag k="addr:state" v="VT"/>
    <tag k="ref:vcgi:esiteid" v="195660"/>
  </node>
  <node id="-834" visible="true" lat="42.97031469" lon="-72.52256114">
    <tag k="addr:city" v="Putney"/>
    <tag k="addr:housenumber" v="67"/>
    <tag k="addr:street" v="Main Street"/>
    <tag k="addr:state" v="VT"/>
    <tag k="ref:vcgi:esiteid" v="195661"/>
  </node>
  <node id="-835" visible="true" lat="42.97021102" lon="-72.49708557">
    <tag k="addr:city" v="Putney"/>
    <tag k="addr:housenumber" v="283"/>
    <tag k="addr:street" v="River Road South"/>
    <tag k="addr:state" v="VT"/>
    <tag k="ref:vcgi:esiteid" v="195662"/>
  </node>
  <node id="-836" visible="true" lat="42.97010345" lon="-72.52425775">
    <tag k="addr:city" v="Putney"/>
    <tag k="addr:housenumber" v="65"/>
    <tag k="addr:street" v="Old Route 5 South"/>
    <tag k="addr:state" v="VT"/>
    <tag k="ref:vcgi:esiteid" v="195663"/>
  </node>
  <node id="-837" visible="true" lat="42.9701538" lon="-72.49756622">
    <tag k="addr:city" v="Putney"/>
    <tag k="addr:housenumber" v="279"/>
    <tag k="addr:street" v="River Road South"/>
    <tag k="addr:state" v="VT"/>
    <tag k="ref:vcgi:esiteid" v="195664"/>
  </node>
  <node id="-838" visible="true" lat="42.97001089" lon="-72.53546994">
    <tag k="addr:city" v="Putney"/>
    <tag k="addr:housenumber" v="135"/>
    <tag k="addr:street" v="Fred Houghton Road"/>
    <tag k="addr:state" v="VT"/>
    <tag k="ref:vcgi:esiteid" v="195665"/>
  </node>
  <node id="-839" visible="true" lat="42.9699572" lon="-72.5226088">
    <tag k="addr:city" v="Putney"/>
    <tag k="addr:housenumber" v="63"/>
    <tag k="addr:street" v="Main Street"/>
    <tag k="addr:state" v="VT"/>
    <tag k="ref:vcgi:esiteid" v="195666"/>
  </node>
  <node id="-840" visible="true" lat="42.97056169" lon="-72.49928515">
    <tag k="addr:city" v="Putney"/>
    <tag k="addr:housenumber" v="263"/>
    <tag k="addr:street" v="River Road South"/>
    <tag k="addr:state" v="VT"/>
    <tag k="ref:vcgi:esiteid" v="195667"/>
  </node>
  <node id="-841" visible="true" lat="42.97018193" lon="-72.52209249">
    <tag k="addr:city" v="Putney"/>
    <tag k="addr:housenumber" v="64"/>
    <tag k="addr:street" v="Main Street"/>
    <tag k="addr:state" v="VT"/>
    <tag k="ref:vcgi:esiteid" v="195668"/>
  </node>
  <node id="-842" visible="true" lat="42.96997463" lon="-72.52156628">
    <tag k="addr:city" v="Putney"/>
    <tag k="addr:housenumber" v="19"/>
    <tag k="addr:street" v="Old Depot Road"/>
    <tag k="addr:state" v="VT"/>
    <tag k="ref:vcgi:esiteid" v="195669"/>
  </node>
  <node id="-843" visible="true" lat="42.96990158" lon="-72.50292132">
    <tag k="addr:city" v="Putney"/>
    <tag k="addr:housenumber" v="225"/>
    <tag k="addr:street" v="River Road South"/>
    <tag k="addr:state" v="VT"/>
    <tag k="ref:vcgi:esiteid" v="195670"/>
  </node>
  <node id="-844" visible="true" lat="42.96980411" lon="-72.49546826">
    <tag k="addr:city" v="Putney"/>
    <tag k="addr:housenumber" v="296"/>
    <tag k="addr:street" v="River Road South"/>
    <tag k="addr:state" v="VT"/>
    <tag k="ref:vcgi:esiteid" v="195671"/>
  </node>
  <node id="-845" visible="true" lat="42.96977454" lon="-72.52209181">
    <tag k="addr:city" v="Putney"/>
    <tag k="addr:housenumber" v="58"/>
    <tag k="addr:street" v="Main Street"/>
    <tag k="addr:state" v="VT"/>
    <tag k="ref:vcgi:esiteid" v="195672"/>
  </node>
  <node id="-847" visible="true" lat="42.96959686" lon="-72.53848315">
    <tag k="addr:city" v="Putney"/>
    <tag k="addr:housenumber" v="48"/>
    <tag k="addr:street" v="Houghton Brook Road"/>
    <tag k="addr:state" v="VT"/>
    <tag k="ref:vcgi:esiteid" v="195674"/>
  </node>
  <node id="-850" visible="true" lat="42.96952367" lon="-72.52109522">
    <tag k="addr:city" v="Putney"/>
    <tag k="addr:housenumber" v="27"/>
    <tag k="addr:street" v="Old Depot Road"/>
    <tag k="addr:state" v="VT"/>
    <tag k="ref:vcgi:esiteid" v="195677"/>
  </node>
  <node id="-851" visible="true" lat="42.96933746" lon="-72.53364563">
    <tag k="addr:city" v="Putney"/>
    <tag k="addr:housenumber" v="113"/>
    <tag k="addr:street" v="Fred Houghton Road"/>
    <tag k="addr:state" v="VT"/>
    <tag k="ref:vcgi:esiteid" v="195678"/>
  </node>
  <node id="-852" visible="true" lat="42.96928253" lon="-72.52197492">
    <tag k="addr:city" v="Putney"/>
    <tag k="addr:housenumber" v="52"/>
    <tag k="addr:street" v="Main Street"/>
    <tag k="addr:state" v="VT"/>
    <tag k="ref:vcgi:esiteid" v="195679"/>
  </node>
  <node id="-853" visible="true" lat="42.96911865" lon="-72.50813179">
    <tag k="addr:city" v="Putney"/>
    <tag k="addr:housenumber" v="166"/>
    <tag k="addr:street" v="River Road South"/>
    <tag k="addr:state" v="VT"/>
    <tag k="ref:vcgi:esiteid" v="195680"/>
  </node>
  <node id="-856" visible="true" lat="42.96916882" lon="-72.53246119">
    <tag k="addr:city" v="Putney"/>
    <tag k="addr:housenumber" v="15"/>
    <tag k="addr:street" v="Old Town Road"/>
    <tag k="addr:state" v="VT"/>
    <tag k="ref:vcgi:esiteid" v="195683"/>
  </node>
  <node id="-857" visible="true" lat="42.96913406" lon="-72.52282284">
    <tag k="addr:city" v="Putney"/>
    <tag k="addr:housenumber" v="49"/>
    <tag k="addr:street" v="Main Street"/>
    <tag k="addr:state" v="VT"/>
    <tag k="ref:vcgi:esiteid" v="195684"/>
  </node>
  <node id="-858" visible="true" lat="42.96878342" lon="-72.5245979">
    <tag k="addr:city" v="Putney"/>
    <tag k="addr:housenumber" v="46"/>
    <tag k="addr:street" v="Old Route 5 South"/>
    <tag k="addr:state" v="VT"/>
    <tag k="ref:vcgi:esiteid" v="195685"/>
  </node>
  <node id="-859" visible="true" lat="42.96874618" lon="-72.53778124">
    <tag k="addr:city" v="Putney"/>
    <tag k="addr:housenumber" v="36"/>
    <tag k="addr:street" v="Houghton Brook Road"/>
    <tag k="addr:state" v="VT"/>
    <tag k="ref:vcgi:esiteid" v="195686"/>
  </node>
  <node id="-861" visible="true" lat="42.96857071" lon="-72.53360033">
    <tag k="addr:city" v="Putney"/>
    <tag k="addr:housenumber" v="26"/>
    <tag k="addr:street" v="Old Town Road"/>
    <tag k="addr:state" v="VT"/>
    <tag k="ref:vcgi:esiteid" v="195688"/>
  </node>
  <node id="-864" visible="true" lat="42.968441" lon="-72.53733825">
    <tag k="addr:city" v="Putney"/>
    <tag k="addr:housenumber" v="30"/>
    <tag k="addr:street" v="Houghton Brook Road"/>
    <tag k="addr:state" v="VT"/>
    <tag k="ref:vcgi:esiteid" v="195691"/>
  </node>
  <node id="-865" visible="true" lat="42.96819036" lon="-72.54566364">
    <tag k="addr:city" v="Putney"/>
    <tag k="addr:housenumber" v="87"/>
    <tag k="addr:street" v="Sun Hill Road"/>
    <tag k="addr:state" v="VT"/>
    <tag k="ref:vcgi:esiteid" v="195693"/>
  </node>
  <node id="-869" visible="true" lat="42.96826237" lon="-72.50499582">
    <tag k="addr:city" v="Putney"/>
    <tag k="addr:housenumber" v="202"/>
    <tag k="addr:street" v="River Road South"/>
    <tag k="addr:state" v="VT"/>
    <tag k="ref:vcgi:esiteid" v="195697"/>
  </node>
  <node id="-871" visible="true" lat="42.96817764" lon="-72.53967801">
    <tag k="addr:city" v="Putney"/>
    <tag k="addr:housenumber" v="19"/>
    <tag k="addr:street" v="Sun Hill Road"/>
    <tag k="addr:state" v="VT"/>
    <tag k="ref:vcgi:esiteid" v="195700"/>
  </node>
  <node id="-872" visible="true" lat="42.96765814" lon="-72.54032447">
    <tag k="addr:city" v="Putney"/>
    <tag k="addr:housenumber" v="29"/>
    <tag k="addr:street" v="Sun Hill Road"/>
    <tag k="addr:state" v="VT"/>
    <tag k="ref:vcgi:esiteid" v="195702"/>
  </node>
  <node id="-874" visible="true" lat="42.96781158" lon="-72.53432464">
    <tag k="addr:city" v="Putney"/>
    <tag k="addr:housenumber" v="36"/>
    <tag k="addr:street" v="Old Town Road"/>
    <tag k="addr:state" v="VT"/>
    <tag k="ref:vcgi:esiteid" v="195704"/>
  </node>
  <node id="-876" visible="true" lat="42.96777201" lon="-72.53964567">
    <tag k="addr:city" v="Putney"/>
    <tag k="addr:housenumber" v="20"/>
    <tag k="addr:street" v="Hillside Drive"/>
    <tag k="addr:state" v="VT"/>
    <tag k="ref:vcgi:esiteid" v="195706"/>
  </node>
  <node id="-878" visible="true" lat="42.96790256" lon="-72.53350297">
    <tag k="addr:city" v="Putney"/>
    <tag k="addr:housenumber" v="35"/>
    <tag k="addr:street" v="Old Town Road"/>
    <tag k="addr:state" v="VT"/>
    <tag k="ref:vcgi:esiteid" v="195708"/>
  </node>
  <node id="-880" visible="true" lat="42.96765099" lon="-72.51148829">
    <tag k="addr:city" v="Putney"/>
    <tag k="addr:housenumber" v="19"/>
    <tag k="addr:street" v="Town Garage Road"/>
    <tag k="addr:state" v="VT"/>
    <tag k="ref:vcgi:esiteid" v="195710"/>
  </node>
  <node id="-882" visible="true" lat="42.96750676" lon="-72.52467494">
    <tag k="addr:city" v="Putney"/>
    <tag k="addr:housenumber" v="17"/>
    <tag k="addr:street" v="Carol Brown Way"/>
    <tag k="addr:state" v="VT"/>
    <tag k="ref:vcgi:esiteid" v="195712"/>
  </node>
  <node id="-883" visible="true" lat="42.96726827" lon="-72.53362636">
    <tag k="addr:city" v="Putney"/>
    <tag k="addr:housenumber" v="37"/>
    <tag k="addr:street" v="Old Town Road"/>
    <tag k="addr:state" v="VT"/>
    <tag k="ref:vcgi:esiteid" v="195713"/>
  </node>
  <node id="-886" visible="true" lat="42.96707532" lon="-72.53895084">
    <tag k="addr:city" v="Putney"/>
    <tag k="addr:housenumber" v="29"/>
    <tag k="addr:street" v="Hillside Drive"/>
    <tag k="addr:state" v="VT"/>
    <tag k="ref:vcgi:esiteid" v="195716"/>
  </node>
  <node id="-889" visible="true" lat="42.96661374" lon="-72.53959744">
    <tag k="addr:city" v="Putney"/>
    <tag k="addr:housenumber" v="32"/>
    <tag k="addr:street" v="Hillside Drive"/>
    <tag k="addr:state" v="VT"/>
    <tag k="ref:vcgi:esiteid" v="195719"/>
  </node>
  <node id="-890" visible="true" lat="42.96643829" lon="-72.52307177">
    <tag k="addr:city" v="Putney"/>
    <tag k="addr:housenumber" v="21"/>
    <tag k="addr:street" v="Carl Snyder Drive"/>
    <tag k="addr:state" v="VT"/>
    <tag k="ref:vcgi:esiteid" v="195720"/>
  </node>
  <node id="-891" visible="true" lat="42.96489997" lon="-72.51965826">
    <tag k="addr:city" v="Putney"/>
    <tag k="addr:housenumber" v="27"/>
    <tag k="addr:street" v="Patel Way"/>
    <tag k="addr:state" v="VT"/>
    <tag k="ref:vcgi:esiteid" v="195721"/>
  </node>
  <node id="-892" visible="true" lat="42.96347583" lon="-72.51929239">
    <tag k="addr:city" v="Putney"/>
    <tag k="addr:housenumber" v="59"/>
    <tag k="addr:street" v="Putney Landing Road"/>
    <tag k="addr:state" v="VT"/>
    <tag k="ref:vcgi:esiteid" v="195723"/>
  </node>
  <node id="-893" visible="true" lat="42.96281051" lon="-72.51972198">
    <tag k="addr:city" v="Putney"/>
    <tag k="addr:housenumber" v="61"/>
    <tag k="addr:street" v="Putney Landing Road"/>
    <tag k="addr:state" v="VT"/>
    <tag k="ref:vcgi:esiteid" v="195724"/>
  </node>
  <node id="-918" visible="true" lat="42.99958222" lon="-72.55987244">
    <tag k="addr:city" v="Putney"/>
    <tag k="addr:housenumber" v="153"/>
    <tag k="addr:street" v="Aiken Road"/>
    <tag k="addr:state" v="VT"/>
    <tag k="ref:vcgi:esiteid" v="195750"/>
  </node>
  <node id="-919" visible="true" lat="42.98906326" lon="-72.5507431">
    <tag k="addr:city" v="Putney"/>
    <tag k="addr:housenumber" v="34"/>
    <tag k="addr:street" v="Elm Lea Road"/>
    <tag k="addr:state" v="VT"/>
    <tag k="ref:vcgi:esiteid" v="195751"/>
  </node>
  <node id="-920" visible="true" lat="42.98883473" lon="-72.55274419">
    <tag k="addr:city" v="Putney"/>
    <tag k="addr:housenumber" v="72"/>
    <tag k="addr:street" v="Putney School Drive"/>
    <tag k="addr:state" v="VT"/>
    <tag k="ref:vcgi:esiteid" v="195752"/>
  </node>
  <node id="-921" visible="true" lat="42.98843765" lon="-72.55172729">
    <tag k="addr:city" v="Putney"/>
    <tag k="addr:housenumber" v="43"/>
    <tag k="addr:street" v="Elm Lea Road"/>
    <tag k="addr:state" v="VT"/>
    <tag k="ref:vcgi:esiteid" v="195753"/>
  </node>
  <node id="-922" visible="true" lat="42.98848929" lon="-72.55312295">
    <tag k="addr:city" v="Putney"/>
    <tag k="addr:housenumber" v="62"/>
    <tag k="addr:street" v="Putney School Drive"/>
    <tag k="addr:state" v="VT"/>
    <tag k="ref:vcgi:esiteid" v="195754"/>
  </node>
  <node id="-923" visible="true" lat="42.98808187" lon="-72.55378219">
    <tag k="addr:city" v="Putney"/>
    <tag k="addr:housenumber" v="59"/>
    <tag k="addr:street" v="Putney School Drive"/>
    <tag k="addr:state" v="VT"/>
    <tag k="ref:vcgi:esiteid" v="195755"/>
  </node>
  <node id="-924" visible="true" lat="42.98794636" lon="-72.55230649">
    <tag k="addr:city" v="Putney"/>
    <tag k="addr:housenumber" v="12"/>
    <tag k="addr:street" v="Hinton Road"/>
    <tag k="addr:state" v="VT"/>
    <tag k="ref:vcgi:esiteid" v="195756"/>
  </node>
  <node id="-925" visible="true" lat="42.98777771" lon="-72.55281066">
    <tag k="addr:city" v="Putney"/>
    <tag k="addr:housenumber" v="15"/>
    <tag k="addr:street" v="Hinton Road"/>
    <tag k="addr:state" v="VT"/>
    <tag k="ref:vcgi:esiteid" v="195757"/>
  </node>
  <node id="-926" visible="true" lat="42.98766708" lon="-72.55124664">
    <tag k="addr:city" v="Putney"/>
    <tag k="addr:housenumber" v="28"/>
    <tag k="addr:street" v="Elm Lea Road"/>
    <tag k="addr:state" v="VT"/>
    <tag k="ref:vcgi:esiteid" v="195758"/>
  </node>
  <node id="-927" visible="true" lat="42.98751542" lon="-72.55293259">
    <tag k="addr:city" v="Putney"/>
    <tag k="addr:housenumber" v="5"/>
    <tag k="addr:street" v="Elm Lea Road"/>
    <tag k="addr:state" v="VT"/>
    <tag k="ref:vcgi:esiteid" v="195759"/>
  </node>
  <node id="-928" visible="true" lat="42.98754242" lon="-72.55376923">
    <tag k="addr:city" v="Putney"/>
    <tag k="addr:housenumber" v="51"/>
    <tag k="addr:street" v="Putney School Drive"/>
    <tag k="addr:state" v="VT"/>
    <tag k="ref:vcgi:esiteid" v="195760"/>
  </node>
  <node id="-929" visible="true" lat="42.98738092" lon="-72.55206195">
    <tag k="addr:city" v="Putney"/>
    <tag k="addr:housenumber" v="15"/>
    <tag k="addr:street" v="Elm Lea Road"/>
    <tag k="addr:state" v="VT"/>
    <tag k="ref:vcgi:esiteid" v="195761"/>
  </node>
  <node id="-930" visible="true" lat="42.98643493" lon="-72.55226898">
    <tag k="addr:city" v="Putney"/>
    <tag k="addr:housenumber" v="8"/>
    <tag k="addr:street" v="Elm Lea Road"/>
    <tag k="addr:state" v="VT"/>
    <tag k="ref:vcgi:esiteid" v="195763"/>
  </node>
  <node id="-931" visible="true" lat="42.98481374" lon="-72.55559762">
    <tag k="addr:city" v="Putney"/>
    <tag k="addr:housenumber" v="12"/>
    <tag k="addr:street" v="Putney School Drive"/>
    <tag k="addr:state" v="VT"/>
    <tag k="ref:vcgi:esiteid" v="195764"/>
  </node>
  <node id="-932" visible="true" lat="42.98514939" lon="-72.55650599">
    <tag k="addr:city" v="Putney"/>
    <tag k="addr:housenumber" v="4"/>
    <tag k="addr:street" v="Putney School Drive"/>
    <tag k="addr:state" v="VT"/>
    <tag k="ref:vcgi:esiteid" v="195765"/>
  </node>
  <node id="-941" visible="true" lat="42.98849198" lon="-72.48151487">
    <tag k="addr:city" v="Putney"/>
    <tag k="addr:housenumber" v="150"/>
    <tag k="addr:street" v="Cemetery Road"/>
    <tag k="addr:state" v="VT"/>
    <tag k="ref:vcgi:esiteid" v="195774"/>
  </node>
  <node id="-942" visible="true" lat="42.99187472" lon="-72.47913967">
    <tag k="addr:city" v="Putney"/>
    <tag k="addr:housenumber" v="161"/>
    <tag k="addr:street" v="East Putney Falls Road"/>
    <tag k="addr:state" v="VT"/>
    <tag k="ref:vcgi:esiteid" v="195775"/>
  </node>
  <node id="-944" visible="true" lat="42.98209942" lon="-72.48521889">
    <tag k="addr:city" v="Putney"/>
    <tag k="addr:housenumber" v="119"/>
    <tag k="addr:street" v="Wardon Road"/>
    <tag k="addr:state" v="VT"/>
    <tag k="ref:vcgi:esiteid" v="195777"/>
  </node>
  <node id="-945" visible="true" lat="43.00028979" lon="-72.47643973">
    <tag k="addr:city" v="Putney"/>
    <tag k="addr:housenumber" v="601"/>
    <tag k="addr:street" v="Bellows Falls Road"/>
    <tag k="addr:state" v="VT"/>
    <tag k="ref:vcgi:esiteid" v="195778"/>
  </node>
  <node id="-955" visible="true" lat="42.97466932" lon="-72.55238276">
    <tag k="addr:city" v="Putney"/>
    <tag k="addr:housenumber" v="77"/>
    <tag k="addr:street" v="Greenwood Drive"/>
    <tag k="addr:state" v="VT"/>
    <tag k="ref:vcgi:esiteid" v="195788"/>
  </node>
  <node id="-961" visible="true" lat="42.97545631" lon="-72.55278008">
    <tag k="addr:city" v="Putney"/>
    <tag k="addr:housenumber" v="17"/>
    <tag k="addr:street" v="Himmel Lane"/>
    <tag k="addr:state" v="VT"/>
    <tag k="ref:vcgi:esiteid" v="195795"/>
  </node>
  <node id="-962" visible="true" lat="42.9738269" lon="-72.55343248">
    <tag k="addr:city" v="Putney"/>
    <tag k="addr:housenumber" v="30"/>
    <tag k="addr:street" v="Himmel Lane"/>
    <tag k="addr:state" v="VT"/>
    <tag k="ref:vcgi:esiteid" v="195796"/>
  </node>
  <node id="-965" visible="true" lat="42.97654361" lon="-72.52407152">
    <tag k="addr:city" v="Putney"/>
    <tag k="addr:housenumber" v="32"/>
    <tag k="addr:street" v="Kimball Hill"/>
    <tag k="addr:state" v="VT"/>
    <tag k="ref:vcgi:esiteid" v="195799"/>
  </node>
  <node id="-966" visible="true" lat="42.97669667" lon="-72.52439734">
    <tag k="addr:city" v="Putney"/>
    <tag k="addr:housenumber" v="34"/>
    <tag k="addr:street" v="Kimball Hill"/>
    <tag k="addr:state" v="VT"/>
    <tag k="ref:vcgi:esiteid" v="195800"/>
  </node>
  <node id="-967" visible="true" lat="42.97690933" lon="-72.52507098">
    <tag k="addr:city" v="Putney"/>
    <tag k="addr:housenumber" v="42"/>
    <tag k="addr:street" v="Kimball Hill"/>
    <tag k="addr:state" v="VT"/>
    <tag k="ref:vcgi:esiteid" v="195801"/>
  </node>
  <node id="-969" visible="true" lat="42.97462228" lon="-72.4895242">
    <tag k="addr:city" v="Putney"/>
    <tag k="addr:housenumber" v="285"/>
    <tag k="addr:street" v="Wardon Road"/>
    <tag k="addr:state" v="VT"/>
    <tag k="ref:vcgi:esiteid" v="195803"/>
  </node>
  <node id="-970" visible="true" lat="42.97816703" lon="-72.4902223">
    <tag k="addr:city" v="Putney"/>
    <tag k="addr:housenumber" v="184"/>
    <tag k="addr:street" v="Wardon Road"/>
    <tag k="addr:state" v="VT"/>
    <tag k="ref:vcgi:esiteid" v="195804"/>
  </node>
  <node id="-973" visible="true" lat="42.96898446" lon="-72.52137729">
    <tag k="addr:city" v="Putney"/>
    <tag k="addr:housenumber" v="30"/>
    <tag k="addr:street" v="Old Depot Road"/>
    <tag k="addr:state" v="VT"/>
    <tag k="ref:vcgi:esiteid" v="195808"/>
  </node>
  <node id="-974" visible="true" lat="42.9744799" lon="-72.52050068">
    <tag k="addr:city" v="Putney"/>
    <tag k="addr:housenumber" v="14"/>
    <tag k="addr:street" v="Christian Square"/>
    <tag k="addr:state" v="VT"/>
    <tag k="ref:vcgi:esiteid" v="195809"/>
  </node>
  <node id="-975" visible="true" lat="42.97428123" lon="-72.51996648">
    <tag k="addr:city" v="Putney"/>
    <tag k="addr:housenumber" v="9"/>
    <tag k="addr:street" v="Cul De Sac"/>
    <tag k="addr:state" v="VT"/>
    <tag k="ref:vcgi:esiteid" v="195810"/>
  </node>
  <node id="-976" visible="true" lat="42.97417386" lon="-72.52139133">
    <tag k="addr:city" v="Putney"/>
    <tag k="addr:housenumber" v="120"/>
    <tag k="addr:street" v="Main Street"/>
    <tag k="addr:state" v="VT"/>
    <tag k="ref:vcgi:esiteid" v="195812"/>
  </node>
  <node id="-977" visible="true" lat="42.97607131" lon="-72.52304821">
    <tag k="addr:city" v="Putney"/>
    <tag k="addr:housenumber" v="24"/>
    <tag k="addr:street" v="Kimball Hill"/>
    <tag k="addr:state" v="VT"/>
    <tag k="ref:vcgi:esiteid" v="195813"/>
  </node>
  <node id="-1002" visible="true" lat="42.99218368" lon="-72.478096">
    <tag k="addr:city" v="Putney"/>
    <tag k="addr:housenumber" v="163"/>
    <tag k="addr:street" v="East Putney Falls Road"/>
    <tag k="addr:state" v="VT"/>
    <tag k="ref:vcgi:esiteid" v="195841"/>
  </node>
  <node id="-1008" visible="true" lat="42.96889465" lon="-72.53851066">
    <tag k="addr:city" v="Putney"/>
    <tag k="addr:housenumber" v="41"/>
    <tag k="addr:street" v="Houghton Brook Road"/>
    <tag k="addr:state" v="VT"/>
    <tag k="ref:vcgi:esiteid" v="195847"/>
  </node>
  <node id="-1009" visible="true" lat="42.96853727" lon="-72.53821557">
    <tag k="addr:city" v="Putney"/>
    <tag k="addr:housenumber" v="37"/>
    <tag k="addr:street" v="Houghton Brook Road"/>
    <tag k="addr:state" v="VT"/>
    <tag k="ref:vcgi:esiteid" v="195848"/>
  </node>
  <node id="-1010" visible="true" lat="42.96796798" lon="-72.5380783">
    <tag k="addr:city" v="Putney"/>
    <tag k="addr:housenumber" v="27"/>
    <tag k="addr:street" v="Houghton Brook Road"/>
    <tag k="addr:state" v="VT"/>
    <tag k="ref:vcgi:esiteid" v="195849"/>
  </node>
  <node id="-1012" visible="true" lat="42.97584822" lon="-72.52174861">
    <tag k="addr:city" v="Putney"/>
    <tag k="addr:housenumber" v="1"/>
    <tag k="addr:street" v="Bellows Falls Road"/>
    <tag k="addr:state" v="VT"/>
    <tag k="ref:vcgi:esiteid" v="195853"/>
  </node>
  <node id="-1013" visible="true" lat="42.97638625" lon="-72.52038066">
    <tag k="addr:city" v="Putney"/>
    <tag k="addr:housenumber" v="8"/>
    <tag k="addr:street" v="Bellows Falls Road"/>
    <tag k="addr:state" v="VT"/>
    <tag k="ref:vcgi:esiteid" v="195855"/>
  </node>
  <node id="-1014" visible="true" lat="42.9773941" lon="-72.51981353">
    <tag k="addr:city" v="Putney"/>
    <tag k="addr:housenumber" v="12"/>
    <tag k="addr:street" v="Bellows Falls Road"/>
    <tag k="addr:state" v="VT"/>
    <tag k="ref:vcgi:esiteid" v="195856"/>
  </node>
  <node id="-1015" visible="true" lat="42.97746646" lon="-72.52030232">
    <tag k="addr:city" v="Putney"/>
    <tag k="addr:housenumber" v="15"/>
    <tag k="addr:street" v="Bellows Falls Road"/>
    <tag k="addr:state" v="VT"/>
    <tag k="ref:vcgi:esiteid" v="195857"/>
  </node>
  <node id="-1022" visible="true" lat="42.97959136" lon="-72.51615905">
    <tag k="addr:city" v="Putney"/>
    <tag k="addr:housenumber" v="2"/>
    <tag k="addr:street" v="Sand Hill Road"/>
    <tag k="addr:state" v="VT"/>
    <tag k="ref:vcgi:esiteid" v="195864"/>
  </node>
  <node id="-1023" visible="true" lat="42.97903823" lon="-72.51651764">
    <tag k="addr:city" v="Putney"/>
    <tag k="addr:housenumber" v="26"/>
    <tag k="addr:street" v="Bellows Falls Road"/>
    <tag k="addr:state" v="VT"/>
    <tag k="ref:vcgi:esiteid" v="195865"/>
  </node>
  <node id="-1024" visible="true" lat="42.97903957" lon="-72.51597044">
    <tag k="addr:city" v="Putney"/>
    <tag k="addr:housenumber" v="10"/>
    <tag k="addr:street" v="River Road South"/>
    <tag k="addr:state" v="VT"/>
    <tag k="ref:vcgi:esiteid" v="195866"/>
  </node>
  <node id="-1025" visible="true" lat="42.98187543" lon="-72.52761802">
    <tag k="addr:city" v="Putney"/>
    <tag k="addr:housenumber" v="118"/>
    <tag k="addr:street" v="Westminster Road"/>
    <tag k="addr:state" v="VT"/>
    <tag k="ref:vcgi:esiteid" v="195867"/>
  </node>
  <node id="-1027" visible="true" lat="42.97366614" lon="-72.51493412">
    <tag k="addr:city" v="Putney"/>
    <tag k="addr:housenumber" v="18"/>
    <tag k="addr:street" v="Locust Lane"/>
    <tag k="addr:state" v="VT"/>
    <tag k="ref:vcgi:esiteid" v="195869"/>
  </node>
  <node id="-1028" visible="true" lat="42.97376833" lon="-72.51503394">
    <tag k="addr:city" v="Putney"/>
    <tag k="addr:housenumber" v="19"/>
    <tag k="addr:street" v="Locust Lane"/>
    <tag k="addr:state" v="VT"/>
    <tag k="ref:vcgi:esiteid" v="195870"/>
  </node>
  <node id="-1029" visible="true" lat="42.97388211" lon="-72.51507862">
    <tag k="addr:city" v="Putney"/>
    <tag k="addr:housenumber" v="20"/>
    <tag k="addr:street" v="Locust Lane"/>
    <tag k="addr:state" v="VT"/>
    <tag k="ref:vcgi:esiteid" v="195871"/>
  </node>
  <node id="-1030" visible="true" lat="42.9739843" lon="-72.51518107">
    <tag k="addr:city" v="Putney"/>
    <tag k="addr:housenumber" v="21"/>
    <tag k="addr:street" v="Locust Lane"/>
    <tag k="addr:state" v="VT"/>
    <tag k="ref:vcgi:esiteid" v="195872"/>
  </node>
  <node id="-1031" visible="true" lat="42.97410001" lon="-72.51523099">
    <tag k="addr:city" v="Putney"/>
    <tag k="addr:housenumber" v="22"/>
    <tag k="addr:street" v="Locust Lane"/>
    <tag k="addr:state" v="VT"/>
    <tag k="ref:vcgi:esiteid" v="195873"/>
  </node>
  <node id="-1033" visible="true" lat="42.97291981" lon="-72.51497859">
    <tag k="addr:city" v="Putney"/>
    <tag k="addr:housenumber" v="15"/>
    <tag k="addr:street" v="Locust Lane"/>
    <tag k="addr:state" v="VT"/>
    <tag k="ref:vcgi:esiteid" v="195875"/>
  </node>
  <node id="-1034" visible="true" lat="42.97309532" lon="-72.51484206">
    <tag k="addr:city" v="Putney"/>
    <tag k="addr:housenumber" v="17"/>
    <tag k="addr:street" v="Locust Lane"/>
    <tag k="addr:state" v="VT"/>
    <tag k="ref:vcgi:esiteid" v="195876"/>
  </node>
  <node id="-1035" visible="true" lat="42.97301239" lon="-72.51490245">
    <tag k="addr:city" v="Putney"/>
    <tag k="addr:housenumber" v="16"/>
    <tag k="addr:street" v="Locust Lane"/>
    <tag k="addr:state" v="VT"/>
    <tag k="ref:vcgi:esiteid" v="195877"/>
  </node>
  <node id="-1036" visible="true" lat="42.97284256" lon="-72.51577431">
    <tag k="addr:city" v="Putney"/>
    <tag k="addr:housenumber" v="7"/>
    <tag k="addr:street" v="Locust Lane"/>
    <tag k="addr:state" v="VT"/>
    <tag k="ref:vcgi:esiteid" v="195878"/>
  </node>
  <node id="-1037" visible="true" lat="42.97276155" lon="-72.51587409">
    <tag k="addr:city" v="Putney"/>
    <tag k="addr:housenumber" v="8"/>
    <tag k="addr:street" v="Locust Lane"/>
    <tag k="addr:state" v="VT"/>
    <tag k="ref:vcgi:esiteid" v="195879"/>
  </node>
  <node id="-1038" visible="true" lat="42.97261497" lon="-72.51604475">
    <tag k="addr:city" v="Putney"/>
    <tag k="addr:housenumber" v="9"/>
    <tag k="addr:street" v="Locust Lane"/>
    <tag k="addr:state" v="VT"/>
    <tag k="ref:vcgi:esiteid" v="195880"/>
  </node>
  <node id="-1039" visible="true" lat="42.97327423" lon="-72.51535034">
    <tag k="addr:city" v="Putney"/>
    <tag k="addr:housenumber" v="2"/>
    <tag k="addr:street" v="Locust Lane"/>
    <tag k="addr:state" v="VT"/>
    <tag k="ref:vcgi:esiteid" v="195881"/>
  </node>
  <node id="-1040" visible="true" lat="42.97317886" lon="-72.51542663">
    <tag k="addr:city" v="Putney"/>
    <tag k="addr:housenumber" v="3"/>
    <tag k="addr:street" v="Locust Lane"/>
    <tag k="addr:state" v="VT"/>
    <tag k="ref:vcgi:esiteid" v="195882"/>
  </node>
  <node id="-1041" visible="true" lat="42.97307205" lon="-72.51551055">
    <tag k="addr:city" v="Putney"/>
    <tag k="addr:housenumber" v="4"/>
    <tag k="addr:street" v="Locust Lane"/>
    <tag k="addr:state" v="VT"/>
    <tag k="ref:vcgi:esiteid" v="195883"/>
  </node>
  <node id="-1042" visible="true" lat="42.97298812" lon="-72.51559448">
    <tag k="addr:city" v="Putney"/>
    <tag k="addr:housenumber" v="5"/>
    <tag k="addr:street" v="Locust Lane"/>
    <tag k="addr:state" v="VT"/>
    <tag k="ref:vcgi:esiteid" v="195884"/>
  </node>
  <node id="-1043" visible="true" lat="42.97291972" lon="-72.51567716">
    <tag k="addr:city" v="Putney"/>
    <tag k="addr:housenumber" v="6"/>
    <tag k="addr:street" v="Locust Lane"/>
    <tag k="addr:state" v="VT"/>
    <tag k="ref:vcgi:esiteid" v="195885"/>
  </node>
  <node id="-1044" visible="true" lat="42.97265359" lon="-72.51564295">
    <tag k="addr:city" v="Putney"/>
    <tag k="addr:housenumber" v="10"/>
    <tag k="addr:street" v="Locust Lane"/>
    <tag k="addr:state" v="VT"/>
    <tag k="ref:vcgi:esiteid" v="195886"/>
  </node>
  <node id="-1046" visible="true" lat="42.97255915" lon="-72.51523061">
    <tag k="addr:city" v="Putney"/>
    <tag k="addr:housenumber" v="13"/>
    <tag k="addr:street" v="Locust Lane"/>
    <tag k="addr:state" v="VT"/>
    <tag k="ref:vcgi:esiteid" v="195888"/>
  </node>
  <node id="-1047" visible="true" lat="42.97261503" lon="-72.51553002">
    <tag k="addr:city" v="Putney"/>
    <tag k="addr:housenumber" v="11"/>
    <tag k="addr:street" v="Locust Lane"/>
    <tag k="addr:state" v="VT"/>
    <tag k="ref:vcgi:esiteid" v="195889"/>
  </node>
  <node id="-1049" visible="true" lat="42.97406114" lon="-72.52071845">
    <tag k="addr:city" v="Putney"/>
    <tag k="addr:housenumber" v="10"/>
    <tag k="addr:street" v="Christian Square"/>
    <tag k="addr:state" v="VT"/>
    <tag k="ref:vcgi:esiteid" v="195891"/>
  </node>
  <node id="-1050" visible="true" lat="42.97388574" lon="-72.5201926">
    <tag k="addr:city" v="Putney"/>
    <tag k="addr:housenumber" v="8"/>
    <tag k="addr:street" v="Cul De Sac"/>
    <tag k="addr:state" v="VT"/>
    <tag k="ref:vcgi:esiteid" v="195892"/>
  </node>
  <node id="-1051" visible="true" lat="42.97403251" lon="-72.51984397">
    <tag k="addr:city" v="Putney"/>
    <tag k="addr:housenumber" v="10"/>
    <tag k="addr:street" v="Cul De Sac"/>
    <tag k="addr:state" v="VT"/>
    <tag k="ref:vcgi:esiteid" v="195893"/>
  </node>
  <node id="-1055" visible="true" lat="42.97574084" lon="-72.52371926">
    <tag k="addr:city" v="Putney"/>
    <tag k="addr:housenumber" v="27"/>
    <tag k="addr:street" v="Kimball Hill"/>
    <tag k="addr:state" v="VT"/>
    <tag k="ref:vcgi:esiteid" v="195897"/>
  </node>
  <node id="-1056" visible="true" lat="42.97293853" lon="-72.52968597">
    <tag k="addr:city" v="Putney"/>
    <tag k="addr:housenumber" v="63"/>
    <tag k="addr:street" v="Fred Houghton Road"/>
    <tag k="addr:state" v="VT"/>
    <tag k="ref:vcgi:esiteid" v="195899"/>
  </node>
  <node id="-1060" visible="true" lat="42.99156951" lon="-72.48259735">
    <tag k="addr:city" v="Putney"/>
    <tag k="addr:housenumber" v="31"/>
    <tag k="addr:street" v="Gassett Road"/>
    <tag k="addr:state" v="VT"/>
    <tag k="ref:vcgi:esiteid" v="195905"/>
  </node>
  <node id="-1061" visible="true" lat="42.96831643" lon="-72.55076258">
    <tag k="addr:city" v="Putney"/>
    <tag k="addr:housenumber" v="139"/>
    <tag k="addr:street" v="Plowden Road"/>
    <tag k="addr:state" v="VT"/>
    <tag k="ref:vcgi:esiteid" v="195906"/>
  </node>
  <node id="-1062" visible="true" lat="42.96836601" lon="-72.55202967">
    <tag k="addr:city" v="Putney"/>
    <tag k="addr:housenumber" v="142"/>
    <tag k="addr:street" v="Plowden Road"/>
    <tag k="addr:state" v="VT"/>
    <tag k="ref:vcgi:esiteid" v="195907"/>
  </node>
  <node id="-1063" visible="true" lat="42.96935711" lon="-72.55106651">
    <tag k="addr:city" v="Putney"/>
    <tag k="addr:housenumber" v="120"/>
    <tag k="addr:street" v="Plowden Road"/>
    <tag k="addr:state" v="VT"/>
    <tag k="ref:vcgi:esiteid" v="195908"/>
  </node>
  <node id="-1066" visible="true" lat="42.99848175" lon="-72.47917938">
    <tag k="addr:city" v="Putney"/>
    <tag k="addr:housenumber" v="21"/>
    <tag k="addr:street" v="South Pine Banks Road"/>
    <tag k="addr:state" v="VT"/>
    <tag k="ref:vcgi:esiteid" v="195911"/>
  </node>
  <node id="-1068" visible="true" lat="42.9865156" lon="-72.55812589">
    <tag k="addr:city" v="Putney"/>
    <tag k="addr:housenumber" v="401"/>
    <tag k="addr:street" v="Houghton Brook Road"/>
    <tag k="addr:state" v="VT"/>
    <tag k="ref:vcgi:esiteid" v="195913"/>
  </node>
  <node id="-1079" visible="true" lat="42.98404328" lon="-72.55649506">
    <tag k="addr:city" v="Putney"/>
    <tag k="addr:housenumber" v="374"/>
    <tag k="addr:street" v="Houghton Brook Road"/>
    <tag k="addr:state" v="VT"/>
    <tag k="ref:vcgi:esiteid" v="195926"/>
  </node>
  <node id="-1080" visible="true" lat="42.98655012" lon="-72.50593693">
    <tag k="addr:city" v="Putney"/>
    <tag k="addr:housenumber" v="8"/>
    <tag k="addr:street" v="Small Meadows Lane"/>
    <tag k="addr:state" v="VT"/>
    <tag k="ref:vcgi:esiteid" v="195927"/>
  </node>
  <node id="-1088" visible="true" lat="42.98056647" lon="-72.55351382">
    <tag k="addr:city" v="Putney"/>
    <tag k="addr:housenumber" v="340"/>
    <tag k="addr:street" v="Houghton Brook Road"/>
    <tag k="addr:state" v="VT"/>
    <tag k="ref:vcgi:esiteid" v="195935"/>
  </node>
  <node id="-1089" visible="true" lat="42.98036408" lon="-72.51553022">
    <tag k="addr:city" v="Putney"/>
    <tag k="addr:housenumber" v="29"/>
    <tag k="addr:street" v="Bellows Falls Road"/>
    <tag k="addr:state" v="VT"/>
    <tag k="ref:vcgi:esiteid" v="195936"/>
  </node>
  <node id="-1090" visible="true" lat="42.96956274" lon="-72.52341215">
    <tag k="addr:city" v="Putney"/>
    <tag k="addr:housenumber" v="52"/>
    <tag k="addr:street" v="Old Route 5 South"/>
    <tag k="addr:state" v="VT"/>
    <tag k="ref:vcgi:esiteid" v="195937"/>
  </node>
  <node id="-1099" visible="true" lat="42.99733488" lon="-72.47904537">
    <tag k="addr:city" v="Putney"/>
    <tag k="addr:housenumber" v="11"/>
    <tag k="addr:street" v="South Pine Banks Road"/>
    <tag k="addr:state" v="VT"/>
    <tag k="ref:vcgi:esiteid" v="195947"/>
  </node>
  <node id="-1100" visible="true" lat="42.97773816" lon="-72.51365663">
    <tag k="addr:city" v="Putney"/>
    <tag k="addr:housenumber" v="17"/>
    <tag k="addr:street" v="Robert Rhodes Lane"/>
    <tag k="addr:state" v="VT"/>
    <tag k="ref:vcgi:esiteid" v="195949"/>
  </node>
  <node id="-1108" visible="true" lat="42.98139442" lon="-72.4864777">
    <tag k="addr:city" v="Putney"/>
    <tag k="addr:housenumber" v="131"/>
    <tag k="addr:street" v="Wardon Road"/>
    <tag k="addr:state" v="VT"/>
    <tag k="ref:vcgi:esiteid" v="195957"/>
  </node>
  <node id="-1109" visible="true" lat="42.96662208" lon="-72.5459648">
    <tag k="addr:city" v="Putney"/>
    <tag k="addr:housenumber" v="71"/>
    <tag k="addr:street" v="Sun Hill Road"/>
    <tag k="addr:state" v="VT"/>
    <tag k="ref:vcgi:esiteid" v="195958"/>
  </node>
  <node id="-1110" visible="true" lat="42.97625434" lon="-72.52568257">
    <tag k="addr:city" v="Putney"/>
    <tag k="addr:housenumber" v="6"/>
    <tag k="addr:street" v="Phineas White Lane"/>
    <tag k="addr:state" v="VT"/>
    <tag k="ref:vcgi:esiteid" v="195959"/>
  </node>
  <node id="-1111" visible="true" lat="42.98116104" lon="-72.51449373">
    <tag k="addr:city" v="Putney"/>
    <tag k="addr:housenumber" v="33"/>
    <tag k="addr:street" v="Bellows Falls Road"/>
    <tag k="addr:state" v="VT"/>
    <tag k="ref:vcgi:esiteid" v="195960"/>
  </node>
  <node id="-1118" visible="true" lat="42.97460209" lon="-72.51361118">
    <tag k="addr:city" v="Putney"/>
    <tag k="addr:housenumber" v="2"/>
    <tag k="addr:street" v="Charles Drake Lane"/>
    <tag k="addr:state" v="VT"/>
    <tag k="ref:vcgi:esiteid" v="195967"/>
  </node>
  <node id="-1119" visible="true" lat="42.97515709" lon="-72.5195797">
    <tag k="addr:city" v="Putney"/>
    <tag k="addr:housenumber" v="23"/>
    <tag k="addr:street" v="Mill Street"/>
    <tag k="addr:state" v="VT"/>
    <tag k="ref:vcgi:esiteid" v="195968"/>
  </node>
  <node id="-1120" visible="true" lat="42.97131372" lon="-72.52814078">
    <tag k="addr:city" v="Putney"/>
    <tag k="addr:housenumber" v="73"/>
    <tag k="addr:street" v="Fred Houghton Road"/>
    <tag k="addr:state" v="VT"/>
    <tag k="ref:vcgi:esiteid" v="195969"/>
  </node>
  <node id="-1125" visible="true" lat="42.9896149" lon="-72.48213928">
    <tag k="addr:city" v="Putney"/>
    <tag k="addr:housenumber" v="110"/>
    <tag k="addr:street" v="Cemetery Road"/>
    <tag k="addr:state" v="VT"/>
    <tag k="ref:vcgi:esiteid" v="195975"/>
  </node>
  <node id="-1126" visible="true" lat="42.97258153" lon="-72.52721736">
    <tag k="addr:city" v="Putney"/>
    <tag k="addr:housenumber" v="71"/>
    <tag k="addr:street" v="Fred Houghton Road"/>
    <tag k="addr:state" v="VT"/>
    <tag k="ref:vcgi:esiteid" v="195976"/>
  </node>
  <node id="-1127" visible="true" lat="42.97844067" lon="-72.51509898">
    <tag k="addr:city" v="Putney"/>
    <tag k="addr:housenumber" v="8"/>
    <tag k="addr:street" v="Perseverance Lane"/>
    <tag k="addr:state" v="VT"/>
    <tag k="ref:vcgi:esiteid" v="195978"/>
  </node>
  <node id="-1130" visible="true" lat="43.0055095" lon="-72.47987343">
    <tag k="addr:city" v="Putney"/>
    <tag k="addr:housenumber" v="9"/>
    <tag k="addr:street" v="Mic Mac Trail"/>
    <tag k="addr:state" v="VT"/>
    <tag k="ref:vcgi:esiteid" v="195981"/>
  </node>
  <node id="-1131" visible="true" lat="42.98553608" lon="-72.55942216">
    <tag k="addr:city" v="Putney"/>
    <tag k="addr:housenumber" v="29"/>
    <tag k="addr:street" v="Gray Lane"/>
    <tag k="addr:state" v="VT"/>
    <tag k="ref:vcgi:esiteid" v="195982"/>
  </node>
  <node id="-1132" visible="true" lat="42.98675337" lon="-72.55433635">
    <tag k="addr:city" v="Putney"/>
    <tag k="addr:housenumber" v="416"/>
    <tag k="addr:street" v="Houghton Brook Road"/>
    <tag k="addr:state" v="VT"/>
    <tag k="ref:vcgi:esiteid" v="195983"/>
  </node>
  <node id="-1134" visible="true" lat="42.98733517" lon="-72.55269378">
    <tag k="addr:city" v="Putney"/>
    <tag k="addr:housenumber" v="9"/>
    <tag k="addr:street" v="Elm Lea Road"/>
    <tag k="addr:state" v="VT"/>
    <tag k="ref:vcgi:esiteid" v="195986"/>
  </node>
  <node id="-1135" visible="true" lat="42.98761843" lon="-72.55174252">
    <tag k="addr:city" v="Putney"/>
    <tag k="addr:housenumber" v="17"/>
    <tag k="addr:street" v="Hinton Road"/>
    <tag k="addr:state" v="VT"/>
    <tag k="ref:vcgi:esiteid" v="195988"/>
  </node>
  <node id="-1136" visible="true" lat="42.98676699" lon="-72.55172233">
    <tag k="addr:city" v="Putney"/>
    <tag k="addr:housenumber" v="20"/>
    <tag k="addr:street" v="Elm Lea Road"/>
    <tag k="addr:state" v="VT"/>
    <tag k="ref:vcgi:esiteid" v="195989"/>
  </node>
  <node id="-1137" visible="true" lat="42.98711974" lon="-72.55203758">
    <tag k="addr:city" v="Putney"/>
    <tag k="addr:housenumber" v="13"/>
    <tag k="addr:street" v="Elm Lea Road"/>
    <tag k="addr:state" v="VT"/>
    <tag k="ref:vcgi:esiteid" v="195990"/>
  </node>
  <node id="-1142" visible="true" lat="42.96958918" lon="-72.55095125">
    <tag k="addr:city" v="Putney"/>
    <tag k="addr:housenumber" v="118"/>
    <tag k="addr:street" v="Plowden Road"/>
    <tag k="addr:state" v="VT"/>
    <tag k="ref:vcgi:esiteid" v="195996"/>
  </node>
  <node id="-1152" visible="true" lat="42.9881306" lon="-72.48281313">
    <tag k="addr:city" v="Putney"/>
    <tag k="addr:housenumber" v="108"/>
    <tag k="addr:street" v="Cemetery Road"/>
    <tag k="addr:state" v="VT"/>
    <tag k="ref:vcgi:esiteid" v="196008"/>
  </node>
  <node id="-1155" visible="true" lat="42.96957843" lon="-72.52277732">
    <tag k="addr:city" v="Putney"/>
    <tag k="addr:housenumber" v="55"/>
    <tag k="addr:street" v="Main Street"/>
    <tag k="addr:state" v="VT"/>
    <tag k="ref:vcgi:esiteid" v="196011"/>
  </node>
  <node id="-1156" visible="true" lat="42.97336197" lon="-72.51520864">
    <tag k="addr:city" v="Putney"/>
    <tag k="addr:housenumber" v="1"/>
    <tag k="addr:street" v="Locust Lane"/>
    <tag k="addr:state" v="VT"/>
    <tag k="ref:vcgi:esiteid" v="196012"/>
  </node>
  <node id="-1157" visible="true" lat="42.97944512" lon="-72.55027439">
    <tag k="addr:city" v="Putney"/>
    <tag k="addr:housenumber" v="24"/>
    <tag k="addr:street" v="Lower Farm Road"/>
    <tag k="addr:state" v="VT"/>
    <tag k="ref:vcgi:esiteid" v="196014"/>
  </node>
  <node id="-1166" visible="true" lat="42.9910117" lon="-72.47981229">
    <tag k="addr:city" v="Putney"/>
    <tag k="addr:housenumber" v="156"/>
    <tag k="addr:street" v="East Putney Falls Road"/>
    <tag k="addr:state" v="VT"/>
    <tag k="ref:vcgi:esiteid" v="309114"/>
  </node>
  <node id="-1168" visible="true" lat="42.99892629" lon="-72.47978563">
    <tag k="addr:city" v="Putney"/>
    <tag k="addr:housenumber" v="39"/>
    <tag k="addr:street" v="South Pine Banks Road"/>
    <tag k="addr:state" v="VT"/>
    <tag k="ref:vcgi:esiteid" v="309116"/>
  </node>
  <node id="-1172" visible="true" lat="42.97524236" lon="-72.52913403">
    <tag k="addr:city" v="Putney"/>
    <tag k="addr:housenumber" v="25"/>
    <tag k="addr:street" v="Fred Houghton Road"/>
    <tag k="addr:state" v="VT"/>
    <tag k="ref:vcgi:esiteid" v="309120"/>
  </node>
  <node id="-1178" visible="true" lat="42.97270327" lon="-72.52125151">
    <tag k="addr:city" v="Putney"/>
    <tag k="addr:housenumber" v="96"/>
    <tag k="addr:street" v="Main Street"/>
    <tag k="addr:state" v="VT"/>
    <tag k="ref:vcgi:esiteid" v="318045"/>
  </node>
  <node id="-1181" visible="true" lat="42.97355805" lon="-72.52083991">
    <tag k="addr:city" v="Putney"/>
    <tag k="addr:housenumber" v="6"/>
    <tag k="addr:street" v="Putney Commons Way"/>
    <tag k="addr:state" v="VT"/>
    <tag k="ref:vcgi:esiteid" v="326888"/>
  </node>
  <node id="-1182" visible="true" lat="42.97300186" lon="-72.52067922">
    <tag k="addr:city" v="Putney"/>
    <tag k="addr:housenumber" v="14"/>
    <tag k="addr:street" v="Putney Commons Way"/>
    <tag k="addr:state" v="VT"/>
    <tag k="ref:vcgi:esiteid" v="326889"/>
  </node>
  <node id="-1183" visible="true" lat="42.97303291" lon="-72.52015766">
    <tag k="addr:city" v="Putney"/>
    <tag k="addr:housenumber" v="16"/>
    <tag k="addr:street" v="Putney Commons Way"/>
    <tag k="addr:state" v="VT"/>
    <tag k="ref:vcgi:esiteid" v="326890"/>
  </node>
  <node id="-1184" visible="true" lat="42.97326037" lon="-72.52005748">
    <tag k="addr:city" v="Putney"/>
    <tag k="addr:housenumber" v="17"/>
    <tag k="addr:street" v="Putney Commons Way"/>
    <tag k="addr:state" v="VT"/>
    <tag k="ref:vcgi:esiteid" v="326891"/>
  </node>
  <node id="-1196" visible="true" lat="42.96886011" lon="-72.52109811">
    <tag k="addr:city" v="Putney"/>
    <tag k="addr:housenumber" v="32"/>
    <tag k="addr:street" v="Old Depot Road"/>
    <tag k="addr:state" v="VT"/>
    <tag k="ref:vcgi:esiteid" v="332357"/>
  </node>
  <node id="-1197" visible="true" lat="42.97379191" lon="-72.55208527">
    <tag k="addr:city" v="Putney"/>
    <tag k="addr:housenumber" v="1"/>
    <tag k="addr:street" v="Pod Place"/>
    <tag k="addr:state" v="VT"/>
    <tag k="ref:vcgi:esiteid" v="333200"/>
  </node>
  <node id="-1198" visible="true" lat="42.9736058" lon="-72.55226232">
    <tag k="addr:city" v="Putney"/>
    <tag k="addr:housenumber" v="5"/>
    <tag k="addr:street" v="Pod Place"/>
    <tag k="addr:state" v="VT"/>
    <tag k="ref:vcgi:esiteid" v="333201"/>
  </node>
  <node id="-1199" visible="true" lat="42.9733538" lon="-72.55249617">
    <tag k="addr:city" v="Putney"/>
    <tag k="addr:housenumber" v="9"/>
    <tag k="addr:street" v="Pod Place"/>
    <tag k="addr:state" v="VT"/>
    <tag k="ref:vcgi:esiteid" v="333202"/>
  </node>
  <node id="-1201" visible="true" lat="42.97669508" lon="-72.50992227">
    <tag k="addr:city" v="Putney"/>
    <tag k="addr:housenumber" v="64"/>
    <tag k="addr:street" v="Perseverance Lane"/>
    <tag k="addr:state" v="VT"/>
    <tag k="ref:vcgi:esiteid" v="334686"/>
  </node>
  <node id="-1202" visible="true" lat="42.97647243" lon="-72.50996646">
    <tag k="addr:city" v="Putney"/>
    <tag k="addr:housenumber" v="66"/>
    <tag k="addr:street" v="Perseverance Lane"/>
    <tag k="addr:state" v="VT"/>
    <tag k="ref:vcgi:esiteid" v="334687"/>
  </node>
  <node id="-1203" visible="true" lat="42.97610135" lon="-72.50989059">
    <tag k="addr:city" v="Putney"/>
    <tag k="addr:housenumber" v="69"/>
    <tag k="addr:street" v="Perseverance Lane"/>
    <tag k="addr:state" v="VT"/>
    <tag k="ref:vcgi:esiteid" v="334688"/>
  </node>
  <node id="-1204" visible="true" lat="42.97612457" lon="-72.50954315">
    <tag k="addr:city" v="Putney"/>
    <tag k="addr:housenumber" v="71"/>
    <tag k="addr:street" v="Perseverance Lane"/>
    <tag k="addr:state" v="VT"/>
    <tag k="ref:vcgi:esiteid" v="334689"/>
  </node>
  <node id="-1205" visible="true" lat="42.9761014" lon="-72.50918306">
    <tag k="addr:city" v="Putney"/>
    <tag k="addr:housenumber" v="73"/>
    <tag k="addr:street" v="Perseverance Lane"/>
    <tag k="addr:state" v="VT"/>
    <tag k="ref:vcgi:esiteid" v="334690"/>
  </node>
  <node id="-1206" visible="true" lat="42.97304658" lon="-72.52107344">
    <tag k="addr:city" v="Putney"/>
    <tag k="addr:housenumber" v="104"/>
    <tag k="addr:street" v="Main Street"/>
    <tag k="addr:state" v="VT"/>
    <tag k="ref:vcgi:esiteid" v="334800"/>
  </node>
  <node id="-1208" visible="true" lat="42.9884269" lon="-72.55408603">
    <tag k="addr:city" v="Putney"/>
    <tag k="addr:housenumber" v="63"/>
    <tag k="addr:street" v="Putney School Drive"/>
    <tag k="addr:state" v="VT"/>
    <tag k="ref:vcgi:esiteid" v="335613"/>
  </node>
  <node id="-1217" visible="true" lat="42.97129746" lon="-72.51211301">
    <tag k="addr:city" v="Putney"/>
    <tag k="addr:housenumber" v="122"/>
    <tag k="addr:street" v="River Road South"/>
    <tag k="addr:state" v="VT"/>
    <tag k="ref:vcgi:esiteid" v="337316"/>
  </node>
  <node id="-1218" visible="true" lat="42.98517297" lon="-72.55965715">
    <tag k="addr:city" v="Putney"/>
    <tag k="addr:housenumber" v="21"/>
    <tag k="addr:street" v="Gray Lane"/>
    <tag k="addr:state" v="VT"/>
    <tag k="ref:vcgi:esiteid" v="337317"/>
  </node>
  <node id="-1220" visible="true" lat="42.96456131" lon="-72.51919093">
    <tag k="addr:city" v="Putney"/>
    <tag k="addr:housenumber" v="62"/>
    <tag k="addr:street" v="Patel Way"/>
    <tag k="addr:state" v="VT"/>
    <tag k="ref:vcgi:esiteid" v="337319"/>
  </node>
  <node id="-1225" visible="true" lat="42.96833192" lon="-72.52491353">
    <tag k="addr:city" v="Putney"/>
    <tag k="addr:housenumber" v="38"/>
    <tag k="addr:street" v="Old Route 5 South"/>
    <tag k="addr:state" v="VT"/>
    <tag k="ref:vcgi:esiteid" v="337893"/>
  </node>
  <node id="-1258" visible="true" lat="42.97112858" lon="-72.52359372">
    <tag k="addr:city" v="Putney"/>
    <tag k="addr:housenumber" v="77"/>
    <tag k="addr:street" v="Old Route 5 South"/>
    <tag k="addr:state" v="VT"/>
    <tag k="ref:vcgi:esiteid" v="342201"/>
  </node>
  <node id="-1261" visible="true" lat="42.96987556" lon="-72.53530732">
    <tag k="addr:city" v="Putney"/>
    <tag k="addr:housenumber" v="133"/>
    <tag k="addr:street" v="Fred Houghton Road"/>
    <tag k="addr:state" v="VT"/>
    <tag k="ref:vcgi:esiteid" v="344702"/>
  </node>
  <node id="-1270" visible="true" lat="42.97753756" lon="-72.52594972">
    <tag k="addr:city" v="Putney"/>
    <tag k="addr:housenumber" v="54"/>
    <tag k="addr:street" v="Kimball Hill"/>
    <tag k="addr:state" v="VT"/>
    <tag k="ref:vcgi:esiteid" v="445464"/>
  </node>
  <node id="-1273" visible="true" lat="42.97288245" lon="-72.5276395">
    <tag k="addr:city" v="Putney"/>
    <tag k="addr:housenumber" v="69"/>
    <tag k="addr:street" v="Frost Road"/>
    <tag k="addr:state" v="VT"/>
    <tag k="ref:vcgi:esiteid" v="445956"/>
  </node>
  <node id="-1275" visible="true" lat="42.99528771" lon="-72.47803968">
    <tag k="addr:city" v="Putney"/>
    <tag k="addr:housenumber" v="11"/>
    <tag k="addr:street" v="Meetinghouse Lane"/>
    <tag k="addr:state" v="VT"/>
    <tag k="ref:vcgi:esiteid" v="446767"/>
  </node>
  <node id="-1276" visible="true" lat="42.97484268" lon="-72.52095558">
    <tag k="addr:city" v="Putney"/>
    <tag k="addr:housenumber" v="10"/>
    <tag k="addr:street" v="Mill Street"/>
    <tag k="addr:state" v="VT"/>
    <tag k="ref:vcgi:esiteid" v="446768"/>
  </node>
  <node id="-1283" visible="true" lat="42.97333974" lon="-72.51452972">
    <tag k="addr:city" v="Putney"/>
    <tag k="addr:housenumber" v="32"/>
    <tag k="addr:street" v="Hi Lo Biddy Road"/>
    <tag k="addr:state" v="VT"/>
    <tag k="ref:vcgi:esiteid" v="448090"/>
  </node>
  <node id="-1290" visible="true" lat="42.97812316" lon="-72.52187515">
    <tag k="addr:city" v="Putney"/>
    <tag k="addr:housenumber" v="9"/>
    <tag k="addr:street" v="Bellows Falls Road"/>
    <tag k="addr:state" v="VT"/>
    <tag k="ref:vcgi:esiteid" v="448333"/>
  </node>
  <node id="-1299" visible="true" lat="43.00165651" lon="-72.47566693">
    <tag k="addr:city" v="Putney"/>
    <tag k="addr:housenumber" v="615"/>
    <tag k="addr:street" v="Bellows Falls Road"/>
    <tag k="addr:state" v="VT"/>
    <tag k="ref:vcgi:esiteid" v="450983"/>
  </node>
  <node id="-1302" visible="true" lat="42.99891173" lon="-72.53866087">
    <tag k="addr:city" v="Putney"/>
    <tag k="addr:housenumber" v="65"/>
    <tag k="addr:street" v="Hickory Ridge Road South"/>
    <tag k="addr:state" v="VT"/>
    <tag k="ref:vcgi:esiteid" v="450987"/>
  </node>
  <node id="-1307" visible="true" lat="42.97578961" lon="-72.52346834">
    <tag k="addr:city" v="Putney"/>
    <tag k="addr:housenumber" v="25"/>
    <tag k="addr:street" v="Kimball Hill"/>
    <tag k="addr:state" v="VT"/>
    <tag k="ref:vcgi:esiteid" v="450992"/>
  </node>
  <node id="-1310" visible="true" lat="42.98789878" lon="-72.50681679">
    <tag k="addr:city" v="Putney"/>
    <tag k="addr:housenumber" v="163"/>
    <tag k="addr:street" v="Bellows Falls Road"/>
    <tag k="addr:state" v="VT"/>
    <tag k="ref:vcgi:esiteid" v="450996"/>
  </node>
  <node id="-1312" visible="true" lat="42.985774" lon="-72.55384241">
    <tag k="addr:city" v="Putney"/>
    <tag k="addr:housenumber" v="28"/>
    <tag k="addr:street" v="Putney School Drive"/>
    <tag k="addr:state" v="VT"/>
    <tag k="ref:vcgi:esiteid" v="450998"/>
  </node>
  <node id="-1315" visible="true" lat="42.96589021" lon="-72.52287854">
    <tag k="addr:city" v="Putney"/>
    <tag k="addr:housenumber" v="18"/>
    <tag k="addr:street" v="Carl Snyder Drive"/>
    <tag k="addr:state" v="VT"/>
    <tag k="ref:vcgi:esiteid" v="451386"/>
  </node>
  <node id="-1317" visible="true" lat="42.97681029" lon="-72.51326174">
    <tag k="addr:city" v="Putney"/>
    <tag k="addr:housenumber" v="22"/>
    <tag k="addr:street" v="Robert Rhodes Lane"/>
    <tag k="addr:state" v="VT"/>
    <tag k="ref:vcgi:esiteid" v="451388"/>
  </node>
  <node id="-1318" visible="true" lat="42.98169482" lon="-72.52948179">
    <tag k="addr:city" v="Putney"/>
    <tag k="addr:housenumber" v="16"/>
    <tag k="addr:street" v="Spring Hill Road"/>
    <tag k="addr:state" v="VT"/>
    <tag k="ref:vcgi:esiteid" v="451508"/>
  </node>
  <node id="-1319" visible="true" lat="42.98151213" lon="-72.52901619">
    <tag k="addr:city" v="Putney"/>
    <tag k="addr:housenumber" v="10"/>
    <tag k="addr:street" v="Spring Hill Road"/>
    <tag k="addr:state" v="VT"/>
    <tag k="ref:vcgi:esiteid" v="451509"/>
  </node>
  <node id="-1324" visible="true" lat="42.98537862" lon="-72.50940505">
    <tag k="addr:city" v="Putney"/>
    <tag k="addr:housenumber" v="111"/>
    <tag k="addr:street" v="Bellows Falls Road"/>
    <tag k="addr:state" v="VT"/>
    <tag k="ref:vcgi:esiteid" v="452396"/>
  </node>
  <node id="-1335" visible="true" lat="42.96401761" lon="-72.51925198">
    <tag k="addr:city" v="Putney"/>
    <tag k="addr:housenumber" v="40"/>
    <tag k="addr:street" v="Patel Way"/>
    <tag k="addr:state" v="VT"/>
    <tag k="ref:vcgi:esiteid" v="455422"/>
  </node>
  <node id="-1336" visible="true" lat="42.96831084" lon="-72.55265475">
    <tag k="addr:city" v="Putney"/>
    <tag k="addr:housenumber" v="151"/>
    <tag k="addr:street" v="Plowden Road"/>
    <tag k="addr:state" v="VT"/>
    <tag k="ref:vcgi:esiteid" v="610416"/>
  </node>
  <node id="-1338" visible="true" lat="42.97013762" lon="-72.52168215">
    <tag k="addr:city" v="Putney"/>
    <tag k="addr:housenumber" v="15"/>
    <tag k="addr:street" v="Old Depot Road"/>
    <tag k="addr:state" v="VT"/>
    <tag k="ref:vcgi:esiteid" v="610456"/>
  </node>
  <node id="-1340" visible="true" lat="42.97986532" lon="-72.54809637">
    <tag k="addr:city" v="Putney"/>
    <tag k="addr:housenumber" v="48"/>
    <tag k="addr:street" v="Lower Farm Road"/>
    <tag k="addr:state" v="VT"/>
    <tag k="ref:vcgi:esiteid" v="610951"/>
  </node>
  <node id="-1343" visible="true" lat="42.97468277" lon="-72.48477567">
    <tag k="addr:city" v="Putney"/>
    <tag k="addr:housenumber" v="431"/>
    <tag k="addr:street" v="River Road South"/>
    <tag k="addr:state" v="VT"/>
    <tag k="ref:vcgi:esiteid" v="611868"/>
  </node>
  <node id="-1347" visible="true" lat="42.9891654" lon="-72.55373273">
    <tag k="addr:city" v="Putney"/>
    <tag k="addr:housenumber" v="65"/>
    <tag k="addr:street" v="Putney School Drive"/>
    <tag k="addr:state" v="VT"/>
    <tag k="ref:vcgi:esiteid" v="612010"/>
  </node>
  <node id="-1360" visible="true" lat="42.97451115" lon="-72.5154477">
    <tag k="addr:city" v="Putney"/>
    <tag k="addr:housenumber" v="87"/>
    <tag k="addr:street" v="Determination Drive"/>
    <tag k="addr:state" v="VT"/>
    <tag k="ref:vcgi:esiteid" v="617638"/>
  </node>
</osm>
