<?xml version="1.0" encoding="UTF-8"?>
<osm version="0.6" generator="JOSM" upload="false">
  <node id="-267" visible="true" lat="43.96424335" lon="-72.60303189">
    <tag k="addr:city" v="Randolph"/>
    <tag k="addr:housenumber" v="84"/>
    <tag k="addr:street" v="Olsson Drive"/>
    <tag k="addr:state" v="VT"/>
    <tag k="ref:vcgi:esiteid" v="196185"/>
  </node>
  <node id="-484" visible="true" lat="43.94471017" lon="-72.6547844">
    <tag k="addr:city" v="Randolph"/>
    <tag k="addr:housenumber" v="129"/>
    <tag k="addr:street" v="Scenic Drive"/>
    <tag k="addr:state" v="VT"/>
    <tag k="ref:vcgi:esiteid" v="196408"/>
  </node>
  <node id="-495" visible="true" lat="43.9438768" lon="-72.62515947">
    <tag k="addr:city" v="Randolph"/>
    <tag k="addr:housenumber" v="1909"/>
    <tag k="addr:street" v="Vermont Route 66"/>
    <tag k="addr:state" v="VT"/>
    <tag k="ref:vcgi:esiteid" v="196420"/>
  </node>
  <node id="-500" visible="true" lat="43.94350877" lon="-72.65299373">
    <tag k="addr:city" v="Randolph"/>
    <tag k="addr:housenumber" v="150"/>
    <tag k="addr:street" v="Scenic Drive"/>
    <tag k="addr:state" v="VT"/>
    <tag k="ref:vcgi:esiteid" v="196425"/>
  </node>
  <node id="-501" visible="true" lat="43.94347" lon="-72.65531158">
    <tag k="addr:city" v="Randolph"/>
    <tag k="addr:housenumber" v="69"/>
    <tag k="addr:street" v="Scenic Drive"/>
    <tag k="addr:state" v="VT"/>
    <tag k="ref:vcgi:esiteid" v="196426"/>
  </node>
  <node id="-508" visible="true" lat="43.94290912" lon="-72.65446181">
    <tag k="addr:city" v="Randolph"/>
    <tag k="addr:housenumber" v="42"/>
    <tag k="addr:street" v="Scenic Drive"/>
    <tag k="addr:state" v="VT"/>
    <tag k="ref:vcgi:esiteid" v="196434"/>
  </node>
  <node id="-539" visible="true" lat="43.94111417" lon="-72.60871381">
    <tag k="addr:city" v="Randolph"/>
    <tag k="addr:housenumber" v="2816"/>
    <tag k="addr:street" v="Vermont Route 66"/>
    <tag k="addr:state" v="VT"/>
    <tag k="ref:vcgi:esiteid" v="196468"/>
  </node>
  <node id="-548" visible="true" lat="43.94040409" lon="-72.60746519">
    <tag k="addr:city" v="Randolph"/>
    <tag k="addr:housenumber" v="14"/>
    <tag k="addr:street" v="East Bethel Road"/>
    <tag k="addr:state" v="VT"/>
    <tag k="ref:vcgi:esiteid" v="196478"/>
  </node>
  <node id="-560" visible="true" lat="43.93984553" lon="-72.60737556">
    <tag k="addr:city" v="Randolph"/>
    <tag k="addr:housenumber" v="66"/>
    <tag k="addr:street" v="East Bethel Road"/>
    <tag k="addr:state" v="VT"/>
    <tag k="ref:vcgi:esiteid" v="196491"/>
  </node>
  <node id="-567" visible="true" lat="43.93937787" lon="-72.60747171">
    <tag k="addr:city" v="Randolph"/>
    <tag k="addr:housenumber" v="86"/>
    <tag k="addr:street" v="East Bethel Road"/>
    <tag k="addr:state" v="VT"/>
    <tag k="ref:vcgi:esiteid" v="196498"/>
  </node>
  <node id="-572" visible="true" lat="43.93904495" lon="-72.60737609">
    <tag k="addr:city" v="Randolph"/>
    <tag k="addr:housenumber" v="116"/>
    <tag k="addr:street" v="East Bethel Road"/>
    <tag k="addr:state" v="VT"/>
    <tag k="ref:vcgi:esiteid" v="196503"/>
  </node>
  <node id="-577" visible="true" lat="43.93872673" lon="-72.61107053">
    <tag k="addr:city" v="Randolph"/>
    <tag k="addr:housenumber" v="178"/>
    <tag k="addr:street" v="Water Street"/>
    <tag k="addr:state" v="VT"/>
    <tag k="ref:vcgi:esiteid" v="196508"/>
  </node>
  <node id="-580" visible="true" lat="43.93869781" lon="-72.60706329">
    <tag k="addr:city" v="Randolph"/>
    <tag k="addr:housenumber" v="142"/>
    <tag k="addr:street" v="East Bethel Road"/>
    <tag k="addr:state" v="VT"/>
    <tag k="ref:vcgi:esiteid" v="196512"/>
  </node>
  <node id="-586" visible="true" lat="43.93827444" lon="-72.60794164">
    <tag k="addr:city" v="Randolph"/>
    <tag k="addr:housenumber" v="62"/>
    <tag k="addr:street" v="Water Street"/>
    <tag k="addr:state" v="VT"/>
    <tag k="ref:vcgi:esiteid" v="196520"/>
  </node>
  <node id="-588" visible="true" lat="43.93826815" lon="-72.60714532">
    <tag k="addr:city" v="Randolph"/>
    <tag k="addr:housenumber" v="22"/>
    <tag k="addr:street" v="Water Street"/>
    <tag k="addr:state" v="VT"/>
    <tag k="ref:vcgi:esiteid" v="196523"/>
  </node>
  <node id="-591" visible="true" lat="43.93821283" lon="-72.60760324">
    <tag k="addr:city" v="Randolph"/>
    <tag k="addr:housenumber" v="44"/>
    <tag k="addr:street" v="Water Street"/>
    <tag k="addr:state" v="VT"/>
    <tag k="ref:vcgi:esiteid" v="196526"/>
  </node>
  <node id="-593" visible="true" lat="43.93842609" lon="-72.60873023">
    <tag k="addr:city" v="Randolph"/>
    <tag k="addr:housenumber" v="94"/>
    <tag k="addr:street" v="Water Street"/>
    <tag k="addr:state" v="VT"/>
    <tag k="ref:vcgi:esiteid" v="196528"/>
  </node>
  <node id="-596" visible="true" lat="43.93808707" lon="-72.6093019">
    <tag k="addr:city" v="Randolph"/>
    <tag k="addr:housenumber" v="142"/>
    <tag k="addr:street" v="Water Street"/>
    <tag k="addr:state" v="VT"/>
    <tag k="ref:vcgi:esiteid" v="196532"/>
  </node>
  <node id="-599" visible="true" lat="43.93796734" lon="-72.60694192">
    <tag k="addr:city" v="Randolph"/>
    <tag k="addr:housenumber" v="21"/>
    <tag k="addr:street" v="Water Street"/>
    <tag k="addr:state" v="VT"/>
    <tag k="ref:vcgi:esiteid" v="196535"/>
  </node>
  <node id="-602" visible="true" lat="43.93789103" lon="-72.60745864">
    <tag k="addr:city" v="Randolph"/>
    <tag k="addr:housenumber" v="45"/>
    <tag k="addr:street" v="Water Street"/>
    <tag k="addr:state" v="VT"/>
    <tag k="ref:vcgi:esiteid" v="196539"/>
  </node>
  <node id="-603" visible="true" lat="43.93787328" lon="-72.60779405">
    <tag k="addr:city" v="Randolph"/>
    <tag k="addr:housenumber" v="57"/>
    <tag k="addr:street" v="Water Street"/>
    <tag k="addr:state" v="VT"/>
    <tag k="ref:vcgi:esiteid" v="196540"/>
  </node>
  <node id="-606" visible="true" lat="43.93781034" lon="-72.60588235">
    <tag k="addr:city" v="Randolph"/>
    <tag k="addr:housenumber" v="209"/>
    <tag k="addr:street" v="East Bethel Road"/>
    <tag k="addr:state" v="VT"/>
    <tag k="ref:vcgi:esiteid" v="196543"/>
  </node>
  <node id="-610" visible="true" lat="43.93774327" lon="-72.60681291">
    <tag k="addr:city" v="Randolph"/>
    <tag k="addr:housenumber" v="204"/>
    <tag k="addr:street" v="East Bethel Road"/>
    <tag k="addr:state" v="VT"/>
    <tag k="ref:vcgi:esiteid" v="196547"/>
  </node>
  <node id="-612" visible="true" lat="43.93772977" lon="-72.60860888">
    <tag k="addr:city" v="Randolph"/>
    <tag k="addr:housenumber" v="103"/>
    <tag k="addr:street" v="Water Street"/>
    <tag k="addr:state" v="VT"/>
    <tag k="ref:vcgi:esiteid" v="196549"/>
  </node>
  <node id="-614" visible="true" lat="43.93759918" lon="-72.65342712">
    <tag k="addr:city" v="Randolph"/>
    <tag k="addr:housenumber" v="460"/>
    <tag k="addr:street" v="Windover Road"/>
    <tag k="addr:state" v="VT"/>
    <tag k="ref:vcgi:esiteid" v="196551"/>
  </node>
  <node id="-619" visible="true" lat="43.93752288" lon="-72.61048889">
    <tag k="addr:city" v="Randolph"/>
    <tag k="addr:housenumber" v="177"/>
    <tag k="addr:street" v="Water Street"/>
    <tag k="addr:state" v="VT"/>
    <tag k="ref:vcgi:esiteid" v="196556"/>
  </node>
  <node id="-623" visible="true" lat="43.93732837" lon="-72.60579753">
    <tag k="addr:city" v="Randolph"/>
    <tag k="addr:housenumber" v="46"/>
    <tag k="addr:street" v="South Randolph Road"/>
    <tag k="addr:state" v="VT"/>
    <tag k="ref:vcgi:esiteid" v="196560"/>
  </node>
  <node id="-630" visible="true" lat="43.93696114" lon="-72.607674">
    <tag k="addr:city" v="Randolph"/>
    <tag k="addr:housenumber" v="67"/>
    <tag k="addr:street" v="Ski Tow Road"/>
    <tag k="addr:state" v="VT"/>
    <tag k="ref:vcgi:esiteid" v="196569"/>
  </node>
  <node id="-637" visible="true" lat="43.93679233" lon="-72.60653828">
    <tag k="addr:city" v="Randolph"/>
    <tag k="addr:housenumber" v="274"/>
    <tag k="addr:street" v="East Bethel Road"/>
    <tag k="addr:state" v="VT"/>
    <tag k="ref:vcgi:esiteid" v="196577"/>
  </node>
  <node id="-644" visible="true" lat="43.93664545" lon="-72.60829366">
    <tag k="addr:city" v="Randolph"/>
    <tag k="addr:housenumber" v="85"/>
    <tag k="addr:street" v="Ski Tow Road"/>
    <tag k="addr:state" v="VT"/>
    <tag k="ref:vcgi:esiteid" v="196584"/>
  </node>
  <node id="-647" visible="true" lat="43.93644932" lon="-72.6075232">
    <tag k="addr:city" v="Randolph"/>
    <tag k="addr:housenumber" v="79"/>
    <tag k="addr:street" v="Ski Tow Road"/>
    <tag k="addr:state" v="VT"/>
    <tag k="ref:vcgi:esiteid" v="196587"/>
  </node>
  <node id="-653" visible="true" lat="43.93630171" lon="-72.60653433">
    <tag k="addr:city" v="Randolph"/>
    <tag k="addr:housenumber" v="312"/>
    <tag k="addr:street" v="East Bethel Road"/>
    <tag k="addr:state" v="VT"/>
    <tag k="ref:vcgi:esiteid" v="196593"/>
  </node>
  <node id="-654" visible="true" lat="43.93622791" lon="-72.60590035">
    <tag k="addr:city" v="Randolph"/>
    <tag k="addr:housenumber" v="315"/>
    <tag k="addr:street" v="East Bethel Road"/>
    <tag k="addr:state" v="VT"/>
    <tag k="ref:vcgi:esiteid" v="196594"/>
  </node>
  <node id="-655" visible="true" lat="43.93619549" lon="-72.65336543">
    <tag k="addr:city" v="Randolph"/>
    <tag k="addr:housenumber" v="353"/>
    <tag k="addr:street" v="Windover Road"/>
    <tag k="addr:state" v="VT"/>
    <tag k="ref:vcgi:esiteid" v="196595"/>
  </node>
  <node id="-656" visible="true" lat="43.93614578" lon="-72.65802764">
    <tag k="addr:city" v="Randolph"/>
    <tag k="addr:housenumber" v="80"/>
    <tag k="addr:street" v="Sugar Plum Court"/>
    <tag k="addr:state" v="VT"/>
    <tag k="ref:vcgi:esiteid" v="196596"/>
  </node>
  <node id="-657" visible="true" lat="43.93602055" lon="-72.65907429">
    <tag k="addr:city" v="Randolph"/>
    <tag k="addr:housenumber" v="142"/>
    <tag k="addr:street" v="Sugar Plum Court"/>
    <tag k="addr:state" v="VT"/>
    <tag k="ref:vcgi:esiteid" v="196598"/>
  </node>
  <node id="-658" visible="true" lat="43.93594741" lon="-72.6587677">
    <tag k="addr:city" v="Randolph"/>
    <tag k="addr:housenumber" v="118"/>
    <tag k="addr:street" v="Sugar Plum Court"/>
    <tag k="addr:state" v="VT"/>
    <tag k="ref:vcgi:esiteid" v="196600"/>
  </node>
  <node id="-659" visible="true" lat="43.9360396" lon="-72.6098091">
    <tag k="addr:city" v="Randolph"/>
    <tag k="addr:housenumber" v="155"/>
    <tag k="addr:street" v="Ski Tow Road"/>
    <tag k="addr:state" v="VT"/>
    <tag k="ref:vcgi:esiteid" v="196601"/>
  </node>
  <node id="-667" visible="true" lat="43.93567256" lon="-72.65950099">
    <tag k="addr:city" v="Randolph"/>
    <tag k="addr:housenumber" v="149"/>
    <tag k="addr:street" v="Sugar Plum Court"/>
    <tag k="addr:state" v="VT"/>
    <tag k="ref:vcgi:esiteid" v="196609"/>
  </node>
  <node id="-670" visible="true" lat="43.93567009" lon="-72.60975654">
    <tag k="addr:city" v="Randolph"/>
    <tag k="addr:housenumber" v="157"/>
    <tag k="addr:street" v="Ski Tow Road"/>
    <tag k="addr:state" v="VT"/>
    <tag k="ref:vcgi:esiteid" v="196612"/>
  </node>
  <node id="-673" visible="true" lat="43.93542108" lon="-72.60632644">
    <tag k="addr:city" v="Randolph"/>
    <tag k="addr:housenumber" v="368"/>
    <tag k="addr:street" v="East Bethel Road"/>
    <tag k="addr:state" v="VT"/>
    <tag k="ref:vcgi:esiteid" v="196615"/>
  </node>
  <node id="-675" visible="true" lat="43.93537992" lon="-72.60500239">
    <tag k="addr:city" v="Randolph"/>
    <tag k="addr:housenumber" v="359"/>
    <tag k="addr:street" v="East Bethel Road"/>
    <tag k="addr:state" v="VT"/>
    <tag k="ref:vcgi:esiteid" v="196617"/>
  </node>
  <node id="-688" visible="true" lat="43.93481824" lon="-72.61015836">
    <tag k="addr:city" v="Randolph"/>
    <tag k="addr:housenumber" v="275"/>
    <tag k="addr:street" v="Ski Tow Road"/>
    <tag k="addr:state" v="VT"/>
    <tag k="ref:vcgi:esiteid" v="196630"/>
  </node>
  <node id="-697" visible="true" lat="43.93418591" lon="-72.66270881">
    <tag k="addr:city" v="Randolph"/>
    <tag k="addr:housenumber" v="13"/>
    <tag k="addr:street" v="Hargrace Drive"/>
    <tag k="addr:state" v="VT"/>
    <tag k="ref:vcgi:esiteid" v="196640"/>
  </node>
  <node id="-699" visible="true" lat="43.93409114" lon="-72.65708371">
    <tag k="addr:city" v="Randolph"/>
    <tag k="addr:housenumber" v="22"/>
    <tag k="addr:street" v="Cowdrey Drive"/>
    <tag k="addr:state" v="VT"/>
    <tag k="ref:vcgi:esiteid" v="196642"/>
  </node>
  <node id="-702" visible="true" lat="43.93405621" lon="-72.66324549">
    <tag k="addr:city" v="Randolph"/>
    <tag k="addr:housenumber" v="15"/>
    <tag k="addr:street" v="Hargrace Drive"/>
    <tag k="addr:state" v="VT"/>
    <tag k="ref:vcgi:esiteid" v="196646"/>
  </node>
  <node id="-704" visible="true" lat="43.93389782" lon="-72.61116196">
    <tag k="addr:city" v="Randolph"/>
    <tag k="addr:housenumber" v="341"/>
    <tag k="addr:street" v="Ski Tow Road"/>
    <tag k="addr:state" v="VT"/>
    <tag k="ref:vcgi:esiteid" v="196648"/>
  </node>
  <node id="-706" visible="true" lat="43.93410684" lon="-72.53676991">
    <tag k="addr:city" v="Randolph"/>
    <tag k="addr:housenumber" v="803"/>
    <tag k="addr:street" v="Tunbridge Road"/>
    <tag k="addr:state" v="VT"/>
    <tag k="ref:vcgi:esiteid" v="196650"/>
  </node>
  <node id="-708" visible="true" lat="43.93392189" lon="-72.66417329">
    <tag k="addr:city" v="Randolph"/>
    <tag k="addr:housenumber" v="12"/>
    <tag k="addr:street" v="Hargrace Drive"/>
    <tag k="addr:state" v="VT"/>
    <tag k="ref:vcgi:esiteid" v="196652"/>
  </node>
  <node id="-709" visible="true" lat="43.93392612" lon="-72.65699664">
    <tag k="addr:city" v="Randolph"/>
    <tag k="addr:housenumber" v="38"/>
    <tag k="addr:street" v="Cowdrey Drive"/>
    <tag k="addr:state" v="VT"/>
    <tag k="ref:vcgi:esiteid" v="196653"/>
  </node>
  <node id="-711" visible="true" lat="43.93384307" lon="-72.65694818">
    <tag k="addr:city" v="Randolph"/>
    <tag k="addr:housenumber" v="46"/>
    <tag k="addr:street" v="Cowdrey Drive"/>
    <tag k="addr:state" v="VT"/>
    <tag k="ref:vcgi:esiteid" v="196655"/>
  </node>
  <node id="-713" visible="true" lat="43.93383481" lon="-72.66259591">
    <tag k="addr:city" v="Randolph"/>
    <tag k="addr:housenumber" v="11"/>
    <tag k="addr:street" v="Hargrace Drive"/>
    <tag k="addr:state" v="VT"/>
    <tag k="ref:vcgi:esiteid" v="196658"/>
  </node>
  <node id="-714" visible="true" lat="43.93382036" lon="-72.61228165">
    <tag k="addr:city" v="Randolph"/>
    <tag k="addr:housenumber" v="403"/>
    <tag k="addr:street" v="Ski Tow Road"/>
    <tag k="addr:state" v="VT"/>
    <tag k="ref:vcgi:esiteid" v="196659"/>
  </node>
  <node id="-715" visible="true" lat="43.93376931" lon="-72.65682958">
    <tag k="addr:city" v="Randolph"/>
    <tag k="addr:housenumber" v="50"/>
    <tag k="addr:street" v="Cowdrey Drive"/>
    <tag k="addr:state" v="VT"/>
    <tag k="ref:vcgi:esiteid" v="196660"/>
  </node>
  <node id="-716" visible="true" lat="43.93375778" lon="-72.65827941">
    <tag k="addr:city" v="Randolph"/>
    <tag k="addr:housenumber" v="40"/>
    <tag k="addr:street" v="Forest Street"/>
    <tag k="addr:state" v="VT"/>
    <tag k="ref:vcgi:esiteid" v="196661"/>
  </node>
  <node id="-717" visible="true" lat="43.9337672" lon="-72.66490009">
    <tag k="addr:city" v="Randolph"/>
    <tag k="addr:housenumber" v="30"/>
    <tag k="addr:street" v="Elm Street"/>
    <tag k="addr:state" v="VT"/>
    <tag k="ref:vcgi:esiteid" v="196662"/>
  </node>
  <node id="-718" visible="true" lat="43.9337826" lon="-72.65657475">
    <tag k="addr:city" v="Randolph"/>
    <tag k="addr:housenumber" v="63"/>
    <tag k="addr:street" v="Cowdrey Drive"/>
    <tag k="addr:state" v="VT"/>
    <tag k="ref:vcgi:esiteid" v="196663"/>
  </node>
  <node id="-719" visible="true" lat="43.9336973" lon="-72.65676092">
    <tag k="addr:city" v="Randolph"/>
    <tag k="addr:housenumber" v="56"/>
    <tag k="addr:street" v="Cowdrey Drive"/>
    <tag k="addr:state" v="VT"/>
    <tag k="ref:vcgi:esiteid" v="196664"/>
  </node>
  <node id="-720" visible="true" lat="43.93361784" lon="-72.66308437">
    <tag k="addr:city" v="Randolph"/>
    <tag k="addr:housenumber" v="9"/>
    <tag k="addr:street" v="Hargrace Drive"/>
    <tag k="addr:state" v="VT"/>
    <tag k="ref:vcgi:esiteid" v="196665"/>
  </node>
  <node id="-721" visible="true" lat="43.93364334" lon="-72.66369628">
    <tag k="addr:city" v="Randolph"/>
    <tag k="addr:housenumber" v="10"/>
    <tag k="addr:street" v="Hargrace Drive"/>
    <tag k="addr:state" v="VT"/>
    <tag k="ref:vcgi:esiteid" v="196666"/>
  </node>
  <node id="-722" visible="true" lat="43.93361579" lon="-72.65670078">
    <tag k="addr:city" v="Randolph"/>
    <tag k="addr:housenumber" v="62"/>
    <tag k="addr:street" v="Cowdrey Drive"/>
    <tag k="addr:state" v="VT"/>
    <tag k="ref:vcgi:esiteid" v="196667"/>
  </node>
  <node id="-727" visible="true" lat="43.93351364" lon="-72.65872955">
    <tag k="addr:city" v="Randolph"/>
    <tag k="addr:housenumber" v="38"/>
    <tag k="addr:street" v="Forest Street"/>
    <tag k="addr:state" v="VT"/>
    <tag k="ref:vcgi:esiteid" v="196673"/>
  </node>
  <node id="-728" visible="true" lat="43.93352318" lon="-72.65664621">
    <tag k="addr:city" v="Randolph"/>
    <tag k="addr:housenumber" v="72"/>
    <tag k="addr:street" v="Cowdrey Drive"/>
    <tag k="addr:state" v="VT"/>
    <tag k="ref:vcgi:esiteid" v="196674"/>
  </node>
  <node id="-730" visible="true" lat="43.93348312" lon="-72.66416931">
    <tag k="addr:city" v="Randolph"/>
    <tag k="addr:housenumber" v="29"/>
    <tag k="addr:street" v="Elm Street"/>
    <tag k="addr:state" v="VT"/>
    <tag k="ref:vcgi:esiteid" v="196676"/>
  </node>
  <node id="-731" visible="true" lat="43.93349412" lon="-72.6563754">
    <tag k="addr:city" v="Randolph"/>
    <tag k="addr:housenumber" v="83"/>
    <tag k="addr:street" v="Cowdrey Drive"/>
    <tag k="addr:state" v="VT"/>
    <tag k="ref:vcgi:esiteid" v="196677"/>
  </node>
  <node id="-734" visible="true" lat="43.93343356" lon="-72.656575">
    <tag k="addr:city" v="Randolph"/>
    <tag k="addr:housenumber" v="78"/>
    <tag k="addr:street" v="Cowdrey Drive"/>
    <tag k="addr:state" v="VT"/>
    <tag k="ref:vcgi:esiteid" v="196680"/>
  </node>
  <node id="-736" visible="true" lat="43.93347525" lon="-72.61317402">
    <tag k="addr:city" v="Randolph"/>
    <tag k="addr:housenumber" v="444"/>
    <tag k="addr:street" v="Ski Tow Road"/>
    <tag k="addr:state" v="VT"/>
    <tag k="ref:vcgi:esiteid" v="196682"/>
  </node>
  <node id="-738" visible="true" lat="43.93332871" lon="-72.65647101">
    <tag k="addr:city" v="Randolph"/>
    <tag k="addr:housenumber" v="86"/>
    <tag k="addr:street" v="Cowdrey Drive"/>
    <tag k="addr:state" v="VT"/>
    <tag k="ref:vcgi:esiteid" v="196684"/>
  </node>
  <node id="-740" visible="true" lat="43.9332329" lon="-72.6582961">
    <tag k="addr:city" v="Randolph"/>
    <tag k="addr:housenumber" v="37"/>
    <tag k="addr:street" v="Forest Street"/>
    <tag k="addr:state" v="VT"/>
    <tag k="ref:vcgi:esiteid" v="196686"/>
  </node>
  <node id="-743" visible="true" lat="43.93316041" lon="-72.6628794">
    <tag k="addr:city" v="Randolph"/>
    <tag k="addr:housenumber" v="7"/>
    <tag k="addr:street" v="Hargrace Drive"/>
    <tag k="addr:state" v="VT"/>
    <tag k="ref:vcgi:esiteid" v="196690"/>
  </node>
  <node id="-746" visible="true" lat="43.9331398" lon="-72.65854644">
    <tag k="addr:city" v="Randolph"/>
    <tag k="addr:housenumber" v="35"/>
    <tag k="addr:street" v="Forest Street"/>
    <tag k="addr:state" v="VT"/>
    <tag k="ref:vcgi:esiteid" v="196693"/>
  </node>
  <node id="-747" visible="true" lat="43.93308639" lon="-72.65938568">
    <tag k="addr:city" v="Randolph"/>
    <tag k="addr:housenumber" v="34"/>
    <tag k="addr:street" v="Forest Street"/>
    <tag k="addr:state" v="VT"/>
    <tag k="ref:vcgi:esiteid" v="196694"/>
  </node>
  <node id="-748" visible="true" lat="43.93307495" lon="-72.66352844">
    <tag k="addr:city" v="Randolph"/>
    <tag k="addr:housenumber" v="6"/>
    <tag k="addr:street" v="Hargrace Drive"/>
    <tag k="addr:state" v="VT"/>
    <tag k="ref:vcgi:esiteid" v="196695"/>
  </node>
  <node id="-751" visible="true" lat="43.93297195" lon="-72.6639862">
    <tag k="addr:city" v="Randolph"/>
    <tag k="addr:housenumber" v="27"/>
    <tag k="addr:street" v="Elm Street"/>
    <tag k="addr:state" v="VT"/>
    <tag k="ref:vcgi:esiteid" v="196698"/>
  </node>
  <node id="-754" visible="true" lat="43.93290352" lon="-72.66214951">
    <tag k="addr:city" v="Randolph"/>
    <tag k="addr:housenumber" v="7"/>
    <tag k="addr:street" v="Pine Ridge Road"/>
    <tag k="addr:state" v="VT"/>
    <tag k="ref:vcgi:esiteid" v="196701"/>
  </node>
  <node id="-755" visible="true" lat="43.93294143" lon="-72.66454315">
    <tag k="addr:city" v="Randolph"/>
    <tag k="addr:housenumber" v="28"/>
    <tag k="addr:street" v="Elm Street"/>
    <tag k="addr:state" v="VT"/>
    <tag k="ref:vcgi:esiteid" v="196702"/>
  </node>
  <node id="-756" visible="true" lat="43.93287447" lon="-72.65889996">
    <tag k="addr:city" v="Randolph"/>
    <tag k="addr:housenumber" v="33"/>
    <tag k="addr:street" v="Forest Street"/>
    <tag k="addr:state" v="VT"/>
    <tag k="ref:vcgi:esiteid" v="196704"/>
  </node>
  <node id="-757" visible="true" lat="43.93280029" lon="-72.6627655">
    <tag k="addr:city" v="Randolph"/>
    <tag k="addr:housenumber" v="5"/>
    <tag k="addr:street" v="Hargrace Drive"/>
    <tag k="addr:state" v="VT"/>
    <tag k="ref:vcgi:esiteid" v="196705"/>
  </node>
  <node id="-762" visible="true" lat="43.93270253" lon="-72.66386406">
    <tag k="addr:city" v="Randolph"/>
    <tag k="addr:housenumber" v="25"/>
    <tag k="addr:street" v="Elm Street"/>
    <tag k="addr:state" v="VT"/>
    <tag k="ref:vcgi:esiteid" v="196710"/>
  </node>
  <node id="-763" visible="true" lat="43.93266804" lon="-72.66335378">
    <tag k="addr:city" v="Randolph"/>
    <tag k="addr:housenumber" v="4"/>
    <tag k="addr:street" v="Hargrace Drive"/>
    <tag k="addr:state" v="VT"/>
    <tag k="ref:vcgi:esiteid" v="196711"/>
  </node>
  <node id="-764" visible="true" lat="43.93262863" lon="-72.65923309">
    <tag k="addr:city" v="Randolph"/>
    <tag k="addr:housenumber" v="29"/>
    <tag k="addr:street" v="Forest Street"/>
    <tag k="addr:state" v="VT"/>
    <tag k="ref:vcgi:esiteid" v="196712"/>
  </node>
  <node id="-768" visible="true" lat="43.93260955" lon="-72.60144805">
    <tag k="addr:city" v="Randolph"/>
    <tag k="addr:housenumber" v="440"/>
    <tag k="addr:street" v="South Randolph Road"/>
    <tag k="addr:state" v="VT"/>
    <tag k="ref:vcgi:esiteid" v="196716"/>
  </node>
  <node id="-769" visible="true" lat="43.93250948" lon="-72.66030563">
    <tag k="addr:city" v="Randolph"/>
    <tag k="addr:housenumber" v="32"/>
    <tag k="addr:street" v="Forest Street"/>
    <tag k="addr:state" v="VT"/>
    <tag k="ref:vcgi:esiteid" v="196717"/>
  </node>
  <node id="-770" visible="true" lat="43.93248259" lon="-72.66207406">
    <tag k="addr:city" v="Randolph"/>
    <tag k="addr:housenumber" v="5"/>
    <tag k="addr:street" v="Pine Ridge Road"/>
    <tag k="addr:state" v="VT"/>
    <tag k="ref:vcgi:esiteid" v="196718"/>
  </node>
  <node id="-772" visible="true" lat="43.93245937" lon="-72.66449067">
    <tag k="addr:city" v="Randolph"/>
    <tag k="addr:housenumber" v="26"/>
    <tag k="addr:street" v="Elm Street"/>
    <tag k="addr:state" v="VT"/>
    <tag k="ref:vcgi:esiteid" v="196720"/>
  </node>
  <node id="-773" visible="true" lat="43.93245119" lon="-72.65946049">
    <tag k="addr:city" v="Randolph"/>
    <tag k="addr:housenumber" v="27"/>
    <tag k="addr:street" v="Forest Street"/>
    <tag k="addr:state" v="VT"/>
    <tag k="ref:vcgi:esiteid" v="196721"/>
  </node>
  <node id="-775" visible="true" lat="43.93253626" lon="-72.60513529">
    <tag k="addr:city" v="Randolph"/>
    <tag k="addr:housenumber" v="581"/>
    <tag k="addr:street" v="East Bethel Road"/>
    <tag k="addr:state" v="VT"/>
    <tag k="ref:vcgi:esiteid" v="196723"/>
  </node>
  <node id="-776" visible="true" lat="43.93237686" lon="-72.66260528">
    <tag k="addr:city" v="Randolph"/>
    <tag k="addr:housenumber" v="3"/>
    <tag k="addr:street" v="Hargrace Drive"/>
    <tag k="addr:state" v="VT"/>
    <tag k="ref:vcgi:esiteid" v="196724"/>
  </node>
  <node id="-777" visible="true" lat="43.93237584" lon="-72.66375747">
    <tag k="addr:city" v="Randolph"/>
    <tag k="addr:housenumber" v="23"/>
    <tag k="addr:street" v="Elm Street"/>
    <tag k="addr:state" v="VT"/>
    <tag k="ref:vcgi:esiteid" v="196725"/>
  </node>
  <node id="-778" visible="true" lat="43.93222245" lon="-72.66054727">
    <tag k="addr:city" v="Randolph"/>
    <tag k="addr:housenumber" v="28"/>
    <tag k="addr:street" v="Forest Street"/>
    <tag k="addr:state" v="VT"/>
    <tag k="ref:vcgi:esiteid" v="196726"/>
  </node>
  <node id="-781" visible="true" lat="43.93225225" lon="-72.66320773">
    <tag k="addr:city" v="Randolph"/>
    <tag k="addr:housenumber" v="2"/>
    <tag k="addr:street" v="Hargrace Drive"/>
    <tag k="addr:state" v="VT"/>
    <tag k="ref:vcgi:esiteid" v="196730"/>
  </node>
  <node id="-783" visible="true" lat="43.93222808" lon="-72.65078735">
    <tag k="addr:city" v="Randolph"/>
    <tag k="addr:housenumber" v="35"/>
    <tag k="addr:street" v="Windover Road"/>
    <tag k="addr:state" v="VT"/>
    <tag k="ref:vcgi:esiteid" v="196732"/>
  </node>
  <node id="-784" visible="true" lat="43.93206763" lon="-72.65972075">
    <tag k="addr:city" v="Randolph"/>
    <tag k="addr:housenumber" v="25"/>
    <tag k="addr:street" v="Forest Street"/>
    <tag k="addr:state" v="VT"/>
    <tag k="ref:vcgi:esiteid" v="196733"/>
  </node>
  <node id="-786" visible="true" lat="43.93208136" lon="-72.66070059">
    <tag k="addr:city" v="Randolph"/>
    <tag k="addr:housenumber" v="26"/>
    <tag k="addr:street" v="Forest Street"/>
    <tag k="addr:state" v="VT"/>
    <tag k="ref:vcgi:esiteid" v="196736"/>
  </node>
  <node id="-789" visible="true" lat="43.93207787" lon="-72.66364398">
    <tag k="addr:city" v="Randolph"/>
    <tag k="addr:housenumber" v="21"/>
    <tag k="addr:street" v="Elm Street"/>
    <tag k="addr:state" v="VT"/>
    <tag k="ref:vcgi:esiteid" v="196739"/>
  </node>
  <node id="-790" visible="true" lat="43.93223981" lon="-72.53666713">
    <tag k="addr:city" v="Randolph"/>
    <tag k="addr:housenumber" v="864"/>
    <tag k="addr:street" v="Tunbridge Road"/>
    <tag k="addr:state" v="VT"/>
    <tag k="ref:vcgi:esiteid" v="196740"/>
  </node>
  <node id="-793" visible="true" lat="43.93200684" lon="-72.660211">
    <tag k="addr:city" v="Randolph"/>
    <tag k="addr:housenumber" v="23"/>
    <tag k="addr:street" v="Forest Street"/>
    <tag k="addr:state" v="VT"/>
    <tag k="ref:vcgi:esiteid" v="196743"/>
  </node>
  <node id="-797" visible="true" lat="43.9318428" lon="-72.66417694">
    <tag k="addr:city" v="Randolph"/>
    <tag k="addr:housenumber" v="22"/>
    <tag k="addr:street" v="Elm Street"/>
    <tag k="addr:state" v="VT"/>
    <tag k="ref:vcgi:esiteid" v="196747"/>
  </node>
  <node id="-798" visible="true" lat="43.93181235" lon="-72.66087988">
    <tag k="addr:city" v="Randolph"/>
    <tag k="addr:housenumber" v="24"/>
    <tag k="addr:street" v="Forest Street"/>
    <tag k="addr:state" v="VT"/>
    <tag k="ref:vcgi:esiteid" v="196748"/>
  </node>
  <node id="-800" visible="true" lat="43.9317721" lon="-72.66039982">
    <tag k="addr:city" v="Randolph"/>
    <tag k="addr:housenumber" v="21"/>
    <tag k="addr:street" v="Forest Street"/>
    <tag k="addr:state" v="VT"/>
    <tag k="ref:vcgi:esiteid" v="196750"/>
  </node>
  <node id="-802" visible="true" lat="43.93169648" lon="-72.66291561">
    <tag k="addr:city" v="Randolph"/>
    <tag k="addr:housenumber" v="1"/>
    <tag k="addr:street" v="Pine Ridge Road"/>
    <tag k="addr:state" v="VT"/>
    <tag k="ref:vcgi:esiteid" v="196752"/>
  </node>
  <node id="-804" visible="true" lat="43.93177565" lon="-72.60354142">
    <tag k="addr:city" v="Randolph"/>
    <tag k="addr:housenumber" v="641"/>
    <tag k="addr:street" v="East Bethel Road"/>
    <tag k="addr:state" v="VT"/>
    <tag k="ref:vcgi:esiteid" v="196754"/>
  </node>
  <node id="-806" visible="true" lat="43.93157338" lon="-72.66345227">
    <tag k="addr:city" v="Randolph"/>
    <tag k="addr:housenumber" v="19"/>
    <tag k="addr:street" v="Elm Street"/>
    <tag k="addr:state" v="VT"/>
    <tag k="ref:vcgi:esiteid" v="196756"/>
  </node>
  <node id="-808" visible="true" lat="43.93157196" lon="-72.65918731">
    <tag k="addr:city" v="Randolph"/>
    <tag k="addr:housenumber" v="17"/>
    <tag k="addr:street" v="Forest Street"/>
    <tag k="addr:state" v="VT"/>
    <tag k="ref:vcgi:esiteid" v="196758"/>
  </node>
  <node id="-809" visible="true" lat="43.93156433" lon="-72.66403961">
    <tag k="addr:city" v="Randolph"/>
    <tag k="addr:housenumber" v="20"/>
    <tag k="addr:street" v="Elm Street"/>
    <tag k="addr:state" v="VT"/>
    <tag k="ref:vcgi:esiteid" v="196759"/>
  </node>
  <node id="-810" visible="true" lat="43.93161773" lon="-72.66039888">
    <tag k="addr:city" v="Randolph"/>
    <tag k="addr:housenumber" v="19"/>
    <tag k="addr:street" v="Forest Street"/>
    <tag k="addr:state" v="VT"/>
    <tag k="ref:vcgi:esiteid" v="196760"/>
  </node>
  <node id="-817" visible="true" lat="43.93127059" lon="-72.66333007">
    <tag k="addr:city" v="Randolph"/>
    <tag k="addr:housenumber" v="17"/>
    <tag k="addr:street" v="Elm Street"/>
    <tag k="addr:state" v="VT"/>
    <tag k="ref:vcgi:esiteid" v="196768"/>
  </node>
  <node id="-818" visible="true" lat="43.93125374" lon="-72.66125501">
    <tag k="addr:city" v="Randolph"/>
    <tag k="addr:housenumber" v="20"/>
    <tag k="addr:street" v="Forest Street"/>
    <tag k="addr:state" v="VT"/>
    <tag k="ref:vcgi:esiteid" v="196769"/>
  </node>
  <node id="-825" visible="true" lat="43.93117658" lon="-72.60544391">
    <tag k="addr:city" v="Randolph"/>
    <tag k="addr:housenumber" v="672"/>
    <tag k="addr:street" v="East Bethel Road"/>
    <tag k="addr:state" v="VT"/>
    <tag k="ref:vcgi:esiteid" v="196776"/>
  </node>
  <node id="-829" visible="true" lat="43.93108784" lon="-72.66384481">
    <tag k="addr:city" v="Randolph"/>
    <tag k="addr:housenumber" v="16"/>
    <tag k="addr:street" v="Elm Street"/>
    <tag k="addr:state" v="VT"/>
    <tag k="ref:vcgi:esiteid" v="196780"/>
  </node>
  <node id="-832" visible="true" lat="43.93100993" lon="-72.66313352">
    <tag k="addr:city" v="Randolph"/>
    <tag k="addr:housenumber" v="15"/>
    <tag k="addr:street" v="Elm Street"/>
    <tag k="addr:state" v="VT"/>
    <tag k="ref:vcgi:esiteid" v="196783"/>
  </node>
  <node id="-834" visible="true" lat="43.93081813" lon="-72.66377075">
    <tag k="addr:city" v="Randolph"/>
    <tag k="addr:housenumber" v="14"/>
    <tag k="addr:street" v="Elm Street"/>
    <tag k="addr:state" v="VT"/>
    <tag k="ref:vcgi:esiteid" v="196785"/>
  </node>
  <node id="-836" visible="true" lat="43.93083401" lon="-72.66166041">
    <tag k="addr:city" v="Randolph"/>
    <tag k="addr:housenumber" v="18"/>
    <tag k="addr:street" v="Forest Street"/>
    <tag k="addr:state" v="VT"/>
    <tag k="ref:vcgi:esiteid" v="196787"/>
  </node>
  <node id="-839" visible="true" lat="43.93064087" lon="-72.66182809">
    <tag k="addr:city" v="Randolph"/>
    <tag k="addr:housenumber" v="16"/>
    <tag k="addr:street" v="Forest Street"/>
    <tag k="addr:state" v="VT"/>
    <tag k="ref:vcgi:esiteid" v="196791"/>
  </node>
  <node id="-840" visible="true" lat="43.93061862" lon="-72.66364815">
    <tag k="addr:city" v="Randolph"/>
    <tag k="addr:housenumber" v="12"/>
    <tag k="addr:street" v="Elm Street"/>
    <tag k="addr:state" v="VT"/>
    <tag k="ref:vcgi:esiteid" v="196792"/>
  </node>
  <node id="-841" visible="true" lat="43.93057995" lon="-72.66307108">
    <tag k="addr:city" v="Randolph"/>
    <tag k="addr:housenumber" v="11"/>
    <tag k="addr:street" v="Elm Street"/>
    <tag k="addr:state" v="VT"/>
    <tag k="ref:vcgi:esiteid" v="196793"/>
  </node>
  <node id="-844" visible="true" lat="43.93037057" lon="-72.67721319">
    <tag k="addr:city" v="Randolph"/>
    <tag k="addr:housenumber" v="399"/>
    <tag k="addr:street" v="Wallace Hill Road"/>
    <tag k="addr:state" v="VT"/>
    <tag k="ref:vcgi:esiteid" v="196796"/>
  </node>
  <node id="-847" visible="true" lat="43.93030548" lon="-72.66133117">
    <tag k="addr:city" v="Randolph"/>
    <tag k="addr:housenumber" v="13"/>
    <tag k="addr:street" v="Forest Street"/>
    <tag k="addr:state" v="VT"/>
    <tag k="ref:vcgi:esiteid" v="196799"/>
  </node>
  <node id="-849" visible="true" lat="43.93033178" lon="-72.66297769">
    <tag k="addr:city" v="Randolph"/>
    <tag k="addr:housenumber" v="9"/>
    <tag k="addr:street" v="Elm Street"/>
    <tag k="addr:state" v="VT"/>
    <tag k="ref:vcgi:esiteid" v="196801"/>
  </node>
  <node id="-850" visible="true" lat="43.93025319" lon="-72.66350503">
    <tag k="addr:city" v="Randolph"/>
    <tag k="addr:housenumber" v="10"/>
    <tag k="addr:street" v="Elm Street"/>
    <tag k="addr:state" v="VT"/>
    <tag k="ref:vcgi:esiteid" v="196802"/>
  </node>
  <node id="-851" visible="true" lat="43.93028092" lon="-72.66270881">
    <tag k="addr:city" v="Randolph"/>
    <tag k="addr:housenumber" v="7"/>
    <tag k="addr:street" v="Elm Street"/>
    <tag k="addr:state" v="VT"/>
    <tag k="ref:vcgi:esiteid" v="196804"/>
  </node>
  <node id="-853" visible="true" lat="43.93041686" lon="-72.66201066">
    <tag k="addr:city" v="Randolph"/>
    <tag k="addr:housenumber" v="14"/>
    <tag k="addr:street" v="Forest Street"/>
    <tag k="addr:state" v="VT"/>
    <tag k="ref:vcgi:esiteid" v="196806"/>
  </node>
  <node id="-854" visible="true" lat="43.93024035" lon="-72.67217535">
    <tag k="addr:city" v="Randolph"/>
    <tag k="addr:housenumber" v="3"/>
    <tag k="addr:street" v="Deer Run"/>
    <tag k="addr:state" v="VT"/>
    <tag k="ref:vcgi:esiteid" v="196807"/>
  </node>
  <node id="-856" visible="true" lat="43.93006868" lon="-72.67644365">
    <tag k="addr:city" v="Randolph"/>
    <tag k="addr:housenumber" v="363"/>
    <tag k="addr:street" v="Wallace Hill Road"/>
    <tag k="addr:state" v="VT"/>
    <tag k="ref:vcgi:esiteid" v="196809"/>
  </node>
  <node id="-858" visible="true" lat="43.93017565" lon="-72.68493144">
    <tag k="addr:city" v="Randolph"/>
    <tag k="addr:housenumber" v="95"/>
    <tag k="addr:street" v="Dewey Boulevard"/>
    <tag k="addr:state" v="VT"/>
    <tag k="ref:vcgi:esiteid" v="196811"/>
  </node>
  <node id="-859" visible="true" lat="43.93018635" lon="-72.68607546">
    <tag k="addr:city" v="Randolph"/>
    <tag k="addr:housenumber" v="62"/>
    <tag k="addr:street" v="Dewey Boulevard"/>
    <tag k="addr:state" v="VT"/>
    <tag k="ref:vcgi:esiteid" v="196812"/>
  </node>
  <node id="-860" visible="true" lat="43.93016408" lon="-72.67554151">
    <tag k="addr:city" v="Randolph"/>
    <tag k="addr:housenumber" v="321"/>
    <tag k="addr:street" v="Wallace Hill Road"/>
    <tag k="addr:state" v="VT"/>
    <tag k="ref:vcgi:esiteid" v="196813"/>
  </node>
  <node id="-863" visible="true" lat="43.93002048" lon="-72.66146063">
    <tag k="addr:city" v="Randolph"/>
    <tag k="addr:housenumber" v="11"/>
    <tag k="addr:street" v="Forest Street"/>
    <tag k="addr:state" v="VT"/>
    <tag k="ref:vcgi:esiteid" v="196816"/>
  </node>
  <node id="-864" visible="true" lat="43.93006797" lon="-72.67430888">
    <tag k="addr:city" v="Randolph"/>
    <tag k="addr:housenumber" v="257"/>
    <tag k="addr:street" v="Wallace Hill Road"/>
    <tag k="addr:state" v="VT"/>
    <tag k="ref:vcgi:esiteid" v="196817"/>
  </node>
  <node id="-865" visible="true" lat="43.92998669" lon="-72.67294826">
    <tag k="addr:city" v="Randolph"/>
    <tag k="addr:housenumber" v="190"/>
    <tag k="addr:street" v="Wallace Hill Road"/>
    <tag k="addr:state" v="VT"/>
    <tag k="ref:vcgi:esiteid" v="196818"/>
  </node>
  <node id="-866" visible="true" lat="43.929902" lon="-72.66224578">
    <tag k="addr:city" v="Randolph"/>
    <tag k="addr:housenumber" v="10"/>
    <tag k="addr:street" v="Forest Street"/>
    <tag k="addr:state" v="VT"/>
    <tag k="ref:vcgi:esiteid" v="196819"/>
  </node>
  <node id="-867" visible="true" lat="43.92983918" lon="-72.65909749">
    <tag k="addr:city" v="Randolph"/>
    <tag k="addr:housenumber" v="8"/>
    <tag k="addr:street" v="Mound Street"/>
    <tag k="addr:state" v="VT"/>
    <tag k="ref:vcgi:esiteid" v="196821"/>
  </node>
  <node id="-868" visible="true" lat="43.92989961" lon="-72.66656889">
    <tag k="addr:city" v="Randolph"/>
    <tag k="addr:housenumber" v="7"/>
    <tag k="addr:street" v="Greenhouse Avenue"/>
    <tag k="addr:state" v="VT"/>
    <tag k="ref:vcgi:esiteid" v="196822"/>
  </node>
  <node id="-869" visible="true" lat="43.9299132" lon="-72.66294076">
    <tag k="addr:city" v="Randolph"/>
    <tag k="addr:housenumber" v="5"/>
    <tag k="addr:street" v="Elm Street"/>
    <tag k="addr:state" v="VT"/>
    <tag k="ref:vcgi:esiteid" v="196823"/>
  </node>
  <node id="-872" visible="true" lat="43.92985742" lon="-72.66350292">
    <tag k="addr:city" v="Randolph"/>
    <tag k="addr:housenumber" v="6"/>
    <tag k="addr:street" v="Elm Street"/>
    <tag k="addr:state" v="VT"/>
    <tag k="ref:vcgi:esiteid" v="196826"/>
  </node>
  <node id="-873" visible="true" lat="43.92990824" lon="-72.64988284">
    <tag k="addr:city" v="Randolph"/>
    <tag k="addr:housenumber" v="33"/>
    <tag k="addr:street" v="Sunset Hill Road"/>
    <tag k="addr:state" v="VT"/>
    <tag k="ref:vcgi:esiteid" v="196827"/>
  </node>
  <node id="-874" visible="true" lat="43.92980575" lon="-72.66448211">
    <tag k="addr:city" v="Randolph"/>
    <tag k="addr:housenumber" v="3"/>
    <tag k="addr:street" v="Greenhouse Avenue"/>
    <tag k="addr:state" v="VT"/>
    <tag k="ref:vcgi:esiteid" v="196828"/>
  </node>
  <node id="-875" visible="true" lat="43.92980575" lon="-72.66170501">
    <tag k="addr:city" v="Randolph"/>
    <tag k="addr:housenumber" v="9"/>
    <tag k="addr:street" v="Forest Street"/>
    <tag k="addr:state" v="VT"/>
    <tag k="ref:vcgi:esiteid" v="196829"/>
  </node>
  <node id="-876" visible="true" lat="43.9297676" lon="-72.66407012">
    <tag k="addr:city" v="Randolph"/>
    <tag k="addr:housenumber" v="1"/>
    <tag k="addr:street" v="Greenhouse Avenue"/>
    <tag k="addr:state" v="VT"/>
    <tag k="ref:vcgi:esiteid" v="196831"/>
  </node>
  <node id="-878" visible="true" lat="43.92975997" lon="-72.65950775">
    <tag k="addr:city" v="Randolph"/>
    <tag k="addr:housenumber" v="9"/>
    <tag k="addr:street" v="Mound Street"/>
    <tag k="addr:state" v="VT"/>
    <tag k="ref:vcgi:esiteid" v="196833"/>
  </node>
  <node id="-879" visible="true" lat="43.9298044" lon="-72.66518332">
    <tag k="addr:city" v="Randolph"/>
    <tag k="addr:housenumber" v="5"/>
    <tag k="addr:street" v="Greenhouse Avenue"/>
    <tag k="addr:state" v="VT"/>
    <tag k="ref:vcgi:esiteid" v="196834"/>
  </node>
  <node id="-880" visible="true" lat="43.92972663" lon="-72.67234505">
    <tag k="addr:city" v="Randolph"/>
    <tag k="addr:housenumber" v="160"/>
    <tag k="addr:street" v="Wallace Hill Road"/>
    <tag k="addr:state" v="VT"/>
    <tag k="ref:vcgi:esiteid" v="196835"/>
  </node>
  <node id="-882" visible="true" lat="43.92963635" lon="-72.66295828">
    <tag k="addr:city" v="Randolph"/>
    <tag k="addr:housenumber" v="3"/>
    <tag k="addr:street" v="Elm Street"/>
    <tag k="addr:state" v="VT"/>
    <tag k="ref:vcgi:esiteid" v="196837"/>
  </node>
  <node id="-883" visible="true" lat="43.92959595" lon="-72.67177582">
    <tag k="addr:city" v="Randolph"/>
    <tag k="addr:housenumber" v="1"/>
    <tag k="addr:street" v="Deer Run"/>
    <tag k="addr:state" v="VT"/>
    <tag k="ref:vcgi:esiteid" v="196838"/>
  </node>
  <node id="-884" visible="true" lat="43.92947387" lon="-72.67602722">
    <tag k="addr:city" v="Randolph"/>
    <tag k="addr:housenumber" v="339"/>
    <tag k="addr:street" v="Wallace Hill Road"/>
    <tag k="addr:state" v="VT"/>
    <tag k="ref:vcgi:esiteid" v="196839"/>
  </node>
  <node id="-886" visible="true" lat="43.92961911" lon="-72.64938105">
    <tag k="addr:city" v="Randolph"/>
    <tag k="addr:housenumber" v="79"/>
    <tag k="addr:street" v="Sunset Hill Road"/>
    <tag k="addr:state" v="VT"/>
    <tag k="ref:vcgi:esiteid" v="196841"/>
  </node>
  <node id="-887" visible="true" lat="43.92951838" lon="-72.67283659">
    <tag k="addr:city" v="Randolph"/>
    <tag k="addr:housenumber" v="169"/>
    <tag k="addr:street" v="Wallace Hill Road"/>
    <tag k="addr:state" v="VT"/>
    <tag k="ref:vcgi:esiteid" v="196842"/>
  </node>
  <node id="-888" visible="true" lat="43.92947103" lon="-72.65937328">
    <tag k="addr:city" v="Randolph"/>
    <tag k="addr:housenumber" v="11"/>
    <tag k="addr:street" v="Mound Street"/>
    <tag k="addr:state" v="VT"/>
    <tag k="ref:vcgi:esiteid" v="196843"/>
  </node>
  <node id="-889" visible="true" lat="43.9294548" lon="-72.66382598">
    <tag k="addr:city" v="Randolph"/>
    <tag k="addr:housenumber" v="1"/>
    <tag k="addr:street" v="Mountain Avenue"/>
    <tag k="addr:state" v="VT"/>
    <tag k="ref:vcgi:esiteid" v="196844"/>
  </node>
  <node id="-890" visible="true" lat="43.92942047" lon="-72.65991973">
    <tag k="addr:city" v="Randolph"/>
    <tag k="addr:housenumber" v="7"/>
    <tag k="addr:street" v="Mound Street"/>
    <tag k="addr:state" v="VT"/>
    <tag k="ref:vcgi:esiteid" v="196847"/>
  </node>
  <node id="-892" visible="true" lat="43.92939948" lon="-72.65887267">
    <tag k="addr:city" v="Randolph"/>
    <tag k="addr:housenumber" v="12"/>
    <tag k="addr:street" v="Mound Street"/>
    <tag k="addr:state" v="VT"/>
    <tag k="ref:vcgi:esiteid" v="196849"/>
  </node>
  <node id="-893" visible="true" lat="43.92940902" lon="-72.66410827">
    <tag k="addr:city" v="Randolph"/>
    <tag k="addr:housenumber" v="2"/>
    <tag k="addr:street" v="Greenhouse Avenue"/>
    <tag k="addr:state" v="VT"/>
    <tag k="ref:vcgi:esiteid" v="196850"/>
  </node>
  <node id="-895" visible="true" lat="43.92934036" lon="-72.66452789">
    <tag k="addr:city" v="Randolph"/>
    <tag k="addr:housenumber" v="4"/>
    <tag k="addr:street" v="Greenhouse Avenue"/>
    <tag k="addr:state" v="VT"/>
    <tag k="ref:vcgi:esiteid" v="196852"/>
  </node>
  <node id="-896" visible="true" lat="43.92936096" lon="-72.66488645">
    <tag k="addr:city" v="Randolph"/>
    <tag k="addr:housenumber" v="6"/>
    <tag k="addr:street" v="Greenhouse Avenue"/>
    <tag k="addr:state" v="VT"/>
    <tag k="ref:vcgi:esiteid" v="196853"/>
  </node>
  <node id="-897" visible="true" lat="43.92935364" lon="-72.66036266">
    <tag k="addr:city" v="Randolph"/>
    <tag k="addr:housenumber" v="6"/>
    <tag k="addr:street" v="Mound Street"/>
    <tag k="addr:state" v="VT"/>
    <tag k="ref:vcgi:esiteid" v="196854"/>
  </node>
  <node id="-899" visible="true" lat="43.92930155" lon="-72.67332426">
    <tag k="addr:city" v="Randolph"/>
    <tag k="addr:housenumber" v="1"/>
    <tag k="addr:street" v="Brigham Circle"/>
    <tag k="addr:state" v="VT"/>
    <tag k="ref:vcgi:esiteid" v="196856"/>
  </node>
  <node id="-900" visible="true" lat="43.92923736" lon="-72.65925598">
    <tag k="addr:city" v="Randolph"/>
    <tag k="addr:housenumber" v="13"/>
    <tag k="addr:street" v="Mound Street"/>
    <tag k="addr:state" v="VT"/>
    <tag k="ref:vcgi:esiteid" v="196857"/>
  </node>
  <node id="-901" visible="true" lat="43.92922973" lon="-72.66522979">
    <tag k="addr:city" v="Randolph"/>
    <tag k="addr:housenumber" v="8"/>
    <tag k="addr:street" v="Greenhouse Avenue"/>
    <tag k="addr:state" v="VT"/>
    <tag k="ref:vcgi:esiteid" v="196858"/>
  </node>
  <node id="-902" visible="true" lat="43.92928214" lon="-72.66560847">
    <tag k="addr:city" v="Randolph"/>
    <tag k="addr:housenumber" v="10"/>
    <tag k="addr:street" v="Greenhouse Avenue"/>
    <tag k="addr:state" v="VT"/>
    <tag k="ref:vcgi:esiteid" v="196859"/>
  </node>
  <node id="-903" visible="true" lat="43.9292172" lon="-72.65801367">
    <tag k="addr:city" v="Randolph"/>
    <tag k="addr:housenumber" v="16"/>
    <tag k="addr:street" v="Mound Street"/>
    <tag k="addr:state" v="VT"/>
    <tag k="ref:vcgi:esiteid" v="196861"/>
  </node>
  <node id="-904" visible="true" lat="43.9291833" lon="-72.67192479">
    <tag k="addr:city" v="Randolph"/>
    <tag k="addr:housenumber" v="8"/>
    <tag k="addr:street" v="Wallace Hill Road"/>
    <tag k="addr:state" v="VT"/>
    <tag k="ref:vcgi:esiteid" v="196863"/>
  </node>
  <node id="-905" visible="true" lat="43.92907527" lon="-72.65870292">
    <tag k="addr:city" v="Randolph"/>
    <tag k="addr:housenumber" v="14"/>
    <tag k="addr:street" v="Mound Street"/>
    <tag k="addr:state" v="VT"/>
    <tag k="ref:vcgi:esiteid" v="196864"/>
  </node>
  <node id="-906" visible="true" lat="43.92907386" lon="-72.66402917">
    <tag k="addr:city" v="Randolph"/>
    <tag k="addr:housenumber" v="3"/>
    <tag k="addr:street" v="Mountain Avenue"/>
    <tag k="addr:state" v="VT"/>
    <tag k="ref:vcgi:esiteid" v="196865"/>
  </node>
  <node id="-907" visible="true" lat="43.9290695" lon="-72.65970561">
    <tag k="addr:city" v="Randolph"/>
    <tag k="addr:housenumber" v="5"/>
    <tag k="addr:street" v="Mound Street"/>
    <tag k="addr:state" v="VT"/>
    <tag k="ref:vcgi:esiteid" v="196866"/>
  </node>
  <node id="-908" visible="true" lat="43.92917452" lon="-72.67070854">
    <tag k="addr:city" v="Randolph"/>
    <tag k="addr:housenumber" v="5"/>
    <tag k="addr:street" v="Wallace Hill Road"/>
    <tag k="addr:state" v="VT"/>
    <tag k="ref:vcgi:esiteid" v="196867"/>
  </node>
  <node id="-911" visible="true" lat="43.92901611" lon="-72.66434478">
    <tag k="addr:city" v="Randolph"/>
    <tag k="addr:housenumber" v="5"/>
    <tag k="addr:street" v="Mountain Avenue"/>
    <tag k="addr:state" v="VT"/>
    <tag k="ref:vcgi:esiteid" v="196870"/>
  </node>
  <node id="-912" visible="true" lat="43.92898079" lon="-72.66469834">
    <tag k="addr:city" v="Randolph"/>
    <tag k="addr:housenumber" v="7"/>
    <tag k="addr:street" v="Mountain Avenue"/>
    <tag k="addr:state" v="VT"/>
    <tag k="ref:vcgi:esiteid" v="196871"/>
  </node>
  <node id="-914" visible="true" lat="43.928936" lon="-72.6651535">
    <tag k="addr:city" v="Randolph"/>
    <tag k="addr:housenumber" v="11"/>
    <tag k="addr:street" v="Mountain Avenue"/>
    <tag k="addr:state" v="VT"/>
    <tag k="ref:vcgi:esiteid" v="196874"/>
  </node>
  <node id="-916" visible="true" lat="43.92891693" lon="-72.66017913">
    <tag k="addr:city" v="Randolph"/>
    <tag k="addr:housenumber" v="4"/>
    <tag k="addr:street" v="Mound Street"/>
    <tag k="addr:state" v="VT"/>
    <tag k="ref:vcgi:esiteid" v="196876"/>
  </node>
  <node id="-917" visible="true" lat="43.92886265" lon="-72.65784781">
    <tag k="addr:city" v="Randolph"/>
    <tag k="addr:housenumber" v="34"/>
    <tag k="addr:street" v="Central Street"/>
    <tag k="addr:state" v="VT"/>
    <tag k="ref:vcgi:esiteid" v="196877"/>
  </node>
  <node id="-918" visible="true" lat="43.92889016" lon="-72.65916267">
    <tag k="addr:city" v="Randolph"/>
    <tag k="addr:housenumber" v="15"/>
    <tag k="addr:street" v="Mound Street"/>
    <tag k="addr:state" v="VT"/>
    <tag k="ref:vcgi:esiteid" v="196878"/>
  </node>
  <node id="-919" visible="true" lat="43.92919059" lon="-72.6501881">
    <tag k="addr:city" v="Randolph"/>
    <tag k="addr:housenumber" v="67"/>
    <tag k="addr:street" v="Stock Farm Road"/>
    <tag k="addr:state" v="VT"/>
    <tag k="ref:vcgi:esiteid" v="196879"/>
  </node>
  <node id="-920" visible="true" lat="43.92890167" lon="-72.65753173">
    <tag k="addr:city" v="Randolph"/>
    <tag k="addr:housenumber" v="36"/>
    <tag k="addr:street" v="Central Street"/>
    <tag k="addr:state" v="VT"/>
    <tag k="ref:vcgi:esiteid" v="196880"/>
  </node>
  <node id="-921" visible="true" lat="43.92884035" lon="-72.67339741">
    <tag k="addr:city" v="Randolph"/>
    <tag k="addr:housenumber" v="3"/>
    <tag k="addr:street" v="Brigham Circle"/>
    <tag k="addr:state" v="VT"/>
    <tag k="ref:vcgi:esiteid" v="196881"/>
  </node>
  <node id="-922" visible="true" lat="43.92889785" lon="-72.65724182">
    <tag k="addr:city" v="Randolph"/>
    <tag k="addr:housenumber" v="38"/>
    <tag k="addr:street" v="Central Street"/>
    <tag k="addr:state" v="VT"/>
    <tag k="ref:vcgi:esiteid" v="196882"/>
  </node>
  <node id="-923" visible="true" lat="43.92886858" lon="-72.67019411">
    <tag k="addr:city" v="Randolph"/>
    <tag k="addr:housenumber" v="3"/>
    <tag k="addr:street" v="Wallace Hill Road"/>
    <tag k="addr:state" v="VT"/>
    <tag k="ref:vcgi:esiteid" v="196883"/>
  </node>
  <node id="-924" visible="true" lat="43.92883759" lon="-72.66971347">
    <tag k="addr:city" v="Randolph"/>
    <tag k="addr:housenumber" v="1"/>
    <tag k="addr:street" v="Wallace Hill Road"/>
    <tag k="addr:state" v="VT"/>
    <tag k="ref:vcgi:esiteid" v="196884"/>
  </node>
  <node id="-926" visible="true" lat="43.92884123" lon="-72.67222589">
    <tag k="addr:city" v="Randolph"/>
    <tag k="addr:housenumber" v="13"/>
    <tag k="addr:street" v="Brigham Circle"/>
    <tag k="addr:state" v="VT"/>
    <tag k="ref:vcgi:esiteid" v="196886"/>
  </node>
  <node id="-927" visible="true" lat="43.92881018" lon="-72.65652278">
    <tag k="addr:city" v="Randolph"/>
    <tag k="addr:housenumber" v="42"/>
    <tag k="addr:street" v="Central Street"/>
    <tag k="addr:state" v="VT"/>
    <tag k="ref:vcgi:esiteid" v="196887"/>
  </node>
  <node id="-928" visible="true" lat="43.92878731" lon="-72.65592929">
    <tag k="addr:city" v="Randolph"/>
    <tag k="addr:housenumber" v="46"/>
    <tag k="addr:street" v="Central Street"/>
    <tag k="addr:state" v="VT"/>
    <tag k="ref:vcgi:esiteid" v="196888"/>
  </node>
  <node id="-929" visible="true" lat="43.9287958" lon="-72.65947172">
    <tag k="addr:city" v="Randolph"/>
    <tag k="addr:housenumber" v="1"/>
    <tag k="addr:street" v="Mound Street"/>
    <tag k="addr:state" v="VT"/>
    <tag k="ref:vcgi:esiteid" v="196889"/>
  </node>
  <node id="-930" visible="true" lat="43.92882192" lon="-72.65568226">
    <tag k="addr:city" v="Randolph"/>
    <tag k="addr:housenumber" v="48"/>
    <tag k="addr:street" v="Central Street"/>
    <tag k="addr:state" v="VT"/>
    <tag k="ref:vcgi:esiteid" v="196890"/>
  </node>
  <node id="-931" visible="true" lat="43.92881011" lon="-72.65619659">
    <tag k="addr:city" v="Randolph"/>
    <tag k="addr:housenumber" v="44"/>
    <tag k="addr:street" v="Central Street"/>
    <tag k="addr:state" v="VT"/>
    <tag k="ref:vcgi:esiteid" v="196891"/>
  </node>
  <node id="-935" visible="true" lat="43.92860888" lon="-72.6642099">
    <tag k="addr:city" v="Randolph"/>
    <tag k="addr:housenumber" v="2"/>
    <tag k="addr:street" v="Mountain Avenue"/>
    <tag k="addr:state" v="VT"/>
    <tag k="ref:vcgi:esiteid" v="196899"/>
  </node>
  <node id="-936" visible="true" lat="43.92859649" lon="-72.65995788">
    <tag k="addr:city" v="Randolph"/>
    <tag k="addr:housenumber" v="2"/>
    <tag k="addr:street" v="Mound Street"/>
    <tag k="addr:state" v="VT"/>
    <tag k="ref:vcgi:esiteid" v="196900"/>
  </node>
  <node id="-938" visible="true" lat="43.92853148" lon="-72.67339372">
    <tag k="addr:city" v="Randolph"/>
    <tag k="addr:housenumber" v="5"/>
    <tag k="addr:street" v="Brigham Circle"/>
    <tag k="addr:state" v="VT"/>
    <tag k="ref:vcgi:esiteid" v="196902"/>
  </node>
  <node id="-940" visible="true" lat="43.9285458" lon="-72.65787356">
    <tag k="addr:city" v="Randolph"/>
    <tag k="addr:housenumber" v="51"/>
    <tag k="addr:street" v="Central Street"/>
    <tag k="addr:state" v="VT"/>
    <tag k="ref:vcgi:esiteid" v="196904"/>
  </node>
  <node id="-941" visible="true" lat="43.92852783" lon="-72.66510772">
    <tag k="addr:city" v="Randolph"/>
    <tag k="addr:housenumber" v="8"/>
    <tag k="addr:street" v="Mountain Avenue"/>
    <tag k="addr:state" v="VT"/>
    <tag k="ref:vcgi:esiteid" v="196905"/>
  </node>
  <node id="-942" visible="true" lat="43.92847639" lon="-72.66174358">
    <tag k="addr:city" v="Randolph"/>
    <tag k="addr:housenumber" v="20"/>
    <tag k="addr:street" v="Central Street"/>
    <tag k="addr:state" v="VT"/>
    <tag k="ref:vcgi:esiteid" v="196906"/>
  </node>
  <node id="-943" visible="true" lat="43.92849417" lon="-72.65751318">
    <tag k="addr:city" v="Randolph"/>
    <tag k="addr:housenumber" v="53"/>
    <tag k="addr:street" v="Central Street"/>
    <tag k="addr:state" v="VT"/>
    <tag k="ref:vcgi:esiteid" v="196907"/>
  </node>
  <node id="-944" visible="true" lat="43.92860937" lon="-72.67103312">
    <tag k="addr:city" v="Randolph"/>
    <tag k="addr:housenumber" v="4"/>
    <tag k="addr:street" v="Wallace Hill Road"/>
    <tag k="addr:state" v="VT"/>
    <tag k="ref:vcgi:esiteid" v="196908"/>
  </node>
  <node id="-947" visible="true" lat="43.92849344" lon="-72.65819982">
    <tag k="addr:city" v="Randolph"/>
    <tag k="addr:housenumber" v="49"/>
    <tag k="addr:street" v="Central Street"/>
    <tag k="addr:state" v="VT"/>
    <tag k="ref:vcgi:esiteid" v="196911"/>
  </node>
  <node id="-948" visible="true" lat="43.92843111" lon="-72.67235036">
    <tag k="addr:city" v="Randolph"/>
    <tag k="addr:housenumber" v="11"/>
    <tag k="addr:street" v="Brigham Circle"/>
    <tag k="addr:state" v="VT"/>
    <tag k="ref:vcgi:esiteid" v="196912"/>
  </node>
  <node id="-949" visible="true" lat="43.9284736" lon="-72.66608579">
    <tag k="addr:city" v="Randolph"/>
    <tag k="addr:housenumber" v="12"/>
    <tag k="addr:street" v="Mountain Avenue"/>
    <tag k="addr:state" v="VT"/>
    <tag k="ref:vcgi:esiteid" v="196913"/>
  </node>
  <node id="-951" visible="true" lat="43.92843627" lon="-72.66214752">
    <tag k="addr:city" v="Randolph"/>
    <tag k="addr:housenumber" v="18"/>
    <tag k="addr:street" v="Central Street"/>
    <tag k="addr:state" v="VT"/>
    <tag k="ref:vcgi:esiteid" v="196915"/>
  </node>
  <node id="-952" visible="true" lat="43.92846645" lon="-72.66568393">
    <tag k="addr:city" v="Randolph"/>
    <tag k="addr:housenumber" v="10"/>
    <tag k="addr:street" v="Mountain Avenue"/>
    <tag k="addr:state" v="VT"/>
    <tag k="ref:vcgi:esiteid" v="196916"/>
  </node>
  <node id="-953" visible="true" lat="43.92841238" lon="-72.66109737">
    <tag k="addr:city" v="Randolph"/>
    <tag k="addr:housenumber" v="24"/>
    <tag k="addr:street" v="Central Street"/>
    <tag k="addr:state" v="VT"/>
    <tag k="ref:vcgi:esiteid" v="196917"/>
  </node>
  <node id="-955" visible="true" lat="43.92836777" lon="-72.65602192">
    <tag k="addr:city" v="Randolph"/>
    <tag k="addr:housenumber" v="61"/>
    <tag k="addr:street" v="Central Street"/>
    <tag k="addr:state" v="VT"/>
    <tag k="ref:vcgi:esiteid" v="196919"/>
  </node>
  <node id="-956" visible="true" lat="43.92841103" lon="-72.65665133">
    <tag k="addr:city" v="Randolph"/>
    <tag k="addr:housenumber" v="59"/>
    <tag k="addr:street" v="Central Street"/>
    <tag k="addr:state" v="VT"/>
    <tag k="ref:vcgi:esiteid" v="196920"/>
  </node>
  <node id="-957" visible="true" lat="43.92841485" lon="-72.65574315">
    <tag k="addr:city" v="Randolph"/>
    <tag k="addr:housenumber" v="65"/>
    <tag k="addr:street" v="Central Street"/>
    <tag k="addr:state" v="VT"/>
    <tag k="ref:vcgi:esiteid" v="196921"/>
  </node>
  <node id="-958" visible="true" lat="43.92835707" lon="-72.65859559">
    <tag k="addr:city" v="Randolph"/>
    <tag k="addr:housenumber" v="47"/>
    <tag k="addr:street" v="Central Street"/>
    <tag k="addr:state" v="VT"/>
    <tag k="ref:vcgi:esiteid" v="196922"/>
  </node>
  <node id="-960" visible="true" lat="43.92840679" lon="-72.66648686">
    <tag k="addr:city" v="Randolph"/>
    <tag k="addr:housenumber" v="14"/>
    <tag k="addr:street" v="Mountain Avenue"/>
    <tag k="addr:state" v="VT"/>
    <tag k="ref:vcgi:esiteid" v="196924"/>
  </node>
  <node id="-962" visible="true" lat="43.92822577" lon="-72.67285374">
    <tag k="addr:city" v="Randolph"/>
    <tag k="addr:housenumber" v="9"/>
    <tag k="addr:street" v="Brigham Circle"/>
    <tag k="addr:state" v="VT"/>
    <tag k="ref:vcgi:esiteid" v="196926"/>
  </node>
  <node id="-963" visible="true" lat="43.92830686" lon="-72.66388129">
    <tag k="addr:city" v="Randolph"/>
    <tag k="addr:housenumber" v="4"/>
    <tag k="addr:street" v="Elm Street"/>
    <tag k="addr:state" v="VT"/>
    <tag k="ref:vcgi:esiteid" v="196927"/>
  </node>
  <node id="-964" visible="true" lat="43.92818017" lon="-72.6732198">
    <tag k="addr:city" v="Randolph"/>
    <tag k="addr:housenumber" v="7"/>
    <tag k="addr:street" v="Brigham Circle"/>
    <tag k="addr:state" v="VT"/>
    <tag k="ref:vcgi:esiteid" v="196928"/>
  </node>
  <node id="-965" visible="true" lat="43.92812829" lon="-72.65911015">
    <tag k="addr:city" v="Randolph"/>
    <tag k="addr:housenumber" v="43"/>
    <tag k="addr:street" v="Central Street"/>
    <tag k="addr:state" v="VT"/>
    <tag k="ref:vcgi:esiteid" v="196930"/>
  </node>
  <node id="-967" visible="true" lat="43.92803955" lon="-72.66177368">
    <tag k="addr:city" v="Randolph"/>
    <tag k="addr:housenumber" v="31"/>
    <tag k="addr:street" v="Central Street"/>
    <tag k="addr:state" v="VT"/>
    <tag k="ref:vcgi:esiteid" v="196932"/>
  </node>
  <node id="-968" visible="true" lat="43.9280014" lon="-72.66067504">
    <tag k="addr:city" v="Randolph"/>
    <tag k="addr:housenumber" v="35"/>
    <tag k="addr:street" v="Central Street"/>
    <tag k="addr:state" v="VT"/>
    <tag k="ref:vcgi:esiteid" v="196933"/>
  </node>
  <node id="-969" visible="true" lat="43.92799759" lon="-72.66118621">
    <tag k="addr:city" v="Randolph"/>
    <tag k="addr:housenumber" v="33"/>
    <tag k="addr:street" v="Central Street"/>
    <tag k="addr:state" v="VT"/>
    <tag k="ref:vcgi:esiteid" v="196934"/>
  </node>
  <node id="-970" visible="true" lat="43.92798996" lon="-72.66230011">
    <tag k="addr:city" v="Randolph"/>
    <tag k="addr:housenumber" v="27"/>
    <tag k="addr:street" v="Central Street"/>
    <tag k="addr:state" v="VT"/>
    <tag k="ref:vcgi:esiteid" v="196935"/>
  </node>
  <node id="-972" visible="true" lat="43.92786782" lon="-72.66271508">
    <tag k="addr:city" v="Randolph"/>
    <tag k="addr:housenumber" v="23"/>
    <tag k="addr:street" v="Central Street"/>
    <tag k="addr:state" v="VT"/>
    <tag k="ref:vcgi:esiteid" v="196937"/>
  </node>
  <node id="-974" visible="true" lat="43.92795413" lon="-72.6600659">
    <tag k="addr:city" v="Randolph"/>
    <tag k="addr:housenumber" v="39"/>
    <tag k="addr:street" v="Central Street"/>
    <tag k="addr:state" v="VT"/>
    <tag k="ref:vcgi:esiteid" v="196939"/>
  </node>
  <node id="-975" visible="true" lat="43.92780022" lon="-72.6642066">
    <tag k="addr:city" v="Randolph"/>
    <tag k="addr:housenumber" v="10"/>
    <tag k="addr:street" v="Central Street"/>
    <tag k="addr:state" v="VT"/>
    <tag k="ref:vcgi:esiteid" v="196940"/>
  </node>
  <node id="-977" visible="true" lat="43.92775446" lon="-72.66442493">
    <tag k="addr:city" v="Randolph"/>
    <tag k="addr:housenumber" v="8"/>
    <tag k="addr:street" v="Central Street"/>
    <tag k="addr:state" v="VT"/>
    <tag k="ref:vcgi:esiteid" v="196942"/>
  </node>
  <node id="-979" visible="true" lat="43.9277663" lon="-72.66477709">
    <tag k="addr:city" v="Randolph"/>
    <tag k="addr:housenumber" v="6"/>
    <tag k="addr:street" v="Central Street"/>
    <tag k="addr:state" v="VT"/>
    <tag k="ref:vcgi:esiteid" v="196944"/>
  </node>
  <node id="-980" visible="true" lat="43.92772345" lon="-72.66320666">
    <tag k="addr:city" v="Randolph"/>
    <tag k="addr:housenumber" v="19"/>
    <tag k="addr:street" v="Central Street"/>
    <tag k="addr:state" v="VT"/>
    <tag k="ref:vcgi:esiteid" v="196945"/>
  </node>
  <node id="-981" visible="true" lat="43.92777216" lon="-72.66580964">
    <tag k="addr:city" v="Randolph"/>
    <tag k="addr:housenumber" v="2"/>
    <tag k="addr:street" v="Central Street"/>
    <tag k="addr:state" v="VT"/>
    <tag k="ref:vcgi:esiteid" v="196946"/>
  </node>
  <node id="-983" visible="true" lat="43.92772292" lon="-72.66523742">
    <tag k="addr:city" v="Randolph"/>
    <tag k="addr:housenumber" v="4"/>
    <tag k="addr:street" v="Central Street"/>
    <tag k="addr:state" v="VT"/>
    <tag k="ref:vcgi:esiteid" v="196948"/>
  </node>
  <node id="-986" visible="true" lat="43.92766257" lon="-72.65786293">
    <tag k="addr:city" v="Randolph"/>
    <tag k="addr:housenumber" v="5"/>
    <tag k="addr:street" v="Hedding Drive"/>
    <tag k="addr:state" v="VT"/>
    <tag k="ref:vcgi:esiteid" v="196952"/>
  </node>
  <node id="-989" visible="true" lat="43.9275619" lon="-72.66363397">
    <tag k="addr:city" v="Randolph"/>
    <tag k="addr:housenumber" v="17"/>
    <tag k="addr:street" v="Central Street"/>
    <tag k="addr:state" v="VT"/>
    <tag k="ref:vcgi:esiteid" v="196955"/>
  </node>
  <node id="-992" visible="true" lat="43.92751336" lon="-72.66393909">
    <tag k="addr:city" v="Randolph"/>
    <tag k="addr:housenumber" v="15"/>
    <tag k="addr:street" v="Central Street"/>
    <tag k="addr:state" v="VT"/>
    <tag k="ref:vcgi:esiteid" v="196958"/>
  </node>
  <node id="-993" visible="true" lat="43.92745877" lon="-72.66426747">
    <tag k="addr:city" v="Randolph"/>
    <tag k="addr:housenumber" v="13"/>
    <tag k="addr:street" v="Central Street"/>
    <tag k="addr:state" v="VT"/>
    <tag k="ref:vcgi:esiteid" v="196959"/>
  </node>
  <node id="-996" visible="true" lat="43.92740631" lon="-72.6649762">
    <tag k="addr:city" v="Randolph"/>
    <tag k="addr:housenumber" v="9"/>
    <tag k="addr:street" v="Central Street"/>
    <tag k="addr:state" v="VT"/>
    <tag k="ref:vcgi:esiteid" v="196963"/>
  </node>
  <node id="-997" visible="true" lat="43.92740228" lon="-72.66463475">
    <tag k="addr:city" v="Randolph"/>
    <tag k="addr:housenumber" v="11"/>
    <tag k="addr:street" v="Central Street"/>
    <tag k="addr:state" v="VT"/>
    <tag k="ref:vcgi:esiteid" v="196964"/>
  </node>
  <node id="-1001" visible="true" lat="43.92720121" lon="-72.66487557">
    <tag k="addr:city" v="Randolph"/>
    <tag k="addr:housenumber" v="9 1/2"/>
    <tag k="addr:street" v="Central Street"/>
    <tag k="addr:state" v="VT"/>
    <tag k="ref:vcgi:esiteid" v="196969"/>
  </node>
  <node id="-1006" visible="true" lat="43.92695149" lon="-72.67689001">
    <tag k="addr:city" v="Randolph"/>
    <tag k="addr:housenumber" v="13"/>
    <tag k="addr:street" v="Lincoln Avenue"/>
    <tag k="addr:state" v="VT"/>
    <tag k="ref:vcgi:esiteid" v="196974"/>
  </node>
  <node id="-1007" visible="true" lat="43.92695999" lon="-72.67769622">
    <tag k="addr:city" v="Randolph"/>
    <tag k="addr:housenumber" v="6"/>
    <tag k="addr:street" v="Chestnut Street"/>
    <tag k="addr:state" v="VT"/>
    <tag k="ref:vcgi:esiteid" v="196976"/>
  </node>
  <node id="-1012" visible="true" lat="43.92677456" lon="-72.67692133">
    <tag k="addr:city" v="Randolph"/>
    <tag k="addr:housenumber" v="11"/>
    <tag k="addr:street" v="Lincoln Avenue"/>
    <tag k="addr:state" v="VT"/>
    <tag k="ref:vcgi:esiteid" v="196981"/>
  </node>
  <node id="-1013" visible="true" lat="43.92673783" lon="-72.67903495">
    <tag k="addr:city" v="Randolph"/>
    <tag k="addr:housenumber" v="3"/>
    <tag k="addr:street" v="Arlington Drive"/>
    <tag k="addr:state" v="VT"/>
    <tag k="ref:vcgi:esiteid" v="196982"/>
  </node>
  <node id="-1014" visible="true" lat="43.9267122" lon="-72.66044429">
    <tag k="addr:city" v="Randolph"/>
    <tag k="addr:housenumber" v="37"/>
    <tag k="addr:street" v="Central Street"/>
    <tag k="addr:state" v="VT"/>
    <tag k="ref:vcgi:esiteid" v="196983"/>
  </node>
  <node id="-1015" visible="true" lat="43.92675399" lon="-72.67782592">
    <tag k="addr:city" v="Randolph"/>
    <tag k="addr:housenumber" v="4"/>
    <tag k="addr:street" v="Chestnut Street"/>
    <tag k="addr:state" v="VT"/>
    <tag k="ref:vcgi:esiteid" v="196984"/>
  </node>
  <node id="-1016" visible="true" lat="43.92671733" lon="-72.67947326">
    <tag k="addr:city" v="Randolph"/>
    <tag k="addr:housenumber" v="5"/>
    <tag k="addr:street" v="Arlington Drive"/>
    <tag k="addr:state" v="VT"/>
    <tag k="ref:vcgi:esiteid" v="196985"/>
  </node>
  <node id="-1017" visible="true" lat="43.92684593" lon="-72.65832424">
    <tag k="addr:city" v="Randolph"/>
    <tag k="addr:housenumber" v="11"/>
    <tag k="addr:street" v="Hedding Drive"/>
    <tag k="addr:state" v="VT"/>
    <tag k="ref:vcgi:esiteid" v="196986"/>
  </node>
  <node id="-1018" visible="true" lat="43.92661666" lon="-72.67872619">
    <tag k="addr:city" v="Randolph"/>
    <tag k="addr:housenumber" v="1"/>
    <tag k="addr:street" v="Arlington Drive"/>
    <tag k="addr:state" v="VT"/>
    <tag k="ref:vcgi:esiteid" v="196987"/>
  </node>
  <node id="-1019" visible="true" lat="43.92660903" lon="-72.6779251">
    <tag k="addr:city" v="Randolph"/>
    <tag k="addr:housenumber" v="2"/>
    <tag k="addr:street" v="Chestnut Street"/>
    <tag k="addr:state" v="VT"/>
    <tag k="ref:vcgi:esiteid" v="196988"/>
  </node>
  <node id="-1020" visible="true" lat="43.92657366" lon="-72.67697586">
    <tag k="addr:city" v="Randolph"/>
    <tag k="addr:housenumber" v="9"/>
    <tag k="addr:street" v="Lincoln Avenue"/>
    <tag k="addr:state" v="VT"/>
    <tag k="ref:vcgi:esiteid" v="196989"/>
  </node>
  <node id="-1021" visible="true" lat="43.92667373" lon="-72.60523694">
    <tag k="addr:city" v="Randolph"/>
    <tag k="addr:housenumber" v="986"/>
    <tag k="addr:street" v="East Bethel Road"/>
    <tag k="addr:state" v="VT"/>
    <tag k="ref:vcgi:esiteid" v="196990"/>
  </node>
  <node id="-1022" visible="true" lat="43.92653414" lon="-72.65688041">
    <tag k="addr:city" v="Randolph"/>
    <tag k="addr:housenumber" v="10"/>
    <tag k="addr:street" v="Hedding Drive"/>
    <tag k="addr:state" v="VT"/>
    <tag k="ref:vcgi:esiteid" v="196991"/>
  </node>
  <node id="-1023" visible="true" lat="43.92635774" lon="-72.67700205">
    <tag k="addr:city" v="Randolph"/>
    <tag k="addr:housenumber" v="7"/>
    <tag k="addr:street" v="Lincoln Avenue"/>
    <tag k="addr:state" v="VT"/>
    <tag k="ref:vcgi:esiteid" v="196992"/>
  </node>
  <node id="-1024" visible="true" lat="43.92624575" lon="-72.678428">
    <tag k="addr:city" v="Randolph"/>
    <tag k="addr:housenumber" v="2"/>
    <tag k="addr:street" v="Haven Street"/>
    <tag k="addr:state" v="VT"/>
    <tag k="ref:vcgi:esiteid" v="196993"/>
  </node>
  <node id="-1025" visible="true" lat="43.92636398" lon="-72.66506332">
    <tag k="addr:city" v="Randolph"/>
    <tag k="addr:housenumber" v="12"/>
    <tag k="addr:street" v="Prince Street"/>
    <tag k="addr:state" v="VT"/>
    <tag k="ref:vcgi:esiteid" v="196994"/>
  </node>
  <node id="-1026" visible="true" lat="43.92614364" lon="-72.67700958">
    <tag k="addr:city" v="Randolph"/>
    <tag k="addr:housenumber" v="5"/>
    <tag k="addr:street" v="Lincoln Avenue"/>
    <tag k="addr:state" v="VT"/>
    <tag k="ref:vcgi:esiteid" v="196996"/>
  </node>
  <node id="-1027" visible="true" lat="43.92621479" lon="-72.66593599">
    <tag k="addr:city" v="Randolph"/>
    <tag k="addr:housenumber" v="77"/>
    <tag k="addr:street" v="North Main Street"/>
    <tag k="addr:state" v="VT"/>
    <tag k="ref:vcgi:esiteid" v="196997"/>
  </node>
  <node id="-1029" visible="true" lat="43.92609405" lon="-72.67856597">
    <tag k="addr:city" v="Randolph"/>
    <tag k="addr:housenumber" v="4"/>
    <tag k="addr:street" v="Haven Street"/>
    <tag k="addr:state" v="VT"/>
    <tag k="ref:vcgi:esiteid" v="197000"/>
  </node>
  <node id="-1030" visible="true" lat="43.92603587" lon="-72.67947514">
    <tag k="addr:city" v="Randolph"/>
    <tag k="addr:housenumber" v="7"/>
    <tag k="addr:street" v="Haven Street"/>
    <tag k="addr:state" v="VT"/>
    <tag k="ref:vcgi:esiteid" v="197001"/>
  </node>
  <node id="-1031" visible="true" lat="43.92596341" lon="-72.66569835">
    <tag k="addr:city" v="Randolph"/>
    <tag k="addr:housenumber" v="75"/>
    <tag k="addr:street" v="North Main Street"/>
    <tag k="addr:state" v="VT"/>
    <tag k="ref:vcgi:esiteid" v="197003"/>
  </node>
  <node id="-1032" visible="true" lat="43.92593002" lon="-72.67871093">
    <tag k="addr:city" v="Randolph"/>
    <tag k="addr:housenumber" v="6"/>
    <tag k="addr:street" v="Haven Street"/>
    <tag k="addr:state" v="VT"/>
    <tag k="ref:vcgi:esiteid" v="197004"/>
  </node>
  <node id="-1033" visible="true" lat="43.92615001" lon="-72.67755997">
    <tag k="addr:city" v="Randolph"/>
    <tag k="addr:housenumber" v="6"/>
    <tag k="addr:street" v="Lincoln Avenue"/>
    <tag k="addr:state" v="VT"/>
    <tag k="ref:vcgi:esiteid" v="197005"/>
  </node>
  <node id="-1035" visible="true" lat="43.92591229" lon="-72.666259">
    <tag k="addr:city" v="Randolph"/>
    <tag k="addr:housenumber" v="36"/>
    <tag k="addr:street" v="North Main Street"/>
    <tag k="addr:state" v="VT"/>
    <tag k="ref:vcgi:esiteid" v="197007"/>
  </node>
  <node id="-1036" visible="true" lat="43.92583847" lon="-72.67707061">
    <tag k="addr:city" v="Randolph"/>
    <tag k="addr:housenumber" v="3"/>
    <tag k="addr:street" v="Lincoln Avenue"/>
    <tag k="addr:state" v="VT"/>
    <tag k="ref:vcgi:esiteid" v="197008"/>
  </node>
  <node id="-1037" visible="true" lat="43.92590603" lon="-72.66453692">
    <tag k="addr:city" v="Randolph"/>
    <tag k="addr:housenumber" v="10"/>
    <tag k="addr:street" v="Prince Street"/>
    <tag k="addr:state" v="VT"/>
    <tag k="ref:vcgi:esiteid" v="197009"/>
  </node>
  <node id="-1038" visible="true" lat="43.92563629" lon="-72.67765045">
    <tag k="addr:city" v="Randolph"/>
    <tag k="addr:housenumber" v="2"/>
    <tag k="addr:street" v="Lincoln Avenue"/>
    <tag k="addr:state" v="VT"/>
    <tag k="ref:vcgi:esiteid" v="197010"/>
  </node>
  <node id="-1039" visible="true" lat="43.92562387" lon="-72.66620872">
    <tag k="addr:city" v="Randolph"/>
    <tag k="addr:housenumber" v="32"/>
    <tag k="addr:street" v="North Main Street"/>
    <tag k="addr:state" v="VT"/>
    <tag k="ref:vcgi:esiteid" v="197011"/>
  </node>
  <node id="-1042" visible="true" lat="43.92553329" lon="-72.67713165">
    <tag k="addr:city" v="Randolph"/>
    <tag k="addr:housenumber" v="1"/>
    <tag k="addr:street" v="Lincoln Avenue"/>
    <tag k="addr:state" v="VT"/>
    <tag k="ref:vcgi:esiteid" v="197014"/>
  </node>
  <node id="-1043" visible="true" lat="43.92564286" lon="-72.66967591">
    <tag k="addr:city" v="Randolph"/>
    <tag k="addr:housenumber" v="24"/>
    <tag k="addr:street" v="Woodhaven Drive"/>
    <tag k="addr:state" v="VT"/>
    <tag k="ref:vcgi:esiteid" v="197015"/>
  </node>
  <node id="-1044" visible="true" lat="43.92555536" lon="-72.66451629">
    <tag k="addr:city" v="Randolph"/>
    <tag k="addr:housenumber" v="8"/>
    <tag k="addr:street" v="Prince Street"/>
    <tag k="addr:state" v="VT"/>
    <tag k="ref:vcgi:esiteid" v="197016"/>
  </node>
  <node id="-1047" visible="true" lat="43.92543029" lon="-72.67662048">
    <tag k="addr:city" v="Randolph"/>
    <tag k="addr:housenumber" v="1"/>
    <tag k="addr:street" v="Brook Street"/>
    <tag k="addr:state" v="VT"/>
    <tag k="ref:vcgi:esiteid" v="197020"/>
  </node>
  <node id="-1049" visible="true" lat="43.92552014" lon="-72.66929745">
    <tag k="addr:city" v="Randolph"/>
    <tag k="addr:housenumber" v="22"/>
    <tag k="addr:street" v="Woodhaven Drive"/>
    <tag k="addr:state" v="VT"/>
    <tag k="ref:vcgi:esiteid" v="197022"/>
  </node>
  <node id="-1050" visible="true" lat="43.92543777" lon="-72.66553983">
    <tag k="addr:city" v="Randolph"/>
    <tag k="addr:housenumber" v="69"/>
    <tag k="addr:street" v="North Main Street"/>
    <tag k="addr:state" v="VT"/>
    <tag k="ref:vcgi:esiteid" v="197023"/>
  </node>
  <node id="-1051" visible="true" lat="43.92538833" lon="-72.66751861">
    <tag k="addr:city" v="Randolph"/>
    <tag k="addr:housenumber" v="5"/>
    <tag k="addr:street" v="School Street"/>
    <tag k="addr:state" v="VT"/>
    <tag k="ref:vcgi:esiteid" v="197024"/>
  </node>
  <node id="-1052" visible="true" lat="43.92536544" lon="-72.66724395">
    <tag k="addr:city" v="Randolph"/>
    <tag k="addr:housenumber" v="3"/>
    <tag k="addr:street" v="School Street"/>
    <tag k="addr:state" v="VT"/>
    <tag k="ref:vcgi:esiteid" v="197025"/>
  </node>
  <node id="-1053" visible="true" lat="43.92533493" lon="-72.67879486">
    <tag k="addr:city" v="Randolph"/>
    <tag k="addr:housenumber" v="4"/>
    <tag k="addr:street" v="Brook Street"/>
    <tag k="addr:state" v="VT"/>
    <tag k="ref:vcgi:esiteid" v="197026"/>
  </node>
  <node id="-1054" visible="true" lat="43.92531967" lon="-72.66672515">
    <tag k="addr:city" v="Randolph"/>
    <tag k="addr:housenumber" v="1"/>
    <tag k="addr:street" v="School Street"/>
    <tag k="addr:state" v="VT"/>
    <tag k="ref:vcgi:esiteid" v="197027"/>
  </node>
  <node id="-1055" visible="true" lat="43.92531585" lon="-72.66786193">
    <tag k="addr:city" v="Randolph"/>
    <tag k="addr:housenumber" v="7"/>
    <tag k="addr:street" v="School Street"/>
    <tag k="addr:state" v="VT"/>
    <tag k="ref:vcgi:esiteid" v="197028"/>
  </node>
  <node id="-1056" visible="true" lat="43.92528256" lon="-72.68274126">
    <tag k="addr:city" v="Randolph"/>
    <tag k="addr:housenumber" v="24"/>
    <tag k="addr:street" v="Jacobs Drive"/>
    <tag k="addr:state" v="VT"/>
    <tag k="ref:vcgi:esiteid" v="197029"/>
  </node>
  <node id="-1057" visible="true" lat="43.92533544" lon="-72.68601334">
    <tag k="addr:city" v="Randolph"/>
    <tag k="addr:housenumber" v="209"/>
    <tag k="addr:street" v="Tilton Road"/>
    <tag k="addr:state" v="VT"/>
    <tag k="ref:vcgi:esiteid" v="197030"/>
  </node>
  <node id="-1058" visible="true" lat="43.92523771" lon="-72.68260867">
    <tag k="addr:city" v="Randolph"/>
    <tag k="addr:housenumber" v="14"/>
    <tag k="addr:street" v="Jacobs Drive"/>
    <tag k="addr:state" v="VT"/>
    <tag k="ref:vcgi:esiteid" v="197031"/>
  </node>
  <node id="-1059" visible="true" lat="43.92526626" lon="-72.6681137">
    <tag k="addr:city" v="Randolph"/>
    <tag k="addr:housenumber" v="9"/>
    <tag k="addr:street" v="School Street"/>
    <tag k="addr:state" v="VT"/>
    <tag k="ref:vcgi:esiteid" v="197032"/>
  </node>
  <node id="-1060" visible="true" lat="43.92521667" lon="-72.67833709">
    <tag k="addr:city" v="Randolph"/>
    <tag k="addr:housenumber" v="2"/>
    <tag k="addr:street" v="Brook Street"/>
    <tag k="addr:state" v="VT"/>
    <tag k="ref:vcgi:esiteid" v="197034"/>
  </node>
  <node id="-1061" visible="true" lat="43.92518149" lon="-72.68173242">
    <tag k="addr:city" v="Randolph"/>
    <tag k="addr:housenumber" v="90"/>
    <tag k="addr:street" v="Jacobs Court"/>
    <tag k="addr:state" v="VT"/>
    <tag k="ref:vcgi:esiteid" v="197035"/>
  </node>
  <node id="-1062" visible="true" lat="43.92518235" lon="-72.66872282">
    <tag k="addr:city" v="Randolph"/>
    <tag k="addr:housenumber" v="13"/>
    <tag k="addr:street" v="School Street"/>
    <tag k="addr:state" v="VT"/>
    <tag k="ref:vcgi:esiteid" v="197036"/>
  </node>
  <node id="-1063" visible="true" lat="43.92517046" lon="-72.68246597">
    <tag k="addr:city" v="Randolph"/>
    <tag k="addr:housenumber" v="6"/>
    <tag k="addr:street" v="Jacobs Drive"/>
    <tag k="addr:state" v="VT"/>
    <tag k="ref:vcgi:esiteid" v="197037"/>
  </node>
  <node id="-1064" visible="true" lat="43.92525247" lon="-72.6655209">
    <tag k="addr:city" v="Randolph"/>
    <tag k="addr:housenumber" v="67"/>
    <tag k="addr:street" v="North Main Street"/>
    <tag k="addr:state" v="VT"/>
    <tag k="ref:vcgi:esiteid" v="197038"/>
  </node>
  <node id="-1065" visible="true" lat="43.92510223" lon="-72.6819992">
    <tag k="addr:city" v="Randolph"/>
    <tag k="addr:housenumber" v="88"/>
    <tag k="addr:street" v="Jacobs Court"/>
    <tag k="addr:state" v="VT"/>
    <tag k="ref:vcgi:esiteid" v="197039"/>
  </node>
  <node id="-1066" visible="true" lat="43.92511749" lon="-72.6806607">
    <tag k="addr:city" v="Randolph"/>
    <tag k="addr:housenumber" v="236"/>
    <tag k="addr:street" v="Thayer Brook Road"/>
    <tag k="addr:state" v="VT"/>
    <tag k="ref:vcgi:esiteid" v="197040"/>
  </node>
  <node id="-1067" visible="true" lat="43.92509621" lon="-72.66947001">
    <tag k="addr:city" v="Randolph"/>
    <tag k="addr:housenumber" v="20"/>
    <tag k="addr:street" v="Woodhaven Drive"/>
    <tag k="addr:state" v="VT"/>
    <tag k="ref:vcgi:esiteid" v="197041"/>
  </node>
  <node id="-1068" visible="true" lat="43.9250679" lon="-72.68291179">
    <tag k="addr:city" v="Randolph"/>
    <tag k="addr:housenumber" v="23"/>
    <tag k="addr:street" v="Jacobs Drive"/>
    <tag k="addr:state" v="VT"/>
    <tag k="ref:vcgi:esiteid" v="197042"/>
  </node>
  <node id="-1069" visible="true" lat="43.92501449" lon="-72.68208312">
    <tag k="addr:city" v="Randolph"/>
    <tag k="addr:housenumber" v="80"/>
    <tag k="addr:street" v="Jacobs Court"/>
    <tag k="addr:state" v="VT"/>
    <tag k="ref:vcgi:esiteid" v="197043"/>
  </node>
  <node id="-1070" visible="true" lat="43.92497634" lon="-72.67064666">
    <tag k="addr:city" v="Randolph"/>
    <tag k="addr:housenumber" v="21"/>
    <tag k="addr:street" v="School Street"/>
    <tag k="addr:state" v="VT"/>
    <tag k="ref:vcgi:esiteid" v="197045"/>
  </node>
  <node id="-1071" visible="true" lat="43.92495628" lon="-72.6829746">
    <tag k="addr:city" v="Randolph"/>
    <tag k="addr:housenumber" v="53"/>
    <tag k="addr:street" v="Jacobs Court"/>
    <tag k="addr:state" v="VT"/>
    <tag k="ref:vcgi:esiteid" v="197046"/>
  </node>
  <node id="-1072" visible="true" lat="43.92494964" lon="-72.67022705">
    <tag k="addr:city" v="Randolph"/>
    <tag k="addr:housenumber" v="19"/>
    <tag k="addr:street" v="School Street"/>
    <tag k="addr:state" v="VT"/>
    <tag k="ref:vcgi:esiteid" v="197047"/>
  </node>
  <node id="-1074" visible="true" lat="43.92491912" lon="-72.68217468">
    <tag k="addr:city" v="Randolph"/>
    <tag k="addr:housenumber" v="72"/>
    <tag k="addr:street" v="Jacobs Court"/>
    <tag k="addr:state" v="VT"/>
    <tag k="ref:vcgi:esiteid" v="197050"/>
  </node>
  <node id="-1075" visible="true" lat="43.92491149" lon="-72.67195892">
    <tag k="addr:city" v="Randolph"/>
    <tag k="addr:housenumber" v="27"/>
    <tag k="addr:street" v="School Street"/>
    <tag k="addr:state" v="VT"/>
    <tag k="ref:vcgi:esiteid" v="197051"/>
  </node>
  <node id="-1078" visible="true" lat="43.9248619" lon="-72.66693878">
    <tag k="addr:city" v="Randolph"/>
    <tag k="addr:housenumber" v="6"/>
    <tag k="addr:street" v="School Street"/>
    <tag k="addr:state" v="VT"/>
    <tag k="ref:vcgi:esiteid" v="197054"/>
  </node>
  <node id="-1079" visible="true" lat="43.92485046" lon="-72.67233276">
    <tag k="addr:city" v="Randolph"/>
    <tag k="addr:housenumber" v="29"/>
    <tag k="addr:street" v="School Street"/>
    <tag k="addr:state" v="VT"/>
    <tag k="ref:vcgi:esiteid" v="197056"/>
  </node>
  <node id="-1080" visible="true" lat="43.92485697" lon="-72.66775642">
    <tag k="addr:city" v="Randolph"/>
    <tag k="addr:housenumber" v="10"/>
    <tag k="addr:street" v="School Street"/>
    <tag k="addr:state" v="VT"/>
    <tag k="ref:vcgi:esiteid" v="197057"/>
  </node>
  <node id="-1081" visible="true" lat="43.92481231" lon="-72.68222808">
    <tag k="addr:city" v="Randolph"/>
    <tag k="addr:housenumber" v="64"/>
    <tag k="addr:street" v="Jacobs Court"/>
    <tag k="addr:state" v="VT"/>
    <tag k="ref:vcgi:esiteid" v="197058"/>
  </node>
  <node id="-1082" visible="true" lat="43.9248085" lon="-72.6726303">
    <tag k="addr:city" v="Randolph"/>
    <tag k="addr:housenumber" v="31"/>
    <tag k="addr:street" v="School Street"/>
    <tag k="addr:state" v="VT"/>
    <tag k="ref:vcgi:esiteid" v="197059"/>
  </node>
  <node id="-1083" visible="true" lat="43.92490271" lon="-72.66599208">
    <tag k="addr:city" v="Randolph"/>
    <tag k="addr:housenumber" v="28"/>
    <tag k="addr:street" v="North Main Street"/>
    <tag k="addr:state" v="VT"/>
    <tag k="ref:vcgi:esiteid" v="197060"/>
  </node>
  <node id="-1084" visible="true" lat="43.92482732" lon="-72.66813673">
    <tag k="addr:city" v="Randolph"/>
    <tag k="addr:housenumber" v="12"/>
    <tag k="addr:street" v="School Street"/>
    <tag k="addr:state" v="VT"/>
    <tag k="ref:vcgi:esiteid" v="197061"/>
  </node>
  <node id="-1085" visible="true" lat="43.92475128" lon="-72.66887664">
    <tag k="addr:city" v="Randolph"/>
    <tag k="addr:housenumber" v="12"/>
    <tag k="addr:street" v="Franklin Street"/>
    <tag k="addr:state" v="VT"/>
    <tag k="ref:vcgi:esiteid" v="197062"/>
  </node>
  <node id="-1086" visible="true" lat="43.92473983" lon="-72.67298126">
    <tag k="addr:city" v="Randolph"/>
    <tag k="addr:housenumber" v="33"/>
    <tag k="addr:street" v="School Street"/>
    <tag k="addr:state" v="VT"/>
    <tag k="ref:vcgi:esiteid" v="197063"/>
  </node>
  <node id="-1087" visible="true" lat="43.9247336" lon="-72.68303345">
    <tag k="addr:city" v="Randolph"/>
    <tag k="addr:housenumber" v="39"/>
    <tag k="addr:street" v="Jacobs Court"/>
    <tag k="addr:state" v="VT"/>
    <tag k="ref:vcgi:esiteid" v="197064"/>
  </node>
  <node id="-1088" visible="true" lat="43.92470931" lon="-72.68234252">
    <tag k="addr:city" v="Randolph"/>
    <tag k="addr:housenumber" v="56"/>
    <tag k="addr:street" v="Jacobs Court"/>
    <tag k="addr:state" v="VT"/>
    <tag k="ref:vcgi:esiteid" v="197065"/>
  </node>
  <node id="-1089" visible="true" lat="43.92472839" lon="-72.66921234">
    <tag k="addr:city" v="Randolph"/>
    <tag k="addr:housenumber" v="18"/>
    <tag k="addr:street" v="School Street"/>
    <tag k="addr:state" v="VT"/>
    <tag k="ref:vcgi:esiteid" v="197066"/>
  </node>
  <node id="-1090" visible="true" lat="43.92474512" lon="-72.66511401">
    <tag k="addr:city" v="Randolph"/>
    <tag k="addr:housenumber" v="65"/>
    <tag k="addr:street" v="North Main Street"/>
    <tag k="addr:state" v="VT"/>
    <tag k="ref:vcgi:esiteid" v="197067"/>
  </node>
  <node id="-1091" visible="true" lat="43.92469406" lon="-72.67356109">
    <tag k="addr:city" v="Randolph"/>
    <tag k="addr:housenumber" v="37"/>
    <tag k="addr:street" v="School Street"/>
    <tag k="addr:state" v="VT"/>
    <tag k="ref:vcgi:esiteid" v="197068"/>
  </node>
  <node id="-1092" visible="true" lat="43.92468643" lon="-72.67397308">
    <tag k="addr:city" v="Randolph"/>
    <tag k="addr:housenumber" v="39"/>
    <tag k="addr:street" v="School Street"/>
    <tag k="addr:state" v="VT"/>
    <tag k="ref:vcgi:esiteid" v="197069"/>
  </node>
  <node id="-1093" visible="true" lat="43.92478677" lon="-72.66848968">
    <tag k="addr:city" v="Randolph"/>
    <tag k="addr:housenumber" v="14"/>
    <tag k="addr:street" v="School Street"/>
    <tag k="addr:state" v="VT"/>
    <tag k="ref:vcgi:esiteid" v="197070"/>
  </node>
  <node id="-1094" visible="true" lat="43.92465591" lon="-72.66679382">
    <tag k="addr:city" v="Randolph"/>
    <tag k="addr:housenumber" v="15"/>
    <tag k="addr:street" v="Summer Street"/>
    <tag k="addr:state" v="VT"/>
    <tag k="ref:vcgi:esiteid" v="197071"/>
  </node>
  <node id="-1095" visible="true" lat="43.92462539" lon="-72.68243408">
    <tag k="addr:city" v="Randolph"/>
    <tag k="addr:housenumber" v="48"/>
    <tag k="addr:street" v="Jacobs Court"/>
    <tag k="addr:state" v="VT"/>
    <tag k="ref:vcgi:esiteid" v="197073"/>
  </node>
  <node id="-1096" visible="true" lat="43.92464458" lon="-72.66940897">
    <tag k="addr:city" v="Randolph"/>
    <tag k="addr:housenumber" v="20"/>
    <tag k="addr:street" v="School Street"/>
    <tag k="addr:state" v="VT"/>
    <tag k="ref:vcgi:esiteid" v="197074"/>
  </node>
  <node id="-1097" visible="true" lat="43.92461013" lon="-72.68299865">
    <tag k="addr:city" v="Randolph"/>
    <tag k="addr:housenumber" v="33"/>
    <tag k="addr:street" v="Jacobs Court"/>
    <tag k="addr:state" v="VT"/>
    <tag k="ref:vcgi:esiteid" v="197075"/>
  </node>
  <node id="-1098" visible="true" lat="43.92462158" lon="-72.66996765">
    <tag k="addr:city" v="Randolph"/>
    <tag k="addr:housenumber" v="24"/>
    <tag k="addr:street" v="School Street"/>
    <tag k="addr:state" v="VT"/>
    <tag k="ref:vcgi:esiteid" v="197076"/>
  </node>
  <node id="-1100" visible="true" lat="43.92455673" lon="-72.67053222">
    <tag k="addr:city" v="Randolph"/>
    <tag k="addr:housenumber" v="28"/>
    <tag k="addr:street" v="School Street"/>
    <tag k="addr:state" v="VT"/>
    <tag k="ref:vcgi:esiteid" v="197078"/>
  </node>
  <node id="-1101" visible="true" lat="43.92455673" lon="-72.66738891">
    <tag k="addr:city" v="Randolph"/>
    <tag k="addr:housenumber" v="14"/>
    <tag k="addr:street" v="Summer Street"/>
    <tag k="addr:state" v="VT"/>
    <tag k="ref:vcgi:esiteid" v="197079"/>
  </node>
  <node id="-1102" visible="true" lat="43.92452621" lon="-72.68193817">
    <tag k="addr:city" v="Randolph"/>
    <tag k="addr:housenumber" v="276"/>
    <tag k="addr:street" v="Thayer Brook Road"/>
    <tag k="addr:state" v="VT"/>
    <tag k="ref:vcgi:esiteid" v="197080"/>
  </node>
  <node id="-1103" visible="true" lat="43.92452621" lon="-72.68252563">
    <tag k="addr:city" v="Randolph"/>
    <tag k="addr:housenumber" v="40"/>
    <tag k="addr:street" v="Jacobs Court"/>
    <tag k="addr:state" v="VT"/>
    <tag k="ref:vcgi:esiteid" v="197081"/>
  </node>
  <node id="-1104" visible="true" lat="43.92454147" lon="-72.67021179">
    <tag k="addr:city" v="Randolph"/>
    <tag k="addr:housenumber" v="26"/>
    <tag k="addr:street" v="School Street"/>
    <tag k="addr:state" v="VT"/>
    <tag k="ref:vcgi:esiteid" v="197082"/>
  </node>
  <node id="-1105" visible="true" lat="43.92452239" lon="-72.67076873">
    <tag k="addr:city" v="Randolph"/>
    <tag k="addr:housenumber" v="30"/>
    <tag k="addr:street" v="School Street"/>
    <tag k="addr:state" v="VT"/>
    <tag k="ref:vcgi:esiteid" v="197083"/>
  </node>
  <node id="-1106" visible="true" lat="43.92449951" lon="-72.66680145">
    <tag k="addr:city" v="Randolph"/>
    <tag k="addr:housenumber" v="13"/>
    <tag k="addr:street" v="Summer Street"/>
    <tag k="addr:state" v="VT"/>
    <tag k="ref:vcgi:esiteid" v="197084"/>
  </node>
  <node id="-1107" visible="true" lat="43.92455862" lon="-72.66583086">
    <tag k="addr:city" v="Randolph"/>
    <tag k="addr:housenumber" v="26"/>
    <tag k="addr:street" v="North Main Street"/>
    <tag k="addr:state" v="VT"/>
    <tag k="ref:vcgi:esiteid" v="197086"/>
  </node>
  <node id="-1108" visible="true" lat="43.92444991" lon="-72.66883087">
    <tag k="addr:city" v="Randolph"/>
    <tag k="addr:housenumber" v="10"/>
    <tag k="addr:street" v="Franklin Street"/>
    <tag k="addr:state" v="VT"/>
    <tag k="ref:vcgi:esiteid" v="197087"/>
  </node>
  <node id="-1109" visible="true" lat="43.92443847" lon="-72.67182922">
    <tag k="addr:city" v="Randolph"/>
    <tag k="addr:housenumber" v="38"/>
    <tag k="addr:street" v="School Street"/>
    <tag k="addr:state" v="VT"/>
    <tag k="ref:vcgi:esiteid" v="197088"/>
  </node>
  <node id="-1110" visible="true" lat="43.92446616" lon="-72.6722078">
    <tag k="addr:city" v="Randolph"/>
    <tag k="addr:housenumber" v="40"/>
    <tag k="addr:street" v="School Street"/>
    <tag k="addr:state" v="VT"/>
    <tag k="ref:vcgi:esiteid" v="197089"/>
  </node>
  <node id="-1112" visible="true" lat="43.92454778" lon="-72.67141257">
    <tag k="addr:city" v="Randolph"/>
    <tag k="addr:housenumber" v="36"/>
    <tag k="addr:street" v="School Street"/>
    <tag k="addr:state" v="VT"/>
    <tag k="ref:vcgi:esiteid" v="197091"/>
  </node>
  <node id="-1113" visible="true" lat="43.92440998" lon="-72.68255315">
    <tag k="addr:city" v="Randolph"/>
    <tag k="addr:housenumber" v="30"/>
    <tag k="addr:street" v="Jacobs Court"/>
    <tag k="addr:state" v="VT"/>
    <tag k="ref:vcgi:esiteid" v="197092"/>
  </node>
  <node id="-1114" visible="true" lat="43.92438125" lon="-72.68344879">
    <tag k="addr:city" v="Randolph"/>
    <tag k="addr:housenumber" v="7"/>
    <tag k="addr:street" v="Jacobs Court"/>
    <tag k="addr:state" v="VT"/>
    <tag k="ref:vcgi:esiteid" v="197093"/>
  </node>
  <node id="-1115" visible="true" lat="43.92430648" lon="-72.67731392">
    <tag k="addr:city" v="Randolph"/>
    <tag k="addr:housenumber" v="38"/>
    <tag k="addr:street" v="Thayer Brook Road"/>
    <tag k="addr:state" v="VT"/>
    <tag k="ref:vcgi:esiteid" v="197094"/>
  </node>
  <node id="-1116" visible="true" lat="43.92438507" lon="-72.67262267">
    <tag k="addr:city" v="Randolph"/>
    <tag k="addr:housenumber" v="42"/>
    <tag k="addr:street" v="School Street"/>
    <tag k="addr:state" v="VT"/>
    <tag k="ref:vcgi:esiteid" v="197095"/>
  </node>
  <node id="-1117" visible="true" lat="43.92440504" lon="-72.66516571">
    <tag k="addr:city" v="Randolph"/>
    <tag k="addr:housenumber" v="10"/>
    <tag k="addr:street" v="Pleasant Street"/>
    <tag k="addr:state" v="VT"/>
    <tag k="ref:vcgi:esiteid" v="197097"/>
  </node>
  <node id="-1118" visible="true" lat="43.92433929" lon="-72.67303466">
    <tag k="addr:city" v="Randolph"/>
    <tag k="addr:housenumber" v="44"/>
    <tag k="addr:street" v="School Street"/>
    <tag k="addr:state" v="VT"/>
    <tag k="ref:vcgi:esiteid" v="197099"/>
  </node>
  <node id="-1120" visible="true" lat="43.9242345" lon="-72.67966434">
    <tag k="addr:city" v="Randolph"/>
    <tag k="addr:housenumber" v="146"/>
    <tag k="addr:street" v="Thayer Brook Road"/>
    <tag k="addr:state" v="VT"/>
    <tag k="ref:vcgi:esiteid" v="197101"/>
  </node>
  <node id="-1121" visible="true" lat="43.92434776" lon="-72.67337682">
    <tag k="addr:city" v="Randolph"/>
    <tag k="addr:housenumber" v="46"/>
    <tag k="addr:street" v="School Street"/>
    <tag k="addr:state" v="VT"/>
    <tag k="ref:vcgi:esiteid" v="197102"/>
  </node>
  <node id="-1122" visible="true" lat="43.92430496" lon="-72.67443084">
    <tag k="addr:city" v="Randolph"/>
    <tag k="addr:housenumber" v="50"/>
    <tag k="addr:street" v="School Street"/>
    <tag k="addr:state" v="VT"/>
    <tag k="ref:vcgi:esiteid" v="197103"/>
  </node>
  <node id="-1123" visible="true" lat="43.92429733" lon="-72.66880798">
    <tag k="addr:city" v="Randolph"/>
    <tag k="addr:housenumber" v="8"/>
    <tag k="addr:street" v="Franklin Street"/>
    <tag k="addr:state" v="VT"/>
    <tag k="ref:vcgi:esiteid" v="197105"/>
  </node>
  <node id="-1124" visible="true" lat="43.92427825" lon="-72.67385864">
    <tag k="addr:city" v="Randolph"/>
    <tag k="addr:housenumber" v="48"/>
    <tag k="addr:street" v="School Street"/>
    <tag k="addr:state" v="VT"/>
    <tag k="ref:vcgi:esiteid" v="197106"/>
  </node>
  <node id="-1125" visible="true" lat="43.92432142" lon="-72.66727051">
    <tag k="addr:city" v="Randolph"/>
    <tag k="addr:housenumber" v="12"/>
    <tag k="addr:street" v="Summer Street"/>
    <tag k="addr:state" v="VT"/>
    <tag k="ref:vcgi:esiteid" v="197107"/>
  </node>
  <node id="-1126" visible="true" lat="43.92436234" lon="-72.66570166">
    <tag k="addr:city" v="Randolph"/>
    <tag k="addr:housenumber" v="22"/>
    <tag k="addr:street" v="North Main Street"/>
    <tag k="addr:state" v="VT"/>
    <tag k="ref:vcgi:esiteid" v="197108"/>
  </node>
  <node id="-1127" visible="true" lat="43.92423967" lon="-72.68273844">
    <tag k="addr:city" v="Randolph"/>
    <tag k="addr:housenumber" v="16"/>
    <tag k="addr:street" v="Jacobs Court"/>
    <tag k="addr:state" v="VT"/>
    <tag k="ref:vcgi:esiteid" v="197109"/>
  </node>
  <node id="-1128" visible="true" lat="43.92432252" lon="-72.66506378">
    <tag k="addr:city" v="Randolph"/>
    <tag k="addr:housenumber" v="12"/>
    <tag k="addr:street" v="Pleasant Street"/>
    <tag k="addr:state" v="VT"/>
    <tag k="ref:vcgi:esiteid" v="197110"/>
  </node>
  <node id="-1129" visible="true" lat="43.92425155" lon="-72.66664886">
    <tag k="addr:city" v="Randolph"/>
    <tag k="addr:housenumber" v="11"/>
    <tag k="addr:street" v="Summer Street"/>
    <tag k="addr:state" v="VT"/>
    <tag k="ref:vcgi:esiteid" v="197111"/>
  </node>
  <node id="-1132" visible="true" lat="43.92433706" lon="-72.66827426">
    <tag k="addr:city" v="Randolph"/>
    <tag k="addr:housenumber" v="7"/>
    <tag k="addr:street" v="Franklin Street"/>
    <tag k="addr:state" v="VT"/>
    <tag k="ref:vcgi:esiteid" v="197114"/>
  </node>
  <node id="-1133" visible="true" lat="43.9242134" lon="-72.66749572">
    <tag k="addr:city" v="Randolph"/>
    <tag k="addr:housenumber" v="12 1/2"/>
    <tag k="addr:street" v="Summer Street"/>
    <tag k="addr:state" v="VT"/>
    <tag k="ref:vcgi:esiteid" v="197115"/>
  </node>
  <node id="-1134" visible="true" lat="43.92423787" lon="-72.66500179">
    <tag k="addr:city" v="Randolph"/>
    <tag k="addr:housenumber" v="14"/>
    <tag k="addr:street" v="Pleasant Street"/>
    <tag k="addr:state" v="VT"/>
    <tag k="ref:vcgi:esiteid" v="197117"/>
  </node>
  <node id="-1135" visible="true" lat="43.92417821" lon="-72.66566686">
    <tag k="addr:city" v="Randolph"/>
    <tag k="addr:housenumber" v="20"/>
    <tag k="addr:street" v="North Main Street"/>
    <tag k="addr:state" v="VT"/>
    <tag k="ref:vcgi:esiteid" v="197118"/>
  </node>
  <node id="-1136" visible="true" lat="43.92410278" lon="-72.6672821">
    <tag k="addr:city" v="Randolph"/>
    <tag k="addr:housenumber" v="10"/>
    <tag k="addr:street" v="Summer Street"/>
    <tag k="addr:state" v="VT"/>
    <tag k="ref:vcgi:esiteid" v="197119"/>
  </node>
  <node id="-1137" visible="true" lat="43.9241018" lon="-72.68225671">
    <tag k="addr:city" v="Randolph"/>
    <tag k="addr:housenumber" v="284"/>
    <tag k="addr:street" v="Thayer Brook Road"/>
    <tag k="addr:state" v="VT"/>
    <tag k="ref:vcgi:esiteid" v="197120"/>
  </node>
  <node id="-1138" visible="true" lat="43.92408752" lon="-72.66799163">
    <tag k="addr:city" v="Randolph"/>
    <tag k="addr:housenumber" v="5"/>
    <tag k="addr:street" v="Fales Street"/>
    <tag k="addr:state" v="VT"/>
    <tag k="ref:vcgi:esiteid" v="197121"/>
  </node>
  <node id="-1139" visible="true" lat="43.92406459" lon="-72.68110193">
    <tag k="addr:city" v="Randolph"/>
    <tag k="addr:housenumber" v="222"/>
    <tag k="addr:street" v="Thayer Brook Road"/>
    <tag k="addr:state" v="VT"/>
    <tag k="ref:vcgi:esiteid" v="197123"/>
  </node>
  <node id="-1141" visible="true" lat="43.92398081" lon="-72.68157812">
    <tag k="addr:city" v="Randolph"/>
    <tag k="addr:housenumber" v="252"/>
    <tag k="addr:street" v="Thayer Brook Road"/>
    <tag k="addr:state" v="VT"/>
    <tag k="ref:vcgi:esiteid" v="197126"/>
  </node>
  <node id="-1142" visible="true" lat="43.92402648" lon="-72.66667175">
    <tag k="addr:city" v="Randolph"/>
    <tag k="addr:housenumber" v="9"/>
    <tag k="addr:street" v="Summer Street"/>
    <tag k="addr:state" v="VT"/>
    <tag k="ref:vcgi:esiteid" v="197127"/>
  </node>
  <node id="-1143" visible="true" lat="43.92399804" lon="-72.67697545">
    <tag k="addr:city" v="Randolph"/>
    <tag k="addr:housenumber" v="19"/>
    <tag k="addr:street" v="Thayer Brook Road"/>
    <tag k="addr:state" v="VT"/>
    <tag k="ref:vcgi:esiteid" v="197128"/>
  </node>
  <node id="-1144" visible="true" lat="43.92399215" lon="-72.66822814">
    <tag k="addr:city" v="Randolph"/>
    <tag k="addr:housenumber" v="7"/>
    <tag k="addr:street" v="Fales Street"/>
    <tag k="addr:state" v="VT"/>
    <tag k="ref:vcgi:esiteid" v="197129"/>
  </node>
  <node id="-1145" visible="true" lat="43.92410827" lon="-72.66488068">
    <tag k="addr:city" v="Randolph"/>
    <tag k="addr:housenumber" v="16"/>
    <tag k="addr:street" v="Pleasant Street"/>
    <tag k="addr:state" v="VT"/>
    <tag k="ref:vcgi:esiteid" v="197130"/>
  </node>
  <node id="-1146" visible="true" lat="43.92394262" lon="-72.68307925">
    <tag k="addr:city" v="Randolph"/>
    <tag k="addr:housenumber" v="35"/>
    <tag k="addr:street" v="Tilton Road"/>
    <tag k="addr:state" v="VT"/>
    <tag k="ref:vcgi:esiteid" v="197131"/>
  </node>
  <node id="-1147" visible="true" lat="43.92379233" lon="-72.66893837">
    <tag k="addr:city" v="Randolph"/>
    <tag k="addr:housenumber" v="4"/>
    <tag k="addr:street" v="Franklin Street"/>
    <tag k="addr:state" v="VT"/>
    <tag k="ref:vcgi:esiteid" v="197135"/>
  </node>
  <node id="-1148" visible="true" lat="43.92387059" lon="-72.66713468">
    <tag k="addr:city" v="Randolph"/>
    <tag k="addr:housenumber" v="8"/>
    <tag k="addr:street" v="Summer Street"/>
    <tag k="addr:state" v="VT"/>
    <tag k="ref:vcgi:esiteid" v="197136"/>
  </node>
  <node id="-1149" visible="true" lat="43.92367751" lon="-72.66652961">
    <tag k="addr:city" v="Randolph"/>
    <tag k="addr:housenumber" v="7"/>
    <tag k="addr:street" v="Summer Street"/>
    <tag k="addr:state" v="VT"/>
    <tag k="ref:vcgi:esiteid" v="197137"/>
  </node>
  <node id="-1150" visible="true" lat="43.9236775" lon="-72.67475163">
    <tag k="addr:city" v="Randolph"/>
    <tag k="addr:housenumber" v="54"/>
    <tag k="addr:street" v="Weston Street"/>
    <tag k="addr:state" v="VT"/>
    <tag k="ref:vcgi:esiteid" v="197138"/>
  </node>
  <node id="-1151" visible="true" lat="43.92388814" lon="-72.66575371">
    <tag k="addr:city" v="Randolph"/>
    <tag k="addr:housenumber" v="18"/>
    <tag k="addr:street" v="North Main Street"/>
    <tag k="addr:state" v="VT"/>
    <tag k="ref:vcgi:esiteid" v="197139"/>
  </node>
  <node id="-1153" visible="true" lat="43.92379707" lon="-72.66762577">
    <tag k="addr:city" v="Randolph"/>
    <tag k="addr:housenumber" v="4"/>
    <tag k="addr:street" v="Fales Street"/>
    <tag k="addr:state" v="VT"/>
    <tag k="ref:vcgi:esiteid" v="197142"/>
  </node>
  <node id="-1154" visible="true" lat="43.92364887" lon="-72.67277255">
    <tag k="addr:city" v="Randolph"/>
    <tag k="addr:housenumber" v="47"/>
    <tag k="addr:street" v="Weston Street"/>
    <tag k="addr:state" v="VT"/>
    <tag k="ref:vcgi:esiteid" v="197143"/>
  </node>
  <node id="-1156" visible="true" lat="43.92369448" lon="-72.6815535">
    <tag k="addr:city" v="Randolph"/>
    <tag k="addr:housenumber" v="243"/>
    <tag k="addr:street" v="Thayer Brook Road"/>
    <tag k="addr:state" v="VT"/>
    <tag k="ref:vcgi:esiteid" v="197145"/>
  </node>
  <node id="-1157" visible="true" lat="43.92377364" lon="-72.66783171">
    <tag k="addr:city" v="Randolph"/>
    <tag k="addr:housenumber" v="6"/>
    <tag k="addr:street" v="Fales Street"/>
    <tag k="addr:state" v="VT"/>
    <tag k="ref:vcgi:esiteid" v="197146"/>
  </node>
  <node id="-1158" visible="true" lat="43.92365975" lon="-72.68266397">
    <tag k="addr:city" v="Randolph"/>
    <tag k="addr:housenumber" v="317"/>
    <tag k="addr:street" v="Thayer Brook Road"/>
    <tag k="addr:state" v="VT"/>
    <tag k="ref:vcgi:esiteid" v="197147"/>
  </node>
  <node id="-1159" visible="true" lat="43.9236145" lon="-72.66706085">
    <tag k="addr:city" v="Randolph"/>
    <tag k="addr:housenumber" v="6"/>
    <tag k="addr:street" v="Summer Street"/>
    <tag k="addr:state" v="VT"/>
    <tag k="ref:vcgi:esiteid" v="197148"/>
  </node>
  <node id="-1160" visible="true" lat="43.92372353" lon="-72.66812079">
    <tag k="addr:city" v="Randolph"/>
    <tag k="addr:housenumber" v="8"/>
    <tag k="addr:street" v="Fales Street"/>
    <tag k="addr:state" v="VT"/>
    <tag k="ref:vcgi:esiteid" v="197149"/>
  </node>
  <node id="-1161" visible="true" lat="43.92357252" lon="-72.67393211">
    <tag k="addr:city" v="Randolph"/>
    <tag k="addr:housenumber" v="50"/>
    <tag k="addr:street" v="Weston Street"/>
    <tag k="addr:state" v="VT"/>
    <tag k="ref:vcgi:esiteid" v="197150"/>
  </node>
  <node id="-1162" visible="true" lat="43.92373245" lon="-72.66388385">
    <tag k="addr:city" v="Randolph"/>
    <tag k="addr:housenumber" v="24"/>
    <tag k="addr:street" v="Pleasant Street"/>
    <tag k="addr:state" v="VT"/>
    <tag k="ref:vcgi:esiteid" v="197152"/>
  </node>
  <node id="-1163" visible="true" lat="43.92363778" lon="-72.66492269">
    <tag k="addr:city" v="Randolph"/>
    <tag k="addr:housenumber" v="35"/>
    <tag k="addr:street" v="North Main Street"/>
    <tag k="addr:state" v="VT"/>
    <tag k="ref:vcgi:esiteid" v="197153"/>
  </node>
  <node id="-1164" visible="true" lat="43.92343139" lon="-72.67201232">
    <tag k="addr:city" v="Randolph"/>
    <tag k="addr:housenumber" v="43"/>
    <tag k="addr:street" v="Weston Street"/>
    <tag k="addr:state" v="VT"/>
    <tag k="ref:vcgi:esiteid" v="197154"/>
  </node>
  <node id="-1166" visible="true" lat="43.92335891" lon="-72.66699981">
    <tag k="addr:city" v="Randolph"/>
    <tag k="addr:housenumber" v="4"/>
    <tag k="addr:street" v="Summer Street"/>
    <tag k="addr:state" v="VT"/>
    <tag k="ref:vcgi:esiteid" v="197160"/>
  </node>
  <node id="-1167" visible="true" lat="43.92336553" lon="-72.66817721">
    <tag k="addr:city" v="Randolph"/>
    <tag k="addr:housenumber" v="1"/>
    <tag k="addr:street" v="Franklin Street"/>
    <tag k="addr:state" v="VT"/>
    <tag k="ref:vcgi:esiteid" v="197161"/>
  </node>
  <node id="-1169" visible="true" lat="43.92332469" lon="-72.67263807">
    <tag k="addr:city" v="Randolph"/>
    <tag k="addr:housenumber" v="48"/>
    <tag k="addr:street" v="Weston Street"/>
    <tag k="addr:state" v="VT"/>
    <tag k="ref:vcgi:esiteid" v="197164"/>
  </node>
  <node id="-1170" visible="true" lat="43.92328643" lon="-72.66782379">
    <tag k="addr:city" v="Randolph"/>
    <tag k="addr:housenumber" v="17"/>
    <tag k="addr:street" v="Salisbury Street"/>
    <tag k="addr:state" v="VT"/>
    <tag k="ref:vcgi:esiteid" v="197166"/>
  </node>
  <node id="-1172" visible="true" lat="43.92324829" lon="-72.66765594">
    <tag k="addr:city" v="Randolph"/>
    <tag k="addr:housenumber" v="15"/>
    <tag k="addr:street" v="Salisbury Street"/>
    <tag k="addr:state" v="VT"/>
    <tag k="ref:vcgi:esiteid" v="197168"/>
  </node>
  <node id="-1176" visible="true" lat="43.92317768" lon="-72.67132203">
    <tag k="addr:city" v="Randolph"/>
    <tag k="addr:housenumber" v="41"/>
    <tag k="addr:street" v="Weston Street"/>
    <tag k="addr:state" v="VT"/>
    <tag k="ref:vcgi:esiteid" v="197172"/>
  </node>
  <node id="-1177" visible="true" lat="43.92322436" lon="-72.66750753">
    <tag k="addr:city" v="Randolph"/>
    <tag k="addr:housenumber" v="13"/>
    <tag k="addr:street" v="Salisbury Street"/>
    <tag k="addr:state" v="VT"/>
    <tag k="ref:vcgi:esiteid" v="197173"/>
  </node>
  <node id="-1180" visible="true" lat="43.92328391" lon="-72.66409178">
    <tag k="addr:city" v="Randolph"/>
    <tag k="addr:housenumber" v="26"/>
    <tag k="addr:street" v="Pleasant Street"/>
    <tag k="addr:state" v="VT"/>
    <tag k="ref:vcgi:esiteid" v="197176"/>
  </node>
  <node id="-1182" visible="true" lat="43.92309188" lon="-72.67207336">
    <tag k="addr:city" v="Randolph"/>
    <tag k="addr:housenumber" v="42"/>
    <tag k="addr:street" v="Weston Street"/>
    <tag k="addr:state" v="VT"/>
    <tag k="ref:vcgi:esiteid" v="197178"/>
  </node>
  <node id="-1183" visible="true" lat="43.92313084" lon="-72.65746371">
    <tag k="addr:city" v="Randolph"/>
    <tag k="addr:housenumber" v="48"/>
    <tag k="addr:street" v="Randolph Avenue"/>
    <tag k="addr:state" v="VT"/>
    <tag k="ref:vcgi:esiteid" v="197179"/>
  </node>
  <node id="-1185" visible="true" lat="43.92312452" lon="-72.66390791">
    <tag k="addr:city" v="Randolph"/>
    <tag k="addr:housenumber" v="28"/>
    <tag k="addr:street" v="Pleasant Street"/>
    <tag k="addr:state" v="VT"/>
    <tag k="ref:vcgi:esiteid" v="197181"/>
  </node>
  <node id="-1187" visible="true" lat="43.92306514" lon="-72.67075547">
    <tag k="addr:city" v="Randolph"/>
    <tag k="addr:housenumber" v="39"/>
    <tag k="addr:street" v="Weston Street"/>
    <tag k="addr:state" v="VT"/>
    <tag k="ref:vcgi:esiteid" v="197184"/>
  </node>
  <node id="-1189" visible="true" lat="43.92302206" lon="-72.66381608">
    <tag k="addr:city" v="Randolph"/>
    <tag k="addr:housenumber" v="30"/>
    <tag k="addr:street" v="Pleasant Street"/>
    <tag k="addr:state" v="VT"/>
    <tag k="ref:vcgi:esiteid" v="197186"/>
  </node>
  <node id="-1190" visible="true" lat="43.92299453" lon="-72.6706071">
    <tag k="addr:city" v="Randolph"/>
    <tag k="addr:housenumber" v="37"/>
    <tag k="addr:street" v="Weston Street"/>
    <tag k="addr:state" v="VT"/>
    <tag k="ref:vcgi:esiteid" v="197187"/>
  </node>
  <node id="-1192" visible="true" lat="43.9229545" lon="-72.67039291">
    <tag k="addr:city" v="Randolph"/>
    <tag k="addr:housenumber" v="35"/>
    <tag k="addr:street" v="Weston Street"/>
    <tag k="addr:state" v="VT"/>
    <tag k="ref:vcgi:esiteid" v="197189"/>
  </node>
  <node id="-1193" visible="true" lat="43.92298936" lon="-72.66511902">
    <tag k="addr:city" v="Randolph"/>
    <tag k="addr:housenumber" v="6"/>
    <tag k="addr:street" v="North Main Street"/>
    <tag k="addr:state" v="VT"/>
    <tag k="ref:vcgi:esiteid" v="197190"/>
  </node>
  <node id="-1194" visible="true" lat="43.92289153" lon="-72.67019824">
    <tag k="addr:city" v="Randolph"/>
    <tag k="addr:housenumber" v="33"/>
    <tag k="addr:street" v="Weston Street"/>
    <tag k="addr:state" v="VT"/>
    <tag k="ref:vcgi:esiteid" v="197191"/>
  </node>
  <node id="-1195" visible="true" lat="43.92294387" lon="-72.66542567">
    <tag k="addr:city" v="Randolph"/>
    <tag k="addr:housenumber" v="3"/>
    <tag k="addr:street" v="Salisbury Street"/>
    <tag k="addr:state" v="VT"/>
    <tag k="ref:vcgi:esiteid" v="197192"/>
  </node>
  <node id="-1196" visible="true" lat="43.92292835" lon="-72.65828689">
    <tag k="addr:city" v="Randolph"/>
    <tag k="addr:housenumber" v="44"/>
    <tag k="addr:street" v="Randolph Avenue"/>
    <tag k="addr:state" v="VT"/>
    <tag k="ref:vcgi:esiteid" v="197193"/>
  </node>
  <node id="-1197" visible="true" lat="43.92283246" lon="-72.6700095">
    <tag k="addr:city" v="Randolph"/>
    <tag k="addr:housenumber" v="31"/>
    <tag k="addr:street" v="Weston Street"/>
    <tag k="addr:state" v="VT"/>
    <tag k="ref:vcgi:esiteid" v="197194"/>
  </node>
  <node id="-1199" visible="true" lat="43.92288213" lon="-72.67149458">
    <tag k="addr:city" v="Randolph"/>
    <tag k="addr:housenumber" v="38"/>
    <tag k="addr:street" v="Weston Street"/>
    <tag k="addr:state" v="VT"/>
    <tag k="ref:vcgi:esiteid" v="197196"/>
  </node>
  <node id="-1200" visible="true" lat="43.92280197" lon="-72.66982269">
    <tag k="addr:city" v="Randolph"/>
    <tag k="addr:housenumber" v="29"/>
    <tag k="addr:street" v="Weston Street"/>
    <tag k="addr:state" v="VT"/>
    <tag k="ref:vcgi:esiteid" v="197197"/>
  </node>
  <node id="-1202" visible="true" lat="43.92286285" lon="-72.66659389">
    <tag k="addr:city" v="Randolph"/>
    <tag k="addr:housenumber" v="8"/>
    <tag k="addr:street" v="Salisbury Street"/>
    <tag k="addr:state" v="VT"/>
    <tag k="ref:vcgi:esiteid" v="197199"/>
  </node>
  <node id="-1203" visible="true" lat="43.9230261" lon="-72.66576266">
    <tag k="addr:city" v="Randolph"/>
    <tag k="addr:housenumber" v="5"/>
    <tag k="addr:street" v="Salisbury Street"/>
    <tag k="addr:state" v="VT"/>
    <tag k="ref:vcgi:esiteid" v="197200"/>
  </node>
  <node id="-1204" visible="true" lat="43.92270949" lon="-72.66320144">
    <tag k="addr:city" v="Randolph"/>
    <tag k="addr:housenumber" v="4"/>
    <tag k="addr:street" v="Randolph Avenue"/>
    <tag k="addr:state" v="VT"/>
    <tag k="ref:vcgi:esiteid" v="197201"/>
  </node>
  <node id="-1205" visible="true" lat="43.92279469" lon="-72.66636389">
    <tag k="addr:city" v="Randolph"/>
    <tag k="addr:housenumber" v="6"/>
    <tag k="addr:street" v="Salisbury Street"/>
    <tag k="addr:state" v="VT"/>
    <tag k="ref:vcgi:esiteid" v="197202"/>
  </node>
  <node id="-1206" visible="true" lat="43.92278906" lon="-72.66290291">
    <tag k="addr:city" v="Randolph"/>
    <tag k="addr:housenumber" v="8"/>
    <tag k="addr:street" v="Randolph Avenue"/>
    <tag k="addr:state" v="VT"/>
    <tag k="ref:vcgi:esiteid" v="197203"/>
  </node>
  <node id="-1207" visible="true" lat="43.92285796" lon="-72.66372286">
    <tag k="addr:city" v="Randolph"/>
    <tag k="addr:housenumber" v="34"/>
    <tag k="addr:street" v="Pleasant Street"/>
    <tag k="addr:state" v="VT"/>
    <tag k="ref:vcgi:esiteid" v="197204"/>
  </node>
  <node id="-1208" visible="true" lat="43.92262483" lon="-72.67096641">
    <tag k="addr:city" v="Randolph"/>
    <tag k="addr:housenumber" v="34"/>
    <tag k="addr:street" v="Weston Street"/>
    <tag k="addr:state" v="VT"/>
    <tag k="ref:vcgi:esiteid" v="197205"/>
  </node>
  <node id="-1209" visible="true" lat="43.92278023" lon="-72.66957837">
    <tag k="addr:city" v="Randolph"/>
    <tag k="addr:housenumber" v="27"/>
    <tag k="addr:street" v="Weston Street"/>
    <tag k="addr:state" v="VT"/>
    <tag k="ref:vcgi:esiteid" v="197206"/>
  </node>
  <node id="-1210" visible="true" lat="43.92266464" lon="-72.66916996">
    <tag k="addr:city" v="Randolph"/>
    <tag k="addr:housenumber" v="25"/>
    <tag k="addr:street" v="Weston Street"/>
    <tag k="addr:state" v="VT"/>
    <tag k="ref:vcgi:esiteid" v="197208"/>
  </node>
  <node id="-1214" visible="true" lat="43.92274513" lon="-72.66256304">
    <tag k="addr:city" v="Randolph"/>
    <tag k="addr:housenumber" v="12"/>
    <tag k="addr:street" v="Randolph Avenue"/>
    <tag k="addr:state" v="VT"/>
    <tag k="ref:vcgi:esiteid" v="197212"/>
  </node>
  <node id="-1215" visible="true" lat="43.92258487" lon="-72.66531632">
    <tag k="addr:city" v="Randolph"/>
    <tag k="addr:housenumber" v="2"/>
    <tag k="addr:street" v="Salisbury Street"/>
    <tag k="addr:state" v="VT"/>
    <tag k="ref:vcgi:esiteid" v="197213"/>
  </node>
  <node id="-1217" visible="true" lat="43.92269401" lon="-72.65847234">
    <tag k="addr:city" v="Randolph"/>
    <tag k="addr:housenumber" v="42"/>
    <tag k="addr:street" v="Randolph Avenue"/>
    <tag k="addr:state" v="VT"/>
    <tag k="ref:vcgi:esiteid" v="197215"/>
  </node>
  <node id="-1218" visible="true" lat="43.92263005" lon="-72.66098028">
    <tag k="addr:city" v="Randolph"/>
    <tag k="addr:housenumber" v="26"/>
    <tag k="addr:street" v="Randolph Avenue"/>
    <tag k="addr:state" v="VT"/>
    <tag k="ref:vcgi:esiteid" v="197216"/>
  </node>
  <node id="-1220" visible="true" lat="43.92266839" lon="-72.6688174">
    <tag k="addr:city" v="Randolph"/>
    <tag k="addr:housenumber" v="23"/>
    <tag k="addr:street" v="Weston Street"/>
    <tag k="addr:state" v="VT"/>
    <tag k="ref:vcgi:esiteid" v="197219"/>
  </node>
  <node id="-1221" visible="true" lat="43.92262085" lon="-72.67063085">
    <tag k="addr:city" v="Randolph"/>
    <tag k="addr:housenumber" v="32"/>
    <tag k="addr:street" v="Weston Street"/>
    <tag k="addr:state" v="VT"/>
    <tag k="ref:vcgi:esiteid" v="197221"/>
  </node>
  <node id="-1227" visible="true" lat="43.92255946" lon="-72.66837222">
    <tag k="addr:city" v="Randolph"/>
    <tag k="addr:housenumber" v="21"/>
    <tag k="addr:street" v="Weston Street"/>
    <tag k="addr:state" v="VT"/>
    <tag k="ref:vcgi:esiteid" v="197227"/>
  </node>
  <node id="-1229" visible="true" lat="43.92251341" lon="-72.66011423">
    <tag k="addr:city" v="Randolph"/>
    <tag k="addr:housenumber" v="34"/>
    <tag k="addr:street" v="Randolph Avenue"/>
    <tag k="addr:state" v="VT"/>
    <tag k="ref:vcgi:esiteid" v="197229"/>
  </node>
  <node id="-1230" visible="true" lat="43.92263682" lon="-72.66050622">
    <tag k="addr:city" v="Randolph"/>
    <tag k="addr:housenumber" v="30"/>
    <tag k="addr:street" v="Randolph Avenue"/>
    <tag k="addr:state" v="VT"/>
    <tag k="ref:vcgi:esiteid" v="197230"/>
  </node>
  <node id="-1231" visible="true" lat="43.92248326" lon="-72.67012608">
    <tag k="addr:city" v="Randolph"/>
    <tag k="addr:housenumber" v="1"/>
    <tag k="addr:street" v="Spring Street"/>
    <tag k="addr:state" v="VT"/>
    <tag k="ref:vcgi:esiteid" v="197232"/>
  </node>
  <node id="-1232" visible="true" lat="43.92247264" lon="-72.66593067">
    <tag k="addr:city" v="Randolph"/>
    <tag k="addr:housenumber" v="3"/>
    <tag k="addr:street" v="L Street"/>
    <tag k="addr:state" v="VT"/>
    <tag k="ref:vcgi:esiteid" v="197234"/>
  </node>
  <node id="-1233" visible="true" lat="43.92248741" lon="-72.65978002">
    <tag k="addr:city" v="Randolph"/>
    <tag k="addr:housenumber" v="36"/>
    <tag k="addr:street" v="Randolph Avenue"/>
    <tag k="addr:state" v="VT"/>
    <tag k="ref:vcgi:esiteid" v="197236"/>
  </node>
  <node id="-1234" visible="true" lat="43.92242813" lon="-72.66568756">
    <tag k="addr:city" v="Randolph"/>
    <tag k="addr:housenumber" v="1"/>
    <tag k="addr:street" v="L Street"/>
    <tag k="addr:state" v="VT"/>
    <tag k="ref:vcgi:esiteid" v="197237"/>
  </node>
  <node id="-1235" visible="true" lat="43.92244424" lon="-72.65935561">
    <tag k="addr:city" v="Randolph"/>
    <tag k="addr:housenumber" v="40"/>
    <tag k="addr:street" v="Randolph Avenue"/>
    <tag k="addr:state" v="VT"/>
    <tag k="ref:vcgi:esiteid" v="197238"/>
  </node>
  <node id="-1236" visible="true" lat="43.92240909" lon="-72.66268657">
    <tag k="addr:city" v="Randolph"/>
    <tag k="addr:housenumber" v="3"/>
    <tag k="addr:street" v="Randolph Avenue"/>
    <tag k="addr:state" v="VT"/>
    <tag k="ref:vcgi:esiteid" v="197239"/>
  </node>
  <node id="-1237" visible="true" lat="43.92240904" lon="-72.66974018">
    <tag k="addr:city" v="Randolph"/>
    <tag k="addr:housenumber" v="28"/>
    <tag k="addr:street" v="Weston Street"/>
    <tag k="addr:state" v="VT"/>
    <tag k="ref:vcgi:esiteid" v="197241"/>
  </node>
  <node id="-1238" visible="true" lat="43.92232709" lon="-72.66254995">
    <tag k="addr:city" v="Randolph"/>
    <tag k="addr:housenumber" v="5"/>
    <tag k="addr:street" v="Randolph Avenue"/>
    <tag k="addr:state" v="VT"/>
    <tag k="ref:vcgi:esiteid" v="197242"/>
  </node>
  <node id="-1239" visible="true" lat="43.92229843" lon="-72.66944122">
    <tag k="addr:city" v="Randolph"/>
    <tag k="addr:housenumber" v="26"/>
    <tag k="addr:street" v="Weston Street"/>
    <tag k="addr:state" v="VT"/>
    <tag k="ref:vcgi:esiteid" v="197244"/>
  </node>
  <node id="-1241" visible="true" lat="43.92236693" lon="-72.66229337">
    <tag k="addr:city" v="Randolph"/>
    <tag k="addr:housenumber" v="7"/>
    <tag k="addr:street" v="Randolph Avenue"/>
    <tag k="addr:state" v="VT"/>
    <tag k="ref:vcgi:esiteid" v="197246"/>
  </node>
  <node id="-1242" visible="true" lat="43.92228694" lon="-72.6616124">
    <tag k="addr:city" v="Randolph"/>
    <tag k="addr:housenumber" v="13"/>
    <tag k="addr:street" v="Randolph Avenue"/>
    <tag k="addr:state" v="VT"/>
    <tag k="ref:vcgi:esiteid" v="197247"/>
  </node>
  <node id="-1243" visible="true" lat="43.92231795" lon="-72.66190644">
    <tag k="addr:city" v="Randolph"/>
    <tag k="addr:housenumber" v="11"/>
    <tag k="addr:street" v="Randolph Avenue"/>
    <tag k="addr:state" v="VT"/>
    <tag k="ref:vcgi:esiteid" v="197248"/>
  </node>
  <node id="-1244" visible="true" lat="43.92216297" lon="-72.66641702">
    <tag k="addr:city" v="Randolph"/>
    <tag k="addr:housenumber" v="5"/>
    <tag k="addr:street" v="Weston Street"/>
    <tag k="addr:state" v="VT"/>
    <tag k="ref:vcgi:esiteid" v="197249"/>
  </node>
  <node id="-1245" visible="true" lat="43.922227" lon="-72.66136344">
    <tag k="addr:city" v="Randolph"/>
    <tag k="addr:housenumber" v="15"/>
    <tag k="addr:street" v="Randolph Avenue"/>
    <tag k="addr:state" v="VT"/>
    <tag k="ref:vcgi:esiteid" v="197250"/>
  </node>
  <node id="-1246" visible="true" lat="43.92214655" lon="-72.66424177">
    <tag k="addr:city" v="Randolph"/>
    <tag k="addr:housenumber" v="10"/>
    <tag k="addr:street" v="South Main Street"/>
    <tag k="addr:state" v="VT"/>
    <tag k="ref:vcgi:esiteid" v="197251"/>
  </node>
  <node id="-1247" visible="true" lat="43.92216873" lon="-72.66518402">
    <tag k="addr:city" v="Randolph"/>
    <tag k="addr:housenumber" v="1"/>
    <tag k="addr:street" v="South Main Street"/>
    <tag k="addr:state" v="VT"/>
    <tag k="ref:vcgi:esiteid" v="197252"/>
  </node>
  <node id="-1249" visible="true" lat="43.92220282" lon="-72.66097397">
    <tag k="addr:city" v="Randolph"/>
    <tag k="addr:housenumber" v="17"/>
    <tag k="addr:street" v="Randolph Avenue"/>
    <tag k="addr:state" v="VT"/>
    <tag k="ref:vcgi:esiteid" v="197254"/>
  </node>
  <node id="-1251" visible="true" lat="43.92213241" lon="-72.66812253">
    <tag k="addr:city" v="Randolph"/>
    <tag k="addr:housenumber" v="22"/>
    <tag k="addr:street" v="Weston Street"/>
    <tag k="addr:state" v="VT"/>
    <tag k="ref:vcgi:esiteid" v="197258"/>
  </node>
  <node id="-1252" visible="true" lat="43.92219895" lon="-72.66848621">
    <tag k="addr:city" v="Randolph"/>
    <tag k="addr:housenumber" v="24"/>
    <tag k="addr:street" v="Weston Street"/>
    <tag k="addr:state" v="VT"/>
    <tag k="ref:vcgi:esiteid" v="197259"/>
  </node>
  <node id="-1253" visible="true" lat="43.9221942" lon="-72.66060733">
    <tag k="addr:city" v="Randolph"/>
    <tag k="addr:housenumber" v="19"/>
    <tag k="addr:street" v="Randolph Avenue"/>
    <tag k="addr:state" v="VT"/>
    <tag k="ref:vcgi:esiteid" v="197261"/>
  </node>
  <node id="-1254" visible="true" lat="43.92214776" lon="-72.66024642">
    <tag k="addr:city" v="Randolph"/>
    <tag k="addr:housenumber" v="23"/>
    <tag k="addr:street" v="Randolph Avenue"/>
    <tag k="addr:state" v="VT"/>
    <tag k="ref:vcgi:esiteid" v="197262"/>
  </node>
  <node id="-1255" visible="true" lat="43.92212853" lon="-72.65993652">
    <tag k="addr:city" v="Randolph"/>
    <tag k="addr:housenumber" v="25"/>
    <tag k="addr:street" v="Randolph Avenue"/>
    <tag k="addr:state" v="VT"/>
    <tag k="ref:vcgi:esiteid" v="197263"/>
  </node>
  <node id="-1256" visible="true" lat="43.92206954" lon="-72.66406249">
    <tag k="addr:city" v="Randolph"/>
    <tag k="addr:housenumber" v="8"/>
    <tag k="addr:street" v="Railroad Street"/>
    <tag k="addr:state" v="VT"/>
    <tag k="ref:vcgi:esiteid" v="197264"/>
  </node>
  <node id="-1257" visible="true" lat="43.92210777" lon="-72.65963136">
    <tag k="addr:city" v="Randolph"/>
    <tag k="addr:housenumber" v="27"/>
    <tag k="addr:street" v="Randolph Avenue"/>
    <tag k="addr:state" v="VT"/>
    <tag k="ref:vcgi:esiteid" v="197265"/>
  </node>
  <node id="-1258" visible="true" lat="43.92208007" lon="-72.65934595">
    <tag k="addr:city" v="Randolph"/>
    <tag k="addr:housenumber" v="29"/>
    <tag k="addr:street" v="Randolph Avenue"/>
    <tag k="addr:state" v="VT"/>
    <tag k="ref:vcgi:esiteid" v="197266"/>
  </node>
  <node id="-1260" visible="true" lat="43.92198006" lon="-72.66763781">
    <tag k="addr:city" v="Randolph"/>
    <tag k="addr:housenumber" v="20"/>
    <tag k="addr:street" v="Weston Street"/>
    <tag k="addr:state" v="VT"/>
    <tag k="ref:vcgi:esiteid" v="197268"/>
  </node>
  <node id="-1261" visible="true" lat="43.92207222" lon="-72.66395616">
    <tag k="addr:city" v="Randolph"/>
    <tag k="addr:housenumber" v="6"/>
    <tag k="addr:street" v="Railroad Street"/>
    <tag k="addr:state" v="VT"/>
    <tag k="ref:vcgi:esiteid" v="197269"/>
  </node>
  <node id="-1263" visible="true" lat="43.92199848" lon="-72.66528862">
    <tag k="addr:city" v="Randolph"/>
    <tag k="addr:housenumber" v="3"/>
    <tag k="addr:street" v="South Main Street"/>
    <tag k="addr:state" v="VT"/>
    <tag k="ref:vcgi:esiteid" v="197271"/>
  </node>
  <node id="-1264" visible="true" lat="43.92204713" lon="-72.66379387">
    <tag k="addr:city" v="Randolph"/>
    <tag k="addr:housenumber" v="4"/>
    <tag k="addr:street" v="Railroad Street"/>
    <tag k="addr:state" v="VT"/>
    <tag k="ref:vcgi:esiteid" v="197272"/>
  </node>
  <node id="-1270" visible="true" lat="43.92184022" lon="-72.66344812">
    <tag k="addr:city" v="Randolph"/>
    <tag k="addr:housenumber" v="21"/>
    <tag k="addr:street" v="South Pleasant Street"/>
    <tag k="addr:state" v="VT"/>
    <tag k="ref:vcgi:esiteid" v="197279"/>
  </node>
  <node id="-1271" visible="true" lat="43.92170902" lon="-72.66772832">
    <tag k="addr:city" v="Randolph"/>
    <tag k="addr:housenumber" v="3"/>
    <tag k="addr:street" v="Dudley Street"/>
    <tag k="addr:state" v="VT"/>
    <tag k="ref:vcgi:esiteid" v="197280"/>
  </node>
  <node id="-1272" visible="true" lat="43.92180038" lon="-72.66535568">
    <tag k="addr:city" v="Randolph"/>
    <tag k="addr:housenumber" v="11"/>
    <tag k="addr:street" v="South Main Street"/>
    <tag k="addr:state" v="VT"/>
    <tag k="ref:vcgi:esiteid" v="197281"/>
  </node>
  <node id="-1273" visible="true" lat="43.92167379" lon="-72.66412795">
    <tag k="addr:city" v="Randolph"/>
    <tag k="addr:housenumber" v="8"/>
    <tag k="addr:street" v="Emerson Terrace"/>
    <tag k="addr:state" v="VT"/>
    <tag k="ref:vcgi:esiteid" v="197282"/>
  </node>
  <node id="-1274" visible="true" lat="43.92165202" lon="-72.66611877">
    <tag k="addr:city" v="Randolph"/>
    <tag k="addr:housenumber" v="8"/>
    <tag k="addr:street" v="Weston Street"/>
    <tag k="addr:state" v="VT"/>
    <tag k="ref:vcgi:esiteid" v="197283"/>
  </node>
  <node id="-1275" visible="true" lat="43.92169359" lon="-72.66331301">
    <tag k="addr:city" v="Randolph"/>
    <tag k="addr:housenumber" v="23"/>
    <tag k="addr:street" v="South Pleasant Street"/>
    <tag k="addr:state" v="VT"/>
    <tag k="ref:vcgi:esiteid" v="197284"/>
  </node>
  <node id="-1276" visible="true" lat="43.92157914" lon="-72.66396172">
    <tag k="addr:city" v="Randolph"/>
    <tag k="addr:housenumber" v="10"/>
    <tag k="addr:street" v="Emerson Terrace"/>
    <tag k="addr:state" v="VT"/>
    <tag k="ref:vcgi:esiteid" v="197285"/>
  </node>
  <node id="-1277" visible="true" lat="43.92167599" lon="-72.66860813">
    <tag k="addr:city" v="Randolph"/>
    <tag k="addr:housenumber" v="6"/>
    <tag k="addr:street" v="Hale Street"/>
    <tag k="addr:state" v="VT"/>
    <tag k="ref:vcgi:esiteid" v="197286"/>
  </node>
  <node id="-1278" visible="true" lat="43.92160415" lon="-72.66597747">
    <tag k="addr:city" v="Randolph"/>
    <tag k="addr:housenumber" v="6"/>
    <tag k="addr:street" v="Weston Street"/>
    <tag k="addr:state" v="VT"/>
    <tag k="ref:vcgi:esiteid" v="197287"/>
  </node>
  <node id="-1279" visible="true" lat="43.92148665" lon="-72.66250881">
    <tag k="addr:city" v="Randolph"/>
    <tag k="addr:housenumber" v="44"/>
    <tag k="addr:street" v="South Pleasant Street"/>
    <tag k="addr:state" v="VT"/>
    <tag k="ref:vcgi:esiteid" v="197289"/>
  </node>
  <node id="-1280" visible="true" lat="43.92165154" lon="-72.66486657">
    <tag k="addr:city" v="Randolph"/>
    <tag k="addr:housenumber" v="16"/>
    <tag k="addr:street" v="South Main Street"/>
    <tag k="addr:state" v="VT"/>
    <tag k="ref:vcgi:esiteid" v="197290"/>
  </node>
  <node id="-1281" visible="true" lat="43.92154312" lon="-72.66578674">
    <tag k="addr:city" v="Randolph"/>
    <tag k="addr:housenumber" v="4"/>
    <tag k="addr:street" v="Weston Street"/>
    <tag k="addr:state" v="VT"/>
    <tag k="ref:vcgi:esiteid" v="197291"/>
  </node>
  <node id="-1282" visible="true" lat="43.92147043" lon="-72.66379763">
    <tag k="addr:city" v="Randolph"/>
    <tag k="addr:housenumber" v="12"/>
    <tag k="addr:street" v="Emerson Terrace"/>
    <tag k="addr:state" v="VT"/>
    <tag k="ref:vcgi:esiteid" v="197292"/>
  </node>
  <node id="-1283" visible="true" lat="43.92154701" lon="-72.66553391">
    <tag k="addr:city" v="Randolph"/>
    <tag k="addr:housenumber" v="2"/>
    <tag k="addr:street" v="Weston Street"/>
    <tag k="addr:state" v="VT"/>
    <tag k="ref:vcgi:esiteid" v="197293"/>
  </node>
  <node id="-1284" visible="true" lat="43.92152439" lon="-72.66314702">
    <tag k="addr:city" v="Randolph"/>
    <tag k="addr:housenumber" v="25"/>
    <tag k="addr:street" v="South Pleasant Street"/>
    <tag k="addr:state" v="VT"/>
    <tag k="ref:vcgi:esiteid" v="197294"/>
  </node>
  <node id="-1286" visible="true" lat="43.92135358" lon="-72.66364143">
    <tag k="addr:city" v="Randolph"/>
    <tag k="addr:housenumber" v="14"/>
    <tag k="addr:street" v="Emerson Terrace"/>
    <tag k="addr:state" v="VT"/>
    <tag k="ref:vcgi:esiteid" v="197299"/>
  </node>
  <node id="-1287" visible="true" lat="43.92140197" lon="-72.66431426">
    <tag k="addr:city" v="Randolph"/>
    <tag k="addr:housenumber" v="5"/>
    <tag k="addr:street" v="Emerson Terrace"/>
    <tag k="addr:state" v="VT"/>
    <tag k="ref:vcgi:esiteid" v="197300"/>
  </node>
  <node id="-1288" visible="true" lat="43.92138671" lon="-72.66782379">
    <tag k="addr:city" v="Randolph"/>
    <tag k="addr:housenumber" v="5"/>
    <tag k="addr:street" v="Dudley Street"/>
    <tag k="addr:state" v="VT"/>
    <tag k="ref:vcgi:esiteid" v="197301"/>
  </node>
  <node id="-1289" visible="true" lat="43.92136298" lon="-72.66242916">
    <tag k="addr:city" v="Randolph"/>
    <tag k="addr:housenumber" v="46"/>
    <tag k="addr:street" v="South Pleasant Street"/>
    <tag k="addr:state" v="VT"/>
    <tag k="ref:vcgi:esiteid" v="197302"/>
  </node>
  <node id="-1290" visible="true" lat="43.92144271" lon="-72.66739646">
    <tag k="addr:city" v="Randolph"/>
    <tag k="addr:housenumber" v="6"/>
    <tag k="addr:street" v="Dudley Street"/>
    <tag k="addr:state" v="VT"/>
    <tag k="ref:vcgi:esiteid" v="197303"/>
  </node>
  <node id="-1291" visible="true" lat="43.92125299" lon="-72.66345479">
    <tag k="addr:city" v="Randolph"/>
    <tag k="addr:housenumber" v="16"/>
    <tag k="addr:street" v="Emerson Terrace"/>
    <tag k="addr:state" v="VT"/>
    <tag k="ref:vcgi:esiteid" v="197306"/>
  </node>
  <node id="-1292" visible="true" lat="43.92128793" lon="-72.66409224">
    <tag k="addr:city" v="Randolph"/>
    <tag k="addr:housenumber" v="7"/>
    <tag k="addr:street" v="Emerson Terrace"/>
    <tag k="addr:state" v="VT"/>
    <tag k="ref:vcgi:esiteid" v="197307"/>
  </node>
  <node id="-1294" visible="true" lat="43.92123904" lon="-72.6643823">
    <tag k="addr:city" v="Randolph"/>
    <tag k="addr:housenumber" v="3"/>
    <tag k="addr:street" v="Emerson Terrace"/>
    <tag k="addr:state" v="VT"/>
    <tag k="ref:vcgi:esiteid" v="197309"/>
  </node>
  <node id="-1295" visible="true" lat="43.92123979" lon="-72.66877547">
    <tag k="addr:city" v="Randolph"/>
    <tag k="addr:housenumber" v="10"/>
    <tag k="addr:street" v="Hale Street"/>
    <tag k="addr:state" v="VT"/>
    <tag k="ref:vcgi:esiteid" v="197310"/>
  </node>
  <node id="-1296" visible="true" lat="43.9211542" lon="-72.66065048">
    <tag k="addr:city" v="Randolph"/>
    <tag k="addr:housenumber" v="10"/>
    <tag k="addr:street" v="Pearl Street"/>
    <tag k="addr:state" v="VT"/>
    <tag k="ref:vcgi:esiteid" v="197311"/>
  </node>
  <node id="-1297" visible="true" lat="43.92110836" lon="-72.66489447">
    <tag k="addr:city" v="Randolph"/>
    <tag k="addr:housenumber" v="4"/>
    <tag k="addr:street" v="Emerson Terrace"/>
    <tag k="addr:state" v="VT"/>
    <tag k="ref:vcgi:esiteid" v="197313"/>
  </node>
  <node id="-1299" visible="true" lat="43.92118452" lon="-72.66750264">
    <tag k="addr:city" v="Randolph"/>
    <tag k="addr:housenumber" v="8"/>
    <tag k="addr:street" v="Dudley Street"/>
    <tag k="addr:state" v="VT"/>
    <tag k="ref:vcgi:esiteid" v="197315"/>
  </node>
  <node id="-1300" visible="true" lat="43.92112731" lon="-72.66223144">
    <tag k="addr:city" v="Randolph"/>
    <tag k="addr:housenumber" v="48"/>
    <tag k="addr:street" v="South Pleasant Street"/>
    <tag k="addr:state" v="VT"/>
    <tag k="ref:vcgi:esiteid" v="197316"/>
  </node>
  <node id="-1301" visible="true" lat="43.92103656" lon="-72.66034953">
    <tag k="addr:city" v="Randolph"/>
    <tag k="addr:housenumber" v="12"/>
    <tag k="addr:street" v="Pearl Street"/>
    <tag k="addr:state" v="VT"/>
    <tag k="ref:vcgi:esiteid" v="197317"/>
  </node>
  <node id="-1303" visible="true" lat="43.92103654" lon="-72.66380394">
    <tag k="addr:city" v="Randolph"/>
    <tag k="addr:housenumber" v="6"/>
    <tag k="addr:street" v="Church Street"/>
    <tag k="addr:state" v="VT"/>
    <tag k="ref:vcgi:esiteid" v="197319"/>
  </node>
  <node id="-1304" visible="true" lat="43.92111474" lon="-72.66283372">
    <tag k="addr:city" v="Randolph"/>
    <tag k="addr:housenumber" v="27"/>
    <tag k="addr:street" v="South Pleasant Street"/>
    <tag k="addr:state" v="VT"/>
    <tag k="ref:vcgi:esiteid" v="197320"/>
  </node>
  <node id="-1305" visible="true" lat="43.92104312" lon="-72.66758866">
    <tag k="addr:city" v="Randolph"/>
    <tag k="addr:housenumber" v="10"/>
    <tag k="addr:street" v="Dudley Street"/>
    <tag k="addr:state" v="VT"/>
    <tag k="ref:vcgi:esiteid" v="197321"/>
  </node>
  <node id="-1306" visible="true" lat="43.92093403" lon="-72.66401974">
    <tag k="addr:city" v="Randolph"/>
    <tag k="addr:housenumber" v="4"/>
    <tag k="addr:street" v="Church Street"/>
    <tag k="addr:state" v="VT"/>
    <tag k="ref:vcgi:esiteid" v="197322"/>
  </node>
  <node id="-1307" visible="true" lat="43.92095514" lon="-72.66494886">
    <tag k="addr:city" v="Randolph"/>
    <tag k="addr:housenumber" v="2"/>
    <tag k="addr:street" v="Emerson Terrace"/>
    <tag k="addr:state" v="VT"/>
    <tag k="ref:vcgi:esiteid" v="197323"/>
  </node>
  <node id="-1308" visible="true" lat="43.92098609" lon="-72.66799283">
    <tag k="addr:city" v="Randolph"/>
    <tag k="addr:housenumber" v="9"/>
    <tag k="addr:street" v="Dudley Street"/>
    <tag k="addr:state" v="VT"/>
    <tag k="ref:vcgi:esiteid" v="197324"/>
  </node>
  <node id="-1309" visible="true" lat="43.92092435" lon="-72.66207875">
    <tag k="addr:city" v="Randolph"/>
    <tag k="addr:housenumber" v="50"/>
    <tag k="addr:street" v="South Pleasant Street"/>
    <tag k="addr:state" v="VT"/>
    <tag k="ref:vcgi:esiteid" v="197325"/>
  </node>
  <node id="-1310" visible="true" lat="43.9209249" lon="-72.6600779">
    <tag k="addr:city" v="Randolph"/>
    <tag k="addr:housenumber" v="14"/>
    <tag k="addr:street" v="Pearl Street"/>
    <tag k="addr:state" v="VT"/>
    <tag k="ref:vcgi:esiteid" v="197326"/>
  </node>
  <node id="-1311" visible="true" lat="43.92089462" lon="-72.66316223">
    <tag k="addr:city" v="Randolph"/>
    <tag k="addr:housenumber" v="5"/>
    <tag k="addr:street" v="Church Street"/>
    <tag k="addr:state" v="VT"/>
    <tag k="ref:vcgi:esiteid" v="197328"/>
  </node>
  <node id="-1312" visible="true" lat="43.92089397" lon="-72.66451614">
    <tag k="addr:city" v="Randolph"/>
    <tag k="addr:housenumber" v="1"/>
    <tag k="addr:street" v="Emerson Terrace"/>
    <tag k="addr:state" v="VT"/>
    <tag k="ref:vcgi:esiteid" v="197329"/>
  </node>
  <node id="-1314" visible="true" lat="43.92087212" lon="-72.66908189">
    <tag k="addr:city" v="Randolph"/>
    <tag k="addr:housenumber" v="2"/>
    <tag k="addr:street" v="Greenwood Avenue"/>
    <tag k="addr:state" v="VT"/>
    <tag k="ref:vcgi:esiteid" v="197332"/>
  </node>
  <node id="-1315" visible="true" lat="43.92082977" lon="-72.66805267">
    <tag k="addr:city" v="Randolph"/>
    <tag k="addr:housenumber" v="11"/>
    <tag k="addr:street" v="Dudley Street"/>
    <tag k="addr:state" v="VT"/>
    <tag k="ref:vcgi:esiteid" v="197333"/>
  </node>
  <node id="-1316" visible="true" lat="43.92080368" lon="-72.65978817">
    <tag k="addr:city" v="Randolph"/>
    <tag k="addr:housenumber" v="16"/>
    <tag k="addr:street" v="Pearl Street"/>
    <tag k="addr:state" v="VT"/>
    <tag k="ref:vcgi:esiteid" v="197334"/>
  </node>
  <node id="-1318" visible="true" lat="43.92075142" lon="-72.66260499">
    <tag k="addr:city" v="Randolph"/>
    <tag k="addr:housenumber" v="29"/>
    <tag k="addr:street" v="South Pleasant Street"/>
    <tag k="addr:state" v="VT"/>
    <tag k="ref:vcgi:esiteid" v="197336"/>
  </node>
  <node id="-1319" visible="true" lat="43.92078575" lon="-72.65812572">
    <tag k="addr:city" v="Randolph"/>
    <tag k="addr:housenumber" v="2"/>
    <tag k="addr:street" v="Hull Street"/>
    <tag k="addr:state" v="VT"/>
    <tag k="ref:vcgi:esiteid" v="197337"/>
  </node>
  <node id="-1320" visible="true" lat="43.92070369" lon="-72.66056485">
    <tag k="addr:city" v="Randolph"/>
    <tag k="addr:housenumber" v="7"/>
    <tag k="addr:street" v="Pearl Street"/>
    <tag k="addr:state" v="VT"/>
    <tag k="ref:vcgi:esiteid" v="197338"/>
  </node>
  <node id="-1321" visible="true" lat="43.92075419" lon="-72.66195565">
    <tag k="addr:city" v="Randolph"/>
    <tag k="addr:housenumber" v="52"/>
    <tag k="addr:street" v="South Pleasant Street"/>
    <tag k="addr:state" v="VT"/>
    <tag k="ref:vcgi:esiteid" v="197339"/>
  </node>
  <node id="-1322" visible="true" lat="43.92076025" lon="-72.66615931">
    <tag k="addr:city" v="Randolph"/>
    <tag k="addr:housenumber" v="23"/>
    <tag k="addr:street" v="South Main Street"/>
    <tag k="addr:state" v="VT"/>
    <tag k="ref:vcgi:esiteid" v="197340"/>
  </node>
  <node id="-1323" visible="true" lat="43.92064558" lon="-72.66245438">
    <tag k="addr:city" v="Randolph"/>
    <tag k="addr:housenumber" v="31"/>
    <tag k="addr:street" v="South Pleasant Street"/>
    <tag k="addr:state" v="VT"/>
    <tag k="ref:vcgi:esiteid" v="197341"/>
  </node>
  <node id="-1324" visible="true" lat="43.92066764" lon="-72.66806245">
    <tag k="addr:city" v="Randolph"/>
    <tag k="addr:housenumber" v="13"/>
    <tag k="addr:street" v="Dudley Street"/>
    <tag k="addr:state" v="VT"/>
    <tag k="ref:vcgi:esiteid" v="197343"/>
  </node>
  <node id="-1325" visible="true" lat="43.92069586" lon="-72.66772042">
    <tag k="addr:city" v="Randolph"/>
    <tag k="addr:housenumber" v="12"/>
    <tag k="addr:street" v="Dudley Street"/>
    <tag k="addr:state" v="VT"/>
    <tag k="ref:vcgi:esiteid" v="197344"/>
  </node>
  <node id="-1326" visible="true" lat="43.9206314" lon="-72.66351318">
    <tag k="addr:city" v="Randolph"/>
    <tag k="addr:housenumber" v="4"/>
    <tag k="addr:street" v="Prospect Avenue"/>
    <tag k="addr:state" v="VT"/>
    <tag k="ref:vcgi:esiteid" v="197345"/>
  </node>
  <node id="-1327" visible="true" lat="43.92060833" lon="-72.65903393">
    <tag k="addr:city" v="Randolph"/>
    <tag k="addr:housenumber" v="18"/>
    <tag k="addr:street" v="Pearl Street"/>
    <tag k="addr:state" v="VT"/>
    <tag k="ref:vcgi:esiteid" v="197346"/>
  </node>
  <node id="-1329" visible="true" lat="43.92059707" lon="-72.66855285">
    <tag k="addr:city" v="Randolph"/>
    <tag k="addr:housenumber" v="4"/>
    <tag k="addr:street" v="Greenwood Avenue"/>
    <tag k="addr:state" v="VT"/>
    <tag k="ref:vcgi:esiteid" v="197349"/>
  </node>
  <node id="-1330" visible="true" lat="43.92052841" lon="-72.6617279">
    <tag k="addr:city" v="Randolph"/>
    <tag k="addr:housenumber" v="54"/>
    <tag k="addr:street" v="South Pleasant Street"/>
    <tag k="addr:state" v="VT"/>
    <tag k="ref:vcgi:esiteid" v="197350"/>
  </node>
  <node id="-1331" visible="true" lat="43.92048263" lon="-72.663414">
    <tag k="addr:city" v="Randolph"/>
    <tag k="addr:housenumber" v="6"/>
    <tag k="addr:street" v="Prospect Avenue"/>
    <tag k="addr:state" v="VT"/>
    <tag k="ref:vcgi:esiteid" v="197351"/>
  </node>
  <node id="-1332" visible="true" lat="43.92054175" lon="-72.66402254">
    <tag k="addr:city" v="Randolph"/>
    <tag k="addr:housenumber" v="1"/>
    <tag k="addr:street" v="Prospect Avenue"/>
    <tag k="addr:state" v="VT"/>
    <tag k="ref:vcgi:esiteid" v="197352"/>
  </node>
  <node id="-1334" visible="true" lat="43.92055675" lon="-72.66004928">
    <tag k="addr:city" v="Randolph"/>
    <tag k="addr:housenumber" v="9"/>
    <tag k="addr:street" v="Pearl Street"/>
    <tag k="addr:state" v="VT"/>
    <tag k="ref:vcgi:esiteid" v="197354"/>
  </node>
  <node id="-1335" visible="true" lat="43.92042541" lon="-72.66236877">
    <tag k="addr:city" v="Randolph"/>
    <tag k="addr:housenumber" v="33"/>
    <tag k="addr:street" v="South Pleasant Street"/>
    <tag k="addr:state" v="VT"/>
    <tag k="ref:vcgi:esiteid" v="197356"/>
  </node>
  <node id="-1337" visible="true" lat="43.92042166" lon="-72.66814947">
    <tag k="addr:city" v="Randolph"/>
    <tag k="addr:housenumber" v="15"/>
    <tag k="addr:street" v="Dudley Street"/>
    <tag k="addr:state" v="VT"/>
    <tag k="ref:vcgi:esiteid" v="197358"/>
  </node>
  <node id="-1338" visible="true" lat="43.92042298" lon="-72.6586752">
    <tag k="addr:city" v="Randolph"/>
    <tag k="addr:housenumber" v="20"/>
    <tag k="addr:street" v="Pearl Street"/>
    <tag k="addr:state" v="VT"/>
    <tag k="ref:vcgi:esiteid" v="197359"/>
  </node>
  <node id="-1343" visible="true" lat="43.92029381" lon="-72.66321831">
    <tag k="addr:city" v="Randolph"/>
    <tag k="addr:housenumber" v="8"/>
    <tag k="addr:street" v="Prospect Avenue"/>
    <tag k="addr:state" v="VT"/>
    <tag k="ref:vcgi:esiteid" v="197364"/>
  </node>
  <node id="-1344" visible="true" lat="43.92025987" lon="-72.66387886">
    <tag k="addr:city" v="Randolph"/>
    <tag k="addr:housenumber" v="3"/>
    <tag k="addr:street" v="Prospect Avenue"/>
    <tag k="addr:state" v="VT"/>
    <tag k="ref:vcgi:esiteid" v="197365"/>
  </node>
  <node id="-1345" visible="true" lat="43.92023455" lon="-72.65856555">
    <tag k="addr:city" v="Randolph"/>
    <tag k="addr:housenumber" v="22"/>
    <tag k="addr:street" v="Pearl Street"/>
    <tag k="addr:state" v="VT"/>
    <tag k="ref:vcgi:esiteid" v="197366"/>
  </node>
  <node id="-1346" visible="true" lat="43.92026295" lon="-72.66217402">
    <tag k="addr:city" v="Randolph"/>
    <tag k="addr:housenumber" v="35"/>
    <tag k="addr:street" v="South Pleasant Street"/>
    <tag k="addr:state" v="VT"/>
    <tag k="ref:vcgi:esiteid" v="197367"/>
  </node>
  <node id="-1347" visible="true" lat="43.92016" lon="-72.66655489">
    <tag k="addr:city" v="Randolph"/>
    <tag k="addr:housenumber" v="27"/>
    <tag k="addr:street" v="South Main Street"/>
    <tag k="addr:state" v="VT"/>
    <tag k="ref:vcgi:esiteid" v="197368"/>
  </node>
  <node id="-1349" visible="true" lat="43.92008791" lon="-72.66785779">
    <tag k="addr:city" v="Randolph"/>
    <tag k="addr:housenumber" v="16"/>
    <tag k="addr:street" v="Dudley Street"/>
    <tag k="addr:state" v="VT"/>
    <tag k="ref:vcgi:esiteid" v="197370"/>
  </node>
  <node id="-1351" visible="true" lat="43.92001707" lon="-72.66129337">
    <tag k="addr:city" v="Randolph"/>
    <tag k="addr:housenumber" v="58"/>
    <tag k="addr:street" v="South Pleasant Street"/>
    <tag k="addr:state" v="VT"/>
    <tag k="ref:vcgi:esiteid" v="197373"/>
  </node>
  <node id="-1353" visible="true" lat="43.92002106" lon="-72.65692902">
    <tag k="addr:city" v="Randolph"/>
    <tag k="addr:housenumber" v="12"/>
    <tag k="addr:street" v="Hull Street"/>
    <tag k="addr:state" v="VT"/>
    <tag k="ref:vcgi:esiteid" v="197375"/>
  </node>
  <node id="-1356" visible="true" lat="43.91990661" lon="-72.66291046">
    <tag k="addr:city" v="Randolph"/>
    <tag k="addr:housenumber" v="12"/>
    <tag k="addr:street" v="Prospect Avenue"/>
    <tag k="addr:state" v="VT"/>
    <tag k="ref:vcgi:esiteid" v="197378"/>
  </node>
  <node id="-1359" visible="true" lat="43.91988203" lon="-72.6618484">
    <tag k="addr:city" v="Randolph"/>
    <tag k="addr:housenumber" v="39"/>
    <tag k="addr:street" v="South Pleasant Street"/>
    <tag k="addr:state" v="VT"/>
    <tag k="ref:vcgi:esiteid" v="197382"/>
  </node>
  <node id="-1362" visible="true" lat="43.91971441" lon="-72.66595955">
    <tag k="addr:city" v="Randolph"/>
    <tag k="addr:housenumber" v="24"/>
    <tag k="addr:street" v="South Main Street"/>
    <tag k="addr:state" v="VT"/>
    <tag k="ref:vcgi:esiteid" v="197386"/>
  </node>
  <node id="-1363" visible="true" lat="43.91970443" lon="-72.6626358">
    <tag k="addr:city" v="Randolph"/>
    <tag k="addr:housenumber" v="14"/>
    <tag k="addr:street" v="Prospect Avenue"/>
    <tag k="addr:state" v="VT"/>
    <tag k="ref:vcgi:esiteid" v="197387"/>
  </node>
  <node id="-1364" visible="true" lat="43.91976138" lon="-72.66685498">
    <tag k="addr:city" v="Randolph"/>
    <tag k="addr:housenumber" v="29"/>
    <tag k="addr:street" v="South Main Street"/>
    <tag k="addr:state" v="VT"/>
    <tag k="ref:vcgi:esiteid" v="197388"/>
  </node>
  <node id="-1367" visible="true" lat="43.9196263" lon="-72.66088128">
    <tag k="addr:city" v="Randolph"/>
    <tag k="addr:housenumber" v="60"/>
    <tag k="addr:street" v="South Pleasant Street"/>
    <tag k="addr:state" v="VT"/>
    <tag k="ref:vcgi:esiteid" v="197392"/>
  </node>
  <node id="-1370" visible="true" lat="43.9196003" lon="-72.6615608">
    <tag k="addr:city" v="Randolph"/>
    <tag k="addr:housenumber" v="43"/>
    <tag k="addr:street" v="South Pleasant Street"/>
    <tag k="addr:state" v="VT"/>
    <tag k="ref:vcgi:esiteid" v="197395"/>
  </node>
  <node id="-1372" visible="true" lat="43.91947232" lon="-72.66243569">
    <tag k="addr:city" v="Randolph"/>
    <tag k="addr:housenumber" v="16"/>
    <tag k="addr:street" v="Prospect Avenue"/>
    <tag k="addr:state" v="VT"/>
    <tag k="ref:vcgi:esiteid" v="197397"/>
  </node>
  <node id="-1376" visible="true" lat="43.91932828" lon="-72.66606887">
    <tag k="addr:city" v="Randolph"/>
    <tag k="addr:housenumber" v="28"/>
    <tag k="addr:street" v="South Main Street"/>
    <tag k="addr:state" v="VT"/>
    <tag k="ref:vcgi:esiteid" v="197401"/>
  </node>
  <node id="-1377" visible="true" lat="43.91939163" lon="-72.66305541">
    <tag k="addr:city" v="Randolph"/>
    <tag k="addr:housenumber" v="11"/>
    <tag k="addr:street" v="Prospect Avenue"/>
    <tag k="addr:state" v="VT"/>
    <tag k="ref:vcgi:esiteid" v="197402"/>
  </node>
  <node id="-1378" visible="true" lat="43.9194474" lon="-72.66145098">
    <tag k="addr:city" v="Randolph"/>
    <tag k="addr:housenumber" v="45"/>
    <tag k="addr:street" v="South Pleasant Street"/>
    <tag k="addr:state" v="VT"/>
    <tag k="ref:vcgi:esiteid" v="197403"/>
  </node>
  <node id="-1380" visible="true" lat="43.91937637" lon="-72.65616607">
    <tag k="addr:city" v="Randolph"/>
    <tag k="addr:housenumber" v="16"/>
    <tag k="addr:street" v="Hull Street"/>
    <tag k="addr:state" v="VT"/>
    <tag k="ref:vcgi:esiteid" v="197405"/>
  </node>
  <node id="-1382" visible="true" lat="43.91927868" lon="-72.66227658">
    <tag k="addr:city" v="Randolph"/>
    <tag k="addr:housenumber" v="18"/>
    <tag k="addr:street" v="Prospect Avenue"/>
    <tag k="addr:state" v="VT"/>
    <tag k="ref:vcgi:esiteid" v="197407"/>
  </node>
  <node id="-1383" visible="true" lat="43.91930648" lon="-72.66132035">
    <tag k="addr:city" v="Randolph"/>
    <tag k="addr:housenumber" v="47"/>
    <tag k="addr:street" v="South Pleasant Street"/>
    <tag k="addr:state" v="VT"/>
    <tag k="ref:vcgi:esiteid" v="197409"/>
  </node>
  <node id="-1384" visible="true" lat="43.91922299" lon="-72.66681941">
    <tag k="addr:city" v="Randolph"/>
    <tag k="addr:housenumber" v="33"/>
    <tag k="addr:street" v="South Main Street"/>
    <tag k="addr:state" v="VT"/>
    <tag k="ref:vcgi:esiteid" v="197411"/>
  </node>
  <node id="-1385" visible="true" lat="43.91917264" lon="-72.66543109">
    <tag k="addr:city" v="Randolph"/>
    <tag k="addr:housenumber" v="4"/>
    <tag k="addr:street" v="Highland Avenue"/>
    <tag k="addr:state" v="VT"/>
    <tag k="ref:vcgi:esiteid" v="197412"/>
  </node>
  <node id="-1386" visible="true" lat="43.91921238" lon="-72.66288081">
    <tag k="addr:city" v="Randolph"/>
    <tag k="addr:housenumber" v="13"/>
    <tag k="addr:street" v="Prospect Avenue"/>
    <tag k="addr:state" v="VT"/>
    <tag k="ref:vcgi:esiteid" v="197413"/>
  </node>
  <node id="-1389" visible="true" lat="43.9190577" lon="-72.66497325">
    <tag k="addr:city" v="Randolph"/>
    <tag k="addr:housenumber" v="8"/>
    <tag k="addr:street" v="Highland Avenue"/>
    <tag k="addr:state" v="VT"/>
    <tag k="ref:vcgi:esiteid" v="197417"/>
  </node>
  <node id="-1390" visible="true" lat="43.91901397" lon="-72.66608428">
    <tag k="addr:city" v="Randolph"/>
    <tag k="addr:housenumber" v="30"/>
    <tag k="addr:street" v="South Main Street"/>
    <tag k="addr:state" v="VT"/>
    <tag k="ref:vcgi:esiteid" v="197418"/>
  </node>
  <node id="-1391" visible="true" lat="43.91899871" lon="-72.6610794">
    <tag k="addr:city" v="Randolph"/>
    <tag k="addr:housenumber" v="49"/>
    <tag k="addr:street" v="South Pleasant Street"/>
    <tag k="addr:state" v="VT"/>
    <tag k="ref:vcgi:esiteid" v="197419"/>
  </node>
  <node id="-1392" visible="true" lat="43.91895976" lon="-72.66451691">
    <tag k="addr:city" v="Randolph"/>
    <tag k="addr:housenumber" v="12"/>
    <tag k="addr:street" v="Highland Avenue"/>
    <tag k="addr:state" v="VT"/>
    <tag k="ref:vcgi:esiteid" v="197420"/>
  </node>
  <node id="-1393" visible="true" lat="43.91895182" lon="-72.66667885">
    <tag k="addr:city" v="Randolph"/>
    <tag k="addr:housenumber" v="35"/>
    <tag k="addr:street" v="South Main Street"/>
    <tag k="addr:state" v="VT"/>
    <tag k="ref:vcgi:esiteid" v="197421"/>
  </node>
  <node id="-1394" visible="true" lat="43.91887664" lon="-72.66021728">
    <tag k="addr:city" v="Randolph"/>
    <tag k="addr:housenumber" v="66"/>
    <tag k="addr:street" v="South Pleasant Street"/>
    <tag k="addr:state" v="VT"/>
    <tag k="ref:vcgi:esiteid" v="197422"/>
  </node>
  <node id="-1395" visible="true" lat="43.91893194" lon="-72.66261513">
    <tag k="addr:city" v="Randolph"/>
    <tag k="addr:housenumber" v="17"/>
    <tag k="addr:street" v="Prospect Avenue"/>
    <tag k="addr:state" v="VT"/>
    <tag k="ref:vcgi:esiteid" v="197423"/>
  </node>
  <node id="-1397" visible="true" lat="43.91885751" lon="-72.66401426">
    <tag k="addr:city" v="Randolph"/>
    <tag k="addr:housenumber" v="16"/>
    <tag k="addr:street" v="Highland Avenue"/>
    <tag k="addr:state" v="VT"/>
    <tag k="ref:vcgi:esiteid" v="197425"/>
  </node>
  <node id="-1398" visible="true" lat="43.91885154" lon="-72.66087939">
    <tag k="addr:city" v="Randolph"/>
    <tag k="addr:housenumber" v="51"/>
    <tag k="addr:street" v="South Pleasant Street"/>
    <tag k="addr:state" v="VT"/>
    <tag k="ref:vcgi:esiteid" v="197426"/>
  </node>
  <node id="-1399" visible="true" lat="43.91872787" lon="-72.66529846">
    <tag k="addr:city" v="Randolph"/>
    <tag k="addr:housenumber" v="3"/>
    <tag k="addr:street" v="Highland Avenue"/>
    <tag k="addr:state" v="VT"/>
    <tag k="ref:vcgi:esiteid" v="197427"/>
  </node>
  <node id="-1400" visible="true" lat="43.91871261" lon="-72.66010284">
    <tag k="addr:city" v="Randolph"/>
    <tag k="addr:housenumber" v="68"/>
    <tag k="addr:street" v="South Pleasant Street"/>
    <tag k="addr:state" v="VT"/>
    <tag k="ref:vcgi:esiteid" v="197428"/>
  </node>
  <node id="-1401" visible="true" lat="43.91869992" lon="-72.66367973">
    <tag k="addr:city" v="Randolph"/>
    <tag k="addr:housenumber" v="18"/>
    <tag k="addr:street" v="Highland Avenue"/>
    <tag k="addr:state" v="VT"/>
    <tag k="ref:vcgi:esiteid" v="197430"/>
  </node>
  <node id="-1402" visible="true" lat="43.91865539" lon="-72.66487121">
    <tag k="addr:city" v="Randolph"/>
    <tag k="addr:housenumber" v="5"/>
    <tag k="addr:street" v="Highland Avenue"/>
    <tag k="addr:state" v="VT"/>
    <tag k="ref:vcgi:esiteid" v="197433"/>
  </node>
  <node id="-1403" visible="true" lat="43.91873675" lon="-72.66168233">
    <tag k="addr:city" v="Randolph"/>
    <tag k="addr:housenumber" v="1"/>
    <tag k="addr:street" v="Grove Street"/>
    <tag k="addr:state" v="VT"/>
    <tag k="ref:vcgi:esiteid" v="197434"/>
  </node>
  <node id="-1404" visible="true" lat="43.918651" lon="-72.66660394">
    <tag k="addr:city" v="Randolph"/>
    <tag k="addr:housenumber" v="37"/>
    <tag k="addr:street" v="South Main Street"/>
    <tag k="addr:state" v="VT"/>
    <tag k="ref:vcgi:esiteid" v="197435"/>
  </node>
  <node id="-1405" visible="true" lat="43.9186626" lon="-72.66071566">
    <tag k="addr:city" v="Randolph"/>
    <tag k="addr:housenumber" v="53"/>
    <tag k="addr:street" v="South Pleasant Street"/>
    <tag k="addr:state" v="VT"/>
    <tag k="ref:vcgi:esiteid" v="197436"/>
  </node>
  <node id="-1406" visible="true" lat="43.91868914" lon="-72.66587865">
    <tag k="addr:city" v="Randolph"/>
    <tag k="addr:housenumber" v="32"/>
    <tag k="addr:street" v="South Main Street"/>
    <tag k="addr:state" v="VT"/>
    <tag k="ref:vcgi:esiteid" v="197437"/>
  </node>
  <node id="-1407" visible="true" lat="43.91861646" lon="-72.66334193">
    <tag k="addr:city" v="Randolph"/>
    <tag k="addr:housenumber" v="22"/>
    <tag k="addr:street" v="Highland Avenue"/>
    <tag k="addr:state" v="VT"/>
    <tag k="ref:vcgi:esiteid" v="197438"/>
  </node>
  <node id="-1408" visible="true" lat="43.91857528" lon="-72.66310882">
    <tag k="addr:city" v="Randolph"/>
    <tag k="addr:housenumber" v="24"/>
    <tag k="addr:street" v="Highland Avenue"/>
    <tag k="addr:state" v="VT"/>
    <tag k="ref:vcgi:esiteid" v="197439"/>
  </node>
  <node id="-1409" visible="true" lat="43.91852794" lon="-72.66458745">
    <tag k="addr:city" v="Randolph"/>
    <tag k="addr:housenumber" v="7"/>
    <tag k="addr:street" v="Highland Avenue"/>
    <tag k="addr:state" v="VT"/>
    <tag k="ref:vcgi:esiteid" v="197440"/>
  </node>
  <node id="-1410" visible="true" lat="43.91855652" lon="-72.66197611">
    <tag k="addr:city" v="Randolph"/>
    <tag k="addr:housenumber" v="24"/>
    <tag k="addr:street" v="Prospect Avenue"/>
    <tag k="addr:state" v="VT"/>
    <tag k="ref:vcgi:esiteid" v="197441"/>
  </node>
  <node id="-1412" visible="true" lat="43.91849055" lon="-72.66283246">
    <tag k="addr:city" v="Randolph"/>
    <tag k="addr:housenumber" v="26"/>
    <tag k="addr:street" v="Highland Avenue"/>
    <tag k="addr:state" v="VT"/>
    <tag k="ref:vcgi:esiteid" v="197443"/>
  </node>
  <node id="-1413" visible="true" lat="43.91845321" lon="-72.66426849">
    <tag k="addr:city" v="Randolph"/>
    <tag k="addr:housenumber" v="9"/>
    <tag k="addr:street" v="Highland Avenue"/>
    <tag k="addr:state" v="VT"/>
    <tag k="ref:vcgi:esiteid" v="197444"/>
  </node>
  <node id="-1414" visible="true" lat="43.91846122" lon="-72.66605042">
    <tag k="addr:city" v="Randolph"/>
    <tag k="addr:housenumber" v="34"/>
    <tag k="addr:street" v="South Main Street"/>
    <tag k="addr:state" v="VT"/>
    <tag k="ref:vcgi:esiteid" v="197445"/>
  </node>
  <node id="-1415" visible="true" lat="43.91841326" lon="-72.66252585">
    <tag k="addr:city" v="Randolph"/>
    <tag k="addr:housenumber" v="28"/>
    <tag k="addr:street" v="Highland Avenue"/>
    <tag k="addr:state" v="VT"/>
    <tag k="ref:vcgi:esiteid" v="197446"/>
  </node>
  <node id="-1416" visible="true" lat="43.91840357" lon="-72.65980093">
    <tag k="addr:city" v="Randolph"/>
    <tag k="addr:housenumber" v="72"/>
    <tag k="addr:street" v="South Pleasant Street"/>
    <tag k="addr:state" v="VT"/>
    <tag k="ref:vcgi:esiteid" v="197447"/>
  </node>
  <node id="-1417" visible="true" lat="43.91832733" lon="-72.66046905">
    <tag k="addr:city" v="Randolph"/>
    <tag k="addr:housenumber" v="57"/>
    <tag k="addr:street" v="South Pleasant Street"/>
    <tag k="addr:state" v="VT"/>
    <tag k="ref:vcgi:esiteid" v="197448"/>
  </node>
  <node id="-1418" visible="true" lat="43.91831978" lon="-72.66385604">
    <tag k="addr:city" v="Randolph"/>
    <tag k="addr:housenumber" v="11"/>
    <tag k="addr:street" v="Highland Avenue"/>
    <tag k="addr:state" v="VT"/>
    <tag k="ref:vcgi:esiteid" v="197449"/>
  </node>
  <node id="-1419" visible="true" lat="43.91828005" lon="-72.66203837">
    <tag k="addr:city" v="Randolph"/>
    <tag k="addr:housenumber" v="30"/>
    <tag k="addr:street" v="Highland Avenue"/>
    <tag k="addr:state" v="VT"/>
    <tag k="ref:vcgi:esiteid" v="197450"/>
  </node>
  <node id="-1421" visible="true" lat="43.91820706" lon="-72.66185882">
    <tag k="addr:city" v="Randolph"/>
    <tag k="addr:housenumber" v="32"/>
    <tag k="addr:street" v="Highland Avenue"/>
    <tag k="addr:state" v="VT"/>
    <tag k="ref:vcgi:esiteid" v="197452"/>
  </node>
  <node id="-1422" visible="true" lat="43.91821852" lon="-72.66347537">
    <tag k="addr:city" v="Randolph"/>
    <tag k="addr:housenumber" v="13"/>
    <tag k="addr:street" v="Highland Avenue"/>
    <tag k="addr:state" v="VT"/>
    <tag k="ref:vcgi:esiteid" v="197453"/>
  </node>
  <node id="-1424" visible="true" lat="43.91818765" lon="-72.66320349">
    <tag k="addr:city" v="Randolph"/>
    <tag k="addr:housenumber" v="15"/>
    <tag k="addr:street" v="Highland Avenue"/>
    <tag k="addr:state" v="VT"/>
    <tag k="ref:vcgi:esiteid" v="197455"/>
  </node>
  <node id="-1427" visible="true" lat="43.91813012" lon="-72.66154277">
    <tag k="addr:city" v="Randolph"/>
    <tag k="addr:housenumber" v="34"/>
    <tag k="addr:street" v="Highland Avenue"/>
    <tag k="addr:state" v="VT"/>
    <tag k="ref:vcgi:esiteid" v="197460"/>
  </node>
  <node id="-1428" visible="true" lat="43.91809463" lon="-72.66130828">
    <tag k="addr:city" v="Randolph"/>
    <tag k="addr:housenumber" v="36"/>
    <tag k="addr:street" v="Highland Avenue"/>
    <tag k="addr:state" v="VT"/>
    <tag k="ref:vcgi:esiteid" v="197461"/>
  </node>
  <node id="-1429" visible="true" lat="43.918087" lon="-72.66287231">
    <tag k="addr:city" v="Randolph"/>
    <tag k="addr:housenumber" v="17"/>
    <tag k="addr:street" v="Highland Avenue"/>
    <tag k="addr:state" v="VT"/>
    <tag k="ref:vcgi:esiteid" v="197462"/>
  </node>
  <node id="-1431" visible="true" lat="43.91804528" lon="-72.66437158">
    <tag k="addr:city" v="Randolph"/>
    <tag k="addr:housenumber" v="13"/>
    <tag k="addr:street" v="South Street"/>
    <tag k="addr:state" v="VT"/>
    <tag k="ref:vcgi:esiteid" v="197464"/>
  </node>
  <node id="-1432" visible="true" lat="43.91802675" lon="-72.66264415">
    <tag k="addr:city" v="Randolph"/>
    <tag k="addr:housenumber" v="19"/>
    <tag k="addr:street" v="Highland Avenue"/>
    <tag k="addr:state" v="VT"/>
    <tag k="ref:vcgi:esiteid" v="197465"/>
  </node>
  <node id="-1433" visible="true" lat="43.91800924" lon="-72.66104999">
    <tag k="addr:city" v="Randolph"/>
    <tag k="addr:housenumber" v="38"/>
    <tag k="addr:street" v="Highland Avenue"/>
    <tag k="addr:state" v="VT"/>
    <tag k="ref:vcgi:esiteid" v="197466"/>
  </node>
  <node id="-1434" visible="true" lat="43.91798212" lon="-72.66014561">
    <tag k="addr:city" v="Randolph"/>
    <tag k="addr:housenumber" v="59"/>
    <tag k="addr:street" v="South Pleasant Street"/>
    <tag k="addr:state" v="VT"/>
    <tag k="ref:vcgi:esiteid" v="197467"/>
  </node>
  <node id="-1435" visible="true" lat="43.91795054" lon="-72.66081632">
    <tag k="addr:city" v="Randolph"/>
    <tag k="addr:housenumber" v="40"/>
    <tag k="addr:street" v="Highland Avenue"/>
    <tag k="addr:state" v="VT"/>
    <tag k="ref:vcgi:esiteid" v="197468"/>
  </node>
  <node id="-1436" visible="true" lat="43.91794139" lon="-72.66224908">
    <tag k="addr:city" v="Randolph"/>
    <tag k="addr:housenumber" v="21"/>
    <tag k="addr:street" v="Highland Avenue"/>
    <tag k="addr:state" v="VT"/>
    <tag k="ref:vcgi:esiteid" v="197469"/>
  </node>
  <node id="-1437" visible="true" lat="43.91797006" lon="-72.66400117">
    <tag k="addr:city" v="Randolph"/>
    <tag k="addr:housenumber" v="16"/>
    <tag k="addr:street" v="South Street"/>
    <tag k="addr:state" v="VT"/>
    <tag k="ref:vcgi:esiteid" v="197470"/>
  </node>
  <node id="-1438" visible="true" lat="43.91793441" lon="-72.66053771">
    <tag k="addr:city" v="Randolph"/>
    <tag k="addr:housenumber" v="42"/>
    <tag k="addr:street" v="Highland Avenue"/>
    <tag k="addr:state" v="VT"/>
    <tag k="ref:vcgi:esiteid" v="197471"/>
  </node>
  <node id="-1439" visible="true" lat="43.91788101" lon="-72.66205597">
    <tag k="addr:city" v="Randolph"/>
    <tag k="addr:housenumber" v="23"/>
    <tag k="addr:street" v="Highland Avenue"/>
    <tag k="addr:state" v="VT"/>
    <tag k="ref:vcgi:esiteid" v="197472"/>
  </node>
  <node id="-1441" visible="true" lat="43.91759686" lon="-72.66352983">
    <tag k="addr:city" v="Randolph"/>
    <tag k="addr:housenumber" v="10"/>
    <tag k="addr:street" v="Maple Street"/>
    <tag k="addr:state" v="VT"/>
    <tag k="ref:vcgi:esiteid" v="197474"/>
  </node>
  <node id="-1443" visible="true" lat="43.91779524" lon="-72.66175365">
    <tag k="addr:city" v="Randolph"/>
    <tag k="addr:housenumber" v="25"/>
    <tag k="addr:street" v="Highland Avenue"/>
    <tag k="addr:state" v="VT"/>
    <tag k="ref:vcgi:esiteid" v="197476"/>
  </node>
  <node id="-1444" visible="true" lat="43.91775044" lon="-72.66282829">
    <tag k="addr:city" v="Randolph"/>
    <tag k="addr:housenumber" v="23"/>
    <tag k="addr:street" v="Prospect Avenue"/>
    <tag k="addr:state" v="VT"/>
    <tag k="ref:vcgi:esiteid" v="197477"/>
  </node>
  <node id="-1445" visible="true" lat="43.91775131" lon="-72.66157531">
    <tag k="addr:city" v="Randolph"/>
    <tag k="addr:housenumber" v="27"/>
    <tag k="addr:street" v="Highland Avenue"/>
    <tag k="addr:state" v="VT"/>
    <tag k="ref:vcgi:esiteid" v="197478"/>
  </node>
  <node id="-1448" visible="true" lat="43.9176574" lon="-72.66130354">
    <tag k="addr:city" v="Randolph"/>
    <tag k="addr:housenumber" v="29"/>
    <tag k="addr:street" v="Highland Avenue"/>
    <tag k="addr:state" v="VT"/>
    <tag k="ref:vcgi:esiteid" v="197484"/>
  </node>
  <node id="-1449" visible="true" lat="43.91759296" lon="-72.66079868">
    <tag k="addr:city" v="Randolph"/>
    <tag k="addr:housenumber" v="33"/>
    <tag k="addr:street" v="Highland Avenue"/>
    <tag k="addr:state" v="VT"/>
    <tag k="ref:vcgi:esiteid" v="197485"/>
  </node>
  <node id="-1450" visible="true" lat="43.91751326" lon="-72.66291361">
    <tag k="addr:city" v="Randolph"/>
    <tag k="addr:housenumber" v="14"/>
    <tag k="addr:street" v="Maple Street"/>
    <tag k="addr:state" v="VT"/>
    <tag k="ref:vcgi:esiteid" v="197486"/>
  </node>
  <node id="-1451" visible="true" lat="43.91755341" lon="-72.66048359">
    <tag k="addr:city" v="Randolph"/>
    <tag k="addr:housenumber" v="35"/>
    <tag k="addr:street" v="Highland Avenue"/>
    <tag k="addr:state" v="VT"/>
    <tag k="ref:vcgi:esiteid" v="197487"/>
  </node>
  <node id="-1452" visible="true" lat="43.9175148" lon="-72.65977478">
    <tag k="addr:city" v="Randolph"/>
    <tag k="addr:housenumber" v="63"/>
    <tag k="addr:street" v="South Pleasant Street"/>
    <tag k="addr:state" v="VT"/>
    <tag k="ref:vcgi:esiteid" v="197488"/>
  </node>
  <node id="-1453" visible="true" lat="43.91757187" lon="-72.66008402">
    <tag k="addr:city" v="Randolph"/>
    <tag k="addr:housenumber" v="37"/>
    <tag k="addr:street" v="Highland Avenue"/>
    <tag k="addr:state" v="VT"/>
    <tag k="ref:vcgi:esiteid" v="197489"/>
  </node>
  <node id="-1454" visible="true" lat="43.91756619" lon="-72.6638636">
    <tag k="addr:city" v="Randolph"/>
    <tag k="addr:housenumber" v="8"/>
    <tag k="addr:street" v="Maple Street"/>
    <tag k="addr:state" v="VT"/>
    <tag k="ref:vcgi:esiteid" v="197490"/>
  </node>
  <node id="-1457" visible="true" lat="43.91748706" lon="-72.66210784">
    <tag k="addr:city" v="Randolph"/>
    <tag k="addr:housenumber" v="16"/>
    <tag k="addr:street" v="Maple Street"/>
    <tag k="addr:state" v="VT"/>
    <tag k="ref:vcgi:esiteid" v="197493"/>
  </node>
  <node id="-1459" visible="true" lat="43.91735134" lon="-72.65997264">
    <tag k="addr:city" v="Randolph"/>
    <tag k="addr:housenumber" v="24"/>
    <tag k="addr:street" v="Maple Street"/>
    <tag k="addr:state" v="VT"/>
    <tag k="ref:vcgi:esiteid" v="197496"/>
  </node>
  <node id="-1460" visible="true" lat="43.91733932" lon="-72.66080401">
    <tag k="addr:city" v="Randolph"/>
    <tag k="addr:housenumber" v="22"/>
    <tag k="addr:street" v="Maple Street"/>
    <tag k="addr:state" v="VT"/>
    <tag k="ref:vcgi:esiteid" v="197497"/>
  </node>
  <node id="-1462" visible="true" lat="43.91723251" lon="-72.66445159">
    <tag k="addr:city" v="Randolph"/>
    <tag k="addr:housenumber" v="7"/>
    <tag k="addr:street" v="Maple Street"/>
    <tag k="addr:state" v="VT"/>
    <tag k="ref:vcgi:esiteid" v="197500"/>
  </node>
  <node id="-1464" visible="true" lat="43.91712931" lon="-72.66288133">
    <tag k="addr:city" v="Randolph"/>
    <tag k="addr:housenumber" v="15"/>
    <tag k="addr:street" v="Maple Street"/>
    <tag k="addr:state" v="VT"/>
    <tag k="ref:vcgi:esiteid" v="197502"/>
  </node>
  <node id="-1465" visible="true" lat="43.91700664" lon="-72.66320355">
    <tag k="addr:city" v="Randolph"/>
    <tag k="addr:housenumber" v="13"/>
    <tag k="addr:street" v="Maple Street"/>
    <tag k="addr:state" v="VT"/>
    <tag k="ref:vcgi:esiteid" v="197504"/>
  </node>
  <node id="-1466" visible="true" lat="43.91717367" lon="-72.66348719">
    <tag k="addr:city" v="Randolph"/>
    <tag k="addr:housenumber" v="11"/>
    <tag k="addr:street" v="Maple Street"/>
    <tag k="addr:state" v="VT"/>
    <tag k="ref:vcgi:esiteid" v="197505"/>
  </node>
  <node id="-1467" visible="true" lat="43.9171029" lon="-72.66243129">
    <tag k="addr:city" v="Randolph"/>
    <tag k="addr:housenumber" v="19"/>
    <tag k="addr:street" v="Maple Street"/>
    <tag k="addr:state" v="VT"/>
    <tag k="ref:vcgi:esiteid" v="197506"/>
  </node>
  <node id="-1468" visible="true" lat="43.9170891" lon="-72.66185642">
    <tag k="addr:city" v="Randolph"/>
    <tag k="addr:housenumber" v="23"/>
    <tag k="addr:street" v="Maple Street"/>
    <tag k="addr:state" v="VT"/>
    <tag k="ref:vcgi:esiteid" v="197508"/>
  </node>
  <node id="-1469" visible="true" lat="43.9171254" lon="-72.66384688">
    <tag k="addr:city" v="Randolph"/>
    <tag k="addr:housenumber" v="9"/>
    <tag k="addr:street" v="Maple Street"/>
    <tag k="addr:state" v="VT"/>
    <tag k="ref:vcgi:esiteid" v="197509"/>
  </node>
  <node id="-1470" visible="true" lat="43.9171179" lon="-72.6592944">
    <tag k="addr:city" v="Randolph"/>
    <tag k="addr:housenumber" v="65"/>
    <tag k="addr:street" v="South Pleasant Street"/>
    <tag k="addr:state" v="VT"/>
    <tag k="ref:vcgi:esiteid" v="197510"/>
  </node>
  <node id="-1471" visible="true" lat="43.91704484" lon="-72.66157815">
    <tag k="addr:city" v="Randolph"/>
    <tag k="addr:housenumber" v="25"/>
    <tag k="addr:street" v="Maple Street"/>
    <tag k="addr:state" v="VT"/>
    <tag k="ref:vcgi:esiteid" v="197511"/>
  </node>
  <node id="-1472" visible="true" lat="43.91707409" lon="-72.65972763">
    <tag k="addr:city" v="Randolph"/>
    <tag k="addr:housenumber" v="37"/>
    <tag k="addr:street" v="Maple Street"/>
    <tag k="addr:state" v="VT"/>
    <tag k="ref:vcgi:esiteid" v="197512"/>
  </node>
  <node id="-1475" visible="true" lat="43.91705089" lon="-72.66136666">
    <tag k="addr:city" v="Randolph"/>
    <tag k="addr:housenumber" v="27"/>
    <tag k="addr:street" v="Maple Street"/>
    <tag k="addr:state" v="VT"/>
    <tag k="ref:vcgi:esiteid" v="197515"/>
  </node>
  <node id="-1476" visible="true" lat="43.91701507" lon="-72.6600103">
    <tag k="addr:city" v="Randolph"/>
    <tag k="addr:housenumber" v="35"/>
    <tag k="addr:street" v="Maple Street"/>
    <tag k="addr:state" v="VT"/>
    <tag k="ref:vcgi:esiteid" v="197516"/>
  </node>
  <node id="-1477" visible="true" lat="43.91696548" lon="-72.66109466">
    <tag k="addr:city" v="Randolph"/>
    <tag k="addr:housenumber" v="29"/>
    <tag k="addr:street" v="Maple Street"/>
    <tag k="addr:state" v="VT"/>
    <tag k="ref:vcgi:esiteid" v="197517"/>
  </node>
  <node id="-1478" visible="true" lat="43.91699782" lon="-72.66029741">
    <tag k="addr:city" v="Randolph"/>
    <tag k="addr:housenumber" v="33"/>
    <tag k="addr:street" v="Maple Street"/>
    <tag k="addr:state" v="VT"/>
    <tag k="ref:vcgi:esiteid" v="197518"/>
  </node>
  <node id="-1479" visible="true" lat="43.91700728" lon="-72.66058301">
    <tag k="addr:city" v="Randolph"/>
    <tag k="addr:housenumber" v="31"/>
    <tag k="addr:street" v="Maple Street"/>
    <tag k="addr:state" v="VT"/>
    <tag k="ref:vcgi:esiteid" v="197520"/>
  </node>
  <node id="-1481" visible="true" lat="43.91682725" lon="-72.65914462">
    <tag k="addr:city" v="Randolph"/>
    <tag k="addr:housenumber" v="3"/>
    <tag k="addr:street" v="Fairview Street"/>
    <tag k="addr:state" v="VT"/>
    <tag k="ref:vcgi:esiteid" v="197522"/>
  </node>
  <node id="-1482" visible="true" lat="43.9167852" lon="-72.65939759">
    <tag k="addr:city" v="Randolph"/>
    <tag k="addr:housenumber" v="5"/>
    <tag k="addr:street" v="Fairview Street"/>
    <tag k="addr:state" v="VT"/>
    <tag k="ref:vcgi:esiteid" v="197523"/>
  </node>
  <node id="-1483" visible="true" lat="43.91670608" lon="-72.66108703">
    <tag k="addr:city" v="Randolph"/>
    <tag k="addr:housenumber" v="15"/>
    <tag k="addr:street" v="Fairview Street"/>
    <tag k="addr:state" v="VT"/>
    <tag k="ref:vcgi:esiteid" v="197524"/>
  </node>
  <node id="-1484" visible="true" lat="43.91676045" lon="-72.65969907">
    <tag k="addr:city" v="Randolph"/>
    <tag k="addr:housenumber" v="7"/>
    <tag k="addr:street" v="Fairview Street"/>
    <tag k="addr:state" v="VT"/>
    <tag k="ref:vcgi:esiteid" v="197525"/>
  </node>
  <node id="-1485" visible="true" lat="43.91669464" lon="-72.66049957">
    <tag k="addr:city" v="Randolph"/>
    <tag k="addr:housenumber" v="11"/>
    <tag k="addr:street" v="Fairview Street"/>
    <tag k="addr:state" v="VT"/>
    <tag k="ref:vcgi:esiteid" v="197526"/>
  </node>
  <node id="-1486" visible="true" lat="43.91673192" lon="-72.66021277">
    <tag k="addr:city" v="Randolph"/>
    <tag k="addr:housenumber" v="9"/>
    <tag k="addr:street" v="Fairview Street"/>
    <tag k="addr:state" v="VT"/>
    <tag k="ref:vcgi:esiteid" v="197527"/>
  </node>
  <node id="-1488" visible="true" lat="43.91658452" lon="-72.6625076">
    <tag k="addr:city" v="Randolph"/>
    <tag k="addr:housenumber" v="1"/>
    <tag k="addr:street" v="Edgewood Street"/>
    <tag k="addr:state" v="VT"/>
    <tag k="ref:vcgi:esiteid" v="197530"/>
  </node>
  <node id="-1489" visible="true" lat="43.91654773" lon="-72.65885117">
    <tag k="addr:city" v="Randolph"/>
    <tag k="addr:housenumber" v="2"/>
    <tag k="addr:street" v="Fairview Street"/>
    <tag k="addr:state" v="VT"/>
    <tag k="ref:vcgi:esiteid" v="197531"/>
  </node>
  <node id="-1491" visible="true" lat="43.9164753" lon="-72.66399721">
    <tag k="addr:city" v="Randolph"/>
    <tag k="addr:housenumber" v="4"/>
    <tag k="addr:street" v="Wiggett Street"/>
    <tag k="addr:state" v="VT"/>
    <tag k="ref:vcgi:esiteid" v="197533"/>
  </node>
  <node id="-1492" visible="true" lat="43.91655426" lon="-72.65917483">
    <tag k="addr:city" v="Randolph"/>
    <tag k="addr:housenumber" v="4"/>
    <tag k="addr:street" v="Fairview Street"/>
    <tag k="addr:state" v="VT"/>
    <tag k="ref:vcgi:esiteid" v="197535"/>
  </node>
  <node id="-1494" visible="true" lat="43.91648315" lon="-72.65956434">
    <tag k="addr:city" v="Randolph"/>
    <tag k="addr:housenumber" v="6"/>
    <tag k="addr:street" v="Fairview Street"/>
    <tag k="addr:state" v="VT"/>
    <tag k="ref:vcgi:esiteid" v="197537"/>
  </node>
  <node id="-1495" visible="true" lat="43.91639709" lon="-72.6617279">
    <tag k="addr:city" v="Randolph"/>
    <tag k="addr:housenumber" v="12"/>
    <tag k="addr:street" v="Fairview Street"/>
    <tag k="addr:state" v="VT"/>
    <tag k="ref:vcgi:esiteid" v="197538"/>
  </node>
  <node id="-1497" visible="true" lat="43.91638369" lon="-72.65985464">
    <tag k="addr:city" v="Randolph"/>
    <tag k="addr:housenumber" v="8"/>
    <tag k="addr:street" v="Fairview Street"/>
    <tag k="addr:state" v="VT"/>
    <tag k="ref:vcgi:esiteid" v="197540"/>
  </node>
  <node id="-1498" visible="true" lat="43.91619073" lon="-72.66257434">
    <tag k="addr:city" v="Randolph"/>
    <tag k="addr:housenumber" v="3"/>
    <tag k="addr:street" v="Edgewood Street"/>
    <tag k="addr:state" v="VT"/>
    <tag k="ref:vcgi:esiteid" v="197541"/>
  </node>
  <node id="-1499" visible="true" lat="43.91612625" lon="-72.6617128">
    <tag k="addr:city" v="Randolph"/>
    <tag k="addr:housenumber" v="3"/>
    <tag k="addr:street" v="Verona Street"/>
    <tag k="addr:state" v="VT"/>
    <tag k="ref:vcgi:esiteid" v="197542"/>
  </node>
  <node id="-1500" visible="true" lat="43.9160901" lon="-72.66610121">
    <tag k="addr:city" v="Randolph"/>
    <tag k="addr:housenumber" v="49"/>
    <tag k="addr:street" v="South Main Street"/>
    <tag k="addr:state" v="VT"/>
    <tag k="ref:vcgi:esiteid" v="197543"/>
  </node>
  <node id="-1501" visible="true" lat="43.91618838" lon="-72.6612214">
    <tag k="addr:city" v="Randolph"/>
    <tag k="addr:housenumber" v="2"/>
    <tag k="addr:street" v="Verona Street"/>
    <tag k="addr:state" v="VT"/>
    <tag k="ref:vcgi:esiteid" v="197544"/>
  </node>
  <node id="-1503" visible="true" lat="43.91615233" lon="-72.66404462">
    <tag k="addr:city" v="Randolph"/>
    <tag k="addr:housenumber" v="6"/>
    <tag k="addr:street" v="Wiggett Street"/>
    <tag k="addr:state" v="VT"/>
    <tag k="ref:vcgi:esiteid" v="197546"/>
  </node>
  <node id="-1507" visible="true" lat="43.91574374" lon="-72.66578294">
    <tag k="addr:city" v="Randolph"/>
    <tag k="addr:housenumber" v="53"/>
    <tag k="addr:street" v="South Main Street"/>
    <tag k="addr:state" v="VT"/>
    <tag k="ref:vcgi:esiteid" v="197552"/>
  </node>
  <node id="-1511" visible="true" lat="43.91523742" lon="-72.66499328">
    <tag k="addr:city" v="Randolph"/>
    <tag k="addr:housenumber" v="52"/>
    <tag k="addr:street" v="South Main Street"/>
    <tag k="addr:state" v="VT"/>
    <tag k="ref:vcgi:esiteid" v="197556"/>
  </node>
  <node id="-1521" visible="true" lat="43.91378411" lon="-72.65740933">
    <tag k="addr:city" v="Randolph"/>
    <tag k="addr:housenumber" v="250"/>
    <tag k="addr:street" v="Beanville Road"/>
    <tag k="addr:state" v="VT"/>
    <tag k="ref:vcgi:esiteid" v="197570"/>
  </node>
  <node id="-1579" visible="true" lat="43.90655134" lon="-72.65824852">
    <tag k="addr:city" v="Randolph"/>
    <tag k="addr:housenumber" v="83"/>
    <tag k="addr:street" v="Dylan Drive"/>
    <tag k="addr:state" v="VT"/>
    <tag k="ref:vcgi:esiteid" v="197633"/>
  </node>
  <node id="-1580" visible="true" lat="43.90655585" lon="-72.65940693">
    <tag k="addr:city" v="Randolph"/>
    <tag k="addr:housenumber" v="54"/>
    <tag k="addr:street" v="Dylan Drive"/>
    <tag k="addr:state" v="VT"/>
    <tag k="ref:vcgi:esiteid" v="197634"/>
  </node>
  <node id="-1582" visible="true" lat="43.90633167" lon="-72.65727905">
    <tag k="addr:city" v="Randolph"/>
    <tag k="addr:housenumber" v="85"/>
    <tag k="addr:street" v="Dylan Drive"/>
    <tag k="addr:state" v="VT"/>
    <tag k="ref:vcgi:esiteid" v="197636"/>
  </node>
  <node id="-1728" visible="true" lat="43.92840125" lon="-72.669433">
    <tag k="addr:city" v="Randolph"/>
    <tag k="addr:housenumber" v="20"/>
    <tag k="addr:street" v="Park Street"/>
    <tag k="addr:state" v="VT"/>
    <tag k="ref:vcgi:esiteid" v="197789"/>
  </node>
  <node id="-1729" visible="true" lat="43.92861591" lon="-72.66827458">
    <tag k="addr:city" v="Randolph"/>
    <tag k="addr:housenumber" v="17"/>
    <tag k="addr:street" v="Park Street"/>
    <tag k="addr:state" v="VT"/>
    <tag k="ref:vcgi:esiteid" v="197790"/>
  </node>
  <node id="-1730" visible="true" lat="43.9285556" lon="-72.67045212">
    <tag k="addr:city" v="Randolph"/>
    <tag k="addr:housenumber" v="27"/>
    <tag k="addr:street" v="Park Street"/>
    <tag k="addr:state" v="VT"/>
    <tag k="ref:vcgi:esiteid" v="197791"/>
  </node>
  <node id="-1731" visible="true" lat="43.9284601" lon="-72.66797233">
    <tag k="addr:city" v="Randolph"/>
    <tag k="addr:housenumber" v="15"/>
    <tag k="addr:street" v="Park Street"/>
    <tag k="addr:state" v="VT"/>
    <tag k="ref:vcgi:esiteid" v="197792"/>
  </node>
  <node id="-1732" visible="true" lat="43.92842864" lon="-72.66743469">
    <tag k="addr:city" v="Randolph"/>
    <tag k="addr:housenumber" v="11"/>
    <tag k="addr:street" v="Park Street"/>
    <tag k="addr:state" v="VT"/>
    <tag k="ref:vcgi:esiteid" v="197793"/>
  </node>
  <node id="-1733" visible="true" lat="43.92837895" lon="-72.6688917">
    <tag k="addr:city" v="Randolph"/>
    <tag k="addr:housenumber" v="18"/>
    <tag k="addr:street" v="Park Street"/>
    <tag k="addr:state" v="VT"/>
    <tag k="ref:vcgi:esiteid" v="197794"/>
  </node>
  <node id="-1734" visible="true" lat="43.92834309" lon="-72.66777029">
    <tag k="addr:city" v="Randolph"/>
    <tag k="addr:housenumber" v="13"/>
    <tag k="addr:street" v="Park Street"/>
    <tag k="addr:state" v="VT"/>
    <tag k="ref:vcgi:esiteid" v="197795"/>
  </node>
  <node id="-1735" visible="true" lat="43.92830657" lon="-72.66980743">
    <tag k="addr:city" v="Randolph"/>
    <tag k="addr:housenumber" v="22"/>
    <tag k="addr:street" v="Park Street"/>
    <tag k="addr:state" v="VT"/>
    <tag k="ref:vcgi:esiteid" v="197796"/>
  </node>
  <node id="-1736" visible="true" lat="43.92810029" lon="-72.67168952">
    <tag k="addr:city" v="Randolph"/>
    <tag k="addr:housenumber" v="31"/>
    <tag k="addr:street" v="Park Street"/>
    <tag k="addr:state" v="VT"/>
    <tag k="ref:vcgi:esiteid" v="197800"/>
  </node>
  <node id="-1737" visible="true" lat="43.92813431" lon="-72.66816402">
    <tag k="addr:city" v="Randolph"/>
    <tag k="addr:housenumber" v="14"/>
    <tag k="addr:street" v="Park Street"/>
    <tag k="addr:state" v="VT"/>
    <tag k="ref:vcgi:esiteid" v="197801"/>
  </node>
  <node id="-1738" visible="true" lat="43.92808295" lon="-72.66795446">
    <tag k="addr:city" v="Randolph"/>
    <tag k="addr:housenumber" v="12"/>
    <tag k="addr:street" v="Park Street"/>
    <tag k="addr:state" v="VT"/>
    <tag k="ref:vcgi:esiteid" v="197802"/>
  </node>
  <node id="-1739" visible="true" lat="43.92800521" lon="-72.67198944">
    <tag k="addr:city" v="Randolph"/>
    <tag k="addr:housenumber" v="33"/>
    <tag k="addr:street" v="Park Street"/>
    <tag k="addr:state" v="VT"/>
    <tag k="ref:vcgi:esiteid" v="197803"/>
  </node>
  <node id="-1740" visible="true" lat="43.92794421" lon="-72.6668745">
    <tag k="addr:city" v="Randolph"/>
    <tag k="addr:housenumber" v="7"/>
    <tag k="addr:street" v="Park Street"/>
    <tag k="addr:state" v="VT"/>
    <tag k="ref:vcgi:esiteid" v="197804"/>
  </node>
  <node id="-1741" visible="true" lat="43.92800718" lon="-72.66776916">
    <tag k="addr:city" v="Randolph"/>
    <tag k="addr:housenumber" v="10"/>
    <tag k="addr:street" v="Park Street"/>
    <tag k="addr:state" v="VT"/>
    <tag k="ref:vcgi:esiteid" v="197805"/>
  </node>
  <node id="-1743" visible="true" lat="43.92782796" lon="-72.66659796">
    <tag k="addr:city" v="Randolph"/>
    <tag k="addr:housenumber" v="5"/>
    <tag k="addr:street" v="Park Street"/>
    <tag k="addr:state" v="VT"/>
    <tag k="ref:vcgi:esiteid" v="197807"/>
  </node>
  <node id="-1747" visible="true" lat="43.92768118" lon="-72.66693449">
    <tag k="addr:city" v="Randolph"/>
    <tag k="addr:housenumber" v="6"/>
    <tag k="addr:street" v="Park Street"/>
    <tag k="addr:state" v="VT"/>
    <tag k="ref:vcgi:esiteid" v="197811"/>
  </node>
  <node id="-1751" visible="true" lat="43.92810219" lon="-72.67051131">
    <tag k="addr:city" v="Randolph"/>
    <tag k="addr:housenumber" v="24"/>
    <tag k="addr:street" v="Park Street"/>
    <tag k="addr:state" v="VT"/>
    <tag k="ref:vcgi:esiteid" v="197818"/>
  </node>
  <node id="-1753" visible="true" lat="43.92460582" lon="-72.6767665">
    <tag k="addr:city" v="Randolph"/>
    <tag k="addr:housenumber" v="56"/>
    <tag k="addr:street" v="School Street"/>
    <tag k="addr:state" v="VT"/>
    <tag k="ref:vcgi:esiteid" v="197820"/>
  </node>
  <node id="-1754" visible="true" lat="43.92455291" lon="-72.67639923">
    <tag k="addr:city" v="Randolph"/>
    <tag k="addr:housenumber" v="54"/>
    <tag k="addr:street" v="School Street"/>
    <tag k="addr:state" v="VT"/>
    <tag k="ref:vcgi:esiteid" v="197821"/>
  </node>
  <node id="-1755" visible="true" lat="43.92467498" lon="-72.67424011">
    <tag k="addr:city" v="Randolph"/>
    <tag k="addr:housenumber" v="41"/>
    <tag k="addr:street" v="School Street"/>
    <tag k="addr:state" v="VT"/>
    <tag k="ref:vcgi:esiteid" v="197822"/>
  </node>
  <node id="-1756" visible="true" lat="43.92461395" lon="-72.67469787">
    <tag k="addr:city" v="Randolph"/>
    <tag k="addr:housenumber" v="43"/>
    <tag k="addr:street" v="School Street"/>
    <tag k="addr:state" v="VT"/>
    <tag k="ref:vcgi:esiteid" v="197823"/>
  </node>
  <node id="-1757" visible="true" lat="43.92454528" lon="-72.67501068">
    <tag k="addr:city" v="Randolph"/>
    <tag k="addr:housenumber" v="45"/>
    <tag k="addr:street" v="School Street"/>
    <tag k="addr:state" v="VT"/>
    <tag k="ref:vcgi:esiteid" v="197824"/>
  </node>
  <node id="-1758" visible="true" lat="43.92451095" lon="-72.67568969">
    <tag k="addr:city" v="Randolph"/>
    <tag k="addr:housenumber" v="49"/>
    <tag k="addr:street" v="School Street"/>
    <tag k="addr:state" v="VT"/>
    <tag k="ref:vcgi:esiteid" v="197825"/>
  </node>
  <node id="-1759" visible="true" lat="43.92457961" lon="-72.67588806">
    <tag k="addr:city" v="Randolph"/>
    <tag k="addr:housenumber" v="51"/>
    <tag k="addr:street" v="School Street"/>
    <tag k="addr:state" v="VT"/>
    <tag k="ref:vcgi:esiteid" v="197826"/>
  </node>
  <node id="-1760" visible="true" lat="43.92466354" lon="-72.67601013">
    <tag k="addr:city" v="Randolph"/>
    <tag k="addr:housenumber" v="53"/>
    <tag k="addr:street" v="School Street"/>
    <tag k="addr:state" v="VT"/>
    <tag k="ref:vcgi:esiteid" v="197827"/>
  </node>
  <node id="-1761" visible="true" lat="43.92487128" lon="-72.67568603">
    <tag k="addr:city" v="Randolph"/>
    <tag k="addr:housenumber" v="47"/>
    <tag k="addr:street" v="School Street"/>
    <tag k="addr:state" v="VT"/>
    <tag k="ref:vcgi:esiteid" v="197828"/>
  </node>
  <node id="-1762" visible="true" lat="43.92402621" lon="-72.67498317">
    <tag k="addr:city" v="Randolph"/>
    <tag k="addr:housenumber" v="59"/>
    <tag k="addr:street" v="Weston Street"/>
    <tag k="addr:state" v="VT"/>
    <tag k="ref:vcgi:esiteid" v="197829"/>
  </node>
  <node id="-1763" visible="true" lat="43.92388231" lon="-72.67406323">
    <tag k="addr:city" v="Randolph"/>
    <tag k="addr:housenumber" v="53"/>
    <tag k="addr:street" v="Weston Street"/>
    <tag k="addr:state" v="VT"/>
    <tag k="ref:vcgi:esiteid" v="197830"/>
  </node>
  <node id="-1764" visible="true" lat="43.9366429" lon="-72.65955024">
    <tag k="addr:city" v="Randolph"/>
    <tag k="addr:housenumber" v="178"/>
    <tag k="addr:street" v="Sugar Plum Court"/>
    <tag k="addr:state" v="VT"/>
    <tag k="ref:vcgi:esiteid" v="197831"/>
  </node>
  <node id="-1765" visible="true" lat="43.92594473" lon="-72.65862822">
    <tag k="addr:city" v="Randolph"/>
    <tag k="addr:housenumber" v="13"/>
    <tag k="addr:street" v="Hedding Drive"/>
    <tag k="addr:state" v="VT"/>
    <tag k="ref:vcgi:esiteid" v="197833"/>
  </node>
  <node id="-1768" visible="true" lat="43.92252349" lon="-72.66771697">
    <tag k="addr:city" v="Randolph"/>
    <tag k="addr:housenumber" v="17"/>
    <tag k="addr:street" v="Weston Street"/>
    <tag k="addr:state" v="VT"/>
    <tag k="ref:vcgi:esiteid" v="197836"/>
  </node>
  <node id="-1769" visible="true" lat="43.92193547" lon="-72.66587918">
    <tag k="addr:city" v="Randolph"/>
    <tag k="addr:housenumber" v="3"/>
    <tag k="addr:street" v="Weston Street"/>
    <tag k="addr:state" v="VT"/>
    <tag k="ref:vcgi:esiteid" v="197838"/>
  </node>
  <node id="-1770" visible="true" lat="43.9218368" lon="-72.66559627">
    <tag k="addr:city" v="Randolph"/>
    <tag k="addr:housenumber" v="1"/>
    <tag k="addr:street" v="Weston Street"/>
    <tag k="addr:state" v="VT"/>
    <tag k="ref:vcgi:esiteid" v="197839"/>
  </node>
  <node id="-1771" visible="true" lat="43.92222078" lon="-72.66667447">
    <tag k="addr:city" v="Randolph"/>
    <tag k="addr:housenumber" v="7"/>
    <tag k="addr:street" v="Weston Street"/>
    <tag k="addr:state" v="VT"/>
    <tag k="ref:vcgi:esiteid" v="197840"/>
  </node>
  <node id="-1773" visible="true" lat="43.92619446" lon="-72.65707872">
    <tag k="addr:city" v="Randolph"/>
    <tag k="addr:housenumber" v="18"/>
    <tag k="addr:street" v="Hedding Drive"/>
    <tag k="addr:state" v="VT"/>
    <tag k="ref:vcgi:esiteid" v="197842"/>
  </node>
  <node id="-1781" visible="true" lat="43.90556151" lon="-72.65849792">
    <tag k="addr:city" v="Randolph"/>
    <tag k="addr:housenumber" v="154"/>
    <tag k="addr:street" v="Dylan Drive"/>
    <tag k="addr:state" v="VT"/>
    <tag k="ref:vcgi:esiteid" v="197852"/>
  </node>
  <node id="-1795" visible="true" lat="43.93095567" lon="-72.67367197">
    <tag k="addr:city" v="Randolph"/>
    <tag k="addr:housenumber" v="236"/>
    <tag k="addr:street" v="Wallace Hill Road"/>
    <tag k="addr:state" v="VT"/>
    <tag k="ref:vcgi:esiteid" v="197868"/>
  </node>
  <node id="-1796" visible="true" lat="43.93080812" lon="-72.6765626">
    <tag k="addr:city" v="Randolph"/>
    <tag k="addr:housenumber" v="376"/>
    <tag k="addr:street" v="Wallace Hill Road"/>
    <tag k="addr:state" v="VT"/>
    <tag k="ref:vcgi:esiteid" v="197869"/>
  </node>
  <node id="-1797" visible="true" lat="43.93073276" lon="-72.67590412">
    <tag k="addr:city" v="Randolph"/>
    <tag k="addr:housenumber" v="346"/>
    <tag k="addr:street" v="Wallace Hill Road"/>
    <tag k="addr:state" v="VT"/>
    <tag k="ref:vcgi:esiteid" v="197870"/>
  </node>
  <node id="-1798" visible="true" lat="43.9306282" lon="-72.67446335">
    <tag k="addr:city" v="Randolph"/>
    <tag k="addr:housenumber" v="10"/>
    <tag k="addr:street" v="Lodestar Hill"/>
    <tag k="addr:state" v="VT"/>
    <tag k="ref:vcgi:esiteid" v="197871"/>
  </node>
  <node id="-1805" visible="true" lat="43.93628984" lon="-72.66466837">
    <tag k="addr:city" v="Randolph"/>
    <tag k="addr:housenumber" v="52"/>
    <tag k="addr:street" v="Mason Road"/>
    <tag k="addr:state" v="VT"/>
    <tag k="ref:vcgi:esiteid" v="197878"/>
  </node>
  <node id="-1807" visible="true" lat="43.93419301" lon="-72.66511702">
    <tag k="addr:city" v="Randolph"/>
    <tag k="addr:housenumber" v="34"/>
    <tag k="addr:street" v="Elm Street"/>
    <tag k="addr:state" v="VT"/>
    <tag k="ref:vcgi:esiteid" v="197881"/>
  </node>
  <node id="-1808" visible="true" lat="43.93431854" lon="-72.66441345">
    <tag k="addr:city" v="Randolph"/>
    <tag k="addr:housenumber" v="33"/>
    <tag k="addr:street" v="Elm Street"/>
    <tag k="addr:state" v="VT"/>
    <tag k="ref:vcgi:esiteid" v="197882"/>
  </node>
  <node id="-1809" visible="true" lat="43.93481856" lon="-72.66463804">
    <tag k="addr:city" v="Randolph"/>
    <tag k="addr:housenumber" v="35"/>
    <tag k="addr:street" v="Elm Street"/>
    <tag k="addr:state" v="VT"/>
    <tag k="ref:vcgi:esiteid" v="197883"/>
  </node>
  <node id="-1810" visible="true" lat="43.93301035" lon="-72.66088877">
    <tag k="addr:city" v="Randolph"/>
    <tag k="addr:housenumber" v="35"/>
    <tag k="addr:street" v="Ayers Brook Road"/>
    <tag k="addr:state" v="VT"/>
    <tag k="ref:vcgi:esiteid" v="197884"/>
  </node>
  <node id="-1811" visible="true" lat="43.92698971" lon="-72.66313201">
    <tag k="addr:city" v="Randolph"/>
    <tag k="addr:housenumber" v="6"/>
    <tag k="addr:street" v="Crescent Street"/>
    <tag k="addr:state" v="VT"/>
    <tag k="ref:vcgi:esiteid" v="197886"/>
  </node>
  <node id="-1812" visible="true" lat="43.92795947" lon="-72.66380096">
    <tag k="addr:city" v="Randolph"/>
    <tag k="addr:housenumber" v="14"/>
    <tag k="addr:street" v="Central Street"/>
    <tag k="addr:state" v="VT"/>
    <tag k="ref:vcgi:esiteid" v="197887"/>
  </node>
  <node id="-1813" visible="true" lat="43.92232489" lon="-72.66885523">
    <tag k="addr:city" v="Randolph"/>
    <tag k="addr:housenumber" v="5"/>
    <tag k="addr:street" v="Hale Street"/>
    <tag k="addr:state" v="VT"/>
    <tag k="ref:vcgi:esiteid" v="197888"/>
  </node>
  <node id="-1814" visible="true" lat="43.92183512" lon="-72.66903066">
    <tag k="addr:city" v="Randolph"/>
    <tag k="addr:housenumber" v="11"/>
    <tag k="addr:street" v="Hale Street"/>
    <tag k="addr:state" v="VT"/>
    <tag k="ref:vcgi:esiteid" v="197889"/>
  </node>
  <node id="-1815" visible="true" lat="43.92166384" lon="-72.66915062">
    <tag k="addr:city" v="Randolph"/>
    <tag k="addr:housenumber" v="13"/>
    <tag k="addr:street" v="Hale Street"/>
    <tag k="addr:state" v="VT"/>
    <tag k="ref:vcgi:esiteid" v="197890"/>
  </node>
  <node id="-1816" visible="true" lat="43.92140208" lon="-72.66916748">
    <tag k="addr:city" v="Randolph"/>
    <tag k="addr:housenumber" v="15"/>
    <tag k="addr:street" v="Hale Street"/>
    <tag k="addr:state" v="VT"/>
    <tag k="ref:vcgi:esiteid" v="197891"/>
  </node>
  <node id="-1819" visible="true" lat="43.92235668" lon="-72.66317872">
    <tag k="addr:city" v="Randolph"/>
    <tag k="addr:housenumber" v="40"/>
    <tag k="addr:street" v="Pleasant Street"/>
    <tag k="addr:state" v="VT"/>
    <tag k="ref:vcgi:esiteid" v="197896"/>
  </node>
  <node id="-1844" visible="true" lat="43.91899242" lon="-72.66202747">
    <tag k="addr:city" v="Randolph"/>
    <tag k="addr:housenumber" v="20"/>
    <tag k="addr:street" v="Prospect Avenue"/>
    <tag k="addr:state" v="VT"/>
    <tag k="ref:vcgi:esiteid" v="197929"/>
  </node>
  <node id="-1853" visible="true" lat="43.93023538" lon="-72.68701799">
    <tag k="addr:city" v="Randolph"/>
    <tag k="addr:housenumber" v="50"/>
    <tag k="addr:street" v="Dewey Boulevard"/>
    <tag k="addr:state" v="VT"/>
    <tag k="ref:vcgi:esiteid" v="197939"/>
  </node>
  <node id="-1859" visible="true" lat="43.94022983" lon="-72.60791307">
    <tag k="addr:city" v="Randolph"/>
    <tag k="addr:housenumber" v="16"/>
    <tag k="addr:street" v="East Bethel Road"/>
    <tag k="addr:state" v="VT"/>
    <tag k="ref:vcgi:esiteid" v="197945"/>
  </node>
  <node id="-1862" visible="true" lat="43.92375978" lon="-72.66498128">
    <tag k="addr:city" v="Randolph"/>
    <tag k="addr:housenumber" v="1"/>
    <tag k="addr:street" v="Pleasant Street"/>
    <tag k="addr:state" v="VT"/>
    <tag k="ref:vcgi:esiteid" v="197948"/>
  </node>
  <node id="-1871" visible="true" lat="43.93357615" lon="-72.6044918">
    <tag k="addr:city" v="Randolph"/>
    <tag k="addr:housenumber" v="451"/>
    <tag k="addr:street" v="East Bethel Road"/>
    <tag k="addr:state" v="VT"/>
    <tag k="ref:vcgi:esiteid" v="197960"/>
  </node>
  <node id="-1873" visible="true" lat="43.94075173" lon="-72.60873277">
    <tag k="addr:city" v="Randolph"/>
    <tag k="addr:housenumber" v="2822"/>
    <tag k="addr:street" v="Vermont Route 66"/>
    <tag k="addr:state" v="VT"/>
    <tag k="ref:vcgi:esiteid" v="197962"/>
  </node>
  <node id="-1886" visible="true" lat="43.9307451" lon="-72.68540404">
    <tag k="addr:city" v="Randolph"/>
    <tag k="addr:housenumber" v="27"/>
    <tag k="addr:street" v="Dewey Boulevard"/>
    <tag k="addr:state" v="VT"/>
    <tag k="ref:vcgi:esiteid" v="197978"/>
  </node>
  <node id="-1887" visible="true" lat="43.9306566" lon="-72.6866835">
    <tag k="addr:city" v="Randolph"/>
    <tag k="addr:housenumber" v="26"/>
    <tag k="addr:street" v="Dewey Boulevard"/>
    <tag k="addr:state" v="VT"/>
    <tag k="ref:vcgi:esiteid" v="197979"/>
  </node>
  <node id="-1892" visible="true" lat="43.93642083" lon="-72.65942822">
    <tag k="addr:city" v="Randolph"/>
    <tag k="addr:housenumber" v="170"/>
    <tag k="addr:street" v="Sugar Plum Court"/>
    <tag k="addr:state" v="VT"/>
    <tag k="ref:vcgi:esiteid" v="197984"/>
  </node>
  <node id="-1893" visible="true" lat="43.93605992" lon="-72.66034791">
    <tag k="addr:city" v="Randolph"/>
    <tag k="addr:housenumber" v="198"/>
    <tag k="addr:street" v="Sugar Plum Court"/>
    <tag k="addr:state" v="VT"/>
    <tag k="ref:vcgi:esiteid" v="197985"/>
  </node>
  <node id="-1899" visible="true" lat="43.935529" lon="-72.66027157">
    <tag k="addr:city" v="Randolph"/>
    <tag k="addr:housenumber" v="214"/>
    <tag k="addr:street" v="Sugar Plum Court"/>
    <tag k="addr:state" v="VT"/>
    <tag k="ref:vcgi:esiteid" v="197992"/>
  </node>
  <node id="-1902" visible="true" lat="43.90670187" lon="-72.6586926">
    <tag k="addr:city" v="Randolph"/>
    <tag k="addr:housenumber" v="81"/>
    <tag k="addr:street" v="Dylan Drive"/>
    <tag k="addr:state" v="VT"/>
    <tag k="ref:vcgi:esiteid" v="197995"/>
  </node>
  <node id="-1911" visible="true" lat="43.93609015" lon="-72.65834142">
    <tag k="addr:city" v="Randolph"/>
    <tag k="addr:housenumber" v="96"/>
    <tag k="addr:street" v="Sugar Plum Court"/>
    <tag k="addr:state" v="VT"/>
    <tag k="ref:vcgi:esiteid" v="198005"/>
  </node>
  <node id="-1913" visible="true" lat="43.92220503" lon="-72.66619638">
    <tag k="addr:city" v="Randolph"/>
    <tag k="addr:housenumber" v="2"/>
    <tag k="addr:street" v="L Street"/>
    <tag k="addr:state" v="VT"/>
    <tag k="ref:vcgi:esiteid" v="198008"/>
  </node>
  <node id="-1916" visible="true" lat="43.9361699" lon="-72.65931666">
    <tag k="addr:city" v="Randolph"/>
    <tag k="addr:housenumber" v="160"/>
    <tag k="addr:street" v="Sugar Plum Court"/>
    <tag k="addr:state" v="VT"/>
    <tag k="ref:vcgi:esiteid" v="198012"/>
  </node>
  <node id="-1917" visible="true" lat="43.93628374" lon="-72.66000239">
    <tag k="addr:city" v="Randolph"/>
    <tag k="addr:housenumber" v="190"/>
    <tag k="addr:street" v="Sugar Plum Court"/>
    <tag k="addr:state" v="VT"/>
    <tag k="ref:vcgi:esiteid" v="198013"/>
  </node>
  <node id="-1933" visible="true" lat="43.91538283" lon="-72.66418342">
    <tag k="addr:city" v="Randolph"/>
    <tag k="addr:housenumber" v="54"/>
    <tag k="addr:street" v="South Main Street"/>
    <tag k="addr:state" v="VT"/>
    <tag k="ref:vcgi:esiteid" v="198031"/>
  </node>
  <node id="-1945" visible="true" lat="43.92005657" lon="-72.65900451">
    <tag k="addr:city" v="Randolph"/>
    <tag k="addr:housenumber" v="17"/>
    <tag k="addr:street" v="Pearl Street"/>
    <tag k="addr:state" v="VT"/>
    <tag k="ref:vcgi:esiteid" v="198045"/>
  </node>
  <node id="-1946" visible="true" lat="43.91992135" lon="-72.65964784">
    <tag k="addr:city" v="Randolph"/>
    <tag k="addr:housenumber" v="19"/>
    <tag k="addr:street" v="Pearl Street"/>
    <tag k="addr:state" v="VT"/>
    <tag k="ref:vcgi:esiteid" v="198046"/>
  </node>
  <node id="-1959" visible="true" lat="43.93388683" lon="-72.60245858">
    <tag k="addr:city" v="Randolph"/>
    <tag k="addr:housenumber" v="400"/>
    <tag k="addr:street" v="South Randolph Road"/>
    <tag k="addr:state" v="VT"/>
    <tag k="ref:vcgi:esiteid" v="198059"/>
  </node>
  <node id="-1961" visible="true" lat="43.92359478" lon="-72.66431546">
    <tag k="addr:city" v="Randolph"/>
    <tag k="addr:housenumber" v="22"/>
    <tag k="addr:street" v="Pleasant Street"/>
    <tag k="addr:state" v="VT"/>
    <tag k="ref:vcgi:esiteid" v="198061"/>
  </node>
  <node id="-1966" visible="true" lat="43.93121407" lon="-72.67446066">
    <tag k="addr:city" v="Randolph"/>
    <tag k="addr:housenumber" v="58"/>
    <tag k="addr:street" v="Lodestar Hill"/>
    <tag k="addr:state" v="VT"/>
    <tag k="ref:vcgi:esiteid" v="198066"/>
  </node>
  <node id="-1977" visible="true" lat="43.94180676" lon="-72.61691454">
    <tag k="addr:city" v="Randolph"/>
    <tag k="addr:housenumber" v="195"/>
    <tag k="addr:street" v="Oak Ridge Lane"/>
    <tag k="addr:state" v="VT"/>
    <tag k="ref:vcgi:esiteid" v="198078"/>
  </node>
  <node id="-1987" visible="true" lat="43.93534133" lon="-72.66272751">
    <tag k="addr:city" v="Randolph"/>
    <tag k="addr:housenumber" v="107"/>
    <tag k="addr:street" v="Mariah Lane"/>
    <tag k="addr:state" v="VT"/>
    <tag k="ref:vcgi:esiteid" v="306280"/>
  </node>
  <node id="-1988" visible="true" lat="43.93502258" lon="-72.66285211">
    <tag k="addr:city" v="Randolph"/>
    <tag k="addr:housenumber" v="104"/>
    <tag k="addr:street" v="Mariah Lane"/>
    <tag k="addr:state" v="VT"/>
    <tag k="ref:vcgi:esiteid" v="306281"/>
  </node>
  <node id="-1989" visible="true" lat="43.93498177" lon="-72.66343471">
    <tag k="addr:city" v="Randolph"/>
    <tag k="addr:housenumber" v="84"/>
    <tag k="addr:street" v="Mariah Lane"/>
    <tag k="addr:state" v="VT"/>
    <tag k="ref:vcgi:esiteid" v="306282"/>
  </node>
  <node id="-1990" visible="true" lat="43.93496266" lon="-72.6638538">
    <tag k="addr:city" v="Randolph"/>
    <tag k="addr:housenumber" v="60"/>
    <tag k="addr:street" v="Mariah Lane"/>
    <tag k="addr:state" v="VT"/>
    <tag k="ref:vcgi:esiteid" v="306283"/>
  </node>
  <node id="-2010" visible="true" lat="43.95561611" lon="-72.60382301">
    <tag k="addr:city" v="Randolph"/>
    <tag k="addr:housenumber" v="89"/>
    <tag k="addr:street" v="Rand Road"/>
    <tag k="addr:state" v="VT"/>
    <tag k="ref:vcgi:esiteid" v="315215"/>
  </node>
  <node id="-2025" visible="true" lat="43.92290721" lon="-72.66514608">
    <tag k="addr:city" v="Randolph"/>
    <tag k="addr:housenumber" v="2"/>
    <tag k="addr:street" v="North Main Street"/>
    <tag k="addr:state" v="VT"/>
    <tag k="ref:vcgi:esiteid" v="315230"/>
  </node>
  <node id="-2026" visible="true" lat="43.92303111" lon="-72.66513574">
    <tag k="addr:city" v="Randolph"/>
    <tag k="addr:housenumber" v="8"/>
    <tag k="addr:street" v="North Main Street"/>
    <tag k="addr:state" v="VT"/>
    <tag k="ref:vcgi:esiteid" v="315231"/>
  </node>
  <node id="-2035" visible="true" lat="43.92216397" lon="-72.66462803">
    <tag k="addr:city" v="Randolph"/>
    <tag k="addr:housenumber" v="12"/>
    <tag k="addr:street" v="South Main Street"/>
    <tag k="addr:state" v="VT"/>
    <tag k="ref:vcgi:esiteid" v="315240"/>
  </node>
  <node id="-2036" visible="true" lat="43.92106575" lon="-72.66545797">
    <tag k="addr:city" v="Randolph"/>
    <tag k="addr:housenumber" v="18 1/2"/>
    <tag k="addr:street" v="South Main Street"/>
    <tag k="addr:state" v="VT"/>
    <tag k="ref:vcgi:esiteid" v="315241"/>
  </node>
  <node id="-2047" visible="true" lat="43.91987869" lon="-72.65613404">
    <tag k="addr:city" v="Randolph"/>
    <tag k="addr:housenumber" v="14"/>
    <tag k="addr:street" v="Hull Street"/>
    <tag k="addr:state" v="VT"/>
    <tag k="ref:vcgi:esiteid" v="327182"/>
  </node>
  <node id="-2048" visible="true" lat="43.93328266" lon="-72.65899089">
    <tag k="addr:city" v="Randolph"/>
    <tag k="addr:housenumber" v="36"/>
    <tag k="addr:street" v="Forest Street"/>
    <tag k="addr:state" v="VT"/>
    <tag k="ref:vcgi:esiteid" v="327183"/>
  </node>
  <node id="-2071" visible="true" lat="43.92449512" lon="-72.67113121">
    <tag k="addr:city" v="Randolph"/>
    <tag k="addr:housenumber" v="34"/>
    <tag k="addr:street" v="School Street"/>
    <tag k="addr:state" v="VT"/>
    <tag k="ref:vcgi:esiteid" v="345933"/>
  </node>
  <node id="-2100" visible="true" lat="43.94206213" lon="-72.61841885">
    <tag k="addr:city" v="Randolph"/>
    <tag k="addr:housenumber" v="180"/>
    <tag k="addr:street" v="Oak Ridge Lane"/>
    <tag k="addr:state" v="VT"/>
    <tag k="ref:vcgi:esiteid" v="447769"/>
  </node>
  <node id="-2101" visible="true" lat="43.93579119" lon="-72.66042116">
    <tag k="addr:city" v="Randolph"/>
    <tag k="addr:housenumber" v="212"/>
    <tag k="addr:street" v="Sugar Plum Court"/>
    <tag k="addr:state" v="VT"/>
    <tag k="ref:vcgi:esiteid" v="447998"/>
  </node>
  <node id="-2106" visible="true" lat="43.93494145" lon="-72.61229855">
    <tag k="addr:city" v="Randolph"/>
    <tag k="addr:housenumber" v="440"/>
    <tag k="addr:street" v="Ski Tow Road"/>
    <tag k="addr:state" v="VT"/>
    <tag k="ref:vcgi:esiteid" v="448613"/>
  </node>
  <node id="-2114" visible="true" lat="43.92033228" lon="-72.66059786">
    <tag k="addr:city" v="Randolph"/>
    <tag k="addr:housenumber" v="4"/>
    <tag k="addr:street" v="Shattuck Street"/>
    <tag k="addr:state" v="VT"/>
    <tag k="ref:vcgi:esiteid" v="448771"/>
  </node>
  <node id="-2131" visible="true" lat="43.92891584" lon="-72.66557581">
    <tag k="addr:city" v="Randolph"/>
    <tag k="addr:housenumber" v="4"/>
    <tag k="addr:street" v="Friend Street"/>
    <tag k="addr:state" v="VT"/>
    <tag k="ref:vcgi:esiteid" v="453267"/>
  </node>
  <node id="-2132" visible="true" lat="43.91622017" lon="-72.65776254">
    <tag k="addr:city" v="Randolph"/>
    <tag k="addr:housenumber" v="80"/>
    <tag k="addr:street" v="Beanville Road"/>
    <tag k="addr:state" v="VT"/>
    <tag k="ref:vcgi:esiteid" v="453269"/>
  </node>
  <node id="-2140" visible="true" lat="43.9030164" lon="-72.64974642">
    <tag k="addr:city" v="Randolph"/>
    <tag k="addr:housenumber" v="270"/>
    <tag k="addr:street" v="Landfill Road"/>
    <tag k="addr:state" v="VT"/>
    <tag k="ref:vcgi:esiteid" v="454613"/>
  </node>
  <node id="-2142" visible="true" lat="43.93307353" lon="-72.60151398">
    <tag k="addr:city" v="Randolph"/>
    <tag k="addr:housenumber" v="442"/>
    <tag k="addr:street" v="South Randolph Road"/>
    <tag k="addr:state" v="VT"/>
    <tag k="ref:vcgi:esiteid" v="454783"/>
  </node>
  <node id="-2182" visible="true" lat="43.94126658" lon="-72.59995137">
    <tag k="addr:city" v="Randolph"/>
    <tag k="addr:housenumber" v="330"/>
    <tag k="addr:street" v="Furnace Street"/>
    <tag k="addr:state" v="VT"/>
    <tag k="ref:vcgi:esiteid" v="752257"/>
  </node>
  <node id="-2192" visible="true" lat="43.93576894" lon="-72.60926874">
    <tag k="addr:city" v="Randolph"/>
    <tag k="addr:housenumber" v="143"/>
    <tag k="addr:street" v="Ski Tow Road"/>
    <tag k="addr:state" v="VT"/>
    <tag k="ref:vcgi:esiteid" v="754129"/>
  </node>
  <node id="-2297" visible="true" lat="43.93699846" lon="-72.60953396">
    <tag k="addr:city" v="Randolph"/>
    <tag k="addr:housenumber" v="139"/>
    <tag k="addr:street" v="Water Street"/>
    <tag k="addr:state" v="VT"/>
    <tag k="ref:vcgi:esiteid" v="1050995"/>
  </node>
</osm>
