<?xml version="1.0" encoding="UTF-8"?>
<osm version="0.6" generator="JOSM">
  <node id="-502" visible="true" lat="43.94348522" lon="-72.654358">
    <!-- multiple: "84 Scenic Drive, Randolph, VT" Multiple exact matches in OSM. -->
    <tag k="addr:city" v="Randolph"/>
    <tag k="addr:housenumber" v="84"/>
    <tag k="addr:street" v="Scenic Drive"/>
    <tag k="addr:state" v="VT"/>
    <tag k="ref:vcgi:esiteid" v="196427"/>
  </node>
  <node id="-1000" visible="true" lat="43.92730349" lon="-72.66523673">
    <!-- multiple: "7 Central Street, Randolph, VT" Multiple exact matches in OSM. -->
    <tag k="addr:city" v="Randolph"/>
    <tag k="addr:housenumber" v="7"/>
    <tag k="addr:street" v="Central Street"/>
    <tag k="addr:state" v="VT"/>
    <tag k="ref:vcgi:esiteid" v="196967"/>
  </node>
  <node id="-1048" visible="true" lat="43.92537029" lon="-72.66614243">
    <!-- multiple: "30 North Main Street, Randolph, VT" Multiple exact matches in OSM. -->
    <tag k="addr:city" v="Randolph"/>
    <tag k="addr:housenumber" v="30"/>
    <tag k="addr:street" v="North Main Street"/>
    <tag k="addr:state" v="VT"/>
    <tag k="ref:vcgi:esiteid" v="197021"/>
  </node>
  <node id="-1174" visible="true" lat="43.92328007" lon="-72.66560605">
    <!-- multiple: "12 North Main Street, Randolph, VT" Multiple exact matches in OSM. -->
    <tag k="addr:city" v="Randolph"/>
    <tag k="addr:housenumber" v="12"/>
    <tag k="addr:street" v="North Main Street"/>
    <tag k="addr:state" v="VT"/>
    <tag k="ref:vcgi:esiteid" v="197170"/>
  </node>
  <node id="-1212" visible="true" lat="43.92268056" lon="-72.66571823">
    <!-- multiple: "4 Salisbury Street, Randolph, VT" Multiple exact matches in OSM. -->
    <tag k="addr:city" v="Randolph"/>
    <tag k="addr:housenumber" v="4"/>
    <tag k="addr:street" v="Salisbury Street"/>
    <tag k="addr:state" v="VT"/>
    <tag k="ref:vcgi:esiteid" v="197210"/>
  </node>
  <node id="-1228" visible="true" lat="43.92259667" lon="-72.66700108">
    <!-- multiple: "13 Weston Street, Randolph, VT" Multiple exact matches in OSM. -->
    <tag k="addr:city" v="Randolph"/>
    <tag k="addr:housenumber" v="13"/>
    <tag k="addr:street" v="Weston Street"/>
    <tag k="addr:state" v="VT"/>
    <tag k="ref:vcgi:esiteid" v="197228"/>
  </node>
  <node id="-1248" visible="true" lat="43.92226596" lon="-72.65856068">
    <!-- multiple: "50 Randolph Avenue, Randolph, VT" Multiple exact matches in OSM. -->
    <tag k="addr:city" v="Randolph"/>
    <tag k="addr:housenumber" v="50"/>
    <tag k="addr:street" v="Randolph Avenue"/>
    <tag k="addr:state" v="VT"/>
    <tag k="ref:vcgi:esiteid" v="197253"/>
  </node>
  <node id="-1269" visible="true" lat="43.92187043" lon="-72.6645119">
    <!-- multiple: "14 South Main Street, Randolph, VT" Multiple exact matches in OSM. -->
    <tag k="addr:city" v="Randolph"/>
    <tag k="addr:housenumber" v="14"/>
    <tag k="addr:street" v="South Main Street"/>
    <tag k="addr:state" v="VT"/>
    <tag k="ref:vcgi:esiteid" v="197278"/>
  </node>
  <node id="-1480" visible="true" lat="43.91690444" lon="-72.66530609">
    <!-- multiple: "44 South Main Street, Randolph, VT" Multiple exact matches in OSM. -->
    <tag k="addr:city" v="Randolph"/>
    <tag k="addr:housenumber" v="44"/>
    <tag k="addr:street" v="South Main Street"/>
    <tag k="addr:state" v="VT"/>
    <tag k="ref:vcgi:esiteid" v="197521"/>
  </node>
  <node id="-1745" visible="true" lat="43.92780607" lon="-72.67094777">
    <!-- multiple: "26 Park Street, Randolph, VT" Multiple exact matches in OSM. -->
    <tag k="addr:city" v="Randolph"/>
    <tag k="addr:housenumber" v="26"/>
    <tag k="addr:street" v="Park Street"/>
    <tag k="addr:state" v="VT"/>
    <tag k="ref:vcgi:esiteid" v="197808"/>
  </node>
  <node id="-1746" visible="true" lat="43.92779231" lon="-72.67125265">
    <!-- multiple: "26 Park Street, Randolph, VT" Multiple exact matches in OSM. -->
    <tag k="addr:city" v="Randolph"/>
    <tag k="addr:housenumber" v="26"/>
    <tag k="addr:street" v="Park Street"/>
    <tag k="addr:state" v="VT"/>
    <tag k="ref:vcgi:esiteid" v="197809"/>
  </node>
  <node id="-1747" visible="true" lat="43.92772666" lon="-72.67140968">
    <!-- multiple: "26 Park Street, Randolph, VT" Multiple exact matches in OSM. -->
    <tag k="addr:city" v="Randolph"/>
    <tag k="addr:housenumber" v="26"/>
    <tag k="addr:street" v="Park Street"/>
    <tag k="addr:state" v="VT"/>
    <tag k="ref:vcgi:esiteid" v="197810"/>
  </node>
  <node id="-1749" visible="true" lat="43.92765888" lon="-72.67158257">
    <!-- multiple: "26 Park Street, Randolph, VT" Multiple exact matches in OSM. -->
    <tag k="addr:city" v="Randolph"/>
    <tag k="addr:housenumber" v="26"/>
    <tag k="addr:street" v="Park Street"/>
    <tag k="addr:state" v="VT"/>
    <tag k="ref:vcgi:esiteid" v="197812"/>
  </node>
  <node id="-1750" visible="true" lat="43.92761604" lon="-72.67177513">
    <!-- multiple: "26 Park Street, Randolph, VT" Multiple exact matches in OSM. -->
    <tag k="addr:city" v="Randolph"/>
    <tag k="addr:housenumber" v="26"/>
    <tag k="addr:street" v="Park Street"/>
    <tag k="addr:state" v="VT"/>
    <tag k="ref:vcgi:esiteid" v="197813"/>
  </node>
  <node id="-1751" visible="true" lat="43.92757111" lon="-72.67195823">
    <!-- multiple: "26 Park Street, Randolph, VT" Multiple exact matches in OSM. -->
    <tag k="addr:city" v="Randolph"/>
    <tag k="addr:housenumber" v="26"/>
    <tag k="addr:street" v="Park Street"/>
    <tag k="addr:state" v="VT"/>
    <tag k="ref:vcgi:esiteid" v="197814"/>
  </node>
  <node id="-1767" visible="true" lat="43.92355042" lon="-72.66549444">
    <!-- multiple: "16 North Main Street, Randolph, VT" Multiple exact matches in OSM. -->
    <tag k="addr:city" v="Randolph"/>
    <tag k="addr:housenumber" v="16"/>
    <tag k="addr:street" v="North Main Street"/>
    <tag k="addr:state" v="VT"/>
    <tag k="ref:vcgi:esiteid" v="197834"/>
  </node>
  <node id="-1773" visible="true" lat="43.92234128" lon="-72.66716857">
    <!-- multiple: "13 Weston Street, Randolph, VT" Multiple exact matches in OSM. -->
    <tag k="addr:city" v="Randolph"/>
    <tag k="addr:housenumber" v="13"/>
    <tag k="addr:street" v="Weston Street"/>
    <tag k="addr:state" v="VT"/>
    <tag k="ref:vcgi:esiteid" v="197841"/>
  </node>
</osm>
