<?xml version="1.0" encoding="UTF-8"?>
<osm version="0.6" generator="JOSM">
  <node id="-100" visible="true" lat="43.55683517" lon="-72.63981628">
    <tag k="addr:housenumber" v="105"/>
    <tag k="addr:street" v="Mecawee Pond Road"/>
    <tag k="addr:state" v="VT"/>
    <tag k="ref:vcgi:esiteid" v="198086"/>
  </node>
  <node id="-106" visible="true" lat="43.53756332" lon="-72.55753326">
    <tag k="addr:housenumber" v="198"/>
    <tag k="addr:street" v="Hodgekinson Road"/>
    <tag k="addr:state" v="VT"/>
    <tag k="ref:vcgi:esiteid" v="198093"/>
  </node>
  <node id="-111" visible="true" lat="43.53059768" lon="-72.5457077">
    <tag k="addr:housenumber" v="594"/>
    <tag k="addr:street" v="Adventure Quest Drive"/>
    <tag k="addr:state" v="VT"/>
    <tag k="ref:vcgi:esiteid" v="198099"/>
  </node>
  <node id="-112" visible="true" lat="43.53042602" lon="-72.54531097">
    <tag k="addr:housenumber" v="596"/>
    <tag k="addr:street" v="Adventure Quest Drive"/>
    <tag k="addr:state" v="VT"/>
    <tag k="ref:vcgi:esiteid" v="198100"/>
  </node>
  <node id="-114" visible="true" lat="43.5280838" lon="-72.5552597">
    <tag k="addr:housenumber" v="1642"/>
    <tag k="addr:street" v="Jenne Road"/>
    <tag k="addr:state" v="VT"/>
    <tag k="ref:vcgi:esiteid" v="198102"/>
  </node>
  <node id="-115" visible="true" lat="43.52718353" lon="-72.55511474">
    <tag k="addr:housenumber" v="1630"/>
    <tag k="addr:street" v="Jenne Road"/>
    <tag k="addr:state" v="VT"/>
    <tag k="ref:vcgi:esiteid" v="198103"/>
  </node>
  <node id="-116" visible="true" lat="43.52685165" lon="-72.55241393">
    <tag k="addr:housenumber" v="145"/>
    <tag k="addr:street" v="Adventure Quest Drive"/>
    <tag k="addr:state" v="VT"/>
    <tag k="ref:vcgi:esiteid" v="198104"/>
  </node>
  <node id="-118" visible="true" lat="43.52470016" lon="-72.55991363">
    <tag k="addr:housenumber" v="1264"/>
    <tag k="addr:street" v="Jenne Road"/>
    <tag k="addr:state" v="VT"/>
    <tag k="ref:vcgi:esiteid" v="198106"/>
  </node>
  <node id="-128" visible="true" lat="43.521492" lon="-72.55857849">
    <tag k="addr:housenumber" v="1028"/>
    <tag k="addr:street" v="Jenne Road"/>
    <tag k="addr:state" v="VT"/>
    <tag k="ref:vcgi:esiteid" v="198116"/>
  </node>
  <node id="-131" visible="true" lat="43.52114868" lon="-72.54946136">
    <tag k="addr:housenumber" v="162"/>
    <tag k="addr:street" v="Caper Hill Road"/>
    <tag k="addr:state" v="VT"/>
    <tag k="ref:vcgi:esiteid" v="198119"/>
  </node>
  <node id="-133" visible="true" lat="43.52045857" lon="-72.55828588">
    <tag k="addr:housenumber" v="988"/>
    <tag k="addr:street" v="Jenne Road"/>
    <tag k="addr:state" v="VT"/>
    <tag k="ref:vcgi:esiteid" v="198121"/>
  </node>
  <node id="-138" visible="true" lat="43.51819229" lon="-72.56041717">
    <tag k="addr:housenumber" v="778"/>
    <tag k="addr:street" v="Jenne Road"/>
    <tag k="addr:state" v="VT"/>
    <tag k="ref:vcgi:esiteid" v="198126"/>
  </node>
  <node id="-147" visible="true" lat="43.51623153" lon="-72.55684661">
    <tag k="addr:housenumber" v="720"/>
    <tag k="addr:street" v="Jenne Road"/>
    <tag k="addr:state" v="VT"/>
    <tag k="ref:vcgi:esiteid" v="198136"/>
  </node>
  <node id="-151" visible="true" lat="43.51433181" lon="-72.5584259">
    <tag k="addr:housenumber" v="470"/>
    <tag k="addr:street" v="Jenne Road"/>
    <tag k="addr:state" v="VT"/>
    <tag k="ref:vcgi:esiteid" v="198140"/>
  </node>
  <node id="-152" visible="true" lat="43.5141983" lon="-72.55893707">
    <tag k="addr:housenumber" v="475"/>
    <tag k="addr:street" v="Jenne Road"/>
    <tag k="addr:state" v="VT"/>
    <tag k="ref:vcgi:esiteid" v="198141"/>
  </node>
  <node id="-164" visible="true" lat="43.51093292" lon="-72.57846832">
    <tag k="addr:housenumber" v="209"/>
    <tag k="addr:street" v="Stone Chimney Road"/>
    <tag k="addr:state" v="VT"/>
    <tag k="ref:vcgi:esiteid" v="198155"/>
  </node>
  <node id="-168" visible="true" lat="43.50998306" lon="-72.57998657">
    <tag k="addr:housenumber" v="124"/>
    <tag k="addr:street" v="Kittridge Pasture Road"/>
    <tag k="addr:state" v="VT"/>
    <tag k="ref:vcgi:esiteid" v="198159"/>
  </node>
  <node id="-171" visible="true" lat="43.50916671" lon="-72.55387115">
    <tag k="addr:housenumber" v="14"/>
    <tag k="addr:street" v="Jenne Road"/>
    <tag k="addr:state" v="VT"/>
    <tag k="ref:vcgi:esiteid" v="198162"/>
  </node>
  <node id="-174" visible="true" lat="43.50701141" lon="-72.57254791">
    <tag k="addr:housenumber" v="1570"/>
    <tag k="addr:street" v="Baileys Mills Road"/>
    <tag k="addr:state" v="VT"/>
    <tag k="ref:vcgi:esiteid" v="198165"/>
  </node>
  <node id="-176" visible="true" lat="43.50562667" lon="-72.55812835">
    <tag k="addr:housenumber" v="398"/>
    <tag k="addr:street" v="Whitmore Road"/>
    <tag k="addr:state" v="VT"/>
    <tag k="ref:vcgi:esiteid" v="198167"/>
  </node>
  <node id="-177" visible="true" lat="43.50538635" lon="-72.56898498">
    <tag k="addr:housenumber" v="1388"/>
    <tag k="addr:street" v="Baileys Mills Road"/>
    <tag k="addr:state" v="VT"/>
    <tag k="ref:vcgi:esiteid" v="198168"/>
  </node>
  <node id="-179" visible="true" lat="43.50500106" lon="-72.58693695">
    <tag k="addr:housenumber" v="1559"/>
    <tag k="addr:street" v="Town Hill Road"/>
    <tag k="addr:state" v="VT"/>
    <tag k="ref:vcgi:esiteid" v="198170"/>
  </node>
  <node id="-180" visible="true" lat="43.50493621" lon="-72.58631897">
    <tag k="addr:housenumber" v="1565"/>
    <tag k="addr:street" v="Town Hill Road"/>
    <tag k="addr:state" v="VT"/>
    <tag k="ref:vcgi:esiteid" v="198171"/>
  </node>
  <node id="-181" visible="true" lat="43.5044403" lon="-72.56947326">
    <tag k="addr:housenumber" v="1347"/>
    <tag k="addr:street" v="Baileys Mills Road"/>
    <tag k="addr:state" v="VT"/>
    <tag k="ref:vcgi:esiteid" v="198172"/>
  </node>
  <node id="-183" visible="true" lat="43.50400924" lon="-72.56292724">
    <tag k="addr:housenumber" v="756"/>
    <tag k="addr:street" v="Whitmore Road"/>
    <tag k="addr:state" v="VT"/>
    <tag k="ref:vcgi:esiteid" v="198174"/>
  </node>
  <node id="-184" visible="true" lat="43.50385284" lon="-72.56687927">
    <tag k="addr:housenumber" v="1212"/>
    <tag k="addr:street" v="Baileys Mills Road"/>
    <tag k="addr:state" v="VT"/>
    <tag k="ref:vcgi:esiteid" v="198175"/>
  </node>
  <node id="-185" visible="true" lat="43.50323867" lon="-72.5656433">
    <tag k="addr:housenumber" v="843"/>
    <tag k="addr:street" v="Whitmore Road"/>
    <tag k="addr:state" v="VT"/>
    <tag k="ref:vcgi:esiteid" v="198176"/>
  </node>
  <node id="-186" visible="true" lat="43.50262451" lon="-72.57779693">
    <tag k="addr:housenumber" v="688"/>
    <tag k="addr:street" v="Town Hill Road"/>
    <tag k="addr:state" v="VT"/>
    <tag k="ref:vcgi:esiteid" v="198177"/>
  </node>
  <node id="-187" visible="true" lat="43.50247192" lon="-72.58849334">
    <tag k="addr:housenumber" v="1371"/>
    <tag k="addr:street" v="Town Hill Road"/>
    <tag k="addr:state" v="VT"/>
    <tag k="ref:vcgi:esiteid" v="198178"/>
  </node>
  <node id="-188" visible="true" lat="43.50223541" lon="-72.57563018">
    <tag k="addr:housenumber" v="633"/>
    <tag k="addr:street" v="Town Hill Road"/>
    <tag k="addr:state" v="VT"/>
    <tag k="ref:vcgi:esiteid" v="198179"/>
  </node>
  <node id="-190" visible="true" lat="43.50226195" lon="-72.58009266">
    <tag k="addr:housenumber" v="786"/>
    <tag k="addr:street" v="Town Hill Road"/>
    <tag k="addr:state" v="VT"/>
    <tag k="ref:vcgi:esiteid" v="198181"/>
  </node>
  <node id="-191" visible="true" lat="43.50190937" lon="-72.58155248">
    <tag k="addr:housenumber" v="886"/>
    <tag k="addr:street" v="Town Hill Road"/>
    <tag k="addr:state" v="VT"/>
    <tag k="ref:vcgi:esiteid" v="198182"/>
  </node>
  <node id="-195" visible="true" lat="43.50111007" lon="-72.58684539">
    <tag k="addr:housenumber" v="1258"/>
    <tag k="addr:street" v="Town Hill Road"/>
    <tag k="addr:state" v="VT"/>
    <tag k="ref:vcgi:esiteid" v="198186"/>
  </node>
  <node id="-196" visible="true" lat="43.50107955" lon="-72.58323669">
    <tag k="addr:housenumber" v="982"/>
    <tag k="addr:street" v="Town Hill Road"/>
    <tag k="addr:state" v="VT"/>
    <tag k="ref:vcgi:esiteid" v="198187"/>
  </node>
  <node id="-197" visible="true" lat="43.50104522" lon="-72.58085632">
    <tag k="addr:housenumber" v="887"/>
    <tag k="addr:street" v="Town Hill Road"/>
    <tag k="addr:state" v="VT"/>
    <tag k="ref:vcgi:esiteid" v="198188"/>
  </node>
  <node id="-199" visible="true" lat="43.50053024" lon="-72.57550048">
    <tag k="addr:housenumber" v="166"/>
    <tag k="addr:street" v="Reading Center Road"/>
    <tag k="addr:state" v="VT"/>
    <tag k="ref:vcgi:esiteid" v="198190"/>
  </node>
  <node id="-208" visible="true" lat="43.49798567" lon="-72.58600789">
    <tag k="addr:housenumber" v="1849"/>
    <tag k="addr:street" v="North Puckerbrush Road"/>
    <tag k="addr:state" v="VT"/>
    <tag k="ref:vcgi:esiteid" v="198199"/>
  </node>
  <node id="-211" visible="true" lat="43.49764251" lon="-72.58370208">
    <tag k="addr:housenumber" v="1814"/>
    <tag k="addr:street" v="North Puckerbrush Road"/>
    <tag k="addr:state" v="VT"/>
    <tag k="ref:vcgi:esiteid" v="198202"/>
  </node>
  <node id="-212" visible="true" lat="43.49750137" lon="-72.58345031">
    <tag k="addr:housenumber" v="1812"/>
    <tag k="addr:street" v="North Puckerbrush Road"/>
    <tag k="addr:state" v="VT"/>
    <tag k="ref:vcgi:esiteid" v="198203"/>
  </node>
  <node id="-220" visible="true" lat="43.49340438" lon="-72.58345031">
    <tag k="addr:housenumber" v="1702"/>
    <tag k="addr:street" v="North Puckerbrush Road"/>
    <tag k="addr:state" v="VT"/>
    <tag k="ref:vcgi:esiteid" v="198211"/>
  </node>
  <node id="-228" visible="true" lat="43.49026107" lon="-72.5553894">
    <tag k="addr:housenumber" v="51"/>
    <tag k="addr:street" v="Baileys Mills Road"/>
    <tag k="addr:state" v="VT"/>
    <tag k="ref:vcgi:esiteid" v="198219"/>
  </node>
  <node id="-251" visible="true" lat="43.48618316" lon="-72.55680847">
    <tag k="addr:housenumber" v="187"/>
    <tag k="addr:street" v="Agony Hill Road"/>
    <tag k="addr:state" v="VT"/>
    <tag k="ref:vcgi:esiteid" v="198243"/>
  </node>
  <node id="-252" visible="true" lat="43.48616409" lon="-72.55621337">
    <tag k="addr:housenumber" v="174"/>
    <tag k="addr:street" v="Agony Hill Road"/>
    <tag k="addr:state" v="VT"/>
    <tag k="ref:vcgi:esiteid" v="198244"/>
  </node>
  <node id="-254" visible="true" lat="43.48591995" lon="-72.55531311">
    <tag k="addr:housenumber" v="92"/>
    <tag k="addr:street" v="Agony Hill Road"/>
    <tag k="addr:state" v="VT"/>
    <tag k="ref:vcgi:esiteid" v="198246"/>
  </node>
  <node id="-255" visible="true" lat="43.48586273" lon="-72.55587005">
    <tag k="addr:housenumber" v="150"/>
    <tag k="addr:street" v="Agony Hill Road"/>
    <tag k="addr:state" v="VT"/>
    <tag k="ref:vcgi:esiteid" v="198247"/>
  </node>
  <node id="-256" visible="true" lat="43.48542785" lon="-72.55494689">
    <tag k="addr:housenumber" v="87"/>
    <tag k="addr:street" v="Agony Hill Road"/>
    <tag k="addr:state" v="VT"/>
    <tag k="ref:vcgi:esiteid" v="198248"/>
  </node>
  <node id="-258" visible="true" lat="43.48489379" lon="-72.55706787">
    <tag k="addr:housenumber" v="76"/>
    <tag k="addr:street" v="Keyes Mountain Road"/>
    <tag k="addr:state" v="VT"/>
    <tag k="ref:vcgi:esiteid" v="198250"/>
  </node>
  <node id="-273" visible="true" lat="43.47985076" lon="-72.58003234">
    <tag k="addr:housenumber" v="231"/>
    <tag k="addr:street" v="Davis Farm Road"/>
    <tag k="addr:state" v="VT"/>
    <tag k="ref:vcgi:esiteid" v="198265"/>
  </node>
  <node id="-278" visible="true" lat="43.47951507" lon="-72.59126281">
    <tag k="addr:housenumber" v="350"/>
    <tag k="addr:street" v="Matthews Drive"/>
    <tag k="addr:state" v="VT"/>
    <tag k="ref:vcgi:esiteid" v="198271"/>
  </node>
  <node id="-286" visible="true" lat="43.47912216" lon="-72.5702362">
    <tag k="addr:housenumber" v="1013"/>
    <tag k="addr:street" v="Malagash Road"/>
    <tag k="addr:state" v="VT"/>
    <tag k="ref:vcgi:esiteid" v="198280"/>
  </node>
  <node id="-288" visible="true" lat="43.47881698" lon="-72.59133911">
    <tag k="addr:housenumber" v="300"/>
    <tag k="addr:street" v="Matthews Drive"/>
    <tag k="addr:state" v="VT"/>
    <tag k="ref:vcgi:esiteid" v="198282"/>
  </node>
  <node id="-289" visible="true" lat="43.47879791" lon="-72.59243011">
    <tag k="addr:housenumber" v="305"/>
    <tag k="addr:street" v="Matthews Drive"/>
    <tag k="addr:state" v="VT"/>
    <tag k="ref:vcgi:esiteid" v="198283"/>
  </node>
  <node id="-302" visible="true" lat="43.4773788" lon="-72.58901658">
    <tag k="addr:housenumber" v="36"/>
    <tag k="addr:street" v="Center Road"/>
    <tag k="addr:state" v="VT"/>
    <tag k="ref:vcgi:esiteid" v="198298"/>
  </node>
  <node id="-303" visible="true" lat="43.47703933" lon="-72.59455871">
    <tag k="addr:housenumber" v="87"/>
    <tag k="addr:street" v="Bartley Road"/>
    <tag k="addr:state" v="VT"/>
    <tag k="ref:vcgi:esiteid" v="198299"/>
  </node>
  <node id="-307" visible="true" lat="43.47687928" lon="-72.57920985">
    <tag k="addr:housenumber" v="533"/>
    <tag k="addr:street" v="Malagash Road"/>
    <tag k="addr:state" v="VT"/>
    <tag k="ref:vcgi:esiteid" v="198303"/>
  </node>
  <node id="-308" visible="true" lat="43.47695922" lon="-72.59132385">
    <tag k="addr:housenumber" v="49"/>
    <tag k="addr:street" v="Center Road"/>
    <tag k="addr:state" v="VT"/>
    <tag k="ref:vcgi:esiteid" v="198304"/>
  </node>
  <node id="-309" visible="true" lat="43.47689056" lon="-72.54432678">
    <tag k="addr:housenumber" v="320"/>
    <tag k="addr:street" v="Hagen Hill Road"/>
    <tag k="addr:state" v="VT"/>
    <tag k="ref:vcgi:esiteid" v="198305"/>
  </node>
  <node id="-311" visible="true" lat="43.47661972" lon="-72.58141326">
    <tag k="addr:housenumber" v="27"/>
    <tag k="addr:street" v="Davis Farm Road"/>
    <tag k="addr:state" v="VT"/>
    <tag k="ref:vcgi:esiteid" v="198307"/>
  </node>
  <node id="-320" visible="true" lat="43.47623825" lon="-72.59087371">
    <tag k="addr:housenumber" v="90"/>
    <tag k="addr:street" v="Matthews Drive"/>
    <tag k="addr:state" v="VT"/>
    <tag k="ref:vcgi:esiteid" v="198317"/>
  </node>
  <node id="-321" visible="true" lat="43.47611999" lon="-72.59408569">
    <tag k="addr:housenumber" v="3456"/>
    <tag k="addr:street" v="Tyson Road"/>
    <tag k="addr:state" v="VT"/>
    <tag k="ref:vcgi:esiteid" v="198318"/>
  </node>
  <node id="-323" visible="true" lat="43.47588729" lon="-72.59279632">
    <tag k="addr:housenumber" v="3390"/>
    <tag k="addr:street" v="Tyson Road"/>
    <tag k="addr:state" v="VT"/>
    <tag k="ref:vcgi:esiteid" v="198320"/>
  </node>
  <node id="-325" visible="true" lat="43.47582626" lon="-72.58323669">
    <tag k="addr:housenumber" v="299"/>
    <tag k="addr:street" v="Malagash Road"/>
    <tag k="addr:state" v="VT"/>
    <tag k="ref:vcgi:esiteid" v="198323"/>
  </node>
  <node id="-326" visible="true" lat="43.47582244" lon="-72.54136657">
    <tag k="addr:housenumber" v="206"/>
    <tag k="addr:street" v="Hagen Hill Road"/>
    <tag k="addr:state" v="VT"/>
    <tag k="ref:vcgi:esiteid" v="198324"/>
  </node>
  <node id="-327" visible="true" lat="43.47573471" lon="-72.59148407">
    <tag k="addr:housenumber" v="43"/>
    <tag k="addr:street" v="Matthews Drive"/>
    <tag k="addr:state" v="VT"/>
    <tag k="ref:vcgi:esiteid" v="198325"/>
  </node>
  <node id="-329" visible="true" lat="43.4755651" lon="-72.59270998">
    <tag k="addr:housenumber" v="3385"/>
    <tag k="addr:street" v="Tyson Road"/>
    <tag k="addr:state" v="VT"/>
    <tag k="ref:vcgi:esiteid" v="198327"/>
  </node>
  <node id="-332" visible="true" lat="43.47539138" lon="-72.53149414">
    <tag k="addr:housenumber" v="194"/>
    <tag k="addr:street" v="Hurricane Hill"/>
    <tag k="addr:state" v="VT"/>
    <tag k="ref:vcgi:esiteid" v="198330"/>
  </node>
  <node id="-333" visible="true" lat="43.47537232" lon="-72.59081575">
    <tag k="addr:housenumber" v="3286"/>
    <tag k="addr:street" v="Tyson Road"/>
    <tag k="addr:state" v="VT"/>
    <tag k="ref:vcgi:esiteid" v="198331"/>
  </node>
  <node id="-336" visible="true" lat="43.47513605" lon="-72.5896332">
    <tag k="addr:housenumber" v="179"/>
    <tag k="addr:street" v="Park Circle"/>
    <tag k="addr:state" v="VT"/>
    <tag k="ref:vcgi:esiteid" v="198336"/>
  </node>
  <node id="-338" visible="true" lat="43.4749794" lon="-72.58831024">
    <tag k="addr:housenumber" v="108"/>
    <tag k="addr:street" v="Park Circle"/>
    <tag k="addr:state" v="VT"/>
    <tag k="ref:vcgi:esiteid" v="198339"/>
  </node>
  <node id="-339" visible="true" lat="43.47492961" lon="-72.58632203">
    <tag k="addr:housenumber" v="109"/>
    <tag k="addr:street" v="Malagash Road"/>
    <tag k="addr:state" v="VT"/>
    <tag k="ref:vcgi:esiteid" v="198340"/>
  </node>
  <node id="-340" visible="true" lat="43.47489166" lon="-72.59067535">
    <tag k="addr:housenumber" v="3263"/>
    <tag k="addr:street" v="Tyson Road"/>
    <tag k="addr:state" v="VT"/>
    <tag k="ref:vcgi:esiteid" v="198341"/>
  </node>
  <node id="-341" visible="true" lat="43.47486114" lon="-72.58677673">
    <tag k="addr:housenumber" v="91"/>
    <tag k="addr:street" v="Malagash Road"/>
    <tag k="addr:state" v="VT"/>
    <tag k="ref:vcgi:esiteid" v="198342"/>
  </node>
  <node id="-343" visible="true" lat="43.47463226" lon="-72.58924102">
    <tag k="addr:housenumber" v="3192"/>
    <tag k="addr:street" v="Tyson Road"/>
    <tag k="addr:state" v="VT"/>
    <tag k="ref:vcgi:esiteid" v="198344"/>
  </node>
  <node id="-344" visible="true" lat="43.47462081" lon="-72.53357696">
    <tag k="addr:housenumber" v="121"/>
    <tag k="addr:street" v="Hurricane Hill"/>
    <tag k="addr:state" v="VT"/>
    <tag k="ref:vcgi:esiteid" v="198345"/>
  </node>
  <node id="-345" visible="true" lat="43.47460937" lon="-72.53635406">
    <tag k="addr:housenumber" v="436"/>
    <tag k="addr:street" v="Flat Iron Road"/>
    <tag k="addr:state" v="VT"/>
    <tag k="ref:vcgi:esiteid" v="198346"/>
  </node>
  <node id="-346" visible="true" lat="43.47421264" lon="-72.58772277">
    <tag k="addr:housenumber" v="48"/>
    <tag k="addr:street" v="Park Circle"/>
    <tag k="addr:state" v="VT"/>
    <tag k="ref:vcgi:esiteid" v="198347"/>
  </node>
  <node id="-347" visible="true" lat="43.47968144" lon="-72.58935192">
    <tag k="addr:housenumber" v="214"/>
    <tag k="addr:street" v="Center Road"/>
    <tag k="addr:state" v="VT"/>
    <tag k="ref:vcgi:esiteid" v="198349"/>
  </node>
  <node id="-349" visible="true" lat="43.47391736" lon="-72.58746287">
    <tag k="addr:housenumber" v="22"/>
    <tag k="addr:street" v="Park Circle"/>
    <tag k="addr:state" v="VT"/>
    <tag k="ref:vcgi:esiteid" v="198352"/>
  </node>
  <node id="-350" visible="true" lat="43.473737" lon="-72.58719429">
    <tag k="addr:housenumber" v="6"/>
    <tag k="addr:street" v="Park Circle"/>
    <tag k="addr:state" v="VT"/>
    <tag k="ref:vcgi:esiteid" v="198353"/>
  </node>
  <node id="-351" visible="true" lat="43.47346877" lon="-72.58791351">
    <tag k="addr:housenumber" v="3089"/>
    <tag k="addr:street" v="Tyson Road"/>
    <tag k="addr:state" v="VT"/>
    <tag k="ref:vcgi:esiteid" v="198354"/>
  </node>
  <node id="-353" visible="true" lat="43.47322845" lon="-72.58697509">
    <tag k="addr:housenumber" v="3044"/>
    <tag k="addr:street" v="Tyson Road"/>
    <tag k="addr:state" v="VT"/>
    <tag k="ref:vcgi:esiteid" v="198356"/>
  </node>
  <node id="-354" visible="true" lat="43.47306823" lon="-72.53319549">
    <tag k="addr:housenumber" v="14"/>
    <tag k="addr:street" v="Hurricane Hill"/>
    <tag k="addr:state" v="VT"/>
    <tag k="ref:vcgi:esiteid" v="198357"/>
  </node>
  <node id="-356" visible="true" lat="43.47284698" lon="-72.53229522">
    <tag k="addr:housenumber" v="192"/>
    <tag k="addr:street" v="Flat Iron Road"/>
    <tag k="addr:state" v="VT"/>
    <tag k="ref:vcgi:esiteid" v="198359"/>
  </node>
  <node id="-358" visible="true" lat="43.47249221" lon="-72.53153228">
    <tag k="addr:housenumber" v="154"/>
    <tag k="addr:street" v="Flat Iron Road"/>
    <tag k="addr:state" v="VT"/>
    <tag k="ref:vcgi:esiteid" v="198361"/>
  </node>
  <node id="-427" visible="true" lat="43.46273422" lon="-72.53578948">
    <tag k="addr:housenumber" v="67"/>
    <tag k="addr:street" v="Benjamin Drive"/>
    <tag k="addr:state" v="VT"/>
    <tag k="ref:vcgi:esiteid" v="198435"/>
  </node>
  <node id="-454" visible="true" lat="43.4570465" lon="-72.54061889">
    <tag k="addr:housenumber" v="138"/>
    <tag k="addr:street" v="Tyson Road"/>
    <tag k="addr:state" v="VT"/>
    <tag k="ref:vcgi:esiteid" v="198464"/>
  </node>
  <node id="-463" visible="true" lat="43.4562912" lon="-72.54039001">
    <tag k="addr:housenumber" v="136"/>
    <tag k="addr:street" v="Tyson Road"/>
    <tag k="addr:state" v="VT"/>
    <tag k="ref:vcgi:esiteid" v="198473"/>
  </node>
  <node id="-466" visible="true" lat="43.45608138" lon="-72.53903198">
    <tag k="addr:housenumber" v="98"/>
    <tag k="addr:street" v="Tyson Road"/>
    <tag k="addr:state" v="VT"/>
    <tag k="ref:vcgi:esiteid" v="198476"/>
  </node>
  <node id="-468" visible="true" lat="43.45605087" lon="-72.53844451">
    <tag k="addr:housenumber" v="66"/>
    <tag k="addr:street" v="Tyson Road"/>
    <tag k="addr:state" v="VT"/>
    <tag k="ref:vcgi:esiteid" v="198478"/>
  </node>
  <node id="-469" visible="true" lat="43.45604324" lon="-72.53881836">
    <tag k="addr:housenumber" v="88"/>
    <tag k="addr:street" v="Tyson Road"/>
    <tag k="addr:state" v="VT"/>
    <tag k="ref:vcgi:esiteid" v="198479"/>
  </node>
  <node id="-470" visible="true" lat="43.45602798" lon="-72.53817749">
    <tag k="addr:housenumber" v="54"/>
    <tag k="addr:street" v="Tyson Road"/>
    <tag k="addr:state" v="VT"/>
    <tag k="ref:vcgi:esiteid" v="198480"/>
  </node>
  <node id="-471" visible="true" lat="43.45599365" lon="-72.54061889">
    <tag k="addr:housenumber" v="140"/>
    <tag k="addr:street" v="Tyson Road"/>
    <tag k="addr:state" v="VT"/>
    <tag k="ref:vcgi:esiteid" v="198481"/>
  </node>
  <node id="-472" visible="true" lat="43.45597076" lon="-72.53784942">
    <tag k="addr:housenumber" v="36"/>
    <tag k="addr:street" v="Tyson Road"/>
    <tag k="addr:state" v="VT"/>
    <tag k="ref:vcgi:esiteid" v="198482"/>
  </node>
  <node id="-475" visible="true" lat="43.45580291" lon="-72.53991699">
    <tag k="addr:housenumber" v="141"/>
    <tag k="addr:street" v="Tyson Road"/>
    <tag k="addr:state" v="VT"/>
    <tag k="ref:vcgi:esiteid" v="198486"/>
  </node>
  <node id="-476" visible="true" lat="43.4557991" lon="-72.53951263">
    <tag k="addr:housenumber" v="119"/>
    <tag k="addr:street" v="Tyson Road"/>
    <tag k="addr:state" v="VT"/>
    <tag k="ref:vcgi:esiteid" v="198487"/>
  </node>
  <node id="-479" visible="true" lat="43.45568847" lon="-72.53877258">
    <tag k="addr:housenumber" v="81"/>
    <tag k="addr:street" v="Tyson Road"/>
    <tag k="addr:state" v="VT"/>
    <tag k="ref:vcgi:esiteid" v="198490"/>
  </node>
  <node id="-480" visible="true" lat="43.45566558" lon="-72.53826904">
    <tag k="addr:housenumber" v="57"/>
    <tag k="addr:street" v="Tyson Road"/>
    <tag k="addr:state" v="VT"/>
    <tag k="ref:vcgi:esiteid" v="198491"/>
  </node>
  <node id="-484" visible="true" lat="43.45537185" lon="-72.5424118">
    <tag k="addr:housenumber" v="253"/>
    <tag k="addr:street" v="Tyson Road"/>
    <tag k="addr:state" v="VT"/>
    <tag k="ref:vcgi:esiteid" v="198497"/>
  </node>
  <node id="-488" visible="true" lat="43.45508956" lon="-72.53903198">
    <tag k="addr:housenumber" v="189"/>
    <tag k="addr:street" v="Niagara Street"/>
    <tag k="addr:state" v="VT"/>
    <tag k="ref:vcgi:esiteid" v="198501"/>
  </node>
  <node id="-490" visible="true" lat="43.45497131" lon="-72.53744506">
    <tag k="addr:housenumber" v="10"/>
    <tag k="addr:street" v="Mill Street"/>
    <tag k="addr:state" v="VT"/>
    <tag k="ref:vcgi:esiteid" v="198504"/>
  </node>
  <node id="-492" visible="true" lat="43.45488357" lon="-72.53855896">
    <tag k="addr:housenumber" v="170"/>
    <tag k="addr:street" v="Niagara Street"/>
    <tag k="addr:state" v="VT"/>
    <tag k="ref:vcgi:esiteid" v="198506"/>
  </node>
  <node id="-494" visible="true" lat="43.45476913" lon="-72.53764343">
    <tag k="addr:housenumber" v="19"/>
    <tag k="addr:street" v="Mill Street"/>
    <tag k="addr:state" v="VT"/>
    <tag k="ref:vcgi:esiteid" v="198508"/>
  </node>
  <node id="-495" visible="true" lat="43.45475387" lon="-72.53814697">
    <tag k="addr:housenumber" v="43"/>
    <tag k="addr:street" v="Mill Street"/>
    <tag k="addr:state" v="VT"/>
    <tag k="ref:vcgi:esiteid" v="198509"/>
  </node>
  <node id="-499" visible="true" lat="43.45444869" lon="-72.53853607">
    <tag k="addr:housenumber" v="140"/>
    <tag k="addr:street" v="Niagara Street"/>
    <tag k="addr:state" v="VT"/>
    <tag k="ref:vcgi:esiteid" v="198513"/>
  </node>
  <node id="-535" visible="true" lat="43.47373199" lon="-72.59082794">
    <tag k="addr:housenumber" v="85"/>
    <tag k="addr:street" v="Grasshopper Lane"/>
    <tag k="addr:state" v="VT"/>
    <tag k="ref:vcgi:esiteid" v="198549"/>
  </node>
  <node id="-537" visible="true" lat="43.47227826" lon="-72.53082078">
    <tag k="addr:housenumber" v="21"/>
    <tag k="addr:street" v="Gibson Drive"/>
    <tag k="addr:state" v="VT"/>
    <tag k="ref:vcgi:esiteid" v="198551"/>
  </node>
  <node id="-539" visible="true" lat="43.52002403" lon="-72.56226439">
    <tag k="addr:housenumber" v="773"/>
    <tag k="addr:street" v="Jenne Road"/>
    <tag k="addr:state" v="VT"/>
    <tag k="ref:vcgi:esiteid" v="198553"/>
  </node>
  <node id="-550" visible="true" lat="43.47790139" lon="-72.57370835">
    <tag k="addr:housenumber" v="803"/>
    <tag k="addr:street" v="Malagash Road"/>
    <tag k="addr:state" v="VT"/>
    <tag k="ref:vcgi:esiteid" v="198564"/>
  </node>
  <node id="-553" visible="true" lat="43.45750298" lon="-72.54145343">
    <tag k="addr:housenumber" v="410"/>
    <tag k="addr:street" v="Tyson Road"/>
    <tag k="addr:state" v="VT"/>
    <tag k="ref:vcgi:esiteid" v="198567"/>
  </node>
  <node id="-555" visible="true" lat="43.4799602" lon="-72.57263621">
    <tag k="addr:housenumber" v="839"/>
    <tag k="addr:street" v="Malagash Road"/>
    <tag k="addr:state" v="VT"/>
    <tag k="ref:vcgi:esiteid" v="198569"/>
  </node>
  <node id="-564" visible="true" lat="43.47566893" lon="-72.5449378">
    <tag k="addr:housenumber" v="411"/>
    <tag k="addr:street" v="Hagen Hill Road"/>
    <tag k="addr:state" v="VT"/>
    <tag k="ref:vcgi:esiteid" v="198579"/>
  </node>
  <node id="-570" visible="true" lat="43.47467428" lon="-72.58176388">
    <tag k="addr:housenumber" v="332"/>
    <tag k="addr:street" v="Malagash Road"/>
    <tag k="addr:state" v="VT"/>
    <tag k="ref:vcgi:esiteid" v="313339"/>
  </node>
  <node id="-571" visible="true" lat="43.47559689" lon="-72.58135441">
    <tag k="addr:housenumber" v="334"/>
    <tag k="addr:street" v="Malagash Road"/>
    <tag k="addr:state" v="VT"/>
    <tag k="ref:vcgi:esiteid" v="313340"/>
  </node>
  <node id="-574" visible="true" lat="43.47595688" lon="-72.53140902">
    <tag k="addr:housenumber" v="214"/>
    <tag k="addr:street" v="Hurricane Hill"/>
    <tag k="addr:state" v="VT"/>
    <tag k="ref:vcgi:esiteid" v="313344"/>
  </node>
  <node id="-578" visible="true" lat="43.47535177" lon="-72.58868012">
    <tag k="addr:housenumber" v="5"/>
    <tag k="addr:street" v="Malagash Road"/>
    <tag k="addr:state" v="VT"/>
    <tag k="ref:vcgi:esiteid" v="328211"/>
  </node>
  <node id="-579" visible="true" lat="43.47594126" lon="-72.5865539">
    <tag k="addr:housenumber" v="65"/>
    <tag k="addr:street" v="Malagash Road"/>
    <tag k="addr:state" v="VT"/>
    <tag k="ref:vcgi:esiteid" v="328212"/>
  </node>
  <node id="-587" visible="true" lat="43.47769205" lon="-72.58976584">
    <tag k="addr:housenumber" v="47"/>
    <tag k="addr:street" v="Hidden Lane"/>
    <tag k="addr:state" v="VT"/>
    <tag k="ref:vcgi:esiteid" v="328220"/>
  </node>
  <node id="-599" visible="true" lat="43.47298318" lon="-72.54338667">
    <tag k="addr:housenumber" v="279"/>
    <tag k="addr:street" v="Hagen Hill Road"/>
    <tag k="addr:state" v="VT"/>
    <tag k="ref:vcgi:esiteid" v="341072"/>
  </node>
  <node id="-615" visible="true" lat="43.48284634" lon="-72.55836519">
    <tag k="addr:housenumber" v="135"/>
    <tag k="addr:street" v="Keyes Mountain Road"/>
    <tag k="addr:state" v="VT"/>
    <tag k="ref:vcgi:esiteid" v="455430"/>
  </node>
  <node id="-616" visible="true" lat="43.50104149" lon="-72.58749417">
    <tag k="addr:housenumber" v="1289"/>
    <tag k="addr:street" v="Town Hill Road"/>
    <tag k="addr:state" v="VT"/>
    <tag k="ref:vcgi:esiteid" v="455431"/>
  </node>
  <node id="-617" visible="true" lat="43.45618276" lon="-72.54153468">
    <tag k="addr:housenumber" v="194"/>
    <tag k="addr:street" v="Tyson Road"/>
    <tag k="addr:state" v="VT"/>
    <tag k="ref:vcgi:esiteid" v="618192"/>
  </node>
  <node id="-621" visible="true" lat="43.50402026" lon="-72.53215068">
    <tag k="addr:housenumber" v="1090"/>
    <tag k="addr:street" v="Spear Cemetery Road"/>
    <tag k="addr:state" v="VT"/>
    <tag k="ref:vcgi:esiteid" v="618196"/>
  </node>
</osm>
