<?xml version="1.0" encoding="UTF-8"?>
<osm version="0.6" generator="JOSM" upload="false">
  <node id="-101" visible="true" lat="42.83351354" lon="-72.98940484">
    <!-- conflict: "346 Vermont Route 8, Readsboro, VT" No match in OSM, but a different address exists <5m away: "346 Vt Route 8, Readsboro, VT" -->
    <tag k="addr:city" v="Readsboro"/>
    <tag k="addr:housenumber" v="346"/>
    <tag k="addr:street" v="Vermont Route 8"/>
    <tag k="addr:state" v="VT"/>
    <tag k="ref:vcgi:esiteid" v="198585"/>
  </node>
  <node id="-103" visible="true" lat="42.83152732" lon="-72.98773393">
    <!-- conflict: "192 Vermont Route 8, Readsboro, VT" No match in OSM, but a different address exists <5m away: "192 Vt Route 8, Readsboro, VT" -->
    <tag k="addr:city" v="Readsboro"/>
    <tag k="addr:housenumber" v="192"/>
    <tag k="addr:street" v="Vermont Route 8"/>
    <tag k="addr:state" v="VT"/>
    <tag k="ref:vcgi:esiteid" v="198587"/>
  </node>
  <node id="-106" visible="true" lat="42.83047367" lon="-72.98707065">
    <!-- conflict: "110 Vermont Route 8, Readsboro, VT" No match in OSM, but a different address exists <5m away: "110 Vt Route 8, Readsboro, VT" -->
    <tag k="addr:city" v="Readsboro"/>
    <tag k="addr:housenumber" v="110"/>
    <tag k="addr:street" v="Vermont Route 8"/>
    <tag k="addr:state" v="VT"/>
    <tag k="ref:vcgi:esiteid" v="198590"/>
  </node>
  <node id="-109" visible="true" lat="42.8302608" lon="-72.99698586">
    <!-- conflict: "1721 Vermont Route 100, Readsboro, VT" No match in OSM, but a different address exists <5m away: "1721 Vt Route 100, Readsboro, VT" -->
    <tag k="addr:city" v="Readsboro"/>
    <tag k="addr:housenumber" v="1721"/>
    <tag k="addr:street" v="Vermont Route 100"/>
    <tag k="addr:state" v="VT"/>
    <tag k="ref:vcgi:esiteid" v="198593"/>
  </node>
  <node id="-110" visible="true" lat="42.82987904" lon="-72.98711">
    <!-- conflict: "76 Vermont Route 8, Readsboro, VT" No match in OSM, but a different address exists <5m away: "76 Vt Route 8, Readsboro, VT" -->
    <tag k="addr:city" v="Readsboro"/>
    <tag k="addr:housenumber" v="76"/>
    <tag k="addr:street" v="Vermont Route 8"/>
    <tag k="addr:state" v="VT"/>
    <tag k="ref:vcgi:esiteid" v="198594"/>
  </node>
  <node id="-112" visible="true" lat="42.82951715" lon="-72.99060888">
    <!-- conflict: "2045 Vermont Route 100, Readsboro, VT" No match in OSM, but a different address exists <5m away: "2045 Vt Route 100, Readsboro, VT" -->
    <tag k="addr:city" v="Readsboro"/>
    <tag k="addr:housenumber" v="2045"/>
    <tag k="addr:street" v="Vermont Route 100"/>
    <tag k="addr:state" v="VT"/>
    <tag k="ref:vcgi:esiteid" v="198596"/>
  </node>
  <node id="-117" visible="true" lat="42.82802393" lon="-72.99995977">
    <!-- conflict: "1531 Vermont Route 100, Readsboro, VT" No match in OSM, but a different address exists <5m away: "1531 Vt Route 100, Readsboro, VT" -->
    <tag k="addr:city" v="Readsboro"/>
    <tag k="addr:housenumber" v="1531"/>
    <tag k="addr:street" v="Vermont Route 100"/>
    <tag k="addr:state" v="VT"/>
    <tag k="ref:vcgi:esiteid" v="198601"/>
  </node>
  <node id="-118" visible="true" lat="42.82772726" lon="-72.99522256">
    <!-- conflict: "1783 Vermont Route 100, Readsboro, VT" No match in OSM, but a different address exists <5m away: "1783 Vt Route 100, Readsboro, VT" -->
    <tag k="addr:city" v="Readsboro"/>
    <tag k="addr:housenumber" v="1783"/>
    <tag k="addr:street" v="Vermont Route 100"/>
    <tag k="addr:state" v="VT"/>
    <tag k="ref:vcgi:esiteid" v="198602"/>
  </node>
  <node id="-119" visible="true" lat="42.82747643" lon="-72.99757571">
    <!-- conflict: "1661 Vermont Route 100, Readsboro, VT" No match in OSM, but a different address exists <5m away: "1661 Vt Route 100, Readsboro, VT" -->
    <tag k="addr:city" v="Readsboro"/>
    <tag k="addr:housenumber" v="1661"/>
    <tag k="addr:street" v="Vermont Route 100"/>
    <tag k="addr:state" v="VT"/>
    <tag k="ref:vcgi:esiteid" v="198603"/>
  </node>
  <node id="-121" visible="true" lat="42.82715869" lon="-72.99899436">
    <!-- conflict: "1583 Vermont Route 100, Readsboro, VT" No match in OSM, but a different address exists <5m away: "1583 Vt Route 100, Readsboro, VT" -->
    <tag k="addr:city" v="Readsboro"/>
    <tag k="addr:housenumber" v="1583"/>
    <tag k="addr:street" v="Vermont Route 100"/>
    <tag k="addr:state" v="VT"/>
    <tag k="ref:vcgi:esiteid" v="198605"/>
  </node>
  <node id="-123" visible="true" lat="42.82695235" lon="-72.998507">
    <!-- conflict: "1603 Vermont Route 100, Readsboro, VT" No match in OSM, but a different address exists <5m away: "1603 Vt Route 100, Readsboro, VT" -->
    <tag k="addr:city" v="Readsboro"/>
    <tag k="addr:housenumber" v="1603"/>
    <tag k="addr:street" v="Vermont Route 100"/>
    <tag k="addr:state" v="VT"/>
    <tag k="ref:vcgi:esiteid" v="198607"/>
  </node>
  <node id="-124" visible="true" lat="42.82699308" lon="-72.99964563">
    <!-- conflict: "1541 Vermont Route 100, Readsboro, VT" No match in OSM, but a different address exists <5m away: "1541 Vt Route 100, Readsboro, VT" -->
    <tag k="addr:city" v="Readsboro"/>
    <tag k="addr:housenumber" v="1541"/>
    <tag k="addr:street" v="Vermont Route 100"/>
    <tag k="addr:state" v="VT"/>
    <tag k="ref:vcgi:esiteid" v="198608"/>
  </node>
  <node id="-149" visible="true" lat="42.82100517" lon="-72.99841756">
    <!-- conflict: "359 Rue Madeline, Readsboro, VT" Fuzzy match to "359 Rue Madeline, , " -->
    <tag k="addr:city" v="Readsboro"/>
    <tag k="addr:housenumber" v="359"/>
    <tag k="addr:street" v="Rue Madeline"/>
    <tag k="addr:state" v="VT"/>
    <tag k="ref:vcgi:esiteid" v="198633"/>
  </node>
  <node id="-169" visible="true" lat="42.81364162" lon="-72.971398">
    <!-- conflict: "3541 Vermont Route 100, Readsboro, VT" No match in OSM, but a different address exists <5m away: "3541 Vt Route 100, Readsboro, VT" -->
    <tag k="addr:city" v="Readsboro"/>
    <tag k="addr:housenumber" v="3541"/>
    <tag k="addr:street" v="Vermont Route 100"/>
    <tag k="addr:state" v="VT"/>
    <tag k="ref:vcgi:esiteid" v="198653"/>
  </node>
  <node id="-172" visible="true" lat="42.81103335" lon="-73.01498083">
    <!-- conflict: "117 Vermont Route 100, Readsboro, VT" No match in OSM, but a different address exists <5m away: "117 Vt Route 100, Readsboro, VT" -->
    <tag k="addr:city" v="Readsboro"/>
    <tag k="addr:housenumber" v="117"/>
    <tag k="addr:street" v="Vermont Route 100"/>
    <tag k="addr:state" v="VT"/>
    <tag k="ref:vcgi:esiteid" v="198656"/>
  </node>
  <node id="-178" visible="true" lat="42.81002345" lon="-72.97415025">
    <!-- conflict: "3814 Vermont Route 100, Readsboro, VT" No match in OSM, but a different address exists <5m away: "3814 Vt Route 100, Readsboro, VT" -->
    <tag k="addr:city" v="Readsboro"/>
    <tag k="addr:housenumber" v="3814"/>
    <tag k="addr:street" v="Vermont Route 100"/>
    <tag k="addr:state" v="VT"/>
    <tag k="ref:vcgi:esiteid" v="198662"/>
  </node>
  <node id="-185" visible="true" lat="42.80691034" lon="-72.97352372">
    <!-- conflict: "3986 Vermont Route 100, Readsboro, VT" No match in OSM, but a different address exists <5m away: "3986 Vt Route 100, Readsboro, VT" -->
    <tag k="addr:city" v="Readsboro"/>
    <tag k="addr:housenumber" v="3986"/>
    <tag k="addr:street" v="Vermont Route 100"/>
    <tag k="addr:state" v="VT"/>
    <tag k="ref:vcgi:esiteid" v="198669"/>
  </node>
  <node id="-198" visible="true" lat="42.80493139" lon="-72.97341309">
    <!-- conflict: "4129 Vermont Route 100, Readsboro, VT" No match in OSM, but a different address exists <5m away: "4129 Vt Route 100, Readsboro, VT" -->
    <tag k="addr:city" v="Readsboro"/>
    <tag k="addr:housenumber" v="4129"/>
    <tag k="addr:street" v="Vermont Route 100"/>
    <tag k="addr:state" v="VT"/>
    <tag k="ref:vcgi:esiteid" v="198682"/>
  </node>
  <node id="-206" visible="true" lat="42.80366109" lon="-72.97429683">
    <!-- conflict: "4202 Vermont Route 100, Readsboro, VT" No match in OSM, but a different address exists <5m away: "4202 Vt Route 100, Readsboro, VT" -->
    <tag k="addr:city" v="Readsboro"/>
    <tag k="addr:housenumber" v="4202"/>
    <tag k="addr:street" v="Vermont Route 100"/>
    <tag k="addr:state" v="VT"/>
    <tag k="ref:vcgi:esiteid" v="198690"/>
  </node>
  <node id="-209" visible="true" lat="42.80332846" lon="-72.97418975">
    <!-- conflict: "4222 Vermont Route 100, Readsboro, VT" No match in OSM, but a different address exists <5m away: "4222 Vt Route 100, Readsboro, VT" -->
    <tag k="addr:city" v="Readsboro"/>
    <tag k="addr:housenumber" v="4222"/>
    <tag k="addr:street" v="Vermont Route 100"/>
    <tag k="addr:state" v="VT"/>
    <tag k="ref:vcgi:esiteid" v="198693"/>
  </node>
  <node id="-225" visible="true" lat="42.79824218" lon="-72.96920469">
    <!-- conflict: "4677 Vermont Route 100, Readsboro, VT" No match in OSM, but a different address exists <5m away: "4677 Vt Route 100, Readsboro, VT" -->
    <tag k="addr:city" v="Readsboro"/>
    <tag k="addr:housenumber" v="4677"/>
    <tag k="addr:street" v="Vermont Route 100"/>
    <tag k="addr:state" v="VT"/>
    <tag k="ref:vcgi:esiteid" v="198709"/>
  </node>
  <node id="-228" visible="true" lat="42.7976869" lon="-72.9684915">
    <!-- conflict: "4737 Vermont Route 100, Readsboro, VT" No match in OSM, but a different address exists <5m away: "4737 Vt Route 100, Readsboro, VT" -->
    <tag k="addr:city" v="Readsboro"/>
    <tag k="addr:housenumber" v="4737"/>
    <tag k="addr:street" v="Vermont Route 100"/>
    <tag k="addr:state" v="VT"/>
    <tag k="ref:vcgi:esiteid" v="198712"/>
  </node>
  <node id="-243" visible="true" lat="42.79454488" lon="-72.96505859">
    <!-- conflict: "4991 Vermont Route 100, Readsboro, VT" No match in OSM, but a different address exists <5m away: "4991 Vt Route 100, Readsboro, VT" -->
    <tag k="addr:city" v="Readsboro"/>
    <tag k="addr:housenumber" v="4991"/>
    <tag k="addr:street" v="Vermont Route 100"/>
    <tag k="addr:state" v="VT"/>
    <tag k="ref:vcgi:esiteid" v="198727"/>
  </node>
  <node id="-250" visible="true" lat="42.79140343" lon="-72.96338019">
    <!-- conflict: "5220 Vermont Route 100, Readsboro, VT" No match in OSM, but a different address exists <5m away: "5220 Vt Route 100, Readsboro, VT" -->
    <tag k="addr:city" v="Readsboro"/>
    <tag k="addr:housenumber" v="5220"/>
    <tag k="addr:street" v="Vermont Route 100"/>
    <tag k="addr:state" v="VT"/>
    <tag k="ref:vcgi:esiteid" v="198734"/>
  </node>
  <node id="-289" visible="true" lat="42.7781412" lon="-72.95161918">
    <!-- conflict: "6467 Vermont Route 100, Readsboro, VT" No match in OSM, but a different address exists <5m away: "6467 Vt Route 100, Readsboro, VT" -->
    <tag k="addr:city" v="Readsboro"/>
    <tag k="addr:housenumber" v="6467"/>
    <tag k="addr:street" v="Vermont Route 100"/>
    <tag k="addr:state" v="VT"/>
    <tag k="ref:vcgi:esiteid" v="198773"/>
  </node>
  <node id="-382" visible="true" lat="42.77080159" lon="-72.9439694">
    <!-- conflict: "7248 Vermont Route 100, Readsboro, VT" No match in OSM, but a different address exists <5m away: "7248 Vt Route 100, Readsboro, VT" -->
    <tag k="addr:city" v="Readsboro"/>
    <tag k="addr:housenumber" v="7248"/>
    <tag k="addr:street" v="Vermont Route 100"/>
    <tag k="addr:state" v="VT"/>
    <tag k="ref:vcgi:esiteid" v="198880"/>
  </node>
  <node id="-582" visible="true" lat="42.8090088" lon="-72.97106549">
    <!-- conflict: "3835 Vermont Route 100, Readsboro, VT" No match in OSM, but a different address exists <5m away: "3835 Vt Route 100, Readsboro, VT" -->
    <tag k="addr:city" v="Readsboro"/>
    <tag k="addr:housenumber" v="3835"/>
    <tag k="addr:street" v="Vermont Route 100"/>
    <tag k="addr:state" v="VT"/>
    <tag k="ref:vcgi:esiteid" v="449726"/>
  </node>
</osm>
