<?xml version="1.0" encoding="UTF-8"?>
<osm version="0.6" generator="JOSM">
  <node id="-100" visible="true" lat="42.83634814" lon="-72.99066335">
    <tag k="addr:city" v="Readsboro"/>
    <tag k="addr:housenumber" v="550"/>
    <tag k="addr:street" v="Vermont Route 8"/>
    <tag k="addr:state" v="VT"/>
    <tag k="ref:vcgi:esiteid" v="198584"/>
  </node>
  <node id="-102" visible="true" lat="42.83227926" lon="-72.98819994">
    <tag k="addr:city" v="Readsboro"/>
    <tag k="addr:housenumber" v="244"/>
    <tag k="addr:street" v="Vermont Route 8"/>
    <tag k="addr:state" v="VT"/>
    <tag k="ref:vcgi:esiteid" v="198586"/>
  </node>
  <node id="-113" visible="true" lat="42.82893332" lon="-72.99214539">
    <tag k="addr:city" v="Readsboro"/>
    <tag k="addr:housenumber" v="1955"/>
    <tag k="addr:street" v="Vermont Route 100"/>
    <tag k="addr:state" v="VT"/>
    <tag k="ref:vcgi:esiteid" v="198597"/>
  </node>
  <node id="-114" visible="true" lat="42.82877535" lon="-72.99134276">
    <tag k="addr:city" v="Readsboro"/>
    <tag k="addr:housenumber" v="1994"/>
    <tag k="addr:street" v="Vermont Route 100"/>
    <tag k="addr:state" v="VT"/>
    <tag k="ref:vcgi:esiteid" v="198598"/>
  </node>
  <node id="-115" visible="true" lat="42.82864568" lon="-72.99291488">
    <tag k="addr:city" v="Readsboro"/>
    <tag k="addr:housenumber" v="1919"/>
    <tag k="addr:street" v="Vermont Route 100"/>
    <tag k="addr:state" v="VT"/>
    <tag k="ref:vcgi:esiteid" v="198599"/>
  </node>
  <node id="-116" visible="true" lat="42.82844227" lon="-72.9932399">
    <tag k="addr:city" v="Readsboro"/>
    <tag k="addr:housenumber" v="1891"/>
    <tag k="addr:street" v="Vermont Route 100"/>
    <tag k="addr:state" v="VT"/>
    <tag k="ref:vcgi:esiteid" v="198600"/>
  </node>
  <node id="-120" visible="true" lat="42.82716359" lon="-73.01378497">
    <tag k="addr:city" v="Readsboro"/>
    <tag k="addr:housenumber" v="470"/>
    <tag k="addr:street" v="Alpenwald Lane"/>
    <tag k="addr:state" v="VT"/>
    <tag k="ref:vcgi:esiteid" v="198604"/>
  </node>
  <node id="-122" visible="true" lat="42.82709157" lon="-73.00957913">
    <tag k="addr:city" v="Readsboro"/>
    <tag k="addr:housenumber" v="245"/>
    <tag k="addr:street" v="Valley View Road"/>
    <tag k="addr:state" v="VT"/>
    <tag k="ref:vcgi:esiteid" v="198606"/>
  </node>
  <node id="-125" visible="true" lat="42.8266812" lon="-73.00083681">
    <tag k="addr:city" v="Readsboro"/>
    <tag k="addr:housenumber" v="141"/>
    <tag k="addr:street" v="Williams Road"/>
    <tag k="addr:state" v="VT"/>
    <tag k="ref:vcgi:esiteid" v="198609"/>
  </node>
  <node id="-126" visible="true" lat="42.82657541" lon="-73.00138128">
    <tag k="addr:city" v="Readsboro"/>
    <tag k="addr:housenumber" v="121"/>
    <tag k="addr:street" v="Williams Road"/>
    <tag k="addr:state" v="VT"/>
    <tag k="ref:vcgi:esiteid" v="198610"/>
  </node>
  <node id="-127" visible="true" lat="42.82638031" lon="-73.00990289">
    <tag k="addr:city" v="Readsboro"/>
    <tag k="addr:housenumber" v="228"/>
    <tag k="addr:street" v="Alpenwald Lane"/>
    <tag k="addr:state" v="VT"/>
    <tag k="ref:vcgi:esiteid" v="198611"/>
  </node>
  <node id="-129" visible="true" lat="42.82782956" lon="-73.00643278">
    <tag k="addr:city" v="Readsboro"/>
    <tag k="addr:housenumber" v="1349"/>
    <tag k="addr:street" v="Vermont Route 100"/>
    <tag k="addr:state" v="VT"/>
    <tag k="ref:vcgi:esiteid" v="198613"/>
  </node>
  <node id="-130" visible="true" lat="42.82545099" lon="-73.01303594">
    <tag k="addr:city" v="Readsboro"/>
    <tag k="addr:housenumber" v="446"/>
    <tag k="addr:street" v="Oberdorf Road"/>
    <tag k="addr:state" v="VT"/>
    <tag k="ref:vcgi:esiteid" v="198614"/>
  </node>
  <node id="-131" visible="true" lat="42.82477951" lon="-73.01223558">
    <tag k="addr:city" v="Readsboro"/>
    <tag k="addr:housenumber" v="379"/>
    <tag k="addr:street" v="Oberdorf Road"/>
    <tag k="addr:state" v="VT"/>
    <tag k="ref:vcgi:esiteid" v="198615"/>
  </node>
  <node id="-132" visible="true" lat="42.82471464" lon="-73.01126393">
    <tag k="addr:city" v="Readsboro"/>
    <tag k="addr:housenumber" v="364"/>
    <tag k="addr:street" v="Oberdorf Road"/>
    <tag k="addr:state" v="VT"/>
    <tag k="ref:vcgi:esiteid" v="198616"/>
  </node>
  <node id="-133" visible="true" lat="42.82451606" lon="-73.01364735">
    <tag k="addr:city" v="Readsboro"/>
    <tag k="addr:housenumber" v="516"/>
    <tag k="addr:street" v="Oberdorf Road"/>
    <tag k="addr:state" v="VT"/>
    <tag k="ref:vcgi:esiteid" v="198617"/>
  </node>
  <node id="-134" visible="true" lat="42.82413919" lon="-73.00950209">
    <tag k="addr:city" v="Readsboro"/>
    <tag k="addr:housenumber" v="94"/>
    <tag k="addr:street" v="Alpenwald Lane"/>
    <tag k="addr:state" v="VT"/>
    <tag k="ref:vcgi:esiteid" v="198618"/>
  </node>
  <node id="-135" visible="true" lat="42.82348459" lon="-73.00480948">
    <tag k="addr:city" v="Readsboro"/>
    <tag k="addr:housenumber" v="1209"/>
    <tag k="addr:street" v="Vermont Route 100"/>
    <tag k="addr:state" v="VT"/>
    <tag k="ref:vcgi:esiteid" v="198619"/>
  </node>
  <node id="-136" visible="true" lat="42.82316501" lon="-73.01408311">
    <tag k="addr:city" v="Readsboro"/>
    <tag k="addr:housenumber" v="604"/>
    <tag k="addr:street" v="Oberdorf Road"/>
    <tag k="addr:state" v="VT"/>
    <tag k="ref:vcgi:esiteid" v="198620"/>
  </node>
  <node id="-137" visible="true" lat="42.82225235" lon="-73.00860033">
    <tag k="addr:city" v="Readsboro"/>
    <tag k="addr:housenumber" v="343"/>
    <tag k="addr:street" v="Lebensdorf Lane"/>
    <tag k="addr:state" v="VT"/>
    <tag k="ref:vcgi:esiteid" v="198621"/>
  </node>
  <node id="-138" visible="true" lat="42.82204219" lon="-73.00965736">
    <tag k="addr:city" v="Readsboro"/>
    <tag k="addr:housenumber" v="388"/>
    <tag k="addr:street" v="Lebensdorf Lane"/>
    <tag k="addr:state" v="VT"/>
    <tag k="ref:vcgi:esiteid" v="198622"/>
  </node>
  <node id="-139" visible="true" lat="42.82194503" lon="-73.00892947">
    <tag k="addr:city" v="Readsboro"/>
    <tag k="addr:housenumber" v="379"/>
    <tag k="addr:street" v="Lebensdorf Lane"/>
    <tag k="addr:state" v="VT"/>
    <tag k="ref:vcgi:esiteid" v="198623"/>
  </node>
  <node id="-140" visible="true" lat="42.82197433" lon="-73.00454891">
    <tag k="addr:city" v="Readsboro"/>
    <tag k="addr:housenumber" v="1109"/>
    <tag k="addr:street" v="Vermont Route 100"/>
    <tag k="addr:state" v="VT"/>
    <tag k="ref:vcgi:esiteid" v="198624"/>
  </node>
  <node id="-141" visible="true" lat="42.8217509" lon="-73.00755211">
    <tag k="addr:city" v="Readsboro"/>
    <tag k="addr:housenumber" v="173"/>
    <tag k="addr:street" v="Lebensdorf Lane"/>
    <tag k="addr:state" v="VT"/>
    <tag k="ref:vcgi:esiteid" v="198625"/>
  </node>
  <node id="-142" visible="true" lat="42.82178318" lon="-73.00972241">
    <tag k="addr:city" v="Readsboro"/>
    <tag k="addr:housenumber" v="735"/>
    <tag k="addr:street" v="Alpendorf Avenue"/>
    <tag k="addr:state" v="VT"/>
    <tag k="ref:vcgi:esiteid" v="198626"/>
  </node>
  <node id="-143" visible="true" lat="42.82165762" lon="-73.01152545">
    <tag k="addr:city" v="Readsboro"/>
    <tag k="addr:housenumber" v="144"/>
    <tag k="addr:street" v="Oberdorf Road"/>
    <tag k="addr:state" v="VT"/>
    <tag k="ref:vcgi:esiteid" v="198627"/>
  </node>
  <node id="-144" visible="true" lat="42.82137766" lon="-73.01426602">
    <tag k="addr:city" v="Readsboro"/>
    <tag k="addr:housenumber" v="773"/>
    <tag k="addr:street" v="Oberdorf Road"/>
    <tag k="addr:state" v="VT"/>
    <tag k="ref:vcgi:esiteid" v="198628"/>
  </node>
  <node id="-145" visible="true" lat="42.82143653" lon="-73.00785491">
    <tag k="addr:city" v="Readsboro"/>
    <tag k="addr:housenumber" v="125"/>
    <tag k="addr:street" v="Lebensdorf Lane"/>
    <tag k="addr:state" v="VT"/>
    <tag k="ref:vcgi:esiteid" v="198629"/>
  </node>
  <node id="-146" visible="true" lat="42.82095022" lon="-73.01127679">
    <tag k="addr:city" v="Readsboro"/>
    <tag k="addr:housenumber" v="631"/>
    <tag k="addr:street" v="Alpendorf Avenue"/>
    <tag k="addr:state" v="VT"/>
    <tag k="ref:vcgi:esiteid" v="198630"/>
  </node>
  <node id="-147" visible="true" lat="42.82111777" lon="-72.99951303">
    <tag k="addr:city" v="Readsboro"/>
    <tag k="addr:housenumber" v="307"/>
    <tag k="addr:street" v="Rue Madeline"/>
    <tag k="addr:state" v="VT"/>
    <tag k="ref:vcgi:esiteid" v="198631"/>
  </node>
  <node id="-148" visible="true" lat="42.82097551" lon="-72.99317318">
    <tag k="addr:city" v="Readsboro"/>
    <tag k="addr:housenumber" v="629"/>
    <tag k="addr:street" v="Rue Madeline"/>
    <tag k="addr:state" v="VT"/>
    <tag k="ref:vcgi:esiteid" v="198632"/>
  </node>
  <node id="-150" visible="true" lat="42.82059641" lon="-72.99587548">
    <tag k="addr:city" v="Readsboro"/>
    <tag k="addr:housenumber" v="466"/>
    <tag k="addr:street" v="Rue Madeline"/>
    <tag k="addr:state" v="VT"/>
    <tag k="ref:vcgi:esiteid" v="198634"/>
  </node>
  <node id="-151" visible="true" lat="42.82048192" lon="-73.00955594">
    <tag k="addr:city" v="Readsboro"/>
    <tag k="addr:housenumber" v="191"/>
    <tag k="addr:street" v="Mattenberg Avenue"/>
    <tag k="addr:state" v="VT"/>
    <tag k="ref:vcgi:esiteid" v="198635"/>
  </node>
  <node id="-152" visible="true" lat="42.82031515" lon="-73.00774954">
    <tag k="addr:city" v="Readsboro"/>
    <tag k="addr:housenumber" v="71"/>
    <tag k="addr:street" v="Lebensdorf Lane"/>
    <tag k="addr:state" v="VT"/>
    <tag k="ref:vcgi:esiteid" v="198636"/>
  </node>
  <node id="-153" visible="true" lat="42.82033034" lon="-73.01095799">
    <tag k="addr:city" v="Readsboro"/>
    <tag k="addr:housenumber" v="610"/>
    <tag k="addr:street" v="Alpendorf Avenue"/>
    <tag k="addr:state" v="VT"/>
    <tag k="ref:vcgi:esiteid" v="198637"/>
  </node>
  <node id="-154" visible="true" lat="42.82004593" lon="-73.00655067">
    <tag k="addr:city" v="Readsboro"/>
    <tag k="addr:housenumber" v="953"/>
    <tag k="addr:street" v="Vermont Route 100"/>
    <tag k="addr:state" v="VT"/>
    <tag k="ref:vcgi:esiteid" v="198638"/>
  </node>
  <node id="-155" visible="true" lat="42.81973955" lon="-73.00801771">
    <tag k="addr:city" v="Readsboro"/>
    <tag k="addr:housenumber" v="19"/>
    <tag k="addr:street" v="Lebensdorf Lane"/>
    <tag k="addr:state" v="VT"/>
    <tag k="ref:vcgi:esiteid" v="198639"/>
  </node>
  <node id="-156" visible="true" lat="42.81950826" lon="-73.01402001">
    <tag k="addr:city" v="Readsboro"/>
    <tag k="addr:housenumber" v="163"/>
    <tag k="addr:street" v="Bergrucken Lane"/>
    <tag k="addr:state" v="VT"/>
    <tag k="ref:vcgi:esiteid" v="198640"/>
  </node>
  <node id="-157" visible="true" lat="42.81901279" lon="-73.0081373">
    <tag k="addr:city" v="Readsboro"/>
    <tag k="addr:housenumber" v="93"/>
    <tag k="addr:street" v="Mattenberg Avenue"/>
    <tag k="addr:state" v="VT"/>
    <tag k="ref:vcgi:esiteid" v="198641"/>
  </node>
  <node id="-158" visible="true" lat="42.81870311" lon="-73.01524632">
    <tag k="addr:city" v="Readsboro"/>
    <tag k="addr:housenumber" v="231"/>
    <tag k="addr:street" v="Bergrucken Lane"/>
    <tag k="addr:state" v="VT"/>
    <tag k="ref:vcgi:esiteid" v="198642"/>
  </node>
  <node id="-159" visible="true" lat="42.81862491" lon="-73.00763928">
    <tag k="addr:city" v="Readsboro"/>
    <tag k="addr:housenumber" v="57"/>
    <tag k="addr:street" v="Mattenberg Avenue"/>
    <tag k="addr:state" v="VT"/>
    <tag k="ref:vcgi:esiteid" v="198643"/>
  </node>
  <node id="-160" visible="true" lat="42.81848092" lon="-73.0122115">
    <tag k="addr:city" v="Readsboro"/>
    <tag k="addr:housenumber" v="508"/>
    <tag k="addr:street" v="Alpendorf Avenue"/>
    <tag k="addr:state" v="VT"/>
    <tag k="ref:vcgi:esiteid" v="198644"/>
  </node>
  <node id="-161" visible="true" lat="42.81813797" lon="-73.01016692">
    <tag k="addr:city" v="Readsboro"/>
    <tag k="addr:housenumber" v="206"/>
    <tag k="addr:street" v="Alpendorf Avenue"/>
    <tag k="addr:state" v="VT"/>
    <tag k="ref:vcgi:esiteid" v="198645"/>
  </node>
  <node id="-162" visible="true" lat="42.81786283" lon="-73.00797775">
    <tag k="addr:city" v="Readsboro"/>
    <tag k="addr:housenumber" v="86"/>
    <tag k="addr:street" v="Alpendorf Avenue"/>
    <tag k="addr:state" v="VT"/>
    <tag k="ref:vcgi:esiteid" v="198646"/>
  </node>
  <node id="-163" visible="true" lat="42.81654918" lon="-73.0125166">
    <tag k="addr:city" v="Readsboro"/>
    <tag k="addr:housenumber" v="134"/>
    <tag k="addr:street" v="Bergwelt Lane"/>
    <tag k="addr:state" v="VT"/>
    <tag k="ref:vcgi:esiteid" v="198647"/>
  </node>
  <node id="-164" visible="true" lat="42.81609898" lon="-73.01210274">
    <tag k="addr:city" v="Readsboro"/>
    <tag k="addr:housenumber" v="139"/>
    <tag k="addr:street" v="Bergwelt Lane"/>
    <tag k="addr:state" v="VT"/>
    <tag k="ref:vcgi:esiteid" v="198648"/>
  </node>
  <node id="-165" visible="true" lat="42.81569173" lon="-73.01285072">
    <tag k="addr:city" v="Readsboro"/>
    <tag k="addr:housenumber" v="194"/>
    <tag k="addr:street" v="Bergwelt Lane"/>
    <tag k="addr:state" v="VT"/>
    <tag k="ref:vcgi:esiteid" v="198649"/>
  </node>
  <node id="-166" visible="true" lat="42.81558077" lon="-72.94013795">
    <tag k="addr:city" v="Readsboro"/>
    <tag k="addr:housenumber" v="1095"/>
    <tag k="addr:street" v="Freezing Hole Drive"/>
    <tag k="addr:state" v="VT"/>
    <tag k="ref:vcgi:esiteid" v="198650"/>
  </node>
  <node id="-167" visible="true" lat="42.81481569" lon="-72.93998397">
    <tag k="addr:city" v="Readsboro"/>
    <tag k="addr:housenumber" v="1093"/>
    <tag k="addr:street" v="Freezing Hole Drive"/>
    <tag k="addr:state" v="VT"/>
    <tag k="ref:vcgi:esiteid" v="198651"/>
  </node>
  <node id="-168" visible="true" lat="42.81434234" lon="-72.93954543">
    <tag k="addr:city" v="Readsboro"/>
    <tag k="addr:housenumber" v="1111"/>
    <tag k="addr:street" v="Freezing Hole Drive"/>
    <tag k="addr:state" v="VT"/>
    <tag k="ref:vcgi:esiteid" v="198652"/>
  </node>
  <node id="-170" visible="true" lat="42.81298086" lon="-73.01096223">
    <tag k="addr:city" v="Readsboro"/>
    <tag k="addr:housenumber" v="353"/>
    <tag k="addr:street" v="Vermont Route 100"/>
    <tag k="addr:state" v="VT"/>
    <tag k="ref:vcgi:esiteid" v="198654"/>
  </node>
  <node id="-171" visible="true" lat="42.81169958" lon="-73.01214103">
    <tag k="addr:city" v="Readsboro"/>
    <tag k="addr:housenumber" v="1076"/>
    <tag k="addr:street" v="Heartwellville View Road"/>
    <tag k="addr:state" v="VT"/>
    <tag k="ref:vcgi:esiteid" v="198655"/>
  </node>
  <node id="-173" visible="true" lat="42.81073909" lon="-73.01207654">
    <tag k="addr:city" v="Readsboro"/>
    <tag k="addr:housenumber" v="1022"/>
    <tag k="addr:street" v="Heartwellville View Road"/>
    <tag k="addr:state" v="VT"/>
    <tag k="ref:vcgi:esiteid" v="198657"/>
  </node>
  <node id="-175" visible="true" lat="42.80944853" lon="-73.01231582">
    <tag k="addr:city" v="Readsboro"/>
    <tag k="addr:housenumber" v="928"/>
    <tag k="addr:street" v="Heartwellville View Road"/>
    <tag k="addr:state" v="VT"/>
    <tag k="ref:vcgi:esiteid" v="198659"/>
  </node>
  <node id="-176" visible="true" lat="42.80956546" lon="-73.01379635">
    <tag k="addr:city" v="Readsboro"/>
    <tag k="addr:housenumber" v="103"/>
    <tag k="addr:street" v="Heartwellville View Road"/>
    <tag k="addr:state" v="VT"/>
    <tag k="ref:vcgi:esiteid" v="198660"/>
  </node>
  <node id="-177" visible="true" lat="42.80953771" lon="-72.94679604">
    <tag k="addr:city" v="Readsboro"/>
    <tag k="addr:housenumber" v="301"/>
    <tag k="addr:street" v="Collins Drive"/>
    <tag k="addr:state" v="VT"/>
    <tag k="ref:vcgi:esiteid" v="198661"/>
  </node>
  <node id="-179" visible="true" lat="42.80916038" lon="-73.01226185">
    <tag k="addr:city" v="Readsboro"/>
    <tag k="addr:housenumber" v="900"/>
    <tag k="addr:street" v="Heartwellville View Road"/>
    <tag k="addr:state" v="VT"/>
    <tag k="ref:vcgi:esiteid" v="198663"/>
  </node>
  <node id="-181" visible="true" lat="42.80803851" lon="-73.01284159">
    <tag k="addr:city" v="Readsboro"/>
    <tag k="addr:housenumber" v="843"/>
    <tag k="addr:street" v="Heartwellville View Road"/>
    <tag k="addr:state" v="VT"/>
    <tag k="ref:vcgi:esiteid" v="198665"/>
  </node>
  <node id="-184" visible="true" lat="42.80717087" lon="-73.01434632">
    <tag k="addr:city" v="Readsboro"/>
    <tag k="addr:housenumber" v="273"/>
    <tag k="addr:street" v="Heartwellville View Road"/>
    <tag k="addr:state" v="VT"/>
    <tag k="ref:vcgi:esiteid" v="198668"/>
  </node>
  <node id="-186" visible="true" lat="42.806776" lon="-73.01434915">
    <tag k="addr:city" v="Readsboro"/>
    <tag k="addr:housenumber" v="279"/>
    <tag k="addr:street" v="Heartwellville View Road"/>
    <tag k="addr:state" v="VT"/>
    <tag k="ref:vcgi:esiteid" v="198670"/>
  </node>
  <node id="-188" visible="true" lat="42.80636895" lon="-73.01413712">
    <tag k="addr:city" v="Readsboro"/>
    <tag k="addr:housenumber" v="327"/>
    <tag k="addr:street" v="Heartwellville View Road"/>
    <tag k="addr:state" v="VT"/>
    <tag k="ref:vcgi:esiteid" v="198672"/>
  </node>
  <node id="-190" visible="true" lat="42.80616884" lon="-73.01254912">
    <tag k="addr:city" v="Readsboro"/>
    <tag k="addr:housenumber" v="703"/>
    <tag k="addr:street" v="Heartwellville View Road"/>
    <tag k="addr:state" v="VT"/>
    <tag k="ref:vcgi:esiteid" v="198674"/>
  </node>
  <node id="-191" visible="true" lat="42.80606928" lon="-73.01510072">
    <tag k="addr:city" v="Readsboro"/>
    <tag k="addr:housenumber" v="336"/>
    <tag k="addr:street" v="Heartwellville View Road"/>
    <tag k="addr:state" v="VT"/>
    <tag k="ref:vcgi:esiteid" v="198675"/>
  </node>
  <node id="-192" visible="true" lat="42.80589845" lon="-73.01406561">
    <tag k="addr:city" v="Readsboro"/>
    <tag k="addr:housenumber" v="349"/>
    <tag k="addr:street" v="Heartwellville View Road"/>
    <tag k="addr:state" v="VT"/>
    <tag k="ref:vcgi:esiteid" v="198676"/>
  </node>
  <node id="-193" visible="true" lat="42.80553802" lon="-73.01422245">
    <tag k="addr:city" v="Readsboro"/>
    <tag k="addr:housenumber" v="379"/>
    <tag k="addr:street" v="Heartwellville View Road"/>
    <tag k="addr:state" v="VT"/>
    <tag k="ref:vcgi:esiteid" v="198677"/>
  </node>
  <node id="-194" visible="true" lat="42.80539427" lon="-73.01171699">
    <tag k="addr:city" v="Readsboro"/>
    <tag k="addr:housenumber" v="644"/>
    <tag k="addr:street" v="Heartwellville View Road"/>
    <tag k="addr:state" v="VT"/>
    <tag k="ref:vcgi:esiteid" v="198678"/>
  </node>
  <node id="-200" visible="true" lat="42.80448149" lon="-72.98473133">
    <tag k="addr:city" v="Readsboro"/>
    <tag k="addr:housenumber" v="122"/>
    <tag k="addr:street" v="Town Highway 5"/>
    <tag k="addr:state" v="VT"/>
    <tag k="ref:vcgi:esiteid" v="198684"/>
  </node>
  <node id="-201" visible="true" lat="42.80439414" lon="-73.01586372">
    <tag k="addr:city" v="Readsboro"/>
    <tag k="addr:housenumber" v="378"/>
    <tag k="addr:street" v="Heartwellville View Road"/>
    <tag k="addr:state" v="VT"/>
    <tag k="ref:vcgi:esiteid" v="198685"/>
  </node>
  <node id="-202" visible="true" lat="42.80416003" lon="-73.01358094">
    <tag k="addr:city" v="Readsboro"/>
    <tag k="addr:housenumber" v="499"/>
    <tag k="addr:street" v="Heartwellville View Road"/>
    <tag k="addr:state" v="VT"/>
    <tag k="ref:vcgi:esiteid" v="198686"/>
  </node>
  <node id="-204" visible="true" lat="42.80425201" lon="-73.01205795">
    <tag k="addr:city" v="Readsboro"/>
    <tag k="addr:housenumber" v="566"/>
    <tag k="addr:street" v="Heartwellville View Road"/>
    <tag k="addr:state" v="VT"/>
    <tag k="ref:vcgi:esiteid" v="198688"/>
  </node>
  <node id="-210" visible="true" lat="42.80345468" lon="-72.984992">
    <tag k="addr:city" v="Readsboro"/>
    <tag k="addr:housenumber" v="9"/>
    <tag k="addr:street" v="Town Highway 5"/>
    <tag k="addr:state" v="VT"/>
    <tag k="ref:vcgi:esiteid" v="198694"/>
  </node>
  <node id="-211" visible="true" lat="42.80349231" lon="-72.93065799">
    <tag k="addr:city" v="Readsboro"/>
    <tag k="addr:housenumber" v="421"/>
    <tag k="addr:street" v="Ruba Drive"/>
    <tag k="addr:state" v="VT"/>
    <tag k="ref:vcgi:esiteid" v="198695"/>
  </node>
  <node id="-212" visible="true" lat="42.80319376" lon="-72.98435827">
    <tag k="addr:city" v="Readsboro"/>
    <tag k="addr:housenumber" v="34"/>
    <tag k="addr:street" v="Town Highway 5"/>
    <tag k="addr:state" v="VT"/>
    <tag k="ref:vcgi:esiteid" v="198696"/>
  </node>
  <node id="-213" visible="true" lat="42.80316544" lon="-72.93550873">
    <tag k="addr:city" v="Readsboro"/>
    <tag k="addr:housenumber" v="155"/>
    <tag k="addr:street" v="Ruba Drive"/>
    <tag k="addr:state" v="VT"/>
    <tag k="ref:vcgi:esiteid" v="198697"/>
  </node>
  <node id="-215" visible="true" lat="42.80230629" lon="-72.94401105">
    <tag k="addr:city" v="Readsboro"/>
    <tag k="addr:housenumber" v="2244"/>
    <tag k="addr:street" v="King Hill Road"/>
    <tag k="addr:state" v="VT"/>
    <tag k="ref:vcgi:esiteid" v="198699"/>
  </node>
  <node id="-216" visible="true" lat="42.80206356" lon="-72.93764627">
    <tag k="addr:city" v="Readsboro"/>
    <tag k="addr:housenumber" v="1926"/>
    <tag k="addr:street" v="King Hill Road"/>
    <tag k="addr:state" v="VT"/>
    <tag k="ref:vcgi:esiteid" v="198700"/>
  </node>
  <node id="-219" visible="true" lat="42.80127468" lon="-72.93713747">
    <tag k="addr:city" v="Readsboro"/>
    <tag k="addr:housenumber" v="1858"/>
    <tag k="addr:street" v="King Hill Road"/>
    <tag k="addr:state" v="VT"/>
    <tag k="ref:vcgi:esiteid" v="198703"/>
  </node>
  <node id="-222" visible="true" lat="42.79992676" lon="-72.93717957">
    <tag k="addr:city" v="Readsboro"/>
    <tag k="addr:housenumber" v="1771"/>
    <tag k="addr:street" v="King Hill Road"/>
    <tag k="addr:state" v="VT"/>
    <tag k="ref:vcgi:esiteid" v="198706"/>
  </node>
  <node id="-224" visible="true" lat="42.79845003" lon="-72.93894705">
    <tag k="addr:city" v="Readsboro"/>
    <tag k="addr:housenumber" v="1643"/>
    <tag k="addr:street" v="King Hill Road"/>
    <tag k="addr:state" v="VT"/>
    <tag k="ref:vcgi:esiteid" v="198708"/>
  </node>
  <node id="-226" visible="true" lat="42.79815474" lon="-72.93586079">
    <tag k="addr:city" v="Readsboro"/>
    <tag k="addr:housenumber" v="1632"/>
    <tag k="addr:street" v="King Hill Road"/>
    <tag k="addr:state" v="VT"/>
    <tag k="ref:vcgi:esiteid" v="198710"/>
  </node>
  <node id="-227" visible="true" lat="42.79812036" lon="-72.94667249">
    <tag k="addr:city" v="Readsboro"/>
    <tag k="addr:housenumber" v="1413"/>
    <tag k="addr:street" v="Potter Hill Road"/>
    <tag k="addr:state" v="VT"/>
    <tag k="ref:vcgi:esiteid" v="198711"/>
  </node>
  <node id="-229" visible="true" lat="42.79701562" lon="-72.93610675">
    <tag k="addr:city" v="Readsboro"/>
    <tag k="addr:housenumber" v="1549"/>
    <tag k="addr:street" v="King Hill Road"/>
    <tag k="addr:state" v="VT"/>
    <tag k="ref:vcgi:esiteid" v="198713"/>
  </node>
  <node id="-230" visible="true" lat="42.79671597" lon="-73.00185136">
    <tag k="addr:city" v="Readsboro"/>
    <tag k="addr:housenumber" v="1128"/>
    <tag k="addr:street" v="Daubneys Drive"/>
    <tag k="addr:state" v="VT"/>
    <tag k="ref:vcgi:esiteid" v="198714"/>
  </node>
  <node id="-231" visible="true" lat="42.79641993" lon="-72.9314575">
    <tag k="addr:city" v="Readsboro"/>
    <tag k="addr:housenumber" v="1536"/>
    <tag k="addr:street" v="King Hill Road"/>
    <tag k="addr:state" v="VT"/>
    <tag k="ref:vcgi:esiteid" v="198715"/>
  </node>
  <node id="-232" visible="true" lat="42.7965227" lon="-72.98464972">
    <tag k="addr:city" v="Readsboro"/>
    <tag k="addr:housenumber" v="2235"/>
    <tag k="addr:street" v="Howe Pond Road"/>
    <tag k="addr:state" v="VT"/>
    <tag k="ref:vcgi:esiteid" v="198716"/>
  </node>
  <node id="-233" visible="true" lat="42.79623779" lon="-72.94555827">
    <tag k="addr:city" v="Readsboro"/>
    <tag k="addr:housenumber" v="1267"/>
    <tag k="addr:street" v="Potter Hill Road"/>
    <tag k="addr:state" v="VT"/>
    <tag k="ref:vcgi:esiteid" v="198717"/>
  </node>
  <node id="-234" visible="true" lat="42.79598608" lon="-72.93627775">
    <tag k="addr:city" v="Readsboro"/>
    <tag k="addr:housenumber" v="1471"/>
    <tag k="addr:street" v="King Hill Road"/>
    <tag k="addr:state" v="VT"/>
    <tag k="ref:vcgi:esiteid" v="198718"/>
  </node>
  <node id="-235" visible="true" lat="42.79572798" lon="-72.98449904">
    <tag k="addr:city" v="Readsboro"/>
    <tag k="addr:housenumber" v="2197"/>
    <tag k="addr:street" v="Howe Pond Road"/>
    <tag k="addr:state" v="VT"/>
    <tag k="ref:vcgi:esiteid" v="198719"/>
  </node>
  <node id="-236" visible="true" lat="42.79516743" lon="-72.98371093">
    <tag k="addr:city" v="Readsboro"/>
    <tag k="addr:housenumber" v="2168"/>
    <tag k="addr:street" v="Howe Pond Road"/>
    <tag k="addr:state" v="VT"/>
    <tag k="ref:vcgi:esiteid" v="198720"/>
  </node>
  <node id="-237" visible="true" lat="42.79533729" lon="-72.93584069">
    <tag k="addr:city" v="Readsboro"/>
    <tag k="addr:housenumber" v="1450"/>
    <tag k="addr:street" v="King Hill Road"/>
    <tag k="addr:state" v="VT"/>
    <tag k="ref:vcgi:esiteid" v="198721"/>
  </node>
  <node id="-238" visible="true" lat="42.79492367" lon="-72.94515798">
    <tag k="addr:city" v="Readsboro"/>
    <tag k="addr:housenumber" v="1182"/>
    <tag k="addr:street" v="Potter Hill Road"/>
    <tag k="addr:state" v="VT"/>
    <tag k="ref:vcgi:esiteid" v="198722"/>
  </node>
  <node id="-239" visible="true" lat="42.79482651" lon="-72.98342132">
    <tag k="addr:city" v="Readsboro"/>
    <tag k="addr:housenumber" v="2136"/>
    <tag k="addr:street" v="Howe Pond Road"/>
    <tag k="addr:state" v="VT"/>
    <tag k="ref:vcgi:esiteid" v="198723"/>
  </node>
  <node id="-240" visible="true" lat="42.79491929" lon="-72.94075626">
    <tag k="addr:city" v="Readsboro"/>
    <tag k="addr:housenumber" v="1307"/>
    <tag k="addr:street" v="King Hill Road"/>
    <tag k="addr:state" v="VT"/>
    <tag k="ref:vcgi:esiteid" v="198724"/>
  </node>
  <node id="-241" visible="true" lat="42.79499365" lon="-72.94698725">
    <tag k="addr:city" v="Readsboro"/>
    <tag k="addr:housenumber" v="1135"/>
    <tag k="addr:street" v="Potter Hill Road"/>
    <tag k="addr:state" v="VT"/>
    <tag k="ref:vcgi:esiteid" v="198725"/>
  </node>
  <node id="-242" visible="true" lat="42.79466653" lon="-72.93591035">
    <tag k="addr:city" v="Readsboro"/>
    <tag k="addr:housenumber" v="1386"/>
    <tag k="addr:street" v="King Hill Road"/>
    <tag k="addr:state" v="VT"/>
    <tag k="ref:vcgi:esiteid" v="198726"/>
  </node>
  <node id="-244" visible="true" lat="42.79421711" lon="-72.937055">
    <tag k="addr:city" v="Readsboro"/>
    <tag k="addr:housenumber" v="1352"/>
    <tag k="addr:street" v="King Hill Road"/>
    <tag k="addr:state" v="VT"/>
    <tag k="ref:vcgi:esiteid" v="198728"/>
  </node>
  <node id="-245" visible="true" lat="42.79448388" lon="-72.96478661">
    <tag k="addr:city" v="Readsboro"/>
    <tag k="addr:housenumber" v="4993"/>
    <tag k="addr:street" v="Vermont Route 100"/>
    <tag k="addr:state" v="VT"/>
    <tag k="ref:vcgi:esiteid" v="198729"/>
  </node>
  <node id="-246" visible="true" lat="42.79271316" lon="-72.98485565">
    <tag k="addr:city" v="Readsboro"/>
    <tag k="addr:housenumber" v="1998"/>
    <tag k="addr:street" v="Howe Pond Road"/>
    <tag k="addr:state" v="VT"/>
    <tag k="ref:vcgi:esiteid" v="198730"/>
  </node>
  <node id="-247" visible="true" lat="42.79210575" lon="-72.9391006">
    <tag k="addr:city" v="Readsboro"/>
    <tag k="addr:housenumber" v="1153"/>
    <tag k="addr:street" v="King Hill Road"/>
    <tag k="addr:state" v="VT"/>
    <tag k="ref:vcgi:esiteid" v="198731"/>
  </node>
  <node id="-248" visible="true" lat="42.79183487" lon="-72.98525493">
    <tag k="addr:city" v="Readsboro"/>
    <tag k="addr:housenumber" v="1932"/>
    <tag k="addr:street" v="Howe Pond Road"/>
    <tag k="addr:state" v="VT"/>
    <tag k="ref:vcgi:esiteid" v="198732"/>
  </node>
  <node id="-249" visible="true" lat="42.79185505" lon="-72.94544648">
    <tag k="addr:city" v="Readsboro"/>
    <tag k="addr:housenumber" v="956"/>
    <tag k="addr:street" v="Potter Hill Road"/>
    <tag k="addr:state" v="VT"/>
    <tag k="ref:vcgi:esiteid" v="198733"/>
  </node>
  <node id="-251" visible="true" lat="42.79114416" lon="-72.94714527">
    <tag k="addr:city" v="Readsboro"/>
    <tag k="addr:housenumber" v="1011"/>
    <tag k="addr:street" v="Potter Hill Road"/>
    <tag k="addr:state" v="VT"/>
    <tag k="ref:vcgi:esiteid" v="198735"/>
  </node>
  <node id="-252" visible="true" lat="42.79116938" lon="-72.93792267">
    <tag k="addr:city" v="Readsboro"/>
    <tag k="addr:housenumber" v="1084"/>
    <tag k="addr:street" v="King Hill Road"/>
    <tag k="addr:state" v="VT"/>
    <tag k="ref:vcgi:esiteid" v="198736"/>
  </node>
  <node id="-253" visible="true" lat="42.79057697" lon="-72.98437483">
    <tag k="addr:city" v="Readsboro"/>
    <tag k="addr:housenumber" v="1821"/>
    <tag k="addr:street" v="Howe Pond Road"/>
    <tag k="addr:state" v="VT"/>
    <tag k="ref:vcgi:esiteid" v="198737"/>
  </node>
  <node id="-254" visible="true" lat="42.79046128" lon="-72.94627878">
    <tag k="addr:city" v="Readsboro"/>
    <tag k="addr:housenumber" v="879"/>
    <tag k="addr:street" v="Potter Hill Road"/>
    <tag k="addr:state" v="VT"/>
    <tag k="ref:vcgi:esiteid" v="198738"/>
  </node>
  <node id="-255" visible="true" lat="42.78997132" lon="-72.98391405">
    <tag k="addr:city" v="Readsboro"/>
    <tag k="addr:housenumber" v="1755"/>
    <tag k="addr:street" v="Howe Pond Road"/>
    <tag k="addr:state" v="VT"/>
    <tag k="ref:vcgi:esiteid" v="198739"/>
  </node>
  <node id="-256" visible="true" lat="42.78975587" lon="-72.93801236">
    <tag k="addr:city" v="Readsboro"/>
    <tag k="addr:housenumber" v="990"/>
    <tag k="addr:street" v="King Hill Road"/>
    <tag k="addr:state" v="VT"/>
    <tag k="ref:vcgi:esiteid" v="198740"/>
  </node>
  <node id="-257" visible="true" lat="42.78972746" lon="-72.94365614">
    <tag k="addr:city" v="Readsboro"/>
    <tag k="addr:housenumber" v="776"/>
    <tag k="addr:street" v="Potter Hill Road"/>
    <tag k="addr:state" v="VT"/>
    <tag k="ref:vcgi:esiteid" v="198741"/>
  </node>
  <node id="-258" visible="true" lat="42.7893406" lon="-72.94437735">
    <tag k="addr:city" v="Readsboro"/>
    <tag k="addr:housenumber" v="775"/>
    <tag k="addr:street" v="Potter Hill Road"/>
    <tag k="addr:state" v="VT"/>
    <tag k="ref:vcgi:esiteid" v="198742"/>
  </node>
  <node id="-259" visible="true" lat="42.78802541" lon="-72.9841696">
    <tag k="addr:city" v="Readsboro"/>
    <tag k="addr:housenumber" v="116"/>
    <tag k="addr:street" v="Case Lane"/>
    <tag k="addr:state" v="VT"/>
    <tag k="ref:vcgi:esiteid" v="198743"/>
  </node>
  <node id="-260" visible="true" lat="42.78888596" lon="-72.99526329">
    <tag k="addr:city" v="Readsboro"/>
    <tag k="addr:housenumber" v="680"/>
    <tag k="addr:street" v="Case Lane"/>
    <tag k="addr:state" v="VT"/>
    <tag k="ref:vcgi:esiteid" v="198744"/>
  </node>
  <node id="-261" visible="true" lat="42.78888861" lon="-72.99212141">
    <tag k="addr:city" v="Readsboro"/>
    <tag k="addr:housenumber" v="504"/>
    <tag k="addr:street" v="Case Lane"/>
    <tag k="addr:state" v="VT"/>
    <tag k="ref:vcgi:esiteid" v="198745"/>
  </node>
  <node id="-262" visible="true" lat="42.78889098" lon="-72.93836257">
    <tag k="addr:city" v="Readsboro"/>
    <tag k="addr:housenumber" v="931"/>
    <tag k="addr:street" v="King Hill Road"/>
    <tag k="addr:state" v="VT"/>
    <tag k="ref:vcgi:esiteid" v="198746"/>
  </node>
  <node id="-263" visible="true" lat="42.78862561" lon="-72.98261827">
    <tag k="addr:city" v="Readsboro"/>
    <tag k="addr:housenumber" v="1648"/>
    <tag k="addr:street" v="Howe Pond Road"/>
    <tag k="addr:state" v="VT"/>
    <tag k="ref:vcgi:esiteid" v="198747"/>
  </node>
  <node id="-264" visible="true" lat="42.78865074" lon="-72.9894582">
    <tag k="addr:city" v="Readsboro"/>
    <tag k="addr:housenumber" v="358"/>
    <tag k="addr:street" v="Case Lane"/>
    <tag k="addr:state" v="VT"/>
    <tag k="ref:vcgi:esiteid" v="198748"/>
  </node>
  <node id="-265" visible="true" lat="42.78856256" lon="-72.98923338">
    <tag k="addr:city" v="Readsboro"/>
    <tag k="addr:housenumber" v="336"/>
    <tag k="addr:street" v="Case Lane"/>
    <tag k="addr:state" v="VT"/>
    <tag k="ref:vcgi:esiteid" v="198749"/>
  </node>
  <node id="-266" visible="true" lat="42.78852267" lon="-72.99096597">
    <tag k="addr:city" v="Readsboro"/>
    <tag k="addr:housenumber" v="427"/>
    <tag k="addr:street" v="Case Lane"/>
    <tag k="addr:state" v="VT"/>
    <tag k="ref:vcgi:esiteid" v="198750"/>
  </node>
  <node id="-267" visible="true" lat="42.78841967" lon="-72.98971121">
    <tag k="addr:city" v="Readsboro"/>
    <tag k="addr:housenumber" v="359"/>
    <tag k="addr:street" v="Case Lane"/>
    <tag k="addr:state" v="VT"/>
    <tag k="ref:vcgi:esiteid" v="198751"/>
  </node>
  <node id="-268" visible="true" lat="42.78845867" lon="-72.98997856">
    <tag k="addr:city" v="Readsboro"/>
    <tag k="addr:housenumber" v="367"/>
    <tag k="addr:street" v="Case Lane"/>
    <tag k="addr:state" v="VT"/>
    <tag k="ref:vcgi:esiteid" v="198752"/>
  </node>
  <node id="-269" visible="true" lat="42.78842174" lon="-72.9374714">
    <tag k="addr:city" v="Readsboro"/>
    <tag k="addr:housenumber" v="940"/>
    <tag k="addr:street" v="King Hill Road"/>
    <tag k="addr:state" v="VT"/>
    <tag k="ref:vcgi:esiteid" v="198753"/>
  </node>
  <node id="-270" visible="true" lat="42.78823164" lon="-72.94485943">
    <tag k="addr:city" v="Readsboro"/>
    <tag k="addr:housenumber" v="713"/>
    <tag k="addr:street" v="Potter Hill Road"/>
    <tag k="addr:state" v="VT"/>
    <tag k="ref:vcgi:esiteid" v="198754"/>
  </node>
  <node id="-271" visible="true" lat="42.7880277" lon="-72.93875612">
    <tag k="addr:city" v="Readsboro"/>
    <tag k="addr:housenumber" v="891"/>
    <tag k="addr:street" v="King Hill Road"/>
    <tag k="addr:state" v="VT"/>
    <tag k="ref:vcgi:esiteid" v="198755"/>
  </node>
  <node id="-272" visible="true" lat="42.78762054" lon="-72.94325256">
    <tag k="addr:city" v="Readsboro"/>
    <tag k="addr:housenumber" v="675"/>
    <tag k="addr:street" v="Potter Hill Road"/>
    <tag k="addr:state" v="VT"/>
    <tag k="ref:vcgi:esiteid" v="198756"/>
  </node>
  <node id="-273" visible="true" lat="42.78724505" lon="-72.94020343">
    <tag k="addr:city" v="Readsboro"/>
    <tag k="addr:housenumber" v="532"/>
    <tag k="addr:street" v="Potter Hill Road"/>
    <tag k="addr:state" v="VT"/>
    <tag k="ref:vcgi:esiteid" v="198757"/>
  </node>
  <node id="-274" visible="true" lat="42.78486828" lon="-72.94018856">
    <tag k="addr:city" v="Readsboro"/>
    <tag k="addr:housenumber" v="394"/>
    <tag k="addr:street" v="Potter Hill Road"/>
    <tag k="addr:state" v="VT"/>
    <tag k="ref:vcgi:esiteid" v="198758"/>
  </node>
  <node id="-275" visible="true" lat="42.78322107" lon="-72.94391229">
    <tag k="addr:city" v="Readsboro"/>
    <tag k="addr:housenumber" v="265"/>
    <tag k="addr:street" v="Potter Hill Road"/>
    <tag k="addr:state" v="VT"/>
    <tag k="ref:vcgi:esiteid" v="198759"/>
  </node>
  <node id="-276" visible="true" lat="42.78336069" lon="-72.93636881">
    <tag k="addr:city" v="Readsboro"/>
    <tag k="addr:housenumber" v="527"/>
    <tag k="addr:street" v="King Hill Road"/>
    <tag k="addr:state" v="VT"/>
    <tag k="ref:vcgi:esiteid" v="198760"/>
  </node>
  <node id="-277" visible="true" lat="42.78275803" lon="-72.9741054">
    <tag k="addr:city" v="Readsboro"/>
    <tag k="addr:housenumber" v="989"/>
    <tag k="addr:street" v="Howe Pond Road"/>
    <tag k="addr:state" v="VT"/>
    <tag k="ref:vcgi:esiteid" v="198761"/>
  </node>
  <node id="-278" visible="true" lat="42.78181554" lon="-72.94128802">
    <tag k="addr:city" v="Readsboro"/>
    <tag k="addr:housenumber" v="148"/>
    <tag k="addr:street" v="Potter Hill Road"/>
    <tag k="addr:state" v="VT"/>
    <tag k="ref:vcgi:esiteid" v="198762"/>
  </node>
  <node id="-279" visible="true" lat="42.78156404" lon="-72.94195057">
    <tag k="addr:city" v="Readsboro"/>
    <tag k="addr:housenumber" v="136"/>
    <tag k="addr:street" v="Potter Hill Road"/>
    <tag k="addr:state" v="VT"/>
    <tag k="ref:vcgi:esiteid" v="198763"/>
  </node>
  <node id="-280" visible="true" lat="42.78140521" lon="-72.93649434">
    <tag k="addr:city" v="Readsboro"/>
    <tag k="addr:housenumber" v="395"/>
    <tag k="addr:street" v="King Hill Road"/>
    <tag k="addr:state" v="VT"/>
    <tag k="ref:vcgi:esiteid" v="198764"/>
  </node>
  <node id="-281" visible="true" lat="42.78098923" lon="-72.97388704">
    <tag k="addr:city" v="Readsboro"/>
    <tag k="addr:housenumber" v="829"/>
    <tag k="addr:street" v="Howe Pond Road"/>
    <tag k="addr:state" v="VT"/>
    <tag k="ref:vcgi:esiteid" v="198765"/>
  </node>
  <node id="-282" visible="true" lat="42.7805593" lon="-72.94312011">
    <tag k="addr:city" v="Readsboro"/>
    <tag k="addr:housenumber" v="51"/>
    <tag k="addr:street" v="Potter Hill Road"/>
    <tag k="addr:state" v="VT"/>
    <tag k="ref:vcgi:esiteid" v="198766"/>
  </node>
  <node id="-283" visible="true" lat="42.78000121" lon="-72.93915569">
    <tag k="addr:city" v="Readsboro"/>
    <tag k="addr:housenumber" v="157"/>
    <tag k="addr:street" v="King Hill Road"/>
    <tag k="addr:state" v="VT"/>
    <tag k="ref:vcgi:esiteid" v="198767"/>
  </node>
  <node id="-284" visible="true" lat="42.77998238" lon="-72.94319112">
    <tag k="addr:city" v="Readsboro"/>
    <tag k="addr:housenumber" v="11"/>
    <tag k="addr:street" v="Potter Hill Road"/>
    <tag k="addr:state" v="VT"/>
    <tag k="ref:vcgi:esiteid" v="198768"/>
  </node>
  <node id="-285" visible="true" lat="42.77955136" lon="-72.94274151">
    <tag k="addr:city" v="Readsboro"/>
    <tag k="addr:housenumber" v="10"/>
    <tag k="addr:street" v="King Hill Road"/>
    <tag k="addr:state" v="VT"/>
    <tag k="ref:vcgi:esiteid" v="198769"/>
  </node>
  <node id="-286" visible="true" lat="42.77930243" lon="-72.9436716">
    <tag k="addr:city" v="Readsboro"/>
    <tag k="addr:housenumber" v="617"/>
    <tag k="addr:street" v="East Main Street"/>
    <tag k="addr:state" v="VT"/>
    <tag k="ref:vcgi:esiteid" v="198770"/>
  </node>
  <node id="-287" visible="true" lat="42.77846276" lon="-72.94210541">
    <tag k="addr:city" v="Readsboro"/>
    <tag k="addr:housenumber" v="560"/>
    <tag k="addr:street" v="East Main Street"/>
    <tag k="addr:state" v="VT"/>
    <tag k="ref:vcgi:esiteid" v="198771"/>
  </node>
  <node id="-288" visible="true" lat="42.77835469" lon="-72.96729646">
    <tag k="addr:city" v="Readsboro"/>
    <tag k="addr:housenumber" v="516"/>
    <tag k="addr:street" v="Howe Pond Road"/>
    <tag k="addr:state" v="VT"/>
    <tag k="ref:vcgi:esiteid" v="198772"/>
  </node>
  <node id="-290" visible="true" lat="42.77713205" lon="-72.97872956">
    <tag k="addr:city" v="Readsboro"/>
    <tag k="addr:housenumber" v="1723"/>
    <tag k="addr:street" v="Goldmine Road"/>
    <tag k="addr:state" v="VT"/>
    <tag k="ref:vcgi:esiteid" v="198774"/>
  </node>
  <node id="-291" visible="true" lat="42.77703181" lon="-72.94412389">
    <tag k="addr:city" v="Readsboro"/>
    <tag k="addr:housenumber" v="465"/>
    <tag k="addr:street" v="East Main Street"/>
    <tag k="addr:state" v="VT"/>
    <tag k="ref:vcgi:esiteid" v="198775"/>
  </node>
  <node id="-292" visible="true" lat="42.77694979" lon="-72.96389">
    <tag k="addr:city" v="Readsboro"/>
    <tag k="addr:housenumber" v="225"/>
    <tag k="addr:street" v="Howe Pond Road"/>
    <tag k="addr:state" v="VT"/>
    <tag k="ref:vcgi:esiteid" v="198776"/>
  </node>
  <node id="-294" visible="true" lat="42.77540145" lon="-72.96900455">
    <tag k="addr:city" v="Readsboro"/>
    <tag k="addr:housenumber" v="245"/>
    <tag k="addr:street" v="Ross Road"/>
    <tag k="addr:state" v="VT"/>
    <tag k="ref:vcgi:esiteid" v="198779"/>
  </node>
  <node id="-295" visible="true" lat="42.77484905" lon="-72.96881083">
    <tag k="addr:city" v="Readsboro"/>
    <tag k="addr:housenumber" v="291"/>
    <tag k="addr:street" v="Ross Road"/>
    <tag k="addr:state" v="VT"/>
    <tag k="ref:vcgi:esiteid" v="198780"/>
  </node>
  <node id="-298" visible="true" lat="42.77447022" lon="-72.94519301">
    <tag k="addr:city" v="Readsboro"/>
    <tag k="addr:housenumber" v="198"/>
    <tag k="addr:street" v="Glen Avenue"/>
    <tag k="addr:state" v="VT"/>
    <tag k="ref:vcgi:esiteid" v="198783"/>
  </node>
  <node id="-299" visible="true" lat="42.77434997" lon="-72.94529057">
    <tag k="addr:city" v="Readsboro"/>
    <tag k="addr:housenumber" v="190"/>
    <tag k="addr:street" v="Glen Avenue"/>
    <tag k="addr:state" v="VT"/>
    <tag k="ref:vcgi:esiteid" v="198784"/>
  </node>
  <node id="-300" visible="true" lat="42.77421787" lon="-72.94536519">
    <tag k="addr:city" v="Readsboro"/>
    <tag k="addr:housenumber" v="176"/>
    <tag k="addr:street" v="Glen Avenue"/>
    <tag k="addr:state" v="VT"/>
    <tag k="ref:vcgi:esiteid" v="198786"/>
  </node>
  <node id="-301" visible="true" lat="42.77391089" lon="-72.94547585">
    <tag k="addr:city" v="Readsboro"/>
    <tag k="addr:housenumber" v="152"/>
    <tag k="addr:street" v="Glen Avenue"/>
    <tag k="addr:state" v="VT"/>
    <tag k="ref:vcgi:esiteid" v="198787"/>
  </node>
  <node id="-302" visible="true" lat="42.77366072" lon="-72.95617895">
    <tag k="addr:city" v="Readsboro"/>
    <tag k="addr:housenumber" v="65"/>
    <tag k="addr:street" v="Bonnie View Lane"/>
    <tag k="addr:state" v="VT"/>
    <tag k="ref:vcgi:esiteid" v="198788"/>
  </node>
  <node id="-303" visible="true" lat="42.77339816" lon="-72.97578441">
    <tag k="addr:city" v="Readsboro"/>
    <tag k="addr:housenumber" v="1382"/>
    <tag k="addr:street" v="Goldmine Road"/>
    <tag k="addr:state" v="VT"/>
    <tag k="ref:vcgi:esiteid" v="198791"/>
  </node>
  <node id="-304" visible="true" lat="42.77339763" lon="-72.94109288">
    <tag k="addr:city" v="Readsboro"/>
    <tag k="addr:housenumber" v="114"/>
    <tag k="addr:street" v="Whitney Drive"/>
    <tag k="addr:state" v="VT"/>
    <tag k="ref:vcgi:esiteid" v="198792"/>
  </node>
  <node id="-305" visible="true" lat="42.77339617" lon="-72.94594548">
    <tag k="addr:city" v="Readsboro"/>
    <tag k="addr:housenumber" v="106"/>
    <tag k="addr:street" v="Glen Avenue"/>
    <tag k="addr:state" v="VT"/>
    <tag k="ref:vcgi:esiteid" v="198793"/>
  </node>
  <node id="-307" visible="true" lat="42.7731874" lon="-72.96952181">
    <tag k="addr:city" v="Readsboro"/>
    <tag k="addr:housenumber" v="397"/>
    <tag k="addr:street" v="Ross Road"/>
    <tag k="addr:state" v="VT"/>
    <tag k="ref:vcgi:esiteid" v="198795"/>
  </node>
  <node id="-308" visible="true" lat="42.77303787" lon="-72.94489163">
    <tag k="addr:city" v="Readsboro"/>
    <tag k="addr:housenumber" v="236"/>
    <tag k="addr:street" v="East Main Street"/>
    <tag k="addr:state" v="VT"/>
    <tag k="ref:vcgi:esiteid" v="198796"/>
  </node>
  <node id="-314" visible="true" lat="42.77313327" lon="-72.93940699">
    <tag k="addr:city" v="Readsboro"/>
    <tag k="addr:housenumber" v="112"/>
    <tag k="addr:street" v="Whitney Drive"/>
    <tag k="addr:state" v="VT"/>
    <tag k="ref:vcgi:esiteid" v="198804"/>
  </node>
  <node id="-315" visible="true" lat="42.77298899" lon="-72.94665025">
    <tag k="addr:city" v="Readsboro"/>
    <tag k="addr:housenumber" v="69"/>
    <tag k="addr:street" v="Glen Avenue"/>
    <tag k="addr:state" v="VT"/>
    <tag k="ref:vcgi:esiteid" v="198805"/>
  </node>
  <node id="-318" visible="true" lat="42.7729361" lon="-72.93815528">
    <tag k="addr:city" v="Readsboro"/>
    <tag k="addr:housenumber" v="72"/>
    <tag k="addr:street" v="Whitney Drive"/>
    <tag k="addr:state" v="VT"/>
    <tag k="ref:vcgi:esiteid" v="198808"/>
  </node>
  <node id="-329" visible="true" lat="42.7725537" lon="-72.97188892">
    <tag k="addr:city" v="Readsboro"/>
    <tag k="addr:housenumber" v="502"/>
    <tag k="addr:street" v="Ross Road"/>
    <tag k="addr:state" v="VT"/>
    <tag k="ref:vcgi:esiteid" v="198819"/>
  </node>
  <node id="-337" visible="true" lat="42.77237701" lon="-72.94293213">
    <tag k="addr:city" v="Readsboro"/>
    <tag k="addr:housenumber" v="177"/>
    <tag k="addr:street" v="Phelps Lane"/>
    <tag k="addr:state" v="VT"/>
    <tag k="ref:vcgi:esiteid" v="198827"/>
  </node>
  <node id="-339" visible="true" lat="42.77240937" lon="-72.93748259">
    <tag k="addr:city" v="Readsboro"/>
    <tag k="addr:housenumber" v="17"/>
    <tag k="addr:street" v="Whitney Drive"/>
    <tag k="addr:state" v="VT"/>
    <tag k="ref:vcgi:esiteid" v="198829"/>
  </node>
  <node id="-342" visible="true" lat="42.77231329" lon="-72.94225129">
    <tag k="addr:city" v="Readsboro"/>
    <tag k="addr:housenumber" v="211"/>
    <tag k="addr:street" v="Phelps Lane"/>
    <tag k="addr:state" v="VT"/>
    <tag k="ref:vcgi:esiteid" v="198833"/>
  </node>
  <node id="-362" visible="true" lat="42.77176124" lon="-72.93515512">
    <tag k="addr:city" v="Readsboro"/>
    <tag k="addr:housenumber" v="610"/>
    <tag k="addr:street" v="Phelps Lane"/>
    <tag k="addr:state" v="VT"/>
    <tag k="ref:vcgi:esiteid" v="198855"/>
  </node>
  <node id="-368" visible="true" lat="42.77181696" lon="-72.9752349">
    <tag k="addr:city" v="Readsboro"/>
    <tag k="addr:housenumber" v="1233"/>
    <tag k="addr:street" v="Goldmine Road"/>
    <tag k="addr:state" v="VT"/>
    <tag k="ref:vcgi:esiteid" v="198863"/>
  </node>
  <node id="-372" visible="true" lat="42.77147193" lon="-72.9469904">
    <tag k="addr:city" v="Readsboro"/>
    <tag k="addr:housenumber" v="17"/>
    <tag k="addr:street" v="Tunnel Street"/>
    <tag k="addr:state" v="VT"/>
    <tag k="ref:vcgi:esiteid" v="198868"/>
  </node>
  <node id="-381" visible="true" lat="42.77098774" lon="-72.94781664">
    <tag k="addr:city" v="Readsboro"/>
    <tag k="addr:housenumber" v="122"/>
    <tag k="addr:street" v="School Street"/>
    <tag k="addr:state" v="VT"/>
    <tag k="ref:vcgi:esiteid" v="198879"/>
  </node>
  <node id="-385" visible="true" lat="42.7704277" lon="-72.9441452">
    <tag k="addr:city" v="Readsboro"/>
    <tag k="addr:housenumber" v="36"/>
    <tag k="addr:street" v="Jarvis Hill Road"/>
    <tag k="addr:state" v="VT"/>
    <tag k="ref:vcgi:esiteid" v="198885"/>
  </node>
  <node id="-388" visible="true" lat="42.77024023" lon="-72.97287714">
    <tag k="addr:city" v="Readsboro"/>
    <tag k="addr:housenumber" v="1112"/>
    <tag k="addr:street" v="Goldmine Road"/>
    <tag k="addr:state" v="VT"/>
    <tag k="ref:vcgi:esiteid" v="198889"/>
  </node>
  <node id="-402" visible="true" lat="42.76980052" lon="-72.93550736">
    <tag k="addr:city" v="Readsboro"/>
    <tag k="addr:housenumber" v="7698"/>
    <tag k="addr:street" v="Vermont Route 100"/>
    <tag k="addr:state" v="VT"/>
    <tag k="ref:vcgi:esiteid" v="198905"/>
  </node>
  <node id="-408" visible="true" lat="42.76951436" lon="-72.93460472">
    <tag k="addr:city" v="Readsboro"/>
    <tag k="addr:housenumber" v="7748"/>
    <tag k="addr:street" v="Vermont Route 100"/>
    <tag k="addr:state" v="VT"/>
    <tag k="ref:vcgi:esiteid" v="198911"/>
  </node>
  <node id="-413" visible="true" lat="42.76924705" lon="-72.97260412">
    <tag k="addr:city" v="Readsboro"/>
    <tag k="addr:housenumber" v="1050"/>
    <tag k="addr:street" v="Goldmine Road"/>
    <tag k="addr:state" v="VT"/>
    <tag k="ref:vcgi:esiteid" v="198918"/>
  </node>
  <node id="-433" visible="true" lat="42.76748689" lon="-72.94782117">
    <tag k="addr:city" v="Readsboro"/>
    <tag k="addr:housenumber" v="104"/>
    <tag k="addr:street" v="Wheeler Drive"/>
    <tag k="addr:state" v="VT"/>
    <tag k="ref:vcgi:esiteid" v="198941"/>
  </node>
  <node id="-436" visible="true" lat="42.76729368" lon="-72.96282034">
    <tag k="addr:city" v="Readsboro"/>
    <tag k="addr:housenumber" v="1202"/>
    <tag k="addr:street" v="Branch Hill Road"/>
    <tag k="addr:state" v="VT"/>
    <tag k="ref:vcgi:esiteid" v="198944"/>
  </node>
  <node id="-451" visible="true" lat="42.76378076" lon="-72.96136329">
    <tag k="addr:city" v="Readsboro"/>
    <tag k="addr:housenumber" v="1455"/>
    <tag k="addr:street" v="Branch Hill Road"/>
    <tag k="addr:state" v="VT"/>
    <tag k="ref:vcgi:esiteid" v="198962"/>
  </node>
  <node id="-452" visible="true" lat="42.76383772" lon="-72.96459074">
    <tag k="addr:city" v="Readsboro"/>
    <tag k="addr:housenumber" v="1356"/>
    <tag k="addr:street" v="Branch Hill Road"/>
    <tag k="addr:state" v="VT"/>
    <tag k="ref:vcgi:esiteid" v="198963"/>
  </node>
  <node id="-453" visible="true" lat="42.76371011" lon="-72.96416601">
    <tag k="addr:city" v="Readsboro"/>
    <tag k="addr:housenumber" v="1354"/>
    <tag k="addr:street" v="Branch Hill Road"/>
    <tag k="addr:state" v="VT"/>
    <tag k="ref:vcgi:esiteid" v="198964"/>
  </node>
  <node id="-455" visible="true" lat="42.76294999" lon="-72.96488366">
    <tag k="addr:city" v="Readsboro"/>
    <tag k="addr:housenumber" v="1454"/>
    <tag k="addr:street" v="Branch Hill Road"/>
    <tag k="addr:state" v="VT"/>
    <tag k="ref:vcgi:esiteid" v="198966"/>
  </node>
  <node id="-456" visible="true" lat="42.76248032" lon="-72.96798012">
    <tag k="addr:city" v="Readsboro"/>
    <tag k="addr:housenumber" v="1456"/>
    <tag k="addr:street" v="Branch Hill Road"/>
    <tag k="addr:state" v="VT"/>
    <tag k="ref:vcgi:esiteid" v="198967"/>
  </node>
  <node id="-457" visible="true" lat="42.76205917" lon="-72.96384298">
    <tag k="addr:city" v="Readsboro"/>
    <tag k="addr:housenumber" v="1546"/>
    <tag k="addr:street" v="Branch Hill Road"/>
    <tag k="addr:state" v="VT"/>
    <tag k="ref:vcgi:esiteid" v="198968"/>
  </node>
  <node id="-458" visible="true" lat="42.76195941" lon="-72.9657692">
    <tag k="addr:city" v="Readsboro"/>
    <tag k="addr:housenumber" v="1548"/>
    <tag k="addr:street" v="Branch Hill Road"/>
    <tag k="addr:state" v="VT"/>
    <tag k="ref:vcgi:esiteid" v="198969"/>
  </node>
  <node id="-459" visible="true" lat="42.76154162" lon="-72.97410522">
    <tag k="addr:city" v="Readsboro"/>
    <tag k="addr:housenumber" v="488"/>
    <tag k="addr:street" v="Goldmine Road"/>
    <tag k="addr:state" v="VT"/>
    <tag k="ref:vcgi:esiteid" v="198970"/>
  </node>
  <node id="-461" visible="true" lat="42.76101528" lon="-72.9611539">
    <tag k="addr:city" v="Readsboro"/>
    <tag k="addr:housenumber" v="1621"/>
    <tag k="addr:street" v="Branch Hill Road"/>
    <tag k="addr:state" v="VT"/>
    <tag k="ref:vcgi:esiteid" v="198972"/>
  </node>
  <node id="-462" visible="true" lat="42.75997121" lon="-72.99050715">
    <tag k="addr:city" v="Readsboro"/>
    <tag k="addr:housenumber" v="786"/>
    <tag k="addr:street" v="Smith Drive"/>
    <tag k="addr:state" v="VT"/>
    <tag k="ref:vcgi:esiteid" v="198973"/>
  </node>
  <node id="-463" visible="true" lat="42.75939894" lon="-72.96248576">
    <tag k="addr:city" v="Readsboro"/>
    <tag k="addr:housenumber" v="1693"/>
    <tag k="addr:street" v="Branch Hill Road"/>
    <tag k="addr:state" v="VT"/>
    <tag k="ref:vcgi:esiteid" v="198974"/>
  </node>
  <node id="-464" visible="true" lat="42.75934222" lon="-72.95326974">
    <tag k="addr:city" v="Readsboro"/>
    <tag k="addr:housenumber" v="706"/>
    <tag k="addr:street" v="John Birch Drive"/>
    <tag k="addr:state" v="VT"/>
    <tag k="ref:vcgi:esiteid" v="198975"/>
  </node>
  <node id="-465" visible="true" lat="42.75953114" lon="-72.96319139">
    <tag k="addr:city" v="Readsboro"/>
    <tag k="addr:housenumber" v="12"/>
    <tag k="addr:street" v="West Hill Drive"/>
    <tag k="addr:state" v="VT"/>
    <tag k="ref:vcgi:esiteid" v="198976"/>
  </node>
  <node id="-466" visible="true" lat="42.75978662" lon="-72.98693417">
    <tag k="addr:city" v="Readsboro"/>
    <tag k="addr:housenumber" v="600"/>
    <tag k="addr:street" v="Smith Drive"/>
    <tag k="addr:state" v="VT"/>
    <tag k="ref:vcgi:esiteid" v="198977"/>
  </node>
  <node id="-467" visible="true" lat="42.75926024" lon="-72.98571963">
    <tag k="addr:city" v="Readsboro"/>
    <tag k="addr:housenumber" v="540"/>
    <tag k="addr:street" v="Smith Drive"/>
    <tag k="addr:state" v="VT"/>
    <tag k="ref:vcgi:esiteid" v="198978"/>
  </node>
  <node id="-469" visible="true" lat="42.75899045" lon="-72.95981975">
    <tag k="addr:city" v="Readsboro"/>
    <tag k="addr:housenumber" v="2130"/>
    <tag k="addr:street" v="Bosley Hill Road"/>
    <tag k="addr:state" v="VT"/>
    <tag k="ref:vcgi:esiteid" v="198980"/>
  </node>
  <node id="-470" visible="true" lat="42.75887141" lon="-72.96488758">
    <tag k="addr:city" v="Readsboro"/>
    <tag k="addr:housenumber" v="94"/>
    <tag k="addr:street" v="West Hill Drive"/>
    <tag k="addr:state" v="VT"/>
    <tag k="ref:vcgi:esiteid" v="198981"/>
  </node>
  <node id="-471" visible="true" lat="42.75880088" lon="-72.95427062">
    <tag k="addr:city" v="Readsboro"/>
    <tag k="addr:housenumber" v="708"/>
    <tag k="addr:street" v="John Birch Drive"/>
    <tag k="addr:state" v="VT"/>
    <tag k="ref:vcgi:esiteid" v="198982"/>
  </node>
  <node id="-472" visible="true" lat="42.7586545" lon="-72.95387639">
    <tag k="addr:city" v="Readsboro"/>
    <tag k="addr:housenumber" v="710"/>
    <tag k="addr:street" v="John Birch Drive"/>
    <tag k="addr:state" v="VT"/>
    <tag k="ref:vcgi:esiteid" v="198983"/>
  </node>
  <node id="-473" visible="true" lat="42.75824476" lon="-72.9862397">
    <tag k="addr:city" v="Readsboro"/>
    <tag k="addr:housenumber" v="561"/>
    <tag k="addr:street" v="Smith Drive"/>
    <tag k="addr:state" v="VT"/>
    <tag k="ref:vcgi:esiteid" v="198984"/>
  </node>
  <node id="-474" visible="true" lat="42.75825966" lon="-72.98879731">
    <tag k="addr:city" v="Readsboro"/>
    <tag k="addr:housenumber" v="661"/>
    <tag k="addr:street" v="Smith Drive"/>
    <tag k="addr:state" v="VT"/>
    <tag k="ref:vcgi:esiteid" v="198985"/>
  </node>
  <node id="-475" visible="true" lat="42.75807725" lon="-72.98299611">
    <tag k="addr:city" v="Readsboro"/>
    <tag k="addr:housenumber" v="369"/>
    <tag k="addr:street" v="Smith Drive"/>
    <tag k="addr:state" v="VT"/>
    <tag k="ref:vcgi:esiteid" v="198986"/>
  </node>
  <node id="-476" visible="true" lat="42.75753239" lon="-72.98086818">
    <tag k="addr:city" v="Readsboro"/>
    <tag k="addr:housenumber" v="238"/>
    <tag k="addr:street" v="Smith Drive"/>
    <tag k="addr:state" v="VT"/>
    <tag k="ref:vcgi:esiteid" v="198987"/>
  </node>
  <node id="-477" visible="true" lat="42.75728946" lon="-72.97223898">
    <tag k="addr:city" v="Readsboro"/>
    <tag k="addr:housenumber" v="130"/>
    <tag k="addr:street" v="Goldmine Road"/>
    <tag k="addr:state" v="VT"/>
    <tag k="ref:vcgi:esiteid" v="198988"/>
  </node>
  <node id="-478" visible="true" lat="42.75476883" lon="-73.0002476">
    <tag k="addr:city" v="Readsboro"/>
    <tag k="addr:housenumber" v="3556"/>
    <tag k="addr:street" v="West Hill Drive"/>
    <tag k="addr:state" v="VT"/>
    <tag k="ref:vcgi:esiteid" v="198989"/>
  </node>
  <node id="-479" visible="true" lat="42.75645866" lon="-72.93049484">
    <tag k="addr:city" v="Readsboro"/>
    <tag k="addr:housenumber" v="1525"/>
    <tag k="addr:street" v="Tunnel Street"/>
    <tag k="addr:state" v="VT"/>
    <tag k="ref:vcgi:esiteid" v="198990"/>
  </node>
  <node id="-480" visible="true" lat="42.75571442" lon="-72.95844269">
    <tag k="addr:city" v="Readsboro"/>
    <tag k="addr:housenumber" v="53"/>
    <tag k="addr:street" v="Bill T Drive"/>
    <tag k="addr:state" v="VT"/>
    <tag k="ref:vcgi:esiteid" v="198991"/>
  </node>
  <node id="-481" visible="true" lat="42.75530092" lon="-72.95656735">
    <tag k="addr:city" v="Readsboro"/>
    <tag k="addr:housenumber" v="1806"/>
    <tag k="addr:street" v="Bosley Hill Road"/>
    <tag k="addr:state" v="VT"/>
    <tag k="ref:vcgi:esiteid" v="198992"/>
  </node>
  <node id="-482" visible="true" lat="42.7550663" lon="-72.94674563">
    <tag k="addr:city" v="Readsboro"/>
    <tag k="addr:housenumber" v="368"/>
    <tag k="addr:street" v="Bowen Drive"/>
    <tag k="addr:state" v="VT"/>
    <tag k="ref:vcgi:esiteid" v="198993"/>
  </node>
  <node id="-483" visible="true" lat="42.75475972" lon="-72.9817925">
    <tag k="addr:city" v="Readsboro"/>
    <tag k="addr:housenumber" v="140"/>
    <tag k="addr:street" v="Odonnell Drive"/>
    <tag k="addr:state" v="VT"/>
    <tag k="ref:vcgi:esiteid" v="198994"/>
  </node>
  <node id="-484" visible="true" lat="42.75460725" lon="-73.0068076">
    <tag k="addr:city" v="Readsboro"/>
    <tag k="addr:housenumber" v="3157"/>
    <tag k="addr:street" v="West Hill Drive"/>
    <tag k="addr:state" v="VT"/>
    <tag k="ref:vcgi:esiteid" v="198995"/>
  </node>
  <node id="-485" visible="true" lat="42.75426831" lon="-73.00051027">
    <tag k="addr:city" v="Readsboro"/>
    <tag k="addr:housenumber" v="3513"/>
    <tag k="addr:street" v="West Hill Drive"/>
    <tag k="addr:state" v="VT"/>
    <tag k="ref:vcgi:esiteid" v="198996"/>
  </node>
  <node id="-486" visible="true" lat="42.75335024" lon="-73.00792656">
    <tag k="addr:city" v="Readsboro"/>
    <tag k="addr:housenumber" v="3149"/>
    <tag k="addr:street" v="West Hill Drive"/>
    <tag k="addr:state" v="VT"/>
    <tag k="ref:vcgi:esiteid" v="198997"/>
  </node>
  <node id="-487" visible="true" lat="42.75318937" lon="-72.95650188">
    <tag k="addr:city" v="Readsboro"/>
    <tag k="addr:housenumber" v="193"/>
    <tag k="addr:street" v="Bill T Drive"/>
    <tag k="addr:state" v="VT"/>
    <tag k="ref:vcgi:esiteid" v="198998"/>
  </node>
  <node id="-488" visible="true" lat="42.75261746" lon="-73.00577499">
    <tag k="addr:city" v="Readsboro"/>
    <tag k="addr:housenumber" v="3066"/>
    <tag k="addr:street" v="West Hill Drive"/>
    <tag k="addr:state" v="VT"/>
    <tag k="ref:vcgi:esiteid" v="198999"/>
  </node>
  <node id="-489" visible="true" lat="42.75269725" lon="-73.00129662">
    <tag k="addr:city" v="Readsboro"/>
    <tag k="addr:housenumber" v="3420"/>
    <tag k="addr:street" v="West Hill Drive"/>
    <tag k="addr:state" v="VT"/>
    <tag k="ref:vcgi:esiteid" v="199000"/>
  </node>
  <node id="-490" visible="true" lat="42.75270849" lon="-72.94946715">
    <tag k="addr:city" v="Readsboro"/>
    <tag k="addr:housenumber" v="79"/>
    <tag k="addr:street" v="Bowen Drive"/>
    <tag k="addr:state" v="VT"/>
    <tag k="ref:vcgi:esiteid" v="199001"/>
  </node>
  <node id="-491" visible="true" lat="42.75241984" lon="-72.98078045">
    <tag k="addr:city" v="Readsboro"/>
    <tag k="addr:housenumber" v="1149"/>
    <tag k="addr:street" v="West Hill Drive"/>
    <tag k="addr:state" v="VT"/>
    <tag k="ref:vcgi:esiteid" v="199002"/>
  </node>
  <node id="-492" visible="true" lat="42.75255385" lon="-72.95958022">
    <tag k="addr:city" v="Readsboro"/>
    <tag k="addr:housenumber" v="304"/>
    <tag k="addr:street" v="Bill T Drive"/>
    <tag k="addr:state" v="VT"/>
    <tag k="ref:vcgi:esiteid" v="199003"/>
  </node>
  <node id="-493" visible="true" lat="42.75243742" lon="-72.95834799">
    <tag k="addr:city" v="Readsboro"/>
    <tag k="addr:housenumber" v="89"/>
    <tag k="addr:street" v="Lee Road"/>
    <tag k="addr:state" v="VT"/>
    <tag k="ref:vcgi:esiteid" v="199004"/>
  </node>
  <node id="-494" visible="true" lat="42.75203775" lon="-72.9530363">
    <tag k="addr:city" v="Readsboro"/>
    <tag k="addr:housenumber" v="1518"/>
    <tag k="addr:street" v="Bosley Hill Road"/>
    <tag k="addr:state" v="VT"/>
    <tag k="ref:vcgi:esiteid" v="199005"/>
  </node>
  <node id="-495" visible="true" lat="42.75214632" lon="-72.94790328">
    <tag k="addr:city" v="Readsboro"/>
    <tag k="addr:housenumber" v="66"/>
    <tag k="addr:street" v="Bowen Drive"/>
    <tag k="addr:state" v="VT"/>
    <tag k="ref:vcgi:esiteid" v="199006"/>
  </node>
  <node id="-496" visible="true" lat="42.75214414" lon="-72.95795681">
    <tag k="addr:city" v="Readsboro"/>
    <tag k="addr:housenumber" v="86"/>
    <tag k="addr:street" v="Lee Road"/>
    <tag k="addr:state" v="VT"/>
    <tag k="ref:vcgi:esiteid" v="199007"/>
  </node>
  <node id="-497" visible="true" lat="42.75191638" lon="-72.95202159">
    <tag k="addr:city" v="Readsboro"/>
    <tag k="addr:housenumber" v="1464"/>
    <tag k="addr:street" v="Bosley Hill Road"/>
    <tag k="addr:state" v="VT"/>
    <tag k="ref:vcgi:esiteid" v="199008"/>
  </node>
  <node id="-498" visible="true" lat="42.75174843" lon="-72.95133483">
    <tag k="addr:city" v="Readsboro"/>
    <tag k="addr:housenumber" v="1426"/>
    <tag k="addr:street" v="Bosley Hill Road"/>
    <tag k="addr:state" v="VT"/>
    <tag k="ref:vcgi:esiteid" v="199009"/>
  </node>
  <node id="-499" visible="true" lat="42.75152545" lon="-72.95917722">
    <tag k="addr:city" v="Readsboro"/>
    <tag k="addr:housenumber" v="30"/>
    <tag k="addr:street" v="Lee Road"/>
    <tag k="addr:state" v="VT"/>
    <tag k="ref:vcgi:esiteid" v="199010"/>
  </node>
  <node id="-500" visible="true" lat="42.7515533" lon="-72.93981551">
    <tag k="addr:city" v="Readsboro"/>
    <tag k="addr:housenumber" v="792"/>
    <tag k="addr:street" v="Bosley Hill Road"/>
    <tag k="addr:state" v="VT"/>
    <tag k="ref:vcgi:esiteid" v="199011"/>
  </node>
  <node id="-501" visible="true" lat="42.75124509" lon="-72.98199267">
    <tag k="addr:city" v="Readsboro"/>
    <tag k="addr:housenumber" v="1273"/>
    <tag k="addr:street" v="West Hill Drive"/>
    <tag k="addr:state" v="VT"/>
    <tag k="ref:vcgi:esiteid" v="199012"/>
  </node>
  <node id="-502" visible="true" lat="42.75116425" lon="-73.01433082">
    <tag k="addr:city" v="Readsboro"/>
    <tag k="addr:housenumber" v="462"/>
    <tag k="addr:street" v="Wiley Mountain Road"/>
    <tag k="addr:state" v="VT"/>
    <tag k="ref:vcgi:esiteid" v="199013"/>
  </node>
  <node id="-503" visible="true" lat="42.75107092" lon="-72.98258658">
    <tag k="addr:city" v="Readsboro"/>
    <tag k="addr:housenumber" v="1291"/>
    <tag k="addr:street" v="West Hill Drive"/>
    <tag k="addr:state" v="VT"/>
    <tag k="ref:vcgi:esiteid" v="199014"/>
  </node>
  <node id="-504" visible="true" lat="42.7509766" lon="-72.9503806">
    <tag k="addr:city" v="Readsboro"/>
    <tag k="addr:housenumber" v="1359"/>
    <tag k="addr:street" v="Bosley Hill Road"/>
    <tag k="addr:state" v="VT"/>
    <tag k="ref:vcgi:esiteid" v="199015"/>
  </node>
  <node id="-505" visible="true" lat="42.75061891" lon="-73.01756208">
    <tag k="addr:city" v="Readsboro"/>
    <tag k="addr:housenumber" v="634"/>
    <tag k="addr:street" v="Wiley Mountain Road"/>
    <tag k="addr:state" v="VT"/>
    <tag k="ref:vcgi:esiteid" v="199016"/>
  </node>
  <node id="-506" visible="true" lat="42.7506062" lon="-72.95120454">
    <tag k="addr:city" v="Readsboro"/>
    <tag k="addr:housenumber" v="74"/>
    <tag k="addr:street" v="Shippee Road"/>
    <tag k="addr:state" v="VT"/>
    <tag k="ref:vcgi:esiteid" v="199017"/>
  </node>
  <node id="-507" visible="true" lat="42.74988405" lon="-72.98435784">
    <tag k="addr:city" v="Readsboro"/>
    <tag k="addr:housenumber" v="1408"/>
    <tag k="addr:street" v="West Hill Drive"/>
    <tag k="addr:state" v="VT"/>
    <tag k="ref:vcgi:esiteid" v="199018"/>
  </node>
  <node id="-508" visible="true" lat="42.74942857" lon="-73.01793914">
    <tag k="addr:city" v="Readsboro"/>
    <tag k="addr:housenumber" v="639"/>
    <tag k="addr:street" v="Wiley Mountain Road"/>
    <tag k="addr:state" v="VT"/>
    <tag k="ref:vcgi:esiteid" v="199020"/>
  </node>
  <node id="-509" visible="true" lat="42.74977806" lon="-72.95135174">
    <tag k="addr:city" v="Readsboro"/>
    <tag k="addr:housenumber" v="111"/>
    <tag k="addr:street" v="Shippee Road"/>
    <tag k="addr:state" v="VT"/>
    <tag k="ref:vcgi:esiteid" v="199021"/>
  </node>
  <node id="-510" visible="true" lat="42.74963654" lon="-72.9605947">
    <tag k="addr:city" v="Readsboro"/>
    <tag k="addr:housenumber" v="492"/>
    <tag k="addr:street" v="Bill T Drive"/>
    <tag k="addr:state" v="VT"/>
    <tag k="ref:vcgi:esiteid" v="199022"/>
  </node>
  <node id="-511" visible="true" lat="42.74960159" lon="-73.00773167">
    <tag k="addr:city" v="Readsboro"/>
    <tag k="addr:housenumber" v="87"/>
    <tag k="addr:street" v="Wiley Mountain Road"/>
    <tag k="addr:state" v="VT"/>
    <tag k="ref:vcgi:esiteid" v="199023"/>
  </node>
  <node id="-512" visible="true" lat="42.74868752" lon="-72.9606153">
    <tag k="addr:city" v="Readsboro"/>
    <tag k="addr:housenumber" v="556"/>
    <tag k="addr:street" v="Bill T Drive"/>
    <tag k="addr:state" v="VT"/>
    <tag k="ref:vcgi:esiteid" v="199024"/>
  </node>
  <node id="-513" visible="true" lat="42.74866136" lon="-73.00380893">
    <tag k="addr:city" v="Readsboro"/>
    <tag k="addr:housenumber" v="2800"/>
    <tag k="addr:street" v="West Hill Drive"/>
    <tag k="addr:state" v="VT"/>
    <tag k="ref:vcgi:esiteid" v="199025"/>
  </node>
  <node id="-514" visible="true" lat="42.74876945" lon="-72.98415199">
    <tag k="addr:city" v="Readsboro"/>
    <tag k="addr:housenumber" v="99"/>
    <tag k="addr:street" v="Johnny Cake Hill Lane"/>
    <tag k="addr:state" v="VT"/>
    <tag k="ref:vcgi:esiteid" v="199026"/>
  </node>
  <node id="-515" visible="true" lat="42.74865514" lon="-72.98948332">
    <tag k="addr:city" v="Readsboro"/>
    <tag k="addr:housenumber" v="1680"/>
    <tag k="addr:street" v="West Hill Drive"/>
    <tag k="addr:state" v="VT"/>
    <tag k="ref:vcgi:esiteid" v="199027"/>
  </node>
  <node id="-516" visible="true" lat="42.74807418" lon="-73.00645677">
    <tag k="addr:city" v="Readsboro"/>
    <tag k="addr:housenumber" v="2745"/>
    <tag k="addr:street" v="West Hill Drive"/>
    <tag k="addr:state" v="VT"/>
    <tag k="ref:vcgi:esiteid" v="199028"/>
  </node>
  <node id="-517" visible="true" lat="42.74776864" lon="-72.96086801">
    <tag k="addr:city" v="Readsboro"/>
    <tag k="addr:housenumber" v="614"/>
    <tag k="addr:street" v="Bill T Drive"/>
    <tag k="addr:state" v="VT"/>
    <tag k="ref:vcgi:esiteid" v="199029"/>
  </node>
  <node id="-518" visible="true" lat="42.74758719" lon="-72.93316198">
    <tag k="addr:city" v="Readsboro"/>
    <tag k="addr:housenumber" v="396"/>
    <tag k="addr:street" v="Bosley Hill Road"/>
    <tag k="addr:state" v="VT"/>
    <tag k="ref:vcgi:esiteid" v="199030"/>
  </node>
  <node id="-519" visible="true" lat="42.74664673" lon="-72.95098237">
    <tag k="addr:city" v="Readsboro"/>
    <tag k="addr:housenumber" v="451"/>
    <tag k="addr:street" v="Shippee Road"/>
    <tag k="addr:state" v="VT"/>
    <tag k="ref:vcgi:esiteid" v="199031"/>
  </node>
  <node id="-520" visible="true" lat="42.74628335" lon="-73.00703048">
    <tag k="addr:city" v="Readsboro"/>
    <tag k="addr:housenumber" v="34"/>
    <tag k="addr:street" v="Turner Road"/>
    <tag k="addr:state" v="VT"/>
    <tag k="ref:vcgi:esiteid" v="199032"/>
  </node>
  <node id="-521" visible="true" lat="42.74593137" lon="-73.00203675">
    <tag k="addr:city" v="Readsboro"/>
    <tag k="addr:housenumber" v="2455"/>
    <tag k="addr:street" v="West Hill Drive"/>
    <tag k="addr:state" v="VT"/>
    <tag k="ref:vcgi:esiteid" v="199033"/>
  </node>
  <node id="-522" visible="true" lat="42.74600428" lon="-72.95139373">
    <tag k="addr:city" v="Readsboro"/>
    <tag k="addr:housenumber" v="478"/>
    <tag k="addr:street" v="Shippee Road"/>
    <tag k="addr:state" v="VT"/>
    <tag k="ref:vcgi:esiteid" v="199034"/>
  </node>
  <node id="-523" visible="true" lat="42.74529367" lon="-72.98516072">
    <tag k="addr:city" v="Readsboro"/>
    <tag k="addr:housenumber" v="104"/>
    <tag k="addr:street" v="Johnny Cake Hill Lane"/>
    <tag k="addr:state" v="VT"/>
    <tag k="ref:vcgi:esiteid" v="199035"/>
  </node>
  <node id="-524" visible="true" lat="42.74561294" lon="-72.94939012">
    <tag k="addr:city" v="Readsboro"/>
    <tag k="addr:housenumber" v="598"/>
    <tag k="addr:street" v="Shippee Road"/>
    <tag k="addr:state" v="VT"/>
    <tag k="ref:vcgi:esiteid" v="199036"/>
  </node>
  <node id="-525" visible="true" lat="42.74500208" lon="-73.00698033">
    <tag k="addr:city" v="Readsboro"/>
    <tag k="addr:housenumber" v="129"/>
    <tag k="addr:street" v="Turner Road"/>
    <tag k="addr:state" v="VT"/>
    <tag k="ref:vcgi:esiteid" v="199037"/>
  </node>
  <node id="-526" visible="true" lat="42.74507426" lon="-72.94918201">
    <tag k="addr:city" v="Readsboro"/>
    <tag k="addr:housenumber" v="644"/>
    <tag k="addr:street" v="Shippee Road"/>
    <tag k="addr:state" v="VT"/>
    <tag k="ref:vcgi:esiteid" v="199038"/>
  </node>
  <node id="-527" visible="true" lat="42.74510259" lon="-72.94795533">
    <tag k="addr:city" v="Readsboro"/>
    <tag k="addr:housenumber" v="663"/>
    <tag k="addr:street" v="Shippee Road"/>
    <tag k="addr:state" v="VT"/>
    <tag k="ref:vcgi:esiteid" v="199039"/>
  </node>
  <node id="-528" visible="true" lat="42.7447426" lon="-72.9931201">
    <tag k="addr:city" v="Readsboro"/>
    <tag k="addr:housenumber" v="1987"/>
    <tag k="addr:street" v="West Hill Drive"/>
    <tag k="addr:state" v="VT"/>
    <tag k="ref:vcgi:esiteid" v="199040"/>
  </node>
  <node id="-529" visible="true" lat="42.74461471" lon="-73.00915122">
    <tag k="addr:city" v="Readsboro"/>
    <tag k="addr:housenumber" v="285"/>
    <tag k="addr:street" v="Turner Road"/>
    <tag k="addr:state" v="VT"/>
    <tag k="ref:vcgi:esiteid" v="199041"/>
  </node>
  <node id="-530" visible="true" lat="42.74455964" lon="-72.99769253">
    <tag k="addr:city" v="Readsboro"/>
    <tag k="addr:housenumber" v="2301"/>
    <tag k="addr:street" v="West Hill Drive"/>
    <tag k="addr:state" v="VT"/>
    <tag k="ref:vcgi:esiteid" v="199042"/>
  </node>
  <node id="-531" visible="true" lat="42.74468302" lon="-72.9463587">
    <tag k="addr:city" v="Readsboro"/>
    <tag k="addr:housenumber" v="673"/>
    <tag k="addr:street" v="Shippee Road"/>
    <tag k="addr:state" v="VT"/>
    <tag k="ref:vcgi:esiteid" v="199043"/>
  </node>
  <node id="-532" visible="true" lat="42.74401444" lon="-72.94763482">
    <tag k="addr:city" v="Readsboro"/>
    <tag k="addr:housenumber" v="713"/>
    <tag k="addr:street" v="Shippee Road"/>
    <tag k="addr:state" v="VT"/>
    <tag k="ref:vcgi:esiteid" v="199044"/>
  </node>
  <node id="-533" visible="true" lat="42.74352053" lon="-73.00905668">
    <tag k="addr:city" v="Readsboro"/>
    <tag k="addr:housenumber" v="383"/>
    <tag k="addr:street" v="Turner Road"/>
    <tag k="addr:state" v="VT"/>
    <tag k="ref:vcgi:esiteid" v="199045"/>
  </node>
  <node id="-534" visible="true" lat="42.74259616" lon="-72.94787633">
    <tag k="addr:city" v="Readsboro"/>
    <tag k="addr:housenumber" v="841"/>
    <tag k="addr:street" v="Shippee Road"/>
    <tag k="addr:state" v="VT"/>
    <tag k="ref:vcgi:esiteid" v="199046"/>
  </node>
  <node id="-535" visible="true" lat="42.74261466" lon="-72.94951151">
    <tag k="addr:city" v="Readsboro"/>
    <tag k="addr:housenumber" v="714"/>
    <tag k="addr:street" v="Shippee Road"/>
    <tag k="addr:state" v="VT"/>
    <tag k="ref:vcgi:esiteid" v="199047"/>
  </node>
  <node id="-536" visible="true" lat="42.74253069" lon="-73.01201922">
    <tag k="addr:city" v="Readsboro"/>
    <tag k="addr:housenumber" v="476"/>
    <tag k="addr:street" v="Turner Road"/>
    <tag k="addr:state" v="VT"/>
    <tag k="ref:vcgi:esiteid" v="199048"/>
  </node>
  <node id="-537" visible="true" lat="42.74155715" lon="-72.94857709">
    <tag k="addr:city" v="Readsboro"/>
    <tag k="addr:housenumber" v="915"/>
    <tag k="addr:street" v="Shippee Road"/>
    <tag k="addr:state" v="VT"/>
    <tag k="ref:vcgi:esiteid" v="199049"/>
  </node>
  <node id="-538" visible="true" lat="42.74089936" lon="-72.94956809">
    <tag k="addr:city" v="Readsboro"/>
    <tag k="addr:housenumber" v="952"/>
    <tag k="addr:street" v="Shippee Road"/>
    <tag k="addr:state" v="VT"/>
    <tag k="ref:vcgi:esiteid" v="199050"/>
  </node>
  <node id="-539" visible="true" lat="42.73989499" lon="-72.94903134">
    <tag k="addr:city" v="Readsboro"/>
    <tag k="addr:housenumber" v="1018"/>
    <tag k="addr:street" v="Shippee Road"/>
    <tag k="addr:state" v="VT"/>
    <tag k="ref:vcgi:esiteid" v="199051"/>
  </node>
  <node id="-540" visible="true" lat="42.81240917" lon="-72.9431004">
    <tag k="addr:city" v="Readsboro"/>
    <tag k="addr:housenumber" v="833"/>
    <tag k="addr:street" v="Freezing Hole Drive"/>
    <tag k="addr:state" v="VT"/>
    <tag k="ref:vcgi:esiteid" v="199052"/>
  </node>
  <node id="-541" visible="true" lat="42.74989964" lon="-72.96742074">
    <tag k="addr:city" v="Readsboro"/>
    <tag k="addr:housenumber" v="542"/>
    <tag k="addr:street" v="Day Lane"/>
    <tag k="addr:state" v="VT"/>
    <tag k="ref:vcgi:esiteid" v="199054"/>
  </node>
  <node id="-542" visible="true" lat="42.75268997" lon="-72.96184259">
    <tag k="addr:city" v="Readsboro"/>
    <tag k="addr:housenumber" v="157"/>
    <tag k="addr:street" v="Day Lane"/>
    <tag k="addr:state" v="VT"/>
    <tag k="ref:vcgi:esiteid" v="199055"/>
  </node>
  <node id="-545" visible="true" lat="42.80064134" lon="-73.01599633">
    <tag k="addr:city" v="Readsboro"/>
    <tag k="addr:housenumber" v="105"/>
    <tag k="addr:street" v="Rondeau Road"/>
    <tag k="addr:state" v="VT"/>
    <tag k="ref:vcgi:esiteid" v="247379"/>
  </node>
  <node id="-546" visible="true" lat="42.81942661" lon="-73.00891582">
    <tag k="addr:city" v="Readsboro"/>
    <tag k="addr:housenumber" v="133"/>
    <tag k="addr:street" v="Mattenberg Avenue"/>
    <tag k="addr:state" v="VT"/>
    <tag k="ref:vcgi:esiteid" v="325172"/>
  </node>
  <node id="-547" visible="true" lat="42.75686406" lon="-73.00039342">
    <tag k="addr:city" v="Readsboro"/>
    <tag k="addr:housenumber" v="3712"/>
    <tag k="addr:street" v="West Hill Drive"/>
    <tag k="addr:state" v="VT"/>
    <tag k="ref:vcgi:esiteid" v="329638"/>
  </node>
  <node id="-548" visible="true" lat="42.74589597" lon="-72.99953179">
    <tag k="addr:city" v="Readsboro"/>
    <tag k="addr:housenumber" v="2319"/>
    <tag k="addr:street" v="West Hill Drive"/>
    <tag k="addr:state" v="VT"/>
    <tag k="ref:vcgi:esiteid" v="334256"/>
  </node>
  <node id="-549" visible="true" lat="42.75183653" lon="-73.00535976">
    <tag k="addr:city" v="Readsboro"/>
    <tag k="addr:housenumber" v="2994"/>
    <tag k="addr:street" v="West Hill Drive"/>
    <tag k="addr:state" v="VT"/>
    <tag k="ref:vcgi:esiteid" v="334258"/>
  </node>
  <node id="-550" visible="true" lat="42.75126272" lon="-73.00543355">
    <tag k="addr:city" v="Readsboro"/>
    <tag k="addr:housenumber" v="2960"/>
    <tag k="addr:street" v="West Hill Drive"/>
    <tag k="addr:state" v="VT"/>
    <tag k="ref:vcgi:esiteid" v="334259"/>
  </node>
  <node id="-551" visible="true" lat="42.75151235" lon="-73.00655974">
    <tag k="addr:city" v="Readsboro"/>
    <tag k="addr:housenumber" v="2979"/>
    <tag k="addr:street" v="West Hill Drive"/>
    <tag k="addr:state" v="VT"/>
    <tag k="ref:vcgi:esiteid" v="334260"/>
  </node>
  <node id="-552" visible="true" lat="42.75513319" lon="-72.99886739">
    <tag k="addr:city" v="Readsboro"/>
    <tag k="addr:housenumber" v="3628"/>
    <tag k="addr:street" v="West Hill Drive"/>
    <tag k="addr:state" v="VT"/>
    <tag k="ref:vcgi:esiteid" v="334857"/>
  </node>
  <node id="-553" visible="true" lat="42.77227178" lon="-72.9513741">
    <tag k="addr:city" v="Readsboro"/>
    <tag k="addr:housenumber" v="91"/>
    <tag k="addr:street" v="Lemaire Drive"/>
    <tag k="addr:state" v="VT"/>
    <tag k="ref:vcgi:esiteid" v="338607"/>
  </node>
  <node id="-554" visible="true" lat="42.75880512" lon="-72.9304671">
    <tag k="addr:city" v="Readsboro"/>
    <tag k="addr:housenumber" v="1096"/>
    <tag k="addr:street" v="Harriman Station Drive"/>
    <tag k="addr:state" v="VT"/>
    <tag k="ref:vcgi:esiteid" v="339150"/>
  </node>
  <node id="-555" visible="true" lat="42.80797507" lon="-73.01415734">
    <tag k="addr:city" v="Readsboro"/>
    <tag k="addr:housenumber" v="211"/>
    <tag k="addr:street" v="Heartwellville View Road"/>
    <tag k="addr:state" v="VT"/>
    <tag k="ref:vcgi:esiteid" v="342097"/>
  </node>
  <node id="-556" visible="true" lat="42.80351756" lon="-73.01275899">
    <tag k="addr:city" v="Readsboro"/>
    <tag k="addr:housenumber" v="530"/>
    <tag k="addr:street" v="Heartwellville View Road"/>
    <tag k="addr:state" v="VT"/>
    <tag k="ref:vcgi:esiteid" v="342098"/>
  </node>
  <node id="-557" visible="true" lat="42.80902636" lon="-73.01310431">
    <tag k="addr:city" v="Readsboro"/>
    <tag k="addr:housenumber" v="925"/>
    <tag k="addr:street" v="Heartwellville View Road"/>
    <tag k="addr:state" v="VT"/>
    <tag k="ref:vcgi:esiteid" v="342099"/>
  </node>
  <node id="-558" visible="true" lat="42.82153968" lon="-73.0088534">
    <tag k="addr:city" v="Readsboro"/>
    <tag k="addr:housenumber" v="250"/>
    <tag k="addr:street" v="Mattenberg Avenue"/>
    <tag k="addr:state" v="VT"/>
    <tag k="ref:vcgi:esiteid" v="342100"/>
  </node>
  <node id="-559" visible="true" lat="42.82232109" lon="-73.0068387">
    <tag k="addr:city" v="Readsboro"/>
    <tag k="addr:housenumber" v="200"/>
    <tag k="addr:street" v="Lebensdorf Lane"/>
    <tag k="addr:state" v="VT"/>
    <tag k="ref:vcgi:esiteid" v="342101"/>
  </node>
  <node id="-560" visible="true" lat="42.82302898" lon="-73.0072659">
    <tag k="addr:city" v="Readsboro"/>
    <tag k="addr:housenumber" v="258"/>
    <tag k="addr:street" v="Lebensdorf Lane"/>
    <tag k="addr:state" v="VT"/>
    <tag k="ref:vcgi:esiteid" v="342102"/>
  </node>
  <node id="-561" visible="true" lat="42.82315849" lon="-73.0105803">
    <tag k="addr:city" v="Readsboro"/>
    <tag k="addr:housenumber" v="240"/>
    <tag k="addr:street" v="Oberdorf Road"/>
    <tag k="addr:state" v="VT"/>
    <tag k="ref:vcgi:esiteid" v="342103"/>
  </node>
  <node id="-562" visible="true" lat="42.82312532" lon="-73.01182123">
    <tag k="addr:city" v="Readsboro"/>
    <tag k="addr:housenumber" v="225"/>
    <tag k="addr:street" v="Oberdorf Road"/>
    <tag k="addr:state" v="VT"/>
    <tag k="ref:vcgi:esiteid" v="342104"/>
  </node>
  <node id="-563" visible="true" lat="42.82427952" lon="-73.0120544">
    <tag k="addr:city" v="Readsboro"/>
    <tag k="addr:housenumber" v="331"/>
    <tag k="addr:street" v="Oberdorf Road"/>
    <tag k="addr:state" v="VT"/>
    <tag k="ref:vcgi:esiteid" v="342105"/>
  </node>
  <node id="-564" visible="true" lat="42.82116863" lon="-73.00268179">
    <tag k="addr:city" v="Readsboro"/>
    <tag k="addr:housenumber" v="1132"/>
    <tag k="addr:street" v="Vermont Route 100"/>
    <tag k="addr:state" v="VT"/>
    <tag k="ref:vcgi:esiteid" v="342106"/>
  </node>
  <node id="-568" visible="true" lat="42.8228688" lon="-73.00175895">
    <tag k="addr:city" v="Readsboro"/>
    <tag k="addr:housenumber" v="1136"/>
    <tag k="addr:street" v="Vermont Route 100"/>
    <tag k="addr:state" v="VT"/>
    <tag k="ref:vcgi:esiteid" v="342110"/>
  </node>
  <node id="-569" visible="true" lat="42.82117688" lon="-72.99551388">
    <tag k="addr:city" v="Readsboro"/>
    <tag k="addr:housenumber" v="487"/>
    <tag k="addr:street" v="Rue Madeline"/>
    <tag k="addr:state" v="VT"/>
    <tag k="ref:vcgi:esiteid" v="342111"/>
  </node>
  <node id="-570" visible="true" lat="42.81949195" lon="-72.99324503">
    <tag k="addr:city" v="Readsboro"/>
    <tag k="addr:housenumber" v="750"/>
    <tag k="addr:street" v="Rue Madeline"/>
    <tag k="addr:state" v="VT"/>
    <tag k="ref:vcgi:esiteid" v="342112"/>
  </node>
  <node id="-571" visible="true" lat="42.79536096" lon="-72.98444907">
    <tag k="addr:city" v="Readsboro"/>
    <tag k="addr:housenumber" v="2185"/>
    <tag k="addr:street" v="Howe Pond Road"/>
    <tag k="addr:state" v="VT"/>
    <tag k="ref:vcgi:esiteid" v="344179"/>
  </node>
  <node id="-572" visible="true" lat="42.74970813" lon="-72.9510743">
    <tag k="addr:city" v="Readsboro"/>
    <tag k="addr:housenumber" v="113"/>
    <tag k="addr:street" v="Shippee Road"/>
    <tag k="addr:state" v="VT"/>
    <tag k="ref:vcgi:esiteid" v="344187"/>
  </node>
  <node id="-573" visible="true" lat="42.77310299" lon="-72.96919598">
    <tag k="addr:city" v="Readsboro"/>
    <tag k="addr:housenumber" v="395"/>
    <tag k="addr:street" v="Ross Road"/>
    <tag k="addr:state" v="VT"/>
    <tag k="ref:vcgi:esiteid" v="344188"/>
  </node>
  <node id="-574" visible="true" lat="42.82006976" lon="-72.99104271">
    <tag k="addr:city" v="Readsboro"/>
    <tag k="addr:housenumber" v="741"/>
    <tag k="addr:street" v="Rue Madeline"/>
    <tag k="addr:state" v="VT"/>
    <tag k="ref:vcgi:esiteid" v="345601"/>
  </node>
  <node id="-575" visible="true" lat="42.81886486" lon="-72.99263794">
    <tag k="addr:city" v="Readsboro"/>
    <tag k="addr:housenumber" v="816"/>
    <tag k="addr:street" v="Rue Madeline"/>
    <tag k="addr:state" v="VT"/>
    <tag k="ref:vcgi:esiteid" v="345604"/>
  </node>
  <node id="-576" visible="true" lat="42.81360598" lon="-72.9942623">
    <tag k="addr:city" v="Readsboro"/>
    <tag k="addr:housenumber" v="1056"/>
    <tag k="addr:street" v="Rue Madeline"/>
    <tag k="addr:state" v="VT"/>
    <tag k="ref:vcgi:esiteid" v="345605"/>
  </node>
  <node id="-577" visible="true" lat="42.81543522" lon="-72.99370746">
    <tag k="addr:city" v="Readsboro"/>
    <tag k="addr:housenumber" v="1040"/>
    <tag k="addr:street" v="Rue Madeline"/>
    <tag k="addr:state" v="VT"/>
    <tag k="ref:vcgi:esiteid" v="445458"/>
  </node>
  <node id="-578" visible="true" lat="42.82113914" lon="-73.00052631">
    <tag k="addr:city" v="Readsboro"/>
    <tag k="addr:housenumber" v="247"/>
    <tag k="addr:street" v="Rue Madeline"/>
    <tag k="addr:state" v="VT"/>
    <tag k="ref:vcgi:esiteid" v="445459"/>
  </node>
  <node id="-579" visible="true" lat="42.77028174" lon="-72.94806097">
    <tag k="addr:city" v="Readsboro"/>
    <tag k="addr:housenumber" v="118"/>
    <tag k="addr:street" v="Tunnel Street"/>
    <tag k="addr:state" v="VT"/>
    <tag k="ref:vcgi:esiteid" v="446387"/>
  </node>
  <node id="-584" visible="true" lat="42.82087933" lon="-73.00463449">
    <tag k="addr:city" v="Readsboro"/>
    <tag k="addr:housenumber" v="11"/>
    <tag k="addr:street" v="Rue Madeline"/>
    <tag k="addr:state" v="VT"/>
    <tag k="ref:vcgi:esiteid" v="449727"/>
  </node>
  <node id="-585" visible="true" lat="42.81546187" lon="-72.99203774">
    <tag k="addr:city" v="Readsboro"/>
    <tag k="addr:housenumber" v="1087"/>
    <tag k="addr:street" v="Rue Madeline"/>
    <tag k="addr:state" v="VT"/>
    <tag k="ref:vcgi:esiteid" v="449728"/>
  </node>
  <node id="-586" visible="true" lat="42.82678686" lon="-72.96298447">
    <tag k="addr:city" v="Readsboro"/>
    <tag k="addr:housenumber" v="3417"/>
    <tag k="addr:street" v="Vermont Route 100"/>
    <tag k="addr:state" v="VT"/>
    <tag k="ref:vcgi:esiteid" v="449729"/>
  </node>
  <node id="-587" visible="true" lat="42.80222775" lon="-72.98187625">
    <tag k="addr:city" v="Readsboro"/>
    <tag k="addr:housenumber" v="2810"/>
    <tag k="addr:street" v="Howe Pond Road"/>
    <tag k="addr:state" v="VT"/>
    <tag k="ref:vcgi:esiteid" v="449730"/>
  </node>
  <node id="-588" visible="true" lat="42.79942806" lon="-72.98498976">
    <tag k="addr:city" v="Readsboro"/>
    <tag k="addr:housenumber" v="2495"/>
    <tag k="addr:street" v="Howe Pond Road"/>
    <tag k="addr:state" v="VT"/>
    <tag k="ref:vcgi:esiteid" v="449731"/>
  </node>
  <node id="-590" visible="true" lat="42.80232283" lon="-72.94297927">
    <tag k="addr:city" v="Readsboro"/>
    <tag k="addr:housenumber" v="2180"/>
    <tag k="addr:street" v="King Hill Road"/>
    <tag k="addr:state" v="VT"/>
    <tag k="ref:vcgi:esiteid" v="449733"/>
  </node>
  <node id="-591" visible="true" lat="42.8029074" lon="-72.93983084">
    <tag k="addr:city" v="Readsboro"/>
    <tag k="addr:housenumber" v="1964"/>
    <tag k="addr:street" v="King Hill Road"/>
    <tag k="addr:state" v="VT"/>
    <tag k="ref:vcgi:esiteid" v="449734"/>
  </node>
  <node id="-595" visible="true" lat="42.78681505" lon="-72.99849232">
    <tag k="addr:city" v="Readsboro"/>
    <tag k="addr:housenumber" v="825"/>
    <tag k="addr:street" v="Case Lane"/>
    <tag k="addr:state" v="VT"/>
    <tag k="ref:vcgi:esiteid" v="449740"/>
  </node>
  <node id="-596" visible="true" lat="42.79736349" lon="-72.99554601">
    <tag k="addr:city" v="Readsboro"/>
    <tag k="addr:housenumber" v="680"/>
    <tag k="addr:street" v="Daubneys Drive"/>
    <tag k="addr:state" v="VT"/>
    <tag k="ref:vcgi:esiteid" v="449741"/>
  </node>
  <node id="-597" visible="true" lat="42.79913524" lon="-73.0033804">
    <tag k="addr:city" v="Readsboro"/>
    <tag k="addr:housenumber" v="1131"/>
    <tag k="addr:street" v="Daubneys Drive"/>
    <tag k="addr:state" v="VT"/>
    <tag k="ref:vcgi:esiteid" v="449742"/>
  </node>
  <node id="-598" visible="true" lat="42.79551207" lon="-72.94485874">
    <tag k="addr:city" v="Readsboro"/>
    <tag k="addr:housenumber" v="1232"/>
    <tag k="addr:street" v="Potter Hill Road"/>
    <tag k="addr:state" v="VT"/>
    <tag k="ref:vcgi:esiteid" v="449743"/>
  </node>
  <node id="-599" visible="true" lat="42.78689228" lon="-72.93712817">
    <tag k="addr:city" v="Readsboro"/>
    <tag k="addr:housenumber" v="786"/>
    <tag k="addr:street" v="King Hill Road"/>
    <tag k="addr:state" v="VT"/>
    <tag k="ref:vcgi:esiteid" v="449744"/>
  </node>
  <node id="-600" visible="true" lat="42.79302064" lon="-72.93834014">
    <tag k="addr:city" v="Readsboro"/>
    <tag k="addr:housenumber" v="1260"/>
    <tag k="addr:street" v="King Hill Road"/>
    <tag k="addr:state" v="VT"/>
    <tag k="ref:vcgi:esiteid" v="449750"/>
  </node>
  <node id="-601" visible="true" lat="42.79308039" lon="-72.9395307">
    <tag k="addr:city" v="Readsboro"/>
    <tag k="addr:housenumber" v="1257"/>
    <tag k="addr:street" v="King Hill Road"/>
    <tag k="addr:state" v="VT"/>
    <tag k="ref:vcgi:esiteid" v="449751"/>
  </node>
  <node id="-602" visible="true" lat="42.7949182" lon="-72.93806973">
    <tag k="addr:city" v="Readsboro"/>
    <tag k="addr:housenumber" v="1349"/>
    <tag k="addr:street" v="King Hill Road"/>
    <tag k="addr:state" v="VT"/>
    <tag k="ref:vcgi:esiteid" v="449752"/>
  </node>
  <node id="-603" visible="true" lat="42.75921502" lon="-72.9827152">
    <tag k="addr:city" v="Readsboro"/>
    <tag k="addr:housenumber" v="390"/>
    <tag k="addr:street" v="Smith Drive"/>
    <tag k="addr:state" v="VT"/>
    <tag k="ref:vcgi:esiteid" v="449753"/>
  </node>
  <node id="-604" visible="true" lat="42.76014004" lon="-72.98386211">
    <tag k="addr:city" v="Readsboro"/>
    <tag k="addr:housenumber" v="438"/>
    <tag k="addr:street" v="Smith Drive"/>
    <tag k="addr:state" v="VT"/>
    <tag k="ref:vcgi:esiteid" v="449754"/>
  </node>
  <node id="-605" visible="true" lat="42.7575286" lon="-72.97367712">
    <tag k="addr:city" v="Readsboro"/>
    <tag k="addr:housenumber" v="207"/>
    <tag k="addr:street" v="Goldmine Road"/>
    <tag k="addr:state" v="VT"/>
    <tag k="ref:vcgi:esiteid" v="449755"/>
  </node>
  <node id="-606" visible="true" lat="42.75835547" lon="-72.97461876">
    <tag k="addr:city" v="Readsboro"/>
    <tag k="addr:housenumber" v="283"/>
    <tag k="addr:street" v="Goldmine Road"/>
    <tag k="addr:state" v="VT"/>
    <tag k="ref:vcgi:esiteid" v="449756"/>
  </node>
  <node id="-607" visible="true" lat="42.76872007" lon="-72.97469388">
    <tag k="addr:city" v="Readsboro"/>
    <tag k="addr:housenumber" v="1033"/>
    <tag k="addr:street" v="Goldmine Road"/>
    <tag k="addr:state" v="VT"/>
    <tag k="ref:vcgi:esiteid" v="449757"/>
  </node>
  <node id="-609" visible="true" lat="42.77247665" lon="-72.97458678">
    <tag k="addr:city" v="Readsboro"/>
    <tag k="addr:housenumber" v="1258"/>
    <tag k="addr:street" v="Goldmine Road"/>
    <tag k="addr:state" v="VT"/>
    <tag k="ref:vcgi:esiteid" v="449759"/>
  </node>
  <node id="-610" visible="true" lat="42.76551508" lon="-72.95748794">
    <tag k="addr:city" v="Readsboro"/>
    <tag k="addr:housenumber" v="219"/>
    <tag k="addr:street" v="John Birch Drive"/>
    <tag k="addr:state" v="VT"/>
    <tag k="ref:vcgi:esiteid" v="449760"/>
  </node>
  <node id="-611" visible="true" lat="42.76314667" lon="-72.95697722">
    <tag k="addr:city" v="Readsboro"/>
    <tag k="addr:housenumber" v="326"/>
    <tag k="addr:street" v="John Birch Drive"/>
    <tag k="addr:state" v="VT"/>
    <tag k="ref:vcgi:esiteid" v="449761"/>
  </node>
  <node id="-612" visible="true" lat="42.76304508" lon="-72.95605166">
    <tag k="addr:city" v="Readsboro"/>
    <tag k="addr:housenumber" v="397"/>
    <tag k="addr:street" v="John Birch Drive"/>
    <tag k="addr:state" v="VT"/>
    <tag k="ref:vcgi:esiteid" v="449762"/>
  </node>
  <node id="-613" visible="true" lat="42.76389328" lon="-72.94462865">
    <tag k="addr:city" v="Readsboro"/>
    <tag k="addr:housenumber" v="605"/>
    <tag k="addr:street" v="Tunnel Street"/>
    <tag k="addr:state" v="VT"/>
    <tag k="ref:vcgi:esiteid" v="449763"/>
  </node>
  <node id="-614" visible="true" lat="42.74687254" lon="-73.00098809">
    <tag k="addr:city" v="Readsboro"/>
    <tag k="addr:housenumber" v="2406"/>
    <tag k="addr:street" v="West Hill Drive"/>
    <tag k="addr:state" v="VT"/>
    <tag k="ref:vcgi:esiteid" v="449765"/>
  </node>
  <node id="-615" visible="true" lat="42.75598353" lon="-73.0072995">
    <tag k="addr:city" v="Readsboro"/>
    <tag k="addr:housenumber" v="3153"/>
    <tag k="addr:street" v="West Hill Drive"/>
    <tag k="addr:state" v="VT"/>
    <tag k="ref:vcgi:esiteid" v="449766"/>
  </node>
  <node id="-616" visible="true" lat="42.75130138" lon="-73.01616168">
    <tag k="addr:city" v="Readsboro"/>
    <tag k="addr:housenumber" v="602"/>
    <tag k="addr:street" v="Wiley Mountain Road"/>
    <tag k="addr:state" v="VT"/>
    <tag k="ref:vcgi:esiteid" v="449767"/>
  </node>
  <node id="-617" visible="true" lat="42.75097435" lon="-72.94288077">
    <tag k="addr:city" v="Readsboro"/>
    <tag k="addr:housenumber" v="895"/>
    <tag k="addr:street" v="Bosley Hill Road"/>
    <tag k="addr:state" v="VT"/>
    <tag k="ref:vcgi:esiteid" v="449769"/>
  </node>
  <node id="-618" visible="true" lat="42.74829938" lon="-72.95942286">
    <tag k="addr:city" v="Readsboro"/>
    <tag k="addr:housenumber" v="611"/>
    <tag k="addr:street" v="Bill T Drive"/>
    <tag k="addr:state" v="VT"/>
    <tag k="ref:vcgi:esiteid" v="449770"/>
  </node>
  <node id="-619" visible="true" lat="42.75301013" lon="-72.95370733">
    <tag k="addr:city" v="Readsboro"/>
    <tag k="addr:housenumber" v="1608"/>
    <tag k="addr:street" v="Bosley Hill Road"/>
    <tag k="addr:state" v="VT"/>
    <tag k="ref:vcgi:esiteid" v="449771"/>
  </node>
  <node id="-620" visible="true" lat="42.74586683" lon="-72.94781981">
    <tag k="addr:city" v="Readsboro"/>
    <tag k="addr:housenumber" v="639"/>
    <tag k="addr:street" v="Shippee Road"/>
    <tag k="addr:state" v="VT"/>
    <tag k="ref:vcgi:esiteid" v="449772"/>
  </node>
  <node id="-621" visible="true" lat="42.74302199" lon="-72.94740897">
    <tag k="addr:city" v="Readsboro"/>
    <tag k="addr:housenumber" v="799"/>
    <tag k="addr:street" v="Shippee Road"/>
    <tag k="addr:state" v="VT"/>
    <tag k="ref:vcgi:esiteid" v="449773"/>
  </node>
  <node id="-622" visible="true" lat="42.74400407" lon="-72.94425375">
    <tag k="addr:city" v="Readsboro"/>
    <tag k="addr:housenumber" v="759"/>
    <tag k="addr:street" v="Shippee Road"/>
    <tag k="addr:state" v="VT"/>
    <tag k="ref:vcgi:esiteid" v="449774"/>
  </node>
  <node id="-623" visible="true" lat="42.8207471" lon="-73.0060148">
    <tag k="addr:city" v="Readsboro"/>
    <tag k="addr:housenumber" v="989"/>
    <tag k="addr:street" v="Vermont Route 100"/>
    <tag k="addr:state" v="VT"/>
    <tag k="ref:vcgi:esiteid" v="449775"/>
  </node>
  <node id="-625" visible="true" lat="42.76990976" lon="-72.9354862">
    <tag k="addr:city" v="Readsboro"/>
    <tag k="addr:housenumber" v="7688"/>
    <tag k="addr:street" v="Vermont Route 100"/>
    <tag k="addr:state" v="VT"/>
    <tag k="ref:vcgi:esiteid" v="449777"/>
  </node>
  <node id="-626" visible="true" lat="42.77191842" lon="-72.94794461">
    <tag k="addr:city" v="Readsboro"/>
    <tag k="addr:housenumber" v="7038"/>
    <tag k="addr:street" v="Main Street"/>
    <tag k="addr:state" v="VT"/>
    <tag k="ref:vcgi:esiteid" v="449778"/>
  </node>
  <node id="-627" visible="true" lat="42.7719904" lon="-72.94220191">
    <tag k="addr:city" v="Readsboro"/>
    <tag k="addr:housenumber" v="212"/>
    <tag k="addr:street" v="Phelps Lane"/>
    <tag k="addr:state" v="VT"/>
    <tag k="ref:vcgi:esiteid" v="449779"/>
  </node>
  <node id="-628" visible="true" lat="42.76910106" lon="-72.94736161">
    <tag k="addr:city" v="Readsboro"/>
    <tag k="addr:housenumber" v="213"/>
    <tag k="addr:street" v="Tunnel Street"/>
    <tag k="addr:state" v="VT"/>
    <tag k="ref:vcgi:esiteid" v="449780"/>
  </node>
  <node id="-629" visible="true" lat="42.74662937" lon="-72.99901555">
    <tag k="addr:city" v="Readsboro"/>
    <tag k="addr:housenumber" v="2298"/>
    <tag k="addr:street" v="West Hill Drive"/>
    <tag k="addr:state" v="VT"/>
    <tag k="ref:vcgi:esiteid" v="455177"/>
  </node>
  <node id="-630" visible="true" lat="42.7697517" lon="-72.93502298">
    <tag k="addr:city" v="Readsboro"/>
    <tag k="addr:housenumber" v="7726"/>
    <tag k="addr:street" v="Vermont Route 100"/>
    <tag k="addr:state" v="VT"/>
    <tag k="ref:vcgi:esiteid" v="455319"/>
  </node>
  <node id="-631" visible="true" lat="42.77787577" lon="-72.95161764">
    <tag k="addr:city" v="Readsboro"/>
    <tag k="addr:housenumber" v="6487"/>
    <tag k="addr:street" v="Vermont Route 100"/>
    <tag k="addr:state" v="VT"/>
    <tag k="ref:vcgi:esiteid" v="455320"/>
  </node>
  <node id="-635" visible="true" lat="42.75870797" lon="-72.92992577">
    <tag k="addr:city" v="Readsboro"/>
    <tag k="addr:housenumber" v="1123"/>
    <tag k="addr:street" v="Harriman Station Drive"/>
    <tag k="addr:state" v="VT"/>
    <tag k="ref:vcgi:esiteid" v="611303"/>
  </node>
  <node id="-636" visible="true" lat="42.75877287" lon="-72.9304046">
    <tag k="addr:city" v="Readsboro"/>
    <tag k="addr:housenumber" v="1098"/>
    <tag k="addr:street" v="Harriman Station Drive"/>
    <tag k="addr:state" v="VT"/>
    <tag k="ref:vcgi:esiteid" v="611304"/>
  </node>
  <node id="-638" visible="true" lat="42.77974698" lon="-72.94038138">
    <tag k="addr:city" v="Readsboro"/>
    <tag k="addr:housenumber" v="121"/>
    <tag k="addr:street" v="King Hill Road"/>
    <tag k="addr:state" v="VT"/>
    <tag k="ref:vcgi:esiteid" v="612306"/>
  </node>
  <node id="-639" visible="true" lat="42.76838073" lon="-72.94138066">
    <tag k="addr:city" v="Readsboro"/>
    <tag k="addr:housenumber" v="89"/>
    <tag k="addr:street" v="Grinka Farm Drive"/>
    <tag k="addr:state" v="VT"/>
    <tag k="ref:vcgi:esiteid" v="612307"/>
  </node>
  <node id="-640" visible="true" lat="42.81355608" lon="-72.93932909">
    <tag k="addr:city" v="Readsboro"/>
    <tag k="addr:housenumber" v="1120"/>
    <tag k="addr:street" v="Freezing Hole Drive"/>
    <tag k="addr:state" v="VT"/>
    <tag k="ref:vcgi:esiteid" v="612308"/>
  </node>
  <node id="-641" visible="true" lat="42.82057332" lon="-73.00080455">
    <tag k="addr:city" v="Readsboro"/>
    <tag k="addr:housenumber" v="232"/>
    <tag k="addr:street" v="Rue Madeline"/>
    <tag k="addr:state" v="VT"/>
    <tag k="ref:vcgi:esiteid" v="612309"/>
  </node>
  <node id="-642" visible="true" lat="42.8139318" lon="-73.01376173">
    <tag k="addr:city" v="Readsboro"/>
    <tag k="addr:housenumber" v="886"/>
    <tag k="addr:street" v="Sportsmen Road"/>
    <tag k="addr:state" v="VT"/>
    <tag k="ref:vcgi:esiteid" v="615637"/>
  </node>
  <node id="-643" visible="true" lat="42.81914225" lon="-73.00595974">
    <tag k="addr:city" v="Readsboro"/>
    <tag k="addr:housenumber" v="910"/>
    <tag k="addr:street" v="Vermont Route 100"/>
    <tag k="addr:state" v="VT"/>
    <tag k="ref:vcgi:esiteid" v="617779"/>
  </node>
  <node id="-644" visible="true" lat="42.76593533" lon="-72.9830267">
    <tag k="addr:city" v="Readsboro"/>
    <tag k="addr:housenumber" v="535"/>
    <tag k="addr:street" v="Town Highway 17"/>
    <tag k="addr:state" v="VT"/>
    <tag k="ref:vcgi:esiteid" v="620398"/>
  </node>
  <node id="-645" visible="true" lat="42.76511134" lon="-72.9810177">
    <tag k="addr:city" v="Readsboro"/>
    <tag k="addr:housenumber" v="488"/>
    <tag k="addr:street" v="Town Highway 17"/>
    <tag k="addr:state" v="VT"/>
    <tag k="ref:vcgi:esiteid" v="620399"/>
  </node>
  <node id="-646" visible="true" lat="42.74492492" lon="-72.99116098">
    <tag k="addr:city" v="Readsboro"/>
    <tag k="addr:housenumber" v="1895"/>
    <tag k="addr:street" v="West Hill Drive"/>
    <tag k="addr:state" v="VT"/>
    <tag k="ref:vcgi:esiteid" v="620400"/>
  </node>
  <node id="-647" visible="true" lat="42.84931978" lon="-72.99702179">
    <tag k="addr:city" v="Readsboro"/>
    <tag k="addr:housenumber" v="1325"/>
    <tag k="addr:street" v="Vermont Route 8"/>
    <tag k="addr:state" v="VT"/>
    <tag k="ref:vcgi:esiteid" v="750490"/>
  </node>
  <node id="-648" visible="true" lat="42.82779058" lon="-73.00972714">
    <tag k="addr:city" v="Readsboro"/>
    <tag k="addr:housenumber" v="270"/>
    <tag k="addr:street" v="Valley View Road"/>
    <tag k="addr:state" v="VT"/>
    <tag k="ref:vcgi:esiteid" v="750491"/>
  </node>
  <node id="-649" visible="true" lat="42.81536135" lon="-72.97313418">
    <tag k="addr:city" v="Readsboro"/>
    <tag k="addr:housenumber" v="3395"/>
    <tag k="addr:street" v="Vermont Route 100"/>
    <tag k="addr:state" v="VT"/>
    <tag k="ref:vcgi:esiteid" v="750492"/>
  </node>
  <node id="-650" visible="true" lat="42.81172724" lon="-72.9684093">
    <tag k="addr:city" v="Readsboro"/>
    <tag k="addr:housenumber" v="269"/>
    <tag k="addr:street" v="Bailey Hill Road"/>
    <tag k="addr:state" v="VT"/>
    <tag k="ref:vcgi:esiteid" v="750493"/>
  </node>
  <node id="-651" visible="true" lat="42.80145082" lon="-72.95400196">
    <tag k="addr:city" v="Readsboro"/>
    <tag k="addr:housenumber" v="1342"/>
    <tag k="addr:street" v="Bailey Hill Road"/>
    <tag k="addr:state" v="VT"/>
    <tag k="ref:vcgi:esiteid" v="750494"/>
  </node>
  <node id="-652" visible="true" lat="42.7962633" lon="-72.99067222">
    <tag k="addr:city" v="Readsboro"/>
    <tag k="addr:housenumber" v="366"/>
    <tag k="addr:street" v="Daubneys Drive"/>
    <tag k="addr:state" v="VT"/>
    <tag k="ref:vcgi:esiteid" v="750495"/>
  </node>
  <node id="-653" visible="true" lat="42.79658378" lon="-72.99147684">
    <tag k="addr:city" v="Readsboro"/>
    <tag k="addr:housenumber" v="400"/>
    <tag k="addr:street" v="Daubneys Drive"/>
    <tag k="addr:state" v="VT"/>
    <tag k="ref:vcgi:esiteid" v="750496"/>
  </node>
  <node id="-655" visible="true" lat="42.77898045" lon="-72.96916983">
    <tag k="addr:city" v="Readsboro"/>
    <tag k="addr:housenumber" v="601"/>
    <tag k="addr:street" v="Howe Pond Road"/>
    <tag k="addr:state" v="VT"/>
    <tag k="ref:vcgi:esiteid" v="750499"/>
  </node>
  <node id="-656" visible="true" lat="42.78019487" lon="-72.96924366">
    <tag k="addr:city" v="Readsboro"/>
    <tag k="addr:housenumber" v="718"/>
    <tag k="addr:street" v="Howe Pond Road"/>
    <tag k="addr:state" v="VT"/>
    <tag k="ref:vcgi:esiteid" v="750500"/>
  </node>
  <node id="-657" visible="true" lat="42.79812564" lon="-72.93473076">
    <tag k="addr:city" v="Readsboro"/>
    <tag k="addr:housenumber" v="1630"/>
    <tag k="addr:street" v="King Hill Road"/>
    <tag k="addr:state" v="VT"/>
    <tag k="ref:vcgi:esiteid" v="750501"/>
  </node>
  <node id="-658" visible="true" lat="42.769624" lon="-72.96491603">
    <tag k="addr:city" v="Readsboro"/>
    <tag k="addr:housenumber" v="944"/>
    <tag k="addr:street" v="Branch Hill Road"/>
    <tag k="addr:state" v="VT"/>
    <tag k="ref:vcgi:esiteid" v="750503"/>
  </node>
  <node id="-659" visible="true" lat="42.77266053" lon="-72.96737366">
    <tag k="addr:city" v="Readsboro"/>
    <tag k="addr:housenumber" v="471"/>
    <tag k="addr:street" v="Ross Road"/>
    <tag k="addr:state" v="VT"/>
    <tag k="ref:vcgi:esiteid" v="750504"/>
  </node>
  <node id="-660" visible="true" lat="42.77892593" lon="-72.95175722">
    <tag k="addr:city" v="Readsboro"/>
    <tag k="addr:housenumber" v="6409"/>
    <tag k="addr:street" v="Vermont Route 100"/>
    <tag k="addr:state" v="VT"/>
    <tag k="ref:vcgi:esiteid" v="750505"/>
  </node>
  <node id="-661" visible="true" lat="42.7664834" lon="-72.94665419">
    <tag k="addr:city" v="Readsboro"/>
    <tag k="addr:housenumber" v="432"/>
    <tag k="addr:street" v="Tunnel Street"/>
    <tag k="addr:state" v="VT"/>
    <tag k="ref:vcgi:esiteid" v="750506"/>
  </node>
  <node id="-662" visible="true" lat="42.76613407" lon="-72.94614253">
    <tag k="addr:city" v="Readsboro"/>
    <tag k="addr:housenumber" v="434"/>
    <tag k="addr:street" v="Tunnel Street"/>
    <tag k="addr:state" v="VT"/>
    <tag k="ref:vcgi:esiteid" v="750507"/>
  </node>
  <node id="-663" visible="true" lat="42.74499982" lon="-72.99223153">
    <tag k="addr:city" v="Readsboro"/>
    <tag k="addr:housenumber" v="1949"/>
    <tag k="addr:street" v="West Hill Drive"/>
    <tag k="addr:state" v="VT"/>
    <tag k="ref:vcgi:esiteid" v="750508"/>
  </node>
  <node id="-664" visible="true" lat="42.74625017" lon="-72.9962312">
    <tag k="addr:city" v="Readsboro"/>
    <tag k="addr:housenumber" v="2166"/>
    <tag k="addr:street" v="West Hill Drive"/>
    <tag k="addr:state" v="VT"/>
    <tag k="ref:vcgi:esiteid" v="750509"/>
  </node>
  <node id="-665" visible="true" lat="42.74684187" lon="-72.99753763">
    <tag k="addr:city" v="Readsboro"/>
    <tag k="addr:housenumber" v="2174"/>
    <tag k="addr:street" v="West Hill Drive"/>
    <tag k="addr:state" v="VT"/>
    <tag k="ref:vcgi:esiteid" v="750510"/>
  </node>
  <node id="-666" visible="true" lat="42.74439819" lon="-73.01029463">
    <tag k="addr:city" v="Readsboro"/>
    <tag k="addr:housenumber" v="296"/>
    <tag k="addr:street" v="Turner Road"/>
    <tag k="addr:state" v="VT"/>
    <tag k="ref:vcgi:esiteid" v="750511"/>
  </node>
  <node id="-667" visible="true" lat="42.74382943" lon="-73.01125037">
    <tag k="addr:city" v="Readsboro"/>
    <tag k="addr:housenumber" v="384"/>
    <tag k="addr:street" v="Turner Road"/>
    <tag k="addr:state" v="VT"/>
    <tag k="ref:vcgi:esiteid" v="750512"/>
  </node>
  <node id="-668" visible="true" lat="42.75176734" lon="-73.01513574">
    <tag k="addr:city" v="Readsboro"/>
    <tag k="addr:housenumber" v="548"/>
    <tag k="addr:street" v="Wiley Mountain Road"/>
    <tag k="addr:state" v="VT"/>
    <tag k="ref:vcgi:esiteid" v="750513"/>
  </node>
  <node id="-669" visible="true" lat="42.75651526" lon="-72.97697729">
    <tag k="addr:city" v="Readsboro"/>
    <tag k="addr:housenumber" v="140"/>
    <tag k="addr:street" v="Smith Drive"/>
    <tag k="addr:state" v="VT"/>
    <tag k="ref:vcgi:esiteid" v="750514"/>
  </node>
  <node id="-670" visible="true" lat="42.75331506" lon="-72.96339449">
    <tag k="addr:city" v="Readsboro"/>
    <tag k="addr:housenumber" v="228"/>
    <tag k="addr:street" v="Day Lane"/>
    <tag k="addr:state" v="VT"/>
    <tag k="ref:vcgi:esiteid" v="750515"/>
  </node>
  <node id="-671" visible="true" lat="42.75599696" lon="-72.9592644">
    <tag k="addr:city" v="Readsboro"/>
    <tag k="addr:housenumber" v="50"/>
    <tag k="addr:street" v="Bill T Drive"/>
    <tag k="addr:state" v="VT"/>
    <tag k="ref:vcgi:esiteid" v="750516"/>
  </node>
  <node id="-672" visible="true" lat="42.75045957" lon="-72.95917503">
    <tag k="addr:city" v="Readsboro"/>
    <tag k="addr:housenumber" v="459"/>
    <tag k="addr:street" v="Bill T Drive"/>
    <tag k="addr:state" v="VT"/>
    <tag k="ref:vcgi:esiteid" v="750517"/>
  </node>
  <node id="-673" visible="true" lat="42.78778592" lon="-72.99920483">
    <tag k="addr:city" v="Readsboro"/>
    <tag k="addr:housenumber" v="904"/>
    <tag k="addr:street" v="Case Lane"/>
    <tag k="addr:state" v="VT"/>
    <tag k="ref:vcgi:esiteid" v="754420"/>
  </node>
  <node id="-674" visible="true" lat="42.74290199" lon="-72.98519922">
    <tag k="addr:city" v="Readsboro"/>
    <tag k="addr:housenumber" v="479"/>
    <tag k="addr:street" v="Johnny Cake Hill Lane"/>
    <tag k="addr:state" v="VT"/>
    <tag k="ref:vcgi:esiteid" v="754421"/>
  </node>
  <node id="-675" visible="true" lat="42.74141624" lon="-72.98732035">
    <tag k="addr:city" v="Readsboro"/>
    <tag k="addr:housenumber" v="480"/>
    <tag k="addr:street" v="Johnny Cake Hill Lane"/>
    <tag k="addr:state" v="VT"/>
    <tag k="ref:vcgi:esiteid" v="754422"/>
  </node>
  <node id="-676" visible="true" lat="42.74317428" lon="-72.98838112">
    <tag k="addr:city" v="Readsboro"/>
    <tag k="addr:housenumber" v="440"/>
    <tag k="addr:street" v="Johnny Cake Hill Lane"/>
    <tag k="addr:state" v="VT"/>
    <tag k="ref:vcgi:esiteid" v="754423"/>
  </node>
  <node id="-677" visible="true" lat="42.79882847" lon="-72.98523">
    <tag k="addr:city" v="Readsboro"/>
    <tag k="addr:housenumber" v="2373"/>
    <tag k="addr:street" v="Howe Pond Road"/>
    <tag k="addr:state" v="VT"/>
    <tag k="ref:vcgi:esiteid" v="754493"/>
  </node>
  <node id="-678" visible="true" lat="42.7478765" lon="-72.99725222">
    <tag k="addr:city" v="Readsboro"/>
    <tag k="addr:housenumber" v="2176"/>
    <tag k="addr:street" v="West Hill Drive"/>
    <tag k="addr:state" v="VT"/>
    <tag k="ref:vcgi:esiteid" v="754494"/>
  </node>
  <node id="-679" visible="true" lat="42.82407459" lon="-73.00238807">
    <tag k="addr:city" v="Readsboro"/>
    <tag k="addr:housenumber" v="1304"/>
    <tag k="addr:street" v="Vermont Route 100"/>
    <tag k="addr:state" v="VT"/>
    <tag k="ref:vcgi:esiteid" v="754495"/>
  </node>
  <node id="-680" visible="true" lat="42.8042856" lon="-72.96268131">
    <tag k="addr:city" v="Readsboro"/>
    <tag k="addr:housenumber" v="838"/>
    <tag k="addr:street" v="Bailey Hill Road"/>
    <tag k="addr:state" v="VT"/>
    <tag k="ref:vcgi:esiteid" v="754496"/>
  </node>
  <node id="-681" visible="true" lat="42.81687613" lon="-73.0074244">
    <tag k="addr:city" v="Readsboro"/>
    <tag k="addr:housenumber" v="65"/>
    <tag k="addr:street" v="Alpendorf Avenue"/>
    <tag k="addr:state" v="VT"/>
    <tag k="ref:vcgi:esiteid" v="755671"/>
  </node>
  <node id="-682" visible="true" lat="42.75031995" lon="-73.0046003">
    <tag k="addr:city" v="Readsboro"/>
    <tag k="addr:housenumber" v="2912"/>
    <tag k="addr:street" v="West Hill Drive"/>
    <tag k="addr:state" v="VT"/>
    <tag k="ref:vcgi:esiteid" v="755673"/>
  </node>
  <node id="-683" visible="true" lat="42.80186448" lon="-72.95565416">
    <tag k="addr:city" v="Readsboro"/>
    <tag k="addr:housenumber" v="1276"/>
    <tag k="addr:street" v="Bailey Hill Road"/>
    <tag k="addr:state" v="VT"/>
    <tag k="ref:vcgi:esiteid" v="755674"/>
  </node>
  <node id="-684" visible="true" lat="42.80793682" lon="-72.94507592">
    <tag k="addr:city" v="Readsboro"/>
    <tag k="addr:housenumber" v="505"/>
    <tag k="addr:street" v="Freezing Hole Drive"/>
    <tag k="addr:state" v="VT"/>
    <tag k="ref:vcgi:esiteid" v="756645"/>
  </node>
  <node id="-685" visible="true" lat="42.82626644" lon="-73.01111255">
    <tag k="addr:city" v="Readsboro"/>
    <tag k="addr:housenumber" v="299"/>
    <tag k="addr:street" v="Alpenwald Lane"/>
    <tag k="addr:state" v="VT"/>
    <tag k="ref:vcgi:esiteid" v="757303"/>
  </node>
  <node id="-686" visible="true" lat="42.82699412" lon="-73.01217019">
    <tag k="addr:city" v="Readsboro"/>
    <tag k="addr:housenumber" v="397"/>
    <tag k="addr:street" v="Alpenwald Lane"/>
    <tag k="addr:state" v="VT"/>
    <tag k="ref:vcgi:esiteid" v="757304"/>
  </node>
  <node id="-687" visible="true" lat="42.75166855" lon="-72.94550911">
    <tag k="addr:city" v="Readsboro"/>
    <tag k="addr:housenumber" v="1146"/>
    <tag k="addr:street" v="Bosley Hill Road"/>
    <tag k="addr:state" v="VT"/>
    <tag k="ref:vcgi:esiteid" v="757305"/>
  </node>
  <node id="-688" visible="true" lat="42.75152596" lon="-72.9499956">
    <tag k="addr:city" v="Readsboro"/>
    <tag k="addr:housenumber" v="1298"/>
    <tag k="addr:street" v="Bosley Hill Road"/>
    <tag k="addr:state" v="VT"/>
    <tag k="ref:vcgi:esiteid" v="757306"/>
  </node>
  <node id="-689" visible="true" lat="42.82253171" lon="-72.97946082">
    <tag k="addr:city" v="Readsboro"/>
    <tag k="addr:housenumber" v="2949"/>
    <tag k="addr:street" v="Vermont Route 100"/>
    <tag k="addr:state" v="VT"/>
    <tag k="ref:vcgi:esiteid" v="758622"/>
  </node>
  <node id="-690" visible="true" lat="42.74983828" lon="-73.01521519">
    <tag k="addr:city" v="Readsboro"/>
    <tag k="addr:housenumber" v="531"/>
    <tag k="addr:street" v="Wiley Mountain Road"/>
    <tag k="addr:state" v="VT"/>
    <tag k="ref:vcgi:esiteid" v="759562"/>
  </node>
  <node id="-691" visible="true" lat="42.74620434" lon="-72.99458277">
    <tag k="addr:city" v="Readsboro"/>
    <tag k="addr:housenumber" v="2072"/>
    <tag k="addr:street" v="West Hill Drive"/>
    <tag k="addr:state" v="VT"/>
    <tag k="ref:vcgi:esiteid" v="760526"/>
  </node>
  <node id="-692" visible="true" lat="42.80098242" lon="-72.95077003">
    <tag k="addr:city" v="Readsboro"/>
    <tag k="addr:housenumber" v="1577"/>
    <tag k="addr:street" v="Bailey Hill Road"/>
    <tag k="addr:state" v="VT"/>
    <tag k="ref:vcgi:esiteid" v="760626"/>
  </node>
  <node id="-693" visible="true" lat="42.75511355" lon="-72.97399034">
    <tag k="addr:city" v="Readsboro"/>
    <tag k="addr:housenumber" v="729"/>
    <tag k="addr:street" v="West Hill Drive"/>
    <tag k="addr:state" v="VT"/>
    <tag k="ref:vcgi:esiteid" v="761656"/>
  </node>
  <node id="-694" visible="true" lat="42.82203628" lon="-73.01451122">
    <tag k="addr:city" v="Readsboro"/>
    <tag k="addr:housenumber" v="762"/>
    <tag k="addr:street" v="Oberdorf Road"/>
    <tag k="addr:state" v="VT"/>
    <tag k="ref:vcgi:esiteid" v="762332"/>
  </node>
  <node id="-695" visible="true" lat="42.82356331" lon="-73.0128587">
    <tag k="addr:city" v="Readsboro"/>
    <tag k="addr:housenumber" v="631"/>
    <tag k="addr:street" v="Oberdorf Road"/>
    <tag k="addr:state" v="VT"/>
    <tag k="ref:vcgi:esiteid" v="762449"/>
  </node>
  <node id="-696" visible="true" lat="42.79816271" lon="-72.9830729">
    <tag k="addr:city" v="Readsboro"/>
    <tag k="addr:housenumber" v="2372"/>
    <tag k="addr:street" v="Howe Pond Road"/>
    <tag k="addr:state" v="VT"/>
    <tag k="ref:vcgi:esiteid" v="763594"/>
  </node>
  <node id="-697" visible="true" lat="42.78833929" lon="-72.98755126">
    <tag k="addr:city" v="Readsboro"/>
    <tag k="addr:housenumber" v="262"/>
    <tag k="addr:street" v="Case Lane"/>
    <tag k="addr:state" v="VT"/>
    <tag k="ref:vcgi:esiteid" v="764085"/>
  </node>
  <node id="-698" visible="true" lat="42.79473181" lon="-73.01506593">
    <tag k="addr:city" v="Readsboro"/>
    <tag k="addr:housenumber" v="2100"/>
    <tag k="addr:street" v="Case Lane"/>
    <tag k="addr:state" v="VT"/>
    <tag k="ref:vcgi:esiteid" v="764934"/>
  </node>
  <node id="-699" visible="true" lat="42.78759155" lon="-73.00096889">
    <tag k="addr:city" v="Readsboro"/>
    <tag k="addr:housenumber" v="914"/>
    <tag k="addr:street" v="Case Lane"/>
    <tag k="addr:state" v="VT"/>
    <tag k="ref:vcgi:esiteid" v="764935"/>
  </node>
  <node id="-700" visible="true" lat="42.7883351" lon="-72.94335277">
    <tag k="addr:city" v="Readsboro"/>
    <tag k="addr:housenumber" v="699"/>
    <tag k="addr:street" v="Potter Hill Road"/>
    <tag k="addr:state" v="VT"/>
    <tag k="ref:vcgi:esiteid" v="800013"/>
  </node>
  <node id="-701" visible="true" lat="42.82813498" lon="-72.98595352">
    <tag k="addr:city" v="Readsboro"/>
    <tag k="addr:housenumber" v="2271"/>
    <tag k="addr:street" v="Vermont Route 100"/>
    <tag k="addr:state" v="VT"/>
    <tag k="ref:vcgi:esiteid" v="800019"/>
  </node>
  <node id="-702" visible="true" lat="42.75494502" lon="-72.95715406">
    <tag k="addr:city" v="Readsboro"/>
    <tag k="addr:housenumber" v="1783"/>
    <tag k="addr:street" v="Bosley Hill Road"/>
    <tag k="addr:state" v="VT"/>
    <tag k="ref:vcgi:esiteid" v="800020"/>
  </node>
  <node id="-703" visible="true" lat="42.77535266" lon="-72.94375091">
    <tag k="addr:city" v="Readsboro"/>
    <tag k="addr:housenumber" v="268"/>
    <tag k="addr:street" v="East Main Street"/>
    <tag k="addr:state" v="VT"/>
    <tag k="ref:vcgi:esiteid" v="800021"/>
  </node>
  <node id="-704" visible="true" lat="42.80338975" lon="-72.98029535">
    <tag k="addr:city" v="Readsboro"/>
    <tag k="addr:housenumber" v="2941"/>
    <tag k="addr:street" v="Howe Pond Road"/>
    <tag k="addr:state" v="VT"/>
    <tag k="ref:vcgi:esiteid" v="900236"/>
  </node>
  <node id="-705" visible="true" lat="42.74964267" lon="-73.00602433">
    <tag k="addr:city" v="Readsboro"/>
    <tag k="addr:housenumber" v="2863"/>
    <tag k="addr:street" v="West Hill Drive"/>
    <tag k="addr:state" v="VT"/>
    <tag k="ref:vcgi:esiteid" v="1050143"/>
  </node>
  <node id="-706" visible="true" lat="42.76717" lon="-72.96117">
    <tag k="addr:city" v="Readsboro"/>
    <tag k="addr:housenumber" v="5"/>
    <tag k="addr:street" v="John Birch Drive"/>
    <tag k="addr:state" v="VT"/>
    <tag k="ref:vcgi:esiteid" v="1050144"/>
  </node>
  <node id="-707" visible="true" lat="42.77159254" lon="-72.93972475">
    <tag k="addr:city" v="Readsboro"/>
    <tag k="addr:housenumber" v="311"/>
    <tag k="addr:street" v="Phelps Lane"/>
    <tag k="addr:state" v="VT"/>
    <tag k="ref:vcgi:esiteid" v="1050145"/>
  </node>
  <node id="-708" visible="true" lat="42.82522424" lon="-73.00221696">
    <tag k="addr:city" v="Readsboro"/>
    <tag k="addr:housenumber" v="1384"/>
    <tag k="addr:street" v="Vermont Route 100"/>
    <tag k="addr:state" v="VT"/>
    <tag k="ref:vcgi:esiteid" v="1050149"/>
  </node>
  <node id="-709" visible="true" lat="42.82889466" lon="-72.98800649">
    <tag k="addr:city" v="Readsboro"/>
    <tag k="addr:housenumber" v="2181"/>
    <tag k="addr:street" v="Vermont Route 100"/>
    <tag k="addr:state" v="VT"/>
    <tag k="ref:vcgi:esiteid" v="1050150"/>
  </node>
  <node id="-717" visible="true" lat="42.82631586" lon="-73.00309659">
    <tag k="addr:city" v="Readsboro"/>
    <tag k="addr:housenumber" v="71"/>
    <tag k="addr:street" v="Williams Road"/>
    <tag k="addr:state" v="VT"/>
    <tag k="ref:vcgi:esiteid" v="1052554"/>
  </node>
</osm>
