<?xml version="1.0" encoding="UTF-8"?>
<osm version="0.6" generator="JOSM">
  <node id="-546" visible="true" lat="44.40728606" lon="-72.99272524">
    <!-- conflict: "123 Millet Street, Richmond, VT" No match in OSM, but a different address exists <5m away: "51 Tilden Avenue, Richmond, VT" -->
    <tag k="addr:city" v="Richmond"/>
    <tag k="addr:housenumber" v="123"/>
    <tag k="addr:street" v="Millet Street"/>
    <tag k="addr:state" v="VT"/>
    <tag k="ref:vcgi:esiteid" v="200634"/>
  </node>
  <node id="-620" visible="true" lat="44.40522766" lon="-72.99259185">
    <!-- conflict: "13 East Main Street, Richmond, VT" Fuzzy match to "13 West Main Street, Richmond, VT" -->
    <tag k="addr:city" v="Richmond"/>
    <tag k="addr:housenumber" v="13"/>
    <tag k="addr:street" v="East Main Street"/>
    <tag k="addr:state" v="VT"/>
    <tag k="ref:vcgi:esiteid" v="200716"/>
  </node>
  <node id="-826" visible="true" lat="44.39895155" lon="-73.00157115">
    <!-- conflict: "83 Huntington Road, Richmond, VT" Fuzzy match to "83 Huntington Road, , " -->
    <tag k="addr:city" v="Richmond"/>
    <tag k="addr:housenumber" v="83"/>
    <tag k="addr:street" v="Huntington Road"/>
    <tag k="addr:state" v="VT"/>
    <tag k="ref:vcgi:esiteid" v="200942"/>
  </node>
  <node id="-836" visible="true" lat="44.39846738" lon="-72.99986139">
    <!-- conflict: "25 Thompson Road, Richmond, VT" No match in OSM, but a different address exists <5m away: "25 Peaceable St, , " -->
    <tag k="addr:city" v="Richmond"/>
    <tag k="addr:housenumber" v="25"/>
    <tag k="addr:street" v="Thompson Road"/>
    <tag k="addr:state" v="VT"/>
    <tag k="ref:vcgi:esiteid" v="200953"/>
  </node>
  <node id="-911" visible="true" lat="44.39523694" lon="-72.98213531">
    <!-- conflict: "910 Cochran Road, Richmond, VT" No match in OSM, but a different address exists <5m away: "914 Cochran Road, Richmond, VT" -->
    <tag k="addr:city" v="Richmond"/>
    <tag k="addr:housenumber" v="910"/>
    <tag k="addr:street" v="Cochran Road"/>
    <tag k="addr:state" v="VT"/>
    <tag k="ref:vcgi:esiteid" v="201031"/>
  </node>
  <node id="-1284" visible="true" lat="44.37268324" lon="-72.94493332">
    <!-- conflict: "142 Robbins Mountain Extension, Richmond, VT" Fuzzy match to "142 Robbins Mountain, Richmond, VT" -->
    <tag k="addr:city" v="Richmond"/>
    <tag k="addr:housenumber" v="142"/>
    <tag k="addr:street" v="Robbins Mountain Extension"/>
    <tag k="addr:state" v="VT"/>
    <tag k="ref:vcgi:esiteid" v="201406"/>
  </node>
  <node id="-1295" visible="true" lat="44.37202216" lon="-72.94314893">
    <!-- conflict: "66 Robbins Mountain Extension, Richmond, VT" Fuzzy match to "66 Robbins Mountain, Richmond, VT" -->
    <tag k="addr:city" v="Richmond"/>
    <tag k="addr:housenumber" v="66"/>
    <tag k="addr:street" v="Robbins Mountain Extension"/>
    <tag k="addr:state" v="VT"/>
    <tag k="ref:vcgi:esiteid" v="201417"/>
  </node>
  <node id="-1296" visible="true" lat="44.37193092" lon="-72.9451997">
    <!-- conflict: "172 Robbins Mountain Extension, Richmond, VT" Fuzzy match to "172 Robbins Mountain, Richmond, VT" -->
    <tag k="addr:city" v="Richmond"/>
    <tag k="addr:housenumber" v="172"/>
    <tag k="addr:street" v="Robbins Mountain Extension"/>
    <tag k="addr:state" v="VT"/>
    <tag k="ref:vcgi:esiteid" v="201418"/>
  </node>
  <node id="-1301" visible="true" lat="44.37152342" lon="-72.94476693">
    <!-- conflict: "149 Robbins Mountain Extension, Richmond, VT" Fuzzy match to "149 Robbins Mountain, Richmond, VT" -->
    <tag k="addr:city" v="Richmond"/>
    <tag k="addr:housenumber" v="149"/>
    <tag k="addr:street" v="Robbins Mountain Extension"/>
    <tag k="addr:state" v="VT"/>
    <tag k="ref:vcgi:esiteid" v="201423"/>
  </node>
  <node id="-1302" visible="true" lat="44.37153271" lon="-72.94394868">
    <!-- conflict: "85 Robbins Mountain Extension, Richmond, VT" Fuzzy match to "85 Robbins Mountain, Richmond, VT" -->
    <tag k="addr:city" v="Richmond"/>
    <tag k="addr:housenumber" v="85"/>
    <tag k="addr:street" v="Robbins Mountain Extension"/>
    <tag k="addr:state" v="VT"/>
    <tag k="ref:vcgi:esiteid" v="201424"/>
  </node>
  <node id="-1306" visible="true" lat="44.37124109" lon="-72.94263254">
    <!-- conflict: "11 Robbins Mountain Extension, Richmond, VT" Fuzzy match to "11 Robbins Mountain, Richmond, VT" -->
    <tag k="addr:city" v="Richmond"/>
    <tag k="addr:housenumber" v="11"/>
    <tag k="addr:street" v="Robbins Mountain Extension"/>
    <tag k="addr:state" v="VT"/>
    <tag k="ref:vcgi:esiteid" v="201428"/>
  </node>
  <node id="-1458" visible="true" lat="44.40546598" lon="-72.99045049">
    <!-- conflict: "91 East Main Street, Richmond, VT" Fuzzy match to "91 West Main Street, Richmond, VT" -->
    <tag k="addr:city" v="Richmond"/>
    <tag k="addr:housenumber" v="91"/>
    <tag k="addr:street" v="East Main Street"/>
    <tag k="addr:state" v="VT"/>
    <tag k="ref:vcgi:esiteid" v="201590"/>
  </node>
  <node id="-1610" visible="true" lat="44.39134961" lon="-72.9453822">
    <!-- conflict: "126 Labounty Lane, Richmond, VT" No match in OSM, but a different address exists <5m away: "2902 East Main Street, Richmond, VT" -->
    <tag k="addr:city" v="Richmond"/>
    <tag k="addr:housenumber" v="126"/>
    <tag k="addr:street" v="Labounty Lane"/>
    <tag k="addr:state" v="VT"/>
    <tag k="ref:vcgi:esiteid" v="201749"/>
  </node>
  <node id="-1612" visible="true" lat="44.39123181" lon="-72.94635724">
    <!-- conflict: "135 Labounty Lane, Richmond, VT" No match in OSM, but a different address exists <5m away: "2900 East Main Street, Richmond, VT" -->
    <tag k="addr:city" v="Richmond"/>
    <tag k="addr:housenumber" v="135"/>
    <tag k="addr:street" v="Labounty Lane"/>
    <tag k="addr:state" v="VT"/>
    <tag k="ref:vcgi:esiteid" v="201751"/>
  </node>
  <node id="-1797" visible="true" lat="44.40977829" lon="-72.99148741">
    <!-- conflict: "346 Jericho Road, Richmond, VT" No match in OSM, but a different address exists <5m away: "446 Jericho Road, Richmond, VT" -->
    <tag k="addr:city" v="Richmond"/>
    <tag k="addr:housenumber" v="346"/>
    <tag k="addr:street" v="Jericho Road"/>
    <tag k="addr:state" v="VT"/>
    <tag k="ref:vcgi:esiteid" v="446581"/>
  </node>
  <node id="-1816" visible="true" lat="44.40001077" lon="-73.00180195">
    <!-- conflict: "112 Huntington Road, Richmond, VT" No match in OSM, but a different address exists <5m away: "122 Huntington Road, Richmond, VT" -->
    <tag k="addr:city" v="Richmond"/>
    <tag k="addr:housenumber" v="112"/>
    <tag k="addr:street" v="Huntington Road"/>
    <tag k="addr:state" v="VT"/>
    <tag k="ref:vcgi:esiteid" v="453082"/>
  </node>
  <node id="-1838" visible="true" lat="44.39797163" lon="-73.00034212">
    <!-- conflict: "22 Peaceable Street, Richmond, VT" Fuzzy match to "22 Peaceable St, , " -->
    <tag k="addr:city" v="Richmond"/>
    <tag k="addr:housenumber" v="22"/>
    <tag k="addr:street" v="Peaceable Street"/>
    <tag k="addr:state" v="VT"/>
    <tag k="ref:vcgi:esiteid" v="611122"/>
  </node>
  <node id="-1898" visible="true" lat="44.39731288" lon="-72.99414246">
    <!-- conflict: "300 Cochran Road, Richmond, VT" No match in OSM, but a different address exists <5m away: "290 Cochran Road, Richmond, VT" -->
    <tag k="addr:city" v="Richmond"/>
    <tag k="addr:housenumber" v="300"/>
    <tag k="addr:street" v="Cochran Road"/>
    <tag k="addr:state" v="VT"/>
    <tag k="ref:vcgi:esiteid" v="753644"/>
  </node>
  <node id="-1923" visible="true" lat="44.40912892" lon="-73.06035894">
    <!-- conflict: "122 Sherwood Forest Road, Richmond, VT" Fuzzy match to "122 Sherwood Forest Road, Williston, VT" -->
    <tag k="addr:city" v="Richmond"/>
    <tag k="addr:housenumber" v="122"/>
    <tag k="addr:street" v="Sherwood Forest Road"/>
    <tag k="addr:state" v="VT"/>
    <tag k="ref:vcgi:esiteid" v="758339"/>
  </node>
  <node id="-1926" visible="true" lat="44.40867417" lon="-73.06059377">
    <!-- conflict: "148 Sherwood Forest Road, Richmond, VT" Fuzzy match to "148 Sherwood Forest Road, Williston, VT" -->
    <tag k="addr:city" v="Richmond"/>
    <tag k="addr:housenumber" v="148"/>
    <tag k="addr:street" v="Sherwood Forest Road"/>
    <tag k="addr:state" v="VT"/>
    <tag k="ref:vcgi:esiteid" v="758342"/>
  </node>
  <node id="-1927" visible="true" lat="44.40862399" lon="-73.06062817">
    <!-- conflict: "150 Sherwood Forest Road, Richmond, VT" Fuzzy match to "150 Sherwood Forest Road, Williston, VT" -->
    <tag k="addr:city" v="Richmond"/>
    <tag k="addr:housenumber" v="150"/>
    <tag k="addr:street" v="Sherwood Forest Road"/>
    <tag k="addr:state" v="VT"/>
    <tag k="ref:vcgi:esiteid" v="758343"/>
  </node>
  <node id="-1928" visible="true" lat="44.40848786" lon="-73.06071157">
    <!-- conflict: "152 Sherwood Forest Road, Richmond, VT" Fuzzy match to "152 Sherwood Forest Road, Williston, VT" -->
    <tag k="addr:city" v="Richmond"/>
    <tag k="addr:housenumber" v="152"/>
    <tag k="addr:street" v="Sherwood Forest Road"/>
    <tag k="addr:state" v="VT"/>
    <tag k="ref:vcgi:esiteid" v="758344"/>
  </node>
  <node id="-1929" visible="true" lat="44.40689786" lon="-73.06155836">
    <!-- conflict: "276 Sherwood Forest Road, Richmond, VT" Fuzzy match to "276 Sherwood Forest Road, Williston, VT" -->
    <tag k="addr:city" v="Richmond"/>
    <tag k="addr:housenumber" v="276"/>
    <tag k="addr:street" v="Sherwood Forest Road"/>
    <tag k="addr:state" v="VT"/>
    <tag k="ref:vcgi:esiteid" v="758345"/>
  </node>
</osm>
