<?xml version="1.0" encoding="UTF-8"?>
<osm version="0.6" generator="JOSM">
  <node id="-100" visible="true" lat="44.99393353" lon="-72.66657496">
    <tag k="addr:city" v="Richford"/>
    <tag k="addr:housenumber" v="179"/>
    <tag k="addr:street" v="Eastern Avenue"/>
    <tag k="addr:state" v="VT"/>
    <tag k="ref:vcgi:esiteid" v="219"/>
  </node>
  <node id="-101" visible="true" lat="44.99260476" lon="-72.67346998">
    <tag k="addr:city" v="Richford"/>
    <tag k="addr:housenumber" v="16"/>
    <tag k="addr:street" v="Troy Street"/>
    <tag k="addr:state" v="VT"/>
    <tag k="ref:vcgi:esiteid" v="469"/>
  </node>
  <node id="-102" visible="true" lat="45.01179398" lon="-72.70091513">
    <tag k="addr:city" v="Richford"/>
    <tag k="addr:housenumber" v="36"/>
    <tag k="addr:street" v="Border Drive"/>
    <tag k="addr:state" v="VT"/>
    <tag k="ref:vcgi:esiteid" v="22628"/>
  </node>
  <node id="-103" visible="true" lat="44.9244335" lon="-72.57571439">
    <tag k="addr:city" v="Richford"/>
    <tag k="addr:housenumber" v="4224"/>
    <tag k="addr:street" v="Black Falls Road"/>
    <tag k="addr:state" v="VT"/>
    <tag k="ref:vcgi:esiteid" v="164095"/>
  </node>
  <node id="-107" visible="true" lat="45.01536167" lon="-72.69912597">
    <tag k="addr:city" v="Richford"/>
    <tag k="addr:housenumber" v="3"/>
    <tag k="addr:street" v="Pinnacle Road"/>
    <tag k="addr:state" v="VT"/>
    <tag k="ref:vcgi:esiteid" v="199061"/>
  </node>
  <node id="-108" visible="true" lat="45.01518973" lon="-72.67291102">
    <tag k="addr:city" v="Richford"/>
    <tag k="addr:housenumber" v="212"/>
    <tag k="addr:street" v="Drew Road"/>
    <tag k="addr:state" v="VT"/>
    <tag k="ref:vcgi:esiteid" v="199062"/>
  </node>
  <node id="-109" visible="true" lat="45.01441347" lon="-72.69958198">
    <tag k="addr:city" v="Richford"/>
    <tag k="addr:housenumber" v="14"/>
    <tag k="addr:street" v="Pinnacle Road"/>
    <tag k="addr:state" v="VT"/>
    <tag k="ref:vcgi:esiteid" v="199063"/>
  </node>
  <node id="-110" visible="true" lat="45.01406097" lon="-72.67394256">
    <tag k="addr:city" v="Richford"/>
    <tag k="addr:housenumber" v="196"/>
    <tag k="addr:street" v="Drew Road"/>
    <tag k="addr:state" v="VT"/>
    <tag k="ref:vcgi:esiteid" v="199064"/>
  </node>
  <node id="-112" visible="true" lat="45.01361846" lon="-72.69586181">
    <tag k="addr:city" v="Richford"/>
    <tag k="addr:housenumber" v="41"/>
    <tag k="addr:street" v="Pinnacle Road"/>
    <tag k="addr:state" v="VT"/>
    <tag k="ref:vcgi:esiteid" v="199067"/>
  </node>
  <node id="-114" visible="true" lat="45.01359257" lon="-72.61969452">
    <tag k="addr:city" v="Richford"/>
    <tag k="addr:housenumber" v="503"/>
    <tag k="addr:street" v="Golf Course Road"/>
    <tag k="addr:state" v="VT"/>
    <tag k="ref:vcgi:esiteid" v="199070"/>
  </node>
  <node id="-115" visible="true" lat="45.01358912" lon="-72.69655963">
    <tag k="addr:city" v="Richford"/>
    <tag k="addr:housenumber" v="35"/>
    <tag k="addr:street" v="Pinnacle Road"/>
    <tag k="addr:state" v="VT"/>
    <tag k="ref:vcgi:esiteid" v="199071"/>
  </node>
  <node id="-117" visible="true" lat="45.01291149" lon="-72.67474989">
    <tag k="addr:city" v="Richford"/>
    <tag k="addr:housenumber" v="174"/>
    <tag k="addr:street" v="Drew Road"/>
    <tag k="addr:state" v="VT"/>
    <tag k="ref:vcgi:esiteid" v="199073"/>
  </node>
  <node id="-118" visible="true" lat="45.01286593" lon="-72.67547173">
    <tag k="addr:city" v="Richford"/>
    <tag k="addr:housenumber" v="167"/>
    <tag k="addr:street" v="Drew Road"/>
    <tag k="addr:state" v="VT"/>
    <tag k="ref:vcgi:esiteid" v="199074"/>
  </node>
  <node id="-119" visible="true" lat="45.01243058" lon="-72.69543545">
    <tag k="addr:city" v="Richford"/>
    <tag k="addr:housenumber" v="56"/>
    <tag k="addr:street" v="Pinnacle Road"/>
    <tag k="addr:state" v="VT"/>
    <tag k="ref:vcgi:esiteid" v="199075"/>
  </node>
  <node id="-120" visible="true" lat="45.01226513" lon="-72.67626527">
    <tag k="addr:city" v="Richford"/>
    <tag k="addr:housenumber" v="149"/>
    <tag k="addr:street" v="Drew Road"/>
    <tag k="addr:state" v="VT"/>
    <tag k="ref:vcgi:esiteid" v="199076"/>
  </node>
  <node id="-122" visible="true" lat="45.01333138" lon="-72.62291042">
    <tag k="addr:city" v="Richford"/>
    <tag k="addr:housenumber" v="457"/>
    <tag k="addr:street" v="Golf Course Road"/>
    <tag k="addr:state" v="VT"/>
    <tag k="ref:vcgi:esiteid" v="199078"/>
  </node>
  <node id="-124" visible="true" lat="45.01135609" lon="-72.62549643">
    <tag k="addr:city" v="Richford"/>
    <tag k="addr:housenumber" v="423"/>
    <tag k="addr:street" v="Golf Course Road"/>
    <tag k="addr:state" v="VT"/>
    <tag k="ref:vcgi:esiteid" v="199080"/>
  </node>
  <node id="-125" visible="true" lat="45.01123327" lon="-72.5853651">
    <tag k="addr:city" v="Richford"/>
    <tag k="addr:housenumber" v="69"/>
    <tag k="addr:street" v="East Richford Slide Road"/>
    <tag k="addr:state" v="VT"/>
    <tag k="ref:vcgi:esiteid" v="199082"/>
  </node>
  <node id="-126" visible="true" lat="45.01108038" lon="-72.5861385">
    <tag k="addr:city" v="Richford"/>
    <tag k="addr:housenumber" v="61"/>
    <tag k="addr:street" v="East Richford Slide Road"/>
    <tag k="addr:state" v="VT"/>
    <tag k="ref:vcgi:esiteid" v="199083"/>
  </node>
  <node id="-127" visible="true" lat="45.01095751" lon="-72.62970786">
    <tag k="addr:city" v="Richford"/>
    <tag k="addr:housenumber" v="384"/>
    <tag k="addr:street" v="Golf Course Road"/>
    <tag k="addr:state" v="VT"/>
    <tag k="ref:vcgi:esiteid" v="199084"/>
  </node>
  <node id="-128" visible="true" lat="45.01100202" lon="-72.58785461">
    <tag k="addr:city" v="Richford"/>
    <tag k="addr:housenumber" v="357"/>
    <tag k="addr:street" v="Glenn Sutton Road"/>
    <tag k="addr:state" v="VT"/>
    <tag k="ref:vcgi:esiteid" v="199085"/>
  </node>
  <node id="-130" visible="true" lat="45.01069743" lon="-72.62734245">
    <tag k="addr:city" v="Richford"/>
    <tag k="addr:housenumber" v="404"/>
    <tag k="addr:street" v="Golf Course Road"/>
    <tag k="addr:state" v="VT"/>
    <tag k="ref:vcgi:esiteid" v="199087"/>
  </node>
  <node id="-131" visible="true" lat="45.01076126" lon="-72.58466466">
    <tag k="addr:city" v="Richford"/>
    <tag k="addr:housenumber" v="72"/>
    <tag k="addr:street" v="East Richford Slide Road"/>
    <tag k="addr:state" v="VT"/>
    <tag k="ref:vcgi:esiteid" v="199088"/>
  </node>
  <node id="-132" visible="true" lat="45.01074558" lon="-72.58722756">
    <tag k="addr:city" v="Richford"/>
    <tag k="addr:housenumber" v="352"/>
    <tag k="addr:street" v="Glenn Sutton Road"/>
    <tag k="addr:state" v="VT"/>
    <tag k="ref:vcgi:esiteid" v="199089"/>
  </node>
  <node id="-134" visible="true" lat="45.01058261" lon="-72.58585678">
    <tag k="addr:city" v="Richford"/>
    <tag k="addr:housenumber" v="56"/>
    <tag k="addr:street" v="East Richford Slide Road"/>
    <tag k="addr:state" v="VT"/>
    <tag k="ref:vcgi:esiteid" v="199091"/>
  </node>
  <node id="-135" visible="true" lat="45.01078793" lon="-72.63234234">
    <tag k="addr:city" v="Richford"/>
    <tag k="addr:housenumber" v="355"/>
    <tag k="addr:street" v="Golf Course Road"/>
    <tag k="addr:state" v="VT"/>
    <tag k="ref:vcgi:esiteid" v="199092"/>
  </node>
  <node id="-136" visible="true" lat="45.01058382" lon="-72.5863794">
    <tag k="addr:city" v="Richford"/>
    <tag k="addr:housenumber" v="49"/>
    <tag k="addr:street" v="East Richford Slide Road"/>
    <tag k="addr:state" v="VT"/>
    <tag k="ref:vcgi:esiteid" v="199093"/>
  </node>
  <node id="-137" visible="true" lat="45.01044951" lon="-72.58593574">
    <tag k="addr:city" v="Richford"/>
    <tag k="addr:housenumber" v="52"/>
    <tag k="addr:street" v="East Richford Slide Road"/>
    <tag k="addr:state" v="VT"/>
    <tag k="ref:vcgi:esiteid" v="199094"/>
  </node>
  <node id="-138" visible="true" lat="45.01030449" lon="-72.58603352">
    <tag k="addr:city" v="Richford"/>
    <tag k="addr:housenumber" v="48"/>
    <tag k="addr:street" v="East Richford Slide Road"/>
    <tag k="addr:state" v="VT"/>
    <tag k="ref:vcgi:esiteid" v="199096"/>
  </node>
  <node id="-139" visible="true" lat="45.01025319" lon="-72.58411136">
    <tag k="addr:city" v="Richford"/>
    <tag k="addr:housenumber" v="19"/>
    <tag k="addr:street" v="Lucas Road"/>
    <tag k="addr:state" v="VT"/>
    <tag k="ref:vcgi:esiteid" v="199097"/>
  </node>
  <node id="-140" visible="true" lat="45.01033003" lon="-72.58658308">
    <tag k="addr:city" v="Richford"/>
    <tag k="addr:housenumber" v="45"/>
    <tag k="addr:street" v="East Richford Slide Road"/>
    <tag k="addr:state" v="VT"/>
    <tag k="ref:vcgi:esiteid" v="199098"/>
  </node>
  <node id="-141" visible="true" lat="45.01002812" lon="-72.69101052">
    <tag k="addr:city" v="Richford"/>
    <tag k="addr:housenumber" v="110"/>
    <tag k="addr:street" v="Pinnacle Road"/>
    <tag k="addr:state" v="VT"/>
    <tag k="ref:vcgi:esiteid" v="199099"/>
  </node>
  <node id="-142" visible="true" lat="45.01012857" lon="-72.58611152">
    <tag k="addr:city" v="Richford"/>
    <tag k="addr:housenumber" v="44"/>
    <tag k="addr:street" v="East Richford Slide Road"/>
    <tag k="addr:state" v="VT"/>
    <tag k="ref:vcgi:esiteid" v="199101"/>
  </node>
  <node id="-143" visible="true" lat="45.01008484" lon="-72.57522218">
    <tag k="addr:city" v="Richford"/>
    <tag k="addr:housenumber" v="170"/>
    <tag k="addr:street" v="East Richford Slide Road"/>
    <tag k="addr:state" v="VT"/>
    <tag k="ref:vcgi:esiteid" v="199102"/>
  </node>
  <node id="-144" visible="true" lat="45.00995352" lon="-72.58517046">
    <tag k="addr:city" v="Richford"/>
    <tag k="addr:housenumber" v="18"/>
    <tag k="addr:street" v="Lucas Road"/>
    <tag k="addr:state" v="VT"/>
    <tag k="ref:vcgi:esiteid" v="199103"/>
  </node>
  <node id="-145" visible="true" lat="45.00991632" lon="-72.58541732">
    <tag k="addr:city" v="Richford"/>
    <tag k="addr:housenumber" v="14"/>
    <tag k="addr:street" v="Lucas Road"/>
    <tag k="addr:state" v="VT"/>
    <tag k="ref:vcgi:esiteid" v="199104"/>
  </node>
  <node id="-146" visible="true" lat="45.00985911" lon="-72.58571619">
    <tag k="addr:city" v="Richford"/>
    <tag k="addr:housenumber" v="10"/>
    <tag k="addr:street" v="Lucas Road"/>
    <tag k="addr:state" v="VT"/>
    <tag k="ref:vcgi:esiteid" v="199105"/>
  </node>
  <node id="-147" visible="true" lat="45.00978765" lon="-72.58601515">
    <tag k="addr:city" v="Richford"/>
    <tag k="addr:housenumber" v="6"/>
    <tag k="addr:street" v="Lucas Road"/>
    <tag k="addr:state" v="VT"/>
    <tag k="ref:vcgi:esiteid" v="199106"/>
  </node>
  <node id="-148" visible="true" lat="45.00964075" lon="-72.58657296">
    <tag k="addr:city" v="Richford"/>
    <tag k="addr:housenumber" v="38"/>
    <tag k="addr:street" v="East Richford Slide Road"/>
    <tag k="addr:state" v="VT"/>
    <tag k="ref:vcgi:esiteid" v="199108"/>
  </node>
  <node id="-149" visible="true" lat="45.00968551" lon="-72.57006836">
    <tag k="addr:city" v="Richford"/>
    <tag k="addr:housenumber" v="231"/>
    <tag k="addr:street" v="East Richford Slide Road"/>
    <tag k="addr:state" v="VT"/>
    <tag k="ref:vcgi:esiteid" v="199109"/>
  </node>
  <node id="-150" visible="true" lat="45.00957784" lon="-72.58738909">
    <tag k="addr:city" v="Richford"/>
    <tag k="addr:housenumber" v="31"/>
    <tag k="addr:street" v="East Richford Slide Road"/>
    <tag k="addr:state" v="VT"/>
    <tag k="ref:vcgi:esiteid" v="199110"/>
  </node>
  <node id="-151" visible="true" lat="45.00861257" lon="-72.57151193">
    <tag k="addr:city" v="Richford"/>
    <tag k="addr:housenumber" v="234"/>
    <tag k="addr:street" v="East Richford Slide Road"/>
    <tag k="addr:state" v="VT"/>
    <tag k="ref:vcgi:esiteid" v="199111"/>
  </node>
  <node id="-152" visible="true" lat="45.0093258" lon="-72.58704354">
    <tag k="addr:city" v="Richford"/>
    <tag k="addr:housenumber" v="34"/>
    <tag k="addr:street" v="East Richford Slide Road"/>
    <tag k="addr:state" v="VT"/>
    <tag k="ref:vcgi:esiteid" v="199112"/>
  </node>
  <node id="-153" visible="true" lat="45.00932494" lon="-72.58386708">
    <tag k="addr:city" v="Richford"/>
    <tag k="addr:housenumber" v="26"/>
    <tag k="addr:street" v="Lucas Road"/>
    <tag k="addr:state" v="VT"/>
    <tag k="ref:vcgi:esiteid" v="199113"/>
  </node>
  <node id="-154" visible="true" lat="45.00922113" lon="-72.58721878">
    <tag k="addr:city" v="Richford"/>
    <tag k="addr:housenumber" v="30"/>
    <tag k="addr:street" v="East Richford Slide Road"/>
    <tag k="addr:state" v="VT"/>
    <tag k="ref:vcgi:esiteid" v="199115"/>
  </node>
  <node id="-155" visible="true" lat="45.00915956" lon="-72.67854336">
    <tag k="addr:city" v="Richford"/>
    <tag k="addr:housenumber" v="102"/>
    <tag k="addr:street" v="Drew Road"/>
    <tag k="addr:state" v="VT"/>
    <tag k="ref:vcgi:esiteid" v="199116"/>
  </node>
  <node id="-156" visible="true" lat="45.00920532" lon="-72.5941117">
    <tag k="addr:city" v="Richford"/>
    <tag k="addr:housenumber" v="3091"/>
    <tag k="addr:street" v="Corliss Road"/>
    <tag k="addr:state" v="VT"/>
    <tag k="ref:vcgi:esiteid" v="199117"/>
  </node>
  <node id="-157" visible="true" lat="45.0089693" lon="-72.58842425">
    <tag k="addr:city" v="Richford"/>
    <tag k="addr:housenumber" v="15"/>
    <tag k="addr:street" v="East Richford Slide Road"/>
    <tag k="addr:state" v="VT"/>
    <tag k="ref:vcgi:esiteid" v="199118"/>
  </node>
  <node id="-158" visible="true" lat="45.00887834" lon="-72.6888061">
    <tag k="addr:city" v="Richford"/>
    <tag k="addr:housenumber" v="139"/>
    <tag k="addr:street" v="Pinnacle Road"/>
    <tag k="addr:state" v="VT"/>
    <tag k="ref:vcgi:esiteid" v="199119"/>
  </node>
  <node id="-159" visible="true" lat="45.0089719" lon="-72.56494162">
    <tag k="addr:city" v="Richford"/>
    <tag k="addr:housenumber" v="281"/>
    <tag k="addr:street" v="East Richford Slide Road"/>
    <tag k="addr:state" v="VT"/>
    <tag k="ref:vcgi:esiteid" v="199120"/>
  </node>
  <node id="-161" visible="true" lat="45.00847807" lon="-72.679565">
    <tag k="addr:city" v="Richford"/>
    <tag k="addr:housenumber" v="87"/>
    <tag k="addr:street" v="Drew Road"/>
    <tag k="addr:state" v="VT"/>
    <tag k="ref:vcgi:esiteid" v="199122"/>
  </node>
  <node id="-162" visible="true" lat="45.00856399" lon="-72.5962677">
    <tag k="addr:city" v="Richford"/>
    <tag k="addr:housenumber" v="2971"/>
    <tag k="addr:street" v="Corliss Road"/>
    <tag k="addr:state" v="VT"/>
    <tag k="ref:vcgi:esiteid" v="199123"/>
  </node>
  <node id="-163" visible="true" lat="45.00842505" lon="-72.63835543">
    <tag k="addr:city" v="Richford"/>
    <tag k="addr:housenumber" v="278"/>
    <tag k="addr:street" v="Golf Course Road"/>
    <tag k="addr:state" v="VT"/>
    <tag k="ref:vcgi:esiteid" v="199124"/>
  </node>
  <node id="-164" visible="true" lat="45.00779696" lon="-72.59737347">
    <tag k="addr:city" v="Richford"/>
    <tag k="addr:housenumber" v="2925"/>
    <tag k="addr:street" v="Corliss Road"/>
    <tag k="addr:state" v="VT"/>
    <tag k="ref:vcgi:esiteid" v="199125"/>
  </node>
  <node id="-165" visible="true" lat="45.00761616" lon="-72.68725504">
    <tag k="addr:city" v="Richford"/>
    <tag k="addr:housenumber" v="165"/>
    <tag k="addr:street" v="Pinnacle Road"/>
    <tag k="addr:state" v="VT"/>
    <tag k="ref:vcgi:esiteid" v="199126"/>
  </node>
  <node id="-166" visible="true" lat="45.00762486" lon="-72.64114159">
    <tag k="addr:city" v="Richford"/>
    <tag k="addr:housenumber" v="249"/>
    <tag k="addr:street" v="Golf Course Road"/>
    <tag k="addr:state" v="VT"/>
    <tag k="ref:vcgi:esiteid" v="199127"/>
  </node>
  <node id="-168" visible="true" lat="45.00709533" lon="-72.68079376">
    <tag k="addr:city" v="Richford"/>
    <tag k="addr:housenumber" v="61"/>
    <tag k="addr:street" v="Drew Road"/>
    <tag k="addr:state" v="VT"/>
    <tag k="ref:vcgi:esiteid" v="199130"/>
  </node>
  <node id="-169" visible="true" lat="45.00690778" lon="-72.67977911">
    <tag k="addr:city" v="Richford"/>
    <tag k="addr:housenumber" v="64"/>
    <tag k="addr:street" v="Drew Road"/>
    <tag k="addr:state" v="VT"/>
    <tag k="ref:vcgi:esiteid" v="199131"/>
  </node>
  <node id="-170" visible="true" lat="45.00655746" lon="-72.59835815">
    <tag k="addr:city" v="Richford"/>
    <tag k="addr:housenumber" v="2777"/>
    <tag k="addr:street" v="Corliss Road"/>
    <tag k="addr:state" v="VT"/>
    <tag k="ref:vcgi:esiteid" v="199132"/>
  </node>
  <node id="-171" visible="true" lat="45.00534057" lon="-72.66505432">
    <tag k="addr:city" v="Richford"/>
    <tag k="addr:housenumber" v="39"/>
    <tag k="addr:street" v="Quaker Street"/>
    <tag k="addr:state" v="VT"/>
    <tag k="ref:vcgi:esiteid" v="199133"/>
  </node>
  <node id="-172" visible="true" lat="45.00508177" lon="-72.68043431">
    <tag k="addr:city" v="Richford"/>
    <tag k="addr:housenumber" v="38"/>
    <tag k="addr:street" v="Drew Road"/>
    <tag k="addr:state" v="VT"/>
    <tag k="ref:vcgi:esiteid" v="199134"/>
  </node>
  <node id="-173" visible="true" lat="45.00485749" lon="-72.59624254">
    <tag k="addr:city" v="Richford"/>
    <tag k="addr:housenumber" v="220"/>
    <tag k="addr:street" v="Glenn Sutton Road"/>
    <tag k="addr:state" v="VT"/>
    <tag k="ref:vcgi:esiteid" v="199135"/>
  </node>
  <node id="-174" visible="true" lat="45.00448242" lon="-72.6808397">
    <tag k="addr:city" v="Richford"/>
    <tag k="addr:housenumber" v="30"/>
    <tag k="addr:street" v="Drew Road"/>
    <tag k="addr:state" v="VT"/>
    <tag k="ref:vcgi:esiteid" v="199136"/>
  </node>
  <node id="-175" visible="true" lat="45.00460064" lon="-72.60142391">
    <tag k="addr:city" v="Richford"/>
    <tag k="addr:housenumber" v="2585"/>
    <tag k="addr:street" v="Corliss Road"/>
    <tag k="addr:state" v="VT"/>
    <tag k="ref:vcgi:esiteid" v="199137"/>
  </node>
  <node id="-177" visible="true" lat="45.00426741" lon="-72.68405445">
    <tag k="addr:city" v="Richford"/>
    <tag k="addr:housenumber" v="229"/>
    <tag k="addr:street" v="Pinnacle Road"/>
    <tag k="addr:state" v="VT"/>
    <tag k="ref:vcgi:esiteid" v="199139"/>
  </node>
  <node id="-179" visible="true" lat="45.00421539" lon="-72.68103807">
    <tag k="addr:city" v="Richford"/>
    <tag k="addr:housenumber" v="26"/>
    <tag k="addr:street" v="Drew Road"/>
    <tag k="addr:state" v="VT"/>
    <tag k="ref:vcgi:esiteid" v="199141"/>
  </node>
  <node id="-181" visible="true" lat="45.00416876" lon="-72.60072583">
    <tag k="addr:city" v="Richford"/>
    <tag k="addr:housenumber" v="2580"/>
    <tag k="addr:street" v="Corliss Road"/>
    <tag k="addr:state" v="VT"/>
    <tag k="ref:vcgi:esiteid" v="199143"/>
  </node>
  <node id="-182" visible="true" lat="45.00330583" lon="-72.59611905">
    <tag k="addr:city" v="Richford"/>
    <tag k="addr:housenumber" v="95"/>
    <tag k="addr:street" v="Johnson Road"/>
    <tag k="addr:state" v="VT"/>
    <tag k="ref:vcgi:esiteid" v="199144"/>
  </node>
  <node id="-183" visible="true" lat="45.00431611" lon="-72.55439157">
    <tag k="addr:city" v="Richford"/>
    <tag k="addr:housenumber" v="424"/>
    <tag k="addr:street" v="East Richford Slide Road"/>
    <tag k="addr:state" v="VT"/>
    <tag k="ref:vcgi:esiteid" v="199145"/>
  </node>
  <node id="-184" visible="true" lat="45.00463521" lon="-72.60303265">
    <tag k="addr:city" v="Richford"/>
    <tag k="addr:housenumber" v="2545"/>
    <tag k="addr:street" v="Corliss Road"/>
    <tag k="addr:state" v="VT"/>
    <tag k="ref:vcgi:esiteid" v="199147"/>
  </node>
  <node id="-185" visible="true" lat="45.00373198" lon="-72.68133577">
    <tag k="addr:city" v="Richford"/>
    <tag k="addr:housenumber" v="22"/>
    <tag k="addr:street" v="Drew Road"/>
    <tag k="addr:state" v="VT"/>
    <tag k="ref:vcgi:esiteid" v="199148"/>
  </node>
  <node id="-186" visible="true" lat="45.00366733" lon="-72.69257513">
    <tag k="addr:city" v="Richford"/>
    <tag k="addr:housenumber" v="57"/>
    <tag k="addr:street" v="Mountain View Road"/>
    <tag k="addr:state" v="VT"/>
    <tag k="ref:vcgi:esiteid" v="199149"/>
  </node>
  <node id="-188" visible="true" lat="45.00357637" lon="-72.57990479">
    <tag k="addr:city" v="Richford"/>
    <tag k="addr:housenumber" v="44"/>
    <tag k="addr:street" v="Nickson Road"/>
    <tag k="addr:state" v="VT"/>
    <tag k="ref:vcgi:esiteid" v="199151"/>
  </node>
  <node id="-189" visible="true" lat="45.00356387" lon="-72.55271415">
    <tag k="addr:city" v="Richford"/>
    <tag k="addr:housenumber" v="437"/>
    <tag k="addr:street" v="East Richford Slide Road"/>
    <tag k="addr:state" v="VT"/>
    <tag k="ref:vcgi:esiteid" v="199152"/>
  </node>
  <node id="-191" visible="true" lat="45.0016658" lon="-72.61319762">
    <tag k="addr:city" v="Richford"/>
    <tag k="addr:housenumber" v="1929"/>
    <tag k="addr:street" v="Corliss Road"/>
    <tag k="addr:state" v="VT"/>
    <tag k="ref:vcgi:esiteid" v="199154"/>
  </node>
  <node id="-192" visible="true" lat="45.00315593" lon="-72.6824979">
    <tag k="addr:city" v="Richford"/>
    <tag k="addr:housenumber" v="3"/>
    <tag k="addr:street" v="Drew Road"/>
    <tag k="addr:state" v="VT"/>
    <tag k="ref:vcgi:esiteid" v="199155"/>
  </node>
  <node id="-193" visible="true" lat="45.00315475" lon="-72.58009338">
    <tag k="addr:city" v="Richford"/>
    <tag k="addr:housenumber" v="26"/>
    <tag k="addr:street" v="Nickson Road"/>
    <tag k="addr:state" v="VT"/>
    <tag k="ref:vcgi:esiteid" v="199156"/>
  </node>
  <node id="-195" visible="true" lat="45.00283259" lon="-72.59808471">
    <tag k="addr:city" v="Richford"/>
    <tag k="addr:housenumber" v="117"/>
    <tag k="addr:street" v="Emch Road"/>
    <tag k="addr:state" v="VT"/>
    <tag k="ref:vcgi:esiteid" v="199158"/>
  </node>
  <node id="-196" visible="true" lat="45.00294175" lon="-72.65978176">
    <tag k="addr:city" v="Richford"/>
    <tag k="addr:housenumber" v="18"/>
    <tag k="addr:street" v="Hillside Terrace"/>
    <tag k="addr:state" v="VT"/>
    <tag k="ref:vcgi:esiteid" v="199160"/>
  </node>
  <node id="-197" visible="true" lat="45.00266019" lon="-72.65917246">
    <tag k="addr:city" v="Richford"/>
    <tag k="addr:housenumber" v="14"/>
    <tag k="addr:street" v="Hillside Terrace"/>
    <tag k="addr:state" v="VT"/>
    <tag k="ref:vcgi:esiteid" v="199161"/>
  </node>
  <node id="-199" visible="true" lat="45.00343419" lon="-72.60575117">
    <tag k="addr:city" v="Richford"/>
    <tag k="addr:housenumber" v="2381"/>
    <tag k="addr:street" v="Corliss Road"/>
    <tag k="addr:state" v="VT"/>
    <tag k="ref:vcgi:esiteid" v="199163"/>
  </node>
  <node id="-201" visible="true" lat="45.00271224" lon="-72.58323669">
    <tag k="addr:city" v="Richford"/>
    <tag k="addr:housenumber" v="22"/>
    <tag k="addr:street" v="Nickson Road"/>
    <tag k="addr:state" v="VT"/>
    <tag k="ref:vcgi:esiteid" v="199165"/>
  </node>
  <node id="-203" visible="true" lat="45.00238275" lon="-72.60428937">
    <tag k="addr:city" v="Richford"/>
    <tag k="addr:housenumber" v="2360"/>
    <tag k="addr:street" v="Corliss Road"/>
    <tag k="addr:state" v="VT"/>
    <tag k="ref:vcgi:esiteid" v="199167"/>
  </node>
  <node id="-204" visible="true" lat="45.00256729" lon="-72.61942291">
    <tag k="addr:city" v="Richford"/>
    <tag k="addr:housenumber" v="1575"/>
    <tag k="addr:street" v="Corliss Road"/>
    <tag k="addr:state" v="VT"/>
    <tag k="ref:vcgi:esiteid" v="199169"/>
  </node>
  <node id="-205" visible="true" lat="45.00230009" lon="-72.69277669">
    <tag k="addr:city" v="Richford"/>
    <tag k="addr:housenumber" v="41"/>
    <tag k="addr:street" v="Mountain View Road"/>
    <tag k="addr:state" v="VT"/>
    <tag k="ref:vcgi:esiteid" v="199170"/>
  </node>
  <node id="-206" visible="true" lat="45.00250512" lon="-72.62271522">
    <tag k="addr:city" v="Richford"/>
    <tag k="addr:housenumber" v="1375"/>
    <tag k="addr:street" v="Corliss Road"/>
    <tag k="addr:state" v="VT"/>
    <tag k="ref:vcgi:esiteid" v="199171"/>
  </node>
  <node id="-208" visible="true" lat="45.00233106" lon="-72.64738421">
    <tag k="addr:city" v="Richford"/>
    <tag k="addr:housenumber" v="150"/>
    <tag k="addr:street" v="Corliss Road"/>
    <tag k="addr:state" v="VT"/>
    <tag k="ref:vcgi:esiteid" v="199173"/>
  </node>
  <node id="-210" visible="true" lat="45.00229655" lon="-72.5886447">
    <tag k="addr:city" v="Richford"/>
    <tag k="addr:housenumber" v="876"/>
    <tag k="addr:street" v="Jay Road"/>
    <tag k="addr:state" v="VT"/>
    <tag k="ref:vcgi:esiteid" v="199175"/>
  </node>
  <node id="-211" visible="true" lat="45.00237545" lon="-72.6257742">
    <tag k="addr:city" v="Richford"/>
    <tag k="addr:housenumber" v="1227"/>
    <tag k="addr:street" v="Corliss Road"/>
    <tag k="addr:state" v="VT"/>
    <tag k="ref:vcgi:esiteid" v="199176"/>
  </node>
  <node id="-216" visible="true" lat="45.0022583" lon="-72.59004974">
    <tag k="addr:city" v="Richford"/>
    <tag k="addr:housenumber" v="862"/>
    <tag k="addr:street" v="Jay Road"/>
    <tag k="addr:state" v="VT"/>
    <tag k="ref:vcgi:esiteid" v="199182"/>
  </node>
  <node id="-217" visible="true" lat="45.00227582" lon="-72.62384594">
    <tag k="addr:city" v="Richford"/>
    <tag k="addr:housenumber" v="1325"/>
    <tag k="addr:street" v="Corliss Road"/>
    <tag k="addr:state" v="VT"/>
    <tag k="ref:vcgi:esiteid" v="199183"/>
  </node>
  <node id="-218" visible="true" lat="45.00212189" lon="-72.5765658">
    <tag k="addr:city" v="Richford"/>
    <tag k="addr:housenumber" v="1030"/>
    <tag k="addr:street" v="Jay Road"/>
    <tag k="addr:state" v="VT"/>
    <tag k="ref:vcgi:esiteid" v="199184"/>
  </node>
  <node id="-219" visible="true" lat="45.00203737" lon="-72.59222383">
    <tag k="addr:city" v="Richford"/>
    <tag k="addr:housenumber" v="842"/>
    <tag k="addr:street" v="Jay Road"/>
    <tag k="addr:state" v="VT"/>
    <tag k="ref:vcgi:esiteid" v="199185"/>
  </node>
  <node id="-220" visible="true" lat="45.0021144" lon="-72.64350242">
    <tag k="addr:city" v="Richford"/>
    <tag k="addr:housenumber" v="311"/>
    <tag k="addr:street" v="Corliss Road"/>
    <tag k="addr:state" v="VT"/>
    <tag k="ref:vcgi:esiteid" v="199186"/>
  </node>
  <node id="-221" visible="true" lat="45.00205981" lon="-72.66909718">
    <tag k="addr:city" v="Richford"/>
    <tag k="addr:housenumber" v="115"/>
    <tag k="addr:street" v="Hamilton Place Extension"/>
    <tag k="addr:state" v="VT"/>
    <tag k="ref:vcgi:esiteid" v="199188"/>
  </node>
  <node id="-224" visible="true" lat="45.00187941" lon="-72.62003539">
    <tag k="addr:city" v="Richford"/>
    <tag k="addr:housenumber" v="1570"/>
    <tag k="addr:street" v="Corliss Road"/>
    <tag k="addr:state" v="VT"/>
    <tag k="ref:vcgi:esiteid" v="199191"/>
  </node>
  <node id="-226" visible="true" lat="45.00145414" lon="-72.63405414">
    <tag k="addr:city" v="Richford"/>
    <tag k="addr:housenumber" v="840"/>
    <tag k="addr:street" v="Corliss Road"/>
    <tag k="addr:state" v="VT"/>
    <tag k="ref:vcgi:esiteid" v="199193"/>
  </node>
  <node id="-233" visible="true" lat="45.00154296" lon="-72.6250615">
    <tag k="addr:city" v="Richford"/>
    <tag k="addr:housenumber" v="1288"/>
    <tag k="addr:street" v="Corliss Road"/>
    <tag k="addr:state" v="VT"/>
    <tag k="ref:vcgi:esiteid" v="199203"/>
  </node>
  <node id="-238" visible="true" lat="45.00128493" lon="-72.61049172">
    <tag k="addr:city" v="Richford"/>
    <tag k="addr:housenumber" v="2060"/>
    <tag k="addr:street" v="Corliss Road"/>
    <tag k="addr:state" v="VT"/>
    <tag k="ref:vcgi:esiteid" v="199208"/>
  </node>
  <node id="-240" visible="true" lat="45.00151649" lon="-72.61398679">
    <tag k="addr:city" v="Richford"/>
    <tag k="addr:housenumber" v="1895"/>
    <tag k="addr:street" v="Corliss Road"/>
    <tag k="addr:state" v="VT"/>
    <tag k="ref:vcgi:esiteid" v="199210"/>
  </node>
  <node id="-243" visible="true" lat="45.00145864" lon="-72.64093325">
    <tag k="addr:city" v="Richford"/>
    <tag k="addr:housenumber" v="445"/>
    <tag k="addr:street" v="Corliss Road"/>
    <tag k="addr:state" v="VT"/>
    <tag k="ref:vcgi:esiteid" v="199213"/>
  </node>
  <node id="-246" visible="true" lat="45.00103736" lon="-72.64204825">
    <tag k="addr:city" v="Richford"/>
    <tag k="addr:housenumber" v="414"/>
    <tag k="addr:street" v="Corliss Road"/>
    <tag k="addr:state" v="VT"/>
    <tag k="ref:vcgi:esiteid" v="199217"/>
  </node>
  <node id="-254" visible="true" lat="45.00087075" lon="-72.62610578">
    <tag k="addr:city" v="Richford"/>
    <tag k="addr:housenumber" v="1212"/>
    <tag k="addr:street" v="Corliss Road"/>
    <tag k="addr:state" v="VT"/>
    <tag k="ref:vcgi:esiteid" v="199225"/>
  </node>
  <node id="-255" visible="true" lat="45.00091414" lon="-72.61388928">
    <tag k="addr:city" v="Richford"/>
    <tag k="addr:housenumber" v="1900"/>
    <tag k="addr:street" v="Corliss Road"/>
    <tag k="addr:state" v="VT"/>
    <tag k="ref:vcgi:esiteid" v="199227"/>
  </node>
  <node id="-257" visible="true" lat="45.00100326" lon="-72.62181854">
    <tag k="addr:city" v="Richford"/>
    <tag k="addr:housenumber" v="1460"/>
    <tag k="addr:street" v="Corliss Road"/>
    <tag k="addr:state" v="VT"/>
    <tag k="ref:vcgi:esiteid" v="199229"/>
  </node>
  <node id="-261" visible="true" lat="45.00078201" lon="-72.66461944">
    <tag k="addr:city" v="Richford"/>
    <tag k="addr:housenumber" v="165"/>
    <tag k="addr:street" v="Province Street"/>
    <tag k="addr:state" v="VT"/>
    <tag k="ref:vcgi:esiteid" v="199233"/>
  </node>
  <node id="-278" visible="true" lat="45.00041334" lon="-72.66542556">
    <tag k="addr:city" v="Richford"/>
    <tag k="addr:housenumber" v="155"/>
    <tag k="addr:street" v="Province Street"/>
    <tag k="addr:state" v="VT"/>
    <tag k="ref:vcgi:esiteid" v="199252"/>
  </node>
  <node id="-279" visible="true" lat="45.00019802" lon="-72.61769768">
    <tag k="addr:city" v="Richford"/>
    <tag k="addr:housenumber" v="1720"/>
    <tag k="addr:street" v="Corliss Road"/>
    <tag k="addr:state" v="VT"/>
    <tag k="ref:vcgi:esiteid" v="199253"/>
  </node>
  <node id="-308" visible="true" lat="44.99968338" lon="-72.57914733">
    <tag k="addr:city" v="Richford"/>
    <tag k="addr:housenumber" v="86"/>
    <tag k="addr:street" v="Nickson Road"/>
    <tag k="addr:state" v="VT"/>
    <tag k="ref:vcgi:esiteid" v="199286"/>
  </node>
  <node id="-312" visible="true" lat="44.99950543" lon="-72.6188832">
    <tag k="addr:city" v="Richford"/>
    <tag k="addr:housenumber" v="1634"/>
    <tag k="addr:street" v="Corliss Road"/>
    <tag k="addr:state" v="VT"/>
    <tag k="ref:vcgi:esiteid" v="199290"/>
  </node>
  <node id="-334" visible="true" lat="44.99919778" lon="-72.6638275">
    <tag k="addr:city" v="Richford"/>
    <tag k="addr:housenumber" v="49"/>
    <tag k="addr:street" v="Green Avenue"/>
    <tag k="addr:state" v="VT"/>
    <tag k="ref:vcgi:esiteid" v="199315"/>
  </node>
  <node id="-354" visible="true" lat="45.00039201" lon="-72.57614134">
    <tag k="addr:city" v="Richford"/>
    <tag k="addr:housenumber" v="83"/>
    <tag k="addr:street" v="Nickson Road"/>
    <tag k="addr:state" v="VT"/>
    <tag k="ref:vcgi:esiteid" v="199338"/>
  </node>
  <node id="-366" visible="true" lat="44.99860763" lon="-72.67398834">
    <tag k="addr:city" v="Richford"/>
    <tag k="addr:housenumber" v="10"/>
    <tag k="addr:street" v="North Avenue"/>
    <tag k="addr:state" v="VT"/>
    <tag k="ref:vcgi:esiteid" v="199351"/>
  </node>
  <node id="-372" visible="true" lat="44.9986" lon="-72.60722351">
    <tag k="addr:city" v="Richford"/>
    <tag k="addr:housenumber" v="86"/>
    <tag k="addr:street" v="Glenn Sutton Road"/>
    <tag k="addr:state" v="VT"/>
    <tag k="ref:vcgi:esiteid" v="199359"/>
  </node>
  <node id="-387" visible="true" lat="44.99792418" lon="-72.67222218">
    <tag k="addr:city" v="Richford"/>
    <tag k="addr:housenumber" v="47"/>
    <tag k="addr:street" v="Church Street"/>
    <tag k="addr:state" v="VT"/>
    <tag k="ref:vcgi:esiteid" v="199376"/>
  </node>
  <node id="-402" visible="true" lat="44.99745525" lon="-72.67224811">
    <tag k="addr:city" v="Richford"/>
    <tag k="addr:housenumber" v="44"/>
    <tag k="addr:street" v="River Street"/>
    <tag k="addr:state" v="VT"/>
    <tag k="ref:vcgi:esiteid" v="199394"/>
  </node>
  <node id="-404" visible="true" lat="44.99752467" lon="-72.60925054">
    <tag k="addr:city" v="Richford"/>
    <tag k="addr:housenumber" v="658"/>
    <tag k="addr:street" v="Jay Road"/>
    <tag k="addr:state" v="VT"/>
    <tag k="ref:vcgi:esiteid" v="199396"/>
  </node>
  <node id="-411" visible="true" lat="44.99735439" lon="-72.6097707">
    <tag k="addr:city" v="Richford"/>
    <tag k="addr:housenumber" v="657"/>
    <tag k="addr:street" v="Jay Road"/>
    <tag k="addr:state" v="VT"/>
    <tag k="ref:vcgi:esiteid" v="199403"/>
  </node>
  <node id="-424" visible="true" lat="44.99707975" lon="-72.66059333">
    <tag k="addr:city" v="Richford"/>
    <tag k="addr:housenumber" v="71"/>
    <tag k="addr:street" v="Green Avenue"/>
    <tag k="addr:state" v="VT"/>
    <tag k="ref:vcgi:esiteid" v="199417"/>
  </node>
  <node id="-440" visible="true" lat="44.99639596" lon="-72.66961967">
    <tag k="addr:city" v="Richford"/>
    <tag k="addr:housenumber" v="10"/>
    <tag k="addr:street" v="Union Street"/>
    <tag k="addr:state" v="VT"/>
    <tag k="ref:vcgi:esiteid" v="199438"/>
  </node>
  <node id="-444" visible="true" lat="44.99653688" lon="-72.62378952">
    <tag k="addr:city" v="Richford"/>
    <tag k="addr:housenumber" v="479"/>
    <tag k="addr:street" v="Jay Road"/>
    <tag k="addr:state" v="VT"/>
    <tag k="ref:vcgi:esiteid" v="199442"/>
  </node>
  <node id="-445" visible="true" lat="44.99624504" lon="-72.66987999">
    <tag k="addr:city" v="Richford"/>
    <tag k="addr:housenumber" v="31"/>
    <tag k="addr:street" v="Eastern Avenue"/>
    <tag k="addr:state" v="VT"/>
    <tag k="ref:vcgi:esiteid" v="199443"/>
  </node>
  <node id="-447" visible="true" lat="44.99618985" lon="-72.67355726">
    <tag k="addr:city" v="Richford"/>
    <tag k="addr:housenumber" v="27"/>
    <tag k="addr:street" v="Powell Street"/>
    <tag k="addr:state" v="VT"/>
    <tag k="ref:vcgi:esiteid" v="199445"/>
  </node>
  <node id="-449" visible="true" lat="44.99621628" lon="-72.61252839">
    <tag k="addr:city" v="Richford"/>
    <tag k="addr:housenumber" v="51"/>
    <tag k="addr:street" v="Glenn Sutton Road"/>
    <tag k="addr:state" v="VT"/>
    <tag k="ref:vcgi:esiteid" v="199448"/>
  </node>
  <node id="-456" visible="true" lat="44.99589538" lon="-72.67427825">
    <tag k="addr:city" v="Richford"/>
    <tag k="addr:housenumber" v="38"/>
    <tag k="addr:street" v="Academy Lane"/>
    <tag k="addr:state" v="VT"/>
    <tag k="ref:vcgi:esiteid" v="199458"/>
  </node>
  <node id="-458" visible="true" lat="44.99600825" lon="-72.61293274">
    <tag k="addr:city" v="Richford"/>
    <tag k="addr:housenumber" v="49"/>
    <tag k="addr:street" v="Glenn Sutton Road"/>
    <tag k="addr:state" v="VT"/>
    <tag k="ref:vcgi:esiteid" v="199460"/>
  </node>
  <node id="-468" visible="true" lat="44.98657734" lon="-72.61525012">
    <tag k="addr:city" v="Richford"/>
    <tag k="addr:housenumber" v="560"/>
    <tag k="addr:street" v="Coons Road"/>
    <tag k="addr:state" v="VT"/>
    <tag k="ref:vcgi:esiteid" v="199470"/>
  </node>
  <node id="-470" visible="true" lat="44.99563531" lon="-72.61321552">
    <tag k="addr:city" v="Richford"/>
    <tag k="addr:housenumber" v="7"/>
    <tag k="addr:street" v="Haggerty Road"/>
    <tag k="addr:state" v="VT"/>
    <tag k="ref:vcgi:esiteid" v="199472"/>
  </node>
  <node id="-473" visible="true" lat="44.9953752" lon="-72.6216389">
    <tag k="addr:city" v="Richford"/>
    <tag k="addr:housenumber" v="512"/>
    <tag k="addr:street" v="Jay Road"/>
    <tag k="addr:state" v="VT"/>
    <tag k="ref:vcgi:esiteid" v="199477"/>
  </node>
  <node id="-482" visible="true" lat="44.99536514" lon="-72.61817932">
    <tag k="addr:city" v="Richford"/>
    <tag k="addr:housenumber" v="543"/>
    <tag k="addr:street" v="Jay Road"/>
    <tag k="addr:state" v="VT"/>
    <tag k="ref:vcgi:esiteid" v="199487"/>
  </node>
  <node id="-484" visible="true" lat="44.99525625" lon="-72.61360046">
    <tag k="addr:city" v="Richford"/>
    <tag k="addr:housenumber" v="3"/>
    <tag k="addr:street" v="Haggerty Road"/>
    <tag k="addr:state" v="VT"/>
    <tag k="ref:vcgi:esiteid" v="199489"/>
  </node>
  <node id="-485" visible="true" lat="44.99512305" lon="-72.62078876">
    <tag k="addr:city" v="Richford"/>
    <tag k="addr:housenumber" v="520"/>
    <tag k="addr:street" v="Jay Road"/>
    <tag k="addr:state" v="VT"/>
    <tag k="ref:vcgi:esiteid" v="199490"/>
  </node>
  <node id="-487" visible="true" lat="44.99504089" lon="-72.61786651">
    <tag k="addr:city" v="Richford"/>
    <tag k="addr:housenumber" v="550"/>
    <tag k="addr:street" v="Jay Road"/>
    <tag k="addr:state" v="VT"/>
    <tag k="ref:vcgi:esiteid" v="199493"/>
  </node>
  <node id="-494" visible="true" lat="44.9949118" lon="-72.61455491">
    <tag k="addr:city" v="Richford"/>
    <tag k="addr:housenumber" v="577"/>
    <tag k="addr:street" v="Jay Road"/>
    <tag k="addr:state" v="VT"/>
    <tag k="ref:vcgi:esiteid" v="199500"/>
  </node>
  <node id="-501" visible="true" lat="44.99428558" lon="-72.6171875">
    <tag k="addr:city" v="Richford"/>
    <tag k="addr:housenumber" v="560"/>
    <tag k="addr:street" v="Jay Road"/>
    <tag k="addr:state" v="VT"/>
    <tag k="ref:vcgi:esiteid" v="199511"/>
  </node>
  <node id="-503" visible="true" lat="44.99417113" lon="-72.67330186">
    <tag k="addr:city" v="Richford"/>
    <tag k="addr:housenumber" v="115"/>
    <tag k="addr:street" v="Main Street"/>
    <tag k="addr:state" v="VT"/>
    <tag k="ref:vcgi:esiteid" v="199514"/>
  </node>
  <node id="-507" visible="true" lat="44.99416882" lon="-72.63601247">
    <tag k="addr:city" v="Richford"/>
    <tag k="addr:housenumber" v="353"/>
    <tag k="addr:street" v="Jay Road"/>
    <tag k="addr:state" v="VT"/>
    <tag k="ref:vcgi:esiteid" v="199518"/>
  </node>
  <node id="-508" visible="true" lat="44.99409074" lon="-72.67540747">
    <tag k="addr:city" v="Richford"/>
    <tag k="addr:housenumber" v="42"/>
    <tag k="addr:street" v="Intervale Avenue"/>
    <tag k="addr:state" v="VT"/>
    <tag k="ref:vcgi:esiteid" v="199519"/>
  </node>
  <node id="-511" visible="true" lat="44.99392804" lon="-72.66655744">
    <tag k="addr:city" v="Richford"/>
    <tag k="addr:housenumber" v="187"/>
    <tag k="addr:street" v="Eastern Avenue"/>
    <tag k="addr:state" v="VT"/>
    <tag k="ref:vcgi:esiteid" v="199524"/>
  </node>
  <node id="-515" visible="true" lat="44.99386622" lon="-72.6373975">
    <tag k="addr:city" v="Richford"/>
    <tag k="addr:housenumber" v="335"/>
    <tag k="addr:street" v="Jay Road"/>
    <tag k="addr:state" v="VT"/>
    <tag k="ref:vcgi:esiteid" v="199529"/>
  </node>
  <node id="-517" visible="true" lat="44.99362945" lon="-72.67357635">
    <tag k="addr:city" v="Richford"/>
    <tag k="addr:housenumber" v="139"/>
    <tag k="addr:street" v="Main Street"/>
    <tag k="addr:state" v="VT"/>
    <tag k="ref:vcgi:esiteid" v="199531"/>
  </node>
  <node id="-519" visible="true" lat="44.99373932" lon="-72.67724534">
    <tag k="addr:city" v="Richford"/>
    <tag k="addr:housenumber" v="100"/>
    <tag k="addr:street" v="Playground Road"/>
    <tag k="addr:state" v="VT"/>
    <tag k="ref:vcgi:esiteid" v="199534"/>
  </node>
  <node id="-521" visible="true" lat="44.99354613" lon="-72.56833496">
    <tag k="addr:city" v="Richford"/>
    <tag k="addr:housenumber" v="1346"/>
    <tag k="addr:street" v="Jay Road"/>
    <tag k="addr:state" v="VT"/>
    <tag k="ref:vcgi:esiteid" v="199536"/>
  </node>
  <node id="-522" visible="true" lat="44.99355844" lon="-72.6385553">
    <tag k="addr:city" v="Richford"/>
    <tag k="addr:housenumber" v="327"/>
    <tag k="addr:street" v="Jay Road"/>
    <tag k="addr:state" v="VT"/>
    <tag k="ref:vcgi:esiteid" v="199537"/>
  </node>
  <node id="-524" visible="true" lat="44.9859023" lon="-72.55000901">
    <tag k="addr:city" v="Richford"/>
    <tag k="addr:housenumber" v="1372"/>
    <tag k="addr:street" v="Jay Road"/>
    <tag k="addr:state" v="VT"/>
    <tag k="ref:vcgi:esiteid" v="199539"/>
  </node>
  <node id="-525" visible="true" lat="44.9929634" lon="-72.6739514">
    <tag k="addr:city" v="Richford"/>
    <tag k="addr:housenumber" v="167"/>
    <tag k="addr:street" v="South Main Street"/>
    <tag k="addr:state" v="VT"/>
    <tag k="ref:vcgi:esiteid" v="199540"/>
  </node>
  <node id="-526" visible="true" lat="44.9930191" lon="-72.67516326">
    <tag k="addr:city" v="Richford"/>
    <tag k="addr:housenumber" v="41"/>
    <tag k="addr:street" v="Playground Road"/>
    <tag k="addr:state" v="VT"/>
    <tag k="ref:vcgi:esiteid" v="199541"/>
  </node>
  <node id="-527" visible="true" lat="44.9930521" lon="-72.67464081">
    <tag k="addr:city" v="Richford"/>
    <tag k="addr:housenumber" v="166"/>
    <tag k="addr:street" v="South Main Street"/>
    <tag k="addr:state" v="VT"/>
    <tag k="ref:vcgi:esiteid" v="199542"/>
  </node>
  <node id="-534" visible="true" lat="44.99291908" lon="-72.67460551">
    <tag k="addr:city" v="Richford"/>
    <tag k="addr:housenumber" v="170"/>
    <tag k="addr:street" v="South Main Street"/>
    <tag k="addr:state" v="VT"/>
    <tag k="ref:vcgi:esiteid" v="199550"/>
  </node>
  <node id="-545" visible="true" lat="44.99235974" lon="-72.60645943">
    <tag k="addr:city" v="Richford"/>
    <tag k="addr:housenumber" v="560"/>
    <tag k="addr:street" v="Stevens Mills Slide Road"/>
    <tag k="addr:state" v="VT"/>
    <tag k="ref:vcgi:esiteid" v="199561"/>
  </node>
  <node id="-550" visible="true" lat="44.99242598" lon="-72.60604065">
    <tag k="addr:city" v="Richford"/>
    <tag k="addr:housenumber" v="554"/>
    <tag k="addr:street" v="Stevens Mills Slide Road"/>
    <tag k="addr:state" v="VT"/>
    <tag k="ref:vcgi:esiteid" v="199568"/>
  </node>
  <node id="-554" visible="true" lat="44.99195966" lon="-72.67293006">
    <tag k="addr:city" v="Richford"/>
    <tag k="addr:housenumber" v="48"/>
    <tag k="addr:street" v="Troy Street"/>
    <tag k="addr:state" v="VT"/>
    <tag k="ref:vcgi:esiteid" v="199572"/>
  </node>
  <node id="-559" visible="true" lat="44.99244541" lon="-72.67348651">
    <tag k="addr:city" v="Richford"/>
    <tag k="addr:housenumber" v="24"/>
    <tag k="addr:street" v="Troy Street"/>
    <tag k="addr:state" v="VT"/>
    <tag k="ref:vcgi:esiteid" v="199577"/>
  </node>
  <node id="-563" visible="true" lat="44.99163445" lon="-72.67291028">
    <tag k="addr:city" v="Richford"/>
    <tag k="addr:housenumber" v="42"/>
    <tag k="addr:street" v="Farrar Street"/>
    <tag k="addr:state" v="VT"/>
    <tag k="ref:vcgi:esiteid" v="199581"/>
  </node>
  <node id="-564" visible="true" lat="44.99158859" lon="-72.67266082">
    <tag k="addr:city" v="Richford"/>
    <tag k="addr:housenumber" v="50"/>
    <tag k="addr:street" v="Farrar Street"/>
    <tag k="addr:state" v="VT"/>
    <tag k="ref:vcgi:esiteid" v="199583"/>
  </node>
  <node id="-565" visible="true" lat="44.99164587" lon="-72.67586258">
    <tag k="addr:city" v="Richford"/>
    <tag k="addr:housenumber" v="44"/>
    <tag k="addr:street" v="Harlem Street"/>
    <tag k="addr:state" v="VT"/>
    <tag k="ref:vcgi:esiteid" v="199584"/>
  </node>
  <node id="-569" visible="true" lat="44.99153839" lon="-72.60854197">
    <tag k="addr:city" v="Richford"/>
    <tag k="addr:housenumber" v="569"/>
    <tag k="addr:street" v="Stevens Mills Slide Road"/>
    <tag k="addr:state" v="VT"/>
    <tag k="ref:vcgi:esiteid" v="199588"/>
  </node>
  <node id="-575" visible="true" lat="44.99108345" lon="-72.63791773">
    <tag k="addr:city" v="Richford"/>
    <tag k="addr:housenumber" v="15"/>
    <tag k="addr:street" v="George Godin Road"/>
    <tag k="addr:state" v="VT"/>
    <tag k="ref:vcgi:esiteid" v="199595"/>
  </node>
  <node id="-576" visible="true" lat="44.99141543" lon="-72.66930539">
    <tag k="addr:city" v="Richford"/>
    <tag k="addr:housenumber" v="119"/>
    <tag k="addr:street" v="Troy Street"/>
    <tag k="addr:state" v="VT"/>
    <tag k="ref:vcgi:esiteid" v="199596"/>
  </node>
  <node id="-578" visible="true" lat="44.99127353" lon="-72.67036325">
    <tag k="addr:city" v="Richford"/>
    <tag k="addr:housenumber" v="103"/>
    <tag k="addr:street" v="Troy Street"/>
    <tag k="addr:state" v="VT"/>
    <tag k="ref:vcgi:esiteid" v="199598"/>
  </node>
  <node id="-579" visible="true" lat="44.99115371" lon="-72.67521667">
    <tag k="addr:city" v="Richford"/>
    <tag k="addr:housenumber" v="244"/>
    <tag k="addr:street" v="South Main Street"/>
    <tag k="addr:state" v="VT"/>
    <tag k="ref:vcgi:esiteid" v="199599"/>
  </node>
  <node id="-587" visible="true" lat="44.99086679" lon="-72.67025489">
    <tag k="addr:city" v="Richford"/>
    <tag k="addr:housenumber" v="115"/>
    <tag k="addr:street" v="Troy Street"/>
    <tag k="addr:state" v="VT"/>
    <tag k="ref:vcgi:esiteid" v="199609"/>
  </node>
  <node id="-594" visible="true" lat="44.99073992" lon="-72.67631185">
    <tag k="addr:city" v="Richford"/>
    <tag k="addr:housenumber" v="27"/>
    <tag k="addr:street" v="Harlem Street"/>
    <tag k="addr:state" v="VT"/>
    <tag k="ref:vcgi:esiteid" v="199616"/>
  </node>
  <node id="-596" visible="true" lat="44.99074943" lon="-72.67533959">
    <tag k="addr:city" v="Richford"/>
    <tag k="addr:housenumber" v="248"/>
    <tag k="addr:street" v="South Main Street"/>
    <tag k="addr:state" v="VT"/>
    <tag k="ref:vcgi:esiteid" v="199618"/>
  </node>
  <node id="-598" visible="true" lat="44.99067943" lon="-72.67571791">
    <tag k="addr:city" v="Richford"/>
    <tag k="addr:housenumber" v="18"/>
    <tag k="addr:street" v="Harlem Street"/>
    <tag k="addr:state" v="VT"/>
    <tag k="ref:vcgi:esiteid" v="199620"/>
  </node>
  <node id="-604" visible="true" lat="44.99043818" lon="-72.67595762">
    <tag k="addr:city" v="Richford"/>
    <tag k="addr:housenumber" v="19"/>
    <tag k="addr:street" v="Harlem Street"/>
    <tag k="addr:state" v="VT"/>
    <tag k="ref:vcgi:esiteid" v="199627"/>
  </node>
  <node id="-605" visible="true" lat="44.99038087" lon="-72.66994172">
    <tag k="addr:city" v="Richford"/>
    <tag k="addr:housenumber" v="138"/>
    <tag k="addr:street" v="Troy Street"/>
    <tag k="addr:state" v="VT"/>
    <tag k="ref:vcgi:esiteid" v="199628"/>
  </node>
  <node id="-618" visible="true" lat="44.99014282" lon="-72.64227294">
    <tag k="addr:city" v="Richford"/>
    <tag k="addr:housenumber" v="272"/>
    <tag k="addr:street" v="Jay Road"/>
    <tag k="addr:state" v="VT"/>
    <tag k="ref:vcgi:esiteid" v="199645"/>
  </node>
  <node id="-622" visible="true" lat="44.9898643" lon="-72.64376885">
    <tag k="addr:city" v="Richford"/>
    <tag k="addr:housenumber" v="262"/>
    <tag k="addr:street" v="Jay Road"/>
    <tag k="addr:state" v="VT"/>
    <tag k="ref:vcgi:esiteid" v="199649"/>
  </node>
  <node id="-626" visible="true" lat="44.98997776" lon="-72.60381256">
    <tag k="addr:city" v="Richford"/>
    <tag k="addr:housenumber" v="513"/>
    <tag k="addr:street" v="Stevens Mills Slide Road"/>
    <tag k="addr:state" v="VT"/>
    <tag k="ref:vcgi:esiteid" v="199653"/>
  </node>
  <node id="-629" visible="true" lat="44.98989521" lon="-72.68022876">
    <tag k="addr:city" v="Richford"/>
    <tag k="addr:housenumber" v="10"/>
    <tag k="addr:street" v="Sewer Plant Road"/>
    <tag k="addr:state" v="VT"/>
    <tag k="ref:vcgi:esiteid" v="199656"/>
  </node>
  <node id="-652" visible="true" lat="44.98913574" lon="-72.600708">
    <tag k="addr:city" v="Richford"/>
    <tag k="addr:housenumber" v="525"/>
    <tag k="addr:street" v="Stevens Mills Slide Road"/>
    <tag k="addr:state" v="VT"/>
    <tag k="ref:vcgi:esiteid" v="199682"/>
  </node>
  <node id="-667" visible="true" lat="44.98845309" lon="-72.64660969">
    <tag k="addr:city" v="Richford"/>
    <tag k="addr:housenumber" v="212"/>
    <tag k="addr:street" v="Jay Road"/>
    <tag k="addr:state" v="VT"/>
    <tag k="ref:vcgi:esiteid" v="199699"/>
  </node>
  <node id="-669" visible="true" lat="44.98844909" lon="-72.6730194">
    <tag k="addr:city" v="Richford"/>
    <tag k="addr:housenumber" v="139"/>
    <tag k="addr:street" v="Highland Avenue"/>
    <tag k="addr:state" v="VT"/>
    <tag k="ref:vcgi:esiteid" v="199701"/>
  </node>
  <node id="-687" visible="true" lat="44.98780085" lon="-72.64895567">
    <tag k="addr:city" v="Richford"/>
    <tag k="addr:housenumber" v="178"/>
    <tag k="addr:street" v="Jay Road"/>
    <tag k="addr:state" v="VT"/>
    <tag k="ref:vcgi:esiteid" v="199719"/>
  </node>
  <node id="-706" visible="true" lat="44.98751314" lon="-72.67146783">
    <tag k="addr:city" v="Richford"/>
    <tag k="addr:housenumber" v="1"/>
    <tag k="addr:street" v="Home Street"/>
    <tag k="addr:state" v="VT"/>
    <tag k="ref:vcgi:esiteid" v="199741"/>
  </node>
  <node id="-707" visible="true" lat="44.98754501" lon="-72.67428588">
    <tag k="addr:city" v="Richford"/>
    <tag k="addr:housenumber" v="104"/>
    <tag k="addr:street" v="Noyes Street"/>
    <tag k="addr:state" v="VT"/>
    <tag k="ref:vcgi:esiteid" v="199742"/>
  </node>
  <node id="-708" visible="true" lat="44.98747973" lon="-72.66781607">
    <tag k="addr:city" v="Richford"/>
    <tag k="addr:housenumber" v="8"/>
    <tag k="addr:street" v="Pine Haven Estate C"/>
    <tag k="addr:state" v="VT"/>
    <tag k="ref:vcgi:esiteid" v="199743"/>
  </node>
  <node id="-709" visible="true" lat="44.98745804" lon="-72.67194712">
    <tag k="addr:city" v="Richford"/>
    <tag k="addr:housenumber" v="2"/>
    <tag k="addr:street" v="Home Street"/>
    <tag k="addr:state" v="VT"/>
    <tag k="ref:vcgi:esiteid" v="199744"/>
  </node>
  <node id="-711" visible="true" lat="44.98728394" lon="-72.64999329">
    <tag k="addr:city" v="Richford"/>
    <tag k="addr:housenumber" v="166"/>
    <tag k="addr:street" v="Jay Road"/>
    <tag k="addr:state" v="VT"/>
    <tag k="ref:vcgi:esiteid" v="199746"/>
  </node>
  <node id="-714" visible="true" lat="44.98721845" lon="-72.60071182">
    <tag k="addr:city" v="Richford"/>
    <tag k="addr:housenumber" v="467"/>
    <tag k="addr:street" v="Stevens Mills Slide Road"/>
    <tag k="addr:state" v="VT"/>
    <tag k="ref:vcgi:esiteid" v="199749"/>
  </node>
  <node id="-718" visible="true" lat="44.98698421" lon="-72.61652214">
    <tag k="addr:city" v="Richford"/>
    <tag k="addr:housenumber" v="575"/>
    <tag k="addr:street" v="Coons Road"/>
    <tag k="addr:state" v="VT"/>
    <tag k="ref:vcgi:esiteid" v="199753"/>
  </node>
  <node id="-720" visible="true" lat="44.98687093" lon="-72.65355642">
    <tag k="addr:city" v="Richford"/>
    <tag k="addr:housenumber" v="140"/>
    <tag k="addr:street" v="Jay Road"/>
    <tag k="addr:state" v="VT"/>
    <tag k="ref:vcgi:esiteid" v="199755"/>
  </node>
  <node id="-731" visible="true" lat="44.98618267" lon="-72.65682974">
    <tag k="addr:city" v="Richford"/>
    <tag k="addr:housenumber" v="106"/>
    <tag k="addr:street" v="Jay Road"/>
    <tag k="addr:state" v="VT"/>
    <tag k="ref:vcgi:esiteid" v="199772"/>
  </node>
  <node id="-733" visible="true" lat="44.98590855" lon="-72.5973468">
    <tag k="addr:city" v="Richford"/>
    <tag k="addr:housenumber" v="424"/>
    <tag k="addr:street" v="Stevens Mills Slide Road"/>
    <tag k="addr:state" v="VT"/>
    <tag k="ref:vcgi:esiteid" v="199774"/>
  </node>
  <node id="-734" visible="true" lat="44.98556728" lon="-72.59088058">
    <tag k="addr:city" v="Richford"/>
    <tag k="addr:housenumber" v="359"/>
    <tag k="addr:street" v="Stevens Mills Slide Road"/>
    <tag k="addr:state" v="VT"/>
    <tag k="ref:vcgi:esiteid" v="199775"/>
  </node>
  <node id="-736" visible="true" lat="44.98440801" lon="-72.60128144">
    <tag k="addr:city" v="Richford"/>
    <tag k="addr:housenumber" v="61"/>
    <tag k="addr:street" v="Smith Road"/>
    <tag k="addr:state" v="VT"/>
    <tag k="ref:vcgi:esiteid" v="199777"/>
  </node>
  <node id="-738" visible="true" lat="44.98421414" lon="-72.68886102">
    <tag k="addr:city" v="Richford"/>
    <tag k="addr:housenumber" v="232"/>
    <tag k="addr:street" v="Magoon Road"/>
    <tag k="addr:state" v="VT"/>
    <tag k="ref:vcgi:esiteid" v="199779"/>
  </node>
  <node id="-739" visible="true" lat="44.98411265" lon="-72.66577648">
    <tag k="addr:city" v="Richford"/>
    <tag k="addr:housenumber" v="1476"/>
    <tag k="addr:street" v="South Richford Road"/>
    <tag k="addr:state" v="VT"/>
    <tag k="ref:vcgi:esiteid" v="199780"/>
  </node>
  <node id="-740" visible="true" lat="44.98406713" lon="-72.66491042">
    <tag k="addr:city" v="Richford"/>
    <tag k="addr:housenumber" v="5"/>
    <tag k="addr:street" v="Short Street"/>
    <tag k="addr:state" v="VT"/>
    <tag k="ref:vcgi:esiteid" v="199781"/>
  </node>
  <node id="-741" visible="true" lat="44.98405426" lon="-72.66407045">
    <tag k="addr:city" v="Richford"/>
    <tag k="addr:housenumber" v="9"/>
    <tag k="addr:street" v="Short Street"/>
    <tag k="addr:state" v="VT"/>
    <tag k="ref:vcgi:esiteid" v="199782"/>
  </node>
  <node id="-743" visible="true" lat="44.98388095" lon="-72.66610455">
    <tag k="addr:city" v="Richford"/>
    <tag k="addr:housenumber" v="1467"/>
    <tag k="addr:street" v="South Richford Road"/>
    <tag k="addr:state" v="VT"/>
    <tag k="ref:vcgi:esiteid" v="199784"/>
  </node>
  <node id="-744" visible="true" lat="44.98375701" lon="-72.66518402">
    <tag k="addr:city" v="Richford"/>
    <tag k="addr:housenumber" v="1462"/>
    <tag k="addr:street" v="South Richford Road"/>
    <tag k="addr:state" v="VT"/>
    <tag k="ref:vcgi:esiteid" v="199786"/>
  </node>
  <node id="-747" visible="true" lat="44.98370742" lon="-72.58827972">
    <tag k="addr:city" v="Richford"/>
    <tag k="addr:housenumber" v="319"/>
    <tag k="addr:street" v="Stevens Mills Slide Road"/>
    <tag k="addr:state" v="VT"/>
    <tag k="ref:vcgi:esiteid" v="199789"/>
  </node>
  <node id="-749" visible="true" lat="44.98312468" lon="-72.66772755">
    <tag k="addr:city" v="Richford"/>
    <tag k="addr:housenumber" v="1459"/>
    <tag k="addr:street" v="South Richford Road"/>
    <tag k="addr:state" v="VT"/>
    <tag k="ref:vcgi:esiteid" v="199791"/>
  </node>
  <node id="-755" visible="true" lat="44.98224258" lon="-72.62566375">
    <tag k="addr:city" v="Richford"/>
    <tag k="addr:housenumber" v="315"/>
    <tag k="addr:street" v="McAllister Road"/>
    <tag k="addr:state" v="VT"/>
    <tag k="ref:vcgi:esiteid" v="199797"/>
  </node>
  <node id="-757" visible="true" lat="44.98211669" lon="-72.66091918">
    <tag k="addr:city" v="Richford"/>
    <tag k="addr:housenumber" v="1409"/>
    <tag k="addr:street" v="South Richford Road"/>
    <tag k="addr:state" v="VT"/>
    <tag k="ref:vcgi:esiteid" v="199799"/>
  </node>
  <node id="-761" visible="true" lat="44.98171615" lon="-72.58606719">
    <tag k="addr:city" v="Richford"/>
    <tag k="addr:housenumber" v="284"/>
    <tag k="addr:street" v="Stevens Mills Slide Road"/>
    <tag k="addr:state" v="VT"/>
    <tag k="ref:vcgi:esiteid" v="199803"/>
  </node>
  <node id="-762" visible="true" lat="44.98177952" lon="-72.60081415">
    <tag k="addr:city" v="Richford"/>
    <tag k="addr:housenumber" v="11"/>
    <tag k="addr:street" v="Smith Road"/>
    <tag k="addr:state" v="VT"/>
    <tag k="ref:vcgi:esiteid" v="199804"/>
  </node>
  <node id="-765" visible="true" lat="44.98114395" lon="-72.63842773">
    <tag k="addr:city" v="Richford"/>
    <tag k="addr:housenumber" v="149"/>
    <tag k="addr:street" v="McAllister Road"/>
    <tag k="addr:state" v="VT"/>
    <tag k="ref:vcgi:esiteid" v="199808"/>
  </node>
  <node id="-766" visible="true" lat="44.98097229" lon="-72.64041137">
    <tag k="addr:city" v="Richford"/>
    <tag k="addr:housenumber" v="137"/>
    <tag k="addr:street" v="McAllister Road"/>
    <tag k="addr:state" v="VT"/>
    <tag k="ref:vcgi:esiteid" v="199809"/>
  </node>
  <node id="-767" visible="true" lat="44.98073144" lon="-72.62747384">
    <tag k="addr:city" v="Richford"/>
    <tag k="addr:housenumber" v="342"/>
    <tag k="addr:street" v="McAllister Road"/>
    <tag k="addr:state" v="VT"/>
    <tag k="ref:vcgi:esiteid" v="199810"/>
  </node>
  <node id="-768" visible="true" lat="44.98086547" lon="-72.59848785">
    <tag k="addr:city" v="Richford"/>
    <tag k="addr:housenumber" v="6"/>
    <tag k="addr:street" v="Smith Road"/>
    <tag k="addr:state" v="VT"/>
    <tag k="ref:vcgi:esiteid" v="199811"/>
  </node>
  <node id="-769" visible="true" lat="44.98025131" lon="-72.68643951">
    <tag k="addr:city" v="Richford"/>
    <tag k="addr:housenumber" v="1739"/>
    <tag k="addr:street" v="Saint Albans Road"/>
    <tag k="addr:state" v="VT"/>
    <tag k="ref:vcgi:esiteid" v="199812"/>
  </node>
  <node id="-770" visible="true" lat="44.9801712" lon="-72.58366394">
    <tag k="addr:city" v="Richford"/>
    <tag k="addr:housenumber" v="250"/>
    <tag k="addr:street" v="Stevens Mills Slide Road"/>
    <tag k="addr:state" v="VT"/>
    <tag k="ref:vcgi:esiteid" v="199813"/>
  </node>
  <node id="-771" visible="true" lat="44.98004656" lon="-72.65706902">
    <tag k="addr:city" v="Richford"/>
    <tag k="addr:housenumber" v="1362"/>
    <tag k="addr:street" v="South Richford Road"/>
    <tag k="addr:state" v="VT"/>
    <tag k="ref:vcgi:esiteid" v="199814"/>
  </node>
  <node id="-773" visible="true" lat="44.97997878" lon="-72.61998102">
    <tag k="addr:city" v="Richford"/>
    <tag k="addr:housenumber" v="10"/>
    <tag k="addr:street" v="Coons Road"/>
    <tag k="addr:state" v="VT"/>
    <tag k="ref:vcgi:esiteid" v="199816"/>
  </node>
  <node id="-775" visible="true" lat="44.9793984" lon="-72.61724327">
    <tag k="addr:city" v="Richford"/>
    <tag k="addr:housenumber" v="399"/>
    <tag k="addr:street" v="McAllister Road"/>
    <tag k="addr:state" v="VT"/>
    <tag k="ref:vcgi:esiteid" v="199818"/>
  </node>
  <node id="-776" visible="true" lat="44.9791336" lon="-72.65729522">
    <tag k="addr:city" v="Richford"/>
    <tag k="addr:housenumber" v="1351"/>
    <tag k="addr:street" v="South Richford Road"/>
    <tag k="addr:state" v="VT"/>
    <tag k="ref:vcgi:esiteid" v="199819"/>
  </node>
  <node id="-777" visible="true" lat="44.97908277" lon="-72.65576981">
    <tag k="addr:city" v="Richford"/>
    <tag k="addr:housenumber" v="1340"/>
    <tag k="addr:street" v="South Richford Road"/>
    <tag k="addr:state" v="VT"/>
    <tag k="ref:vcgi:esiteid" v="199820"/>
  </node>
  <node id="-779" visible="true" lat="44.97838846" lon="-72.6865655">
    <tag k="addr:city" v="Richford"/>
    <tag k="addr:housenumber" v="1716"/>
    <tag k="addr:street" v="Saint Albans Road"/>
    <tag k="addr:state" v="VT"/>
    <tag k="ref:vcgi:esiteid" v="199823"/>
  </node>
  <node id="-780" visible="true" lat="44.97818756" lon="-72.58290863">
    <tag k="addr:city" v="Richford"/>
    <tag k="addr:housenumber" v="224"/>
    <tag k="addr:street" v="Stevens Mills Slide Road"/>
    <tag k="addr:state" v="VT"/>
    <tag k="ref:vcgi:esiteid" v="199824"/>
  </node>
  <node id="-781" visible="true" lat="44.97814411" lon="-72.65223504">
    <tag k="addr:city" v="Richford"/>
    <tag k="addr:housenumber" v="1306"/>
    <tag k="addr:street" v="South Richford Road"/>
    <tag k="addr:state" v="VT"/>
    <tag k="ref:vcgi:esiteid" v="199825"/>
  </node>
  <node id="-783" visible="true" lat="44.97761752" lon="-72.64568506">
    <tag k="addr:city" v="Richford"/>
    <tag k="addr:housenumber" v="65"/>
    <tag k="addr:street" v="McAllister Road"/>
    <tag k="addr:state" v="VT"/>
    <tag k="ref:vcgi:esiteid" v="199828"/>
  </node>
  <node id="-784" visible="true" lat="44.97750003" lon="-72.65454905">
    <tag k="addr:city" v="Richford"/>
    <tag k="addr:housenumber" v="1314"/>
    <tag k="addr:street" v="South Richford Road"/>
    <tag k="addr:state" v="VT"/>
    <tag k="ref:vcgi:esiteid" v="199829"/>
  </node>
  <node id="-787" visible="true" lat="44.97719097" lon="-72.65078675">
    <tag k="addr:city" v="Richford"/>
    <tag k="addr:housenumber" v="13"/>
    <tag k="addr:street" v="McAllister Road"/>
    <tag k="addr:state" v="VT"/>
    <tag k="ref:vcgi:esiteid" v="199833"/>
  </node>
  <node id="-788" visible="true" lat="44.97733116" lon="-72.64748295">
    <tag k="addr:city" v="Richford"/>
    <tag k="addr:housenumber" v="49"/>
    <tag k="addr:street" v="McAllister Road"/>
    <tag k="addr:state" v="VT"/>
    <tag k="ref:vcgi:esiteid" v="199834"/>
  </node>
  <node id="-789" visible="true" lat="44.97713138" lon="-72.65043592">
    <tag k="addr:city" v="Richford"/>
    <tag k="addr:housenumber" v="11"/>
    <tag k="addr:street" v="McAllister Road"/>
    <tag k="addr:state" v="VT"/>
    <tag k="ref:vcgi:esiteid" v="199835"/>
  </node>
  <node id="-790" visible="true" lat="44.97691197" lon="-72.64931292">
    <tag k="addr:city" v="Richford"/>
    <tag k="addr:housenumber" v="27"/>
    <tag k="addr:street" v="McAllister Road"/>
    <tag k="addr:state" v="VT"/>
    <tag k="ref:vcgi:esiteid" v="199836"/>
  </node>
  <node id="-791" visible="true" lat="44.97696685" lon="-72.64997935">
    <tag k="addr:city" v="Richford"/>
    <tag k="addr:housenumber" v="23"/>
    <tag k="addr:street" v="McAllister Road"/>
    <tag k="addr:state" v="VT"/>
    <tag k="ref:vcgi:esiteid" v="199837"/>
  </node>
  <node id="-792" visible="true" lat="44.97685347" lon="-72.65348354">
    <tag k="addr:city" v="Richford"/>
    <tag k="addr:housenumber" v="1302"/>
    <tag k="addr:street" v="South Richford Road"/>
    <tag k="addr:state" v="VT"/>
    <tag k="ref:vcgi:esiteid" v="199838"/>
  </node>
  <node id="-793" visible="true" lat="44.97671686" lon="-72.65039445">
    <tag k="addr:city" v="Richford"/>
    <tag k="addr:housenumber" v="19"/>
    <tag k="addr:street" v="McAllister Road"/>
    <tag k="addr:state" v="VT"/>
    <tag k="ref:vcgi:esiteid" v="199839"/>
  </node>
  <node id="-794" visible="true" lat="44.97650527" lon="-72.65129852">
    <tag k="addr:city" v="Richford"/>
    <tag k="addr:housenumber" v="7"/>
    <tag k="addr:street" v="McAllister Road"/>
    <tag k="addr:state" v="VT"/>
    <tag k="ref:vcgi:esiteid" v="199840"/>
  </node>
  <node id="-795" visible="true" lat="44.97599788" lon="-72.65262058">
    <tag k="addr:city" v="Richford"/>
    <tag k="addr:housenumber" v="6"/>
    <tag k="addr:street" v="McAllister Road"/>
    <tag k="addr:state" v="VT"/>
    <tag k="ref:vcgi:esiteid" v="199841"/>
  </node>
  <node id="-796" visible="true" lat="44.97556476" lon="-72.58201109">
    <tag k="addr:city" v="Richford"/>
    <tag k="addr:housenumber" v="178"/>
    <tag k="addr:street" v="Stevens Mills Slide Road"/>
    <tag k="addr:state" v="VT"/>
    <tag k="ref:vcgi:esiteid" v="199843"/>
  </node>
  <node id="-798" visible="true" lat="44.9743674" lon="-72.58063666">
    <tag k="addr:city" v="Richford"/>
    <tag k="addr:housenumber" v="2483"/>
    <tag k="addr:street" v="Stevens Mills Slide Road"/>
    <tag k="addr:state" v="VT"/>
    <tag k="ref:vcgi:esiteid" v="199846"/>
  </node>
  <node id="-799" visible="true" lat="44.97422573" lon="-72.6514036">
    <tag k="addr:city" v="Richford"/>
    <tag k="addr:housenumber" v="1261"/>
    <tag k="addr:street" v="South Richford Road"/>
    <tag k="addr:state" v="VT"/>
    <tag k="ref:vcgi:esiteid" v="199847"/>
  </node>
  <node id="-800" visible="true" lat="44.97404861" lon="-72.65577697">
    <tag k="addr:city" v="Richford"/>
    <tag k="addr:housenumber" v="357"/>
    <tag k="addr:street" v="Guilmette Road"/>
    <tag k="addr:state" v="VT"/>
    <tag k="ref:vcgi:esiteid" v="199848"/>
  </node>
  <node id="-804" visible="true" lat="44.97136616" lon="-72.63269198">
    <tag k="addr:city" v="Richford"/>
    <tag k="addr:housenumber" v="82"/>
    <tag k="addr:street" v="Grierson Road"/>
    <tag k="addr:state" v="VT"/>
    <tag k="ref:vcgi:esiteid" v="199852"/>
  </node>
  <node id="-805" visible="true" lat="44.97085979" lon="-72.66413056">
    <tag k="addr:city" v="Richford"/>
    <tag k="addr:housenumber" v="238"/>
    <tag k="addr:street" v="Pattee Road"/>
    <tag k="addr:state" v="VT"/>
    <tag k="ref:vcgi:esiteid" v="199854"/>
  </node>
  <node id="-806" visible="true" lat="44.97126443" lon="-72.66228372">
    <tag k="addr:city" v="Richford"/>
    <tag k="addr:housenumber" v="132"/>
    <tag k="addr:street" v="Pattee Road"/>
    <tag k="addr:state" v="VT"/>
    <tag k="ref:vcgi:esiteid" v="199855"/>
  </node>
  <node id="-807" visible="true" lat="44.97053146" lon="-72.64450073">
    <tag k="addr:city" v="Richford"/>
    <tag k="addr:housenumber" v="562"/>
    <tag k="addr:street" v="Wightman Hill Road"/>
    <tag k="addr:state" v="VT"/>
    <tag k="ref:vcgi:esiteid" v="199856"/>
  </node>
  <node id="-809" visible="true" lat="44.96990203" lon="-72.63813018">
    <tag k="addr:city" v="Richford"/>
    <tag k="addr:housenumber" v="23"/>
    <tag k="addr:street" v="Grierson Road"/>
    <tag k="addr:state" v="VT"/>
    <tag k="ref:vcgi:esiteid" v="199858"/>
  </node>
  <node id="-810" visible="true" lat="44.96882787" lon="-72.66321289">
    <tag k="addr:city" v="Richford"/>
    <tag k="addr:housenumber" v="80"/>
    <tag k="addr:street" v="Pattee Road"/>
    <tag k="addr:state" v="VT"/>
    <tag k="ref:vcgi:esiteid" v="199859"/>
  </node>
  <node id="-811" visible="true" lat="44.96908569" lon="-72.65763092">
    <tag k="addr:city" v="Richford"/>
    <tag k="addr:housenumber" v="254"/>
    <tag k="addr:street" v="Guilmette Road"/>
    <tag k="addr:state" v="VT"/>
    <tag k="ref:vcgi:esiteid" v="199860"/>
  </node>
  <node id="-813" visible="true" lat="44.96808624" lon="-72.63889312">
    <tag k="addr:city" v="Richford"/>
    <tag k="addr:housenumber" v="1101"/>
    <tag k="addr:street" v="South Richford Road"/>
    <tag k="addr:state" v="VT"/>
    <tag k="ref:vcgi:esiteid" v="199862"/>
  </node>
  <node id="-814" visible="true" lat="44.96781539" lon="-72.57807922">
    <tag k="addr:city" v="Richford"/>
    <tag k="addr:housenumber" v="42"/>
    <tag k="addr:street" v="Stevens Mills Slide Road"/>
    <tag k="addr:state" v="VT"/>
    <tag k="ref:vcgi:esiteid" v="199863"/>
  </node>
  <node id="-815" visible="true" lat="44.96749496" lon="-72.63745117">
    <tag k="addr:city" v="Richford"/>
    <tag k="addr:housenumber" v="1083"/>
    <tag k="addr:street" v="South Richford Road"/>
    <tag k="addr:state" v="VT"/>
    <tag k="ref:vcgi:esiteid" v="199864"/>
  </node>
  <node id="-816" visible="true" lat="44.96772982" lon="-72.65825571">
    <tag k="addr:city" v="Richford"/>
    <tag k="addr:housenumber" v="242"/>
    <tag k="addr:street" v="Guilmette Road"/>
    <tag k="addr:state" v="VT"/>
    <tag k="ref:vcgi:esiteid" v="199865"/>
  </node>
  <node id="-817" visible="true" lat="44.96711056" lon="-72.57650053">
    <tag k="addr:city" v="Richford"/>
    <tag k="addr:housenumber" v="22"/>
    <tag k="addr:street" v="Stevens Mills Slide Road"/>
    <tag k="addr:state" v="VT"/>
    <tag k="ref:vcgi:esiteid" v="199866"/>
  </node>
  <node id="-818" visible="true" lat="44.96686995" lon="-72.65866483">
    <tag k="addr:city" v="Richford"/>
    <tag k="addr:housenumber" v="238"/>
    <tag k="addr:street" v="Guilmette Road"/>
    <tag k="addr:state" v="VT"/>
    <tag k="ref:vcgi:esiteid" v="199867"/>
  </node>
  <node id="-819" visible="true" lat="44.96669769" lon="-72.64404296">
    <tag k="addr:city" v="Richford"/>
    <tag k="addr:housenumber" v="508"/>
    <tag k="addr:street" v="Wightman Hill Road"/>
    <tag k="addr:state" v="VT"/>
    <tag k="ref:vcgi:esiteid" v="199868"/>
  </node>
  <node id="-820" visible="true" lat="44.96642303" lon="-72.57620239">
    <tag k="addr:city" v="Richford"/>
    <tag k="addr:housenumber" v="2"/>
    <tag k="addr:street" v="Stevens Mills Slide Road"/>
    <tag k="addr:state" v="VT"/>
    <tag k="ref:vcgi:esiteid" v="199869"/>
  </node>
  <node id="-821" visible="true" lat="44.96624755" lon="-72.64044189">
    <tag k="addr:city" v="Richford"/>
    <tag k="addr:housenumber" v="498"/>
    <tag k="addr:street" v="Wightman Hill Road"/>
    <tag k="addr:state" v="VT"/>
    <tag k="ref:vcgi:esiteid" v="199870"/>
  </node>
  <node id="-824" visible="true" lat="44.96585324" lon="-72.66019543">
    <tag k="addr:city" v="Richford"/>
    <tag k="addr:housenumber" v="224"/>
    <tag k="addr:street" v="Guilmette Road"/>
    <tag k="addr:state" v="VT"/>
    <tag k="ref:vcgi:esiteid" v="199873"/>
  </node>
  <node id="-825" visible="true" lat="44.96589021" lon="-72.63372059">
    <tag k="addr:city" v="Richford"/>
    <tag k="addr:housenumber" v="1044"/>
    <tag k="addr:street" v="South Richford Road"/>
    <tag k="addr:state" v="VT"/>
    <tag k="ref:vcgi:esiteid" v="199874"/>
  </node>
  <node id="-827" visible="true" lat="44.96515975" lon="-72.64460642">
    <tag k="addr:city" v="Richford"/>
    <tag k="addr:housenumber" v="486"/>
    <tag k="addr:street" v="Wightman Hill Road"/>
    <tag k="addr:state" v="VT"/>
    <tag k="ref:vcgi:esiteid" v="199876"/>
  </node>
  <node id="-828" visible="true" lat="44.96516418" lon="-72.63412475">
    <tag k="addr:city" v="Richford"/>
    <tag k="addr:housenumber" v="1036"/>
    <tag k="addr:street" v="South Richford Road"/>
    <tag k="addr:state" v="VT"/>
    <tag k="ref:vcgi:esiteid" v="199877"/>
  </node>
  <node id="-829" visible="true" lat="44.96442413" lon="-72.64839935">
    <tag k="addr:city" v="Richford"/>
    <tag k="addr:housenumber" v="471"/>
    <tag k="addr:street" v="Wightman Hill Road"/>
    <tag k="addr:state" v="VT"/>
    <tag k="ref:vcgi:esiteid" v="199878"/>
  </node>
  <node id="-830" visible="true" lat="44.9636209" lon="-72.64467801">
    <tag k="addr:city" v="Richford"/>
    <tag k="addr:housenumber" v="466"/>
    <tag k="addr:street" v="Wightman Hill Road"/>
    <tag k="addr:state" v="VT"/>
    <tag k="ref:vcgi:esiteid" v="199879"/>
  </node>
  <node id="-832" visible="true" lat="44.96296419" lon="-72.6321684">
    <tag k="addr:city" v="Richford"/>
    <tag k="addr:housenumber" v="998"/>
    <tag k="addr:street" v="South Richford Road"/>
    <tag k="addr:state" v="VT"/>
    <tag k="ref:vcgi:esiteid" v="199881"/>
  </node>
  <node id="-833" visible="true" lat="44.96257714" lon="-72.57062446">
    <tag k="addr:city" v="Richford"/>
    <tag k="addr:housenumber" v="4016"/>
    <tag k="addr:street" v="Stevens Mills Slide Road"/>
    <tag k="addr:state" v="VT"/>
    <tag k="ref:vcgi:esiteid" v="199882"/>
  </node>
  <node id="-834" visible="true" lat="44.96227167" lon="-72.63292252">
    <tag k="addr:city" v="Richford"/>
    <tag k="addr:housenumber" v="994"/>
    <tag k="addr:street" v="South Richford Road"/>
    <tag k="addr:state" v="VT"/>
    <tag k="ref:vcgi:esiteid" v="199883"/>
  </node>
  <node id="-835" visible="true" lat="44.96250143" lon="-72.6304186">
    <tag k="addr:city" v="Richford"/>
    <tag k="addr:housenumber" v="27"/>
    <tag k="addr:street" v="Gendron Road"/>
    <tag k="addr:state" v="VT"/>
    <tag k="ref:vcgi:esiteid" v="199884"/>
  </node>
  <node id="-837" visible="true" lat="44.96217158" lon="-72.62739854">
    <tag k="addr:city" v="Richford"/>
    <tag k="addr:housenumber" v="75"/>
    <tag k="addr:street" v="Benson Road"/>
    <tag k="addr:state" v="VT"/>
    <tag k="ref:vcgi:esiteid" v="199886"/>
  </node>
  <node id="-838" visible="true" lat="44.9622116" lon="-72.63349914">
    <tag k="addr:city" v="Richford"/>
    <tag k="addr:housenumber" v="995"/>
    <tag k="addr:street" v="South Richford Road"/>
    <tag k="addr:state" v="VT"/>
    <tag k="ref:vcgi:esiteid" v="199887"/>
  </node>
  <node id="-839" visible="true" lat="44.96198654" lon="-72.64524841">
    <tag k="addr:city" v="Richford"/>
    <tag k="addr:housenumber" v="440"/>
    <tag k="addr:street" v="Wightman Hill Road"/>
    <tag k="addr:state" v="VT"/>
    <tag k="ref:vcgi:esiteid" v="199888"/>
  </node>
  <node id="-842" visible="true" lat="44.96183094" lon="-72.63180099">
    <tag k="addr:city" v="Richford"/>
    <tag k="addr:housenumber" v="7"/>
    <tag k="addr:street" v="Gendron Road"/>
    <tag k="addr:state" v="VT"/>
    <tag k="ref:vcgi:esiteid" v="199891"/>
  </node>
  <node id="-845" visible="true" lat="44.9617266" lon="-72.64559467">
    <tag k="addr:city" v="Richford"/>
    <tag k="addr:housenumber" v="432"/>
    <tag k="addr:street" v="Wightman Hill Road"/>
    <tag k="addr:state" v="VT"/>
    <tag k="ref:vcgi:esiteid" v="199894"/>
  </node>
  <node id="-848" visible="true" lat="44.96087551" lon="-72.57222258">
    <tag k="addr:city" v="Richford"/>
    <tag k="addr:housenumber" v="4001"/>
    <tag k="addr:street" v="Stevens Mills Slide Road"/>
    <tag k="addr:state" v="VT"/>
    <tag k="ref:vcgi:esiteid" v="199897"/>
  </node>
  <node id="-853" visible="true" lat="44.95892715" lon="-72.63461303">
    <tag k="addr:city" v="Richford"/>
    <tag k="addr:housenumber" v="891"/>
    <tag k="addr:street" v="South Richford Road"/>
    <tag k="addr:state" v="VT"/>
    <tag k="ref:vcgi:esiteid" v="199902"/>
  </node>
  <node id="-856" visible="true" lat="44.95872879" lon="-72.63323974">
    <tag k="addr:city" v="Richford"/>
    <tag k="addr:housenumber" v="938"/>
    <tag k="addr:street" v="South Richford Road"/>
    <tag k="addr:state" v="VT"/>
    <tag k="ref:vcgi:esiteid" v="199905"/>
  </node>
  <node id="-858" visible="true" lat="44.95827102" lon="-72.65052032">
    <tag k="addr:city" v="Richford"/>
    <tag k="addr:housenumber" v="311"/>
    <tag k="addr:street" v="Wightman Hill Road"/>
    <tag k="addr:state" v="VT"/>
    <tag k="ref:vcgi:esiteid" v="199907"/>
  </node>
  <node id="-859" visible="true" lat="44.95768741" lon="-72.62192878">
    <tag k="addr:city" v="Richford"/>
    <tag k="addr:housenumber" v="154"/>
    <tag k="addr:street" v="Gendron Road"/>
    <tag k="addr:state" v="VT"/>
    <tag k="ref:vcgi:esiteid" v="199908"/>
  </node>
  <node id="-860" visible="true" lat="44.95681381" lon="-72.63833618">
    <tag k="addr:city" v="Richford"/>
    <tag k="addr:housenumber" v="10"/>
    <tag k="addr:street" v="Bridgman Road"/>
    <tag k="addr:state" v="VT"/>
    <tag k="ref:vcgi:esiteid" v="199909"/>
  </node>
  <node id="-861" visible="true" lat="44.9563446" lon="-72.63562011">
    <tag k="addr:city" v="Richford"/>
    <tag k="addr:housenumber" v="888"/>
    <tag k="addr:street" v="South Richford Road"/>
    <tag k="addr:state" v="VT"/>
    <tag k="ref:vcgi:esiteid" v="199910"/>
  </node>
  <node id="-862" visible="true" lat="44.95301055" lon="-72.6362915">
    <tag k="addr:city" v="Richford"/>
    <tag k="addr:housenumber" v="846"/>
    <tag k="addr:street" v="South Richford Road"/>
    <tag k="addr:state" v="VT"/>
    <tag k="ref:vcgi:esiteid" v="199911"/>
  </node>
  <node id="-863" visible="true" lat="44.9433032" lon="-72.64117608">
    <tag k="addr:city" v="Richford"/>
    <tag k="addr:housenumber" v="676"/>
    <tag k="addr:street" v="South Richford Road"/>
    <tag k="addr:state" v="VT"/>
    <tag k="ref:vcgi:esiteid" v="199912"/>
  </node>
  <node id="-864" visible="true" lat="44.94313258" lon="-72.65432433">
    <tag k="addr:city" v="Richford"/>
    <tag k="addr:housenumber" v="141"/>
    <tag k="addr:street" v="Wightman Hill Road"/>
    <tag k="addr:state" v="VT"/>
    <tag k="ref:vcgi:esiteid" v="199913"/>
  </node>
  <node id="-865" visible="true" lat="44.94204711" lon="-72.64361572">
    <tag k="addr:city" v="Richford"/>
    <tag k="addr:housenumber" v="662"/>
    <tag k="addr:street" v="South Richford Road"/>
    <tag k="addr:state" v="VT"/>
    <tag k="ref:vcgi:esiteid" v="199914"/>
  </node>
  <node id="-866" visible="true" lat="44.94180007" lon="-72.64932532">
    <tag k="addr:city" v="Richford"/>
    <tag k="addr:housenumber" v="74"/>
    <tag k="addr:street" v="Wightman Hill Road"/>
    <tag k="addr:state" v="VT"/>
    <tag k="ref:vcgi:esiteid" v="199915"/>
  </node>
  <node id="-867" visible="true" lat="44.9423408" lon="-72.65584285">
    <tag k="addr:city" v="Richford"/>
    <tag k="addr:housenumber" v="333"/>
    <tag k="addr:street" v="Seven Saplings Lane"/>
    <tag k="addr:state" v="VT"/>
    <tag k="ref:vcgi:esiteid" v="199916"/>
  </node>
  <node id="-868" visible="true" lat="44.94067764" lon="-72.63383483">
    <tag k="addr:city" v="Richford"/>
    <tag k="addr:housenumber" v="154"/>
    <tag k="addr:street" v="Coy Road"/>
    <tag k="addr:state" v="VT"/>
    <tag k="ref:vcgi:esiteid" v="199917"/>
  </node>
  <node id="-869" visible="true" lat="44.94002653" lon="-72.62103487">
    <tag k="addr:city" v="Richford"/>
    <tag k="addr:housenumber" v="1688"/>
    <tag k="addr:street" v="Combs Road"/>
    <tag k="addr:state" v="VT"/>
    <tag k="ref:vcgi:esiteid" v="199918"/>
  </node>
  <node id="-870" visible="true" lat="44.93991691" lon="-72.63293192">
    <tag k="addr:city" v="Richford"/>
    <tag k="addr:housenumber" v="159"/>
    <tag k="addr:street" v="Coy Road"/>
    <tag k="addr:state" v="VT"/>
    <tag k="ref:vcgi:esiteid" v="199919"/>
  </node>
  <node id="-871" visible="true" lat="44.9394226" lon="-72.64295196">
    <tag k="addr:city" v="Richford"/>
    <tag k="addr:housenumber" v="634"/>
    <tag k="addr:street" v="South Richford Road"/>
    <tag k="addr:state" v="VT"/>
    <tag k="ref:vcgi:esiteid" v="199920"/>
  </node>
  <node id="-872" visible="true" lat="44.938591" lon="-72.65086364">
    <tag k="addr:city" v="Richford"/>
    <tag k="addr:housenumber" v="83"/>
    <tag k="addr:street" v="Wightman Hill Road"/>
    <tag k="addr:state" v="VT"/>
    <tag k="ref:vcgi:esiteid" v="199921"/>
  </node>
  <node id="-873" visible="true" lat="44.93828201" lon="-72.64418792">
    <tag k="addr:city" v="Richford"/>
    <tag k="addr:housenumber" v="614"/>
    <tag k="addr:street" v="South Richford Road"/>
    <tag k="addr:state" v="VT"/>
    <tag k="ref:vcgi:esiteid" v="199922"/>
  </node>
  <node id="-874" visible="true" lat="44.93617943" lon="-72.65157971">
    <tag k="addr:city" v="Richford"/>
    <tag k="addr:housenumber" v="41"/>
    <tag k="addr:street" v="Wightman Hill Road"/>
    <tag k="addr:state" v="VT"/>
    <tag k="ref:vcgi:esiteid" v="199923"/>
  </node>
  <node id="-875" visible="true" lat="44.93572121" lon="-72.64637778">
    <tag k="addr:city" v="Richford"/>
    <tag k="addr:housenumber" v="569"/>
    <tag k="addr:street" v="South Richford Road"/>
    <tag k="addr:state" v="VT"/>
    <tag k="ref:vcgi:esiteid" v="199924"/>
  </node>
  <node id="-876" visible="true" lat="44.93562316" lon="-72.64036559">
    <tag k="addr:city" v="Richford"/>
    <tag k="addr:housenumber" v="566"/>
    <tag k="addr:street" v="South Richford Road"/>
    <tag k="addr:state" v="VT"/>
    <tag k="ref:vcgi:esiteid" v="199925"/>
  </node>
  <node id="-877" visible="true" lat="44.93541725" lon="-72.65086456">
    <tag k="addr:city" v="Richford"/>
    <tag k="addr:housenumber" v="26"/>
    <tag k="addr:street" v="Wightman Hill Road"/>
    <tag k="addr:state" v="VT"/>
    <tag k="ref:vcgi:esiteid" v="199926"/>
  </node>
  <node id="-878" visible="true" lat="44.93431685" lon="-72.64539748">
    <tag k="addr:city" v="Richford"/>
    <tag k="addr:housenumber" v="550"/>
    <tag k="addr:street" v="South Richford Road"/>
    <tag k="addr:state" v="VT"/>
    <tag k="ref:vcgi:esiteid" v="199927"/>
  </node>
  <node id="-879" visible="true" lat="44.93317318" lon="-72.65837002">
    <tag k="addr:city" v="Richford"/>
    <tag k="addr:housenumber" v="246"/>
    <tag k="addr:street" v="Prive Hill Road"/>
    <tag k="addr:state" v="VT"/>
    <tag k="ref:vcgi:esiteid" v="199928"/>
  </node>
  <node id="-880" visible="true" lat="44.93305999" lon="-72.65976832">
    <tag k="addr:city" v="Richford"/>
    <tag k="addr:housenumber" v="217"/>
    <tag k="addr:street" v="Prive Hill Road"/>
    <tag k="addr:state" v="VT"/>
    <tag k="ref:vcgi:esiteid" v="199929"/>
  </node>
  <node id="-881" visible="true" lat="44.93247307" lon="-72.66049907">
    <tag k="addr:city" v="Richford"/>
    <tag k="addr:housenumber" v="209"/>
    <tag k="addr:street" v="Prive Hill Road"/>
    <tag k="addr:state" v="VT"/>
    <tag k="ref:vcgi:esiteid" v="199930"/>
  </node>
  <node id="-882" visible="true" lat="44.93238169" lon="-72.65955384">
    <tag k="addr:city" v="Richford"/>
    <tag k="addr:housenumber" v="216"/>
    <tag k="addr:street" v="Prive Hill Road"/>
    <tag k="addr:state" v="VT"/>
    <tag k="ref:vcgi:esiteid" v="199931"/>
  </node>
  <node id="-883" visible="true" lat="44.93087768" lon="-72.64644622">
    <tag k="addr:city" v="Richford"/>
    <tag k="addr:housenumber" v="3"/>
    <tag k="addr:street" v="Combs Road"/>
    <tag k="addr:state" v="VT"/>
    <tag k="ref:vcgi:esiteid" v="199932"/>
  </node>
  <node id="-884" visible="true" lat="44.93039321" lon="-72.63910675">
    <tag k="addr:city" v="Richford"/>
    <tag k="addr:housenumber" v="82"/>
    <tag k="addr:street" v="Combs Road"/>
    <tag k="addr:state" v="VT"/>
    <tag k="ref:vcgi:esiteid" v="199934"/>
  </node>
  <node id="-885" visible="true" lat="44.92974455" lon="-72.64803331">
    <tag k="addr:city" v="Richford"/>
    <tag k="addr:housenumber" v="483"/>
    <tag k="addr:street" v="South Richford Road"/>
    <tag k="addr:state" v="VT"/>
    <tag k="ref:vcgi:esiteid" v="199935"/>
  </node>
  <node id="-886" visible="true" lat="44.92604064" lon="-72.64800262">
    <tag k="addr:city" v="Richford"/>
    <tag k="addr:housenumber" v="425"/>
    <tag k="addr:street" v="South Richford Road"/>
    <tag k="addr:state" v="VT"/>
    <tag k="ref:vcgi:esiteid" v="199936"/>
  </node>
  <node id="-887" visible="true" lat="44.92427825" lon="-72.64409637">
    <tag k="addr:city" v="Richford"/>
    <tag k="addr:housenumber" v="31"/>
    <tag k="addr:street" v="Pfister Road"/>
    <tag k="addr:state" v="VT"/>
    <tag k="ref:vcgi:esiteid" v="199937"/>
  </node>
  <node id="-888" visible="true" lat="45.01301227" lon="-72.63993976">
    <tag k="addr:city" v="Richford"/>
    <tag k="addr:housenumber" v="283"/>
    <tag k="addr:street" v="Golf Course Road"/>
    <tag k="addr:state" v="VT"/>
    <tag k="ref:vcgi:esiteid" v="199938"/>
  </node>
  <node id="-889" visible="true" lat="45.00926736" lon="-72.63502401">
    <tag k="addr:city" v="Richford"/>
    <tag k="addr:housenumber" v="320"/>
    <tag k="addr:street" v="Golf Course Road"/>
    <tag k="addr:state" v="VT"/>
    <tag k="ref:vcgi:esiteid" v="199939"/>
  </node>
  <node id="-890" visible="true" lat="45.00499049" lon="-72.63585999">
    <tag k="addr:city" v="Richford"/>
    <tag k="addr:housenumber" v="316"/>
    <tag k="addr:street" v="Golf Course Road"/>
    <tag k="addr:state" v="VT"/>
    <tag k="ref:vcgi:esiteid" v="199940"/>
  </node>
  <node id="-895" visible="true" lat="44.99351942" lon="-72.61356217">
    <tag k="addr:city" v="Richford"/>
    <tag k="addr:housenumber" v="95"/>
    <tag k="addr:street" v="Brook Street"/>
    <tag k="addr:state" v="VT"/>
    <tag k="ref:vcgi:esiteid" v="199945"/>
  </node>
  <node id="-896" visible="true" lat="44.98979973" lon="-72.61110837">
    <tag k="addr:city" v="Richford"/>
    <tag k="addr:housenumber" v="150"/>
    <tag k="addr:street" v="Leggett Drive"/>
    <tag k="addr:state" v="VT"/>
    <tag k="ref:vcgi:esiteid" v="199946"/>
  </node>
  <node id="-897" visible="true" lat="44.99447319" lon="-72.61399823">
    <tag k="addr:city" v="Richford"/>
    <tag k="addr:housenumber" v="26"/>
    <tag k="addr:street" v="Brook Street"/>
    <tag k="addr:state" v="VT"/>
    <tag k="ref:vcgi:esiteid" v="199947"/>
  </node>
  <node id="-898" visible="true" lat="44.99415447" lon="-72.61391367">
    <tag k="addr:city" v="Richford"/>
    <tag k="addr:housenumber" v="40"/>
    <tag k="addr:street" v="Brook Street"/>
    <tag k="addr:state" v="VT"/>
    <tag k="ref:vcgi:esiteid" v="199948"/>
  </node>
  <node id="-899" visible="true" lat="44.99395209" lon="-72.61387341">
    <tag k="addr:city" v="Richford"/>
    <tag k="addr:housenumber" v="56"/>
    <tag k="addr:street" v="Brook Street"/>
    <tag k="addr:state" v="VT"/>
    <tag k="ref:vcgi:esiteid" v="199949"/>
  </node>
  <node id="-900" visible="true" lat="44.99377579" lon="-72.61385093">
    <tag k="addr:city" v="Richford"/>
    <tag k="addr:housenumber" v="72"/>
    <tag k="addr:street" v="Brook Street"/>
    <tag k="addr:state" v="VT"/>
    <tag k="ref:vcgi:esiteid" v="199950"/>
  </node>
  <node id="-901" visible="true" lat="44.99181858" lon="-72.61395535">
    <tag k="addr:city" v="Richford"/>
    <tag k="addr:housenumber" v="200"/>
    <tag k="addr:street" v="Brook Street"/>
    <tag k="addr:state" v="VT"/>
    <tag k="ref:vcgi:esiteid" v="199951"/>
  </node>
  <node id="-902" visible="true" lat="44.99599902" lon="-72.60741311">
    <tag k="addr:city" v="Richford"/>
    <tag k="addr:housenumber" v="652"/>
    <tag k="addr:street" v="Stevens Mills Slide Road"/>
    <tag k="addr:state" v="VT"/>
    <tag k="ref:vcgi:esiteid" v="199952"/>
  </node>
  <node id="-903" visible="true" lat="44.99986267" lon="-72.5984497">
    <tag k="addr:city" v="Richford"/>
    <tag k="addr:housenumber" v="804"/>
    <tag k="addr:street" v="Jay Road"/>
    <tag k="addr:state" v="VT"/>
    <tag k="ref:vcgi:esiteid" v="199953"/>
  </node>
  <node id="-904" visible="true" lat="44.97835956" lon="-72.68871718">
    <tag k="addr:city" v="Richford"/>
    <tag k="addr:housenumber" v="1"/>
    <tag k="addr:street" v="Pinnacle Meadows"/>
    <tag k="addr:state" v="VT"/>
    <tag k="ref:vcgi:esiteid" v="199954"/>
  </node>
  <node id="-905" visible="true" lat="44.96823492" lon="-72.63515378">
    <tag k="addr:city" v="Richford"/>
    <tag k="addr:housenumber" v="1050"/>
    <tag k="addr:street" v="South Richford Road"/>
    <tag k="addr:state" v="VT"/>
    <tag k="ref:vcgi:esiteid" v="199955"/>
  </node>
  <node id="-906" visible="true" lat="44.97633389" lon="-72.65294514">
    <tag k="addr:city" v="Richford"/>
    <tag k="addr:housenumber" v="3"/>
    <tag k="addr:street" v="McAllister Road"/>
    <tag k="addr:state" v="VT"/>
    <tag k="ref:vcgi:esiteid" v="199956"/>
  </node>
  <node id="-907" visible="true" lat="44.97908432" lon="-72.58281051">
    <tag k="addr:city" v="Richford"/>
    <tag k="addr:housenumber" v="236"/>
    <tag k="addr:street" v="Stevens Mills Slide Road"/>
    <tag k="addr:state" v="VT"/>
    <tag k="ref:vcgi:esiteid" v="199957"/>
  </node>
  <node id="-908" visible="true" lat="44.95788955" lon="-72.63472747">
    <tag k="addr:city" v="Richford"/>
    <tag k="addr:housenumber" v="930"/>
    <tag k="addr:street" v="South Richford Road"/>
    <tag k="addr:state" v="VT"/>
    <tag k="ref:vcgi:esiteid" v="199958"/>
  </node>
  <node id="-909" visible="true" lat="44.94961166" lon="-72.63005828">
    <tag k="addr:city" v="Richford"/>
    <tag k="addr:housenumber" v="850"/>
    <tag k="addr:street" v="South Richford Road"/>
    <tag k="addr:state" v="VT"/>
    <tag k="ref:vcgi:esiteid" v="199959"/>
  </node>
  <node id="-910" visible="true" lat="44.93325526" lon="-72.65068256">
    <tag k="addr:city" v="Richford"/>
    <tag k="addr:housenumber" v="12"/>
    <tag k="addr:street" v="Wightman Hill Road"/>
    <tag k="addr:state" v="VT"/>
    <tag k="ref:vcgi:esiteid" v="199960"/>
  </node>
  <node id="-911" visible="true" lat="44.93225516" lon="-72.64810021">
    <tag k="addr:city" v="Richford"/>
    <tag k="addr:housenumber" v="6"/>
    <tag k="addr:street" v="Wightman Hill Road"/>
    <tag k="addr:state" v="VT"/>
    <tag k="ref:vcgi:esiteid" v="199961"/>
  </node>
  <node id="-912" visible="true" lat="44.93244171" lon="-72.6515274">
    <tag k="addr:city" v="Richford"/>
    <tag k="addr:housenumber" v="11"/>
    <tag k="addr:street" v="Wightman Hill Road"/>
    <tag k="addr:state" v="VT"/>
    <tag k="ref:vcgi:esiteid" v="199962"/>
  </node>
  <node id="-914" visible="true" lat="44.93825149" lon="-72.62181854">
    <tag k="addr:city" v="Richford"/>
    <tag k="addr:housenumber" v="5"/>
    <tag k="addr:street" v="Bear Run Road"/>
    <tag k="addr:state" v="VT"/>
    <tag k="ref:vcgi:esiteid" v="199964"/>
  </node>
  <node id="-915" visible="true" lat="45.00192832" lon="-72.66421">
    <tag k="addr:city" v="Richford"/>
    <tag k="addr:housenumber" v="1"/>
    <tag k="addr:street" v="Webster Street"/>
    <tag k="addr:state" v="VT"/>
    <tag k="ref:vcgi:esiteid" v="199966"/>
  </node>
  <node id="-925" visible="true" lat="44.98716327" lon="-72.66855401">
    <tag k="addr:city" v="Richford"/>
    <tag k="addr:housenumber" v="49"/>
    <tag k="addr:street" v="Pine Haven Estate C"/>
    <tag k="addr:state" v="VT"/>
    <tag k="ref:vcgi:esiteid" v="199976"/>
  </node>
  <node id="-926" visible="true" lat="44.98753125" lon="-72.66819686">
    <tag k="addr:city" v="Richford"/>
    <tag k="addr:housenumber" v="32"/>
    <tag k="addr:street" v="Pine Haven Estate C"/>
    <tag k="addr:state" v="VT"/>
    <tag k="ref:vcgi:esiteid" v="199977"/>
  </node>
  <node id="-927" visible="true" lat="44.98751546" lon="-72.66842544">
    <tag k="addr:city" v="Richford"/>
    <tag k="addr:housenumber" v="42"/>
    <tag k="addr:street" v="Pine Haven Estate C"/>
    <tag k="addr:state" v="VT"/>
    <tag k="ref:vcgi:esiteid" v="199978"/>
  </node>
  <node id="-928" visible="true" lat="44.98750689" lon="-72.66855794">
    <tag k="addr:city" v="Richford"/>
    <tag k="addr:housenumber" v="48"/>
    <tag k="addr:street" v="Pine Haven Estate C"/>
    <tag k="addr:state" v="VT"/>
    <tag k="ref:vcgi:esiteid" v="199979"/>
  </node>
  <node id="-929" visible="true" lat="44.98729174" lon="-72.66772817">
    <tag k="addr:city" v="Richford"/>
    <tag k="addr:housenumber" v="17"/>
    <tag k="addr:street" v="Pine Haven Estate C"/>
    <tag k="addr:state" v="VT"/>
    <tag k="ref:vcgi:esiteid" v="199980"/>
  </node>
  <node id="-930" visible="true" lat="44.98717695" lon="-72.66832638">
    <tag k="addr:city" v="Richford"/>
    <tag k="addr:housenumber" v="43"/>
    <tag k="addr:street" v="Pine Haven Estate C"/>
    <tag k="addr:state" v="VT"/>
    <tag k="ref:vcgi:esiteid" v="199981"/>
  </node>
  <node id="-936" visible="true" lat="44.98901094" lon="-72.66682335">
    <tag k="addr:city" v="Richford"/>
    <tag k="addr:housenumber" v="69"/>
    <tag k="addr:street" v="Pine Haven Estate A"/>
    <tag k="addr:state" v="VT"/>
    <tag k="ref:vcgi:esiteid" v="199988"/>
  </node>
  <node id="-941" visible="true" lat="44.98879184" lon="-72.66647711">
    <tag k="addr:city" v="Richford"/>
    <tag k="addr:housenumber" v="74"/>
    <tag k="addr:street" v="Pine Haven Estate A"/>
    <tag k="addr:state" v="VT"/>
    <tag k="ref:vcgi:esiteid" v="199993"/>
  </node>
  <node id="-943" visible="true" lat="44.9789371" lon="-72.64361594">
    <tag k="addr:city" v="Richford"/>
    <tag k="addr:housenumber" v="83"/>
    <tag k="addr:street" v="McAllister Road"/>
    <tag k="addr:state" v="VT"/>
    <tag k="ref:vcgi:esiteid" v="199996"/>
  </node>
  <node id="-944" visible="true" lat="44.93416784" lon="-72.65263975">
    <tag k="addr:city" v="Richford"/>
    <tag k="addr:housenumber" v="321"/>
    <tag k="addr:street" v="Prive Hill Road"/>
    <tag k="addr:state" v="VT"/>
    <tag k="ref:vcgi:esiteid" v="199997"/>
  </node>
  <node id="-945" visible="true" lat="45.00794692" lon="-72.6791882">
    <tag k="addr:city" v="Richford"/>
    <tag k="addr:housenumber" v="90"/>
    <tag k="addr:street" v="Drew Road"/>
    <tag k="addr:state" v="VT"/>
    <tag k="ref:vcgi:esiteid" v="199998"/>
  </node>
  <node id="-955" visible="true" lat="44.9879219" lon="-72.67323235">
    <tag k="addr:city" v="Richford"/>
    <tag k="addr:housenumber" v="154"/>
    <tag k="addr:street" v="Highland Avenue"/>
    <tag k="addr:state" v="VT"/>
    <tag k="ref:vcgi:esiteid" v="200008"/>
  </node>
  <node id="-960" visible="true" lat="44.99826793" lon="-72.55186759">
    <tag k="addr:city" v="Richford"/>
    <tag k="addr:housenumber" v="512"/>
    <tag k="addr:street" v="East Richford Slide Road"/>
    <tag k="addr:state" v="VT"/>
    <tag k="ref:vcgi:esiteid" v="200013"/>
  </node>
  <node id="-961" visible="true" lat="44.99783953" lon="-72.55179885">
    <tag k="addr:city" v="Richford"/>
    <tag k="addr:housenumber" v="516"/>
    <tag k="addr:street" v="East Richford Slide Road"/>
    <tag k="addr:state" v="VT"/>
    <tag k="ref:vcgi:esiteid" v="200014"/>
  </node>
  <node id="-962" visible="true" lat="44.99842937" lon="-72.55198776">
    <tag k="addr:city" v="Richford"/>
    <tag k="addr:housenumber" v="510"/>
    <tag k="addr:street" v="East Richford Slide Road"/>
    <tag k="addr:state" v="VT"/>
    <tag k="ref:vcgi:esiteid" v="200015"/>
  </node>
  <node id="-968" visible="true" lat="44.99665982" lon="-72.67293538">
    <tag k="addr:city" v="Richford"/>
    <tag k="addr:housenumber" v="30"/>
    <tag k="addr:street" v="Main Street"/>
    <tag k="addr:state" v="VT"/>
    <tag k="ref:vcgi:esiteid" v="200023"/>
  </node>
  <node id="-969" visible="true" lat="44.99632265" lon="-72.67307997">
    <tag k="addr:city" v="Richford"/>
    <tag k="addr:housenumber" v="44"/>
    <tag k="addr:street" v="Main Street"/>
    <tag k="addr:state" v="VT"/>
    <tag k="ref:vcgi:esiteid" v="200024"/>
  </node>
  <node id="-980" visible="true" lat="44.9878349" lon="-72.67851521">
    <tag k="addr:city" v="Richford"/>
    <tag k="addr:housenumber" v="316"/>
    <tag k="addr:street" v="South Main Street"/>
    <tag k="addr:state" v="VT"/>
    <tag k="ref:vcgi:esiteid" v="200035"/>
  </node>
  <node id="-981" visible="true" lat="44.98741912" lon="-72.67888641">
    <tag k="addr:city" v="Richford"/>
    <tag k="addr:housenumber" v="318"/>
    <tag k="addr:street" v="South Main Street"/>
    <tag k="addr:state" v="VT"/>
    <tag k="ref:vcgi:esiteid" v="200037"/>
  </node>
  <node id="-983" visible="true" lat="44.98899765" lon="-72.67934341">
    <tag k="addr:city" v="Richford"/>
    <tag k="addr:housenumber" v="20"/>
    <tag k="addr:street" v="All Saints Cemetery Road"/>
    <tag k="addr:state" v="VT"/>
    <tag k="ref:vcgi:esiteid" v="200039"/>
  </node>
  <node id="-986" visible="true" lat="44.98751449" lon="-72.67692565">
    <tag k="addr:city" v="Richford"/>
    <tag k="addr:housenumber" v="311"/>
    <tag k="addr:street" v="South Main Street"/>
    <tag k="addr:state" v="VT"/>
    <tag k="ref:vcgi:esiteid" v="200042"/>
  </node>
  <node id="-987" visible="true" lat="44.98688198" lon="-72.67962356">
    <tag k="addr:city" v="Richford"/>
    <tag k="addr:housenumber" v="324"/>
    <tag k="addr:street" v="South Main Street"/>
    <tag k="addr:state" v="VT"/>
    <tag k="ref:vcgi:esiteid" v="200043"/>
  </node>
  <node id="-991" visible="true" lat="45.00528332" lon="-72.69200254">
    <tag k="addr:city" v="Richford"/>
    <tag k="addr:housenumber" v="1963"/>
    <tag k="addr:street" v="Berry Road"/>
    <tag k="addr:state" v="VT"/>
    <tag k="ref:vcgi:esiteid" v="200048"/>
  </node>
  <node id="-992" visible="true" lat="45.00512695" lon="-72.69180297">
    <tag k="addr:city" v="Richford"/>
    <tag k="addr:housenumber" v="1961"/>
    <tag k="addr:street" v="Berry Road"/>
    <tag k="addr:state" v="VT"/>
    <tag k="ref:vcgi:esiteid" v="200049"/>
  </node>
  <node id="-993" visible="true" lat="45.00501369" lon="-72.69336732">
    <tag k="addr:city" v="Richford"/>
    <tag k="addr:housenumber" v="1807"/>
    <tag k="addr:street" v="Berry Road"/>
    <tag k="addr:state" v="VT"/>
    <tag k="ref:vcgi:esiteid" v="200050"/>
  </node>
  <node id="-994" visible="true" lat="45.00433205" lon="-72.69565289">
    <tag k="addr:city" v="Richford"/>
    <tag k="addr:housenumber" v="1728"/>
    <tag k="addr:street" v="Berry Road"/>
    <tag k="addr:state" v="VT"/>
    <tag k="ref:vcgi:esiteid" v="200051"/>
  </node>
  <node id="-995" visible="true" lat="45.00431953" lon="-72.69443931">
    <tag k="addr:city" v="Richford"/>
    <tag k="addr:housenumber" v="1780"/>
    <tag k="addr:street" v="Berry Road"/>
    <tag k="addr:state" v="VT"/>
    <tag k="ref:vcgi:esiteid" v="200052"/>
  </node>
  <node id="-996" visible="true" lat="45.00518669" lon="-72.69714429">
    <tag k="addr:city" v="Richford"/>
    <tag k="addr:housenumber" v="1663"/>
    <tag k="addr:street" v="Berry Road"/>
    <tag k="addr:state" v="VT"/>
    <tag k="ref:vcgi:esiteid" v="200053"/>
  </node>
  <node id="-997" visible="true" lat="44.9903439" lon="-72.66997617">
    <tag k="addr:city" v="Richford"/>
    <tag k="addr:housenumber" v="11"/>
    <tag k="addr:street" v="Liberty Street"/>
    <tag k="addr:state" v="VT"/>
    <tag k="ref:vcgi:esiteid" v="200054"/>
  </node>
  <node id="-1008" visible="true" lat="45.00371501" lon="-72.60487852">
    <tag k="addr:city" v="Richford"/>
    <tag k="addr:housenumber" v="2399"/>
    <tag k="addr:street" v="Corliss Road"/>
    <tag k="addr:state" v="VT"/>
    <tag k="ref:vcgi:esiteid" v="200065"/>
  </node>
  <node id="-1009" visible="true" lat="45.00499066" lon="-72.55576905">
    <tag k="addr:city" v="Richford"/>
    <tag k="addr:housenumber" v="406"/>
    <tag k="addr:street" v="East Richford Slide Road"/>
    <tag k="addr:state" v="VT"/>
    <tag k="ref:vcgi:esiteid" v="200067"/>
  </node>
  <node id="-1011" visible="true" lat="45.00260989" lon="-72.60787254">
    <tag k="addr:city" v="Richford"/>
    <tag k="addr:housenumber" v="2195"/>
    <tag k="addr:street" v="Corliss Road"/>
    <tag k="addr:state" v="VT"/>
    <tag k="ref:vcgi:esiteid" v="200069"/>
  </node>
  <node id="-1012" visible="true" lat="44.96973603" lon="-72.64576178">
    <tag k="addr:city" v="Richford"/>
    <tag k="addr:housenumber" v="555"/>
    <tag k="addr:street" v="Wightman Hill Road"/>
    <tag k="addr:state" v="VT"/>
    <tag k="ref:vcgi:esiteid" v="200070"/>
  </node>
  <node id="-1013" visible="true" lat="44.97963595" lon="-72.61908111">
    <tag k="addr:city" v="Richford"/>
    <tag k="addr:housenumber" v="383"/>
    <tag k="addr:street" v="McAllister Road"/>
    <tag k="addr:state" v="VT"/>
    <tag k="ref:vcgi:esiteid" v="200071"/>
  </node>
  <node id="-1014" visible="true" lat="44.96266936" lon="-72.62673354">
    <tag k="addr:city" v="Richford"/>
    <tag k="addr:housenumber" v="171"/>
    <tag k="addr:street" v="Benson Road"/>
    <tag k="addr:state" v="VT"/>
    <tag k="ref:vcgi:esiteid" v="200072"/>
  </node>
  <node id="-1015" visible="true" lat="44.9646086" lon="-72.63589492">
    <tag k="addr:city" v="Richford"/>
    <tag k="addr:housenumber" v="1037"/>
    <tag k="addr:street" v="South Richford Road"/>
    <tag k="addr:state" v="VT"/>
    <tag k="ref:vcgi:esiteid" v="200073"/>
  </node>
  <node id="-1016" visible="true" lat="44.9412615" lon="-72.64157664">
    <tag k="addr:city" v="Richford"/>
    <tag k="addr:housenumber" v="112"/>
    <tag k="addr:street" v="Coy Road"/>
    <tag k="addr:state" v="VT"/>
    <tag k="ref:vcgi:esiteid" v="200074"/>
  </node>
  <node id="-1017" visible="true" lat="44.93028091" lon="-72.66543194">
    <tag k="addr:city" v="Richford"/>
    <tag k="addr:housenumber" v="200"/>
    <tag k="addr:street" v="Prive Hill Road"/>
    <tag k="addr:state" v="VT"/>
    <tag k="ref:vcgi:esiteid" v="200075"/>
  </node>
  <node id="-1018" visible="true" lat="44.93699818" lon="-72.64979434">
    <tag k="addr:city" v="Richford"/>
    <tag k="addr:housenumber" v="46"/>
    <tag k="addr:street" v="Wightman Hill Road"/>
    <tag k="addr:state" v="VT"/>
    <tag k="ref:vcgi:esiteid" v="200076"/>
  </node>
  <node id="-1019" visible="true" lat="44.93714907" lon="-72.64292264">
    <tag k="addr:city" v="Richford"/>
    <tag k="addr:housenumber" v="602"/>
    <tag k="addr:street" v="South Richford Road"/>
    <tag k="addr:state" v="VT"/>
    <tag k="ref:vcgi:esiteid" v="200078"/>
  </node>
  <node id="-1021" visible="true" lat="45.00858869" lon="-72.6066733">
    <tag k="addr:city" v="Richford"/>
    <tag k="addr:housenumber" v="2451"/>
    <tag k="addr:street" v="Corliss Road"/>
    <tag k="addr:state" v="VT"/>
    <tag k="ref:vcgi:esiteid" v="200083"/>
  </node>
  <node id="-1022" visible="true" lat="44.97233165" lon="-72.65707832">
    <tag k="addr:city" v="Richford"/>
    <tag k="addr:housenumber" v="326"/>
    <tag k="addr:street" v="Guilmette Road"/>
    <tag k="addr:state" v="VT"/>
    <tag k="ref:vcgi:esiteid" v="200084"/>
  </node>
  <node id="-1023" visible="true" lat="44.99629969" lon="-72.66981331">
    <tag k="addr:city" v="Richford"/>
    <tag k="addr:housenumber" v="6"/>
    <tag k="addr:street" v="Union Street"/>
    <tag k="addr:state" v="VT"/>
    <tag k="ref:vcgi:esiteid" v="200085"/>
  </node>
  <node id="-1024" visible="true" lat="45.00584387" lon="-72.60010206">
    <tag k="addr:city" v="Richford"/>
    <tag k="addr:housenumber" v="2699"/>
    <tag k="addr:street" v="Corliss Road"/>
    <tag k="addr:state" v="VT"/>
    <tag k="ref:vcgi:esiteid" v="200086"/>
  </node>
  <node id="-1025" visible="true" lat="44.96585654" lon="-72.64769765">
    <tag k="addr:city" v="Richford"/>
    <tag k="addr:housenumber" v="503"/>
    <tag k="addr:street" v="Wightman Hill Road"/>
    <tag k="addr:state" v="VT"/>
    <tag k="ref:vcgi:esiteid" v="200087"/>
  </node>
  <node id="-1028" visible="true" lat="44.92890951" lon="-72.67373773">
    <tag k="addr:city" v="Richford"/>
    <tag k="addr:housenumber" v="34"/>
    <tag k="addr:street" v="Prive Hill Road"/>
    <tag k="addr:state" v="VT"/>
    <tag k="ref:vcgi:esiteid" v="200090"/>
  </node>
  <node id="-1029" visible="true" lat="44.9346303" lon="-72.64657244">
    <tag k="addr:city" v="Richford"/>
    <tag k="addr:housenumber" v="557"/>
    <tag k="addr:street" v="South Richford Road"/>
    <tag k="addr:state" v="VT"/>
    <tag k="ref:vcgi:esiteid" v="200092"/>
  </node>
  <node id="-1030" visible="true" lat="44.93933263" lon="-72.65335037">
    <tag k="addr:city" v="Richford"/>
    <tag k="addr:housenumber" v="47"/>
    <tag k="addr:street" v="Seven Saplings Lane"/>
    <tag k="addr:state" v="VT"/>
    <tag k="ref:vcgi:esiteid" v="200093"/>
  </node>
  <node id="-1031" visible="true" lat="45.01041235" lon="-72.59193508">
    <tag k="addr:city" v="Richford"/>
    <tag k="addr:housenumber" v="3222"/>
    <tag k="addr:street" v="Corliss Road"/>
    <tag k="addr:state" v="VT"/>
    <tag k="ref:vcgi:esiteid" v="200094"/>
  </node>
  <node id="-1033" visible="true" lat="44.93812519" lon="-72.65000448">
    <tag k="addr:city" v="Richford"/>
    <tag k="addr:housenumber" v="64"/>
    <tag k="addr:street" v="Wightman Hill Road"/>
    <tag k="addr:state" v="VT"/>
    <tag k="ref:vcgi:esiteid" v="200096"/>
  </node>
  <node id="-1034" visible="true" lat="44.99587225" lon="-72.62311892">
    <tag k="addr:city" v="Richford"/>
    <tag k="addr:housenumber" v="496"/>
    <tag k="addr:street" v="Jay Road"/>
    <tag k="addr:state" v="VT"/>
    <tag k="ref:vcgi:esiteid" v="200097"/>
  </node>
  <node id="-1035" visible="true" lat="44.96916072" lon="-72.57917581">
    <tag k="addr:city" v="Richford"/>
    <tag k="addr:housenumber" v="72"/>
    <tag k="addr:street" v="Stevens Mills Slide Road"/>
    <tag k="addr:state" v="VT"/>
    <tag k="ref:vcgi:esiteid" v="200099"/>
  </node>
  <node id="-1036" visible="true" lat="44.93299467" lon="-72.6343513">
    <tag k="addr:city" v="Richford"/>
    <tag k="addr:housenumber" v="165"/>
    <tag k="addr:street" v="Combs Road"/>
    <tag k="addr:state" v="VT"/>
    <tag k="ref:vcgi:esiteid" v="200100"/>
  </node>
  <node id="-1039" visible="true" lat="45.00379071" lon="-72.69709714">
    <tag k="addr:city" v="Richford"/>
    <tag k="addr:housenumber" v="1650"/>
    <tag k="addr:street" v="Berry Road"/>
    <tag k="addr:state" v="VT"/>
    <tag k="ref:vcgi:esiteid" v="200103"/>
  </node>
  <node id="-1040" visible="true" lat="45.00580595" lon="-72.68147575">
    <tag k="addr:city" v="Richford"/>
    <tag k="addr:housenumber" v="35"/>
    <tag k="addr:street" v="Drew Road"/>
    <tag k="addr:state" v="VT"/>
    <tag k="ref:vcgi:esiteid" v="200104"/>
  </node>
  <node id="-1042" visible="true" lat="44.99042235" lon="-72.62165182">
    <tag k="addr:city" v="Richford"/>
    <tag k="addr:housenumber" v="490"/>
    <tag k="addr:street" v="Jay Road"/>
    <tag k="addr:state" v="VT"/>
    <tag k="ref:vcgi:esiteid" v="200106"/>
  </node>
  <node id="-1043" visible="true" lat="44.99500278" lon="-72.62524237">
    <tag k="addr:city" v="Richford"/>
    <tag k="addr:housenumber" v="482"/>
    <tag k="addr:street" v="Jay Road"/>
    <tag k="addr:state" v="VT"/>
    <tag k="ref:vcgi:esiteid" v="200107"/>
  </node>
  <node id="-1044" visible="true" lat="44.99433964" lon="-72.55367178">
    <tag k="addr:city" v="Richford"/>
    <tag k="addr:housenumber" v="572"/>
    <tag k="addr:street" v="East Richford Slide Road"/>
    <tag k="addr:state" v="VT"/>
    <tag k="ref:vcgi:esiteid" v="200108"/>
  </node>
  <node id="-1045" visible="true" lat="44.98738647" lon="-72.55230779">
    <tag k="addr:city" v="Richford"/>
    <tag k="addr:housenumber" v="1455"/>
    <tag k="addr:street" v="Jay Road"/>
    <tag k="addr:state" v="VT"/>
    <tag k="ref:vcgi:esiteid" v="200109"/>
  </node>
  <node id="-1046" visible="true" lat="44.9746086" lon="-72.64928391">
    <tag k="addr:city" v="Richford"/>
    <tag k="addr:housenumber" v="1254"/>
    <tag k="addr:street" v="South Richford Road"/>
    <tag k="addr:state" v="VT"/>
    <tag k="ref:vcgi:esiteid" v="200110"/>
  </node>
  <node id="-1047" visible="true" lat="44.96270102" lon="-72.63386272">
    <tag k="addr:city" v="Richford"/>
    <tag k="addr:housenumber" v="1001"/>
    <tag k="addr:street" v="South Richford Road"/>
    <tag k="addr:state" v="VT"/>
    <tag k="ref:vcgi:esiteid" v="200111"/>
  </node>
  <node id="-1048" visible="true" lat="44.96156129" lon="-72.62438623">
    <tag k="addr:city" v="Richford"/>
    <tag k="addr:housenumber" v="150"/>
    <tag k="addr:street" v="Benson Road"/>
    <tag k="addr:state" v="VT"/>
    <tag k="ref:vcgi:esiteid" v="200113"/>
  </node>
  <node id="-1049" visible="true" lat="44.97397257" lon="-72.6508596">
    <tag k="addr:city" v="Richford"/>
    <tag k="addr:housenumber" v="1257"/>
    <tag k="addr:street" v="South Richford Road"/>
    <tag k="addr:state" v="VT"/>
    <tag k="ref:vcgi:esiteid" v="200114"/>
  </node>
  <node id="-1050" visible="true" lat="44.9912152" lon="-72.5506544">
    <tag k="addr:city" v="Richford"/>
    <tag k="addr:housenumber" v="612"/>
    <tag k="addr:street" v="East Richford Slide Road"/>
    <tag k="addr:state" v="VT"/>
    <tag k="ref:vcgi:esiteid" v="200115"/>
  </node>
  <node id="-1051" visible="true" lat="44.9260479" lon="-72.66815174">
    <tag k="addr:city" v="Richford"/>
    <tag k="addr:housenumber" v="180"/>
    <tag k="addr:street" v="Montgomery Road"/>
    <tag k="addr:state" v="VT"/>
    <tag k="ref:vcgi:esiteid" v="200116"/>
  </node>
  <node id="-1052" visible="true" lat="44.93180565" lon="-72.66018825">
    <tag k="addr:city" v="Richford"/>
    <tag k="addr:housenumber" v="214"/>
    <tag k="addr:street" v="Prive Hill Road"/>
    <tag k="addr:state" v="VT"/>
    <tag k="ref:vcgi:esiteid" v="200117"/>
  </node>
  <node id="-1053" visible="true" lat="44.94081861" lon="-72.62881987">
    <tag k="addr:city" v="Richford"/>
    <tag k="addr:housenumber" v="147"/>
    <tag k="addr:street" v="Coy Road"/>
    <tag k="addr:state" v="VT"/>
    <tag k="ref:vcgi:esiteid" v="200119"/>
  </node>
  <node id="-1057" visible="true" lat="45.00658299" lon="-72.69347409">
    <tag k="addr:city" v="Richford"/>
    <tag k="addr:housenumber" v="1799"/>
    <tag k="addr:street" v="Berry Road"/>
    <tag k="addr:state" v="VT"/>
    <tag k="ref:vcgi:esiteid" v="200124"/>
  </node>
  <node id="-1059" visible="true" lat="45.00669108" lon="-72.61473998">
    <tag k="addr:city" v="Richford"/>
    <tag k="addr:housenumber" v="1735"/>
    <tag k="addr:street" v="Corliss Road"/>
    <tag k="addr:state" v="VT"/>
    <tag k="ref:vcgi:esiteid" v="200127"/>
  </node>
  <node id="-1060" visible="true" lat="44.9913615" lon="-72.60634096">
    <tag k="addr:city" v="Richford"/>
    <tag k="addr:housenumber" v="553"/>
    <tag k="addr:street" v="Stevens Mills Slide Road"/>
    <tag k="addr:state" v="VT"/>
    <tag k="ref:vcgi:esiteid" v="200128"/>
  </node>
  <node id="-1061" visible="true" lat="44.99134553" lon="-72.61369675">
    <tag k="addr:city" v="Richford"/>
    <tag k="addr:housenumber" v="280"/>
    <tag k="addr:street" v="Brook Street"/>
    <tag k="addr:state" v="VT"/>
    <tag k="ref:vcgi:esiteid" v="200129"/>
  </node>
  <node id="-1062" visible="true" lat="45.00239935" lon="-72.61174893">
    <tag k="addr:city" v="Richford"/>
    <tag k="addr:housenumber" v="2019"/>
    <tag k="addr:street" v="Corliss Road"/>
    <tag k="addr:state" v="VT"/>
    <tag k="ref:vcgi:esiteid" v="200130"/>
  </node>
  <node id="-1063" visible="true" lat="45.00280808" lon="-72.61006664">
    <tag k="addr:city" v="Richford"/>
    <tag k="addr:housenumber" v="2129"/>
    <tag k="addr:street" v="Corliss Road"/>
    <tag k="addr:state" v="VT"/>
    <tag k="ref:vcgi:esiteid" v="200131"/>
  </node>
  <node id="-1065" visible="true" lat="44.98069711" lon="-72.6599874">
    <tag k="addr:city" v="Richford"/>
    <tag k="addr:housenumber" v="70"/>
    <tag k="addr:street" v="Frost Ridge Road"/>
    <tag k="addr:state" v="VT"/>
    <tag k="ref:vcgi:esiteid" v="200135"/>
  </node>
  <node id="-1066" visible="true" lat="44.98051006" lon="-72.66136016">
    <tag k="addr:city" v="Richford"/>
    <tag k="addr:housenumber" v="116"/>
    <tag k="addr:street" v="Frost Ridge Road"/>
    <tag k="addr:state" v="VT"/>
    <tag k="ref:vcgi:esiteid" v="200136"/>
  </node>
  <node id="-1067" visible="true" lat="44.96531666" lon="-72.64209688">
    <tag k="addr:city" v="Richford"/>
    <tag k="addr:housenumber" v="494"/>
    <tag k="addr:street" v="Wightman Hill Road"/>
    <tag k="addr:state" v="VT"/>
    <tag k="ref:vcgi:esiteid" v="200137"/>
  </node>
  <node id="-1068" visible="true" lat="44.94475827" lon="-72.65373247">
    <tag k="addr:city" v="Richford"/>
    <tag k="addr:housenumber" v="255"/>
    <tag k="addr:street" v="Wightman Hill Road"/>
    <tag k="addr:state" v="VT"/>
    <tag k="ref:vcgi:esiteid" v="200138"/>
  </node>
  <node id="-1070" visible="true" lat="44.93329908" lon="-72.64551636">
    <tag k="addr:city" v="Richford"/>
    <tag k="addr:housenumber" v="540"/>
    <tag k="addr:street" v="South Richford Road"/>
    <tag k="addr:state" v="VT"/>
    <tag k="ref:vcgi:esiteid" v="200140"/>
  </node>
  <node id="-1071" visible="true" lat="44.93629186" lon="-72.64697056">
    <tag k="addr:city" v="Richford"/>
    <tag k="addr:housenumber" v="573"/>
    <tag k="addr:street" v="South Richford Road"/>
    <tag k="addr:state" v="VT"/>
    <tag k="ref:vcgi:esiteid" v="200141"/>
  </node>
  <node id="-1072" visible="true" lat="44.99971228" lon="-72.66255276">
    <tag k="addr:city" v="Richford"/>
    <tag k="addr:housenumber" v="20"/>
    <tag k="addr:street" v="Sandy Hill Drive"/>
    <tag k="addr:state" v="VT"/>
    <tag k="ref:vcgi:esiteid" v="200142"/>
  </node>
  <node id="-1073" visible="true" lat="44.98812877" lon="-72.67900438">
    <tag k="addr:city" v="Richford"/>
    <tag k="addr:housenumber" v="11"/>
    <tag k="addr:street" v="All Saints Cemetery Road"/>
    <tag k="addr:state" v="VT"/>
    <tag k="ref:vcgi:esiteid" v="200143"/>
  </node>
  <node id="-1075" visible="true" lat="44.99800836" lon="-72.66787444">
    <tag k="addr:city" v="Richford"/>
    <tag k="addr:housenumber" v="88"/>
    <tag k="addr:street" v="Province Street"/>
    <tag k="addr:state" v="VT"/>
    <tag k="ref:vcgi:esiteid" v="200146"/>
  </node>
  <node id="-1076" visible="true" lat="44.99490634" lon="-72.67286258">
    <tag k="addr:city" v="Richford"/>
    <tag k="addr:housenumber" v="91"/>
    <tag k="addr:street" v="Main Street"/>
    <tag k="addr:state" v="VT"/>
    <tag k="ref:vcgi:esiteid" v="200147"/>
  </node>
  <node id="-1077" visible="true" lat="44.99425184" lon="-72.67764613">
    <tag k="addr:city" v="Richford"/>
    <tag k="addr:housenumber" v="114"/>
    <tag k="addr:street" v="Playground Road"/>
    <tag k="addr:state" v="VT"/>
    <tag k="ref:vcgi:esiteid" v="200151"/>
  </node>
  <node id="-1080" visible="true" lat="45.00014104" lon="-72.66195192">
    <tag k="addr:city" v="Richford"/>
    <tag k="addr:housenumber" v="14"/>
    <tag k="addr:street" v="Sandy Hill Drive"/>
    <tag k="addr:state" v="VT"/>
    <tag k="ref:vcgi:esiteid" v="200156"/>
  </node>
  <node id="-1082" visible="true" lat="45.00378669" lon="-72.69516238">
    <tag k="addr:city" v="Richford"/>
    <tag k="addr:housenumber" v="1762"/>
    <tag k="addr:street" v="Berry Road"/>
    <tag k="addr:state" v="VT"/>
    <tag k="ref:vcgi:esiteid" v="313288"/>
  </node>
  <node id="-1083" visible="true" lat="44.99378544" lon="-72.68488688">
    <tag k="addr:city" v="Richford"/>
    <tag k="addr:housenumber" v="924"/>
    <tag k="addr:street" v="North Branch Road"/>
    <tag k="addr:state" v="VT"/>
    <tag k="ref:vcgi:esiteid" v="313289"/>
  </node>
  <node id="-1084" visible="true" lat="44.99398991" lon="-72.57242584">
    <tag k="addr:city" v="Richford"/>
    <tag k="addr:housenumber" v="1180"/>
    <tag k="addr:street" v="Jay Road"/>
    <tag k="addr:state" v="VT"/>
    <tag k="ref:vcgi:esiteid" v="313291"/>
  </node>
  <node id="-1085" visible="true" lat="44.99537041" lon="-72.55447959">
    <tag k="addr:city" v="Richford"/>
    <tag k="addr:housenumber" v="568"/>
    <tag k="addr:street" v="East Richford Slide Road"/>
    <tag k="addr:state" v="VT"/>
    <tag k="ref:vcgi:esiteid" v="313292"/>
  </node>
  <node id="-1086" visible="true" lat="44.96081365" lon="-72.62823933">
    <tag k="addr:city" v="Richford"/>
    <tag k="addr:housenumber" v="76"/>
    <tag k="addr:street" v="Gendron Road"/>
    <tag k="addr:state" v="VT"/>
    <tag k="ref:vcgi:esiteid" v="313295"/>
  </node>
  <node id="-1087" visible="true" lat="44.9717468" lon="-72.64238033">
    <tag k="addr:city" v="Richford"/>
    <tag k="addr:housenumber" v="1242"/>
    <tag k="addr:street" v="South Richford Road"/>
    <tag k="addr:state" v="VT"/>
    <tag k="ref:vcgi:esiteid" v="313298"/>
  </node>
  <node id="-1088" visible="true" lat="44.97423942" lon="-72.59578423">
    <tag k="addr:city" v="Richford"/>
    <tag k="addr:housenumber" v="4"/>
    <tag k="addr:street" v="Smith Road"/>
    <tag k="addr:state" v="VT"/>
    <tag k="ref:vcgi:esiteid" v="313299"/>
  </node>
  <node id="-1089" visible="true" lat="44.99400471" lon="-72.67280751">
    <tag k="addr:city" v="Richford"/>
    <tag k="addr:housenumber" v="200"/>
    <tag k="addr:street" v="Willow Street"/>
    <tag k="addr:state" v="VT"/>
    <tag k="ref:vcgi:esiteid" v="313301"/>
  </node>
  <node id="-1090" visible="true" lat="44.93319109" lon="-72.63229481">
    <tag k="addr:city" v="Richford"/>
    <tag k="addr:housenumber" v="175"/>
    <tag k="addr:street" v="Combs Road"/>
    <tag k="addr:state" v="VT"/>
    <tag k="ref:vcgi:esiteid" v="326733"/>
  </node>
  <node id="-1091" visible="true" lat="45.0085693" lon="-72.58816024">
    <tag k="addr:city" v="Richford"/>
    <tag k="addr:housenumber" v="14"/>
    <tag k="addr:street" v="East Richford Slide Road"/>
    <tag k="addr:state" v="VT"/>
    <tag k="ref:vcgi:esiteid" v="327121"/>
  </node>
  <node id="-1092" visible="true" lat="45.00569797" lon="-72.6838164">
    <tag k="addr:city" v="Richford"/>
    <tag k="addr:housenumber" v="207"/>
    <tag k="addr:street" v="Pinnacle Road"/>
    <tag k="addr:state" v="VT"/>
    <tag k="ref:vcgi:esiteid" v="328621"/>
  </node>
  <node id="-1094" visible="true" lat="44.99429662" lon="-72.61275481">
    <tag k="addr:city" v="Richford"/>
    <tag k="addr:housenumber" v="558"/>
    <tag k="addr:street" v="Jay Road"/>
    <tag k="addr:state" v="VT"/>
    <tag k="ref:vcgi:esiteid" v="328626"/>
  </node>
  <node id="-1095" visible="true" lat="45.00160134" lon="-72.60694651">
    <tag k="addr:city" v="Richford"/>
    <tag k="addr:housenumber" v="2250"/>
    <tag k="addr:street" v="Corliss Road"/>
    <tag k="addr:state" v="VT"/>
    <tag k="ref:vcgi:esiteid" v="328627"/>
  </node>
  <node id="-1096" visible="true" lat="44.99140947" lon="-72.60174733">
    <tag k="addr:city" v="Richford"/>
    <tag k="addr:housenumber" v="510"/>
    <tag k="addr:street" v="Stevens Mills Slide Road"/>
    <tag k="addr:state" v="VT"/>
    <tag k="ref:vcgi:esiteid" v="328628"/>
  </node>
  <node id="-1097" visible="true" lat="44.98348399" lon="-72.5875323">
    <tag k="addr:city" v="Richford"/>
    <tag k="addr:housenumber" v="300"/>
    <tag k="addr:street" v="Stevens Mills Slide Road"/>
    <tag k="addr:state" v="VT"/>
    <tag k="ref:vcgi:esiteid" v="328629"/>
  </node>
  <node id="-1098" visible="true" lat="44.96714211" lon="-72.57788437">
    <tag k="addr:city" v="Richford"/>
    <tag k="addr:housenumber" v="27"/>
    <tag k="addr:street" v="Stevens Mills Slide Road"/>
    <tag k="addr:state" v="VT"/>
    <tag k="ref:vcgi:esiteid" v="328630"/>
  </node>
  <node id="-1099" visible="true" lat="44.95320172" lon="-72.62739023">
    <tag k="addr:city" v="Richford"/>
    <tag k="addr:housenumber" v="860"/>
    <tag k="addr:street" v="South Richford Road"/>
    <tag k="addr:state" v="VT"/>
    <tag k="ref:vcgi:esiteid" v="328631"/>
  </node>
  <node id="-1100" visible="true" lat="44.97917751" lon="-72.61496305">
    <tag k="addr:city" v="Richford"/>
    <tag k="addr:housenumber" v="415"/>
    <tag k="addr:street" v="McAllister Road"/>
    <tag k="addr:state" v="VT"/>
    <tag k="ref:vcgi:esiteid" v="328764"/>
  </node>
  <node id="-1101" visible="true" lat="44.98862556" lon="-72.61012113">
    <tag k="addr:city" v="Richford"/>
    <tag k="addr:housenumber" v="240"/>
    <tag k="addr:street" v="Leggett Drive"/>
    <tag k="addr:state" v="VT"/>
    <tag k="ref:vcgi:esiteid" v="329315"/>
  </node>
  <node id="-1102" visible="true" lat="44.92815414" lon="-72.58143992">
    <tag k="addr:city" v="Richford"/>
    <tag k="addr:housenumber" v="635"/>
    <tag k="addr:street" v="Roads End"/>
    <tag k="addr:state" v="VT"/>
    <tag k="ref:vcgi:esiteid" v="335470"/>
  </node>
  <node id="-1103" visible="true" lat="44.92744816" lon="-72.58293818">
    <tag k="addr:city" v="Richford"/>
    <tag k="addr:housenumber" v="607"/>
    <tag k="addr:street" v="Roads End"/>
    <tag k="addr:state" v="VT"/>
    <tag k="ref:vcgi:esiteid" v="335471"/>
  </node>
  <node id="-1104" visible="true" lat="44.929008" lon="-72.58334874">
    <tag k="addr:city" v="Richford"/>
    <tag k="addr:housenumber" v="611"/>
    <tag k="addr:street" v="Roads End"/>
    <tag k="addr:state" v="VT"/>
    <tag k="ref:vcgi:esiteid" v="335472"/>
  </node>
  <node id="-1105" visible="true" lat="44.92744769" lon="-72.5871816">
    <tag k="addr:city" v="Richford"/>
    <tag k="addr:housenumber" v="579"/>
    <tag k="addr:street" v="Roads End"/>
    <tag k="addr:state" v="VT"/>
    <tag k="ref:vcgi:esiteid" v="335473"/>
  </node>
  <node id="-1107" visible="true" lat="44.99186108" lon="-72.67278672">
    <tag k="addr:city" v="Richford"/>
    <tag k="addr:housenumber" v="41"/>
    <tag k="addr:street" v="Farrar Street"/>
    <tag k="addr:state" v="VT"/>
    <tag k="ref:vcgi:esiteid" v="335700"/>
  </node>
  <node id="-1110" visible="true" lat="45.00624402" lon="-72.69635524">
    <tag k="addr:city" v="Richford"/>
    <tag k="addr:housenumber" v="1751"/>
    <tag k="addr:street" v="Berry Road"/>
    <tag k="addr:state" v="VT"/>
    <tag k="ref:vcgi:esiteid" v="337935"/>
  </node>
  <node id="-1111" visible="true" lat="45.0150512" lon="-72.67244102">
    <tag k="addr:city" v="Richford"/>
    <tag k="addr:housenumber" v="210"/>
    <tag k="addr:street" v="Drew Road"/>
    <tag k="addr:state" v="VT"/>
    <tag k="ref:vcgi:esiteid" v="337936"/>
  </node>
  <node id="-1112" visible="true" lat="45.00428464" lon="-72.5530992">
    <tag k="addr:city" v="Richford"/>
    <tag k="addr:housenumber" v="427"/>
    <tag k="addr:street" v="East Richford Slide Road"/>
    <tag k="addr:state" v="VT"/>
    <tag k="ref:vcgi:esiteid" v="337937"/>
  </node>
  <node id="-1113" visible="true" lat="44.98827534" lon="-72.69413148">
    <tag k="addr:city" v="Richford"/>
    <tag k="addr:housenumber" v="166"/>
    <tag k="addr:street" v="Marvin Road"/>
    <tag k="addr:state" v="VT"/>
    <tag k="ref:vcgi:esiteid" v="337938"/>
  </node>
  <node id="-1114" visible="true" lat="44.99062316" lon="-72.64354076">
    <tag k="addr:city" v="Richford"/>
    <tag k="addr:housenumber" v="265"/>
    <tag k="addr:street" v="Jay Road"/>
    <tag k="addr:state" v="VT"/>
    <tag k="ref:vcgi:esiteid" v="337940"/>
  </node>
  <node id="-1116" visible="true" lat="45.00390499" lon="-72.55449719">
    <tag k="addr:city" v="Richford"/>
    <tag k="addr:housenumber" v="426"/>
    <tag k="addr:street" v="East Richford Slide Road"/>
    <tag k="addr:state" v="VT"/>
    <tag k="ref:vcgi:esiteid" v="339945"/>
  </node>
  <node id="-1117" visible="true" lat="45.00891064" lon="-72.70076919">
    <tag k="addr:city" v="Richford"/>
    <tag k="addr:housenumber" v="88"/>
    <tag k="addr:street" v="Border Drive"/>
    <tag k="addr:state" v="VT"/>
    <tag k="ref:vcgi:esiteid" v="343894"/>
  </node>
  <node id="-1118" visible="true" lat="45.00358374" lon="-72.68300895">
    <tag k="addr:city" v="Richford"/>
    <tag k="addr:housenumber" v="247"/>
    <tag k="addr:street" v="Pinnacle Road"/>
    <tag k="addr:state" v="VT"/>
    <tag k="ref:vcgi:esiteid" v="343895"/>
  </node>
  <node id="-1119" visible="true" lat="45.00378855" lon="-72.68255628">
    <tag k="addr:city" v="Richford"/>
    <tag k="addr:housenumber" v="9"/>
    <tag k="addr:street" v="Drew Road"/>
    <tag k="addr:state" v="VT"/>
    <tag k="ref:vcgi:esiteid" v="343896"/>
  </node>
  <node id="-1120" visible="true" lat="44.97518317" lon="-72.68886897">
    <tag k="addr:city" v="Richford"/>
    <tag k="addr:housenumber" v="1651"/>
    <tag k="addr:street" v="Saint Albans Road"/>
    <tag k="addr:state" v="VT"/>
    <tag k="ref:vcgi:esiteid" v="343897"/>
  </node>
  <node id="-1122" visible="true" lat="44.92947676" lon="-72.64112567">
    <tag k="addr:city" v="Richford"/>
    <tag k="addr:housenumber" v="26"/>
    <tag k="addr:street" v="Cherry Avenue"/>
    <tag k="addr:state" v="VT"/>
    <tag k="ref:vcgi:esiteid" v="343904"/>
  </node>
  <node id="-1124" visible="true" lat="44.9860794" lon="-72.57986308">
    <tag k="addr:city" v="Richford"/>
    <tag k="addr:housenumber" v="298"/>
    <tag k="addr:street" v="Stevens Mills Slide Road"/>
    <tag k="addr:state" v="VT"/>
    <tag k="ref:vcgi:esiteid" v="343906"/>
  </node>
  <node id="-1125" visible="true" lat="44.96077015" lon="-72.57106785">
    <tag k="addr:city" v="Richford"/>
    <tag k="addr:housenumber" v="4029"/>
    <tag k="addr:street" v="Stevens Mills Slide Road"/>
    <tag k="addr:state" v="VT"/>
    <tag k="ref:vcgi:esiteid" v="343916"/>
  </node>
  <node id="-1126" visible="true" lat="44.95923713" lon="-72.58196586">
    <tag k="addr:city" v="Richford"/>
    <tag k="addr:housenumber" v="4041"/>
    <tag k="addr:street" v="Stevens Mills Slide Road"/>
    <tag k="addr:state" v="VT"/>
    <tag k="ref:vcgi:esiteid" v="343917"/>
  </node>
  <node id="-1127" visible="true" lat="44.94602618" lon="-72.64292564">
    <tag k="addr:city" v="Richford"/>
    <tag k="addr:housenumber" v="721"/>
    <tag k="addr:street" v="South Richford Road"/>
    <tag k="addr:state" v="VT"/>
    <tag k="ref:vcgi:esiteid" v="343918"/>
  </node>
  <node id="-1128" visible="true" lat="44.95967784" lon="-72.64914767">
    <tag k="addr:city" v="Richford"/>
    <tag k="addr:housenumber" v="343"/>
    <tag k="addr:street" v="Wightman Hill Road"/>
    <tag k="addr:state" v="VT"/>
    <tag k="ref:vcgi:esiteid" v="343920"/>
  </node>
  <node id="-1129" visible="true" lat="45.00243758" lon="-72.65214834">
    <tag k="addr:city" v="Richford"/>
    <tag k="addr:housenumber" v="101"/>
    <tag k="addr:street" v="Golf Course Road"/>
    <tag k="addr:state" v="VT"/>
    <tag k="ref:vcgi:esiteid" v="365495"/>
  </node>
  <node id="-1130" visible="true" lat="44.97480263" lon="-72.65337183">
    <tag k="addr:city" v="Richford"/>
    <tag k="addr:housenumber" v="396"/>
    <tag k="addr:street" v="Guilmette Road"/>
    <tag k="addr:state" v="VT"/>
    <tag k="ref:vcgi:esiteid" v="450042"/>
  </node>
  <node id="-1131" visible="true" lat="44.92996198" lon="-72.67161485">
    <tag k="addr:city" v="Richford"/>
    <tag k="addr:housenumber" v="52"/>
    <tag k="addr:street" v="Prive Hill Road"/>
    <tag k="addr:state" v="VT"/>
    <tag k="ref:vcgi:esiteid" v="451339"/>
  </node>
  <node id="-1136" visible="true" lat="44.96933853" lon="-72.64156033">
    <tag k="addr:city" v="Richford"/>
    <tag k="addr:housenumber" v="1141"/>
    <tag k="addr:street" v="South Richford Road"/>
    <tag k="addr:state" v="VT"/>
    <tag k="ref:vcgi:esiteid" v="612081"/>
  </node>
  <node id="-1137" visible="true" lat="44.99587768" lon="-72.62446879">
    <tag k="addr:city" v="Richford"/>
    <tag k="addr:housenumber" v="478"/>
    <tag k="addr:street" v="Jay Road"/>
    <tag k="addr:state" v="VT"/>
    <tag k="ref:vcgi:esiteid" v="613145"/>
  </node>
  <node id="-1139" visible="true" lat="45.00845835" lon="-72.58867883">
    <tag k="addr:city" v="Richford"/>
    <tag k="addr:housenumber" v="8"/>
    <tag k="addr:street" v="East Richford Slide Road"/>
    <tag k="addr:state" v="VT"/>
    <tag k="ref:vcgi:esiteid" v="616022"/>
  </node>
  <node id="-1140" visible="true" lat="44.98867873" lon="-72.66659057">
    <tag k="addr:city" v="Richford"/>
    <tag k="addr:housenumber" v="70"/>
    <tag k="addr:street" v="Pine Haven Estate A"/>
    <tag k="addr:state" v="VT"/>
    <tag k="ref:vcgi:esiteid" v="617529"/>
  </node>
  <node id="-1141" visible="true" lat="44.98859425" lon="-72.66674558">
    <tag k="addr:city" v="Richford"/>
    <tag k="addr:housenumber" v="64"/>
    <tag k="addr:street" v="Pine Haven Estate A"/>
    <tag k="addr:state" v="VT"/>
    <tag k="ref:vcgi:esiteid" v="617530"/>
  </node>
  <node id="-1142" visible="true" lat="44.98851297" lon="-72.666928">
    <tag k="addr:city" v="Richford"/>
    <tag k="addr:housenumber" v="54"/>
    <tag k="addr:street" v="Pine Haven Estate A"/>
    <tag k="addr:state" v="VT"/>
    <tag k="ref:vcgi:esiteid" v="617531"/>
  </node>
  <node id="-1143" visible="true" lat="44.98847061" lon="-72.66709227">
    <tag k="addr:city" v="Richford"/>
    <tag k="addr:housenumber" v="46"/>
    <tag k="addr:street" v="Pine Haven Estate A"/>
    <tag k="addr:state" v="VT"/>
    <tag k="ref:vcgi:esiteid" v="617532"/>
  </node>
  <node id="-1144" visible="true" lat="44.98841523" lon="-72.66729303">
    <tag k="addr:city" v="Richford"/>
    <tag k="addr:housenumber" v="36"/>
    <tag k="addr:street" v="Pine Haven Estate A"/>
    <tag k="addr:state" v="VT"/>
    <tag k="ref:vcgi:esiteid" v="617533"/>
  </node>
  <node id="-1145" visible="true" lat="44.98876541" lon="-72.66714336">
    <tag k="addr:city" v="Richford"/>
    <tag k="addr:housenumber" v="53"/>
    <tag k="addr:street" v="Pine Haven Estate A"/>
    <tag k="addr:state" v="VT"/>
    <tag k="ref:vcgi:esiteid" v="617534"/>
  </node>
  <node id="-1146" visible="true" lat="44.98864469" lon="-72.66770924">
    <tag k="addr:city" v="Richford"/>
    <tag k="addr:housenumber" v="29"/>
    <tag k="addr:street" v="Pine Haven Estate A"/>
    <tag k="addr:state" v="VT"/>
    <tag k="ref:vcgi:esiteid" v="617535"/>
  </node>
  <node id="-1147" visible="true" lat="44.98796838" lon="-72.66815469">
    <tag k="addr:city" v="Richford"/>
    <tag k="addr:housenumber" v="488"/>
    <tag k="addr:street" v="Troy Street"/>
    <tag k="addr:state" v="VT"/>
    <tag k="ref:vcgi:esiteid" v="617536"/>
  </node>
  <node id="-1148" visible="true" lat="44.9880408" lon="-72.66845283">
    <tag k="addr:city" v="Richford"/>
    <tag k="addr:housenumber" v="26"/>
    <tag k="addr:street" v="Pine Haven Estate B"/>
    <tag k="addr:state" v="VT"/>
    <tag k="ref:vcgi:esiteid" v="617537"/>
  </node>
  <node id="-1149" visible="true" lat="44.98797915" lon="-72.66859961">
    <tag k="addr:city" v="Richford"/>
    <tag k="addr:housenumber" v="36"/>
    <tag k="addr:street" v="Pine Haven Estate B"/>
    <tag k="addr:state" v="VT"/>
    <tag k="ref:vcgi:esiteid" v="617538"/>
  </node>
  <node id="-1150" visible="true" lat="44.9877735" lon="-72.66856277">
    <tag k="addr:city" v="Richford"/>
    <tag k="addr:housenumber" v="33"/>
    <tag k="addr:street" v="Pine Haven Estate B"/>
    <tag k="addr:state" v="VT"/>
    <tag k="ref:vcgi:esiteid" v="617539"/>
  </node>
  <node id="-1151" visible="true" lat="44.987738" lon="-72.6684137">
    <tag k="addr:city" v="Richford"/>
    <tag k="addr:housenumber" v="25"/>
    <tag k="addr:street" v="Pine Haven Estate B"/>
    <tag k="addr:state" v="VT"/>
    <tag k="ref:vcgi:esiteid" v="617540"/>
  </node>
  <node id="-1152" visible="true" lat="45.00184288" lon="-72.62749076">
    <tag k="addr:city" v="Richford"/>
    <tag k="addr:housenumber" v="1145"/>
    <tag k="addr:street" v="Corliss Road"/>
    <tag k="addr:state" v="VT"/>
    <tag k="ref:vcgi:esiteid" v="617541"/>
  </node>
  <node id="-1153" visible="true" lat="44.94464698" lon="-72.64314264">
    <tag k="addr:city" v="Richford"/>
    <tag k="addr:housenumber" v="707"/>
    <tag k="addr:street" v="South Richford Road"/>
    <tag k="addr:state" v="VT"/>
    <tag k="ref:vcgi:esiteid" v="617542"/>
  </node>
  <node id="-1154" visible="true" lat="45.01068298" lon="-72.59374719">
    <tag k="addr:city" v="Richford"/>
    <tag k="addr:housenumber" v="3183"/>
    <tag k="addr:street" v="Corliss Road"/>
    <tag k="addr:state" v="VT"/>
    <tag k="ref:vcgi:esiteid" v="617897"/>
  </node>
  <node id="-1156" visible="true" lat="45.00228605" lon="-72.66850209">
    <tag k="addr:city" v="Richford"/>
    <tag k="addr:housenumber" v="155"/>
    <tag k="addr:street" v="Hamilton Place Extension"/>
    <tag k="addr:state" v="VT"/>
    <tag k="ref:vcgi:esiteid" v="620265"/>
  </node>
  <node id="-1157" visible="true" lat="44.99992072" lon="-72.55562114">
    <tag k="addr:city" v="Richford"/>
    <tag k="addr:housenumber" v="480"/>
    <tag k="addr:street" v="East Richford Slide Road"/>
    <tag k="addr:state" v="VT"/>
    <tag k="ref:vcgi:esiteid" v="620409"/>
  </node>
  <node id="-1158" visible="true" lat="44.9871945" lon="-72.66802377">
    <tag k="addr:city" v="Richford"/>
    <tag k="addr:housenumber" v="25"/>
    <tag k="addr:street" v="Pine Haven Estate C"/>
    <tag k="addr:state" v="VT"/>
    <tag k="ref:vcgi:esiteid" v="620648"/>
  </node>
  <node id="-1159" visible="true" lat="45.00200677" lon="-72.64245467">
    <tag k="addr:city" v="Richford"/>
    <tag k="addr:housenumber" v="383"/>
    <tag k="addr:street" v="Corliss Road"/>
    <tag k="addr:state" v="VT"/>
    <tag k="ref:vcgi:esiteid" v="620789"/>
  </node>
  <node id="-1160" visible="true" lat="44.99343512" lon="-72.55191393">
    <tag k="addr:city" v="Richford"/>
    <tag k="addr:housenumber" v="582"/>
    <tag k="addr:street" v="East Richford Slide Road"/>
    <tag k="addr:state" v="VT"/>
    <tag k="ref:vcgi:esiteid" v="620809"/>
  </node>
  <node id="-1161" visible="true" lat="44.9930136" lon="-72.55082892">
    <tag k="addr:city" v="Richford"/>
    <tag k="addr:housenumber" v="596"/>
    <tag k="addr:street" v="East Richford Slide Road"/>
    <tag k="addr:state" v="VT"/>
    <tag k="ref:vcgi:esiteid" v="620810"/>
  </node>
  <node id="-1162" visible="true" lat="44.99379503" lon="-72.55104855">
    <tag k="addr:city" v="Richford"/>
    <tag k="addr:housenumber" v="580"/>
    <tag k="addr:street" v="East Richford Slide Road"/>
    <tag k="addr:state" v="VT"/>
    <tag k="ref:vcgi:esiteid" v="620811"/>
  </node>
  <node id="-1163" visible="true" lat="44.99237196" lon="-72.5506526">
    <tag k="addr:city" v="Richford"/>
    <tag k="addr:housenumber" v="602"/>
    <tag k="addr:street" v="East Richford Slide Road"/>
    <tag k="addr:state" v="VT"/>
    <tag k="ref:vcgi:esiteid" v="620812"/>
  </node>
  <node id="-1164" visible="true" lat="45.01033901" lon="-72.7011032">
    <tag k="addr:city" v="Richford"/>
    <tag k="addr:housenumber" v="64"/>
    <tag k="addr:street" v="Border Drive"/>
    <tag k="addr:state" v="VT"/>
    <tag k="ref:vcgi:esiteid" v="655223"/>
  </node>
  <node id="-1165" visible="true" lat="45.00998415" lon="-72.70143525">
    <tag k="addr:city" v="Richford"/>
    <tag k="addr:housenumber" v="50"/>
    <tag k="addr:street" v="Border Drive"/>
    <tag k="addr:state" v="VT"/>
    <tag k="ref:vcgi:esiteid" v="655224"/>
  </node>
  <node id="-1166" visible="true" lat="45.01019114" lon="-72.70152156">
    <tag k="addr:city" v="Richford"/>
    <tag k="addr:housenumber" v="100"/>
    <tag k="addr:street" v="Border Road"/>
    <tag k="addr:state" v="VT"/>
    <tag k="ref:vcgi:esiteid" v="655225"/>
  </node>
  <node id="-1167" visible="true" lat="44.98653664" lon="-72.65467376">
    <tag k="addr:city" v="Richford"/>
    <tag k="addr:housenumber" v="128"/>
    <tag k="addr:street" v="Jay Road"/>
    <tag k="addr:state" v="VT"/>
    <tag k="ref:vcgi:esiteid" v="655226"/>
  </node>
  <node id="-1168" visible="true" lat="44.98321773" lon="-72.69265443">
    <tag k="addr:city" v="Richford"/>
    <tag k="addr:housenumber" v="383"/>
    <tag k="addr:street" v="Magoon Road"/>
    <tag k="addr:state" v="VT"/>
    <tag k="ref:vcgi:esiteid" v="700136"/>
  </node>
  <node id="-1169" visible="true" lat="44.93743352" lon="-72.66346599">
    <tag k="addr:city" v="Richford"/>
    <tag k="addr:housenumber" v="380"/>
    <tag k="addr:street" v="Dunham Road"/>
    <tag k="addr:state" v="VT"/>
    <tag k="ref:vcgi:esiteid" v="750059"/>
  </node>
  <node id="-1170" visible="true" lat="44.93638764" lon="-72.66141826">
    <tag k="addr:city" v="Richford"/>
    <tag k="addr:housenumber" v="295"/>
    <tag k="addr:street" v="Dunham Road"/>
    <tag k="addr:state" v="VT"/>
    <tag k="ref:vcgi:esiteid" v="750060"/>
  </node>
  <node id="-1172" visible="true" lat="44.94638983" lon="-72.65011596">
    <tag k="addr:city" v="Richford"/>
    <tag k="addr:housenumber" v="228"/>
    <tag k="addr:street" v="Wightman Hill Road"/>
    <tag k="addr:state" v="VT"/>
    <tag k="ref:vcgi:esiteid" v="750062"/>
  </node>
  <node id="-1173" visible="true" lat="44.94810788" lon="-72.65264507">
    <tag k="addr:city" v="Richford"/>
    <tag k="addr:housenumber" v="265"/>
    <tag k="addr:street" v="Wightman Hill Road"/>
    <tag k="addr:state" v="VT"/>
    <tag k="ref:vcgi:esiteid" v="750063"/>
  </node>
  <node id="-1175" visible="true" lat="44.95070282" lon="-72.64741134">
    <tag k="addr:city" v="Richford"/>
    <tag k="addr:housenumber" v="360"/>
    <tag k="addr:street" v="Wightman Hill Road"/>
    <tag k="addr:state" v="VT"/>
    <tag k="ref:vcgi:esiteid" v="750065"/>
  </node>
  <node id="-1176" visible="true" lat="44.9416981" lon="-72.65554634">
    <tag k="addr:city" v="Richford"/>
    <tag k="addr:housenumber" v="269"/>
    <tag k="addr:street" v="Seven Saplings Lane"/>
    <tag k="addr:state" v="VT"/>
    <tag k="ref:vcgi:esiteid" v="750067"/>
  </node>
  <node id="-1177" visible="true" lat="44.95508994" lon="-72.64993745">
    <tag k="addr:city" v="Richford"/>
    <tag k="addr:housenumber" v="300"/>
    <tag k="addr:street" v="Wightman Hill Road"/>
    <tag k="addr:state" v="VT"/>
    <tag k="ref:vcgi:esiteid" v="750068"/>
  </node>
  <node id="-1179" visible="true" lat="44.97379561" lon="-72.65260251">
    <tag k="addr:city" v="Richford"/>
    <tag k="addr:housenumber" v="368"/>
    <tag k="addr:street" v="Guilmette Road"/>
    <tag k="addr:state" v="VT"/>
    <tag k="ref:vcgi:esiteid" v="750070"/>
  </node>
  <node id="-1180" visible="true" lat="44.9826719" lon="-72.6313165">
    <tag k="addr:city" v="Richford"/>
    <tag k="addr:housenumber" v="214"/>
    <tag k="addr:street" v="McAllister Road"/>
    <tag k="addr:state" v="VT"/>
    <tag k="ref:vcgi:esiteid" v="750071"/>
  </node>
  <node id="-1181" visible="true" lat="44.98221944" lon="-72.62718913">
    <tag k="addr:city" v="Richford"/>
    <tag k="addr:housenumber" v="297"/>
    <tag k="addr:street" v="McAllister Road"/>
    <tag k="addr:state" v="VT"/>
    <tag k="ref:vcgi:esiteid" v="750072"/>
  </node>
  <node id="-1182" visible="true" lat="44.98572185" lon="-72.62494234">
    <tag k="addr:city" v="Richford"/>
    <tag k="addr:housenumber" v="231"/>
    <tag k="addr:street" v="Coons Road"/>
    <tag k="addr:state" v="VT"/>
    <tag k="ref:vcgi:esiteid" v="750073"/>
  </node>
  <node id="-1183" visible="true" lat="44.98942097" lon="-72.61193567">
    <tag k="addr:city" v="Richford"/>
    <tag k="addr:housenumber" v="415"/>
    <tag k="addr:street" v="Brook Street"/>
    <tag k="addr:state" v="VT"/>
    <tag k="ref:vcgi:esiteid" v="750074"/>
  </node>
  <node id="-1184" visible="true" lat="44.9941722" lon="-72.61056583">
    <tag k="addr:city" v="Richford"/>
    <tag k="addr:housenumber" v="604"/>
    <tag k="addr:street" v="Jay Road"/>
    <tag k="addr:state" v="VT"/>
    <tag k="ref:vcgi:esiteid" v="750075"/>
  </node>
  <node id="-1185" visible="true" lat="45.00262432" lon="-72.57191157">
    <tag k="addr:city" v="Richford"/>
    <tag k="addr:housenumber" v="791"/>
    <tag k="addr:street" v="Jay Road"/>
    <tag k="addr:state" v="VT"/>
    <tag k="ref:vcgi:esiteid" v="750076"/>
  </node>
  <node id="-1186" visible="true" lat="44.99287759" lon="-72.56688645">
    <tag k="addr:city" v="Richford"/>
    <tag k="addr:housenumber" v="1362"/>
    <tag k="addr:street" v="Jay Road"/>
    <tag k="addr:state" v="VT"/>
    <tag k="ref:vcgi:esiteid" v="750077"/>
  </node>
  <node id="-1187" visible="true" lat="44.92420741" lon="-72.61786824">
    <tag k="addr:city" v="Richford"/>
    <tag k="addr:housenumber" v="187"/>
    <tag k="addr:street" v="Black Falls Road"/>
    <tag k="addr:state" v="VT"/>
    <tag k="ref:vcgi:esiteid" v="750078"/>
  </node>
  <node id="-1189" visible="true" lat="45.0141181" lon="-72.69641986">
    <tag k="addr:city" v="Richford"/>
    <tag k="addr:housenumber" v="37"/>
    <tag k="addr:street" v="Pinnacle Road"/>
    <tag k="addr:state" v="VT"/>
    <tag k="ref:vcgi:esiteid" v="750348"/>
  </node>
  <node id="-1190" visible="true" lat="45.01419562" lon="-72.69598718">
    <tag k="addr:city" v="Richford"/>
    <tag k="addr:housenumber" v="43"/>
    <tag k="addr:street" v="Pinnacle Road"/>
    <tag k="addr:state" v="VT"/>
    <tag k="ref:vcgi:esiteid" v="750349"/>
  </node>
  <node id="-1191" visible="true" lat="45.00205598" lon="-72.69159021">
    <tag k="addr:city" v="Richford"/>
    <tag k="addr:housenumber" v="122"/>
    <tag k="addr:street" v="Country Drive"/>
    <tag k="addr:state" v="VT"/>
    <tag k="ref:vcgi:esiteid" v="750350"/>
  </node>
  <node id="-1193" visible="true" lat="45.00514863" lon="-72.6586379">
    <tag k="addr:city" v="Richford"/>
    <tag k="addr:housenumber" v="600"/>
    <tag k="addr:street" v="Province Street"/>
    <tag k="addr:state" v="VT"/>
    <tag k="ref:vcgi:esiteid" v="750352"/>
  </node>
  <node id="-1196" visible="true" lat="45.00062869" lon="-72.65238353">
    <tag k="addr:city" v="Richford"/>
    <tag k="addr:housenumber" v="96"/>
    <tag k="addr:street" v="Golf Course Road"/>
    <tag k="addr:state" v="VT"/>
    <tag k="ref:vcgi:esiteid" v="750355"/>
  </node>
  <node id="-1197" visible="true" lat="45.00732691" lon="-72.64023936">
    <tag k="addr:city" v="Richford"/>
    <tag k="addr:housenumber" v="256"/>
    <tag k="addr:street" v="Golf Course Road"/>
    <tag k="addr:state" v="VT"/>
    <tag k="ref:vcgi:esiteid" v="750356"/>
  </node>
  <node id="-1198" visible="true" lat="45.00141774" lon="-72.60851657">
    <tag k="addr:city" v="Richford"/>
    <tag k="addr:housenumber" v="2182"/>
    <tag k="addr:street" v="Corliss Road"/>
    <tag k="addr:state" v="VT"/>
    <tag k="ref:vcgi:esiteid" v="750359"/>
  </node>
  <node id="-1199" visible="true" lat="45.00427736" lon="-72.60580358">
    <tag k="addr:city" v="Richford"/>
    <tag k="addr:housenumber" v="2401"/>
    <tag k="addr:street" v="Corliss Road"/>
    <tag k="addr:state" v="VT"/>
    <tag k="ref:vcgi:esiteid" v="750360"/>
  </node>
  <node id="-1200" visible="true" lat="45.00715897" lon="-72.59728202">
    <tag k="addr:city" v="Richford"/>
    <tag k="addr:housenumber" v="2845"/>
    <tag k="addr:street" v="Corliss Road"/>
    <tag k="addr:state" v="VT"/>
    <tag k="ref:vcgi:esiteid" v="750361"/>
  </node>
  <node id="-1201" visible="true" lat="45.00776821" lon="-72.59619731">
    <tag k="addr:city" v="Richford"/>
    <tag k="addr:housenumber" v="2956"/>
    <tag k="addr:street" v="Corliss Road"/>
    <tag k="addr:state" v="VT"/>
    <tag k="ref:vcgi:esiteid" v="750362"/>
  </node>
  <node id="-1202" visible="true" lat="45.0090066" lon="-72.59581508">
    <tag k="addr:city" v="Richford"/>
    <tag k="addr:housenumber" v="2991"/>
    <tag k="addr:street" v="Corliss Road"/>
    <tag k="addr:state" v="VT"/>
    <tag k="ref:vcgi:esiteid" v="750363"/>
  </node>
  <node id="-1203" visible="true" lat="45.00716881" lon="-72.58355298">
    <tag k="addr:city" v="Richford"/>
    <tag k="addr:housenumber" v="753"/>
    <tag k="addr:street" v="Jay Road"/>
    <tag k="addr:state" v="VT"/>
    <tag k="ref:vcgi:esiteid" v="750364"/>
  </node>
  <node id="-1204" visible="true" lat="45.01021919" lon="-72.57393875">
    <tag k="addr:city" v="Richford"/>
    <tag k="addr:housenumber" v="181"/>
    <tag k="addr:street" v="East Richford Slide Road"/>
    <tag k="addr:state" v="VT"/>
    <tag k="ref:vcgi:esiteid" v="750365"/>
  </node>
  <node id="-1207" visible="true" lat="44.98487597" lon="-72.69073998">
    <tag k="addr:city" v="Richford"/>
    <tag k="addr:housenumber" v="384"/>
    <tag k="addr:street" v="Magoon Road"/>
    <tag k="addr:state" v="VT"/>
    <tag k="ref:vcgi:esiteid" v="750368"/>
  </node>
  <node id="-1209" visible="true" lat="44.99445634" lon="-72.62677745">
    <tag k="addr:city" v="Richford"/>
    <tag k="addr:housenumber" v="462"/>
    <tag k="addr:street" v="Jay Road"/>
    <tag k="addr:state" v="VT"/>
    <tag k="ref:vcgi:esiteid" v="750370"/>
  </node>
  <node id="-1210" visible="true" lat="45.00185922" lon="-72.57772642">
    <tag k="addr:city" v="Richford"/>
    <tag k="addr:housenumber" v="56"/>
    <tag k="addr:street" v="Nickson Road"/>
    <tag k="addr:state" v="VT"/>
    <tag k="ref:vcgi:esiteid" v="750372"/>
  </node>
  <node id="-1214" visible="true" lat="44.96429289" lon="-72.66318591">
    <tag k="addr:city" v="Richford"/>
    <tag k="addr:housenumber" v="212"/>
    <tag k="addr:street" v="Guilmette Road"/>
    <tag k="addr:state" v="VT"/>
    <tag k="ref:vcgi:esiteid" v="750376"/>
  </node>
  <node id="-1216" visible="true" lat="44.97835172" lon="-72.64277407">
    <tag k="addr:city" v="Richford"/>
    <tag k="addr:housenumber" v="82"/>
    <tag k="addr:street" v="McAllister Road"/>
    <tag k="addr:state" v="VT"/>
    <tag k="ref:vcgi:esiteid" v="750379"/>
  </node>
  <node id="-1217" visible="true" lat="44.96193486" lon="-72.62724428">
    <tag k="addr:city" v="Richford"/>
    <tag k="addr:housenumber" v="88"/>
    <tag k="addr:street" v="Benson Road"/>
    <tag k="addr:state" v="VT"/>
    <tag k="ref:vcgi:esiteid" v="750380"/>
  </node>
  <node id="-1218" visible="true" lat="44.93899656" lon="-72.66830338">
    <tag k="addr:city" v="Richford"/>
    <tag k="addr:housenumber" v="660"/>
    <tag k="addr:street" v="Dunham Road"/>
    <tag k="addr:state" v="VT"/>
    <tag k="ref:vcgi:esiteid" v="750382"/>
  </node>
  <node id="-1219" visible="true" lat="44.95659495" lon="-72.63884483">
    <tag k="addr:city" v="Richford"/>
    <tag k="addr:housenumber" v="12"/>
    <tag k="addr:street" v="Bridgman Road"/>
    <tag k="addr:state" v="VT"/>
    <tag k="ref:vcgi:esiteid" v="750383"/>
  </node>
  <node id="-1220" visible="true" lat="44.95567849" lon="-72.64063323">
    <tag k="addr:city" v="Richford"/>
    <tag k="addr:housenumber" v="32"/>
    <tag k="addr:street" v="Bridgman Road"/>
    <tag k="addr:state" v="VT"/>
    <tag k="ref:vcgi:esiteid" v="750384"/>
  </node>
  <node id="-1221" visible="true" lat="44.93880524" lon="-72.63402805">
    <tag k="addr:city" v="Richford"/>
    <tag k="addr:housenumber" v="180"/>
    <tag k="addr:street" v="Coy Road"/>
    <tag k="addr:state" v="VT"/>
    <tag k="ref:vcgi:esiteid" v="750385"/>
  </node>
  <node id="-1222" visible="true" lat="44.93925637" lon="-72.62677818">
    <tag k="addr:city" v="Richford"/>
    <tag k="addr:housenumber" v="149"/>
    <tag k="addr:street" v="Coy Road"/>
    <tag k="addr:state" v="VT"/>
    <tag k="ref:vcgi:esiteid" v="750386"/>
  </node>
  <node id="-1223" visible="true" lat="44.93946385" lon="-72.62636155">
    <tag k="addr:city" v="Richford"/>
    <tag k="addr:housenumber" v="151"/>
    <tag k="addr:street" v="Coy Road"/>
    <tag k="addr:state" v="VT"/>
    <tag k="ref:vcgi:esiteid" v="750387"/>
  </node>
  <node id="-1224" visible="true" lat="44.9690603" lon="-72.61082479">
    <tag k="addr:city" v="Richford"/>
    <tag k="addr:housenumber" v="450"/>
    <tag k="addr:street" v="McAllister Road"/>
    <tag k="addr:state" v="VT"/>
    <tag k="ref:vcgi:esiteid" v="750388"/>
  </node>
  <node id="-1226" visible="true" lat="44.9231491" lon="-72.66958771">
    <tag k="addr:city" v="Richford"/>
    <tag k="addr:housenumber" v="88"/>
    <tag k="addr:street" v="Montgomery Road"/>
    <tag k="addr:state" v="VT"/>
    <tag k="ref:vcgi:esiteid" v="750390"/>
  </node>
  <node id="-1228" visible="true" lat="44.9925613" lon="-72.60646279">
    <tag k="addr:city" v="Richford"/>
    <tag k="addr:housenumber" v="556"/>
    <tag k="addr:street" v="Stevens Mills Slide Road"/>
    <tag k="addr:state" v="VT"/>
    <tag k="ref:vcgi:esiteid" v="750564"/>
  </node>
  <node id="-1229" visible="true" lat="44.98601397" lon="-72.59969879">
    <tag k="addr:city" v="Richford"/>
    <tag k="addr:housenumber" v="451"/>
    <tag k="addr:street" v="Stevens Mills Slide Road"/>
    <tag k="addr:state" v="VT"/>
    <tag k="ref:vcgi:esiteid" v="750565"/>
  </node>
  <node id="-1230" visible="true" lat="44.98468989" lon="-72.59587695">
    <tag k="addr:city" v="Richford"/>
    <tag k="addr:housenumber" v="423"/>
    <tag k="addr:street" v="Stevens Mills Slide Road"/>
    <tag k="addr:state" v="VT"/>
    <tag k="ref:vcgi:esiteid" v="750566"/>
  </node>
  <node id="-1231" visible="true" lat="44.98395718" lon="-72.59934968">
    <tag k="addr:city" v="Richford"/>
    <tag k="addr:housenumber" v="10"/>
    <tag k="addr:street" v="Smith Road"/>
    <tag k="addr:state" v="VT"/>
    <tag k="ref:vcgi:esiteid" v="750567"/>
  </node>
  <node id="-1236" visible="true" lat="44.97881327" lon="-72.59439883">
    <tag k="addr:city" v="Richford"/>
    <tag k="addr:housenumber" v="7146"/>
    <tag k="addr:street" v="Smith Road"/>
    <tag k="addr:state" v="VT"/>
    <tag k="ref:vcgi:esiteid" v="750572"/>
  </node>
  <node id="-1237" visible="true" lat="44.97257877" lon="-72.59136799">
    <tag k="addr:city" v="Richford"/>
    <tag k="addr:housenumber" v="1164"/>
    <tag k="addr:street" v="Smith Road"/>
    <tag k="addr:state" v="VT"/>
    <tag k="ref:vcgi:esiteid" v="750573"/>
  </node>
  <node id="-1238" visible="true" lat="44.98449953" lon="-72.59033745">
    <tag k="addr:city" v="Richford"/>
    <tag k="addr:housenumber" v="349"/>
    <tag k="addr:street" v="Stevens Mills Slide Road"/>
    <tag k="addr:state" v="VT"/>
    <tag k="ref:vcgi:esiteid" v="750575"/>
  </node>
  <node id="-1239" visible="true" lat="44.98344063" lon="-72.58823007">
    <tag k="addr:city" v="Richford"/>
    <tag k="addr:housenumber" v="317"/>
    <tag k="addr:street" v="Stevens Mills Slide Road"/>
    <tag k="addr:state" v="VT"/>
    <tag k="ref:vcgi:esiteid" v="750576"/>
  </node>
  <node id="-1240" visible="true" lat="44.98041718" lon="-72.66697093">
    <tag k="addr:city" v="Richford"/>
    <tag k="addr:housenumber" v="337"/>
    <tag k="addr:street" v="Frost Ridge Road"/>
    <tag k="addr:state" v="VT"/>
    <tag k="ref:vcgi:esiteid" v="750577"/>
  </node>
  <node id="-1241" visible="true" lat="44.97733136" lon="-72.66278531">
    <tag k="addr:city" v="Richford"/>
    <tag k="addr:housenumber" v="1361"/>
    <tag k="addr:street" v="South Richford Road"/>
    <tag k="addr:state" v="VT"/>
    <tag k="ref:vcgi:esiteid" v="750578"/>
  </node>
  <node id="-1242" visible="true" lat="44.96684964" lon="-72.63302061">
    <tag k="addr:city" v="Richford"/>
    <tag k="addr:housenumber" v="1046"/>
    <tag k="addr:street" v="South Richford Road"/>
    <tag k="addr:state" v="VT"/>
    <tag k="ref:vcgi:esiteid" v="750579"/>
  </node>
  <node id="-1243" visible="true" lat="44.96507992" lon="-72.6315677">
    <tag k="addr:city" v="Richford"/>
    <tag k="addr:housenumber" v="1030"/>
    <tag k="addr:street" v="South Richford Road"/>
    <tag k="addr:state" v="VT"/>
    <tag k="ref:vcgi:esiteid" v="750580"/>
  </node>
  <node id="-1245" visible="true" lat="44.97234056" lon="-72.5809017">
    <tag k="addr:city" v="Richford"/>
    <tag k="addr:housenumber" v="116"/>
    <tag k="addr:street" v="Stevens Mills Slide Road"/>
    <tag k="addr:state" v="VT"/>
    <tag k="ref:vcgi:esiteid" v="750582"/>
  </node>
  <node id="-1246" visible="true" lat="44.97425774" lon="-72.58011949">
    <tag k="addr:city" v="Richford"/>
    <tag k="addr:housenumber" v="2485"/>
    <tag k="addr:street" v="Stevens Mills Slide Road"/>
    <tag k="addr:state" v="VT"/>
    <tag k="ref:vcgi:esiteid" v="750583"/>
  </node>
  <node id="-1247" visible="true" lat="44.9627758" lon="-72.57665599">
    <tag k="addr:city" v="Richford"/>
    <tag k="addr:housenumber" v="298"/>
    <tag k="addr:street" v="Stevens Mills Slide Road"/>
    <tag k="addr:state" v="VT"/>
    <tag k="ref:vcgi:esiteid" v="750584"/>
  </node>
  <node id="-1248" visible="true" lat="44.96288066" lon="-72.57211666">
    <tag k="addr:city" v="Richford"/>
    <tag k="addr:housenumber" v="4014"/>
    <tag k="addr:street" v="Stevens Mills Slide Road"/>
    <tag k="addr:state" v="VT"/>
    <tag k="ref:vcgi:esiteid" v="750585"/>
  </node>
  <node id="-1249" visible="true" lat="44.95608787" lon="-72.652904">
    <tag k="addr:city" v="Richford"/>
    <tag k="addr:housenumber" v="285"/>
    <tag k="addr:street" v="Wightman Hill Road"/>
    <tag k="addr:state" v="VT"/>
    <tag k="ref:vcgi:esiteid" v="750586"/>
  </node>
  <node id="-1250" visible="true" lat="44.92481517" lon="-72.59238004">
    <tag k="addr:city" v="Richford"/>
    <tag k="addr:housenumber" v="505"/>
    <tag k="addr:street" v="Black Falls Road"/>
    <tag k="addr:state" v="VT"/>
    <tag k="ref:vcgi:esiteid" v="750587"/>
  </node>
  <node id="-1251" visible="true" lat="45.00191678" lon="-72.61245794">
    <tag k="addr:city" v="Richford"/>
    <tag k="addr:housenumber" v="1977"/>
    <tag k="addr:street" v="Corliss Road"/>
    <tag k="addr:state" v="VT"/>
    <tag k="ref:vcgi:esiteid" v="752804"/>
  </node>
  <node id="-1252" visible="true" lat="45.00446293" lon="-72.59988109">
    <tag k="addr:city" v="Richford"/>
    <tag k="addr:housenumber" v="2690"/>
    <tag k="addr:street" v="Corliss Road"/>
    <tag k="addr:state" v="VT"/>
    <tag k="ref:vcgi:esiteid" v="752805"/>
  </node>
  <node id="-1253" visible="true" lat="44.9964" lon="-72.66117">
    <tag k="addr:city" v="Richford"/>
    <tag k="addr:housenumber" v="79"/>
    <tag k="addr:street" v="Green Avenue"/>
    <tag k="addr:state" v="VT"/>
    <tag k="ref:vcgi:esiteid" v="752976"/>
  </node>
  <node id="-1256" visible="true" lat="45.00582151" lon="-72.60531544">
    <tag k="addr:city" v="Richford"/>
    <tag k="addr:housenumber" v="2449"/>
    <tag k="addr:street" v="Corliss Road"/>
    <tag k="addr:state" v="VT"/>
    <tag k="ref:vcgi:esiteid" v="753112"/>
  </node>
  <node id="-1257" visible="true" lat="45.00872308" lon="-72.5943173">
    <tag k="addr:city" v="Richford"/>
    <tag k="addr:housenumber" v="3054"/>
    <tag k="addr:street" v="Corliss Road"/>
    <tag k="addr:state" v="VT"/>
    <tag k="ref:vcgi:esiteid" v="753113"/>
  </node>
  <node id="-1258" visible="true" lat="45.00148546" lon="-72.62421323">
    <tag k="addr:city" v="Richford"/>
    <tag k="addr:housenumber" v="1320"/>
    <tag k="addr:street" v="Corliss Road"/>
    <tag k="addr:state" v="VT"/>
    <tag k="ref:vcgi:esiteid" v="753114"/>
  </node>
  <node id="-1259" visible="true" lat="44.9698" lon="-72.6692">
    <tag k="addr:city" v="Richford"/>
    <tag k="addr:housenumber" v="254"/>
    <tag k="addr:street" v="Hardwood Hill Road"/>
    <tag k="addr:state" v="VT"/>
    <tag k="ref:vcgi:esiteid" v="753568"/>
  </node>
  <node id="-1260" visible="true" lat="44.98551975" lon="-72.60797693">
    <tag k="addr:city" v="Richford"/>
    <tag k="addr:housenumber" v="789"/>
    <tag k="addr:street" v="Brook Street"/>
    <tag k="addr:state" v="VT"/>
    <tag k="ref:vcgi:esiteid" v="754011"/>
  </node>
  <node id="-1261" visible="true" lat="44.99379392" lon="-72.61355744">
    <tag k="addr:city" v="Richford"/>
    <tag k="addr:housenumber" v="73"/>
    <tag k="addr:street" v="Brook Street"/>
    <tag k="addr:state" v="VT"/>
    <tag k="ref:vcgi:esiteid" v="754012"/>
  </node>
  <node id="-1262" visible="true" lat="44.9773526" lon="-72.60098584">
    <tag k="addr:city" v="Richford"/>
    <tag k="addr:housenumber" v="1411"/>
    <tag k="addr:street" v="Brook Street"/>
    <tag k="addr:state" v="VT"/>
    <tag k="ref:vcgi:esiteid" v="754013"/>
  </node>
  <node id="-1263" visible="true" lat="45.00088924" lon="-72.63825967">
    <tag k="addr:city" v="Richford"/>
    <tag k="addr:housenumber" v="596"/>
    <tag k="addr:street" v="Corliss Road"/>
    <tag k="addr:state" v="VT"/>
    <tag k="ref:vcgi:esiteid" v="754014"/>
  </node>
  <node id="-1264" visible="true" lat="45.00160095" lon="-72.61850631">
    <tag k="addr:city" v="Richford"/>
    <tag k="addr:housenumber" v="1645"/>
    <tag k="addr:street" v="Corliss Road"/>
    <tag k="addr:state" v="VT"/>
    <tag k="ref:vcgi:esiteid" v="754015"/>
  </node>
  <node id="-1265" visible="true" lat="45.0060614" lon="-72.59898192">
    <tag k="addr:city" v="Richford"/>
    <tag k="addr:housenumber" v="2753"/>
    <tag k="addr:street" v="Corliss Road"/>
    <tag k="addr:state" v="VT"/>
    <tag k="ref:vcgi:esiteid" v="754016"/>
  </node>
  <node id="-1266" visible="true" lat="44.99718282" lon="-72.61450317">
    <tag k="addr:city" v="Richford"/>
    <tag k="addr:housenumber" v="1852"/>
    <tag k="addr:street" v="Corliss Road"/>
    <tag k="addr:state" v="VT"/>
    <tag k="ref:vcgi:esiteid" v="754018"/>
  </node>
  <node id="-1267" visible="true" lat="44.98978097" lon="-72.67530525">
    <tag k="addr:city" v="Richford"/>
    <tag k="addr:housenumber" v="6"/>
    <tag k="addr:street" v="Noyes Street"/>
    <tag k="addr:state" v="VT"/>
    <tag k="ref:vcgi:esiteid" v="754435"/>
  </node>
  <node id="-1268" visible="true" lat="44.99881941" lon="-72.66990237">
    <tag k="addr:city" v="Richford"/>
    <tag k="addr:housenumber" v="17"/>
    <tag k="addr:street" v="Elm Street"/>
    <tag k="addr:state" v="VT"/>
    <tag k="ref:vcgi:esiteid" v="754795"/>
  </node>
  <node id="-1269" visible="true" lat="44.99928686" lon="-72.60057085">
    <tag k="addr:city" v="Richford"/>
    <tag k="addr:housenumber" v="766"/>
    <tag k="addr:street" v="Jay Road"/>
    <tag k="addr:state" v="VT"/>
    <tag k="ref:vcgi:esiteid" v="754822"/>
  </node>
  <node id="-1270" visible="true" lat="44.93757969" lon="-72.66234971">
    <tag k="addr:city" v="Richford"/>
    <tag k="addr:housenumber" v="336"/>
    <tag k="addr:street" v="Dunham Road"/>
    <tag k="addr:state" v="VT"/>
    <tag k="ref:vcgi:esiteid" v="755705"/>
  </node>
  <node id="-1271" visible="true" lat="45.00299288" lon="-72.55278801">
    <tag k="addr:city" v="Richford"/>
    <tag k="addr:housenumber" v="444"/>
    <tag k="addr:street" v="East Richford Slide Road"/>
    <tag k="addr:state" v="VT"/>
    <tag k="ref:vcgi:esiteid" v="755924"/>
  </node>
  <node id="-1273" visible="true" lat="44.96200333" lon="-72.62788758">
    <tag k="addr:city" v="Richford"/>
    <tag k="addr:housenumber" v="60"/>
    <tag k="addr:street" v="Benson Road"/>
    <tag k="addr:state" v="VT"/>
    <tag k="ref:vcgi:esiteid" v="755947"/>
  </node>
  <node id="-1274" visible="true" lat="44.96210535" lon="-72.62714331">
    <tag k="addr:city" v="Richford"/>
    <tag k="addr:housenumber" v="87"/>
    <tag k="addr:street" v="Benson Road"/>
    <tag k="addr:state" v="VT"/>
    <tag k="ref:vcgi:esiteid" v="755948"/>
  </node>
  <node id="-1275" visible="true" lat="44.96193865" lon="-72.6249254">
    <tag k="addr:city" v="Richford"/>
    <tag k="addr:housenumber" v="148"/>
    <tag k="addr:street" v="Benson Road"/>
    <tag k="addr:state" v="VT"/>
    <tag k="ref:vcgi:esiteid" v="755949"/>
  </node>
  <node id="-1276" visible="true" lat="44.9863973" lon="-72.66773837">
    <tag k="addr:city" v="Richford"/>
    <tag k="addr:housenumber" v="600"/>
    <tag k="addr:street" v="Troy Street"/>
    <tag k="addr:state" v="VT"/>
    <tag k="ref:vcgi:esiteid" v="755973"/>
  </node>
  <node id="-1277" visible="true" lat="45.00105567" lon="-72.55299987">
    <tag k="addr:city" v="Richford"/>
    <tag k="addr:housenumber" v="462"/>
    <tag k="addr:street" v="East Richford Slide Road"/>
    <tag k="addr:state" v="VT"/>
    <tag k="ref:vcgi:esiteid" v="756436"/>
  </node>
  <node id="-1278" visible="true" lat="45.00068482" lon="-72.65333148">
    <tag k="addr:city" v="Richford"/>
    <tag k="addr:housenumber" v="92"/>
    <tag k="addr:street" v="Golf Course Road"/>
    <tag k="addr:state" v="VT"/>
    <tag k="ref:vcgi:esiteid" v="756578"/>
  </node>
  <node id="-1279" visible="true" lat="44.98844454" lon="-72.66063847">
    <tag k="addr:city" v="Richford"/>
    <tag k="addr:housenumber" v="855"/>
    <tag k="addr:street" v="Eastern Avenue"/>
    <tag k="addr:state" v="VT"/>
    <tag k="ref:vcgi:esiteid" v="756579"/>
  </node>
  <node id="-1280" visible="true" lat="44.98459388" lon="-72.59389852">
    <tag k="addr:city" v="Richford"/>
    <tag k="addr:housenumber" v="417"/>
    <tag k="addr:street" v="Stevens Mills Slide Road"/>
    <tag k="addr:state" v="VT"/>
    <tag k="ref:vcgi:esiteid" v="756580"/>
  </node>
  <node id="-1281" visible="true" lat="44.98262397" lon="-72.62190234">
    <tag k="addr:city" v="Richford"/>
    <tag k="addr:housenumber" v="159"/>
    <tag k="addr:street" v="Coons Road"/>
    <tag k="addr:state" v="VT"/>
    <tag k="ref:vcgi:esiteid" v="756581"/>
  </node>
  <node id="-1282" visible="true" lat="44.96102648" lon="-72.64774298">
    <tag k="addr:city" v="Richford"/>
    <tag k="addr:housenumber" v="397"/>
    <tag k="addr:street" v="Wightman Hill Road"/>
    <tag k="addr:state" v="VT"/>
    <tag k="ref:vcgi:esiteid" v="757092"/>
  </node>
  <node id="-1283" visible="true" lat="44.96192649" lon="-72.64680704">
    <tag k="addr:city" v="Richford"/>
    <tag k="addr:housenumber" v="425"/>
    <tag k="addr:street" v="Wightman Hill Road"/>
    <tag k="addr:state" v="VT"/>
    <tag k="ref:vcgi:esiteid" v="757093"/>
  </node>
  <node id="-1284" visible="true" lat="44.98752611" lon="-72.66804289">
    <tag k="addr:city" v="Richford"/>
    <tag k="addr:housenumber" v="24"/>
    <tag k="addr:street" v="Pine Haven Estate C"/>
    <tag k="addr:state" v="VT"/>
    <tag k="ref:vcgi:esiteid" v="757249"/>
  </node>
  <node id="-1285" visible="true" lat="44.98723697" lon="-72.66795146">
    <tag k="addr:city" v="Richford"/>
    <tag k="addr:housenumber" v="19"/>
    <tag k="addr:street" v="Pine Haven Estate C"/>
    <tag k="addr:state" v="VT"/>
    <tag k="ref:vcgi:esiteid" v="757250"/>
  </node>
  <node id="-1286" visible="true" lat="44.98722404" lon="-72.6681591">
    <tag k="addr:city" v="Richford"/>
    <tag k="addr:housenumber" v="31"/>
    <tag k="addr:street" v="Pine Haven Estate C"/>
    <tag k="addr:state" v="VT"/>
    <tag k="ref:vcgi:esiteid" v="757251"/>
  </node>
  <node id="-1287" visible="true" lat="44.96679144" lon="-72.64684373">
    <tag k="addr:city" v="Richford"/>
    <tag k="addr:housenumber" v="507"/>
    <tag k="addr:street" v="Wightman Hill Road"/>
    <tag k="addr:state" v="VT"/>
    <tag k="ref:vcgi:esiteid" v="758761"/>
  </node>
  <node id="-1288" visible="true" lat="44.96911449" lon="-72.64191881">
    <tag k="addr:city" v="Richford"/>
    <tag k="addr:housenumber" v="1143"/>
    <tag k="addr:street" v="South Richford Road"/>
    <tag k="addr:state" v="VT"/>
    <tag k="ref:vcgi:esiteid" v="758847"/>
  </node>
  <node id="-1289" visible="true" lat="44.99711876" lon="-72.66001884">
    <tag k="addr:city" v="Richford"/>
    <tag k="addr:housenumber" v="75"/>
    <tag k="addr:street" v="Green Avenue"/>
    <tag k="addr:state" v="VT"/>
    <tag k="ref:vcgi:esiteid" v="759369"/>
  </node>
  <node id="-1292" visible="true" lat="44.92958453" lon="-72.64253386">
    <tag k="addr:city" v="Richford"/>
    <tag k="addr:housenumber" v="48"/>
    <tag k="addr:street" v="Combs Road"/>
    <tag k="addr:state" v="VT"/>
    <tag k="ref:vcgi:esiteid" v="759380"/>
  </node>
  <node id="-1293" visible="true" lat="44.96589392" lon="-72.67606399">
    <tag k="addr:city" v="Richford"/>
    <tag k="addr:housenumber" v="253"/>
    <tag k="addr:street" v="Hardwood Hill Road"/>
    <tag k="addr:state" v="VT"/>
    <tag k="ref:vcgi:esiteid" v="759687"/>
  </node>
  <node id="-1294" visible="true" lat="44.99504832" lon="-72.61385963">
    <tag k="addr:city" v="Richford"/>
    <tag k="addr:housenumber" v="1"/>
    <tag k="addr:street" v="Haggerty Road"/>
    <tag k="addr:state" v="VT"/>
    <tag k="ref:vcgi:esiteid" v="759872"/>
  </node>
  <node id="-1295" visible="true" lat="45.01020196" lon="-72.62566597">
    <tag k="addr:city" v="Richford"/>
    <tag k="addr:housenumber" v="418"/>
    <tag k="addr:street" v="Golf Course Road"/>
    <tag k="addr:state" v="VT"/>
    <tag k="ref:vcgi:esiteid" v="760217"/>
  </node>
  <node id="-1296" visible="true" lat="45.01168227" lon="-72.63730862">
    <tag k="addr:city" v="Richford"/>
    <tag k="addr:housenumber" v="285"/>
    <tag k="addr:street" v="Golf Course Road"/>
    <tag k="addr:state" v="VT"/>
    <tag k="ref:vcgi:esiteid" v="760221"/>
  </node>
  <node id="-1297" visible="true" lat="45.0105441" lon="-72.63360342">
    <tag k="addr:city" v="Richford"/>
    <tag k="addr:housenumber" v="345"/>
    <tag k="addr:street" v="Golf Course Road"/>
    <tag k="addr:state" v="VT"/>
    <tag k="ref:vcgi:esiteid" v="760222"/>
  </node>
  <node id="-1298" visible="true" lat="44.99926057" lon="-72.61513889">
    <tag k="addr:city" v="Richford"/>
    <tag k="addr:housenumber" v="1838"/>
    <tag k="addr:street" v="Corliss Road"/>
    <tag k="addr:state" v="VT"/>
    <tag k="ref:vcgi:esiteid" v="760376"/>
  </node>
  <node id="-1299" visible="true" lat="44.96901791" lon="-72.68583945">
    <tag k="addr:city" v="Richford"/>
    <tag k="addr:housenumber" v="1570"/>
    <tag k="addr:street" v="Saint Albans Road"/>
    <tag k="addr:state" v="VT"/>
    <tag k="ref:vcgi:esiteid" v="760412"/>
  </node>
  <node id="-1300" visible="true" lat="44.97780502" lon="-72.64363193">
    <tag k="addr:city" v="Richford"/>
    <tag k="addr:housenumber" v="80"/>
    <tag k="addr:street" v="McAllister Road"/>
    <tag k="addr:state" v="VT"/>
    <tag k="ref:vcgi:esiteid" v="760624"/>
  </node>
  <node id="-1301" visible="true" lat="44.97875067" lon="-72.64263086">
    <tag k="addr:city" v="Richford"/>
    <tag k="addr:housenumber" v="88"/>
    <tag k="addr:street" v="McAllister Road"/>
    <tag k="addr:state" v="VT"/>
    <tag k="ref:vcgi:esiteid" v="760625"/>
  </node>
  <node id="-1302" visible="true" lat="45.00182839" lon="-72.55559063">
    <tag k="addr:city" v="Richford"/>
    <tag k="addr:housenumber" v="158"/>
    <tag k="addr:street" v="Old Farmhouse Drive"/>
    <tag k="addr:state" v="VT"/>
    <tag k="ref:vcgi:esiteid" v="761077"/>
  </node>
  <node id="-1303" visible="true" lat="45.00161451" lon="-72.55574144">
    <tag k="addr:city" v="Richford"/>
    <tag k="addr:housenumber" v="156"/>
    <tag k="addr:street" v="Old Farmhouse Drive"/>
    <tag k="addr:state" v="VT"/>
    <tag k="ref:vcgi:esiteid" v="761078"/>
  </node>
  <node id="-1304" visible="true" lat="45.00172761" lon="-72.55423543">
    <tag k="addr:city" v="Richford"/>
    <tag k="addr:housenumber" v="99"/>
    <tag k="addr:street" v="Old Farmhouse Drive"/>
    <tag k="addr:state" v="VT"/>
    <tag k="ref:vcgi:esiteid" v="761079"/>
  </node>
  <node id="-1305" visible="true" lat="45.00146356" lon="-72.5569578">
    <tag k="addr:city" v="Richford"/>
    <tag k="addr:housenumber" v="260"/>
    <tag k="addr:street" v="Old Farmhouse Drive"/>
    <tag k="addr:state" v="VT"/>
    <tag k="ref:vcgi:esiteid" v="761080"/>
  </node>
  <node id="-1306" visible="true" lat="45.00080067" lon="-72.55775583">
    <tag k="addr:city" v="Richford"/>
    <tag k="addr:housenumber" v="261"/>
    <tag k="addr:street" v="Old Farmhouse Drive"/>
    <tag k="addr:state" v="VT"/>
    <tag k="ref:vcgi:esiteid" v="761081"/>
  </node>
  <node id="-1307" visible="true" lat="45.00160537" lon="-72.67238048">
    <tag k="addr:city" v="Richford"/>
    <tag k="addr:housenumber" v="120"/>
    <tag k="addr:street" v="Dewey Street"/>
    <tag k="addr:state" v="VT"/>
    <tag k="ref:vcgi:esiteid" v="761391"/>
  </node>
  <node id="-1310" visible="true" lat="45.00149983" lon="-72.5941396">
    <tag k="addr:city" v="Richford"/>
    <tag k="addr:housenumber" v="826"/>
    <tag k="addr:street" v="Jay Road"/>
    <tag k="addr:state" v="VT"/>
    <tag k="ref:vcgi:esiteid" v="762321"/>
  </node>
  <node id="-1311" visible="true" lat="45.00271695" lon="-72.66860971">
    <tag k="addr:city" v="Richford"/>
    <tag k="addr:housenumber" v="64"/>
    <tag k="addr:street" v="Diggers Lane"/>
    <tag k="addr:state" v="VT"/>
    <tag k="ref:vcgi:esiteid" v="762323"/>
  </node>
  <node id="-1312" visible="true" lat="44.94107698" lon="-72.65407491">
    <tag k="addr:city" v="Richford"/>
    <tag k="addr:housenumber" v="201"/>
    <tag k="addr:street" v="Seven Saplings Lane"/>
    <tag k="addr:state" v="VT"/>
    <tag k="ref:vcgi:esiteid" v="762361"/>
  </node>
  <node id="-1313" visible="true" lat="44.99957561" lon="-72.6049327">
    <tag k="addr:city" v="Richford"/>
    <tag k="addr:housenumber" v="105"/>
    <tag k="addr:street" v="Glenn Sutton Road"/>
    <tag k="addr:state" v="VT"/>
    <tag k="ref:vcgi:esiteid" v="763650"/>
  </node>
  <node id="-1314" visible="true" lat="45.01392941" lon="-72.67289227">
    <tag k="addr:city" v="Richford"/>
    <tag k="addr:housenumber" v="200"/>
    <tag k="addr:street" v="Drew Road"/>
    <tag k="addr:state" v="VT"/>
    <tag k="ref:vcgi:esiteid" v="767047"/>
  </node>
  <node id="-1315" visible="true" lat="45.00250096" lon="-72.69513302">
    <tag k="addr:city" v="Richford"/>
    <tag k="addr:housenumber" v="45"/>
    <tag k="addr:street" v="Mountain View Road"/>
    <tag k="addr:state" v="VT"/>
    <tag k="ref:vcgi:esiteid" v="767048"/>
  </node>
  <node id="-1316" visible="true" lat="45.00168943" lon="-72.66975983">
    <tag k="addr:city" v="Richford"/>
    <tag k="addr:housenumber" v="99"/>
    <tag k="addr:street" v="Hamilton Place Extension"/>
    <tag k="addr:state" v="VT"/>
    <tag k="ref:vcgi:esiteid" v="767384"/>
  </node>
  <node id="-1317" visible="true" lat="45.00487667" lon="-72.5931763">
    <tag k="addr:city" v="Richford"/>
    <tag k="addr:housenumber" v="204"/>
    <tag k="addr:street" v="Johnson Road"/>
    <tag k="addr:state" v="VT"/>
    <tag k="ref:vcgi:esiteid" v="767558"/>
  </node>
  <node id="-1318" visible="true" lat="44.98967486" lon="-72.64187412">
    <tag k="addr:city" v="Richford"/>
    <tag k="addr:housenumber" v="274"/>
    <tag k="addr:street" v="Jay Road"/>
    <tag k="addr:state" v="VT"/>
    <tag k="ref:vcgi:esiteid" v="768183"/>
  </node>
  <node id="-1319" visible="true" lat="44.93097996" lon="-72.63515341">
    <tag k="addr:city" v="Richford"/>
    <tag k="addr:housenumber" v="135"/>
    <tag k="addr:street" v="Combs Road"/>
    <tag k="addr:state" v="VT"/>
    <tag k="ref:vcgi:esiteid" v="768184"/>
  </node>
  <node id="-1321" visible="true" lat="45.00209297" lon="-72.55366788">
    <tag k="addr:city" v="Richford"/>
    <tag k="addr:housenumber" v="42"/>
    <tag k="addr:street" v="Old Farmhouse Drive"/>
    <tag k="addr:state" v="VT"/>
    <tag k="ref:vcgi:esiteid" v="768186"/>
  </node>
</osm>
