<?xml version="1.0" encoding="UTF-8"?>
<osm version="0.6" generator="JOSM" upload="false">
  <node id="-429" visible="true" lat="44.41365288" lon="-72.98878441">
    <tag k="addr:city" v="Richmond"/>
    <tag k="addr:housenumber" v="32"/>
    <tag k="addr:street" v="Hillside Lane"/>
    <tag k="addr:state" v="VT"/>
    <tag k="ref:vcgi:esiteid" v="200513"/>
  </node>
  <node id="-445" visible="true" lat="44.41097079" lon="-72.99365763">
    <tag k="addr:city" v="Richmond"/>
    <tag k="addr:housenumber" v="88"/>
    <tag k="addr:street" v="Burnett Court"/>
    <tag k="addr:state" v="VT"/>
    <tag k="ref:vcgi:esiteid" v="200531"/>
  </node>
  <node id="-446" visible="true" lat="44.41096496" lon="-72.99207305">
    <tag k="addr:city" v="Richmond"/>
    <tag k="addr:housenumber" v="12"/>
    <tag k="addr:street" v="Burnett Court"/>
    <tag k="addr:state" v="VT"/>
    <tag k="ref:vcgi:esiteid" v="200532"/>
  </node>
  <node id="-447" visible="true" lat="44.4109478" lon="-72.99307165">
    <tag k="addr:city" v="Richmond"/>
    <tag k="addr:housenumber" v="62"/>
    <tag k="addr:street" v="Burnett Court"/>
    <tag k="addr:state" v="VT"/>
    <tag k="ref:vcgi:esiteid" v="200533"/>
  </node>
  <node id="-448" visible="true" lat="44.41090011" lon="-72.99266052">
    <tag k="addr:city" v="Richmond"/>
    <tag k="addr:housenumber" v="44"/>
    <tag k="addr:street" v="Burnett Court"/>
    <tag k="addr:state" v="VT"/>
    <tag k="ref:vcgi:esiteid" v="200534"/>
  </node>
  <node id="-450" visible="true" lat="44.4105659" lon="-72.99211114">
    <tag k="addr:city" v="Richmond"/>
    <tag k="addr:housenumber" v="17"/>
    <tag k="addr:street" v="Burnett Court"/>
    <tag k="addr:state" v="VT"/>
    <tag k="ref:vcgi:esiteid" v="200536"/>
  </node>
  <node id="-460" visible="true" lat="44.40996932" lon="-72.99199676">
    <tag k="addr:city" v="Richmond"/>
    <tag k="addr:housenumber" v="341"/>
    <tag k="addr:street" v="Jericho Road"/>
    <tag k="addr:state" v="VT"/>
    <tag k="ref:vcgi:esiteid" v="200546"/>
  </node>
  <node id="-463" visible="true" lat="44.40976333" lon="-72.99719238">
    <tag k="addr:city" v="Richmond"/>
    <tag k="addr:housenumber" v="232"/>
    <tag k="addr:street" v="Tilden Avenue"/>
    <tag k="addr:state" v="VT"/>
    <tag k="ref:vcgi:esiteid" v="200549"/>
  </node>
  <node id="-465" visible="true" lat="44.40974044" lon="-72.99210357">
    <tag k="addr:city" v="Richmond"/>
    <tag k="addr:housenumber" v="14"/>
    <tag k="addr:street" v="Browns Court"/>
    <tag k="addr:state" v="VT"/>
    <tag k="ref:vcgi:esiteid" v="200551"/>
  </node>
  <node id="-468" visible="true" lat="44.40961074" lon="-72.99241638">
    <tag k="addr:city" v="Richmond"/>
    <tag k="addr:housenumber" v="30"/>
    <tag k="addr:street" v="Browns Court"/>
    <tag k="addr:state" v="VT"/>
    <tag k="ref:vcgi:esiteid" v="200554"/>
  </node>
  <node id="-473" visible="true" lat="44.40939712" lon="-72.9923706">
    <tag k="addr:city" v="Richmond"/>
    <tag k="addr:housenumber" v="29"/>
    <tag k="addr:street" v="Browns Court"/>
    <tag k="addr:state" v="VT"/>
    <tag k="ref:vcgi:esiteid" v="200560"/>
  </node>
  <node id="-474" visible="true" lat="44.40935897" lon="-72.99289703">
    <tag k="addr:city" v="Richmond"/>
    <tag k="addr:housenumber" v="63"/>
    <tag k="addr:street" v="Browns Court"/>
    <tag k="addr:state" v="VT"/>
    <tag k="ref:vcgi:esiteid" v="200561"/>
  </node>
  <node id="-475" visible="true" lat="44.40933227" lon="-72.9919815">
    <tag k="addr:city" v="Richmond"/>
    <tag k="addr:housenumber" v="297"/>
    <tag k="addr:street" v="Jericho Road"/>
    <tag k="addr:state" v="VT"/>
    <tag k="ref:vcgi:esiteid" v="200562"/>
  </node>
  <node id="-485" visible="true" lat="44.4091072" lon="-72.99197387">
    <tag k="addr:city" v="Richmond"/>
    <tag k="addr:housenumber" v="283"/>
    <tag k="addr:street" v="Jericho Road"/>
    <tag k="addr:state" v="VT"/>
    <tag k="ref:vcgi:esiteid" v="200572"/>
  </node>
  <node id="-500" visible="true" lat="44.40861511" lon="-72.99204254">
    <tag k="addr:city" v="Richmond"/>
    <tag k="addr:housenumber" v="249"/>
    <tag k="addr:street" v="Jericho Road"/>
    <tag k="addr:state" v="VT"/>
    <tag k="ref:vcgi:esiteid" v="200587"/>
  </node>
  <node id="-504" visible="true" lat="44.40835701" lon="-72.99121346">
    <tag k="addr:city" v="Richmond"/>
    <tag k="addr:housenumber" v="240"/>
    <tag k="addr:street" v="Jericho Road"/>
    <tag k="addr:state" v="VT"/>
    <tag k="ref:vcgi:esiteid" v="200591"/>
  </node>
  <node id="-506" visible="true" lat="44.40838241" lon="-72.99197387">
    <tag k="addr:city" v="Richmond"/>
    <tag k="addr:housenumber" v="233"/>
    <tag k="addr:street" v="Jericho Road"/>
    <tag k="addr:state" v="VT"/>
    <tag k="ref:vcgi:esiteid" v="200593"/>
  </node>
  <node id="-509" visible="true" lat="44.40817642" lon="-72.99525451">
    <tag k="addr:city" v="Richmond"/>
    <tag k="addr:housenumber" v="186"/>
    <tag k="addr:street" v="Tilden Avenue"/>
    <tag k="addr:state" v="VT"/>
    <tag k="ref:vcgi:esiteid" v="200596"/>
  </node>
  <node id="-510" visible="true" lat="44.40827051" lon="-72.99569046">
    <tag k="addr:city" v="Richmond"/>
    <tag k="addr:housenumber" v="202"/>
    <tag k="addr:street" v="Tilden Avenue"/>
    <tag k="addr:state" v="VT"/>
    <tag k="ref:vcgi:esiteid" v="200597"/>
  </node>
  <node id="-513" visible="true" lat="44.40815527" lon="-72.99491802">
    <tag k="addr:city" v="Richmond"/>
    <tag k="addr:housenumber" v="164"/>
    <tag k="addr:street" v="Tilden Avenue"/>
    <tag k="addr:state" v="VT"/>
    <tag k="ref:vcgi:esiteid" v="200601"/>
  </node>
  <node id="-515" visible="true" lat="44.40808105" lon="-72.9945755">
    <tag k="addr:city" v="Richmond"/>
    <tag k="addr:housenumber" v="154"/>
    <tag k="addr:street" v="Tilden Avenue"/>
    <tag k="addr:state" v="VT"/>
    <tag k="ref:vcgi:esiteid" v="200603"/>
  </node>
  <node id="-516" visible="true" lat="44.40803909" lon="-72.99433898">
    <tag k="addr:city" v="Richmond"/>
    <tag k="addr:housenumber" v="142"/>
    <tag k="addr:street" v="Tilden Avenue"/>
    <tag k="addr:state" v="VT"/>
    <tag k="ref:vcgi:esiteid" v="200604"/>
  </node>
  <node id="-518" visible="true" lat="44.40793594" lon="-72.99569136">
    <tag k="addr:city" v="Richmond"/>
    <tag k="addr:housenumber" v="209"/>
    <tag k="addr:street" v="Tilden Avenue"/>
    <tag k="addr:state" v="VT"/>
    <tag k="ref:vcgi:esiteid" v="200606"/>
  </node>
  <node id="-520" visible="true" lat="44.40785402" lon="-72.99515903">
    <tag k="addr:city" v="Richmond"/>
    <tag k="addr:housenumber" v="183"/>
    <tag k="addr:street" v="Tilden Avenue"/>
    <tag k="addr:state" v="VT"/>
    <tag k="ref:vcgi:esiteid" v="200609"/>
  </node>
  <node id="-521" visible="true" lat="44.40790087" lon="-72.99552504">
    <tag k="addr:city" v="Richmond"/>
    <tag k="addr:housenumber" v="203"/>
    <tag k="addr:street" v="Tilden Avenue"/>
    <tag k="addr:state" v="VT"/>
    <tag k="ref:vcgi:esiteid" v="200610"/>
  </node>
  <node id="-522" visible="true" lat="44.40787887" lon="-72.99499511">
    <tag k="addr:city" v="Richmond"/>
    <tag k="addr:housenumber" v="171"/>
    <tag k="addr:street" v="Tilden Avenue"/>
    <tag k="addr:state" v="VT"/>
    <tag k="ref:vcgi:esiteid" v="200612"/>
  </node>
  <node id="-524" visible="true" lat="44.40780099" lon="-72.99468315">
    <tag k="addr:city" v="Richmond"/>
    <tag k="addr:housenumber" v="157"/>
    <tag k="addr:street" v="Tilden Avenue"/>
    <tag k="addr:state" v="VT"/>
    <tag k="ref:vcgi:esiteid" v="200614"/>
  </node>
  <node id="-525" visible="true" lat="44.40791956" lon="-72.99351043">
    <tag k="addr:city" v="Richmond"/>
    <tag k="addr:housenumber" v="102"/>
    <tag k="addr:street" v="Tilden Avenue"/>
    <tag k="addr:state" v="VT"/>
    <tag k="ref:vcgi:esiteid" v="200615"/>
  </node>
  <node id="-529" visible="true" lat="44.40775455" lon="-72.99450022">
    <tag k="addr:city" v="Richmond"/>
    <tag k="addr:housenumber" v="151"/>
    <tag k="addr:street" v="Tilden Avenue"/>
    <tag k="addr:state" v="VT"/>
    <tag k="ref:vcgi:esiteid" v="200619"/>
  </node>
  <node id="-530" visible="true" lat="44.40777206" lon="-72.99324798">
    <tag k="addr:city" v="Richmond"/>
    <tag k="addr:housenumber" v="86"/>
    <tag k="addr:street" v="Tilden Avenue"/>
    <tag k="addr:state" v="VT"/>
    <tag k="ref:vcgi:esiteid" v="200620"/>
  </node>
  <node id="-532" visible="true" lat="44.40767877" lon="-72.99262481">
    <tag k="addr:city" v="Richmond"/>
    <tag k="addr:housenumber" v="54"/>
    <tag k="addr:street" v="Tilden Avenue"/>
    <tag k="addr:state" v="VT"/>
    <tag k="ref:vcgi:esiteid" v="200622"/>
  </node>
  <node id="-534" visible="true" lat="44.40768051" lon="-72.99299621">
    <tag k="addr:city" v="Richmond"/>
    <tag k="addr:housenumber" v="72"/>
    <tag k="addr:street" v="Tilden Avenue"/>
    <tag k="addr:state" v="VT"/>
    <tag k="ref:vcgi:esiteid" v="200624"/>
  </node>
  <node id="-537" visible="true" lat="44.40755081" lon="-72.99329376">
    <tag k="addr:city" v="Richmond"/>
    <tag k="addr:housenumber" v="83"/>
    <tag k="addr:street" v="Tilden Avenue"/>
    <tag k="addr:state" v="VT"/>
    <tag k="ref:vcgi:esiteid" v="200627"/>
  </node>
  <node id="-538" visible="true" lat="44.40752792" lon="-72.99630737">
    <tag k="addr:city" v="Richmond"/>
    <tag k="addr:housenumber" v="222"/>
    <tag k="addr:street" v="West Main Street"/>
    <tag k="addr:state" v="VT"/>
    <tag k="ref:vcgi:esiteid" v="200628"/>
  </node>
  <node id="-543" visible="true" lat="44.40738677" lon="-72.9960556">
    <tag k="addr:city" v="Richmond"/>
    <tag k="addr:housenumber" v="214"/>
    <tag k="addr:street" v="West Main Street"/>
    <tag k="addr:state" v="VT"/>
    <tag k="ref:vcgi:esiteid" v="200633"/>
  </node>
  <node id="-545" visible="true" lat="44.40734863" lon="-72.99599456">
    <tag k="addr:city" v="Richmond"/>
    <tag k="addr:housenumber" v="212"/>
    <tag k="addr:street" v="West Main Street"/>
    <tag k="addr:state" v="VT"/>
    <tag k="ref:vcgi:esiteid" v="200635"/>
  </node>
  <node id="-546" visible="true" lat="44.40732193" lon="-72.99581146">
    <tag k="addr:city" v="Richmond"/>
    <tag k="addr:housenumber" v="196"/>
    <tag k="addr:street" v="West Main Street"/>
    <tag k="addr:state" v="VT"/>
    <tag k="ref:vcgi:esiteid" v="200636"/>
  </node>
  <node id="-547" visible="true" lat="44.40726852" lon="-72.99564361">
    <tag k="addr:city" v="Richmond"/>
    <tag k="addr:housenumber" v="194"/>
    <tag k="addr:street" v="West Main Street"/>
    <tag k="addr:state" v="VT"/>
    <tag k="ref:vcgi:esiteid" v="200637"/>
  </node>
  <node id="-550" visible="true" lat="44.40724182" lon="-72.99649047">
    <tag k="addr:city" v="Richmond"/>
    <tag k="addr:housenumber" v="217"/>
    <tag k="addr:street" v="West Main Street"/>
    <tag k="addr:state" v="VT"/>
    <tag k="ref:vcgi:esiteid" v="200640"/>
  </node>
  <node id="-553" visible="true" lat="44.40719967" lon="-72.99188515">
    <tag k="addr:city" v="Richmond"/>
    <tag k="addr:housenumber" v="147"/>
    <tag k="addr:street" v="Jericho Road"/>
    <tag k="addr:state" v="VT"/>
    <tag k="ref:vcgi:esiteid" v="200643"/>
  </node>
  <node id="-554" visible="true" lat="44.40711212" lon="-72.99630737">
    <tag k="addr:city" v="Richmond"/>
    <tag k="addr:housenumber" v="215"/>
    <tag k="addr:street" v="West Main Street"/>
    <tag k="addr:state" v="VT"/>
    <tag k="ref:vcgi:esiteid" v="200644"/>
  </node>
  <node id="-556" visible="true" lat="44.40710406" lon="-72.99536942">
    <tag k="addr:city" v="Richmond"/>
    <tag k="addr:housenumber" v="164"/>
    <tag k="addr:street" v="West Main Street"/>
    <tag k="addr:state" v="VT"/>
    <tag k="ref:vcgi:esiteid" v="200646"/>
  </node>
  <node id="-557" visible="true" lat="44.40714788" lon="-72.99423014">
    <tag k="addr:city" v="Richmond"/>
    <tag k="addr:housenumber" v="56"/>
    <tag k="addr:street" v="Baker Street"/>
    <tag k="addr:state" v="VT"/>
    <tag k="ref:vcgi:esiteid" v="200647"/>
  </node>
  <node id="-560" visible="true" lat="44.40694457" lon="-72.99507481">
    <tag k="addr:city" v="Richmond"/>
    <tag k="addr:housenumber" v="25"/>
    <tag k="addr:street" v="Baker Street"/>
    <tag k="addr:state" v="VT"/>
    <tag k="ref:vcgi:esiteid" v="200651"/>
  </node>
  <node id="-563" visible="true" lat="44.40681269" lon="-72.99591309">
    <tag k="addr:city" v="Richmond"/>
    <tag k="addr:housenumber" v="183"/>
    <tag k="addr:street" v="West Main Street"/>
    <tag k="addr:state" v="VT"/>
    <tag k="ref:vcgi:esiteid" v="200656"/>
  </node>
  <node id="-568" visible="true" lat="44.40663356" lon="-72.9956268">
    <tag k="addr:city" v="Richmond"/>
    <tag k="addr:housenumber" v="167"/>
    <tag k="addr:street" v="West Main Street"/>
    <tag k="addr:state" v="VT"/>
    <tag k="ref:vcgi:esiteid" v="200662"/>
  </node>
  <node id="-569" visible="true" lat="44.4066628" lon="-72.99481185">
    <tag k="addr:city" v="Richmond"/>
    <tag k="addr:housenumber" v="24"/>
    <tag k="addr:street" v="Baker Street"/>
    <tag k="addr:state" v="VT"/>
    <tag k="ref:vcgi:esiteid" v="200663"/>
  </node>
  <node id="-570" visible="true" lat="44.40660621" lon="-72.99202802">
    <tag k="addr:city" v="Richmond"/>
    <tag k="addr:housenumber" v="109"/>
    <tag k="addr:street" v="Jericho Road"/>
    <tag k="addr:state" v="VT"/>
    <tag k="ref:vcgi:esiteid" v="200664"/>
  </node>
  <node id="-571" visible="true" lat="44.40670004" lon="-72.9915031">
    <tag k="addr:city" v="Richmond"/>
    <tag k="addr:housenumber" v="112"/>
    <tag k="addr:street" v="Jericho Road"/>
    <tag k="addr:state" v="VT"/>
    <tag k="ref:vcgi:esiteid" v="200665"/>
  </node>
  <node id="-572" visible="true" lat="44.40651727" lon="-72.99539225">
    <tag k="addr:city" v="Richmond"/>
    <tag k="addr:housenumber" v="155"/>
    <tag k="addr:street" v="West Main Street"/>
    <tag k="addr:state" v="VT"/>
    <tag k="ref:vcgi:esiteid" v="200666"/>
  </node>
  <node id="-573" visible="true" lat="44.40657806" lon="-72.99451446">
    <tag k="addr:city" v="Richmond"/>
    <tag k="addr:housenumber" v="29"/>
    <tag k="addr:street" v="Millet Street"/>
    <tag k="addr:state" v="VT"/>
    <tag k="ref:vcgi:esiteid" v="200667"/>
  </node>
  <node id="-574" visible="true" lat="44.40645479" lon="-72.99209965">
    <tag k="addr:city" v="Richmond"/>
    <tag k="addr:housenumber" v="99"/>
    <tag k="addr:street" v="Jericho Road"/>
    <tag k="addr:state" v="VT"/>
    <tag k="ref:vcgi:esiteid" v="200668"/>
  </node>
  <node id="-575" visible="true" lat="44.40636674" lon="-72.99518498">
    <tag k="addr:city" v="Richmond"/>
    <tag k="addr:housenumber" v="141"/>
    <tag k="addr:street" v="West Main Street"/>
    <tag k="addr:state" v="VT"/>
    <tag k="ref:vcgi:esiteid" v="200669"/>
  </node>
  <node id="-578" visible="true" lat="44.40633392" lon="-72.99204254">
    <tag k="addr:city" v="Richmond"/>
    <tag k="addr:housenumber" v="87"/>
    <tag k="addr:street" v="Jericho Road"/>
    <tag k="addr:state" v="VT"/>
    <tag k="ref:vcgi:esiteid" v="200672"/>
  </node>
  <node id="-579" visible="true" lat="44.40615909" lon="-72.99487306">
    <tag k="addr:city" v="Richmond"/>
    <tag k="addr:housenumber" v="117"/>
    <tag k="addr:street" v="West Main Street"/>
    <tag k="addr:state" v="VT"/>
    <tag k="ref:vcgi:esiteid" v="200673"/>
  </node>
  <node id="-582" visible="true" lat="44.40626808" lon="-72.99415197">
    <tag k="addr:city" v="Richmond"/>
    <tag k="addr:housenumber" v="88"/>
    <tag k="addr:street" v="West Main Street"/>
    <tag k="addr:state" v="VT"/>
    <tag k="ref:vcgi:esiteid" v="200676"/>
  </node>
  <node id="-586" visible="true" lat="44.40613174" lon="-72.99182891">
    <tag k="addr:city" v="Richmond"/>
    <tag k="addr:housenumber" v="78"/>
    <tag k="addr:street" v="Jericho Road"/>
    <tag k="addr:state" v="VT"/>
    <tag k="ref:vcgi:esiteid" v="200680"/>
  </node>
  <node id="-587" visible="true" lat="44.40603419" lon="-72.99463551">
    <tag k="addr:city" v="Richmond"/>
    <tag k="addr:housenumber" v="103"/>
    <tag k="addr:street" v="West Main Street"/>
    <tag k="addr:state" v="VT"/>
    <tag k="ref:vcgi:esiteid" v="200681"/>
  </node>
  <node id="-588" visible="true" lat="44.4058702" lon="-72.99441049">
    <tag k="addr:city" v="Richmond"/>
    <tag k="addr:housenumber" v="91"/>
    <tag k="addr:street" v="West Main Street"/>
    <tag k="addr:state" v="VT"/>
    <tag k="ref:vcgi:esiteid" v="200682"/>
  </node>
  <node id="-592" visible="true" lat="44.40594925" lon="-72.99187034">
    <tag k="addr:city" v="Richmond"/>
    <tag k="addr:housenumber" v="62"/>
    <tag k="addr:street" v="Jericho Road"/>
    <tag k="addr:state" v="VT"/>
    <tag k="ref:vcgi:esiteid" v="200687"/>
  </node>
  <node id="-593" visible="true" lat="44.40588237" lon="-72.99255761">
    <tag k="addr:city" v="Richmond"/>
    <tag k="addr:housenumber" v="47"/>
    <tag k="addr:street" v="Jericho Road"/>
    <tag k="addr:state" v="VT"/>
    <tag k="ref:vcgi:esiteid" v="200688"/>
  </node>
  <node id="-594" visible="true" lat="44.40579297" lon="-72.99422229">
    <tag k="addr:city" v="Richmond"/>
    <tag k="addr:housenumber" v="77"/>
    <tag k="addr:street" v="West Main Street"/>
    <tag k="addr:state" v="VT"/>
    <tag k="ref:vcgi:esiteid" v="200690"/>
  </node>
  <node id="-595" visible="true" lat="44.40585825" lon="-72.9966047">
    <tag k="addr:city" v="Richmond"/>
    <tag k="addr:housenumber" v="198"/>
    <tag k="addr:street" v="Railroad Street"/>
    <tag k="addr:state" v="VT"/>
    <tag k="ref:vcgi:esiteid" v="200691"/>
  </node>
  <node id="-600" visible="true" lat="44.40577411" lon="-72.99200153">
    <tag k="addr:city" v="Richmond"/>
    <tag k="addr:housenumber" v="52"/>
    <tag k="addr:street" v="Jericho Road"/>
    <tag k="addr:state" v="VT"/>
    <tag k="ref:vcgi:esiteid" v="200696"/>
  </node>
  <node id="-601" visible="true" lat="44.40564255" lon="-72.99395414">
    <tag k="addr:city" v="Richmond"/>
    <tag k="addr:housenumber" v="65"/>
    <tag k="addr:street" v="West Main Street"/>
    <tag k="addr:state" v="VT"/>
    <tag k="ref:vcgi:esiteid" v="200697"/>
  </node>
  <node id="-603" visible="true" lat="44.40580271" lon="-72.99312167">
    <tag k="addr:city" v="Richmond"/>
    <tag k="addr:housenumber" v="30"/>
    <tag k="addr:street" v="West Main Street"/>
    <tag k="addr:state" v="VT"/>
    <tag k="ref:vcgi:esiteid" v="200699"/>
  </node>
  <node id="-606" visible="true" lat="44.40557701" lon="-72.99304144">
    <tag k="addr:city" v="Richmond"/>
    <tag k="addr:housenumber" v="20"/>
    <tag k="addr:street" v="West Main Street"/>
    <tag k="addr:state" v="VT"/>
    <tag k="ref:vcgi:esiteid" v="200703"/>
  </node>
  <node id="-611" visible="true" lat="44.4055425" lon="-72.99510794">
    <tag k="addr:city" v="Richmond"/>
    <tag k="addr:housenumber" v="92"/>
    <tag k="addr:street" v="Depot Street"/>
    <tag k="addr:state" v="VT"/>
    <tag k="ref:vcgi:esiteid" v="200708"/>
  </node>
  <node id="-612" visible="true" lat="44.40552506" lon="-72.99273768">
    <tag k="addr:city" v="Richmond"/>
    <tag k="addr:housenumber" v="4"/>
    <tag k="addr:street" v="West Main Street"/>
    <tag k="addr:state" v="VT"/>
    <tag k="ref:vcgi:esiteid" v="200709"/>
  </node>
  <node id="-616" visible="true" lat="44.40532101" lon="-72.99489219">
    <tag k="addr:city" v="Richmond"/>
    <tag k="addr:housenumber" v="76"/>
    <tag k="addr:street" v="Depot Street"/>
    <tag k="addr:state" v="VT"/>
    <tag k="ref:vcgi:esiteid" v="200713"/>
  </node>
  <node id="-627" visible="true" lat="44.40502647" lon="-72.99447144">
    <tag k="addr:city" v="Richmond"/>
    <tag k="addr:housenumber" v="42"/>
    <tag k="addr:street" v="Depot Street"/>
    <tag k="addr:state" v="VT"/>
    <tag k="ref:vcgi:esiteid" v="200726"/>
  </node>
  <node id="-639" visible="true" lat="44.40468967" lon="-72.99313765">
    <tag k="addr:city" v="Richmond"/>
    <tag k="addr:housenumber" v="39"/>
    <tag k="addr:street" v="Bridge Street"/>
    <tag k="addr:state" v="VT"/>
    <tag k="ref:vcgi:esiteid" v="200739"/>
  </node>
  <node id="-653" visible="true" lat="44.40442466" lon="-72.99191057">
    <tag k="addr:city" v="Richmond"/>
    <tag k="addr:housenumber" v="72"/>
    <tag k="addr:street" v="East Main Street"/>
    <tag k="addr:state" v="VT"/>
    <tag k="ref:vcgi:esiteid" v="200753"/>
  </node>
  <node id="-654" visible="true" lat="44.40453458" lon="-72.99122899">
    <tag k="addr:city" v="Richmond"/>
    <tag k="addr:housenumber" v="99"/>
    <tag k="addr:street" v="East Main Street"/>
    <tag k="addr:state" v="VT"/>
    <tag k="ref:vcgi:esiteid" v="200754"/>
  </node>
  <node id="-656" visible="true" lat="44.40432271" lon="-72.9916701">
    <tag k="addr:city" v="Richmond"/>
    <tag k="addr:housenumber" v="78"/>
    <tag k="addr:street" v="East Main Street"/>
    <tag k="addr:state" v="VT"/>
    <tag k="ref:vcgi:esiteid" v="200757"/>
  </node>
  <node id="-660" visible="true" lat="44.40439421" lon="-72.99099212">
    <tag k="addr:city" v="Richmond"/>
    <tag k="addr:housenumber" v="113"/>
    <tag k="addr:street" v="East Main Street"/>
    <tag k="addr:state" v="VT"/>
    <tag k="ref:vcgi:esiteid" v="200761"/>
  </node>
  <node id="-667" visible="true" lat="44.40423262" lon="-72.99295346">
    <tag k="addr:city" v="Richmond"/>
    <tag k="addr:housenumber" v="41"/>
    <tag k="addr:street" v="Pleasant Street"/>
    <tag k="addr:state" v="VT"/>
    <tag k="ref:vcgi:esiteid" v="200768"/>
  </node>
  <node id="-668" visible="true" lat="44.40417861" lon="-72.99143981">
    <tag k="addr:city" v="Richmond"/>
    <tag k="addr:housenumber" v="102"/>
    <tag k="addr:street" v="East Main Street"/>
    <tag k="addr:state" v="VT"/>
    <tag k="ref:vcgi:esiteid" v="200769"/>
  </node>
  <node id="-670" visible="true" lat="44.40403976" lon="-72.99115171">
    <tag k="addr:city" v="Richmond"/>
    <tag k="addr:housenumber" v="112"/>
    <tag k="addr:street" v="East Main Street"/>
    <tag k="addr:state" v="VT"/>
    <tag k="ref:vcgi:esiteid" v="200772"/>
  </node>
  <node id="-673" visible="true" lat="44.40407509" lon="-72.99261108">
    <tag k="addr:city" v="Richmond"/>
    <tag k="addr:housenumber" v="57"/>
    <tag k="addr:street" v="Pleasant Street"/>
    <tag k="addr:state" v="VT"/>
    <tag k="ref:vcgi:esiteid" v="200775"/>
  </node>
  <node id="-675" visible="true" lat="44.40395445" lon="-72.9910315">
    <tag k="addr:city" v="Richmond"/>
    <tag k="addr:housenumber" v="122"/>
    <tag k="addr:street" v="East Main Street"/>
    <tag k="addr:state" v="VT"/>
    <tag k="ref:vcgi:esiteid" v="200778"/>
  </node>
  <node id="-676" visible="true" lat="44.40407181" lon="-72.99034332">
    <tag k="addr:city" v="Richmond"/>
    <tag k="addr:housenumber" v="155"/>
    <tag k="addr:street" v="East Main Street"/>
    <tag k="addr:state" v="VT"/>
    <tag k="ref:vcgi:esiteid" v="200779"/>
  </node>
  <node id="-677" visible="true" lat="44.40391045" lon="-72.99090327">
    <tag k="addr:city" v="Richmond"/>
    <tag k="addr:housenumber" v="128"/>
    <tag k="addr:street" v="East Main Street"/>
    <tag k="addr:state" v="VT"/>
    <tag k="ref:vcgi:esiteid" v="200780"/>
  </node>
  <node id="-682" visible="true" lat="44.40384108" lon="-73.00072272">
    <tag k="addr:city" v="Richmond"/>
    <tag k="addr:housenumber" v="281"/>
    <tag k="addr:street" v="Esplanade Street"/>
    <tag k="addr:state" v="VT"/>
    <tag k="ref:vcgi:esiteid" v="200786"/>
  </node>
  <node id="-683" visible="true" lat="44.40395025" lon="-72.99008413">
    <tag k="addr:city" v="Richmond"/>
    <tag k="addr:housenumber" v="157"/>
    <tag k="addr:street" v="East Main Street"/>
    <tag k="addr:state" v="VT"/>
    <tag k="ref:vcgi:esiteid" v="200787"/>
  </node>
  <node id="-686" visible="true" lat="44.40383189" lon="-72.99290076">
    <tag k="addr:city" v="Richmond"/>
    <tag k="addr:housenumber" v="56"/>
    <tag k="addr:street" v="Pleasant Street"/>
    <tag k="addr:state" v="VT"/>
    <tag k="ref:vcgi:esiteid" v="200791"/>
  </node>
  <node id="-688" visible="true" lat="44.40394318" lon="-72.99244135">
    <tag k="addr:city" v="Richmond"/>
    <tag k="addr:housenumber" v="75"/>
    <tag k="addr:street" v="Pleasant Street"/>
    <tag k="addr:state" v="VT"/>
    <tag k="ref:vcgi:esiteid" v="200794"/>
  </node>
  <node id="-689" visible="true" lat="44.40385055" lon="-72.9908142">
    <tag k="addr:city" v="Richmond"/>
    <tag k="addr:housenumber" v="140"/>
    <tag k="addr:street" v="East Main Street"/>
    <tag k="addr:state" v="VT"/>
    <tag k="ref:vcgi:esiteid" v="200795"/>
  </node>
  <node id="-693" visible="true" lat="44.40367343" lon="-72.99837683">
    <tag k="addr:city" v="Richmond"/>
    <tag k="addr:housenumber" v="149"/>
    <tag k="addr:street" v="Esplanade Street"/>
    <tag k="addr:state" v="VT"/>
    <tag k="ref:vcgi:esiteid" v="200799"/>
  </node>
  <node id="-696" visible="true" lat="44.40369631" lon="-72.9926402">
    <tag k="addr:city" v="Richmond"/>
    <tag k="addr:housenumber" v="74"/>
    <tag k="addr:street" v="Pleasant Street"/>
    <tag k="addr:state" v="VT"/>
    <tag k="ref:vcgi:esiteid" v="200802"/>
  </node>
  <node id="-697" visible="true" lat="44.40374052" lon="-72.99212659">
    <tag k="addr:city" v="Richmond"/>
    <tag k="addr:housenumber" v="101"/>
    <tag k="addr:street" v="Pleasant Street"/>
    <tag k="addr:state" v="VT"/>
    <tag k="ref:vcgi:esiteid" v="200803"/>
  </node>
  <node id="-698" visible="true" lat="44.40361245" lon="-72.99043446">
    <tag k="addr:city" v="Richmond"/>
    <tag k="addr:housenumber" v="160"/>
    <tag k="addr:street" v="East Main Street"/>
    <tag k="addr:state" v="VT"/>
    <tag k="ref:vcgi:esiteid" v="200804"/>
  </node>
  <node id="-700" visible="true" lat="44.40352454" lon="-72.9981946">
    <tag k="addr:city" v="Richmond"/>
    <tag k="addr:housenumber" v="137"/>
    <tag k="addr:street" v="Esplanade Street"/>
    <tag k="addr:state" v="VT"/>
    <tag k="ref:vcgi:esiteid" v="200808"/>
  </node>
  <node id="-701" visible="true" lat="44.40360386" lon="-72.99250897">
    <tag k="addr:city" v="Richmond"/>
    <tag k="addr:housenumber" v="84"/>
    <tag k="addr:street" v="Pleasant Street"/>
    <tag k="addr:state" v="VT"/>
    <tag k="ref:vcgi:esiteid" v="200809"/>
  </node>
  <node id="-702" visible="true" lat="44.40377581" lon="-72.98983406">
    <tag k="addr:city" v="Richmond"/>
    <tag k="addr:housenumber" v="189"/>
    <tag k="addr:street" v="East Main Street"/>
    <tag k="addr:state" v="VT"/>
    <tag k="ref:vcgi:esiteid" v="200810"/>
  </node>
  <node id="-703" visible="true" lat="44.40357589" lon="-72.98940276">
    <tag k="addr:city" v="Richmond"/>
    <tag k="addr:housenumber" v="191"/>
    <tag k="addr:street" v="East Main Street"/>
    <tag k="addr:state" v="VT"/>
    <tag k="ref:vcgi:esiteid" v="200811"/>
  </node>
  <node id="-704" visible="true" lat="44.40354156" lon="-72.99595642">
    <tag k="addr:city" v="Richmond"/>
    <tag k="addr:housenumber" v="47"/>
    <tag k="addr:street" v="Church Street"/>
    <tag k="addr:state" v="VT"/>
    <tag k="ref:vcgi:esiteid" v="200812"/>
  </node>
  <node id="-705" visible="true" lat="44.40365099" lon="-72.99526036">
    <tag k="addr:city" v="Richmond"/>
    <tag k="addr:housenumber" v="20"/>
    <tag k="addr:street" v="Church Street"/>
    <tag k="addr:state" v="VT"/>
    <tag k="ref:vcgi:esiteid" v="200813"/>
  </node>
  <node id="-706" visible="true" lat="44.40361432" lon="-72.9919013">
    <tag k="addr:city" v="Richmond"/>
    <tag k="addr:housenumber" v="103"/>
    <tag k="addr:street" v="Pleasant Street"/>
    <tag k="addr:state" v="VT"/>
    <tag k="ref:vcgi:esiteid" v="200814"/>
  </node>
  <node id="-707" visible="true" lat="44.40355376" lon="-72.99753573">
    <tag k="addr:city" v="Richmond"/>
    <tag k="addr:housenumber" v="112"/>
    <tag k="addr:street" v="Esplanade Street"/>
    <tag k="addr:state" v="VT"/>
    <tag k="ref:vcgi:esiteid" v="200815"/>
  </node>
  <node id="-709" visible="true" lat="44.40346527" lon="-72.99240112">
    <tag k="addr:city" v="Richmond"/>
    <tag k="addr:housenumber" v="98"/>
    <tag k="addr:street" v="Pleasant Street"/>
    <tag k="addr:state" v="VT"/>
    <tag k="ref:vcgi:esiteid" v="200817"/>
  </node>
  <node id="-710" visible="true" lat="44.40341949" lon="-72.99459075">
    <tag k="addr:city" v="Richmond"/>
    <tag k="addr:housenumber" v="151"/>
    <tag k="addr:street" v="Bridge Street"/>
    <tag k="addr:state" v="VT"/>
    <tag k="ref:vcgi:esiteid" v="200818"/>
  </node>
  <node id="-711" visible="true" lat="44.40338134" lon="-72.99790954">
    <tag k="addr:city" v="Richmond"/>
    <tag k="addr:housenumber" v="117"/>
    <tag k="addr:street" v="Esplanade Street"/>
    <tag k="addr:state" v="VT"/>
    <tag k="ref:vcgi:esiteid" v="200819"/>
  </node>
  <node id="-713" visible="true" lat="44.40340423" lon="-72.99025726">
    <tag k="addr:city" v="Richmond"/>
    <tag k="addr:housenumber" v="182"/>
    <tag k="addr:street" v="East Main Street"/>
    <tag k="addr:state" v="VT"/>
    <tag k="ref:vcgi:esiteid" v="200821"/>
  </node>
  <node id="-716" visible="true" lat="44.40336608" lon="-72.99217224">
    <tag k="addr:city" v="Richmond"/>
    <tag k="addr:housenumber" v="110"/>
    <tag k="addr:street" v="Pleasant Street"/>
    <tag k="addr:state" v="VT"/>
    <tag k="ref:vcgi:esiteid" v="200824"/>
  </node>
  <node id="-718" visible="true" lat="44.40330984" lon="-72.99134197">
    <tag k="addr:city" v="Richmond"/>
    <tag k="addr:housenumber" v="179"/>
    <tag k="addr:street" v="Lemroy Court"/>
    <tag k="addr:state" v="VT"/>
    <tag k="ref:vcgi:esiteid" v="200826"/>
  </node>
  <node id="-719" visible="true" lat="44.40330222" lon="-72.99715153">
    <tag k="addr:city" v="Richmond"/>
    <tag k="addr:housenumber" v="88"/>
    <tag k="addr:street" v="Esplanade Street"/>
    <tag k="addr:state" v="VT"/>
    <tag k="ref:vcgi:esiteid" v="200827"/>
  </node>
  <node id="-725" visible="true" lat="44.40317975" lon="-72.99187535">
    <tag k="addr:city" v="Richmond"/>
    <tag k="addr:housenumber" v="114"/>
    <tag k="addr:street" v="Pleasant Street"/>
    <tag k="addr:state" v="VT"/>
    <tag k="ref:vcgi:esiteid" v="200833"/>
  </node>
  <node id="-726" visible="true" lat="44.40315181" lon="-72.99566754">
    <tag k="addr:city" v="Richmond"/>
    <tag k="addr:housenumber" v="19"/>
    <tag k="addr:street" v="Church Street"/>
    <tag k="addr:state" v="VT"/>
    <tag k="ref:vcgi:esiteid" v="200834"/>
  </node>
  <node id="-727" visible="true" lat="44.40318298" lon="-72.99768066">
    <tag k="addr:city" v="Richmond"/>
    <tag k="addr:housenumber" v="99"/>
    <tag k="addr:street" v="Esplanade Street"/>
    <tag k="addr:state" v="VT"/>
    <tag k="ref:vcgi:esiteid" v="200835"/>
  </node>
  <node id="-729" visible="true" lat="44.40335184" lon="-72.99088054">
    <tag k="addr:city" v="Richmond"/>
    <tag k="addr:housenumber" v="160"/>
    <tag k="addr:street" v="Lemroy Court"/>
    <tag k="addr:state" v="VT"/>
    <tag k="ref:vcgi:esiteid" v="200837"/>
  </node>
  <node id="-732" visible="true" lat="44.40298054" lon="-72.99736669">
    <tag k="addr:city" v="Richmond"/>
    <tag k="addr:housenumber" v="84"/>
    <tag k="addr:street" v="Esplanade Street"/>
    <tag k="addr:state" v="VT"/>
    <tag k="ref:vcgi:esiteid" v="200840"/>
  </node>
  <node id="-733" visible="true" lat="44.40317214" lon="-72.99698435">
    <tag k="addr:city" v="Richmond"/>
    <tag k="addr:housenumber" v="62"/>
    <tag k="addr:street" v="Esplanade Street"/>
    <tag k="addr:state" v="VT"/>
    <tag k="ref:vcgi:esiteid" v="200841"/>
  </node>
  <node id="-734" visible="true" lat="44.40297834" lon="-72.98965859">
    <tag k="addr:city" v="Richmond"/>
    <tag k="addr:housenumber" v="210"/>
    <tag k="addr:street" v="East Main Street"/>
    <tag k="addr:state" v="VT"/>
    <tag k="ref:vcgi:esiteid" v="200842"/>
  </node>
  <node id="-735" visible="true" lat="44.40299462" lon="-72.99131634">
    <tag k="addr:city" v="Richmond"/>
    <tag k="addr:housenumber" v="171"/>
    <tag k="addr:street" v="Lemroy Court"/>
    <tag k="addr:state" v="VT"/>
    <tag k="ref:vcgi:esiteid" v="200843"/>
  </node>
  <node id="-740" visible="true" lat="44.40291907" lon="-72.99109628">
    <tag k="addr:city" v="Richmond"/>
    <tag k="addr:housenumber" v="165"/>
    <tag k="addr:street" v="Lemroy Court"/>
    <tag k="addr:state" v="VT"/>
    <tag k="ref:vcgi:esiteid" v="200848"/>
  </node>
  <node id="-744" visible="true" lat="44.40296394" lon="-72.99585017">
    <tag k="addr:city" v="Richmond"/>
    <tag k="addr:housenumber" v="208"/>
    <tag k="addr:street" v="Bridge Street"/>
    <tag k="addr:state" v="VT"/>
    <tag k="ref:vcgi:esiteid" v="200853"/>
  </node>
  <node id="-747" visible="true" lat="44.40308496" lon="-72.99484111">
    <tag k="addr:city" v="Richmond"/>
    <tag k="addr:housenumber" v="201"/>
    <tag k="addr:street" v="Bridge Street"/>
    <tag k="addr:state" v="VT"/>
    <tag k="ref:vcgi:esiteid" v="200856"/>
  </node>
  <node id="-749" visible="true" lat="44.40290069" lon="-72.98859405">
    <tag k="addr:city" v="Richmond"/>
    <tag k="addr:housenumber" v="269"/>
    <tag k="addr:street" v="East Main Street"/>
    <tag k="addr:state" v="VT"/>
    <tag k="ref:vcgi:esiteid" v="200858"/>
  </node>
  <node id="-750" visible="true" lat="44.40282416" lon="-72.99721271">
    <tag k="addr:city" v="Richmond"/>
    <tag k="addr:housenumber" v="65"/>
    <tag k="addr:street" v="Esplanade Street"/>
    <tag k="addr:state" v="VT"/>
    <tag k="ref:vcgi:esiteid" v="200859"/>
  </node>
  <node id="-751" visible="true" lat="44.40295085" lon="-72.98058582">
    <tag k="addr:city" v="Richmond"/>
    <tag k="addr:housenumber" v="837"/>
    <tag k="addr:street" v="East Main Street"/>
    <tag k="addr:state" v="VT"/>
    <tag k="ref:vcgi:esiteid" v="200860"/>
  </node>
  <node id="-752" visible="true" lat="44.40278625" lon="-72.99651336">
    <tag k="addr:city" v="Richmond"/>
    <tag k="addr:housenumber" v="40"/>
    <tag k="addr:street" v="Esplanade Street"/>
    <tag k="addr:state" v="VT"/>
    <tag k="ref:vcgi:esiteid" v="200862"/>
  </node>
  <node id="-754" visible="true" lat="44.40272816" lon="-72.99598828">
    <tag k="addr:city" v="Richmond"/>
    <tag k="addr:housenumber" v="226"/>
    <tag k="addr:street" v="Bridge Street"/>
    <tag k="addr:state" v="VT"/>
    <tag k="ref:vcgi:esiteid" v="200864"/>
  </node>
  <node id="-756" visible="true" lat="44.40262272" lon="-72.99522263">
    <tag k="addr:city" v="Richmond"/>
    <tag k="addr:housenumber" v="203"/>
    <tag k="addr:street" v="Bridge Street"/>
    <tag k="addr:state" v="VT"/>
    <tag k="ref:vcgi:esiteid" v="200866"/>
  </node>
  <node id="-757" visible="true" lat="44.40276907" lon="-72.9882252">
    <tag k="addr:city" v="Richmond"/>
    <tag k="addr:housenumber" v="287"/>
    <tag k="addr:street" v="East Main Street"/>
    <tag k="addr:state" v="VT"/>
    <tag k="ref:vcgi:esiteid" v="200867"/>
  </node>
  <node id="-759" visible="true" lat="44.40253528" lon="-72.9961501">
    <tag k="addr:city" v="Richmond"/>
    <tag k="addr:housenumber" v="242"/>
    <tag k="addr:street" v="Bridge Street"/>
    <tag k="addr:state" v="VT"/>
    <tag k="ref:vcgi:esiteid" v="200869"/>
  </node>
  <node id="-761" visible="true" lat="44.40245543" lon="-72.98765905">
    <tag k="addr:city" v="Richmond"/>
    <tag k="addr:housenumber" v="335"/>
    <tag k="addr:street" v="East Main Street"/>
    <tag k="addr:state" v="VT"/>
    <tag k="ref:vcgi:esiteid" v="200875"/>
  </node>
  <node id="-775" visible="true" lat="44.40205205" lon="-72.98724674">
    <tag k="addr:city" v="Richmond"/>
    <tag k="addr:housenumber" v="357"/>
    <tag k="addr:street" v="East Main Street"/>
    <tag k="addr:state" v="VT"/>
    <tag k="ref:vcgi:esiteid" v="200890"/>
  </node>
  <node id="-779" visible="true" lat="44.4015541" lon="-72.98345184">
    <tag k="addr:city" v="Richmond"/>
    <tag k="addr:housenumber" v="597"/>
    <tag k="addr:street" v="East Main Street"/>
    <tag k="addr:state" v="VT"/>
    <tag k="ref:vcgi:esiteid" v="200894"/>
  </node>
  <node id="-781" visible="true" lat="44.40147399" lon="-72.98367309">
    <tag k="addr:city" v="Richmond"/>
    <tag k="addr:housenumber" v="595"/>
    <tag k="addr:street" v="East Main Street"/>
    <tag k="addr:state" v="VT"/>
    <tag k="ref:vcgi:esiteid" v="200896"/>
  </node>
  <node id="-787" visible="true" lat="44.40109529" lon="-72.97412922">
    <tag k="addr:city" v="Richmond"/>
    <tag k="addr:housenumber" v="1147"/>
    <tag k="addr:street" v="East Main Street"/>
    <tag k="addr:state" v="VT"/>
    <tag k="ref:vcgi:esiteid" v="200902"/>
  </node>
  <node id="-790" visible="true" lat="44.40089797" lon="-72.98252105">
    <tag k="addr:city" v="Richmond"/>
    <tag k="addr:housenumber" v="624"/>
    <tag k="addr:street" v="East Main Street"/>
    <tag k="addr:state" v="VT"/>
    <tag k="ref:vcgi:esiteid" v="200905"/>
  </node>
  <node id="-792" visible="true" lat="44.40071105" lon="-72.99938964">
    <tag k="addr:city" v="Richmond"/>
    <tag k="addr:housenumber" v="46"/>
    <tag k="addr:street" v="Old Brooklyn Court"/>
    <tag k="addr:state" v="VT"/>
    <tag k="ref:vcgi:esiteid" v="200907"/>
  </node>
  <node id="-794" visible="true" lat="44.40068184" lon="-72.99701468">
    <tag k="addr:city" v="Richmond"/>
    <tag k="addr:housenumber" v="401"/>
    <tag k="addr:street" v="Bridge Street"/>
    <tag k="addr:state" v="VT"/>
    <tag k="ref:vcgi:esiteid" v="200909"/>
  </node>
  <node id="-795" visible="true" lat="44.40066179" lon="-72.9992251">
    <tag k="addr:city" v="Richmond"/>
    <tag k="addr:housenumber" v="44"/>
    <tag k="addr:street" v="Old Brooklyn Court"/>
    <tag k="addr:state" v="VT"/>
    <tag k="ref:vcgi:esiteid" v="200910"/>
  </node>
  <node id="-800" visible="true" lat="44.40014267" lon="-72.99877929">
    <tag k="addr:city" v="Richmond"/>
    <tag k="addr:housenumber" v="23"/>
    <tag k="addr:street" v="Old Brooklyn Court"/>
    <tag k="addr:state" v="VT"/>
    <tag k="ref:vcgi:esiteid" v="200915"/>
  </node>
  <node id="-802" visible="true" lat="44.39992186" lon="-72.999412">
    <tag k="addr:city" v="Richmond"/>
    <tag k="addr:housenumber" v="508"/>
    <tag k="addr:street" v="Bridge Street"/>
    <tag k="addr:state" v="VT"/>
    <tag k="ref:vcgi:esiteid" v="200918"/>
  </node>
  <node id="-805" visible="true" lat="44.39984986" lon="-72.99909856">
    <tag k="addr:city" v="Richmond"/>
    <tag k="addr:housenumber" v="506"/>
    <tag k="addr:street" v="Bridge Street"/>
    <tag k="addr:state" v="VT"/>
    <tag k="ref:vcgi:esiteid" v="200921"/>
  </node>
  <node id="-807" visible="true" lat="44.39966299" lon="-73.00027295">
    <tag k="addr:city" v="Richmond"/>
    <tag k="addr:housenumber" v="524"/>
    <tag k="addr:street" v="Bridge Street"/>
    <tag k="addr:state" v="VT"/>
    <tag k="ref:vcgi:esiteid" v="200923"/>
  </node>
  <node id="-809" visible="true" lat="44.39957238" lon="-72.99957829">
    <tag k="addr:city" v="Richmond"/>
    <tag k="addr:housenumber" v="520"/>
    <tag k="addr:street" v="Bridge Street"/>
    <tag k="addr:state" v="VT"/>
    <tag k="ref:vcgi:esiteid" v="200926"/>
  </node>
  <node id="-811" visible="true" lat="44.39949626" lon="-73.00174893">
    <tag k="addr:city" v="Richmond"/>
    <tag k="addr:housenumber" v="82"/>
    <tag k="addr:street" v="Huntington Road"/>
    <tag k="addr:state" v="VT"/>
    <tag k="ref:vcgi:esiteid" v="200928"/>
  </node>
  <node id="-817" visible="true" lat="44.39935251" lon="-73.00137605">
    <tag k="addr:city" v="Richmond"/>
    <tag k="addr:housenumber" v="72"/>
    <tag k="addr:street" v="Huntington Road"/>
    <tag k="addr:state" v="VT"/>
    <tag k="ref:vcgi:esiteid" v="200934"/>
  </node>
  <node id="-818" visible="true" lat="44.39929459" lon="-73.00113663">
    <tag k="addr:city" v="Richmond"/>
    <tag k="addr:housenumber" v="64"/>
    <tag k="addr:street" v="Huntington Road"/>
    <tag k="addr:state" v="VT"/>
    <tag k="ref:vcgi:esiteid" v="200936"/>
  </node>
  <node id="-819" visible="true" lat="44.39922592" lon="-73.00082383">
    <tag k="addr:city" v="Richmond"/>
    <tag k="addr:housenumber" v="48"/>
    <tag k="addr:street" v="Huntington Road"/>
    <tag k="addr:state" v="VT"/>
    <tag k="ref:vcgi:esiteid" v="200937"/>
  </node>
  <node id="-822" visible="true" lat="44.39912809" lon="-72.99990843">
    <tag k="addr:city" v="Richmond"/>
    <tag k="addr:housenumber" v="552"/>
    <tag k="addr:street" v="Bridge Street"/>
    <tag k="addr:state" v="VT"/>
    <tag k="ref:vcgi:esiteid" v="200940"/>
  </node>
  <node id="-830" visible="true" lat="44.39867329" lon="-73.00035434">
    <tag k="addr:city" v="Richmond"/>
    <tag k="addr:housenumber" v="23"/>
    <tag k="addr:street" v="Huntington Road"/>
    <tag k="addr:state" v="VT"/>
    <tag k="ref:vcgi:esiteid" v="200949"/>
  </node>
  <node id="-838" visible="true" lat="44.39846739" lon="-72.99824672">
    <tag k="addr:city" v="Richmond"/>
    <tag k="addr:housenumber" v="91"/>
    <tag k="addr:street" v="Cochran Road"/>
    <tag k="addr:state" v="VT"/>
    <tag k="ref:vcgi:esiteid" v="200957"/>
  </node>
  <node id="-839" visible="true" lat="44.3984185" lon="-72.99791244">
    <tag k="addr:city" v="Richmond"/>
    <tag k="addr:housenumber" v="105"/>
    <tag k="addr:street" v="Cochran Road"/>
    <tag k="addr:state" v="VT"/>
    <tag k="ref:vcgi:esiteid" v="200958"/>
  </node>
  <node id="-842" visible="true" lat="44.39824457" lon="-72.99905625">
    <tag k="addr:city" v="Richmond"/>
    <tag k="addr:housenumber" v="44"/>
    <tag k="addr:street" v="Cochran Road"/>
    <tag k="addr:state" v="VT"/>
    <tag k="ref:vcgi:esiteid" v="200961"/>
  </node>
  <node id="-846" visible="true" lat="44.39794871" lon="-72.99756555">
    <tag k="addr:city" v="Richmond"/>
    <tag k="addr:housenumber" v="124"/>
    <tag k="addr:street" v="Cochran Road"/>
    <tag k="addr:state" v="VT"/>
    <tag k="ref:vcgi:esiteid" v="200965"/>
  </node>
  <node id="-847" visible="true" lat="44.39792376" lon="-73.00113545">
    <tag k="addr:city" v="Richmond"/>
    <tag k="addr:housenumber" v="21"/>
    <tag k="addr:street" v="Farr Road"/>
    <tag k="addr:state" v="VT"/>
    <tag k="ref:vcgi:esiteid" v="200966"/>
  </node>
  <node id="-848" visible="true" lat="44.39805855" lon="-72.99848591">
    <tag k="addr:city" v="Richmond"/>
    <tag k="addr:housenumber" v="90"/>
    <tag k="addr:street" v="Cochran Road"/>
    <tag k="addr:state" v="VT"/>
    <tag k="ref:vcgi:esiteid" v="200968"/>
  </node>
  <node id="-849" visible="true" lat="44.39786917" lon="-72.99735281">
    <tag k="addr:city" v="Richmond"/>
    <tag k="addr:housenumber" v="142"/>
    <tag k="addr:street" v="Cochran Road"/>
    <tag k="addr:state" v="VT"/>
    <tag k="ref:vcgi:esiteid" v="200969"/>
  </node>
  <node id="-855" visible="true" lat="44.39768025" lon="-72.99314975">
    <tag k="addr:city" v="Richmond"/>
    <tag k="addr:housenumber" v="355"/>
    <tag k="addr:street" v="Cochran Road"/>
    <tag k="addr:state" v="VT"/>
    <tag k="ref:vcgi:esiteid" v="200975"/>
  </node>
  <node id="-856" visible="true" lat="44.39761828" lon="-72.99233614">
    <tag k="addr:city" v="Richmond"/>
    <tag k="addr:housenumber" v="393"/>
    <tag k="addr:street" v="Cochran Road"/>
    <tag k="addr:state" v="VT"/>
    <tag k="ref:vcgi:esiteid" v="200976"/>
  </node>
  <node id="-860" visible="true" lat="44.3974405" lon="-72.99564087">
    <tag k="addr:city" v="Richmond"/>
    <tag k="addr:housenumber" v="220"/>
    <tag k="addr:street" v="Cochran Road"/>
    <tag k="addr:state" v="VT"/>
    <tag k="ref:vcgi:esiteid" v="200980"/>
  </node>
  <node id="-862" visible="true" lat="44.39747557" lon="-73.00139288">
    <tag k="addr:city" v="Richmond"/>
    <tag k="addr:housenumber" v="118"/>
    <tag k="addr:street" v="Thompson Road"/>
    <tag k="addr:state" v="VT"/>
    <tag k="ref:vcgi:esiteid" v="200982"/>
  </node>
  <node id="-863" visible="true" lat="44.39759826" lon="-72.96089935">
    <tag k="addr:city" v="Richmond"/>
    <tag k="addr:housenumber" v="1877"/>
    <tag k="addr:street" v="East Main Street"/>
    <tag k="addr:state" v="VT"/>
    <tag k="ref:vcgi:esiteid" v="200983"/>
  </node>
  <node id="-866" visible="true" lat="44.39733543" lon="-72.99380091">
    <tag k="addr:city" v="Richmond"/>
    <tag k="addr:housenumber" v="314"/>
    <tag k="addr:street" v="Cochran Road"/>
    <tag k="addr:state" v="VT"/>
    <tag k="ref:vcgi:esiteid" v="200987"/>
  </node>
  <node id="-868" visible="true" lat="44.39744186" lon="-72.96179199">
    <tag k="addr:city" v="Richmond"/>
    <tag k="addr:housenumber" v="1799"/>
    <tag k="addr:street" v="East Main Street"/>
    <tag k="addr:state" v="VT"/>
    <tag k="ref:vcgi:esiteid" v="200989"/>
  </node>
  <node id="-869" visible="true" lat="44.39727798" lon="-72.99224462">
    <tag k="addr:city" v="Richmond"/>
    <tag k="addr:housenumber" v="388"/>
    <tag k="addr:street" v="Cochran Road"/>
    <tag k="addr:state" v="VT"/>
    <tag k="ref:vcgi:esiteid" v="200990"/>
  </node>
  <node id="-870" visible="true" lat="44.39714544" lon="-72.99272003">
    <tag k="addr:city" v="Richmond"/>
    <tag k="addr:housenumber" v="366"/>
    <tag k="addr:street" v="Cochran Road"/>
    <tag k="addr:state" v="VT"/>
    <tag k="ref:vcgi:esiteid" v="200991"/>
  </node>
  <node id="-871" visible="true" lat="44.39695059" lon="-72.99335018">
    <tag k="addr:city" v="Richmond"/>
    <tag k="addr:housenumber" v="340"/>
    <tag k="addr:street" v="Cochran Road"/>
    <tag k="addr:state" v="VT"/>
    <tag k="ref:vcgi:esiteid" v="200992"/>
  </node>
  <node id="-875" visible="true" lat="44.39725229" lon="-72.98303784">
    <tag k="addr:city" v="Richmond"/>
    <tag k="addr:housenumber" v="861"/>
    <tag k="addr:street" v="Cochran Road"/>
    <tag k="addr:state" v="VT"/>
    <tag k="ref:vcgi:esiteid" v="200996"/>
  </node>
  <node id="-877" visible="true" lat="44.39704513" lon="-73.00131225">
    <tag k="addr:city" v="Richmond"/>
    <tag k="addr:housenumber" v="135"/>
    <tag k="addr:street" v="Thompson Road"/>
    <tag k="addr:state" v="VT"/>
    <tag k="ref:vcgi:esiteid" v="200998"/>
  </node>
  <node id="-879" visible="true" lat="44.39708345" lon="-72.98363799">
    <tag k="addr:city" v="Richmond"/>
    <tag k="addr:housenumber" v="810"/>
    <tag k="addr:street" v="Cochran Road"/>
    <tag k="addr:state" v="VT"/>
    <tag k="ref:vcgi:esiteid" v="201000"/>
  </node>
  <node id="-884" visible="true" lat="44.39688233" lon="-73.00210655">
    <tag k="addr:city" v="Richmond"/>
    <tag k="addr:housenumber" v="174"/>
    <tag k="addr:street" v="Thompson Road"/>
    <tag k="addr:state" v="VT"/>
    <tag k="ref:vcgi:esiteid" v="201005"/>
  </node>
  <node id="-886" visible="true" lat="44.396578" lon="-72.98592013">
    <tag k="addr:city" v="Richmond"/>
    <tag k="addr:housenumber" v="672"/>
    <tag k="addr:street" v="Cochran Road"/>
    <tag k="addr:state" v="VT"/>
    <tag k="ref:vcgi:esiteid" v="201007"/>
  </node>
  <node id="-892" visible="true" lat="44.39627456" lon="-73.00209045">
    <tag k="addr:city" v="Richmond"/>
    <tag k="addr:housenumber" v="201"/>
    <tag k="addr:street" v="Thompson Road"/>
    <tag k="addr:state" v="VT"/>
    <tag k="ref:vcgi:esiteid" v="201013"/>
  </node>
  <node id="-894" visible="true" lat="44.39611061" lon="-73.00277543">
    <tag k="addr:city" v="Richmond"/>
    <tag k="addr:housenumber" v="232"/>
    <tag k="addr:street" v="Thompson Road"/>
    <tag k="addr:state" v="VT"/>
    <tag k="ref:vcgi:esiteid" v="201015"/>
  </node>
  <node id="-896" visible="true" lat="44.39597007" lon="-73.00234819">
    <tag k="addr:city" v="Richmond"/>
    <tag k="addr:housenumber" v="257"/>
    <tag k="addr:street" v="Thompson Road"/>
    <tag k="addr:state" v="VT"/>
    <tag k="ref:vcgi:esiteid" v="201017"/>
  </node>
  <node id="-899" visible="true" lat="44.39570587" lon="-73.00332367">
    <tag k="addr:city" v="Richmond"/>
    <tag k="addr:housenumber" v="276"/>
    <tag k="addr:street" v="Thompson Road"/>
    <tag k="addr:state" v="VT"/>
    <tag k="ref:vcgi:esiteid" v="201020"/>
  </node>
  <node id="-900" visible="true" lat="44.39577167" lon="-72.95001497">
    <tag k="addr:city" v="Richmond"/>
    <tag k="addr:housenumber" v="105"/>
    <tag k="addr:street" v="Snipe Ireland Road"/>
    <tag k="addr:state" v="VT"/>
    <tag k="ref:vcgi:esiteid" v="201021"/>
  </node>
  <node id="-903" visible="true" lat="44.39567947" lon="-72.94677734">
    <tag k="addr:city" v="Richmond"/>
    <tag k="addr:housenumber" v="152"/>
    <tag k="addr:street" v="Lily Pond Circle"/>
    <tag k="addr:state" v="VT"/>
    <tag k="ref:vcgi:esiteid" v="201024"/>
  </node>
  <node id="-904" visible="true" lat="44.39562606" lon="-72.94741821">
    <tag k="addr:city" v="Richmond"/>
    <tag k="addr:housenumber" v="176"/>
    <tag k="addr:street" v="Lily Pond Circle"/>
    <tag k="addr:state" v="VT"/>
    <tag k="ref:vcgi:esiteid" v="201025"/>
  </node>
  <node id="-906" visible="true" lat="44.3954277" lon="-72.94641113">
    <tag k="addr:city" v="Richmond"/>
    <tag k="addr:housenumber" v="138"/>
    <tag k="addr:street" v="Lily Pond Circle"/>
    <tag k="addr:state" v="VT"/>
    <tag k="ref:vcgi:esiteid" v="201028"/>
  </node>
  <node id="-907" visible="true" lat="44.39533233" lon="-72.94863128">
    <tag k="addr:city" v="Richmond"/>
    <tag k="addr:housenumber" v="42"/>
    <tag k="addr:street" v="Red Barn Lane"/>
    <tag k="addr:state" v="VT"/>
    <tag k="ref:vcgi:esiteid" v="201029"/>
  </node>
  <node id="-908" visible="true" lat="44.39536081" lon="-72.94810286">
    <tag k="addr:city" v="Richmond"/>
    <tag k="addr:housenumber" v="65"/>
    <tag k="addr:street" v="Lily Pond Circle"/>
    <tag k="addr:state" v="VT"/>
    <tag k="ref:vcgi:esiteid" v="201030"/>
  </node>
  <node id="-910" visible="true" lat="44.39512252" lon="-72.94651031">
    <tag k="addr:city" v="Richmond"/>
    <tag k="addr:housenumber" v="134"/>
    <tag k="addr:street" v="Lily Pond Circle"/>
    <tag k="addr:state" v="VT"/>
    <tag k="ref:vcgi:esiteid" v="201032"/>
  </node>
  <node id="-914" visible="true" lat="44.39460356" lon="-73.00448302">
    <tag k="addr:city" v="Richmond"/>
    <tag k="addr:housenumber" v="284"/>
    <tag k="addr:street" v="Thompson Road"/>
    <tag k="addr:state" v="VT"/>
    <tag k="ref:vcgi:esiteid" v="201036"/>
  </node>
  <node id="-915" visible="true" lat="44.39500897" lon="-72.94927307">
    <tag k="addr:city" v="Richmond"/>
    <tag k="addr:housenumber" v="41"/>
    <tag k="addr:street" v="Red Barn Lane"/>
    <tag k="addr:state" v="VT"/>
    <tag k="ref:vcgi:esiteid" v="201037"/>
  </node>
  <node id="-916" visible="true" lat="44.39474093" lon="-72.94674038">
    <tag k="addr:city" v="Richmond"/>
    <tag k="addr:housenumber" v="118"/>
    <tag k="addr:street" v="Lily Pond Circle"/>
    <tag k="addr:state" v="VT"/>
    <tag k="ref:vcgi:esiteid" v="201038"/>
  </node>
  <node id="-918" visible="true" lat="44.39447667" lon="-72.94942776">
    <tag k="addr:city" v="Richmond"/>
    <tag k="addr:housenumber" v="2493"/>
    <tag k="addr:street" v="East Main Street"/>
    <tag k="addr:state" v="VT"/>
    <tag k="ref:vcgi:esiteid" v="201040"/>
  </node>
  <node id="-921" visible="true" lat="44.3941485" lon="-72.94719437">
    <tag k="addr:city" v="Richmond"/>
    <tag k="addr:housenumber" v="2577"/>
    <tag k="addr:street" v="East Main Street"/>
    <tag k="addr:state" v="VT"/>
    <tag k="ref:vcgi:esiteid" v="201043"/>
  </node>
  <node id="-926" visible="true" lat="44.39370854" lon="-72.94663385">
    <tag k="addr:city" v="Richmond"/>
    <tag k="addr:housenumber" v="2613"/>
    <tag k="addr:street" v="East Main Street"/>
    <tag k="addr:state" v="VT"/>
    <tag k="ref:vcgi:esiteid" v="201048"/>
  </node>
  <node id="-929" visible="true" lat="44.39342507" lon="-72.94299935">
    <tag k="addr:city" v="Richmond"/>
    <tag k="addr:housenumber" v="129"/>
    <tag k="addr:street" v="Murray Drive"/>
    <tag k="addr:state" v="VT"/>
    <tag k="ref:vcgi:esiteid" v="201051"/>
  </node>
  <node id="-933" visible="true" lat="44.39332804" lon="-72.9461304">
    <tag k="addr:city" v="Richmond"/>
    <tag k="addr:housenumber" v="2673"/>
    <tag k="addr:street" v="East Main Street"/>
    <tag k="addr:state" v="VT"/>
    <tag k="ref:vcgi:esiteid" v="201055"/>
  </node>
  <node id="-935" visible="true" lat="44.39291763" lon="-72.94663238">
    <tag k="addr:city" v="Richmond"/>
    <tag k="addr:housenumber" v="2664"/>
    <tag k="addr:street" v="East Main Street"/>
    <tag k="addr:state" v="VT"/>
    <tag k="ref:vcgi:esiteid" v="201057"/>
  </node>
  <node id="-940" visible="true" lat="44.39286536" lon="-72.94371008">
    <tag k="addr:city" v="Richmond"/>
    <tag k="addr:housenumber" v="99"/>
    <tag k="addr:street" v="Murray Drive"/>
    <tag k="addr:state" v="VT"/>
    <tag k="ref:vcgi:esiteid" v="201062"/>
  </node>
  <node id="-950" visible="true" lat="44.39251869" lon="-72.94118687">
    <tag k="addr:city" v="Richmond"/>
    <tag k="addr:housenumber" v="155"/>
    <tag k="addr:street" v="Murray Drive"/>
    <tag k="addr:state" v="VT"/>
    <tag k="ref:vcgi:esiteid" v="201072"/>
  </node>
  <node id="-954" visible="true" lat="44.39250401" lon="-72.94522787">
    <tag k="addr:city" v="Richmond"/>
    <tag k="addr:housenumber" v="2735"/>
    <tag k="addr:street" v="East Main Street"/>
    <tag k="addr:state" v="VT"/>
    <tag k="ref:vcgi:esiteid" v="201076"/>
  </node>
  <node id="-955" visible="true" lat="44.39233543" lon="-72.94314535">
    <tag k="addr:city" v="Richmond"/>
    <tag k="addr:housenumber" v="196"/>
    <tag k="addr:street" v="Murray Drive"/>
    <tag k="addr:state" v="VT"/>
    <tag k="ref:vcgi:esiteid" v="201077"/>
  </node>
  <node id="-956" visible="true" lat="44.39238002" lon="-72.94414491">
    <tag k="addr:city" v="Richmond"/>
    <tag k="addr:housenumber" v="77"/>
    <tag k="addr:street" v="Murray Drive"/>
    <tag k="addr:state" v="VT"/>
    <tag k="ref:vcgi:esiteid" v="201078"/>
  </node>
  <node id="-959" visible="true" lat="44.39198646" lon="-72.94280371">
    <tag k="addr:city" v="Richmond"/>
    <tag k="addr:housenumber" v="202"/>
    <tag k="addr:street" v="Murray Drive"/>
    <tag k="addr:state" v="VT"/>
    <tag k="ref:vcgi:esiteid" v="201081"/>
  </node>
  <node id="-962" visible="true" lat="44.39182433" lon="-72.94223038">
    <tag k="addr:city" v="Richmond"/>
    <tag k="addr:housenumber" v="199"/>
    <tag k="addr:street" v="Murray Drive"/>
    <tag k="addr:state" v="VT"/>
    <tag k="ref:vcgi:esiteid" v="201084"/>
  </node>
  <node id="-966" visible="true" lat="44.39183708" lon="-72.94471146">
    <tag k="addr:city" v="Richmond"/>
    <tag k="addr:housenumber" v="2791"/>
    <tag k="addr:street" v="East Main Street"/>
    <tag k="addr:state" v="VT"/>
    <tag k="ref:vcgi:esiteid" v="201088"/>
  </node>
  <node id="-976" visible="true" lat="44.39104843" lon="-72.94154357">
    <tag k="addr:city" v="Richmond"/>
    <tag k="addr:housenumber" v="2921"/>
    <tag k="addr:street" v="East Main Street"/>
    <tag k="addr:state" v="VT"/>
    <tag k="ref:vcgi:esiteid" v="201098"/>
  </node>
  <node id="-979" visible="true" lat="44.39102846" lon="-72.94386585">
    <tag k="addr:city" v="Richmond"/>
    <tag k="addr:housenumber" v="2849"/>
    <tag k="addr:street" v="East Main Street"/>
    <tag k="addr:state" v="VT"/>
    <tag k="ref:vcgi:esiteid" v="201101"/>
  </node>
  <node id="-998" visible="true" lat="44.38977509" lon="-72.94101613">
    <tag k="addr:city" v="Richmond"/>
    <tag k="addr:housenumber" v="102"/>
    <tag k="addr:street" v="Edgewood Lane"/>
    <tag k="addr:state" v="VT"/>
    <tag k="ref:vcgi:esiteid" v="201120"/>
  </node>
  <node id="-1004" visible="true" lat="44.38954042" lon="-72.94149474">
    <tag k="addr:city" v="Richmond"/>
    <tag k="addr:housenumber" v="66"/>
    <tag k="addr:street" v="Edgewood Lane"/>
    <tag k="addr:state" v="VT"/>
    <tag k="ref:vcgi:esiteid" v="201126"/>
  </node>
  <node id="-1008" visible="true" lat="44.38923645" lon="-72.94245147">
    <tag k="addr:city" v="Richmond"/>
    <tag k="addr:housenumber" v="26"/>
    <tag k="addr:street" v="Edgewood Lane"/>
    <tag k="addr:state" v="VT"/>
    <tag k="ref:vcgi:esiteid" v="201130"/>
  </node>
  <node id="-1039" visible="true" lat="44.3872573" lon="-72.95602852">
    <tag k="addr:city" v="Richmond"/>
    <tag k="addr:housenumber" v="2374"/>
    <tag k="addr:street" v="Cochran Road"/>
    <tag k="addr:state" v="VT"/>
    <tag k="ref:vcgi:esiteid" v="201161"/>
  </node>
  <node id="-1041" visible="true" lat="44.38737106" lon="-72.94197845">
    <tag k="addr:city" v="Richmond"/>
    <tag k="addr:housenumber" v="3114"/>
    <tag k="addr:street" v="East Main Street"/>
    <tag k="addr:state" v="VT"/>
    <tag k="ref:vcgi:esiteid" v="201163"/>
  </node>
  <node id="-1049" visible="true" lat="44.3870964" lon="-72.94285583">
    <tag k="addr:city" v="Richmond"/>
    <tag k="addr:housenumber" v="3216"/>
    <tag k="addr:street" v="East Main Street"/>
    <tag k="addr:state" v="VT"/>
    <tag k="ref:vcgi:esiteid" v="201171"/>
  </node>
  <node id="-1053" visible="true" lat="44.38680363" lon="-72.9540625">
    <tag k="addr:city" v="Richmond"/>
    <tag k="addr:housenumber" v="2468"/>
    <tag k="addr:street" v="Cochran Road"/>
    <tag k="addr:state" v="VT"/>
    <tag k="ref:vcgi:esiteid" v="201175"/>
  </node>
  <node id="-1056" visible="true" lat="44.38692855" lon="-72.94118499">
    <tag k="addr:city" v="Richmond"/>
    <tag k="addr:housenumber" v="3159"/>
    <tag k="addr:street" v="East Main Street"/>
    <tag k="addr:state" v="VT"/>
    <tag k="ref:vcgi:esiteid" v="201178"/>
  </node>
  <node id="-1059" visible="true" lat="44.38679504" lon="-72.94158172">
    <tag k="addr:city" v="Richmond"/>
    <tag k="addr:housenumber" v="3160"/>
    <tag k="addr:street" v="East Main Street"/>
    <tag k="addr:state" v="VT"/>
    <tag k="ref:vcgi:esiteid" v="201181"/>
  </node>
  <node id="-1060" visible="true" lat="44.38665008" lon="-72.94099426">
    <tag k="addr:city" v="Richmond"/>
    <tag k="addr:housenumber" v="3181"/>
    <tag k="addr:street" v="East Main Street"/>
    <tag k="addr:state" v="VT"/>
    <tag k="ref:vcgi:esiteid" v="201182"/>
  </node>
  <node id="-1075" visible="true" lat="44.38612747" lon="-72.94110107">
    <tag k="addr:city" v="Richmond"/>
    <tag k="addr:housenumber" v="3214"/>
    <tag k="addr:street" v="East Main Street"/>
    <tag k="addr:state" v="VT"/>
    <tag k="ref:vcgi:esiteid" v="201198"/>
  </node>
  <node id="-1090" visible="true" lat="44.38526615" lon="-72.93711294">
    <tag k="addr:city" v="Richmond"/>
    <tag k="addr:housenumber" v="69"/>
    <tag k="addr:street" v="Jones Mill Road"/>
    <tag k="addr:state" v="VT"/>
    <tag k="ref:vcgi:esiteid" v="201214"/>
  </node>
  <node id="-1093" visible="true" lat="44.38516688" lon="-72.93664617">
    <tag k="addr:city" v="Richmond"/>
    <tag k="addr:housenumber" v="81"/>
    <tag k="addr:street" v="Jones Mill Road"/>
    <tag k="addr:state" v="VT"/>
    <tag k="ref:vcgi:esiteid" v="201217"/>
  </node>
  <node id="-1098" visible="true" lat="44.38478087" lon="-72.93824742">
    <tag k="addr:city" v="Richmond"/>
    <tag k="addr:housenumber" v="23"/>
    <tag k="addr:street" v="Jones Mill Road"/>
    <tag k="addr:state" v="VT"/>
    <tag k="ref:vcgi:esiteid" v="201222"/>
  </node>
  <node id="-1100" visible="true" lat="44.3846166" lon="-72.93757568">
    <tag k="addr:city" v="Richmond"/>
    <tag k="addr:housenumber" v="36"/>
    <tag k="addr:street" v="Jones Mill Road"/>
    <tag k="addr:state" v="VT"/>
    <tag k="ref:vcgi:esiteid" v="201224"/>
  </node>
  <node id="-1102" visible="true" lat="44.38460969" lon="-72.93665493">
    <tag k="addr:city" v="Richmond"/>
    <tag k="addr:housenumber" v="98"/>
    <tag k="addr:street" v="Jones Mill Road"/>
    <tag k="addr:state" v="VT"/>
    <tag k="ref:vcgi:esiteid" v="201226"/>
  </node>
  <node id="-1105" visible="true" lat="44.38441877" lon="-72.93683075">
    <tag k="addr:city" v="Richmond"/>
    <tag k="addr:housenumber" v="54"/>
    <tag k="addr:street" v="Jones Mill Road"/>
    <tag k="addr:state" v="VT"/>
    <tag k="ref:vcgi:esiteid" v="201229"/>
  </node>
  <node id="-1109" visible="true" lat="44.38440015" lon="-72.93625179">
    <tag k="addr:city" v="Richmond"/>
    <tag k="addr:housenumber" v="66"/>
    <tag k="addr:street" v="Stage Road"/>
    <tag k="addr:state" v="VT"/>
    <tag k="ref:vcgi:esiteid" v="201233"/>
  </node>
  <node id="-1111" visible="true" lat="44.38371014" lon="-73.05438135">
    <tag k="addr:city" v="Richmond"/>
    <tag k="addr:housenumber" v="2975"/>
    <tag k="addr:street" v="Hinesburg Road"/>
    <tag k="addr:state" v="VT"/>
    <tag k="ref:vcgi:esiteid" v="201235"/>
  </node>
  <node id="-1113" visible="true" lat="44.38416144" lon="-72.93761883">
    <tag k="addr:city" v="Richmond"/>
    <tag k="addr:housenumber" v="3455"/>
    <tag k="addr:street" v="East Main Street"/>
    <tag k="addr:state" v="VT"/>
    <tag k="ref:vcgi:esiteid" v="201237"/>
  </node>
  <node id="-1114" visible="true" lat="44.38417053" lon="-72.93828582">
    <tag k="addr:city" v="Richmond"/>
    <tag k="addr:housenumber" v="3406"/>
    <tag k="addr:street" v="East Main Street"/>
    <tag k="addr:state" v="VT"/>
    <tag k="ref:vcgi:esiteid" v="201238"/>
  </node>
  <node id="-1115" visible="true" lat="44.38413667" lon="-72.93696689">
    <tag k="addr:city" v="Richmond"/>
    <tag k="addr:housenumber" v="3453"/>
    <tag k="addr:street" v="East Main Street"/>
    <tag k="addr:state" v="VT"/>
    <tag k="ref:vcgi:esiteid" v="201239"/>
  </node>
  <node id="-1116" visible="true" lat="44.38374435" lon="-72.93552271">
    <tag k="addr:city" v="Richmond"/>
    <tag k="addr:housenumber" v="118"/>
    <tag k="addr:street" v="Stage Road"/>
    <tag k="addr:state" v="VT"/>
    <tag k="ref:vcgi:esiteid" v="201240"/>
  </node>
  <node id="-1118" visible="true" lat="44.38386092" lon="-72.93725233">
    <tag k="addr:city" v="Richmond"/>
    <tag k="addr:housenumber" v="3459"/>
    <tag k="addr:street" v="East Main Street"/>
    <tag k="addr:state" v="VT"/>
    <tag k="ref:vcgi:esiteid" v="201242"/>
  </node>
  <node id="-1120" visible="true" lat="44.38368211" lon="-72.94586193">
    <tag k="addr:city" v="Richmond"/>
    <tag k="addr:housenumber" v="2953"/>
    <tag k="addr:street" v="Cochran Road"/>
    <tag k="addr:state" v="VT"/>
    <tag k="ref:vcgi:esiteid" v="201244"/>
  </node>
  <node id="-1124" visible="true" lat="44.38353217" lon="-72.94659031">
    <tag k="addr:city" v="Richmond"/>
    <tag k="addr:housenumber" v="2944"/>
    <tag k="addr:street" v="Cochran Road"/>
    <tag k="addr:state" v="VT"/>
    <tag k="ref:vcgi:esiteid" v="201248"/>
  </node>
  <node id="-1126" visible="true" lat="44.38314056" lon="-72.94424438">
    <tag k="addr:city" v="Richmond"/>
    <tag k="addr:housenumber" v="73"/>
    <tag k="addr:street" v="Hapgood Lane"/>
    <tag k="addr:state" v="VT"/>
    <tag k="ref:vcgi:esiteid" v="201250"/>
  </node>
  <node id="-1127" visible="true" lat="44.38310241" lon="-72.94530487">
    <tag k="addr:city" v="Richmond"/>
    <tag k="addr:housenumber" v="2997"/>
    <tag k="addr:street" v="Cochran Road"/>
    <tag k="addr:state" v="VT"/>
    <tag k="ref:vcgi:esiteid" v="201251"/>
  </node>
  <node id="-1131" visible="true" lat="44.38297908" lon="-72.94747839">
    <tag k="addr:city" v="Richmond"/>
    <tag k="addr:housenumber" v="184"/>
    <tag k="addr:street" v="Orchard Lane"/>
    <tag k="addr:state" v="VT"/>
    <tag k="ref:vcgi:esiteid" v="201255"/>
  </node>
  <node id="-1134" visible="true" lat="44.38293749" lon="-72.94603089">
    <tag k="addr:city" v="Richmond"/>
    <tag k="addr:housenumber" v="2990"/>
    <tag k="addr:street" v="Cochran Road"/>
    <tag k="addr:state" v="VT"/>
    <tag k="ref:vcgi:esiteid" v="201258"/>
  </node>
  <node id="-1137" visible="true" lat="44.38268279" lon="-72.94461059">
    <tag k="addr:city" v="Richmond"/>
    <tag k="addr:housenumber" v="37"/>
    <tag k="addr:street" v="Hapgood Lane"/>
    <tag k="addr:state" v="VT"/>
    <tag k="ref:vcgi:esiteid" v="201261"/>
  </node>
  <node id="-1138" visible="true" lat="44.38268902" lon="-72.94700154">
    <tag k="addr:city" v="Richmond"/>
    <tag k="addr:housenumber" v="162"/>
    <tag k="addr:street" v="Orchard Lane"/>
    <tag k="addr:state" v="VT"/>
    <tag k="ref:vcgi:esiteid" v="201262"/>
  </node>
  <node id="-1140" visible="true" lat="44.38241689" lon="-72.94766724">
    <tag k="addr:city" v="Richmond"/>
    <tag k="addr:housenumber" v="177"/>
    <tag k="addr:street" v="Orchard Lane"/>
    <tag k="addr:state" v="VT"/>
    <tag k="ref:vcgi:esiteid" v="201264"/>
  </node>
  <node id="-1143" visible="true" lat="44.38231659" lon="-72.94432067">
    <tag k="addr:city" v="Richmond"/>
    <tag k="addr:housenumber" v="22"/>
    <tag k="addr:street" v="Hapgood Lane"/>
    <tag k="addr:state" v="VT"/>
    <tag k="ref:vcgi:esiteid" v="201267"/>
  </node>
  <node id="-1148" visible="true" lat="44.38179748" lon="-72.94753604">
    <tag k="addr:city" v="Richmond"/>
    <tag k="addr:housenumber" v="117"/>
    <tag k="addr:street" v="Orchard Lane"/>
    <tag k="addr:state" v="VT"/>
    <tag k="ref:vcgi:esiteid" v="201272"/>
  </node>
  <node id="-1150" visible="true" lat="44.38181325" lon="-72.94820795">
    <tag k="addr:city" v="Richmond"/>
    <tag k="addr:housenumber" v="251"/>
    <tag k="addr:street" v="Orchard Lane"/>
    <tag k="addr:state" v="VT"/>
    <tag k="ref:vcgi:esiteid" v="201274"/>
  </node>
  <node id="-1152" visible="true" lat="44.38172685" lon="-72.94601113">
    <tag k="addr:city" v="Richmond"/>
    <tag k="addr:housenumber" v="54"/>
    <tag k="addr:street" v="Orchard Lane"/>
    <tag k="addr:state" v="VT"/>
    <tag k="ref:vcgi:esiteid" v="201276"/>
  </node>
  <node id="-1153" visible="true" lat="44.38165283" lon="-72.94306945">
    <tag k="addr:city" v="Richmond"/>
    <tag k="addr:housenumber" v="11"/>
    <tag k="addr:street" v="Wheeler Lane"/>
    <tag k="addr:state" v="VT"/>
    <tag k="ref:vcgi:esiteid" v="201277"/>
  </node>
  <node id="-1154" visible="true" lat="44.38168299" lon="-72.93814541">
    <tag k="addr:city" v="Richmond"/>
    <tag k="addr:housenumber" v="31"/>
    <tag k="addr:street" v="Duxbury Road"/>
    <tag k="addr:state" v="VT"/>
    <tag k="ref:vcgi:esiteid" v="201278"/>
  </node>
  <node id="-1155" visible="true" lat="44.3814031" lon="-72.94705638">
    <tag k="addr:city" v="Richmond"/>
    <tag k="addr:housenumber" v="95"/>
    <tag k="addr:street" v="Orchard Lane"/>
    <tag k="addr:state" v="VT"/>
    <tag k="ref:vcgi:esiteid" v="201279"/>
  </node>
  <node id="-1156" visible="true" lat="44.38143521" lon="-72.94486849">
    <tag k="addr:city" v="Richmond"/>
    <tag k="addr:housenumber" v="18"/>
    <tag k="addr:street" v="Dugway Road"/>
    <tag k="addr:state" v="VT"/>
    <tag k="ref:vcgi:esiteid" v="201280"/>
  </node>
  <node id="-1157" visible="true" lat="44.38133329" lon="-72.93818603">
    <tag k="addr:city" v="Richmond"/>
    <tag k="addr:housenumber" v="20"/>
    <tag k="addr:street" v="Duxbury Road"/>
    <tag k="addr:state" v="VT"/>
    <tag k="ref:vcgi:esiteid" v="201281"/>
  </node>
  <node id="-1158" visible="true" lat="44.38136695" lon="-72.94553578">
    <tag k="addr:city" v="Richmond"/>
    <tag k="addr:housenumber" v="40"/>
    <tag k="addr:street" v="Orchard Lane"/>
    <tag k="addr:state" v="VT"/>
    <tag k="ref:vcgi:esiteid" v="201282"/>
  </node>
  <node id="-1160" visible="true" lat="44.38129328" lon="-72.94219545">
    <tag k="addr:city" v="Richmond"/>
    <tag k="addr:housenumber" v="20"/>
    <tag k="addr:street" v="Wheeler Lane"/>
    <tag k="addr:state" v="VT"/>
    <tag k="ref:vcgi:esiteid" v="201284"/>
  </node>
  <node id="-1165" visible="true" lat="44.38111533" lon="-72.938521">
    <tag k="addr:city" v="Richmond"/>
    <tag k="addr:housenumber" v="3398"/>
    <tag k="addr:street" v="Cochran Road"/>
    <tag k="addr:state" v="VT"/>
    <tag k="ref:vcgi:esiteid" v="201289"/>
  </node>
  <node id="-1166" visible="true" lat="44.38097813" lon="-72.94229983">
    <tag k="addr:city" v="Richmond"/>
    <tag k="addr:housenumber" v="3204"/>
    <tag k="addr:street" v="Cochran Road"/>
    <tag k="addr:state" v="VT"/>
    <tag k="ref:vcgi:esiteid" v="201290"/>
  </node>
  <node id="-1167" visible="true" lat="44.38108407" lon="-72.945284">
    <tag k="addr:city" v="Richmond"/>
    <tag k="addr:housenumber" v="16"/>
    <tag k="addr:street" v="Orchard Lane"/>
    <tag k="addr:state" v="VT"/>
    <tag k="ref:vcgi:esiteid" v="201291"/>
  </node>
  <node id="-1168" visible="true" lat="44.38081395" lon="-72.94209766">
    <tag k="addr:city" v="Richmond"/>
    <tag k="addr:housenumber" v="3222"/>
    <tag k="addr:street" v="Cochran Road"/>
    <tag k="addr:state" v="VT"/>
    <tag k="ref:vcgi:esiteid" v="201292"/>
  </node>
  <node id="-1170" visible="true" lat="44.38093362" lon="-72.94454584">
    <tag k="addr:city" v="Richmond"/>
    <tag k="addr:housenumber" v="37"/>
    <tag k="addr:street" v="Dugway Road"/>
    <tag k="addr:state" v="VT"/>
    <tag k="ref:vcgi:esiteid" v="201294"/>
  </node>
  <node id="-1172" visible="true" lat="44.38091891" lon="-72.94757275">
    <tag k="addr:city" v="Richmond"/>
    <tag k="addr:housenumber" v="80"/>
    <tag k="addr:street" v="Phoenix Circle"/>
    <tag k="addr:state" v="VT"/>
    <tag k="ref:vcgi:esiteid" v="201296"/>
  </node>
  <node id="-1175" visible="true" lat="44.38080588" lon="-72.94710081">
    <tag k="addr:city" v="Richmond"/>
    <tag k="addr:housenumber" v="70"/>
    <tag k="addr:street" v="Phoenix Circle"/>
    <tag k="addr:state" v="VT"/>
    <tag k="ref:vcgi:esiteid" v="201299"/>
  </node>
  <node id="-1176" visible="true" lat="44.38074956" lon="-72.94575773">
    <tag k="addr:city" v="Richmond"/>
    <tag k="addr:housenumber" v="86"/>
    <tag k="addr:street" v="Dugway Road"/>
    <tag k="addr:state" v="VT"/>
    <tag k="ref:vcgi:esiteid" v="201300"/>
  </node>
  <node id="-1177" visible="true" lat="44.38079352" lon="-72.9359588">
    <tag k="addr:city" v="Richmond"/>
    <tag k="addr:housenumber" v="110"/>
    <tag k="addr:street" v="Duxbury Road"/>
    <tag k="addr:state" v="VT"/>
    <tag k="ref:vcgi:esiteid" v="201301"/>
  </node>
  <node id="-1179" visible="true" lat="44.38060979" lon="-72.9411719">
    <tag k="addr:city" v="Richmond"/>
    <tag k="addr:housenumber" v="20"/>
    <tag k="addr:street" v="Wes White Hill"/>
    <tag k="addr:state" v="VT"/>
    <tag k="ref:vcgi:esiteid" v="201303"/>
  </node>
  <node id="-1181" visible="true" lat="44.38059234" lon="-72.93959045">
    <tag k="addr:city" v="Richmond"/>
    <tag k="addr:housenumber" v="3358"/>
    <tag k="addr:street" v="Cochran Road"/>
    <tag k="addr:state" v="VT"/>
    <tag k="ref:vcgi:esiteid" v="201305"/>
  </node>
  <node id="-1186" visible="true" lat="44.38039828" lon="-72.94670385">
    <tag k="addr:city" v="Richmond"/>
    <tag k="addr:housenumber" v="26"/>
    <tag k="addr:street" v="Phoenix Circle"/>
    <tag k="addr:state" v="VT"/>
    <tag k="ref:vcgi:esiteid" v="201310"/>
  </node>
  <node id="-1187" visible="true" lat="44.38014639" lon="-72.94764485">
    <tag k="addr:city" v="Richmond"/>
    <tag k="addr:housenumber" v="120"/>
    <tag k="addr:street" v="Phoenix Circle"/>
    <tag k="addr:state" v="VT"/>
    <tag k="ref:vcgi:esiteid" v="201311"/>
  </node>
  <node id="-1188" visible="true" lat="44.380297" lon="-72.94626088">
    <tag k="addr:city" v="Richmond"/>
    <tag k="addr:housenumber" v="10"/>
    <tag k="addr:street" v="Phoenix Circle"/>
    <tag k="addr:state" v="VT"/>
    <tag k="ref:vcgi:esiteid" v="201312"/>
  </node>
  <node id="-1190" visible="true" lat="44.37985388" lon="-72.94703068">
    <tag k="addr:city" v="Richmond"/>
    <tag k="addr:housenumber" v="39"/>
    <tag k="addr:street" v="Phoenix Circle"/>
    <tag k="addr:state" v="VT"/>
    <tag k="ref:vcgi:esiteid" v="201314"/>
  </node>
  <node id="-1193" visible="true" lat="44.37988836" lon="-72.93793359">
    <tag k="addr:city" v="Richmond"/>
    <tag k="addr:housenumber" v="76"/>
    <tag k="addr:street" v="Jack Jump Lane"/>
    <tag k="addr:state" v="VT"/>
    <tag k="ref:vcgi:esiteid" v="201317"/>
  </node>
  <node id="-1195" visible="true" lat="44.37973044" lon="-72.94670361">
    <tag k="addr:city" v="Richmond"/>
    <tag k="addr:housenumber" v="178"/>
    <tag k="addr:street" v="Dugway Road"/>
    <tag k="addr:state" v="VT"/>
    <tag k="ref:vcgi:esiteid" v="201319"/>
  </node>
  <node id="-1207" visible="true" lat="44.37892136" lon="-72.94484815">
    <tag k="addr:city" v="Richmond"/>
    <tag k="addr:housenumber" v="106"/>
    <tag k="addr:street" v="Jonesville Estate"/>
    <tag k="addr:state" v="VT"/>
    <tag k="ref:vcgi:esiteid" v="201331"/>
  </node>
  <node id="-1208" visible="true" lat="44.3788901" lon="-72.9439314">
    <tag k="addr:city" v="Richmond"/>
    <tag k="addr:housenumber" v="74"/>
    <tag k="addr:street" v="Jonesville Estate"/>
    <tag k="addr:state" v="VT"/>
    <tag k="ref:vcgi:esiteid" v="201332"/>
  </node>
  <node id="-1210" visible="true" lat="44.37872698" lon="-72.94334142">
    <tag k="addr:city" v="Richmond"/>
    <tag k="addr:housenumber" v="44"/>
    <tag k="addr:street" v="Jonesville Estate"/>
    <tag k="addr:state" v="VT"/>
    <tag k="ref:vcgi:esiteid" v="201334"/>
  </node>
  <node id="-1212" visible="true" lat="44.37836132" lon="-72.94197125">
    <tag k="addr:city" v="Richmond"/>
    <tag k="addr:housenumber" v="139"/>
    <tag k="addr:street" v="Wes White Hill"/>
    <tag k="addr:state" v="VT"/>
    <tag k="ref:vcgi:esiteid" v="201336"/>
  </node>
  <node id="-1213" visible="true" lat="44.37861606" lon="-72.94275791">
    <tag k="addr:city" v="Richmond"/>
    <tag k="addr:housenumber" v="16"/>
    <tag k="addr:street" v="Jonesville Estate"/>
    <tag k="addr:state" v="VT"/>
    <tag k="ref:vcgi:esiteid" v="201337"/>
  </node>
  <node id="-1216" visible="true" lat="44.37814365" lon="-72.94311035">
    <tag k="addr:city" v="Richmond"/>
    <tag k="addr:housenumber" v="27"/>
    <tag k="addr:street" v="Jonesville Estate"/>
    <tag k="addr:state" v="VT"/>
    <tag k="ref:vcgi:esiteid" v="201340"/>
  </node>
  <node id="-1221" visible="true" lat="44.37802856" lon="-72.94162019">
    <tag k="addr:city" v="Richmond"/>
    <tag k="addr:housenumber" v="141"/>
    <tag k="addr:street" v="Wes White Hill"/>
    <tag k="addr:state" v="VT"/>
    <tag k="ref:vcgi:esiteid" v="201345"/>
  </node>
  <node id="-1224" visible="true" lat="44.37790716" lon="-72.94598942">
    <tag k="addr:city" v="Richmond"/>
    <tag k="addr:housenumber" v="127"/>
    <tag k="addr:street" v="Jonesville Estate"/>
    <tag k="addr:state" v="VT"/>
    <tag k="ref:vcgi:esiteid" v="201348"/>
  </node>
  <node id="-1225" visible="true" lat="44.37770764" lon="-72.94224395">
    <tag k="addr:city" v="Richmond"/>
    <tag k="addr:housenumber" v="227"/>
    <tag k="addr:street" v="Wes White Hill"/>
    <tag k="addr:state" v="VT"/>
    <tag k="ref:vcgi:esiteid" v="201349"/>
  </node>
  <node id="-1230" visible="true" lat="44.37725396" lon="-72.94360377">
    <tag k="addr:city" v="Richmond"/>
    <tag k="addr:housenumber" v="288"/>
    <tag k="addr:street" v="Wes White Hill"/>
    <tag k="addr:state" v="VT"/>
    <tag k="ref:vcgi:esiteid" v="201354"/>
  </node>
  <node id="-1231" visible="true" lat="44.37690103" lon="-72.94280975">
    <tag k="addr:city" v="Richmond"/>
    <tag k="addr:housenumber" v="317"/>
    <tag k="addr:street" v="Wes White Hill"/>
    <tag k="addr:state" v="VT"/>
    <tag k="ref:vcgi:esiteid" v="201355"/>
  </node>
  <node id="-1238" visible="true" lat="44.37616944" lon="-72.94347245">
    <tag k="addr:city" v="Richmond"/>
    <tag k="addr:housenumber" v="335"/>
    <tag k="addr:street" v="Wes White Hill"/>
    <tag k="addr:state" v="VT"/>
    <tag k="ref:vcgi:esiteid" v="201363"/>
  </node>
  <node id="-1247" visible="true" lat="44.37545545" lon="-72.94382114">
    <tag k="addr:city" v="Richmond"/>
    <tag k="addr:housenumber" v="401"/>
    <tag k="addr:street" v="Wes White Hill"/>
    <tag k="addr:state" v="VT"/>
    <tag k="ref:vcgi:esiteid" v="201372"/>
  </node>
  <node id="-1262" visible="true" lat="44.37443165" lon="-72.94431039">
    <tag k="addr:city" v="Richmond"/>
    <tag k="addr:housenumber" v="491"/>
    <tag k="addr:street" v="Wes White Hill"/>
    <tag k="addr:state" v="VT"/>
    <tag k="ref:vcgi:esiteid" v="201387"/>
  </node>
  <node id="-1283" visible="true" lat="44.37247055" lon="-72.94158234">
    <tag k="addr:city" v="Richmond"/>
    <tag k="addr:housenumber" v="317"/>
    <tag k="addr:street" v="Robbins Mountain Road"/>
    <tag k="addr:state" v="VT"/>
    <tag k="ref:vcgi:esiteid" v="201408"/>
  </node>
  <node id="-1284" visible="true" lat="44.3724919" lon="-72.94083518">
    <tag k="addr:city" v="Richmond"/>
    <tag k="addr:housenumber" v="302"/>
    <tag k="addr:street" v="Robbins Mountain Road"/>
    <tag k="addr:state" v="VT"/>
    <tag k="ref:vcgi:esiteid" v="201409"/>
  </node>
  <node id="-1290" visible="true" lat="44.3723391" lon="-72.93964943">
    <tag k="addr:city" v="Richmond"/>
    <tag k="addr:housenumber" v="290"/>
    <tag k="addr:street" v="Robbins Mountain Road"/>
    <tag k="addr:state" v="VT"/>
    <tag k="ref:vcgi:esiteid" v="201415"/>
  </node>
  <node id="-1295" visible="true" lat="44.37180709" lon="-72.94132995">
    <tag k="addr:city" v="Richmond"/>
    <tag k="addr:housenumber" v="299"/>
    <tag k="addr:street" v="Robbins Mountain Road"/>
    <tag k="addr:state" v="VT"/>
    <tag k="ref:vcgi:esiteid" v="201420"/>
  </node>
  <node id="-1300" visible="true" lat="44.37140678" lon="-72.94083956">
    <tag k="addr:city" v="Richmond"/>
    <tag k="addr:housenumber" v="284"/>
    <tag k="addr:street" v="Robbins Mountain Road"/>
    <tag k="addr:state" v="VT"/>
    <tag k="ref:vcgi:esiteid" v="201425"/>
  </node>
  <node id="-1304" visible="true" lat="44.37125555" lon="-72.95304488">
    <tag k="addr:city" v="Richmond"/>
    <tag k="addr:housenumber" v="346"/>
    <tag k="addr:street" v="Stonefence Road"/>
    <tag k="addr:state" v="VT"/>
    <tag k="ref:vcgi:esiteid" v="201429"/>
  </node>
  <node id="-1306" visible="true" lat="44.37113315" lon="-72.94653617">
    <tag k="addr:city" v="Richmond"/>
    <tag k="addr:housenumber" v="748"/>
    <tag k="addr:street" v="Wes White Hill"/>
    <tag k="addr:state" v="VT"/>
    <tag k="ref:vcgi:esiteid" v="201431"/>
  </node>
  <node id="-1307" visible="true" lat="44.37111649" lon="-72.95573538">
    <tag k="addr:city" v="Richmond"/>
    <tag k="addr:housenumber" v="426"/>
    <tag k="addr:street" v="Stonefence Road"/>
    <tag k="addr:state" v="VT"/>
    <tag k="ref:vcgi:esiteid" v="201432"/>
  </node>
  <node id="-1309" visible="true" lat="44.37102596" lon="-72.95214038">
    <tag k="addr:city" v="Richmond"/>
    <tag k="addr:housenumber" v="340"/>
    <tag k="addr:street" v="Stonefence Road"/>
    <tag k="addr:state" v="VT"/>
    <tag k="ref:vcgi:esiteid" v="201435"/>
  </node>
  <node id="-1312" visible="true" lat="44.37091461" lon="-72.94787695">
    <tag k="addr:city" v="Richmond"/>
    <tag k="addr:housenumber" v="128"/>
    <tag k="addr:street" v="Stonefence Road"/>
    <tag k="addr:state" v="VT"/>
    <tag k="ref:vcgi:esiteid" v="201438"/>
  </node>
  <node id="-1313" visible="true" lat="44.37087618" lon="-72.94338854">
    <tag k="addr:city" v="Richmond"/>
    <tag k="addr:housenumber" v="161"/>
    <tag k="addr:street" v="Robbins Mountain Road"/>
    <tag k="addr:state" v="VT"/>
    <tag k="ref:vcgi:esiteid" v="201439"/>
  </node>
  <node id="-1314" visible="true" lat="44.37079586" lon="-72.95078792">
    <tag k="addr:city" v="Richmond"/>
    <tag k="addr:housenumber" v="260"/>
    <tag k="addr:street" v="Stonefence Road"/>
    <tag k="addr:state" v="VT"/>
    <tag k="ref:vcgi:esiteid" v="201440"/>
  </node>
  <node id="-1316" visible="true" lat="44.37068435" lon="-72.94871369">
    <tag k="addr:city" v="Richmond"/>
    <tag k="addr:housenumber" v="132"/>
    <tag k="addr:street" v="Stonefence Road"/>
    <tag k="addr:state" v="VT"/>
    <tag k="ref:vcgi:esiteid" v="201442"/>
  </node>
  <node id="-1317" visible="true" lat="44.3707353" lon="-72.94962629">
    <tag k="addr:city" v="Richmond"/>
    <tag k="addr:housenumber" v="172"/>
    <tag k="addr:street" v="Stonefence Road"/>
    <tag k="addr:state" v="VT"/>
    <tag k="ref:vcgi:esiteid" v="201443"/>
  </node>
  <node id="-1318" visible="true" lat="44.37075758" lon="-72.94547508">
    <tag k="addr:city" v="Richmond"/>
    <tag k="addr:housenumber" v="783"/>
    <tag k="addr:street" v="Wes White Hill"/>
    <tag k="addr:state" v="VT"/>
    <tag k="ref:vcgi:esiteid" v="201444"/>
  </node>
  <node id="-1319" visible="true" lat="44.37056178" lon="-72.94236734">
    <tag k="addr:city" v="Richmond"/>
    <tag k="addr:housenumber" v="176"/>
    <tag k="addr:street" v="Robbins Mountain Road"/>
    <tag k="addr:state" v="VT"/>
    <tag k="ref:vcgi:esiteid" v="201445"/>
  </node>
  <node id="-1320" visible="true" lat="44.37046565" lon="-72.94404926">
    <tag k="addr:city" v="Richmond"/>
    <tag k="addr:housenumber" v="87"/>
    <tag k="addr:street" v="Robbins Mountain Road"/>
    <tag k="addr:state" v="VT"/>
    <tag k="ref:vcgi:esiteid" v="201446"/>
  </node>
  <node id="-1321" visible="true" lat="44.37026354" lon="-72.94299479">
    <tag k="addr:city" v="Richmond"/>
    <tag k="addr:housenumber" v="134"/>
    <tag k="addr:street" v="Robbins Mountain Road"/>
    <tag k="addr:state" v="VT"/>
    <tag k="ref:vcgi:esiteid" v="201447"/>
  </node>
  <node id="-1322" visible="true" lat="44.37019074" lon="-72.945487">
    <tag k="addr:city" v="Richmond"/>
    <tag k="addr:housenumber" v="19"/>
    <tag k="addr:street" v="Robbins Mountain Road"/>
    <tag k="addr:state" v="VT"/>
    <tag k="ref:vcgi:esiteid" v="201448"/>
  </node>
  <node id="-1323" visible="true" lat="44.37002498" lon="-72.94982163">
    <tag k="addr:city" v="Richmond"/>
    <tag k="addr:housenumber" v="221"/>
    <tag k="addr:street" v="Stonefence Road"/>
    <tag k="addr:state" v="VT"/>
    <tag k="ref:vcgi:esiteid" v="201449"/>
  </node>
  <node id="-1324" visible="true" lat="44.37003601" lon="-72.95581563">
    <tag k="addr:city" v="Richmond"/>
    <tag k="addr:housenumber" v="470"/>
    <tag k="addr:street" v="Stonefence Road"/>
    <tag k="addr:state" v="VT"/>
    <tag k="ref:vcgi:esiteid" v="201450"/>
  </node>
  <node id="-1325" visible="true" lat="44.36987172" lon="-72.94361532">
    <tag k="addr:city" v="Richmond"/>
    <tag k="addr:housenumber" v="100"/>
    <tag k="addr:street" v="Robbins Mountain Road"/>
    <tag k="addr:state" v="VT"/>
    <tag k="ref:vcgi:esiteid" v="201452"/>
  </node>
  <node id="-1327" visible="true" lat="44.36976938" lon="-72.95101982">
    <tag k="addr:city" v="Richmond"/>
    <tag k="addr:housenumber" v="261"/>
    <tag k="addr:street" v="Stonefence Road"/>
    <tag k="addr:state" v="VT"/>
    <tag k="ref:vcgi:esiteid" v="201454"/>
  </node>
  <node id="-1328" visible="true" lat="44.36959503" lon="-72.94547458">
    <tag k="addr:city" v="Richmond"/>
    <tag k="addr:housenumber" v="8"/>
    <tag k="addr:street" v="Robbins Mountain Road"/>
    <tag k="addr:state" v="VT"/>
    <tag k="ref:vcgi:esiteid" v="201455"/>
  </node>
  <node id="-1329" visible="true" lat="44.36943733" lon="-72.95234104">
    <tag k="addr:city" v="Richmond"/>
    <tag k="addr:housenumber" v="303"/>
    <tag k="addr:street" v="Stonefence Road"/>
    <tag k="addr:state" v="VT"/>
    <tag k="ref:vcgi:esiteid" v="201456"/>
  </node>
  <node id="-1330" visible="true" lat="44.36952108" lon="-72.94728646">
    <tag k="addr:city" v="Richmond"/>
    <tag k="addr:housenumber" v="43"/>
    <tag k="addr:street" v="Stonefence Road"/>
    <tag k="addr:state" v="VT"/>
    <tag k="ref:vcgi:esiteid" v="201457"/>
  </node>
  <node id="-1332" visible="true" lat="44.3693049" lon="-72.94416085">
    <tag k="addr:city" v="Richmond"/>
    <tag k="addr:housenumber" v="70"/>
    <tag k="addr:street" v="Robbins Mountain Road"/>
    <tag k="addr:state" v="VT"/>
    <tag k="ref:vcgi:esiteid" v="201459"/>
  </node>
  <node id="-1333" visible="true" lat="44.36934464" lon="-72.95368977">
    <tag k="addr:city" v="Richmond"/>
    <tag k="addr:housenumber" v="393"/>
    <tag k="addr:street" v="Stonefence Road"/>
    <tag k="addr:state" v="VT"/>
    <tag k="ref:vcgi:esiteid" v="201460"/>
  </node>
  <node id="-1338" visible="true" lat="44.36921289" lon="-72.94615234">
    <tag k="addr:city" v="Richmond"/>
    <tag k="addr:housenumber" v="29"/>
    <tag k="addr:street" v="Stonefence Road"/>
    <tag k="addr:state" v="VT"/>
    <tag k="ref:vcgi:esiteid" v="201465"/>
  </node>
  <node id="-1339" visible="true" lat="44.36892955" lon="-72.95494392">
    <tag k="addr:city" v="Richmond"/>
    <tag k="addr:housenumber" v="529"/>
    <tag k="addr:street" v="Stonefence Road"/>
    <tag k="addr:state" v="VT"/>
    <tag k="ref:vcgi:esiteid" v="201467"/>
  </node>
  <node id="-1340" visible="true" lat="44.36896366" lon="-72.94503065">
    <tag k="addr:city" v="Richmond"/>
    <tag k="addr:housenumber" v="909"/>
    <tag k="addr:street" v="Wes White Hill"/>
    <tag k="addr:state" v="VT"/>
    <tag k="ref:vcgi:esiteid" v="201468"/>
  </node>
  <node id="-1341" visible="true" lat="44.36854878" lon="-72.95609109">
    <tag k="addr:city" v="Richmond"/>
    <tag k="addr:housenumber" v="540"/>
    <tag k="addr:street" v="Stonefence Road"/>
    <tag k="addr:state" v="VT"/>
    <tag k="ref:vcgi:esiteid" v="201469"/>
  </node>
  <node id="-1342" visible="true" lat="44.3685977" lon="-72.95405804">
    <tag k="addr:city" v="Richmond"/>
    <tag k="addr:housenumber" v="683"/>
    <tag k="addr:street" v="Stonefence Road"/>
    <tag k="addr:state" v="VT"/>
    <tag k="ref:vcgi:esiteid" v="201470"/>
  </node>
  <node id="-1348" visible="true" lat="44.3681199" lon="-72.9518713">
    <tag k="addr:city" v="Richmond"/>
    <tag k="addr:housenumber" v="747"/>
    <tag k="addr:street" v="Stonefence Road"/>
    <tag k="addr:state" v="VT"/>
    <tag k="ref:vcgi:esiteid" v="201476"/>
  </node>
  <node id="-1351" visible="true" lat="44.36785743" lon="-72.9509881">
    <tag k="addr:city" v="Richmond"/>
    <tag k="addr:housenumber" v="749"/>
    <tag k="addr:street" v="Stonefence Road"/>
    <tag k="addr:state" v="VT"/>
    <tag k="ref:vcgi:esiteid" v="201479"/>
  </node>
  <node id="-1352" visible="true" lat="44.36771451" lon="-72.95599687">
    <tag k="addr:city" v="Richmond"/>
    <tag k="addr:housenumber" v="582"/>
    <tag k="addr:street" v="Stonefence Road"/>
    <tag k="addr:state" v="VT"/>
    <tag k="ref:vcgi:esiteid" v="201480"/>
  </node>
  <node id="-1353" visible="true" lat="44.36769353" lon="-72.95438842">
    <tag k="addr:city" v="Richmond"/>
    <tag k="addr:housenumber" v="654"/>
    <tag k="addr:street" v="Stonefence Road"/>
    <tag k="addr:state" v="VT"/>
    <tag k="ref:vcgi:esiteid" v="201481"/>
  </node>
  <node id="-1357" visible="true" lat="44.36705508" lon="-72.95224978">
    <tag k="addr:city" v="Richmond"/>
    <tag k="addr:housenumber" v="790"/>
    <tag k="addr:street" v="Stonefence Road"/>
    <tag k="addr:state" v="VT"/>
    <tag k="ref:vcgi:esiteid" v="201485"/>
  </node>
  <node id="-1366" visible="true" lat="44.36619239" lon="-72.9553553">
    <tag k="addr:city" v="Richmond"/>
    <tag k="addr:housenumber" v="684"/>
    <tag k="addr:street" v="Stonefence Road"/>
    <tag k="addr:state" v="VT"/>
    <tag k="ref:vcgi:esiteid" v="201494"/>
  </node>
  <node id="-1369" visible="true" lat="44.36606876" lon="-72.95125606">
    <tag k="addr:city" v="Richmond"/>
    <tag k="addr:housenumber" v="875"/>
    <tag k="addr:street" v="Stonefence Road"/>
    <tag k="addr:state" v="VT"/>
    <tag k="ref:vcgi:esiteid" v="201497"/>
  </node>
  <node id="-1381" visible="true" lat="44.36468887" lon="-72.95576477">
    <tag k="addr:city" v="Richmond"/>
    <tag k="addr:housenumber" v="1588"/>
    <tag k="addr:street" v="Wes White Hill"/>
    <tag k="addr:state" v="VT"/>
    <tag k="ref:vcgi:esiteid" v="201509"/>
  </node>
  <node id="-1384" visible="true" lat="44.36470056" lon="-72.95044035">
    <tag k="addr:city" v="Richmond"/>
    <tag k="addr:housenumber" v="1300"/>
    <tag k="addr:street" v="Wes White Hill"/>
    <tag k="addr:state" v="VT"/>
    <tag k="ref:vcgi:esiteid" v="201512"/>
  </node>
  <node id="-1385" visible="true" lat="44.36449449" lon="-72.95495386">
    <tag k="addr:city" v="Richmond"/>
    <tag k="addr:housenumber" v="1576"/>
    <tag k="addr:street" v="Wes White Hill"/>
    <tag k="addr:state" v="VT"/>
    <tag k="ref:vcgi:esiteid" v="201513"/>
  </node>
  <node id="-1388" visible="true" lat="44.36446568" lon="-72.95400978">
    <tag k="addr:city" v="Richmond"/>
    <tag k="addr:housenumber" v="1484"/>
    <tag k="addr:street" v="Wes White Hill"/>
    <tag k="addr:state" v="VT"/>
    <tag k="ref:vcgi:esiteid" v="201516"/>
  </node>
  <node id="-1390" visible="true" lat="44.36430153" lon="-72.951838">
    <tag k="addr:city" v="Richmond"/>
    <tag k="addr:housenumber" v="1376"/>
    <tag k="addr:street" v="Wes White Hill"/>
    <tag k="addr:state" v="VT"/>
    <tag k="ref:vcgi:esiteid" v="201518"/>
  </node>
  <node id="-1392" visible="true" lat="44.364048" lon="-72.95565795">
    <tag k="addr:city" v="Richmond"/>
    <tag k="addr:housenumber" v="1595"/>
    <tag k="addr:street" v="Wes White Hill"/>
    <tag k="addr:state" v="VT"/>
    <tag k="ref:vcgi:esiteid" v="201520"/>
  </node>
  <node id="-1434" visible="true" lat="44.4006873" lon="-72.98177287">
    <tag k="addr:city" v="Richmond"/>
    <tag k="addr:housenumber" v="664"/>
    <tag k="addr:street" v="East Main Street"/>
    <tag k="addr:state" v="VT"/>
    <tag k="ref:vcgi:esiteid" v="201572"/>
  </node>
  <node id="-1435" visible="true" lat="44.40346778" lon="-72.98890849">
    <tag k="addr:city" v="Richmond"/>
    <tag k="addr:housenumber" v="235"/>
    <tag k="addr:street" v="East Main Street"/>
    <tag k="addr:state" v="VT"/>
    <tag k="ref:vcgi:esiteid" v="201573"/>
  </node>
  <node id="-1441" visible="true" lat="44.40678479" lon="-72.99404033">
    <tag k="addr:city" v="Richmond"/>
    <tag k="addr:housenumber" v="31"/>
    <tag k="addr:street" v="Millet Street"/>
    <tag k="addr:state" v="VT"/>
    <tag k="ref:vcgi:esiteid" v="201579"/>
  </node>
  <node id="-1446" visible="true" lat="44.40496419" lon="-72.99574253">
    <tag k="addr:city" v="Richmond"/>
    <tag k="addr:housenumber" v="99"/>
    <tag k="addr:street" v="Railroad Street"/>
    <tag k="addr:state" v="VT"/>
    <tag k="ref:vcgi:esiteid" v="201584"/>
  </node>
  <node id="-1469" visible="true" lat="44.39921969" lon="-72.99886946">
    <tag k="addr:city" v="Richmond"/>
    <tag k="addr:housenumber" v="25"/>
    <tag k="addr:street" v="Round Church Road"/>
    <tag k="addr:state" v="VT"/>
    <tag k="ref:vcgi:esiteid" v="201608"/>
  </node>
  <node id="-1470" visible="true" lat="44.39887166" lon="-72.99879133">
    <tag k="addr:city" v="Richmond"/>
    <tag k="addr:housenumber" v="45"/>
    <tag k="addr:street" v="Round Church Road"/>
    <tag k="addr:state" v="VT"/>
    <tag k="ref:vcgi:esiteid" v="201609"/>
  </node>
  <node id="-1471" visible="true" lat="44.3987249" lon="-72.99891505">
    <tag k="addr:city" v="Richmond"/>
    <tag k="addr:housenumber" v="47"/>
    <tag k="addr:street" v="Round Church Road"/>
    <tag k="addr:state" v="VT"/>
    <tag k="ref:vcgi:esiteid" v="201610"/>
  </node>
  <node id="-1481" visible="true" lat="44.38203673" lon="-72.94523677">
    <tag k="addr:city" v="Richmond"/>
    <tag k="addr:housenumber" v="3040"/>
    <tag k="addr:street" v="Cochran Road"/>
    <tag k="addr:state" v="VT"/>
    <tag k="ref:vcgi:esiteid" v="201620"/>
  </node>
  <node id="-1482" visible="true" lat="44.38123493" lon="-72.94188662">
    <tag k="addr:city" v="Richmond"/>
    <tag k="addr:housenumber" v="3229"/>
    <tag k="addr:street" v="Cochran Road"/>
    <tag k="addr:state" v="VT"/>
    <tag k="ref:vcgi:esiteid" v="201621"/>
  </node>
  <node id="-1487" visible="true" lat="44.37093135" lon="-72.94155913">
    <tag k="addr:city" v="Richmond"/>
    <tag k="addr:housenumber" v="242"/>
    <tag k="addr:street" v="Robbins Mountain Road"/>
    <tag k="addr:state" v="VT"/>
    <tag k="ref:vcgi:esiteid" v="201626"/>
  </node>
  <node id="-1488" visible="true" lat="44.37090124" lon="-72.95390508">
    <tag k="addr:city" v="Richmond"/>
    <tag k="addr:housenumber" v="400"/>
    <tag k="addr:street" v="Stonefence Road"/>
    <tag k="addr:state" v="VT"/>
    <tag k="ref:vcgi:esiteid" v="201627"/>
  </node>
  <node id="-1489" visible="true" lat="44.36948835" lon="-72.95637282">
    <tag k="addr:city" v="Richmond"/>
    <tag k="addr:housenumber" v="524"/>
    <tag k="addr:street" v="Stonefence Road"/>
    <tag k="addr:state" v="VT"/>
    <tag k="ref:vcgi:esiteid" v="201628"/>
  </node>
  <node id="-1512" visible="true" lat="44.39671508" lon="-73.00037403">
    <tag k="addr:city" v="Richmond"/>
    <tag k="addr:housenumber" v="85"/>
    <tag k="addr:street" v="Thompson Road"/>
    <tag k="addr:state" v="VT"/>
    <tag k="ref:vcgi:esiteid" v="201653"/>
  </node>
  <node id="-1513" visible="true" lat="44.39670369" lon="-72.96314864">
    <tag k="addr:city" v="Richmond"/>
    <tag k="addr:housenumber" v="1790"/>
    <tag k="addr:street" v="East Main Street"/>
    <tag k="addr:state" v="VT"/>
    <tag k="ref:vcgi:esiteid" v="201655"/>
  </node>
  <node id="-1519" visible="true" lat="44.37066017" lon="-73.08116834">
    <tag k="addr:city" v="Richmond"/>
    <tag k="addr:housenumber" v="275"/>
    <tag k="addr:street" v="Dimick Road"/>
    <tag k="addr:state" v="VT"/>
    <tag k="ref:vcgi:esiteid" v="201661"/>
  </node>
  <node id="-1520" visible="true" lat="44.39227028" lon="-72.97337747">
    <tag k="addr:city" v="Richmond"/>
    <tag k="addr:housenumber" v="1600"/>
    <tag k="addr:street" v="Cochran Road"/>
    <tag k="addr:state" v="VT"/>
    <tag k="ref:vcgi:esiteid" v="201662"/>
  </node>
  <node id="-1521" visible="true" lat="44.3903936" lon="-72.94120593">
    <tag k="addr:city" v="Richmond"/>
    <tag k="addr:housenumber" v="2923"/>
    <tag k="addr:street" v="East Main Street"/>
    <tag k="addr:state" v="VT"/>
    <tag k="ref:vcgi:esiteid" v="201663"/>
  </node>
  <node id="-1525" visible="true" lat="44.38585128" lon="-72.95429869">
    <tag k="addr:city" v="Richmond"/>
    <tag k="addr:housenumber" v="95"/>
    <tag k="addr:street" v="Greystone Drive"/>
    <tag k="addr:state" v="VT"/>
    <tag k="ref:vcgi:esiteid" v="201667"/>
  </node>
  <node id="-1527" visible="true" lat="44.40378424" lon="-72.99650797">
    <tag k="addr:city" v="Richmond"/>
    <tag k="addr:housenumber" v="75"/>
    <tag k="addr:street" v="Church Street"/>
    <tag k="addr:state" v="VT"/>
    <tag k="ref:vcgi:esiteid" v="201669"/>
  </node>
  <node id="-1531" visible="true" lat="44.38380645" lon="-72.95599248">
    <tag k="addr:city" v="Richmond"/>
    <tag k="addr:housenumber" v="250"/>
    <tag k="addr:street" v="Greystone Drive"/>
    <tag k="addr:state" v="VT"/>
    <tag k="ref:vcgi:esiteid" v="201673"/>
  </node>
  <node id="-1533" visible="true" lat="44.36999728" lon="-72.94454958">
    <tag k="addr:city" v="Richmond"/>
    <tag k="addr:housenumber" v="51"/>
    <tag k="addr:street" v="Robbins Mountain Road"/>
    <tag k="addr:state" v="VT"/>
    <tag k="ref:vcgi:esiteid" v="201675"/>
  </node>
  <node id="-1550" visible="true" lat="44.38179628" lon="-72.95659003">
    <tag k="addr:city" v="Richmond"/>
    <tag k="addr:housenumber" v="345"/>
    <tag k="addr:street" v="Greystone Drive"/>
    <tag k="addr:state" v="VT"/>
    <tag k="ref:vcgi:esiteid" v="201692"/>
  </node>
  <node id="-1551" visible="true" lat="44.38206093" lon="-72.95777038">
    <tag k="addr:city" v="Richmond"/>
    <tag k="addr:housenumber" v="435"/>
    <tag k="addr:street" v="Greystone Drive"/>
    <tag k="addr:state" v="VT"/>
    <tag k="ref:vcgi:esiteid" v="201693"/>
  </node>
  <node id="-1552" visible="true" lat="44.36544613" lon="-72.95198525">
    <tag k="addr:city" v="Richmond"/>
    <tag k="addr:housenumber" v="880"/>
    <tag k="addr:street" v="Stonefence Road"/>
    <tag k="addr:state" v="VT"/>
    <tag k="ref:vcgi:esiteid" v="201694"/>
  </node>
  <node id="-1553" visible="true" lat="44.37009424" lon="-72.94659916">
    <tag k="addr:city" v="Richmond"/>
    <tag k="addr:housenumber" v="76"/>
    <tag k="addr:street" v="Stonefence Road"/>
    <tag k="addr:state" v="VT"/>
    <tag k="ref:vcgi:esiteid" v="201695"/>
  </node>
  <node id="-1567" visible="true" lat="44.40048624" lon="-72.97841069">
    <tag k="addr:city" v="Richmond"/>
    <tag k="addr:housenumber" v="676"/>
    <tag k="addr:street" v="East Main Street"/>
    <tag k="addr:state" v="VT"/>
    <tag k="ref:vcgi:esiteid" v="201709"/>
  </node>
  <node id="-1583" visible="true" lat="44.37970158" lon="-72.93520975">
    <tag k="addr:city" v="Richmond"/>
    <tag k="addr:housenumber" v="94"/>
    <tag k="addr:street" v="Jack Jump Lane"/>
    <tag k="addr:state" v="VT"/>
    <tag k="ref:vcgi:esiteid" v="201726"/>
  </node>
  <node id="-1585" visible="true" lat="44.36985984" lon="-72.94805594">
    <tag k="addr:city" v="Richmond"/>
    <tag k="addr:housenumber" v="137"/>
    <tag k="addr:street" v="Stonefence Road"/>
    <tag k="addr:state" v="VT"/>
    <tag k="ref:vcgi:esiteid" v="201728"/>
  </node>
  <node id="-1587" visible="true" lat="44.38454283" lon="-72.95622496">
    <tag k="addr:city" v="Richmond"/>
    <tag k="addr:housenumber" v="200"/>
    <tag k="addr:street" v="Greystone Drive"/>
    <tag k="addr:state" v="VT"/>
    <tag k="ref:vcgi:esiteid" v="201731"/>
  </node>
  <node id="-1588" visible="true" lat="44.38433905" lon="-72.95508403">
    <tag k="addr:city" v="Richmond"/>
    <tag k="addr:housenumber" v="205"/>
    <tag k="addr:street" v="Greystone Drive"/>
    <tag k="addr:state" v="VT"/>
    <tag k="ref:vcgi:esiteid" v="201732"/>
  </node>
  <node id="-1589" visible="true" lat="44.38277313" lon="-72.95714636">
    <tag k="addr:city" v="Richmond"/>
    <tag k="addr:housenumber" v="400"/>
    <tag k="addr:street" v="Greystone Drive"/>
    <tag k="addr:state" v="VT"/>
    <tag k="ref:vcgi:esiteid" v="201733"/>
  </node>
  <node id="-1590" visible="true" lat="44.38467785" lon="-72.95854346">
    <tag k="addr:city" v="Richmond"/>
    <tag k="addr:housenumber" v="480"/>
    <tag k="addr:street" v="Greystone Drive"/>
    <tag k="addr:state" v="VT"/>
    <tag k="ref:vcgi:esiteid" v="201734"/>
  </node>
  <node id="-1600" visible="true" lat="44.39718114" lon="-72.959737">
    <tag k="addr:city" v="Richmond"/>
    <tag k="addr:housenumber" v="1949"/>
    <tag k="addr:street" v="East Main Street"/>
    <tag k="addr:state" v="VT"/>
    <tag k="ref:vcgi:esiteid" v="201745"/>
  </node>
  <node id="-1601" visible="true" lat="44.41024892" lon="-72.99204998">
    <tag k="addr:city" v="Richmond"/>
    <tag k="addr:housenumber" v="343"/>
    <tag k="addr:street" v="Jericho Road"/>
    <tag k="addr:state" v="VT"/>
    <tag k="ref:vcgi:esiteid" v="201746"/>
  </node>
  <node id="-1608" visible="true" lat="44.39093832" lon="-72.9703629">
    <tag k="addr:city" v="Richmond"/>
    <tag k="addr:housenumber" v="1642"/>
    <tag k="addr:street" v="Cochran Road"/>
    <tag k="addr:state" v="VT"/>
    <tag k="ref:vcgi:esiteid" v="201753"/>
  </node>
  <node id="-1616" visible="true" lat="44.4043992" lon="-72.99746537">
    <tag k="addr:city" v="Richmond"/>
    <tag k="addr:housenumber" v="139"/>
    <tag k="addr:street" v="Church Street"/>
    <tag k="addr:state" v="VT"/>
    <tag k="ref:vcgi:esiteid" v="201761"/>
  </node>
  <node id="-1617" visible="true" lat="44.40451519" lon="-72.99773034">
    <tag k="addr:city" v="Richmond"/>
    <tag k="addr:housenumber" v="157"/>
    <tag k="addr:street" v="Church Street"/>
    <tag k="addr:state" v="VT"/>
    <tag k="ref:vcgi:esiteid" v="201762"/>
  </node>
  <node id="-1618" visible="true" lat="44.40457326" lon="-72.99784711">
    <tag k="addr:city" v="Richmond"/>
    <tag k="addr:housenumber" v="165"/>
    <tag k="addr:street" v="Church Street"/>
    <tag k="addr:state" v="VT"/>
    <tag k="ref:vcgi:esiteid" v="201763"/>
  </node>
  <node id="-1619" visible="true" lat="44.40465155" lon="-72.9971286">
    <tag k="addr:city" v="Richmond"/>
    <tag k="addr:housenumber" v="142"/>
    <tag k="addr:street" v="Church Street"/>
    <tag k="addr:state" v="VT"/>
    <tag k="ref:vcgi:esiteid" v="201764"/>
  </node>
  <node id="-1620" visible="true" lat="44.40477376" lon="-72.99745365">
    <tag k="addr:city" v="Richmond"/>
    <tag k="addr:housenumber" v="158"/>
    <tag k="addr:street" v="Church Street"/>
    <tag k="addr:state" v="VT"/>
    <tag k="ref:vcgi:esiteid" v="201765"/>
  </node>
  <node id="-1622" visible="true" lat="44.38637722" lon="-72.9617519">
    <tag k="addr:city" v="Richmond"/>
    <tag k="addr:housenumber" v="830"/>
    <tag k="addr:street" v="Greystone Drive"/>
    <tag k="addr:state" v="VT"/>
    <tag k="ref:vcgi:esiteid" v="201767"/>
  </node>
  <node id="-1623" visible="true" lat="44.38543728" lon="-72.96192133">
    <tag k="addr:city" v="Richmond"/>
    <tag k="addr:housenumber" v="730"/>
    <tag k="addr:street" v="Greystone Drive"/>
    <tag k="addr:state" v="VT"/>
    <tag k="ref:vcgi:esiteid" v="201768"/>
  </node>
  <node id="-1625" visible="true" lat="44.38473524" lon="-72.96028547">
    <tag k="addr:city" v="Richmond"/>
    <tag k="addr:housenumber" v="100"/>
    <tag k="addr:street" v="Apple Tree Lane"/>
    <tag k="addr:state" v="VT"/>
    <tag k="ref:vcgi:esiteid" v="201770"/>
  </node>
  <node id="-1626" visible="true" lat="44.38707364" lon="-72.9638394">
    <tag k="addr:city" v="Richmond"/>
    <tag k="addr:housenumber" v="200"/>
    <tag k="addr:street" v="Highland Drive"/>
    <tag k="addr:state" v="VT"/>
    <tag k="ref:vcgi:esiteid" v="201771"/>
  </node>
  <node id="-1629" visible="true" lat="44.38173172" lon="-72.94382381">
    <tag k="addr:city" v="Richmond"/>
    <tag k="addr:housenumber" v="3125"/>
    <tag k="addr:street" v="Cochran Road"/>
    <tag k="addr:state" v="VT"/>
    <tag k="ref:vcgi:esiteid" v="201774"/>
  </node>
  <node id="-1630" visible="true" lat="44.37504819" lon="-72.94626099">
    <tag k="addr:city" v="Richmond"/>
    <tag k="addr:housenumber" v="422"/>
    <tag k="addr:street" v="Wes White Hill"/>
    <tag k="addr:state" v="VT"/>
    <tag k="ref:vcgi:esiteid" v="201775"/>
  </node>
  <node id="-1632" visible="true" lat="44.38725774" lon="-72.96185232">
    <tag k="addr:city" v="Richmond"/>
    <tag k="addr:housenumber" v="900"/>
    <tag k="addr:street" v="Greystone Drive"/>
    <tag k="addr:state" v="VT"/>
    <tag k="ref:vcgi:esiteid" v="201778"/>
  </node>
  <node id="-1664" visible="true" lat="44.40250984" lon="-72.99511725">
    <tag k="addr:city" v="Richmond"/>
    <tag k="addr:housenumber" v="205"/>
    <tag k="addr:street" v="Bridge Street"/>
    <tag k="addr:state" v="VT"/>
    <tag k="ref:vcgi:esiteid" v="305593"/>
  </node>
  <node id="-1673" visible="true" lat="44.37083187" lon="-73.08013338">
    <tag k="addr:city" v="Richmond"/>
    <tag k="addr:housenumber" v="249"/>
    <tag k="addr:street" v="Dimick Road"/>
    <tag k="addr:state" v="VT"/>
    <tag k="ref:vcgi:esiteid" v="305605"/>
  </node>
  <node id="-1678" visible="true" lat="44.39698321" lon="-72.96119445">
    <tag k="addr:city" v="Richmond"/>
    <tag k="addr:housenumber" v="1801"/>
    <tag k="addr:street" v="East Main Street"/>
    <tag k="addr:state" v="VT"/>
    <tag k="ref:vcgi:esiteid" v="305610"/>
  </node>
  <node id="-1683" visible="true" lat="44.40261446" lon="-72.99630477">
    <tag k="addr:city" v="Richmond"/>
    <tag k="addr:housenumber" v="20"/>
    <tag k="addr:street" v="Esplanade Street"/>
    <tag k="addr:state" v="VT"/>
    <tag k="ref:vcgi:esiteid" v="305615"/>
  </node>
  <node id="-1691" visible="true" lat="44.38471148" lon="-72.93758493">
    <tag k="addr:city" v="Richmond"/>
    <tag k="addr:housenumber" v="38"/>
    <tag k="addr:street" v="Jones Mill Road"/>
    <tag k="addr:state" v="VT"/>
    <tag k="ref:vcgi:esiteid" v="305626"/>
  </node>
  <node id="-1702" visible="true" lat="44.36683498" lon="-72.95469135">
    <tag k="addr:city" v="Richmond"/>
    <tag k="addr:housenumber" v="682"/>
    <tag k="addr:street" v="Stonefence Road"/>
    <tag k="addr:state" v="VT"/>
    <tag k="ref:vcgi:esiteid" v="305641"/>
  </node>
  <node id="-1714" visible="true" lat="44.40799539" lon="-72.99416072">
    <tag k="addr:city" v="Richmond"/>
    <tag k="addr:housenumber" v="122"/>
    <tag k="addr:street" v="Tilden Avenue"/>
    <tag k="addr:state" v="VT"/>
    <tag k="ref:vcgi:esiteid" v="305653"/>
  </node>
  <node id="-1719" visible="true" lat="44.36322883" lon="-72.95091551">
    <tag k="addr:city" v="Richmond"/>
    <tag k="addr:housenumber" v="1401"/>
    <tag k="addr:street" v="Wes White Hill"/>
    <tag k="addr:state" v="VT"/>
    <tag k="ref:vcgi:esiteid" v="305660"/>
  </node>
  <node id="-1725" visible="true" lat="44.41089502" lon="-72.99423581">
    <tag k="addr:city" v="Richmond"/>
    <tag k="addr:housenumber" v="120"/>
    <tag k="addr:street" v="Burnett Court"/>
    <tag k="addr:state" v="VT"/>
    <tag k="ref:vcgi:esiteid" v="313875"/>
  </node>
  <node id="-1736" visible="true" lat="44.38042607" lon="-72.93892139">
    <tag k="addr:city" v="Richmond"/>
    <tag k="addr:housenumber" v="3360"/>
    <tag k="addr:street" v="Cochran Road"/>
    <tag k="addr:state" v="VT"/>
    <tag k="ref:vcgi:esiteid" v="337899"/>
  </node>
  <node id="-1758" visible="true" lat="44.4244706" lon="-73.00388954">
    <tag k="addr:city" v="Richmond"/>
    <tag k="addr:housenumber" v="254"/>
    <tag k="addr:street" v="Governor Peck Highway"/>
    <tag k="addr:state" v="VT"/>
    <tag k="ref:vcgi:esiteid" v="338811"/>
  </node>
  <node id="-1759" visible="true" lat="44.38407823" lon="-72.96124989">
    <tag k="addr:city" v="Richmond"/>
    <tag k="addr:housenumber" v="630"/>
    <tag k="addr:street" v="Greystone Drive"/>
    <tag k="addr:state" v="VT"/>
    <tag k="ref:vcgi:esiteid" v="338881"/>
  </node>
  <node id="-1763" visible="true" lat="44.38359884" lon="-72.93456315">
    <tag k="addr:city" v="Richmond"/>
    <tag k="addr:housenumber" v="5510"/>
    <tag k="addr:street" v="Theodore Roosevelt Highway"/>
    <tag k="addr:state" v="VT"/>
    <tag k="ref:vcgi:esiteid" v="339943"/>
  </node>
  <node id="-1766" visible="true" lat="44.37629806" lon="-72.94450823">
    <tag k="addr:city" v="Richmond"/>
    <tag k="addr:housenumber" v="420"/>
    <tag k="addr:street" v="Wes White Hill"/>
    <tag k="addr:state" v="VT"/>
    <tag k="ref:vcgi:esiteid" v="340595"/>
  </node>
  <node id="-1767" visible="true" lat="44.39753667" lon="-72.96526936">
    <tag k="addr:city" v="Richmond"/>
    <tag k="addr:housenumber" v="1624"/>
    <tag k="addr:street" v="East Main Street"/>
    <tag k="addr:state" v="VT"/>
    <tag k="ref:vcgi:esiteid" v="340611"/>
  </node>
  <node id="-1768" visible="true" lat="44.39736566" lon="-72.96445471">
    <tag k="addr:city" v="Richmond"/>
    <tag k="addr:housenumber" v="1686"/>
    <tag k="addr:street" v="East Main Street"/>
    <tag k="addr:state" v="VT"/>
    <tag k="ref:vcgi:esiteid" v="340612"/>
  </node>
  <node id="-1772" visible="true" lat="44.39084172" lon="-72.97017139">
    <tag k="addr:city" v="Richmond"/>
    <tag k="addr:housenumber" v="1644"/>
    <tag k="addr:street" v="Cochran Road"/>
    <tag k="addr:state" v="VT"/>
    <tag k="ref:vcgi:esiteid" v="342149"/>
  </node>
  <node id="-1773" visible="true" lat="44.37811041" lon="-72.94003166">
    <tag k="addr:city" v="Richmond"/>
    <tag k="addr:housenumber" v="3320"/>
    <tag k="addr:street" v="Cochran Road"/>
    <tag k="addr:state" v="VT"/>
    <tag k="ref:vcgi:esiteid" v="344835"/>
  </node>
  <node id="-1793" visible="true" lat="44.39104657" lon="-72.97150404">
    <tag k="addr:city" v="Richmond"/>
    <tag k="addr:housenumber" v="1640"/>
    <tag k="addr:street" v="Cochran Road"/>
    <tag k="addr:state" v="VT"/>
    <tag k="ref:vcgi:esiteid" v="446653"/>
  </node>
  <node id="-1794" visible="true" lat="44.39070437" lon="-72.94304002">
    <tag k="addr:city" v="Richmond"/>
    <tag k="addr:housenumber" v="2905"/>
    <tag k="addr:street" v="East Main Street"/>
    <tag k="addr:state" v="VT"/>
    <tag k="ref:vcgi:esiteid" v="446995"/>
  </node>
  <node id="-1795" visible="true" lat="44.39874042" lon="-72.96923529">
    <tag k="addr:city" v="Richmond"/>
    <tag k="addr:housenumber" v="26"/>
    <tag k="addr:street" v="Locust Knoll Road"/>
    <tag k="addr:state" v="VT"/>
    <tag k="ref:vcgi:esiteid" v="448342"/>
  </node>
  <node id="-1796" visible="true" lat="44.39853701" lon="-72.96913436">
    <tag k="addr:city" v="Richmond"/>
    <tag k="addr:housenumber" v="28"/>
    <tag k="addr:street" v="Locust Knoll Road"/>
    <tag k="addr:state" v="VT"/>
    <tag k="ref:vcgi:esiteid" v="448343"/>
  </node>
  <node id="-1800" visible="true" lat="44.39863985" lon="-72.96809036">
    <tag k="addr:city" v="Richmond"/>
    <tag k="addr:housenumber" v="53"/>
    <tag k="addr:street" v="Locust Knoll Road"/>
    <tag k="addr:state" v="VT"/>
    <tag k="ref:vcgi:esiteid" v="449571"/>
  </node>
  <node id="-1808" visible="true" lat="44.39735921" lon="-72.96768702">
    <tag k="addr:city" v="Richmond"/>
    <tag k="addr:housenumber" v="121"/>
    <tag k="addr:street" v="Locust Knoll Road"/>
    <tag k="addr:state" v="VT"/>
    <tag k="ref:vcgi:esiteid" v="450579"/>
  </node>
  <node id="-1812" visible="true" lat="44.38346895" lon="-72.95724078">
    <tag k="addr:city" v="Richmond"/>
    <tag k="addr:housenumber" v="320"/>
    <tag k="addr:street" v="Greystone Drive"/>
    <tag k="addr:state" v="VT"/>
    <tag k="ref:vcgi:esiteid" v="453675"/>
  </node>
  <node id="-1813" visible="true" lat="44.3977926" lon="-72.96714206">
    <tag k="addr:city" v="Richmond"/>
    <tag k="addr:housenumber" v="93"/>
    <tag k="addr:street" v="Locust Knoll Road"/>
    <tag k="addr:state" v="VT"/>
    <tag k="ref:vcgi:esiteid" v="454344"/>
  </node>
  <node id="-1820" visible="true" lat="44.38334452" lon="-72.96175762">
    <tag k="addr:city" v="Richmond"/>
    <tag k="addr:housenumber" v="665"/>
    <tag k="addr:street" v="Greystone Drive"/>
    <tag k="addr:state" v="VT"/>
    <tag k="ref:vcgi:esiteid" v="455460"/>
  </node>
  <node id="-1821" visible="true" lat="44.39500779" lon="-72.98029969">
    <tag k="addr:city" v="Richmond"/>
    <tag k="addr:housenumber" v="1090"/>
    <tag k="addr:street" v="Cochran Road"/>
    <tag k="addr:state" v="VT"/>
    <tag k="ref:vcgi:esiteid" v="455461"/>
  </node>
  <node id="-1885" visible="true" lat="44.38970957" lon="-72.94382286">
    <tag k="addr:city" v="Richmond"/>
    <tag k="addr:housenumber" v="2950"/>
    <tag k="addr:street" v="East Main Street"/>
    <tag k="addr:state" v="VT"/>
    <tag k="ref:vcgi:esiteid" v="752777"/>
  </node>
</osm>
