<?xml version="1.0" encoding="UTF-8"?>
<osm version="0.6" generator="JOSM">
  <node id="-111" visible="true" lat="44.02728847" lon="-72.95142763">
    <tag k="addr:city" v="Ripton"/>
    <tag k="addr:housenumber" v="793"/>
    <tag k="addr:street" v="Barrows Road"/>
    <tag k="addr:state" v="VT"/>
    <tag k="ref:vcgi:esiteid" v="201814"/>
  </node>
  <node id="-112" visible="true" lat="44.0262812" lon="-72.95564368">
    <tag k="addr:city" v="Ripton"/>
    <tag k="addr:housenumber" v="701"/>
    <tag k="addr:street" v="Barrows Road"/>
    <tag k="addr:state" v="VT"/>
    <tag k="ref:vcgi:esiteid" v="201815"/>
  </node>
  <node id="-115" visible="true" lat="44.0257007" lon="-72.95599358">
    <tag k="addr:city" v="Ripton"/>
    <tag k="addr:housenumber" v="696"/>
    <tag k="addr:street" v="Barrows Road"/>
    <tag k="addr:state" v="VT"/>
    <tag k="ref:vcgi:esiteid" v="201819"/>
  </node>
  <node id="-117" visible="true" lat="44.02534372" lon="-72.95809591">
    <tag k="addr:city" v="Ripton"/>
    <tag k="addr:housenumber" v="588"/>
    <tag k="addr:street" v="Barrows Road"/>
    <tag k="addr:state" v="VT"/>
    <tag k="ref:vcgi:esiteid" v="201821"/>
  </node>
  <node id="-130" visible="true" lat="44.01945498" lon="-72.99639459">
    <tag k="addr:city" v="Ripton"/>
    <tag k="addr:housenumber" v="1776"/>
    <tag k="addr:street" v="Alder Brook Road"/>
    <tag k="addr:state" v="VT"/>
    <tag k="ref:vcgi:esiteid" v="201836"/>
  </node>
  <node id="-140" visible="true" lat="44.00843004" lon="-73.0190844">
    <tag k="addr:city" v="Ripton"/>
    <tag k="addr:housenumber" v="279"/>
    <tag k="addr:street" v="Norton Farm Road"/>
    <tag k="addr:state" v="VT"/>
    <tag k="ref:vcgi:esiteid" v="201846"/>
  </node>
  <node id="-141" visible="true" lat="44.00630364" lon="-73.01892896">
    <tag k="addr:city" v="Ripton"/>
    <tag k="addr:housenumber" v="155"/>
    <tag k="addr:street" v="Norton Farm Road"/>
    <tag k="addr:state" v="VT"/>
    <tag k="ref:vcgi:esiteid" v="201847"/>
  </node>
  <node id="-157" visible="true" lat="43.99751737" lon="-73.05734181">
    <tag k="addr:city" v="Ripton"/>
    <tag k="addr:housenumber" v="1090"/>
    <tag k="addr:street" v="Dragon Brook Road"/>
    <tag k="addr:state" v="VT"/>
    <tag k="ref:vcgi:esiteid" v="201863"/>
  </node>
  <node id="-158" visible="true" lat="43.99723765" lon="-73.05795528">
    <tag k="addr:city" v="Ripton"/>
    <tag k="addr:housenumber" v="1070"/>
    <tag k="addr:street" v="Dragon Brook Road"/>
    <tag k="addr:state" v="VT"/>
    <tag k="ref:vcgi:esiteid" v="201864"/>
  </node>
  <node id="-217" visible="true" lat="43.98761367" lon="-72.99926757">
    <tag k="addr:city" v="Ripton"/>
    <tag k="addr:housenumber" v="2360"/>
    <tag k="addr:street" v="Natural Turnpike"/>
    <tag k="addr:state" v="VT"/>
    <tag k="ref:vcgi:esiteid" v="201923"/>
  </node>
  <node id="-219" visible="true" lat="43.98729324" lon="-72.99970245">
    <tag k="addr:city" v="Ripton"/>
    <tag k="addr:housenumber" v="2332"/>
    <tag k="addr:street" v="Natural Turnpike"/>
    <tag k="addr:state" v="VT"/>
    <tag k="ref:vcgi:esiteid" v="201925"/>
  </node>
  <node id="-222" visible="true" lat="43.98645005" lon="-73.00202033">
    <tag k="addr:city" v="Ripton"/>
    <tag k="addr:housenumber" v="2207"/>
    <tag k="addr:street" v="Natural Turnpike"/>
    <tag k="addr:state" v="VT"/>
    <tag k="ref:vcgi:esiteid" v="201928"/>
  </node>
  <node id="-224" visible="true" lat="43.98631674" lon="-72.99930957">
    <tag k="addr:city" v="Ripton"/>
    <tag k="addr:housenumber" v="105"/>
    <tag k="addr:street" v="Elzira Winter Road"/>
    <tag k="addr:state" v="VT"/>
    <tag k="ref:vcgi:esiteid" v="201930"/>
  </node>
  <node id="-231" visible="true" lat="43.9849568" lon="-72.99999865">
    <tag k="addr:city" v="Ripton"/>
    <tag k="addr:housenumber" v="100"/>
    <tag k="addr:street" v="Elzira Winter Road"/>
    <tag k="addr:state" v="VT"/>
    <tag k="ref:vcgi:esiteid" v="201938"/>
  </node>
  <node id="-232" visible="true" lat="43.98473502" lon="-73.05354913">
    <tag k="addr:city" v="Ripton"/>
    <tag k="addr:housenumber" v="483"/>
    <tag k="addr:street" v="North Branch Road"/>
    <tag k="addr:state" v="VT"/>
    <tag k="ref:vcgi:esiteid" v="201939"/>
  </node>
  <node id="-234" visible="true" lat="43.98461323" lon="-73.00521496">
    <tag k="addr:city" v="Ripton"/>
    <tag k="addr:housenumber" v="1999"/>
    <tag k="addr:street" v="Natural Turnpike"/>
    <tag k="addr:state" v="VT"/>
    <tag k="ref:vcgi:esiteid" v="201941"/>
  </node>
  <node id="-235" visible="true" lat="43.98432959" lon="-73.0036669">
    <tag k="addr:city" v="Ripton"/>
    <tag k="addr:housenumber" v="2074"/>
    <tag k="addr:street" v="Natural Turnpike"/>
    <tag k="addr:state" v="VT"/>
    <tag k="ref:vcgi:esiteid" v="201942"/>
  </node>
  <node id="-265" visible="true" lat="43.97736499" lon="-73.02988403">
    <tag k="addr:city" v="Ripton"/>
    <tag k="addr:housenumber" v="137"/>
    <tag k="addr:street" v="Billings Farm Road"/>
    <tag k="addr:state" v="VT"/>
    <tag k="ref:vcgi:esiteid" v="201973"/>
  </node>
  <node id="-267" visible="true" lat="43.97715567" lon="-73.03328973">
    <tag k="addr:city" v="Ripton"/>
    <tag k="addr:housenumber" v="283"/>
    <tag k="addr:street" v="Natural Turnpike"/>
    <tag k="addr:state" v="VT"/>
    <tag k="ref:vcgi:esiteid" v="201975"/>
  </node>
  <node id="-268" visible="true" lat="43.97715836" lon="-73.03131748">
    <tag k="addr:city" v="Ripton"/>
    <tag k="addr:housenumber" v="69"/>
    <tag k="addr:street" v="Billings Farm Road"/>
    <tag k="addr:state" v="VT"/>
    <tag k="ref:vcgi:esiteid" v="201976"/>
  </node>
  <node id="-269" visible="true" lat="43.97679953" lon="-73.03053669">
    <tag k="addr:city" v="Ripton"/>
    <tag k="addr:housenumber" v="116"/>
    <tag k="addr:street" v="Billings Farm Road"/>
    <tag k="addr:state" v="VT"/>
    <tag k="ref:vcgi:esiteid" v="201977"/>
  </node>
  <node id="-270" visible="true" lat="43.97650069" lon="-73.02881591">
    <tag k="addr:city" v="Ripton"/>
    <tag k="addr:housenumber" v="206"/>
    <tag k="addr:street" v="Billings Farm Road"/>
    <tag k="addr:state" v="VT"/>
    <tag k="ref:vcgi:esiteid" v="201978"/>
  </node>
  <node id="-272" visible="true" lat="43.97642777" lon="-73.02585053">
    <tag k="addr:city" v="Ripton"/>
    <tag k="addr:housenumber" v="354"/>
    <tag k="addr:street" v="Billings Farm Road"/>
    <tag k="addr:state" v="VT"/>
    <tag k="ref:vcgi:esiteid" v="201980"/>
  </node>
  <node id="-275" visible="true" lat="43.97627574" lon="-73.03074024">
    <tag k="addr:city" v="Ripton"/>
    <tag k="addr:housenumber" v="194"/>
    <tag k="addr:street" v="Billings Farm Road"/>
    <tag k="addr:state" v="VT"/>
    <tag k="ref:vcgi:esiteid" v="201983"/>
  </node>
  <node id="-276" visible="true" lat="43.97630313" lon="-73.02351083">
    <tag k="addr:city" v="Ripton"/>
    <tag k="addr:housenumber" v="565"/>
    <tag k="addr:street" v="Peddler Bridge Road"/>
    <tag k="addr:state" v="VT"/>
    <tag k="ref:vcgi:esiteid" v="201984"/>
  </node>
  <node id="-278" visible="true" lat="43.97589157" lon="-73.03186698">
    <tag k="addr:city" v="Ripton"/>
    <tag k="addr:housenumber" v="184"/>
    <tag k="addr:street" v="Natural Turnpike"/>
    <tag k="addr:state" v="VT"/>
    <tag k="ref:vcgi:esiteid" v="201986"/>
  </node>
  <node id="-279" visible="true" lat="43.9758152" lon="-73.03258824">
    <tag k="addr:city" v="Ripton"/>
    <tag k="addr:housenumber" v="181"/>
    <tag k="addr:street" v="Natural Turnpike"/>
    <tag k="addr:state" v="VT"/>
    <tag k="ref:vcgi:esiteid" v="201987"/>
  </node>
  <node id="-281" visible="true" lat="43.97544923" lon="-73.03204163">
    <tag k="addr:city" v="Ripton"/>
    <tag k="addr:housenumber" v="154"/>
    <tag k="addr:street" v="Natural Turnpike"/>
    <tag k="addr:state" v="VT"/>
    <tag k="ref:vcgi:esiteid" v="201989"/>
  </node>
  <node id="-284" visible="true" lat="43.97528966" lon="-73.03246617">
    <tag k="addr:city" v="Ripton"/>
    <tag k="addr:housenumber" v="137"/>
    <tag k="addr:street" v="Natural Turnpike"/>
    <tag k="addr:state" v="VT"/>
    <tag k="ref:vcgi:esiteid" v="201992"/>
  </node>
  <node id="-297" visible="true" lat="43.97467139" lon="-73.03077858">
    <tag k="addr:city" v="Ripton"/>
    <tag k="addr:housenumber" v="91"/>
    <tag k="addr:street" v="Peddler Bridge Road"/>
    <tag k="addr:state" v="VT"/>
    <tag k="ref:vcgi:esiteid" v="202007"/>
  </node>
  <node id="-298" visible="true" lat="43.97485616" lon="-73.03145469">
    <tag k="addr:city" v="Ripton"/>
    <tag k="addr:housenumber" v="61"/>
    <tag k="addr:street" v="Peddler Bridge Road"/>
    <tag k="addr:state" v="VT"/>
    <tag k="ref:vcgi:esiteid" v="202008"/>
  </node>
  <node id="-301" visible="true" lat="43.97462598" lon="-73.03299416">
    <tag k="addr:city" v="Ripton"/>
    <tag k="addr:housenumber" v="51"/>
    <tag k="addr:street" v="Natural Turnpike"/>
    <tag k="addr:state" v="VT"/>
    <tag k="ref:vcgi:esiteid" v="202011"/>
  </node>
  <node id="-302" visible="true" lat="43.97462963" lon="-73.02849385">
    <tag k="addr:city" v="Ripton"/>
    <tag k="addr:housenumber" v="203"/>
    <tag k="addr:street" v="Peddler Bridge Road"/>
    <tag k="addr:state" v="VT"/>
    <tag k="ref:vcgi:esiteid" v="202013"/>
  </node>
  <node id="-304" visible="true" lat="43.97458854" lon="-73.02815503">
    <tag k="addr:city" v="Ripton"/>
    <tag k="addr:housenumber" v="221"/>
    <tag k="addr:street" v="Peddler Bridge Road"/>
    <tag k="addr:state" v="VT"/>
    <tag k="ref:vcgi:esiteid" v="202015"/>
  </node>
  <node id="-307" visible="true" lat="43.97432377" lon="-73.03142148">
    <tag k="addr:city" v="Ripton"/>
    <tag k="addr:housenumber" v="58"/>
    <tag k="addr:street" v="Peddler Bridge Road"/>
    <tag k="addr:state" v="VT"/>
    <tag k="ref:vcgi:esiteid" v="202018"/>
  </node>
  <node id="-308" visible="true" lat="43.97429428" lon="-73.03331805">
    <tag k="addr:city" v="Ripton"/>
    <tag k="addr:housenumber" v="49"/>
    <tag k="addr:street" v="Natural Turnpike"/>
    <tag k="addr:state" v="VT"/>
    <tag k="ref:vcgi:esiteid" v="202019"/>
  </node>
  <node id="-310" visible="true" lat="43.97425426" lon="-73.02625939">
    <tag k="addr:city" v="Ripton"/>
    <tag k="addr:housenumber" v="21"/>
    <tag k="addr:street" v="Murray Lane"/>
    <tag k="addr:state" v="VT"/>
    <tag k="ref:vcgi:esiteid" v="202021"/>
  </node>
  <node id="-314" visible="true" lat="43.97403717" lon="-73.02429962">
    <tag k="addr:city" v="Ripton"/>
    <tag k="addr:housenumber" v="113"/>
    <tag k="addr:street" v="Murray Lane"/>
    <tag k="addr:state" v="VT"/>
    <tag k="ref:vcgi:esiteid" v="202025"/>
  </node>
  <node id="-321" visible="true" lat="43.97381973" lon="-73.02500915">
    <tag k="addr:city" v="Ripton"/>
    <tag k="addr:housenumber" v="84"/>
    <tag k="addr:street" v="Murray Lane"/>
    <tag k="addr:state" v="VT"/>
    <tag k="ref:vcgi:esiteid" v="202032"/>
  </node>
  <node id="-322" visible="true" lat="43.97387547" lon="-73.02540817">
    <tag k="addr:city" v="Ripton"/>
    <tag k="addr:housenumber" v="66"/>
    <tag k="addr:street" v="Murray Lane"/>
    <tag k="addr:state" v="VT"/>
    <tag k="ref:vcgi:esiteid" v="202033"/>
  </node>
  <node id="-323" visible="true" lat="43.97381609" lon="-73.02641542">
    <tag k="addr:city" v="Ripton"/>
    <tag k="addr:housenumber" v="732"/>
    <tag k="addr:street" v="Maiden Lane"/>
    <tag k="addr:state" v="VT"/>
    <tag k="ref:vcgi:esiteid" v="202034"/>
  </node>
  <node id="-325" visible="true" lat="43.97355476" lon="-73.02968561">
    <tag k="addr:city" v="Ripton"/>
    <tag k="addr:housenumber" v="176"/>
    <tag k="addr:street" v="Wimett Lane"/>
    <tag k="addr:state" v="VT"/>
    <tag k="ref:vcgi:esiteid" v="202036"/>
  </node>
  <node id="-326" visible="true" lat="43.97338208" lon="-73.03088505">
    <tag k="addr:city" v="Ripton"/>
    <tag k="addr:housenumber" v="96"/>
    <tag k="addr:street" v="Peddler Bridge Road"/>
    <tag k="addr:state" v="VT"/>
    <tag k="ref:vcgi:esiteid" v="202037"/>
  </node>
  <node id="-327" visible="true" lat="43.97332426" lon="-73.02618291">
    <tag k="addr:city" v="Ripton"/>
    <tag k="addr:housenumber" v="702"/>
    <tag k="addr:street" v="Maiden Lane"/>
    <tag k="addr:state" v="VT"/>
    <tag k="ref:vcgi:esiteid" v="202038"/>
  </node>
  <node id="-329" visible="true" lat="43.97313308" lon="-73.02664184">
    <tag k="addr:city" v="Ripton"/>
    <tag k="addr:housenumber" v="689"/>
    <tag k="addr:street" v="Maiden Lane"/>
    <tag k="addr:state" v="VT"/>
    <tag k="ref:vcgi:esiteid" v="202040"/>
  </node>
  <node id="-330" visible="true" lat="43.97280656" lon="-73.02655445">
    <tag k="addr:city" v="Ripton"/>
    <tag k="addr:housenumber" v="669"/>
    <tag k="addr:street" v="Maiden Lane"/>
    <tag k="addr:state" v="VT"/>
    <tag k="ref:vcgi:esiteid" v="202041"/>
  </node>
  <node id="-332" visible="true" lat="43.97235852" lon="-73.02652304">
    <tag k="addr:city" v="Ripton"/>
    <tag k="addr:housenumber" v="643"/>
    <tag k="addr:street" v="Maiden Lane"/>
    <tag k="addr:state" v="VT"/>
    <tag k="ref:vcgi:esiteid" v="202043"/>
  </node>
  <node id="-338" visible="true" lat="43.97143936" lon="-73.02625274">
    <tag k="addr:city" v="Ripton"/>
    <tag k="addr:housenumber" v="569"/>
    <tag k="addr:street" v="Maiden Lane"/>
    <tag k="addr:state" v="VT"/>
    <tag k="ref:vcgi:esiteid" v="202049"/>
  </node>
  <node id="-340" visible="true" lat="43.97089417" lon="-73.02628925">
    <tag k="addr:city" v="Ripton"/>
    <tag k="addr:housenumber" v="513"/>
    <tag k="addr:street" v="Maiden Lane"/>
    <tag k="addr:state" v="VT"/>
    <tag k="ref:vcgi:esiteid" v="202051"/>
  </node>
  <node id="-343" visible="true" lat="43.97048568" lon="-73.03255462">
    <tag k="addr:city" v="Ripton"/>
    <tag k="addr:housenumber" v="254"/>
    <tag k="addr:street" v="Old Town Road"/>
    <tag k="addr:state" v="VT"/>
    <tag k="ref:vcgi:esiteid" v="202054"/>
  </node>
  <node id="-344" visible="true" lat="43.97016042" lon="-73.0261733">
    <tag k="addr:city" v="Ripton"/>
    <tag k="addr:housenumber" v="481"/>
    <tag k="addr:street" v="Maiden Lane"/>
    <tag k="addr:state" v="VT"/>
    <tag k="ref:vcgi:esiteid" v="202055"/>
  </node>
  <node id="-346" visible="true" lat="43.96990922" lon="-73.02637383">
    <tag k="addr:city" v="Ripton"/>
    <tag k="addr:housenumber" v="457"/>
    <tag k="addr:street" v="Maiden Lane"/>
    <tag k="addr:state" v="VT"/>
    <tag k="ref:vcgi:esiteid" v="202057"/>
  </node>
  <node id="-347" visible="true" lat="43.96960845" lon="-73.02611329">
    <tag k="addr:city" v="Ripton"/>
    <tag k="addr:housenumber" v="441"/>
    <tag k="addr:street" v="Maiden Lane"/>
    <tag k="addr:state" v="VT"/>
    <tag k="ref:vcgi:esiteid" v="202058"/>
  </node>
  <node id="-358" visible="true" lat="43.96304145" lon="-72.97763972">
    <tag k="addr:city" v="Ripton"/>
    <tag k="addr:housenumber" v="1271"/>
    <tag k="addr:street" v="Steam Mill Road"/>
    <tag k="addr:state" v="VT"/>
    <tag k="ref:vcgi:esiteid" v="202070"/>
  </node>
  <node id="-362" visible="true" lat="43.96127615" lon="-72.97837184">
    <tag k="addr:city" v="Ripton"/>
    <tag k="addr:housenumber" v="1117"/>
    <tag k="addr:street" v="Steam Mill Road"/>
    <tag k="addr:state" v="VT"/>
    <tag k="ref:vcgi:esiteid" v="202074"/>
  </node>
  <node id="-367" visible="true" lat="43.95816692" lon="-72.97853026">
    <tag k="addr:city" v="Ripton"/>
    <tag k="addr:housenumber" v="31"/>
    <tag k="addr:street" v="Burnt Hill Road"/>
    <tag k="addr:state" v="VT"/>
    <tag k="ref:vcgi:esiteid" v="202079"/>
  </node>
  <node id="-370" visible="true" lat="43.95701983" lon="-72.97900759">
    <tag k="addr:city" v="Ripton"/>
    <tag k="addr:housenumber" v="56"/>
    <tag k="addr:street" v="Burnt Hill Road"/>
    <tag k="addr:state" v="VT"/>
    <tag k="ref:vcgi:esiteid" v="202082"/>
  </node>
  <node id="-371" visible="true" lat="43.95683154" lon="-72.97646276">
    <tag k="addr:city" v="Ripton"/>
    <tag k="addr:housenumber" v="190"/>
    <tag k="addr:street" v="Burnt Hill Road"/>
    <tag k="addr:state" v="VT"/>
    <tag k="ref:vcgi:esiteid" v="202083"/>
  </node>
  <node id="-373" visible="true" lat="43.95626153" lon="-72.9830619">
    <tag k="addr:city" v="Ripton"/>
    <tag k="addr:housenumber" v="689"/>
    <tag k="addr:street" v="Steam Mill Road"/>
    <tag k="addr:state" v="VT"/>
    <tag k="ref:vcgi:esiteid" v="202085"/>
  </node>
  <node id="-382" visible="true" lat="43.95464268" lon="-72.97631487">
    <tag k="addr:city" v="Ripton"/>
    <tag k="addr:housenumber" v="823"/>
    <tag k="addr:street" v="Deacon Hill Road"/>
    <tag k="addr:state" v="VT"/>
    <tag k="ref:vcgi:esiteid" v="202096"/>
  </node>
  <node id="-395" visible="true" lat="43.95394293" lon="-72.9790897">
    <tag k="addr:city" v="Ripton"/>
    <tag k="addr:housenumber" v="446"/>
    <tag k="addr:street" v="Deacon Hill Road"/>
    <tag k="addr:state" v="VT"/>
    <tag k="ref:vcgi:esiteid" v="202112"/>
  </node>
  <node id="-406" visible="true" lat="43.95120439" lon="-72.97928019">
    <tag k="addr:city" v="Ripton"/>
    <tag k="addr:housenumber" v="47"/>
    <tag k="addr:street" v="Scott Road"/>
    <tag k="addr:state" v="VT"/>
    <tag k="ref:vcgi:esiteid" v="202125"/>
  </node>
  <node id="-407" visible="true" lat="43.95103083" lon="-72.97424713">
    <tag k="addr:city" v="Ripton"/>
    <tag k="addr:housenumber" v="322"/>
    <tag k="addr:street" v="Scott Road"/>
    <tag k="addr:state" v="VT"/>
    <tag k="ref:vcgi:esiteid" v="202126"/>
  </node>
  <node id="-408" visible="true" lat="43.95095019" lon="-72.97376561">
    <tag k="addr:city" v="Ripton"/>
    <tag k="addr:housenumber" v="348"/>
    <tag k="addr:street" v="Scott Road"/>
    <tag k="addr:state" v="VT"/>
    <tag k="ref:vcgi:esiteid" v="202127"/>
  </node>
  <node id="-409" visible="true" lat="43.94963569" lon="-72.97124088">
    <tag k="addr:city" v="Ripton"/>
    <tag k="addr:housenumber" v="498"/>
    <tag k="addr:street" v="Scott Road"/>
    <tag k="addr:state" v="VT"/>
    <tag k="ref:vcgi:esiteid" v="202128"/>
  </node>
  <node id="-410" visible="true" lat="43.94838805" lon="-72.98314756">
    <tag k="addr:city" v="Ripton"/>
    <tag k="addr:housenumber" v="13"/>
    <tag k="addr:street" v="Brooks Road"/>
    <tag k="addr:state" v="VT"/>
    <tag k="ref:vcgi:esiteid" v="202129"/>
  </node>
  <node id="-412" visible="true" lat="43.9457583" lon="-72.98500172">
    <tag k="addr:city" v="Ripton"/>
    <tag k="addr:housenumber" v="187"/>
    <tag k="addr:street" v="Brooks Road"/>
    <tag k="addr:state" v="VT"/>
    <tag k="ref:vcgi:esiteid" v="202131"/>
  </node>
  <node id="-413" visible="true" lat="43.94468509" lon="-73.02215354">
    <tag k="addr:city" v="Ripton"/>
    <tag k="addr:housenumber" v="110"/>
    <tag k="addr:street" v="Old Goshen Road"/>
    <tag k="addr:state" v="VT"/>
    <tag k="ref:vcgi:esiteid" v="202132"/>
  </node>
  <node id="-414" visible="true" lat="43.94287109" lon="-73.02341461">
    <tag k="addr:city" v="Ripton"/>
    <tag k="addr:housenumber" v="1620"/>
    <tag k="addr:street" v="Goshen Road"/>
    <tag k="addr:state" v="VT"/>
    <tag k="ref:vcgi:esiteid" v="202133"/>
  </node>
  <node id="-415" visible="true" lat="43.94202036" lon="-73.02279893">
    <tag k="addr:city" v="Ripton"/>
    <tag k="addr:housenumber" v="1738"/>
    <tag k="addr:street" v="Goshen Road"/>
    <tag k="addr:state" v="VT"/>
    <tag k="ref:vcgi:esiteid" v="202134"/>
  </node>
  <node id="-416" visible="true" lat="43.94189585" lon="-73.02326272">
    <tag k="addr:city" v="Ripton"/>
    <tag k="addr:housenumber" v="1740"/>
    <tag k="addr:street" v="Goshen Road"/>
    <tag k="addr:state" v="VT"/>
    <tag k="ref:vcgi:esiteid" v="202135"/>
  </node>
  <node id="-417" visible="true" lat="43.93265357" lon="-73.0197057">
    <tag k="addr:city" v="Ripton"/>
    <tag k="addr:housenumber" v="2383"/>
    <tag k="addr:street" v="Goshen Road"/>
    <tag k="addr:state" v="VT"/>
    <tag k="ref:vcgi:esiteid" v="202136"/>
  </node>
  <node id="-428" visible="true" lat="43.99004513" lon="-73.05954861">
    <tag k="addr:city" v="Ripton"/>
    <tag k="addr:housenumber" v="594"/>
    <tag k="addr:street" v="Dragon Brook Road"/>
    <tag k="addr:state" v="VT"/>
    <tag k="ref:vcgi:esiteid" v="202147"/>
  </node>
  <node id="-432" visible="true" lat="43.98487518" lon="-72.99551897">
    <tag k="addr:city" v="Ripton"/>
    <tag k="addr:housenumber" v="210"/>
    <tag k="addr:street" v="Elzira Winter Road"/>
    <tag k="addr:state" v="VT"/>
    <tag k="ref:vcgi:esiteid" v="202151"/>
  </node>
  <node id="-433" visible="true" lat="43.98667375" lon="-72.99604512">
    <tag k="addr:city" v="Ripton"/>
    <tag k="addr:housenumber" v="289"/>
    <tag k="addr:street" v="Elzira Winter Road"/>
    <tag k="addr:state" v="VT"/>
    <tag k="ref:vcgi:esiteid" v="202153"/>
  </node>
  <node id="-444" visible="true" lat="43.97125181" lon="-73.02762629">
    <tag k="addr:city" v="Ripton"/>
    <tag k="addr:housenumber" v="555"/>
    <tag k="addr:street" v="Maiden Lane"/>
    <tag k="addr:state" v="VT"/>
    <tag k="ref:vcgi:esiteid" v="202165"/>
  </node>
  <node id="-449" visible="true" lat="43.97313422" lon="-73.02907991">
    <tag k="addr:city" v="Ripton"/>
    <tag k="addr:housenumber" v="150"/>
    <tag k="addr:street" v="Wimett Lane"/>
    <tag k="addr:state" v="VT"/>
    <tag k="ref:vcgi:esiteid" v="202172"/>
  </node>
  <node id="-450" visible="true" lat="43.97192772" lon="-73.02841463">
    <tag k="addr:city" v="Ripton"/>
    <tag k="addr:housenumber" v="125"/>
    <tag k="addr:street" v="Wimett Lane"/>
    <tag k="addr:state" v="VT"/>
    <tag k="ref:vcgi:esiteid" v="202173"/>
  </node>
  <node id="-452" visible="true" lat="43.97794251" lon="-73.02796532">
    <tag k="addr:city" v="Ripton"/>
    <tag k="addr:housenumber" v="143"/>
    <tag k="addr:street" v="Billings Farm Road"/>
    <tag k="addr:state" v="VT"/>
    <tag k="ref:vcgi:esiteid" v="202175"/>
  </node>
  <node id="-457" visible="true" lat="43.97376103" lon="-73.02719788">
    <tag k="addr:city" v="Ripton"/>
    <tag k="addr:housenumber" v="24"/>
    <tag k="addr:street" v="Wimett Lane"/>
    <tag k="addr:state" v="VT"/>
    <tag k="ref:vcgi:esiteid" v="317965"/>
  </node>
  <node id="-459" visible="true" lat="43.970741" lon="-73.02535456">
    <tag k="addr:city" v="Ripton"/>
    <tag k="addr:housenumber" v="514"/>
    <tag k="addr:street" v="Maiden Lane"/>
    <tag k="addr:state" v="VT"/>
    <tag k="ref:vcgi:esiteid" v="339055"/>
  </node>
  <node id="-461" visible="true" lat="43.94664051" lon="-72.98646638">
    <tag k="addr:city" v="Ripton"/>
    <tag k="addr:housenumber" v="208"/>
    <tag k="addr:street" v="Brooks Road"/>
    <tag k="addr:state" v="VT"/>
    <tag k="ref:vcgi:esiteid" v="339232"/>
  </node>
  <node id="-462" visible="true" lat="43.94634625" lon="-72.98589692">
    <tag k="addr:city" v="Ripton"/>
    <tag k="addr:housenumber" v="218"/>
    <tag k="addr:street" v="Brooks Road"/>
    <tag k="addr:state" v="VT"/>
    <tag k="ref:vcgi:esiteid" v="339233"/>
  </node>
  <node id="-467" visible="true" lat="43.97081477" lon="-73.02711306">
    <tag k="addr:city" v="Ripton"/>
    <tag k="addr:housenumber" v="551"/>
    <tag k="addr:street" v="Maiden Lane"/>
    <tag k="addr:state" v="VT"/>
    <tag k="ref:vcgi:esiteid" v="343472"/>
  </node>
  <node id="-474" visible="true" lat="43.93947728" lon="-73.02136233">
    <tag k="addr:city" v="Ripton"/>
    <tag k="addr:housenumber" v="1905"/>
    <tag k="addr:street" v="Goshen Road"/>
    <tag k="addr:state" v="VT"/>
    <tag k="ref:vcgi:esiteid" v="450373"/>
  </node>
  <node id="-481" visible="true" lat="43.95985956" lon="-72.9782265">
    <tag k="addr:city" v="Ripton"/>
    <tag k="addr:housenumber" v="1062"/>
    <tag k="addr:street" v="Steam Mill Road"/>
    <tag k="addr:state" v="VT"/>
    <tag k="ref:vcgi:esiteid" v="450392"/>
  </node>
  <node id="-482" visible="true" lat="43.96002778" lon="-72.9781966">
    <tag k="addr:city" v="Ripton"/>
    <tag k="addr:housenumber" v="1074"/>
    <tag k="addr:street" v="Steam Mill Road"/>
    <tag k="addr:state" v="VT"/>
    <tag k="ref:vcgi:esiteid" v="450393"/>
  </node>
  <node id="-483" visible="true" lat="43.99225332" lon="-72.96576901">
    <tag k="addr:city" v="Ripton"/>
    <tag k="addr:housenumber" v="3622"/>
    <tag k="addr:street" v="Steam Mill Road"/>
    <tag k="addr:state" v="VT"/>
    <tag k="ref:vcgi:esiteid" v="450395"/>
  </node>
  <node id="-484" visible="true" lat="43.9922399" lon="-72.96588573">
    <tag k="addr:city" v="Ripton"/>
    <tag k="addr:housenumber" v="3624"/>
    <tag k="addr:street" v="Steam Mill Road"/>
    <tag k="addr:state" v="VT"/>
    <tag k="ref:vcgi:esiteid" v="450397"/>
  </node>
  <node id="-491" visible="true" lat="44.02567464" lon="-72.95377909">
    <tag k="addr:city" v="Ripton"/>
    <tag k="addr:housenumber" v="704"/>
    <tag k="addr:street" v="Barrows Road"/>
    <tag k="addr:state" v="VT"/>
    <tag k="ref:vcgi:esiteid" v="618081"/>
  </node>
  <node id="-492" visible="true" lat="43.9996316" lon="-72.9810153">
    <tag k="addr:city" v="Ripton"/>
    <tag k="addr:housenumber" v="3890"/>
    <tag k="addr:street" v="Natural Turnpike"/>
    <tag k="addr:state" v="VT"/>
    <tag k="ref:vcgi:esiteid" v="620432"/>
  </node>
  <node id="-493" visible="true" lat="44.00396643" lon="-72.97250767">
    <tag k="addr:city" v="Ripton"/>
    <tag k="addr:housenumber" v="3892"/>
    <tag k="addr:street" v="Natural Turnpike"/>
    <tag k="addr:state" v="VT"/>
    <tag k="ref:vcgi:esiteid" v="620433"/>
  </node>
  <node id="-501" visible="true" lat="43.94568462" lon="-73.02340694">
    <tag k="addr:city" v="Ripton"/>
    <tag k="addr:housenumber" v="175"/>
    <tag k="addr:street" v="Old Goshen Road"/>
    <tag k="addr:state" v="VT"/>
    <tag k="ref:vcgi:esiteid" v="757464"/>
  </node>
  <node id="-502" visible="true" lat="43.94528808" lon="-73.02319848">
    <tag k="addr:city" v="Ripton"/>
    <tag k="addr:housenumber" v="145"/>
    <tag k="addr:street" v="Old Goshen Road"/>
    <tag k="addr:state" v="VT"/>
    <tag k="ref:vcgi:esiteid" v="757467"/>
  </node>
  <node id="-531" visible="true" lat="43.95673918" lon="-73.00260811">
    <tag k="addr:city" v="Ripton"/>
    <tag k="addr:housenumber" v="3708"/>
    <tag k="addr:street" v="Vermont Route 125"/>
    <tag k="addr:state" v="VT"/>
    <tag k="ref:vcgi:esiteid" v="800156"/>
  </node>
  <node id="-535" visible="true" lat="43.9925" lon="-72.96633">
    <tag k="addr:city" v="Ripton"/>
    <tag k="addr:housenumber" v="3646"/>
    <tag k="addr:street" v="Steam Mill Road"/>
    <tag k="addr:state" v="VT"/>
    <tag k="ref:vcgi:esiteid" v="1050409"/>
  </node>
</osm>
