<?xml version="1.0" encoding="UTF-8"?>
<osm version="0.6" generator="JOSM" upload="false">
  <node id="-100" visible="true" lat="43.23547099" lon="-72.53908486">
    <tag k="addr:housenumber" v="251"/>
    <tag k="addr:street" v="Lower Bartonsville Road"/>
    <tag k="addr:state" v="VT"/>
    <tag k="ref:vcgi:esiteid" v="202992"/>
  </node>
  <node id="-101" visible="true" lat="43.23529386" lon="-72.53993226">
    <tag k="addr:housenumber" v="252"/>
    <tag k="addr:street" v="Lower Bartonsville Road"/>
    <tag k="addr:state" v="VT"/>
    <tag k="ref:vcgi:esiteid" v="202993"/>
  </node>
  <node id="-103" visible="true" lat="43.23509121" lon="-72.53907433">
    <tag k="addr:housenumber" v="249"/>
    <tag k="addr:street" v="Lower Bartonsville Road"/>
    <tag k="addr:state" v="VT"/>
    <tag k="ref:vcgi:esiteid" v="202995"/>
  </node>
  <node id="-105" visible="true" lat="43.23461484" lon="-72.53923035">
    <tag k="addr:housenumber" v="243"/>
    <tag k="addr:street" v="Lower Bartonsville Road"/>
    <tag k="addr:state" v="VT"/>
    <tag k="ref:vcgi:esiteid" v="202997"/>
  </node>
  <node id="-106" visible="true" lat="43.2344691" lon="-72.54083291">
    <tag k="addr:housenumber" v="15"/>
    <tag k="addr:street" v="Green Mountain Turnpike"/>
    <tag k="addr:state" v="VT"/>
    <tag k="ref:vcgi:esiteid" v="202998"/>
  </node>
  <node id="-107" visible="true" lat="43.23401212" lon="-72.53968049">
    <tag k="addr:housenumber" v="234"/>
    <tag k="addr:street" v="Lower Bartonsville Road"/>
    <tag k="addr:state" v="VT"/>
    <tag k="ref:vcgi:esiteid" v="202999"/>
  </node>
  <node id="-108" visible="true" lat="43.23394346" lon="-72.54207612">
    <tag k="addr:housenumber" v="33"/>
    <tag k="addr:street" v="Green Mountain Turnpike"/>
    <tag k="addr:state" v="VT"/>
    <tag k="ref:vcgi:esiteid" v="203000"/>
  </node>
  <node id="-110" visible="true" lat="43.23339795" lon="-72.53945923">
    <tag k="addr:housenumber" v="226"/>
    <tag k="addr:street" v="Lower Bartonsville Road"/>
    <tag k="addr:state" v="VT"/>
    <tag k="ref:vcgi:esiteid" v="203002"/>
  </node>
  <node id="-111" visible="true" lat="43.23332353" lon="-72.54100439">
    <tag k="addr:housenumber" v="2"/>
    <tag k="addr:street" v="Rocky Road"/>
    <tag k="addr:state" v="VT"/>
    <tag k="ref:vcgi:esiteid" v="203003"/>
  </node>
  <node id="-112" visible="true" lat="43.2333064" lon="-72.53853608">
    <tag k="addr:housenumber" v="217"/>
    <tag k="addr:street" v="Lower Bartonsville Road"/>
    <tag k="addr:state" v="VT"/>
    <tag k="ref:vcgi:esiteid" v="203004"/>
  </node>
  <node id="-113" visible="true" lat="43.2332797" lon="-72.53774262">
    <tag k="addr:housenumber" v="215"/>
    <tag k="addr:street" v="Lower Bartonsville Road"/>
    <tag k="addr:state" v="VT"/>
    <tag k="ref:vcgi:esiteid" v="203005"/>
  </node>
  <node id="-116" visible="true" lat="43.2326579" lon="-72.53557587">
    <tag k="addr:housenumber" v="39"/>
    <tag k="addr:street" v="Gowing Road"/>
    <tag k="addr:state" v="VT"/>
    <tag k="ref:vcgi:esiteid" v="203008"/>
  </node>
  <node id="-119" visible="true" lat="43.23221158" lon="-72.53807068">
    <tag k="addr:housenumber" v="197"/>
    <tag k="addr:street" v="Lower Bartonsville Road"/>
    <tag k="addr:state" v="VT"/>
    <tag k="ref:vcgi:esiteid" v="203011"/>
  </node>
  <node id="-122" visible="true" lat="43.23199414" lon="-72.54074097">
    <tag k="addr:housenumber" v="24"/>
    <tag k="addr:street" v="Rocky Road"/>
    <tag k="addr:state" v="VT"/>
    <tag k="ref:vcgi:esiteid" v="203014"/>
  </node>
  <node id="-124" visible="true" lat="43.23185682" lon="-72.5383606">
    <tag k="addr:housenumber" v="200"/>
    <tag k="addr:street" v="Lower Bartonsville Road"/>
    <tag k="addr:state" v="VT"/>
    <tag k="ref:vcgi:esiteid" v="203016"/>
  </node>
  <node id="-130" visible="true" lat="43.23124265" lon="-72.54138947">
    <tag k="addr:housenumber" v="50"/>
    <tag k="addr:street" v="Rocky Road"/>
    <tag k="addr:state" v="VT"/>
    <tag k="ref:vcgi:esiteid" v="203022"/>
  </node>
  <node id="-131" visible="true" lat="43.23113965" lon="-72.53743744">
    <tag k="addr:housenumber" v="185"/>
    <tag k="addr:street" v="Lower Bartonsville Road"/>
    <tag k="addr:state" v="VT"/>
    <tag k="ref:vcgi:esiteid" v="203023"/>
  </node>
  <node id="-139" visible="true" lat="43.23011731" lon="-72.5371399">
    <tag k="addr:housenumber" v="169"/>
    <tag k="addr:street" v="Lower Bartonsville Road"/>
    <tag k="addr:state" v="VT"/>
    <tag k="ref:vcgi:esiteid" v="203031"/>
  </node>
  <node id="-141" visible="true" lat="43.22994565" lon="-72.53753663">
    <tag k="addr:housenumber" v="170"/>
    <tag k="addr:street" v="Lower Bartonsville Road"/>
    <tag k="addr:state" v="VT"/>
    <tag k="ref:vcgi:esiteid" v="203033"/>
  </node>
  <node id="-144" visible="true" lat="43.22935437" lon="-72.53694153">
    <tag k="addr:housenumber" v="159"/>
    <tag k="addr:street" v="Lower Bartonsville Road"/>
    <tag k="addr:state" v="VT"/>
    <tag k="ref:vcgi:esiteid" v="203036"/>
  </node>
  <node id="-145" visible="true" lat="43.22935056" lon="-72.53730011">
    <tag k="addr:housenumber" v="160"/>
    <tag k="addr:street" v="Lower Bartonsville Road"/>
    <tag k="addr:state" v="VT"/>
    <tag k="ref:vcgi:esiteid" v="203037"/>
  </node>
  <node id="-149" visible="true" lat="43.22896528" lon="-72.53679657">
    <tag k="addr:housenumber" v="153"/>
    <tag k="addr:street" v="Lower Bartonsville Road"/>
    <tag k="addr:state" v="VT"/>
    <tag k="ref:vcgi:esiteid" v="203041"/>
  </node>
  <node id="-151" visible="true" lat="43.22889661" lon="-72.53707123">
    <tag k="addr:housenumber" v="154"/>
    <tag k="addr:street" v="Lower Bartonsville Road"/>
    <tag k="addr:state" v="VT"/>
    <tag k="ref:vcgi:esiteid" v="203043"/>
  </node>
  <node id="-157" visible="true" lat="43.22840833" lon="-72.5364914">
    <tag k="addr:housenumber" v="143"/>
    <tag k="addr:street" v="Lower Bartonsville Road"/>
    <tag k="addr:state" v="VT"/>
    <tag k="ref:vcgi:esiteid" v="203049"/>
  </node>
  <node id="-159" visible="true" lat="43.22833204" lon="-72.53687287">
    <tag k="addr:housenumber" v="144"/>
    <tag k="addr:street" v="Lower Bartonsville Road"/>
    <tag k="addr:state" v="VT"/>
    <tag k="ref:vcgi:esiteid" v="203051"/>
  </node>
  <node id="-162" visible="true" lat="43.22779035" lon="-72.53498841">
    <tag k="addr:housenumber" v="135"/>
    <tag k="addr:street" v="Lower Bartonsville Road"/>
    <tag k="addr:state" v="VT"/>
    <tag k="ref:vcgi:esiteid" v="203054"/>
  </node>
  <node id="-167" visible="true" lat="43.22701215" lon="-72.53620911">
    <tag k="addr:housenumber" v="124"/>
    <tag k="addr:street" v="Lower Bartonsville Road"/>
    <tag k="addr:state" v="VT"/>
    <tag k="ref:vcgi:esiteid" v="203059"/>
  </node>
  <node id="-169" visible="true" lat="43.22689819" lon="-72.54116058">
    <tag k="addr:housenumber" v="1987"/>
    <tag k="addr:street" v="Rockingham Road"/>
    <tag k="addr:state" v="VT"/>
    <tag k="ref:vcgi:esiteid" v="203061"/>
  </node>
  <node id="-172" visible="true" lat="43.22660823" lon="-72.53527938">
    <tag k="addr:housenumber" v="3"/>
    <tag k="addr:street" v="Eldredge Road"/>
    <tag k="addr:state" v="VT"/>
    <tag k="ref:vcgi:esiteid" v="203064"/>
  </node>
  <node id="-173" visible="true" lat="43.22653531" lon="-72.53598023">
    <tag k="addr:housenumber" v="118"/>
    <tag k="addr:street" v="Lower Bartonsville Road"/>
    <tag k="addr:state" v="VT"/>
    <tag k="ref:vcgi:esiteid" v="203065"/>
  </node>
  <node id="-175" visible="true" lat="43.22639036" lon="-72.53589631">
    <tag k="addr:housenumber" v="116"/>
    <tag k="addr:street" v="Lower Bartonsville Road"/>
    <tag k="addr:state" v="VT"/>
    <tag k="ref:vcgi:esiteid" v="203067"/>
  </node>
  <node id="-178" visible="true" lat="43.22588682" lon="-72.53581238">
    <tag k="addr:housenumber" v="108"/>
    <tag k="addr:street" v="Lower Bartonsville Road"/>
    <tag k="addr:state" v="VT"/>
    <tag k="ref:vcgi:esiteid" v="203070"/>
  </node>
  <node id="-184" visible="true" lat="43.22526062" lon="-72.53640693">
    <tag k="addr:housenumber" v="96"/>
    <tag k="addr:street" v="Lower Bartonsville Road"/>
    <tag k="addr:state" v="VT"/>
    <tag k="ref:vcgi:esiteid" v="203076"/>
  </node>
  <node id="-193" visible="true" lat="43.22428846" lon="-72.53563691">
    <tag k="addr:housenumber" v="81"/>
    <tag k="addr:street" v="Lower Bartonsville Road"/>
    <tag k="addr:state" v="VT"/>
    <tag k="ref:vcgi:esiteid" v="203085"/>
  </node>
  <node id="-211" visible="true" lat="43.2230072" lon="-72.54306793">
    <tag k="addr:housenumber" v="25"/>
    <tag k="addr:street" v="Jackson Road"/>
    <tag k="addr:state" v="VT"/>
    <tag k="ref:vcgi:esiteid" v="203103"/>
  </node>
  <node id="-385" visible="true" lat="43.19726562" lon="-72.50498199">
    <tag k="addr:housenumber" v="1292"/>
    <tag k="addr:street" v="Rockingham Road"/>
    <tag k="addr:state" v="VT"/>
    <tag k="ref:vcgi:esiteid" v="203280"/>
  </node>
  <node id="-392" visible="true" lat="43.19351148" lon="-72.49703955">
    <tag k="addr:housenumber" v="1"/>
    <tag k="addr:street" v="Whiting Road"/>
    <tag k="addr:state" v="VT"/>
    <tag k="ref:vcgi:esiteid" v="203287"/>
  </node>
  <node id="-394" visible="true" lat="43.19316101" lon="-72.49320983">
    <tag k="addr:housenumber" v="1153"/>
    <tag k="addr:street" v="Rockingham Road"/>
    <tag k="addr:state" v="VT"/>
    <tag k="ref:vcgi:esiteid" v="203289"/>
  </node>
  <node id="-398" visible="true" lat="43.1913681" lon="-72.4910202">
    <tag k="addr:housenumber" v="39"/>
    <tag k="addr:street" v="Meeting House Road"/>
    <tag k="addr:state" v="VT"/>
    <tag k="ref:vcgi:esiteid" v="203293"/>
  </node>
  <node id="-402" visible="true" lat="43.19050216" lon="-72.49100494">
    <tag k="addr:housenumber" v="35"/>
    <tag k="addr:street" v="Meeting House Road"/>
    <tag k="addr:state" v="VT"/>
    <tag k="ref:vcgi:esiteid" v="203297"/>
  </node>
  <node id="-404" visible="true" lat="43.18940353" lon="-72.4917984">
    <tag k="addr:housenumber" v="34"/>
    <tag k="addr:street" v="Meeting House Road"/>
    <tag k="addr:state" v="VT"/>
    <tag k="ref:vcgi:esiteid" v="203299"/>
  </node>
  <node id="-406" visible="true" lat="43.18910217" lon="-72.49058532">
    <tag k="addr:housenumber" v="29"/>
    <tag k="addr:street" v="Meeting House Road"/>
    <tag k="addr:state" v="VT"/>
    <tag k="ref:vcgi:esiteid" v="203301"/>
  </node>
  <node id="-408" visible="true" lat="43.18825531" lon="-72.49085998">
    <tag k="addr:housenumber" v="30"/>
    <tag k="addr:street" v="Meeting House Road"/>
    <tag k="addr:state" v="VT"/>
    <tag k="ref:vcgi:esiteid" v="203303"/>
  </node>
  <node id="-409" visible="true" lat="43.1882019" lon="-72.48968505">
    <tag k="addr:housenumber" v="25"/>
    <tag k="addr:street" v="Meeting House Road"/>
    <tag k="addr:state" v="VT"/>
    <tag k="ref:vcgi:esiteid" v="203304"/>
  </node>
  <node id="-410" visible="true" lat="43.18811005" lon="-72.48899105">
    <tag k="addr:housenumber" v="19"/>
    <tag k="addr:street" v="Meeting House Road"/>
    <tag k="addr:state" v="VT"/>
    <tag k="ref:vcgi:esiteid" v="203305"/>
  </node>
  <node id="-412" visible="true" lat="43.18786621" lon="-72.48802947">
    <tag k="addr:housenumber" v="15"/>
    <tag k="addr:street" v="Meeting House Road"/>
    <tag k="addr:state" v="VT"/>
    <tag k="ref:vcgi:esiteid" v="203307"/>
  </node>
  <node id="-413" visible="true" lat="43.18776321" lon="-72.48763275">
    <tag k="addr:housenumber" v="13"/>
    <tag k="addr:street" v="Meeting House Road"/>
    <tag k="addr:state" v="VT"/>
    <tag k="ref:vcgi:esiteid" v="203308"/>
  </node>
  <node id="-414" visible="true" lat="43.18772888" lon="-72.48615265">
    <tag k="addr:housenumber" v="11"/>
    <tag k="addr:street" v="Meeting House Road"/>
    <tag k="addr:state" v="VT"/>
    <tag k="ref:vcgi:esiteid" v="203309"/>
  </node>
  <node id="-415" visible="true" lat="43.1877098" lon="-72.4894104">
    <tag k="addr:housenumber" v="3"/>
    <tag k="addr:street" v="Rockingham Hill Road"/>
    <tag k="addr:state" v="VT"/>
    <tag k="ref:vcgi:esiteid" v="203310"/>
  </node>
  <node id="-416" visible="true" lat="43.18769836" lon="-72.48403167">
    <tag k="addr:housenumber" v="7"/>
    <tag k="addr:street" v="Meeting House Road"/>
    <tag k="addr:state" v="VT"/>
    <tag k="ref:vcgi:esiteid" v="203311"/>
  </node>
  <node id="-417" visible="true" lat="43.18767929" lon="-72.48475647">
    <tag k="addr:housenumber" v="9"/>
    <tag k="addr:street" v="Meeting House Road"/>
    <tag k="addr:state" v="VT"/>
    <tag k="ref:vcgi:esiteid" v="203312"/>
  </node>
  <node id="-418" visible="true" lat="43.18759155" lon="-72.48323821">
    <tag k="addr:housenumber" v="3"/>
    <tag k="addr:street" v="Meeting House Road"/>
    <tag k="addr:state" v="VT"/>
    <tag k="ref:vcgi:esiteid" v="203313"/>
  </node>
  <node id="-419" visible="true" lat="43.18758773" lon="-72.48899078">
    <tag k="addr:housenumber" v="4"/>
    <tag k="addr:street" v="Rockingham Hill Road"/>
    <tag k="addr:state" v="VT"/>
    <tag k="ref:vcgi:esiteid" v="203314"/>
  </node>
  <node id="-420" visible="true" lat="43.18749999" lon="-72.51248932">
    <tag k="addr:housenumber" v="758"/>
    <tag k="addr:street" v="Pleasant Valley Road"/>
    <tag k="addr:state" v="VT"/>
    <tag k="ref:vcgi:esiteid" v="203315"/>
  </node>
  <node id="-421" visible="true" lat="43.18725204" lon="-72.4835968">
    <tag k="addr:housenumber" v="4"/>
    <tag k="addr:street" v="Meeting House Road"/>
    <tag k="addr:state" v="VT"/>
    <tag k="ref:vcgi:esiteid" v="203316"/>
  </node>
  <node id="-422" visible="true" lat="43.1868019" lon="-72.48050689">
    <tag k="addr:housenumber" v="991"/>
    <tag k="addr:street" v="Rockingham Road"/>
    <tag k="addr:state" v="VT"/>
    <tag k="ref:vcgi:esiteid" v="203317"/>
  </node>
  <node id="-423" visible="true" lat="43.18676757" lon="-72.48971557">
    <tag k="addr:housenumber" v="13"/>
    <tag k="addr:street" v="Rockingham Hill Road"/>
    <tag k="addr:state" v="VT"/>
    <tag k="ref:vcgi:esiteid" v="203318"/>
  </node>
  <node id="-424" visible="true" lat="43.18603134" lon="-72.48078155">
    <tag k="addr:housenumber" v="990"/>
    <tag k="addr:street" v="Rockingham Road"/>
    <tag k="addr:state" v="VT"/>
    <tag k="ref:vcgi:esiteid" v="203319"/>
  </node>
  <node id="-426" visible="true" lat="43.18550872" lon="-72.47982025">
    <tag k="addr:housenumber" v="970"/>
    <tag k="addr:street" v="Rockingham Road"/>
    <tag k="addr:state" v="VT"/>
    <tag k="ref:vcgi:esiteid" v="203321"/>
  </node>
  <node id="-447" visible="true" lat="43.18349838" lon="-72.47489166">
    <tag k="addr:housenumber" v="75"/>
    <tag k="addr:street" v="Schoolbus Depot Road"/>
    <tag k="addr:state" v="VT"/>
    <tag k="ref:vcgi:esiteid" v="203342"/>
  </node>
  <node id="-452" visible="true" lat="43.18307495" lon="-72.4738388">
    <tag k="addr:housenumber" v="71"/>
    <tag k="addr:street" v="Schoolbus Depot Road"/>
    <tag k="addr:state" v="VT"/>
    <tag k="ref:vcgi:esiteid" v="203347"/>
  </node>
  <node id="-456" visible="true" lat="43.18295288" lon="-72.51368713">
    <tag k="addr:housenumber" v="688"/>
    <tag k="addr:street" v="Pleasant Valley Road"/>
    <tag k="addr:state" v="VT"/>
    <tag k="ref:vcgi:esiteid" v="203351"/>
  </node>
  <node id="-483" visible="true" lat="43.18216323" lon="-72.47294616">
    <tag k="addr:housenumber" v="49"/>
    <tag k="addr:street" v="Schoolbus Depot Road"/>
    <tag k="addr:state" v="VT"/>
    <tag k="ref:vcgi:esiteid" v="203378"/>
  </node>
  <node id="-486" visible="true" lat="43.18187713" lon="-72.45979308">
    <tag k="addr:housenumber" v="79"/>
    <tag k="addr:street" v="Missing Link Road"/>
    <tag k="addr:state" v="VT"/>
    <tag k="ref:vcgi:esiteid" v="203381"/>
  </node>
  <node id="-490" visible="true" lat="43.18157959" lon="-72.46051788">
    <tag k="addr:housenumber" v="71"/>
    <tag k="addr:street" v="Missing Link Road"/>
    <tag k="addr:state" v="VT"/>
    <tag k="ref:vcgi:esiteid" v="203385"/>
  </node>
  <node id="-492" visible="true" lat="43.18151093" lon="-72.47205281">
    <tag k="addr:housenumber" v="35"/>
    <tag k="addr:street" v="Schoolbus Depot Road"/>
    <tag k="addr:state" v="VT"/>
    <tag k="ref:vcgi:esiteid" v="203387"/>
  </node>
  <node id="-493" visible="true" lat="43.18150711" lon="-72.4612503">
    <tag k="addr:housenumber" v="66"/>
    <tag k="addr:street" v="Missing Link Road"/>
    <tag k="addr:state" v="VT"/>
    <tag k="ref:vcgi:esiteid" v="203388"/>
  </node>
  <node id="-494" visible="true" lat="43.18113708" lon="-72.46153259">
    <tag k="addr:housenumber" v="60"/>
    <tag k="addr:street" v="Missing Link Road"/>
    <tag k="addr:state" v="VT"/>
    <tag k="ref:vcgi:esiteid" v="203389"/>
  </node>
  <node id="-496" visible="true" lat="43.18106255" lon="-72.47144854">
    <tag k="addr:housenumber" v="23"/>
    <tag k="addr:street" v="Schoolbus Depot Road"/>
    <tag k="addr:state" v="VT"/>
    <tag k="ref:vcgi:esiteid" v="203391"/>
  </node>
  <node id="-498" visible="true" lat="43.18056869" lon="-72.46164703">
    <tag k="addr:housenumber" v="52"/>
    <tag k="addr:street" v="Missing Link Road"/>
    <tag k="addr:state" v="VT"/>
    <tag k="ref:vcgi:esiteid" v="203393"/>
  </node>
  <node id="-502" visible="true" lat="43.17992782" lon="-72.46050262">
    <tag k="addr:housenumber" v="51"/>
    <tag k="addr:street" v="Missing Link Road"/>
    <tag k="addr:state" v="VT"/>
    <tag k="ref:vcgi:esiteid" v="203397"/>
  </node>
  <node id="-503" visible="true" lat="43.1797676" lon="-72.46135711">
    <tag k="addr:housenumber" v="20"/>
    <tag k="addr:street" v="Missing Link Road"/>
    <tag k="addr:state" v="VT"/>
    <tag k="ref:vcgi:esiteid" v="203398"/>
  </node>
  <node id="-504" visible="true" lat="43.17957984" lon="-72.51683173">
    <tag k="addr:housenumber" v="634"/>
    <tag k="addr:street" v="Pleasant Valley Road"/>
    <tag k="addr:state" v="VT"/>
    <tag k="ref:vcgi:esiteid" v="203399"/>
  </node>
  <node id="-507" visible="true" lat="43.17939277" lon="-72.47049183">
    <tag k="addr:housenumber" v="840"/>
    <tag k="addr:street" v="Rockingham Road"/>
    <tag k="addr:state" v="VT"/>
    <tag k="ref:vcgi:esiteid" v="203403"/>
  </node>
  <node id="-508" visible="true" lat="43.17907994" lon="-72.46978598">
    <tag k="addr:housenumber" v="820"/>
    <tag k="addr:street" v="Rockingham Road"/>
    <tag k="addr:state" v="VT"/>
    <tag k="ref:vcgi:esiteid" v="203404"/>
  </node>
  <node id="-510" visible="true" lat="43.17852783" lon="-72.51590728">
    <tag k="addr:housenumber" v="624"/>
    <tag k="addr:street" v="Pleasant Valley Road"/>
    <tag k="addr:state" v="VT"/>
    <tag k="ref:vcgi:esiteid" v="203406"/>
  </node>
  <node id="-524" visible="true" lat="43.17367935" lon="-72.51742553">
    <tag k="addr:housenumber" v="548"/>
    <tag k="addr:street" v="Pleasant Valley Road"/>
    <tag k="addr:state" v="VT"/>
    <tag k="ref:vcgi:esiteid" v="203420"/>
  </node>
  <node id="-528" visible="true" lat="43.17259979" lon="-72.51638794">
    <tag k="addr:housenumber" v="523"/>
    <tag k="addr:street" v="Pleasant Valley Road"/>
    <tag k="addr:state" v="VT"/>
    <tag k="ref:vcgi:esiteid" v="203425"/>
  </node>
  <node id="-690" visible="true" lat="43.14855977" lon="-72.45846408">
    <tag k="addr:housenumber" v="287"/>
    <tag k="addr:street" v="Rockingham Road"/>
    <tag k="addr:state" v="VT"/>
    <tag k="ref:vcgi:esiteid" v="203601"/>
  </node>
  <node id="-805" visible="true" lat="43.13456344" lon="-72.48368835">
    <tag k="addr:housenumber" v="454"/>
    <tag k="addr:street" v="Saxtons River Road"/>
    <tag k="addr:state" v="VT"/>
    <tag k="ref:vcgi:esiteid" v="203899"/>
  </node>
  <node id="-806" visible="true" lat="43.13448715" lon="-72.48196411">
    <tag k="addr:housenumber" v="49"/>
    <tag k="addr:street" v="Barbers Park Road"/>
    <tag k="addr:state" v="VT"/>
    <tag k="ref:vcgi:esiteid" v="203902"/>
  </node>
  <node id="-807" visible="true" lat="43.13438796" lon="-72.48352813">
    <tag k="addr:housenumber" v="452"/>
    <tag k="addr:street" v="Saxtons River Road"/>
    <tag k="addr:state" v="VT"/>
    <tag k="ref:vcgi:esiteid" v="203904"/>
  </node>
  <node id="-810" visible="true" lat="43.13414382" lon="-72.48345184">
    <tag k="addr:housenumber" v="450"/>
    <tag k="addr:street" v="Saxtons River Road"/>
    <tag k="addr:state" v="VT"/>
    <tag k="ref:vcgi:esiteid" v="203910"/>
  </node>
  <node id="-812" visible="true" lat="43.13336181" lon="-72.48351287">
    <tag k="addr:housenumber" v="1"/>
    <tag k="addr:street" v="Ski Bowl Road"/>
    <tag k="addr:state" v="VT"/>
    <tag k="ref:vcgi:esiteid" v="203924"/>
  </node>
  <node id="-815" visible="true" lat="43.13278961" lon="-72.48504638">
    <tag k="addr:housenumber" v="29"/>
    <tag k="addr:street" v="Ski Bowl Road"/>
    <tag k="addr:state" v="VT"/>
    <tag k="ref:vcgi:esiteid" v="203936"/>
  </node>
  <node id="-816" visible="true" lat="43.13272095" lon="-72.48602345">
    <tag k="addr:housenumber" v="37"/>
    <tag k="addr:street" v="Ski Bowl Road"/>
    <tag k="addr:state" v="VT"/>
    <tag k="ref:vcgi:esiteid" v="203938"/>
  </node>
  <node id="-829" visible="true" lat="43.13118362" lon="-72.48596954">
    <tag k="addr:housenumber" v="62"/>
    <tag k="addr:street" v="Ski Bowl Road"/>
    <tag k="addr:state" v="VT"/>
    <tag k="ref:vcgi:esiteid" v="203954"/>
  </node>
  <node id="-834" visible="true" lat="43.13009262" lon="-72.48580932">
    <tag k="addr:housenumber" v="66"/>
    <tag k="addr:street" v="Ski Bowl Road"/>
    <tag k="addr:state" v="VT"/>
    <tag k="ref:vcgi:esiteid" v="203959"/>
  </node>
  <node id="-853" visible="true" lat="43.18096694" lon="-72.47091958">
    <tag k="addr:housenumber" v="19"/>
    <tag k="addr:street" v="Schoolbus Depot Road"/>
    <tag k="addr:state" v="VT"/>
    <tag k="ref:vcgi:esiteid" v="203978"/>
  </node>
  <node id="-883" visible="true" lat="43.1894226" lon="-72.50998687">
    <tag k="addr:housenumber" v="78"/>
    <tag k="addr:street" v="Narrows Road"/>
    <tag k="addr:state" v="VT"/>
    <tag k="ref:vcgi:esiteid" v="204019"/>
  </node>
  <node id="-902" visible="true" lat="43.18463173" lon="-72.51402919">
    <tag k="addr:housenumber" v="696"/>
    <tag k="addr:street" v="Pleasant Valley Road"/>
    <tag k="addr:state" v="VT"/>
    <tag k="ref:vcgi:esiteid" v="204055"/>
  </node>
  <node id="-935" visible="true" lat="43.1879504" lon="-72.48149761">
    <tag k="addr:housenumber" v="999"/>
    <tag k="addr:street" v="Rockingham Road"/>
    <tag k="addr:state" v="VT"/>
    <tag k="ref:vcgi:esiteid" v="313408"/>
  </node>
  <node id="-942" visible="true" lat="43.18266137" lon="-72.51251388">
    <tag k="addr:housenumber" v="691"/>
    <tag k="addr:street" v="Pleasant Valley Road"/>
    <tag k="addr:state" v="VT"/>
    <tag k="ref:vcgi:esiteid" v="326915"/>
  </node>
  <node id="-956" visible="true" lat="43.17100613" lon="-72.45903684">
    <tag k="addr:housenumber" v="706"/>
    <tag k="addr:street" v="Rockingham Road"/>
    <tag k="addr:state" v="VT"/>
    <tag k="ref:vcgi:esiteid" v="337415"/>
  </node>
  <node id="-967" visible="true" lat="43.23164224" lon="-72.53245336">
    <tag k="addr:housenumber" v="32"/>
    <tag k="addr:street" v="Gowing Road"/>
    <tag k="addr:state" v="VT"/>
    <tag k="ref:vcgi:esiteid" v="342340"/>
  </node>
  <node id="-973" visible="true" lat="43.23342687" lon="-72.54233507">
    <tag k="addr:housenumber" v="36"/>
    <tag k="addr:street" v="Green Mountain Turnpike"/>
    <tag k="addr:state" v="VT"/>
    <tag k="ref:vcgi:esiteid" v="345969"/>
  </node>
  <node id="-976" visible="true" lat="43.18736284" lon="-72.51198027">
    <tag k="addr:housenumber" v="759"/>
    <tag k="addr:street" v="Pleasant Valley Road"/>
    <tag k="addr:state" v="VT"/>
    <tag k="ref:vcgi:esiteid" v="345989"/>
  </node>
  <node id="-995" visible="true" lat="43.18062059" lon="-72.47038047">
    <tag k="addr:housenumber" v="9"/>
    <tag k="addr:street" v="Schoolbus Depot Road"/>
    <tag k="addr:state" v="VT"/>
    <tag k="ref:vcgi:esiteid" v="612015"/>
  </node>
  <node id="-1003" visible="true" lat="43.13021419" lon="-72.48323223">
    <tag k="addr:housenumber" v="56"/>
    <tag k="addr:street" v="Ski Bowl Road"/>
    <tag k="addr:state" v="VT"/>
    <tag k="ref:vcgi:esiteid" v="750973"/>
  </node>
  <node id="-1017" visible="true" lat="43.23053848" lon="-72.53812797">
    <tag k="addr:housenumber" v="190"/>
    <tag k="addr:street" v="Lower Bartonsville Road"/>
    <tag k="addr:state" v="VT"/>
    <tag k="ref:vcgi:esiteid" v="759605"/>
  </node>
  <node id="-1021" visible="true" lat="43.23482158" lon="-72.53285548">
    <tag k="addr:housenumber" v="80"/>
    <tag k="addr:street" v="Gowing Road"/>
    <tag k="addr:state" v="VT"/>
    <tag k="ref:vcgi:esiteid" v="759824"/>
  </node>
</osm>
