<?xml version="1.0" encoding="UTF-8"?>
<osm version="0.6" generator="JOSM">
  <node id="-117" visible="true" lat="44.11454737" lon="-72.76960508">
    <tag k="addr:city" v="Roxbury"/>
    <tag k="addr:housenumber" v="2516"/>
    <tag k="addr:street" v="Warren Mountain Road"/>
    <tag k="addr:state" v="VT"/>
    <tag k="ref:vcgi:esiteid" v="205316"/>
  </node>
  <node id="-120" visible="true" lat="44.11316347" lon="-72.76778207">
    <tag k="addr:city" v="Roxbury"/>
    <tag k="addr:housenumber" v="2323"/>
    <tag k="addr:street" v="Warren Mountain Road"/>
    <tag k="addr:state" v="VT"/>
    <tag k="ref:vcgi:esiteid" v="205319"/>
  </node>
  <node id="-126" visible="true" lat="44.11274484" lon="-72.76473364">
    <tag k="addr:city" v="Roxbury"/>
    <tag k="addr:housenumber" v="2160"/>
    <tag k="addr:street" v="Warren Mountain Road"/>
    <tag k="addr:state" v="VT"/>
    <tag k="ref:vcgi:esiteid" v="205325"/>
  </node>
  <node id="-134" visible="true" lat="44.11076197" lon="-72.76101022">
    <tag k="addr:city" v="Roxbury"/>
    <tag k="addr:housenumber" v="1948"/>
    <tag k="addr:street" v="Warren Mountain Road"/>
    <tag k="addr:state" v="VT"/>
    <tag k="ref:vcgi:esiteid" v="205334"/>
  </node>
  <node id="-140" visible="true" lat="44.10971385" lon="-72.75886508">
    <tag k="addr:city" v="Roxbury"/>
    <tag k="addr:housenumber" v="1796"/>
    <tag k="addr:street" v="Warren Mountain Road"/>
    <tag k="addr:state" v="VT"/>
    <tag k="ref:vcgi:esiteid" v="205340"/>
  </node>
  <node id="-142" visible="true" lat="44.10879724" lon="-72.75571696">
    <tag k="addr:city" v="Roxbury"/>
    <tag k="addr:housenumber" v="1662"/>
    <tag k="addr:street" v="Warren Mountain Road"/>
    <tag k="addr:state" v="VT"/>
    <tag k="ref:vcgi:esiteid" v="205342"/>
  </node>
  <node id="-143" visible="true" lat="44.10836094" lon="-72.76372409">
    <tag k="addr:city" v="Roxbury"/>
    <tag k="addr:housenumber" v="262"/>
    <tag k="addr:street" v="Old Warren Road"/>
    <tag k="addr:state" v="VT"/>
    <tag k="ref:vcgi:esiteid" v="205343"/>
  </node>
  <node id="-146" visible="true" lat="44.10789423" lon="-72.75636982">
    <tag k="addr:city" v="Roxbury"/>
    <tag k="addr:housenumber" v="1623"/>
    <tag k="addr:street" v="Warren Mountain Road"/>
    <tag k="addr:state" v="VT"/>
    <tag k="ref:vcgi:esiteid" v="205346"/>
  </node>
  <node id="-150" visible="true" lat="44.10612689" lon="-72.75157482">
    <tag k="addr:city" v="Roxbury"/>
    <tag k="addr:housenumber" v="1354"/>
    <tag k="addr:street" v="Warren Mountain Road"/>
    <tag k="addr:state" v="VT"/>
    <tag k="ref:vcgi:esiteid" v="205350"/>
  </node>
  <node id="-152" visible="true" lat="44.10543973" lon="-72.74584579">
    <!-- match: "160 Dunbars Way, Roxbury, VT"  ignoring street punctuation to "160 Dunbar's Way, Roxbury, VT" -->
    <tag k="addr:city" v="Roxbury"/>
    <tag k="addr:housenumber" v="160"/>
    <tag k="addr:street" v="Dunbars Way"/>
    <tag k="addr:state" v="VT"/>
    <tag k="ref:vcgi:esiteid" v="205352"/>
  </node>
  <node id="-153" visible="true" lat="44.10511719" lon="-72.73230961">
    <tag k="addr:city" v="Roxbury"/>
    <tag k="addr:housenumber" v="215"/>
    <tag k="addr:street" v="Premo Road"/>
    <tag k="addr:state" v="VT"/>
    <tag k="ref:vcgi:esiteid" v="205353"/>
  </node>
  <node id="-155" visible="true" lat="44.10333103" lon="-72.74610486">
    <tag k="addr:city" v="Roxbury"/>
    <tag k="addr:housenumber" v="1038"/>
    <tag k="addr:street" v="Warren Mountain Road"/>
    <tag k="addr:state" v="VT"/>
    <tag k="ref:vcgi:esiteid" v="205355"/>
  </node>
  <node id="-160" visible="true" lat="44.10250279" lon="-72.74789373">
    <tag k="addr:city" v="Roxbury"/>
    <tag k="addr:housenumber" v="1035"/>
    <tag k="addr:street" v="Warren Mountain Road"/>
    <tag k="addr:state" v="VT"/>
    <tag k="ref:vcgi:esiteid" v="205360"/>
  </node>
  <node id="-162" visible="true" lat="44.10184271" lon="-72.74640736">
    <tag k="addr:city" v="Roxbury"/>
    <tag k="addr:housenumber" v="953"/>
    <tag k="addr:street" v="Warren Mountain Road"/>
    <tag k="addr:state" v="VT"/>
    <tag k="ref:vcgi:esiteid" v="205362"/>
  </node>
  <node id="-163" visible="true" lat="44.1013526" lon="-72.7316187">
    <tag k="addr:city" v="Roxbury"/>
    <tag k="addr:housenumber" v="45"/>
    <tag k="addr:street" v="Ellis Road"/>
    <tag k="addr:state" v="VT"/>
    <tag k="ref:vcgi:esiteid" v="205363"/>
  </node>
  <node id="-164" visible="true" lat="44.10110466" lon="-72.74505164">
    <tag k="addr:city" v="Roxbury"/>
    <tag k="addr:housenumber" v="860"/>
    <tag k="addr:street" v="Warren Mountain Road"/>
    <tag k="addr:state" v="VT"/>
    <tag k="ref:vcgi:esiteid" v="205364"/>
  </node>
  <node id="-168" visible="true" lat="44.09877586" lon="-72.66954407">
    <tag k="addr:city" v="Roxbury"/>
    <tag k="addr:housenumber" v="1970"/>
    <tag k="addr:street" v="Winch Hill Road"/>
    <tag k="addr:state" v="VT"/>
    <tag k="ref:vcgi:esiteid" v="205368"/>
  </node>
  <node id="-170" visible="true" lat="44.09866686" lon="-72.73237163">
    <tag k="addr:city" v="Roxbury"/>
    <tag k="addr:housenumber" v="159"/>
    <tag k="addr:street" v="Ellis Road"/>
    <tag k="addr:state" v="VT"/>
    <tag k="ref:vcgi:esiteid" v="205370"/>
  </node>
  <node id="-171" visible="true" lat="44.09840392" lon="-72.74431255">
    <tag k="addr:city" v="Roxbury"/>
    <tag k="addr:housenumber" v="653"/>
    <tag k="addr:street" v="Warren Mountain Road"/>
    <tag k="addr:state" v="VT"/>
    <tag k="ref:vcgi:esiteid" v="205371"/>
  </node>
  <node id="-172" visible="true" lat="44.09813309" lon="-72.74434039">
    <tag k="addr:city" v="Roxbury"/>
    <tag k="addr:housenumber" v="651"/>
    <tag k="addr:street" v="Warren Mountain Road"/>
    <tag k="addr:state" v="VT"/>
    <tag k="ref:vcgi:esiteid" v="205372"/>
  </node>
  <node id="-175" visible="true" lat="44.097574" lon="-72.74412499">
    <tag k="addr:city" v="Roxbury"/>
    <tag k="addr:housenumber" v="635"/>
    <tag k="addr:street" v="Warren Mountain Road"/>
    <tag k="addr:state" v="VT"/>
    <tag k="ref:vcgi:esiteid" v="205375"/>
  </node>
  <node id="-176" visible="true" lat="44.09768384" lon="-72.73143833">
    <tag k="addr:city" v="Roxbury"/>
    <tag k="addr:housenumber" v="1203"/>
    <tag k="addr:street" v="Roxbury Road"/>
    <tag k="addr:state" v="VT"/>
    <tag k="ref:vcgi:esiteid" v="205376"/>
  </node>
  <node id="-177" visible="true" lat="44.09725549" lon="-72.7435487">
    <tag k="addr:city" v="Roxbury"/>
    <tag k="addr:housenumber" v="583"/>
    <tag k="addr:street" v="Warren Mountain Road"/>
    <tag k="addr:state" v="VT"/>
    <tag k="ref:vcgi:esiteid" v="205377"/>
  </node>
  <node id="-178" visible="true" lat="44.0972474" lon="-72.67738109">
    <tag k="addr:city" v="Roxbury"/>
    <tag k="addr:housenumber" v="1517"/>
    <tag k="addr:street" v="Bull Run Road"/>
    <tag k="addr:state" v="VT"/>
    <tag k="ref:vcgi:esiteid" v="205378"/>
  </node>
  <node id="-180" visible="true" lat="44.096907" lon="-72.74199944">
    <tag k="addr:city" v="Roxbury"/>
    <tag k="addr:housenumber" v="530"/>
    <tag k="addr:street" v="Warren Mountain Road"/>
    <tag k="addr:state" v="VT"/>
    <tag k="ref:vcgi:esiteid" v="205380"/>
  </node>
  <node id="-181" visible="true" lat="44.09652843" lon="-72.74158535">
    <tag k="addr:city" v="Roxbury"/>
    <tag k="addr:housenumber" v="478"/>
    <tag k="addr:street" v="Warren Mountain Road"/>
    <tag k="addr:state" v="VT"/>
    <tag k="ref:vcgi:esiteid" v="205381"/>
  </node>
  <node id="-182" visible="true" lat="44.09632498" lon="-72.74105691">
    <tag k="addr:city" v="Roxbury"/>
    <tag k="addr:housenumber" v="476"/>
    <tag k="addr:street" v="Warren Mountain Road"/>
    <tag k="addr:state" v="VT"/>
    <tag k="ref:vcgi:esiteid" v="205382"/>
  </node>
  <node id="-185" visible="true" lat="44.09627385" lon="-72.73126915">
    <tag k="addr:city" v="Roxbury"/>
    <tag k="addr:housenumber" v="1329"/>
    <tag k="addr:street" v="Roxbury Road"/>
    <tag k="addr:state" v="VT"/>
    <tag k="ref:vcgi:esiteid" v="205385"/>
  </node>
  <node id="-186" visible="true" lat="44.09566325" lon="-72.73272079">
    <tag k="addr:city" v="Roxbury"/>
    <tag k="addr:housenumber" v="1340"/>
    <tag k="addr:street" v="Roxbury Road"/>
    <tag k="addr:state" v="VT"/>
    <tag k="ref:vcgi:esiteid" v="205386"/>
  </node>
  <node id="-187" visible="true" lat="44.09544096" lon="-72.73975242">
    <tag k="addr:city" v="Roxbury"/>
    <tag k="addr:housenumber" v="364"/>
    <tag k="addr:street" v="Warren Mountain Road"/>
    <tag k="addr:state" v="VT"/>
    <tag k="ref:vcgi:esiteid" v="205387"/>
  </node>
  <node id="-188" visible="true" lat="44.09515693" lon="-72.73914498">
    <tag k="addr:city" v="Roxbury"/>
    <tag k="addr:housenumber" v="335"/>
    <tag k="addr:street" v="Warren Mountain Road"/>
    <tag k="addr:state" v="VT"/>
    <tag k="ref:vcgi:esiteid" v="205388"/>
  </node>
  <node id="-190" visible="true" lat="44.09455238" lon="-72.73631085">
    <tag k="addr:city" v="Roxbury"/>
    <tag k="addr:housenumber" v="178"/>
    <tag k="addr:street" v="Warren Mountain Road"/>
    <tag k="addr:state" v="VT"/>
    <tag k="ref:vcgi:esiteid" v="205390"/>
  </node>
  <node id="-191" visible="true" lat="44.09472708" lon="-72.73293654">
    <tag k="addr:city" v="Roxbury"/>
    <tag k="addr:housenumber" v="1412"/>
    <tag k="addr:street" v="Roxbury Road"/>
    <tag k="addr:state" v="VT"/>
    <tag k="ref:vcgi:esiteid" v="205391"/>
  </node>
  <node id="-192" visible="true" lat="44.09439497" lon="-72.73672097">
    <tag k="addr:city" v="Roxbury"/>
    <tag k="addr:housenumber" v="199"/>
    <tag k="addr:street" v="Warren Mountain Road"/>
    <tag k="addr:state" v="VT"/>
    <tag k="ref:vcgi:esiteid" v="205392"/>
  </node>
  <node id="-194" visible="true" lat="44.09442324" lon="-72.73603932">
    <tag k="addr:city" v="Roxbury"/>
    <tag k="addr:housenumber" v="162"/>
    <tag k="addr:street" v="Warren Mountain Road"/>
    <tag k="addr:state" v="VT"/>
    <tag k="ref:vcgi:esiteid" v="205394"/>
  </node>
  <node id="-195" visible="true" lat="44.09437083" lon="-72.73308331">
    <tag k="addr:city" v="Roxbury"/>
    <tag k="addr:housenumber" v="1432"/>
    <tag k="addr:street" v="Roxbury Road"/>
    <tag k="addr:state" v="VT"/>
    <tag k="ref:vcgi:esiteid" v="205395"/>
  </node>
  <node id="-197" visible="true" lat="44.09403441" lon="-72.73764805">
    <tag k="addr:city" v="Roxbury"/>
    <tag k="addr:housenumber" v="237"/>
    <tag k="addr:street" v="Warren Mountain Road"/>
    <tag k="addr:state" v="VT"/>
    <tag k="ref:vcgi:esiteid" v="205397"/>
  </node>
  <node id="-198" visible="true" lat="44.09411753" lon="-72.73316769">
    <tag k="addr:city" v="Roxbury"/>
    <tag k="addr:housenumber" v="1452"/>
    <tag k="addr:street" v="Roxbury Road"/>
    <tag k="addr:state" v="VT"/>
    <tag k="ref:vcgi:esiteid" v="205398"/>
  </node>
  <node id="-199" visible="true" lat="44.09358529" lon="-72.67943149">
    <tag k="addr:city" v="Roxbury"/>
    <tag k="addr:housenumber" v="1795"/>
    <tag k="addr:street" v="Bull Run Road"/>
    <tag k="addr:state" v="VT"/>
    <tag k="ref:vcgi:esiteid" v="205399"/>
  </node>
  <node id="-201" visible="true" lat="44.09382928" lon="-72.73226215">
    <tag k="addr:city" v="Roxbury"/>
    <tag k="addr:housenumber" v="1471"/>
    <tag k="addr:street" v="Roxbury Road"/>
    <tag k="addr:state" v="VT"/>
    <tag k="ref:vcgi:esiteid" v="205401"/>
  </node>
  <node id="-202" visible="true" lat="44.09363049" lon="-72.73452536">
    <tag k="addr:city" v="Roxbury"/>
    <tag k="addr:housenumber" v="68"/>
    <tag k="addr:street" v="Warren Mountain Road"/>
    <tag k="addr:state" v="VT"/>
    <tag k="ref:vcgi:esiteid" v="205402"/>
  </node>
  <node id="-203" visible="true" lat="44.09366422" lon="-72.73332016">
    <tag k="addr:city" v="Roxbury"/>
    <tag k="addr:housenumber" v="1484"/>
    <tag k="addr:street" v="Roxbury Road"/>
    <tag k="addr:state" v="VT"/>
    <tag k="ref:vcgi:esiteid" v="205403"/>
  </node>
  <node id="-204" visible="true" lat="44.09359087" lon="-72.73275404">
    <tag k="addr:city" v="Roxbury"/>
    <tag k="addr:housenumber" v="1483"/>
    <tag k="addr:street" v="Roxbury Road"/>
    <tag k="addr:state" v="VT"/>
    <tag k="ref:vcgi:esiteid" v="205404"/>
  </node>
  <node id="-205" visible="true" lat="44.0933077" lon="-72.73433365">
    <tag k="addr:city" v="Roxbury"/>
    <tag k="addr:housenumber" v="59"/>
    <tag k="addr:street" v="Warren Mountain Road"/>
    <tag k="addr:state" v="VT"/>
    <tag k="ref:vcgi:esiteid" v="205405"/>
  </node>
  <node id="-206" visible="true" lat="44.0934273" lon="-72.732899">
    <tag k="addr:city" v="Roxbury"/>
    <tag k="addr:housenumber" v="1491"/>
    <tag k="addr:street" v="Roxbury Road"/>
    <tag k="addr:state" v="VT"/>
    <tag k="ref:vcgi:esiteid" v="205406"/>
  </node>
  <node id="-207" visible="true" lat="44.0934667" lon="-72.73340853">
    <tag k="addr:city" v="Roxbury"/>
    <tag k="addr:housenumber" v="1496"/>
    <tag k="addr:street" v="Roxbury Road"/>
    <tag k="addr:state" v="VT"/>
    <tag k="ref:vcgi:esiteid" v="205407"/>
  </node>
  <node id="-208" visible="true" lat="44.09322258" lon="-72.73294887">
    <tag k="addr:city" v="Roxbury"/>
    <tag k="addr:housenumber" v="19"/>
    <tag k="addr:street" v="Tracy Hill Road"/>
    <tag k="addr:state" v="VT"/>
    <tag k="ref:vcgi:esiteid" v="205408"/>
  </node>
  <node id="-210" visible="true" lat="44.09313162" lon="-72.73212563">
    <tag k="addr:city" v="Roxbury"/>
    <tag k="addr:housenumber" v="35"/>
    <tag k="addr:street" v="Tracy Hill Road"/>
    <tag k="addr:state" v="VT"/>
    <tag k="ref:vcgi:esiteid" v="205410"/>
  </node>
  <node id="-214" visible="true" lat="44.09276417" lon="-72.73364409">
    <tag k="addr:city" v="Roxbury"/>
    <tag k="addr:housenumber" v="1540"/>
    <tag k="addr:street" v="Roxbury Road"/>
    <tag k="addr:state" v="VT"/>
    <tag k="ref:vcgi:esiteid" v="205414"/>
  </node>
  <node id="-218" visible="true" lat="44.09245314" lon="-72.72906236">
    <tag k="addr:city" v="Roxbury"/>
    <tag k="addr:housenumber" v="159"/>
    <tag k="addr:street" v="Tracy Hill Road"/>
    <tag k="addr:state" v="VT"/>
    <tag k="ref:vcgi:esiteid" v="205418"/>
  </node>
  <node id="-219" visible="true" lat="44.09250494" lon="-72.73360782">
    <tag k="addr:city" v="Roxbury"/>
    <tag k="addr:housenumber" v="1556"/>
    <tag k="addr:street" v="Roxbury Road"/>
    <tag k="addr:state" v="VT"/>
    <tag k="ref:vcgi:esiteid" v="205419"/>
  </node>
  <node id="-220" visible="true" lat="44.09240263" lon="-72.73292871">
    <tag k="addr:city" v="Roxbury"/>
    <tag k="addr:housenumber" v="1559"/>
    <tag k="addr:street" v="Roxbury Road"/>
    <tag k="addr:state" v="VT"/>
    <tag k="ref:vcgi:esiteid" v="205420"/>
  </node>
  <node id="-224" visible="true" lat="44.09210691" lon="-72.73322651">
    <tag k="addr:city" v="Roxbury"/>
    <tag k="addr:housenumber" v="1579"/>
    <tag k="addr:street" v="Roxbury Road"/>
    <tag k="addr:state" v="VT"/>
    <tag k="ref:vcgi:esiteid" v="205424"/>
  </node>
  <node id="-226" visible="true" lat="44.09199964" lon="-72.73386477">
    <tag k="addr:city" v="Roxbury"/>
    <tag k="addr:housenumber" v="1592"/>
    <tag k="addr:street" v="Roxbury Road"/>
    <tag k="addr:state" v="VT"/>
    <tag k="ref:vcgi:esiteid" v="205426"/>
  </node>
  <node id="-227" visible="true" lat="44.09205085" lon="-72.7320265">
    <tag k="addr:city" v="Roxbury"/>
    <tag k="addr:housenumber" v="123"/>
    <tag k="addr:street" v="Tracy Hill Road"/>
    <tag k="addr:state" v="VT"/>
    <tag k="ref:vcgi:esiteid" v="205427"/>
  </node>
  <node id="-229" visible="true" lat="44.09201039" lon="-72.73053088">
    <tag k="addr:city" v="Roxbury"/>
    <tag k="addr:housenumber" v="203"/>
    <tag k="addr:street" v="Tracy Hill Road"/>
    <tag k="addr:state" v="VT"/>
    <tag k="ref:vcgi:esiteid" v="205429"/>
  </node>
  <node id="-230" visible="true" lat="44.09183025" lon="-72.73491261">
    <tag k="addr:city" v="Roxbury"/>
    <tag k="addr:housenumber" v="112"/>
    <tag k="addr:street" v="Town Garage Road"/>
    <tag k="addr:state" v="VT"/>
    <tag k="ref:vcgi:esiteid" v="205430"/>
  </node>
  <node id="-232" visible="true" lat="44.09160445" lon="-72.73340632">
    <tag k="addr:city" v="Roxbury"/>
    <tag k="addr:housenumber" v="1607"/>
    <tag k="addr:street" v="Roxbury Road"/>
    <tag k="addr:state" v="VT"/>
    <tag k="ref:vcgi:esiteid" v="205432"/>
  </node>
  <node id="-235" visible="true" lat="44.09161485" lon="-72.64835063">
    <tag k="addr:city" v="Roxbury"/>
    <tag k="addr:housenumber" v="141"/>
    <tag k="addr:street" v="East Roxbury Road"/>
    <tag k="addr:state" v="VT"/>
    <tag k="ref:vcgi:esiteid" v="205435"/>
  </node>
  <node id="-238" visible="true" lat="44.0914639" lon="-72.73348453">
    <tag k="addr:city" v="Roxbury"/>
    <tag k="addr:housenumber" v="1629"/>
    <tag k="addr:street" v="Roxbury Road"/>
    <tag k="addr:state" v="VT"/>
    <tag k="ref:vcgi:esiteid" v="205438"/>
  </node>
  <node id="-239" visible="true" lat="44.09142389" lon="-72.73177178">
    <tag k="addr:city" v="Roxbury"/>
    <tag k="addr:housenumber" v="150"/>
    <tag k="addr:street" v="Tracy Hill Road"/>
    <tag k="addr:state" v="VT"/>
    <tag k="ref:vcgi:esiteid" v="205439"/>
  </node>
  <node id="-240" visible="true" lat="44.09130625" lon="-72.73644368">
    <tag k="addr:city" v="Roxbury"/>
    <tag k="addr:housenumber" v="130"/>
    <tag k="addr:street" v="Town Garage Road"/>
    <tag k="addr:state" v="VT"/>
    <tag k="ref:vcgi:esiteid" v="205440"/>
  </node>
  <node id="-241" visible="true" lat="44.09124261" lon="-72.73406534">
    <tag k="addr:city" v="Roxbury"/>
    <tag k="addr:housenumber" v="1642"/>
    <tag k="addr:street" v="Roxbury Road"/>
    <tag k="addr:state" v="VT"/>
    <tag k="ref:vcgi:esiteid" v="205441"/>
  </node>
  <node id="-242" visible="true" lat="44.09157912" lon="-72.68136856">
    <tag k="addr:city" v="Roxbury"/>
    <tag k="addr:housenumber" v="2005"/>
    <tag k="addr:street" v="Bull Run Road"/>
    <tag k="addr:state" v="VT"/>
    <tag k="ref:vcgi:esiteid" v="205442"/>
  </node>
  <node id="-245" visible="true" lat="44.09089261" lon="-72.73362822">
    <tag k="addr:city" v="Roxbury"/>
    <tag k="addr:housenumber" v="1657"/>
    <tag k="addr:street" v="Roxbury Road"/>
    <tag k="addr:state" v="VT"/>
    <tag k="ref:vcgi:esiteid" v="205445"/>
  </node>
  <node id="-247" visible="true" lat="44.0906466" lon="-72.64965225">
    <tag k="addr:city" v="Roxbury"/>
    <tag k="addr:housenumber" v="158"/>
    <tag k="addr:street" v="East Roxbury Road"/>
    <tag k="addr:state" v="VT"/>
    <tag k="ref:vcgi:esiteid" v="205447"/>
  </node>
  <node id="-248" visible="true" lat="44.09044425" lon="-72.73430009">
    <tag k="addr:city" v="Roxbury"/>
    <tag k="addr:housenumber" v="1708"/>
    <tag k="addr:street" v="Roxbury Road"/>
    <tag k="addr:state" v="VT"/>
    <tag k="ref:vcgi:esiteid" v="205448"/>
  </node>
  <node id="-249" visible="true" lat="44.09052764" lon="-72.73378618">
    <tag k="addr:city" v="Roxbury"/>
    <tag k="addr:housenumber" v="1701"/>
    <tag k="addr:street" v="Roxbury Road"/>
    <tag k="addr:state" v="VT"/>
    <tag k="ref:vcgi:esiteid" v="205449"/>
  </node>
  <node id="-251" visible="true" lat="44.09031807" lon="-72.6720212">
    <tag k="addr:city" v="Roxbury"/>
    <tag k="addr:housenumber" v="2545"/>
    <tag k="addr:street" v="Winch Hill Road"/>
    <tag k="addr:state" v="VT"/>
    <tag k="ref:vcgi:esiteid" v="205452"/>
  </node>
  <node id="-252" visible="true" lat="44.08971034" lon="-72.68175263">
    <tag k="addr:city" v="Roxbury"/>
    <tag k="addr:housenumber" v="3364"/>
    <tag k="addr:street" v="Winch Hill Road"/>
    <tag k="addr:state" v="VT"/>
    <tag k="ref:vcgi:esiteid" v="205453"/>
  </node>
  <node id="-253" visible="true" lat="44.08964766" lon="-72.73450619">
    <tag k="addr:city" v="Roxbury"/>
    <tag k="addr:housenumber" v="1760"/>
    <tag k="addr:street" v="Roxbury Road"/>
    <tag k="addr:state" v="VT"/>
    <tag k="ref:vcgi:esiteid" v="205454"/>
  </node>
  <node id="-254" visible="true" lat="44.08955222" lon="-72.73400337">
    <tag k="addr:city" v="Roxbury"/>
    <tag k="addr:housenumber" v="1765"/>
    <tag k="addr:street" v="Roxbury Road"/>
    <tag k="addr:state" v="VT"/>
    <tag k="ref:vcgi:esiteid" v="205455"/>
  </node>
  <node id="-256" visible="true" lat="44.08928416" lon="-72.7346351">
    <tag k="addr:city" v="Roxbury"/>
    <tag k="addr:housenumber" v="1784"/>
    <tag k="addr:street" v="Roxbury Road"/>
    <tag k="addr:state" v="VT"/>
    <tag k="ref:vcgi:esiteid" v="205457"/>
  </node>
  <node id="-258" visible="true" lat="44.08894245" lon="-72.73406296">
    <tag k="addr:city" v="Roxbury"/>
    <tag k="addr:housenumber" v="1803"/>
    <tag k="addr:street" v="Roxbury Road"/>
    <tag k="addr:state" v="VT"/>
    <tag k="ref:vcgi:esiteid" v="205459"/>
  </node>
  <node id="-259" visible="true" lat="44.08891282" lon="-72.73463291">
    <tag k="addr:city" v="Roxbury"/>
    <tag k="addr:housenumber" v="1808"/>
    <tag k="addr:street" v="Roxbury Road"/>
    <tag k="addr:state" v="VT"/>
    <tag k="ref:vcgi:esiteid" v="205460"/>
  </node>
  <node id="-271" visible="true" lat="44.08749781" lon="-72.64893012">
    <tag k="addr:city" v="Roxbury"/>
    <tag k="addr:housenumber" v="373"/>
    <tag k="addr:street" v="East Roxbury Road"/>
    <tag k="addr:state" v="VT"/>
    <tag k="ref:vcgi:esiteid" v="205472"/>
  </node>
  <node id="-282" visible="true" lat="44.08707706" lon="-72.6511312">
    <tag k="addr:city" v="Roxbury"/>
    <tag k="addr:housenumber" v="48"/>
    <tag k="addr:street" v="Tenney Road"/>
    <tag k="addr:state" v="VT"/>
    <tag k="ref:vcgi:esiteid" v="205483"/>
  </node>
  <node id="-285" visible="true" lat="44.08706186" lon="-72.64903839">
    <tag k="addr:city" v="Roxbury"/>
    <tag k="addr:housenumber" v="447"/>
    <tag k="addr:street" v="East Roxbury Road"/>
    <tag k="addr:state" v="VT"/>
    <tag k="ref:vcgi:esiteid" v="205486"/>
  </node>
  <node id="-290" visible="true" lat="44.08660334" lon="-72.65022377">
    <tag k="addr:city" v="Roxbury"/>
    <tag k="addr:housenumber" v="38"/>
    <tag k="addr:street" v="Tenney Road"/>
    <tag k="addr:state" v="VT"/>
    <tag k="ref:vcgi:esiteid" v="205491"/>
  </node>
  <node id="-294" visible="true" lat="44.08640537" lon="-72.65135775">
    <tag k="addr:city" v="Roxbury"/>
    <tag k="addr:housenumber" v="70"/>
    <tag k="addr:street" v="Tenney Road"/>
    <tag k="addr:state" v="VT"/>
    <tag k="ref:vcgi:esiteid" v="205495"/>
  </node>
  <node id="-296" visible="true" lat="44.08595033" lon="-72.6513346">
    <tag k="addr:city" v="Roxbury"/>
    <tag k="addr:housenumber" v="80"/>
    <tag k="addr:street" v="Tenney Road"/>
    <tag k="addr:state" v="VT"/>
    <tag k="ref:vcgi:esiteid" v="205497"/>
  </node>
  <node id="-301" visible="true" lat="44.0856721" lon="-72.65026768">
    <tag k="addr:city" v="Roxbury"/>
    <tag k="addr:housenumber" v="103"/>
    <tag k="addr:street" v="Tenney Road"/>
    <tag k="addr:state" v="VT"/>
    <tag k="ref:vcgi:esiteid" v="205502"/>
  </node>
  <node id="-303" visible="true" lat="44.08542744" lon="-72.64933284">
    <tag k="addr:city" v="Roxbury"/>
    <tag k="addr:housenumber" v="541"/>
    <tag k="addr:street" v="East Roxbury Road"/>
    <tag k="addr:state" v="VT"/>
    <tag k="ref:vcgi:esiteid" v="205504"/>
  </node>
  <node id="-304" visible="true" lat="44.08543767" lon="-72.65123024">
    <tag k="addr:city" v="Roxbury"/>
    <tag k="addr:housenumber" v="108"/>
    <tag k="addr:street" v="Tenney Road"/>
    <tag k="addr:state" v="VT"/>
    <tag k="ref:vcgi:esiteid" v="205505"/>
  </node>
  <node id="-305" visible="true" lat="44.08512917" lon="-72.65047544">
    <tag k="addr:city" v="Roxbury"/>
    <tag k="addr:housenumber" v="109"/>
    <tag k="addr:street" v="Tenney Road"/>
    <tag k="addr:state" v="VT"/>
    <tag k="ref:vcgi:esiteid" v="205506"/>
  </node>
  <node id="-309" visible="true" lat="44.08425348" lon="-72.64984274">
    <tag k="addr:city" v="Roxbury"/>
    <tag k="addr:housenumber" v="637"/>
    <tag k="addr:street" v="East Roxbury Road"/>
    <tag k="addr:state" v="VT"/>
    <tag k="ref:vcgi:esiteid" v="205510"/>
  </node>
  <node id="-313" visible="true" lat="44.08324115" lon="-72.65746356">
    <tag k="addr:city" v="Roxbury"/>
    <tag k="addr:housenumber" v="830"/>
    <tag k="addr:street" v="East Roxbury Road"/>
    <tag k="addr:state" v="VT"/>
    <tag k="ref:vcgi:esiteid" v="205514"/>
  </node>
  <node id="-320" visible="true" lat="44.0818058" lon="-72.65044102">
    <tag k="addr:city" v="Roxbury"/>
    <tag k="addr:housenumber" v="763"/>
    <tag k="addr:street" v="East Roxbury Road"/>
    <tag k="addr:state" v="VT"/>
    <tag k="ref:vcgi:esiteid" v="205521"/>
  </node>
  <node id="-321" visible="true" lat="44.08142364" lon="-72.64875933">
    <tag k="addr:city" v="Roxbury"/>
    <tag k="addr:housenumber" v="859"/>
    <tag k="addr:street" v="East Roxbury Road"/>
    <tag k="addr:state" v="VT"/>
    <tag k="ref:vcgi:esiteid" v="205522"/>
  </node>
  <node id="-324" visible="true" lat="44.08073126" lon="-72.65248101">
    <tag k="addr:city" v="Roxbury"/>
    <tag k="addr:housenumber" v="113"/>
    <tag k="addr:street" v="Ladd Road"/>
    <tag k="addr:state" v="VT"/>
    <tag k="ref:vcgi:esiteid" v="205525"/>
  </node>
  <node id="-329" visible="true" lat="44.08000073" lon="-72.65162133">
    <tag k="addr:city" v="Roxbury"/>
    <tag k="addr:housenumber" v="46"/>
    <tag k="addr:street" v="Ladd Road"/>
    <tag k="addr:state" v="VT"/>
    <tag k="ref:vcgi:esiteid" v="205530"/>
  </node>
  <node id="-336" visible="true" lat="44.07898178" lon="-72.65264114">
    <tag k="addr:city" v="Roxbury"/>
    <tag k="addr:housenumber" v="49"/>
    <tag k="addr:street" v="Ladd Road"/>
    <tag k="addr:state" v="VT"/>
    <tag k="ref:vcgi:esiteid" v="205537"/>
  </node>
  <node id="-338" visible="true" lat="44.07830531" lon="-72.65047232">
    <tag k="addr:city" v="Roxbury"/>
    <tag k="addr:housenumber" v="1052"/>
    <tag k="addr:street" v="East Roxbury Road"/>
    <tag k="addr:state" v="VT"/>
    <tag k="ref:vcgi:esiteid" v="205539"/>
  </node>
  <node id="-339" visible="true" lat="44.07842724" lon="-72.6506325">
    <tag k="addr:city" v="Roxbury"/>
    <tag k="addr:housenumber" v="1030"/>
    <tag k="addr:street" v="East Roxbury Road"/>
    <tag k="addr:state" v="VT"/>
    <tag k="ref:vcgi:esiteid" v="205540"/>
  </node>
  <node id="-343" visible="true" lat="44.07728275" lon="-72.64931738">
    <tag k="addr:city" v="Roxbury"/>
    <tag k="addr:housenumber" v="30"/>
    <tag k="addr:street" v="Steele Hill Road"/>
    <tag k="addr:state" v="VT"/>
    <tag k="ref:vcgi:esiteid" v="205544"/>
  </node>
  <node id="-483" visible="true" lat="44.10018493" lon="-72.73223424">
    <tag k="addr:city" v="Roxbury"/>
    <tag k="addr:housenumber" v="138"/>
    <tag k="addr:street" v="Ellis Road"/>
    <tag k="addr:state" v="VT"/>
    <tag k="ref:vcgi:esiteid" v="205688"/>
  </node>
  <node id="-484" visible="true" lat="44.10070763" lon="-72.7321309">
    <tag k="addr:city" v="Roxbury"/>
    <tag k="addr:housenumber" v="120"/>
    <tag k="addr:street" v="Ellis Road"/>
    <tag k="addr:state" v="VT"/>
    <tag k="ref:vcgi:esiteid" v="205689"/>
  </node>
  <node id="-485" visible="true" lat="44.10423637" lon="-72.7317007">
    <tag k="addr:city" v="Roxbury"/>
    <tag k="addr:housenumber" v="149"/>
    <tag k="addr:street" v="Premo Road"/>
    <tag k="addr:state" v="VT"/>
    <tag k="ref:vcgi:esiteid" v="205690"/>
  </node>
  <node id="-489" visible="true" lat="44.1021821" lon="-72.73203733">
    <tag k="addr:city" v="Roxbury"/>
    <tag k="addr:housenumber" v="37"/>
    <tag k="addr:street" v="Premo Road"/>
    <tag k="addr:state" v="VT"/>
    <tag k="ref:vcgi:esiteid" v="205694"/>
  </node>
  <node id="-493" visible="true" lat="44.0908596" lon="-72.72976276">
    <tag k="addr:city" v="Roxbury"/>
    <tag k="addr:housenumber" v="286"/>
    <tag k="addr:street" v="Tracy Hill Road"/>
    <tag k="addr:state" v="VT"/>
    <tag k="ref:vcgi:esiteid" v="205698"/>
  </node>
  <node id="-500" visible="true" lat="44.10037065" lon="-72.73209879">
    <tag k="addr:city" v="Roxbury"/>
    <tag k="addr:housenumber" v="134"/>
    <tag k="addr:street" v="Ellis Road"/>
    <tag k="addr:state" v="VT"/>
    <tag k="ref:vcgi:esiteid" v="205705"/>
  </node>
  <node id="-501" visible="true" lat="44.08279188" lon="-72.65137273">
    <tag k="addr:city" v="Roxbury"/>
    <tag k="addr:housenumber" v="38"/>
    <tag k="addr:street" v="McCardell Road"/>
    <tag k="addr:state" v="VT"/>
    <tag k="ref:vcgi:esiteid" v="205706"/>
  </node>
  <node id="-509" visible="true" lat="44.08802422" lon="-72.65086893">
    <tag k="addr:city" v="Roxbury"/>
    <tag k="addr:housenumber" v="44"/>
    <tag k="addr:street" v="Tenney Road"/>
    <tag k="addr:state" v="VT"/>
    <tag k="ref:vcgi:esiteid" v="205714"/>
  </node>
  <node id="-515" visible="true" lat="44.08935023" lon="-72.65014786">
    <tag k="addr:city" v="Roxbury"/>
    <tag k="addr:housenumber" v="318"/>
    <tag k="addr:street" v="East Roxbury Road"/>
    <tag k="addr:state" v="VT"/>
    <tag k="ref:vcgi:esiteid" v="205721"/>
  </node>
  <node id="-517" visible="true" lat="44.09551947" lon="-72.66719045">
    <tag k="addr:city" v="Roxbury"/>
    <tag k="addr:housenumber" v="2069"/>
    <tag k="addr:street" v="Winch Hill Road"/>
    <tag k="addr:state" v="VT"/>
    <tag k="ref:vcgi:esiteid" v="205723"/>
  </node>
  <node id="-526" visible="true" lat="44.09145807" lon="-72.67357626">
    <tag k="addr:city" v="Roxbury"/>
    <tag k="addr:housenumber" v="2630"/>
    <tag k="addr:street" v="Winch Hill Road"/>
    <tag k="addr:state" v="VT"/>
    <tag k="ref:vcgi:esiteid" v="205732"/>
  </node>
  <node id="-533" visible="true" lat="44.09515685" lon="-72.73979844">
    <tag k="addr:city" v="Roxbury"/>
    <tag k="addr:housenumber" v="365"/>
    <tag k="addr:street" v="Warren Mountain Road"/>
    <tag k="addr:state" v="VT"/>
    <tag k="ref:vcgi:esiteid" v="205739"/>
  </node>
  <node id="-537" visible="true" lat="44.09721732" lon="-72.6786826">
    <tag k="addr:city" v="Roxbury"/>
    <tag k="addr:housenumber" v="1598"/>
    <tag k="addr:street" v="Bull Run Road"/>
    <tag k="addr:state" v="VT"/>
    <tag k="ref:vcgi:esiteid" v="205743"/>
  </node>
  <node id="-540" visible="true" lat="44.08824397" lon="-72.64870591">
    <tag k="addr:city" v="Roxbury"/>
    <tag k="addr:housenumber" v="369"/>
    <tag k="addr:street" v="East Roxbury Road"/>
    <tag k="addr:state" v="VT"/>
    <tag k="ref:vcgi:esiteid" v="205747"/>
  </node>
  <node id="-554" visible="true" lat="44.1052325" lon="-72.74854341">
    <!-- match: "35 Dunbars Way, Roxbury, VT"  ignoring street punctuation to "35 Dunbar's Way, Roxbury, VT" -->
    <tag k="addr:city" v="Roxbury"/>
    <tag k="addr:housenumber" v="35"/>
    <tag k="addr:street" v="Dunbars Way"/>
    <tag k="addr:state" v="VT"/>
    <tag k="ref:vcgi:esiteid" v="316719"/>
  </node>
  <node id="-559" visible="true" lat="44.10489667" lon="-72.75046704">
    <tag k="addr:city" v="Roxbury"/>
    <tag k="addr:housenumber" v="2266"/>
    <tag k="addr:street" v="Carrie Howe Road"/>
    <tag k="addr:state" v="VT"/>
    <tag k="ref:vcgi:esiteid" v="329583"/>
  </node>
  <node id="-561" visible="true" lat="44.11527499" lon="-72.77471215">
    <tag k="addr:city" v="Roxbury"/>
    <tag k="addr:housenumber" v="2740"/>
    <tag k="addr:street" v="Warren Mountain Road"/>
    <tag k="addr:state" v="VT"/>
    <tag k="ref:vcgi:esiteid" v="330012"/>
  </node>
  <node id="-566" visible="true" lat="44.11563017" lon="-72.77519379">
    <tag k="addr:city" v="Roxbury"/>
    <tag k="addr:housenumber" v="2742"/>
    <tag k="addr:street" v="Warren Mountain Road"/>
    <tag k="addr:state" v="VT"/>
    <tag k="ref:vcgi:esiteid" v="337718"/>
  </node>
  <node id="-582" visible="true" lat="44.09982058" lon="-72.67682939">
    <tag k="addr:city" v="Roxbury"/>
    <tag k="addr:housenumber" v="1341"/>
    <tag k="addr:street" v="Bull Run Road"/>
    <tag k="addr:state" v="VT"/>
    <tag k="ref:vcgi:esiteid" v="342938"/>
  </node>
  <node id="-594" visible="true" lat="44.09699961" lon="-72.67837208">
    <tag k="addr:city" v="Roxbury"/>
    <tag k="addr:housenumber" v="1596"/>
    <tag k="addr:street" v="Bull Run Road"/>
    <tag k="addr:state" v="VT"/>
    <tag k="ref:vcgi:esiteid" v="451937"/>
  </node>
  <node id="-595" visible="true" lat="44.08856434" lon="-72.67708097">
    <tag k="addr:city" v="Roxbury"/>
    <tag k="addr:housenumber" v="2925"/>
    <tag k="addr:street" v="Winch Hill Road"/>
    <tag k="addr:state" v="VT"/>
    <tag k="ref:vcgi:esiteid" v="451938"/>
  </node>
</osm>
