<?xml version="1.0" encoding="UTF-8"?>
<osm version="0.6" generator="JOSM">
  <node id="-139" visible="true" lat="43.85219282" lon="-72.50730343">
    <!-- conflict: "2279 Vermont Route 110, , VT" No match in OSM, but a different address exists <5m away: "2279 Vt Route 110, Royalton, VT" -->
    <tag k="addr:housenumber" v="2279"/>
    <tag k="addr:street" v="Vermont Route 110"/>
    <tag k="addr:state" v="VT"/>
    <tag k="ref:vcgi:esiteid" v="205794"/>
  </node>
  <node id="-167" visible="true" lat="43.84817299" lon="-72.51054601">
    <!-- conflict: "1936 Vermont Route 110, , VT" No match in OSM, but a different address exists <5m away: "1936 Vt Route 110, Royalton, VT" -->
    <tag k="addr:housenumber" v="1936"/>
    <tag k="addr:street" v="Vermont Route 110"/>
    <tag k="addr:state" v="VT"/>
    <tag k="ref:vcgi:esiteid" v="205822"/>
  </node>
  <node id="-184" visible="true" lat="43.84543831" lon="-72.51110376">
    <!-- conflict: "1724 Vermont Route 110, , VT" No match in OSM, but a different address exists <5m away: "1724 Vt Route 110, Royalton, VT" -->
    <tag k="addr:housenumber" v="1724"/>
    <tag k="addr:street" v="Vermont Route 110"/>
    <tag k="addr:state" v="VT"/>
    <tag k="ref:vcgi:esiteid" v="205839"/>
  </node>
  <node id="-188" visible="true" lat="43.8444074" lon="-72.51138966">
    <!-- conflict: "1661 Vermont Route 110, , VT" No match in OSM, but a different address exists <5m away: "1661 Vt Route 110, Royalton, VT" -->
    <tag k="addr:housenumber" v="1661"/>
    <tag k="addr:street" v="Vermont Route 110"/>
    <tag k="addr:state" v="VT"/>
    <tag k="ref:vcgi:esiteid" v="205843"/>
  </node>
  <node id="-210" visible="true" lat="43.84047293" lon="-72.51495003">
    <!-- conflict: "1313 Vermont Route 110, , VT" No match in OSM, but a different address exists <5m away: "1313 Vt Route 110, Royalton, VT" -->
    <tag k="addr:housenumber" v="1313"/>
    <tag k="addr:street" v="Vermont Route 110"/>
    <tag k="addr:state" v="VT"/>
    <tag k="ref:vcgi:esiteid" v="205866"/>
  </node>
  <node id="-212" visible="true" lat="43.83990138" lon="-72.51386962">
    <!-- conflict: "1314 Vermont Route 110, , VT" No match in OSM, but a different address exists <5m away: "1314 Vt Route 110, Royalton, VT" -->
    <tag k="addr:housenumber" v="1314"/>
    <tag k="addr:street" v="Vermont Route 110"/>
    <tag k="addr:state" v="VT"/>
    <tag k="ref:vcgi:esiteid" v="205868"/>
  </node>
  <node id="-214" visible="true" lat="43.83972826" lon="-72.51401535">
    <!-- conflict: "1296 Vermont Route 110, , VT" No match in OSM, but a different address exists <5m away: "1296 Vt Route 110, Royalton, VT" -->
    <tag k="addr:housenumber" v="1296"/>
    <tag k="addr:street" v="Vermont Route 110"/>
    <tag k="addr:state" v="VT"/>
    <tag k="ref:vcgi:esiteid" v="205870"/>
  </node>
  <node id="-233" visible="true" lat="43.83831731" lon="-72.51553766">
    <!-- conflict: "1185 Vermont Route 110, , VT" No match in OSM, but a different address exists <5m away: "1185 Vt Route 110, Royalton, VT" -->
    <tag k="addr:housenumber" v="1185"/>
    <tag k="addr:street" v="Vermont Route 110"/>
    <tag k="addr:state" v="VT"/>
    <tag k="ref:vcgi:esiteid" v="205894"/>
  </node>
  <node id="-248" visible="true" lat="43.83600849" lon="-72.51272373">
    <!-- conflict: "928 Vermont Route 110, , VT" No match in OSM, but a different address exists <5m away: "928 Vt Route 110, Royalton, VT" -->
    <tag k="addr:housenumber" v="928"/>
    <tag k="addr:street" v="Vermont Route 110"/>
    <tag k="addr:state" v="VT"/>
    <tag k="ref:vcgi:esiteid" v="205911"/>
  </node>
  <node id="-255" visible="true" lat="43.83524268" lon="-72.51422043">
    <!-- conflict: "959 Vermont Route 110, , VT" No match in OSM, but a different address exists <5m away: "959 Vt Route 110, Royalton, VT" -->
    <tag k="addr:housenumber" v="959"/>
    <tag k="addr:street" v="Vermont Route 110"/>
    <tag k="addr:state" v="VT"/>
    <tag k="ref:vcgi:esiteid" v="205918"/>
  </node>
  <node id="-258" visible="true" lat="43.8351349" lon="-72.51178364">
    <!-- conflict: "886 Vermont Route 110, , VT" No match in OSM, but a different address exists <5m away: "886 Vt Route 110, Royalton, VT" -->
    <tag k="addr:housenumber" v="886"/>
    <tag k="addr:street" v="Vermont Route 110"/>
    <tag k="addr:state" v="VT"/>
    <tag k="ref:vcgi:esiteid" v="205921"/>
  </node>
  <node id="-259" visible="true" lat="43.83502428" lon="-72.51397497">
    <!-- conflict: "951 Vermont Route 110, , VT" No match in OSM, but a different address exists <5m away: "951 Vt Route 110, Royalton, VT" -->
    <tag k="addr:housenumber" v="951"/>
    <tag k="addr:street" v="Vermont Route 110"/>
    <tag k="addr:state" v="VT"/>
    <tag k="ref:vcgi:esiteid" v="205922"/>
  </node>
  <node id="-261" visible="true" lat="43.83496696" lon="-72.51303524">
    <!-- conflict: "915 Vermont Route 110, , VT" No match in OSM, but a different address exists <5m away: "915 Vt Route 110, Royalton, VT" -->
    <tag k="addr:housenumber" v="915"/>
    <tag k="addr:street" v="Vermont Route 110"/>
    <tag k="addr:state" v="VT"/>
    <tag k="ref:vcgi:esiteid" v="205924"/>
  </node>
  <node id="-339" visible="true" lat="43.82974618" lon="-72.51501416">
    <!-- conflict: "386 Vermont Route 110, , VT" No match in OSM, but a different address exists <5m away: "386 Vt Route 110, Royalton, VT" -->
    <tag k="addr:housenumber" v="386"/>
    <tag k="addr:street" v="Vermont Route 110"/>
    <tag k="addr:state" v="VT"/>
    <tag k="ref:vcgi:esiteid" v="206010"/>
  </node>
  <node id="-353" visible="true" lat="43.82786941" lon="-72.57448577">
    <!-- conflict: "442 Vermont Route 107, , VT" No match in OSM, but a different address exists <5m away: "442 VT Route 107, Royalton, VT" -->
    <tag k="addr:housenumber" v="442"/>
    <tag k="addr:street" v="Vermont Route 107"/>
    <tag k="addr:state" v="VT"/>
    <tag k="ref:vcgi:esiteid" v="206024"/>
  </node>
  <node id="-368" visible="true" lat="43.82708735" lon="-72.53511051">
    <!-- conflict: "3228 Vermont Route 14, , VT" No match in OSM, but a different address exists <5m away: "3228 Vt Route 14, Royalton, VT" -->
    <tag k="addr:housenumber" v="3228"/>
    <tag k="addr:street" v="Vermont Route 14"/>
    <tag k="addr:state" v="VT"/>
    <tag k="ref:vcgi:esiteid" v="206040"/>
  </node>
  <node id="-371" visible="true" lat="43.82703608" lon="-72.53608282">
    <!-- conflict: "3272 Vermont Route 14, , VT" No match in OSM, but a different address exists <5m away: "3272 Vt Route 14, Royalton, VT" -->
    <tag k="addr:housenumber" v="3272"/>
    <tag k="addr:street" v="Vermont Route 14"/>
    <tag k="addr:state" v="VT"/>
    <tag k="ref:vcgi:esiteid" v="206043"/>
  </node>
  <node id="-424" visible="true" lat="43.82498925" lon="-72.54143239">
    <!-- conflict: "3590 Vermont Route 14, , VT" No match in OSM, but a different address exists <5m away: "3590 VT Route 14, Royalton, VT" -->
    <tag k="addr:housenumber" v="3590"/>
    <tag k="addr:street" v="Vermont Route 14"/>
    <tag k="addr:state" v="VT"/>
    <tag k="ref:vcgi:esiteid" v="206099"/>
  </node>
  <node id="-453" visible="true" lat="43.82436877" lon="-72.51830848">
    <!-- conflict: "38 Vermont Route 110, , VT" No match in OSM, but a different address exists <5m away: "38 Vt Route 110, Royalton, VT" -->
    <tag k="addr:housenumber" v="38"/>
    <tag k="addr:street" v="Vermont Route 110"/>
    <tag k="addr:state" v="VT"/>
    <tag k="ref:vcgi:esiteid" v="206128"/>
  </node>
  <node id="-464" visible="true" lat="43.82412947" lon="-72.51833715">
    <!-- conflict: "28 Vermont Route 110, , VT" No match in OSM, but a different address exists <5m away: "28 Vt Route 110, Royalton, VT" -->
    <tag k="addr:housenumber" v="28"/>
    <tag k="addr:street" v="Vermont Route 110"/>
    <tag k="addr:state" v="VT"/>
    <tag k="ref:vcgi:esiteid" v="206139"/>
  </node>
  <node id="-467" visible="true" lat="43.82416731" lon="-72.51903539">
    <!-- conflict: "15 Vermont Route 110, , VT" No match in OSM, but a different address exists <5m away: "15 VT Route 110, Royalton, VT" -->
    <tag k="addr:housenumber" v="15"/>
    <tag k="addr:street" v="Vermont Route 110"/>
    <tag k="addr:state" v="VT"/>
    <tag k="ref:vcgi:esiteid" v="206142"/>
  </node>
  <node id="-485" visible="true" lat="43.823788" lon="-72.5184845">
    <!-- conflict: "2336 Vermont Route 14, , VT" No match in OSM, but a different address exists <5m away: "2336 VT Route 14, Royalton, VT" -->
    <tag k="addr:housenumber" v="2336"/>
    <tag k="addr:street" v="Vermont Route 14"/>
    <tag k="addr:state" v="VT"/>
    <tag k="ref:vcgi:esiteid" v="206163"/>
  </node>
  <node id="-491" visible="true" lat="43.82347647" lon="-72.47301399">
    <!-- conflict: "357 Lds Lane, , VT" Fuzzy match to "357 LDS Lane, Royalton, VT" -->
    <tag k="addr:housenumber" v="357"/>
    <tag k="addr:street" v="Lds Lane"/>
    <tag k="addr:state" v="VT"/>
    <tag k="ref:vcgi:esiteid" v="206170"/>
  </node>
  <node id="-493" visible="true" lat="43.82339234" lon="-72.60609938">
    <!-- conflict: "2069 Vermont Route 107, , VT" No match in OSM, but a different address exists <5m away: "2069 VT Route 107, Royalton, VT" -->
    <tag k="addr:housenumber" v="2069"/>
    <tag k="addr:street" v="Vermont Route 107"/>
    <tag k="addr:state" v="VT"/>
    <tag k="ref:vcgi:esiteid" v="206172"/>
  </node>
  <node id="-495" visible="true" lat="43.82325242" lon="-72.59360382">
    <!-- conflict: "1453 Vermont Route 107, , VT" No match in OSM, but a different address exists <5m away: "1453 VT 107, Bethel, VT" -->
    <tag k="addr:housenumber" v="1453"/>
    <tag k="addr:street" v="Vermont Route 107"/>
    <tag k="addr:state" v="VT"/>
    <tag k="ref:vcgi:esiteid" v="206174"/>
  </node>
  <node id="-498" visible="true" lat="43.82301338" lon="-72.6046122">
    <!-- conflict: "2011 Vermont Route 107, , VT" No match in OSM, but a different address exists <5m away: "2011 VT 107, Bethel, VT" -->
    <tag k="addr:housenumber" v="2011"/>
    <tag k="addr:street" v="Vermont Route 107"/>
    <tag k="addr:state" v="VT"/>
    <tag k="ref:vcgi:esiteid" v="206177"/>
  </node>
  <node id="-500" visible="true" lat="43.82328819" lon="-72.59881707">
    <!-- conflict: "1709 Vermont Route 107, , VT" No match in OSM, but a different address exists <5m away: "1709 VT 107, Bethel, VT" -->
    <tag k="addr:housenumber" v="1709"/>
    <tag k="addr:street" v="Vermont Route 107"/>
    <tag k="addr:state" v="VT"/>
    <tag k="ref:vcgi:esiteid" v="206179"/>
  </node>
  <node id="-501" visible="true" lat="43.82321772" lon="-72.60203962">
    <!-- conflict: "1875 Vermont Route 107, , VT" No match in OSM, but a different address exists <5m away: "1875 VT 107, Bethel, VT" -->
    <tag k="addr:housenumber" v="1875"/>
    <tag k="addr:street" v="Vermont Route 107"/>
    <tag k="addr:state" v="VT"/>
    <tag k="ref:vcgi:esiteid" v="206180"/>
  </node>
  <node id="-586" visible="true" lat="43.82018512" lon="-72.5220491">
    <!-- conflict: "222 Chelsea Street, , VT" Fuzzy match to "222 Chelsea Street, , " -->
    <tag k="addr:housenumber" v="222"/>
    <tag k="addr:street" v="Chelsea Street"/>
    <tag k="addr:state" v="VT"/>
    <tag k="ref:vcgi:esiteid" v="206277"/>
  </node>
  <node id="-587" visible="true" lat="43.82020073" lon="-72.52223599">
    <!-- conflict: "228 Chelsea Street, , VT" Fuzzy match to "228 Chelsea Street, , " -->
    <tag k="addr:housenumber" v="228"/>
    <tag k="addr:street" v="Chelsea Street"/>
    <tag k="addr:state" v="VT"/>
    <tag k="ref:vcgi:esiteid" v="206278"/>
  </node>
  <node id="-590" visible="true" lat="43.82008685" lon="-72.52218704">
    <!-- conflict: "232 Chelsea Street, , VT" No match in OSM, but a different address exists <5m away: "228 Chelsea Street, , " -->
    <tag k="addr:housenumber" v="232"/>
    <tag k="addr:street" v="Chelsea Street"/>
    <tag k="addr:state" v="VT"/>
    <tag k="ref:vcgi:esiteid" v="206281"/>
  </node>
  <node id="-602" visible="true" lat="43.81978783" lon="-72.54360812">
    <!-- conflict: "3971 Vermont Route 14, , VT" No match in OSM, but a different address exists <5m away: "3971 VT Route 14, Royalton, VT" -->
    <tag k="addr:housenumber" v="3971"/>
    <tag k="addr:street" v="Vermont Route 14"/>
    <tag k="addr:state" v="VT"/>
    <tag k="ref:vcgi:esiteid" v="206294"/>
  </node>
  <node id="-621" visible="true" lat="43.81899845" lon="-72.54387775">
    <!-- conflict: "4021 Vermont Route 14, , VT" No match in OSM, but a different address exists <5m away: "4021 VT Route 14, Royalton, VT" -->
    <tag k="addr:housenumber" v="4021"/>
    <tag k="addr:street" v="Vermont Route 14"/>
    <tag k="addr:state" v="VT"/>
    <tag k="ref:vcgi:esiteid" v="206315"/>
  </node>
  <node id="-624" visible="true" lat="43.81871122" lon="-72.54449124">
    <!-- conflict: "4052 Vermont Route 14, , VT" No match in OSM, but a different address exists <5m away: "4052 VT Route 14, Royalton, VT" -->
    <tag k="addr:housenumber" v="4052"/>
    <tag k="addr:street" v="Vermont Route 14"/>
    <tag k="addr:state" v="VT"/>
    <tag k="ref:vcgi:esiteid" v="206319"/>
  </node>
  <node id="-643" visible="true" lat="43.81813268" lon="-72.52295363">
    <!-- conflict: "50 Parkview Terrace, , VT" No match in OSM, but a different address exists <5m away: "48 Parkview Terrace, Royalton, VT" -->
    <tag k="addr:housenumber" v="50"/>
    <tag k="addr:street" v="Parkview Terrace"/>
    <tag k="addr:state" v="VT"/>
    <tag k="ref:vcgi:esiteid" v="206342"/>
  </node>
  <node id="-644" visible="true" lat="43.81834104" lon="-72.54420232">
    <!-- conflict: "4071 Vermont Route 14, , VT" No match in OSM, but a different address exists <5m away: "4071 VT Route 14, Royalton, VT" -->
    <tag k="addr:housenumber" v="4071"/>
    <tag k="addr:street" v="Vermont Route 14"/>
    <tag k="addr:state" v="VT"/>
    <tag k="ref:vcgi:esiteid" v="206343"/>
  </node>
  <node id="-646" visible="true" lat="43.81821768" lon="-72.5447805">
    <!-- conflict: "4088 Vermont Route 14, , VT" No match in OSM, but a different address exists <5m away: "4088 Vt Route 14, Royalton, VT" -->
    <tag k="addr:housenumber" v="4088"/>
    <tag k="addr:street" v="Vermont Route 14"/>
    <tag k="addr:state" v="VT"/>
    <tag k="ref:vcgi:esiteid" v="206345"/>
  </node>
  <node id="-652" visible="true" lat="43.81795545" lon="-72.54445742">
    <!-- conflict: "4095 Vermont Route 14, , VT" No match in OSM, but a different address exists <5m away: "4095 Vt Route 14, Royalton, VT" -->
    <tag k="addr:housenumber" v="4095"/>
    <tag k="addr:street" v="Vermont Route 14"/>
    <tag k="addr:state" v="VT"/>
    <tag k="ref:vcgi:esiteid" v="206352"/>
  </node>
  <node id="-663" visible="true" lat="43.81762491" lon="-72.51554466">
    <!-- conflict: "39 Wellsprings Lane, , VT" No match in OSM, but a different address exists <5m away: "415 South Windsor Street, Royalton, VT" -->
    <tag k="addr:housenumber" v="39"/>
    <tag k="addr:street" v="Wellsprings Lane"/>
    <tag k="addr:state" v="VT"/>
    <tag k="ref:vcgi:esiteid" v="206363"/>
  </node>
  <node id="-675" visible="true" lat="43.8174549" lon="-72.54552152">
    <!-- conflict: "4160 Vermont Route 14, , VT" No match in OSM, but a different address exists <5m away: "4160 VT Route 14, Royalton, VT" -->
    <tag k="addr:housenumber" v="4160"/>
    <tag k="addr:street" v="Vermont Route 14"/>
    <tag k="addr:state" v="VT"/>
    <tag k="ref:vcgi:esiteid" v="206376"/>
  </node>
  <node id="-678" visible="true" lat="43.81720858" lon="-72.51571943">
    <!-- conflict: "5 Wellsprings Lane, , VT" No match in OSM, but a different address exists <5m away: "387 South Windsor Street, Royalton, VT" -->
    <tag k="addr:housenumber" v="5"/>
    <tag k="addr:street" v="Wellsprings Lane"/>
    <tag k="addr:state" v="VT"/>
    <tag k="ref:vcgi:esiteid" v="206379"/>
  </node>
  <node id="-683" visible="true" lat="43.81697635" lon="-72.54566846">
    <!-- conflict: "4184 Vermont Route 14, , VT" No match in OSM, but a different address exists <5m away: "4184 Vt Route 14, Royalton, VT" -->
    <tag k="addr:housenumber" v="4184"/>
    <tag k="addr:street" v="Vermont Route 14"/>
    <tag k="addr:state" v="VT"/>
    <tag k="ref:vcgi:esiteid" v="206384"/>
  </node>
  <node id="-699" visible="true" lat="43.81653516" lon="-72.54614007">
    <!-- conflict: "4226 Vermont Route 14, , VT" No match in OSM, but a different address exists <5m away: "4226 Vt Route 14, Royalton, VT" -->
    <tag k="addr:housenumber" v="4226"/>
    <tag k="addr:street" v="Vermont Route 14"/>
    <tag k="addr:state" v="VT"/>
    <tag k="ref:vcgi:esiteid" v="206402"/>
  </node>
  <node id="-703" visible="true" lat="43.81635853" lon="-72.54459594">
    <!-- conflict: "4179 Vermont Route 14, , VT" No match in OSM, but a different address exists <5m away: "4179 Vt Route 14, Royalton, VT" -->
    <tag k="addr:housenumber" v="4179"/>
    <tag k="addr:street" v="Vermont Route 14"/>
    <tag k="addr:state" v="VT"/>
    <tag k="ref:vcgi:esiteid" v="206407"/>
  </node>
  <node id="-720" visible="true" lat="43.81581844" lon="-72.54686269">
    <!-- conflict: "4290 Vermont Route 14, , VT" No match in OSM, but a different address exists <5m away: "4290 VT Route 14, Royalton, VT" -->
    <tag k="addr:housenumber" v="4290"/>
    <tag k="addr:street" v="Vermont Route 14"/>
    <tag k="addr:state" v="VT"/>
    <tag k="ref:vcgi:esiteid" v="206426"/>
  </node>
  <node id="-721" visible="true" lat="43.81561072" lon="-72.54715316">
    <!-- conflict: "4308 Vermont Route 14, , VT" No match in OSM, but a different address exists <5m away: "4308 VT Route 14, Royalton, VT" -->
    <tag k="addr:housenumber" v="4308"/>
    <tag k="addr:street" v="Vermont Route 14"/>
    <tag k="addr:state" v="VT"/>
    <tag k="ref:vcgi:esiteid" v="206427"/>
  </node>
  <node id="-728" visible="true" lat="43.81553341" lon="-72.54732993">
    <!-- conflict: "4322 Vermont Route 14, , VT" No match in OSM, but a different address exists <5m away: "4322 VT Route 14, Royalton, VT" -->
    <tag k="addr:housenumber" v="4322"/>
    <tag k="addr:street" v="Vermont Route 14"/>
    <tag k="addr:state" v="VT"/>
    <tag k="ref:vcgi:esiteid" v="206434"/>
  </node>
  <node id="-733" visible="true" lat="43.81545592" lon="-72.54631005">
    <!-- conflict: "111 Royalton Common Road, , VT" No match in OSM, but a different address exists <5m away: "55 Bridge Street, Royalton, VT" -->
    <tag k="addr:housenumber" v="111"/>
    <tag k="addr:street" v="Royalton Common Road"/>
    <tag k="addr:state" v="VT"/>
    <tag k="ref:vcgi:esiteid" v="206440"/>
  </node>
  <node id="-742" visible="true" lat="43.81518601" lon="-72.54810933">
    <!-- conflict: "4370 Vermont Route 14, , VT" No match in OSM, but a different address exists <5m away: "4370 VT Route 14, Royalton, VT" -->
    <tag k="addr:housenumber" v="4370"/>
    <tag k="addr:street" v="Vermont Route 14"/>
    <tag k="addr:state" v="VT"/>
    <tag k="ref:vcgi:esiteid" v="206449"/>
  </node>
  <node id="-758" visible="true" lat="43.81490934" lon="-72.54783199">
    <!-- conflict: "4365 Vermont Route 14, , VT" No match in OSM, but a different address exists <5m away: "4365 VT Route 14, Royalton, VT" -->
    <tag k="addr:housenumber" v="4365"/>
    <tag k="addr:street" v="Vermont Route 14"/>
    <tag k="addr:state" v="VT"/>
    <tag k="ref:vcgi:esiteid" v="206465"/>
  </node>
  <node id="-766" visible="true" lat="43.81481146" lon="-72.5481745">
    <!-- conflict: "4381 Vermont Route 14, , VT" No match in OSM, but a different address exists <5m away: "4381 VT Route 14, Royalton, VT" -->
    <tag k="addr:housenumber" v="4381"/>
    <tag k="addr:street" v="Vermont Route 14"/>
    <tag k="addr:state" v="VT"/>
    <tag k="ref:vcgi:esiteid" v="206473"/>
  </node>
  <node id="-773" visible="true" lat="43.81463682" lon="-72.5490947">
    <!-- conflict: "4429 Vermont Route 14, , VT" No match in OSM, but a different address exists <5m away: "4429 VT Route 14, Royalton, VT" -->
    <tag k="addr:housenumber" v="4429"/>
    <tag k="addr:street" v="Vermont Route 14"/>
    <tag k="addr:state" v="VT"/>
    <tag k="ref:vcgi:esiteid" v="206480"/>
  </node>
  <node id="-776" visible="true" lat="43.81464956" lon="-72.54855571">
    <!-- conflict: "4403 Vermont Route 14, , VT" No match in OSM, but a different address exists <5m away: "4403 VT Route 14, Royalton, VT" -->
    <tag k="addr:housenumber" v="4403"/>
    <tag k="addr:street" v="Vermont Route 14"/>
    <tag k="addr:state" v="VT"/>
    <tag k="ref:vcgi:esiteid" v="206483"/>
  </node>
  <node id="-780" visible="true" lat="43.81450585" lon="-72.54966531">
    <!-- conflict: "4457 Vermont Route 14, , VT" No match in OSM, but a different address exists <5m away: "4457 VT Route 14, Royalton, VT" -->
    <tag k="addr:housenumber" v="4457"/>
    <tag k="addr:street" v="Vermont Route 14"/>
    <tag k="addr:state" v="VT"/>
    <tag k="ref:vcgi:esiteid" v="206488"/>
  </node>
  <node id="-782" visible="true" lat="43.81446464" lon="-72.55007643">
    <!-- conflict: "4479 Vermont Route 14, , VT" No match in OSM, but a different address exists <5m away: "4479 VT Route 14, Royalton, VT" -->
    <tag k="addr:housenumber" v="4479"/>
    <tag k="addr:street" v="Vermont Route 14"/>
    <tag k="addr:state" v="VT"/>
    <tag k="ref:vcgi:esiteid" v="206490"/>
  </node>
  <node id="-783" visible="true" lat="43.81443692" lon="-72.55058545">
    <!-- conflict: "4497 Vermont Route 14, , VT" No match in OSM, but a different address exists <5m away: "4497 VT Route 14, Royalton, VT" -->
    <tag k="addr:housenumber" v="4497"/>
    <tag k="addr:street" v="Vermont Route 14"/>
    <tag k="addr:state" v="VT"/>
    <tag k="ref:vcgi:esiteid" v="206491"/>
  </node>
  <node id="-787" visible="true" lat="43.81429554" lon="-72.55246929">
    <!-- conflict: "4603 Vermont Route 14, , VT" No match in OSM, but a different address exists <5m away: "4603 VT Route 14, Royalton, VT" -->
    <tag k="addr:housenumber" v="4603"/>
    <tag k="addr:street" v="Vermont Route 14"/>
    <tag k="addr:state" v="VT"/>
    <tag k="ref:vcgi:esiteid" v="206495"/>
  </node>
  <node id="-884" visible="true" lat="43.80709065" lon="-72.50105726">
    <!-- conflict: "878 Vermont Route 14, , VT" No match in OSM, but a different address exists <5m away: "878 Vt Route 14, Royalton, VT" -->
    <tag k="addr:housenumber" v="878"/>
    <tag k="addr:street" v="Vermont Route 14"/>
    <tag k="addr:state" v="VT"/>
    <tag k="ref:vcgi:esiteid" v="206594"/>
  </node>
  <node id="-894" visible="true" lat="43.80624581" lon="-72.49953677">
    <!-- conflict: "14 Avery Lane, , VT" No match in OSM, but a different address exists <5m away: "888 Vt Route 14, Royalton, VT" -->
    <tag k="addr:housenumber" v="14"/>
    <tag k="addr:street" v="Avery Lane"/>
    <tag k="addr:state" v="VT"/>
    <tag k="ref:vcgi:esiteid" v="206606"/>
  </node>
  <node id="-898" visible="true" lat="43.8055569" lon="-72.50009364">
    <!-- conflict: "734 Vermont Route 14, , VT" No match in OSM, but a different address exists <5m away: "734 Vt Route 14, Royalton, VT" -->
    <tag k="addr:housenumber" v="734"/>
    <tag k="addr:street" v="Vermont Route 14"/>
    <tag k="addr:state" v="VT"/>
    <tag k="ref:vcgi:esiteid" v="206611"/>
  </node>
  <node id="-1036" visible="true" lat="43.78210931" lon="-72.52114337">
    <!-- conflict: "2456 Broad Brook Road, , VT" No match in OSM, but a different address exists <5m away: "2455 Broad Brook Road, Royalton, VT" -->
    <tag k="addr:housenumber" v="2456"/>
    <tag k="addr:street" v="Broad Brook Road"/>
    <tag k="addr:state" v="VT"/>
    <tag k="ref:vcgi:esiteid" v="206755"/>
  </node>
  <node id="-1091" visible="true" lat="43.847597" lon="-72.51018639">
    <!-- conflict: "1934 Vermont Route 110, , VT" No match in OSM, but a different address exists <5m away: "1934 Vt Route 110, Royalton, VT" -->
    <tag k="addr:housenumber" v="1934"/>
    <tag k="addr:street" v="Vermont Route 110"/>
    <tag k="addr:state" v="VT"/>
    <tag k="ref:vcgi:esiteid" v="206812"/>
  </node>
  <node id="-1097" visible="true" lat="43.82331153" lon="-72.59660803">
    <!-- conflict: "1583 Vermont Route 107, , VT" No match in OSM, but a different address exists <5m away: "1583 VT 107, Bethel, VT" -->
    <tag k="addr:housenumber" v="1583"/>
    <tag k="addr:street" v="Vermont Route 107"/>
    <tag k="addr:state" v="VT"/>
    <tag k="ref:vcgi:esiteid" v="206820"/>
  </node>
  <node id="-1149" visible="true" lat="43.82027955" lon="-72.54316769">
    <!-- conflict: "3941 Vermont Route 14, , VT" No match in OSM, but a different address exists <5m away: "3941 VT Route 14, Royalton, VT" -->
    <tag k="addr:housenumber" v="3941"/>
    <tag k="addr:street" v="Vermont Route 14"/>
    <tag k="addr:state" v="VT"/>
    <tag k="ref:vcgi:esiteid" v="206881"/>
  </node>
  <node id="-1152" visible="true" lat="43.84874725" lon="-72.51211547">
    <!-- conflict: "1957 Vermont Route 110, , VT" No match in OSM, but a different address exists <5m away: "1957 Vt Route 110, Royalton, VT" -->
    <tag k="addr:housenumber" v="1957"/>
    <tag k="addr:street" v="Vermont Route 110"/>
    <tag k="addr:state" v="VT"/>
    <tag k="ref:vcgi:esiteid" v="206884"/>
  </node>
  <node id="-1177" visible="true" lat="43.83765993" lon="-72.51568973">
    <!-- conflict: "1175 Vermont Route 110, , VT" No match in OSM, but a different address exists <5m away: "1175 Vt Route 110, Royalton, VT" -->
    <tag k="addr:housenumber" v="1175"/>
    <tag k="addr:street" v="Vermont Route 110"/>
    <tag k="addr:state" v="VT"/>
    <tag k="ref:vcgi:esiteid" v="206911"/>
  </node>
  <node id="-1197" visible="true" lat="43.81809598" lon="-72.54527882">
    <!-- conflict: "4100 Vermont Route 14, , VT" No match in OSM, but a different address exists <5m away: "4100 VT Route 14, Royalton, VT" -->
    <tag k="addr:housenumber" v="4100"/>
    <tag k="addr:street" v="Vermont Route 14"/>
    <tag k="addr:state" v="VT"/>
    <tag k="ref:vcgi:esiteid" v="206933"/>
  </node>
  <node id="-1238" visible="true" lat="43.82310391" lon="-72.59602353">
    <!-- conflict: "1533 Vermont Route 107, , VT" No match in OSM, but a different address exists <5m away: "1533 VT 107, Bethel, VT" -->
    <tag k="addr:housenumber" v="1533"/>
    <tag k="addr:street" v="Vermont Route 107"/>
    <tag k="addr:state" v="VT"/>
    <tag k="ref:vcgi:esiteid" v="206977"/>
  </node>
  <node id="-1264" visible="true" lat="43.84012643" lon="-72.51534634">
    <!-- conflict: "20 Saw Mill Circle, , VT" No match in OSM, but a different address exists <5m away: "1 Log Landing Lane, Royalton, VT" -->
    <tag k="addr:housenumber" v="20"/>
    <tag k="addr:street" v="Saw Mill Circle"/>
    <tag k="addr:state" v="VT"/>
    <tag k="ref:vcgi:esiteid" v="207005"/>
  </node>
  <node id="-1265" visible="true" lat="43.83975765" lon="-72.51550021">
    <!-- conflict: "40 Saw Mill Circle, , VT" No match in OSM, but a different address exists <5m away: "3 Log Landing Lane, Royalton, VT" -->
    <tag k="addr:housenumber" v="40"/>
    <tag k="addr:street" v="Saw Mill Circle"/>
    <tag k="addr:state" v="VT"/>
    <tag k="ref:vcgi:esiteid" v="207006"/>
  </node>
  <node id="-1266" visible="true" lat="43.83945528" lon="-72.51520179">
    <!-- conflict: "60 Saw Mill Circle, , VT" No match in OSM, but a different address exists <5m away: "5 Log Landing Lane, Royalton, VT" -->
    <tag k="addr:housenumber" v="60"/>
    <tag k="addr:street" v="Saw Mill Circle"/>
    <tag k="addr:state" v="VT"/>
    <tag k="ref:vcgi:esiteid" v="207007"/>
  </node>
  <node id="-1267" visible="true" lat="43.83994802" lon="-72.51549423">
    <!-- conflict: "30 Saw Mill Circle, , VT" No match in OSM, but a different address exists <5m away: "2 Log Landing Lane, Royalton, VT" -->
    <tag k="addr:housenumber" v="30"/>
    <tag k="addr:street" v="Saw Mill Circle"/>
    <tag k="addr:state" v="VT"/>
    <tag k="ref:vcgi:esiteid" v="207008"/>
  </node>
  <node id="-1268" visible="true" lat="43.83960136" lon="-72.51542204">
    <!-- conflict: "50 Saw Mill Circle, , VT" No match in OSM, but a different address exists <5m away: "4 Log Landing Lane, Royalton, VT" -->
    <tag k="addr:housenumber" v="50"/>
    <tag k="addr:street" v="Saw Mill Circle"/>
    <tag k="addr:state" v="VT"/>
    <tag k="ref:vcgi:esiteid" v="207009"/>
  </node>
  <node id="-1269" visible="true" lat="43.83992384" lon="-72.51481551">
    <!-- conflict: "80 Saw Mill Circle, , VT" No match in OSM, but a different address exists <5m away: "6 Log Landing Lane, Royalton, VT" -->
    <tag k="addr:housenumber" v="80"/>
    <tag k="addr:street" v="Saw Mill Circle"/>
    <tag k="addr:state" v="VT"/>
    <tag k="ref:vcgi:esiteid" v="207010"/>
  </node>
  <node id="-1291" visible="true" lat="43.85174188" lon="-72.5054487">
    <!-- conflict: "4 Vermont Route 110, , VT" No match in OSM, but a different address exists <5m away: "4 Vt Route 110, Royalton, VT" -->
    <tag k="addr:housenumber" v="4"/>
    <tag k="addr:street" v="Vermont Route 110"/>
    <tag k="addr:state" v="VT"/>
    <tag k="ref:vcgi:esiteid" v="326609"/>
  </node>
  <node id="-1309" visible="true" lat="43.81785027" lon="-72.5153495">
    <!-- conflict: "55 Wellsprings Lane, , VT" No match in OSM, but a different address exists <5m away: "417 South Windsor Street, Royalton, VT" -->
    <tag k="addr:housenumber" v="55"/>
    <tag k="addr:street" v="Wellsprings Lane"/>
    <tag k="addr:state" v="VT"/>
    <tag k="ref:vcgi:esiteid" v="332604"/>
  </node>
  <node id="-1345" visible="true" lat="43.82219462" lon="-72.5243177">
    <!-- conflict: "65 Carpenter Rec Field, , VT" No match in OSM, but a different address exists <5m away: "172 Cameron Way, Royalton, VT" -->
    <tag k="addr:housenumber" v="65"/>
    <tag k="addr:street" v="Carpenter Rec Field"/>
    <tag k="addr:state" v="VT"/>
    <tag k="ref:vcgi:esiteid" v="449252"/>
  </node>
  <node id="-1357" visible="true" lat="43.80984708" lon="-72.51226777">
    <!-- conflict: "34 Rail View Meadows Lane, , VT" No match in OSM, but a different address exists <5m away: "86 Hewitt Hill Lane, Royalton, VT" -->
    <tag k="addr:housenumber" v="34"/>
    <tag k="addr:street" v="Rail View Meadows Lane"/>
    <tag k="addr:state" v="VT"/>
    <tag k="ref:vcgi:esiteid" v="451368"/>
  </node>
  <node id="-1384" visible="true" lat="43.82306482" lon="-72.52579331">
    <!-- conflict: "175 Carpenter Rec Field, , VT" No match in OSM, but a different address exists <5m away: "174 Cameron Way, Royalton, VT" -->
    <tag k="addr:housenumber" v="175"/>
    <tag k="addr:street" v="Carpenter Rec Field"/>
    <tag k="addr:state" v="VT"/>
    <tag k="ref:vcgi:esiteid" v="610914"/>
  </node>
  <node id="-1429" visible="true" lat="43.79886467" lon="-72.50599209">
    <!-- conflict: "315 Dutton Road, , VT" No match in OSM, but a different address exists <5m away: "260 Dutton Road, Royalton, VT" -->
    <tag k="addr:housenumber" v="315"/>
    <tag k="addr:street" v="Dutton Road"/>
    <tag k="addr:state" v="VT"/>
    <tag k="ref:vcgi:esiteid" v="655463"/>
  </node>
  <node id="-1633" visible="true" lat="43.8379249" lon="-72.5141797">
    <!-- conflict: "1122 Vermont Route 110, , VT" No match in OSM, but a different address exists <5m away: "1122 Vt Route 110, Royalton, VT" -->
    <tag k="addr:housenumber" v="1122"/>
    <tag k="addr:street" v="Vermont Route 110"/>
    <tag k="addr:state" v="VT"/>
    <tag k="ref:vcgi:esiteid" v="1050130"/>
  </node>
</osm>
