<?xml version="1.0" encoding="UTF-8"?>
<osm version="0.6" generator="JOSM">
  <node id="-218" visible="true" lat="43.8394008" lon="-72.51369917">
    <tag k="addr:city" v="Royalton"/>
    <tag k="addr:housenumber" v="20"/>
    <tag k="addr:street" v="Overlook Lane"/>
    <tag k="addr:state" v="VT"/>
    <tag k="ref:vcgi:esiteid" v="205875"/>
  </node>
  <node id="-222" visible="true" lat="43.83896704" lon="-72.51417309">
    <tag k="addr:city" v="Royalton"/>
    <tag k="addr:housenumber" v="60"/>
    <tag k="addr:street" v="Overlook Lane"/>
    <tag k="addr:state" v="VT"/>
    <tag k="ref:vcgi:esiteid" v="205879"/>
  </node>
  <node id="-226" visible="true" lat="43.83878295" lon="-72.513962">
    <tag k="addr:city" v="Royalton"/>
    <tag k="addr:housenumber" v="55"/>
    <tag k="addr:street" v="Overlook Lane"/>
    <tag k="addr:state" v="VT"/>
    <tag k="ref:vcgi:esiteid" v="205884"/>
  </node>
  <node id="-309" visible="true" lat="43.83174405" lon="-72.51354905">
    <tag k="addr:city" v="Royalton"/>
    <tag k="addr:housenumber" v="82"/>
    <tag k="addr:street" v="Old Route 110"/>
    <tag k="addr:state" v="VT"/>
    <tag k="ref:vcgi:esiteid" v="205979"/>
  </node>
  <node id="-312" visible="true" lat="43.83161573" lon="-72.5138478">
    <tag k="addr:city" v="Royalton"/>
    <tag k="addr:housenumber" v="62"/>
    <tag k="addr:street" v="Old Route 110"/>
    <tag k="addr:state" v="VT"/>
    <tag k="ref:vcgi:esiteid" v="205982"/>
  </node>
  <node id="-313" visible="true" lat="43.83147748" lon="-72.51421243">
    <tag k="addr:city" v="Royalton"/>
    <tag k="addr:housenumber" v="44"/>
    <tag k="addr:street" v="Old Route 110"/>
    <tag k="addr:state" v="VT"/>
    <tag k="ref:vcgi:esiteid" v="205984"/>
  </node>
  <node id="-318" visible="true" lat="43.83113378" lon="-72.51507376">
    <tag k="addr:city" v="Royalton"/>
    <tag k="addr:housenumber" v="2"/>
    <tag k="addr:street" v="Old Route 110"/>
    <tag k="addr:state" v="VT"/>
    <tag k="ref:vcgi:esiteid" v="205989"/>
  </node>
  <node id="-319" visible="true" lat="43.83110702" lon="-72.514747">
    <tag k="addr:city" v="Royalton"/>
    <tag k="addr:housenumber" v="10"/>
    <tag k="addr:street" v="Old Route 110"/>
    <tag k="addr:state" v="VT"/>
    <tag k="ref:vcgi:esiteid" v="205990"/>
  </node>
  <node id="-335" visible="true" lat="43.83021961" lon="-72.51702673">
    <tag k="addr:city" v="Royalton"/>
    <tag k="addr:housenumber" v="91"/>
    <tag k="addr:street" v="Mill Road"/>
    <tag k="addr:state" v="VT"/>
    <tag k="ref:vcgi:esiteid" v="206006"/>
  </node>
  <node id="-340" visible="true" lat="43.82975374" lon="-72.51702964">
    <tag k="addr:city" v="Royalton"/>
    <tag k="addr:housenumber" v="59"/>
    <tag k="addr:street" v="Mill Road"/>
    <tag k="addr:state" v="VT"/>
    <tag k="ref:vcgi:esiteid" v="206011"/>
  </node>
  <node id="-350" visible="true" lat="43.8283166" lon="-72.57373234">
    <tag k="addr:city" v="Royalton"/>
    <tag k="addr:housenumber" v="402"/>
    <tag k="addr:street" v="Vermont Route 107"/>
    <tag k="addr:state" v="VT"/>
    <tag k="ref:vcgi:esiteid" v="206021"/>
  </node>
  <node id="-374" visible="true" lat="43.82677344" lon="-72.52687881">
    <tag k="addr:city" v="Royalton"/>
    <tag k="addr:housenumber" v="14"/>
    <tag k="addr:street" v="Happy Hollow Road"/>
    <tag k="addr:state" v="VT"/>
    <tag k="ref:vcgi:esiteid" v="206046"/>
  </node>
  <node id="-376" visible="true" lat="43.82673171" lon="-72.52999377">
    <tag k="addr:city" v="Royalton"/>
    <tag k="addr:housenumber" v="2964"/>
    <tag k="addr:street" v="Vermont Route 14"/>
    <tag k="addr:state" v="VT"/>
    <tag k="ref:vcgi:esiteid" v="206048"/>
  </node>
  <node id="-380" visible="true" lat="43.82668983" lon="-72.61154544">
    <tag k="addr:city" v="Royalton"/>
    <tag k="addr:housenumber" v="2388"/>
    <tag k="addr:street" v="Vermont Route 107"/>
    <tag k="addr:state" v="VT"/>
    <tag k="ref:vcgi:esiteid" v="206053"/>
  </node>
  <node id="-394" visible="true" lat="43.82620549" lon="-72.53061675">
    <tag k="addr:city" v="Royalton"/>
    <tag k="addr:housenumber" v="2995"/>
    <tag k="addr:street" v="Vermont Route 14"/>
    <tag k="addr:state" v="VT"/>
    <tag k="ref:vcgi:esiteid" v="206069"/>
  </node>
  <node id="-395" visible="true" lat="43.82633792" lon="-72.53003679">
    <tag k="addr:city" v="Royalton"/>
    <tag k="addr:housenumber" v="2989"/>
    <tag k="addr:street" v="Vermont Route 14"/>
    <tag k="addr:state" v="VT"/>
    <tag k="ref:vcgi:esiteid" v="206070"/>
  </node>
  <node id="-402" visible="true" lat="43.82567694" lon="-72.53624251">
    <tag k="addr:city" v="Royalton"/>
    <tag k="addr:housenumber" v="832"/>
    <tag k="addr:street" v="North Windsor Street"/>
    <tag k="addr:state" v="VT"/>
    <tag k="ref:vcgi:esiteid" v="206077"/>
  </node>
  <node id="-413" visible="true" lat="43.82551694" lon="-72.53594602">
    <tag k="addr:city" v="Royalton"/>
    <tag k="addr:housenumber" v="819"/>
    <tag k="addr:street" v="North Windsor Street"/>
    <tag k="addr:state" v="VT"/>
    <tag k="ref:vcgi:esiteid" v="206088"/>
  </node>
  <node id="-429" visible="true" lat="43.82486668" lon="-72.53688699">
    <tag k="addr:city" v="Royalton"/>
    <tag k="addr:housenumber" v="889"/>
    <tag k="addr:street" v="North Windsor Street"/>
    <tag k="addr:state" v="VT"/>
    <tag k="ref:vcgi:esiteid" v="206104"/>
  </node>
  <node id="-433" visible="true" lat="43.82473365" lon="-72.54312389">
    <tag k="addr:city" v="Royalton"/>
    <tag k="addr:housenumber" v="3626"/>
    <tag k="addr:street" v="Vermont Route 14"/>
    <tag k="addr:state" v="VT"/>
    <tag k="ref:vcgi:esiteid" v="206108"/>
  </node>
  <node id="-435" visible="true" lat="43.82470446" lon="-72.53232924">
    <tag k="addr:city" v="Royalton"/>
    <tag k="addr:housenumber" v="600"/>
    <tag k="addr:street" v="North Windsor Street"/>
    <tag k="addr:state" v="VT"/>
    <tag k="ref:vcgi:esiteid" v="206110"/>
  </node>
  <node id="-437" visible="true" lat="43.8246893" lon="-72.53302948">
    <tag k="addr:city" v="Royalton"/>
    <tag k="addr:housenumber" v="648"/>
    <tag k="addr:street" v="North Windsor Street"/>
    <tag k="addr:state" v="VT"/>
    <tag k="ref:vcgi:esiteid" v="206112"/>
  </node>
  <node id="-439" visible="true" lat="43.8246664" lon="-72.5326848">
    <tag k="addr:city" v="Royalton"/>
    <tag k="addr:housenumber" v="632"/>
    <tag k="addr:street" v="North Windsor Street"/>
    <tag k="addr:state" v="VT"/>
    <tag k="ref:vcgi:esiteid" v="206114"/>
  </node>
  <node id="-441" visible="true" lat="43.82456637" lon="-72.53252859">
    <tag k="addr:city" v="Royalton"/>
    <tag k="addr:housenumber" v="620"/>
    <tag k="addr:street" v="North Windsor Street"/>
    <tag k="addr:state" v="VT"/>
    <tag k="ref:vcgi:esiteid" v="206116"/>
  </node>
  <node id="-450" visible="true" lat="43.82430738" lon="-72.53155692">
    <tag k="addr:city" v="Royalton"/>
    <tag k="addr:housenumber" v="570"/>
    <tag k="addr:street" v="North Windsor Street"/>
    <tag k="addr:state" v="VT"/>
    <tag k="ref:vcgi:esiteid" v="206125"/>
  </node>
  <node id="-459" visible="true" lat="43.8242929" lon="-72.53533724">
    <tag k="addr:city" v="Royalton"/>
    <tag k="addr:housenumber" v="159"/>
    <tag k="addr:street" v="Eddy Road"/>
    <tag k="addr:state" v="VT"/>
    <tag k="ref:vcgi:esiteid" v="206134"/>
  </node>
  <node id="-475" visible="true" lat="43.82390623" lon="-72.53638323">
    <tag k="addr:city" v="Royalton"/>
    <tag k="addr:housenumber" v="1"/>
    <tag k="addr:street" v="Back River Road"/>
    <tag k="addr:state" v="VT"/>
    <tag k="ref:vcgi:esiteid" v="206152"/>
  </node>
  <node id="-477" visible="true" lat="43.82386346" lon="-72.52936463">
    <tag k="addr:city" v="Royalton"/>
    <tag k="addr:housenumber" v="454"/>
    <tag k="addr:street" v="North Windsor Street"/>
    <tag k="addr:state" v="VT"/>
    <tag k="ref:vcgi:esiteid" v="206154"/>
  </node>
  <node id="-483" visible="true" lat="43.82378321" lon="-72.52872577">
    <tag k="addr:city" v="Royalton"/>
    <tag k="addr:housenumber" v="420"/>
    <tag k="addr:street" v="North Windsor Street"/>
    <tag k="addr:state" v="VT"/>
    <tag k="ref:vcgi:esiteid" v="206161"/>
  </node>
  <node id="-492" visible="true" lat="43.8234499" lon="-72.543741">
    <tag k="addr:city" v="Royalton"/>
    <tag k="addr:housenumber" v="32"/>
    <tag k="addr:street" v="Benson Lane"/>
    <tag k="addr:state" v="VT"/>
    <tag k="ref:vcgi:esiteid" v="206171"/>
  </node>
  <node id="-504" visible="true" lat="43.82315972" lon="-72.54383942">
    <tag k="addr:city" v="Royalton"/>
    <tag k="addr:housenumber" v="54"/>
    <tag k="addr:street" v="Benson Lane"/>
    <tag k="addr:state" v="VT"/>
    <tag k="ref:vcgi:esiteid" v="206183"/>
  </node>
  <node id="-505" visible="true" lat="43.82306661" lon="-72.52834784">
    <tag k="addr:city" v="Royalton"/>
    <tag k="addr:housenumber" v="397"/>
    <tag k="addr:street" v="North Windsor Street"/>
    <tag k="addr:state" v="VT"/>
    <tag k="ref:vcgi:esiteid" v="206184"/>
  </node>
  <node id="-513" visible="true" lat="43.82277379" lon="-72.52779644">
    <tag k="addr:city" v="Royalton"/>
    <tag k="addr:housenumber" v="269"/>
    <tag k="addr:street" v="North Windsor Street"/>
    <tag k="addr:state" v="VT"/>
    <tag k="ref:vcgi:esiteid" v="206192"/>
  </node>
  <node id="-514" visible="true" lat="43.82267798" lon="-72.52563008">
    <tag k="addr:city" v="Royalton"/>
    <tag k="addr:housenumber" v="250"/>
    <tag k="addr:street" v="North Windsor Street"/>
    <tag k="addr:state" v="VT"/>
    <tag k="ref:vcgi:esiteid" v="206193"/>
  </node>
  <node id="-515" visible="true" lat="43.82271271" lon="-72.54357762">
    <tag k="addr:city" v="Royalton"/>
    <tag k="addr:housenumber" v="27"/>
    <tag k="addr:street" v="Benson Lane"/>
    <tag k="addr:state" v="VT"/>
    <tag k="ref:vcgi:esiteid" v="206194"/>
  </node>
  <node id="-526" visible="true" lat="43.82205183" lon="-72.52496251">
    <tag k="addr:city" v="Royalton"/>
    <tag k="addr:housenumber" v="201"/>
    <tag k="addr:street" v="North Windsor Street"/>
    <tag k="addr:state" v="VT"/>
    <tag k="ref:vcgi:esiteid" v="206211"/>
  </node>
  <node id="-530" visible="true" lat="43.82189739" lon="-72.52034145">
    <tag k="addr:city" v="Royalton"/>
    <tag k="addr:housenumber" v="150"/>
    <tag k="addr:street" v="Chelsea Street"/>
    <tag k="addr:state" v="VT"/>
    <tag k="ref:vcgi:esiteid" v="206215"/>
  </node>
  <node id="-531" visible="true" lat="43.82191977" lon="-72.52465799">
    <tag k="addr:city" v="Royalton"/>
    <tag k="addr:housenumber" v="185"/>
    <tag k="addr:street" v="North Windsor Street"/>
    <tag k="addr:state" v="VT"/>
    <tag k="ref:vcgi:esiteid" v="206216"/>
  </node>
  <node id="-535" visible="true" lat="43.82164149" lon="-72.52311467">
    <tag k="addr:city" v="Royalton"/>
    <tag k="addr:housenumber" v="114"/>
    <tag k="addr:street" v="North Windsor Street"/>
    <tag k="addr:state" v="VT"/>
    <tag k="ref:vcgi:esiteid" v="206220"/>
  </node>
  <node id="-537" visible="true" lat="43.82174286" lon="-72.52423036">
    <tag k="addr:city" v="Royalton"/>
    <tag k="addr:housenumber" v="163"/>
    <tag k="addr:street" v="North Windsor Street"/>
    <tag k="addr:state" v="VT"/>
    <tag k="ref:vcgi:esiteid" v="206222"/>
  </node>
  <node id="-539" visible="true" lat="43.8216404" lon="-72.51987846">
    <tag k="addr:city" v="Royalton"/>
    <tag k="addr:housenumber" v="153"/>
    <tag k="addr:street" v="Chelsea Street"/>
    <tag k="addr:state" v="VT"/>
    <tag k="ref:vcgi:esiteid" v="206224"/>
  </node>
  <node id="-540" visible="true" lat="43.82153675" lon="-72.52003023">
    <tag k="addr:city" v="Royalton"/>
    <tag k="addr:housenumber" v="15"/>
    <tag k="addr:street" v="New Street"/>
    <tag k="addr:state" v="VT"/>
    <tag k="ref:vcgi:esiteid" v="206226"/>
  </node>
  <node id="-541" visible="true" lat="43.82152849" lon="-72.52254226">
    <tag k="addr:city" v="Royalton"/>
    <tag k="addr:housenumber" v="82"/>
    <tag k="addr:street" v="North Windsor Street"/>
    <tag k="addr:state" v="VT"/>
    <tag k="ref:vcgi:esiteid" v="206227"/>
  </node>
  <node id="-542" visible="true" lat="43.82152782" lon="-72.52378849">
    <tag k="addr:city" v="Royalton"/>
    <tag k="addr:housenumber" v="135"/>
    <tag k="addr:street" v="North Windsor Street"/>
    <tag k="addr:state" v="VT"/>
    <tag k="ref:vcgi:esiteid" v="206228"/>
  </node>
  <node id="-543" visible="true" lat="43.82146529" lon="-72.52355885">
    <tag k="addr:city" v="Royalton"/>
    <tag k="addr:housenumber" v="119"/>
    <tag k="addr:street" v="North Windsor Street"/>
    <tag k="addr:state" v="VT"/>
    <tag k="ref:vcgi:esiteid" v="206231"/>
  </node>
  <node id="-544" visible="true" lat="43.82141892" lon="-72.52225062">
    <tag k="addr:city" v="Royalton"/>
    <tag k="addr:housenumber" v="15"/>
    <tag k="addr:street" v="Cornell Street"/>
    <tag k="addr:state" v="VT"/>
    <tag k="ref:vcgi:esiteid" v="206232"/>
  </node>
  <node id="-545" visible="true" lat="43.82139608" lon="-72.52085268">
    <tag k="addr:city" v="Royalton"/>
    <tag k="addr:housenumber" v="168"/>
    <tag k="addr:street" v="Chelsea Street"/>
    <tag k="addr:state" v="VT"/>
    <tag k="ref:vcgi:esiteid" v="206233"/>
  </node>
  <node id="-547" visible="true" lat="43.82121891" lon="-72.52319798">
    <tag k="addr:city" v="Royalton"/>
    <tag k="addr:housenumber" v="97"/>
    <tag k="addr:street" v="North Windsor Street"/>
    <tag k="addr:state" v="VT"/>
    <tag k="ref:vcgi:esiteid" v="206235"/>
  </node>
  <node id="-548" visible="true" lat="43.82129615" lon="-72.52003789">
    <tag k="addr:city" v="Royalton"/>
    <tag k="addr:housenumber" v="27"/>
    <tag k="addr:street" v="New Street"/>
    <tag k="addr:state" v="VT"/>
    <tag k="ref:vcgi:esiteid" v="206236"/>
  </node>
  <node id="-549" visible="true" lat="43.82124329" lon="-72.52111352">
    <tag k="addr:city" v="Royalton"/>
    <tag k="addr:housenumber" v="170"/>
    <tag k="addr:street" v="Chelsea Street"/>
    <tag k="addr:state" v="VT"/>
    <tag k="ref:vcgi:esiteid" v="206237"/>
  </node>
  <node id="-551" visible="true" lat="43.82117515" lon="-72.52200227">
    <tag k="addr:city" v="Royalton"/>
    <tag k="addr:housenumber" v="40"/>
    <tag k="addr:street" v="North Windsor Street"/>
    <tag k="addr:state" v="VT"/>
    <tag k="ref:vcgi:esiteid" v="206239"/>
  </node>
  <node id="-552" visible="true" lat="43.8212154" lon="-72.52280311">
    <tag k="addr:city" v="Royalton"/>
    <tag k="addr:housenumber" v="79"/>
    <tag k="addr:street" v="North Windsor Street"/>
    <tag k="addr:state" v="VT"/>
    <tag k="ref:vcgi:esiteid" v="206240"/>
  </node>
  <node id="-553" visible="true" lat="43.82107868" lon="-72.51970578">
    <tag k="addr:city" v="Royalton"/>
    <tag k="addr:housenumber" v="47"/>
    <tag k="addr:street" v="New Street"/>
    <tag k="addr:state" v="VT"/>
    <tag k="ref:vcgi:esiteid" v="206241"/>
  </node>
  <node id="-555" visible="true" lat="43.82106968" lon="-72.52125399">
    <tag k="addr:city" v="Royalton"/>
    <tag k="addr:housenumber" v="182"/>
    <tag k="addr:street" v="Chelsea Street"/>
    <tag k="addr:state" v="VT"/>
    <tag k="ref:vcgi:esiteid" v="206244"/>
  </node>
  <node id="-556" visible="true" lat="43.82101917" lon="-72.5218668">
    <tag k="addr:city" v="Royalton"/>
    <tag k="addr:housenumber" v="38"/>
    <tag k="addr:street" v="North Windsor Street"/>
    <tag k="addr:state" v="VT"/>
    <tag k="ref:vcgi:esiteid" v="206245"/>
  </node>
  <node id="-557" visible="true" lat="43.82105836" lon="-72.52260396">
    <tag k="addr:city" v="Royalton"/>
    <tag k="addr:housenumber" v="67"/>
    <tag k="addr:street" v="North Windsor Street"/>
    <tag k="addr:state" v="VT"/>
    <tag k="ref:vcgi:esiteid" v="206246"/>
  </node>
  <node id="-558" visible="true" lat="43.82102065" lon="-72.52060068">
    <tag k="addr:city" v="Royalton"/>
    <tag k="addr:housenumber" v="169"/>
    <tag k="addr:street" v="Chelsea Street"/>
    <tag k="addr:state" v="VT"/>
    <tag k="ref:vcgi:esiteid" v="206248"/>
  </node>
  <node id="-560" visible="true" lat="43.82091801" lon="-72.52166566">
    <tag k="addr:city" v="Royalton"/>
    <tag k="addr:housenumber" v="22"/>
    <tag k="addr:street" v="North Windsor Street"/>
    <tag k="addr:state" v="VT"/>
    <tag k="ref:vcgi:esiteid" v="206250"/>
  </node>
  <node id="-562" visible="true" lat="43.82091788" lon="-72.52230754">
    <tag k="addr:city" v="Royalton"/>
    <tag k="addr:housenumber" v="45"/>
    <tag k="addr:street" v="North Windsor Street"/>
    <tag k="addr:state" v="VT"/>
    <tag k="ref:vcgi:esiteid" v="206252"/>
  </node>
  <node id="-564" visible="true" lat="43.8208688" lon="-72.5199838">
    <tag k="addr:city" v="Royalton"/>
    <tag k="addr:housenumber" v="48"/>
    <tag k="addr:street" v="New Street"/>
    <tag k="addr:state" v="VT"/>
    <tag k="ref:vcgi:esiteid" v="206254"/>
  </node>
  <node id="-567" visible="true" lat="43.82077868" lon="-72.52400002">
    <tag k="addr:city" v="Royalton"/>
    <tag k="addr:housenumber" v="109"/>
    <tag k="addr:street" v="Acton Place"/>
    <tag k="addr:state" v="VT"/>
    <tag k="ref:vcgi:esiteid" v="206257"/>
  </node>
  <node id="-568" visible="true" lat="43.82080377" lon="-72.52083356">
    <tag k="addr:city" v="Royalton"/>
    <tag k="addr:housenumber" v="187"/>
    <tag k="addr:street" v="Chelsea Street"/>
    <tag k="addr:state" v="VT"/>
    <tag k="ref:vcgi:esiteid" v="206258"/>
  </node>
  <node id="-574" visible="true" lat="43.82059045" lon="-72.52037558">
    <tag k="addr:city" v="Royalton"/>
    <tag k="addr:housenumber" v="21"/>
    <tag k="addr:street" v="United Church Road"/>
    <tag k="addr:state" v="VT"/>
    <tag k="ref:vcgi:esiteid" v="206264"/>
  </node>
  <node id="-575" visible="true" lat="43.82066728" lon="-72.51985024">
    <tag k="addr:city" v="Royalton"/>
    <tag k="addr:housenumber" v="60"/>
    <tag k="addr:street" v="New Street"/>
    <tag k="addr:state" v="VT"/>
    <tag k="ref:vcgi:esiteid" v="206265"/>
  </node>
  <node id="-576" visible="true" lat="43.82049127" lon="-72.52166131">
    <tag k="addr:city" v="Royalton"/>
    <tag k="addr:housenumber" v="192"/>
    <tag k="addr:street" v="Chelsea Street"/>
    <tag k="addr:state" v="VT"/>
    <tag k="ref:vcgi:esiteid" v="206266"/>
  </node>
  <node id="-578" visible="true" lat="43.82053693" lon="-72.52371576">
    <tag k="addr:city" v="Royalton"/>
    <tag k="addr:housenumber" v="91"/>
    <tag k="addr:street" v="Acton Place"/>
    <tag k="addr:state" v="VT"/>
    <tag k="ref:vcgi:esiteid" v="206268"/>
  </node>
  <node id="-579" visible="true" lat="43.82049309" lon="-72.52088207">
    <tag k="addr:city" v="Royalton"/>
    <tag k="addr:housenumber" v="35"/>
    <tag k="addr:street" v="South Windsor Street"/>
    <tag k="addr:state" v="VT"/>
    <tag k="ref:vcgi:esiteid" v="206269"/>
  </node>
  <node id="-580" visible="true" lat="43.82032823" lon="-72.52259669">
    <tag k="addr:city" v="Royalton"/>
    <tag k="addr:housenumber" v="55"/>
    <tag k="addr:street" v="North Street"/>
    <tag k="addr:state" v="VT"/>
    <tag k="ref:vcgi:esiteid" v="206270"/>
  </node>
  <node id="-581" visible="true" lat="43.82039009" lon="-72.52068006">
    <tag k="addr:city" v="Royalton"/>
    <tag k="addr:housenumber" v="39"/>
    <tag k="addr:street" v="South Windsor Street"/>
    <tag k="addr:state" v="VT"/>
    <tag k="ref:vcgi:esiteid" v="206271"/>
  </node>
  <node id="-584" visible="true" lat="43.82018568" lon="-72.52340164">
    <tag k="addr:city" v="Royalton"/>
    <tag k="addr:housenumber" v="250"/>
    <tag k="addr:street" v="Rainbow Street"/>
    <tag k="addr:state" v="VT"/>
    <tag k="ref:vcgi:esiteid" v="206275"/>
  </node>
  <node id="-588" visible="true" lat="43.82033125" lon="-72.52043261">
    <tag k="addr:city" v="Royalton"/>
    <tag k="addr:housenumber" v="67"/>
    <tag k="addr:street" v="South Windsor Street"/>
    <tag k="addr:state" v="VT"/>
    <tag k="ref:vcgi:esiteid" v="206279"/>
  </node>
  <node id="-589" visible="true" lat="43.82004236" lon="-72.52360153">
    <tag k="addr:city" v="Royalton"/>
    <tag k="addr:housenumber" v="2"/>
    <tag k="addr:street" v="Pluck Hill Road"/>
    <tag k="addr:state" v="VT"/>
    <tag k="ref:vcgi:esiteid" v="206280"/>
  </node>
  <node id="-592" visible="true" lat="43.82007184" lon="-72.52022163">
    <tag k="addr:city" v="Royalton"/>
    <tag k="addr:housenumber" v="79"/>
    <tag k="addr:street" v="South Windsor Street"/>
    <tag k="addr:state" v="VT"/>
    <tag k="ref:vcgi:esiteid" v="206283"/>
  </node>
  <node id="-596" visible="true" lat="43.81990123" lon="-72.52383758">
    <tag k="addr:city" v="Royalton"/>
    <tag k="addr:housenumber" v="14"/>
    <tag k="addr:street" v="Pluck Hill Road"/>
    <tag k="addr:state" v="VT"/>
    <tag k="ref:vcgi:esiteid" v="206287"/>
  </node>
  <node id="-597" visible="true" lat="43.81993344" lon="-72.52010248">
    <tag k="addr:city" v="Royalton"/>
    <tag k="addr:housenumber" v="95"/>
    <tag k="addr:street" v="South Windsor Street"/>
    <tag k="addr:state" v="VT"/>
    <tag k="ref:vcgi:esiteid" v="206288"/>
  </node>
  <node id="-599" visible="true" lat="43.81980655" lon="-72.52323981">
    <tag k="addr:city" v="Royalton"/>
    <tag k="addr:housenumber" v="224"/>
    <tag k="addr:street" v="Rainbow Street"/>
    <tag k="addr:state" v="VT"/>
    <tag k="ref:vcgi:esiteid" v="206291"/>
  </node>
  <node id="-600" visible="true" lat="43.81982022" lon="-72.51997639">
    <tag k="addr:city" v="Royalton"/>
    <tag k="addr:housenumber" v="101"/>
    <tag k="addr:street" v="South Windsor Street"/>
    <tag k="addr:state" v="VT"/>
    <tag k="ref:vcgi:esiteid" v="206292"/>
  </node>
  <node id="-604" visible="true" lat="43.81972636" lon="-72.52350264">
    <tag k="addr:city" v="Royalton"/>
    <tag k="addr:housenumber" v="227"/>
    <tag k="addr:street" v="Rainbow Street"/>
    <tag k="addr:state" v="VT"/>
    <tag k="ref:vcgi:esiteid" v="206296"/>
  </node>
  <node id="-605" visible="true" lat="43.81975017" lon="-72.52305082">
    <tag k="addr:city" v="Royalton"/>
    <tag k="addr:housenumber" v="212"/>
    <tag k="addr:street" v="Rainbow Street"/>
    <tag k="addr:state" v="VT"/>
    <tag k="ref:vcgi:esiteid" v="206297"/>
  </node>
  <node id="-606" visible="true" lat="43.81959763" lon="-72.52332993">
    <tag k="addr:city" v="Royalton"/>
    <tag k="addr:housenumber" v="215"/>
    <tag k="addr:street" v="Rainbow Street"/>
    <tag k="addr:state" v="VT"/>
    <tag k="ref:vcgi:esiteid" v="206298"/>
  </node>
  <node id="-608" visible="true" lat="43.81963195" lon="-72.51950915">
    <tag k="addr:city" v="Royalton"/>
    <tag k="addr:housenumber" v="131"/>
    <tag k="addr:street" v="South Windsor Street"/>
    <tag k="addr:state" v="VT"/>
    <tag k="ref:vcgi:esiteid" v="206300"/>
  </node>
  <node id="-609" visible="true" lat="43.81962635" lon="-72.52015838">
    <tag k="addr:city" v="Royalton"/>
    <tag k="addr:housenumber" v="13"/>
    <tag k="addr:street" v="Park Street"/>
    <tag k="addr:state" v="VT"/>
    <tag k="ref:vcgi:esiteid" v="206301"/>
  </node>
  <node id="-610" visible="true" lat="43.81956855" lon="-72.51908685">
    <tag k="addr:city" v="Royalton"/>
    <tag k="addr:housenumber" v="145"/>
    <tag k="addr:street" v="South Windsor Street"/>
    <tag k="addr:state" v="VT"/>
    <tag k="ref:vcgi:esiteid" v="206302"/>
  </node>
  <node id="-613" visible="true" lat="43.81945211" lon="-72.52028226">
    <tag k="addr:city" v="Royalton"/>
    <tag k="addr:housenumber" v="25"/>
    <tag k="addr:street" v="Park Street"/>
    <tag k="addr:state" v="VT"/>
    <tag k="ref:vcgi:esiteid" v="206306"/>
  </node>
  <node id="-614" visible="true" lat="43.81933731" lon="-72.51911607">
    <tag k="addr:city" v="Royalton"/>
    <tag k="addr:housenumber" v="157"/>
    <tag k="addr:street" v="South Windsor Street"/>
    <tag k="addr:state" v="VT"/>
    <tag k="ref:vcgi:esiteid" v="206307"/>
  </node>
  <node id="-615" visible="true" lat="43.81933194" lon="-72.52051741">
    <tag k="addr:city" v="Royalton"/>
    <tag k="addr:housenumber" v="39"/>
    <tag k="addr:street" v="Park Street"/>
    <tag k="addr:state" v="VT"/>
    <tag k="ref:vcgi:esiteid" v="206308"/>
  </node>
  <node id="-617" visible="true" lat="43.81926267" lon="-72.51976635">
    <tag k="addr:city" v="Royalton"/>
    <tag k="addr:housenumber" v="138"/>
    <tag k="addr:street" v="South Windsor Street"/>
    <tag k="addr:state" v="VT"/>
    <tag k="ref:vcgi:esiteid" v="206310"/>
  </node>
  <node id="-618" visible="true" lat="43.81920254" lon="-72.52077269">
    <tag k="addr:city" v="Royalton"/>
    <tag k="addr:housenumber" v="53"/>
    <tag k="addr:street" v="Park Street"/>
    <tag k="addr:state" v="VT"/>
    <tag k="ref:vcgi:esiteid" v="206311"/>
  </node>
  <node id="-619" visible="true" lat="43.81921932" lon="-72.51885324">
    <tag k="addr:city" v="Royalton"/>
    <tag k="addr:housenumber" v="181"/>
    <tag k="addr:street" v="South Windsor Street"/>
    <tag k="addr:state" v="VT"/>
    <tag k="ref:vcgi:esiteid" v="206312"/>
  </node>
  <node id="-620" visible="true" lat="43.81916405" lon="-72.51941365">
    <tag k="addr:city" v="Royalton"/>
    <tag k="addr:housenumber" v="152"/>
    <tag k="addr:street" v="South Windsor Street"/>
    <tag k="addr:state" v="VT"/>
    <tag k="ref:vcgi:esiteid" v="206313"/>
  </node>
  <node id="-622" visible="true" lat="43.81906255" lon="-72.51927795">
    <tag k="addr:city" v="Royalton"/>
    <tag k="addr:housenumber" v="162"/>
    <tag k="addr:street" v="South Windsor Street"/>
    <tag k="addr:state" v="VT"/>
    <tag k="ref:vcgi:esiteid" v="206316"/>
  </node>
  <node id="-623" visible="true" lat="43.81898313" lon="-72.52100037">
    <tag k="addr:city" v="Royalton"/>
    <tag k="addr:housenumber" v="102"/>
    <tag k="addr:street" v="Railroad Street"/>
    <tag k="addr:state" v="VT"/>
    <tag k="ref:vcgi:esiteid" v="206318"/>
  </node>
  <node id="-625" visible="true" lat="43.81890032" lon="-72.5189578">
    <tag k="addr:city" v="Royalton"/>
    <tag k="addr:housenumber" v="186"/>
    <tag k="addr:street" v="South Windsor Street"/>
    <tag k="addr:state" v="VT"/>
    <tag k="ref:vcgi:esiteid" v="206320"/>
  </node>
  <node id="-628" visible="true" lat="43.81881405" lon="-72.52025572">
    <tag k="addr:city" v="Royalton"/>
    <tag k="addr:housenumber" v="141"/>
    <tag k="addr:street" v="Railroad Street"/>
    <tag k="addr:state" v="VT"/>
    <tag k="ref:vcgi:esiteid" v="206323"/>
  </node>
  <node id="-629" visible="true" lat="43.81861114" lon="-72.52220153">
    <tag k="addr:city" v="Royalton"/>
    <tag k="addr:housenumber" v="133"/>
    <tag k="addr:street" v="Rainbow Street"/>
    <tag k="addr:state" v="VT"/>
    <tag k="ref:vcgi:esiteid" v="206324"/>
  </node>
  <node id="-630" visible="true" lat="43.81871625" lon="-72.52312885">
    <tag k="addr:city" v="Royalton"/>
    <tag k="addr:housenumber" v="59"/>
    <tag k="addr:street" v="Parkview Terrace"/>
    <tag k="addr:state" v="VT"/>
    <tag k="ref:vcgi:esiteid" v="206325"/>
  </node>
  <node id="-632" visible="true" lat="43.81870866" lon="-72.52008971">
    <tag k="addr:city" v="Royalton"/>
    <tag k="addr:housenumber" v="151"/>
    <tag k="addr:street" v="Railroad Street"/>
    <tag k="addr:state" v="VT"/>
    <tag k="ref:vcgi:esiteid" v="206328"/>
  </node>
  <node id="-634" visible="true" lat="43.81854779" lon="-72.51920285">
    <tag k="addr:city" v="Royalton"/>
    <tag k="addr:housenumber" v="39"/>
    <tag k="addr:street" v="Safford Street"/>
    <tag k="addr:state" v="VT"/>
    <tag k="ref:vcgi:esiteid" v="206332"/>
  </node>
  <node id="-637" visible="true" lat="43.81844157" lon="-72.52181142">
    <tag k="addr:city" v="Royalton"/>
    <tag k="addr:housenumber" v="111"/>
    <tag k="addr:street" v="Rainbow Street"/>
    <tag k="addr:state" v="VT"/>
    <tag k="ref:vcgi:esiteid" v="206336"/>
  </node>
  <node id="-638" visible="true" lat="43.81843599" lon="-72.51930464">
    <tag k="addr:city" v="Royalton"/>
    <tag k="addr:housenumber" v="53"/>
    <tag k="addr:street" v="Safford Street"/>
    <tag k="addr:state" v="VT"/>
    <tag k="ref:vcgi:esiteid" v="206337"/>
  </node>
  <node id="-640" visible="true" lat="43.81846891" lon="-72.51876727">
    <tag k="addr:city" v="Royalton"/>
    <tag k="addr:housenumber" v="214"/>
    <tag k="addr:street" v="South Windsor Street"/>
    <tag k="addr:state" v="VT"/>
    <tag k="ref:vcgi:esiteid" v="206339"/>
  </node>
  <node id="-641" visible="true" lat="43.8183131" lon="-72.51825846">
    <tag k="addr:city" v="Royalton"/>
    <tag k="addr:housenumber" v="230"/>
    <tag k="addr:street" v="South Windsor Street"/>
    <tag k="addr:state" v="VT"/>
    <tag k="ref:vcgi:esiteid" v="206340"/>
  </node>
  <node id="-642" visible="true" lat="43.81837689" lon="-72.52134182">
    <tag k="addr:city" v="Royalton"/>
    <tag k="addr:housenumber" v="81"/>
    <tag k="addr:street" v="Rainbow Street"/>
    <tag k="addr:state" v="VT"/>
    <tag k="ref:vcgi:esiteid" v="206341"/>
  </node>
  <node id="-647" visible="true" lat="43.81825689" lon="-72.51802568">
    <tag k="addr:city" v="Royalton"/>
    <tag k="addr:housenumber" v="246"/>
    <tag k="addr:street" v="South Windsor Street"/>
    <tag k="addr:state" v="VT"/>
    <tag k="ref:vcgi:esiteid" v="206347"/>
  </node>
  <node id="-650" visible="true" lat="43.81809625" lon="-72.52076361">
    <tag k="addr:city" v="Royalton"/>
    <tag k="addr:housenumber" v="47"/>
    <tag k="addr:street" v="Rainbow Street"/>
    <tag k="addr:state" v="VT"/>
    <tag k="ref:vcgi:esiteid" v="206350"/>
  </node>
  <node id="-651" visible="true" lat="43.81809265" lon="-72.54719225">
    <tag k="addr:city" v="Royalton"/>
    <tag k="addr:housenumber" v="93"/>
    <tag k="addr:street" v="Lyon Road"/>
    <tag k="addr:state" v="VT"/>
    <tag k="ref:vcgi:esiteid" v="206351"/>
  </node>
  <node id="-653" visible="true" lat="43.81796977" lon="-72.51771586">
    <tag k="addr:city" v="Royalton"/>
    <tag k="addr:housenumber" v="266"/>
    <tag k="addr:street" v="South Windsor Street"/>
    <tag k="addr:state" v="VT"/>
    <tag k="ref:vcgi:esiteid" v="206353"/>
  </node>
  <node id="-656" visible="true" lat="43.81794731" lon="-72.51887074">
    <tag k="addr:city" v="Royalton"/>
    <tag k="addr:housenumber" v="59"/>
    <tag k="addr:street" v="Alexander Place"/>
    <tag k="addr:state" v="VT"/>
    <tag k="ref:vcgi:esiteid" v="206356"/>
  </node>
  <node id="-657" visible="true" lat="43.81791775" lon="-72.52053237">
    <tag k="addr:city" v="Royalton"/>
    <tag k="addr:housenumber" v="69"/>
    <tag k="addr:street" v="Rainbow Street"/>
    <tag k="addr:state" v="VT"/>
    <tag k="ref:vcgi:esiteid" v="206357"/>
  </node>
  <node id="-658" visible="true" lat="43.81797588" lon="-72.51924168">
    <tag k="addr:city" v="Royalton"/>
    <tag k="addr:housenumber" v="53"/>
    <tag k="addr:street" v="Alexander Place"/>
    <tag k="addr:state" v="VT"/>
    <tag k="ref:vcgi:esiteid" v="206358"/>
  </node>
  <node id="-660" visible="true" lat="43.81773652" lon="-72.51890094">
    <tag k="addr:city" v="Royalton"/>
    <tag k="addr:housenumber" v="71"/>
    <tag k="addr:street" v="Alexander Place"/>
    <tag k="addr:state" v="VT"/>
    <tag k="ref:vcgi:esiteid" v="206360"/>
  </node>
  <node id="-661" visible="true" lat="43.81775496" lon="-72.51635565">
    <tag k="addr:city" v="Royalton"/>
    <tag k="addr:housenumber" v="337"/>
    <tag k="addr:street" v="South Windsor Street"/>
    <tag k="addr:state" v="VT"/>
    <tag k="ref:vcgi:esiteid" v="206361"/>
  </node>
  <node id="-662" visible="true" lat="43.81761251" lon="-72.5473189">
    <tag k="addr:city" v="Royalton"/>
    <tag k="addr:housenumber" v="89"/>
    <tag k="addr:street" v="Lyon Road"/>
    <tag k="addr:state" v="VT"/>
    <tag k="ref:vcgi:esiteid" v="206362"/>
  </node>
  <node id="-664" visible="true" lat="43.81756672" lon="-72.51875429">
    <tag k="addr:city" v="Royalton"/>
    <tag k="addr:housenumber" v="89"/>
    <tag k="addr:street" v="Alexander Place"/>
    <tag k="addr:state" v="VT"/>
    <tag k="ref:vcgi:esiteid" v="206365"/>
  </node>
  <node id="-665" visible="true" lat="43.81765009" lon="-72.51465816">
    <tag k="addr:city" v="Royalton"/>
    <tag k="addr:housenumber" v="421"/>
    <tag k="addr:street" v="South Windsor Street"/>
    <tag k="addr:state" v="VT"/>
    <tag k="ref:vcgi:esiteid" v="206366"/>
  </node>
  <node id="-667" visible="true" lat="43.81749381" lon="-72.52014886">
    <tag k="addr:city" v="Royalton"/>
    <tag k="addr:housenumber" v="36"/>
    <tag k="addr:street" v="Pleasant Street"/>
    <tag k="addr:state" v="VT"/>
    <tag k="ref:vcgi:esiteid" v="206368"/>
  </node>
  <node id="-676" visible="true" lat="43.81718268" lon="-72.52007129">
    <tag k="addr:city" v="Royalton"/>
    <tag k="addr:housenumber" v="60"/>
    <tag k="addr:street" v="Pleasant Street"/>
    <tag k="addr:state" v="VT"/>
    <tag k="ref:vcgi:esiteid" v="206377"/>
  </node>
  <node id="-679" visible="true" lat="43.81719093" lon="-72.51851659">
    <tag k="addr:city" v="Royalton"/>
    <tag k="addr:housenumber" v="100"/>
    <tag k="addr:street" v="Alexander Place"/>
    <tag k="addr:state" v="VT"/>
    <tag k="ref:vcgi:esiteid" v="206380"/>
  </node>
  <node id="-680" visible="true" lat="43.81706124" lon="-72.51910291">
    <tag k="addr:city" v="Royalton"/>
    <tag k="addr:housenumber" v="89"/>
    <tag k="addr:street" v="Pleasant Street"/>
    <tag k="addr:state" v="VT"/>
    <tag k="ref:vcgi:esiteid" v="206381"/>
  </node>
  <node id="-689" visible="true" lat="43.81679811" lon="-72.51480046">
    <tag k="addr:city" v="Royalton"/>
    <tag k="addr:housenumber" v="429"/>
    <tag k="addr:street" v="South Windsor Street"/>
    <tag k="addr:state" v="VT"/>
    <tag k="ref:vcgi:esiteid" v="206391"/>
  </node>
  <node id="-693" visible="true" lat="43.81668196" lon="-72.5195747">
    <tag k="addr:city" v="Royalton"/>
    <tag k="addr:housenumber" v="106"/>
    <tag k="addr:street" v="Pleasant Street"/>
    <tag k="addr:state" v="VT"/>
    <tag k="ref:vcgi:esiteid" v="206396"/>
  </node>
  <node id="-694" visible="true" lat="43.81661142" lon="-72.51881008">
    <tag k="addr:city" v="Royalton"/>
    <tag k="addr:housenumber" v="129"/>
    <tag k="addr:street" v="Pleasant Street"/>
    <tag k="addr:state" v="VT"/>
    <tag k="ref:vcgi:esiteid" v="206397"/>
  </node>
  <node id="-695" visible="true" lat="43.81665166" lon="-72.51405575">
    <tag k="addr:city" v="Royalton"/>
    <tag k="addr:housenumber" v="19"/>
    <tag k="addr:street" v="Riverbend Park"/>
    <tag k="addr:state" v="VT"/>
    <tag k="ref:vcgi:esiteid" v="206398"/>
  </node>
  <node id="-697" visible="true" lat="43.81656065" lon="-72.51414834">
    <tag k="addr:city" v="Royalton"/>
    <tag k="addr:housenumber" v="17"/>
    <tag k="addr:street" v="Riverbend Park"/>
    <tag k="addr:state" v="VT"/>
    <tag k="ref:vcgi:esiteid" v="206400"/>
  </node>
  <node id="-698" visible="true" lat="43.81661095" lon="-72.51564398">
    <tag k="addr:city" v="Royalton"/>
    <tag k="addr:housenumber" v="412"/>
    <tag k="addr:street" v="South Windsor Street"/>
    <tag k="addr:state" v="VT"/>
    <tag k="ref:vcgi:esiteid" v="206401"/>
  </node>
  <node id="-700" visible="true" lat="43.81656154" lon="-72.51382805">
    <tag k="addr:city" v="Royalton"/>
    <tag k="addr:housenumber" v="25"/>
    <tag k="addr:street" v="Riverbend Park"/>
    <tag k="addr:state" v="VT"/>
    <tag k="ref:vcgi:esiteid" v="206403"/>
  </node>
  <node id="-701" visible="true" lat="43.81648671" lon="-72.51429449">
    <tag k="addr:city" v="Royalton"/>
    <tag k="addr:housenumber" v="9"/>
    <tag k="addr:street" v="Riverbend Park"/>
    <tag k="addr:state" v="VT"/>
    <tag k="ref:vcgi:esiteid" v="206405"/>
  </node>
  <node id="-705" visible="true" lat="43.81639989" lon="-72.51441749">
    <tag k="addr:city" v="Royalton"/>
    <tag k="addr:housenumber" v="1"/>
    <tag k="addr:street" v="Riverbend Park"/>
    <tag k="addr:state" v="VT"/>
    <tag k="ref:vcgi:esiteid" v="206409"/>
  </node>
  <node id="-706" visible="true" lat="43.81630033" lon="-72.51923552">
    <tag k="addr:city" v="Royalton"/>
    <tag k="addr:housenumber" v="138"/>
    <tag k="addr:street" v="Pleasant Street"/>
    <tag k="addr:state" v="VT"/>
    <tag k="ref:vcgi:esiteid" v="206412"/>
  </node>
  <node id="-707" visible="true" lat="43.81623484" lon="-72.52283188">
    <tag k="addr:city" v="Royalton"/>
    <tag k="addr:housenumber" v="302"/>
    <tag k="addr:street" v="Pluck Hill Road"/>
    <tag k="addr:state" v="VT"/>
    <tag k="ref:vcgi:esiteid" v="206413"/>
  </node>
  <node id="-708" visible="true" lat="43.81623353" lon="-72.51371964">
    <tag k="addr:city" v="Royalton"/>
    <tag k="addr:housenumber" v="38"/>
    <tag k="addr:street" v="Riverbend Park"/>
    <tag k="addr:state" v="VT"/>
    <tag k="ref:vcgi:esiteid" v="206414"/>
  </node>
  <node id="-709" visible="true" lat="43.81621349" lon="-72.51383356">
    <tag k="addr:city" v="Royalton"/>
    <tag k="addr:housenumber" v="40"/>
    <tag k="addr:street" v="Riverbend Park"/>
    <tag k="addr:state" v="VT"/>
    <tag k="ref:vcgi:esiteid" v="206415"/>
  </node>
  <node id="-710" visible="true" lat="43.81620344" lon="-72.51400772">
    <tag k="addr:city" v="Royalton"/>
    <tag k="addr:housenumber" v="66"/>
    <tag k="addr:street" v="Riverbend Park"/>
    <tag k="addr:state" v="VT"/>
    <tag k="ref:vcgi:esiteid" v="206416"/>
  </node>
  <node id="-711" visible="true" lat="43.81624106" lon="-72.5134579">
    <tag k="addr:city" v="Royalton"/>
    <tag k="addr:housenumber" v="43"/>
    <tag k="addr:street" v="Riverbend Park"/>
    <tag k="addr:state" v="VT"/>
    <tag k="ref:vcgi:esiteid" v="206417"/>
  </node>
  <node id="-712" visible="true" lat="43.81606634" lon="-72.54749831">
    <tag k="addr:city" v="Royalton"/>
    <tag k="addr:housenumber" v="124"/>
    <tag k="addr:street" v="Lyon Road"/>
    <tag k="addr:state" v="VT"/>
    <tag k="ref:vcgi:esiteid" v="206418"/>
  </node>
  <node id="-713" visible="true" lat="43.81595501" lon="-72.5448376">
    <tag k="addr:city" v="Royalton"/>
    <tag k="addr:housenumber" v="33"/>
    <tag k="addr:street" v="Royalton Common Road"/>
    <tag k="addr:state" v="VT"/>
    <tag k="ref:vcgi:esiteid" v="206419"/>
  </node>
  <node id="-716" visible="true" lat="43.81595454" lon="-72.51459966">
    <tag k="addr:city" v="Royalton"/>
    <tag k="addr:housenumber" v="21"/>
    <tag k="addr:street" v="Caron Circle"/>
    <tag k="addr:state" v="VT"/>
    <tag k="ref:vcgi:esiteid" v="206422"/>
  </node>
  <node id="-719" visible="true" lat="43.81594502" lon="-72.51898246">
    <tag k="addr:city" v="Royalton"/>
    <tag k="addr:housenumber" v="170"/>
    <tag k="addr:street" v="Pleasant Street"/>
    <tag k="addr:state" v="VT"/>
    <tag k="ref:vcgi:esiteid" v="206425"/>
  </node>
  <node id="-722" visible="true" lat="43.81576882" lon="-72.54575965">
    <tag k="addr:city" v="Royalton"/>
    <tag k="addr:housenumber" v="39"/>
    <tag k="addr:street" v="Royalton Common Road"/>
    <tag k="addr:state" v="VT"/>
    <tag k="ref:vcgi:esiteid" v="206428"/>
  </node>
  <node id="-723" visible="true" lat="43.81574381" lon="-72.51411526">
    <tag k="addr:city" v="Royalton"/>
    <tag k="addr:housenumber" v="506"/>
    <tag k="addr:street" v="South Windsor Street"/>
    <tag k="addr:state" v="VT"/>
    <tag k="ref:vcgi:esiteid" v="206429"/>
  </node>
  <node id="-724" visible="true" lat="43.81564243" lon="-72.54829237">
    <tag k="addr:city" v="Royalton"/>
    <tag k="addr:housenumber" v="75"/>
    <tag k="addr:street" v="Lyon Road"/>
    <tag k="addr:state" v="VT"/>
    <tag k="ref:vcgi:esiteid" v="206430"/>
  </node>
  <node id="-725" visible="true" lat="43.81569991" lon="-72.51485696">
    <tag k="addr:city" v="Royalton"/>
    <tag k="addr:housenumber" v="43"/>
    <tag k="addr:street" v="Caron Circle"/>
    <tag k="addr:state" v="VT"/>
    <tag k="ref:vcgi:esiteid" v="206431"/>
  </node>
  <node id="-727" visible="true" lat="43.81565331" lon="-72.51876817">
    <tag k="addr:city" v="Royalton"/>
    <tag k="addr:housenumber" v="190"/>
    <tag k="addr:street" v="Pleasant Street"/>
    <tag k="addr:state" v="VT"/>
    <tag k="ref:vcgi:esiteid" v="206433"/>
  </node>
  <node id="-730" visible="true" lat="43.81562381" lon="-72.51336601">
    <tag k="addr:city" v="Royalton"/>
    <tag k="addr:housenumber" v="539"/>
    <tag k="addr:street" v="South Windsor Street"/>
    <tag k="addr:state" v="VT"/>
    <tag k="ref:vcgi:esiteid" v="206436"/>
  </node>
  <node id="-731" visible="true" lat="43.81557738" lon="-72.54922113">
    <tag k="addr:city" v="Royalton"/>
    <tag k="addr:housenumber" v="39"/>
    <tag k="addr:street" v="Lyon Road"/>
    <tag k="addr:state" v="VT"/>
    <tag k="ref:vcgi:esiteid" v="206437"/>
  </node>
  <node id="-732" visible="true" lat="43.81554349" lon="-72.51523883">
    <tag k="addr:city" v="Royalton"/>
    <tag k="addr:housenumber" v="89"/>
    <tag k="addr:street" v="Caron Circle"/>
    <tag k="addr:state" v="VT"/>
    <tag k="ref:vcgi:esiteid" v="206439"/>
  </node>
  <node id="-734" visible="true" lat="43.81544123" lon="-72.51814961">
    <tag k="addr:city" v="Royalton"/>
    <tag k="addr:housenumber" v="221"/>
    <tag k="addr:street" v="Pleasant Street"/>
    <tag k="addr:state" v="VT"/>
    <tag k="ref:vcgi:esiteid" v="206441"/>
  </node>
  <node id="-741" visible="true" lat="43.81532562" lon="-72.51434578">
    <tag k="addr:city" v="Royalton"/>
    <tag k="addr:housenumber" v="169"/>
    <tag k="addr:street" v="Caron Circle"/>
    <tag k="addr:state" v="VT"/>
    <tag k="ref:vcgi:esiteid" v="206448"/>
  </node>
  <node id="-744" visible="true" lat="43.81531695" lon="-72.51505415">
    <tag k="addr:city" v="Royalton"/>
    <tag k="addr:housenumber" v="107"/>
    <tag k="addr:street" v="Caron Circle"/>
    <tag k="addr:state" v="VT"/>
    <tag k="ref:vcgi:esiteid" v="206451"/>
  </node>
  <node id="-745" visible="true" lat="43.815264" lon="-72.54671144">
    <tag k="addr:city" v="Royalton"/>
    <tag k="addr:housenumber" v="58"/>
    <tag k="addr:street" v="Bridge Street"/>
    <tag k="addr:state" v="VT"/>
    <tag k="ref:vcgi:esiteid" v="206452"/>
  </node>
  <node id="-746" visible="true" lat="43.81524041" lon="-72.54902324">
    <tag k="addr:city" v="Royalton"/>
    <tag k="addr:housenumber" v="23"/>
    <tag k="addr:street" v="Lyon Road"/>
    <tag k="addr:state" v="VT"/>
    <tag k="ref:vcgi:esiteid" v="206453"/>
  </node>
  <node id="-749" visible="true" lat="43.815275" lon="-72.51804669">
    <tag k="addr:city" v="Royalton"/>
    <tag k="addr:housenumber" v="235"/>
    <tag k="addr:street" v="Pleasant Street"/>
    <tag k="addr:state" v="VT"/>
    <tag k="ref:vcgi:esiteid" v="206456"/>
  </node>
  <node id="-751" visible="true" lat="43.81522306" lon="-72.51557623">
    <tag k="addr:city" v="Royalton"/>
    <tag k="addr:housenumber" v="96"/>
    <tag k="addr:street" v="Caron Circle"/>
    <tag k="addr:state" v="VT"/>
    <tag k="ref:vcgi:esiteid" v="206458"/>
  </node>
  <node id="-752" visible="true" lat="43.81513586" lon="-72.51478815">
    <tag k="addr:city" v="Royalton"/>
    <tag k="addr:housenumber" v="143"/>
    <tag k="addr:street" v="Caron Circle"/>
    <tag k="addr:state" v="VT"/>
    <tag k="ref:vcgi:esiteid" v="206459"/>
  </node>
  <node id="-753" visible="true" lat="43.81517634" lon="-72.51374517">
    <tag k="addr:city" v="Royalton"/>
    <tag k="addr:housenumber" v="190"/>
    <tag k="addr:street" v="Caron Circle"/>
    <tag k="addr:state" v="VT"/>
    <tag k="ref:vcgi:esiteid" v="206460"/>
  </node>
  <node id="-755" visible="true" lat="43.8151519" lon="-72.51772025">
    <tag k="addr:city" v="Royalton"/>
    <tag k="addr:housenumber" v="251"/>
    <tag k="addr:street" v="Pleasant Street"/>
    <tag k="addr:state" v="VT"/>
    <tag k="ref:vcgi:esiteid" v="206462"/>
  </node>
  <node id="-756" visible="true" lat="43.81509803" lon="-72.54598934">
    <tag k="addr:city" v="Royalton"/>
    <tag k="addr:housenumber" v="89"/>
    <tag k="addr:street" v="Bridge Street"/>
    <tag k="addr:state" v="VT"/>
    <tag k="ref:vcgi:esiteid" v="206463"/>
  </node>
  <node id="-757" visible="true" lat="43.81502756" lon="-72.51411691">
    <tag k="addr:city" v="Royalton"/>
    <tag k="addr:housenumber" v="170"/>
    <tag k="addr:street" v="Caron Circle"/>
    <tag k="addr:state" v="VT"/>
    <tag k="ref:vcgi:esiteid" v="206464"/>
  </node>
  <node id="-759" visible="true" lat="43.81493228" lon="-72.5135243">
    <tag k="addr:city" v="Royalton"/>
    <tag k="addr:housenumber" v="564"/>
    <tag k="addr:street" v="South Windsor Street"/>
    <tag k="addr:state" v="VT"/>
    <tag k="ref:vcgi:esiteid" v="206466"/>
  </node>
  <node id="-761" visible="true" lat="43.81498793" lon="-72.5167301">
    <tag k="addr:city" v="Royalton"/>
    <tag k="addr:housenumber" v="69"/>
    <tag k="addr:street" v="South Street"/>
    <tag k="addr:state" v="VT"/>
    <tag k="ref:vcgi:esiteid" v="206468"/>
  </node>
  <node id="-762" visible="true" lat="43.81490217" lon="-72.54991033">
    <tag k="addr:city" v="Royalton"/>
    <tag k="addr:housenumber" v="13"/>
    <tag k="addr:street" v="Lyon Road"/>
    <tag k="addr:state" v="VT"/>
    <tag k="ref:vcgi:esiteid" v="206469"/>
  </node>
  <node id="-763" visible="true" lat="43.81487839" lon="-72.51824693">
    <tag k="addr:city" v="Royalton"/>
    <tag k="addr:housenumber" v="246"/>
    <tag k="addr:street" v="Pleasant Street"/>
    <tag k="addr:state" v="VT"/>
    <tag k="ref:vcgi:esiteid" v="206470"/>
  </node>
  <node id="-765" visible="true" lat="43.81489606" lon="-72.55539179">
    <tag k="addr:city" v="Royalton"/>
    <tag k="addr:housenumber" v="188"/>
    <tag k="addr:street" v="Vesper Road"/>
    <tag k="addr:state" v="VT"/>
    <tag k="ref:vcgi:esiteid" v="206472"/>
  </node>
  <node id="-768" visible="true" lat="43.81488496" lon="-72.51442209">
    <tag k="addr:city" v="Royalton"/>
    <tag k="addr:housenumber" v="152"/>
    <tag k="addr:street" v="Caron Circle"/>
    <tag k="addr:state" v="VT"/>
    <tag k="ref:vcgi:esiteid" v="206475"/>
  </node>
  <node id="-769" visible="true" lat="43.81484637" lon="-72.51525329">
    <tag k="addr:city" v="Royalton"/>
    <tag k="addr:housenumber" v="126"/>
    <tag k="addr:street" v="Caron Circle"/>
    <tag k="addr:state" v="VT"/>
    <tag k="ref:vcgi:esiteid" v="206476"/>
  </node>
  <node id="-771" visible="true" lat="43.81479373" lon="-72.51291468">
    <tag k="addr:city" v="Royalton"/>
    <tag k="addr:housenumber" v="593"/>
    <tag k="addr:street" v="South Windsor Street"/>
    <tag k="addr:state" v="VT"/>
    <tag k="ref:vcgi:esiteid" v="206478"/>
  </node>
  <node id="-775" visible="true" lat="43.81473524" lon="-72.51473818">
    <tag k="addr:city" v="Royalton"/>
    <tag k="addr:housenumber" v="136"/>
    <tag k="addr:street" v="Caron Circle"/>
    <tag k="addr:state" v="VT"/>
    <tag k="ref:vcgi:esiteid" v="206482"/>
  </node>
  <node id="-778" visible="true" lat="43.81467536" lon="-72.51634277">
    <tag k="addr:city" v="Royalton"/>
    <tag k="addr:housenumber" v="60"/>
    <tag k="addr:street" v="South Street"/>
    <tag k="addr:state" v="VT"/>
    <tag k="ref:vcgi:esiteid" v="206485"/>
  </node>
  <node id="-779" visible="true" lat="43.81453502" lon="-72.51326201">
    <tag k="addr:city" v="Royalton"/>
    <tag k="addr:housenumber" v="596"/>
    <tag k="addr:street" v="South Windsor Street"/>
    <tag k="addr:state" v="VT"/>
    <tag k="ref:vcgi:esiteid" v="206487"/>
  </node>
  <node id="-781" visible="true" lat="43.81445751" lon="-72.51652658">
    <tag k="addr:city" v="Royalton"/>
    <tag k="addr:housenumber" v="50"/>
    <tag k="addr:street" v="South Street"/>
    <tag k="addr:state" v="VT"/>
    <tag k="ref:vcgi:esiteid" v="206489"/>
  </node>
  <node id="-785" visible="true" lat="43.81427438" lon="-72.51307798">
    <tag k="addr:city" v="Royalton"/>
    <tag k="addr:housenumber" v="616"/>
    <tag k="addr:street" v="South Windsor Street"/>
    <tag k="addr:state" v="VT"/>
    <tag k="ref:vcgi:esiteid" v="206493"/>
  </node>
  <node id="-789" visible="true" lat="43.81426599" lon="-72.51252566">
    <tag k="addr:city" v="Royalton"/>
    <tag k="addr:housenumber" v="635"/>
    <tag k="addr:street" v="South Windsor Street"/>
    <tag k="addr:state" v="VT"/>
    <tag k="ref:vcgi:esiteid" v="206497"/>
  </node>
  <node id="-790" visible="true" lat="43.81423605" lon="-72.51689131">
    <tag k="addr:city" v="Royalton"/>
    <tag k="addr:housenumber" v="20"/>
    <tag k="addr:street" v="South Street"/>
    <tag k="addr:state" v="VT"/>
    <tag k="ref:vcgi:esiteid" v="206498"/>
  </node>
  <node id="-794" visible="true" lat="43.81398862" lon="-72.51727543">
    <tag k="addr:city" v="Royalton"/>
    <tag k="addr:housenumber" v="10"/>
    <tag k="addr:street" v="South Street"/>
    <tag k="addr:state" v="VT"/>
    <tag k="ref:vcgi:esiteid" v="206502"/>
  </node>
  <node id="-796" visible="true" lat="43.81386422" lon="-72.51292446">
    <tag k="addr:city" v="Royalton"/>
    <tag k="addr:housenumber" v="640"/>
    <tag k="addr:street" v="South Windsor Street"/>
    <tag k="addr:state" v="VT"/>
    <tag k="ref:vcgi:esiteid" v="206504"/>
  </node>
  <node id="-798" visible="true" lat="43.81381008" lon="-72.51600068">
    <tag k="addr:city" v="Royalton"/>
    <tag k="addr:housenumber" v="71"/>
    <tag k="addr:street" v="Oxbow Road"/>
    <tag k="addr:state" v="VT"/>
    <tag k="ref:vcgi:esiteid" v="206506"/>
  </node>
  <node id="-799" visible="true" lat="43.8137628" lon="-72.51773376">
    <tag k="addr:city" v="Royalton"/>
    <tag k="addr:housenumber" v="52"/>
    <tag k="addr:street" v="Oxbow Road"/>
    <tag k="addr:state" v="VT"/>
    <tag k="ref:vcgi:esiteid" v="206507"/>
  </node>
  <node id="-804" visible="true" lat="43.8136342" lon="-72.51263187">
    <tag k="addr:city" v="Royalton"/>
    <tag k="addr:housenumber" v="666"/>
    <tag k="addr:street" v="South Windsor Street"/>
    <tag k="addr:state" v="VT"/>
    <tag k="ref:vcgi:esiteid" v="206512"/>
  </node>
  <node id="-808" visible="true" lat="43.8135631" lon="-72.51212893">
    <tag k="addr:city" v="Royalton"/>
    <tag k="addr:housenumber" v="687"/>
    <tag k="addr:street" v="South Windsor Street"/>
    <tag k="addr:state" v="VT"/>
    <tag k="ref:vcgi:esiteid" v="206517"/>
  </node>
  <node id="-813" visible="true" lat="43.81330036" lon="-72.51263698">
    <tag k="addr:city" v="Royalton"/>
    <tag k="addr:housenumber" v="686"/>
    <tag k="addr:street" v="South Windsor Street"/>
    <tag k="addr:state" v="VT"/>
    <tag k="ref:vcgi:esiteid" v="206522"/>
  </node>
  <node id="-814" visible="true" lat="43.81314422" lon="-72.51271043">
    <tag k="addr:city" v="Royalton"/>
    <tag k="addr:housenumber" v="690"/>
    <tag k="addr:street" v="South Windsor Street"/>
    <tag k="addr:state" v="VT"/>
    <tag k="ref:vcgi:esiteid" v="206523"/>
  </node>
  <node id="-818" visible="true" lat="43.81295969" lon="-72.51281119">
    <tag k="addr:city" v="Royalton"/>
    <tag k="addr:housenumber" v="700"/>
    <tag k="addr:street" v="South Windsor Street"/>
    <tag k="addr:state" v="VT"/>
    <tag k="ref:vcgi:esiteid" v="206527"/>
  </node>
  <node id="-820" visible="true" lat="43.81314467" lon="-72.51190058">
    <tag k="addr:city" v="Royalton"/>
    <tag k="addr:housenumber" v="721"/>
    <tag k="addr:street" v="South Windsor Street"/>
    <tag k="addr:state" v="VT"/>
    <tag k="ref:vcgi:esiteid" v="206529"/>
  </node>
  <node id="-821" visible="true" lat="43.81270828" lon="-72.51279796">
    <tag k="addr:city" v="Royalton"/>
    <tag k="addr:housenumber" v="712"/>
    <tag k="addr:street" v="South Windsor Street"/>
    <tag k="addr:state" v="VT"/>
    <tag k="ref:vcgi:esiteid" v="206530"/>
  </node>
  <node id="-822" visible="true" lat="43.81259616" lon="-72.51261598">
    <tag k="addr:city" v="Royalton"/>
    <tag k="addr:housenumber" v="724"/>
    <tag k="addr:street" v="South Windsor Street"/>
    <tag k="addr:state" v="VT"/>
    <tag k="ref:vcgi:esiteid" v="206531"/>
  </node>
  <node id="-824" visible="true" lat="43.81232135" lon="-72.51261766">
    <tag k="addr:city" v="Royalton"/>
    <tag k="addr:housenumber" v="738"/>
    <tag k="addr:street" v="South Windsor Street"/>
    <tag k="addr:state" v="VT"/>
    <tag k="ref:vcgi:esiteid" v="206533"/>
  </node>
  <node id="-828" visible="true" lat="43.81221826" lon="-72.51240774">
    <tag k="addr:city" v="Royalton"/>
    <tag k="addr:housenumber" v="754"/>
    <tag k="addr:street" v="South Windsor Street"/>
    <tag k="addr:state" v="VT"/>
    <tag k="ref:vcgi:esiteid" v="206537"/>
  </node>
  <node id="-832" visible="true" lat="43.81193837" lon="-72.5140487">
    <tag k="addr:city" v="Royalton"/>
    <tag k="addr:housenumber" v="73"/>
    <tag k="addr:street" v="Oxbow Road"/>
    <tag k="addr:state" v="VT"/>
    <tag k="ref:vcgi:esiteid" v="206541"/>
  </node>
  <node id="-843" visible="true" lat="43.81090971" lon="-72.51116253">
    <tag k="addr:city" v="Royalton"/>
    <tag k="addr:housenumber" v="864"/>
    <tag k="addr:street" v="South Windsor Street"/>
    <tag k="addr:state" v="VT"/>
    <tag k="ref:vcgi:esiteid" v="206552"/>
  </node>
  <node id="-847" visible="true" lat="43.81027074" lon="-72.51071839">
    <tag k="addr:city" v="Royalton"/>
    <tag k="addr:housenumber" v="914"/>
    <tag k="addr:street" v="South Windsor Street"/>
    <tag k="addr:state" v="VT"/>
    <tag k="ref:vcgi:esiteid" v="206556"/>
  </node>
  <node id="-850" visible="true" lat="43.81003992" lon="-72.51083663">
    <tag k="addr:city" v="Royalton"/>
    <tag k="addr:housenumber" v="930"/>
    <tag k="addr:street" v="South Windsor Street"/>
    <tag k="addr:state" v="VT"/>
    <tag k="ref:vcgi:esiteid" v="206559"/>
  </node>
  <node id="-859" visible="true" lat="43.8096217" lon="-72.51035099">
    <tag k="addr:city" v="Royalton"/>
    <tag k="addr:housenumber" v="966"/>
    <tag k="addr:street" v="South Windsor Street"/>
    <tag k="addr:state" v="VT"/>
    <tag k="ref:vcgi:esiteid" v="206568"/>
  </node>
  <node id="-864" visible="true" lat="43.8093708" lon="-72.50166301">
    <tag k="addr:city" v="Royalton"/>
    <tag k="addr:housenumber" v="79"/>
    <tag k="addr:street" v="Aussie Lane"/>
    <tag k="addr:state" v="VT"/>
    <tag k="ref:vcgi:esiteid" v="206573"/>
  </node>
  <node id="-865" visible="true" lat="43.80910825" lon="-72.51173143">
    <tag k="addr:city" v="Royalton"/>
    <tag k="addr:housenumber" v="116"/>
    <tag k="addr:street" v="Hillside Lane"/>
    <tag k="addr:state" v="VT"/>
    <tag k="ref:vcgi:esiteid" v="206574"/>
  </node>
  <node id="-868" visible="true" lat="43.80891363" lon="-72.50123227">
    <tag k="addr:city" v="Royalton"/>
    <tag k="addr:housenumber" v="139"/>
    <tag k="addr:street" v="Avery Lane"/>
    <tag k="addr:state" v="VT"/>
    <tag k="ref:vcgi:esiteid" v="206577"/>
  </node>
  <node id="-869" visible="true" lat="43.80887005" lon="-72.51228985">
    <tag k="addr:city" v="Royalton"/>
    <tag k="addr:housenumber" v="120"/>
    <tag k="addr:street" v="Hillside Lane"/>
    <tag k="addr:state" v="VT"/>
    <tag k="ref:vcgi:esiteid" v="206578"/>
  </node>
  <node id="-873" visible="true" lat="43.80826233" lon="-72.50072123">
    <tag k="addr:city" v="Royalton"/>
    <tag k="addr:housenumber" v="92"/>
    <tag k="addr:street" v="Avery Lane"/>
    <tag k="addr:state" v="VT"/>
    <tag k="ref:vcgi:esiteid" v="206582"/>
  </node>
  <node id="-875" visible="true" lat="43.80812611" lon="-72.51061019">
    <tag k="addr:city" v="Royalton"/>
    <tag k="addr:housenumber" v="75"/>
    <tag k="addr:street" v="Hillside Lane"/>
    <tag k="addr:state" v="VT"/>
    <tag k="ref:vcgi:esiteid" v="206585"/>
  </node>
  <node id="-886" visible="true" lat="43.80679464" lon="-72.50856618">
    <tag k="addr:city" v="Royalton"/>
    <tag k="addr:housenumber" v="124"/>
    <tag k="addr:street" v="Stearns Road"/>
    <tag k="addr:state" v="VT"/>
    <tag k="ref:vcgi:esiteid" v="206596"/>
  </node>
  <node id="-902" visible="true" lat="43.80461089" lon="-72.50666781">
    <tag k="addr:city" v="Royalton"/>
    <tag k="addr:housenumber" v="298"/>
    <tag k="addr:street" v="Stearns Road"/>
    <tag k="addr:state" v="VT"/>
    <tag k="ref:vcgi:esiteid" v="206615"/>
  </node>
  <node id="-904" visible="true" lat="43.80426433" lon="-72.50639698">
    <tag k="addr:city" v="Royalton"/>
    <tag k="addr:housenumber" v="328"/>
    <tag k="addr:street" v="Stearns Road"/>
    <tag k="addr:state" v="VT"/>
    <tag k="ref:vcgi:esiteid" v="206617"/>
  </node>
  <node id="-921" visible="true" lat="43.80192752" lon="-72.5063612">
    <tag k="addr:city" v="Royalton"/>
    <tag k="addr:housenumber" v="120"/>
    <tag k="addr:street" v="Dutton Road"/>
    <tag k="addr:state" v="VT"/>
    <tag k="ref:vcgi:esiteid" v="206635"/>
  </node>
  <node id="-923" visible="true" lat="43.80119549" lon="-72.50505952">
    <tag k="addr:city" v="Royalton"/>
    <tag k="addr:housenumber" v="546"/>
    <tag k="addr:street" v="Stearns Road"/>
    <tag k="addr:state" v="VT"/>
    <tag k="ref:vcgi:esiteid" v="206637"/>
  </node>
  <node id="-929" visible="true" lat="43.79962424" lon="-72.50391759">
    <tag k="addr:city" v="Royalton"/>
    <tag k="addr:housenumber" v="1732"/>
    <tag k="addr:street" v="South Windsor Street"/>
    <tag k="addr:state" v="VT"/>
    <tag k="ref:vcgi:esiteid" v="206643"/>
  </node>
  <node id="-946" visible="true" lat="43.79658167" lon="-72.50369488">
    <tag k="addr:city" v="Royalton"/>
    <tag k="addr:housenumber" v="1932"/>
    <tag k="addr:street" v="South Windsor Street"/>
    <tag k="addr:state" v="VT"/>
    <tag k="ref:vcgi:esiteid" v="206660"/>
  </node>
  <node id="-956" visible="true" lat="43.79463659" lon="-72.50054994">
    <tag k="addr:city" v="Royalton"/>
    <tag k="addr:housenumber" v="2128"/>
    <tag k="addr:street" v="South Windsor Street"/>
    <tag k="addr:state" v="VT"/>
    <tag k="ref:vcgi:esiteid" v="206670"/>
  </node>
  <node id="-959" visible="true" lat="43.79441903" lon="-72.50003346">
    <tag k="addr:city" v="Royalton"/>
    <tag k="addr:housenumber" v="2178"/>
    <tag k="addr:street" v="South Windsor Street"/>
    <tag k="addr:state" v="VT"/>
    <tag k="ref:vcgi:esiteid" v="206673"/>
  </node>
  <node id="-1011" visible="true" lat="43.78464272" lon="-72.51292561">
    <tag k="addr:city" v="Royalton"/>
    <tag k="addr:housenumber" v="1155"/>
    <tag k="addr:street" v="Harlow Road"/>
    <tag k="addr:state" v="VT"/>
    <tag k="ref:vcgi:esiteid" v="206726"/>
  </node>
  <node id="-1012" visible="true" lat="43.7841978" lon="-72.5160084">
    <tag k="addr:city" v="Royalton"/>
    <tag k="addr:housenumber" v="2144"/>
    <tag k="addr:street" v="Broad Brook Road"/>
    <tag k="addr:state" v="VT"/>
    <tag k="ref:vcgi:esiteid" v="206727"/>
  </node>
  <node id="-1013" visible="true" lat="43.78445753" lon="-72.51708127">
    <tag k="addr:city" v="Royalton"/>
    <tag k="addr:housenumber" v="1421"/>
    <tag k="addr:street" v="Harlow Road"/>
    <tag k="addr:state" v="VT"/>
    <tag k="ref:vcgi:esiteid" v="206728"/>
  </node>
  <node id="-1017" visible="true" lat="43.7842282" lon="-72.51752909">
    <tag k="addr:city" v="Royalton"/>
    <tag k="addr:housenumber" v="1455"/>
    <tag k="addr:street" v="Harlow Road"/>
    <tag k="addr:state" v="VT"/>
    <tag k="ref:vcgi:esiteid" v="206733"/>
  </node>
  <node id="-1020" visible="true" lat="43.78370424" lon="-72.51897128">
    <tag k="addr:city" v="Royalton"/>
    <tag k="addr:housenumber" v="2264"/>
    <tag k="addr:street" v="Broad Brook Road"/>
    <tag k="addr:state" v="VT"/>
    <tag k="ref:vcgi:esiteid" v="206738"/>
  </node>
  <node id="-1023" visible="true" lat="43.78355959" lon="-72.50766791">
    <tag k="addr:city" v="Royalton"/>
    <tag k="addr:housenumber" v="939"/>
    <tag k="addr:street" v="Harlow Road"/>
    <tag k="addr:state" v="VT"/>
    <tag k="ref:vcgi:esiteid" v="206741"/>
  </node>
  <node id="-1028" visible="true" lat="43.78282227" lon="-72.51945892">
    <tag k="addr:city" v="Royalton"/>
    <tag k="addr:housenumber" v="2351"/>
    <tag k="addr:street" v="Broad Brook Road"/>
    <tag k="addr:state" v="VT"/>
    <tag k="ref:vcgi:esiteid" v="206747"/>
  </node>
  <node id="-1033" visible="true" lat="43.7824835" lon="-72.52093284">
    <tag k="addr:city" v="Royalton"/>
    <tag k="addr:housenumber" v="20"/>
    <tag k="addr:street" v="Frary Road"/>
    <tag k="addr:state" v="VT"/>
    <tag k="ref:vcgi:esiteid" v="206752"/>
  </node>
  <node id="-1038" visible="true" lat="43.78178742" lon="-72.51453184">
    <tag k="addr:city" v="Royalton"/>
    <tag k="addr:housenumber" v="1989"/>
    <tag k="addr:street" v="Broad Brook Road"/>
    <tag k="addr:state" v="VT"/>
    <tag k="ref:vcgi:esiteid" v="206757"/>
  </node>
  <node id="-1119" visible="true" lat="43.7816638" lon="-72.51672531">
    <tag k="addr:city" v="Royalton"/>
    <tag k="addr:housenumber" v="161"/>
    <tag k="addr:street" v="Piper Lane"/>
    <tag k="addr:state" v="VT"/>
    <tag k="ref:vcgi:esiteid" v="206843"/>
  </node>
  <node id="-1120" visible="true" lat="43.78065776" lon="-72.5174517">
    <tag k="addr:city" v="Royalton"/>
    <tag k="addr:housenumber" v="201"/>
    <tag k="addr:street" v="Piper Lane"/>
    <tag k="addr:state" v="VT"/>
    <tag k="ref:vcgi:esiteid" v="206844"/>
  </node>
  <node id="-1124" visible="true" lat="43.78756928" lon="-72.51516379">
    <tag k="addr:city" v="Royalton"/>
    <tag k="addr:housenumber" v="2233"/>
    <tag k="addr:street" v="Oxbow Road"/>
    <tag k="addr:state" v="VT"/>
    <tag k="ref:vcgi:esiteid" v="206848"/>
  </node>
  <node id="-1130" visible="true" lat="43.81813584" lon="-72.51936626">
    <tag k="addr:city" v="Royalton"/>
    <tag k="addr:housenumber" v="33"/>
    <tag k="addr:street" v="Alexander Place"/>
    <tag k="addr:state" v="VT"/>
    <tag k="ref:vcgi:esiteid" v="206858"/>
  </node>
  <node id="-1132" visible="true" lat="43.81516947" lon="-72.51970304">
    <tag k="addr:city" v="Royalton"/>
    <tag k="addr:housenumber" v="70"/>
    <tag k="addr:street" v="Pleasant Street"/>
    <tag k="addr:state" v="VT"/>
    <tag k="ref:vcgi:esiteid" v="206861"/>
  </node>
  <node id="-1136" visible="true" lat="43.83144925" lon="-72.51564298">
    <tag k="addr:city" v="Royalton"/>
    <tag k="addr:housenumber" v="181"/>
    <tag k="addr:street" v="Mill Road"/>
    <tag k="addr:state" v="VT"/>
    <tag k="ref:vcgi:esiteid" v="206865"/>
  </node>
  <node id="-1141" visible="true" lat="43.80879408" lon="-72.51149514">
    <tag k="addr:city" v="Royalton"/>
    <tag k="addr:housenumber" v="86"/>
    <tag k="addr:street" v="Hillside Lane"/>
    <tag k="addr:state" v="VT"/>
    <tag k="ref:vcgi:esiteid" v="206873"/>
  </node>
  <node id="-1145" visible="true" lat="43.81944187" lon="-72.52163793">
    <tag k="addr:city" v="Royalton"/>
    <tag k="addr:housenumber" v="52"/>
    <tag k="addr:street" v="Railroad Street"/>
    <tag k="addr:state" v="VT"/>
    <tag k="ref:vcgi:esiteid" v="206877"/>
  </node>
  <node id="-1146" visible="true" lat="43.81925051" lon="-72.5214156">
    <tag k="addr:city" v="Royalton"/>
    <tag k="addr:housenumber" v="56"/>
    <tag k="addr:street" v="Railroad Street"/>
    <tag k="addr:state" v="VT"/>
    <tag k="ref:vcgi:esiteid" v="206878"/>
  </node>
  <node id="-1151" visible="true" lat="43.83932241" lon="-72.5134063">
    <tag k="addr:city" v="Royalton"/>
    <tag k="addr:housenumber" v="4"/>
    <tag k="addr:street" v="Overlook Lane"/>
    <tag k="addr:state" v="VT"/>
    <tag k="ref:vcgi:esiteid" v="206883"/>
  </node>
  <node id="-1155" visible="true" lat="43.8182976" lon="-72.51955681">
    <tag k="addr:city" v="Royalton"/>
    <tag k="addr:housenumber" v="57"/>
    <tag k="addr:street" v="Safford Street"/>
    <tag k="addr:state" v="VT"/>
    <tag k="ref:vcgi:esiteid" v="206888"/>
  </node>
  <node id="-1156" visible="true" lat="43.81561491" lon="-72.51829438">
    <tag k="addr:city" v="Royalton"/>
    <tag k="addr:housenumber" v="207"/>
    <tag k="addr:street" v="Pleasant Street"/>
    <tag k="addr:state" v="VT"/>
    <tag k="ref:vcgi:esiteid" v="206889"/>
  </node>
  <node id="-1161" visible="true" lat="43.81576569" lon="-72.54549274">
    <tag k="addr:city" v="Royalton"/>
    <tag k="addr:housenumber" v="37"/>
    <tag k="addr:street" v="Royalton Common Road"/>
    <tag k="addr:state" v="VT"/>
    <tag k="ref:vcgi:esiteid" v="206894"/>
  </node>
  <node id="-1162" visible="true" lat="43.81608334" lon="-72.5185655">
    <tag k="addr:city" v="Royalton"/>
    <tag k="addr:housenumber" v="165"/>
    <tag k="addr:street" v="Pleasant Street"/>
    <tag k="addr:state" v="VT"/>
    <tag k="ref:vcgi:esiteid" v="206895"/>
  </node>
  <node id="-1163" visible="true" lat="43.81626513" lon="-72.516851">
    <tag k="addr:city" v="Royalton"/>
    <tag k="addr:housenumber" v="418"/>
    <tag k="addr:street" v="South Windsor Street"/>
    <tag k="addr:state" v="VT"/>
    <tag k="ref:vcgi:esiteid" v="206896"/>
  </node>
  <node id="-1170" visible="true" lat="43.82621543" lon="-72.53206239">
    <tag k="addr:city" v="Royalton"/>
    <tag k="addr:housenumber" v="3033"/>
    <tag k="addr:street" v="Vermont Route 14"/>
    <tag k="addr:state" v="VT"/>
    <tag k="ref:vcgi:esiteid" v="206903"/>
  </node>
  <node id="-1196" visible="true" lat="43.80798735" lon="-72.50987057">
    <tag k="addr:city" v="Royalton"/>
    <tag k="addr:housenumber" v="33"/>
    <tag k="addr:street" v="Hillside Lane"/>
    <tag k="addr:state" v="VT"/>
    <tag k="ref:vcgi:esiteid" v="206932"/>
  </node>
  <node id="-1198" visible="true" lat="43.81568732" lon="-72.54500862">
    <tag k="addr:city" v="Royalton"/>
    <tag k="addr:housenumber" v="35"/>
    <tag k="addr:street" v="Royalton Common Road"/>
    <tag k="addr:state" v="VT"/>
    <tag k="ref:vcgi:esiteid" v="206934"/>
  </node>
  <node id="-1200" visible="true" lat="43.78164364" lon="-72.5162179">
    <tag k="addr:city" v="Royalton"/>
    <tag k="addr:housenumber" v="200"/>
    <tag k="addr:street" v="Piper Lane"/>
    <tag k="addr:state" v="VT"/>
    <tag k="ref:vcgi:esiteid" v="206936"/>
  </node>
  <node id="-1205" visible="true" lat="43.78399397" lon="-72.51855601">
    <tag k="addr:city" v="Royalton"/>
    <tag k="addr:housenumber" v="2250"/>
    <tag k="addr:street" v="Broad Brook Road"/>
    <tag k="addr:state" v="VT"/>
    <tag k="ref:vcgi:esiteid" v="206941"/>
  </node>
  <node id="-1206" visible="true" lat="43.80770446" lon="-72.50001819">
    <tag k="addr:city" v="Royalton"/>
    <tag k="addr:housenumber" v="42"/>
    <tag k="addr:street" v="Trescott Lane"/>
    <tag k="addr:state" v="VT"/>
    <tag k="ref:vcgi:esiteid" v="206942"/>
  </node>
  <node id="-1207" visible="true" lat="43.80836529" lon="-72.49945372">
    <tag k="addr:city" v="Royalton"/>
    <tag k="addr:housenumber" v="64"/>
    <tag k="addr:street" v="Trescott Lane"/>
    <tag k="addr:state" v="VT"/>
    <tag k="ref:vcgi:esiteid" v="206943"/>
  </node>
  <node id="-1208" visible="true" lat="43.8093721" lon="-72.49933961">
    <tag k="addr:city" v="Royalton"/>
    <tag k="addr:housenumber" v="129"/>
    <tag k="addr:street" v="Trescott Lane"/>
    <tag k="addr:state" v="VT"/>
    <tag k="ref:vcgi:esiteid" v="206944"/>
  </node>
  <node id="-1209" visible="true" lat="43.80894354" lon="-72.49879414">
    <tag k="addr:city" v="Royalton"/>
    <tag k="addr:housenumber" v="126"/>
    <tag k="addr:street" v="Trescott Lane"/>
    <tag k="addr:state" v="VT"/>
    <tag k="ref:vcgi:esiteid" v="206945"/>
  </node>
  <node id="-1213" visible="true" lat="43.80875426" lon="-72.50007705">
    <tag k="addr:city" v="Royalton"/>
    <tag k="addr:housenumber" v="28"/>
    <tag k="addr:street" v="Aussie Lane"/>
    <tag k="addr:state" v="VT"/>
    <tag k="ref:vcgi:esiteid" v="206949"/>
  </node>
  <node id="-1220" visible="true" lat="43.83919962" lon="-72.51393615">
    <tag k="addr:city" v="Royalton"/>
    <tag k="addr:housenumber" v="40"/>
    <tag k="addr:street" v="Overlook Lane"/>
    <tag k="addr:state" v="VT"/>
    <tag k="ref:vcgi:esiteid" v="206956"/>
  </node>
  <node id="-1223" visible="true" lat="43.81794883" lon="-72.51821651">
    <tag k="addr:city" v="Royalton"/>
    <tag k="addr:housenumber" v="248"/>
    <tag k="addr:street" v="South Windsor Street"/>
    <tag k="addr:state" v="VT"/>
    <tag k="ref:vcgi:esiteid" v="206959"/>
  </node>
  <node id="-1225" visible="true" lat="43.81537457" lon="-72.51240443">
    <tag k="addr:city" v="Royalton"/>
    <tag k="addr:housenumber" v="145"/>
    <tag k="addr:street" v="Moses Lane"/>
    <tag k="addr:state" v="VT"/>
    <tag k="ref:vcgi:esiteid" v="206962"/>
  </node>
  <node id="-1226" visible="true" lat="43.81514801" lon="-72.51149797">
    <tag k="addr:city" v="Royalton"/>
    <tag k="addr:housenumber" v="215"/>
    <tag k="addr:street" v="Moses Lane"/>
    <tag k="addr:state" v="VT"/>
    <tag k="ref:vcgi:esiteid" v="206963"/>
  </node>
  <node id="-1227" visible="true" lat="43.81483798" lon="-72.51242511">
    <tag k="addr:city" v="Royalton"/>
    <tag k="addr:housenumber" v="160"/>
    <tag k="addr:street" v="Moses Lane"/>
    <tag k="addr:state" v="VT"/>
    <tag k="ref:vcgi:esiteid" v="206964"/>
  </node>
  <node id="-1228" visible="true" lat="43.81482977" lon="-72.5112933">
    <tag k="addr:city" v="Royalton"/>
    <tag k="addr:housenumber" v="220"/>
    <tag k="addr:street" v="Moses Lane"/>
    <tag k="addr:state" v="VT"/>
    <tag k="ref:vcgi:esiteid" v="206965"/>
  </node>
  <node id="-1229" visible="true" lat="43.80923299" lon="-72.50044703">
    <tag k="addr:city" v="Royalton"/>
    <tag k="addr:housenumber" v="62"/>
    <tag k="addr:street" v="Aussie Lane"/>
    <tag k="addr:state" v="VT"/>
    <tag k="ref:vcgi:esiteid" v="206967"/>
  </node>
  <node id="-1242" visible="true" lat="43.82607468" lon="-72.53152289">
    <tag k="addr:city" v="Royalton"/>
    <tag k="addr:housenumber" v="3015"/>
    <tag k="addr:street" v="Vermont Route 14"/>
    <tag k="addr:state" v="VT"/>
    <tag k="ref:vcgi:esiteid" v="206982"/>
  </node>
  <node id="-1253" visible="true" lat="43.79899554" lon="-72.5034437">
    <tag k="addr:city" v="Royalton"/>
    <tag k="addr:housenumber" v="1753"/>
    <tag k="addr:street" v="South Windsor Street"/>
    <tag k="addr:state" v="VT"/>
    <tag k="ref:vcgi:esiteid" v="206993"/>
  </node>
  <node id="-1260" visible="true" lat="43.81000427" lon="-72.49961349">
    <tag k="addr:city" v="Royalton"/>
    <tag k="addr:housenumber" v="36"/>
    <tag k="addr:street" v="Aussie Lane"/>
    <tag k="addr:state" v="VT"/>
    <tag k="ref:vcgi:esiteid" v="207000"/>
  </node>
  <node id="-1303" visible="true" lat="43.80994969" lon="-72.50080233">
    <tag k="addr:city" v="Royalton"/>
    <tag k="addr:housenumber" v="121"/>
    <tag k="addr:street" v="Aussie Lane"/>
    <tag k="addr:state" v="VT"/>
    <tag k="ref:vcgi:esiteid" v="331315"/>
  </node>
  <node id="-1304" visible="true" lat="43.80945079" lon="-72.50115055">
    <tag k="addr:city" v="Royalton"/>
    <tag k="addr:housenumber" v="87"/>
    <tag k="addr:street" v="Aussie Lane"/>
    <tag k="addr:state" v="VT"/>
    <tag k="ref:vcgi:esiteid" v="331316"/>
  </node>
  <node id="-1307" visible="true" lat="43.83337048" lon="-72.51067297">
    <tag k="addr:city" v="Royalton"/>
    <tag k="addr:housenumber" v="2177"/>
    <tag k="addr:street" v="Ducker Road"/>
    <tag k="addr:state" v="VT"/>
    <tag k="ref:vcgi:esiteid" v="332596"/>
  </node>
  <node id="-1318" visible="true" lat="43.82783596" lon="-72.57724893">
    <tag k="addr:city" v="Royalton"/>
    <tag k="addr:housenumber" v="33"/>
    <tag k="addr:street" v="Waterman Road"/>
    <tag k="addr:state" v="VT"/>
    <tag k="ref:vcgi:esiteid" v="333608"/>
  </node>
  <node id="-1324" visible="true" lat="43.8197495" lon="-72.51970018">
    <tag k="addr:city" v="Royalton"/>
    <tag k="addr:housenumber" v="115"/>
    <tag k="addr:street" v="South Windsor Street"/>
    <tag k="addr:state" v="VT"/>
    <tag k="ref:vcgi:esiteid" v="336505"/>
  </node>
  <node id="-1325" visible="true" lat="43.82003473" lon="-72.51900775">
    <tag k="addr:city" v="Royalton"/>
    <tag k="addr:housenumber" v="129"/>
    <tag k="addr:street" v="South Windsor Street"/>
    <tag k="addr:state" v="VT"/>
    <tag k="ref:vcgi:esiteid" v="336506"/>
  </node>
  <node id="-1326" visible="true" lat="43.78605124" lon="-72.51464541">
    <tag k="addr:city" v="Royalton"/>
    <tag k="addr:housenumber" v="2265"/>
    <tag k="addr:street" v="Oxbow Road"/>
    <tag k="addr:state" v="VT"/>
    <tag k="ref:vcgi:esiteid" v="336925"/>
  </node>
  <node id="-1327" visible="true" lat="43.7851262" lon="-72.51418716">
    <tag k="addr:city" v="Royalton"/>
    <tag k="addr:housenumber" v="1235"/>
    <tag k="addr:street" v="Harlow Road"/>
    <tag k="addr:state" v="VT"/>
    <tag k="ref:vcgi:esiteid" v="339580"/>
  </node>
  <node id="-1328" visible="true" lat="43.83895293" lon="-72.51376399">
    <tag k="addr:city" v="Royalton"/>
    <tag k="addr:housenumber" v="35"/>
    <tag k="addr:street" v="Overlook Lane"/>
    <tag k="addr:state" v="VT"/>
    <tag k="ref:vcgi:esiteid" v="339893"/>
  </node>
  <node id="-1334" visible="true" lat="43.81642199" lon="-72.51184507">
    <tag k="addr:city" v="Royalton"/>
    <tag k="addr:housenumber" v="291"/>
    <tag k="addr:street" v="Moses Lane"/>
    <tag k="addr:state" v="VT"/>
    <tag k="ref:vcgi:esiteid" v="365194"/>
  </node>
  <node id="-1335" visible="true" lat="43.81682812" lon="-72.51205041">
    <tag k="addr:city" v="Royalton"/>
    <tag k="addr:housenumber" v="325"/>
    <tag k="addr:street" v="Moses Lane"/>
    <tag k="addr:state" v="VT"/>
    <tag k="ref:vcgi:esiteid" v="365195"/>
  </node>
  <node id="-1336" visible="true" lat="43.81717437" lon="-72.5123652">
    <tag k="addr:city" v="Royalton"/>
    <tag k="addr:housenumber" v="353"/>
    <tag k="addr:street" v="Moses Lane"/>
    <tag k="addr:state" v="VT"/>
    <tag k="ref:vcgi:esiteid" v="365196"/>
  </node>
  <node id="-1337" visible="true" lat="43.81743224" lon="-72.51263823">
    <tag k="addr:city" v="Royalton"/>
    <tag k="addr:housenumber" v="365"/>
    <tag k="addr:street" v="Moses Lane"/>
    <tag k="addr:state" v="VT"/>
    <tag k="ref:vcgi:esiteid" v="365197"/>
  </node>
  <node id="-1346" visible="true" lat="43.82154953" lon="-72.52212174">
    <tag k="addr:city" v="Royalton"/>
    <tag k="addr:housenumber" v="25"/>
    <tag k="addr:street" v="Cornell Street"/>
    <tag k="addr:state" v="VT"/>
    <tag k="ref:vcgi:esiteid" v="449253"/>
  </node>
  <node id="-1356" visible="true" lat="43.80749519" lon="-72.51140731">
    <tag k="addr:city" v="Royalton"/>
    <tag k="addr:housenumber" v="299"/>
    <tag k="addr:street" v="Hewitt Hill Lane"/>
    <tag k="addr:state" v="VT"/>
    <tag k="ref:vcgi:esiteid" v="451169"/>
  </node>
  <node id="-1358" visible="true" lat="43.81430599" lon="-72.5120521">
    <tag k="addr:city" v="Royalton"/>
    <tag k="addr:housenumber" v="222"/>
    <tag k="addr:street" v="Moses Lane"/>
    <tag k="addr:state" v="VT"/>
    <tag k="ref:vcgi:esiteid" v="451496"/>
  </node>
  <node id="-1366" visible="true" lat="43.82155351" lon="-72.54394771">
    <tag k="addr:city" v="Royalton"/>
    <tag k="addr:housenumber" v="3755"/>
    <tag k="addr:street" v="Gee Hill Road"/>
    <tag k="addr:state" v="VT"/>
    <tag k="ref:vcgi:esiteid" v="454534"/>
  </node>
  <node id="-1374" visible="true" lat="43.83128473" lon="-72.51450167">
    <tag k="addr:city" v="Royalton"/>
    <tag k="addr:housenumber" v="44"/>
    <tag k="addr:street" v="Old Route 110"/>
    <tag k="addr:state" v="VT"/>
    <tag k="ref:vcgi:esiteid" v="610083"/>
  </node>
  <node id="-1378" visible="true" lat="43.82027488" lon="-72.54627919">
    <tag k="addr:city" v="Royalton"/>
    <tag k="addr:housenumber" v="3750"/>
    <tag k="addr:street" v="Gee Hill Road"/>
    <tag k="addr:state" v="VT"/>
    <tag k="ref:vcgi:esiteid" v="610531"/>
  </node>
  <node id="-1400" visible="true" lat="43.82381004" lon="-72.52887121">
    <tag k="addr:city" v="Royalton"/>
    <tag k="addr:housenumber" v="424"/>
    <tag k="addr:street" v="North Windsor Street"/>
    <tag k="addr:state" v="VT"/>
    <tag k="ref:vcgi:esiteid" v="614612"/>
  </node>
  <node id="-1447" visible="true" lat="43.82113031" lon="-72.52561602">
    <tag k="addr:city" v="Royalton"/>
    <tag k="addr:housenumber" v="253"/>
    <tag k="addr:street" v="North Windsor Street"/>
    <tag k="addr:state" v="VT"/>
    <tag k="ref:vcgi:esiteid" v="700025"/>
  </node>
  <node id="-1454" visible="true" lat="43.83288143" lon="-72.57561832">
    <tag k="addr:city" v="Royalton"/>
    <tag k="addr:housenumber" v="195"/>
    <tag k="addr:street" v="Waterman Industrial Park"/>
    <tag k="addr:state" v="VT"/>
    <tag k="ref:vcgi:esiteid" v="751467"/>
  </node>
  <node id="-1456" visible="true" lat="43.78295613" lon="-72.51370996">
    <tag k="addr:city" v="Royalton"/>
    <tag k="addr:housenumber" v="1968"/>
    <tag k="addr:street" v="Broad Brook Road"/>
    <tag k="addr:state" v="VT"/>
    <tag k="ref:vcgi:esiteid" v="752045"/>
  </node>
  <node id="-1512" visible="true" lat="43.81896477" lon="-72.52039361">
    <tag k="addr:city" v="Royalton"/>
    <tag k="addr:housenumber" v="103"/>
    <tag k="addr:street" v="Railroad Street"/>
    <tag k="addr:state" v="VT"/>
    <tag k="ref:vcgi:esiteid" v="756811"/>
  </node>
  <node id="-1516" visible="true" lat="43.78425446" lon="-72.50929153">
    <tag k="addr:city" v="Royalton"/>
    <tag k="addr:housenumber" v="978"/>
    <tag k="addr:street" v="Harlow Road"/>
    <tag k="addr:state" v="VT"/>
    <tag k="ref:vcgi:esiteid" v="757140"/>
  </node>
  <node id="-1628" visible="true" lat="43.82241057" lon="-72.5388739">
    <tag k="addr:city" v="Royalton"/>
    <tag k="addr:housenumber" v="5"/>
    <tag k="addr:street" v="Back River Road"/>
    <tag k="addr:state" v="VT"/>
    <tag k="ref:vcgi:esiteid" v="900071"/>
  </node>
  <node id="-1629" visible="true" lat="43.81649592" lon="-72.51949875">
    <tag k="addr:city" v="Royalton"/>
    <tag k="addr:housenumber" v="120"/>
    <tag k="addr:street" v="Pleasant Street"/>
    <tag k="addr:state" v="VT"/>
    <tag k="ref:vcgi:esiteid" v="900405"/>
  </node>
  <node id="-1630" visible="true" lat="43.81480861" lon="-72.51363508">
    <tag k="addr:city" v="Royalton"/>
    <tag k="addr:housenumber" v="562"/>
    <tag k="addr:street" v="South Windsor Street"/>
    <tag k="addr:state" v="VT"/>
    <tag k="ref:vcgi:esiteid" v="900406"/>
  </node>
  <node id="-1632" visible="true" lat="43.82178145" lon="-72.54506456">
    <tag k="addr:city" v="Royalton"/>
    <tag k="addr:housenumber" v="3721"/>
    <tag k="addr:street" v="Gee Hill Road"/>
    <tag k="addr:state" v="VT"/>
    <tag k="ref:vcgi:esiteid" v="1050068"/>
  </node>
</osm>
