<?xml version="1.0" encoding="UTF-8"?>
<osm version="0.6" generator="JOSM">
  <node id="-198" visible="true" lat="43.28377533" lon="-73.12978363">
    <!-- conflict: "999 Vermont Route 30, , VT" No match in OSM, but a different address exists <5m away: "999 Vt Route 30, Rupert, VT" -->
    <tag k="addr:housenumber" v="999"/>
    <tag k="addr:street" v="Vermont Route 30"/>
    <tag k="addr:state" v="VT"/>
    <tag k="ref:vcgi:esiteid" v="207110"/>
  </node>
  <node id="-214" visible="true" lat="43.28056163" lon="-73.1250942">
    <!-- conflict: "682 Vermont Route 30, , VT" No match in OSM, but a different address exists <5m away: "682 Vt Route 30, Rupert, VT" -->
    <tag k="addr:housenumber" v="682"/>
    <tag k="addr:street" v="Vermont Route 30"/>
    <tag k="addr:state" v="VT"/>
    <tag k="ref:vcgi:esiteid" v="207127"/>
  </node>
  <node id="-229" visible="true" lat="43.2775917" lon="-73.12423706">
    <!-- conflict: "470 Vermont Route 30, , VT" No match in OSM, but a different address exists <5m away: "470 Vt Route 30, Rupert, VT" -->
    <tag k="addr:housenumber" v="470"/>
    <tag k="addr:street" v="Vermont Route 30"/>
    <tag k="addr:state" v="VT"/>
    <tag k="ref:vcgi:esiteid" v="207142"/>
  </node>
  <node id="-230" visible="true" lat="43.2774939" lon="-73.12493278">
    <!-- conflict: "471 Vermont Route 30, , VT" No match in OSM, but a different address exists <5m away: "481 Vt Route 30, Rupert, VT" -->
    <tag k="addr:housenumber" v="471"/>
    <tag k="addr:street" v="Vermont Route 30"/>
    <tag k="addr:state" v="VT"/>
    <tag k="ref:vcgi:esiteid" v="207143"/>
  </node>
  <node id="-265" visible="true" lat="43.27421242" lon="-73.12498468">
    <!-- conflict: "237 Vermont Route 30, , VT" No match in OSM, but a different address exists <5m away: "237 Vt Route 30, Rupert, VT" -->
    <tag k="addr:housenumber" v="237"/>
    <tag k="addr:street" v="Vermont Route 30"/>
    <tag k="addr:state" v="VT"/>
    <tag k="ref:vcgi:esiteid" v="207180"/>
  </node>
  <node id="-270" visible="true" lat="43.27369503" lon="-73.12437507">
    <!-- conflict: "220 Vermont Route 30, , VT" No match in OSM, but a different address exists <5m away: "220 Vt Route 30, Rupert, VT" -->
    <tag k="addr:housenumber" v="220"/>
    <tag k="addr:street" v="Vermont Route 30"/>
    <tag k="addr:state" v="VT"/>
    <tag k="ref:vcgi:esiteid" v="207185"/>
  </node>
  <node id="-271" visible="true" lat="43.27375793" lon="-73.12512207">
    <!-- conflict: "201 Vermont Route 30, , VT" No match in OSM, but a different address exists <5m away: "201 Vt Route 30, Rupert, VT" -->
    <tag k="addr:housenumber" v="201"/>
    <tag k="addr:street" v="Vermont Route 30"/>
    <tag k="addr:state" v="VT"/>
    <tag k="ref:vcgi:esiteid" v="207186"/>
  </node>
  <node id="-287" visible="true" lat="43.27203418" lon="-73.12332967">
    <!-- conflict: "44 Vermont Route 30, , VT" No match in OSM, but a different address exists <5m away: "44 Vt Route 30, Rupert, VT" -->
    <tag k="addr:housenumber" v="44"/>
    <tag k="addr:street" v="Vermont Route 30"/>
    <tag k="addr:state" v="VT"/>
    <tag k="ref:vcgi:esiteid" v="207203"/>
  </node>
  <node id="-347" visible="true" lat="43.26124191" lon="-73.22412872">
    <!-- conflict: "3044 Vermont Route 153, , VT" No match in OSM, but a different address exists <5m away: "3044 Vt Route 153, Rupert, VT" -->
    <tag k="addr:housenumber" v="3044"/>
    <tag k="addr:street" v="Vermont Route 153"/>
    <tag k="addr:state" v="VT"/>
    <tag k="ref:vcgi:esiteid" v="207264"/>
  </node>
  <node id="-370" visible="true" lat="43.25722827" lon="-73.22688104">
    <!-- conflict: "2673 Vermont Route 153, , VT" No match in OSM, but a different address exists <5m away: "2673 Vt Route 153, Rupert, VT" -->
    <tag k="addr:housenumber" v="2673"/>
    <tag k="addr:street" v="Vermont Route 153"/>
    <tag k="addr:state" v="VT"/>
    <tag k="ref:vcgi:esiteid" v="207287"/>
  </node>
  <node id="-387" visible="true" lat="43.24287414" lon="-73.24073028">
    <!-- conflict: "1426 Vermont Route 153, , VT" No match in OSM, but a different address exists <5m away: "1426 Vt Route 153, Rupert, VT" -->
    <tag k="addr:housenumber" v="1426"/>
    <tag k="addr:street" v="Vermont Route 153"/>
    <tag k="addr:state" v="VT"/>
    <tag k="ref:vcgi:esiteid" v="207304"/>
  </node>
  <node id="-391" visible="true" lat="43.24071502" lon="-73.24244689">
    <!-- conflict: "1255 Vermont Route 153, , VT" No match in OSM, but a different address exists <5m away: "1255 Vt Route 153, Rupert, VT" -->
    <tag k="addr:housenumber" v="1255"/>
    <tag k="addr:street" v="Vermont Route 153"/>
    <tag k="addr:state" v="VT"/>
    <tag k="ref:vcgi:esiteid" v="207308"/>
  </node>
  <node id="-393" visible="true" lat="43.24044799" lon="-73.24259948">
    <!-- conflict: "1235 Vermont Route 153, , VT" No match in OSM, but a different address exists <5m away: "1235 Vt Route 153, Rupert, VT" -->
    <tag k="addr:housenumber" v="1235"/>
    <tag k="addr:street" v="Vermont Route 153"/>
    <tag k="addr:state" v="VT"/>
    <tag k="ref:vcgi:esiteid" v="207310"/>
  </node>
  <node id="-397" visible="true" lat="43.23994827" lon="-73.24279785">
    <!-- conflict: "1199 Vermont Route 153, , VT" No match in OSM, but a different address exists <5m away: "1199 Vt Route 153, Rupert, VT" -->
    <tag k="addr:housenumber" v="1199"/>
    <tag k="addr:street" v="Vermont Route 153"/>
    <tag k="addr:state" v="VT"/>
    <tag k="ref:vcgi:esiteid" v="207314"/>
  </node>
  <node id="-398" visible="true" lat="43.23958353" lon="-73.24293007">
    <!-- conflict: "1171 Vermont Route 153, , VT" No match in OSM, but a different address exists <5m away: "1171 Vt Route 153, Rupert, VT" -->
    <tag k="addr:housenumber" v="1171"/>
    <tag k="addr:street" v="Vermont Route 153"/>
    <tag k="addr:state" v="VT"/>
    <tag k="ref:vcgi:esiteid" v="207315"/>
  </node>
  <node id="-399" visible="true" lat="43.23933192" lon="-73.24254842">
    <!-- conflict: "1165 Vermont Route 153, , VT" No match in OSM, but a different address exists <5m away: "1165 Vt Route 153, Rupert, VT" -->
    <tag k="addr:housenumber" v="1165"/>
    <tag k="addr:street" v="Vermont Route 153"/>
    <tag k="addr:state" v="VT"/>
    <tag k="ref:vcgi:esiteid" v="207316"/>
  </node>
  <node id="-400" visible="true" lat="43.23916626" lon="-73.24311828">
    <!-- conflict: "1143 Vermont Route 153, , VT" No match in OSM, but a different address exists <5m away: "1143 Vt Route 153, Rupert, VT" -->
    <tag k="addr:housenumber" v="1143"/>
    <tag k="addr:street" v="Vermont Route 153"/>
    <tag k="addr:state" v="VT"/>
    <tag k="ref:vcgi:esiteid" v="207317"/>
  </node>
  <node id="-401" visible="true" lat="43.239008" lon="-73.24260896">
    <!-- conflict: "1144 Vermont Route 153, , VT" No match in OSM, but a different address exists <5m away: "1144 Vt Route 153, Rupert, VT" -->
    <tag k="addr:housenumber" v="1144"/>
    <tag k="addr:street" v="Vermont Route 153"/>
    <tag k="addr:state" v="VT"/>
    <tag k="ref:vcgi:esiteid" v="207318"/>
  </node>
  <node id="-402" visible="true" lat="43.23905944" lon="-73.24310302">
    <!-- conflict: "1137 Vermont Route 153, , VT" No match in OSM, but a different address exists <5m away: "1137 Vt Route 153, Rupert, VT" -->
    <tag k="addr:housenumber" v="1137"/>
    <tag k="addr:street" v="Vermont Route 153"/>
    <tag k="addr:state" v="VT"/>
    <tag k="ref:vcgi:esiteid" v="207319"/>
  </node>
  <node id="-407" visible="true" lat="43.23852277" lon="-73.24270292">
    <!-- conflict: "1114 Vermont Route 153, , VT" No match in OSM, but a different address exists <5m away: "1114 Vt Route 153, Rupert, VT" -->
    <tag k="addr:housenumber" v="1114"/>
    <tag k="addr:street" v="Vermont Route 153"/>
    <tag k="addr:state" v="VT"/>
    <tag k="ref:vcgi:esiteid" v="207324"/>
  </node>
  <node id="-408" visible="true" lat="43.23856045" lon="-73.24324748">
    <!-- conflict: "1105 Vermont Route 153, , VT" No match in OSM, but a different address exists <5m away: "1105 Vt Route 153, Rupert, VT" -->
    <tag k="addr:housenumber" v="1105"/>
    <tag k="addr:street" v="Vermont Route 153"/>
    <tag k="addr:state" v="VT"/>
    <tag k="ref:vcgi:esiteid" v="207325"/>
  </node>
  <node id="-416" visible="true" lat="43.2382663" lon="-73.24339592">
    <!-- conflict: "1081 Vermont Route 153, , VT" No match in OSM, but a different address exists <5m away: "1081 Vt Route 153, Rupert, VT" -->
    <tag k="addr:housenumber" v="1081"/>
    <tag k="addr:street" v="Vermont Route 153"/>
    <tag k="addr:state" v="VT"/>
    <tag k="ref:vcgi:esiteid" v="207333"/>
  </node>
  <node id="-419" visible="true" lat="43.23817196" lon="-73.24297713">
    <!-- conflict: "1084 Vermont Route 153, , VT" No match in OSM, but a different address exists <5m away: "1084 Vt Route 153, Rupert, VT" -->
    <tag k="addr:housenumber" v="1084"/>
    <tag k="addr:street" v="Vermont Route 153"/>
    <tag k="addr:state" v="VT"/>
    <tag k="ref:vcgi:esiteid" v="207336"/>
  </node>
  <node id="-424" visible="true" lat="43.23791244" lon="-73.24295658">
    <!-- conflict: "1068 Vermont Route 153, , VT" No match in OSM, but a different address exists <5m away: "1068 Vt Route 153, Rupert, VT" -->
    <tag k="addr:housenumber" v="1068"/>
    <tag k="addr:street" v="Vermont Route 153"/>
    <tag k="addr:state" v="VT"/>
    <tag k="ref:vcgi:esiteid" v="207341"/>
  </node>
  <node id="-429" visible="true" lat="43.23769925" lon="-73.24315033">
    <!-- conflict: "1046 Vermont Route 153, , VT" No match in OSM, but a different address exists <5m away: "1046 Vt Route 153, Rupert, VT" -->
    <tag k="addr:housenumber" v="1046"/>
    <tag k="addr:street" v="Vermont Route 153"/>
    <tag k="addr:state" v="VT"/>
    <tag k="ref:vcgi:esiteid" v="207346"/>
  </node>
  <node id="-433" visible="true" lat="43.23755645" lon="-73.24394989">
    <!-- conflict: "1021 Vermont Route 153, , VT" No match in OSM, but a different address exists <5m away: "1021 Vt Route 153, Rupert, VT" -->
    <tag k="addr:housenumber" v="1021"/>
    <tag k="addr:street" v="Vermont Route 153"/>
    <tag k="addr:state" v="VT"/>
    <tag k="ref:vcgi:esiteid" v="207350"/>
  </node>
  <node id="-436" visible="true" lat="43.23738479" lon="-73.24411773">
    <!-- conflict: "1007 Vermont Route 153, , VT" No match in OSM, but a different address exists <5m away: "1007 Vt Route 153, Rupert, VT" -->
    <tag k="addr:housenumber" v="1007"/>
    <tag k="addr:street" v="Vermont Route 153"/>
    <tag k="addr:state" v="VT"/>
    <tag k="ref:vcgi:esiteid" v="207353"/>
  </node>
  <node id="-450" visible="true" lat="43.23628616" lon="-73.24507903">
    <!-- conflict: "915 Vermont Route 153, , VT" No match in OSM, but a different address exists <5m away: "915 Vt Route 153, Rupert, VT" -->
    <tag k="addr:housenumber" v="915"/>
    <tag k="addr:street" v="Vermont Route 153"/>
    <tag k="addr:state" v="VT"/>
    <tag k="ref:vcgi:esiteid" v="207367"/>
  </node>
  <node id="-459" visible="true" lat="43.23515701" lon="-73.24563598">
    <!-- conflict: "852 Vermont Route 153, , VT" No match in OSM, but a different address exists <5m away: "852 Vt Route 153, Rupert, VT" -->
    <tag k="addr:housenumber" v="852"/>
    <tag k="addr:street" v="Vermont Route 153"/>
    <tag k="addr:state" v="VT"/>
    <tag k="ref:vcgi:esiteid" v="207377"/>
  </node>
  <node id="-468" visible="true" lat="43.23373031" lon="-73.2490921">
    <!-- conflict: "643 Vermont Route 153, , VT" No match in OSM, but a different address exists <5m away: "643 Vt Route 153, Rupert, VT" -->
    <tag k="addr:housenumber" v="643"/>
    <tag k="addr:street" v="Vermont Route 153"/>
    <tag k="addr:state" v="VT"/>
    <tag k="ref:vcgi:esiteid" v="207386"/>
  </node>
  <node id="-473" visible="true" lat="43.23321533" lon="-73.24999237">
    <!-- conflict: "585 Vermont Route 153, , VT" No match in OSM, but a different address exists <5m away: "585 Vt Route 153, Rupert, VT" -->
    <tag k="addr:housenumber" v="585"/>
    <tag k="addr:street" v="Vermont Route 153"/>
    <tag k="addr:state" v="VT"/>
    <tag k="ref:vcgi:esiteid" v="207391"/>
  </node>
  <node id="-476" visible="true" lat="43.23292541" lon="-73.25041961">
    <!-- conflict: "557 Vermont Route 153, , VT" No match in OSM, but a different address exists <5m away: "557 Vt Route 153, Rupert, VT" -->
    <tag k="addr:housenumber" v="557"/>
    <tag k="addr:street" v="Vermont Route 153"/>
    <tag k="addr:state" v="VT"/>
    <tag k="ref:vcgi:esiteid" v="207394"/>
  </node>
  <node id="-480" visible="true" lat="43.2326622" lon="-73.25086975">
    <!-- conflict: "527 Vermont Route 153, , VT" No match in OSM, but a different address exists <5m away: "527 Vt Route 153, Rupert, VT" -->
    <tag k="addr:housenumber" v="527"/>
    <tag k="addr:street" v="Vermont Route 153"/>
    <tag k="addr:state" v="VT"/>
    <tag k="ref:vcgi:esiteid" v="207398"/>
  </node>
  <node id="-481" visible="true" lat="43.23260879" lon="-73.25020599">
    <!-- conflict: "550 Vermont Route 153, , VT" No match in OSM, but a different address exists <5m away: "550 Vt Route 153, Rupert, VT" -->
    <tag k="addr:housenumber" v="550"/>
    <tag k="addr:street" v="Vermont Route 153"/>
    <tag k="addr:state" v="VT"/>
    <tag k="ref:vcgi:esiteid" v="207399"/>
  </node>
  <node id="-485" visible="true" lat="43.23215866" lon="-73.25090789">
    <!-- conflict: "504 Vermont Route 153, , VT" No match in OSM, but a different address exists <5m away: "504 Vt Route 153, Rupert, VT" -->
    <tag k="addr:housenumber" v="504"/>
    <tag k="addr:street" v="Vermont Route 153"/>
    <tag k="addr:state" v="VT"/>
    <tag k="ref:vcgi:esiteid" v="207403"/>
  </node>
  <node id="-500" visible="true" lat="43.22947692" lon="-73.25609588">
    <!-- conflict: "185 Vermont Route 153, , VT" No match in OSM, but a different address exists <5m away: "185 Vt Route 153, Rupert, VT" -->
    <tag k="addr:housenumber" v="185"/>
    <tag k="addr:street" v="Vermont Route 153"/>
    <tag k="addr:state" v="VT"/>
    <tag k="ref:vcgi:esiteid" v="207418"/>
  </node>
  <node id="-574" visible="true" lat="43.27669994" lon="-73.12391599">
    <!-- conflict: "408 Vermont Route 30, , VT" No match in OSM, but a different address exists <5m away: "408 Vt Route 30, Rupert, VT" -->
    <tag k="addr:housenumber" v="408"/>
    <tag k="addr:street" v="Vermont Route 30"/>
    <tag k="addr:state" v="VT"/>
    <tag k="ref:vcgi:esiteid" v="311937"/>
  </node>
  <node id="-576" visible="true" lat="43.27360957" lon="-73.1950545">
    <!-- conflict: "315 Antone Mountain View Road, , VT" No match in OSM, but a different address exists <5m away: "345 Antone Mountain View Road, Rupert, VT" -->
    <tag k="addr:housenumber" v="315"/>
    <tag k="addr:street" v="Antone Mountain View Road"/>
    <tag k="addr:state" v="VT"/>
    <tag k="ref:vcgi:esiteid" v="311940"/>
  </node>
  <node id="-586" visible="true" lat="43.23925742" lon="-73.24310112">
    <!-- conflict: "1151 Vermont Route 153, , VT" No match in OSM, but a different address exists <5m away: "1151 Vt Route 153, Rupert, VT" -->
    <tag k="addr:housenumber" v="1151"/>
    <tag k="addr:street" v="Vermont Route 153"/>
    <tag k="addr:state" v="VT"/>
    <tag k="ref:vcgi:esiteid" v="311951"/>
  </node>
</osm>
