<?xml version="1.0" encoding="UTF-8"?>
<osm version="0.6" generator="JOSM">
  <node id="-100" visible="true" lat="43.23144254" lon="-73.23852016">
    <tag k="addr:city" v="Rupert"/>
    <tag k="addr:housenumber" v="792"/>
    <tag k="addr:street" v="Vermont Route 153"/>
    <tag k="addr:state" v="VT"/>
    <tag k="ref:vcgi:esiteid" v="171"/>
  </node>
  <node id="-102" visible="true" lat="43.25800072" lon="-73.12372227">
    <tag k="addr:city" v="Rupert"/>
    <tag k="addr:housenumber" v="793"/>
    <tag k="addr:street" v="Nims Road"/>
    <tag k="addr:state" v="VT"/>
    <tag k="ref:vcgi:esiteid" v="84540"/>
  </node>
  <node id="-103" visible="true" lat="43.31121293" lon="-73.175735">
    <tag k="addr:city" v="Rupert"/>
    <tag k="addr:housenumber" v="8252"/>
    <tag k="addr:street" v="Vermont Route 30"/>
    <tag k="addr:state" v="VT"/>
    <tag k="ref:vcgi:esiteid" v="185884"/>
  </node>
  <node id="-104" visible="true" lat="43.31240121" lon="-73.24697">
    <tag k="addr:city" v="Rupert"/>
    <tag k="addr:housenumber" v="100"/>
    <tag k="addr:street" v="Hollys Way"/>
    <tag k="addr:state" v="VT"/>
    <tag k="ref:vcgi:esiteid" v="207016"/>
  </node>
  <node id="-105" visible="true" lat="43.31227067" lon="-73.24591664">
    <tag k="addr:city" v="Rupert"/>
    <tag k="addr:housenumber" v="98"/>
    <tag k="addr:street" v="Hollys Way"/>
    <tag k="addr:state" v="VT"/>
    <tag k="ref:vcgi:esiteid" v="207017"/>
  </node>
  <node id="-106" visible="true" lat="43.31210626" lon="-73.24118682">
    <tag k="addr:city" v="Rupert"/>
    <tag k="addr:housenumber" v="6958"/>
    <tag k="addr:street" v="Vermont Route 153"/>
    <tag k="addr:state" v="VT"/>
    <tag k="ref:vcgi:esiteid" v="207018"/>
  </node>
  <node id="-107" visible="true" lat="43.31207331" lon="-73.19361532">
    <tag k="addr:city" v="Rupert"/>
    <tag k="addr:housenumber" v="3512"/>
    <tag k="addr:street" v="Pawlet Mountain Road"/>
    <tag k="addr:state" v="VT"/>
    <tag k="ref:vcgi:esiteid" v="207019"/>
  </node>
  <node id="-108" visible="true" lat="43.31195831" lon="-73.19447327">
    <tag k="addr:city" v="Rupert"/>
    <tag k="addr:housenumber" v="3523"/>
    <tag k="addr:street" v="Pawlet Mountain Road"/>
    <tag k="addr:state" v="VT"/>
    <tag k="ref:vcgi:esiteid" v="207020"/>
  </node>
  <node id="-109" visible="true" lat="43.31131744" lon="-73.24318695">
    <tag k="addr:city" v="Rupert"/>
    <tag k="addr:housenumber" v="6885"/>
    <tag k="addr:street" v="Vermont Route 153"/>
    <tag k="addr:state" v="VT"/>
    <tag k="ref:vcgi:esiteid" v="207021"/>
  </node>
  <node id="-110" visible="true" lat="43.31008509" lon="-73.24259645">
    <tag k="addr:city" v="Rupert"/>
    <tag k="addr:housenumber" v="6814"/>
    <tag k="addr:street" v="Vermont Route 153"/>
    <tag k="addr:state" v="VT"/>
    <tag k="ref:vcgi:esiteid" v="207022"/>
  </node>
  <node id="-111" visible="true" lat="43.31061935" lon="-73.1686325">
    <tag k="addr:city" v="Rupert"/>
    <tag k="addr:housenumber" v="3783"/>
    <tag k="addr:street" v="Vermont Route 30"/>
    <tag k="addr:state" v="VT"/>
    <tag k="ref:vcgi:esiteid" v="207023"/>
  </node>
  <node id="-112" visible="true" lat="43.30960617" lon="-73.2427068">
    <tag k="addr:city" v="Rupert"/>
    <tag k="addr:housenumber" v="6780"/>
    <tag k="addr:street" v="Vermont Route 153"/>
    <tag k="addr:state" v="VT"/>
    <tag k="ref:vcgi:esiteid" v="207024"/>
  </node>
  <node id="-113" visible="true" lat="43.31012344" lon="-73.16852569">
    <tag k="addr:city" v="Rupert"/>
    <tag k="addr:housenumber" v="3749"/>
    <tag k="addr:street" v="Vermont Route 30"/>
    <tag k="addr:state" v="VT"/>
    <tag k="ref:vcgi:esiteid" v="207025"/>
  </node>
  <node id="-114" visible="true" lat="43.30963516" lon="-73.24236297">
    <tag k="addr:city" v="Rupert"/>
    <tag k="addr:housenumber" v="6784"/>
    <tag k="addr:street" v="Vermont Route 153"/>
    <tag k="addr:state" v="VT"/>
    <tag k="ref:vcgi:esiteid" v="207026"/>
  </node>
  <node id="-115" visible="true" lat="43.30929184" lon="-73.24608611">
    <tag k="addr:city" v="Rupert"/>
    <tag k="addr:housenumber" v="99"/>
    <tag k="addr:street" v="Hollys Way"/>
    <tag k="addr:state" v="VT"/>
    <tag k="ref:vcgi:esiteid" v="207027"/>
  </node>
  <node id="-116" visible="true" lat="43.30959701" lon="-73.19348907">
    <tag k="addr:city" v="Rupert"/>
    <tag k="addr:housenumber" v="3342"/>
    <tag k="addr:street" v="Pawlet Mountain Road"/>
    <tag k="addr:state" v="VT"/>
    <tag k="ref:vcgi:esiteid" v="207028"/>
  </node>
  <node id="-117" visible="true" lat="43.30938339" lon="-73.22237396">
    <tag k="addr:city" v="Rupert"/>
    <tag k="addr:housenumber" v="1229"/>
    <tag k="addr:street" v="Perkins Road"/>
    <tag k="addr:state" v="VT"/>
    <tag k="ref:vcgi:esiteid" v="207029"/>
  </node>
  <node id="-118" visible="true" lat="43.30898666" lon="-73.22236633">
    <tag k="addr:city" v="Rupert"/>
    <tag k="addr:housenumber" v="1216"/>
    <tag k="addr:street" v="Perkins Road"/>
    <tag k="addr:state" v="VT"/>
    <tag k="ref:vcgi:esiteid" v="207030"/>
  </node>
  <node id="-119" visible="true" lat="43.30984255" lon="-73.15081644">
    <tag k="addr:city" v="Rupert"/>
    <tag k="addr:housenumber" v="484"/>
    <tag k="addr:street" v="Herrick Brook Road"/>
    <tag k="addr:state" v="VT"/>
    <tag k="ref:vcgi:esiteid" v="207031"/>
  </node>
  <node id="-120" visible="true" lat="43.30893628" lon="-73.17132491">
    <tag k="addr:city" v="Rupert"/>
    <tag k="addr:housenumber" v="8218"/>
    <tag k="addr:street" v="Vermont Route 30"/>
    <tag k="addr:state" v="VT"/>
    <tag k="ref:vcgi:esiteid" v="207032"/>
  </node>
  <node id="-121" visible="true" lat="43.30852508" lon="-73.22442626">
    <tag k="addr:city" v="Rupert"/>
    <tag k="addr:housenumber" v="1111"/>
    <tag k="addr:street" v="Perkins Road"/>
    <tag k="addr:state" v="VT"/>
    <tag k="ref:vcgi:esiteid" v="207033"/>
  </node>
  <node id="-122" visible="true" lat="43.30877304" lon="-73.16360473">
    <tag k="addr:city" v="Rupert"/>
    <tag k="addr:housenumber" v="3476"/>
    <tag k="addr:street" v="Vermont Route 30"/>
    <tag k="addr:state" v="VT"/>
    <tag k="ref:vcgi:esiteid" v="207034"/>
  </node>
  <node id="-123" visible="true" lat="43.30821609" lon="-73.19270324">
    <tag k="addr:city" v="Rupert"/>
    <tag k="addr:housenumber" v="3284"/>
    <tag k="addr:street" v="Pawlet Mountain Road"/>
    <tag k="addr:state" v="VT"/>
    <tag k="ref:vcgi:esiteid" v="207035"/>
  </node>
  <node id="-124" visible="true" lat="43.30817794" lon="-73.16397857">
    <tag k="addr:city" v="Rupert"/>
    <tag k="addr:housenumber" v="3482"/>
    <tag k="addr:street" v="Vermont Route 30"/>
    <tag k="addr:state" v="VT"/>
    <tag k="ref:vcgi:esiteid" v="207036"/>
  </node>
  <node id="-125" visible="true" lat="43.30836105" lon="-73.13059234">
    <tag k="addr:city" v="Rupert"/>
    <tag k="addr:housenumber" v="348"/>
    <tag k="addr:street" v="Neilson Road"/>
    <tag k="addr:state" v="VT"/>
    <tag k="ref:vcgi:esiteid" v="207037"/>
  </node>
  <node id="-126" visible="true" lat="43.30715179" lon="-73.19384765">
    <tag k="addr:city" v="Rupert"/>
    <tag k="addr:housenumber" v="3188"/>
    <tag k="addr:street" v="Pawlet Mountain Road"/>
    <tag k="addr:state" v="VT"/>
    <tag k="ref:vcgi:esiteid" v="207038"/>
  </node>
  <node id="-127" visible="true" lat="43.30638552" lon="-73.13517599">
    <tag k="addr:city" v="Rupert"/>
    <tag k="addr:housenumber" v="106"/>
    <tag k="addr:street" v="Neilson Road"/>
    <tag k="addr:state" v="VT"/>
    <tag k="ref:vcgi:esiteid" v="207039"/>
  </node>
  <node id="-128" visible="true" lat="43.30630828" lon="-73.15480649">
    <tag k="addr:city" v="Rupert"/>
    <tag k="addr:housenumber" v="3014"/>
    <tag k="addr:street" v="Vermont Route 30"/>
    <tag k="addr:state" v="VT"/>
    <tag k="ref:vcgi:esiteid" v="207040"/>
  </node>
  <node id="-129" visible="true" lat="43.30526939" lon="-73.13752677">
    <tag k="addr:city" v="Rupert"/>
    <tag k="addr:housenumber" v="694"/>
    <tag k="addr:street" v="Sykes Hollow Road"/>
    <tag k="addr:state" v="VT"/>
    <tag k="ref:vcgi:esiteid" v="207041"/>
  </node>
  <node id="-130" visible="true" lat="43.3049766" lon="-73.24441855">
    <tag k="addr:city" v="Rupert"/>
    <tag k="addr:housenumber" v="6399"/>
    <tag k="addr:street" v="Vermont Route 153"/>
    <tag k="addr:state" v="VT"/>
    <tag k="ref:vcgi:esiteid" v="207042"/>
  </node>
  <node id="-131" visible="true" lat="43.30413818" lon="-73.24000549">
    <tag k="addr:city" v="Rupert"/>
    <tag k="addr:housenumber" v="209"/>
    <tag k="addr:street" v="Perkins Road"/>
    <tag k="addr:state" v="VT"/>
    <tag k="ref:vcgi:esiteid" v="207043"/>
  </node>
  <node id="-132" visible="true" lat="43.30410385" lon="-73.23906707">
    <tag k="addr:city" v="Rupert"/>
    <tag k="addr:housenumber" v="253"/>
    <tag k="addr:street" v="Perkins Road"/>
    <tag k="addr:state" v="VT"/>
    <tag k="ref:vcgi:esiteid" v="207044"/>
  </node>
  <node id="-133" visible="true" lat="43.30400848" lon="-73.23870849">
    <tag k="addr:city" v="Rupert"/>
    <tag k="addr:housenumber" v="273"/>
    <tag k="addr:street" v="Perkins Road"/>
    <tag k="addr:state" v="VT"/>
    <tag k="ref:vcgi:esiteid" v="207045"/>
  </node>
  <node id="-134" visible="true" lat="43.30416488" lon="-73.1941986">
    <tag k="addr:city" v="Rupert"/>
    <tag k="addr:housenumber" v="2984"/>
    <tag k="addr:street" v="Pawlet Mountain Road"/>
    <tag k="addr:state" v="VT"/>
    <tag k="ref:vcgi:esiteid" v="207046"/>
  </node>
  <node id="-135" visible="true" lat="43.30435148" lon="-73.13822526">
    <tag k="addr:city" v="Rupert"/>
    <tag k="addr:housenumber" v="627"/>
    <tag k="addr:street" v="Sykes Hollow Road"/>
    <tag k="addr:state" v="VT"/>
    <tag k="ref:vcgi:esiteid" v="207047"/>
  </node>
  <node id="-136" visible="true" lat="43.30432891" lon="-73.13850402">
    <tag k="addr:city" v="Rupert"/>
    <tag k="addr:housenumber" v="625"/>
    <tag k="addr:street" v="Sykes Hollow Road"/>
    <tag k="addr:state" v="VT"/>
    <tag k="ref:vcgi:esiteid" v="207048"/>
  </node>
  <node id="-137" visible="true" lat="43.30288696" lon="-73.23995971">
    <tag k="addr:city" v="Rupert"/>
    <tag k="addr:housenumber" v="190"/>
    <tag k="addr:street" v="Perkins Road"/>
    <tag k="addr:state" v="VT"/>
    <tag k="ref:vcgi:esiteid" v="207049"/>
  </node>
  <node id="-138" visible="true" lat="43.30332183" lon="-73.1376419">
    <tag k="addr:city" v="Rupert"/>
    <tag k="addr:housenumber" v="558"/>
    <tag k="addr:street" v="Sykes Hollow Road"/>
    <tag k="addr:state" v="VT"/>
    <tag k="ref:vcgi:esiteid" v="207050"/>
  </node>
  <node id="-139" visible="true" lat="43.30231475" lon="-73.2451477">
    <tag k="addr:city" v="Rupert"/>
    <tag k="addr:housenumber" v="6253"/>
    <tag k="addr:street" v="Vermont Route 153"/>
    <tag k="addr:state" v="VT"/>
    <tag k="ref:vcgi:esiteid" v="207051"/>
  </node>
  <node id="-140" visible="true" lat="43.3028097" lon="-73.15076568">
    <tag k="addr:city" v="Rupert"/>
    <tag k="addr:housenumber" v="2710"/>
    <tag k="addr:street" v="Vermont Route 30"/>
    <tag k="addr:state" v="VT"/>
    <tag k="ref:vcgi:esiteid" v="207052"/>
  </node>
  <node id="-141" visible="true" lat="43.30326993" lon="-73.14000648">
    <tag k="addr:city" v="Rupert"/>
    <tag k="addr:housenumber" v="369"/>
    <tag k="addr:street" v="Sykes Hollow Road"/>
    <tag k="addr:state" v="VT"/>
    <tag k="ref:vcgi:esiteid" v="207053"/>
  </node>
  <node id="-142" visible="true" lat="43.30260471" lon="-73.13846267">
    <tag k="addr:city" v="Rupert"/>
    <tag k="addr:housenumber" v="513"/>
    <tag k="addr:street" v="Sykes Hollow Road"/>
    <tag k="addr:state" v="VT"/>
    <tag k="ref:vcgi:esiteid" v="207054"/>
  </node>
  <node id="-143" visible="true" lat="43.3031731" lon="-73.14096932">
    <tag k="addr:city" v="Rupert"/>
    <tag k="addr:housenumber" v="371"/>
    <tag k="addr:street" v="Sykes Hollow Road"/>
    <tag k="addr:state" v="VT"/>
    <tag k="ref:vcgi:esiteid" v="207055"/>
  </node>
  <node id="-144" visible="true" lat="43.30242507" lon="-73.15048317">
    <tag k="addr:city" v="Rupert"/>
    <tag k="addr:housenumber" v="2678"/>
    <tag k="addr:street" v="Vermont Route 30"/>
    <tag k="addr:state" v="VT"/>
    <tag k="ref:vcgi:esiteid" v="207056"/>
  </node>
  <node id="-145" visible="true" lat="43.30163192" lon="-73.24021911">
    <tag k="addr:city" v="Rupert"/>
    <tag k="addr:housenumber" v="6170"/>
    <tag k="addr:street" v="Vermont Route 153"/>
    <tag k="addr:state" v="VT"/>
    <tag k="ref:vcgi:esiteid" v="207057"/>
  </node>
  <node id="-146" visible="true" lat="43.30210113" lon="-73.14967346">
    <tag k="addr:city" v="Rupert"/>
    <tag k="addr:housenumber" v="2630"/>
    <tag k="addr:street" v="Vermont Route 30"/>
    <tag k="addr:state" v="VT"/>
    <tag k="ref:vcgi:esiteid" v="207058"/>
  </node>
  <node id="-147" visible="true" lat="43.30206265" lon="-73.15077582">
    <tag k="addr:city" v="Rupert"/>
    <tag k="addr:housenumber" v="2675"/>
    <tag k="addr:street" v="Vermont Route 30"/>
    <tag k="addr:state" v="VT"/>
    <tag k="ref:vcgi:esiteid" v="207059"/>
  </node>
  <node id="-148" visible="true" lat="43.30215628" lon="-73.13775503">
    <tag k="addr:city" v="Rupert"/>
    <tag k="addr:housenumber" v="472"/>
    <tag k="addr:street" v="Sykes Hollow Road"/>
    <tag k="addr:state" v="VT"/>
    <tag k="ref:vcgi:esiteid" v="207060"/>
  </node>
  <node id="-149" visible="true" lat="43.30147933" lon="-73.19483947">
    <tag k="addr:city" v="Rupert"/>
    <tag k="addr:housenumber" v="2826"/>
    <tag k="addr:street" v="Pawlet Mountain Road"/>
    <tag k="addr:state" v="VT"/>
    <tag k="ref:vcgi:esiteid" v="207061"/>
  </node>
  <node id="-150" visible="true" lat="43.3011589" lon="-73.245018">
    <tag k="addr:city" v="Rupert"/>
    <tag k="addr:housenumber" v="216"/>
    <tag k="addr:street" v="Quarry Road"/>
    <tag k="addr:state" v="VT"/>
    <tag k="ref:vcgi:esiteid" v="207062"/>
  </node>
  <node id="-151" visible="true" lat="43.30171966" lon="-73.14884948">
    <tag k="addr:city" v="Rupert"/>
    <tag k="addr:housenumber" v="2582"/>
    <tag k="addr:street" v="Vermont Route 30"/>
    <tag k="addr:state" v="VT"/>
    <tag k="ref:vcgi:esiteid" v="207063"/>
  </node>
  <node id="-152" visible="true" lat="43.30112075" lon="-73.14814758">
    <tag k="addr:city" v="Rupert"/>
    <tag k="addr:housenumber" v="2528"/>
    <tag k="addr:street" v="Vermont Route 30"/>
    <tag k="addr:state" v="VT"/>
    <tag k="ref:vcgi:esiteid" v="207064"/>
  </node>
  <node id="-153" visible="true" lat="43.30086892" lon="-73.13842018">
    <tag k="addr:city" v="Rupert"/>
    <tag k="addr:housenumber" v="398"/>
    <tag k="addr:street" v="Sykes Hollow Road"/>
    <tag k="addr:state" v="VT"/>
    <tag k="ref:vcgi:esiteid" v="207065"/>
  </node>
  <node id="-154" visible="true" lat="43.30065536" lon="-73.1961441">
    <tag k="addr:city" v="Rupert"/>
    <tag k="addr:housenumber" v="2722"/>
    <tag k="addr:street" v="Pawlet Mountain Road"/>
    <tag k="addr:state" v="VT"/>
    <tag k="ref:vcgi:esiteid" v="207066"/>
  </node>
  <node id="-155" visible="true" lat="43.30081176" lon="-73.13864135">
    <tag k="addr:city" v="Rupert"/>
    <tag k="addr:housenumber" v="382"/>
    <tag k="addr:street" v="Sykes Hollow Road"/>
    <tag k="addr:state" v="VT"/>
    <tag k="ref:vcgi:esiteid" v="207067"/>
  </node>
  <node id="-156" visible="true" lat="43.3004069" lon="-73.1484126">
    <tag k="addr:city" v="Rupert"/>
    <tag k="addr:housenumber" v="2509"/>
    <tag k="addr:street" v="Vermont Route 30"/>
    <tag k="addr:state" v="VT"/>
    <tag k="ref:vcgi:esiteid" v="207068"/>
  </node>
  <node id="-157" visible="true" lat="43.30014386" lon="-73.14863831">
    <tag k="addr:city" v="Rupert"/>
    <tag k="addr:housenumber" v="2519"/>
    <tag k="addr:street" v="Vermont Route 30"/>
    <tag k="addr:state" v="VT"/>
    <tag k="ref:vcgi:esiteid" v="207069"/>
  </node>
  <node id="-158" visible="true" lat="43.30028978" lon="-73.146874">
    <tag k="addr:city" v="Rupert"/>
    <tag k="addr:housenumber" v="2438"/>
    <tag k="addr:street" v="Vermont Route 30"/>
    <tag k="addr:state" v="VT"/>
    <tag k="ref:vcgi:esiteid" v="207070"/>
  </node>
  <node id="-159" visible="true" lat="43.29991912" lon="-73.19650268">
    <tag k="addr:city" v="Rupert"/>
    <tag k="addr:housenumber" v="2668"/>
    <tag k="addr:street" v="Pawlet Mountain Road"/>
    <tag k="addr:state" v="VT"/>
    <tag k="ref:vcgi:esiteid" v="207071"/>
  </node>
  <node id="-160" visible="true" lat="43.29985096" lon="-73.19010998">
    <tag k="addr:city" v="Rupert"/>
    <tag k="addr:housenumber" v="2362"/>
    <tag k="addr:street" v="Pawlet Mountain Road"/>
    <tag k="addr:state" v="VT"/>
    <tag k="ref:vcgi:esiteid" v="207072"/>
  </node>
  <node id="-161" visible="true" lat="43.29980056" lon="-73.14576466">
    <tag k="addr:city" v="Rupert"/>
    <tag k="addr:housenumber" v="2384"/>
    <tag k="addr:street" v="Vermont Route 30"/>
    <tag k="addr:state" v="VT"/>
    <tag k="ref:vcgi:esiteid" v="207073"/>
  </node>
  <node id="-162" visible="true" lat="43.29922485" lon="-73.19700622">
    <tag k="addr:city" v="Rupert"/>
    <tag k="addr:housenumber" v="2614"/>
    <tag k="addr:street" v="Pawlet Mountain Road"/>
    <tag k="addr:state" v="VT"/>
    <tag k="ref:vcgi:esiteid" v="207074"/>
  </node>
  <node id="-163" visible="true" lat="43.29932784" lon="-73.14480692">
    <tag k="addr:city" v="Rupert"/>
    <tag k="addr:housenumber" v="14"/>
    <tag k="addr:street" v="Sykes Hollow Road"/>
    <tag k="addr:state" v="VT"/>
    <tag k="ref:vcgi:esiteid" v="207075"/>
  </node>
  <node id="-164" visible="true" lat="43.30044965" lon="-73.24761676">
    <tag k="addr:city" v="Rupert"/>
    <tag k="addr:housenumber" v="374"/>
    <tag k="addr:street" v="Quarry Road"/>
    <tag k="addr:state" v="VT"/>
    <tag k="ref:vcgi:esiteid" v="207076"/>
  </node>
  <node id="-165" visible="true" lat="43.29804909" lon="-73.19365059">
    <tag k="addr:city" v="Rupert"/>
    <tag k="addr:housenumber" v="2360"/>
    <tag k="addr:street" v="Pawlet Mountain Road"/>
    <tag k="addr:state" v="VT"/>
    <tag k="ref:vcgi:esiteid" v="207077"/>
  </node>
  <node id="-166" visible="true" lat="43.29801559" lon="-73.25359344">
    <tag k="addr:city" v="Rupert"/>
    <tag k="addr:housenumber" v="722"/>
    <tag k="addr:street" v="Quarry Road"/>
    <tag k="addr:state" v="VT"/>
    <tag k="ref:vcgi:esiteid" v="207078"/>
  </node>
  <node id="-167" visible="true" lat="43.29845428" lon="-73.14570617">
    <tag k="addr:city" v="Rupert"/>
    <tag k="addr:housenumber" v="2307"/>
    <tag k="addr:street" v="Vermont Route 30"/>
    <tag k="addr:state" v="VT"/>
    <tag k="ref:vcgi:esiteid" v="207079"/>
  </node>
  <node id="-168" visible="true" lat="43.29785156" lon="-73.24105834">
    <tag k="addr:city" v="Rupert"/>
    <tag k="addr:housenumber" v="5932"/>
    <tag k="addr:street" v="Vermont Route 153"/>
    <tag k="addr:state" v="VT"/>
    <tag k="ref:vcgi:esiteid" v="207080"/>
  </node>
  <node id="-169" visible="true" lat="43.29761505" lon="-73.1974411">
    <tag k="addr:city" v="Rupert"/>
    <tag k="addr:housenumber" v="2500"/>
    <tag k="addr:street" v="Pawlet Mountain Road"/>
    <tag k="addr:state" v="VT"/>
    <tag k="ref:vcgi:esiteid" v="207081"/>
  </node>
  <node id="-170" visible="true" lat="43.29754257" lon="-73.18869018">
    <tag k="addr:city" v="Rupert"/>
    <tag k="addr:housenumber" v="2364"/>
    <tag k="addr:street" v="Pawlet Mountain Road"/>
    <tag k="addr:state" v="VT"/>
    <tag k="ref:vcgi:esiteid" v="207082"/>
  </node>
  <node id="-171" visible="true" lat="43.29717636" lon="-73.23773193">
    <tag k="addr:city" v="Rupert"/>
    <tag k="addr:housenumber" v="5772"/>
    <tag k="addr:street" v="Vermont Route 153"/>
    <tag k="addr:state" v="VT"/>
    <tag k="ref:vcgi:esiteid" v="207083"/>
  </node>
  <node id="-172" visible="true" lat="43.29711151" lon="-73.15186309">
    <tag k="addr:city" v="Rupert"/>
    <tag k="addr:housenumber" v="2353"/>
    <tag k="addr:street" v="Vermont Route 30"/>
    <tag k="addr:state" v="VT"/>
    <tag k="ref:vcgi:esiteid" v="207084"/>
  </node>
  <node id="-173" visible="true" lat="43.29630661" lon="-73.14891815">
    <tag k="addr:city" v="Rupert"/>
    <tag k="addr:housenumber" v="2351"/>
    <tag k="addr:street" v="Vermont Route 30"/>
    <tag k="addr:state" v="VT"/>
    <tag k="ref:vcgi:esiteid" v="207085"/>
  </node>
  <node id="-174" visible="true" lat="43.29554748" lon="-73.24040985">
    <tag k="addr:city" v="Rupert"/>
    <tag k="addr:housenumber" v="5762"/>
    <tag k="addr:street" v="Vermont Route 153"/>
    <tag k="addr:state" v="VT"/>
    <tag k="ref:vcgi:esiteid" v="207086"/>
  </node>
  <node id="-175" visible="true" lat="43.29758349" lon="-73.19581884">
    <tag k="addr:city" v="Rupert"/>
    <tag k="addr:housenumber" v="2358"/>
    <tag k="addr:street" v="Pawlet Mountain Road"/>
    <tag k="addr:state" v="VT"/>
    <tag k="ref:vcgi:esiteid" v="207087"/>
  </node>
  <node id="-176" visible="true" lat="43.29521942" lon="-73.19786071">
    <tag k="addr:city" v="Rupert"/>
    <tag k="addr:housenumber" v="2330"/>
    <tag k="addr:street" v="Pawlet Mountain Road"/>
    <tag k="addr:state" v="VT"/>
    <tag k="ref:vcgi:esiteid" v="207088"/>
  </node>
  <node id="-177" visible="true" lat="43.29528808" lon="-73.13989257">
    <tag k="addr:city" v="Rupert"/>
    <tag k="addr:housenumber" v="218"/>
    <tag k="addr:street" v="Sykes Hollow Road"/>
    <tag k="addr:state" v="VT"/>
    <tag k="ref:vcgi:esiteid" v="207089"/>
  </node>
  <node id="-178" visible="true" lat="43.29381907" lon="-73.19817722">
    <tag k="addr:city" v="Rupert"/>
    <tag k="addr:housenumber" v="2227"/>
    <tag k="addr:street" v="Pawlet Mountain Road"/>
    <tag k="addr:state" v="VT"/>
    <tag k="ref:vcgi:esiteid" v="207090"/>
  </node>
  <node id="-179" visible="true" lat="43.29286575" lon="-73.19772338">
    <tag k="addr:city" v="Rupert"/>
    <tag k="addr:housenumber" v="2168"/>
    <tag k="addr:street" v="Pawlet Mountain Road"/>
    <tag k="addr:state" v="VT"/>
    <tag k="ref:vcgi:esiteid" v="207091"/>
  </node>
  <node id="-180" visible="true" lat="43.29309844" lon="-73.14045715">
    <tag k="addr:city" v="Rupert"/>
    <tag k="addr:housenumber" v="1851"/>
    <tag k="addr:street" v="Vermont Route 30"/>
    <tag k="addr:state" v="VT"/>
    <tag k="ref:vcgi:esiteid" v="207092"/>
  </node>
  <node id="-181" visible="true" lat="43.29118401" lon="-73.23963947">
    <tag k="addr:city" v="Rupert"/>
    <tag k="addr:housenumber" v="5466"/>
    <tag k="addr:street" v="Vermont Route 153"/>
    <tag k="addr:state" v="VT"/>
    <tag k="ref:vcgi:esiteid" v="207093"/>
  </node>
  <node id="-182" visible="true" lat="43.29149246" lon="-73.20697784">
    <tag k="addr:city" v="Rupert"/>
    <tag k="addr:housenumber" v="1351"/>
    <tag k="addr:street" v="Suncrest Road"/>
    <tag k="addr:state" v="VT"/>
    <tag k="ref:vcgi:esiteid" v="207094"/>
  </node>
  <node id="-183" visible="true" lat="43.29132129" lon="-73.23479147">
    <tag k="addr:city" v="Rupert"/>
    <tag k="addr:housenumber" v="166"/>
    <tag k="addr:street" v="McKeighan Road"/>
    <tag k="addr:state" v="VT"/>
    <tag k="ref:vcgi:esiteid" v="207095"/>
  </node>
  <node id="-184" visible="true" lat="43.29072531" lon="-73.13797995">
    <tag k="addr:city" v="Rupert"/>
    <tag k="addr:housenumber" v="1630"/>
    <tag k="addr:street" v="Vermont Route 30"/>
    <tag k="addr:state" v="VT"/>
    <tag k="ref:vcgi:esiteid" v="207096"/>
  </node>
  <node id="-185" visible="true" lat="43.28980287" lon="-73.23852632">
    <tag k="addr:city" v="Rupert"/>
    <tag k="addr:housenumber" v="84"/>
    <tag k="addr:street" v="McKeighan Road"/>
    <tag k="addr:state" v="VT"/>
    <tag k="ref:vcgi:esiteid" v="207097"/>
  </node>
  <node id="-186" visible="true" lat="43.28919383" lon="-73.23855552">
    <tag k="addr:city" v="Rupert"/>
    <tag k="addr:housenumber" v="5330"/>
    <tag k="addr:street" v="Vermont Route 153"/>
    <tag k="addr:state" v="VT"/>
    <tag k="ref:vcgi:esiteid" v="207098"/>
  </node>
  <node id="-187" visible="true" lat="43.28971931" lon="-73.2038734">
    <tag k="addr:city" v="Rupert"/>
    <tag k="addr:housenumber" v="1480"/>
    <tag k="addr:street" v="Suncrest Road"/>
    <tag k="addr:state" v="VT"/>
    <tag k="ref:vcgi:esiteid" v="207099"/>
  </node>
  <node id="-189" visible="true" lat="43.28930664" lon="-73.15663147">
    <tag k="addr:city" v="Rupert"/>
    <tag k="addr:housenumber" v="482"/>
    <tag k="addr:street" v="Derby Hill Road"/>
    <tag k="addr:state" v="VT"/>
    <tag k="ref:vcgi:esiteid" v="207101"/>
  </node>
  <node id="-190" visible="true" lat="43.28876876" lon="-73.13729095">
    <tag k="addr:city" v="Rupert"/>
    <tag k="addr:housenumber" v="1509"/>
    <tag k="addr:street" v="Vermont Route 30"/>
    <tag k="addr:state" v="VT"/>
    <tag k="ref:vcgi:esiteid" v="207102"/>
  </node>
  <node id="-191" visible="true" lat="43.28669738" lon="-73.23866271">
    <tag k="addr:city" v="Rupert"/>
    <tag k="addr:housenumber" v="5142"/>
    <tag k="addr:street" v="Vermont Route 153"/>
    <tag k="addr:state" v="VT"/>
    <tag k="ref:vcgi:esiteid" v="207103"/>
  </node>
  <node id="-194" visible="true" lat="43.28422967" lon="-73.20047107">
    <tag k="addr:city" v="Rupert"/>
    <tag k="addr:housenumber" v="1572"/>
    <tag k="addr:street" v="Pawlet Mountain Road"/>
    <tag k="addr:state" v="VT"/>
    <tag k="ref:vcgi:esiteid" v="207106"/>
  </node>
  <node id="-195" visible="true" lat="43.28463745" lon="-73.12958526">
    <tag k="addr:city" v="Rupert"/>
    <tag k="addr:housenumber" v="1030"/>
    <tag k="addr:street" v="Vermont Route 30"/>
    <tag k="addr:state" v="VT"/>
    <tag k="ref:vcgi:esiteid" v="207107"/>
  </node>
  <node id="-203" visible="true" lat="43.28242874" lon="-73.23867034">
    <tag k="addr:city" v="Rupert"/>
    <tag k="addr:housenumber" v="4589"/>
    <tag k="addr:street" v="Vermont Route 153"/>
    <tag k="addr:state" v="VT"/>
    <tag k="ref:vcgi:esiteid" v="207116"/>
  </node>
  <node id="-204" visible="true" lat="43.28260421" lon="-73.2020874">
    <tag k="addr:city" v="Rupert"/>
    <tag k="addr:housenumber" v="1423"/>
    <tag k="addr:street" v="Pawlet Mountain Road"/>
    <tag k="addr:state" v="VT"/>
    <tag k="ref:vcgi:esiteid" v="207117"/>
  </node>
  <node id="-205" visible="true" lat="43.28177758" lon="-73.22032965">
    <tag k="addr:city" v="Rupert"/>
    <tag k="addr:housenumber" v="380"/>
    <tag k="addr:street" v="Suncrest Road"/>
    <tag k="addr:state" v="VT"/>
    <tag k="ref:vcgi:esiteid" v="207118"/>
  </node>
  <node id="-208" visible="true" lat="43.28087997" lon="-73.23697662">
    <tag k="addr:city" v="Rupert"/>
    <tag k="addr:housenumber" v="4690"/>
    <tag k="addr:street" v="Vermont Route 153"/>
    <tag k="addr:state" v="VT"/>
    <tag k="ref:vcgi:esiteid" v="207121"/>
  </node>
  <node id="-211" visible="true" lat="43.28038024" lon="-73.20207214">
    <tag k="addr:city" v="Rupert"/>
    <tag k="addr:housenumber" v="1284"/>
    <tag k="addr:street" v="Pawlet Mountain Road"/>
    <tag k="addr:state" v="VT"/>
    <tag k="ref:vcgi:esiteid" v="207124"/>
  </node>
  <node id="-215" visible="true" lat="43.28011703" lon="-73.17873382">
    <tag k="addr:city" v="Rupert"/>
    <tag k="addr:housenumber" v="2774"/>
    <tag k="addr:street" v="Route 315"/>
    <tag k="addr:state" v="VT"/>
    <tag k="ref:vcgi:esiteid" v="207128"/>
  </node>
  <node id="-216" visible="true" lat="43.28080628" lon="-73.2258613">
    <tag k="addr:city" v="Rupert"/>
    <tag k="addr:housenumber" v="117"/>
    <tag k="addr:street" v="Suncrest Road"/>
    <tag k="addr:state" v="VT"/>
    <tag k="ref:vcgi:esiteid" v="207129"/>
  </node>
  <node id="-217" visible="true" lat="43.27952575" lon="-73.20334625">
    <tag k="addr:city" v="Rupert"/>
    <tag k="addr:housenumber" v="1199"/>
    <tag k="addr:street" v="Pawlet Mountain Road"/>
    <tag k="addr:state" v="VT"/>
    <tag k="ref:vcgi:esiteid" v="207130"/>
  </node>
  <node id="-220" visible="true" lat="43.2785263" lon="-73.22488403">
    <tag k="addr:city" v="Rupert"/>
    <tag k="addr:housenumber" v="47"/>
    <tag k="addr:street" v="Suncrest Road"/>
    <tag k="addr:state" v="VT"/>
    <tag k="ref:vcgi:esiteid" v="207133"/>
  </node>
  <node id="-224" visible="true" lat="43.27754974" lon="-73.22510528">
    <tag k="addr:city" v="Rupert"/>
    <tag k="addr:housenumber" v="710"/>
    <tag k="addr:street" v="Lewis Road"/>
    <tag k="addr:state" v="VT"/>
    <tag k="ref:vcgi:esiteid" v="207137"/>
  </node>
  <node id="-225" visible="true" lat="43.27729797" lon="-73.23620605">
    <tag k="addr:city" v="Rupert"/>
    <tag k="addr:housenumber" v="4480"/>
    <tag k="addr:street" v="Vermont Route 153"/>
    <tag k="addr:state" v="VT"/>
    <tag k="ref:vcgi:esiteid" v="207138"/>
  </node>
  <node id="-226" visible="true" lat="43.27706527" lon="-73.22206878">
    <tag k="addr:city" v="Rupert"/>
    <tag k="addr:housenumber" v="865"/>
    <tag k="addr:street" v="Lewis Road"/>
    <tag k="addr:state" v="VT"/>
    <tag k="ref:vcgi:esiteid" v="207139"/>
  </node>
  <node id="-228" visible="true" lat="43.2770462" lon="-73.22161102">
    <tag k="addr:city" v="Rupert"/>
    <tag k="addr:housenumber" v="887"/>
    <tag k="addr:street" v="Lewis Road"/>
    <tag k="addr:state" v="VT"/>
    <tag k="ref:vcgi:esiteid" v="207141"/>
  </node>
  <node id="-232" visible="true" lat="43.27710342" lon="-73.20333099">
    <tag k="addr:city" v="Rupert"/>
    <tag k="addr:housenumber" v="1039"/>
    <tag k="addr:street" v="Pawlet Mountain Road"/>
    <tag k="addr:state" v="VT"/>
    <tag k="ref:vcgi:esiteid" v="207145"/>
  </node>
  <node id="-233" visible="true" lat="43.2769165" lon="-73.22692871">
    <tag k="addr:city" v="Rupert"/>
    <tag k="addr:housenumber" v="589"/>
    <tag k="addr:street" v="Lewis Road"/>
    <tag k="addr:state" v="VT"/>
    <tag k="ref:vcgi:esiteid" v="207146"/>
  </node>
  <node id="-234" visible="true" lat="43.27650833" lon="-73.23625183">
    <tag k="addr:city" v="Rupert"/>
    <tag k="addr:housenumber" v="4428"/>
    <tag k="addr:street" v="Vermont Route 153"/>
    <tag k="addr:state" v="VT"/>
    <tag k="ref:vcgi:esiteid" v="207147"/>
  </node>
  <node id="-235" visible="true" lat="43.27665489" lon="-73.22107891">
    <tag k="addr:city" v="Rupert"/>
    <tag k="addr:housenumber" v="902"/>
    <tag k="addr:street" v="Lewis Road"/>
    <tag k="addr:state" v="VT"/>
    <tag k="ref:vcgi:esiteid" v="207148"/>
  </node>
  <node id="-237" visible="true" lat="43.27692031" lon="-73.12464904">
    <tag k="addr:city" v="Rupert"/>
    <tag k="addr:housenumber" v="429"/>
    <tag k="addr:street" v="Vermont Route 30"/>
    <tag k="addr:state" v="VT"/>
    <tag k="ref:vcgi:esiteid" v="207151"/>
  </node>
  <node id="-240" visible="true" lat="43.27580261" lon="-73.22800445">
    <tag k="addr:city" v="Rupert"/>
    <tag k="addr:housenumber" v="495"/>
    <tag k="addr:street" v="Lewis Road"/>
    <tag k="addr:state" v="VT"/>
    <tag k="ref:vcgi:esiteid" v="207154"/>
  </node>
  <node id="-241" visible="true" lat="43.2894755" lon="-73.2093027">
    <tag k="addr:city" v="Rupert"/>
    <tag k="addr:housenumber" v="1188"/>
    <tag k="addr:street" v="Suncrest Road"/>
    <tag k="addr:state" v="VT"/>
    <tag k="ref:vcgi:esiteid" v="207155"/>
  </node>
  <node id="-243" visible="true" lat="43.27552032" lon="-73.24042511">
    <tag k="addr:city" v="Rupert"/>
    <tag k="addr:housenumber" v="4313"/>
    <tag k="addr:street" v="Vermont Route 153"/>
    <tag k="addr:state" v="VT"/>
    <tag k="ref:vcgi:esiteid" v="207157"/>
  </node>
  <node id="-244" visible="true" lat="43.27539933" lon="-73.19954864">
    <tag k="addr:city" v="Rupert"/>
    <tag k="addr:housenumber" v="990"/>
    <tag k="addr:street" v="Pawlet Mountain Road"/>
    <tag k="addr:state" v="VT"/>
    <tag k="ref:vcgi:esiteid" v="207158"/>
  </node>
  <node id="-245" visible="true" lat="43.2758789" lon="-73.12389373">
    <tag k="addr:city" v="Rupert"/>
    <tag k="addr:housenumber" v="354"/>
    <tag k="addr:street" v="Vermont Route 30"/>
    <tag k="addr:state" v="VT"/>
    <tag k="ref:vcgi:esiteid" v="207159"/>
  </node>
  <node id="-246" visible="true" lat="43.27189196" lon="-73.20044502">
    <tag k="addr:city" v="Rupert"/>
    <tag k="addr:housenumber" v="992"/>
    <tag k="addr:street" v="Pawlet Mountain Road"/>
    <tag k="addr:state" v="VT"/>
    <tag k="ref:vcgi:esiteid" v="207160"/>
  </node>
  <node id="-248" visible="true" lat="43.27503204" lon="-73.23786926">
    <tag k="addr:city" v="Rupert"/>
    <tag k="addr:housenumber" v="4293"/>
    <tag k="addr:street" v="Vermont Route 153"/>
    <tag k="addr:state" v="VT"/>
    <tag k="ref:vcgi:esiteid" v="207162"/>
  </node>
  <node id="-251" visible="true" lat="43.27506637" lon="-73.20355987">
    <tag k="addr:city" v="Rupert"/>
    <tag k="addr:housenumber" v="1025"/>
    <tag k="addr:street" v="Pawlet Mountain Road"/>
    <tag k="addr:state" v="VT"/>
    <tag k="ref:vcgi:esiteid" v="207165"/>
  </node>
  <node id="-252" visible="true" lat="43.2751972" lon="-73.18040331">
    <tag k="addr:city" v="Rupert"/>
    <tag k="addr:housenumber" v="115"/>
    <tag k="addr:street" v="Watrous Road"/>
    <tag k="addr:state" v="VT"/>
    <tag k="ref:vcgi:esiteid" v="207166"/>
  </node>
  <node id="-253" visible="true" lat="43.27476882" lon="-73.23303985">
    <tag k="addr:city" v="Rupert"/>
    <tag k="addr:housenumber" v="189"/>
    <tag k="addr:street" v="Lewis Road"/>
    <tag k="addr:state" v="VT"/>
    <tag k="ref:vcgi:esiteid" v="207167"/>
  </node>
  <node id="-257" visible="true" lat="43.27440643" lon="-73.23660278">
    <tag k="addr:city" v="Rupert"/>
    <tag k="addr:housenumber" v="4270"/>
    <tag k="addr:street" v="Vermont Route 153"/>
    <tag k="addr:state" v="VT"/>
    <tag k="ref:vcgi:esiteid" v="207172"/>
  </node>
  <node id="-260" visible="true" lat="43.27447891" lon="-73.17282104">
    <tag k="addr:city" v="Rupert"/>
    <tag k="addr:housenumber" v="3270"/>
    <tag k="addr:street" v="Route 315"/>
    <tag k="addr:state" v="VT"/>
    <tag k="ref:vcgi:esiteid" v="207175"/>
  </node>
  <node id="-261" visible="true" lat="43.27465438" lon="-73.13166809">
    <tag k="addr:city" v="Rupert"/>
    <tag k="addr:housenumber" v="5445"/>
    <tag k="addr:street" v="Route 315"/>
    <tag k="addr:state" v="VT"/>
    <tag k="ref:vcgi:esiteid" v="207176"/>
  </node>
  <node id="-267" visible="true" lat="43.2741394" lon="-73.12992858">
    <tag k="addr:city" v="Rupert"/>
    <tag k="addr:housenumber" v="5553"/>
    <tag k="addr:street" v="Route 315"/>
    <tag k="addr:state" v="VT"/>
    <tag k="ref:vcgi:esiteid" v="207182"/>
  </node>
  <node id="-269" visible="true" lat="43.27366256" lon="-73.18309021">
    <tag k="addr:city" v="Rupert"/>
    <tag k="addr:housenumber" v="119"/>
    <tag k="addr:street" v="Watrous Road"/>
    <tag k="addr:state" v="VT"/>
    <tag k="ref:vcgi:esiteid" v="207184"/>
  </node>
  <node id="-274" visible="true" lat="43.27253452" lon="-73.18716235">
    <tag k="addr:city" v="Rupert"/>
    <tag k="addr:housenumber" v="259"/>
    <tag k="addr:street" v="Watrous Road"/>
    <tag k="addr:state" v="VT"/>
    <tag k="ref:vcgi:esiteid" v="207189"/>
  </node>
  <node id="-275" visible="true" lat="43.27257156" lon="-73.23726653">
    <tag k="addr:city" v="Rupert"/>
    <tag k="addr:housenumber" v="4145"/>
    <tag k="addr:street" v="Vermont Route 153"/>
    <tag k="addr:state" v="VT"/>
    <tag k="ref:vcgi:esiteid" v="207190"/>
  </node>
  <node id="-276" visible="true" lat="43.27348274" lon="-73.12638976">
    <tag k="addr:city" v="Rupert"/>
    <tag k="addr:housenumber" v="5759"/>
    <tag k="addr:street" v="Route 315"/>
    <tag k="addr:state" v="VT"/>
    <tag k="ref:vcgi:esiteid" v="207191"/>
  </node>
  <node id="-280" visible="true" lat="43.27298394" lon="-73.18646258">
    <tag k="addr:city" v="Rupert"/>
    <tag k="addr:housenumber" v="257"/>
    <tag k="addr:street" v="Watrous Road"/>
    <tag k="addr:state" v="VT"/>
    <tag k="ref:vcgi:esiteid" v="207195"/>
  </node>
  <node id="-281" visible="true" lat="43.27208972" lon="-73.18745732">
    <tag k="addr:city" v="Rupert"/>
    <tag k="addr:housenumber" v="351"/>
    <tag k="addr:street" v="Watrous Road"/>
    <tag k="addr:state" v="VT"/>
    <tag k="ref:vcgi:esiteid" v="207196"/>
  </node>
  <node id="-282" visible="true" lat="43.27183914" lon="-73.2340393">
    <tag k="addr:city" v="Rupert"/>
    <tag k="addr:housenumber" v="96"/>
    <tag k="addr:street" v="Lewis Road"/>
    <tag k="addr:state" v="VT"/>
    <tag k="ref:vcgi:esiteid" v="207197"/>
  </node>
  <node id="-289" visible="true" lat="43.27152577" lon="-73.19099469">
    <tag k="addr:city" v="Rupert"/>
    <tag k="addr:housenumber" v="1852"/>
    <tag k="addr:street" v="Route 315"/>
    <tag k="addr:state" v="VT"/>
    <tag k="ref:vcgi:esiteid" v="207205"/>
  </node>
  <node id="-291" visible="true" lat="43.27110427" lon="-73.19137361">
    <tag k="addr:city" v="Rupert"/>
    <tag k="addr:housenumber" v="1824"/>
    <tag k="addr:street" v="Route 315"/>
    <tag k="addr:state" v="VT"/>
    <tag k="ref:vcgi:esiteid" v="207207"/>
  </node>
  <node id="-292" visible="true" lat="43.27106475" lon="-73.20471954">
    <tag k="addr:city" v="Rupert"/>
    <tag k="addr:housenumber" v="521"/>
    <tag k="addr:street" v="Pawlet Mountain Road"/>
    <tag k="addr:state" v="VT"/>
    <tag k="ref:vcgi:esiteid" v="207208"/>
  </node>
  <node id="-297" visible="true" lat="43.27053451" lon="-73.12831878">
    <tag k="addr:city" v="Rupert"/>
    <tag k="addr:housenumber" v="182"/>
    <tag k="addr:street" v="Rogers Road"/>
    <tag k="addr:state" v="VT"/>
    <tag k="ref:vcgi:esiteid" v="207213"/>
  </node>
  <node id="-298" visible="true" lat="43.26985168" lon="-73.23538208">
    <tag k="addr:city" v="Rupert"/>
    <tag k="addr:housenumber" v="3945"/>
    <tag k="addr:street" v="Vermont Route 153"/>
    <tag k="addr:state" v="VT"/>
    <tag k="ref:vcgi:esiteid" v="207214"/>
  </node>
  <node id="-300" visible="true" lat="43.27034759" lon="-73.12815094">
    <tag k="addr:city" v="Rupert"/>
    <tag k="addr:housenumber" v="178"/>
    <tag k="addr:street" v="Rogers Road"/>
    <tag k="addr:state" v="VT"/>
    <tag k="ref:vcgi:esiteid" v="207216"/>
  </node>
  <node id="-301" visible="true" lat="43.27033996" lon="-73.1246643">
    <tag k="addr:city" v="Rupert"/>
    <tag k="addr:housenumber" v="93"/>
    <tag k="addr:street" v="Dorset West Road"/>
    <tag k="addr:state" v="VT"/>
    <tag k="ref:vcgi:esiteid" v="207217"/>
  </node>
  <node id="-310" visible="true" lat="43.26799011" lon="-73.23276519">
    <tag k="addr:city" v="Rupert"/>
    <tag k="addr:housenumber" v="3762"/>
    <tag k="addr:street" v="Vermont Route 153"/>
    <tag k="addr:state" v="VT"/>
    <tag k="ref:vcgi:esiteid" v="207226"/>
  </node>
  <node id="-316" visible="true" lat="43.2664299" lon="-73.25242614">
    <tag k="addr:city" v="Rupert"/>
    <tag k="addr:housenumber" v="1658"/>
    <tag k="addr:street" v="Hebron Road"/>
    <tag k="addr:state" v="VT"/>
    <tag k="ref:vcgi:esiteid" v="207232"/>
  </node>
  <node id="-319" visible="true" lat="43.26642608" lon="-73.19483184">
    <tag k="addr:city" v="Rupert"/>
    <tag k="addr:housenumber" v="130"/>
    <tag k="addr:street" v="Clark Road"/>
    <tag k="addr:state" v="VT"/>
    <tag k="ref:vcgi:esiteid" v="207235"/>
  </node>
  <node id="-322" visible="true" lat="43.26524353" lon="-73.25035858">
    <tag k="addr:city" v="Rupert"/>
    <tag k="addr:housenumber" v="1642"/>
    <tag k="addr:street" v="Hebron Road"/>
    <tag k="addr:state" v="VT"/>
    <tag k="ref:vcgi:esiteid" v="207239"/>
  </node>
  <node id="-323" visible="true" lat="43.26519291" lon="-73.24840536">
    <tag k="addr:city" v="Rupert"/>
    <tag k="addr:housenumber" v="1552"/>
    <tag k="addr:street" v="Hebron Road"/>
    <tag k="addr:state" v="VT"/>
    <tag k="ref:vcgi:esiteid" v="207240"/>
  </node>
  <node id="-326" visible="true" lat="43.26424554" lon="-73.19201766">
    <tag k="addr:city" v="Rupert"/>
    <tag k="addr:housenumber" v="306"/>
    <tag k="addr:street" v="Clark Road"/>
    <tag k="addr:state" v="VT"/>
    <tag k="ref:vcgi:esiteid" v="207243"/>
  </node>
  <node id="-329" visible="true" lat="43.26374053" lon="-73.22924041">
    <tag k="addr:city" v="Rupert"/>
    <tag k="addr:housenumber" v="3362"/>
    <tag k="addr:street" v="Vermont Route 153"/>
    <tag k="addr:state" v="VT"/>
    <tag k="ref:vcgi:esiteid" v="207246"/>
  </node>
  <node id="-331" visible="true" lat="43.26357269" lon="-73.22827911">
    <tag k="addr:city" v="Rupert"/>
    <tag k="addr:housenumber" v="3314"/>
    <tag k="addr:street" v="Vermont Route 153"/>
    <tag k="addr:state" v="VT"/>
    <tag k="ref:vcgi:esiteid" v="207248"/>
  </node>
  <node id="-334" visible="true" lat="43.2634201" lon="-73.22962951">
    <tag k="addr:city" v="Rupert"/>
    <tag k="addr:housenumber" v="3375"/>
    <tag k="addr:street" v="Vermont Route 153"/>
    <tag k="addr:state" v="VT"/>
    <tag k="ref:vcgi:esiteid" v="207251"/>
  </node>
  <node id="-336" visible="true" lat="43.26334381" lon="-73.22729492">
    <tag k="addr:city" v="Rupert"/>
    <tag k="addr:housenumber" v="3264"/>
    <tag k="addr:street" v="Vermont Route 153"/>
    <tag k="addr:state" v="VT"/>
    <tag k="ref:vcgi:esiteid" v="207253"/>
  </node>
  <node id="-337" visible="true" lat="43.26317596" lon="-73.22698211">
    <tag k="addr:city" v="Rupert"/>
    <tag k="addr:housenumber" v="3248"/>
    <tag k="addr:street" v="Vermont Route 153"/>
    <tag k="addr:state" v="VT"/>
    <tag k="ref:vcgi:esiteid" v="207254"/>
  </node>
  <node id="-349" visible="true" lat="43.26105117" lon="-73.21166229">
    <tag k="addr:city" v="Rupert"/>
    <tag k="addr:housenumber" v="251"/>
    <tag k="addr:street" v="Youlin Road"/>
    <tag k="addr:state" v="VT"/>
    <tag k="ref:vcgi:esiteid" v="207266"/>
  </node>
  <node id="-350" visible="true" lat="43.26093673" lon="-73.22180938">
    <tag k="addr:city" v="Rupert"/>
    <tag k="addr:housenumber" v="89"/>
    <tag k="addr:street" v="Route 315"/>
    <tag k="addr:state" v="VT"/>
    <tag k="ref:vcgi:esiteid" v="207267"/>
  </node>
  <node id="-351" visible="true" lat="43.26087188" lon="-73.22094726">
    <tag k="addr:city" v="Rupert"/>
    <tag k="addr:housenumber" v="118"/>
    <tag k="addr:street" v="Route 315"/>
    <tag k="addr:state" v="VT"/>
    <tag k="ref:vcgi:esiteid" v="207268"/>
  </node>
  <node id="-354" visible="true" lat="43.26052093" lon="-73.22142791">
    <tag k="addr:city" v="Rupert"/>
    <tag k="addr:housenumber" v="84"/>
    <tag k="addr:street" v="Route 315"/>
    <tag k="addr:state" v="VT"/>
    <tag k="ref:vcgi:esiteid" v="207271"/>
  </node>
  <node id="-357" visible="true" lat="43.26030349" lon="-73.22160339">
    <tag k="addr:city" v="Rupert"/>
    <tag k="addr:housenumber" v="66"/>
    <tag k="addr:street" v="Route 315"/>
    <tag k="addr:state" v="VT"/>
    <tag k="ref:vcgi:esiteid" v="207274"/>
  </node>
  <node id="-361" visible="true" lat="43.25975799" lon="-73.21017455">
    <tag k="addr:city" v="Rupert"/>
    <tag k="addr:housenumber" v="515"/>
    <tag k="addr:street" v="Youlin Road"/>
    <tag k="addr:state" v="VT"/>
    <tag k="ref:vcgi:esiteid" v="207278"/>
  </node>
  <node id="-371" visible="true" lat="43.25725174" lon="-73.22712707">
    <tag k="addr:city" v="Rupert"/>
    <tag k="addr:housenumber" v="2659"/>
    <tag k="addr:street" v="Vermont Route 153"/>
    <tag k="addr:state" v="VT"/>
    <tag k="ref:vcgi:esiteid" v="207288"/>
  </node>
  <node id="-376" visible="true" lat="43.25606918" lon="-73.22845458">
    <tag k="addr:city" v="Rupert"/>
    <tag k="addr:housenumber" v="2554"/>
    <tag k="addr:street" v="Vermont Route 153"/>
    <tag k="addr:state" v="VT"/>
    <tag k="ref:vcgi:esiteid" v="207293"/>
  </node>
  <node id="-377" visible="true" lat="43.25445938" lon="-73.23057556">
    <tag k="addr:city" v="Rupert"/>
    <tag k="addr:housenumber" v="2389"/>
    <tag k="addr:street" v="Vermont Route 153"/>
    <tag k="addr:state" v="VT"/>
    <tag k="ref:vcgi:esiteid" v="207294"/>
  </node>
  <node id="-378" visible="true" lat="43.25457763" lon="-73.207695">
    <tag k="addr:city" v="Rupert"/>
    <tag k="addr:housenumber" v="1962"/>
    <tag k="addr:street" v="Lang Road"/>
    <tag k="addr:state" v="VT"/>
    <tag k="ref:vcgi:esiteid" v="207295"/>
  </node>
  <node id="-380" visible="true" lat="43.25254821" lon="-73.2119522">
    <tag k="addr:city" v="Rupert"/>
    <tag k="addr:housenumber" v="1582"/>
    <tag k="addr:street" v="Lang Road"/>
    <tag k="addr:state" v="VT"/>
    <tag k="ref:vcgi:esiteid" v="207297"/>
  </node>
  <node id="-381" visible="true" lat="43.25125122" lon="-73.21535491">
    <tag k="addr:city" v="Rupert"/>
    <tag k="addr:housenumber" v="1467"/>
    <tag k="addr:street" v="Lang Road"/>
    <tag k="addr:state" v="VT"/>
    <tag k="ref:vcgi:esiteid" v="207298"/>
  </node>
  <node id="-382" visible="true" lat="43.25030899" lon="-73.23522186">
    <tag k="addr:city" v="Rupert"/>
    <tag k="addr:housenumber" v="2023"/>
    <tag k="addr:street" v="Vermont Route 153"/>
    <tag k="addr:state" v="VT"/>
    <tag k="ref:vcgi:esiteid" v="207299"/>
  </node>
  <node id="-383" visible="true" lat="43.25013732" lon="-73.23459625">
    <tag k="addr:city" v="Rupert"/>
    <tag k="addr:housenumber" v="2020"/>
    <tag k="addr:street" v="Vermont Route 153"/>
    <tag k="addr:state" v="VT"/>
    <tag k="ref:vcgi:esiteid" v="207300"/>
  </node>
  <node id="-384" visible="true" lat="43.24758529" lon="-73.21886443">
    <tag k="addr:city" v="Rupert"/>
    <tag k="addr:housenumber" v="1158"/>
    <tag k="addr:street" v="Lang Road"/>
    <tag k="addr:state" v="VT"/>
    <tag k="ref:vcgi:esiteid" v="207301"/>
  </node>
  <node id="-385" visible="true" lat="43.24406814" lon="-73.22138214">
    <tag k="addr:city" v="Rupert"/>
    <tag k="addr:housenumber" v="882"/>
    <tag k="addr:street" v="Lang Road"/>
    <tag k="addr:state" v="VT"/>
    <tag k="ref:vcgi:esiteid" v="207302"/>
  </node>
  <node id="-386" visible="true" lat="43.24375152" lon="-73.23991394">
    <tag k="addr:city" v="Rupert"/>
    <tag k="addr:housenumber" v="1498"/>
    <tag k="addr:street" v="Vermont Route 153"/>
    <tag k="addr:state" v="VT"/>
    <tag k="ref:vcgi:esiteid" v="207303"/>
  </node>
  <node id="-388" visible="true" lat="43.2423439" lon="-73.24106597">
    <tag k="addr:city" v="Rupert"/>
    <tag k="addr:housenumber" v="1384"/>
    <tag k="addr:street" v="Vermont Route 153"/>
    <tag k="addr:state" v="VT"/>
    <tag k="ref:vcgi:esiteid" v="207305"/>
  </node>
  <node id="-389" visible="true" lat="43.24175643" lon="-73.24121856">
    <tag k="addr:city" v="Rupert"/>
    <tag k="addr:housenumber" v="1342"/>
    <tag k="addr:street" v="Vermont Route 153"/>
    <tag k="addr:state" v="VT"/>
    <tag k="ref:vcgi:esiteid" v="207306"/>
  </node>
  <node id="-390" visible="true" lat="43.24122619" lon="-73.24498748">
    <tag k="addr:city" v="Rupert"/>
    <tag k="addr:housenumber" v="154"/>
    <tag k="addr:street" v="Mill Road"/>
    <tag k="addr:state" v="VT"/>
    <tag k="ref:vcgi:esiteid" v="207307"/>
  </node>
  <node id="-392" visible="true" lat="43.24049377" lon="-73.24623107">
    <tag k="addr:city" v="Rupert"/>
    <tag k="addr:housenumber" v="149"/>
    <tag k="addr:street" v="Mill Road"/>
    <tag k="addr:state" v="VT"/>
    <tag k="ref:vcgi:esiteid" v="207309"/>
  </node>
  <node id="-394" visible="true" lat="43.24038314" lon="-73.246315">
    <tag k="addr:city" v="Rupert"/>
    <tag k="addr:housenumber" v="151"/>
    <tag k="addr:street" v="Mill Road"/>
    <tag k="addr:state" v="VT"/>
    <tag k="ref:vcgi:esiteid" v="207311"/>
  </node>
  <node id="-396" visible="true" lat="43.24020004" lon="-73.24279785">
    <tag k="addr:city" v="Rupert"/>
    <tag k="addr:housenumber" v="1215"/>
    <tag k="addr:street" v="Vermont Route 153"/>
    <tag k="addr:state" v="VT"/>
    <tag k="ref:vcgi:esiteid" v="207313"/>
  </node>
  <node id="-403" visible="true" lat="43.23882609" lon="-73.24314368">
    <tag k="addr:city" v="Rupert"/>
    <tag k="addr:housenumber" v="1127"/>
    <tag k="addr:street" v="Vermont Route 153"/>
    <tag k="addr:state" v="VT"/>
    <tag k="ref:vcgi:esiteid" v="207320"/>
  </node>
  <node id="-410" visible="true" lat="43.23886871" lon="-73.19784545">
    <tag k="addr:city" v="Rupert"/>
    <tag k="addr:housenumber" v="417"/>
    <tag k="addr:street" v="Hidden Valley Road"/>
    <tag k="addr:state" v="VT"/>
    <tag k="ref:vcgi:esiteid" v="207327"/>
  </node>
  <node id="-412" visible="true" lat="43.23846817" lon="-73.24088287">
    <tag k="addr:city" v="Rupert"/>
    <tag k="addr:housenumber" v="109"/>
    <tag k="addr:street" v="East Street"/>
    <tag k="addr:state" v="VT"/>
    <tag k="ref:vcgi:esiteid" v="207329"/>
  </node>
  <node id="-414" visible="true" lat="43.23866272" lon="-73.19754791">
    <tag k="addr:city" v="Rupert"/>
    <tag k="addr:housenumber" v="421"/>
    <tag k="addr:street" v="Hidden Valley Road"/>
    <tag k="addr:state" v="VT"/>
    <tag k="ref:vcgi:esiteid" v="207331"/>
  </node>
  <node id="-415" visible="true" lat="43.23860549" lon="-73.19752502">
    <tag k="addr:city" v="Rupert"/>
    <tag k="addr:housenumber" v="419"/>
    <tag k="addr:street" v="Hidden Valley Road"/>
    <tag k="addr:state" v="VT"/>
    <tag k="ref:vcgi:esiteid" v="207332"/>
  </node>
  <node id="-418" visible="true" lat="43.23826599" lon="-73.23912811">
    <tag k="addr:city" v="Rupert"/>
    <tag k="addr:housenumber" v="193"/>
    <tag k="addr:street" v="East Street"/>
    <tag k="addr:state" v="VT"/>
    <tag k="ref:vcgi:esiteid" v="207335"/>
  </node>
  <node id="-420" visible="true" lat="43.23810694" lon="-73.24103223">
    <tag k="addr:city" v="Rupert"/>
    <tag k="addr:housenumber" v="100"/>
    <tag k="addr:street" v="East Street"/>
    <tag k="addr:state" v="VT"/>
    <tag k="ref:vcgi:esiteid" v="207337"/>
  </node>
  <node id="-421" visible="true" lat="43.23834991" lon="-73.19802093">
    <tag k="addr:city" v="Rupert"/>
    <tag k="addr:housenumber" v="389"/>
    <tag k="addr:street" v="Hidden Valley Road"/>
    <tag k="addr:state" v="VT"/>
    <tag k="ref:vcgi:esiteid" v="207338"/>
  </node>
  <node id="-422" visible="true" lat="43.23823268" lon="-73.19830411">
    <tag k="addr:city" v="Rupert"/>
    <tag k="addr:housenumber" v="365"/>
    <tag k="addr:street" v="Hidden Valley Road"/>
    <tag k="addr:state" v="VT"/>
    <tag k="ref:vcgi:esiteid" v="207339"/>
  </node>
  <node id="-423" visible="true" lat="43.23807907" lon="-73.23939514">
    <tag k="addr:city" v="Rupert"/>
    <tag k="addr:housenumber" v="187"/>
    <tag k="addr:street" v="East Street"/>
    <tag k="addr:state" v="VT"/>
    <tag k="ref:vcgi:esiteid" v="207340"/>
  </node>
  <node id="-425" visible="true" lat="43.2379074" lon="-73.24130248">
    <tag k="addr:city" v="Rupert"/>
    <tag k="addr:housenumber" v="96"/>
    <tag k="addr:street" v="East Street"/>
    <tag k="addr:state" v="VT"/>
    <tag k="ref:vcgi:esiteid" v="207342"/>
  </node>
  <node id="-426" visible="true" lat="43.23786163" lon="-73.24047851">
    <tag k="addr:city" v="Rupert"/>
    <tag k="addr:housenumber" v="142"/>
    <tag k="addr:street" v="East Street"/>
    <tag k="addr:state" v="VT"/>
    <tag k="ref:vcgi:esiteid" v="207343"/>
  </node>
  <node id="-427" visible="true" lat="43.23779296" lon="-73.23867797">
    <tag k="addr:city" v="Rupert"/>
    <tag k="addr:housenumber" v="229"/>
    <tag k="addr:street" v="East Street"/>
    <tag k="addr:state" v="VT"/>
    <tag k="ref:vcgi:esiteid" v="207344"/>
  </node>
  <node id="-428" visible="true" lat="43.23778152" lon="-73.2399826">
    <tag k="addr:city" v="Rupert"/>
    <tag k="addr:housenumber" v="166"/>
    <tag k="addr:street" v="East Street"/>
    <tag k="addr:state" v="VT"/>
    <tag k="ref:vcgi:esiteid" v="207345"/>
  </node>
  <node id="-430" visible="true" lat="43.23767471" lon="-73.23841094">
    <tag k="addr:city" v="Rupert"/>
    <tag k="addr:housenumber" v="243"/>
    <tag k="addr:street" v="East Street"/>
    <tag k="addr:state" v="VT"/>
    <tag k="ref:vcgi:esiteid" v="207347"/>
  </node>
  <node id="-431" visible="true" lat="43.23765945" lon="-73.23936462">
    <tag k="addr:city" v="Rupert"/>
    <tag k="addr:housenumber" v="200"/>
    <tag k="addr:street" v="East Street"/>
    <tag k="addr:state" v="VT"/>
    <tag k="ref:vcgi:esiteid" v="207348"/>
  </node>
  <node id="-432" visible="true" lat="43.2376213" lon="-73.23960876">
    <tag k="addr:city" v="Rupert"/>
    <tag k="addr:housenumber" v="188"/>
    <tag k="addr:street" v="East Street"/>
    <tag k="addr:state" v="VT"/>
    <tag k="ref:vcgi:esiteid" v="207349"/>
  </node>
  <node id="-434" visible="true" lat="43.23751449" lon="-73.2377243">
    <tag k="addr:city" v="Rupert"/>
    <tag k="addr:housenumber" v="281"/>
    <tag k="addr:street" v="East Street"/>
    <tag k="addr:state" v="VT"/>
    <tag k="ref:vcgi:esiteid" v="207351"/>
  </node>
  <node id="-435" visible="true" lat="43.23771286" lon="-73.20003509">
    <tag k="addr:city" v="Rupert"/>
    <tag k="addr:housenumber" v="269"/>
    <tag k="addr:street" v="Hidden Valley Road"/>
    <tag k="addr:state" v="VT"/>
    <tag k="ref:vcgi:esiteid" v="207352"/>
  </node>
  <node id="-437" visible="true" lat="43.23741149" lon="-73.2373352">
    <tag k="addr:city" v="Rupert"/>
    <tag k="addr:housenumber" v="301"/>
    <tag k="addr:street" v="East Street"/>
    <tag k="addr:state" v="VT"/>
    <tag k="ref:vcgi:esiteid" v="207354"/>
  </node>
  <node id="-438" visible="true" lat="43.23728179" lon="-73.23687744">
    <tag k="addr:city" v="Rupert"/>
    <tag k="addr:housenumber" v="325"/>
    <tag k="addr:street" v="East Street"/>
    <tag k="addr:state" v="VT"/>
    <tag k="ref:vcgi:esiteid" v="207355"/>
  </node>
  <node id="-439" visible="true" lat="43.23742675" lon="-73.20030212">
    <tag k="addr:city" v="Rupert"/>
    <tag k="addr:housenumber" v="247"/>
    <tag k="addr:street" v="Hidden Valley Road"/>
    <tag k="addr:state" v="VT"/>
    <tag k="ref:vcgi:esiteid" v="207356"/>
  </node>
  <node id="-440" visible="true" lat="43.23731231" lon="-73.19980621">
    <tag k="addr:city" v="Rupert"/>
    <tag k="addr:housenumber" v="262"/>
    <tag k="addr:street" v="Hidden Valley Road"/>
    <tag k="addr:state" v="VT"/>
    <tag k="ref:vcgi:esiteid" v="207357"/>
  </node>
  <node id="-441" visible="true" lat="43.23699569" lon="-73.23895263">
    <tag k="addr:city" v="Rupert"/>
    <tag k="addr:housenumber" v="236"/>
    <tag k="addr:street" v="East Street"/>
    <tag k="addr:state" v="VT"/>
    <tag k="ref:vcgi:esiteid" v="207358"/>
  </node>
  <node id="-442" visible="true" lat="43.23699951" lon="-73.23753356">
    <tag k="addr:city" v="Rupert"/>
    <tag k="addr:housenumber" v="302"/>
    <tag k="addr:street" v="East Street"/>
    <tag k="addr:state" v="VT"/>
    <tag k="ref:vcgi:esiteid" v="207359"/>
  </node>
  <node id="-443" visible="true" lat="43.23700714" lon="-73.23583221">
    <tag k="addr:city" v="Rupert"/>
    <tag k="addr:housenumber" v="381"/>
    <tag k="addr:street" v="East Street"/>
    <tag k="addr:state" v="VT"/>
    <tag k="ref:vcgi:esiteid" v="207360"/>
  </node>
  <node id="-444" visible="true" lat="43.23678588" lon="-73.23812866">
    <tag k="addr:city" v="Rupert"/>
    <tag k="addr:housenumber" v="268"/>
    <tag k="addr:street" v="East Street"/>
    <tag k="addr:state" v="VT"/>
    <tag k="ref:vcgi:esiteid" v="207361"/>
  </node>
  <node id="-445" visible="true" lat="43.23675537" lon="-73.23684692">
    <tag k="addr:city" v="Rupert"/>
    <tag k="addr:housenumber" v="340"/>
    <tag k="addr:street" v="East Street"/>
    <tag k="addr:state" v="VT"/>
    <tag k="ref:vcgi:esiteid" v="207362"/>
  </node>
  <node id="-446" visible="true" lat="43.23666" lon="-73.23463439">
    <tag k="addr:city" v="Rupert"/>
    <tag k="addr:housenumber" v="447"/>
    <tag k="addr:street" v="East Street"/>
    <tag k="addr:state" v="VT"/>
    <tag k="ref:vcgi:esiteid" v="207363"/>
  </node>
  <node id="-447" visible="true" lat="43.23653793" lon="-73.23571014">
    <tag k="addr:city" v="Rupert"/>
    <tag k="addr:housenumber" v="400"/>
    <tag k="addr:street" v="East Street"/>
    <tag k="addr:state" v="VT"/>
    <tag k="ref:vcgi:esiteid" v="207364"/>
  </node>
  <node id="-448" visible="true" lat="43.23645019" lon="-73.23603057">
    <tag k="addr:city" v="Rupert"/>
    <tag k="addr:housenumber" v="380"/>
    <tag k="addr:street" v="East Street"/>
    <tag k="addr:state" v="VT"/>
    <tag k="ref:vcgi:esiteid" v="207365"/>
  </node>
  <node id="-449" visible="true" lat="43.23642349" lon="-73.23362731">
    <tag k="addr:city" v="Rupert"/>
    <tag k="addr:housenumber" v="499"/>
    <tag k="addr:street" v="East Street"/>
    <tag k="addr:state" v="VT"/>
    <tag k="ref:vcgi:esiteid" v="207366"/>
  </node>
  <node id="-451" visible="true" lat="43.23631286" lon="-73.20276641">
    <tag k="addr:city" v="Rupert"/>
    <tag k="addr:housenumber" v="97"/>
    <tag k="addr:street" v="Hidden Valley Road"/>
    <tag k="addr:state" v="VT"/>
    <tag k="ref:vcgi:esiteid" v="207368"/>
  </node>
  <node id="-452" visible="true" lat="43.23604583" lon="-73.2107315">
    <tag k="addr:city" v="Rupert"/>
    <tag k="addr:housenumber" v="1481"/>
    <tag k="addr:street" v="Kent Hollow Road"/>
    <tag k="addr:state" v="VT"/>
    <tag k="ref:vcgi:esiteid" v="207369"/>
  </node>
  <node id="-453" visible="true" lat="43.23577499" lon="-73.24497223">
    <tag k="addr:city" v="Rupert"/>
    <tag k="addr:housenumber" v="892"/>
    <tag k="addr:street" v="Vermont Route 153"/>
    <tag k="addr:state" v="VT"/>
    <tag k="ref:vcgi:esiteid" v="207370"/>
  </node>
  <node id="-454" visible="true" lat="43.23583602" lon="-73.23236083">
    <tag k="addr:city" v="Rupert"/>
    <tag k="addr:housenumber" v="573"/>
    <tag k="addr:street" v="East Street"/>
    <tag k="addr:state" v="VT"/>
    <tag k="ref:vcgi:esiteid" v="207371"/>
  </node>
  <node id="-455" visible="true" lat="43.23556518" lon="-73.24526214">
    <tag k="addr:city" v="Rupert"/>
    <tag k="addr:housenumber" v="872"/>
    <tag k="addr:street" v="Vermont Route 153"/>
    <tag k="addr:state" v="VT"/>
    <tag k="ref:vcgi:esiteid" v="207372"/>
  </node>
  <node id="-456" visible="true" lat="43.23612635" lon="-73.20694879">
    <tag k="addr:city" v="Rupert"/>
    <tag k="addr:housenumber" v="1683"/>
    <tag k="addr:street" v="Kent Hollow Road"/>
    <tag k="addr:state" v="VT"/>
    <tag k="ref:vcgi:esiteid" v="207373"/>
  </node>
  <node id="-457" visible="true" lat="43.2355957" lon="-73.20446014">
    <tag k="addr:city" v="Rupert"/>
    <tag k="addr:housenumber" v="1815"/>
    <tag k="addr:street" v="Kent Hollow Road"/>
    <tag k="addr:state" v="VT"/>
    <tag k="ref:vcgi:esiteid" v="207375"/>
  </node>
  <node id="-458" visible="true" lat="43.23525619" lon="-73.23236846">
    <tag k="addr:city" v="Rupert"/>
    <tag k="addr:housenumber" v="596"/>
    <tag k="addr:street" v="East Street"/>
    <tag k="addr:state" v="VT"/>
    <tag k="ref:vcgi:esiteid" v="207376"/>
  </node>
  <node id="-460" visible="true" lat="43.23530578" lon="-73.21009826">
    <tag k="addr:city" v="Rupert"/>
    <tag k="addr:housenumber" v="1530"/>
    <tag k="addr:street" v="Kent Hollow Road"/>
    <tag k="addr:state" v="VT"/>
    <tag k="ref:vcgi:esiteid" v="207378"/>
  </node>
  <node id="-461" visible="true" lat="43.2349205" lon="-73.24718475">
    <tag k="addr:city" v="Rupert"/>
    <tag k="addr:housenumber" v="771"/>
    <tag k="addr:street" v="Vermont Route 153"/>
    <tag k="addr:state" v="VT"/>
    <tag k="ref:vcgi:esiteid" v="207379"/>
  </node>
  <node id="-462" visible="true" lat="43.2348442" lon="-73.21501159">
    <tag k="addr:city" v="Rupert"/>
    <tag k="addr:housenumber" v="1271"/>
    <tag k="addr:street" v="Kent Hollow Road"/>
    <tag k="addr:state" v="VT"/>
    <tag k="ref:vcgi:esiteid" v="207380"/>
  </node>
  <node id="-463" visible="true" lat="43.23457336" lon="-73.24777984">
    <tag k="addr:city" v="Rupert"/>
    <tag k="addr:housenumber" v="731"/>
    <tag k="addr:street" v="Vermont Route 153"/>
    <tag k="addr:state" v="VT"/>
    <tag k="ref:vcgi:esiteid" v="207381"/>
  </node>
  <node id="-464" visible="true" lat="43.23459625" lon="-73.21405029">
    <tag k="addr:city" v="Rupert"/>
    <tag k="addr:housenumber" v="1292"/>
    <tag k="addr:street" v="Kent Hollow Road"/>
    <tag k="addr:state" v="VT"/>
    <tag k="ref:vcgi:esiteid" v="207382"/>
  </node>
  <node id="-465" visible="true" lat="43.234375" lon="-73.22761535">
    <tag k="addr:city" v="Rupert"/>
    <tag k="addr:housenumber" v="255"/>
    <tag k="addr:street" v="Kent Hollow Road"/>
    <tag k="addr:state" v="VT"/>
    <tag k="ref:vcgi:esiteid" v="207383"/>
  </node>
  <node id="-466" visible="true" lat="43.23423004" lon="-73.24967956">
    <tag k="addr:city" v="Rupert"/>
    <tag k="addr:housenumber" v="657"/>
    <tag k="addr:street" v="Vermont Route 153"/>
    <tag k="addr:state" v="VT"/>
    <tag k="ref:vcgi:esiteid" v="207384"/>
  </node>
  <node id="-467" visible="true" lat="43.23420884" lon="-73.21623321">
    <tag k="addr:city" v="Rupert"/>
    <tag k="addr:housenumber" v="1217"/>
    <tag k="addr:street" v="Kent Hollow Road"/>
    <tag k="addr:state" v="VT"/>
    <tag k="ref:vcgi:esiteid" v="207385"/>
  </node>
  <node id="-469" visible="true" lat="43.2336502" lon="-73.24808502">
    <tag k="addr:city" v="Rupert"/>
    <tag k="addr:housenumber" v="658"/>
    <tag k="addr:street" v="Vermont Route 153"/>
    <tag k="addr:state" v="VT"/>
    <tag k="ref:vcgi:esiteid" v="207387"/>
  </node>
  <node id="-470" visible="true" lat="43.23368835" lon="-73.21685028">
    <tag k="addr:city" v="Rupert"/>
    <tag k="addr:housenumber" v="1219"/>
    <tag k="addr:street" v="Kent Hollow Road"/>
    <tag k="addr:state" v="VT"/>
    <tag k="ref:vcgi:esiteid" v="207388"/>
  </node>
  <node id="-471" visible="true" lat="43.23345184" lon="-73.24956512">
    <tag k="addr:city" v="Rupert"/>
    <tag k="addr:housenumber" v="613"/>
    <tag k="addr:street" v="Vermont Route 153"/>
    <tag k="addr:state" v="VT"/>
    <tag k="ref:vcgi:esiteid" v="207389"/>
  </node>
  <node id="-472" visible="true" lat="43.23341812" lon="-73.2150645">
    <tag k="addr:city" v="Rupert"/>
    <tag k="addr:housenumber" v="1148"/>
    <tag k="addr:street" v="Kent Hollow Road"/>
    <tag k="addr:state" v="VT"/>
    <tag k="ref:vcgi:esiteid" v="207390"/>
  </node>
  <node id="-474" visible="true" lat="43.23316574" lon="-73.2493515">
    <tag k="addr:city" v="Rupert"/>
    <tag k="addr:housenumber" v="608"/>
    <tag k="addr:street" v="Vermont Route 153"/>
    <tag k="addr:state" v="VT"/>
    <tag k="ref:vcgi:esiteid" v="207392"/>
  </node>
  <node id="-475" visible="true" lat="43.23301696" lon="-73.24963378">
    <tag k="addr:city" v="Rupert"/>
    <tag k="addr:housenumber" v="592"/>
    <tag k="addr:street" v="Vermont Route 153"/>
    <tag k="addr:state" v="VT"/>
    <tag k="ref:vcgi:esiteid" v="207393"/>
  </node>
  <node id="-477" visible="true" lat="43.23291015" lon="-73.25083923">
    <tag k="addr:city" v="Rupert"/>
    <tag k="addr:housenumber" v="539"/>
    <tag k="addr:street" v="Vermont Route 153"/>
    <tag k="addr:state" v="VT"/>
    <tag k="ref:vcgi:esiteid" v="207395"/>
  </node>
  <node id="-478" visible="true" lat="43.23283386" lon="-73.25193023">
    <tag k="addr:city" v="Rupert"/>
    <tag k="addr:housenumber" v="485"/>
    <tag k="addr:street" v="Vermont Route 153"/>
    <tag k="addr:state" v="VT"/>
    <tag k="ref:vcgi:esiteid" v="207396"/>
  </node>
  <node id="-479" visible="true" lat="43.23307037" lon="-73.19025421">
    <tag k="addr:city" v="Rupert"/>
    <tag k="addr:housenumber" v="2588"/>
    <tag k="addr:street" v="Kent Hollow Road"/>
    <tag k="addr:state" v="VT"/>
    <tag k="ref:vcgi:esiteid" v="207397"/>
  </node>
  <node id="-482" visible="true" lat="43.23239898" lon="-73.25064849">
    <tag k="addr:city" v="Rupert"/>
    <tag k="addr:housenumber" v="524"/>
    <tag k="addr:street" v="Vermont Route 153"/>
    <tag k="addr:state" v="VT"/>
    <tag k="ref:vcgi:esiteid" v="207400"/>
  </node>
  <node id="-483" visible="true" lat="43.23250579" lon="-73.21637725">
    <tag k="addr:city" v="Rupert"/>
    <tag k="addr:housenumber" v="1104"/>
    <tag k="addr:street" v="Kent Hollow Road"/>
    <tag k="addr:state" v="VT"/>
    <tag k="ref:vcgi:esiteid" v="207401"/>
  </node>
  <node id="-484" visible="true" lat="43.23221588" lon="-73.25160217">
    <tag k="addr:city" v="Rupert"/>
    <tag k="addr:housenumber" v="479"/>
    <tag k="addr:street" v="Vermont Route 153"/>
    <tag k="addr:state" v="VT"/>
    <tag k="ref:vcgi:esiteid" v="207402"/>
  </node>
  <node id="-486" visible="true" lat="43.23238372" lon="-73.1917572">
    <tag k="addr:city" v="Rupert"/>
    <tag k="addr:housenumber" v="2508"/>
    <tag k="addr:street" v="Kent Hollow Road"/>
    <tag k="addr:state" v="VT"/>
    <tag k="ref:vcgi:esiteid" v="207404"/>
  </node>
  <node id="-487" visible="true" lat="43.23233413" lon="-73.18718719">
    <tag k="addr:city" v="Rupert"/>
    <tag k="addr:housenumber" v="2723"/>
    <tag k="addr:street" v="Kent Hollow Road"/>
    <tag k="addr:state" v="VT"/>
    <tag k="ref:vcgi:esiteid" v="207405"/>
  </node>
  <node id="-488" visible="true" lat="43.23213195" lon="-73.21756744">
    <tag k="addr:city" v="Rupert"/>
    <tag k="addr:housenumber" v="1100"/>
    <tag k="addr:street" v="Kent Hollow Road"/>
    <tag k="addr:state" v="VT"/>
    <tag k="ref:vcgi:esiteid" v="207406"/>
  </node>
  <node id="-489" visible="true" lat="43.23197936" lon="-73.22254943">
    <tag k="addr:city" v="Rupert"/>
    <tag k="addr:housenumber" v="419"/>
    <tag k="addr:street" v="Kent Hollow Road"/>
    <tag k="addr:state" v="VT"/>
    <tag k="ref:vcgi:esiteid" v="207407"/>
  </node>
  <node id="-490" visible="true" lat="43.23132705" lon="-73.22571563">
    <tag k="addr:city" v="Rupert"/>
    <tag k="addr:housenumber" v="404"/>
    <tag k="addr:street" v="Kent Hollow Road"/>
    <tag k="addr:state" v="VT"/>
    <tag k="ref:vcgi:esiteid" v="207408"/>
  </node>
  <node id="-491" visible="true" lat="43.23080062" lon="-73.22504425">
    <tag k="addr:city" v="Rupert"/>
    <tag k="addr:housenumber" v="436"/>
    <tag k="addr:street" v="Kent Hollow Road"/>
    <tag k="addr:state" v="VT"/>
    <tag k="ref:vcgi:esiteid" v="207409"/>
  </node>
  <node id="-492" visible="true" lat="43.23083496" lon="-73.21951293">
    <tag k="addr:city" v="Rupert"/>
    <tag k="addr:housenumber" v="50"/>
    <tag k="addr:street" v="Saunders Lane"/>
    <tag k="addr:state" v="VT"/>
    <tag k="ref:vcgi:esiteid" v="207410"/>
  </node>
  <node id="-493" visible="true" lat="43.23075485" lon="-73.22437286">
    <tag k="addr:city" v="Rupert"/>
    <tag k="addr:housenumber" v="478"/>
    <tag k="addr:street" v="Kent Hollow Road"/>
    <tag k="addr:state" v="VT"/>
    <tag k="ref:vcgi:esiteid" v="207411"/>
  </node>
  <node id="-494" visible="true" lat="43.23047256" lon="-73.22329711">
    <tag k="addr:city" v="Rupert"/>
    <tag k="addr:housenumber" v="534"/>
    <tag k="addr:street" v="Kent Hollow Road"/>
    <tag k="addr:state" v="VT"/>
    <tag k="ref:vcgi:esiteid" v="207412"/>
  </node>
  <node id="-495" visible="true" lat="43.23078784" lon="-73.16638922">
    <tag k="addr:city" v="Rupert"/>
    <tag k="addr:housenumber" v="334"/>
    <tag k="addr:street" v="Dole Road"/>
    <tag k="addr:state" v="VT"/>
    <tag k="ref:vcgi:esiteid" v="207413"/>
  </node>
  <node id="-496" visible="true" lat="43.23025877" lon="-73.22200712">
    <tag k="addr:city" v="Rupert"/>
    <tag k="addr:housenumber" v="1205"/>
    <tag k="addr:street" v="Sandgate Road"/>
    <tag k="addr:state" v="VT"/>
    <tag k="ref:vcgi:esiteid" v="207414"/>
  </node>
  <node id="-497" visible="true" lat="43.23008346" lon="-73.25435638">
    <tag k="addr:city" v="Rupert"/>
    <tag k="addr:housenumber" v="278"/>
    <tag k="addr:street" v="Vermont Route 153"/>
    <tag k="addr:state" v="VT"/>
    <tag k="ref:vcgi:esiteid" v="207415"/>
  </node>
  <node id="-498" visible="true" lat="43.23022682" lon="-73.22012174">
    <tag k="addr:city" v="Rupert"/>
    <tag k="addr:housenumber" v="1158"/>
    <tag k="addr:street" v="Sandgate Road"/>
    <tag k="addr:state" v="VT"/>
    <tag k="ref:vcgi:esiteid" v="207416"/>
  </node>
  <node id="-499" visible="true" lat="43.2300991" lon="-73.18420497">
    <tag k="addr:city" v="Rupert"/>
    <tag k="addr:housenumber" v="2994"/>
    <tag k="addr:street" v="Kent Hollow Road"/>
    <tag k="addr:state" v="VT"/>
    <tag k="ref:vcgi:esiteid" v="207417"/>
  </node>
  <node id="-501" visible="true" lat="43.22973425" lon="-73.22066028">
    <tag k="addr:city" v="Rupert"/>
    <tag k="addr:housenumber" v="1160"/>
    <tag k="addr:street" v="Sandgate Road"/>
    <tag k="addr:state" v="VT"/>
    <tag k="ref:vcgi:esiteid" v="207419"/>
  </node>
  <node id="-502" visible="true" lat="43.22993087" lon="-73.15930175">
    <tag k="addr:city" v="Rupert"/>
    <tag k="addr:housenumber" v="1009"/>
    <tag k="addr:street" v="Ebenville Road"/>
    <tag k="addr:state" v="VT"/>
    <tag k="ref:vcgi:esiteid" v="207420"/>
  </node>
  <node id="-503" visible="true" lat="43.22971219" lon="-73.17168099">
    <tag k="addr:city" v="Rupert"/>
    <tag k="addr:housenumber" v="363"/>
    <tag k="addr:street" v="Ebenville Road"/>
    <tag k="addr:state" v="VT"/>
    <tag k="ref:vcgi:esiteid" v="207421"/>
  </node>
  <node id="-504" visible="true" lat="43.22917938" lon="-73.25557708">
    <tag k="addr:city" v="Rupert"/>
    <tag k="addr:housenumber" v="192"/>
    <tag k="addr:street" v="Vermont Route 153"/>
    <tag k="addr:state" v="VT"/>
    <tag k="ref:vcgi:esiteid" v="207422"/>
  </node>
  <node id="-505" visible="true" lat="43.22890721" lon="-73.22148455">
    <tag k="addr:city" v="Rupert"/>
    <tag k="addr:housenumber" v="1111"/>
    <tag k="addr:street" v="Sandgate Road"/>
    <tag k="addr:state" v="VT"/>
    <tag k="ref:vcgi:esiteid" v="207423"/>
  </node>
  <node id="-506" visible="true" lat="43.22938537" lon="-73.1732788">
    <tag k="addr:city" v="Rupert"/>
    <tag k="addr:housenumber" v="267"/>
    <tag k="addr:street" v="Ebenville Road"/>
    <tag k="addr:state" v="VT"/>
    <tag k="ref:vcgi:esiteid" v="207424"/>
  </node>
  <node id="-507" visible="true" lat="43.22934722" lon="-73.16138458">
    <tag k="addr:city" v="Rupert"/>
    <tag k="addr:housenumber" v="901"/>
    <tag k="addr:street" v="Ebenville Road"/>
    <tag k="addr:state" v="VT"/>
    <tag k="ref:vcgi:esiteid" v="207425"/>
  </node>
  <node id="-508" visible="true" lat="43.22897956" lon="-73.17735074">
    <tag k="addr:city" v="Rupert"/>
    <tag k="addr:housenumber" v="3305"/>
    <tag k="addr:street" v="Kent Hollow Road"/>
    <tag k="addr:state" v="VT"/>
    <tag k="ref:vcgi:esiteid" v="207426"/>
  </node>
  <node id="-509" visible="true" lat="43.22852706" lon="-73.2577362">
    <tag k="addr:city" v="Rupert"/>
    <tag k="addr:housenumber" v="79"/>
    <tag k="addr:street" v="Vermont Route 153"/>
    <tag k="addr:state" v="VT"/>
    <tag k="ref:vcgi:esiteid" v="207427"/>
  </node>
  <node id="-510" visible="true" lat="43.22904205" lon="-73.16638183">
    <tag k="addr:city" v="Rupert"/>
    <tag k="addr:housenumber" v="617"/>
    <tag k="addr:street" v="Ebenville Road"/>
    <tag k="addr:state" v="VT"/>
    <tag k="ref:vcgi:esiteid" v="207428"/>
  </node>
  <node id="-511" visible="true" lat="43.22868347" lon="-73.22004699">
    <tag k="addr:city" v="Rupert"/>
    <tag k="addr:housenumber" v="1062"/>
    <tag k="addr:street" v="Sandgate Road"/>
    <tag k="addr:state" v="VT"/>
    <tag k="ref:vcgi:esiteid" v="207429"/>
  </node>
  <node id="-512" visible="true" lat="43.22828301" lon="-73.16081843">
    <tag k="addr:city" v="Rupert"/>
    <tag k="addr:housenumber" v="888"/>
    <tag k="addr:street" v="Ebenville Road"/>
    <tag k="addr:state" v="VT"/>
    <tag k="ref:vcgi:esiteid" v="207430"/>
  </node>
  <node id="-513" visible="true" lat="43.22833251" lon="-73.2565689">
    <tag k="addr:city" v="Rupert"/>
    <tag k="addr:housenumber" v="110"/>
    <tag k="addr:street" v="Vermont Route 153"/>
    <tag k="addr:state" v="VT"/>
    <tag k="ref:vcgi:esiteid" v="207431"/>
  </node>
  <node id="-514" visible="true" lat="43.22890223" lon="-73.16321434">
    <tag k="addr:city" v="Rupert"/>
    <tag k="addr:housenumber" v="781"/>
    <tag k="addr:street" v="Ebenville Road"/>
    <tag k="addr:state" v="VT"/>
    <tag k="ref:vcgi:esiteid" v="207432"/>
  </node>
  <node id="-515" visible="true" lat="43.22873757" lon="-73.1639525">
    <tag k="addr:city" v="Rupert"/>
    <tag k="addr:housenumber" v="763"/>
    <tag k="addr:street" v="Ebenville Road"/>
    <tag k="addr:state" v="VT"/>
    <tag k="ref:vcgi:esiteid" v="207433"/>
  </node>
  <node id="-516" visible="true" lat="43.2288551" lon="-73.16478336">
    <tag k="addr:city" v="Rupert"/>
    <tag k="addr:housenumber" v="707"/>
    <tag k="addr:street" v="Ebenville Road"/>
    <tag k="addr:state" v="VT"/>
    <tag k="ref:vcgi:esiteid" v="207434"/>
  </node>
  <node id="-517" visible="true" lat="43.22804124" lon="-73.22028189">
    <tag k="addr:city" v="Rupert"/>
    <tag k="addr:housenumber" v="1035"/>
    <tag k="addr:street" v="Sandgate Road"/>
    <tag k="addr:state" v="VT"/>
    <tag k="ref:vcgi:esiteid" v="207435"/>
  </node>
  <node id="-518" visible="true" lat="43.22821807" lon="-73.1663742">
    <tag k="addr:city" v="Rupert"/>
    <tag k="addr:housenumber" v="640"/>
    <tag k="addr:street" v="Ebenville Road"/>
    <tag k="addr:state" v="VT"/>
    <tag k="ref:vcgi:esiteid" v="207437"/>
  </node>
  <node id="-519" visible="true" lat="43.22816848" lon="-73.16520691">
    <tag k="addr:city" v="Rupert"/>
    <tag k="addr:housenumber" v="694"/>
    <tag k="addr:street" v="Ebenville Road"/>
    <tag k="addr:state" v="VT"/>
    <tag k="ref:vcgi:esiteid" v="207438"/>
  </node>
  <node id="-520" visible="true" lat="43.22779083" lon="-73.17727661">
    <tag k="addr:city" v="Rupert"/>
    <tag k="addr:housenumber" v="35"/>
    <tag k="addr:street" v="Ebenville Road"/>
    <tag k="addr:state" v="VT"/>
    <tag k="ref:vcgi:esiteid" v="207439"/>
  </node>
  <node id="-521" visible="true" lat="43.22784042" lon="-73.15876007">
    <tag k="addr:city" v="Rupert"/>
    <tag k="addr:housenumber" v="986"/>
    <tag k="addr:street" v="Ebenville Road"/>
    <tag k="addr:state" v="VT"/>
    <tag k="ref:vcgi:esiteid" v="207440"/>
  </node>
  <node id="-522" visible="true" lat="43.22744438" lon="-73.17344509">
    <tag k="addr:city" v="Rupert"/>
    <tag k="addr:housenumber" v="222"/>
    <tag k="addr:street" v="Ebenville Road"/>
    <tag k="addr:state" v="VT"/>
    <tag k="ref:vcgi:esiteid" v="207441"/>
  </node>
  <node id="-523" visible="true" lat="43.22760009" lon="-73.16484832">
    <tag k="addr:city" v="Rupert"/>
    <tag k="addr:housenumber" v="76"/>
    <tag k="addr:street" v="Bear Mountain Camp Road"/>
    <tag k="addr:state" v="VT"/>
    <tag k="ref:vcgi:esiteid" v="207442"/>
  </node>
  <node id="-524" visible="true" lat="43.22729412" lon="-73.1719531">
    <tag k="addr:city" v="Rupert"/>
    <tag k="addr:housenumber" v="424"/>
    <tag k="addr:street" v="Ebenville Road"/>
    <tag k="addr:state" v="VT"/>
    <tag k="ref:vcgi:esiteid" v="207443"/>
  </node>
  <node id="-525" visible="true" lat="43.22715759" lon="-73.16519165">
    <tag k="addr:city" v="Rupert"/>
    <tag k="addr:housenumber" v="114"/>
    <tag k="addr:street" v="Bear Mountain Camp Road"/>
    <tag k="addr:state" v="VT"/>
    <tag k="ref:vcgi:esiteid" v="207444"/>
  </node>
  <node id="-526" visible="true" lat="43.22638321" lon="-73.22181701">
    <tag k="addr:city" v="Rupert"/>
    <tag k="addr:housenumber" v="925"/>
    <tag k="addr:street" v="Sandgate Road"/>
    <tag k="addr:state" v="VT"/>
    <tag k="ref:vcgi:esiteid" v="207445"/>
  </node>
  <node id="-527" visible="true" lat="43.22633361" lon="-73.16596984">
    <tag k="addr:city" v="Rupert"/>
    <tag k="addr:housenumber" v="148"/>
    <tag k="addr:street" v="Bear Mountain Camp Road"/>
    <tag k="addr:state" v="VT"/>
    <tag k="ref:vcgi:esiteid" v="207447"/>
  </node>
  <node id="-528" visible="true" lat="43.22621536" lon="-73.16473388">
    <tag k="addr:city" v="Rupert"/>
    <tag k="addr:housenumber" v="183"/>
    <tag k="addr:street" v="Bear Mountain Camp Road"/>
    <tag k="addr:state" v="VT"/>
    <tag k="ref:vcgi:esiteid" v="207448"/>
  </node>
  <node id="-529" visible="true" lat="43.22569656" lon="-73.16452789">
    <tag k="addr:city" v="Rupert"/>
    <tag k="addr:housenumber" v="219"/>
    <tag k="addr:street" v="Bear Mountain Camp Road"/>
    <tag k="addr:state" v="VT"/>
    <tag k="ref:vcgi:esiteid" v="207449"/>
  </node>
  <node id="-530" visible="true" lat="43.22567367" lon="-73.16493988">
    <tag k="addr:city" v="Rupert"/>
    <tag k="addr:housenumber" v="216"/>
    <tag k="addr:street" v="Bear Mountain Camp Road"/>
    <tag k="addr:state" v="VT"/>
    <tag k="ref:vcgi:esiteid" v="207450"/>
  </node>
  <node id="-531" visible="true" lat="43.22559738" lon="-73.16202545">
    <tag k="addr:city" v="Rupert"/>
    <tag k="addr:housenumber" v="139"/>
    <tag k="addr:street" v="Needs Name 1"/>
    <tag k="addr:state" v="VT"/>
    <tag k="ref:vcgi:esiteid" v="207451"/>
  </node>
  <node id="-532" visible="true" lat="43.2256104" lon="-73.16233435">
    <tag k="addr:city" v="Rupert"/>
    <tag k="addr:housenumber" v="89"/>
    <tag k="addr:street" v="Needs Name 1"/>
    <tag k="addr:state" v="VT"/>
    <tag k="ref:vcgi:esiteid" v="207452"/>
  </node>
  <node id="-533" visible="true" lat="43.22524577" lon="-73.16361092">
    <tag k="addr:city" v="Rupert"/>
    <tag k="addr:housenumber" v="46"/>
    <tag k="addr:street" v="Needs Name 1"/>
    <tag k="addr:state" v="VT"/>
    <tag k="ref:vcgi:esiteid" v="207453"/>
  </node>
  <node id="-534" visible="true" lat="43.22525787" lon="-73.16220855">
    <tag k="addr:city" v="Rupert"/>
    <tag k="addr:housenumber" v="126"/>
    <tag k="addr:street" v="Needs Name 1"/>
    <tag k="addr:state" v="VT"/>
    <tag k="ref:vcgi:esiteid" v="207454"/>
  </node>
  <node id="-535" visible="true" lat="43.22520828" lon="-73.16282653">
    <tag k="addr:city" v="Rupert"/>
    <tag k="addr:housenumber" v="94"/>
    <tag k="addr:street" v="Needs Name 1"/>
    <tag k="addr:state" v="VT"/>
    <tag k="ref:vcgi:esiteid" v="207455"/>
  </node>
  <node id="-536" visible="true" lat="43.22470092" lon="-73.21839141">
    <tag k="addr:city" v="Rupert"/>
    <tag k="addr:housenumber" v="769"/>
    <tag k="addr:street" v="Sandgate Road"/>
    <tag k="addr:state" v="VT"/>
    <tag k="ref:vcgi:esiteid" v="207456"/>
  </node>
  <node id="-537" visible="true" lat="43.22490064" lon="-73.16500091">
    <tag k="addr:city" v="Rupert"/>
    <tag k="addr:housenumber" v="266"/>
    <tag k="addr:street" v="Bear Mountain Camp Road"/>
    <tag k="addr:state" v="VT"/>
    <tag k="ref:vcgi:esiteid" v="207457"/>
  </node>
  <node id="-538" visible="true" lat="43.22488013" lon="-73.16377431">
    <tag k="addr:city" v="Rupert"/>
    <tag k="addr:housenumber" v="267"/>
    <tag k="addr:street" v="Bear Mountain Camp Road"/>
    <tag k="addr:state" v="VT"/>
    <tag k="ref:vcgi:esiteid" v="207458"/>
  </node>
  <node id="-539" visible="true" lat="43.22328469" lon="-73.15939301">
    <tag k="addr:city" v="Rupert"/>
    <tag k="addr:housenumber" v="269"/>
    <tag k="addr:street" v="Bear Mountain Camp Road"/>
    <tag k="addr:state" v="VT"/>
    <tag k="ref:vcgi:esiteid" v="207460"/>
  </node>
  <node id="-540" visible="true" lat="43.22409439" lon="-73.16448974">
    <tag k="addr:city" v="Rupert"/>
    <tag k="addr:housenumber" v="400"/>
    <tag k="addr:street" v="Bear Mountain Camp Road"/>
    <tag k="addr:state" v="VT"/>
    <tag k="ref:vcgi:esiteid" v="207461"/>
  </node>
  <node id="-541" visible="true" lat="43.22397613" lon="-73.17862701">
    <tag k="addr:city" v="Rupert"/>
    <tag k="addr:housenumber" v="3606"/>
    <tag k="addr:street" v="Kent Hollow Road"/>
    <tag k="addr:state" v="VT"/>
    <tag k="ref:vcgi:esiteid" v="207462"/>
  </node>
  <node id="-542" visible="true" lat="43.22359652" lon="-73.16405556">
    <tag k="addr:city" v="Rupert"/>
    <tag k="addr:housenumber" v="467"/>
    <tag k="addr:street" v="Bear Mountain Camp Road"/>
    <tag k="addr:state" v="VT"/>
    <tag k="ref:vcgi:esiteid" v="207463"/>
  </node>
  <node id="-543" visible="true" lat="43.22313579" lon="-73.16304592">
    <tag k="addr:city" v="Rupert"/>
    <tag k="addr:housenumber" v="491"/>
    <tag k="addr:street" v="Bear Mountain Camp Road"/>
    <tag k="addr:state" v="VT"/>
    <tag k="ref:vcgi:esiteid" v="207464"/>
  </node>
  <node id="-544" visible="true" lat="43.22290039" lon="-73.21593475">
    <tag k="addr:city" v="Rupert"/>
    <tag k="addr:housenumber" v="598"/>
    <tag k="addr:street" v="Sandgate Road"/>
    <tag k="addr:state" v="VT"/>
    <tag k="ref:vcgi:esiteid" v="207465"/>
  </node>
  <node id="-545" visible="true" lat="43.22219104" lon="-73.16312265">
    <tag k="addr:city" v="Rupert"/>
    <tag k="addr:housenumber" v="528"/>
    <tag k="addr:street" v="Bear Mountain Camp Road"/>
    <tag k="addr:state" v="VT"/>
    <tag k="ref:vcgi:esiteid" v="207466"/>
  </node>
  <node id="-546" visible="true" lat="43.22128671" lon="-73.17674972">
    <tag k="addr:city" v="Rupert"/>
    <tag k="addr:housenumber" v="3743"/>
    <tag k="addr:street" v="Kent Hollow Road"/>
    <tag k="addr:state" v="VT"/>
    <tag k="ref:vcgi:esiteid" v="207469"/>
  </node>
  <node id="-547" visible="true" lat="43.22167205" lon="-73.21482849">
    <tag k="addr:city" v="Rupert"/>
    <tag k="addr:housenumber" v="498"/>
    <tag k="addr:street" v="Sandgate Road"/>
    <tag k="addr:state" v="VT"/>
    <tag k="ref:vcgi:esiteid" v="207470"/>
  </node>
  <node id="-548" visible="true" lat="43.22082138" lon="-73.21414184">
    <tag k="addr:city" v="Rupert"/>
    <tag k="addr:housenumber" v="426"/>
    <tag k="addr:street" v="Sandgate Road"/>
    <tag k="addr:state" v="VT"/>
    <tag k="ref:vcgi:esiteid" v="207471"/>
  </node>
  <node id="-549" visible="true" lat="43.22031784" lon="-73.21331024">
    <tag k="addr:city" v="Rupert"/>
    <tag k="addr:housenumber" v="368"/>
    <tag k="addr:street" v="Sandgate Road"/>
    <tag k="addr:state" v="VT"/>
    <tag k="ref:vcgi:esiteid" v="207472"/>
  </node>
  <node id="-550" visible="true" lat="43.21999359" lon="-73.21260833">
    <tag k="addr:city" v="Rupert"/>
    <tag k="addr:housenumber" v="342"/>
    <tag k="addr:street" v="Sandgate Road"/>
    <tag k="addr:state" v="VT"/>
    <tag k="ref:vcgi:esiteid" v="207473"/>
  </node>
  <node id="-551" visible="true" lat="43.21976322" lon="-73.17812032">
    <tag k="addr:city" v="Rupert"/>
    <tag k="addr:housenumber" v="3895"/>
    <tag k="addr:street" v="Kent Hollow Road"/>
    <tag k="addr:state" v="VT"/>
    <tag k="ref:vcgi:esiteid" v="207474"/>
  </node>
  <node id="-552" visible="true" lat="43.21890092" lon="-73.17898541">
    <tag k="addr:city" v="Rupert"/>
    <tag k="addr:housenumber" v="3964"/>
    <tag k="addr:street" v="Kent Hollow Road"/>
    <tag k="addr:state" v="VT"/>
    <tag k="ref:vcgi:esiteid" v="207476"/>
  </node>
  <node id="-553" visible="true" lat="43.21847152" lon="-73.21148681">
    <tag k="addr:city" v="Rupert"/>
    <tag k="addr:housenumber" v="218"/>
    <tag k="addr:street" v="Sandgate Road"/>
    <tag k="addr:state" v="VT"/>
    <tag k="ref:vcgi:esiteid" v="207477"/>
  </node>
  <node id="-554" visible="true" lat="43.21784973" lon="-73.21102905">
    <tag k="addr:city" v="Rupert"/>
    <tag k="addr:housenumber" v="168"/>
    <tag k="addr:street" v="Sandgate Road"/>
    <tag k="addr:state" v="VT"/>
    <tag k="ref:vcgi:esiteid" v="207478"/>
  </node>
  <node id="-555" visible="true" lat="43.21715001" lon="-73.17698918">
    <tag k="addr:city" v="Rupert"/>
    <tag k="addr:housenumber" v="4035"/>
    <tag k="addr:street" v="Kent Hollow Road"/>
    <tag k="addr:state" v="VT"/>
    <tag k="ref:vcgi:esiteid" v="207479"/>
  </node>
  <node id="-556" visible="true" lat="43.21705627" lon="-73.1787033">
    <tag k="addr:city" v="Rupert"/>
    <tag k="addr:housenumber" v="4075"/>
    <tag k="addr:street" v="Kent Hollow Road"/>
    <tag k="addr:state" v="VT"/>
    <tag k="ref:vcgi:esiteid" v="207480"/>
  </node>
  <node id="-557" visible="true" lat="43.21655796" lon="-73.18141922">
    <tag k="addr:city" v="Rupert"/>
    <tag k="addr:housenumber" v="4150"/>
    <tag k="addr:street" v="Kent Hollow Road"/>
    <tag k="addr:state" v="VT"/>
    <tag k="ref:vcgi:esiteid" v="207481"/>
  </node>
  <node id="-558" visible="true" lat="43.2158432" lon="-73.21061706">
    <tag k="addr:city" v="Rupert"/>
    <tag k="addr:housenumber" v="27"/>
    <tag k="addr:street" v="Sandgate Road"/>
    <tag k="addr:state" v="VT"/>
    <tag k="ref:vcgi:esiteid" v="207482"/>
  </node>
  <node id="-559" visible="true" lat="43.21552453" lon="-73.18337156">
    <tag k="addr:city" v="Rupert"/>
    <tag k="addr:housenumber" v="4330"/>
    <tag k="addr:street" v="Kent Hollow Road"/>
    <tag k="addr:state" v="VT"/>
    <tag k="ref:vcgi:esiteid" v="207483"/>
  </node>
  <node id="-560" visible="true" lat="43.2147401" lon="-73.18235472">
    <tag k="addr:city" v="Rupert"/>
    <tag k="addr:housenumber" v="4357"/>
    <tag k="addr:street" v="Kent Hollow Road"/>
    <tag k="addr:state" v="VT"/>
    <tag k="ref:vcgi:esiteid" v="207484"/>
  </node>
  <node id="-562" visible="true" lat="43.28981891" lon="-73.21737426">
    <tag k="addr:city" v="Rupert"/>
    <tag k="addr:housenumber" v="722"/>
    <tag k="addr:street" v="Suncrest Road"/>
    <tag k="addr:state" v="VT"/>
    <tag k="ref:vcgi:esiteid" v="207487"/>
  </node>
  <node id="-563" visible="true" lat="43.26320882" lon="-73.24138233">
    <tag k="addr:city" v="Rupert"/>
    <tag k="addr:housenumber" v="926"/>
    <tag k="addr:street" v="Hebron Road"/>
    <tag k="addr:state" v="VT"/>
    <tag k="ref:vcgi:esiteid" v="207488"/>
  </node>
  <node id="-564" visible="true" lat="43.26745776" lon="-73.23468169">
    <tag k="addr:city" v="Rupert"/>
    <tag k="addr:housenumber" v="3755"/>
    <tag k="addr:street" v="Vermont Route 153"/>
    <tag k="addr:state" v="VT"/>
    <tag k="ref:vcgi:esiteid" v="207489"/>
  </node>
  <node id="-565" visible="true" lat="43.25740854" lon="-73.22237126">
    <tag k="addr:city" v="Rupert"/>
    <tag k="addr:housenumber" v="2804"/>
    <tag k="addr:street" v="Vermont Route 153"/>
    <tag k="addr:state" v="VT"/>
    <tag k="ref:vcgi:esiteid" v="207490"/>
  </node>
  <node id="-567" visible="true" lat="43.23724529" lon="-73.20119958">
    <tag k="addr:city" v="Rupert"/>
    <tag k="addr:housenumber" v="163"/>
    <tag k="addr:street" v="Hidden Valley Road"/>
    <tag k="addr:state" v="VT"/>
    <tag k="ref:vcgi:esiteid" v="207492"/>
  </node>
  <node id="-568" visible="true" lat="43.22526997" lon="-73.17684348">
    <tag k="addr:city" v="Rupert"/>
    <tag k="addr:housenumber" v="3469"/>
    <tag k="addr:street" v="Kent Hollow Road"/>
    <tag k="addr:state" v="VT"/>
    <tag k="ref:vcgi:esiteid" v="207494"/>
  </node>
  <node id="-569" visible="true" lat="43.30664144" lon="-73.14016203">
    <tag k="addr:city" v="Rupert"/>
    <tag k="addr:housenumber" v="65"/>
    <tag k="addr:street" v="Sykes Hollow Road"/>
    <tag k="addr:state" v="VT"/>
    <tag k="ref:vcgi:esiteid" v="311930"/>
  </node>
  <node id="-570" visible="true" lat="43.30000943" lon="-73.14132214">
    <tag k="addr:city" v="Rupert"/>
    <tag k="addr:housenumber" v="236"/>
    <tag k="addr:street" v="Sykes Hollow Road"/>
    <tag k="addr:state" v="VT"/>
    <tag k="ref:vcgi:esiteid" v="311932"/>
  </node>
  <node id="-571" visible="true" lat="43.28607315" lon="-73.24242097">
    <tag k="addr:city" v="Rupert"/>
    <tag k="addr:housenumber" v="57"/>
    <tag k="addr:street" v="Ike Wright Road Trail"/>
    <tag k="addr:state" v="VT"/>
    <tag k="ref:vcgi:esiteid" v="311934"/>
  </node>
  <node id="-572" visible="true" lat="43.27564741" lon="-73.22807805">
    <tag k="addr:city" v="Rupert"/>
    <tag k="addr:housenumber" v="489"/>
    <tag k="addr:street" v="Lewis Road"/>
    <tag k="addr:state" v="VT"/>
    <tag k="ref:vcgi:esiteid" v="311935"/>
  </node>
  <node id="-573" visible="true" lat="43.28173752" lon="-73.20080457">
    <tag k="addr:city" v="Rupert"/>
    <tag k="addr:housenumber" v="1388"/>
    <tag k="addr:street" v="Pawlet Mountain Road"/>
    <tag k="addr:state" v="VT"/>
    <tag k="ref:vcgi:esiteid" v="311936"/>
  </node>
  <node id="-575" visible="true" lat="43.29156849" lon="-73.13183302">
    <tag k="addr:city" v="Rupert"/>
    <tag k="addr:housenumber" v="1582"/>
    <tag k="addr:street" v="Vermont Route 30"/>
    <tag k="addr:state" v="VT"/>
    <tag k="ref:vcgi:esiteid" v="311939"/>
  </node>
  <node id="-580" visible="true" lat="43.27184462" lon="-73.12552115">
    <tag k="addr:city" v="Rupert"/>
    <tag k="addr:housenumber" v="215"/>
    <tag k="addr:street" v="Dorset West Road"/>
    <tag k="addr:state" v="VT"/>
    <tag k="ref:vcgi:esiteid" v="311945"/>
  </node>
  <node id="-581" visible="true" lat="43.27288987" lon="-73.12533294">
    <tag k="addr:city" v="Rupert"/>
    <tag k="addr:housenumber" v="5790"/>
    <tag k="addr:street" v="Route 315"/>
    <tag k="addr:state" v="VT"/>
    <tag k="ref:vcgi:esiteid" v="311946"/>
  </node>
  <node id="-583" visible="true" lat="43.22895793" lon="-73.22032515">
    <tag k="addr:city" v="Rupert"/>
    <tag k="addr:housenumber" v="1100"/>
    <tag k="addr:street" v="Sandgate Road"/>
    <tag k="addr:state" v="VT"/>
    <tag k="ref:vcgi:esiteid" v="311948"/>
  </node>
  <node id="-584" visible="true" lat="43.22899412" lon="-73.17868708">
    <tag k="addr:city" v="Rupert"/>
    <tag k="addr:housenumber" v="3237"/>
    <tag k="addr:street" v="Kent Hollow Road"/>
    <tag k="addr:state" v="VT"/>
    <tag k="ref:vcgi:esiteid" v="311949"/>
  </node>
  <node id="-585" visible="true" lat="43.23216369" lon="-73.16271138">
    <tag k="addr:city" v="Rupert"/>
    <tag k="addr:housenumber" v="311"/>
    <tag k="addr:street" v="Dole Road"/>
    <tag k="addr:state" v="VT"/>
    <tag k="ref:vcgi:esiteid" v="311950"/>
  </node>
  <node id="-587" visible="true" lat="43.23360661" lon="-73.24938176">
    <tag k="addr:city" v="Rupert"/>
    <tag k="addr:housenumber" v="619"/>
    <tag k="addr:street" v="Vermont Route 153"/>
    <tag k="addr:state" v="VT"/>
    <tag k="ref:vcgi:esiteid" v="311952"/>
  </node>
  <node id="-591" visible="true" lat="43.29757002" lon="-73.24533659">
    <tag k="addr:city" v="Rupert"/>
    <tag k="addr:housenumber" v="215"/>
    <tag k="addr:street" v="Quarry Road"/>
    <tag k="addr:state" v="VT"/>
    <tag k="ref:vcgi:esiteid" v="329630"/>
  </node>
  <node id="-594" visible="true" lat="43.25318452" lon="-73.23492937">
    <tag k="addr:city" v="Rupert"/>
    <tag k="addr:housenumber" v="155"/>
    <tag k="addr:street" v="Hebron Road"/>
    <tag k="addr:state" v="VT"/>
    <tag k="ref:vcgi:esiteid" v="332204"/>
  </node>
  <node id="-595" visible="true" lat="43.30194318" lon="-73.25083825">
    <tag k="addr:city" v="Rupert"/>
    <tag k="addr:housenumber" v="96"/>
    <tag k="addr:street" v="Wolf Tree Lane"/>
    <tag k="addr:state" v="VT"/>
    <tag k="ref:vcgi:esiteid" v="334003"/>
  </node>
  <node id="-596" visible="true" lat="43.24270589" lon="-73.25738767">
    <tag k="addr:city" v="Rupert"/>
    <tag k="addr:housenumber" v="799"/>
    <tag k="addr:street" v="Cross Road"/>
    <tag k="addr:state" v="VT"/>
    <tag k="ref:vcgi:esiteid" v="336231"/>
  </node>
  <node id="-597" visible="true" lat="43.26534437" lon="-73.12348064">
    <tag k="addr:city" v="Rupert"/>
    <tag k="addr:housenumber" v="62"/>
    <tag k="addr:street" v="Foote Road"/>
    <tag k="addr:state" v="VT"/>
    <tag k="ref:vcgi:esiteid" v="336507"/>
  </node>
  <node id="-598" visible="true" lat="43.30838067" lon="-73.13268152">
    <tag k="addr:city" v="Rupert"/>
    <tag k="addr:housenumber" v="331"/>
    <tag k="addr:street" v="Neilson Road"/>
    <tag k="addr:state" v="VT"/>
    <tag k="ref:vcgi:esiteid" v="340408"/>
  </node>
  <node id="-599" visible="true" lat="43.30874825" lon="-73.13143366">
    <tag k="addr:city" v="Rupert"/>
    <tag k="addr:housenumber" v="369"/>
    <tag k="addr:street" v="Neilson Road"/>
    <tag k="addr:state" v="VT"/>
    <tag k="ref:vcgi:esiteid" v="340409"/>
  </node>
  <node id="-600" visible="true" lat="43.235303" lon="-73.24579596">
    <tag k="addr:city" v="Rupert"/>
    <tag k="addr:housenumber" v="842"/>
    <tag k="addr:street" v="Vermont Route 153"/>
    <tag k="addr:state" v="VT"/>
    <tag k="ref:vcgi:esiteid" v="343668"/>
  </node>
  <node id="-601" visible="true" lat="43.26080895" lon="-73.22109603">
    <tag k="addr:city" v="Rupert"/>
    <tag k="addr:housenumber" v="116"/>
    <tag k="addr:street" v="Route 315"/>
    <tag k="addr:state" v="VT"/>
    <tag k="ref:vcgi:esiteid" v="343669"/>
  </node>
  <node id="-602" visible="true" lat="43.22949099" lon="-73.17181211">
    <tag k="addr:city" v="Rupert"/>
    <tag k="addr:housenumber" v="337"/>
    <tag k="addr:street" v="Ebenville Road"/>
    <tag k="addr:state" v="VT"/>
    <tag k="ref:vcgi:esiteid" v="343671"/>
  </node>
  <node id="-603" visible="true" lat="43.28855856" lon="-73.20003152">
    <tag k="addr:city" v="Rupert"/>
    <tag k="addr:housenumber" v="1909"/>
    <tag k="addr:street" v="Pawlet Mountain Road"/>
    <tag k="addr:state" v="VT"/>
    <tag k="ref:vcgi:esiteid" v="365524"/>
  </node>
  <node id="-604" visible="true" lat="43.30249602" lon="-73.15086105">
    <tag k="addr:city" v="Rupert"/>
    <tag k="addr:housenumber" v="2694"/>
    <tag k="addr:street" v="Vermont Route 30"/>
    <tag k="addr:state" v="VT"/>
    <tag k="ref:vcgi:esiteid" v="446126"/>
  </node>
  <node id="-607" visible="true" lat="43.30639602" lon="-73.14675701">
    <tag k="addr:city" v="Rupert"/>
    <tag k="addr:housenumber" v="244"/>
    <tag k="addr:street" v="Herrick Brook Road"/>
    <tag k="addr:state" v="VT"/>
    <tag k="ref:vcgi:esiteid" v="613579"/>
  </node>
  <node id="-608" visible="true" lat="43.23910714" lon="-73.19687942">
    <tag k="addr:city" v="Rupert"/>
    <tag k="addr:housenumber" v="425"/>
    <tag k="addr:street" v="Hidden Valley Road"/>
    <tag k="addr:state" v="VT"/>
    <tag k="ref:vcgi:esiteid" v="614012"/>
  </node>
  <node id="-609" visible="true" lat="43.30345158" lon="-73.14248274">
    <tag k="addr:city" v="Rupert"/>
    <tag k="addr:housenumber" v="63"/>
    <tag k="addr:street" v="Sykes Hollow Road"/>
    <tag k="addr:state" v="VT"/>
    <tag k="ref:vcgi:esiteid" v="619803"/>
  </node>
  <node id="-610" visible="true" lat="43.26746353" lon="-73.13595944">
    <tag k="addr:city" v="Rupert"/>
    <tag k="addr:housenumber" v="454"/>
    <tag k="addr:street" v="Rogers Road"/>
    <tag k="addr:state" v="VT"/>
    <tag k="ref:vcgi:esiteid" v="620529"/>
  </node>
  <node id="-611" visible="true" lat="43.30994509" lon="-73.19451015">
    <tag k="addr:city" v="Rupert"/>
    <tag k="addr:housenumber" v="3345"/>
    <tag k="addr:street" v="Pawlet Mountain Road"/>
    <tag k="addr:state" v="VT"/>
    <tag k="ref:vcgi:esiteid" v="620664"/>
  </node>
  <node id="-612" visible="true" lat="43.26365432" lon="-73.21516645">
    <tag k="addr:city" v="Rupert"/>
    <tag k="addr:housenumber" v="475"/>
    <tag k="addr:street" v="Route 315"/>
    <tag k="addr:state" v="VT"/>
    <tag k="ref:vcgi:esiteid" v="620665"/>
  </node>
  <node id="-613" visible="true" lat="43.27358424" lon="-73.18550669">
    <tag k="addr:city" v="Rupert"/>
    <tag k="addr:housenumber" v="167"/>
    <tag k="addr:street" v="Watrous Road"/>
    <tag k="addr:state" v="VT"/>
    <tag k="ref:vcgi:esiteid" v="620666"/>
  </node>
  <node id="-614" visible="true" lat="43.29208051" lon="-73.23089413">
    <tag k="addr:city" v="Rupert"/>
    <tag k="addr:housenumber" v="722"/>
    <tag k="addr:street" v="McKeighan Road"/>
    <tag k="addr:state" v="VT"/>
    <tag k="ref:vcgi:esiteid" v="620667"/>
  </node>
  <node id="-615" visible="true" lat="43.21765141" lon="-73.17435448">
    <tag k="addr:city" v="Rupert"/>
    <tag k="addr:housenumber" v="3923"/>
    <tag k="addr:street" v="Kent Hollow Road"/>
    <tag k="addr:state" v="VT"/>
    <tag k="ref:vcgi:esiteid" v="700177"/>
  </node>
  <node id="-616" visible="true" lat="43.23829998" lon="-73.24305459">
    <tag k="addr:city" v="Rupert"/>
    <tag k="addr:housenumber" v="1092"/>
    <tag k="addr:street" v="Vermont Route 153"/>
    <tag k="addr:state" v="VT"/>
    <tag k="ref:vcgi:esiteid" v="750692"/>
  </node>
  <node id="-619" visible="true" lat="43.28443372" lon="-73.15546371">
    <tag k="addr:city" v="Rupert"/>
    <tag k="addr:housenumber" v="18"/>
    <tag k="addr:street" v="Derby Hill Road"/>
    <tag k="addr:state" v="VT"/>
    <tag k="ref:vcgi:esiteid" v="751709"/>
  </node>
  <node id="-622" visible="true" lat="43.29698842" lon="-73.14894353">
    <tag k="addr:city" v="Rupert"/>
    <tag k="addr:housenumber" v="228"/>
    <tag k="addr:street" v="Connaway Road"/>
    <tag k="addr:state" v="VT"/>
    <tag k="ref:vcgi:esiteid" v="751713"/>
  </node>
  <node id="-623" visible="true" lat="43.22970176" lon="-73.1815728">
    <tag k="addr:city" v="Rupert"/>
    <tag k="addr:housenumber" v="3089"/>
    <tag k="addr:street" v="Kent Hollow Road"/>
    <tag k="addr:state" v="VT"/>
    <tag k="ref:vcgi:esiteid" v="753977"/>
  </node>
  <node id="-624" visible="true" lat="43.30147472" lon="-73.1500638">
    <tag k="addr:city" v="Rupert"/>
    <tag k="addr:housenumber" v="2607"/>
    <tag k="addr:street" v="Vermont Route 30"/>
    <tag k="addr:state" v="VT"/>
    <tag k="ref:vcgi:esiteid" v="754501"/>
  </node>
  <node id="-629" visible="true" lat="43.27720159" lon="-73.12524407">
    <tag k="addr:city" v="Rupert"/>
    <tag k="addr:housenumber" v="451"/>
    <tag k="addr:street" v="Vermont Route 30"/>
    <tag k="addr:state" v="VT"/>
    <tag k="ref:vcgi:esiteid" v="759071"/>
  </node>
  <node id="-630" visible="true" lat="43.21986291" lon="-73.17863191">
    <tag k="addr:city" v="Rupert"/>
    <tag k="addr:housenumber" v="3894"/>
    <tag k="addr:street" v="Kent Hollow Road"/>
    <tag k="addr:state" v="VT"/>
    <tag k="ref:vcgi:esiteid" v="760308"/>
  </node>
  <node id="-631" visible="true" lat="43.21494551" lon="-73.18397326">
    <tag k="addr:city" v="Rupert"/>
    <tag k="addr:housenumber" v="4400"/>
    <tag k="addr:street" v="Kent Hollow Road"/>
    <tag k="addr:state" v="VT"/>
    <tag k="ref:vcgi:esiteid" v="761325"/>
  </node>
  <node id="-632" visible="true" lat="43.31295661" lon="-73.2433423">
    <tag k="addr:city" v="Rupert"/>
    <tag k="addr:housenumber" v="6975"/>
    <tag k="addr:street" v="Vermont Route 153"/>
    <tag k="addr:state" v="VT"/>
    <tag k="ref:vcgi:esiteid" v="761495"/>
  </node>
  <node id="-633" visible="true" lat="43.22944467" lon="-73.18048835">
    <tag k="addr:city" v="Rupert"/>
    <tag k="addr:housenumber" v="3141"/>
    <tag k="addr:street" v="Kent Hollow Road"/>
    <tag k="addr:state" v="VT"/>
    <tag k="ref:vcgi:esiteid" v="761700"/>
  </node>
  <node id="-640" visible="true" lat="43.26410148" lon="-73.20986732">
    <tag k="addr:city" v="Rupert"/>
    <tag k="addr:housenumber" v="752"/>
    <tag k="addr:street" v="Route 315"/>
    <tag k="addr:state" v="VT"/>
    <tag k="ref:vcgi:esiteid" v="762565"/>
  </node>
  <node id="-641" visible="true" lat="43.31350572" lon="-73.25273309">
    <tag k="addr:city" v="Rupert"/>
    <tag k="addr:housenumber" v="639"/>
    <tag k="addr:street" v="Edwards Lane West"/>
    <tag k="addr:state" v="VT"/>
    <tag k="ref:vcgi:esiteid" v="765843"/>
  </node>
  <node id="-643" visible="true" lat="43.26850579" lon="-73.12412758">
    <tag k="addr:city" v="Rupert"/>
    <tag k="addr:housenumber" v="268"/>
    <tag k="addr:street" v="Foote Road"/>
    <tag k="addr:state" v="VT"/>
    <tag k="ref:vcgi:esiteid" v="1050039"/>
  </node>
</osm>
