<?xml version="1.0" encoding="UTF-8"?>
<osm version="0.6" generator="JOSM" upload="false">
  <node id="-145" visible="true" lat="43.66468154" lon="-73.00188479">
    <tag k="addr:housenumber" v="2529"/>
    <tag k="addr:street" v="North Grove Street"/>
    <tag k="addr:state" v="VT"/>
    <tag k="ref:vcgi:esiteid" v="213764"/>
  </node>
  <node id="-148" visible="true" lat="43.66453815" lon="-73.00293736">
    <tag k="addr:housenumber" v="308"/>
    <tag k="addr:street" v="Ox Yoke Drive"/>
    <tag k="addr:state" v="VT"/>
    <tag k="ref:vcgi:esiteid" v="213767"/>
  </node>
  <node id="-149" visible="true" lat="43.66438538" lon="-73.00379104">
    <tag k="addr:housenumber" v="309"/>
    <tag k="addr:street" v="Ox Yoke Drive"/>
    <tag k="addr:state" v="VT"/>
    <tag k="ref:vcgi:esiteid" v="213768"/>
  </node>
  <node id="-152" visible="true" lat="43.6644778" lon="-73.00095941">
    <tag k="addr:housenumber" v="2496"/>
    <tag k="addr:street" v="North Grove Street"/>
    <tag k="addr:state" v="VT"/>
    <tag k="ref:vcgi:esiteid" v="213771"/>
  </node>
  <node id="-155" visible="true" lat="43.66424831" lon="-73.00181282">
    <tag k="addr:housenumber" v="2499"/>
    <tag k="addr:street" v="North Grove Street"/>
    <tag k="addr:state" v="VT"/>
    <tag k="ref:vcgi:esiteid" v="213774"/>
  </node>
  <node id="-162" visible="true" lat="43.66394918" lon="-73.00065591">
    <tag k="addr:housenumber" v="2460"/>
    <tag k="addr:street" v="North Grove Street"/>
    <tag k="addr:state" v="VT"/>
    <tag k="ref:vcgi:esiteid" v="213781"/>
  </node>
  <node id="-163" visible="true" lat="43.66383119" lon="-73.00021569">
    <tag k="addr:housenumber" v="2442"/>
    <tag k="addr:street" v="North Grove Street"/>
    <tag k="addr:state" v="VT"/>
    <tag k="ref:vcgi:esiteid" v="213782"/>
  </node>
  <node id="-164" visible="true" lat="43.66362642" lon="-73.00101612">
    <tag k="addr:housenumber" v="2449"/>
    <tag k="addr:street" v="North Grove Street"/>
    <tag k="addr:state" v="VT"/>
    <tag k="ref:vcgi:esiteid" v="213783"/>
  </node>
  <node id="-172" visible="true" lat="43.66311336" lon="-73.00327787">
    <tag k="addr:housenumber" v="252"/>
    <tag k="addr:street" v="Ox Yoke Drive"/>
    <tag k="addr:state" v="VT"/>
    <tag k="ref:vcgi:esiteid" v="213791"/>
  </node>
  <node id="-184" visible="true" lat="43.66219586" lon="-73.00288778">
    <tag k="addr:housenumber" v="177"/>
    <tag k="addr:street" v="Ox Yoke Drive"/>
    <tag k="addr:state" v="VT"/>
    <tag k="ref:vcgi:esiteid" v="213803"/>
  </node>
  <node id="-185" visible="true" lat="43.6622233" lon="-73.00115315">
    <tag k="addr:housenumber" v="118"/>
    <tag k="addr:street" v="Ox Yoke Drive"/>
    <tag k="addr:state" v="VT"/>
    <tag k="ref:vcgi:esiteid" v="213804"/>
  </node>
  <node id="-188" visible="true" lat="43.66191256" lon="-73.00355242">
    <tag k="addr:housenumber" v="203"/>
    <tag k="addr:street" v="Ox Yoke Drive"/>
    <tag k="addr:state" v="VT"/>
    <tag k="ref:vcgi:esiteid" v="213807"/>
  </node>
  <node id="-191" visible="true" lat="43.66172782" lon="-73.00084235">
    <tag k="addr:housenumber" v="120"/>
    <tag k="addr:street" v="Ox Yoke Drive"/>
    <tag k="addr:state" v="VT"/>
    <tag k="ref:vcgi:esiteid" v="213810"/>
  </node>
  <node id="-195" visible="true" lat="43.66153349" lon="-73.00137489">
    <tag k="addr:housenumber" v="108"/>
    <tag k="addr:street" v="Ox Yoke Drive"/>
    <tag k="addr:state" v="VT"/>
    <tag k="ref:vcgi:esiteid" v="213814"/>
  </node>
  <node id="-196" visible="true" lat="43.66148618" lon="-72.99945962">
    <tag k="addr:housenumber" v="2279"/>
    <tag k="addr:street" v="North Grove Street"/>
    <tag k="addr:state" v="VT"/>
    <tag k="ref:vcgi:esiteid" v="213815"/>
  </node>
  <node id="-202" visible="true" lat="43.66111033" lon="-73.00032903">
    <tag k="addr:housenumber" v="62"/>
    <tag k="addr:street" v="Pamela Drive"/>
    <tag k="addr:state" v="VT"/>
    <tag k="ref:vcgi:esiteid" v="213821"/>
  </node>
  <node id="-204" visible="true" lat="43.66103543" lon="-72.99847192">
    <tag k="addr:housenumber" v="2232"/>
    <tag k="addr:street" v="North Grove Street"/>
    <tag k="addr:state" v="VT"/>
    <tag k="ref:vcgi:esiteid" v="213823"/>
  </node>
  <node id="-205" visible="true" lat="43.66107469" lon="-72.9733958">
    <tag k="addr:housenumber" v="280"/>
    <tag k="addr:street" v="Blueberry Lane"/>
    <tag k="addr:state" v="VT"/>
    <tag k="ref:vcgi:esiteid" v="213824"/>
  </node>
  <node id="-206" visible="true" lat="43.66071885" lon="-72.99919379">
    <tag k="addr:housenumber" v="19"/>
    <tag k="addr:street" v="Pamela Drive"/>
    <tag k="addr:state" v="VT"/>
    <tag k="ref:vcgi:esiteid" v="213825"/>
  </node>
  <node id="-207" visible="true" lat="43.66097587" lon="-73.00095267">
    <tag k="addr:housenumber" v="44"/>
    <tag k="addr:street" v="Oles Drive"/>
    <tag k="addr:state" v="VT"/>
    <tag k="ref:vcgi:esiteid" v="213826"/>
  </node>
  <node id="-209" visible="true" lat="43.66095205" lon="-72.97478555">
    <tag k="addr:housenumber" v="299"/>
    <tag k="addr:street" v="Blueberry Lane"/>
    <tag k="addr:state" v="VT"/>
    <tag k="ref:vcgi:esiteid" v="213828"/>
  </node>
  <node id="-211" visible="true" lat="43.66042435" lon="-73.00052944">
    <tag k="addr:housenumber" v="19"/>
    <tag k="addr:street" v="Oles Drive"/>
    <tag k="addr:state" v="VT"/>
    <tag k="ref:vcgi:esiteid" v="213830"/>
  </node>
  <node id="-216" visible="true" lat="43.66039207" lon="-72.99827485">
    <tag k="addr:housenumber" v="2188"/>
    <tag k="addr:street" v="North Grove Street"/>
    <tag k="addr:state" v="VT"/>
    <tag k="ref:vcgi:esiteid" v="213835"/>
  </node>
  <node id="-218" visible="true" lat="43.66020471" lon="-72.9926772">
    <tag k="addr:housenumber" v="366"/>
    <tag k="addr:street" v="Pinnacle Ridge Road"/>
    <tag k="addr:state" v="VT"/>
    <tag k="ref:vcgi:esiteid" v="213837"/>
  </node>
  <node id="-219" visible="true" lat="43.66025323" lon="-73.00182801">
    <tag k="addr:housenumber" v="80"/>
    <tag k="addr:street" v="Oles Drive"/>
    <tag k="addr:state" v="VT"/>
    <tag k="ref:vcgi:esiteid" v="213838"/>
  </node>
  <node id="-220" visible="true" lat="43.66018898" lon="-72.99893707">
    <tag k="addr:housenumber" v="2187"/>
    <tag k="addr:street" v="North Grove Street"/>
    <tag k="addr:state" v="VT"/>
    <tag k="ref:vcgi:esiteid" v="213839"/>
  </node>
  <node id="-221" visible="true" lat="43.66024254" lon="-72.99988993">
    <tag k="addr:housenumber" v="99"/>
    <tag k="addr:street" v="Pamela Drive"/>
    <tag k="addr:state" v="VT"/>
    <tag k="ref:vcgi:esiteid" v="213840"/>
  </node>
  <node id="-223" visible="true" lat="43.66017614" lon="-72.97195973">
    <tag k="addr:housenumber" v="230"/>
    <tag k="addr:street" v="Blueberry Lane"/>
    <tag k="addr:state" v="VT"/>
    <tag k="ref:vcgi:esiteid" v="213842"/>
  </node>
  <node id="-224" visible="true" lat="43.66005389" lon="-73.00117809">
    <tag k="addr:housenumber" v="91"/>
    <tag k="addr:street" v="Oles Drive"/>
    <tag k="addr:state" v="VT"/>
    <tag k="ref:vcgi:esiteid" v="213843"/>
  </node>
  <node id="-227" visible="true" lat="43.65987817" lon="-72.96956979">
    <tag k="addr:housenumber" v="595"/>
    <tag k="addr:street" v="Curtis Brook Road"/>
    <tag k="addr:state" v="VT"/>
    <tag k="ref:vcgi:esiteid" v="213846"/>
  </node>
  <node id="-231" visible="true" lat="43.65979673" lon="-72.99885038">
    <tag k="addr:housenumber" v="2155"/>
    <tag k="addr:street" v="North Grove Street"/>
    <tag k="addr:state" v="VT"/>
    <tag k="ref:vcgi:esiteid" v="213850"/>
  </node>
  <node id="-232" visible="true" lat="43.65972678" lon="-73.00042372">
    <tag k="addr:housenumber" v="132"/>
    <tag k="addr:street" v="Pamela Drive"/>
    <tag k="addr:state" v="VT"/>
    <tag k="ref:vcgi:esiteid" v="213851"/>
  </node>
  <node id="-233" visible="true" lat="43.65971511" lon="-72.99977841">
    <tag k="addr:housenumber" v="137"/>
    <tag k="addr:street" v="Pamela Drive"/>
    <tag k="addr:state" v="VT"/>
    <tag k="ref:vcgi:esiteid" v="213852"/>
  </node>
  <node id="-234" visible="true" lat="43.65956559" lon="-73.00108158">
    <tag k="addr:housenumber" v="127"/>
    <tag k="addr:street" v="Oles Drive"/>
    <tag k="addr:state" v="VT"/>
    <tag k="ref:vcgi:esiteid" v="213853"/>
  </node>
  <node id="-235" visible="true" lat="43.65965551" lon="-72.96796765">
    <tag k="addr:housenumber" v="550"/>
    <tag k="addr:street" v="Curtis Brook Road"/>
    <tag k="addr:state" v="VT"/>
    <tag k="ref:vcgi:esiteid" v="213854"/>
  </node>
  <node id="-236" visible="true" lat="43.65953011" lon="-73.00175084">
    <tag k="addr:housenumber" v="128"/>
    <tag k="addr:street" v="Oles Drive"/>
    <tag k="addr:state" v="VT"/>
    <tag k="ref:vcgi:esiteid" v="213855"/>
  </node>
  <node id="-239" visible="true" lat="43.65914589" lon="-73.00042111">
    <tag k="addr:housenumber" v="160"/>
    <tag k="addr:street" v="Pamela Drive"/>
    <tag k="addr:state" v="VT"/>
    <tag k="ref:vcgi:esiteid" v="213858"/>
  </node>
  <node id="-240" visible="true" lat="43.65917618" lon="-72.99950657">
    <tag k="addr:housenumber" v="177"/>
    <tag k="addr:street" v="Pamela Drive"/>
    <tag k="addr:state" v="VT"/>
    <tag k="ref:vcgi:esiteid" v="213859"/>
  </node>
  <node id="-241" visible="true" lat="43.65921451" lon="-72.99873158">
    <tag k="addr:housenumber" v="257"/>
    <tag k="addr:street" v="Pamela Drive"/>
    <tag k="addr:state" v="VT"/>
    <tag k="ref:vcgi:esiteid" v="213860"/>
  </node>
  <node id="-242" visible="true" lat="43.65900913" lon="-73.00091796">
    <tag k="addr:housenumber" v="167"/>
    <tag k="addr:street" v="Oles Drive"/>
    <tag k="addr:state" v="VT"/>
    <tag k="ref:vcgi:esiteid" v="213861"/>
  </node>
  <node id="-243" visible="true" lat="43.65893501" lon="-73.00177377">
    <tag k="addr:housenumber" v="164"/>
    <tag k="addr:street" v="Oles Drive"/>
    <tag k="addr:state" v="VT"/>
    <tag k="ref:vcgi:esiteid" v="213862"/>
  </node>
  <node id="-244" visible="true" lat="43.65858331" lon="-73.00032937">
    <tag k="addr:housenumber" v="222"/>
    <tag k="addr:street" v="Oles Drive"/>
    <tag k="addr:state" v="VT"/>
    <tag k="ref:vcgi:esiteid" v="213863"/>
  </node>
  <node id="-247" visible="true" lat="43.65860748" lon="-72.97413635">
    <tag k="addr:housenumber" v="139"/>
    <tag k="addr:street" v="Blueberry Lane"/>
    <tag k="addr:state" v="VT"/>
    <tag k="ref:vcgi:esiteid" v="213866"/>
  </node>
  <node id="-248" visible="true" lat="43.65861866" lon="-72.96848113">
    <tag k="addr:housenumber" v="493"/>
    <tag k="addr:street" v="Curtis Brook Road"/>
    <tag k="addr:state" v="VT"/>
    <tag k="ref:vcgi:esiteid" v="213867"/>
  </node>
  <node id="-249" visible="true" lat="43.65837097" lon="-72.9983673">
    <tag k="addr:housenumber" v="232"/>
    <tag k="addr:street" v="Pamela Drive"/>
    <tag k="addr:state" v="VT"/>
    <tag k="ref:vcgi:esiteid" v="213868"/>
  </node>
  <node id="-250" visible="true" lat="43.65828316" lon="-73.00139418">
    <tag k="addr:housenumber" v="188"/>
    <tag k="addr:street" v="Oles Drive"/>
    <tag k="addr:state" v="VT"/>
    <tag k="ref:vcgi:esiteid" v="213869"/>
  </node>
  <node id="-255" visible="true" lat="43.65781965" lon="-72.97198626">
    <tag k="addr:housenumber" v="8"/>
    <tag k="addr:street" v="Blueberry Lane"/>
    <tag k="addr:state" v="VT"/>
    <tag k="ref:vcgi:esiteid" v="213874"/>
  </node>
  <node id="-257" visible="true" lat="43.6579538" lon="-72.96768942">
    <tag k="addr:housenumber" v="405"/>
    <tag k="addr:street" v="Curtis Brook Road"/>
    <tag k="addr:state" v="VT"/>
    <tag k="ref:vcgi:esiteid" v="213876"/>
  </node>
  <node id="-258" visible="true" lat="43.65717401" lon="-72.9741955">
    <tag k="addr:housenumber" v="645"/>
    <tag k="addr:street" v="Prospect Hill Road"/>
    <tag k="addr:state" v="VT"/>
    <tag k="ref:vcgi:esiteid" v="213877"/>
  </node>
  <node id="-259" visible="true" lat="43.65782717" lon="-72.96861158">
    <tag k="addr:housenumber" v="329"/>
    <tag k="addr:street" v="Curtis Brook Road"/>
    <tag k="addr:state" v="VT"/>
    <tag k="ref:vcgi:esiteid" v="213878"/>
  </node>
  <node id="-276" visible="true" lat="43.65647185" lon="-72.98712445">
    <tag k="addr:housenumber" v="9"/>
    <tag k="addr:street" v="Prospect Hill Road"/>
    <tag k="addr:state" v="VT"/>
    <tag k="ref:vcgi:esiteid" v="213895"/>
  </node>
  <node id="-278" visible="true" lat="43.65627022" lon="-72.97673153">
    <tag k="addr:housenumber" v="528"/>
    <tag k="addr:street" v="Prospect Hill Road"/>
    <tag k="addr:state" v="VT"/>
    <tag k="ref:vcgi:esiteid" v="213897"/>
  </node>
  <node id="-280" visible="true" lat="43.65607198" lon="-72.97785727">
    <tag k="addr:housenumber" v="474"/>
    <tag k="addr:street" v="Prospect Hill Road"/>
    <tag k="addr:state" v="VT"/>
    <tag k="ref:vcgi:esiteid" v="213899"/>
  </node>
  <node id="-284" visible="true" lat="43.65618375" lon="-72.97270855">
    <tag k="addr:housenumber" v="741"/>
    <tag k="addr:street" v="Prospect Hill Road"/>
    <tag k="addr:state" v="VT"/>
    <tag k="ref:vcgi:esiteid" v="213903"/>
  </node>
  <node id="-286" visible="true" lat="43.6558318" lon="-72.97915189">
    <tag k="addr:housenumber" v="378"/>
    <tag k="addr:street" v="Prospect Hill Road"/>
    <tag k="addr:state" v="VT"/>
    <tag k="ref:vcgi:esiteid" v="213905"/>
  </node>
  <node id="-290" visible="true" lat="43.65594154" lon="-72.99202114">
    <tag k="addr:housenumber" v="283"/>
    <tag k="addr:street" v="Cedar Avenue"/>
    <tag k="addr:state" v="VT"/>
    <tag k="ref:vcgi:esiteid" v="213909"/>
  </node>
  <node id="-298" visible="true" lat="43.65526703" lon="-72.98745498">
    <tag k="addr:housenumber" v="2201"/>
    <tag k="addr:street" v="U.S. Route 7 North"/>
    <tag k="addr:state" v="VT"/>
    <tag k="ref:vcgi:esiteid" v="213917"/>
  </node>
  <node id="-302" visible="true" lat="43.65507171" lon="-72.99164414">
    <tag k="addr:housenumber" v="251"/>
    <tag k="addr:street" v="Cedar Avenue"/>
    <tag k="addr:state" v="VT"/>
    <tag k="ref:vcgi:esiteid" v="213921"/>
  </node>
  <node id="-318" visible="true" lat="43.65431494" lon="-72.99221794">
    <tag k="addr:housenumber" v="183"/>
    <tag k="addr:street" v="Cedar Avenue"/>
    <tag k="addr:state" v="VT"/>
    <tag k="ref:vcgi:esiteid" v="213937"/>
  </node>
  <node id="-323" visible="true" lat="43.65417178" lon="-72.99306221">
    <tag k="addr:housenumber" v="135"/>
    <tag k="addr:street" v="Cedar Avenue"/>
    <tag k="addr:state" v="VT"/>
    <tag k="ref:vcgi:esiteid" v="213942"/>
  </node>
  <node id="-326" visible="true" lat="43.6539245" lon="-72.98631472">
    <tag k="addr:housenumber" v="2096"/>
    <tag k="addr:street" v="U.S. Route 7 North"/>
    <tag k="addr:state" v="VT"/>
    <tag k="ref:vcgi:esiteid" v="213945"/>
  </node>
  <node id="-333" visible="true" lat="43.65358205" lon="-72.99513703">
    <tag k="addr:housenumber" v="22"/>
    <tag k="addr:street" v="Cedar Avenue"/>
    <tag k="addr:state" v="VT"/>
    <tag k="ref:vcgi:esiteid" v="213952"/>
  </node>
  <node id="-337" visible="true" lat="43.65336121" lon="-72.99472023">
    <tag k="addr:housenumber" v="36"/>
    <tag k="addr:street" v="Cedar Avenue"/>
    <tag k="addr:state" v="VT"/>
    <tag k="ref:vcgi:esiteid" v="213956"/>
  </node>
  <node id="-340" visible="true" lat="43.65353883" lon="-72.98620434">
    <tag k="addr:housenumber" v="2054"/>
    <tag k="addr:street" v="U.S. Route 7 North"/>
    <tag k="addr:state" v="VT"/>
    <tag k="ref:vcgi:esiteid" v="213959"/>
  </node>
  <node id="-346" visible="true" lat="43.65303608" lon="-72.99591094">
    <tag k="addr:housenumber" v="1659"/>
    <tag k="addr:street" v="North Grove Street"/>
    <tag k="addr:state" v="VT"/>
    <tag k="ref:vcgi:esiteid" v="213965"/>
  </node>
  <node id="-355" visible="true" lat="43.65226324" lon="-72.97190393">
    <tag k="addr:housenumber" v="991"/>
    <tag k="addr:street" v="Prospect Hill Road"/>
    <tag k="addr:state" v="VT"/>
    <tag k="ref:vcgi:esiteid" v="213974"/>
  </node>
  <node id="-359" visible="true" lat="43.65193587" lon="-72.98528347">
    <tag k="addr:housenumber" v="1958"/>
    <tag k="addr:street" v="U.S. Route 7 North"/>
    <tag k="addr:state" v="VT"/>
    <tag k="ref:vcgi:esiteid" v="213978"/>
  </node>
  <node id="-373" visible="true" lat="43.6512831" lon="-72.98537508">
    <tag k="addr:housenumber" v="1908"/>
    <tag k="addr:street" v="U.S. Route 7 North"/>
    <tag k="addr:state" v="VT"/>
    <tag k="ref:vcgi:esiteid" v="213992"/>
  </node>
  <node id="-380" visible="true" lat="43.65086518" lon="-72.97216267">
    <tag k="addr:housenumber" v="960"/>
    <tag k="addr:street" v="East Pittsford Road"/>
    <tag k="addr:state" v="VT"/>
    <tag k="ref:vcgi:esiteid" v="213999"/>
  </node>
  <node id="-390" visible="true" lat="43.64927827" lon="-72.99947855">
    <tag k="addr:housenumber" v="1365"/>
    <tag k="addr:street" v="North Grove Street"/>
    <tag k="addr:state" v="VT"/>
    <tag k="ref:vcgi:esiteid" v="214009"/>
  </node>
  <node id="-391" visible="true" lat="43.64863918" lon="-72.97312415">
    <tag k="addr:housenumber" v="799"/>
    <tag k="addr:street" v="East Pittsford Road"/>
    <tag k="addr:state" v="VT"/>
    <tag k="ref:vcgi:esiteid" v="214010"/>
  </node>
  <node id="-392" visible="true" lat="43.64820866" lon="-72.98488637">
    <tag k="addr:housenumber" v="1706"/>
    <tag k="addr:street" v="U.S. Route 7 North"/>
    <tag k="addr:state" v="VT"/>
    <tag k="ref:vcgi:esiteid" v="214011"/>
  </node>
  <node id="-393" visible="true" lat="43.64824523" lon="-72.99582662">
    <tag k="addr:housenumber" v="1326"/>
    <tag k="addr:street" v="North Grove Street"/>
    <tag k="addr:state" v="VT"/>
    <tag k="ref:vcgi:esiteid" v="214012"/>
  </node>
  <node id="-394" visible="true" lat="43.64798777" lon="-72.97270094">
    <tag k="addr:housenumber" v="776"/>
    <tag k="addr:street" v="East Pittsford Road"/>
    <tag k="addr:state" v="VT"/>
    <tag k="ref:vcgi:esiteid" v="214013"/>
  </node>
  <node id="-395" visible="true" lat="43.64801033" lon="-72.97114067">
    <tag k="addr:housenumber" v="812"/>
    <tag k="addr:street" v="East Pittsford Road"/>
    <tag k="addr:state" v="VT"/>
    <tag k="ref:vcgi:esiteid" v="214014"/>
  </node>
  <node id="-397" visible="true" lat="43.64693335" lon="-72.99625379">
    <tag k="addr:housenumber" v="1255"/>
    <tag k="addr:street" v="North Grove Street"/>
    <tag k="addr:state" v="VT"/>
    <tag k="ref:vcgi:esiteid" v="214016"/>
  </node>
  <node id="-398" visible="true" lat="43.64682989" lon="-72.98500572">
    <tag k="addr:housenumber" v="1606"/>
    <tag k="addr:street" v="U.S. Route 7 North"/>
    <tag k="addr:state" v="VT"/>
    <tag k="ref:vcgi:esiteid" v="214017"/>
  </node>
  <node id="-399" visible="true" lat="43.6464675" lon="-72.99503377">
    <tag k="addr:housenumber" v="1192"/>
    <tag k="addr:street" v="North Grove Street"/>
    <tag k="addr:state" v="VT"/>
    <tag k="ref:vcgi:esiteid" v="214018"/>
  </node>
  <node id="-400" visible="true" lat="43.64633508" lon="-72.9733753">
    <tag k="addr:housenumber" v="642"/>
    <tag k="addr:street" v="East Pittsford Road"/>
    <tag k="addr:state" v="VT"/>
    <tag k="ref:vcgi:esiteid" v="214019"/>
  </node>
  <node id="-406" visible="true" lat="43.6454369" lon="-72.99285402">
    <tag k="addr:housenumber" v="1068"/>
    <tag k="addr:street" v="North Grove Street"/>
    <tag k="addr:state" v="VT"/>
    <tag k="ref:vcgi:esiteid" v="214026"/>
  </node>
  <node id="-408" visible="true" lat="43.64537429" lon="-72.97431182">
    <tag k="addr:housenumber" v="569"/>
    <tag k="addr:street" v="East Pittsford Road"/>
    <tag k="addr:state" v="VT"/>
    <tag k="ref:vcgi:esiteid" v="214028"/>
  </node>
  <node id="-409" visible="true" lat="43.64521561" lon="-72.99522159">
    <tag k="addr:housenumber" v="1117"/>
    <tag k="addr:street" v="North Grove Street"/>
    <tag k="addr:state" v="VT"/>
    <tag k="ref:vcgi:esiteid" v="214029"/>
  </node>
  <node id="-415" visible="true" lat="43.64471044" lon="-72.99809591">
    <tag k="addr:housenumber" v="119"/>
    <tag k="addr:street" v="Lester Lane"/>
    <tag k="addr:state" v="VT"/>
    <tag k="ref:vcgi:esiteid" v="214035"/>
  </node>
  <node id="-417" visible="true" lat="43.6438007" lon="-72.98502095">
    <tag k="addr:housenumber" v="1339"/>
    <tag k="addr:street" v="U.S. Route 7 North"/>
    <tag k="addr:state" v="VT"/>
    <tag k="ref:vcgi:esiteid" v="214037"/>
  </node>
  <node id="-418" visible="true" lat="43.6443634" lon="-72.9715805">
    <tag k="addr:housenumber" v="366"/>
    <tag k="addr:street" v="Countryside Drive"/>
    <tag k="addr:state" v="VT"/>
    <tag k="ref:vcgi:esiteid" v="214038"/>
  </node>
  <node id="-419" visible="true" lat="43.6443367" lon="-72.97229003">
    <tag k="addr:housenumber" v="384"/>
    <tag k="addr:street" v="Countryside Drive"/>
    <tag k="addr:state" v="VT"/>
    <tag k="ref:vcgi:esiteid" v="214039"/>
  </node>
  <node id="-420" visible="true" lat="43.64434425" lon="-72.97381392">
    <tag k="addr:housenumber" v="242"/>
    <tag k="addr:street" v="Russell Drive"/>
    <tag k="addr:state" v="VT"/>
    <tag k="ref:vcgi:esiteid" v="214040"/>
  </node>
  <node id="-423" visible="true" lat="43.64407887" lon="-72.99541038">
    <tag k="addr:housenumber" v="69"/>
    <tag k="addr:street" v="Lester Lane"/>
    <tag k="addr:state" v="VT"/>
    <tag k="ref:vcgi:esiteid" v="214043"/>
  </node>
  <node id="-425" visible="true" lat="43.64394209" lon="-72.99658054">
    <tag k="addr:housenumber" v="111"/>
    <tag k="addr:street" v="Lester Lane"/>
    <tag k="addr:state" v="VT"/>
    <tag k="ref:vcgi:esiteid" v="214045"/>
  </node>
  <node id="-427" visible="true" lat="43.64404184" lon="-72.99421741">
    <tag k="addr:housenumber" v="37"/>
    <tag k="addr:street" v="Lester Lane"/>
    <tag k="addr:state" v="VT"/>
    <tag k="ref:vcgi:esiteid" v="214047"/>
  </node>
  <node id="-434" visible="true" lat="43.6439476" lon="-72.97393798">
    <tag k="addr:housenumber" v="247"/>
    <tag k="addr:street" v="Russell Drive"/>
    <tag k="addr:state" v="VT"/>
    <tag k="ref:vcgi:esiteid" v="214055"/>
  </node>
  <node id="-435" visible="true" lat="43.64388475" lon="-72.9903209">
    <tag k="addr:housenumber" v="9"/>
    <tag k="addr:street" v="Abbey Lane"/>
    <tag k="addr:state" v="VT"/>
    <tag k="ref:vcgi:esiteid" v="214056"/>
  </node>
  <node id="-437" visible="true" lat="43.64382553" lon="-72.9718399">
    <tag k="addr:housenumber" v="377"/>
    <tag k="addr:street" v="Countryside Drive"/>
    <tag k="addr:state" v="VT"/>
    <tag k="ref:vcgi:esiteid" v="214058"/>
  </node>
  <node id="-440" visible="true" lat="43.64369835" lon="-72.97088302">
    <tag k="addr:housenumber" v="326"/>
    <tag k="addr:street" v="Countryside Drive"/>
    <tag k="addr:state" v="VT"/>
    <tag k="ref:vcgi:esiteid" v="214061"/>
  </node>
  <node id="-443" visible="true" lat="43.64368438" lon="-72.97322845">
    <tag k="addr:housenumber" v="209"/>
    <tag k="addr:street" v="Russell Drive"/>
    <tag k="addr:state" v="VT"/>
    <tag k="ref:vcgi:esiteid" v="214064"/>
  </node>
  <node id="-444" visible="true" lat="43.6435458" lon="-72.99327006">
    <tag k="addr:housenumber" v="978"/>
    <tag k="addr:street" v="North Grove Street"/>
    <tag k="addr:state" v="VT"/>
    <tag k="ref:vcgi:esiteid" v="214065"/>
  </node>
  <node id="-445" visible="true" lat="43.64352655" lon="-72.9714597">
    <tag k="addr:housenumber" v="317"/>
    <tag k="addr:street" v="Countryside Drive"/>
    <tag k="addr:state" v="VT"/>
    <tag k="ref:vcgi:esiteid" v="214066"/>
  </node>
  <node id="-447" visible="true" lat="43.64346694" lon="-72.97402954">
    <tag k="addr:housenumber" v="436"/>
    <tag k="addr:street" v="East Pittsford Road"/>
    <tag k="addr:state" v="VT"/>
    <tag k="ref:vcgi:esiteid" v="214068"/>
  </node>
  <node id="-450" visible="true" lat="43.64332064" lon="-72.99317916">
    <tag k="addr:housenumber" v="958"/>
    <tag k="addr:street" v="North Grove Street"/>
    <tag k="addr:state" v="VT"/>
    <tag k="ref:vcgi:esiteid" v="214071"/>
  </node>
  <node id="-451" visible="true" lat="43.64334143" lon="-72.97084329">
    <tag k="addr:housenumber" v="296"/>
    <tag k="addr:street" v="Countryside Drive"/>
    <tag k="addr:state" v="VT"/>
    <tag k="ref:vcgi:esiteid" v="214072"/>
  </node>
  <node id="-452" visible="true" lat="43.64344335" lon="-72.97275145">
    <tag k="addr:housenumber" v="159"/>
    <tag k="addr:street" v="Russell Drive"/>
    <tag k="addr:state" v="VT"/>
    <tag k="ref:vcgi:esiteid" v="214073"/>
  </node>
  <node id="-454" visible="true" lat="43.64344223" lon="-72.9823257">
    <tag k="addr:housenumber" v="1288"/>
    <tag k="addr:street" v="U.S. Route 7 North"/>
    <tag k="addr:state" v="VT"/>
    <tag k="ref:vcgi:esiteid" v="214075"/>
  </node>
  <node id="-455" visible="true" lat="43.64323145" lon="-72.97200951">
    <tag k="addr:housenumber" v="138"/>
    <tag k="addr:street" v="Russell Drive"/>
    <tag k="addr:state" v="VT"/>
    <tag k="ref:vcgi:esiteid" v="214076"/>
  </node>
  <node id="-458" visible="true" lat="43.64318962" lon="-72.97480805">
    <tag k="addr:housenumber" v="413"/>
    <tag k="addr:street" v="East Pittsford Road"/>
    <tag k="addr:state" v="VT"/>
    <tag k="ref:vcgi:esiteid" v="214079"/>
  </node>
  <node id="-459" visible="true" lat="43.6431289" lon="-72.97144786">
    <tag k="addr:housenumber" v="285"/>
    <tag k="addr:street" v="Countryside Drive"/>
    <tag k="addr:state" v="VT"/>
    <tag k="ref:vcgi:esiteid" v="214080"/>
  </node>
  <node id="-460" visible="true" lat="43.64307785" lon="-72.97412872">
    <tag k="addr:housenumber" v="414"/>
    <tag k="addr:street" v="East Pittsford Road"/>
    <tag k="addr:state" v="VT"/>
    <tag k="ref:vcgi:esiteid" v="214081"/>
  </node>
  <node id="-465" visible="true" lat="43.64299511" lon="-72.97270266">
    <tag k="addr:housenumber" v="119"/>
    <tag k="addr:street" v="Russell Drive"/>
    <tag k="addr:state" v="VT"/>
    <tag k="ref:vcgi:esiteid" v="214086"/>
  </node>
  <node id="-466" visible="true" lat="43.64291551" lon="-72.98856457">
    <tag k="addr:housenumber" v="111"/>
    <tag k="addr:street" v="Abbey Lane"/>
    <tag k="addr:state" v="VT"/>
    <tag k="ref:vcgi:esiteid" v="214087"/>
  </node>
  <node id="-467" visible="true" lat="43.64296" lon="-72.97085632">
    <tag k="addr:housenumber" v="272"/>
    <tag k="addr:street" v="Countryside Drive"/>
    <tag k="addr:state" v="VT"/>
    <tag k="ref:vcgi:esiteid" v="214088"/>
  </node>
  <node id="-469" visible="true" lat="43.64273046" lon="-72.97143364">
    <tag k="addr:housenumber" v="253"/>
    <tag k="addr:street" v="Countryside Drive"/>
    <tag k="addr:state" v="VT"/>
    <tag k="ref:vcgi:esiteid" v="214090"/>
  </node>
  <node id="-470" visible="true" lat="43.64265823" lon="-72.9742279">
    <tag k="addr:housenumber" v="386"/>
    <tag k="addr:street" v="East Pittsford Road"/>
    <tag k="addr:state" v="VT"/>
    <tag k="ref:vcgi:esiteid" v="214091"/>
  </node>
  <node id="-471" visible="true" lat="43.64258529" lon="-72.9709256">
    <tag k="addr:housenumber" v="248"/>
    <tag k="addr:street" v="Countryside Drive"/>
    <tag k="addr:state" v="VT"/>
    <tag k="ref:vcgi:esiteid" v="214092"/>
  </node>
  <node id="-472" visible="true" lat="43.64253696" lon="-72.9727647">
    <tag k="addr:housenumber" v="93"/>
    <tag k="addr:street" v="Russell Drive"/>
    <tag k="addr:state" v="VT"/>
    <tag k="ref:vcgi:esiteid" v="214093"/>
  </node>
  <node id="-473" visible="true" lat="43.64255378" lon="-72.98115652">
    <tag k="addr:housenumber" v="1220"/>
    <tag k="addr:street" v="U.S. Route 7 North"/>
    <tag k="addr:state" v="VT"/>
    <tag k="ref:vcgi:esiteid" v="214094"/>
  </node>
  <node id="-474" visible="true" lat="43.64229963" lon="-72.98252275">
    <tag k="addr:housenumber" v="1253"/>
    <tag k="addr:street" v="U.S. Route 7 North"/>
    <tag k="addr:state" v="VT"/>
    <tag k="ref:vcgi:esiteid" v="214095"/>
  </node>
  <node id="-476" visible="true" lat="43.64222105" lon="-72.99699941">
    <tag k="addr:housenumber" v="911"/>
    <tag k="addr:street" v="North Grove Street"/>
    <tag k="addr:state" v="VT"/>
    <tag k="ref:vcgi:esiteid" v="214097"/>
  </node>
  <node id="-477" visible="true" lat="43.64238353" lon="-72.98092178">
    <tag k="addr:housenumber" v="1202"/>
    <tag k="addr:street" v="U.S. Route 7 North"/>
    <tag k="addr:state" v="VT"/>
    <tag k="ref:vcgi:esiteid" v="214098"/>
  </node>
  <node id="-478" visible="true" lat="43.64237798" lon="-72.97156256">
    <tag k="addr:housenumber" v="225"/>
    <tag k="addr:street" v="Countryside Drive"/>
    <tag k="addr:state" v="VT"/>
    <tag k="ref:vcgi:esiteid" v="214099"/>
  </node>
  <node id="-481" visible="true" lat="43.64220588" lon="-72.98167924">
    <tag k="addr:housenumber" v="1213"/>
    <tag k="addr:street" v="U.S. Route 7 North"/>
    <tag k="addr:state" v="VT"/>
    <tag k="ref:vcgi:esiteid" v="214102"/>
  </node>
  <node id="-483" visible="true" lat="43.64219595" lon="-72.97284638">
    <tag k="addr:housenumber" v="65"/>
    <tag k="addr:street" v="Russell Drive"/>
    <tag k="addr:state" v="VT"/>
    <tag k="ref:vcgi:esiteid" v="214104"/>
  </node>
  <node id="-484" visible="true" lat="43.64207716" lon="-72.97097671">
    <tag k="addr:housenumber" v="214"/>
    <tag k="addr:street" v="Countryside Drive"/>
    <tag k="addr:state" v="VT"/>
    <tag k="ref:vcgi:esiteid" v="214105"/>
  </node>
  <node id="-486" visible="true" lat="43.64197343" lon="-72.97181781">
    <tag k="addr:housenumber" v="187"/>
    <tag k="addr:street" v="Countryside Drive"/>
    <tag k="addr:state" v="VT"/>
    <tag k="ref:vcgi:esiteid" v="214107"/>
  </node>
  <node id="-487" visible="true" lat="43.64185612" lon="-72.97504781">
    <tag k="addr:housenumber" v="323"/>
    <tag k="addr:street" v="East Pittsford Road"/>
    <tag k="addr:state" v="VT"/>
    <tag k="ref:vcgi:esiteid" v="214108"/>
  </node>
  <node id="-488" visible="true" lat="43.64186466" lon="-72.98796132">
    <tag k="addr:housenumber" v="10"/>
    <tag k="addr:street" v="Abbey Lane"/>
    <tag k="addr:state" v="VT"/>
    <tag k="ref:vcgi:esiteid" v="214109"/>
  </node>
  <node id="-490" visible="true" lat="43.6415905" lon="-72.97129247">
    <tag k="addr:housenumber" v="178"/>
    <tag k="addr:street" v="Countryside Drive"/>
    <tag k="addr:state" v="VT"/>
    <tag k="ref:vcgi:esiteid" v="214111"/>
  </node>
  <node id="-491" visible="true" lat="43.64162539" lon="-72.9721732">
    <tag k="addr:housenumber" v="149"/>
    <tag k="addr:street" v="Countryside Drive"/>
    <tag k="addr:state" v="VT"/>
    <tag k="ref:vcgi:esiteid" v="214112"/>
  </node>
  <node id="-494" visible="true" lat="43.64145641" lon="-72.97446767">
    <tag k="addr:housenumber" v="17"/>
    <tag k="addr:street" v="Countryside Drive"/>
    <tag k="addr:state" v="VT"/>
    <tag k="ref:vcgi:esiteid" v="214115"/>
  </node>
  <node id="-495" visible="true" lat="43.64136406" lon="-72.97298485">
    <tag k="addr:housenumber" v="95"/>
    <tag k="addr:street" v="Countryside Drive"/>
    <tag k="addr:state" v="VT"/>
    <tag k="ref:vcgi:esiteid" v="214116"/>
  </node>
  <node id="-496" visible="true" lat="43.64125872" lon="-72.97938943">
    <tag k="addr:housenumber" v="1094"/>
    <tag k="addr:street" v="U.S. Route 7 North"/>
    <tag k="addr:state" v="VT"/>
    <tag k="ref:vcgi:esiteid" v="214117"/>
  </node>
  <node id="-497" visible="true" lat="43.64107995" lon="-72.97189854">
    <tag k="addr:housenumber" v="140"/>
    <tag k="addr:street" v="Countryside Drive"/>
    <tag k="addr:state" v="VT"/>
    <tag k="ref:vcgi:esiteid" v="214118"/>
  </node>
  <node id="-499" visible="true" lat="43.64095237" lon="-72.97459169">
    <tag k="addr:housenumber" v="20"/>
    <tag k="addr:street" v="Countryside Drive"/>
    <tag k="addr:state" v="VT"/>
    <tag k="ref:vcgi:esiteid" v="214120"/>
  </node>
  <node id="-501" visible="true" lat="43.64091059" lon="-72.97401133">
    <tag k="addr:housenumber" v="46"/>
    <tag k="addr:street" v="Countryside Drive"/>
    <tag k="addr:state" v="VT"/>
    <tag k="ref:vcgi:esiteid" v="214122"/>
  </node>
  <node id="-502" visible="true" lat="43.64096714" lon="-72.97256864">
    <tag k="addr:housenumber" v="112"/>
    <tag k="addr:street" v="Countryside Drive"/>
    <tag k="addr:state" v="VT"/>
    <tag k="ref:vcgi:esiteid" v="214123"/>
  </node>
  <node id="-510" visible="true" lat="43.64060081" lon="-72.99606422">
    <tag k="addr:housenumber" v="1232"/>
    <tag k="addr:street" v="McKinley Avenue"/>
    <tag k="addr:state" v="VT"/>
    <tag k="ref:vcgi:esiteid" v="214131"/>
  </node>
  <node id="-512" visible="true" lat="43.64056026" lon="-72.97841405">
    <tag k="addr:housenumber" v="1024"/>
    <tag k="addr:street" v="U.S. Route 7 North"/>
    <tag k="addr:state" v="VT"/>
    <tag k="ref:vcgi:esiteid" v="214133"/>
  </node>
  <node id="-513" visible="true" lat="43.6402337" lon="-72.97480041">
    <tag k="addr:housenumber" v="212"/>
    <tag k="addr:street" v="East Pittsford Road"/>
    <tag k="addr:state" v="VT"/>
    <tag k="ref:vcgi:esiteid" v="214134"/>
  </node>
  <node id="-515" visible="true" lat="43.64030114" lon="-72.99676571">
    <tag k="addr:housenumber" v="1286"/>
    <tag k="addr:street" v="McKinley Avenue"/>
    <tag k="addr:state" v="VT"/>
    <tag k="ref:vcgi:esiteid" v="214136"/>
  </node>
  <node id="-518" visible="true" lat="43.64005418" lon="-72.97892422">
    <tag k="addr:housenumber" v="1011"/>
    <tag k="addr:street" v="U.S. Route 7 North"/>
    <tag k="addr:state" v="VT"/>
    <tag k="ref:vcgi:esiteid" v="214139"/>
  </node>
  <node id="-519" visible="true" lat="43.63975605" lon="-72.99508653">
    <tag k="addr:housenumber" v="1239"/>
    <tag k="addr:street" v="McKinley Avenue"/>
    <tag k="addr:state" v="VT"/>
    <tag k="ref:vcgi:esiteid" v="214140"/>
  </node>
  <node id="-522" visible="true" lat="43.63969843" lon="-73.00052782">
    <tag k="addr:housenumber" v="1388"/>
    <tag k="addr:street" v="McKinley Avenue"/>
    <tag k="addr:state" v="VT"/>
    <tag k="ref:vcgi:esiteid" v="214143"/>
  </node>
  <node id="-537" visible="true" lat="43.63944225" lon="-72.99785605">
    <tag k="addr:housenumber" v="1378"/>
    <tag k="addr:street" v="McKinley Avenue"/>
    <tag k="addr:state" v="VT"/>
    <tag k="ref:vcgi:esiteid" v="214158"/>
  </node>
  <node id="-551" visible="true" lat="43.63877659" lon="-72.9963877">
    <tag k="addr:housenumber" v="1337"/>
    <tag k="addr:street" v="McKinley Avenue"/>
    <tag k="addr:state" v="VT"/>
    <tag k="ref:vcgi:esiteid" v="214172"/>
  </node>
  <node id="-558" visible="true" lat="43.63856812" lon="-72.97492327">
    <tag k="addr:housenumber" v="90"/>
    <tag k="addr:street" v="East Pittsford Road"/>
    <tag k="addr:state" v="VT"/>
    <tag k="ref:vcgi:esiteid" v="214180"/>
  </node>
  <node id="-564" visible="true" lat="43.63824704" lon="-72.99839933">
    <tag k="addr:housenumber" v="1434"/>
    <tag k="addr:street" v="McKinley Avenue"/>
    <tag k="addr:state" v="VT"/>
    <tag k="ref:vcgi:esiteid" v="214186"/>
  </node>
  <node id="-568" visible="true" lat="43.63787444" lon="-72.99764694">
    <tag k="addr:housenumber" v="1387"/>
    <tag k="addr:street" v="McKinley Avenue"/>
    <tag k="addr:state" v="VT"/>
    <tag k="ref:vcgi:esiteid" v="214190"/>
  </node>
  <node id="-569" visible="true" lat="43.63796816" lon="-72.97433424">
    <tag k="addr:housenumber" v="756"/>
    <tag k="addr:street" v="U.S. Route 7 North"/>
    <tag k="addr:state" v="VT"/>
    <tag k="ref:vcgi:esiteid" v="214191"/>
  </node>
  <node id="-581" visible="true" lat="43.63751341" lon="-73.00252458">
    <tag k="addr:housenumber" v="1578"/>
    <tag k="addr:street" v="McKinley Avenue"/>
    <tag k="addr:state" v="VT"/>
    <tag k="ref:vcgi:esiteid" v="214203"/>
  </node>
  <node id="-605" visible="true" lat="43.63667443" lon="-72.99796366">
    <tag k="addr:housenumber" v="1477"/>
    <tag k="addr:street" v="McKinley Avenue"/>
    <tag k="addr:state" v="VT"/>
    <tag k="ref:vcgi:esiteid" v="214227"/>
  </node>
  <node id="-608" visible="true" lat="43.63630599" lon="-72.97327732">
    <tag k="addr:housenumber" v="2154"/>
    <tag k="addr:street" v="Post Road"/>
    <tag k="addr:state" v="VT"/>
    <tag k="ref:vcgi:esiteid" v="214230"/>
  </node>
  <node id="-616" visible="true" lat="43.6361785" lon="-72.97684729">
    <tag k="addr:housenumber" v="125"/>
    <tag k="addr:street" v="State Place"/>
    <tag k="addr:state" v="VT"/>
    <tag k="ref:vcgi:esiteid" v="214238"/>
  </node>
  <node id="-624" visible="true" lat="43.63567993" lon="-72.99840589">
    <tag k="addr:housenumber" v="1479"/>
    <tag k="addr:street" v="McKinley Avenue"/>
    <tag k="addr:state" v="VT"/>
    <tag k="ref:vcgi:esiteid" v="214246"/>
  </node>
  <node id="-625" visible="true" lat="43.6358731" lon="-72.97822361">
    <tag k="addr:housenumber" v="101"/>
    <tag k="addr:street" v="State Place"/>
    <tag k="addr:state" v="VT"/>
    <tag k="ref:vcgi:esiteid" v="214247"/>
  </node>
  <node id="-630" visible="true" lat="43.6356241" lon="-73.00086328">
    <tag k="addr:housenumber" v="1639"/>
    <tag k="addr:street" v="McKinley Avenue"/>
    <tag k="addr:state" v="VT"/>
    <tag k="ref:vcgi:esiteid" v="214252"/>
  </node>
  <node id="-632" visible="true" lat="43.6356265" lon="-73.00390993">
    <tag k="addr:housenumber" v="1684"/>
    <tag k="addr:street" v="McKinley Avenue"/>
    <tag k="addr:state" v="VT"/>
    <tag k="ref:vcgi:esiteid" v="214254"/>
  </node>
  <node id="-633" visible="true" lat="43.63571263" lon="-72.97728587">
    <tag k="addr:housenumber" v="124"/>
    <tag k="addr:street" v="State Place"/>
    <tag k="addr:state" v="VT"/>
    <tag k="ref:vcgi:esiteid" v="214255"/>
  </node>
  <node id="-639" visible="true" lat="43.63543708" lon="-72.97728468">
    <tag k="addr:housenumber" v="122"/>
    <tag k="addr:street" v="State Place"/>
    <tag k="addr:state" v="VT"/>
    <tag k="ref:vcgi:esiteid" v="214261"/>
  </node>
  <node id="-640" visible="true" lat="43.63551984" lon="-72.97746607">
    <tag k="addr:housenumber" v="120"/>
    <tag k="addr:street" v="State Place"/>
    <tag k="addr:state" v="VT"/>
    <tag k="ref:vcgi:esiteid" v="214262"/>
  </node>
  <node id="-691" visible="true" lat="43.63409877" lon="-72.97784442">
    <tag k="addr:housenumber" v="108"/>
    <tag k="addr:street" v="McKinley Avenue"/>
    <tag k="addr:state" v="VT"/>
    <tag k="ref:vcgi:esiteid" v="214313"/>
  </node>
  <node id="-722" visible="true" lat="43.63327384" lon="-72.97602767">
    <tag k="addr:housenumber" v="480"/>
    <tag k="addr:street" v="U.S. Route 7 North"/>
    <tag k="addr:state" v="VT"/>
    <tag k="ref:vcgi:esiteid" v="214345"/>
  </node>
  <node id="-724" visible="true" lat="43.63317951" lon="-72.97562454">
    <tag k="addr:housenumber" v="482"/>
    <tag k="addr:street" v="U.S. Route 7 North"/>
    <tag k="addr:state" v="VT"/>
    <tag k="ref:vcgi:esiteid" v="214347"/>
  </node>
  <node id="-728" visible="true" lat="43.6331196" lon="-72.97725929">
    <tag k="addr:housenumber" v="45"/>
    <tag k="addr:street" v="McKinley Avenue"/>
    <tag k="addr:state" v="VT"/>
    <tag k="ref:vcgi:esiteid" v="214351"/>
  </node>
  <node id="-729" visible="true" lat="43.63330092" lon="-72.97667587">
    <tag k="addr:housenumber" v="24"/>
    <tag k="addr:street" v="McKinley Avenue"/>
    <tag k="addr:state" v="VT"/>
    <tag k="ref:vcgi:esiteid" v="214352"/>
  </node>
  <node id="-743" visible="true" lat="43.63277563" lon="-72.97682839">
    <tag k="addr:housenumber" v="439"/>
    <tag k="addr:street" v="U.S. Route 7 North"/>
    <tag k="addr:state" v="VT"/>
    <tag k="ref:vcgi:esiteid" v="214366"/>
  </node>
  <node id="-746" visible="true" lat="43.63272103" lon="-72.97597951">
    <tag k="addr:housenumber" v="432"/>
    <tag k="addr:street" v="U.S. Route 7 North"/>
    <tag k="addr:state" v="VT"/>
    <tag k="ref:vcgi:esiteid" v="214369"/>
  </node>
  <node id="-762" visible="true" lat="43.6317775" lon="-72.99712845">
    <tag k="addr:housenumber" v="215"/>
    <tag k="addr:street" v="Old Wood Road"/>
    <tag k="addr:state" v="VT"/>
    <tag k="ref:vcgi:esiteid" v="214386"/>
  </node>
  <node id="-929" visible="true" lat="43.62287769" lon="-72.95338237">
    <tag k="addr:housenumber" v="205"/>
    <tag k="addr:street" v="U.S. Route 4 East"/>
    <tag k="addr:state" v="VT"/>
    <tag k="ref:vcgi:esiteid" v="214557"/>
  </node>
  <node id="-1297" visible="true" lat="43.60366542" lon="-73.00905556">
    <!-- match: "79 Depot Lane, , VT"  ignoring missing state when matching to "79 Depot Lane, , " -->
    <tag k="addr:housenumber" v="79"/>
    <tag k="addr:street" v="Depot Lane"/>
    <tag k="addr:state" v="VT"/>
    <tag k="ref:vcgi:esiteid" v="214947"/>
  </node>
  <node id="-1453" visible="true" lat="43.59111564" lon="-72.95812289">
    <tag k="addr:housenumber" v="230"/>
    <tag k="addr:street" v="Messer Lane Place"/>
    <tag k="addr:state" v="VT"/>
    <tag k="ref:vcgi:esiteid" v="215118"/>
  </node>
  <node id="-1454" visible="true" lat="43.59090449" lon="-72.95961206">
    <tag k="addr:housenumber" v="138"/>
    <tag k="addr:street" v="Messer Lane Place"/>
    <tag k="addr:state" v="VT"/>
    <tag k="ref:vcgi:esiteid" v="215119"/>
  </node>
  <node id="-1457" visible="true" lat="43.59050927" lon="-72.96458934">
    <tag k="addr:housenumber" v="98"/>
    <tag k="addr:street" v="Stanley Place"/>
    <tag k="addr:state" v="VT"/>
    <tag k="ref:vcgi:esiteid" v="215122"/>
  </node>
  <node id="-1458" visible="true" lat="43.59050215" lon="-72.96500726">
    <tag k="addr:housenumber" v="80"/>
    <tag k="addr:street" v="Stanley Place"/>
    <tag k="addr:state" v="VT"/>
    <tag k="ref:vcgi:esiteid" v="215123"/>
  </node>
  <node id="-1460" visible="true" lat="43.59039004" lon="-72.96532962">
    <tag k="addr:housenumber" v="58"/>
    <tag k="addr:street" v="Stanley Place"/>
    <tag k="addr:state" v="VT"/>
    <tag k="ref:vcgi:esiteid" v="215125"/>
  </node>
  <node id="-1461" visible="true" lat="43.59030305" lon="-72.96384384">
    <tag k="addr:housenumber" v="91"/>
    <tag k="addr:street" v="Adele Place"/>
    <tag k="addr:state" v="VT"/>
    <tag k="ref:vcgi:esiteid" v="215127"/>
  </node>
  <node id="-1464" visible="true" lat="43.59020981" lon="-72.96275328">
    <tag k="addr:housenumber" v="37"/>
    <tag k="addr:street" v="Miller Place"/>
    <tag k="addr:state" v="VT"/>
    <tag k="ref:vcgi:esiteid" v="215130"/>
  </node>
  <node id="-1465" visible="true" lat="43.59021973" lon="-72.96447577">
    <tag k="addr:housenumber" v="67"/>
    <tag k="addr:street" v="Adele Place"/>
    <tag k="addr:state" v="VT"/>
    <tag k="ref:vcgi:esiteid" v="215131"/>
  </node>
  <node id="-1467" visible="true" lat="43.59007644" lon="-72.96553802">
    <tag k="addr:housenumber" v="7"/>
    <tag k="addr:street" v="Adele Place"/>
    <tag k="addr:state" v="VT"/>
    <tag k="ref:vcgi:esiteid" v="215133"/>
  </node>
  <node id="-1469" visible="true" lat="43.59008259" lon="-72.96501589">
    <tag k="addr:housenumber" v="41"/>
    <tag k="addr:street" v="Adele Place"/>
    <tag k="addr:state" v="VT"/>
    <tag k="ref:vcgi:esiteid" v="215136"/>
  </node>
  <node id="-1478" visible="true" lat="43.58931419" lon="-72.96232736">
    <tag k="addr:housenumber" v="2852"/>
    <tag k="addr:street" v="Cold River Road"/>
    <tag k="addr:state" v="VT"/>
    <tag k="ref:vcgi:esiteid" v="215148"/>
  </node>
  <node id="-1483" visible="true" lat="43.58891777" lon="-72.96228775">
    <tag k="addr:housenumber" v="2837"/>
    <tag k="addr:street" v="Cold River Road"/>
    <tag k="addr:state" v="VT"/>
    <tag k="ref:vcgi:esiteid" v="215153"/>
  </node>
  <node id="-1488" visible="true" lat="43.58862359" lon="-72.96170574">
    <tag k="addr:housenumber" v="2797"/>
    <tag k="addr:street" v="Cold River Road"/>
    <tag k="addr:state" v="VT"/>
    <tag k="ref:vcgi:esiteid" v="215159"/>
  </node>
  <node id="-1492" visible="true" lat="43.58855814" lon="-72.9596377">
    <tag k="addr:housenumber" v="2694"/>
    <tag k="addr:street" v="Cold River Road"/>
    <tag k="addr:state" v="VT"/>
    <tag k="ref:vcgi:esiteid" v="215163"/>
  </node>
  <node id="-1499" visible="true" lat="43.58833296" lon="-72.95945096">
    <tag k="addr:housenumber" v="2686"/>
    <tag k="addr:street" v="Cold River Road"/>
    <tag k="addr:state" v="VT"/>
    <tag k="ref:vcgi:esiteid" v="215170"/>
  </node>
  <node id="-1501" visible="true" lat="43.58815669" lon="-72.96055364">
    <tag k="addr:housenumber" v="2735"/>
    <tag k="addr:street" v="Cold River Road"/>
    <tag k="addr:state" v="VT"/>
    <tag k="ref:vcgi:esiteid" v="215172"/>
  </node>
  <node id="-1506" visible="true" lat="43.58782261" lon="-72.95998703">
    <tag k="addr:housenumber" v="2705"/>
    <tag k="addr:street" v="Cold River Road"/>
    <tag k="addr:state" v="VT"/>
    <tag k="ref:vcgi:esiteid" v="215177"/>
  </node>
  <node id="-1511" visible="true" lat="43.58772982" lon="-72.95832502">
    <tag k="addr:housenumber" v="2628"/>
    <tag k="addr:street" v="Cold River Road"/>
    <tag k="addr:state" v="VT"/>
    <tag k="ref:vcgi:esiteid" v="215182"/>
  </node>
  <node id="-1519" visible="true" lat="43.58730399" lon="-72.95701337">
    <tag k="addr:housenumber" v="2540"/>
    <tag k="addr:street" v="Cold River Road"/>
    <tag k="addr:state" v="VT"/>
    <tag k="ref:vcgi:esiteid" v="215190"/>
  </node>
  <node id="-1520" visible="true" lat="43.58704306" lon="-72.95877179">
    <tag k="addr:housenumber" v="2621"/>
    <tag k="addr:street" v="Cold River Road"/>
    <tag k="addr:state" v="VT"/>
    <tag k="ref:vcgi:esiteid" v="215191"/>
  </node>
  <node id="-1521" visible="true" lat="43.58694326" lon="-72.95635016">
    <tag k="addr:housenumber" v="2511"/>
    <tag k="addr:street" v="Cold River Road"/>
    <tag k="addr:state" v="VT"/>
    <tag k="ref:vcgi:esiteid" v="215192"/>
  </node>
  <node id="-1522" visible="true" lat="43.58694077" lon="-72.9575104">
    <tag k="addr:housenumber" v="2567"/>
    <tag k="addr:street" v="Cold River Road"/>
    <tag k="addr:state" v="VT"/>
    <tag k="ref:vcgi:esiteid" v="215193"/>
  </node>
  <node id="-1523" visible="true" lat="43.58696409" lon="-72.95695447">
    <tag k="addr:housenumber" v="2541"/>
    <tag k="addr:street" v="Cold River Road"/>
    <tag k="addr:state" v="VT"/>
    <tag k="ref:vcgi:esiteid" v="215194"/>
  </node>
  <node id="-1525" visible="true" lat="43.58677859" lon="-72.95555717">
    <tag k="addr:housenumber" v="2475"/>
    <tag k="addr:street" v="Cold River Road"/>
    <tag k="addr:state" v="VT"/>
    <tag k="ref:vcgi:esiteid" v="215196"/>
  </node>
  <node id="-1526" visible="true" lat="43.58679426" lon="-72.95511204">
    <tag k="addr:housenumber" v="2445"/>
    <tag k="addr:street" v="Cold River Road"/>
    <tag k="addr:state" v="VT"/>
    <tag k="ref:vcgi:esiteid" v="215197"/>
  </node>
  <node id="-1527" visible="true" lat="43.5868381" lon="-72.95802156">
    <tag k="addr:housenumber" v="2579"/>
    <tag k="addr:street" v="Cold River Road"/>
    <tag k="addr:state" v="VT"/>
    <tag k="ref:vcgi:esiteid" v="215198"/>
  </node>
  <node id="-1528" visible="true" lat="43.58682657" lon="-72.96013207">
    <tag k="addr:housenumber" v="127"/>
    <tag k="addr:street" v="Quality Lane"/>
    <tag k="addr:state" v="VT"/>
    <tag k="ref:vcgi:esiteid" v="215199"/>
  </node>
  <node id="-1531" visible="true" lat="43.58669209" lon="-72.96120483">
    <tag k="addr:housenumber" v="112"/>
    <tag k="addr:street" v="Quality Lane"/>
    <tag k="addr:state" v="VT"/>
    <tag k="ref:vcgi:esiteid" v="215202"/>
  </node>
  <node id="-1543" visible="true" lat="43.58632868" lon="-72.95983273">
    <tag k="addr:housenumber" v="157"/>
    <tag k="addr:street" v="Quality Lane"/>
    <tag k="addr:state" v="VT"/>
    <tag k="ref:vcgi:esiteid" v="215215"/>
  </node>
  <node id="-1548" visible="true" lat="43.58603475" lon="-72.95966716">
    <tag k="addr:housenumber" v="175"/>
    <tag k="addr:street" v="Quality Lane"/>
    <tag k="addr:state" v="VT"/>
    <tag k="ref:vcgi:esiteid" v="215222"/>
  </node>
  <node id="-1550" visible="true" lat="43.58596586" lon="-72.95127935">
    <tag k="addr:housenumber" v="2240"/>
    <tag k="addr:street" v="Cold River Road"/>
    <tag k="addr:state" v="VT"/>
    <tag k="ref:vcgi:esiteid" v="215225"/>
  </node>
  <node id="-1551" visible="true" lat="43.58562441" lon="-72.9607871">
    <tag k="addr:housenumber" v="182"/>
    <tag k="addr:street" v="Quality Lane"/>
    <tag k="addr:state" v="VT"/>
    <tag k="ref:vcgi:esiteid" v="215226"/>
  </node>
  <node id="-1555" visible="true" lat="43.5849535" lon="-72.96196475">
    <tag k="addr:housenumber" v="280"/>
    <tag k="addr:street" v="Seward Road"/>
    <tag k="addr:state" v="VT"/>
    <tag k="ref:vcgi:esiteid" v="215233"/>
  </node>
  <node id="-1559" visible="true" lat="43.58515855" lon="-72.95918265">
    <tag k="addr:housenumber" v="251"/>
    <tag k="addr:street" v="Quality Lane"/>
    <tag k="addr:state" v="VT"/>
    <tag k="ref:vcgi:esiteid" v="215237"/>
  </node>
  <node id="-1562" visible="true" lat="43.58436434" lon="-72.96033355">
    <tag k="addr:housenumber" v="280"/>
    <tag k="addr:street" v="Quality Lane"/>
    <tag k="addr:state" v="VT"/>
    <tag k="ref:vcgi:esiteid" v="215241"/>
  </node>
  <node id="-1563" visible="true" lat="43.58405406" lon="-72.95102166">
    <tag k="addr:housenumber" v="2112"/>
    <tag k="addr:street" v="Cold River Road"/>
    <tag k="addr:state" v="VT"/>
    <tag k="ref:vcgi:esiteid" v="215243"/>
  </node>
  <node id="-1566" visible="true" lat="43.58285632" lon="-72.95984365">
    <tag k="addr:housenumber" v="378"/>
    <tag k="addr:street" v="Quality Lane"/>
    <tag k="addr:state" v="VT"/>
    <tag k="ref:vcgi:esiteid" v="215247"/>
  </node>
  <node id="-1567" visible="true" lat="43.58277893" lon="-72.95796204">
    <tag k="addr:housenumber" v="453"/>
    <tag k="addr:street" v="Quality Lane"/>
    <tag k="addr:state" v="VT"/>
    <tag k="ref:vcgi:esiteid" v="215248"/>
  </node>
  <node id="-1570" visible="true" lat="43.58226686" lon="-72.9593875">
    <tag k="addr:housenumber" v="414"/>
    <tag k="addr:street" v="Quality Lane"/>
    <tag k="addr:state" v="VT"/>
    <tag k="ref:vcgi:esiteid" v="215252"/>
  </node>
  <node id="-1608" visible="true" lat="43.65603795" lon="-72.98237099">
    <tag k="addr:housenumber" v="254"/>
    <tag k="addr:street" v="Prospect Hill Road"/>
    <tag k="addr:state" v="VT"/>
    <tag k="ref:vcgi:esiteid" v="215301"/>
  </node>
  <node id="-1609" visible="true" lat="43.65480576" lon="-72.9816902">
    <tag k="addr:housenumber" v="280"/>
    <tag k="addr:street" v="Prospect Hill Road"/>
    <tag k="addr:state" v="VT"/>
    <tag k="ref:vcgi:esiteid" v="215302"/>
  </node>
  <node id="-1614" visible="true" lat="43.65480018" lon="-72.99601915">
    <tag k="addr:housenumber" v="1786"/>
    <tag k="addr:street" v="North Grove Street"/>
    <tag k="addr:state" v="VT"/>
    <tag k="ref:vcgi:esiteid" v="215307"/>
  </node>
  <node id="-1621" visible="true" lat="43.65934296" lon="-72.96884772">
    <tag k="addr:housenumber" v="549"/>
    <tag k="addr:street" v="Curtis Brook Road"/>
    <tag k="addr:state" v="VT"/>
    <tag k="ref:vcgi:esiteid" v="215315"/>
  </node>
  <node id="-1622" visible="true" lat="43.66054601" lon="-72.97022989">
    <tag k="addr:housenumber" v="615"/>
    <tag k="addr:street" v="Curtis Brook Road"/>
    <tag k="addr:state" v="VT"/>
    <tag k="ref:vcgi:esiteid" v="215316"/>
  </node>
  <node id="-1641" visible="true" lat="43.59015707" lon="-72.96239737">
    <tag k="addr:housenumber" v="39"/>
    <tag k="addr:street" v="Miller Place"/>
    <tag k="addr:state" v="VT"/>
    <tag k="ref:vcgi:esiteid" v="215338"/>
  </node>
  <node id="-1665" visible="true" lat="43.65240271" lon="-72.98536114">
    <tag k="addr:housenumber" v="2008"/>
    <tag k="addr:street" v="U.S. Route 7 North"/>
    <tag k="addr:state" v="VT"/>
    <tag k="ref:vcgi:esiteid" v="215364"/>
  </node>
  <node id="-1667" visible="true" lat="43.58341621" lon="-72.95892675">
    <tag k="addr:housenumber" v="363"/>
    <tag k="addr:street" v="Quality Lane"/>
    <tag k="addr:state" v="VT"/>
    <tag k="ref:vcgi:esiteid" v="215366"/>
  </node>
  <node id="-1673" visible="true" lat="43.58767696" lon="-72.95937557">
    <tag k="addr:housenumber" v="2667"/>
    <tag k="addr:street" v="Cold River Road"/>
    <tag k="addr:state" v="VT"/>
    <tag k="ref:vcgi:esiteid" v="215372"/>
  </node>
  <node id="-1675" visible="true" lat="43.64231989" lon="-72.97430475">
    <tag k="addr:housenumber" v="366"/>
    <tag k="addr:street" v="East Pittsford Road"/>
    <tag k="addr:state" v="VT"/>
    <tag k="ref:vcgi:esiteid" v="215374"/>
  </node>
  <node id="-1682" visible="true" lat="43.64376697" lon="-72.98766177">
    <tag k="addr:housenumber" v="65"/>
    <tag k="addr:street" v="Abbey Lane"/>
    <tag k="addr:state" v="VT"/>
    <tag k="ref:vcgi:esiteid" v="215382"/>
  </node>
  <node id="-1683" visible="true" lat="43.64186992" lon="-72.97047268">
    <tag k="addr:housenumber" v="57"/>
    <tag k="addr:street" v="Grover Drive"/>
    <tag k="addr:state" v="VT"/>
    <tag k="ref:vcgi:esiteid" v="215383"/>
  </node>
  <node id="-1690" visible="true" lat="43.65914801" lon="-72.96770361">
    <tag k="addr:housenumber" v="506"/>
    <tag k="addr:street" v="Curtis Brook Road"/>
    <tag k="addr:state" v="VT"/>
    <tag k="ref:vcgi:esiteid" v="215390"/>
  </node>
  <node id="-1706" visible="true" lat="43.64474041" lon="-72.99584981">
    <tag k="addr:housenumber" v="80"/>
    <tag k="addr:street" v="Lester Lane"/>
    <tag k="addr:state" v="VT"/>
    <tag k="ref:vcgi:esiteid" v="215406"/>
  </node>
  <node id="-1707" visible="true" lat="43.58990604" lon="-72.96223943">
    <tag k="addr:housenumber" v="55"/>
    <tag k="addr:street" v="Miller Place"/>
    <tag k="addr:state" v="VT"/>
    <tag k="ref:vcgi:esiteid" v="215407"/>
  </node>
  <node id="-1710" visible="true" lat="43.66057795" lon="-72.96896163">
    <tag k="addr:housenumber" v="597"/>
    <tag k="addr:street" v="Curtis Brook Road"/>
    <tag k="addr:state" v="VT"/>
    <tag k="ref:vcgi:esiteid" v="215410"/>
  </node>
  <node id="-1711" visible="true" lat="43.63653791" lon="-72.97595713">
    <tag k="addr:housenumber" v="747"/>
    <tag k="addr:street" v="U.S. Route 7 North"/>
    <tag k="addr:state" v="VT"/>
    <tag k="ref:vcgi:esiteid" v="215411"/>
  </node>
  <node id="-1713" visible="true" lat="43.64421043" lon="-72.97317156">
    <tag k="addr:housenumber" v="210"/>
    <tag k="addr:street" v="Russell Drive"/>
    <tag k="addr:state" v="VT"/>
    <tag k="ref:vcgi:esiteid" v="215413"/>
  </node>
  <node id="-1717" visible="true" lat="43.58909915" lon="-72.96346179">
    <tag k="addr:housenumber" v="2929"/>
    <tag k="addr:street" v="Cold River Road"/>
    <tag k="addr:state" v="VT"/>
    <tag k="ref:vcgi:esiteid" v="215420"/>
  </node>
  <node id="-1722" visible="true" lat="43.65873382" lon="-72.96730236">
    <tag k="addr:housenumber" v="448"/>
    <tag k="addr:street" v="Curtis Brook Road"/>
    <tag k="addr:state" v="VT"/>
    <tag k="ref:vcgi:esiteid" v="215425"/>
  </node>
  <node id="-1738" visible="true" lat="43.5861379" lon="-72.96686955">
    <tag k="addr:housenumber" v="33"/>
    <tag k="addr:street" v="Seward Road"/>
    <tag k="addr:state" v="VT"/>
    <tag k="ref:vcgi:esiteid" v="215441"/>
  </node>
  <node id="-1748" visible="true" lat="43.58967618" lon="-72.96223431">
    <tag k="addr:housenumber" v="70"/>
    <tag k="addr:street" v="Miller Place"/>
    <tag k="addr:state" v="VT"/>
    <tag k="ref:vcgi:esiteid" v="215451"/>
  </node>
  <node id="-1765" visible="true" lat="43.6418444" lon="-72.97441912">
    <tag k="addr:housenumber" v="326"/>
    <tag k="addr:street" v="East Pittsford Road"/>
    <tag k="addr:state" v="VT"/>
    <tag k="ref:vcgi:esiteid" v="215468"/>
  </node>
  <node id="-1784" visible="true" lat="43.64258285" lon="-72.98759245">
    <tag k="addr:housenumber" v="98"/>
    <tag k="addr:street" v="Abbey Lane"/>
    <tag k="addr:state" v="VT"/>
    <tag k="ref:vcgi:esiteid" v="215488"/>
  </node>
  <node id="-1787" visible="true" lat="43.64089697" lon="-72.97341217">
    <tag k="addr:housenumber" v="66"/>
    <tag k="addr:street" v="Countryside Drive"/>
    <tag k="addr:state" v="VT"/>
    <tag k="ref:vcgi:esiteid" v="215491"/>
  </node>
  <node id="-1788" visible="true" lat="43.64137023" lon="-72.97368281">
    <tag k="addr:housenumber" v="53"/>
    <tag k="addr:street" v="Countryside Drive"/>
    <tag k="addr:state" v="VT"/>
    <tag k="ref:vcgi:esiteid" v="215492"/>
  </node>
  <node id="-1813" visible="true" lat="43.63273528" lon="-73.00333177">
    <tag k="addr:housenumber" v="1812"/>
    <tag k="addr:street" v="McKinley Avenue"/>
    <tag k="addr:state" v="VT"/>
    <tag k="ref:vcgi:esiteid" v="307576"/>
  </node>
  <node id="-1822" visible="true" lat="43.58415991" lon="-72.96851703">
    <tag k="addr:housenumber" v="45"/>
    <tag k="addr:street" v="Farrell Road"/>
    <tag k="addr:state" v="VT"/>
    <tag k="ref:vcgi:esiteid" v="315440"/>
  </node>
  <node id="-1825" visible="true" lat="43.64209308" lon="-72.97228872">
    <tag k="addr:housenumber" v="74"/>
    <tag k="addr:street" v="Russell Drive"/>
    <tag k="addr:state" v="VT"/>
    <tag k="ref:vcgi:esiteid" v="316721"/>
  </node>
  <node id="-1826" visible="true" lat="43.63323924" lon="-73.00069988">
    <tag k="addr:housenumber" v="1800"/>
    <tag k="addr:street" v="McKinley Avenue"/>
    <tag k="addr:state" v="VT"/>
    <tag k="ref:vcgi:esiteid" v="317484"/>
  </node>
  <node id="-1833" visible="true" lat="43.58392923" lon="-72.96973501">
    <tag k="addr:housenumber" v="47"/>
    <tag k="addr:street" v="Farrell Road"/>
    <tag k="addr:state" v="VT"/>
    <tag k="ref:vcgi:esiteid" v="327187"/>
  </node>
  <node id="-1853" visible="true" lat="43.65968916" lon="-72.9784913">
    <tag k="addr:housenumber" v="483"/>
    <tag k="addr:street" v="Prospect Hill Road"/>
    <tag k="addr:state" v="VT"/>
    <tag k="ref:vcgi:esiteid" v="329601"/>
  </node>
  <node id="-1855" visible="true" lat="43.58968821" lon="-72.96276188">
    <tag k="addr:housenumber" v="19"/>
    <tag k="addr:street" v="Miller Place"/>
    <tag k="addr:state" v="VT"/>
    <tag k="ref:vcgi:esiteid" v="330952"/>
  </node>
  <node id="-1866" visible="true" lat="43.63702265" lon="-72.97448647">
    <tag k="addr:housenumber" v="668"/>
    <tag k="addr:street" v="U.S. Route 7 North"/>
    <tag k="addr:state" v="VT"/>
    <tag k="ref:vcgi:esiteid" v="338692"/>
  </node>
  <node id="-1874" visible="true" lat="43.63162872" lon="-72.97023954">
    <tag k="addr:housenumber" v="2143"/>
    <tag k="addr:street" v="Post Road"/>
    <tag k="addr:state" v="VT"/>
    <tag k="ref:vcgi:esiteid" v="341613"/>
  </node>
  <node id="-1888" visible="true" lat="43.58555619" lon="-72.95639987">
    <tag k="addr:housenumber" v="2485"/>
    <tag k="addr:street" v="Cold River Road"/>
    <tag k="addr:state" v="VT"/>
    <tag k="ref:vcgi:esiteid" v="448772"/>
  </node>
</osm>
