<?xml version="1.0" encoding="UTF-8"?>
<osm version="0.6" generator="JOSM">
  <node id="-110" visible="true" lat="44.26082981" lon="-72.09562225">
    <tag k="addr:city" v="Ryegate"/>
    <tag k="addr:housenumber" v="59"/>
    <tag k="addr:street" v="Blaisdell Lane"/>
    <tag k="addr:state" v="VT"/>
    <tag k="ref:vcgi:esiteid" v="215516"/>
  </node>
  <node id="-120" visible="true" lat="44.25778235" lon="-72.08736922">
    <tag k="addr:city" v="Ryegate"/>
    <tag k="addr:housenumber" v="225"/>
    <tag k="addr:street" v="Whitehill Road"/>
    <tag k="addr:state" v="VT"/>
    <tag k="ref:vcgi:esiteid" v="215526"/>
  </node>
  <node id="-128" visible="true" lat="44.25597231" lon="-72.08855055">
    <tag k="addr:city" v="Ryegate"/>
    <tag k="addr:housenumber" v="429"/>
    <tag k="addr:street" v="Whitehill Road"/>
    <tag k="addr:state" v="VT"/>
    <tag k="ref:vcgi:esiteid" v="215534"/>
  </node>
  <node id="-135" visible="true" lat="44.25394604" lon="-72.08403717">
    <tag k="addr:city" v="Ryegate"/>
    <tag k="addr:housenumber" v="3147"/>
    <tag k="addr:street" v="Symes Pond Road"/>
    <tag k="addr:state" v="VT"/>
    <tag k="ref:vcgi:esiteid" v="215541"/>
  </node>
  <node id="-138" visible="true" lat="44.25314514" lon="-72.08367257">
    <tag k="addr:city" v="Ryegate"/>
    <tag k="addr:housenumber" v="3096"/>
    <tag k="addr:street" v="Symes Pond Road"/>
    <tag k="addr:state" v="VT"/>
    <tag k="ref:vcgi:esiteid" v="215544"/>
  </node>
  <node id="-140" visible="true" lat="44.25164197" lon="-72.08504425">
    <tag k="addr:city" v="Ryegate"/>
    <tag k="addr:housenumber" v="2977"/>
    <tag k="addr:street" v="Symes Pond Road"/>
    <tag k="addr:state" v="VT"/>
    <tag k="ref:vcgi:esiteid" v="215546"/>
  </node>
  <node id="-144" visible="true" lat="44.25025771" lon="-72.05869561">
    <tag k="addr:city" v="Ryegate"/>
    <tag k="addr:housenumber" v="6867"/>
    <tag k="addr:street" v="Ryegate Road"/>
    <tag k="addr:state" v="VT"/>
    <tag k="ref:vcgi:esiteid" v="215550"/>
  </node>
  <node id="-145" visible="true" lat="44.25005124" lon="-72.08683716">
    <tag k="addr:city" v="Ryegate"/>
    <tag k="addr:housenumber" v="2830"/>
    <tag k="addr:street" v="Symes Pond Road"/>
    <tag k="addr:state" v="VT"/>
    <tag k="ref:vcgi:esiteid" v="215551"/>
  </node>
  <node id="-153" visible="true" lat="44.24646923" lon="-72.05548798">
    <tag k="addr:city" v="Ryegate"/>
    <tag k="addr:housenumber" v="6727"/>
    <tag k="addr:street" v="Ryegate Road"/>
    <tag k="addr:state" v="VT"/>
    <tag k="ref:vcgi:esiteid" v="215559"/>
  </node>
  <node id="-154" visible="true" lat="44.24630389" lon="-72.05771689">
    <tag k="addr:city" v="Ryegate"/>
    <tag k="addr:housenumber" v="117"/>
    <tag k="addr:street" v="Belleview Drive"/>
    <tag k="addr:state" v="VT"/>
    <tag k="ref:vcgi:esiteid" v="215560"/>
  </node>
  <node id="-158" visible="true" lat="44.24617907" lon="-72.05992726">
    <tag k="addr:city" v="Ryegate"/>
    <tag k="addr:housenumber" v="185"/>
    <tag k="addr:street" v="Belleview Drive"/>
    <tag k="addr:state" v="VT"/>
    <tag k="ref:vcgi:esiteid" v="215564"/>
  </node>
  <node id="-159" visible="true" lat="44.24551174" lon="-72.05564057">
    <tag k="addr:city" v="Ryegate"/>
    <tag k="addr:housenumber" v="6683"/>
    <tag k="addr:street" v="Ryegate Road"/>
    <tag k="addr:state" v="VT"/>
    <tag k="ref:vcgi:esiteid" v="215565"/>
  </node>
  <node id="-165" visible="true" lat="44.24387017" lon="-72.0542369">
    <tag k="addr:city" v="Ryegate"/>
    <tag k="addr:housenumber" v="6469"/>
    <tag k="addr:street" v="Ryegate Road"/>
    <tag k="addr:state" v="VT"/>
    <tag k="ref:vcgi:esiteid" v="215571"/>
  </node>
  <node id="-168" visible="true" lat="44.24256462" lon="-72.05703605">
    <tag k="addr:city" v="Ryegate"/>
    <tag k="addr:housenumber" v="164"/>
    <tag k="addr:street" v="Moore Lane"/>
    <tag k="addr:state" v="VT"/>
    <tag k="ref:vcgi:esiteid" v="215576"/>
  </node>
  <node id="-169" visible="true" lat="44.24207792" lon="-72.05739567">
    <tag k="addr:city" v="Ryegate"/>
    <tag k="addr:housenumber" v="153"/>
    <tag k="addr:street" v="Moore Lane"/>
    <tag k="addr:state" v="VT"/>
    <tag k="ref:vcgi:esiteid" v="215577"/>
  </node>
  <node id="-172" visible="true" lat="44.24214969" lon="-72.05537587">
    <tag k="addr:city" v="Ryegate"/>
    <tag k="addr:housenumber" v="54"/>
    <tag k="addr:street" v="Moore Lane"/>
    <tag k="addr:state" v="VT"/>
    <tag k="ref:vcgi:esiteid" v="215580"/>
  </node>
  <node id="-173" visible="true" lat="44.24071717" lon="-72.05389493">
    <tag k="addr:city" v="Ryegate"/>
    <tag k="addr:housenumber" v="6308"/>
    <tag k="addr:street" v="Ryegate Road"/>
    <tag k="addr:state" v="VT"/>
    <tag k="ref:vcgi:esiteid" v="215581"/>
  </node>
  <node id="-177" visible="true" lat="44.23890734" lon="-72.05611765">
    <tag k="addr:city" v="Ryegate"/>
    <tag k="addr:housenumber" v="6165"/>
    <tag k="addr:street" v="Ryegate Road"/>
    <tag k="addr:state" v="VT"/>
    <tag k="ref:vcgi:esiteid" v="215585"/>
  </node>
  <node id="-181" visible="true" lat="44.23709306" lon="-72.0575757">
    <tag k="addr:city" v="Ryegate"/>
    <tag k="addr:housenumber" v="83"/>
    <tag k="addr:street" v="Campers Way"/>
    <tag k="addr:state" v="VT"/>
    <tag k="ref:vcgi:esiteid" v="215589"/>
  </node>
  <node id="-182" visible="true" lat="44.23646328" lon="-72.05666291">
    <tag k="addr:city" v="Ryegate"/>
    <tag k="addr:housenumber" v="5989"/>
    <tag k="addr:street" v="Ryegate Road"/>
    <tag k="addr:state" v="VT"/>
    <tag k="ref:vcgi:esiteid" v="215590"/>
  </node>
  <node id="-184" visible="true" lat="44.23597574" lon="-72.05680504">
    <tag k="addr:city" v="Ryegate"/>
    <tag k="addr:housenumber" v="5945"/>
    <tag k="addr:street" v="Ryegate Road"/>
    <tag k="addr:state" v="VT"/>
    <tag k="ref:vcgi:esiteid" v="215593"/>
  </node>
  <node id="-185" visible="true" lat="44.23566787" lon="-72.05699953">
    <tag k="addr:city" v="Ryegate"/>
    <tag k="addr:housenumber" v="5935"/>
    <tag k="addr:street" v="Ryegate Road"/>
    <tag k="addr:state" v="VT"/>
    <tag k="ref:vcgi:esiteid" v="215594"/>
  </node>
  <node id="-186" visible="true" lat="44.23537228" lon="-72.08953034">
    <tag k="addr:city" v="Ryegate"/>
    <tag k="addr:housenumber" v="1753"/>
    <tag k="addr:street" v="Symes Pond Road"/>
    <tag k="addr:state" v="VT"/>
    <tag k="ref:vcgi:esiteid" v="215595"/>
  </node>
  <node id="-189" visible="true" lat="44.23468089" lon="-72.05703436">
    <tag k="addr:city" v="Ryegate"/>
    <tag k="addr:housenumber" v="13"/>
    <tag k="addr:street" v="Chamberlin Road"/>
    <tag k="addr:state" v="VT"/>
    <tag k="ref:vcgi:esiteid" v="215598"/>
  </node>
  <node id="-191" visible="true" lat="44.23414506" lon="-72.05709663">
    <tag k="addr:city" v="Ryegate"/>
    <tag k="addr:housenumber" v="5829"/>
    <tag k="addr:street" v="Ryegate Road"/>
    <tag k="addr:state" v="VT"/>
    <tag k="ref:vcgi:esiteid" v="215600"/>
  </node>
  <node id="-192" visible="true" lat="44.23405322" lon="-72.06551994">
    <tag k="addr:city" v="Ryegate"/>
    <tag k="addr:housenumber" v="444"/>
    <tag k="addr:street" v="Chamberlin Road"/>
    <tag k="addr:state" v="VT"/>
    <tag k="ref:vcgi:esiteid" v="215601"/>
  </node>
  <node id="-193" visible="true" lat="44.23408757" lon="-72.06485262">
    <tag k="addr:city" v="Ryegate"/>
    <tag k="addr:housenumber" v="442"/>
    <tag k="addr:street" v="Chamberlin Road"/>
    <tag k="addr:state" v="VT"/>
    <tag k="ref:vcgi:esiteid" v="215602"/>
  </node>
  <node id="-194" visible="true" lat="44.23382222" lon="-72.09001632">
    <tag k="addr:city" v="Ryegate"/>
    <tag k="addr:housenumber" v="1651"/>
    <tag k="addr:street" v="Symes Pond Road"/>
    <tag k="addr:state" v="VT"/>
    <tag k="ref:vcgi:esiteid" v="215603"/>
  </node>
  <node id="-195" visible="true" lat="44.23328838" lon="-72.05747926">
    <tag k="addr:city" v="Ryegate"/>
    <tag k="addr:housenumber" v="5757"/>
    <tag k="addr:street" v="Ryegate Road"/>
    <tag k="addr:state" v="VT"/>
    <tag k="ref:vcgi:esiteid" v="215604"/>
  </node>
  <node id="-196" visible="true" lat="44.23249218" lon="-72.06459748">
    <tag k="addr:city" v="Ryegate"/>
    <tag k="addr:housenumber" v="531"/>
    <tag k="addr:street" v="Chamberlin Road"/>
    <tag k="addr:state" v="VT"/>
    <tag k="ref:vcgi:esiteid" v="215605"/>
  </node>
  <node id="-200" visible="true" lat="44.23137066" lon="-72.06472718">
    <tag k="addr:city" v="Ryegate"/>
    <tag k="addr:housenumber" v="611"/>
    <tag k="addr:street" v="Chamberlin Road"/>
    <tag k="addr:state" v="VT"/>
    <tag k="ref:vcgi:esiteid" v="215609"/>
  </node>
  <node id="-205" visible="true" lat="44.23029873" lon="-72.06574189">
    <tag k="addr:city" v="Ryegate"/>
    <tag k="addr:housenumber" v="678"/>
    <tag k="addr:street" v="Chamberlin Road"/>
    <tag k="addr:state" v="VT"/>
    <tag k="ref:vcgi:esiteid" v="215614"/>
  </node>
  <node id="-206" visible="true" lat="44.22986004" lon="-72.06576478">
    <tag k="addr:city" v="Ryegate"/>
    <tag k="addr:housenumber" v="680"/>
    <tag k="addr:street" v="Chamberlin Road"/>
    <tag k="addr:state" v="VT"/>
    <tag k="ref:vcgi:esiteid" v="215615"/>
  </node>
  <node id="-212" visible="true" lat="44.22773144" lon="-72.08515869">
    <tag k="addr:city" v="Ryegate"/>
    <tag k="addr:housenumber" v="284"/>
    <tag k="addr:street" v="Manchester Drive"/>
    <tag k="addr:state" v="VT"/>
    <tag k="ref:vcgi:esiteid" v="215621"/>
  </node>
  <node id="-224" visible="true" lat="44.22283719" lon="-72.05976044">
    <tag k="addr:city" v="Ryegate"/>
    <tag k="addr:housenumber" v="5009"/>
    <tag k="addr:street" v="Ryegate Road"/>
    <tag k="addr:state" v="VT"/>
    <tag k="ref:vcgi:esiteid" v="215633"/>
  </node>
  <node id="-225" visible="true" lat="44.22224934" lon="-72.09330807">
    <tag k="addr:city" v="Ryegate"/>
    <tag k="addr:housenumber" v="779"/>
    <tag k="addr:street" v="Symes Pond Road"/>
    <tag k="addr:state" v="VT"/>
    <tag k="ref:vcgi:esiteid" v="215634"/>
  </node>
  <node id="-226" visible="true" lat="44.22210693" lon="-72.09056091">
    <tag k="addr:city" v="Ryegate"/>
    <tag k="addr:housenumber" v="818"/>
    <tag k="addr:street" v="Symes Pond Road"/>
    <tag k="addr:state" v="VT"/>
    <tag k="ref:vcgi:esiteid" v="215635"/>
  </node>
  <node id="-233" visible="true" lat="44.2190361" lon="-72.09246826">
    <tag k="addr:city" v="Ryegate"/>
    <tag k="addr:housenumber" v="519"/>
    <tag k="addr:street" v="Symes Pond Road"/>
    <tag k="addr:state" v="VT"/>
    <tag k="ref:vcgi:esiteid" v="215643"/>
  </node>
  <node id="-247" visible="true" lat="44.21562957" lon="-72.09227752">
    <tag k="addr:city" v="Ryegate"/>
    <tag k="addr:housenumber" v="352"/>
    <tag k="addr:street" v="Symes Pond Road"/>
    <tag k="addr:state" v="VT"/>
    <tag k="ref:vcgi:esiteid" v="215657"/>
  </node>
  <node id="-248" visible="true" lat="44.21318984" lon="-72.05712027">
    <tag k="addr:city" v="Ryegate"/>
    <tag k="addr:housenumber" v="247"/>
    <tag k="addr:street" v="Weesner Drive"/>
    <tag k="addr:state" v="VT"/>
    <tag k="ref:vcgi:esiteid" v="215658"/>
  </node>
  <node id="-250" visible="true" lat="44.2142065" lon="-72.09186366">
    <tag k="addr:city" v="Ryegate"/>
    <tag k="addr:housenumber" v="252"/>
    <tag k="addr:street" v="Symes Pond Road"/>
    <tag k="addr:state" v="VT"/>
    <tag k="ref:vcgi:esiteid" v="215660"/>
  </node>
  <node id="-259" visible="true" lat="44.21270669" lon="-72.09169433">
    <tag k="addr:city" v="Ryegate"/>
    <tag k="addr:housenumber" v="152"/>
    <tag k="addr:street" v="Symes Pond Road"/>
    <tag k="addr:state" v="VT"/>
    <tag k="ref:vcgi:esiteid" v="215669"/>
  </node>
  <node id="-265" visible="true" lat="44.21164655" lon="-72.08957471">
    <tag k="addr:city" v="Ryegate"/>
    <tag k="addr:housenumber" v="136"/>
    <tag k="addr:street" v="Nelson Drive"/>
    <tag k="addr:state" v="VT"/>
    <tag k="ref:vcgi:esiteid" v="215675"/>
  </node>
  <node id="-266" visible="true" lat="44.21168341" lon="-72.10391798">
    <tag k="addr:city" v="Ryegate"/>
    <tag k="addr:housenumber" v="218"/>
    <tag k="addr:street" v="North Bayley Hazen Road"/>
    <tag k="addr:state" v="VT"/>
    <tag k="ref:vcgi:esiteid" v="215676"/>
  </node>
  <node id="-267" visible="true" lat="44.211104" lon="-72.09252558">
    <tag k="addr:city" v="Ryegate"/>
    <tag k="addr:housenumber" v="26"/>
    <tag k="addr:street" v="Symes Pond Road"/>
    <tag k="addr:state" v="VT"/>
    <tag k="ref:vcgi:esiteid" v="215677"/>
  </node>
  <node id="-279" visible="true" lat="44.20906299" lon="-72.10105841">
    <tag k="addr:city" v="Ryegate"/>
    <tag k="addr:housenumber" v="118"/>
    <tag k="addr:street" v="East Road"/>
    <tag k="addr:state" v="VT"/>
    <tag k="ref:vcgi:esiteid" v="215689"/>
  </node>
  <node id="-281" visible="true" lat="44.20921586" lon="-72.10408974">
    <tag k="addr:city" v="Ryegate"/>
    <tag k="addr:housenumber" v="47"/>
    <tag k="addr:street" v="North Bayley Hazen Road"/>
    <tag k="addr:state" v="VT"/>
    <tag k="ref:vcgi:esiteid" v="215691"/>
  </node>
  <node id="-283" visible="true" lat="44.20863208" lon="-72.10404082">
    <tag k="addr:city" v="Ryegate"/>
    <tag k="addr:housenumber" v="18"/>
    <tag k="addr:street" v="Witherspoon Road"/>
    <tag k="addr:state" v="VT"/>
    <tag k="ref:vcgi:esiteid" v="215693"/>
  </node>
  <node id="-284" visible="true" lat="44.20842154" lon="-72.10546014">
    <tag k="addr:city" v="Ryegate"/>
    <tag k="addr:housenumber" v="96"/>
    <tag k="addr:street" v="Witherspoon Road"/>
    <tag k="addr:state" v="VT"/>
    <tag k="ref:vcgi:esiteid" v="215694"/>
  </node>
  <node id="-285" visible="true" lat="44.20840072" lon="-72.10627746">
    <tag k="addr:city" v="Ryegate"/>
    <tag k="addr:housenumber" v="134"/>
    <tag k="addr:street" v="Witherspoon Road"/>
    <tag k="addr:state" v="VT"/>
    <tag k="ref:vcgi:esiteid" v="215695"/>
  </node>
  <node id="-288" visible="true" lat="44.2081225" lon="-72.1052842">
    <tag k="addr:city" v="Ryegate"/>
    <tag k="addr:housenumber" v="73"/>
    <tag k="addr:street" v="Witherspoon Road"/>
    <tag k="addr:state" v="VT"/>
    <tag k="ref:vcgi:esiteid" v="215699"/>
  </node>
  <node id="-289" visible="true" lat="44.20827843" lon="-72.10384452">
    <tag k="addr:city" v="Ryegate"/>
    <tag k="addr:housenumber" v="18"/>
    <tag k="addr:street" v="South Bayley Hazen Road"/>
    <tag k="addr:state" v="VT"/>
    <tag k="ref:vcgi:esiteid" v="215700"/>
  </node>
  <node id="-291" visible="true" lat="44.20809323" lon="-72.10477738">
    <tag k="addr:city" v="Ryegate"/>
    <tag k="addr:housenumber" v="57"/>
    <tag k="addr:street" v="Witherspoon Road"/>
    <tag k="addr:state" v="VT"/>
    <tag k="ref:vcgi:esiteid" v="215702"/>
  </node>
  <node id="-295" visible="true" lat="44.2077775" lon="-72.06432563">
    <tag k="addr:city" v="Ryegate"/>
    <tag k="addr:housenumber" v="341"/>
    <tag k="addr:street" v="Keenan Lane"/>
    <tag k="addr:state" v="VT"/>
    <tag k="ref:vcgi:esiteid" v="215706"/>
  </node>
  <node id="-299" visible="true" lat="44.20772189" lon="-72.10379928">
    <tag k="addr:city" v="Ryegate"/>
    <tag k="addr:housenumber" v="48"/>
    <tag k="addr:street" v="South Bayley Hazen Road"/>
    <tag k="addr:state" v="VT"/>
    <tag k="ref:vcgi:esiteid" v="215710"/>
  </node>
  <node id="-300" visible="true" lat="44.20785067" lon="-72.10318015">
    <tag k="addr:city" v="Ryegate"/>
    <tag k="addr:housenumber" v="55"/>
    <tag k="addr:street" v="South Bayley Hazen Road"/>
    <tag k="addr:state" v="VT"/>
    <tag k="ref:vcgi:esiteid" v="215711"/>
  </node>
  <node id="-301" visible="true" lat="44.20748853" lon="-72.10359621">
    <tag k="addr:city" v="Ryegate"/>
    <tag k="addr:housenumber" v="70"/>
    <tag k="addr:street" v="South Bayley Hazen Road"/>
    <tag k="addr:state" v="VT"/>
    <tag k="ref:vcgi:esiteid" v="215712"/>
  </node>
  <node id="-304" visible="true" lat="44.20706176" lon="-72.06159973">
    <tag k="addr:city" v="Ryegate"/>
    <tag k="addr:housenumber" v="3801"/>
    <tag k="addr:street" v="Ryegate Road"/>
    <tag k="addr:state" v="VT"/>
    <tag k="ref:vcgi:esiteid" v="215715"/>
  </node>
  <node id="-305" visible="true" lat="44.20740865" lon="-72.05922076">
    <tag k="addr:city" v="Ryegate"/>
    <tag k="addr:housenumber" v="352"/>
    <tag k="addr:street" v="Papermill Road"/>
    <tag k="addr:state" v="VT"/>
    <tag k="ref:vcgi:esiteid" v="215716"/>
  </node>
  <node id="-307" visible="true" lat="44.20716105" lon="-72.10368232">
    <tag k="addr:city" v="Ryegate"/>
    <tag k="addr:housenumber" v="100"/>
    <tag k="addr:street" v="South Bayley Hazen Road"/>
    <tag k="addr:state" v="VT"/>
    <tag k="ref:vcgi:esiteid" v="215719"/>
  </node>
  <node id="-310" visible="true" lat="44.20684973" lon="-72.10295105">
    <tag k="addr:city" v="Ryegate"/>
    <tag k="addr:housenumber" v="129"/>
    <tag k="addr:street" v="South Bayley Hazen Road"/>
    <tag k="addr:state" v="VT"/>
    <tag k="ref:vcgi:esiteid" v="215722"/>
  </node>
  <node id="-312" visible="true" lat="44.20653274" lon="-72.10339941">
    <tag k="addr:city" v="Ryegate"/>
    <tag k="addr:housenumber" v="134"/>
    <tag k="addr:street" v="South Bayley Hazen Road"/>
    <tag k="addr:state" v="VT"/>
    <tag k="ref:vcgi:esiteid" v="215724"/>
  </node>
  <node id="-314" visible="true" lat="44.20636787" lon="-72.10227141">
    <tag k="addr:city" v="Ryegate"/>
    <tag k="addr:housenumber" v="149"/>
    <tag k="addr:street" v="South Bayley Hazen Road"/>
    <tag k="addr:state" v="VT"/>
    <tag k="ref:vcgi:esiteid" v="215726"/>
  </node>
  <node id="-318" visible="true" lat="44.20584779" lon="-72.10244106">
    <tag k="addr:city" v="Ryegate"/>
    <tag k="addr:housenumber" v="187"/>
    <tag k="addr:street" v="South Bayley Hazen Road"/>
    <tag k="addr:state" v="VT"/>
    <tag k="ref:vcgi:esiteid" v="215730"/>
  </node>
  <node id="-319" visible="true" lat="44.2057812" lon="-72.0630767">
    <tag k="addr:city" v="Ryegate"/>
    <tag k="addr:housenumber" v="3773"/>
    <tag k="addr:street" v="Ryegate Road"/>
    <tag k="addr:state" v="VT"/>
    <tag k="ref:vcgi:esiteid" v="215731"/>
  </node>
  <node id="-322" visible="true" lat="44.20543651" lon="-72.06213542">
    <tag k="addr:city" v="Ryegate"/>
    <tag k="addr:housenumber" v="81"/>
    <tag k="addr:street" v="Papermill Road"/>
    <tag k="addr:state" v="VT"/>
    <tag k="ref:vcgi:esiteid" v="215734"/>
  </node>
  <node id="-324" visible="true" lat="44.20529628" lon="-72.06185139">
    <tag k="addr:city" v="Ryegate"/>
    <tag k="addr:housenumber" v="101"/>
    <tag k="addr:street" v="Papermill Road"/>
    <tag k="addr:state" v="VT"/>
    <tag k="ref:vcgi:esiteid" v="215736"/>
  </node>
  <node id="-325" visible="true" lat="44.20531845" lon="-72.10313415">
    <tag k="addr:city" v="Ryegate"/>
    <tag k="addr:housenumber" v="216"/>
    <tag k="addr:street" v="South Bayley Hazen Road"/>
    <tag k="addr:state" v="VT"/>
    <tag k="ref:vcgi:esiteid" v="215737"/>
  </node>
  <node id="-326" visible="true" lat="44.2050135" lon="-72.06258777">
    <tag k="addr:city" v="Ryegate"/>
    <tag k="addr:housenumber" v="57"/>
    <tag k="addr:street" v="Papermill Road"/>
    <tag k="addr:state" v="VT"/>
    <tag k="ref:vcgi:esiteid" v="215738"/>
  </node>
  <node id="-327" visible="true" lat="44.2048645" lon="-72.06100463">
    <tag k="addr:city" v="Ryegate"/>
    <tag k="addr:housenumber" v="156"/>
    <tag k="addr:street" v="Papermill Road"/>
    <tag k="addr:state" v="VT"/>
    <tag k="ref:vcgi:esiteid" v="215739"/>
  </node>
  <node id="-330" visible="true" lat="44.20469808" lon="-72.06334912">
    <tag k="addr:city" v="Ryegate"/>
    <tag k="addr:housenumber" v="26"/>
    <tag k="addr:street" v="Papermill Road"/>
    <tag k="addr:state" v="VT"/>
    <tag k="ref:vcgi:esiteid" v="215742"/>
  </node>
  <node id="-332" visible="true" lat="44.20469734" lon="-72.0601494">
    <tag k="addr:city" v="Ryegate"/>
    <tag k="addr:housenumber" v="182"/>
    <tag k="addr:street" v="Papermill Road"/>
    <tag k="addr:state" v="VT"/>
    <tag k="ref:vcgi:esiteid" v="215744"/>
  </node>
  <node id="-333" visible="true" lat="44.20460128" lon="-72.06117248">
    <tag k="addr:city" v="Ryegate"/>
    <tag k="addr:housenumber" v="136"/>
    <tag k="addr:street" v="Wallace Street"/>
    <tag k="addr:state" v="VT"/>
    <tag k="ref:vcgi:esiteid" v="215745"/>
  </node>
  <node id="-334" visible="true" lat="44.20464157" lon="-72.06283526">
    <tag k="addr:city" v="Ryegate"/>
    <tag k="addr:housenumber" v="54"/>
    <tag k="addr:street" v="Papermill Road"/>
    <tag k="addr:state" v="VT"/>
    <tag k="ref:vcgi:esiteid" v="215746"/>
  </node>
  <node id="-335" visible="true" lat="44.20467416" lon="-72.10315739">
    <tag k="addr:city" v="Ryegate"/>
    <tag k="addr:housenumber" v="256"/>
    <tag k="addr:street" v="South Bayley Hazen Road"/>
    <tag k="addr:state" v="VT"/>
    <tag k="ref:vcgi:esiteid" v="215747"/>
  </node>
  <node id="-336" visible="true" lat="44.20464523" lon="-72.06185773">
    <tag k="addr:city" v="Ryegate"/>
    <tag k="addr:housenumber" v="97"/>
    <tag k="addr:street" v="Wallace Street"/>
    <tag k="addr:state" v="VT"/>
    <tag k="ref:vcgi:esiteid" v="215748"/>
  </node>
  <node id="-337" visible="true" lat="44.20455994" lon="-72.06401247">
    <tag k="addr:city" v="Ryegate"/>
    <tag k="addr:housenumber" v="26"/>
    <tag k="addr:street" v="School Street"/>
    <tag k="addr:state" v="VT"/>
    <tag k="ref:vcgi:esiteid" v="215749"/>
  </node>
  <node id="-338" visible="true" lat="44.20435685" lon="-72.06394247">
    <tag k="addr:city" v="Ryegate"/>
    <tag k="addr:housenumber" v="40"/>
    <tag k="addr:street" v="School Street"/>
    <tag k="addr:state" v="VT"/>
    <tag k="ref:vcgi:esiteid" v="215750"/>
  </node>
  <node id="-339" visible="true" lat="44.20412772" lon="-72.06355168">
    <tag k="addr:city" v="Ryegate"/>
    <tag k="addr:housenumber" v="8"/>
    <tag k="addr:street" v="Wallace Street"/>
    <tag k="addr:state" v="VT"/>
    <tag k="ref:vcgi:esiteid" v="215751"/>
  </node>
  <node id="-340" visible="true" lat="44.20437494" lon="-72.06115025">
    <tag k="addr:city" v="Ryegate"/>
    <tag k="addr:housenumber" v="114"/>
    <tag k="addr:street" v="Wallace Street"/>
    <tag k="addr:state" v="VT"/>
    <tag k="ref:vcgi:esiteid" v="215752"/>
  </node>
  <node id="-341" visible="true" lat="44.20412685" lon="-72.06337631">
    <tag k="addr:city" v="Ryegate"/>
    <tag k="addr:housenumber" v="12"/>
    <tag k="addr:street" v="Wallace Street"/>
    <tag k="addr:state" v="VT"/>
    <tag k="ref:vcgi:esiteid" v="215753"/>
  </node>
  <node id="-342" visible="true" lat="44.20409799" lon="-72.06286139">
    <tag k="addr:city" v="Ryegate"/>
    <tag k="addr:housenumber" v="38"/>
    <tag k="addr:street" v="Wallace Street"/>
    <tag k="addr:state" v="VT"/>
    <tag k="ref:vcgi:esiteid" v="215754"/>
  </node>
  <node id="-344" visible="true" lat="44.20412838" lon="-72.06320115">
    <tag k="addr:city" v="Ryegate"/>
    <tag k="addr:housenumber" v="20"/>
    <tag k="addr:street" v="Wallace Street"/>
    <tag k="addr:state" v="VT"/>
    <tag k="ref:vcgi:esiteid" v="215756"/>
  </node>
  <node id="-345" visible="true" lat="44.2041095" lon="-72.0630529">
    <tag k="addr:city" v="Ryegate"/>
    <tag k="addr:housenumber" v="30"/>
    <tag k="addr:street" v="Wallace Street"/>
    <tag k="addr:state" v="VT"/>
    <tag k="ref:vcgi:esiteid" v="215757"/>
  </node>
  <node id="-346" visible="true" lat="44.2041396" lon="-72.06128337">
    <tag k="addr:city" v="Ryegate"/>
    <tag k="addr:housenumber" v="112"/>
    <tag k="addr:street" v="Wallace Street"/>
    <tag k="addr:state" v="VT"/>
    <tag k="ref:vcgi:esiteid" v="215758"/>
  </node>
  <node id="-348" visible="true" lat="44.20404359" lon="-72.06215131">
    <tag k="addr:city" v="Ryegate"/>
    <tag k="addr:housenumber" v="72"/>
    <tag k="addr:street" v="Wallace Street"/>
    <tag k="addr:state" v="VT"/>
    <tag k="ref:vcgi:esiteid" v="215760"/>
  </node>
  <node id="-349" visible="true" lat="44.20418687" lon="-72.06395899">
    <tag k="addr:city" v="Ryegate"/>
    <tag k="addr:housenumber" v="54"/>
    <tag k="addr:street" v="School Street"/>
    <tag k="addr:state" v="VT"/>
    <tag k="ref:vcgi:esiteid" v="215761"/>
  </node>
  <node id="-350" visible="true" lat="44.20400544" lon="-72.06180799">
    <tag k="addr:city" v="Ryegate"/>
    <tag k="addr:housenumber" v="90"/>
    <tag k="addr:street" v="Wallace Street"/>
    <tag k="addr:state" v="VT"/>
    <tag k="ref:vcgi:esiteid" v="215762"/>
  </node>
  <node id="-353" visible="true" lat="44.2039841" lon="-72.06396982">
    <tag k="addr:city" v="Ryegate"/>
    <tag k="addr:housenumber" v="66"/>
    <tag k="addr:street" v="School Street"/>
    <tag k="addr:state" v="VT"/>
    <tag k="ref:vcgi:esiteid" v="215765"/>
  </node>
  <node id="-354" visible="true" lat="44.20410418" lon="-72.10299497">
    <tag k="addr:city" v="Ryegate"/>
    <tag k="addr:housenumber" v="324"/>
    <tag k="addr:street" v="South Bayley Hazen Road"/>
    <tag k="addr:state" v="VT"/>
    <tag k="ref:vcgi:esiteid" v="215766"/>
  </node>
  <node id="-355" visible="true" lat="44.20377572" lon="-72.06397977">
    <tag k="addr:city" v="Ryegate"/>
    <tag k="addr:housenumber" v="76"/>
    <tag k="addr:street" v="School Street"/>
    <tag k="addr:state" v="VT"/>
    <tag k="ref:vcgi:esiteid" v="215767"/>
  </node>
  <node id="-356" visible="true" lat="44.20393765" lon="-72.10189359">
    <tag k="addr:city" v="Ryegate"/>
    <tag k="addr:housenumber" v="327"/>
    <tag k="addr:street" v="South Bayley Hazen Road"/>
    <tag k="addr:state" v="VT"/>
    <tag k="ref:vcgi:esiteid" v="215770"/>
  </node>
  <node id="-357" visible="true" lat="44.20365216" lon="-72.06307723">
    <tag k="addr:city" v="Ryegate"/>
    <tag k="addr:housenumber" v="33"/>
    <tag k="addr:street" v="Farm Street"/>
    <tag k="addr:state" v="VT"/>
    <tag k="ref:vcgi:esiteid" v="215771"/>
  </node>
  <node id="-358" visible="true" lat="44.20372741" lon="-72.06349592">
    <tag k="addr:city" v="Ryegate"/>
    <tag k="addr:housenumber" v="83"/>
    <tag k="addr:street" v="School Street"/>
    <tag k="addr:state" v="VT"/>
    <tag k="ref:vcgi:esiteid" v="215772"/>
  </node>
  <node id="-360" visible="true" lat="44.20356086" lon="-72.06237982">
    <tag k="addr:city" v="Ryegate"/>
    <tag k="addr:housenumber" v="71"/>
    <tag k="addr:street" v="Farm Street"/>
    <tag k="addr:state" v="VT"/>
    <tag k="ref:vcgi:esiteid" v="215775"/>
  </node>
  <node id="-361" visible="true" lat="44.20359675" lon="-72.06272035">
    <tag k="addr:city" v="Ryegate"/>
    <tag k="addr:housenumber" v="57"/>
    <tag k="addr:street" v="Farm Street"/>
    <tag k="addr:state" v="VT"/>
    <tag k="ref:vcgi:esiteid" v="215776"/>
  </node>
  <node id="-363" visible="true" lat="44.20361791" lon="-72.06127147">
    <tag k="addr:city" v="Ryegate"/>
    <tag k="addr:housenumber" v="123"/>
    <tag k="addr:street" v="Farm Street"/>
    <tag k="addr:state" v="VT"/>
    <tag k="ref:vcgi:esiteid" v="215778"/>
  </node>
  <node id="-364" visible="true" lat="44.20351596" lon="-72.06201272">
    <tag k="addr:city" v="Ryegate"/>
    <tag k="addr:housenumber" v="91"/>
    <tag k="addr:street" v="Farm Street"/>
    <tag k="addr:state" v="VT"/>
    <tag k="ref:vcgi:esiteid" v="215779"/>
  </node>
  <node id="-365" visible="true" lat="44.2034111" lon="-72.06162261">
    <tag k="addr:city" v="Ryegate"/>
    <tag k="addr:housenumber" v="103"/>
    <tag k="addr:street" v="Farm Street"/>
    <tag k="addr:state" v="VT"/>
    <tag k="ref:vcgi:esiteid" v="215780"/>
  </node>
  <node id="-366" visible="true" lat="44.20353813" lon="-72.06403779">
    <tag k="addr:city" v="Ryegate"/>
    <tag k="addr:housenumber" v="100"/>
    <tag k="addr:street" v="School Street"/>
    <tag k="addr:state" v="VT"/>
    <tag k="ref:vcgi:esiteid" v="215781"/>
  </node>
  <node id="-368" visible="true" lat="44.20341862" lon="-72.06357219">
    <tag k="addr:city" v="Ryegate"/>
    <tag k="addr:housenumber" v="101"/>
    <tag k="addr:street" v="School Street"/>
    <tag k="addr:state" v="VT"/>
    <tag k="ref:vcgi:esiteid" v="215783"/>
  </node>
  <node id="-369" visible="true" lat="44.20324574" lon="-72.06243679">
    <tag k="addr:city" v="Ryegate"/>
    <tag k="addr:housenumber" v="60"/>
    <tag k="addr:street" v="Farm Street"/>
    <tag k="addr:state" v="VT"/>
    <tag k="ref:vcgi:esiteid" v="215784"/>
  </node>
  <node id="-370" visible="true" lat="44.2033656" lon="-72.0632201">
    <tag k="addr:city" v="Ryegate"/>
    <tag k="addr:housenumber" v="38"/>
    <tag k="addr:street" v="Farm Street"/>
    <tag k="addr:state" v="VT"/>
    <tag k="ref:vcgi:esiteid" v="215785"/>
  </node>
  <node id="-371" visible="true" lat="44.20329908" lon="-72.06284943">
    <tag k="addr:city" v="Ryegate"/>
    <tag k="addr:housenumber" v="56"/>
    <tag k="addr:street" v="Farm Street"/>
    <tag k="addr:state" v="VT"/>
    <tag k="ref:vcgi:esiteid" v="215786"/>
  </node>
  <node id="-372" visible="true" lat="44.20318747" lon="-72.06209641">
    <tag k="addr:city" v="Ryegate"/>
    <tag k="addr:housenumber" v="90"/>
    <tag k="addr:street" v="Farm Street"/>
    <tag k="addr:state" v="VT"/>
    <tag k="ref:vcgi:esiteid" v="215787"/>
  </node>
  <node id="-375" visible="true" lat="44.2026212" lon="-72.06115572">
    <tag k="addr:city" v="Ryegate"/>
    <tag k="addr:housenumber" v="118"/>
    <tag k="addr:street" v="Farm Street"/>
    <tag k="addr:state" v="VT"/>
    <tag k="ref:vcgi:esiteid" v="215790"/>
  </node>
  <node id="-377" visible="true" lat="44.20245101" lon="-72.05928237">
    <tag k="addr:city" v="Ryegate"/>
    <tag k="addr:housenumber" v="190"/>
    <tag k="addr:street" v="River Road"/>
    <tag k="addr:state" v="VT"/>
    <tag k="ref:vcgi:esiteid" v="215792"/>
  </node>
  <node id="-378" visible="true" lat="44.20226657" lon="-72.06285745">
    <tag k="addr:city" v="Ryegate"/>
    <tag k="addr:housenumber" v="175"/>
    <tag k="addr:street" v="School Street"/>
    <tag k="addr:state" v="VT"/>
    <tag k="ref:vcgi:esiteid" v="215793"/>
  </node>
  <node id="-379" visible="true" lat="44.20203937" lon="-72.05958992">
    <tag k="addr:city" v="Ryegate"/>
    <tag k="addr:housenumber" v="212"/>
    <tag k="addr:street" v="River Road"/>
    <tag k="addr:state" v="VT"/>
    <tag k="ref:vcgi:esiteid" v="215794"/>
  </node>
  <node id="-396" visible="true" lat="44.20001463" lon="-72.10207932">
    <tag k="addr:city" v="Ryegate"/>
    <tag k="addr:housenumber" v="582"/>
    <tag k="addr:street" v="South Bayley Hazen Road"/>
    <tag k="addr:state" v="VT"/>
    <tag k="ref:vcgi:esiteid" v="215813"/>
  </node>
  <node id="-416" visible="true" lat="44.19744821" lon="-72.09498926">
    <tag k="addr:city" v="Ryegate"/>
    <tag k="addr:housenumber" v="991"/>
    <tag k="addr:street" v="South Bayley Hazen Road"/>
    <tag k="addr:state" v="VT"/>
    <tag k="ref:vcgi:esiteid" v="215834"/>
  </node>
  <node id="-418" visible="true" lat="44.19725799" lon="-72.0968399">
    <tag k="addr:city" v="Ryegate"/>
    <tag k="addr:housenumber" v="899"/>
    <tag k="addr:street" v="South Bayley Hazen Road"/>
    <tag k="addr:state" v="VT"/>
    <tag k="ref:vcgi:esiteid" v="215836"/>
  </node>
  <node id="-442" visible="true" lat="44.19412696" lon="-72.09593593">
    <tag k="addr:city" v="Ryegate"/>
    <tag k="addr:housenumber" v="1114"/>
    <tag k="addr:street" v="South Bayley Hazen Road"/>
    <tag k="addr:state" v="VT"/>
    <tag k="ref:vcgi:esiteid" v="215860"/>
  </node>
  <node id="-451" visible="true" lat="44.19330465" lon="-72.09916952">
    <tag k="addr:city" v="Ryegate"/>
    <tag k="addr:housenumber" v="184"/>
    <tag k="addr:street" v="Ticklenaked Pond Road"/>
    <tag k="addr:state" v="VT"/>
    <tag k="ref:vcgi:esiteid" v="215869"/>
  </node>
  <node id="-452" visible="true" lat="44.19336277" lon="-72.09653337">
    <tag k="addr:city" v="Ryegate"/>
    <tag k="addr:housenumber" v="62"/>
    <tag k="addr:street" v="Ticklenaked Pond Road"/>
    <tag k="addr:state" v="VT"/>
    <tag k="ref:vcgi:esiteid" v="215870"/>
  </node>
  <node id="-454" visible="true" lat="44.19322701" lon="-72.09612861">
    <tag k="addr:city" v="Ryegate"/>
    <tag k="addr:housenumber" v="36"/>
    <tag k="addr:street" v="Ticklenaked Pond Road"/>
    <tag k="addr:state" v="VT"/>
    <tag k="ref:vcgi:esiteid" v="215872"/>
  </node>
  <node id="-455" visible="true" lat="44.19335751" lon="-72.09697019">
    <tag k="addr:city" v="Ryegate"/>
    <tag k="addr:housenumber" v="88"/>
    <tag k="addr:street" v="Ticklenaked Pond Road"/>
    <tag k="addr:state" v="VT"/>
    <tag k="ref:vcgi:esiteid" v="215873"/>
  </node>
  <node id="-457" visible="true" lat="44.19337402" lon="-72.09885927">
    <tag k="addr:city" v="Ryegate"/>
    <tag k="addr:housenumber" v="178"/>
    <tag k="addr:street" v="Ticklenaked Pond Road"/>
    <tag k="addr:state" v="VT"/>
    <tag k="ref:vcgi:esiteid" v="215875"/>
  </node>
  <node id="-458" visible="true" lat="44.19315975" lon="-72.09851452">
    <tag k="addr:city" v="Ryegate"/>
    <tag k="addr:housenumber" v="164"/>
    <tag k="addr:street" v="Ticklenaked Pond Road"/>
    <tag k="addr:state" v="VT"/>
    <tag k="ref:vcgi:esiteid" v="215876"/>
  </node>
  <node id="-459" visible="true" lat="44.19297955" lon="-72.09999024">
    <tag k="addr:city" v="Ryegate"/>
    <tag k="addr:housenumber" v="252"/>
    <tag k="addr:street" v="Ticklenaked Pond Road"/>
    <tag k="addr:state" v="VT"/>
    <tag k="ref:vcgi:esiteid" v="215877"/>
  </node>
  <node id="-460" visible="true" lat="44.19310545" lon="-72.09781698">
    <tag k="addr:city" v="Ryegate"/>
    <tag k="addr:housenumber" v="134"/>
    <tag k="addr:street" v="Ticklenaked Pond Road"/>
    <tag k="addr:state" v="VT"/>
    <tag k="ref:vcgi:esiteid" v="215878"/>
  </node>
  <node id="-462" visible="true" lat="44.19285042" lon="-72.09911374">
    <tag k="addr:city" v="Ryegate"/>
    <tag k="addr:housenumber" v="189"/>
    <tag k="addr:street" v="Ticklenaked Pond Road"/>
    <tag k="addr:state" v="VT"/>
    <tag k="ref:vcgi:esiteid" v="215880"/>
  </node>
  <node id="-464" visible="true" lat="44.19280132" lon="-72.09863528">
    <tag k="addr:city" v="Ryegate"/>
    <tag k="addr:housenumber" v="159"/>
    <tag k="addr:street" v="Ticklenaked Pond Road"/>
    <tag k="addr:state" v="VT"/>
    <tag k="ref:vcgi:esiteid" v="215882"/>
  </node>
  <node id="-466" visible="true" lat="44.19275474" lon="-72.09841303">
    <tag k="addr:city" v="Ryegate"/>
    <tag k="addr:housenumber" v="149"/>
    <tag k="addr:street" v="Ticklenaked Pond Road"/>
    <tag k="addr:state" v="VT"/>
    <tag k="ref:vcgi:esiteid" v="215884"/>
  </node>
  <node id="-467" visible="true" lat="44.19257806" lon="-72.10030565">
    <tag k="addr:city" v="Ryegate"/>
    <tag k="addr:housenumber" v="257"/>
    <tag k="addr:street" v="Ticklenaked Pond Road"/>
    <tag k="addr:state" v="VT"/>
    <tag k="ref:vcgi:esiteid" v="215885"/>
  </node>
  <node id="-468" visible="true" lat="44.19245271" lon="-72.09780224">
    <tag k="addr:city" v="Ryegate"/>
    <tag k="addr:housenumber" v="117"/>
    <tag k="addr:street" v="Ticklenaked Pond Road"/>
    <tag k="addr:state" v="VT"/>
    <tag k="ref:vcgi:esiteid" v="215886"/>
  </node>
  <node id="-470" visible="true" lat="44.19250489" lon="-72.09815765">
    <tag k="addr:city" v="Ryegate"/>
    <tag k="addr:housenumber" v="139"/>
    <tag k="addr:street" v="Ticklenaked Pond Road"/>
    <tag k="addr:state" v="VT"/>
    <tag k="ref:vcgi:esiteid" v="215888"/>
  </node>
  <node id="-475" visible="true" lat="44.1917549" lon="-72.10230289">
    <tag k="addr:city" v="Ryegate"/>
    <tag k="addr:housenumber" v="340"/>
    <tag k="addr:street" v="Ticklenaked Pond Road"/>
    <tag k="addr:state" v="VT"/>
    <tag k="ref:vcgi:esiteid" v="215893"/>
  </node>
  <node id="-486" visible="true" lat="44.19115338" lon="-72.10142997">
    <tag k="addr:city" v="Ryegate"/>
    <tag k="addr:housenumber" v="415"/>
    <tag k="addr:street" v="Ticklenaked Pond Road"/>
    <tag k="addr:state" v="VT"/>
    <tag k="ref:vcgi:esiteid" v="215904"/>
  </node>
  <node id="-493" visible="true" lat="44.18997573" lon="-72.09473419">
    <tag k="addr:city" v="Ryegate"/>
    <tag k="addr:housenumber" v="1549"/>
    <tag k="addr:street" v="Boltonville Road"/>
    <tag k="addr:state" v="VT"/>
    <tag k="ref:vcgi:esiteid" v="215912"/>
  </node>
  <node id="-501" visible="true" lat="44.1891973" lon="-72.10013619">
    <tag k="addr:city" v="Ryegate"/>
    <tag k="addr:housenumber" v="537"/>
    <tag k="addr:street" v="Ticklenaked Pond Road"/>
    <tag k="addr:state" v="VT"/>
    <tag k="ref:vcgi:esiteid" v="215920"/>
  </node>
  <node id="-531" visible="true" lat="44.18801498" lon="-72.092247">
    <tag k="addr:city" v="Ryegate"/>
    <tag k="addr:housenumber" v="1584"/>
    <tag k="addr:street" v="South Bayley Hazen Road"/>
    <tag k="addr:state" v="VT"/>
    <tag k="ref:vcgi:esiteid" v="215951"/>
  </node>
  <node id="-549" visible="true" lat="44.18742656" lon="-72.09294316">
    <tag k="addr:city" v="Ryegate"/>
    <tag k="addr:housenumber" v="9"/>
    <tag k="addr:street" v="Henderson Drive"/>
    <tag k="addr:state" v="VT"/>
    <tag k="ref:vcgi:esiteid" v="215970"/>
  </node>
  <node id="-552" visible="true" lat="44.18688836" lon="-72.09435995">
    <tag k="addr:city" v="Ryegate"/>
    <tag k="addr:housenumber" v="1343"/>
    <tag k="addr:street" v="Boltonville Road"/>
    <tag k="addr:state" v="VT"/>
    <tag k="ref:vcgi:esiteid" v="215974"/>
  </node>
  <node id="-559" visible="true" lat="44.18659973" lon="-72.0890274">
    <tag k="addr:city" v="Ryegate"/>
    <tag k="addr:housenumber" v="1767"/>
    <tag k="addr:street" v="South Bayley Hazen Road"/>
    <tag k="addr:state" v="VT"/>
    <tag k="ref:vcgi:esiteid" v="215982"/>
  </node>
  <node id="-560" visible="true" lat="44.18660157" lon="-72.09256288">
    <tag k="addr:city" v="Ryegate"/>
    <tag k="addr:housenumber" v="83"/>
    <tag k="addr:street" v="Henderson Drive"/>
    <tag k="addr:state" v="VT"/>
    <tag k="ref:vcgi:esiteid" v="215983"/>
  </node>
  <node id="-588" visible="true" lat="44.18561459" lon="-72.10166528">
    <tag k="addr:city" v="Ryegate"/>
    <tag k="addr:housenumber" v="161"/>
    <tag k="addr:street" v="Spruce Drive"/>
    <tag k="addr:state" v="VT"/>
    <tag k="ref:vcgi:esiteid" v="216011"/>
  </node>
  <node id="-620" visible="true" lat="44.18463612" lon="-72.09840253">
    <tag k="addr:city" v="Ryegate"/>
    <tag k="addr:housenumber" v="112"/>
    <tag k="addr:street" v="Pine Drive"/>
    <tag k="addr:state" v="VT"/>
    <tag k="ref:vcgi:esiteid" v="216043"/>
  </node>
  <node id="-634" visible="true" lat="44.18361065" lon="-72.09264577">
    <tag k="addr:city" v="Ryegate"/>
    <tag k="addr:housenumber" v="483"/>
    <tag k="addr:street" v="Henderson Drive"/>
    <tag k="addr:state" v="VT"/>
    <tag k="ref:vcgi:esiteid" v="216058"/>
  </node>
  <node id="-636" visible="true" lat="44.18344955" lon="-72.0913632">
    <tag k="addr:city" v="Ryegate"/>
    <tag k="addr:housenumber" v="537"/>
    <tag k="addr:street" v="Henderson Drive"/>
    <tag k="addr:state" v="VT"/>
    <tag k="ref:vcgi:esiteid" v="216060"/>
  </node>
  <node id="-637" visible="true" lat="44.18268203" lon="-72.10054779">
    <tag k="addr:city" v="Ryegate"/>
    <tag k="addr:housenumber" v="240"/>
    <tag k="addr:street" v="Spruce Drive"/>
    <tag k="addr:state" v="VT"/>
    <tag k="ref:vcgi:esiteid" v="216061"/>
  </node>
  <node id="-638" visible="true" lat="44.18252224" lon="-72.09846182">
    <tag k="addr:city" v="Ryegate"/>
    <tag k="addr:housenumber" v="979"/>
    <tag k="addr:street" v="Boltonville Road"/>
    <tag k="addr:state" v="VT"/>
    <tag k="ref:vcgi:esiteid" v="216062"/>
  </node>
  <node id="-644" visible="true" lat="44.17970982" lon="-72.08563812">
    <tag k="addr:city" v="Ryegate"/>
    <tag k="addr:housenumber" v="2253"/>
    <tag k="addr:street" v="South Bayley Hazen Road"/>
    <tag k="addr:state" v="VT"/>
    <tag k="ref:vcgi:esiteid" v="216068"/>
  </node>
  <node id="-649" visible="true" lat="44.17633913" lon="-72.08470848">
    <tag k="addr:city" v="Ryegate"/>
    <tag k="addr:housenumber" v="2557"/>
    <tag k="addr:street" v="South Bayley Hazen Road"/>
    <tag k="addr:state" v="VT"/>
    <tag k="ref:vcgi:esiteid" v="216074"/>
  </node>
  <node id="-650" visible="true" lat="44.17609423" lon="-72.08708801">
    <tag k="addr:city" v="Ryegate"/>
    <tag k="addr:housenumber" v="2514"/>
    <tag k="addr:street" v="South Bayley Hazen Road"/>
    <tag k="addr:state" v="VT"/>
    <tag k="ref:vcgi:esiteid" v="216075"/>
  </node>
  <node id="-651" visible="true" lat="44.17577158" lon="-72.08524284">
    <tag k="addr:city" v="Ryegate"/>
    <tag k="addr:housenumber" v="2546"/>
    <tag k="addr:street" v="South Bayley Hazen Road"/>
    <tag k="addr:state" v="VT"/>
    <tag k="ref:vcgi:esiteid" v="216076"/>
  </node>
  <node id="-655" visible="true" lat="44.1745665" lon="-72.0783437">
    <tag k="addr:city" v="Ryegate"/>
    <tag k="addr:housenumber" v="2899"/>
    <tag k="addr:street" v="South Bayley Hazen Road"/>
    <tag k="addr:state" v="VT"/>
    <tag k="ref:vcgi:esiteid" v="216080"/>
  </node>
  <node id="-656" visible="true" lat="44.17422485" lon="-72.10062408">
    <tag k="addr:city" v="Ryegate"/>
    <tag k="addr:housenumber" v="375"/>
    <tag k="addr:street" v="Boltonville Road"/>
    <tag k="addr:state" v="VT"/>
    <tag k="ref:vcgi:esiteid" v="216082"/>
  </node>
  <node id="-659" visible="true" lat="44.17369273" lon="-72.0771364">
    <tag k="addr:city" v="Ryegate"/>
    <tag k="addr:housenumber" v="26"/>
    <tag k="addr:street" v="Elliot Drive"/>
    <tag k="addr:state" v="VT"/>
    <tag k="ref:vcgi:esiteid" v="216085"/>
  </node>
  <node id="-660" visible="true" lat="44.17367816" lon="-72.10191109">
    <tag k="addr:city" v="Ryegate"/>
    <tag k="addr:housenumber" v="8"/>
    <tag k="addr:street" v="McLure Road"/>
    <tag k="addr:state" v="VT"/>
    <tag k="ref:vcgi:esiteid" v="216086"/>
  </node>
  <node id="-661" visible="true" lat="44.17357806" lon="-72.08579671">
    <tag k="addr:city" v="Ryegate"/>
    <tag k="addr:housenumber" v="205"/>
    <tag k="addr:street" v="Whitelaw Road"/>
    <tag k="addr:state" v="VT"/>
    <tag k="ref:vcgi:esiteid" v="216087"/>
  </node>
  <node id="-662" visible="true" lat="44.17333696" lon="-72.10064639">
    <tag k="addr:city" v="Ryegate"/>
    <tag k="addr:housenumber" v="344"/>
    <tag k="addr:street" v="Boltonville Road"/>
    <tag k="addr:state" v="VT"/>
    <tag k="ref:vcgi:esiteid" v="216088"/>
  </node>
  <node id="-663" visible="true" lat="44.17302106" lon="-72.07898042">
    <tag k="addr:city" v="Ryegate"/>
    <tag k="addr:housenumber" v="2902"/>
    <tag k="addr:street" v="South Bayley Hazen Road"/>
    <tag k="addr:state" v="VT"/>
    <tag k="ref:vcgi:esiteid" v="216090"/>
  </node>
  <node id="-664" visible="true" lat="44.17311255" lon="-72.07675962">
    <tag k="addr:city" v="Ryegate"/>
    <tag k="addr:housenumber" v="3011"/>
    <tag k="addr:street" v="South Bayley Hazen Road"/>
    <tag k="addr:state" v="VT"/>
    <tag k="ref:vcgi:esiteid" v="216091"/>
  </node>
  <node id="-665" visible="true" lat="44.17262187" lon="-72.07563824">
    <tag k="addr:city" v="Ryegate"/>
    <tag k="addr:housenumber" v="3065"/>
    <tag k="addr:street" v="South Bayley Hazen Road"/>
    <tag k="addr:state" v="VT"/>
    <tag k="ref:vcgi:esiteid" v="216092"/>
  </node>
  <node id="-666" visible="true" lat="44.17268862" lon="-72.07744754">
    <tag k="addr:city" v="Ryegate"/>
    <tag k="addr:housenumber" v="3006"/>
    <tag k="addr:street" v="South Bayley Hazen Road"/>
    <tag k="addr:state" v="VT"/>
    <tag k="ref:vcgi:esiteid" v="216093"/>
  </node>
  <node id="-671" visible="true" lat="44.17169022" lon="-72.07466703">
    <tag k="addr:city" v="Ryegate"/>
    <tag k="addr:housenumber" v="3143"/>
    <tag k="addr:street" v="South Bayley Hazen Road"/>
    <tag k="addr:state" v="VT"/>
    <tag k="ref:vcgi:esiteid" v="216098"/>
  </node>
  <node id="-676" visible="true" lat="44.1711436" lon="-72.07599254">
    <tag k="addr:city" v="Ryegate"/>
    <tag k="addr:housenumber" v="3080"/>
    <tag k="addr:street" v="South Bayley Hazen Road"/>
    <tag k="addr:state" v="VT"/>
    <tag k="ref:vcgi:esiteid" v="216103"/>
  </node>
  <node id="-678" visible="true" lat="44.17017146" lon="-72.0754003">
    <tag k="addr:city" v="Ryegate"/>
    <tag k="addr:housenumber" v="3220"/>
    <tag k="addr:street" v="South Bayley Hazen Road"/>
    <tag k="addr:state" v="VT"/>
    <tag k="ref:vcgi:esiteid" v="216105"/>
  </node>
  <node id="-681" visible="true" lat="44.17024635" lon="-72.07375614">
    <tag k="addr:city" v="Ryegate"/>
    <tag k="addr:housenumber" v="3295"/>
    <tag k="addr:street" v="South Bayley Hazen Road"/>
    <tag k="addr:state" v="VT"/>
    <tag k="ref:vcgi:esiteid" v="216108"/>
  </node>
  <node id="-689" visible="true" lat="44.16720476" lon="-72.07163007">
    <tag k="addr:city" v="Ryegate"/>
    <tag k="addr:housenumber" v="3407"/>
    <tag k="addr:street" v="South Bayley Hazen Road"/>
    <tag k="addr:state" v="VT"/>
    <tag k="ref:vcgi:esiteid" v="216116"/>
  </node>
  <node id="-691" visible="true" lat="44.16694305" lon="-72.07271686">
    <tag k="addr:city" v="Ryegate"/>
    <tag k="addr:housenumber" v="3482"/>
    <tag k="addr:street" v="South Bayley Hazen Road"/>
    <tag k="addr:state" v="VT"/>
    <tag k="ref:vcgi:esiteid" v="216118"/>
  </node>
  <node id="-722" visible="true" lat="44.1864351" lon="-72.09055698">
    <tag k="addr:city" v="Ryegate"/>
    <tag k="addr:housenumber" v="1768"/>
    <tag k="addr:street" v="South Bayley Hazen Road"/>
    <tag k="addr:state" v="VT"/>
    <tag k="ref:vcgi:esiteid" v="216153"/>
  </node>
  <node id="-734" visible="true" lat="44.17816346" lon="-72.10098802">
    <tag k="addr:city" v="Ryegate"/>
    <tag k="addr:housenumber" v="675"/>
    <tag k="addr:street" v="Boltonville Road"/>
    <tag k="addr:state" v="VT"/>
    <tag k="ref:vcgi:esiteid" v="216166"/>
  </node>
  <node id="-735" visible="true" lat="44.19203131" lon="-72.10469668">
    <tag k="addr:city" v="Ryegate"/>
    <tag k="addr:housenumber" v="338"/>
    <tag k="addr:street" v="Ticklenaked Pond Road"/>
    <tag k="addr:state" v="VT"/>
    <tag k="ref:vcgi:esiteid" v="216167"/>
  </node>
  <node id="-739" visible="true" lat="44.20718073" lon="-72.10306847">
    <tag k="addr:city" v="Ryegate"/>
    <tag k="addr:housenumber" v="101"/>
    <tag k="addr:street" v="South Bayley Hazen Road"/>
    <tag k="addr:state" v="VT"/>
    <tag k="ref:vcgi:esiteid" v="216172"/>
  </node>
  <node id="-740" visible="true" lat="44.20748361" lon="-72.10301201">
    <tag k="addr:city" v="Ryegate"/>
    <tag k="addr:housenumber" v="81"/>
    <tag k="addr:street" v="South Bayley Hazen Road"/>
    <tag k="addr:state" v="VT"/>
    <tag k="ref:vcgi:esiteid" v="216173"/>
  </node>
  <node id="-746" visible="true" lat="44.19554868" lon="-72.09491468">
    <tag k="addr:city" v="Ryegate"/>
    <tag k="addr:housenumber" v="1181"/>
    <tag k="addr:street" v="South Bayley Hazen Road"/>
    <tag k="addr:state" v="VT"/>
    <tag k="ref:vcgi:esiteid" v="306503"/>
  </node>
  <node id="-747" visible="true" lat="44.2052199" lon="-72.06114833">
    <tag k="addr:city" v="Ryegate"/>
    <tag k="addr:housenumber" v="105"/>
    <tag k="addr:street" v="Papermill Road"/>
    <tag k="addr:state" v="VT"/>
    <tag k="ref:vcgi:esiteid" v="312521"/>
  </node>
  <node id="-754" visible="true" lat="44.17872226" lon="-72.08593045">
    <tag k="addr:city" v="Ryegate"/>
    <tag k="addr:housenumber" v="2255"/>
    <tag k="addr:street" v="South Bayley Hazen Road"/>
    <tag k="addr:state" v="VT"/>
    <tag k="ref:vcgi:esiteid" v="316724"/>
  </node>
  <node id="-757" visible="true" lat="44.20826441" lon="-72.10303637">
    <tag k="addr:city" v="Ryegate"/>
    <tag k="addr:housenumber" v="19"/>
    <tag k="addr:street" v="South Bayley Hazen Road"/>
    <tag k="addr:state" v="VT"/>
    <tag k="ref:vcgi:esiteid" v="328143"/>
  </node>
  <node id="-759" visible="true" lat="44.25092369" lon="-72.05926188">
    <tag k="addr:city" v="Ryegate"/>
    <tag k="addr:housenumber" v="6869"/>
    <tag k="addr:street" v="Ryegate Road"/>
    <tag k="addr:state" v="VT"/>
    <tag k="ref:vcgi:esiteid" v="329667"/>
  </node>
  <node id="-760" visible="true" lat="44.1677019" lon="-72.07307602">
    <tag k="addr:city" v="Ryegate"/>
    <tag k="addr:housenumber" v="3438"/>
    <tag k="addr:street" v="South Bayley Hazen Road"/>
    <tag k="addr:state" v="VT"/>
    <tag k="ref:vcgi:esiteid" v="331020"/>
  </node>
  <node id="-766" visible="true" lat="44.2028678" lon="-72.06390315">
    <tag k="addr:city" v="Ryegate"/>
    <tag k="addr:housenumber" v="145"/>
    <tag k="addr:street" v="School Street"/>
    <tag k="addr:state" v="VT"/>
    <tag k="ref:vcgi:esiteid" v="335702"/>
  </node>
  <node id="-767" visible="true" lat="44.17463054" lon="-72.09859516">
    <tag k="addr:city" v="Ryegate"/>
    <tag k="addr:housenumber" v="280"/>
    <tag k="addr:street" v="Boltonville Road"/>
    <tag k="addr:state" v="VT"/>
    <tag k="ref:vcgi:esiteid" v="336162"/>
  </node>
  <node id="-769" visible="true" lat="44.20837815" lon="-72.06044116">
    <tag k="addr:city" v="Ryegate"/>
    <tag k="addr:housenumber" v="303"/>
    <tag k="addr:street" v="Papermill Road"/>
    <tag k="addr:state" v="VT"/>
    <tag k="ref:vcgi:esiteid" v="336655"/>
  </node>
  <node id="-775" visible="true" lat="44.22029087" lon="-72.09376241">
    <tag k="addr:city" v="Ryegate"/>
    <tag k="addr:housenumber" v="725"/>
    <tag k="addr:street" v="Symes Pond Road"/>
    <tag k="addr:state" v="VT"/>
    <tag k="ref:vcgi:esiteid" v="340056"/>
  </node>
  <node id="-790" visible="true" lat="44.21366186" lon="-72.0910193">
    <tag k="addr:city" v="Ryegate"/>
    <tag k="addr:housenumber" v="182"/>
    <tag k="addr:street" v="Symes Pond Road"/>
    <tag k="addr:state" v="VT"/>
    <tag k="ref:vcgi:esiteid" v="455363"/>
  </node>
</osm>
