<?xml version="1.0" encoding="UTF-8"?>
<osm version="0.6" generator="JOSM" upload="false">
  <node id="-100" visible="true" lat="44.22394673" lon="-72.13142147">
    <tag k="addr:housenumber" v="220"/>
    <tag k="addr:street" v="Perkins Lane"/>
    <tag k="addr:state" v="VT"/>
    <tag k="ref:vcgi:esiteid" v="50"/>
  </node>
  <node id="-101" visible="true" lat="44.27258085" lon="-72.17826781">
    <tag k="addr:housenumber" v="236"/>
    <tag k="addr:street" v="Elizabeth Farm Road"/>
    <tag k="addr:state" v="VT"/>
    <tag k="ref:vcgi:esiteid" v="215507"/>
  </node>
  <node id="-102" visible="true" lat="44.27142423" lon="-72.15542032">
    <tag k="addr:housenumber" v="946"/>
    <tag k="addr:street" v="Farrow Drive"/>
    <tag k="addr:state" v="VT"/>
    <tag k="ref:vcgi:esiteid" v="215508"/>
  </node>
  <node id="-103" visible="true" lat="44.27053998" lon="-72.16966185">
    <tag k="addr:housenumber" v="205"/>
    <tag k="addr:street" v="McRae Road"/>
    <tag k="addr:state" v="VT"/>
    <tag k="ref:vcgi:esiteid" v="215509"/>
  </node>
  <node id="-104" visible="true" lat="44.26968363" lon="-72.14455053">
    <tag k="addr:housenumber" v="5037"/>
    <tag k="addr:street" v="North Bayley Hazen Road"/>
    <tag k="addr:state" v="VT"/>
    <tag k="ref:vcgi:esiteid" v="215510"/>
  </node>
  <node id="-105" visible="true" lat="44.26596235" lon="-72.15932402">
    <tag k="addr:housenumber" v="493"/>
    <tag k="addr:street" v="Farrow Drive"/>
    <tag k="addr:state" v="VT"/>
    <tag k="ref:vcgi:esiteid" v="215511"/>
  </node>
  <node id="-106" visible="true" lat="44.26556777" lon="-72.13615417">
    <tag k="addr:housenumber" v="4517"/>
    <tag k="addr:street" v="North Bayley Hazen Road"/>
    <tag k="addr:state" v="VT"/>
    <tag k="ref:vcgi:esiteid" v="215512"/>
  </node>
  <node id="-107" visible="true" lat="44.26555036" lon="-72.17388854">
    <tag k="addr:housenumber" v="78"/>
    <tag k="addr:street" v="Stonehouse Drive"/>
    <tag k="addr:state" v="VT"/>
    <tag k="ref:vcgi:esiteid" v="215513"/>
  </node>
  <node id="-108" visible="true" lat="44.26419614" lon="-72.16843352">
    <tag k="addr:housenumber" v="175"/>
    <tag k="addr:street" v="Dunn Drive"/>
    <tag k="addr:state" v="VT"/>
    <tag k="ref:vcgi:esiteid" v="215514"/>
  </node>
  <node id="-109" visible="true" lat="44.26196836" lon="-72.17545256">
    <tag k="addr:housenumber" v="223"/>
    <tag k="addr:street" v="Crown Drive"/>
    <tag k="addr:state" v="VT"/>
    <tag k="ref:vcgi:esiteid" v="215515"/>
  </node>
  <node id="-111" visible="true" lat="44.26106427" lon="-72.15040526">
    <tag k="addr:housenumber" v="1154"/>
    <tag k="addr:street" v="Mosquitoville Road"/>
    <tag k="addr:state" v="VT"/>
    <tag k="ref:vcgi:esiteid" v="215517"/>
  </node>
  <node id="-114" visible="true" lat="44.25907791" lon="-72.08804068">
    <tag k="addr:housenumber" v="278"/>
    <tag k="addr:street" v="Whitehill Road"/>
    <tag k="addr:state" v="VT"/>
    <tag k="ref:vcgi:esiteid" v="215520"/>
  </node>
  <node id="-115" visible="true" lat="44.25886319" lon="-72.1611093">
    <tag k="addr:housenumber" v="513"/>
    <tag k="addr:street" v="Mosquitoville Road"/>
    <tag k="addr:state" v="VT"/>
    <tag k="ref:vcgi:esiteid" v="215521"/>
  </node>
  <node id="-116" visible="true" lat="44.25871823" lon="-72.16132293">
    <tag k="addr:housenumber" v="511"/>
    <tag k="addr:street" v="Mosquitoville Road"/>
    <tag k="addr:state" v="VT"/>
    <tag k="ref:vcgi:esiteid" v="215522"/>
  </node>
  <node id="-117" visible="true" lat="44.25872452" lon="-72.17434016">
    <tag k="addr:housenumber" v="172"/>
    <tag k="addr:street" v="Foley Hill Road"/>
    <tag k="addr:state" v="VT"/>
    <tag k="ref:vcgi:esiteid" v="215523"/>
  </node>
  <node id="-118" visible="true" lat="44.25819453" lon="-72.08297778">
    <tag k="addr:housenumber" v="3449"/>
    <tag k="addr:street" v="Symes Pond Road"/>
    <tag k="addr:state" v="VT"/>
    <tag k="ref:vcgi:esiteid" v="215524"/>
  </node>
  <node id="-119" visible="true" lat="44.25815366" lon="-72.15839324">
    <tag k="addr:housenumber" v="657"/>
    <tag k="addr:street" v="Mosquitoville Road"/>
    <tag k="addr:state" v="VT"/>
    <tag k="ref:vcgi:esiteid" v="215525"/>
  </node>
  <node id="-121" visible="true" lat="44.25802014" lon="-72.15600524">
    <tag k="addr:housenumber" v="776"/>
    <tag k="addr:street" v="Mosquitoville Road"/>
    <tag k="addr:state" v="VT"/>
    <tag k="ref:vcgi:esiteid" v="215527"/>
  </node>
  <node id="-122" visible="true" lat="44.25763486" lon="-72.15683684">
    <tag k="addr:housenumber" v="740"/>
    <tag k="addr:street" v="Mosquitoville Road"/>
    <tag k="addr:state" v="VT"/>
    <tag k="ref:vcgi:esiteid" v="215528"/>
  </node>
  <node id="-123" visible="true" lat="44.25670636" lon="-72.08340252">
    <tag k="addr:housenumber" v="3373"/>
    <tag k="addr:street" v="Symes Pond Road"/>
    <tag k="addr:state" v="VT"/>
    <tag k="ref:vcgi:esiteid" v="215529"/>
  </node>
  <node id="-124" visible="true" lat="44.25712204" lon="-72.12792968">
    <tag k="addr:housenumber" v="3803"/>
    <tag k="addr:street" v="North Bayley Hazen Road"/>
    <tag k="addr:state" v="VT"/>
    <tag k="ref:vcgi:esiteid" v="215530"/>
  </node>
  <node id="-125" visible="true" lat="44.2571771" lon="-72.15908752">
    <tag k="addr:housenumber" v="646"/>
    <tag k="addr:street" v="Mosquitoville Road"/>
    <tag k="addr:state" v="VT"/>
    <tag k="ref:vcgi:esiteid" v="215531"/>
  </node>
  <node id="-126" visible="true" lat="44.25670937" lon="-72.17554661">
    <tag k="addr:housenumber" v="176"/>
    <tag k="addr:street" v="Foley Hill Road"/>
    <tag k="addr:state" v="VT"/>
    <tag k="ref:vcgi:esiteid" v="215532"/>
  </node>
  <node id="-127" visible="true" lat="44.25636133" lon="-72.1755544">
    <tag k="addr:housenumber" v="174"/>
    <tag k="addr:street" v="Foley Hill Road"/>
    <tag k="addr:state" v="VT"/>
    <tag k="ref:vcgi:esiteid" v="215533"/>
  </node>
  <node id="-129" visible="true" lat="44.255926" lon="-72.16958981">
    <tag k="addr:housenumber" v="982"/>
    <tag k="addr:street" v="Peacham Road"/>
    <tag k="addr:state" v="VT"/>
    <tag k="ref:vcgi:esiteid" v="215535"/>
  </node>
  <node id="-130" visible="true" lat="44.25573895" lon="-72.1712987">
    <tag k="addr:housenumber" v="59"/>
    <tag k="addr:street" v="Foley Hill Road"/>
    <tag k="addr:state" v="VT"/>
    <tag k="ref:vcgi:esiteid" v="215536"/>
  </node>
  <node id="-131" visible="true" lat="44.25529098" lon="-72.12564849">
    <tag k="addr:housenumber" v="3625"/>
    <tag k="addr:street" v="North Bayley Hazen Road"/>
    <tag k="addr:state" v="VT"/>
    <tag k="ref:vcgi:esiteid" v="215537"/>
  </node>
  <node id="-132" visible="true" lat="44.25503324" lon="-72.16971526">
    <tag k="addr:housenumber" v="5019"/>
    <tag k="addr:street" v="Hall Road"/>
    <tag k="addr:state" v="VT"/>
    <tag k="ref:vcgi:esiteid" v="215538"/>
  </node>
  <node id="-133" visible="true" lat="44.25445179" lon="-72.07528155">
    <tag k="addr:housenumber" v="608"/>
    <tag k="addr:street" v="Liddle Drive"/>
    <tag k="addr:state" v="VT"/>
    <tag k="ref:vcgi:esiteid" v="215539"/>
  </node>
  <node id="-134" visible="true" lat="44.25449537" lon="-72.16855559">
    <tag k="addr:housenumber" v="4936"/>
    <tag k="addr:street" v="Hall Road"/>
    <tag k="addr:state" v="VT"/>
    <tag k="ref:vcgi:esiteid" v="215540"/>
  </node>
  <node id="-136" visible="true" lat="44.25374685" lon="-72.12475092">
    <tag k="addr:housenumber" v="3503"/>
    <tag k="addr:street" v="North Bayley Hazen Road"/>
    <tag k="addr:state" v="VT"/>
    <tag k="ref:vcgi:esiteid" v="215542"/>
  </node>
  <node id="-137" visible="true" lat="44.25226282" lon="-72.17488978">
    <tag k="addr:housenumber" v="825"/>
    <tag k="addr:street" v="Peacham Road"/>
    <tag k="addr:state" v="VT"/>
    <tag k="ref:vcgi:esiteid" v="215543"/>
  </node>
  <node id="-139" visible="true" lat="44.25214933" lon="-72.17833648">
    <tag k="addr:housenumber" v="384"/>
    <tag k="addr:street" v="Page Drive"/>
    <tag k="addr:state" v="VT"/>
    <tag k="ref:vcgi:esiteid" v="215545"/>
  </node>
  <node id="-141" visible="true" lat="44.25094759" lon="-72.1238076">
    <tag k="addr:housenumber" v="3285"/>
    <tag k="addr:street" v="North Bayley Hazen Road"/>
    <tag k="addr:state" v="VT"/>
    <tag k="ref:vcgi:esiteid" v="215547"/>
  </node>
  <node id="-142" visible="true" lat="44.25059674" lon="-72.16843352">
    <tag k="addr:housenumber" v="4671"/>
    <tag k="addr:street" v="Hall Road"/>
    <tag k="addr:state" v="VT"/>
    <tag k="ref:vcgi:esiteid" v="215548"/>
  </node>
  <node id="-143" visible="true" lat="44.25058149" lon="-72.17938933">
    <tag k="addr:housenumber" v="285"/>
    <tag k="addr:street" v="Page Drive"/>
    <tag k="addr:state" v="VT"/>
    <tag k="ref:vcgi:esiteid" v="215549"/>
  </node>
  <node id="-146" visible="true" lat="44.2500398" lon="-72.17658172">
    <tag k="addr:housenumber" v="182"/>
    <tag k="addr:street" v="Page Drive"/>
    <tag k="addr:state" v="VT"/>
    <tag k="ref:vcgi:esiteid" v="215552"/>
  </node>
  <node id="-147" visible="true" lat="44.24973678" lon="-72.12166595">
    <tag k="addr:housenumber" v="3143"/>
    <tag k="addr:street" v="North Bayley Hazen Road"/>
    <tag k="addr:state" v="VT"/>
    <tag k="ref:vcgi:esiteid" v="215553"/>
  </node>
  <node id="-148" visible="true" lat="44.2489594" lon="-72.11944966">
    <tag k="addr:housenumber" v="3158"/>
    <tag k="addr:street" v="North Bayley Hazen Road"/>
    <tag k="addr:state" v="VT"/>
    <tag k="ref:vcgi:esiteid" v="215554"/>
  </node>
  <node id="-149" visible="true" lat="44.24435751" lon="-72.07963676">
    <tag k="addr:housenumber" v="244"/>
    <tag k="addr:street" v="Guthrie Road"/>
    <tag k="addr:state" v="VT"/>
    <tag k="ref:vcgi:esiteid" v="215555"/>
  </node>
  <node id="-150" visible="true" lat="44.2479112" lon="-72.16666351">
    <tag k="addr:housenumber" v="4470"/>
    <tag k="addr:street" v="Hall Road"/>
    <tag k="addr:state" v="VT"/>
    <tag k="ref:vcgi:esiteid" v="215556"/>
  </node>
  <node id="-151" visible="true" lat="44.24928478" lon="-72.14264149">
    <tag k="addr:housenumber" v="1304"/>
    <tag k="addr:street" v="Meader Road"/>
    <tag k="addr:state" v="VT"/>
    <tag k="ref:vcgi:esiteid" v="215557"/>
  </node>
  <node id="-152" visible="true" lat="44.24723829" lon="-72.09149411">
    <tag k="addr:housenumber" v="156"/>
    <tag k="addr:street" v="North Hunt Mill Road"/>
    <tag k="addr:state" v="VT"/>
    <tag k="ref:vcgi:esiteid" v="215558"/>
  </node>
  <node id="-155" visible="true" lat="44.24663983" lon="-72.12434568">
    <tag k="addr:housenumber" v="334"/>
    <tag k="addr:street" v="Meader Road"/>
    <tag k="addr:state" v="VT"/>
    <tag k="ref:vcgi:esiteid" v="215561"/>
  </node>
  <node id="-156" visible="true" lat="44.24650739" lon="-72.16586242">
    <tag k="addr:housenumber" v="4314"/>
    <tag k="addr:street" v="Hall Road"/>
    <tag k="addr:state" v="VT"/>
    <tag k="ref:vcgi:esiteid" v="215562"/>
  </node>
  <node id="-157" visible="true" lat="44.24638913" lon="-72.13174377">
    <tag k="addr:housenumber" v="682"/>
    <tag k="addr:street" v="Meader Road"/>
    <tag k="addr:state" v="VT"/>
    <tag k="ref:vcgi:esiteid" v="215563"/>
  </node>
  <node id="-160" visible="true" lat="44.24541257" lon="-72.11107574">
    <tag k="addr:housenumber" v="523"/>
    <tag k="addr:street" v="Maple Drive"/>
    <tag k="addr:state" v="VT"/>
    <tag k="ref:vcgi:esiteid" v="215566"/>
  </node>
  <node id="-161" visible="true" lat="44.24491284" lon="-72.11193023">
    <tag k="addr:housenumber" v="392"/>
    <tag k="addr:street" v="Maple Drive"/>
    <tag k="addr:state" v="VT"/>
    <tag k="ref:vcgi:esiteid" v="215567"/>
  </node>
  <node id="-162" visible="true" lat="44.24522053" lon="-72.12183761">
    <tag k="addr:housenumber" v="287"/>
    <tag k="addr:street" v="Meader Road"/>
    <tag k="addr:state" v="VT"/>
    <tag k="ref:vcgi:esiteid" v="215568"/>
  </node>
  <node id="-163" visible="true" lat="44.24485181" lon="-72.1294168">
    <tag k="addr:housenumber" v="630"/>
    <tag k="addr:street" v="Meader Road"/>
    <tag k="addr:state" v="VT"/>
    <tag k="ref:vcgi:esiteid" v="215569"/>
  </node>
  <node id="-164" visible="true" lat="44.24499677" lon="-72.17844329">
    <tag k="addr:housenumber" v="100"/>
    <tag k="addr:street" v="Peacham Road"/>
    <tag k="addr:state" v="VT"/>
    <tag k="ref:vcgi:esiteid" v="215570"/>
  </node>
  <node id="-166" visible="true" lat="44.24414062" lon="-72.11586761">
    <tag k="addr:housenumber" v="2728"/>
    <tag k="addr:street" v="North Bayley Hazen Road"/>
    <tag k="addr:state" v="VT"/>
    <tag k="ref:vcgi:esiteid" v="215572"/>
  </node>
  <node id="-167" visible="true" lat="44.24336789" lon="-72.11439453">
    <tag k="addr:housenumber" v="191"/>
    <tag k="addr:street" v="Maple Drive"/>
    <tag k="addr:state" v="VT"/>
    <tag k="ref:vcgi:esiteid" v="215574"/>
  </node>
  <node id="-170" visible="true" lat="44.24205806" lon="-72.05883252">
    <tag k="addr:housenumber" v="183"/>
    <tag k="addr:street" v="Moore Lane"/>
    <tag k="addr:state" v="VT"/>
    <tag k="ref:vcgi:esiteid" v="215578"/>
  </node>
  <node id="-171" visible="true" lat="44.24236329" lon="-72.16393088">
    <tag k="addr:housenumber" v="4164"/>
    <tag k="addr:street" v="Hall Road"/>
    <tag k="addr:state" v="VT"/>
    <tag k="ref:vcgi:esiteid" v="215579"/>
  </node>
  <node id="-174" visible="true" lat="44.24078775" lon="-72.16827567">
    <tag k="addr:housenumber" v="208"/>
    <tag k="addr:street" v="Brock Road"/>
    <tag k="addr:state" v="VT"/>
    <tag k="ref:vcgi:esiteid" v="215582"/>
  </node>
  <node id="-175" visible="true" lat="44.24017881" lon="-72.16284118">
    <tag k="addr:housenumber" v="3864"/>
    <tag k="addr:street" v="Hall Road"/>
    <tag k="addr:state" v="VT"/>
    <tag k="ref:vcgi:esiteid" v="215583"/>
  </node>
  <node id="-176" visible="true" lat="44.23975918" lon="-72.09964691">
    <tag k="addr:housenumber" v="647"/>
    <tag k="addr:street" v="South Hunt Mill Road"/>
    <tag k="addr:state" v="VT"/>
    <tag k="ref:vcgi:esiteid" v="215584"/>
  </node>
  <node id="-178" visible="true" lat="44.24037981" lon="-72.113043">
    <tag k="addr:housenumber" v="2354"/>
    <tag k="addr:street" v="North Bayley Hazen Road"/>
    <tag k="addr:state" v="VT"/>
    <tag k="ref:vcgi:esiteid" v="215586"/>
  </node>
  <node id="-179" visible="true" lat="44.23748329" lon="-72.09965677">
    <tag k="addr:housenumber" v="629"/>
    <tag k="addr:street" v="South Hunt Mill Road"/>
    <tag k="addr:state" v="VT"/>
    <tag k="ref:vcgi:esiteid" v="215587"/>
  </node>
  <node id="-180" visible="true" lat="44.23684678" lon="-72.05646411">
    <tag k="addr:housenumber" v="30"/>
    <tag k="addr:street" v="Campers Way"/>
    <tag k="addr:state" v="VT"/>
    <tag k="ref:vcgi:esiteid" v="215588"/>
  </node>
  <node id="-183" visible="true" lat="44.23580697" lon="-72.05996421">
    <tag k="addr:housenumber" v="37"/>
    <tag k="addr:street" v="Murray Drive"/>
    <tag k="addr:state" v="VT"/>
    <tag k="ref:vcgi:esiteid" v="215592"/>
  </node>
  <node id="-187" visible="true" lat="44.23527699" lon="-72.08843132">
    <tag k="addr:housenumber" v="1754"/>
    <tag k="addr:street" v="Symes Pond Road"/>
    <tag k="addr:state" v="VT"/>
    <tag k="ref:vcgi:esiteid" v="215596"/>
  </node>
  <node id="-188" visible="true" lat="44.2352271" lon="-72.09615515">
    <tag k="addr:housenumber" v="362"/>
    <tag k="addr:street" v="South Hunt Mill Road"/>
    <tag k="addr:state" v="VT"/>
    <tag k="ref:vcgi:esiteid" v="215597"/>
  </node>
  <node id="-190" visible="true" lat="44.23434066" lon="-72.1140213">
    <tag k="addr:housenumber" v="1987"/>
    <tag k="addr:street" v="North Bayley Hazen Road"/>
    <tag k="addr:state" v="VT"/>
    <tag k="ref:vcgi:esiteid" v="215599"/>
  </node>
  <node id="-197" visible="true" lat="44.23228867" lon="-72.16210159">
    <tag k="addr:housenumber" v="733"/>
    <tag k="addr:street" v="Hooper Hill Road"/>
    <tag k="addr:state" v="VT"/>
    <tag k="ref:vcgi:esiteid" v="215606"/>
  </node>
  <node id="-198" visible="true" lat="44.23191913" lon="-72.05778196">
    <tag k="addr:housenumber" v="5669"/>
    <tag k="addr:street" v="Ryegate Road"/>
    <tag k="addr:state" v="VT"/>
    <tag k="ref:vcgi:esiteid" v="215607"/>
  </node>
  <node id="-199" visible="true" lat="44.23196212" lon="-72.16181886">
    <tag k="addr:housenumber" v="761"/>
    <tag k="addr:street" v="Hooper Hill Road"/>
    <tag k="addr:state" v="VT"/>
    <tag k="ref:vcgi:esiteid" v="215608"/>
  </node>
  <node id="-201" visible="true" lat="44.23140742" lon="-72.14883242">
    <tag k="addr:housenumber" v="3063"/>
    <tag k="addr:street" v="Stone Road"/>
    <tag k="addr:state" v="VT"/>
    <tag k="ref:vcgi:esiteid" v="215610"/>
  </node>
  <node id="-202" visible="true" lat="44.23113632" lon="-72.109375">
    <tag k="addr:housenumber" v="1717"/>
    <tag k="addr:street" v="North Bayley Hazen Road"/>
    <tag k="addr:state" v="VT"/>
    <tag k="ref:vcgi:esiteid" v="215611"/>
  </node>
  <node id="-203" visible="true" lat="44.23035633" lon="-72.1053389">
    <tag k="addr:housenumber" v="1560"/>
    <tag k="addr:street" v="North Bayley Hazen Road"/>
    <tag k="addr:state" v="VT"/>
    <tag k="ref:vcgi:esiteid" v="215612"/>
  </node>
  <node id="-204" visible="true" lat="44.23087248" lon="-72.17242302">
    <tag k="addr:housenumber" v="227"/>
    <tag k="addr:street" v="Hooper Hill Road"/>
    <tag k="addr:state" v="VT"/>
    <tag k="ref:vcgi:esiteid" v="215613"/>
  </node>
  <node id="-207" visible="true" lat="44.2297821" lon="-72.10926818">
    <tag k="addr:housenumber" v="1625"/>
    <tag k="addr:street" v="North Bayley Hazen Road"/>
    <tag k="addr:state" v="VT"/>
    <tag k="ref:vcgi:esiteid" v="215616"/>
  </node>
  <node id="-208" visible="true" lat="44.229149" lon="-72.17553384">
    <tag k="addr:housenumber" v="42"/>
    <tag k="addr:street" v="Hooper Hill Road"/>
    <tag k="addr:state" v="VT"/>
    <tag k="ref:vcgi:esiteid" v="215617"/>
  </node>
  <node id="-209" visible="true" lat="44.22894668" lon="-72.10591125">
    <tag k="addr:housenumber" v="1445"/>
    <tag k="addr:street" v="North Bayley Hazen Road"/>
    <tag k="addr:state" v="VT"/>
    <tag k="ref:vcgi:esiteid" v="215618"/>
  </node>
  <node id="-210" visible="true" lat="44.22880172" lon="-72.10447692">
    <tag k="addr:housenumber" v="1464"/>
    <tag k="addr:street" v="North Bayley Hazen Road"/>
    <tag k="addr:state" v="VT"/>
    <tag k="ref:vcgi:esiteid" v="215619"/>
  </node>
  <node id="-211" visible="true" lat="44.22807954" lon="-72.12243077">
    <tag k="addr:housenumber" v="754"/>
    <tag k="addr:street" v="Blue Mountain Road"/>
    <tag k="addr:state" v="VT"/>
    <tag k="ref:vcgi:esiteid" v="215620"/>
  </node>
  <node id="-213" visible="true" lat="44.22688674" lon="-72.08872222">
    <tag k="addr:housenumber" v="96"/>
    <tag k="addr:street" v="Manchester Drive"/>
    <tag k="addr:state" v="VT"/>
    <tag k="ref:vcgi:esiteid" v="215622"/>
  </node>
  <node id="-214" visible="true" lat="44.22670745" lon="-72.08704376">
    <tag k="addr:housenumber" v="170"/>
    <tag k="addr:street" v="Manchester Drive"/>
    <tag k="addr:state" v="VT"/>
    <tag k="ref:vcgi:esiteid" v="215623"/>
  </node>
  <node id="-215" visible="true" lat="44.22541593" lon="-72.15833221">
    <tag k="addr:housenumber" v="2834"/>
    <tag k="addr:street" v="Hall Road"/>
    <tag k="addr:state" v="VT"/>
    <tag k="ref:vcgi:esiteid" v="215624"/>
  </node>
  <node id="-216" visible="true" lat="44.22455831" lon="-72.14827542">
    <tag k="addr:housenumber" v="2555"/>
    <tag k="addr:street" v="Stone Road"/>
    <tag k="addr:state" v="VT"/>
    <tag k="ref:vcgi:esiteid" v="215625"/>
  </node>
  <node id="-217" visible="true" lat="44.22440885" lon="-72.12304626">
    <tag k="addr:housenumber" v="100"/>
    <tag k="addr:street" v="Collins Lane"/>
    <tag k="addr:state" v="VT"/>
    <tag k="ref:vcgi:esiteid" v="215626"/>
  </node>
  <node id="-218" visible="true" lat="44.22453513" lon="-72.14741678">
    <tag k="addr:housenumber" v="2560"/>
    <tag k="addr:street" v="Stone Road"/>
    <tag k="addr:state" v="VT"/>
    <tag k="ref:vcgi:esiteid" v="215627"/>
  </node>
  <node id="-219" visible="true" lat="44.22367096" lon="-72.08937072">
    <tag k="addr:housenumber" v="960"/>
    <tag k="addr:street" v="Symes Pond Road"/>
    <tag k="addr:state" v="VT"/>
    <tag k="ref:vcgi:esiteid" v="215628"/>
  </node>
  <node id="-220" visible="true" lat="44.22355426" lon="-72.10497602">
    <tag k="addr:housenumber" v="1059"/>
    <tag k="addr:street" v="North Bayley Hazen Road"/>
    <tag k="addr:state" v="VT"/>
    <tag k="ref:vcgi:esiteid" v="215629"/>
  </node>
  <node id="-221" visible="true" lat="44.2236155" lon="-72.14718392">
    <tag k="addr:housenumber" v="2494"/>
    <tag k="addr:street" v="Stone Road"/>
    <tag k="addr:state" v="VT"/>
    <tag k="ref:vcgi:esiteid" v="215630"/>
  </node>
  <node id="-222" visible="true" lat="44.22332547" lon="-72.1670755">
    <tag k="addr:housenumber" v="856"/>
    <tag k="addr:street" v="Renfrew Drive"/>
    <tag k="addr:state" v="VT"/>
    <tag k="ref:vcgi:esiteid" v="215631"/>
  </node>
  <node id="-223" visible="true" lat="44.22329496" lon="-72.16731201">
    <tag k="addr:housenumber" v="855"/>
    <tag k="addr:street" v="Renfrew Drive"/>
    <tag k="addr:state" v="VT"/>
    <tag k="ref:vcgi:esiteid" v="215632"/>
  </node>
  <node id="-227" visible="true" lat="44.22167971" lon="-72.14801836">
    <tag k="addr:housenumber" v="2355"/>
    <tag k="addr:street" v="Stone Road"/>
    <tag k="addr:state" v="VT"/>
    <tag k="ref:vcgi:esiteid" v="215636"/>
  </node>
  <node id="-228" visible="true" lat="44.22159742" lon="-72.14739929">
    <tag k="addr:housenumber" v="2354"/>
    <tag k="addr:street" v="Stone Road"/>
    <tag k="addr:state" v="VT"/>
    <tag k="ref:vcgi:esiteid" v="215637"/>
  </node>
  <node id="-229" visible="true" lat="44.221138" lon="-72.10537719">
    <tag k="addr:housenumber" v="883"/>
    <tag k="addr:street" v="North Bayley Hazen Road"/>
    <tag k="addr:state" v="VT"/>
    <tag k="ref:vcgi:esiteid" v="215638"/>
  </node>
  <node id="-230" visible="true" lat="44.22072767" lon="-72.16753326">
    <tag k="addr:housenumber" v="691"/>
    <tag k="addr:street" v="Renfrew Drive"/>
    <tag k="addr:state" v="VT"/>
    <tag k="ref:vcgi:esiteid" v="215640"/>
  </node>
  <node id="-231" visible="true" lat="44.22045444" lon="-72.12879151">
    <tag k="addr:housenumber" v="221"/>
    <tag k="addr:street" v="Perkins Lane"/>
    <tag k="addr:state" v="VT"/>
    <tag k="ref:vcgi:esiteid" v="215641"/>
  </node>
  <node id="-232" visible="true" lat="44.22012225" lon="-72.14507714">
    <tag k="addr:housenumber" v="2220"/>
    <tag k="addr:street" v="Stone Road"/>
    <tag k="addr:state" v="VT"/>
    <tag k="ref:vcgi:esiteid" v="215642"/>
  </node>
  <node id="-234" visible="true" lat="44.21801078" lon="-72.12745408">
    <tag k="addr:housenumber" v="40"/>
    <tag k="addr:street" v="Perkins Lane"/>
    <tag k="addr:state" v="VT"/>
    <tag k="ref:vcgi:esiteid" v="215644"/>
  </node>
  <node id="-235" visible="true" lat="44.21771024" lon="-72.128013">
    <tag k="addr:housenumber" v="25"/>
    <tag k="addr:street" v="Perkins Lane"/>
    <tag k="addr:state" v="VT"/>
    <tag k="ref:vcgi:esiteid" v="215645"/>
  </node>
  <node id="-236" visible="true" lat="44.21763013" lon="-72.12554108">
    <tag k="addr:housenumber" v="1428"/>
    <tag k="addr:street" v="Witherspoon Road"/>
    <tag k="addr:state" v="VT"/>
    <tag k="ref:vcgi:esiteid" v="215646"/>
  </node>
  <node id="-237" visible="true" lat="44.21750887" lon="-72.12947384">
    <tag k="addr:housenumber" v="1620"/>
    <tag k="addr:street" v="Witherspoon Road"/>
    <tag k="addr:state" v="VT"/>
    <tag k="ref:vcgi:esiteid" v="215647"/>
  </node>
  <node id="-238" visible="true" lat="44.21760973" lon="-72.11911918">
    <tag k="addr:housenumber" v="1120"/>
    <tag k="addr:street" v="Witherspoon Road"/>
    <tag k="addr:state" v="VT"/>
    <tag k="ref:vcgi:esiteid" v="215648"/>
  </node>
  <node id="-239" visible="true" lat="44.21785005" lon="-72.12154127">
    <tag k="addr:housenumber" v="1220"/>
    <tag k="addr:street" v="Witherspoon Road"/>
    <tag k="addr:state" v="VT"/>
    <tag k="ref:vcgi:esiteid" v="215649"/>
  </node>
  <node id="-240" visible="true" lat="44.2172133" lon="-72.13696638">
    <tag k="addr:housenumber" v="290"/>
    <tag k="addr:street" v="Dickey Drive"/>
    <tag k="addr:state" v="VT"/>
    <tag k="ref:vcgi:esiteid" v="215650"/>
  </node>
  <node id="-241" visible="true" lat="44.21690252" lon="-72.1529521">
    <tag k="addr:housenumber" v="3078"/>
    <tag k="addr:street" v="Witherspoon Road"/>
    <tag k="addr:state" v="VT"/>
    <tag k="ref:vcgi:esiteid" v="215651"/>
  </node>
  <node id="-242" visible="true" lat="44.21659469" lon="-72.10549926">
    <tag k="addr:housenumber" v="571"/>
    <tag k="addr:street" v="North Bayley Hazen Road"/>
    <tag k="addr:state" v="VT"/>
    <tag k="ref:vcgi:esiteid" v="215652"/>
  </node>
  <node id="-243" visible="true" lat="44.21681064" lon="-72.15718392">
    <tag k="addr:housenumber" v="3294"/>
    <tag k="addr:street" v="Witherspoon Road"/>
    <tag k="addr:state" v="VT"/>
    <tag k="ref:vcgi:esiteid" v="215653"/>
  </node>
  <node id="-244" visible="true" lat="44.21634033" lon="-72.14219843">
    <tag k="addr:housenumber" v="200"/>
    <tag k="addr:street" v="Frost Drive"/>
    <tag k="addr:state" v="VT"/>
    <tag k="ref:vcgi:esiteid" v="215654"/>
  </node>
  <node id="-245" visible="true" lat="44.21616933" lon="-72.14475932">
    <tag k="addr:housenumber" v="100"/>
    <tag k="addr:street" v="Frost Drive"/>
    <tag k="addr:state" v="VT"/>
    <tag k="ref:vcgi:esiteid" v="215655"/>
  </node>
  <node id="-246" visible="true" lat="44.21604178" lon="-72.14862628">
    <tag k="addr:housenumber" v="2853"/>
    <tag k="addr:street" v="Witherspoon Road"/>
    <tag k="addr:state" v="VT"/>
    <tag k="ref:vcgi:esiteid" v="215656"/>
  </node>
  <node id="-249" visible="true" lat="44.21437483" lon="-72.08283103">
    <tag k="addr:housenumber" v="616"/>
    <tag k="addr:street" v="Nelson Drive"/>
    <tag k="addr:state" v="VT"/>
    <tag k="ref:vcgi:esiteid" v="215659"/>
  </node>
  <node id="-251" visible="true" lat="44.21424484" lon="-72.13180542">
    <tag k="addr:housenumber" v="1799"/>
    <tag k="addr:street" v="Witherspoon Road"/>
    <tag k="addr:state" v="VT"/>
    <tag k="ref:vcgi:esiteid" v="215661"/>
  </node>
  <node id="-252" visible="true" lat="44.21410272" lon="-72.14259258">
    <tag k="addr:housenumber" v="2476"/>
    <tag k="addr:street" v="Witherspoon Road"/>
    <tag k="addr:state" v="VT"/>
    <tag k="ref:vcgi:esiteid" v="215662"/>
  </node>
  <node id="-253" visible="true" lat="44.21393585" lon="-72.10668945">
    <tag k="addr:housenumber" v="409"/>
    <tag k="addr:street" v="North Bayley Hazen Road"/>
    <tag k="addr:state" v="VT"/>
    <tag k="ref:vcgi:esiteid" v="215663"/>
  </node>
  <node id="-254" visible="true" lat="44.21320954" lon="-72.12851707">
    <tag k="addr:housenumber" v="1395"/>
    <tag k="addr:street" v="Witherspoon Road"/>
    <tag k="addr:state" v="VT"/>
    <tag k="ref:vcgi:esiteid" v="215664"/>
  </node>
  <node id="-255" visible="true" lat="44.21360332" lon="-72.13926169">
    <tag k="addr:housenumber" v="2321"/>
    <tag k="addr:street" v="Witherspoon Road"/>
    <tag k="addr:state" v="VT"/>
    <tag k="ref:vcgi:esiteid" v="215665"/>
  </node>
  <node id="-256" visible="true" lat="44.21335385" lon="-72.13519226">
    <tag k="addr:housenumber" v="1974"/>
    <tag k="addr:street" v="Witherspoon Road"/>
    <tag k="addr:state" v="VT"/>
    <tag k="ref:vcgi:esiteid" v="215666"/>
  </node>
  <node id="-257" visible="true" lat="44.21325302" lon="-72.14008331">
    <tag k="addr:housenumber" v="2319"/>
    <tag k="addr:street" v="Witherspoon Road"/>
    <tag k="addr:state" v="VT"/>
    <tag k="ref:vcgi:esiteid" v="215667"/>
  </node>
  <node id="-258" visible="true" lat="44.21317008" lon="-72.11619957">
    <tag k="addr:housenumber" v="243"/>
    <tag k="addr:street" v="Miller Drive"/>
    <tag k="addr:state" v="VT"/>
    <tag k="ref:vcgi:esiteid" v="215668"/>
  </node>
  <node id="-260" visible="true" lat="44.21257904" lon="-72.13884208">
    <tag k="addr:housenumber" v="2225"/>
    <tag k="addr:street" v="Witherspoon Road"/>
    <tag k="addr:state" v="VT"/>
    <tag k="ref:vcgi:esiteid" v="215670"/>
  </node>
  <node id="-261" visible="true" lat="44.21246719" lon="-72.11340332">
    <tag k="addr:housenumber" v="652"/>
    <tag k="addr:street" v="Witherspoon Road"/>
    <tag k="addr:state" v="VT"/>
    <tag k="ref:vcgi:esiteid" v="215671"/>
  </node>
  <node id="-262" visible="true" lat="44.21201987" lon="-72.08337772">
    <tag k="addr:housenumber" v="460"/>
    <tag k="addr:street" v="Nelson Drive"/>
    <tag k="addr:state" v="VT"/>
    <tag k="ref:vcgi:esiteid" v="215672"/>
  </node>
  <node id="-263" visible="true" lat="44.21224165" lon="-72.08761901">
    <tag k="addr:housenumber" v="229"/>
    <tag k="addr:street" v="Nelson Drive"/>
    <tag k="addr:state" v="VT"/>
    <tag k="ref:vcgi:esiteid" v="215673"/>
  </node>
  <node id="-264" visible="true" lat="44.21182016" lon="-72.10483909">
    <tag k="addr:housenumber" v="233"/>
    <tag k="addr:street" v="North Bayley Hazen Road"/>
    <tag k="addr:state" v="VT"/>
    <tag k="ref:vcgi:esiteid" v="215674"/>
  </node>
  <node id="-268" visible="true" lat="44.2112394" lon="-72.15352095">
    <tag k="addr:housenumber" v="71"/>
    <tag k="addr:street" v="Park Drive"/>
    <tag k="addr:state" v="VT"/>
    <tag k="ref:vcgi:esiteid" v="215678"/>
  </node>
  <node id="-269" visible="true" lat="44.21113276" lon="-72.09191583">
    <tag k="addr:housenumber" v="28"/>
    <tag k="addr:street" v="Symes Pond Road"/>
    <tag k="addr:state" v="VT"/>
    <tag k="ref:vcgi:esiteid" v="215679"/>
  </node>
  <node id="-270" visible="true" lat="44.21058105" lon="-72.13679015">
    <tag k="addr:housenumber" v="100"/>
    <tag k="addr:street" v="Buchanan Drive"/>
    <tag k="addr:state" v="VT"/>
    <tag k="ref:vcgi:esiteid" v="215680"/>
  </node>
  <node id="-271" visible="true" lat="44.21033854" lon="-72.15167279">
    <tag k="addr:housenumber" v="1765"/>
    <tag k="addr:street" v="Hall Road"/>
    <tag k="addr:state" v="VT"/>
    <tag k="ref:vcgi:esiteid" v="215681"/>
  </node>
  <node id="-272" visible="true" lat="44.21034749" lon="-72.16417079">
    <tag k="addr:housenumber" v="3775"/>
    <tag k="addr:street" v="Witherspoon Road"/>
    <tag k="addr:state" v="VT"/>
    <tag k="ref:vcgi:esiteid" v="215682"/>
  </node>
  <node id="-273" visible="true" lat="44.21124068" lon="-72.1687445">
    <tag k="addr:housenumber" v="4044"/>
    <tag k="addr:street" v="Witherspoon Road"/>
    <tag k="addr:state" v="VT"/>
    <tag k="ref:vcgi:esiteid" v="215683"/>
  </node>
  <node id="-274" visible="true" lat="44.21045901" lon="-72.14592199">
    <tag k="addr:housenumber" v="1557"/>
    <tag k="addr:street" v="Stone Road"/>
    <tag k="addr:state" v="VT"/>
    <tag k="ref:vcgi:esiteid" v="215684"/>
  </node>
  <node id="-275" visible="true" lat="44.21024721" lon="-72.11113013">
    <tag k="addr:housenumber" v="496"/>
    <tag k="addr:street" v="Witherspoon Road"/>
    <tag k="addr:state" v="VT"/>
    <tag k="ref:vcgi:esiteid" v="215685"/>
  </node>
  <node id="-276" visible="true" lat="44.21004144" lon="-72.15529579">
    <tag k="addr:housenumber" v="195"/>
    <tag k="addr:street" v="Park Drive"/>
    <tag k="addr:state" v="VT"/>
    <tag k="ref:vcgi:esiteid" v="215686"/>
  </node>
  <node id="-277" visible="true" lat="44.2096069" lon="-72.11593899">
    <tag k="addr:housenumber" v="215"/>
    <tag k="addr:street" v="Gilfillan Road"/>
    <tag k="addr:state" v="VT"/>
    <tag k="ref:vcgi:esiteid" v="215687"/>
  </node>
  <node id="-278" visible="true" lat="44.20917896" lon="-72.10949437">
    <tag k="addr:housenumber" v="468"/>
    <tag k="addr:street" v="Witherspoon Road"/>
    <tag k="addr:state" v="VT"/>
    <tag k="ref:vcgi:esiteid" v="215688"/>
  </node>
  <node id="-280" visible="true" lat="44.20923996" lon="-72.13598632">
    <tag k="addr:housenumber" v="209"/>
    <tag k="addr:street" v="Buchanan Drive"/>
    <tag k="addr:state" v="VT"/>
    <tag k="ref:vcgi:esiteid" v="215690"/>
  </node>
  <node id="-282" visible="true" lat="44.20871824" lon="-72.0811126">
    <tag k="addr:housenumber" v="401"/>
    <tag k="addr:street" v="Eastwood Lane"/>
    <tag k="addr:state" v="VT"/>
    <tag k="ref:vcgi:esiteid" v="215692"/>
  </node>
  <node id="-286" visible="true" lat="44.20856094" lon="-72.1574707">
    <tag k="addr:housenumber" v="350"/>
    <tag k="addr:street" v="Park Drive"/>
    <tag k="addr:state" v="VT"/>
    <tag k="ref:vcgi:esiteid" v="215696"/>
  </node>
  <node id="-287" visible="true" lat="44.20851258" lon="-72.11784415">
    <tag k="addr:housenumber" v="340"/>
    <tag k="addr:street" v="Gilfillan Road"/>
    <tag k="addr:state" v="VT"/>
    <tag k="ref:vcgi:esiteid" v="215697"/>
  </node>
  <node id="-290" visible="true" lat="44.20833753" lon="-72.17037902">
    <tag k="addr:housenumber" v="4182"/>
    <tag k="addr:street" v="Witherspoon Road"/>
    <tag k="addr:state" v="VT"/>
    <tag k="ref:vcgi:esiteid" v="215701"/>
  </node>
  <node id="-292" visible="true" lat="44.20832859" lon="-72.13432005">
    <tag k="addr:housenumber" v="313"/>
    <tag k="addr:street" v="Buchanan Drive"/>
    <tag k="addr:state" v="VT"/>
    <tag k="ref:vcgi:esiteid" v="215703"/>
  </node>
  <node id="-293" visible="true" lat="44.20792309" lon="-72.11747572">
    <tag k="addr:housenumber" v="349"/>
    <tag k="addr:street" v="Gilfillan Road"/>
    <tag k="addr:state" v="VT"/>
    <tag k="ref:vcgi:esiteid" v="215704"/>
  </node>
  <node id="-294" visible="true" lat="44.20806434" lon="-72.13598464">
    <tag k="addr:housenumber" v="286"/>
    <tag k="addr:street" v="Buchanan Drive"/>
    <tag k="addr:state" v="VT"/>
    <tag k="ref:vcgi:esiteid" v="215705"/>
  </node>
  <node id="-296" visible="true" lat="44.20784249" lon="-72.10815198">
    <tag k="addr:housenumber" v="225"/>
    <tag k="addr:street" v="Witherspoon Road"/>
    <tag k="addr:state" v="VT"/>
    <tag k="ref:vcgi:esiteid" v="215707"/>
  </node>
  <node id="-297" visible="true" lat="44.20780493" lon="-72.1089438">
    <tag k="addr:housenumber" v="263"/>
    <tag k="addr:street" v="Witherspoon Road"/>
    <tag k="addr:state" v="VT"/>
    <tag k="ref:vcgi:esiteid" v="215708"/>
  </node>
  <node id="-298" visible="true" lat="44.20748398" lon="-72.10742688">
    <tag k="addr:housenumber" v="181"/>
    <tag k="addr:street" v="Witherspoon Road"/>
    <tag k="addr:state" v="VT"/>
    <tag k="ref:vcgi:esiteid" v="215709"/>
  </node>
  <node id="-302" visible="true" lat="44.20743964" lon="-72.11029375">
    <tag k="addr:housenumber" v="68"/>
    <tag k="addr:street" v="Scotch Burn Drive"/>
    <tag k="addr:state" v="VT"/>
    <tag k="ref:vcgi:esiteid" v="215713"/>
  </node>
  <node id="-303" visible="true" lat="44.20733537" lon="-72.13530228">
    <tag k="addr:housenumber" v="338"/>
    <tag k="addr:street" v="Buchanan Drive"/>
    <tag k="addr:state" v="VT"/>
    <tag k="ref:vcgi:esiteid" v="215714"/>
  </node>
  <node id="-306" visible="true" lat="44.2063142" lon="-72.11668008">
    <tag k="addr:housenumber" v="411"/>
    <tag k="addr:street" v="Gilfillan Road"/>
    <tag k="addr:state" v="VT"/>
    <tag k="ref:vcgi:esiteid" v="215718"/>
  </node>
  <node id="-308" visible="true" lat="44.20678472" lon="-72.11075588">
    <tag k="addr:housenumber" v="114"/>
    <tag k="addr:street" v="Scotch Burn Drive"/>
    <tag k="addr:state" v="VT"/>
    <tag k="ref:vcgi:esiteid" v="215720"/>
  </node>
  <node id="-309" visible="true" lat="44.20528431" lon="-72.08577056">
    <tag k="addr:housenumber" v="8"/>
    <tag k="addr:street" v="Hillside Drive"/>
    <tag k="addr:state" v="VT"/>
    <tag k="ref:vcgi:esiteid" v="215721"/>
  </node>
  <node id="-311" visible="true" lat="44.20670102" lon="-72.1699823">
    <tag k="addr:housenumber" v="4313"/>
    <tag k="addr:street" v="Witherspoon Road"/>
    <tag k="addr:state" v="VT"/>
    <tag k="ref:vcgi:esiteid" v="215723"/>
  </node>
  <node id="-313" visible="true" lat="44.20643234" lon="-72.13425445">
    <tag k="addr:housenumber" v="340"/>
    <tag k="addr:street" v="Buchanan Drive"/>
    <tag k="addr:state" v="VT"/>
    <tag k="ref:vcgi:esiteid" v="215725"/>
  </node>
  <node id="-315" visible="true" lat="44.20638814" lon="-72.11909726">
    <tag k="addr:housenumber" v="522"/>
    <tag k="addr:street" v="Gilfillan Road"/>
    <tag k="addr:state" v="VT"/>
    <tag k="ref:vcgi:esiteid" v="215727"/>
  </node>
  <node id="-316" visible="true" lat="44.2063987" lon="-72.14676466">
    <tag k="addr:housenumber" v="1372"/>
    <tag k="addr:street" v="Hall Road"/>
    <tag k="addr:state" v="VT"/>
    <tag k="ref:vcgi:esiteid" v="215728"/>
  </node>
  <node id="-317" visible="true" lat="44.20612762" lon="-72.14730707">
    <tag k="addr:housenumber" v="1371"/>
    <tag k="addr:street" v="Hall Road"/>
    <tag k="addr:state" v="VT"/>
    <tag k="ref:vcgi:esiteid" v="215729"/>
  </node>
  <node id="-320" visible="true" lat="44.20557603" lon="-72.11971811">
    <tag k="addr:housenumber" v="590"/>
    <tag k="addr:street" v="Gilfillan Road"/>
    <tag k="addr:state" v="VT"/>
    <tag k="ref:vcgi:esiteid" v="215732"/>
  </node>
  <node id="-321" visible="true" lat="44.20578923" lon="-72.16914628">
    <tag k="addr:housenumber" v="4606"/>
    <tag k="addr:street" v="Scott Highway"/>
    <tag k="addr:state" v="VT"/>
    <tag k="ref:vcgi:esiteid" v="215733"/>
  </node>
  <node id="-323" visible="true" lat="44.20559195" lon="-72.15176673">
    <tag k="addr:housenumber" v="344"/>
    <tag k="addr:street" v="Welch Drive"/>
    <tag k="addr:state" v="VT"/>
    <tag k="ref:vcgi:esiteid" v="215735"/>
  </node>
  <node id="-328" visible="true" lat="44.20515441" lon="-72.15219116">
    <tag k="addr:housenumber" v="346"/>
    <tag k="addr:street" v="Welch Drive"/>
    <tag k="addr:state" v="VT"/>
    <tag k="ref:vcgi:esiteid" v="215740"/>
  </node>
  <node id="-329" visible="true" lat="44.20462844" lon="-72.08164746">
    <tag k="addr:housenumber" v="1294"/>
    <tag k="addr:street" v="East Road"/>
    <tag k="addr:state" v="VT"/>
    <tag k="ref:vcgi:esiteid" v="215741"/>
  </node>
  <node id="-331" visible="true" lat="44.21169635" lon="-72.07492586">
    <tag k="addr:housenumber" v="133"/>
    <tag k="addr:street" v="Gibson Road"/>
    <tag k="addr:state" v="VT"/>
    <tag k="ref:vcgi:esiteid" v="215743"/>
  </node>
  <node id="-343" visible="true" lat="44.20443725" lon="-72.16477966">
    <tag k="addr:housenumber" v="4384"/>
    <tag k="addr:street" v="Scott Highway"/>
    <tag k="addr:state" v="VT"/>
    <tag k="ref:vcgi:esiteid" v="215755"/>
  </node>
  <node id="-347" visible="true" lat="44.2039411" lon="-72.06262876">
    <tag k="addr:housenumber" v="46"/>
    <tag k="addr:street" v="Wallace Street"/>
    <tag k="addr:state" v="VT"/>
    <tag k="ref:vcgi:esiteid" v="215759"/>
  </node>
  <node id="-351" visible="true" lat="44.20455795" lon="-72.12259568">
    <tag k="addr:housenumber" v="98"/>
    <tag k="addr:street" v="Grandview Drive"/>
    <tag k="addr:state" v="VT"/>
    <tag k="ref:vcgi:esiteid" v="215763"/>
  </node>
  <node id="-352" visible="true" lat="44.20402042" lon="-72.08488859">
    <tag k="addr:housenumber" v="186"/>
    <tag k="addr:street" v="Hillside Drive"/>
    <tag k="addr:state" v="VT"/>
    <tag k="ref:vcgi:esiteid" v="215764"/>
  </node>
  <node id="-359" visible="true" lat="44.20383238" lon="-72.14651539">
    <tag k="addr:housenumber" v="1123"/>
    <tag k="addr:street" v="Stone Road"/>
    <tag k="addr:state" v="VT"/>
    <tag k="ref:vcgi:esiteid" v="215774"/>
  </node>
  <node id="-362" visible="true" lat="44.20356369" lon="-72.06595611">
    <tag k="addr:housenumber" v="22"/>
    <tag k="addr:street" v="Keenan Lane"/>
    <tag k="addr:state" v="VT"/>
    <tag k="ref:vcgi:esiteid" v="215777"/>
  </node>
  <node id="-367" visible="true" lat="44.20354554" lon="-72.06481944">
    <tag k="addr:housenumber" v="3628"/>
    <tag k="addr:street" v="Ryegate Road"/>
    <tag k="addr:state" v="VT"/>
    <tag k="ref:vcgi:esiteid" v="215782"/>
  </node>
  <node id="-373" visible="true" lat="44.20286631" lon="-72.06762555">
    <tag k="addr:housenumber" v="132"/>
    <tag k="addr:street" v="Reservoir Hill Road"/>
    <tag k="addr:state" v="VT"/>
    <tag k="ref:vcgi:esiteid" v="215788"/>
  </node>
  <node id="-374" visible="true" lat="44.20280837" lon="-72.07809448">
    <tag k="addr:housenumber" v="1479"/>
    <tag k="addr:street" v="East Road"/>
    <tag k="addr:state" v="VT"/>
    <tag k="ref:vcgi:esiteid" v="215789"/>
  </node>
  <node id="-376" visible="true" lat="44.20250777" lon="-72.06379771">
    <tag k="addr:housenumber" v="155"/>
    <tag k="addr:street" v="School Street"/>
    <tag k="addr:state" v="VT"/>
    <tag k="ref:vcgi:esiteid" v="215791"/>
  </node>
  <node id="-380" visible="true" lat="44.20229842" lon="-72.12403843">
    <tag k="addr:housenumber" v="215"/>
    <tag k="addr:street" v="Grandview Drive"/>
    <tag k="addr:state" v="VT"/>
    <tag k="ref:vcgi:esiteid" v="215795"/>
  </node>
  <node id="-381" visible="true" lat="44.20210297" lon="-72.14697672">
    <tag k="addr:housenumber" v="1001"/>
    <tag k="addr:street" v="Stone Road"/>
    <tag k="addr:state" v="VT"/>
    <tag k="ref:vcgi:esiteid" v="215796"/>
  </node>
  <node id="-382" visible="true" lat="44.2018894" lon="-72.16149786">
    <tag k="addr:housenumber" v="4184"/>
    <tag k="addr:street" v="Scott Highway"/>
    <tag k="addr:state" v="VT"/>
    <tag k="ref:vcgi:esiteid" v="215797"/>
  </node>
  <node id="-383" visible="true" lat="44.20123337" lon="-72.14640238">
    <tag k="addr:housenumber" v="999"/>
    <tag k="addr:street" v="Stone Road"/>
    <tag k="addr:state" v="VT"/>
    <tag k="ref:vcgi:esiteid" v="215798"/>
  </node>
  <node id="-384" visible="true" lat="44.20165252" lon="-72.0774002">
    <tag k="addr:housenumber" v="1601"/>
    <tag k="addr:street" v="East Road"/>
    <tag k="addr:state" v="VT"/>
    <tag k="ref:vcgi:esiteid" v="215799"/>
  </node>
  <node id="-385" visible="true" lat="44.20149784" lon="-72.08385578">
    <tag k="addr:housenumber" v="360"/>
    <tag k="addr:street" v="Hillside Drive"/>
    <tag k="addr:state" v="VT"/>
    <tag k="ref:vcgi:esiteid" v="215800"/>
  </node>
  <node id="-386" visible="true" lat="44.2016029" lon="-72.0666645">
    <tag k="addr:housenumber" v="3397"/>
    <tag k="addr:street" v="Ryegate Road"/>
    <tag k="addr:state" v="VT"/>
    <tag k="ref:vcgi:esiteid" v="215801"/>
  </node>
  <node id="-387" visible="true" lat="44.20131254" lon="-72.07434289">
    <tag k="addr:housenumber" v="47"/>
    <tag k="addr:street" v="Gibson Road"/>
    <tag k="addr:state" v="VT"/>
    <tag k="ref:vcgi:esiteid" v="215803"/>
  </node>
  <node id="-388" visible="true" lat="44.20124816" lon="-72.10963439">
    <tag k="addr:housenumber" v="509"/>
    <tag k="addr:street" v="Scotch Burn Drive"/>
    <tag k="addr:state" v="VT"/>
    <tag k="ref:vcgi:esiteid" v="215804"/>
  </node>
  <node id="-389" visible="true" lat="44.20087821" lon="-72.07780422">
    <tag k="addr:housenumber" v="1632"/>
    <tag k="addr:street" v="East Road"/>
    <tag k="addr:state" v="VT"/>
    <tag k="ref:vcgi:esiteid" v="215805"/>
  </node>
  <node id="-390" visible="true" lat="44.20100008" lon="-72.06718164">
    <tag k="addr:housenumber" v="3369"/>
    <tag k="addr:street" v="Ryegate Road"/>
    <tag k="addr:state" v="VT"/>
    <tag k="ref:vcgi:esiteid" v="215806"/>
  </node>
  <node id="-391" visible="true" lat="44.20090885" lon="-72.14231678">
    <tag k="addr:housenumber" v="931"/>
    <tag k="addr:street" v="Hall Road"/>
    <tag k="addr:state" v="VT"/>
    <tag k="ref:vcgi:esiteid" v="215807"/>
  </node>
  <node id="-392" visible="true" lat="44.19982157" lon="-72.064149">
    <tag k="addr:housenumber" v="269"/>
    <tag k="addr:street" v="School Street"/>
    <tag k="addr:state" v="VT"/>
    <tag k="ref:vcgi:esiteid" v="215808"/>
  </node>
  <node id="-393" visible="true" lat="44.20081087" lon="-72.07279598">
    <tag k="addr:housenumber" v="83"/>
    <tag k="addr:street" v="Gibson Road"/>
    <tag k="addr:state" v="VT"/>
    <tag k="ref:vcgi:esiteid" v="215809"/>
  </node>
  <node id="-394" visible="true" lat="44.20074844" lon="-72.10985565">
    <tag k="addr:housenumber" v="535"/>
    <tag k="addr:street" v="Scotch Burn Drive"/>
    <tag k="addr:state" v="VT"/>
    <tag k="ref:vcgi:esiteid" v="215810"/>
  </node>
  <node id="-395" visible="true" lat="44.20026396" lon="-72.14458239">
    <tag k="addr:housenumber" v="848"/>
    <tag k="addr:street" v="Stone Road"/>
    <tag k="addr:state" v="VT"/>
    <tag k="ref:vcgi:esiteid" v="215812"/>
  </node>
  <node id="-397" visible="true" lat="44.2000885" lon="-72.11003112">
    <tag k="addr:housenumber" v="578"/>
    <tag k="addr:street" v="Scotch Burn Drive"/>
    <tag k="addr:state" v="VT"/>
    <tag k="ref:vcgi:esiteid" v="215814"/>
  </node>
  <node id="-398" visible="true" lat="44.19973968" lon="-72.07457713">
    <tag k="addr:housenumber" v="1780"/>
    <tag k="addr:street" v="East Road"/>
    <tag k="addr:state" v="VT"/>
    <tag k="ref:vcgi:esiteid" v="215815"/>
  </node>
  <node id="-399" visible="true" lat="44.19992701" lon="-72.07742338">
    <tag k="addr:housenumber" v="396"/>
    <tag k="addr:street" v="Longmoore Drive"/>
    <tag k="addr:state" v="VT"/>
    <tag k="ref:vcgi:esiteid" v="215816"/>
  </node>
  <node id="-400" visible="true" lat="44.20004347" lon="-72.06762902">
    <tag k="addr:housenumber" v="3229"/>
    <tag k="addr:street" v="Ryegate Road"/>
    <tag k="addr:state" v="VT"/>
    <tag k="ref:vcgi:esiteid" v="215817"/>
  </node>
  <node id="-401" visible="true" lat="44.19986488" lon="-72.16840238">
    <tag k="addr:housenumber" v="480"/>
    <tag k="addr:street" v="Brown Drive"/>
    <tag k="addr:state" v="VT"/>
    <tag k="ref:vcgi:esiteid" v="215818"/>
  </node>
  <node id="-402" visible="true" lat="44.19920616" lon="-72.07942706">
    <tag k="addr:housenumber" v="406"/>
    <tag k="addr:street" v="Longmoore Drive"/>
    <tag k="addr:state" v="VT"/>
    <tag k="ref:vcgi:esiteid" v="215819"/>
  </node>
  <node id="-403" visible="true" lat="44.19892511" lon="-72.07804201">
    <tag k="addr:housenumber" v="434"/>
    <tag k="addr:street" v="Longmoore Drive"/>
    <tag k="addr:state" v="VT"/>
    <tag k="ref:vcgi:esiteid" v="215820"/>
  </node>
  <node id="-404" visible="true" lat="44.19909255" lon="-72.06817487">
    <tag k="addr:housenumber" v="3213"/>
    <tag k="addr:street" v="Ryegate Road"/>
    <tag k="addr:state" v="VT"/>
    <tag k="ref:vcgi:esiteid" v="215821"/>
  </node>
  <node id="-405" visible="true" lat="44.19897888" lon="-72.07521088">
    <tag k="addr:housenumber" v="278"/>
    <tag k="addr:street" v="Longmoore Drive"/>
    <tag k="addr:state" v="VT"/>
    <tag k="ref:vcgi:esiteid" v="215822"/>
  </node>
  <node id="-406" visible="true" lat="44.19868469" lon="-72.09610748">
    <tag k="addr:housenumber" v="799"/>
    <tag k="addr:street" v="South Bayley Hazen Road"/>
    <tag k="addr:state" v="VT"/>
    <tag k="ref:vcgi:esiteid" v="215823"/>
  </node>
  <node id="-407" visible="true" lat="44.19868087" lon="-72.10938262">
    <tag k="addr:housenumber" v="679"/>
    <tag k="addr:street" v="Scotch Burn Drive"/>
    <tag k="addr:state" v="VT"/>
    <tag k="ref:vcgi:esiteid" v="215824"/>
  </node>
  <node id="-408" visible="true" lat="44.19843832" lon="-72.07512898">
    <tag k="addr:housenumber" v="230"/>
    <tag k="addr:street" v="Longmoore Drive"/>
    <tag k="addr:state" v="VT"/>
    <tag k="ref:vcgi:esiteid" v="215825"/>
  </node>
  <node id="-409" visible="true" lat="44.19824962" lon="-72.06902588">
    <tag k="addr:housenumber" v="3133"/>
    <tag k="addr:street" v="Ryegate Road"/>
    <tag k="addr:state" v="VT"/>
    <tag k="ref:vcgi:esiteid" v="215826"/>
  </node>
  <node id="-410" visible="true" lat="44.1981163" lon="-72.10945892">
    <tag k="addr:housenumber" v="706"/>
    <tag k="addr:street" v="Scotch Burn Drive"/>
    <tag k="addr:state" v="VT"/>
    <tag k="ref:vcgi:esiteid" v="215827"/>
  </node>
  <node id="-411" visible="true" lat="44.19784048" lon="-72.0755672">
    <tag k="addr:housenumber" v="219"/>
    <tag k="addr:street" v="Longmoore Drive"/>
    <tag k="addr:state" v="VT"/>
    <tag k="ref:vcgi:esiteid" v="215828"/>
  </node>
  <node id="-412" visible="true" lat="44.19778522" lon="-72.07458336">
    <tag k="addr:housenumber" v="196"/>
    <tag k="addr:street" v="Longmoore Drive"/>
    <tag k="addr:state" v="VT"/>
    <tag k="ref:vcgi:esiteid" v="215829"/>
  </node>
  <node id="-413" visible="true" lat="44.1975683" lon="-72.1401179">
    <tag k="addr:housenumber" v="669"/>
    <tag k="addr:street" v="Hall Road"/>
    <tag k="addr:state" v="VT"/>
    <tag k="ref:vcgi:esiteid" v="215831"/>
  </node>
  <node id="-414" visible="true" lat="44.19751942" lon="-72.07809727">
    <tag k="addr:housenumber" v="178"/>
    <tag k="addr:street" v="Davenella Drive"/>
    <tag k="addr:state" v="VT"/>
    <tag k="ref:vcgi:esiteid" v="215832"/>
  </node>
  <node id="-415" visible="true" lat="44.19732523" lon="-72.07895274">
    <tag k="addr:housenumber" v="180"/>
    <tag k="addr:street" v="Davenella Drive"/>
    <tag k="addr:state" v="VT"/>
    <tag k="ref:vcgi:esiteid" v="215833"/>
  </node>
  <node id="-417" visible="true" lat="44.1973303" lon="-72.07759457">
    <tag k="addr:housenumber" v="168"/>
    <tag k="addr:street" v="Davenella Drive"/>
    <tag k="addr:state" v="VT"/>
    <tag k="ref:vcgi:esiteid" v="215835"/>
  </node>
  <node id="-419" visible="true" lat="44.19732952" lon="-72.07431647">
    <tag k="addr:housenumber" v="152"/>
    <tag k="addr:street" v="Longmoore Drive"/>
    <tag k="addr:state" v="VT"/>
    <tag k="ref:vcgi:esiteid" v="215837"/>
  </node>
  <node id="-420" visible="true" lat="44.19691231" lon="-72.07679614">
    <tag k="addr:housenumber" v="122"/>
    <tag k="addr:street" v="Davenella Drive"/>
    <tag k="addr:state" v="VT"/>
    <tag k="ref:vcgi:esiteid" v="215838"/>
  </node>
  <node id="-421" visible="true" lat="44.19690063" lon="-72.0751548">
    <tag k="addr:housenumber" v="141"/>
    <tag k="addr:street" v="Longmoore Drive"/>
    <tag k="addr:state" v="VT"/>
    <tag k="ref:vcgi:esiteid" v="215839"/>
  </node>
  <node id="-422" visible="true" lat="44.19689028" lon="-72.07785795">
    <tag k="addr:housenumber" v="157"/>
    <tag k="addr:street" v="Davenella Drive"/>
    <tag k="addr:state" v="VT"/>
    <tag k="ref:vcgi:esiteid" v="215840"/>
  </node>
  <node id="-423" visible="true" lat="44.19629511" lon="-72.07709883">
    <tag k="addr:housenumber" v="125"/>
    <tag k="addr:street" v="Davenella Drive"/>
    <tag k="addr:state" v="VT"/>
    <tag k="ref:vcgi:esiteid" v="215841"/>
  </node>
  <node id="-424" visible="true" lat="44.19668477" lon="-72.15315885">
    <tag k="addr:housenumber" v="3463"/>
    <tag k="addr:street" v="Scott Highway"/>
    <tag k="addr:state" v="VT"/>
    <tag k="ref:vcgi:esiteid" v="215842"/>
  </node>
  <node id="-425" visible="true" lat="44.19658266" lon="-72.07419713">
    <tag k="addr:housenumber" v="96"/>
    <tag k="addr:street" v="Longmoore Drive"/>
    <tag k="addr:state" v="VT"/>
    <tag k="ref:vcgi:esiteid" v="215843"/>
  </node>
  <node id="-426" visible="true" lat="44.19645461" lon="-72.07850151">
    <tag k="addr:housenumber" v="131"/>
    <tag k="addr:street" v="Davenella Drive"/>
    <tag k="addr:state" v="VT"/>
    <tag k="ref:vcgi:esiteid" v="215844"/>
  </node>
  <node id="-427" visible="true" lat="44.1964347" lon="-72.12560624">
    <tag k="addr:housenumber" v="1342"/>
    <tag k="addr:street" v="Gilfillan Road"/>
    <tag k="addr:state" v="VT"/>
    <tag k="ref:vcgi:esiteid" v="215845"/>
  </node>
  <node id="-428" visible="true" lat="44.19613203" lon="-72.07401599">
    <tag k="addr:housenumber" v="70"/>
    <tag k="addr:street" v="Longmoore Drive"/>
    <tag k="addr:state" v="VT"/>
    <tag k="ref:vcgi:esiteid" v="215846"/>
  </node>
  <node id="-429" visible="true" lat="44.19543386" lon="-72.07708222">
    <tag k="addr:housenumber" v="192"/>
    <tag k="addr:street" v="Birchwood Drive"/>
    <tag k="addr:state" v="VT"/>
    <tag k="ref:vcgi:esiteid" v="215847"/>
  </node>
  <node id="-430" visible="true" lat="44.19534122" lon="-72.07512734">
    <tag k="addr:housenumber" v="78"/>
    <tag k="addr:street" v="Birchwood Drive"/>
    <tag k="addr:state" v="VT"/>
    <tag k="ref:vcgi:esiteid" v="215848"/>
  </node>
  <node id="-431" visible="true" lat="44.19497445" lon="-72.07415099">
    <tag k="addr:housenumber" v="38"/>
    <tag k="addr:street" v="Birchwood Drive"/>
    <tag k="addr:state" v="VT"/>
    <tag k="ref:vcgi:esiteid" v="215849"/>
  </node>
  <node id="-432" visible="true" lat="44.19522219" lon="-72.14930567">
    <tag k="addr:housenumber" v="3326"/>
    <tag k="addr:street" v="Scott Highway"/>
    <tag k="addr:state" v="VT"/>
    <tag k="ref:vcgi:esiteid" v="215850"/>
  </node>
  <node id="-433" visible="true" lat="44.19514151" lon="-72.15460227">
    <tag k="addr:housenumber" v="350"/>
    <tag k="addr:street" v="Barr Drive"/>
    <tag k="addr:state" v="VT"/>
    <tag k="ref:vcgi:esiteid" v="215851"/>
  </node>
  <node id="-434" visible="true" lat="44.1946907" lon="-72.07603454">
    <tag k="addr:housenumber" v="131"/>
    <tag k="addr:street" v="Birchwood Drive"/>
    <tag k="addr:state" v="VT"/>
    <tag k="ref:vcgi:esiteid" v="215852"/>
  </node>
  <node id="-435" visible="true" lat="44.19491977" lon="-72.15886578">
    <tag k="addr:housenumber" v="478"/>
    <tag k="addr:street" v="Barr Drive"/>
    <tag k="addr:state" v="VT"/>
    <tag k="ref:vcgi:esiteid" v="215853"/>
  </node>
  <node id="-436" visible="true" lat="44.19426852" lon="-72.07829847">
    <tag k="addr:housenumber" v="247"/>
    <tag k="addr:street" v="Birchwood Drive"/>
    <tag k="addr:state" v="VT"/>
    <tag k="ref:vcgi:esiteid" v="215854"/>
  </node>
  <node id="-437" visible="true" lat="44.19450722" lon="-72.07893643">
    <tag k="addr:housenumber" v="253"/>
    <tag k="addr:street" v="Birchwood Drive"/>
    <tag k="addr:state" v="VT"/>
    <tag k="ref:vcgi:esiteid" v="215855"/>
  </node>
  <node id="-438" visible="true" lat="44.19461101" lon="-72.13846069">
    <tag k="addr:housenumber" v="448"/>
    <tag k="addr:street" v="Hall Road"/>
    <tag k="addr:state" v="VT"/>
    <tag k="ref:vcgi:esiteid" v="215856"/>
  </node>
  <node id="-439" visible="true" lat="44.19441316" lon="-72.14141877">
    <tag k="addr:housenumber" v="411"/>
    <tag k="addr:street" v="Stone Road"/>
    <tag k="addr:state" v="VT"/>
    <tag k="ref:vcgi:esiteid" v="215857"/>
  </node>
  <node id="-440" visible="true" lat="44.19437507" lon="-72.07714997">
    <tag k="addr:housenumber" v="197"/>
    <tag k="addr:street" v="Birchwood Drive"/>
    <tag k="addr:state" v="VT"/>
    <tag k="ref:vcgi:esiteid" v="215858"/>
  </node>
  <node id="-441" visible="true" lat="44.19454507" lon="-72.14830159">
    <tag k="addr:housenumber" v="3242"/>
    <tag k="addr:street" v="Scott Highway"/>
    <tag k="addr:state" v="VT"/>
    <tag k="ref:vcgi:esiteid" v="215859"/>
  </node>
  <node id="-443" visible="true" lat="44.19456226" lon="-72.15249195">
    <tag k="addr:housenumber" v="248"/>
    <tag k="addr:street" v="Barr Drive"/>
    <tag k="addr:state" v="VT"/>
    <tag k="ref:vcgi:esiteid" v="215861"/>
  </node>
  <node id="-444" visible="true" lat="44.19403807" lon="-72.06829524">
    <tag k="addr:housenumber" v="55"/>
    <tag k="addr:street" v="Dargie Lane"/>
    <tag k="addr:state" v="VT"/>
    <tag k="ref:vcgi:esiteid" v="215862"/>
  </node>
  <node id="-445" visible="true" lat="44.19438025" lon="-72.15397272">
    <tag k="addr:housenumber" v="323"/>
    <tag k="addr:street" v="Barr Drive"/>
    <tag k="addr:state" v="VT"/>
    <tag k="ref:vcgi:esiteid" v="215863"/>
  </node>
  <node id="-446" visible="true" lat="44.19376499" lon="-72.07459441">
    <tag k="addr:housenumber" v="330"/>
    <tag k="addr:street" v="Davidson Road"/>
    <tag k="addr:state" v="VT"/>
    <tag k="ref:vcgi:esiteid" v="215864"/>
  </node>
  <node id="-447" visible="true" lat="44.19337526" lon="-72.1590137">
    <tag k="addr:housenumber" v="480"/>
    <tag k="addr:street" v="Barr Drive"/>
    <tag k="addr:state" v="VT"/>
    <tag k="ref:vcgi:esiteid" v="215865"/>
  </node>
  <node id="-448" visible="true" lat="44.19366822" lon="-72.0742213">
    <tag k="addr:housenumber" v="340"/>
    <tag k="addr:street" v="Davidson Road"/>
    <tag k="addr:state" v="VT"/>
    <tag k="ref:vcgi:esiteid" v="215866"/>
  </node>
  <node id="-449" visible="true" lat="44.1938004" lon="-72.15735446">
    <tag k="addr:housenumber" v="496"/>
    <tag k="addr:street" v="Barr Drive"/>
    <tag k="addr:state" v="VT"/>
    <tag k="ref:vcgi:esiteid" v="215867"/>
  </node>
  <node id="-450" visible="true" lat="44.19319342" lon="-72.15233773">
    <tag k="addr:housenumber" v="261"/>
    <tag k="addr:street" v="Barr Drive"/>
    <tag k="addr:state" v="VT"/>
    <tag k="ref:vcgi:esiteid" v="215868"/>
  </node>
  <node id="-453" visible="true" lat="44.19331362" lon="-72.14996871">
    <tag k="addr:housenumber" v="107"/>
    <tag k="addr:street" v="Barr Drive"/>
    <tag k="addr:state" v="VT"/>
    <tag k="ref:vcgi:esiteid" v="215871"/>
  </node>
  <node id="-456" visible="true" lat="44.19322608" lon="-72.1413608">
    <tag k="addr:housenumber" v="313"/>
    <tag k="addr:street" v="Stone Road"/>
    <tag k="addr:state" v="VT"/>
    <tag k="ref:vcgi:esiteid" v="215874"/>
  </node>
  <node id="-461" visible="true" lat="44.19302749" lon="-72.14743041">
    <tag k="addr:housenumber" v="3162"/>
    <tag k="addr:street" v="Scott Highway"/>
    <tag k="addr:state" v="VT"/>
    <tag k="ref:vcgi:esiteid" v="215879"/>
  </node>
  <node id="-463" visible="true" lat="44.19303209" lon="-72.15606214">
    <tag k="addr:housenumber" v="563"/>
    <tag k="addr:street" v="Barr Drive"/>
    <tag k="addr:state" v="VT"/>
    <tag k="ref:vcgi:esiteid" v="215881"/>
  </node>
  <node id="-465" visible="true" lat="44.1928159" lon="-72.14039659">
    <tag k="addr:housenumber" v="284"/>
    <tag k="addr:street" v="Stone Road"/>
    <tag k="addr:state" v="VT"/>
    <tag k="ref:vcgi:esiteid" v="215883"/>
  </node>
  <node id="-469" visible="true" lat="44.19235409" lon="-72.0755465">
    <tag k="addr:housenumber" v="430"/>
    <tag k="addr:street" v="Davidson Road"/>
    <tag k="addr:state" v="VT"/>
    <tag k="ref:vcgi:esiteid" v="215887"/>
  </node>
  <node id="-471" visible="true" lat="44.19254284" lon="-72.14101121">
    <tag k="addr:housenumber" v="273"/>
    <tag k="addr:street" v="Stone Road"/>
    <tag k="addr:state" v="VT"/>
    <tag k="ref:vcgi:esiteid" v="215889"/>
  </node>
  <node id="-472" visible="true" lat="44.19249513" lon="-72.14033287">
    <tag k="addr:housenumber" v="252"/>
    <tag k="addr:street" v="Stone Road"/>
    <tag k="addr:state" v="VT"/>
    <tag k="ref:vcgi:esiteid" v="215890"/>
  </node>
  <node id="-473" visible="true" lat="44.19224548" lon="-72.09697723">
    <tag k="addr:housenumber" v="75"/>
    <tag k="addr:street" v="Ticklenaked Pond Road"/>
    <tag k="addr:state" v="VT"/>
    <tag k="ref:vcgi:esiteid" v="215891"/>
  </node>
  <node id="-474" visible="true" lat="44.19185257" lon="-72.12171173">
    <tag k="addr:housenumber" v="285"/>
    <tag k="addr:street" v="Appleton Perry Drive"/>
    <tag k="addr:state" v="VT"/>
    <tag k="ref:vcgi:esiteid" v="215892"/>
  </node>
  <node id="-477" visible="true" lat="44.19169998" lon="-72.16030883">
    <tag k="addr:housenumber" v="859"/>
    <tag k="addr:street" v="Barr Drive"/>
    <tag k="addr:state" v="VT"/>
    <tag k="ref:vcgi:esiteid" v="215895"/>
  </node>
  <node id="-478" visible="true" lat="44.19165691" lon="-72.15772095">
    <tag k="addr:housenumber" v="629"/>
    <tag k="addr:street" v="Barr Drive"/>
    <tag k="addr:state" v="VT"/>
    <tag k="ref:vcgi:esiteid" v="215896"/>
  </node>
  <node id="-481" visible="true" lat="44.19135284" lon="-72.13320922">
    <tag k="addr:housenumber" v="156"/>
    <tag k="addr:street" v="Zambon Drive"/>
    <tag k="addr:state" v="VT"/>
    <tag k="ref:vcgi:esiteid" v="215899"/>
  </node>
  <node id="-483" visible="true" lat="44.19129202" lon="-72.14686377">
    <tag k="addr:housenumber" v="3035"/>
    <tag k="addr:street" v="Scott Highway"/>
    <tag k="addr:state" v="VT"/>
    <tag k="ref:vcgi:esiteid" v="215901"/>
  </node>
  <node id="-489" visible="true" lat="44.19062293" lon="-72.15009889">
    <tag k="addr:housenumber" v="366"/>
    <tag k="addr:street" v="Farquharson Drive"/>
    <tag k="addr:state" v="VT"/>
    <tag k="ref:vcgi:esiteid" v="215908"/>
  </node>
  <node id="-498" visible="true" lat="44.18915693" lon="-72.09744583">
    <tag k="addr:housenumber" v="1545"/>
    <tag k="addr:street" v="Boltonville Road"/>
    <tag k="addr:state" v="VT"/>
    <tag k="ref:vcgi:esiteid" v="215917"/>
  </node>
  <node id="-507" visible="true" lat="44.18918991" lon="-72.12193298">
    <tag k="addr:housenumber" v="344"/>
    <tag k="addr:street" v="Creamery Road"/>
    <tag k="addr:state" v="VT"/>
    <tag k="ref:vcgi:esiteid" v="215926"/>
  </node>
  <node id="-513" visible="true" lat="44.18884277" lon="-72.1287384">
    <tag k="addr:housenumber" v="108"/>
    <tag k="addr:street" v="Grant Drive"/>
    <tag k="addr:state" v="VT"/>
    <tag k="ref:vcgi:esiteid" v="215932"/>
  </node>
  <node id="-514" visible="true" lat="44.18955098" lon="-72.13550356">
    <tag k="addr:housenumber" v="2024"/>
    <tag k="addr:street" v="Gilfillan Road"/>
    <tag k="addr:state" v="VT"/>
    <tag k="ref:vcgi:esiteid" v="215933"/>
  </node>
  <node id="-516" visible="true" lat="44.18855667" lon="-72.07814788">
    <tag k="addr:housenumber" v="771"/>
    <tag k="addr:street" v="Davidson Road"/>
    <tag k="addr:state" v="VT"/>
    <tag k="ref:vcgi:esiteid" v="215935"/>
  </node>
  <node id="-517" visible="true" lat="44.18847929" lon="-72.07877688">
    <tag k="addr:housenumber" v="772"/>
    <tag k="addr:street" v="Davidson Road"/>
    <tag k="addr:state" v="VT"/>
    <tag k="ref:vcgi:esiteid" v="215936"/>
  </node>
  <node id="-525" visible="true" lat="44.18840789" lon="-72.13414764">
    <tag k="addr:housenumber" v="2025"/>
    <tag k="addr:street" v="Gilfillan Road"/>
    <tag k="addr:state" v="VT"/>
    <tag k="ref:vcgi:esiteid" v="215945"/>
  </node>
  <node id="-526" visible="true" lat="44.18826488" lon="-72.13500594">
    <tag k="addr:housenumber" v="2046"/>
    <tag k="addr:street" v="Gilfillan Road"/>
    <tag k="addr:state" v="VT"/>
    <tag k="ref:vcgi:esiteid" v="215946"/>
  </node>
  <node id="-532" visible="true" lat="44.18812213" lon="-72.12388273">
    <tag k="addr:housenumber" v="424"/>
    <tag k="addr:street" v="Creamery Road"/>
    <tag k="addr:state" v="VT"/>
    <tag k="ref:vcgi:esiteid" v="215952"/>
  </node>
  <node id="-534" visible="true" lat="44.18804599" lon="-72.1344831">
    <tag k="addr:housenumber" v="980"/>
    <tag k="addr:street" v="Creamery Road"/>
    <tag k="addr:state" v="VT"/>
    <tag k="ref:vcgi:esiteid" v="215954"/>
  </node>
  <node id="-535" visible="true" lat="44.18795394" lon="-72.13088226">
    <tag k="addr:housenumber" v="802"/>
    <tag k="addr:street" v="Creamery Road"/>
    <tag k="addr:state" v="VT"/>
    <tag k="ref:vcgi:esiteid" v="215955"/>
  </node>
  <node id="-537" visible="true" lat="44.18783569" lon="-72.13368225">
    <tag k="addr:housenumber" v="948"/>
    <tag k="addr:street" v="Creamery Road"/>
    <tag k="addr:state" v="VT"/>
    <tag k="ref:vcgi:esiteid" v="215957"/>
  </node>
  <node id="-542" visible="true" lat="44.1877871" lon="-72.13197615">
    <tag k="addr:housenumber" v="918"/>
    <tag k="addr:street" v="Creamery Road"/>
    <tag k="addr:state" v="VT"/>
    <tag k="ref:vcgi:esiteid" v="215963"/>
  </node>
  <node id="-543" visible="true" lat="44.18765843" lon="-72.13471192">
    <tag k="addr:housenumber" v="1005"/>
    <tag k="addr:street" v="Creamery Road"/>
    <tag k="addr:state" v="VT"/>
    <tag k="ref:vcgi:esiteid" v="215964"/>
  </node>
  <node id="-546" visible="true" lat="44.18756636" lon="-72.13513152">
    <tag k="addr:housenumber" v="1027"/>
    <tag k="addr:street" v="Creamery Road"/>
    <tag k="addr:state" v="VT"/>
    <tag k="ref:vcgi:esiteid" v="215967"/>
  </node>
  <node id="-547" visible="true" lat="44.1874925" lon="-72.09747398">
    <tag k="addr:housenumber" v="70"/>
    <tag k="addr:street" v="Cedar Drive"/>
    <tag k="addr:state" v="VT"/>
    <tag k="ref:vcgi:esiteid" v="215968"/>
  </node>
  <node id="-548" visible="true" lat="44.18922886" lon="-72.15284753">
    <tag k="addr:housenumber" v="378"/>
    <tag k="addr:street" v="Farquharson Drive"/>
    <tag k="addr:state" v="VT"/>
    <tag k="ref:vcgi:esiteid" v="215969"/>
  </node>
  <node id="-550" visible="true" lat="44.1872202" lon="-72.13358268">
    <tag k="addr:housenumber" v="927"/>
    <tag k="addr:street" v="Creamery Road"/>
    <tag k="addr:state" v="VT"/>
    <tag k="ref:vcgi:esiteid" v="215971"/>
  </node>
  <node id="-551" visible="true" lat="44.18709782" lon="-72.12316181">
    <tag k="addr:housenumber" v="414"/>
    <tag k="addr:street" v="Creamery Road"/>
    <tag k="addr:state" v="VT"/>
    <tag k="ref:vcgi:esiteid" v="215973"/>
  </node>
  <node id="-553" visible="true" lat="44.18717575" lon="-72.14374542">
    <tag k="addr:housenumber" v="2777"/>
    <tag k="addr:street" v="Scott Highway"/>
    <tag k="addr:state" v="VT"/>
    <tag k="ref:vcgi:esiteid" v="215975"/>
  </node>
  <node id="-554" visible="true" lat="44.18716705" lon="-72.13991273">
    <tag k="addr:housenumber" v="2544"/>
    <tag k="addr:street" v="Scott Highway"/>
    <tag k="addr:state" v="VT"/>
    <tag k="ref:vcgi:esiteid" v="215976"/>
  </node>
  <node id="-555" visible="true" lat="44.187073" lon="-72.13933042">
    <tag k="addr:housenumber" v="2512"/>
    <tag k="addr:street" v="Scott Highway"/>
    <tag k="addr:state" v="VT"/>
    <tag k="ref:vcgi:esiteid" v="215978"/>
  </node>
  <node id="-556" visible="true" lat="44.18684387" lon="-72.12245941">
    <tag k="addr:housenumber" v="342"/>
    <tag k="addr:street" v="Creamery Road"/>
    <tag k="addr:state" v="VT"/>
    <tag k="ref:vcgi:esiteid" v="215979"/>
  </node>
  <node id="-557" visible="true" lat="44.18723554" lon="-72.12681845">
    <tag k="addr:housenumber" v="458"/>
    <tag k="addr:street" v="Pinehurst Road"/>
    <tag k="addr:state" v="VT"/>
    <tag k="ref:vcgi:esiteid" v="215980"/>
  </node>
  <node id="-558" visible="true" lat="44.18670272" lon="-72.09725189">
    <tag k="addr:housenumber" v="76"/>
    <tag k="addr:street" v="Birch Drive"/>
    <tag k="addr:state" v="VT"/>
    <tag k="ref:vcgi:esiteid" v="215981"/>
  </node>
  <node id="-561" visible="true" lat="44.1867388" lon="-72.14085046">
    <tag k="addr:housenumber" v="114"/>
    <tag k="addr:street" v="Church Street"/>
    <tag k="addr:state" v="VT"/>
    <tag k="ref:vcgi:esiteid" v="215984"/>
  </node>
  <node id="-562" visible="true" lat="44.18651239" lon="-72.14071444">
    <tag k="addr:housenumber" v="124"/>
    <tag k="addr:street" v="Church Street"/>
    <tag k="addr:state" v="VT"/>
    <tag k="ref:vcgi:esiteid" v="215985"/>
  </node>
  <node id="-563" visible="true" lat="44.1868915" lon="-72.13807163">
    <tag k="addr:housenumber" v="2420"/>
    <tag k="addr:street" v="Scott Highway"/>
    <tag k="addr:state" v="VT"/>
    <tag k="ref:vcgi:esiteid" v="215986"/>
  </node>
  <node id="-564" visible="true" lat="44.18644715" lon="-72.12592998">
    <tag k="addr:housenumber" v="422"/>
    <tag k="addr:street" v="Pinehurst Road"/>
    <tag k="addr:state" v="VT"/>
    <tag k="ref:vcgi:esiteid" v="215987"/>
  </node>
  <node id="-565" visible="true" lat="44.18646621" lon="-72.12808227">
    <tag k="addr:housenumber" v="481"/>
    <tag k="addr:street" v="Pinehurst Road"/>
    <tag k="addr:state" v="VT"/>
    <tag k="ref:vcgi:esiteid" v="215988"/>
  </node>
  <node id="-566" visible="true" lat="44.18627548" lon="-72.07837677">
    <tag k="addr:housenumber" v="922"/>
    <tag k="addr:street" v="Davidson Road"/>
    <tag k="addr:state" v="VT"/>
    <tag k="ref:vcgi:esiteid" v="215989"/>
  </node>
  <node id="-567" visible="true" lat="44.18645858" lon="-72.14018249">
    <tag k="addr:housenumber" v="135"/>
    <tag k="addr:street" v="Church Street"/>
    <tag k="addr:state" v="VT"/>
    <tag k="ref:vcgi:esiteid" v="215990"/>
  </node>
  <node id="-568" visible="true" lat="44.18639755" lon="-72.13625335">
    <tag k="addr:housenumber" v="2360"/>
    <tag k="addr:street" v="Scott Highway"/>
    <tag k="addr:state" v="VT"/>
    <tag k="ref:vcgi:esiteid" v="215991"/>
  </node>
  <node id="-569" visible="true" lat="44.1862564" lon="-72.09684753">
    <tag k="addr:housenumber" v="45"/>
    <tag k="addr:street" v="Birch Drive"/>
    <tag k="addr:state" v="VT"/>
    <tag k="ref:vcgi:esiteid" v="215992"/>
  </node>
  <node id="-570" visible="true" lat="44.18632125" lon="-72.13842773">
    <tag k="addr:housenumber" v="2461"/>
    <tag k="addr:street" v="Scott Highway"/>
    <tag k="addr:state" v="VT"/>
    <tag k="ref:vcgi:esiteid" v="215993"/>
  </node>
  <node id="-572" visible="true" lat="44.18624114" lon="-72.11621093">
    <tag k="addr:housenumber" v="245"/>
    <tag k="addr:street" v="Quint Road"/>
    <tag k="addr:state" v="VT"/>
    <tag k="ref:vcgi:esiteid" v="215995"/>
  </node>
  <node id="-573" visible="true" lat="44.18622207" lon="-72.13561248">
    <tag k="addr:housenumber" v="2324"/>
    <tag k="addr:street" v="Scott Highway"/>
    <tag k="addr:state" v="VT"/>
    <tag k="ref:vcgi:esiteid" v="215996"/>
  </node>
  <node id="-574" visible="true" lat="44.1860466" lon="-72.09745788">
    <tag k="addr:housenumber" v="13"/>
    <tag k="addr:street" v="Birch Drive"/>
    <tag k="addr:state" v="VT"/>
    <tag k="ref:vcgi:esiteid" v="215997"/>
  </node>
  <node id="-575" visible="true" lat="44.18601226" lon="-72.09797668">
    <tag k="addr:housenumber" v="15"/>
    <tag k="addr:street" v="Birch Drive"/>
    <tag k="addr:state" v="VT"/>
    <tag k="ref:vcgi:esiteid" v="215998"/>
  </node>
  <node id="-576" visible="true" lat="44.18613052" lon="-72.13992309">
    <tag k="addr:housenumber" v="161"/>
    <tag k="addr:street" v="Church Street"/>
    <tag k="addr:state" v="VT"/>
    <tag k="ref:vcgi:esiteid" v="215999"/>
  </node>
  <node id="-577" visible="true" lat="44.18608324" lon="-72.13882469">
    <tag k="addr:housenumber" v="55"/>
    <tag k="addr:street" v="Pleasant Street"/>
    <tag k="addr:state" v="VT"/>
    <tag k="ref:vcgi:esiteid" v="216000"/>
  </node>
  <node id="-578" visible="true" lat="44.18592071" lon="-72.14038848">
    <tag k="addr:housenumber" v="168"/>
    <tag k="addr:street" v="Church Street"/>
    <tag k="addr:state" v="VT"/>
    <tag k="ref:vcgi:esiteid" v="216001"/>
  </node>
  <node id="-579" visible="true" lat="44.18589401" lon="-72.13996887">
    <tag k="addr:housenumber" v="175"/>
    <tag k="addr:street" v="Church Street"/>
    <tag k="addr:state" v="VT"/>
    <tag k="ref:vcgi:esiteid" v="216002"/>
  </node>
  <node id="-580" visible="true" lat="44.18580148" lon="-72.12204828">
    <tag k="addr:housenumber" v="315"/>
    <tag k="addr:street" v="Creamery Road"/>
    <tag k="addr:state" v="VT"/>
    <tag k="ref:vcgi:esiteid" v="216003"/>
  </node>
  <node id="-581" visible="true" lat="44.18569174" lon="-72.14026141">
    <tag k="addr:housenumber" v="178"/>
    <tag k="addr:street" v="Church Street"/>
    <tag k="addr:state" v="VT"/>
    <tag k="ref:vcgi:esiteid" v="216004"/>
  </node>
  <node id="-582" visible="true" lat="44.18563842" lon="-72.11812591">
    <tag k="addr:housenumber" v="146"/>
    <tag k="addr:street" v="Quint Road"/>
    <tag k="addr:state" v="VT"/>
    <tag k="ref:vcgi:esiteid" v="216005"/>
  </node>
  <node id="-583" visible="true" lat="44.1856423" lon="-72.0979996">
    <tag k="addr:housenumber" v="118"/>
    <tag k="addr:street" v="Hemlock Drive"/>
    <tag k="addr:state" v="VT"/>
    <tag k="ref:vcgi:esiteid" v="216006"/>
  </node>
  <node id="-584" visible="true" lat="44.18569564" lon="-72.13752746">
    <tag k="addr:housenumber" v="119"/>
    <tag k="addr:street" v="Pleasant Street"/>
    <tag k="addr:state" v="VT"/>
    <tag k="ref:vcgi:esiteid" v="216007"/>
  </node>
  <node id="-585" visible="true" lat="44.1855545" lon="-72.0982666">
    <tag k="addr:housenumber" v="132"/>
    <tag k="addr:street" v="Hemlock Drive"/>
    <tag k="addr:state" v="VT"/>
    <tag k="ref:vcgi:esiteid" v="216008"/>
  </node>
  <node id="-586" visible="true" lat="44.18579287" lon="-72.13948217">
    <tag k="addr:housenumber" v="25"/>
    <tag k="addr:street" v="Pleasant Street"/>
    <tag k="addr:state" v="VT"/>
    <tag k="ref:vcgi:esiteid" v="216009"/>
  </node>
  <node id="-587" visible="true" lat="44.18554968" lon="-72.11382379">
    <tag k="addr:housenumber" v="325"/>
    <tag k="addr:street" v="Quint Road"/>
    <tag k="addr:state" v="VT"/>
    <tag k="ref:vcgi:esiteid" v="216010"/>
  </node>
  <node id="-589" visible="true" lat="44.18573992" lon="-72.13840433">
    <tag k="addr:housenumber" v="75"/>
    <tag k="addr:street" v="Pleasant Street"/>
    <tag k="addr:state" v="VT"/>
    <tag k="ref:vcgi:esiteid" v="216012"/>
  </node>
  <node id="-590" visible="true" lat="44.18554306" lon="-72.13269043">
    <tag k="addr:housenumber" v="9"/>
    <tag k="addr:street" v="Pinehurst Road"/>
    <tag k="addr:state" v="VT"/>
    <tag k="ref:vcgi:esiteid" v="216013"/>
  </node>
  <node id="-591" visible="true" lat="44.18562004" lon="-72.13654799">
    <tag k="addr:housenumber" v="165"/>
    <tag k="addr:street" v="Pleasant Street"/>
    <tag k="addr:state" v="VT"/>
    <tag k="ref:vcgi:esiteid" v="216014"/>
  </node>
  <node id="-592" visible="true" lat="44.18544934" lon="-72.13953661">
    <tag k="addr:housenumber" v="18"/>
    <tag k="addr:street" v="Pleasant Street"/>
    <tag k="addr:state" v="VT"/>
    <tag k="ref:vcgi:esiteid" v="216015"/>
  </node>
  <node id="-593" visible="true" lat="44.18557416" lon="-72.1360642">
    <tag k="addr:housenumber" v="197"/>
    <tag k="addr:street" v="Pleasant Street"/>
    <tag k="addr:state" v="VT"/>
    <tag k="ref:vcgi:esiteid" v="216016"/>
  </node>
  <node id="-594" visible="true" lat="44.18557304" lon="-72.13571216">
    <tag k="addr:housenumber" v="211"/>
    <tag k="addr:street" v="Pleasant Street"/>
    <tag k="addr:state" v="VT"/>
    <tag k="ref:vcgi:esiteid" v="216017"/>
  </node>
  <node id="-595" visible="true" lat="44.18547439" lon="-72.13921356">
    <tag k="addr:housenumber" v="36"/>
    <tag k="addr:street" v="Pleasant Street"/>
    <tag k="addr:state" v="VT"/>
    <tag k="ref:vcgi:esiteid" v="216018"/>
  </node>
  <node id="-596" visible="true" lat="44.18536258" lon="-72.13811543">
    <tag k="addr:housenumber" v="88"/>
    <tag k="addr:street" v="Pleasant Street"/>
    <tag k="addr:state" v="VT"/>
    <tag k="ref:vcgi:esiteid" v="216019"/>
  </node>
  <node id="-597" visible="true" lat="44.18550715" lon="-72.13491165">
    <tag k="addr:housenumber" v="255"/>
    <tag k="addr:street" v="Pleasant Street"/>
    <tag k="addr:state" v="VT"/>
    <tag k="ref:vcgi:esiteid" v="216020"/>
  </node>
  <node id="-598" visible="true" lat="44.1853957" lon="-72.13849663">
    <tag k="addr:housenumber" v="70"/>
    <tag k="addr:street" v="Pleasant Street"/>
    <tag k="addr:state" v="VT"/>
    <tag k="ref:vcgi:esiteid" v="216021"/>
  </node>
  <node id="-599" visible="true" lat="44.18540656" lon="-72.13884585">
    <tag k="addr:housenumber" v="50"/>
    <tag k="addr:street" v="Pleasant Street"/>
    <tag k="addr:state" v="VT"/>
    <tag k="ref:vcgi:esiteid" v="216022"/>
  </node>
  <node id="-600" visible="true" lat="44.18536224" lon="-72.13800628">
    <tag k="addr:housenumber" v="94"/>
    <tag k="addr:street" v="Pleasant Street"/>
    <tag k="addr:state" v="VT"/>
    <tag k="ref:vcgi:esiteid" v="216023"/>
  </node>
  <node id="-601" visible="true" lat="44.18573462" lon="-72.11512527">
    <tag k="addr:housenumber" v="323"/>
    <tag k="addr:street" v="Quint Road"/>
    <tag k="addr:state" v="VT"/>
    <tag k="ref:vcgi:esiteid" v="216024"/>
  </node>
  <node id="-602" visible="true" lat="44.18535298" lon="-72.13787189">
    <tag k="addr:housenumber" v="100"/>
    <tag k="addr:street" v="Pleasant Street"/>
    <tag k="addr:state" v="VT"/>
    <tag k="ref:vcgi:esiteid" v="216025"/>
  </node>
  <node id="-603" visible="true" lat="44.18537401" lon="-72.13824258">
    <tag k="addr:housenumber" v="82"/>
    <tag k="addr:street" v="Pleasant Street"/>
    <tag k="addr:state" v="VT"/>
    <tag k="ref:vcgi:esiteid" v="216026"/>
  </node>
  <node id="-604" visible="true" lat="44.18539667" lon="-72.12001512">
    <tag k="addr:housenumber" v="48"/>
    <tag k="addr:street" v="Quint Road"/>
    <tag k="addr:state" v="VT"/>
    <tag k="ref:vcgi:esiteid" v="216027"/>
  </node>
  <node id="-605" visible="true" lat="44.18538839" lon="-72.13836671">
    <tag k="addr:housenumber" v="76"/>
    <tag k="addr:street" v="Pleasant Street"/>
    <tag k="addr:state" v="VT"/>
    <tag k="ref:vcgi:esiteid" v="216028"/>
  </node>
  <node id="-606" visible="true" lat="44.1852684" lon="-72.09818267">
    <tag k="addr:housenumber" v="135"/>
    <tag k="addr:street" v="Hemlock Drive"/>
    <tag k="addr:state" v="VT"/>
    <tag k="ref:vcgi:esiteid" v="216029"/>
  </node>
  <node id="-607" visible="true" lat="44.18533359" lon="-72.13775436">
    <tag k="addr:housenumber" v="106"/>
    <tag k="addr:street" v="Pleasant Street"/>
    <tag k="addr:state" v="VT"/>
    <tag k="ref:vcgi:esiteid" v="216030"/>
  </node>
  <node id="-608" visible="true" lat="44.18531148" lon="-72.13723218">
    <tag k="addr:housenumber" v="138"/>
    <tag k="addr:street" v="Pleasant Street"/>
    <tag k="addr:state" v="VT"/>
    <tag k="ref:vcgi:esiteid" v="216031"/>
  </node>
  <node id="-609" visible="true" lat="44.18514674" lon="-72.13564455">
    <tag k="addr:housenumber" v="212"/>
    <tag k="addr:street" v="Pleasant Street"/>
    <tag k="addr:state" v="VT"/>
    <tag k="ref:vcgi:esiteid" v="216032"/>
  </node>
  <node id="-610" visible="true" lat="44.18513107" lon="-72.13533783">
    <tag k="addr:housenumber" v="230"/>
    <tag k="addr:street" v="Pleasant Street"/>
    <tag k="addr:state" v="VT"/>
    <tag k="ref:vcgi:esiteid" v="216033"/>
  </node>
  <node id="-611" visible="true" lat="44.18491655" lon="-72.10102436">
    <tag k="addr:housenumber" v="390"/>
    <tag k="addr:street" v="Spruce Drive"/>
    <tag k="addr:state" v="VT"/>
    <tag k="ref:vcgi:esiteid" v="216034"/>
  </node>
  <node id="-612" visible="true" lat="44.18487167" lon="-72.11372375">
    <tag k="addr:housenumber" v="391"/>
    <tag k="addr:street" v="Quint Road"/>
    <tag k="addr:state" v="VT"/>
    <tag k="ref:vcgi:esiteid" v="216035"/>
  </node>
  <node id="-613" visible="true" lat="44.18490981" lon="-72.13998413">
    <tag k="addr:housenumber" v="240"/>
    <tag k="addr:street" v="Church Street"/>
    <tag k="addr:state" v="VT"/>
    <tag k="ref:vcgi:esiteid" v="216036"/>
  </node>
  <node id="-614" visible="true" lat="44.18487552" lon="-72.13928445">
    <tag k="addr:housenumber" v="259"/>
    <tag k="addr:street" v="Church Street"/>
    <tag k="addr:state" v="VT"/>
    <tag k="ref:vcgi:esiteid" v="216037"/>
  </node>
  <node id="-615" visible="true" lat="44.18468856" lon="-72.12625122">
    <tag k="addr:housenumber" v="1834"/>
    <tag k="addr:street" v="Scott Highway"/>
    <tag k="addr:state" v="VT"/>
    <tag k="ref:vcgi:esiteid" v="216038"/>
  </node>
  <node id="-616" visible="true" lat="44.18465372" lon="-72.08770518">
    <tag k="addr:housenumber" v="1931"/>
    <tag k="addr:street" v="South Bayley Hazen Road"/>
    <tag k="addr:state" v="VT"/>
    <tag k="ref:vcgi:esiteid" v="216039"/>
  </node>
  <node id="-617" visible="true" lat="44.18457531" lon="-72.13140638">
    <tag k="addr:housenumber" v="2089"/>
    <tag k="addr:street" v="Scott Highway"/>
    <tag k="addr:state" v="VT"/>
    <tag k="ref:vcgi:esiteid" v="216040"/>
  </node>
  <node id="-618" visible="true" lat="44.18463863" lon="-72.12965113">
    <tag k="addr:housenumber" v="2004"/>
    <tag k="addr:street" v="Scott Highway"/>
    <tag k="addr:state" v="VT"/>
    <tag k="ref:vcgi:esiteid" v="216041"/>
  </node>
  <node id="-619" visible="true" lat="44.18459968" lon="-72.12741299">
    <tag k="addr:housenumber" v="1888"/>
    <tag k="addr:street" v="Scott Highway"/>
    <tag k="addr:state" v="VT"/>
    <tag k="ref:vcgi:esiteid" v="216042"/>
  </node>
  <node id="-621" visible="true" lat="44.18458359" lon="-72.13232711">
    <tag k="addr:housenumber" v="2177"/>
    <tag k="addr:street" v="Scott Highway"/>
    <tag k="addr:state" v="VT"/>
    <tag k="ref:vcgi:esiteid" v="216044"/>
  </node>
  <node id="-622" visible="true" lat="44.1845349" lon="-72.12865328">
    <tag k="addr:housenumber" v="1964"/>
    <tag k="addr:street" v="Scott Highway"/>
    <tag k="addr:state" v="VT"/>
    <tag k="ref:vcgi:esiteid" v="216045"/>
  </node>
  <node id="-623" visible="true" lat="44.18451017" lon="-72.10101466">
    <tag k="addr:housenumber" v="358"/>
    <tag k="addr:street" v="Spruce Drive"/>
    <tag k="addr:state" v="VT"/>
    <tag k="ref:vcgi:esiteid" v="216046"/>
  </node>
  <node id="-624" visible="true" lat="44.18449965" lon="-72.13982367">
    <tag k="addr:housenumber" v="272"/>
    <tag k="addr:street" v="Church Street"/>
    <tag k="addr:state" v="VT"/>
    <tag k="ref:vcgi:esiteid" v="216047"/>
  </node>
  <node id="-625" visible="true" lat="44.18430328" lon="-72.09834289">
    <tag k="addr:housenumber" v="111"/>
    <tag k="addr:street" v="Pine Drive"/>
    <tag k="addr:state" v="VT"/>
    <tag k="ref:vcgi:esiteid" v="216048"/>
  </node>
  <node id="-626" visible="true" lat="44.18427295" lon="-72.13972976">
    <tag k="addr:housenumber" v="288"/>
    <tag k="addr:street" v="Church Street"/>
    <tag k="addr:state" v="VT"/>
    <tag k="ref:vcgi:esiteid" v="216050"/>
  </node>
  <node id="-627" visible="true" lat="44.18412399" lon="-72.11402893">
    <tag k="addr:housenumber" v="432"/>
    <tag k="addr:street" v="Quint Road"/>
    <tag k="addr:state" v="VT"/>
    <tag k="ref:vcgi:esiteid" v="216051"/>
  </node>
  <node id="-628" visible="true" lat="44.18415832" lon="-72.13074493">
    <tag k="addr:housenumber" v="2047"/>
    <tag k="addr:street" v="Scott Highway"/>
    <tag k="addr:state" v="VT"/>
    <tag k="ref:vcgi:esiteid" v="216052"/>
  </node>
  <node id="-629" visible="true" lat="44.18410036" lon="-72.12887274">
    <tag k="addr:housenumber" v="1953"/>
    <tag k="addr:street" v="Scott Highway"/>
    <tag k="addr:state" v="VT"/>
    <tag k="ref:vcgi:esiteid" v="216053"/>
  </node>
  <node id="-630" visible="true" lat="44.18418703" lon="-72.13846457">
    <tag k="addr:housenumber" v="23"/>
    <tag k="addr:street" v="Terry Hill Road"/>
    <tag k="addr:state" v="VT"/>
    <tag k="ref:vcgi:esiteid" v="216054"/>
  </node>
  <node id="-631" visible="true" lat="44.18406657" lon="-72.1392563">
    <tag k="addr:housenumber" v="311"/>
    <tag k="addr:street" v="Church Street"/>
    <tag k="addr:state" v="VT"/>
    <tag k="ref:vcgi:esiteid" v="216055"/>
  </node>
  <node id="-632" visible="true" lat="44.18389891" lon="-72.13971387">
    <tag k="addr:housenumber" v="308"/>
    <tag k="addr:street" v="Church Street"/>
    <tag k="addr:state" v="VT"/>
    <tag k="ref:vcgi:esiteid" v="216056"/>
  </node>
  <node id="-633" visible="true" lat="44.18379711" lon="-72.1390534">
    <tag k="addr:housenumber" v="17"/>
    <tag k="addr:street" v="Terry Hill Road"/>
    <tag k="addr:state" v="VT"/>
    <tag k="ref:vcgi:esiteid" v="216057"/>
  </node>
  <node id="-635" visible="true" lat="44.18370348" lon="-72.13970068">
    <tag k="addr:housenumber" v="342"/>
    <tag k="addr:street" v="Church Street"/>
    <tag k="addr:state" v="VT"/>
    <tag k="ref:vcgi:esiteid" v="216059"/>
  </node>
  <node id="-639" visible="true" lat="44.18248283" lon="-72.11669783">
    <tag k="addr:housenumber" v="190"/>
    <tag k="addr:street" v="Creamery Road"/>
    <tag k="addr:state" v="VT"/>
    <tag k="ref:vcgi:esiteid" v="216063"/>
  </node>
  <node id="-640" visible="true" lat="44.18132781" lon="-72.06096649">
    <tag k="addr:housenumber" v="1886"/>
    <tag k="addr:street" v="Ryegate Road"/>
    <tag k="addr:state" v="VT"/>
    <tag k="ref:vcgi:esiteid" v="216064"/>
  </node>
  <node id="-641" visible="true" lat="44.18147312" lon="-72.11872032">
    <tag k="addr:housenumber" v="1281"/>
    <tag k="addr:street" v="Scott Highway"/>
    <tag k="addr:state" v="VT"/>
    <tag k="ref:vcgi:esiteid" v="216065"/>
  </node>
  <node id="-642" visible="true" lat="44.18077895" lon="-72.11358963">
    <tag k="addr:housenumber" v="656"/>
    <tag k="addr:street" v="Quint Road"/>
    <tag k="addr:state" v="VT"/>
    <tag k="ref:vcgi:esiteid" v="216066"/>
  </node>
  <node id="-643" visible="true" lat="44.18037414" lon="-72.11921691">
    <tag k="addr:housenumber" v="1255"/>
    <tag k="addr:street" v="Scott Highway"/>
    <tag k="addr:state" v="VT"/>
    <tag k="ref:vcgi:esiteid" v="216067"/>
  </node>
  <node id="-645" visible="true" lat="44.17915344" lon="-72.06058502">
    <tag k="addr:housenumber" v="1735"/>
    <tag k="addr:street" v="Ryegate Road"/>
    <tag k="addr:state" v="VT"/>
    <tag k="ref:vcgi:esiteid" v="216069"/>
  </node>
  <node id="-646" visible="true" lat="44.1782341" lon="-72.06023406">
    <tag k="addr:housenumber" v="1669"/>
    <tag k="addr:street" v="Ryegate Road"/>
    <tag k="addr:state" v="VT"/>
    <tag k="ref:vcgi:esiteid" v="216070"/>
  </node>
  <node id="-647" visible="true" lat="44.17735965" lon="-72.07617161">
    <tag k="addr:housenumber" v="276"/>
    <tag k="addr:street" v="Elliot Drive"/>
    <tag k="addr:state" v="VT"/>
    <tag k="ref:vcgi:esiteid" v="216071"/>
  </node>
  <node id="-648" visible="true" lat="44.17703628" lon="-72.05998992">
    <tag k="addr:housenumber" v="1587"/>
    <tag k="addr:street" v="Ryegate Road"/>
    <tag k="addr:state" v="VT"/>
    <tag k="ref:vcgi:esiteid" v="216072"/>
  </node>
  <node id="-652" visible="true" lat="44.1757455" lon="-72.08742865">
    <tag k="addr:housenumber" v="2516"/>
    <tag k="addr:street" v="South Bayley Hazen Road"/>
    <tag k="addr:state" v="VT"/>
    <tag k="ref:vcgi:esiteid" v="216077"/>
  </node>
  <node id="-653" visible="true" lat="44.17551187" lon="-72.07634969">
    <tag k="addr:housenumber" v="152"/>
    <tag k="addr:street" v="Elliot Drive"/>
    <tag k="addr:state" v="VT"/>
    <tag k="ref:vcgi:esiteid" v="216078"/>
  </node>
  <node id="-654" visible="true" lat="44.17498785" lon="-72.10406396">
    <tag k="addr:housenumber" v="197"/>
    <tag k="addr:street" v="McLure Road"/>
    <tag k="addr:state" v="VT"/>
    <tag k="ref:vcgi:esiteid" v="216079"/>
  </node>
  <node id="-657" visible="true" lat="44.17434075" lon="-72.07887726">
    <tag k="addr:housenumber" v="2883"/>
    <tag k="addr:street" v="South Bayley Hazen Road"/>
    <tag k="addr:state" v="VT"/>
    <tag k="ref:vcgi:esiteid" v="216083"/>
  </node>
  <node id="-658" visible="true" lat="44.17398139" lon="-72.07773159">
    <tag k="addr:housenumber" v="2939"/>
    <tag k="addr:street" v="South Bayley Hazen Road"/>
    <tag k="addr:state" v="VT"/>
    <tag k="ref:vcgi:esiteid" v="216084"/>
  </node>
  <node id="-667" visible="true" lat="44.17269252" lon="-72.0989481">
    <tag k="addr:housenumber" v="278"/>
    <tag k="addr:street" v="Boltonville Road"/>
    <tag k="addr:state" v="VT"/>
    <tag k="ref:vcgi:esiteid" v="216094"/>
  </node>
  <node id="-668" visible="true" lat="44.17230481" lon="-72.0969023">
    <tag k="addr:housenumber" v="1058"/>
    <tag k="addr:street" v="Whitelaw Road"/>
    <tag k="addr:state" v="VT"/>
    <tag k="ref:vcgi:esiteid" v="216095"/>
  </node>
  <node id="-670" visible="true" lat="44.17192458" lon="-72.07902669">
    <tag k="addr:housenumber" v="221"/>
    <tag k="addr:street" v="Stapelfeld Drive"/>
    <tag k="addr:state" v="VT"/>
    <tag k="ref:vcgi:esiteid" v="216097"/>
  </node>
  <node id="-672" visible="true" lat="44.17197448" lon="-72.09803716">
    <tag k="addr:housenumber" v="1110"/>
    <tag k="addr:street" v="Whitelaw Road"/>
    <tag k="addr:state" v="VT"/>
    <tag k="ref:vcgi:esiteid" v="216099"/>
  </node>
  <node id="-673" visible="true" lat="44.17158846" lon="-72.05500758">
    <tag k="addr:housenumber" v="1118"/>
    <tag k="addr:street" v="Ryegate Road"/>
    <tag k="addr:state" v="VT"/>
    <tag k="ref:vcgi:esiteid" v="216100"/>
  </node>
  <node id="-674" visible="true" lat="44.17144775" lon="-72.08898925">
    <tag k="addr:housenumber" v="448"/>
    <tag k="addr:street" v="Whitelaw Road"/>
    <tag k="addr:state" v="VT"/>
    <tag k="ref:vcgi:esiteid" v="216101"/>
  </node>
  <node id="-675" visible="true" lat="44.1713066" lon="-72.0859909">
    <tag k="addr:housenumber" v="341"/>
    <tag k="addr:street" v="Whitelaw Road"/>
    <tag k="addr:state" v="VT"/>
    <tag k="ref:vcgi:esiteid" v="216102"/>
  </node>
  <node id="-677" visible="true" lat="44.17020155" lon="-72.07910418">
    <tag k="addr:housenumber" v="331"/>
    <tag k="addr:street" v="Stapelfeld Drive"/>
    <tag k="addr:state" v="VT"/>
    <tag k="ref:vcgi:esiteid" v="216104"/>
  </node>
  <node id="-679" visible="true" lat="44.17010289" lon="-72.08067486">
    <tag k="addr:housenumber" v="384"/>
    <tag k="addr:street" v="Stapelfeld Drive"/>
    <tag k="addr:state" v="VT"/>
    <tag k="ref:vcgi:esiteid" v="216106"/>
  </node>
  <node id="-680" visible="true" lat="44.16954803" lon="-72.08615112">
    <tag k="addr:housenumber" v="459"/>
    <tag k="addr:street" v="Whitelaw Road"/>
    <tag k="addr:state" v="VT"/>
    <tag k="ref:vcgi:esiteid" v="216107"/>
  </node>
  <node id="-682" visible="true" lat="44.16928292" lon="-72.07338158">
    <tag k="addr:housenumber" v="3309"/>
    <tag k="addr:street" v="South Bayley Hazen Road"/>
    <tag k="addr:state" v="VT"/>
    <tag k="ref:vcgi:esiteid" v="216109"/>
  </node>
  <node id="-683" visible="true" lat="44.1693077" lon="-72.08763122">
    <tag k="addr:housenumber" v="546"/>
    <tag k="addr:street" v="Whitelaw Road"/>
    <tag k="addr:state" v="VT"/>
    <tag k="ref:vcgi:esiteid" v="216110"/>
  </node>
  <node id="-684" visible="true" lat="44.16884277" lon="-72.08092136">
    <tag k="addr:housenumber" v="440"/>
    <tag k="addr:street" v="Stapelfeld Drive"/>
    <tag k="addr:state" v="VT"/>
    <tag k="ref:vcgi:esiteid" v="216111"/>
  </node>
  <node id="-685" visible="true" lat="44.16886901" lon="-72.08625793">
    <tag k="addr:housenumber" v="489"/>
    <tag k="addr:street" v="Whitelaw Road"/>
    <tag k="addr:state" v="VT"/>
    <tag k="ref:vcgi:esiteid" v="216112"/>
  </node>
  <node id="-686" visible="true" lat="44.16873833" lon="-72.05594263">
    <tag k="addr:housenumber" v="916"/>
    <tag k="addr:street" v="Ryegate Road"/>
    <tag k="addr:state" v="VT"/>
    <tag k="ref:vcgi:esiteid" v="216113"/>
  </node>
  <node id="-687" visible="true" lat="44.16823453" lon="-72.05540992">
    <tag k="addr:housenumber" v="874"/>
    <tag k="addr:street" v="Ryegate Road"/>
    <tag k="addr:state" v="VT"/>
    <tag k="ref:vcgi:esiteid" v="216114"/>
  </node>
  <node id="-688" visible="true" lat="44.16761297" lon="-72.05472063">
    <tag k="addr:housenumber" v="814"/>
    <tag k="addr:street" v="Ryegate Road"/>
    <tag k="addr:state" v="VT"/>
    <tag k="ref:vcgi:esiteid" v="216115"/>
  </node>
  <node id="-690" visible="true" lat="44.16711055" lon="-72.05409251">
    <tag k="addr:housenumber" v="770"/>
    <tag k="addr:street" v="Ryegate Road"/>
    <tag k="addr:state" v="VT"/>
    <tag k="ref:vcgi:esiteid" v="216117"/>
  </node>
  <node id="-692" visible="true" lat="44.16665463" lon="-72.05391021">
    <tag k="addr:housenumber" v="738"/>
    <tag k="addr:street" v="Ryegate Road"/>
    <tag k="addr:state" v="VT"/>
    <tag k="ref:vcgi:esiteid" v="216119"/>
  </node>
  <node id="-693" visible="true" lat="44.16575657" lon="-72.07247572">
    <tag k="addr:housenumber" v="3560"/>
    <tag k="addr:street" v="South Bayley Hazen Road"/>
    <tag k="addr:state" v="VT"/>
    <tag k="ref:vcgi:esiteid" v="216120"/>
  </node>
  <node id="-694" visible="true" lat="44.16557441" lon="-72.07260884">
    <tag k="addr:housenumber" v="3564"/>
    <tag k="addr:street" v="South Bayley Hazen Road"/>
    <tag k="addr:state" v="VT"/>
    <tag k="ref:vcgi:esiteid" v="216121"/>
  </node>
  <node id="-695" visible="true" lat="44.16464435" lon="-72.0714476">
    <tag k="addr:housenumber" v="3624"/>
    <tag k="addr:street" v="South Bayley Hazen Road"/>
    <tag k="addr:state" v="VT"/>
    <tag k="ref:vcgi:esiteid" v="216122"/>
  </node>
  <node id="-696" visible="true" lat="44.16455078" lon="-72.05085754">
    <tag k="addr:housenumber" v="530"/>
    <tag k="addr:street" v="Ryegate Road"/>
    <tag k="addr:state" v="VT"/>
    <tag k="ref:vcgi:esiteid" v="216123"/>
  </node>
  <node id="-697" visible="true" lat="44.16318972" lon="-72.04945012">
    <tag k="addr:housenumber" v="416"/>
    <tag k="addr:street" v="Ryegate Road"/>
    <tag k="addr:state" v="VT"/>
    <tag k="ref:vcgi:esiteid" v="216124"/>
  </node>
  <node id="-698" visible="true" lat="44.16246032" lon="-72.04946899">
    <tag k="addr:housenumber" v="375"/>
    <tag k="addr:street" v="Ryegate Road"/>
    <tag k="addr:state" v="VT"/>
    <tag k="ref:vcgi:esiteid" v="216125"/>
  </node>
  <node id="-699" visible="true" lat="44.1612389" lon="-72.05788229">
    <tag k="addr:housenumber" v="283"/>
    <tag k="addr:street" v="Mountain View Drive"/>
    <tag k="addr:state" v="VT"/>
    <tag k="ref:vcgi:esiteid" v="216126"/>
  </node>
  <node id="-700" visible="true" lat="44.16095261" lon="-72.04504479">
    <tag k="addr:housenumber" v="315"/>
    <tag k="addr:street" v="Randall Hill Road"/>
    <tag k="addr:state" v="VT"/>
    <tag k="ref:vcgi:esiteid" v="216127"/>
  </node>
  <node id="-701" visible="true" lat="44.15848541" lon="-72.04761505">
    <tag k="addr:housenumber" v="21"/>
    <tag k="addr:street" v="Ryegate Road"/>
    <tag k="addr:state" v="VT"/>
    <tag k="ref:vcgi:esiteid" v="216128"/>
  </node>
  <node id="-702" visible="true" lat="44.15768051" lon="-72.04483795">
    <tag k="addr:housenumber" v="58"/>
    <tag k="addr:street" v="Randall Hill Road"/>
    <tag k="addr:state" v="VT"/>
    <tag k="ref:vcgi:esiteid" v="216129"/>
  </node>
  <node id="-703" visible="true" lat="44.15741564" lon="-72.0452894">
    <tag k="addr:housenumber" v="35"/>
    <tag k="addr:street" v="Randall Hill Road"/>
    <tag k="addr:state" v="VT"/>
    <tag k="ref:vcgi:esiteid" v="216130"/>
  </node>
  <node id="-704" visible="true" lat="44.1572406" lon="-72.04452381">
    <tag k="addr:housenumber" v="12"/>
    <tag k="addr:street" v="Randall Hill Road"/>
    <tag k="addr:state" v="VT"/>
    <tag k="ref:vcgi:esiteid" v="216131"/>
  </node>
  <node id="-705" visible="true" lat="44.27218412" lon="-72.17830595">
    <tag k="addr:housenumber" v="234"/>
    <tag k="addr:street" v="Elizabeth Farm Road"/>
    <tag k="addr:state" v="VT"/>
    <tag k="ref:vcgi:esiteid" v="216132"/>
  </node>
  <node id="-706" visible="true" lat="44.25843595" lon="-72.16281829">
    <tag k="addr:housenumber" v="444"/>
    <tag k="addr:street" v="Mosquitoville Road"/>
    <tag k="addr:state" v="VT"/>
    <tag k="ref:vcgi:esiteid" v="216133"/>
  </node>
  <node id="-707" visible="true" lat="44.188338" lon="-72.07871847">
    <tag k="addr:housenumber" v="800"/>
    <tag k="addr:street" v="Davidson Road"/>
    <tag k="addr:state" v="VT"/>
    <tag k="ref:vcgi:esiteid" v="216135"/>
  </node>
  <node id="-708" visible="true" lat="44.22793691" lon="-72.12287579">
    <tag k="addr:housenumber" v="753"/>
    <tag k="addr:street" v="Blue Mountain Road"/>
    <tag k="addr:state" v="VT"/>
    <tag k="ref:vcgi:esiteid" v="216136"/>
  </node>
  <node id="-709" visible="true" lat="44.1935794" lon="-72.06983397">
    <tag k="addr:housenumber" v="2795"/>
    <tag k="addr:street" v="Ryegate Road"/>
    <tag k="addr:state" v="VT"/>
    <tag k="ref:vcgi:esiteid" v="216137"/>
  </node>
  <node id="-710" visible="true" lat="44.18654074" lon="-72.12616169">
    <tag k="addr:housenumber" v="362"/>
    <tag k="addr:street" v="Pinehurst Road"/>
    <tag k="addr:state" v="VT"/>
    <tag k="ref:vcgi:esiteid" v="216138"/>
  </node>
  <node id="-711" visible="true" lat="44.16043241" lon="-72.0484809">
    <tag k="addr:housenumber" v="175"/>
    <tag k="addr:street" v="Ryegate Road"/>
    <tag k="addr:state" v="VT"/>
    <tag k="ref:vcgi:esiteid" v="216139"/>
  </node>
  <node id="-712" visible="true" lat="44.19788686" lon="-72.15219459">
    <tag k="addr:housenumber" v="3462"/>
    <tag k="addr:street" v="Scott Highway"/>
    <tag k="addr:state" v="VT"/>
    <tag k="ref:vcgi:esiteid" v="216140"/>
  </node>
  <node id="-713" visible="true" lat="44.19137544" lon="-72.06706932">
    <tag k="addr:housenumber" v="2644"/>
    <tag k="addr:street" v="Ryegate Road"/>
    <tag k="addr:state" v="VT"/>
    <tag k="ref:vcgi:esiteid" v="216141"/>
  </node>
  <node id="-714" visible="true" lat="44.2572418" lon="-72.13759538">
    <tag k="addr:housenumber" v="500"/>
    <tag k="addr:street" v="Apostle Will Drive"/>
    <tag k="addr:state" v="VT"/>
    <tag k="ref:vcgi:esiteid" v="216142"/>
  </node>
  <node id="-715" visible="true" lat="44.18725074" lon="-72.14545016">
    <tag k="addr:housenumber" v="2779"/>
    <tag k="addr:street" v="Scott Highway"/>
    <tag k="addr:state" v="VT"/>
    <tag k="ref:vcgi:esiteid" v="216143"/>
  </node>
  <node id="-716" visible="true" lat="44.22976231" lon="-72.16675643">
    <tag k="addr:housenumber" v="561"/>
    <tag k="addr:street" v="Hooper Hill Road"/>
    <tag k="addr:state" v="VT"/>
    <tag k="ref:vcgi:esiteid" v="216146"/>
  </node>
  <node id="-717" visible="true" lat="44.20154751" lon="-72.14314042">
    <tag k="addr:housenumber" v="1031"/>
    <tag k="addr:street" v="Hall Road"/>
    <tag k="addr:state" v="VT"/>
    <tag k="ref:vcgi:esiteid" v="216147"/>
  </node>
  <node id="-718" visible="true" lat="44.22005971" lon="-72.12809737">
    <tag k="addr:housenumber" v="140"/>
    <tag k="addr:street" v="Perkins Lane"/>
    <tag k="addr:state" v="VT"/>
    <tag k="ref:vcgi:esiteid" v="216148"/>
  </node>
  <node id="-719" visible="true" lat="44.18459635" lon="-72.13200807">
    <tag k="addr:housenumber" v="2175"/>
    <tag k="addr:street" v="Scott Highway"/>
    <tag k="addr:state" v="VT"/>
    <tag k="ref:vcgi:esiteid" v="216149"/>
  </node>
  <node id="-720" visible="true" lat="44.18732895" lon="-72.12440049">
    <tag k="addr:housenumber" v="422"/>
    <tag k="addr:street" v="Creamery Road"/>
    <tag k="addr:state" v="VT"/>
    <tag k="ref:vcgi:esiteid" v="216151"/>
  </node>
  <node id="-721" visible="true" lat="44.20965343" lon="-72.08226217">
    <tag k="addr:housenumber" v="201"/>
    <tag k="addr:street" v="Eastwood Lane"/>
    <tag k="addr:state" v="VT"/>
    <tag k="ref:vcgi:esiteid" v="216152"/>
  </node>
  <node id="-723" visible="true" lat="44.1713752" lon="-72.08657484">
    <tag k="addr:housenumber" v="340"/>
    <tag k="addr:street" v="Whitelaw Road"/>
    <tag k="addr:state" v="VT"/>
    <tag k="ref:vcgi:esiteid" v="216154"/>
  </node>
  <node id="-724" visible="true" lat="44.17145813" lon="-72.08571071">
    <tag k="addr:housenumber" v="339"/>
    <tag k="addr:street" v="Whitelaw Road"/>
    <tag k="addr:state" v="VT"/>
    <tag k="ref:vcgi:esiteid" v="216155"/>
  </node>
  <node id="-725" visible="true" lat="44.16161883" lon="-72.05942691">
    <tag k="addr:housenumber" v="281"/>
    <tag k="addr:street" v="Mountain View Drive"/>
    <tag k="addr:state" v="VT"/>
    <tag k="ref:vcgi:esiteid" v="216156"/>
  </node>
  <node id="-726" visible="true" lat="44.1848562" lon="-72.13430758">
    <tag k="addr:housenumber" v="356"/>
    <tag k="addr:street" v="Pleasant Street"/>
    <tag k="addr:state" v="VT"/>
    <tag k="ref:vcgi:esiteid" v="216157"/>
  </node>
  <node id="-728" visible="true" lat="44.25816102" lon="-72.17135838">
    <tag k="addr:housenumber" v="34"/>
    <tag k="addr:street" v="Foley Hill Road"/>
    <tag k="addr:state" v="VT"/>
    <tag k="ref:vcgi:esiteid" v="216159"/>
  </node>
  <node id="-729" visible="true" lat="44.2391242" lon="-72.05339904">
    <tag k="addr:housenumber" v="6200"/>
    <tag k="addr:street" v="Ryegate Road"/>
    <tag k="addr:state" v="VT"/>
    <tag k="ref:vcgi:esiteid" v="216161"/>
  </node>
  <node id="-730" visible="true" lat="44.17614761" lon="-72.07605313">
    <tag k="addr:housenumber" v="166"/>
    <tag k="addr:street" v="Elliot Drive"/>
    <tag k="addr:state" v="VT"/>
    <tag k="ref:vcgi:esiteid" v="216162"/>
  </node>
  <node id="-731" visible="true" lat="44.19641287" lon="-72.12257154">
    <tag k="addr:housenumber" v="1143"/>
    <tag k="addr:street" v="Gilfillan Road"/>
    <tag k="addr:state" v="VT"/>
    <tag k="ref:vcgi:esiteid" v="216163"/>
  </node>
  <node id="-732" visible="true" lat="44.18924764" lon="-72.13197221">
    <tag k="addr:housenumber" v="1875"/>
    <tag k="addr:street" v="Gilfillan Road"/>
    <tag k="addr:state" v="VT"/>
    <tag k="ref:vcgi:esiteid" v="216164"/>
  </node>
  <node id="-733" visible="true" lat="44.22875018" lon="-72.0585306">
    <tag k="addr:housenumber" v="5469"/>
    <tag k="addr:street" v="Ryegate Road"/>
    <tag k="addr:state" v="VT"/>
    <tag k="ref:vcgi:esiteid" v="216165"/>
  </node>
  <node id="-736" visible="true" lat="44.17862581" lon="-72.08117097">
    <tag k="addr:housenumber" v="2595"/>
    <tag k="addr:street" v="South Bayley Hazen Road"/>
    <tag k="addr:state" v="VT"/>
    <tag k="ref:vcgi:esiteid" v="216168"/>
  </node>
  <node id="-737" visible="true" lat="44.19998538" lon="-72.073268">
    <tag k="addr:housenumber" v="1847"/>
    <tag k="addr:street" v="East Road"/>
    <tag k="addr:state" v="VT"/>
    <tag k="ref:vcgi:esiteid" v="216170"/>
  </node>
  <node id="-738" visible="true" lat="44.19437573" lon="-72.15548184">
    <tag k="addr:housenumber" v="435"/>
    <tag k="addr:street" v="Barr Drive"/>
    <tag k="addr:state" v="VT"/>
    <tag k="ref:vcgi:esiteid" v="216171"/>
  </node>
  <node id="-741" visible="true" lat="44.18918844" lon="-72.09127974">
    <tag k="addr:housenumber" v="1569"/>
    <tag k="addr:street" v="South Bayley Hazen Road"/>
    <tag k="addr:state" v="VT"/>
    <tag k="ref:vcgi:esiteid" v="216174"/>
  </node>
  <node id="-742" visible="true" lat="44.1646055" lon="-72.04897827">
    <tag k="addr:housenumber" v="360"/>
    <tag k="addr:street" v="Ryegate Road"/>
    <tag k="addr:state" v="VT"/>
    <tag k="ref:vcgi:esiteid" v="305530"/>
  </node>
  <node id="-743" visible="true" lat="44.18688074" lon="-72.1205849">
    <tag k="addr:housenumber" v="296"/>
    <tag k="addr:street" v="Creamery Road"/>
    <tag k="addr:state" v="VT"/>
    <tag k="ref:vcgi:esiteid" v="305549"/>
  </node>
  <node id="-744" visible="true" lat="44.18343971" lon="-72.10058236">
    <tag k="addr:housenumber" v="262"/>
    <tag k="addr:street" v="Spruce Drive"/>
    <tag k="addr:state" v="VT"/>
    <tag k="ref:vcgi:esiteid" v="305664"/>
  </node>
  <node id="-745" visible="true" lat="44.17019438" lon="-72.08620848">
    <tag k="addr:housenumber" v="367"/>
    <tag k="addr:street" v="Whitelaw Road"/>
    <tag k="addr:state" v="VT"/>
    <tag k="ref:vcgi:esiteid" v="306213"/>
  </node>
  <node id="-748" visible="true" lat="44.23178935" lon="-72.05780107">
    <tag k="addr:housenumber" v="5667"/>
    <tag k="addr:street" v="Ryegate Road"/>
    <tag k="addr:state" v="VT"/>
    <tag k="ref:vcgi:esiteid" v="312522"/>
  </node>
  <node id="-749" visible="true" lat="44.22634532" lon="-72.14809876">
    <tag k="addr:housenumber" v="2665"/>
    <tag k="addr:street" v="Stone Road"/>
    <tag k="addr:state" v="VT"/>
    <tag k="ref:vcgi:esiteid" v="312523"/>
  </node>
  <node id="-750" visible="true" lat="44.18444976" lon="-72.08867849">
    <tag k="addr:housenumber" v="1932"/>
    <tag k="addr:street" v="South Bayley Hazen Road"/>
    <tag k="addr:state" v="VT"/>
    <tag k="ref:vcgi:esiteid" v="315316"/>
  </node>
  <node id="-751" visible="true" lat="44.19378278" lon="-72.13853171">
    <tag k="addr:housenumber" v="340"/>
    <tag k="addr:street" v="Hall Road"/>
    <tag k="addr:state" v="VT"/>
    <tag k="ref:vcgi:esiteid" v="315318"/>
  </node>
  <node id="-752" visible="true" lat="44.21478326" lon="-72.05685105">
    <tag k="addr:housenumber" v="245"/>
    <tag k="addr:street" v="Weesner Drive"/>
    <tag k="addr:state" v="VT"/>
    <tag k="ref:vcgi:esiteid" v="315319"/>
  </node>
  <node id="-755" visible="true" lat="44.21180495" lon="-72.1368525">
    <tag k="addr:housenumber" v="10"/>
    <tag k="addr:street" v="Buchanan Drive"/>
    <tag k="addr:state" v="VT"/>
    <tag k="ref:vcgi:esiteid" v="326312"/>
  </node>
  <node id="-756" visible="true" lat="44.1697669" lon="-72.07267063">
    <tag k="addr:housenumber" v="3341"/>
    <tag k="addr:street" v="South Bayley Hazen Road"/>
    <tag k="addr:state" v="VT"/>
    <tag k="ref:vcgi:esiteid" v="328142"/>
  </node>
  <node id="-758" visible="true" lat="44.21184042" lon="-72.08565195">
    <tag k="addr:housenumber" v="231"/>
    <tag k="addr:street" v="Nelson Drive"/>
    <tag k="addr:state" v="VT"/>
    <tag k="ref:vcgi:esiteid" v="328144"/>
  </node>
  <node id="-761" visible="true" lat="44.20574086" lon="-72.07332548">
    <tag k="addr:housenumber" v="131"/>
    <tag k="addr:street" v="Gibson Road"/>
    <tag k="addr:state" v="VT"/>
    <tag k="ref:vcgi:esiteid" v="331021"/>
  </node>
  <node id="-762" visible="true" lat="44.19867832" lon="-72.15460295">
    <tag k="addr:housenumber" v="3464"/>
    <tag k="addr:street" v="Scott Highway"/>
    <tag k="addr:state" v="VT"/>
    <tag k="ref:vcgi:esiteid" v="331357"/>
  </node>
  <node id="-763" visible="true" lat="44.19681408" lon="-72.15651555">
    <tag k="addr:housenumber" v="3465"/>
    <tag k="addr:street" v="Scott Highway"/>
    <tag k="addr:state" v="VT"/>
    <tag k="ref:vcgi:esiteid" v="331358"/>
  </node>
  <node id="-764" visible="true" lat="44.19402927" lon="-72.1476887">
    <tag k="addr:housenumber" v="3240"/>
    <tag k="addr:street" v="Scott Highway"/>
    <tag k="addr:state" v="VT"/>
    <tag k="ref:vcgi:esiteid" v="332434"/>
  </node>
  <node id="-765" visible="true" lat="44.25238457" lon="-72.06685971">
    <tag k="addr:housenumber" v="645"/>
    <tag k="addr:street" v="Liddle Drive"/>
    <tag k="addr:state" v="VT"/>
    <tag k="ref:vcgi:esiteid" v="335701"/>
  </node>
  <node id="-768" visible="true" lat="44.17549089" lon="-72.08395121">
    <tag k="addr:housenumber" v="2594"/>
    <tag k="addr:street" v="South Bayley Hazen Road"/>
    <tag k="addr:state" v="VT"/>
    <tag k="ref:vcgi:esiteid" v="336205"/>
  </node>
  <node id="-770" visible="true" lat="44.21000201" lon="-72.06210056">
    <tag k="addr:housenumber" v="4081"/>
    <tag k="addr:street" v="Ryegate Road"/>
    <tag k="addr:state" v="VT"/>
    <tag k="ref:vcgi:esiteid" v="337685"/>
  </node>
  <node id="-771" visible="true" lat="44.20356689" lon="-72.14581903">
    <tag k="addr:housenumber" v="1120"/>
    <tag k="addr:street" v="Stone Road"/>
    <tag k="addr:state" v="VT"/>
    <tag k="ref:vcgi:esiteid" v="338599"/>
  </node>
  <node id="-772" visible="true" lat="44.18954031" lon="-72.15266827">
    <tag k="addr:housenumber" v="376"/>
    <tag k="addr:street" v="Farquharson Drive"/>
    <tag k="addr:state" v="VT"/>
    <tag k="ref:vcgi:esiteid" v="339005"/>
  </node>
  <node id="-774" visible="true" lat="44.18742294" lon="-72.14859714">
    <tag k="addr:housenumber" v="373"/>
    <tag k="addr:street" v="Farquharson Drive"/>
    <tag k="addr:state" v="VT"/>
    <tag k="ref:vcgi:esiteid" v="339152"/>
  </node>
  <node id="-777" visible="true" lat="44.19085103" lon="-72.15502469">
    <tag k="addr:housenumber" v="575"/>
    <tag k="addr:street" v="Barr Drive"/>
    <tag k="addr:state" v="VT"/>
    <tag k="ref:vcgi:esiteid" v="365049"/>
  </node>
  <node id="-778" visible="true" lat="44.19257961" lon="-72.12539005">
    <tag k="addr:housenumber" v="66"/>
    <tag k="addr:street" v="Appleton Perry Drive"/>
    <tag k="addr:state" v="VT"/>
    <tag k="ref:vcgi:esiteid" v="365050"/>
  </node>
  <node id="-779" visible="true" lat="44.19085577" lon="-72.10124589">
    <tag k="addr:housenumber" v="421"/>
    <tag k="addr:street" v="Ticklenaked Pond Road"/>
    <tag k="addr:state" v="VT"/>
    <tag k="ref:vcgi:esiteid" v="365498"/>
  </node>
  <node id="-780" visible="true" lat="44.20902838" lon="-72.13733307">
    <tag k="addr:housenumber" v="178"/>
    <tag k="addr:street" v="Buchanan Drive"/>
    <tag k="addr:state" v="VT"/>
    <tag k="ref:vcgi:esiteid" v="446475"/>
  </node>
  <node id="-781" visible="true" lat="44.24426666" lon="-72.12969081">
    <tag k="addr:housenumber" v="625"/>
    <tag k="addr:street" v="Meader Road"/>
    <tag k="addr:state" v="VT"/>
    <tag k="ref:vcgi:esiteid" v="448230"/>
  </node>
  <node id="-782" visible="true" lat="44.18395069" lon="-72.09895854">
    <tag k="addr:housenumber" v="981"/>
    <tag k="addr:street" v="Boltonville Road"/>
    <tag k="addr:state" v="VT"/>
    <tag k="ref:vcgi:esiteid" v="451261"/>
  </node>
  <node id="-783" visible="true" lat="44.24415699" lon="-72.09885057">
    <tag k="addr:housenumber" v="456"/>
    <tag k="addr:street" v="Paradise Way"/>
    <tag k="addr:state" v="VT"/>
    <tag k="ref:vcgi:esiteid" v="452557"/>
  </node>
  <node id="-784" visible="true" lat="44.24346095" lon="-72.09948537">
    <tag k="addr:housenumber" v="455"/>
    <tag k="addr:street" v="Paradise Way"/>
    <tag k="addr:state" v="VT"/>
    <tag k="ref:vcgi:esiteid" v="452558"/>
  </node>
  <node id="-785" visible="true" lat="44.24260615" lon="-72.09924833">
    <tag k="addr:housenumber" v="297"/>
    <tag k="addr:street" v="Paradise Way"/>
    <tag k="addr:state" v="VT"/>
    <tag k="ref:vcgi:esiteid" v="452559"/>
  </node>
  <node id="-786" visible="true" lat="44.24195582" lon="-72.09946276">
    <tag k="addr:housenumber" v="295"/>
    <tag k="addr:street" v="Paradise Way"/>
    <tag k="addr:state" v="VT"/>
    <tag k="ref:vcgi:esiteid" v="452560"/>
  </node>
  <node id="-787" visible="true" lat="44.24852753" lon="-72.10332346">
    <tag k="addr:housenumber" v="1249"/>
    <tag k="addr:street" v="Blaisdell Lane"/>
    <tag k="addr:state" v="VT"/>
    <tag k="ref:vcgi:esiteid" v="452689"/>
  </node>
  <node id="-788" visible="true" lat="44.19126764" lon="-72.154877">
    <tag k="addr:housenumber" v="573"/>
    <tag k="addr:street" v="Barr Drive"/>
    <tag k="addr:state" v="VT"/>
    <tag k="ref:vcgi:esiteid" v="455060"/>
  </node>
  <node id="-791" visible="true" lat="44.18956704" lon="-72.14279714">
    <tag k="addr:housenumber" v="1442"/>
    <tag k="addr:street" v="Creamery Road"/>
    <tag k="addr:state" v="VT"/>
    <tag k="ref:vcgi:esiteid" v="611412"/>
  </node>
  <node id="-792" visible="true" lat="44.24527849" lon="-72.09160799">
    <tag k="addr:housenumber" v="239"/>
    <tag k="addr:street" v="North Hunt Mill Road"/>
    <tag k="addr:state" v="VT"/>
    <tag k="ref:vcgi:esiteid" v="613086"/>
  </node>
  <node id="-793" visible="true" lat="44.20636262" lon="-72.11331029">
    <tag k="addr:housenumber" v="188"/>
    <tag k="addr:street" v="Scotch Burn Drive"/>
    <tag k="addr:state" v="VT"/>
    <tag k="ref:vcgi:esiteid" v="617183"/>
  </node>
  <node id="-794" visible="true" lat="44.20142768" lon="-72.05991919">
    <tag k="addr:housenumber" v="288"/>
    <tag k="addr:street" v="River Road"/>
    <tag k="addr:state" v="VT"/>
    <tag k="ref:vcgi:esiteid" v="617520"/>
  </node>
  <node id="-795" visible="true" lat="44.26286622" lon="-72.12774337">
    <tag k="addr:housenumber" v="228"/>
    <tag k="addr:street" v="Morrison Trail"/>
    <tag k="addr:state" v="VT"/>
    <tag k="ref:vcgi:esiteid" v="618200"/>
  </node>
  <node id="-796" visible="true" lat="44.23545072" lon="-72.11385092">
    <tag k="addr:housenumber" v="21"/>
    <tag k="addr:street" v="Mullen Brook Trail"/>
    <tag k="addr:state" v="VT"/>
    <tag k="ref:vcgi:esiteid" v="618201"/>
  </node>
  <node id="-797" visible="true" lat="44.22968859" lon="-72.10330041">
    <tag k="addr:housenumber" v="1468"/>
    <tag k="addr:street" v="North Bayley Hazen Road"/>
    <tag k="addr:state" v="VT"/>
    <tag k="ref:vcgi:esiteid" v="618202"/>
  </node>
  <node id="-798" visible="true" lat="44.22871748" lon="-72.10384673">
    <tag k="addr:housenumber" v="1466"/>
    <tag k="addr:street" v="North Bayley Hazen Road"/>
    <tag k="addr:state" v="VT"/>
    <tag k="ref:vcgi:esiteid" v="618203"/>
  </node>
  <node id="-799" visible="true" lat="44.21500204" lon="-72.15688493">
    <tag k="addr:housenumber" v="3295"/>
    <tag k="addr:street" v="Witherspoon Road"/>
    <tag k="addr:state" v="VT"/>
    <tag k="ref:vcgi:esiteid" v="618204"/>
  </node>
  <node id="-800" visible="true" lat="44.1850704" lon="-72.10113886">
    <tag k="addr:housenumber" v="410"/>
    <tag k="addr:street" v="Spruce Drive"/>
    <tag k="addr:state" v="VT"/>
    <tag k="ref:vcgi:esiteid" v="618208"/>
  </node>
  <node id="-801" visible="true" lat="44.19060226" lon="-72.06711008">
    <tag k="addr:housenumber" v="2642"/>
    <tag k="addr:street" v="Ryegate Road"/>
    <tag k="addr:state" v="VT"/>
    <tag k="ref:vcgi:esiteid" v="618209"/>
  </node>
  <node id="-802" visible="true" lat="44.16497038" lon="-72.07100955">
    <tag k="addr:housenumber" v="3623"/>
    <tag k="addr:street" v="South Bayley Hazen Road"/>
    <tag k="addr:state" v="VT"/>
    <tag k="ref:vcgi:esiteid" v="620675"/>
  </node>
  <node id="-803" visible="true" lat="44.20062073" lon="-72.07476607">
    <tag k="addr:housenumber" v="1751"/>
    <tag k="addr:street" v="East Road"/>
    <tag k="addr:state" v="VT"/>
    <tag k="ref:vcgi:esiteid" v="654897"/>
  </node>
  <node id="-804" visible="true" lat="44.21771352" lon="-72.14387987">
    <tag k="addr:housenumber" v="2184"/>
    <tag k="addr:street" v="Stone Road"/>
    <tag k="addr:state" v="VT"/>
    <tag k="ref:vcgi:esiteid" v="656274"/>
  </node>
  <node id="-805" visible="true" lat="44.16838518" lon="-72.05659788">
    <tag k="addr:housenumber" v="903"/>
    <tag k="addr:street" v="Ryegate Road"/>
    <tag k="addr:state" v="VT"/>
    <tag k="ref:vcgi:esiteid" v="656281"/>
  </node>
  <node id="-806" visible="true" lat="44.16876011" lon="-72.05560946">
    <tag k="addr:housenumber" v="914"/>
    <tag k="addr:street" v="Ryegate Road"/>
    <tag k="addr:state" v="VT"/>
    <tag k="ref:vcgi:esiteid" v="656302"/>
  </node>
  <node id="-807" visible="true" lat="44.16443668" lon="-72.06827118">
    <tag k="addr:housenumber" v="1386"/>
    <tag k="addr:street" v="Bible Hill Road"/>
    <tag k="addr:state" v="VT"/>
    <tag k="ref:vcgi:esiteid" v="750013"/>
  </node>
  <node id="-808" visible="true" lat="44.20478478" lon="-72.16956147">
    <tag k="addr:housenumber" v="4607"/>
    <tag k="addr:street" v="Scott Highway"/>
    <tag k="addr:state" v="VT"/>
    <tag k="ref:vcgi:esiteid" v="752148"/>
  </node>
  <node id="-809" visible="true" lat="44.18665124" lon="-72.11884759">
    <tag k="addr:housenumber" v="149"/>
    <tag k="addr:street" v="Quint Road"/>
    <tag k="addr:state" v="VT"/>
    <tag k="ref:vcgi:esiteid" v="754716"/>
  </node>
  <node id="-810" visible="true" lat="44.17201233" lon="-72.07728595">
    <tag k="addr:housenumber" v="3030"/>
    <tag k="addr:street" v="South Bayley Hazen Road"/>
    <tag k="addr:state" v="VT"/>
    <tag k="ref:vcgi:esiteid" v="754959"/>
  </node>
  <node id="-811" visible="true" lat="44.17649634" lon="-72.07704147">
    <tag k="addr:housenumber" v="223"/>
    <tag k="addr:street" v="Elliot Drive"/>
    <tag k="addr:state" v="VT"/>
    <tag k="ref:vcgi:esiteid" v="755981"/>
  </node>
  <node id="-812" visible="true" lat="44.21932689" lon="-72.12252804">
    <tag k="addr:housenumber" v="1248"/>
    <tag k="addr:street" v="Witherspoon Road"/>
    <tag k="addr:state" v="VT"/>
    <tag k="ref:vcgi:esiteid" v="758313"/>
  </node>
  <node id="-813" visible="true" lat="44.20262091" lon="-72.0673317">
    <tag k="addr:housenumber" v="117"/>
    <tag k="addr:street" v="Reservoir Hill Road"/>
    <tag k="addr:state" v="VT"/>
    <tag k="ref:vcgi:esiteid" v="758744"/>
  </node>
  <node id="-814" visible="true" lat="44.20371747" lon="-72.06140273">
    <tag k="addr:housenumber" v="115"/>
    <tag k="addr:street" v="Farm Street"/>
    <tag k="addr:state" v="VT"/>
    <tag k="ref:vcgi:esiteid" v="758745"/>
  </node>
  <node id="-817" visible="true" lat="44.19920639" lon="-72.07428633">
    <tag k="addr:housenumber" v="4"/>
    <tag k="addr:street" v="Davidson Road"/>
    <tag k="addr:state" v="VT"/>
    <tag k="ref:vcgi:esiteid" v="760587"/>
  </node>
  <node id="-818" visible="true" lat="44.21213079" lon="-72.13342988">
    <tag k="addr:housenumber" v="1879"/>
    <tag k="addr:street" v="Witherspoon Road"/>
    <tag k="addr:state" v="VT"/>
    <tag k="ref:vcgi:esiteid" v="760639"/>
  </node>
  <node id="-819" visible="true" lat="44.23586506" lon="-72.16286764">
    <tag k="addr:housenumber" v="3563"/>
    <tag k="addr:street" v="Hall Road"/>
    <tag k="addr:state" v="VT"/>
    <tag k="ref:vcgi:esiteid" v="762793"/>
  </node>
  <node id="-820" visible="true" lat="44.16999484" lon="-72.07359889">
    <tag k="addr:housenumber" v="3267"/>
    <tag k="addr:street" v="South Bayley Hazen Road"/>
    <tag k="addr:state" v="VT"/>
    <tag k="ref:vcgi:esiteid" v="762794"/>
  </node>
  <node id="-821" visible="true" lat="44.25687018" lon="-72.07195295">
    <tag k="addr:housenumber" v="679"/>
    <tag k="addr:street" v="Liddle Drive"/>
    <tag k="addr:state" v="VT"/>
    <tag k="ref:vcgi:esiteid" v="762895"/>
  </node>
  <node id="-822" visible="true" lat="44.24246893" lon="-72.13313327">
    <tag k="addr:housenumber" v="815"/>
    <tag k="addr:street" v="Meader Road"/>
    <tag k="addr:state" v="VT"/>
    <tag k="ref:vcgi:esiteid" v="766396"/>
  </node>
  <node id="-823" visible="true" lat="44.2446237" lon="-72.13529292">
    <tag k="addr:housenumber" v="885"/>
    <tag k="addr:street" v="Meader Road"/>
    <tag k="addr:state" v="VT"/>
    <tag k="ref:vcgi:esiteid" v="766397"/>
  </node>
  <node id="-825" visible="true" lat="44.20463281" lon="-72.06655162">
    <tag k="addr:housenumber" v="58"/>
    <tag k="addr:street" v="Reservoir Hill Road"/>
    <tag k="addr:state" v="VT"/>
    <tag k="ref:vcgi:esiteid" v="900273"/>
  </node>
  <node id="-826" visible="true" lat="44.20952844" lon="-72.15311612">
    <tag k="addr:housenumber" v="141"/>
    <tag k="addr:street" v="Park Drive"/>
    <tag k="addr:state" v="VT"/>
    <tag k="ref:vcgi:esiteid" v="900402"/>
  </node>
  <node id="-827" visible="true" lat="44.18689232" lon="-72.14386721">
    <tag k="addr:housenumber" v="2717"/>
    <tag k="addr:street" v="Scott Highway"/>
    <tag k="addr:state" v="VT"/>
    <tag k="ref:vcgi:esiteid" v="1050854"/>
  </node>
  <node id="-828" visible="true" lat="44.16840424" lon="-72.08309081">
    <tag k="addr:housenumber" v="45"/>
    <tag k="addr:street" v="Interstate 91 North"/>
    <tag k="addr:state" v="VT"/>
    <tag k="ref:vcgi:esiteid" v="1050855"/>
  </node>
  <node id="-829" visible="true" lat="44.19133703" lon="-72.09513836">
    <tag k="addr:housenumber" v="1316"/>
    <tag k="addr:street" v="South Bayley Hazen Road"/>
    <tag k="addr:state" v="VT"/>
    <tag k="ref:vcgi:esiteid" v="1050858"/>
  </node>
  <node id="-830" visible="true" lat="44.19495703" lon="-72.07296141">
    <tag k="addr:housenumber" v="4340"/>
    <tag k="addr:street" v="Interstate 91 South"/>
    <tag k="addr:state" v="VT"/>
    <tag k="ref:vcgi:esiteid" v="1050859"/>
  </node>
  <node id="-831" visible="true" lat="44.18327011" lon="-72.07711585">
    <tag k="addr:housenumber" v="1113"/>
    <tag k="addr:street" v="Interstate 91 North"/>
    <tag k="addr:state" v="VT"/>
    <tag k="ref:vcgi:esiteid" v="1050860"/>
  </node>
  <node id="-832" visible="true" lat="44.20485953" lon="-72.06283253">
    <tag k="addr:housenumber" v="55"/>
    <tag k="addr:street" v="Papermill Road"/>
    <tag k="addr:state" v="VT"/>
    <tag k="ref:vcgi:esiteid" v="1050885"/>
  </node>
  <node id="-833" visible="true" lat="44.21041552" lon="-72.06830894">
    <tag k="addr:housenumber" v="3248"/>
    <tag k="addr:street" v="Interstate 91 South"/>
    <tag k="addr:state" v="VT"/>
    <tag k="ref:vcgi:esiteid" v="1050886"/>
  </node>
  <node id="-834" visible="true" lat="44.22416371" lon="-72.06689207">
    <tag k="addr:housenumber" v="4005"/>
    <tag k="addr:street" v="Interstate 91 North"/>
    <tag k="addr:state" v="VT"/>
    <tag k="ref:vcgi:esiteid" v="1050887"/>
  </node>
  <node id="-835" visible="true" lat="44.238811" lon="-72.06651797">
    <tag k="addr:housenumber" v="5051"/>
    <tag k="addr:street" v="Interstate 91 North"/>
    <tag k="addr:state" v="VT"/>
    <tag k="ref:vcgi:esiteid" v="1050888"/>
  </node>
  <node id="-836" visible="true" lat="44.25115185" lon="-72.06105577">
    <tag k="addr:housenumber" v="5953"/>
    <tag k="addr:street" v="Interstate 91 North"/>
    <tag k="addr:state" v="VT"/>
    <tag k="ref:vcgi:esiteid" v="1050889"/>
  </node>
</osm>
