<?xml version="1.0" encoding="UTF-8"?>
<osm version="0.6" generator="JOSM">
  <node id="-1005" visible="true" lat="44.81135177" lon="-73.13573455">
    <tag k="addr:city" v="Saint Albans Town"/>
    <tag k="addr:housenumber" v="549"/>
    <tag k="addr:street" v="Lake Road"/>
    <tag k="addr:state" v="VT"/>
    <tag k="ref:vcgi:esiteid" v="242056"/>
  </node>
  <node id="-1019" visible="true" lat="44.81111526" lon="-73.13999175">
    <tag k="addr:city" v="Saint Albans Town"/>
    <tag k="addr:housenumber" v="143"/>
    <tag k="addr:street" v="McGinn Drive"/>
    <tag k="addr:state" v="VT"/>
    <tag k="ref:vcgi:esiteid" v="242070"/>
  </node>
  <node id="-1026" visible="true" lat="44.81094738" lon="-73.13935889">
    <tag k="addr:city" v="Saint Albans Town"/>
    <tag k="addr:housenumber" v="142"/>
    <tag k="addr:street" v="McGinn Drive"/>
    <tag k="addr:state" v="VT"/>
    <tag k="ref:vcgi:esiteid" v="242077"/>
  </node>
  <node id="-1034" visible="true" lat="44.81070327" lon="-73.1400299">
    <tag k="addr:city" v="Saint Albans Town"/>
    <tag k="addr:housenumber" v="115"/>
    <tag k="addr:street" v="McGinn Drive"/>
    <tag k="addr:state" v="VT"/>
    <tag k="ref:vcgi:esiteid" v="242085"/>
  </node>
  <node id="-1035" visible="true" lat="44.81067657" lon="-73.13945007">
    <tag k="addr:city" v="Saint Albans Town"/>
    <tag k="addr:housenumber" v="118"/>
    <tag k="addr:street" v="McGinn Drive"/>
    <tag k="addr:state" v="VT"/>
    <tag k="ref:vcgi:esiteid" v="242086"/>
  </node>
  <node id="-1043" visible="true" lat="44.81049728" lon="-73.13560485">
    <tag k="addr:city" v="Saint Albans Town"/>
    <tag k="addr:housenumber" v="552"/>
    <tag k="addr:street" v="Lake Road"/>
    <tag k="addr:state" v="VT"/>
    <tag k="ref:vcgi:esiteid" v="242094"/>
  </node>
  <node id="-1044" visible="true" lat="44.8104515" lon="-73.13946533">
    <tag k="addr:city" v="Saint Albans Town"/>
    <tag k="addr:housenumber" v="102"/>
    <tag k="addr:street" v="McGinn Drive"/>
    <tag k="addr:state" v="VT"/>
    <tag k="ref:vcgi:esiteid" v="242095"/>
  </node>
  <node id="-1052" visible="true" lat="44.81029129" lon="-73.14008331">
    <tag k="addr:city" v="Saint Albans Town"/>
    <tag k="addr:housenumber" v="89"/>
    <tag k="addr:street" v="McGinn Drive"/>
    <tag k="addr:state" v="VT"/>
    <tag k="ref:vcgi:esiteid" v="242105"/>
  </node>
  <node id="-1053" visible="true" lat="44.81036533" lon="-73.13596639">
    <tag k="addr:city" v="Saint Albans Town"/>
    <tag k="addr:housenumber" v="554"/>
    <tag k="addr:street" v="Lake Road"/>
    <tag k="addr:state" v="VT"/>
    <tag k="ref:vcgi:esiteid" v="242106"/>
  </node>
  <node id="-1055" visible="true" lat="44.81029129" lon="-73.13702392">
    <tag k="addr:city" v="Saint Albans Town"/>
    <tag k="addr:housenumber" v="559"/>
    <tag k="addr:street" v="Lake Road"/>
    <tag k="addr:state" v="VT"/>
    <tag k="ref:vcgi:esiteid" v="242109"/>
  </node>
  <node id="-1056" visible="true" lat="44.81025702" lon="-73.15282117">
    <tag k="addr:city" v="Saint Albans Town"/>
    <tag k="addr:housenumber" v="25"/>
    <tag k="addr:street" v="Hathaway Point Road"/>
    <tag k="addr:state" v="VT"/>
    <tag k="ref:vcgi:esiteid" v="242110"/>
  </node>
  <node id="-1063" visible="true" lat="44.81016902" lon="-73.15293033">
    <tag k="addr:city" v="Saint Albans Town"/>
    <tag k="addr:housenumber" v="31"/>
    <tag k="addr:street" v="Hathaway Point Road"/>
    <tag k="addr:state" v="VT"/>
    <tag k="ref:vcgi:esiteid" v="242117"/>
  </node>
  <node id="-1067" visible="true" lat="44.81006434" lon="-73.1529741">
    <tag k="addr:city" v="Saint Albans Town"/>
    <tag k="addr:housenumber" v="41"/>
    <tag k="addr:street" v="Hathaway Point Road"/>
    <tag k="addr:state" v="VT"/>
    <tag k="ref:vcgi:esiteid" v="242121"/>
  </node>
  <node id="-1068" visible="true" lat="44.81007003" lon="-73.13943481">
    <tag k="addr:city" v="Saint Albans Town"/>
    <tag k="addr:housenumber" v="70"/>
    <tag k="addr:street" v="McGinn Drive"/>
    <tag k="addr:state" v="VT"/>
    <tag k="ref:vcgi:esiteid" v="242122"/>
  </node>
  <node id="-1069" visible="true" lat="44.81011038" lon="-73.13621761">
    <tag k="addr:city" v="Saint Albans Town"/>
    <tag k="addr:housenumber" v="556"/>
    <tag k="addr:street" v="Lake Road"/>
    <tag k="addr:state" v="VT"/>
    <tag k="ref:vcgi:esiteid" v="242123"/>
  </node>
  <node id="-1073" visible="true" lat="44.81006257" lon="-73.1374394">
    <tag k="addr:city" v="Saint Albans Town"/>
    <tag k="addr:housenumber" v="561"/>
    <tag k="addr:street" v="Lake Road"/>
    <tag k="addr:state" v="VT"/>
    <tag k="ref:vcgi:esiteid" v="242127"/>
  </node>
  <node id="-1074" visible="true" lat="44.80984115" lon="-73.1531372">
    <tag k="addr:city" v="Saint Albans Town"/>
    <tag k="addr:housenumber" v="55"/>
    <tag k="addr:street" v="Hathaway Point Road"/>
    <tag k="addr:state" v="VT"/>
    <tag k="ref:vcgi:esiteid" v="242128"/>
  </node>
  <node id="-1083" visible="true" lat="44.80969619" lon="-73.15329742">
    <tag k="addr:city" v="Saint Albans Town"/>
    <tag k="addr:housenumber" v="67"/>
    <tag k="addr:street" v="Hathaway Point Road"/>
    <tag k="addr:state" v="VT"/>
    <tag k="ref:vcgi:esiteid" v="242138"/>
  </node>
  <node id="-1084" visible="true" lat="44.80978775" lon="-73.13643646">
    <tag k="addr:city" v="Saint Albans Town"/>
    <tag k="addr:housenumber" v="560"/>
    <tag k="addr:street" v="Lake Road"/>
    <tag k="addr:state" v="VT"/>
    <tag k="ref:vcgi:esiteid" v="242139"/>
  </node>
  <node id="-1087" visible="true" lat="44.8097229" lon="-73.13782501">
    <tag k="addr:city" v="Saint Albans Town"/>
    <tag k="addr:housenumber" v="565"/>
    <tag k="addr:street" v="Lake Road"/>
    <tag k="addr:state" v="VT"/>
    <tag k="ref:vcgi:esiteid" v="242142"/>
  </node>
  <node id="-1089" visible="true" lat="44.80957825" lon="-73.15391522">
    <tag k="addr:city" v="Saint Albans Town"/>
    <tag k="addr:housenumber" v="88"/>
    <tag k="addr:street" v="Hathaway Point Road"/>
    <tag k="addr:state" v="VT"/>
    <tag k="ref:vcgi:esiteid" v="242144"/>
  </node>
  <node id="-1093" visible="true" lat="44.80952453" lon="-73.15343475">
    <tag k="addr:city" v="Saint Albans Town"/>
    <tag k="addr:housenumber" v="79"/>
    <tag k="addr:street" v="Hathaway Point Road"/>
    <tag k="addr:state" v="VT"/>
    <tag k="ref:vcgi:esiteid" v="242148"/>
  </node>
  <node id="-1094" visible="true" lat="44.80958779" lon="-73.13984654">
    <tag k="addr:city" v="Saint Albans Town"/>
    <tag k="addr:housenumber" v="43"/>
    <tag k="addr:street" v="McGinn Drive"/>
    <tag k="addr:state" v="VT"/>
    <tag k="ref:vcgi:esiteid" v="242149"/>
  </node>
  <node id="-1096" visible="true" lat="44.80936045" lon="-73.15396927">
    <tag k="addr:city" v="Saint Albans Town"/>
    <tag k="addr:housenumber" v="98"/>
    <tag k="addr:street" v="Hathaway Point Road"/>
    <tag k="addr:state" v="VT"/>
    <tag k="ref:vcgi:esiteid" v="242152"/>
  </node>
  <node id="-1103" visible="true" lat="44.80932235" lon="-73.15357208">
    <tag k="addr:city" v="Saint Albans Town"/>
    <tag k="addr:housenumber" v="95"/>
    <tag k="addr:street" v="Hathaway Point Road"/>
    <tag k="addr:state" v="VT"/>
    <tag k="ref:vcgi:esiteid" v="242159"/>
  </node>
  <node id="-1109" visible="true" lat="44.80927768" lon="-73.13992765">
    <tag k="addr:city" v="Saint Albans Town"/>
    <tag k="addr:housenumber" v="54"/>
    <tag k="addr:street" v="Cherry Street"/>
    <tag k="addr:state" v="VT"/>
    <tag k="ref:vcgi:esiteid" v="242165"/>
  </node>
  <node id="-1116" visible="true" lat="44.80919265" lon="-73.13842773">
    <tag k="addr:city" v="Saint Albans Town"/>
    <tag k="addr:housenumber" v="569"/>
    <tag k="addr:street" v="Lake Road"/>
    <tag k="addr:state" v="VT"/>
    <tag k="ref:vcgi:esiteid" v="242172"/>
  </node>
  <node id="-1117" visible="true" lat="44.80935605" lon="-73.13769814">
    <tag k="addr:city" v="Saint Albans Town"/>
    <tag k="addr:housenumber" v="568"/>
    <tag k="addr:street" v="Lake Road"/>
    <tag k="addr:state" v="VT"/>
    <tag k="ref:vcgi:esiteid" v="242173"/>
  </node>
  <node id="-1120" visible="true" lat="44.80908584" lon="-73.13861847">
    <tag k="addr:city" v="Saint Albans Town"/>
    <tag k="addr:housenumber" v="571"/>
    <tag k="addr:street" v="Lake Road"/>
    <tag k="addr:state" v="VT"/>
    <tag k="ref:vcgi:esiteid" v="242176"/>
  </node>
  <node id="-1122" visible="true" lat="44.8090744" lon="-73.13796997">
    <tag k="addr:city" v="Saint Albans Town"/>
    <tag k="addr:housenumber" v="570"/>
    <tag k="addr:street" v="Lake Road"/>
    <tag k="addr:state" v="VT"/>
    <tag k="ref:vcgi:esiteid" v="242178"/>
  </node>
  <node id="-1125" visible="true" lat="44.80900732" lon="-73.14022605">
    <tag k="addr:city" v="Saint Albans Town"/>
    <tag k="addr:housenumber" v="70"/>
    <tag k="addr:street" v="Cherry Street"/>
    <tag k="addr:state" v="VT"/>
    <tag k="ref:vcgi:esiteid" v="242181"/>
  </node>
  <node id="-1130" visible="true" lat="44.80895019" lon="-73.13901526">
    <tag k="addr:city" v="Saint Albans Town"/>
    <tag k="addr:housenumber" v="575"/>
    <tag k="addr:street" v="Lake Road"/>
    <tag k="addr:state" v="VT"/>
    <tag k="ref:vcgi:esiteid" v="242187"/>
  </node>
  <node id="-1134" visible="true" lat="44.80880614" lon="-73.13821994">
    <tag k="addr:city" v="Saint Albans Town"/>
    <tag k="addr:housenumber" v="572"/>
    <tag k="addr:street" v="Lake Road"/>
    <tag k="addr:state" v="VT"/>
    <tag k="ref:vcgi:esiteid" v="242192"/>
  </node>
  <node id="-1138" visible="true" lat="44.80876303" lon="-73.14012161">
    <tag k="addr:city" v="Saint Albans Town"/>
    <tag k="addr:housenumber" v="84"/>
    <tag k="addr:street" v="Cherry Street"/>
    <tag k="addr:state" v="VT"/>
    <tag k="ref:vcgi:esiteid" v="242196"/>
  </node>
  <node id="-1142" visible="true" lat="44.80861354" lon="-73.13832398">
    <tag k="addr:city" v="Saint Albans Town"/>
    <tag k="addr:housenumber" v="574"/>
    <tag k="addr:street" v="Lake Road"/>
    <tag k="addr:state" v="VT"/>
    <tag k="ref:vcgi:esiteid" v="242200"/>
  </node>
  <node id="-1146" visible="true" lat="44.80865111" lon="-73.13919598">
    <tag k="addr:city" v="Saint Albans Town"/>
    <tag k="addr:housenumber" v="579"/>
    <tag k="addr:street" v="Lake Road"/>
    <tag k="addr:state" v="VT"/>
    <tag k="ref:vcgi:esiteid" v="242204"/>
  </node>
  <node id="-1150" visible="true" lat="44.80852007" lon="-73.14041802">
    <tag k="addr:city" v="Saint Albans Town"/>
    <tag k="addr:housenumber" v="104"/>
    <tag k="addr:street" v="Cherry Street"/>
    <tag k="addr:state" v="VT"/>
    <tag k="ref:vcgi:esiteid" v="242208"/>
  </node>
  <node id="-1151" visible="true" lat="44.80849095" lon="-73.13846925">
    <tag k="addr:city" v="Saint Albans Town"/>
    <tag k="addr:housenumber" v="576"/>
    <tag k="addr:street" v="Lake Road"/>
    <tag k="addr:state" v="VT"/>
    <tag k="ref:vcgi:esiteid" v="242209"/>
  </node>
  <node id="-1156" visible="true" lat="44.80848257" lon="-73.13934808">
    <tag k="addr:city" v="Saint Albans Town"/>
    <tag k="addr:housenumber" v="581"/>
    <tag k="addr:street" v="Lake Road"/>
    <tag k="addr:state" v="VT"/>
    <tag k="ref:vcgi:esiteid" v="242214"/>
  </node>
  <node id="-1167" visible="true" lat="44.80823898" lon="-73.13955688">
    <tag k="addr:city" v="Saint Albans Town"/>
    <tag k="addr:housenumber" v="583"/>
    <tag k="addr:street" v="Lake Road"/>
    <tag k="addr:state" v="VT"/>
    <tag k="ref:vcgi:esiteid" v="242226"/>
  </node>
  <node id="-1168" visible="true" lat="44.80837945" lon="-73.13609893">
    <tag k="addr:city" v="Saint Albans Town"/>
    <tag k="addr:housenumber" v="133"/>
    <tag k="addr:street" v="Chubb Street"/>
    <tag k="addr:state" v="VT"/>
    <tag k="ref:vcgi:esiteid" v="242227"/>
  </node>
  <node id="-1171" visible="true" lat="44.80807496" lon="-73.13884224">
    <tag k="addr:city" v="Saint Albans Town"/>
    <tag k="addr:housenumber" v="582"/>
    <tag k="addr:street" v="Lake Road"/>
    <tag k="addr:state" v="VT"/>
    <tag k="ref:vcgi:esiteid" v="242230"/>
  </node>
  <node id="-1175" visible="true" lat="44.80808639" lon="-73.13664245">
    <tag k="addr:city" v="Saint Albans Town"/>
    <tag k="addr:housenumber" v="111"/>
    <tag k="addr:street" v="Chubb Street"/>
    <tag k="addr:state" v="VT"/>
    <tag k="ref:vcgi:esiteid" v="242234"/>
  </node>
  <node id="-1184" visible="true" lat="44.80790328" lon="-73.13716125">
    <tag k="addr:city" v="Saint Albans Town"/>
    <tag k="addr:housenumber" v="89"/>
    <tag k="addr:street" v="Chubb Street"/>
    <tag k="addr:state" v="VT"/>
    <tag k="ref:vcgi:esiteid" v="242243"/>
  </node>
  <node id="-1185" visible="true" lat="44.80780762" lon="-73.13898994">
    <tag k="addr:city" v="Saint Albans Town"/>
    <tag k="addr:housenumber" v="584"/>
    <tag k="addr:street" v="Lake Road"/>
    <tag k="addr:state" v="VT"/>
    <tag k="ref:vcgi:esiteid" v="242244"/>
  </node>
  <node id="-1186" visible="true" lat="44.80778511" lon="-73.13589421">
    <tag k="addr:city" v="Saint Albans Town"/>
    <tag k="addr:housenumber" v="135"/>
    <tag k="addr:street" v="Chubb Street"/>
    <tag k="addr:state" v="VT"/>
    <tag k="ref:vcgi:esiteid" v="242245"/>
  </node>
  <node id="-1193" visible="true" lat="44.80754927" lon="-73.1392004">
    <tag k="addr:city" v="Saint Albans Town"/>
    <tag k="addr:housenumber" v="15"/>
    <tag k="addr:street" v="Georgia Shore Road"/>
    <tag k="addr:state" v="VT"/>
    <tag k="ref:vcgi:esiteid" v="242254"/>
  </node>
  <node id="-1199" visible="true" lat="44.80737026" lon="-73.13897475">
    <tag k="addr:city" v="Saint Albans Town"/>
    <tag k="addr:housenumber" v="29"/>
    <tag k="addr:street" v="Georgia Shore Road"/>
    <tag k="addr:state" v="VT"/>
    <tag k="ref:vcgi:esiteid" v="242260"/>
  </node>
  <node id="-1204" visible="true" lat="44.80722427" lon="-73.13964843">
    <tag k="addr:city" v="Saint Albans Town"/>
    <tag k="addr:housenumber" v="10"/>
    <tag k="addr:street" v="Georgia Shore Road"/>
    <tag k="addr:state" v="VT"/>
    <tag k="ref:vcgi:esiteid" v="242265"/>
  </node>
  <node id="-1216" visible="true" lat="44.80690228" lon="-73.1389485">
    <tag k="addr:city" v="Saint Albans Town"/>
    <tag k="addr:housenumber" v="48"/>
    <tag k="addr:street" v="Georgia Shore Road"/>
    <tag k="addr:state" v="VT"/>
    <tag k="ref:vcgi:esiteid" v="242277"/>
  </node>
  <node id="-1220" visible="true" lat="44.80687339" lon="-73.13871696">
    <tag k="addr:city" v="Saint Albans Town"/>
    <tag k="addr:housenumber" v="62"/>
    <tag k="addr:street" v="Georgia Shore Road"/>
    <tag k="addr:state" v="VT"/>
    <tag k="ref:vcgi:esiteid" v="242281"/>
  </node>
  <node id="-1226" visible="true" lat="44.80670393" lon="-73.1381523">
    <tag k="addr:city" v="Saint Albans Town"/>
    <tag k="addr:housenumber" v="90"/>
    <tag k="addr:street" v="Georgia Shore Road"/>
    <tag k="addr:state" v="VT"/>
    <tag k="ref:vcgi:esiteid" v="242288"/>
  </node>
  <node id="-1231" visible="true" lat="44.8065071" lon="-73.13768768">
    <tag k="addr:city" v="Saint Albans Town"/>
    <tag k="addr:housenumber" v="118"/>
    <tag k="addr:street" v="Georgia Shore Road"/>
    <tag k="addr:state" v="VT"/>
    <tag k="ref:vcgi:esiteid" v="242293"/>
  </node>
  <node id="-1243" visible="true" lat="44.80637572" lon="-73.13314361">
    <tag k="addr:city" v="Saint Albans Town"/>
    <tag k="addr:housenumber" v="14"/>
    <tag k="addr:street" v="Church Road"/>
    <tag k="addr:state" v="VT"/>
    <tag k="ref:vcgi:esiteid" v="242306"/>
  </node>
  <node id="-1248" visible="true" lat="44.80618667" lon="-73.1379013">
    <tag k="addr:city" v="Saint Albans Town"/>
    <tag k="addr:housenumber" v="126"/>
    <tag k="addr:street" v="Georgia Shore Road"/>
    <tag k="addr:state" v="VT"/>
    <tag k="ref:vcgi:esiteid" v="242311"/>
  </node>
  <node id="-1249" visible="true" lat="44.80612407" lon="-73.13363359">
    <tag k="addr:city" v="Saint Albans Town"/>
    <tag k="addr:housenumber" v="6"/>
    <tag k="addr:street" v="Church Road"/>
    <tag k="addr:state" v="VT"/>
    <tag k="ref:vcgi:esiteid" v="242312"/>
  </node>
  <node id="-1251" visible="true" lat="44.80612945" lon="-73.13572692">
    <tag k="addr:city" v="Saint Albans Town"/>
    <tag k="addr:housenumber" v="215"/>
    <tag k="addr:street" v="Georgia Shore Road"/>
    <tag k="addr:state" v="VT"/>
    <tag k="ref:vcgi:esiteid" v="242315"/>
  </node>
  <node id="-1253" visible="true" lat="44.80609189" lon="-73.13770789">
    <tag k="addr:city" v="Saint Albans Town"/>
    <tag k="addr:housenumber" v="134"/>
    <tag k="addr:street" v="Georgia Shore Road"/>
    <tag k="addr:state" v="VT"/>
    <tag k="ref:vcgi:esiteid" v="242317"/>
  </node>
  <node id="-1255" visible="true" lat="44.80598618" lon="-73.13707684">
    <tag k="addr:city" v="Saint Albans Town"/>
    <tag k="addr:housenumber" v="158"/>
    <tag k="addr:street" v="Georgia Shore Road"/>
    <tag k="addr:state" v="VT"/>
    <tag k="ref:vcgi:esiteid" v="242319"/>
  </node>
  <node id="-1258" visible="true" lat="44.80600603" lon="-73.1365377">
    <tag k="addr:city" v="Saint Albans Town"/>
    <tag k="addr:housenumber" v="18"/>
    <tag k="addr:street" v="Rice Road"/>
    <tag k="addr:state" v="VT"/>
    <tag k="ref:vcgi:esiteid" v="242322"/>
  </node>
  <node id="-1259" visible="true" lat="44.80605316" lon="-73.1355133">
    <tag k="addr:city" v="Saint Albans Town"/>
    <tag k="addr:housenumber" v="227"/>
    <tag k="addr:street" v="Georgia Shore Road"/>
    <tag k="addr:state" v="VT"/>
    <tag k="ref:vcgi:esiteid" v="242323"/>
  </node>
  <node id="-1266" visible="true" lat="44.80598831" lon="-73.13453674">
    <tag k="addr:city" v="Saint Albans Town"/>
    <tag k="addr:housenumber" v="5"/>
    <tag k="addr:street" v="Church Road"/>
    <tag k="addr:state" v="VT"/>
    <tag k="ref:vcgi:esiteid" v="242330"/>
  </node>
  <node id="-1267" visible="true" lat="44.80594635" lon="-73.13750457">
    <tag k="addr:city" v="Saint Albans Town"/>
    <tag k="addr:housenumber" v="150"/>
    <tag k="addr:street" v="Georgia Shore Road"/>
    <tag k="addr:state" v="VT"/>
    <tag k="ref:vcgi:esiteid" v="242331"/>
  </node>
  <node id="-1278" visible="true" lat="44.80584985" lon="-73.13578158">
    <tag k="addr:city" v="Saint Albans Town"/>
    <tag k="addr:housenumber" v="19"/>
    <tag k="addr:street" v="Rice Road"/>
    <tag k="addr:state" v="VT"/>
    <tag k="ref:vcgi:esiteid" v="242342"/>
  </node>
  <node id="-1282" visible="true" lat="44.80572489" lon="-73.13431985">
    <tag k="addr:city" v="Saint Albans Town"/>
    <tag k="addr:housenumber" v="2"/>
    <tag k="addr:street" v="Church Road"/>
    <tag k="addr:state" v="VT"/>
    <tag k="ref:vcgi:esiteid" v="242346"/>
  </node>
  <node id="-1302" visible="true" lat="44.80536964" lon="-73.13365442">
    <tag k="addr:city" v="Saint Albans Town"/>
    <tag k="addr:housenumber" v="466"/>
    <tag k="addr:street" v="Patten Crosby Road"/>
    <tag k="addr:state" v="VT"/>
    <tag k="ref:vcgi:esiteid" v="242368"/>
  </node>
  <node id="-1311" visible="true" lat="44.80531311" lon="-73.13536834">
    <tag k="addr:city" v="Saint Albans Town"/>
    <tag k="addr:housenumber" v="282"/>
    <tag k="addr:street" v="Georgia Shore Road"/>
    <tag k="addr:state" v="VT"/>
    <tag k="ref:vcgi:esiteid" v="242377"/>
  </node>
  <node id="-1312" visible="true" lat="44.80540933" lon="-73.13667052">
    <tag k="addr:city" v="Saint Albans Town"/>
    <tag k="addr:housenumber" v="54"/>
    <tag k="addr:street" v="Rice Road"/>
    <tag k="addr:state" v="VT"/>
    <tag k="ref:vcgi:esiteid" v="242378"/>
  </node>
  <node id="-1318" visible="true" lat="44.80528753" lon="-73.13462102">
    <tag k="addr:city" v="Saint Albans Town"/>
    <tag k="addr:housenumber" v="84"/>
    <tag k="addr:street" v="Bouthillette Circle"/>
    <tag k="addr:state" v="VT"/>
    <tag k="ref:vcgi:esiteid" v="242384"/>
  </node>
  <node id="-1319" visible="true" lat="44.80531083" lon="-73.13582727">
    <tag k="addr:city" v="Saint Albans Town"/>
    <tag k="addr:housenumber" v="51"/>
    <tag k="addr:street" v="Rice Road"/>
    <tag k="addr:state" v="VT"/>
    <tag k="ref:vcgi:esiteid" v="242385"/>
  </node>
  <node id="-1321" visible="true" lat="44.80522918" lon="-73.1344223">
    <tag k="addr:city" v="Saint Albans Town"/>
    <tag k="addr:housenumber" v="76"/>
    <tag k="addr:street" v="Bouthillette Circle"/>
    <tag k="addr:state" v="VT"/>
    <tag k="ref:vcgi:esiteid" v="242387"/>
  </node>
  <node id="-1325" visible="true" lat="44.80516433" lon="-73.13420105">
    <tag k="addr:city" v="Saint Albans Town"/>
    <tag k="addr:housenumber" v="68"/>
    <tag k="addr:street" v="Bouthillette Circle"/>
    <tag k="addr:state" v="VT"/>
    <tag k="ref:vcgi:esiteid" v="242391"/>
  </node>
  <node id="-1336" visible="true" lat="44.80498886" lon="-73.13373565">
    <tag k="addr:city" v="Saint Albans Town"/>
    <tag k="addr:housenumber" v="457"/>
    <tag k="addr:street" v="Patten Crosby Road"/>
    <tag k="addr:state" v="VT"/>
    <tag k="ref:vcgi:esiteid" v="242404"/>
  </node>
  <node id="-1340" visible="true" lat="44.80496215" lon="-73.13568878">
    <tag k="addr:city" v="Saint Albans Town"/>
    <tag k="addr:housenumber" v="300"/>
    <tag k="addr:street" v="Georgia Shore Road"/>
    <tag k="addr:state" v="VT"/>
    <tag k="ref:vcgi:esiteid" v="242408"/>
  </node>
  <node id="-1343" visible="true" lat="44.80509298" lon="-73.13638087">
    <tag k="addr:city" v="Saint Albans Town"/>
    <tag k="addr:housenumber" v="80"/>
    <tag k="addr:street" v="Rice Road"/>
    <tag k="addr:state" v="VT"/>
    <tag k="ref:vcgi:esiteid" v="242411"/>
  </node>
  <node id="-1358" visible="true" lat="44.80465316" lon="-73.13415527">
    <tag k="addr:city" v="Saint Albans Town"/>
    <tag k="addr:housenumber" v="40"/>
    <tag k="addr:street" v="Bouthillette Circle"/>
    <tag k="addr:state" v="VT"/>
    <tag k="ref:vcgi:esiteid" v="242428"/>
  </node>
  <node id="-1360" visible="true" lat="44.80463409" lon="-73.13462829">
    <tag k="addr:city" v="Saint Albans Town"/>
    <tag k="addr:housenumber" v="20"/>
    <tag k="addr:street" v="Bouthillette Circle"/>
    <tag k="addr:state" v="VT"/>
    <tag k="ref:vcgi:esiteid" v="242430"/>
  </node>
  <node id="-1361" visible="true" lat="44.80462646" lon="-73.13440704">
    <tag k="addr:city" v="Saint Albans Town"/>
    <tag k="addr:housenumber" v="30"/>
    <tag k="addr:street" v="Bouthillette Circle"/>
    <tag k="addr:state" v="VT"/>
    <tag k="ref:vcgi:esiteid" v="242431"/>
  </node>
  <node id="-1545" visible="true" lat="44.80095663" lon="-73.07791557">
    <tag k="addr:city" v="Saint Albans Town"/>
    <tag k="addr:housenumber" v="101"/>
    <tag k="addr:street" v="Gricebrook Road"/>
    <tag k="addr:state" v="VT"/>
    <tag k="ref:vcgi:esiteid" v="242627"/>
  </node>
  <node id="-1546" visible="true" lat="44.80097756" lon="-73.07886431">
    <tag k="addr:city" v="Saint Albans Town"/>
    <tag k="addr:housenumber" v="107"/>
    <tag k="addr:street" v="Gricebrook Road"/>
    <tag k="addr:state" v="VT"/>
    <tag k="ref:vcgi:esiteid" v="242628"/>
  </node>
  <node id="-1916" visible="true" lat="44.79002584" lon="-73.09440983">
    <tag k="addr:city" v="Saint Albans Town"/>
    <tag k="addr:housenumber" v="10"/>
    <tag k="addr:street" v="Bayview Drive"/>
    <tag k="addr:state" v="VT"/>
    <tag k="ref:vcgi:esiteid" v="243024"/>
  </node>
  <node id="-1919" visible="true" lat="44.78980636" lon="-73.09394836">
    <tag k="addr:city" v="Saint Albans Town"/>
    <tag k="addr:housenumber" v="12"/>
    <tag k="addr:street" v="Bayview Drive"/>
    <tag k="addr:state" v="VT"/>
    <tag k="ref:vcgi:esiteid" v="243027"/>
  </node>
  <node id="-1923" visible="true" lat="44.78964996" lon="-73.09343719">
    <tag k="addr:city" v="Saint Albans Town"/>
    <tag k="addr:housenumber" v="14"/>
    <tag k="addr:street" v="Bayview Drive"/>
    <tag k="addr:state" v="VT"/>
    <tag k="ref:vcgi:esiteid" v="243031"/>
  </node>
  <node id="-1926" visible="true" lat="44.78947067" lon="-73.09288787">
    <tag k="addr:city" v="Saint Albans Town"/>
    <tag k="addr:housenumber" v="16"/>
    <tag k="addr:street" v="Bayview Drive"/>
    <tag k="addr:state" v="VT"/>
    <tag k="ref:vcgi:esiteid" v="243034"/>
  </node>
  <node id="-1931" visible="true" lat="44.78937911" lon="-73.09429168">
    <tag k="addr:city" v="Saint Albans Town"/>
    <tag k="addr:housenumber" v="11"/>
    <tag k="addr:street" v="Bayview Drive"/>
    <tag k="addr:state" v="VT"/>
    <tag k="ref:vcgi:esiteid" v="243039"/>
  </node>
  <node id="-1934" visible="true" lat="44.78934323" lon="-73.09512235">
    <tag k="addr:city" v="Saint Albans Town"/>
    <tag k="addr:housenumber" v="7"/>
    <tag k="addr:street" v="Bayview Drive"/>
    <tag k="addr:state" v="VT"/>
    <tag k="ref:vcgi:esiteid" v="243042"/>
  </node>
  <node id="-1937" visible="true" lat="44.7892189" lon="-73.09230041">
    <tag k="addr:city" v="Saint Albans Town"/>
    <tag k="addr:housenumber" v="18"/>
    <tag k="addr:street" v="Bayview Drive"/>
    <tag k="addr:state" v="VT"/>
    <tag k="ref:vcgi:esiteid" v="243046"/>
  </node>
  <node id="-1939" visible="true" lat="44.78908337" lon="-73.09386041">
    <tag k="addr:city" v="Saint Albans Town"/>
    <tag k="addr:housenumber" v="5"/>
    <tag k="addr:street" v="Georgie Avenue"/>
    <tag k="addr:state" v="VT"/>
    <tag k="ref:vcgi:esiteid" v="243048"/>
  </node>
  <node id="-1942" visible="true" lat="44.78904724" lon="-73.09466552">
    <tag k="addr:city" v="Saint Albans Town"/>
    <tag k="addr:housenumber" v="4"/>
    <tag k="addr:street" v="Georgie Avenue"/>
    <tag k="addr:state" v="VT"/>
    <tag k="ref:vcgi:esiteid" v="243051"/>
  </node>
  <node id="-1943" visible="true" lat="44.78910507" lon="-73.09544794">
    <tag k="addr:city" v="Saint Albans Town"/>
    <tag k="addr:housenumber" v="5"/>
    <tag k="addr:street" v="Bayview Drive"/>
    <tag k="addr:state" v="VT"/>
    <tag k="ref:vcgi:esiteid" v="243052"/>
  </node>
  <node id="-1947" visible="true" lat="44.78891754" lon="-73.09299469">
    <tag k="addr:city" v="Saint Albans Town"/>
    <tag k="addr:housenumber" v="15"/>
    <tag k="addr:street" v="Bayview Drive"/>
    <tag k="addr:state" v="VT"/>
    <tag k="ref:vcgi:esiteid" v="243056"/>
  </node>
  <node id="-1949" visible="true" lat="44.78884506" lon="-73.09194946">
    <tag k="addr:city" v="Saint Albans Town"/>
    <tag k="addr:housenumber" v="20"/>
    <tag k="addr:street" v="Bayview Drive"/>
    <tag k="addr:state" v="VT"/>
    <tag k="ref:vcgi:esiteid" v="243058"/>
  </node>
  <node id="-1951" visible="true" lat="44.78875914" lon="-73.09356015">
    <tag k="addr:city" v="Saint Albans Town"/>
    <tag k="addr:housenumber" v="7"/>
    <tag k="addr:street" v="Georgie Avenue"/>
    <tag k="addr:state" v="VT"/>
    <tag k="ref:vcgi:esiteid" v="243060"/>
  </node>
  <node id="-1952" visible="true" lat="44.78874206" lon="-73.09511566">
    <tag k="addr:city" v="Saint Albans Town"/>
    <tag k="addr:housenumber" v="3"/>
    <tag k="addr:street" v="Laurie Avenue"/>
    <tag k="addr:state" v="VT"/>
    <tag k="ref:vcgi:esiteid" v="243061"/>
  </node>
  <node id="-1953" visible="true" lat="44.78873825" lon="-73.09432983">
    <tag k="addr:city" v="Saint Albans Town"/>
    <tag k="addr:housenumber" v="6"/>
    <tag k="addr:street" v="Georgie Avenue"/>
    <tag k="addr:state" v="VT"/>
    <tag k="ref:vcgi:esiteid" v="243062"/>
  </node>
  <node id="-1958" visible="true" lat="44.78860878" lon="-73.09258548">
    <tag k="addr:city" v="Saint Albans Town"/>
    <tag k="addr:housenumber" v="17"/>
    <tag k="addr:street" v="Bayview Drive"/>
    <tag k="addr:state" v="VT"/>
    <tag k="ref:vcgi:esiteid" v="243067"/>
  </node>
  <node id="-1960" visible="true" lat="44.78848647" lon="-73.09484863">
    <tag k="addr:city" v="Saint Albans Town"/>
    <tag k="addr:housenumber" v="5"/>
    <tag k="addr:street" v="Laurie Avenue"/>
    <tag k="addr:state" v="VT"/>
    <tag k="ref:vcgi:esiteid" v="243069"/>
  </node>
  <node id="-1964" visible="true" lat="44.78836857" lon="-73.09314416">
    <tag k="addr:city" v="Saint Albans Town"/>
    <tag k="addr:housenumber" v="9"/>
    <tag k="addr:street" v="Georgie Avenue"/>
    <tag k="addr:state" v="VT"/>
    <tag k="ref:vcgi:esiteid" v="243073"/>
  </node>
  <node id="-1968" visible="true" lat="44.78837204" lon="-73.09400939">
    <tag k="addr:city" v="Saint Albans Town"/>
    <tag k="addr:housenumber" v="8"/>
    <tag k="addr:street" v="Georgie Avenue"/>
    <tag k="addr:state" v="VT"/>
    <tag k="ref:vcgi:esiteid" v="243077"/>
  </node>
  <node id="-1972" visible="true" lat="44.78829186" lon="-73.09235432">
    <tag k="addr:city" v="Saint Albans Town"/>
    <tag k="addr:housenumber" v="19"/>
    <tag k="addr:street" v="Bayview Drive"/>
    <tag k="addr:state" v="VT"/>
    <tag k="ref:vcgi:esiteid" v="243082"/>
  </node>
  <node id="-1976" visible="true" lat="44.78812408" lon="-73.0944519">
    <tag k="addr:city" v="Saint Albans Town"/>
    <tag k="addr:housenumber" v="7"/>
    <tag k="addr:street" v="Laurie Avenue"/>
    <tag k="addr:state" v="VT"/>
    <tag k="ref:vcgi:esiteid" v="243087"/>
  </node>
  <node id="-1978" visible="true" lat="44.78810882" lon="-73.09288787">
    <tag k="addr:city" v="Saint Albans Town"/>
    <tag k="addr:housenumber" v="11"/>
    <tag k="addr:street" v="Georgie Avenue"/>
    <tag k="addr:state" v="VT"/>
    <tag k="ref:vcgi:esiteid" v="243089"/>
  </node>
  <node id="-1981" visible="true" lat="44.7880516" lon="-73.09368896">
    <tag k="addr:city" v="Saint Albans Town"/>
    <tag k="addr:housenumber" v="10"/>
    <tag k="addr:street" v="Georgie Avenue"/>
    <tag k="addr:state" v="VT"/>
    <tag k="ref:vcgi:esiteid" v="243092"/>
  </node>
  <node id="-1992" visible="true" lat="44.78774247" lon="-73.09254342">
    <tag k="addr:city" v="Saint Albans Town"/>
    <tag k="addr:housenumber" v="13"/>
    <tag k="addr:street" v="Georgie Avenue"/>
    <tag k="addr:state" v="VT"/>
    <tag k="ref:vcgi:esiteid" v="243103"/>
  </node>
  <node id="-1994" visible="true" lat="44.78774261" lon="-73.09340667">
    <tag k="addr:city" v="Saint Albans Town"/>
    <tag k="addr:housenumber" v="12"/>
    <tag k="addr:street" v="Georgie Avenue"/>
    <tag k="addr:state" v="VT"/>
    <tag k="ref:vcgi:esiteid" v="243105"/>
  </node>
  <node id="-1995" visible="true" lat="44.78772735" lon="-73.0941925">
    <tag k="addr:city" v="Saint Albans Town"/>
    <tag k="addr:housenumber" v="9"/>
    <tag k="addr:street" v="Laurie Avenue"/>
    <tag k="addr:state" v="VT"/>
    <tag k="ref:vcgi:esiteid" v="243106"/>
  </node>
  <node id="-2010" visible="true" lat="44.78742808" lon="-73.09380668">
    <tag k="addr:city" v="Saint Albans Town"/>
    <tag k="addr:housenumber" v="11"/>
    <tag k="addr:street" v="Laurie Avenue"/>
    <tag k="addr:state" v="VT"/>
    <tag k="ref:vcgi:esiteid" v="243121"/>
  </node>
  <node id="-2011" visible="true" lat="44.78736142" lon="-73.09301238">
    <tag k="addr:city" v="Saint Albans Town"/>
    <tag k="addr:housenumber" v="14"/>
    <tag k="addr:street" v="Georgie Avenue"/>
    <tag k="addr:state" v="VT"/>
    <tag k="ref:vcgi:esiteid" v="243122"/>
  </node>
  <node id="-2022" visible="true" lat="44.78713604" lon="-73.09351104">
    <tag k="addr:city" v="Saint Albans Town"/>
    <tag k="addr:housenumber" v="13"/>
    <tag k="addr:street" v="Laurie Avenue"/>
    <tag k="addr:state" v="VT"/>
    <tag k="ref:vcgi:esiteid" v="243135"/>
  </node>
  <node id="-2025" visible="true" lat="44.78703689" lon="-73.09272766">
    <tag k="addr:city" v="Saint Albans Town"/>
    <tag k="addr:housenumber" v="16"/>
    <tag k="addr:street" v="Georgie Avenue"/>
    <tag k="addr:state" v="VT"/>
    <tag k="ref:vcgi:esiteid" v="243138"/>
  </node>
  <node id="-2035" visible="true" lat="44.78679657" lon="-73.09178161">
    <tag k="addr:city" v="Saint Albans Town"/>
    <tag k="addr:housenumber" v="30"/>
    <tag k="addr:street" v="Bayview Drive"/>
    <tag k="addr:state" v="VT"/>
    <tag k="ref:vcgi:esiteid" v="243148"/>
  </node>
  <node id="-2036" visible="true" lat="44.78677749" lon="-73.09414672">
    <tag k="addr:city" v="Saint Albans Town"/>
    <tag k="addr:housenumber" v="14"/>
    <tag k="addr:street" v="Laurie Avenue"/>
    <tag k="addr:state" v="VT"/>
    <tag k="ref:vcgi:esiteid" v="243149"/>
  </node>
  <node id="-2039" visible="true" lat="44.78671646" lon="-73.0931549">
    <tag k="addr:city" v="Saint Albans Town"/>
    <tag k="addr:housenumber" v="15"/>
    <tag k="addr:street" v="Laurie Avenue"/>
    <tag k="addr:state" v="VT"/>
    <tag k="ref:vcgi:esiteid" v="243152"/>
  </node>
  <node id="-2042" visible="true" lat="44.78665407" lon="-73.09257983">
    <tag k="addr:city" v="Saint Albans Town"/>
    <tag k="addr:housenumber" v="31"/>
    <tag k="addr:street" v="Bayview Drive"/>
    <tag k="addr:state" v="VT"/>
    <tag k="ref:vcgi:esiteid" v="243155"/>
  </node>
  <node id="-2054" visible="true" lat="44.78635218" lon="-73.09196211">
    <tag k="addr:city" v="Saint Albans Town"/>
    <tag k="addr:housenumber" v="32"/>
    <tag k="addr:street" v="Bayview Drive"/>
    <tag k="addr:state" v="VT"/>
    <tag k="ref:vcgi:esiteid" v="243167"/>
  </node>
  <node id="-2058" visible="true" lat="44.78636932" lon="-73.0928421">
    <tag k="addr:city" v="Saint Albans Town"/>
    <tag k="addr:housenumber" v="17"/>
    <tag k="addr:street" v="Laurie Avenue"/>
    <tag k="addr:state" v="VT"/>
    <tag k="ref:vcgi:esiteid" v="243171"/>
  </node>
  <node id="-2070" visible="true" lat="44.78607177" lon="-73.0921936">
    <tag k="addr:city" v="Saint Albans Town"/>
    <tag k="addr:housenumber" v="34"/>
    <tag k="addr:street" v="Bayview Drive"/>
    <tag k="addr:state" v="VT"/>
    <tag k="ref:vcgi:esiteid" v="243184"/>
  </node>
  <node id="-2072" visible="true" lat="44.78606033" lon="-73.09347534">
    <tag k="addr:city" v="Saint Albans Town"/>
    <tag k="addr:housenumber" v="18"/>
    <tag k="addr:street" v="Laurie Avenue"/>
    <tag k="addr:state" v="VT"/>
    <tag k="ref:vcgi:esiteid" v="243186"/>
  </node>
  <node id="-2082" visible="true" lat="44.78573989" lon="-73.09313201">
    <tag k="addr:city" v="Saint Albans Town"/>
    <tag k="addr:housenumber" v="20"/>
    <tag k="addr:street" v="Laurie Avenue"/>
    <tag k="addr:state" v="VT"/>
    <tag k="ref:vcgi:esiteid" v="243196"/>
  </node>
  <node id="-2084" visible="true" lat="44.78570556" lon="-73.09215545">
    <tag k="addr:city" v="Saint Albans Town"/>
    <tag k="addr:housenumber" v="36"/>
    <tag k="addr:street" v="Bayview Drive"/>
    <tag k="addr:state" v="VT"/>
    <tag k="ref:vcgi:esiteid" v="243198"/>
  </node>
  <node id="-2088" visible="true" lat="44.78564258" lon="-73.09419786">
    <tag k="addr:city" v="Saint Albans Town"/>
    <tag k="addr:housenumber" v="74"/>
    <tag k="addr:street" v="Prospect Hill Road"/>
    <tag k="addr:state" v="VT"/>
    <tag k="ref:vcgi:esiteid" v="243202"/>
  </node>
  <node id="-2097" visible="true" lat="44.78541231" lon="-73.09391574">
    <tag k="addr:city" v="Saint Albans Town"/>
    <tag k="addr:housenumber" v="76"/>
    <tag k="addr:street" v="Prospect Hill Road"/>
    <tag k="addr:state" v="VT"/>
    <tag k="ref:vcgi:esiteid" v="243211"/>
  </node>
  <node id="-2099" visible="true" lat="44.78535842" lon="-73.09280395">
    <tag k="addr:city" v="Saint Albans Town"/>
    <tag k="addr:housenumber" v="39"/>
    <tag k="addr:street" v="Bayview Drive"/>
    <tag k="addr:state" v="VT"/>
    <tag k="ref:vcgi:esiteid" v="243213"/>
  </node>
  <node id="-2103" visible="true" lat="44.78522491" lon="-73.09203338">
    <tag k="addr:city" v="Saint Albans Town"/>
    <tag k="addr:housenumber" v="38"/>
    <tag k="addr:street" v="Bayview Drive"/>
    <tag k="addr:state" v="VT"/>
    <tag k="ref:vcgi:esiteid" v="243218"/>
  </node>
  <node id="-2107" visible="true" lat="44.78513336" lon="-73.09375">
    <tag k="addr:city" v="Saint Albans Town"/>
    <tag k="addr:housenumber" v="80"/>
    <tag k="addr:street" v="Prospect Hill Road"/>
    <tag k="addr:state" v="VT"/>
    <tag k="ref:vcgi:esiteid" v="243222"/>
  </node>
  <node id="-2110" visible="true" lat="44.78496905" lon="-73.09243531">
    <tag k="addr:city" v="Saint Albans Town"/>
    <tag k="addr:housenumber" v="40"/>
    <tag k="addr:street" v="Bayview Drive"/>
    <tag k="addr:state" v="VT"/>
    <tag k="ref:vcgi:esiteid" v="243225"/>
  </node>
  <node id="-2117" visible="true" lat="44.78485708" lon="-73.09350047">
    <tag k="addr:city" v="Saint Albans Town"/>
    <tag k="addr:housenumber" v="86"/>
    <tag k="addr:street" v="Prospect Hill Road"/>
    <tag k="addr:state" v="VT"/>
    <tag k="ref:vcgi:esiteid" v="243232"/>
  </node>
  <node id="-2121" visible="true" lat="44.78453687" lon="-73.09326204">
    <tag k="addr:city" v="Saint Albans Town"/>
    <tag k="addr:housenumber" v="90"/>
    <tag k="addr:street" v="Prospect Hill Road"/>
    <tag k="addr:state" v="VT"/>
    <tag k="ref:vcgi:esiteid" v="243236"/>
  </node>
  <node id="-2130" visible="true" lat="44.78408081" lon="-73.09295111">
    <tag k="addr:city" v="Saint Albans Town"/>
    <tag k="addr:housenumber" v="100"/>
    <tag k="addr:street" v="Prospect Hill Road"/>
    <tag k="addr:state" v="VT"/>
    <tag k="ref:vcgi:esiteid" v="243246"/>
  </node>
  <node id="-2150" visible="true" lat="44.78268695" lon="-73.09636004">
    <tag k="addr:city" v="Saint Albans Town"/>
    <tag k="addr:housenumber" v="98"/>
    <tag k="addr:street" v="Prospect Hill Road"/>
    <tag k="addr:state" v="VT"/>
    <tag k="ref:vcgi:esiteid" v="243276"/>
  </node>
  <node id="-2363" visible="true" lat="44.80944061" lon="-73.13442993">
    <tag k="addr:city" v="Saint Albans Town"/>
    <tag k="addr:housenumber" v="52"/>
    <tag k="addr:street" v="Little County Road"/>
    <tag k="addr:state" v="VT"/>
    <tag k="ref:vcgi:esiteid" v="243499"/>
  </node>
  <node id="-2364" visible="true" lat="44.80789947" lon="-73.13471984">
    <tag k="addr:city" v="Saint Albans Town"/>
    <tag k="addr:housenumber" v="26"/>
    <tag k="addr:street" v="Little County Road"/>
    <tag k="addr:state" v="VT"/>
    <tag k="ref:vcgi:esiteid" v="243501"/>
  </node>
  <node id="-2365" visible="true" lat="44.80749394" lon="-73.13494726">
    <tag k="addr:city" v="Saint Albans Town"/>
    <tag k="addr:housenumber" v="22"/>
    <tag k="addr:street" v="Little County Road"/>
    <tag k="addr:state" v="VT"/>
    <tag k="ref:vcgi:esiteid" v="243502"/>
  </node>
  <node id="-2366" visible="true" lat="44.80648803" lon="-73.13508605">
    <tag k="addr:city" v="Saint Albans Town"/>
    <tag k="addr:housenumber" v="8"/>
    <tag k="addr:street" v="Little County Road"/>
    <tag k="addr:state" v="VT"/>
    <tag k="ref:vcgi:esiteid" v="243503"/>
  </node>
  <node id="-2367" visible="true" lat="44.81094914" lon="-73.1327916">
    <tag k="addr:city" v="Saint Albans Town"/>
    <tag k="addr:housenumber" v="69"/>
    <tag k="addr:street" v="Little County Road"/>
    <tag k="addr:state" v="VT"/>
    <tag k="ref:vcgi:esiteid" v="243504"/>
  </node>
  <node id="-2368" visible="true" lat="44.81038144" lon="-73.13358814">
    <tag k="addr:city" v="Saint Albans Town"/>
    <tag k="addr:housenumber" v="67"/>
    <tag k="addr:street" v="Little County Road"/>
    <tag k="addr:state" v="VT"/>
    <tag k="ref:vcgi:esiteid" v="243505"/>
  </node>
  <node id="-2369" visible="true" lat="44.81021425" lon="-73.13367974">
    <tag k="addr:city" v="Saint Albans Town"/>
    <tag k="addr:housenumber" v="63"/>
    <tag k="addr:street" v="Little County Road"/>
    <tag k="addr:state" v="VT"/>
    <tag k="ref:vcgi:esiteid" v="243506"/>
  </node>
  <node id="-2370" visible="true" lat="44.80999221" lon="-73.13378931">
    <tag k="addr:city" v="Saint Albans Town"/>
    <tag k="addr:housenumber" v="61"/>
    <tag k="addr:street" v="Little County Road"/>
    <tag k="addr:state" v="VT"/>
    <tag k="ref:vcgi:esiteid" v="243507"/>
  </node>
  <node id="-2371" visible="true" lat="44.80933842" lon="-73.13359793">
    <tag k="addr:city" v="Saint Albans Town"/>
    <tag k="addr:housenumber" v="53"/>
    <tag k="addr:street" v="Little County Road"/>
    <tag k="addr:state" v="VT"/>
    <tag k="ref:vcgi:esiteid" v="243508"/>
  </node>
  <node id="-2372" visible="true" lat="44.80582428" lon="-73.13471984">
    <tag k="addr:city" v="Saint Albans Town"/>
    <tag k="addr:housenumber" v="5"/>
    <tag k="addr:street" v="Little County Road"/>
    <tag k="addr:state" v="VT"/>
    <tag k="ref:vcgi:esiteid" v="243509"/>
  </node>
  <node id="-2373" visible="true" lat="44.80831817" lon="-73.13479683">
    <tag k="addr:city" v="Saint Albans Town"/>
    <tag k="addr:housenumber" v="32"/>
    <tag k="addr:street" v="Little County Road"/>
    <tag k="addr:state" v="VT"/>
    <tag k="ref:vcgi:esiteid" v="243510"/>
  </node>
  <node id="-2374" visible="true" lat="44.80862594" lon="-73.13399837">
    <tag k="addr:city" v="Saint Albans Town"/>
    <tag k="addr:housenumber" v="41"/>
    <tag k="addr:street" v="Little County Road"/>
    <tag k="addr:state" v="VT"/>
    <tag k="ref:vcgi:esiteid" v="243511"/>
  </node>
  <node id="-2375" visible="true" lat="44.80822756" lon="-73.13396228">
    <tag k="addr:city" v="Saint Albans Town"/>
    <tag k="addr:housenumber" v="33"/>
    <tag k="addr:street" v="Little County Road"/>
    <tag k="addr:state" v="VT"/>
    <tag k="ref:vcgi:esiteid" v="243512"/>
  </node>
  <node id="-2505" visible="true" lat="44.80572057" lon="-73.13620679">
    <tag k="addr:city" v="Saint Albans Town"/>
    <tag k="addr:housenumber" v="20"/>
    <tag k="addr:street" v="Rice Road"/>
    <tag k="addr:state" v="VT"/>
    <tag k="ref:vcgi:esiteid" v="243665"/>
  </node>
  <node id="-2541" visible="true" lat="44.79977599" lon="-73.07990425">
    <tag k="addr:city" v="Saint Albans Town"/>
    <tag k="addr:housenumber" v="119"/>
    <tag k="addr:street" v="Gricebrook Road"/>
    <tag k="addr:state" v="VT"/>
    <tag k="ref:vcgi:esiteid" v="243702"/>
  </node>
  <node id="-2577" visible="true" lat="44.79998317" lon="-73.07880231">
    <tag k="addr:city" v="Saint Albans Town"/>
    <tag k="addr:housenumber" v="140"/>
    <tag k="addr:street" v="Gricebrook Road"/>
    <tag k="addr:state" v="VT"/>
    <tag k="ref:vcgi:esiteid" v="243738"/>
  </node>
  <node id="-2610" visible="true" lat="44.79918944" lon="-73.07927513">
    <tag k="addr:city" v="Saint Albans Town"/>
    <tag k="addr:housenumber" v="131"/>
    <tag k="addr:street" v="Gricebrook Road"/>
    <tag k="addr:state" v="VT"/>
    <tag k="ref:vcgi:esiteid" v="243773"/>
  </node>
  <node id="-2631" visible="true" lat="44.82497641" lon="-73.08269498">
    <tag k="addr:city" v="Saint Albans Town"/>
    <tag k="addr:housenumber" v="75"/>
    <tag k="addr:street" v="Rewes Drive"/>
    <tag k="addr:state" v="VT"/>
    <tag k="ref:vcgi:esiteid" v="243796"/>
  </node>
  <node id="-2864" visible="true" lat="44.80559547" lon="-73.13455202">
    <tag k="addr:city" v="Saint Albans Town"/>
    <tag k="addr:housenumber" v="564"/>
    <tag k="addr:street" v="Patten Crosby Road"/>
    <tag k="addr:state" v="VT"/>
    <tag k="ref:vcgi:esiteid" v="315157"/>
  </node>
  <node id="-3032" visible="true" lat="44.80097128" lon="-73.07805002">
    <tag k="addr:city" v="Saint Albans Town"/>
    <tag k="addr:housenumber" v="102"/>
    <tag k="addr:street" v="Gricebrook Road"/>
    <tag k="addr:state" v="VT"/>
    <tag k="ref:vcgi:esiteid" v="336027"/>
  </node>
  <node id="-3033" visible="true" lat="44.80098207" lon="-73.0781744">
    <tag k="addr:city" v="Saint Albans Town"/>
    <tag k="addr:housenumber" v="103"/>
    <tag k="addr:street" v="Gricebrook Road"/>
    <tag k="addr:state" v="VT"/>
    <tag k="ref:vcgi:esiteid" v="336028"/>
  </node>
  <node id="-3034" visible="true" lat="44.80100148" lon="-73.07828683">
    <tag k="addr:city" v="Saint Albans Town"/>
    <tag k="addr:housenumber" v="104"/>
    <tag k="addr:street" v="Gricebrook Road"/>
    <tag k="addr:state" v="VT"/>
    <tag k="ref:vcgi:esiteid" v="336029"/>
  </node>
  <node id="-3035" visible="true" lat="44.80102663" lon="-73.07839131">
    <tag k="addr:city" v="Saint Albans Town"/>
    <tag k="addr:housenumber" v="105"/>
    <tag k="addr:street" v="Gricebrook Road"/>
    <tag k="addr:state" v="VT"/>
    <tag k="ref:vcgi:esiteid" v="336030"/>
  </node>
  <node id="-3036" visible="true" lat="44.80104315" lon="-73.07851173">
    <tag k="addr:city" v="Saint Albans Town"/>
    <tag k="addr:housenumber" v="106"/>
    <tag k="addr:street" v="Gricebrook Road"/>
    <tag k="addr:state" v="VT"/>
    <tag k="ref:vcgi:esiteid" v="336031"/>
  </node>
  <node id="-3037" visible="true" lat="44.80090684" lon="-73.0789393">
    <tag k="addr:city" v="Saint Albans Town"/>
    <tag k="addr:housenumber" v="108"/>
    <tag k="addr:street" v="Gricebrook Road"/>
    <tag k="addr:state" v="VT"/>
    <tag k="ref:vcgi:esiteid" v="336032"/>
  </node>
  <node id="-3038" visible="true" lat="44.80083521" lon="-73.0789947">
    <tag k="addr:city" v="Saint Albans Town"/>
    <tag k="addr:housenumber" v="109"/>
    <tag k="addr:street" v="Gricebrook Road"/>
    <tag k="addr:state" v="VT"/>
    <tag k="ref:vcgi:esiteid" v="336033"/>
  </node>
  <node id="-3039" visible="true" lat="44.80078625" lon="-73.0790824">
    <tag k="addr:city" v="Saint Albans Town"/>
    <tag k="addr:housenumber" v="110"/>
    <tag k="addr:street" v="Gricebrook Road"/>
    <tag k="addr:state" v="VT"/>
    <tag k="ref:vcgi:esiteid" v="336034"/>
  </node>
  <node id="-3040" visible="true" lat="44.80072868" lon="-73.07917803">
    <tag k="addr:city" v="Saint Albans Town"/>
    <tag k="addr:housenumber" v="111"/>
    <tag k="addr:street" v="Gricebrook Road"/>
    <tag k="addr:state" v="VT"/>
    <tag k="ref:vcgi:esiteid" v="336035"/>
  </node>
  <node id="-3041" visible="true" lat="44.80066547" lon="-73.07926158">
    <tag k="addr:city" v="Saint Albans Town"/>
    <tag k="addr:housenumber" v="112"/>
    <tag k="addr:street" v="Gricebrook Road"/>
    <tag k="addr:state" v="VT"/>
    <tag k="ref:vcgi:esiteid" v="336036"/>
  </node>
  <node id="-3043" visible="true" lat="44.80029315" lon="-73.07951841">
    <tag k="addr:city" v="Saint Albans Town"/>
    <tag k="addr:housenumber" v="115"/>
    <tag k="addr:street" v="Gricebrook Road"/>
    <tag k="addr:state" v="VT"/>
    <tag k="ref:vcgi:esiteid" v="336038"/>
  </node>
  <node id="-3044" visible="true" lat="44.80021862" lon="-73.0795818">
    <tag k="addr:city" v="Saint Albans Town"/>
    <tag k="addr:housenumber" v="116"/>
    <tag k="addr:street" v="Gricebrook Road"/>
    <tag k="addr:state" v="VT"/>
    <tag k="ref:vcgi:esiteid" v="336039"/>
  </node>
  <node id="-3045" visible="true" lat="44.80014118" lon="-73.07965719">
    <tag k="addr:city" v="Saint Albans Town"/>
    <tag k="addr:housenumber" v="117"/>
    <tag k="addr:street" v="Gricebrook Road"/>
    <tag k="addr:state" v="VT"/>
    <tag k="ref:vcgi:esiteid" v="336040"/>
  </node>
  <node id="-3046" visible="true" lat="44.80006087" lon="-73.07973656">
    <tag k="addr:city" v="Saint Albans Town"/>
    <tag k="addr:housenumber" v="118"/>
    <tag k="addr:street" v="Gricebrook Road"/>
    <tag k="addr:state" v="VT"/>
    <tag k="ref:vcgi:esiteid" v="336041"/>
  </node>
  <node id="-3047" visible="true" lat="44.79968883" lon="-73.07993727">
    <tag k="addr:city" v="Saint Albans Town"/>
    <tag k="addr:housenumber" v="120"/>
    <tag k="addr:street" v="Gricebrook Road"/>
    <tag k="addr:state" v="VT"/>
    <tag k="ref:vcgi:esiteid" v="336042"/>
  </node>
  <node id="-3048" visible="true" lat="44.79960034" lon="-73.07994039">
    <tag k="addr:city" v="Saint Albans Town"/>
    <tag k="addr:housenumber" v="121"/>
    <tag k="addr:street" v="Gricebrook Road"/>
    <tag k="addr:state" v="VT"/>
    <tag k="ref:vcgi:esiteid" v="336043"/>
  </node>
  <node id="-3049" visible="true" lat="44.79951174" lon="-73.07996355">
    <tag k="addr:city" v="Saint Albans Town"/>
    <tag k="addr:housenumber" v="122"/>
    <tag k="addr:street" v="Gricebrook Road"/>
    <tag k="addr:state" v="VT"/>
    <tag k="ref:vcgi:esiteid" v="336044"/>
  </node>
  <node id="-3050" visible="true" lat="44.79944588" lon="-73.08000699">
    <tag k="addr:city" v="Saint Albans Town"/>
    <tag k="addr:housenumber" v="123"/>
    <tag k="addr:street" v="Gricebrook Road"/>
    <tag k="addr:state" v="VT"/>
    <tag k="ref:vcgi:esiteid" v="336045"/>
  </node>
  <node id="-3051" visible="true" lat="44.79936012" lon="-73.08003419">
    <tag k="addr:city" v="Saint Albans Town"/>
    <tag k="addr:housenumber" v="124"/>
    <tag k="addr:street" v="Gricebrook Road"/>
    <tag k="addr:state" v="VT"/>
    <tag k="ref:vcgi:esiteid" v="336046"/>
  </node>
  <node id="-3052" visible="true" lat="44.79905602" lon="-73.07978261">
    <tag k="addr:city" v="Saint Albans Town"/>
    <tag k="addr:housenumber" v="125"/>
    <tag k="addr:street" v="Gricebrook Road"/>
    <tag k="addr:state" v="VT"/>
    <tag k="ref:vcgi:esiteid" v="336047"/>
  </node>
  <node id="-3053" visible="true" lat="44.79902514" lon="-73.07968209">
    <tag k="addr:city" v="Saint Albans Town"/>
    <tag k="addr:housenumber" v="126"/>
    <tag k="addr:street" v="Gricebrook Road"/>
    <tag k="addr:state" v="VT"/>
    <tag k="ref:vcgi:esiteid" v="336048"/>
  </node>
  <node id="-3054" visible="true" lat="44.79899429" lon="-73.07957355">
    <tag k="addr:city" v="Saint Albans Town"/>
    <tag k="addr:housenumber" v="127"/>
    <tag k="addr:street" v="Gricebrook Road"/>
    <tag k="addr:state" v="VT"/>
    <tag k="ref:vcgi:esiteid" v="336049"/>
  </node>
  <node id="-3055" visible="true" lat="44.7989578" lon="-73.07945293">
    <tag k="addr:city" v="Saint Albans Town"/>
    <tag k="addr:housenumber" v="128"/>
    <tag k="addr:street" v="Gricebrook Road"/>
    <tag k="addr:state" v="VT"/>
    <tag k="ref:vcgi:esiteid" v="336050"/>
  </node>
  <node id="-3056" visible="true" lat="44.79891548" lon="-73.0793563">
    <tag k="addr:city" v="Saint Albans Town"/>
    <tag k="addr:housenumber" v="129"/>
    <tag k="addr:street" v="Gricebrook Road"/>
    <tag k="addr:state" v="VT"/>
    <tag k="ref:vcgi:esiteid" v="336051"/>
  </node>
  <node id="-3057" visible="true" lat="44.79887047" lon="-73.07922758">
    <tag k="addr:city" v="Saint Albans Town"/>
    <tag k="addr:housenumber" v="130"/>
    <tag k="addr:street" v="Gricebrook Road"/>
    <tag k="addr:state" v="VT"/>
    <tag k="ref:vcgi:esiteid" v="336052"/>
  </node>
  <node id="-3058" visible="true" lat="44.79926708" lon="-73.07924759">
    <tag k="addr:city" v="Saint Albans Town"/>
    <tag k="addr:housenumber" v="132"/>
    <tag k="addr:street" v="Gricebrook Road"/>
    <tag k="addr:state" v="VT"/>
    <tag k="ref:vcgi:esiteid" v="336053"/>
  </node>
  <node id="-3059" visible="true" lat="44.79935575" lon="-73.07920839">
    <tag k="addr:city" v="Saint Albans Town"/>
    <tag k="addr:housenumber" v="133"/>
    <tag k="addr:street" v="Gricebrook Road"/>
    <tag k="addr:state" v="VT"/>
    <tag k="ref:vcgi:esiteid" v="336054"/>
  </node>
  <node id="-3060" visible="true" lat="44.79942449" lon="-73.07916097">
    <tag k="addr:city" v="Saint Albans Town"/>
    <tag k="addr:housenumber" v="134"/>
    <tag k="addr:street" v="Gricebrook Road"/>
    <tag k="addr:state" v="VT"/>
    <tag k="ref:vcgi:esiteid" v="336055"/>
  </node>
  <node id="-3061" visible="true" lat="44.79949891" lon="-73.07911762">
    <tag k="addr:city" v="Saint Albans Town"/>
    <tag k="addr:housenumber" v="135"/>
    <tag k="addr:street" v="Gricebrook Road"/>
    <tag k="addr:state" v="VT"/>
    <tag k="ref:vcgi:esiteid" v="336056"/>
  </node>
  <node id="-3062" visible="true" lat="44.79957342" lon="-73.07905824">
    <tag k="addr:city" v="Saint Albans Town"/>
    <tag k="addr:housenumber" v="136"/>
    <tag k="addr:street" v="Gricebrook Road"/>
    <tag k="addr:state" v="VT"/>
    <tag k="ref:vcgi:esiteid" v="336057"/>
  </node>
  <node id="-3063" visible="true" lat="44.79965355" lon="-73.07901495">
    <tag k="addr:city" v="Saint Albans Town"/>
    <tag k="addr:housenumber" v="137"/>
    <tag k="addr:street" v="Gricebrook Road"/>
    <tag k="addr:state" v="VT"/>
    <tag k="ref:vcgi:esiteid" v="336058"/>
  </node>
  <node id="-3064" visible="true" lat="44.79972797" lon="-73.0789716">
    <tag k="addr:city" v="Saint Albans Town"/>
    <tag k="addr:housenumber" v="138"/>
    <tag k="addr:street" v="Gricebrook Road"/>
    <tag k="addr:state" v="VT"/>
    <tag k="ref:vcgi:esiteid" v="336059"/>
  </node>
  <node id="-3065" visible="true" lat="44.79981675" lon="-73.07891236">
    <tag k="addr:city" v="Saint Albans Town"/>
    <tag k="addr:housenumber" v="139"/>
    <tag k="addr:street" v="Gricebrook Road"/>
    <tag k="addr:state" v="VT"/>
    <tag k="ref:vcgi:esiteid" v="336060"/>
  </node>
  <node id="-3066" visible="true" lat="44.80005718" lon="-73.07877446">
    <tag k="addr:city" v="Saint Albans Town"/>
    <tag k="addr:housenumber" v="141"/>
    <tag k="addr:street" v="Gricebrook Road"/>
    <tag k="addr:state" v="VT"/>
    <tag k="ref:vcgi:esiteid" v="336061"/>
  </node>
  <node id="-3067" visible="true" lat="44.80013734" lon="-73.07872716">
    <tag k="addr:city" v="Saint Albans Town"/>
    <tag k="addr:housenumber" v="142"/>
    <tag k="addr:street" v="Gricebrook Road"/>
    <tag k="addr:state" v="VT"/>
    <tag k="ref:vcgi:esiteid" v="336062"/>
  </node>
  <node id="-3068" visible="true" lat="44.80020893" lon="-73.07867978">
    <tag k="addr:city" v="Saint Albans Town"/>
    <tag k="addr:housenumber" v="143"/>
    <tag k="addr:street" v="Gricebrook Road"/>
    <tag k="addr:state" v="VT"/>
    <tag k="ref:vcgi:esiteid" v="336063"/>
  </node>
  <node id="-3069" visible="true" lat="44.80028339" lon="-73.07862841">
    <tag k="addr:city" v="Saint Albans Town"/>
    <tag k="addr:housenumber" v="144"/>
    <tag k="addr:street" v="Gricebrook Road"/>
    <tag k="addr:state" v="VT"/>
    <tag k="ref:vcgi:esiteid" v="336064"/>
  </node>
  <node id="-3070" visible="true" lat="44.80036071" lon="-73.07857707">
    <tag k="addr:city" v="Saint Albans Town"/>
    <tag k="addr:housenumber" v="145"/>
    <tag k="addr:street" v="Gricebrook Road"/>
    <tag k="addr:state" v="VT"/>
    <tag k="ref:vcgi:esiteid" v="336065"/>
  </node>
  <node id="-3071" visible="true" lat="44.80043791" lon="-73.07854978">
    <tag k="addr:city" v="Saint Albans Town"/>
    <tag k="addr:housenumber" v="146"/>
    <tag k="addr:street" v="Gricebrook Road"/>
    <tag k="addr:state" v="VT"/>
    <tag k="ref:vcgi:esiteid" v="336066"/>
  </node>
  <node id="-3072" visible="true" lat="44.80050958" lon="-73.07848636">
    <tag k="addr:city" v="Saint Albans Town"/>
    <tag k="addr:housenumber" v="147"/>
    <tag k="addr:street" v="Gricebrook Road"/>
    <tag k="addr:state" v="VT"/>
    <tag k="ref:vcgi:esiteid" v="336067"/>
  </node>
  <node id="-3073" visible="true" lat="44.80058979" lon="-73.07842703">
    <tag k="addr:city" v="Saint Albans Town"/>
    <tag k="addr:housenumber" v="148"/>
    <tag k="addr:street" v="Gricebrook Road"/>
    <tag k="addr:state" v="VT"/>
    <tag k="ref:vcgi:esiteid" v="336068"/>
  </node>
  <node id="-3298" visible="true" lat="44.86205708" lon="-73.17216159">
    <tag k="addr:city" v="Saint Albans Town"/>
    <tag k="addr:housenumber" v="5700"/>
    <tag k="addr:street" v="Lower Newton Road"/>
    <tag k="addr:state" v="VT"/>
    <tag k="ref:vcgi:esiteid" v="611057"/>
  </node>
  <node id="-3360" visible="true" lat="44.78597857" lon="-73.08369911">
    <tag k="addr:city" v="Saint Albans Town"/>
    <tag k="addr:housenumber" v="593"/>
    <tag k="addr:street" v="Harbor View Drive"/>
    <tag k="addr:state" v="VT"/>
    <tag k="ref:vcgi:esiteid" v="751056"/>
  </node>
</osm>
