<?xml version="1.0" encoding="UTF-8"?>
<osm version="0.6" generator="JOSM">
  <node id="-152" visible="true" lat="44.49198477" lon="-72.00663225">
    <!-- conflict: "4357 Memorial Drive, , VT" Fuzzy match to "4357 Memorial Drive, Saint Johnsbury, " -->
    <tag k="addr:housenumber" v="4357"/>
    <tag k="addr:street" v="Memorial Drive"/>
    <tag k="addr:state" v="VT"/>
    <tag k="ref:vcgi:esiteid" v="244276"/>
  </node>
  <node id="-345" visible="true" lat="44.46602404" lon="-71.99293441">
    <!-- conflict: "1181 Lackey Hill Road, , VT" No match in OSM, but a different address exists <5m away: "1181 Lackie Hill Road, Saint Johnsbury, VT" -->
    <tag k="addr:housenumber" v="1181"/>
    <tag k="addr:street" v="Lackey Hill Road"/>
    <tag k="addr:state" v="VT"/>
    <tag k="ref:vcgi:esiteid" v="244489"/>
  </node>
  <node id="-353" visible="true" lat="44.46530417" lon="-71.99230295">
    <!-- conflict: "1080 Lackey Hill Road, , VT" No match in OSM, but a different address exists <5m away: "1080 Lackie Hill Road, Saint Johnsbury, VT" -->
    <tag k="addr:housenumber" v="1080"/>
    <tag k="addr:street" v="Lackey Hill Road"/>
    <tag k="addr:state" v="VT"/>
    <tag k="ref:vcgi:esiteid" v="244497"/>
  </node>
  <node id="-359" visible="true" lat="44.46479246" lon="-71.99404095">
    <!-- conflict: "1115 Lackey Hill Road, , VT" No match in OSM, but a different address exists <5m away: "1115 Lackie Hill Road, Saint Johnsbury, VT" -->
    <tag k="addr:housenumber" v="1115"/>
    <tag k="addr:street" v="Lackey Hill Road"/>
    <tag k="addr:state" v="VT"/>
    <tag k="ref:vcgi:esiteid" v="244503"/>
  </node>
  <node id="-381" visible="true" lat="44.46442753" lon="-71.99406085">
    <!-- conflict: "1043 Lackey Hill Road, , VT" No match in OSM, but a different address exists <5m away: "1043 Lackie Hill Road, Saint Johnsbury, VT" -->
    <tag k="addr:housenumber" v="1043"/>
    <tag k="addr:street" v="Lackey Hill Road"/>
    <tag k="addr:state" v="VT"/>
    <tag k="ref:vcgi:esiteid" v="244529"/>
  </node>
  <node id="-436" visible="true" lat="44.45878579" lon="-71.99674068">
    <!-- conflict: "630 Lackey Hill Road, , VT" No match in OSM, but a different address exists <5m away: "630 Lackie Hill Road, Saint Johnsbury, VT" -->
    <tag k="addr:housenumber" v="630"/>
    <tag k="addr:street" v="Lackey Hill Road"/>
    <tag k="addr:state" v="VT"/>
    <tag k="ref:vcgi:esiteid" v="244591"/>
  </node>
  <node id="-525" visible="true" lat="44.45486239" lon="-72.00531731">
    <!-- conflict: "128 Lackey Hill Road, , VT" No match in OSM, but a different address exists <5m away: "128 Lackie Hill Road, Saint Johnsbury, VT" -->
    <tag k="addr:housenumber" v="128"/>
    <tag k="addr:street" v="Lackey Hill Road"/>
    <tag k="addr:state" v="VT"/>
    <tag k="ref:vcgi:esiteid" v="244684"/>
  </node>
  <node id="-529" visible="true" lat="44.4544032" lon="-72.00643983">
    <!-- conflict: "100 Lackey Hill Road, , VT" No match in OSM, but a different address exists <5m away: "100 Lackie Hill Road, Saint Johnsbury, VT" -->
    <tag k="addr:housenumber" v="100"/>
    <tag k="addr:street" v="Lackey Hill Road"/>
    <tag k="addr:state" v="VT"/>
    <tag k="ref:vcgi:esiteid" v="244688"/>
  </node>
  <node id="-532" visible="true" lat="44.45440985" lon="-72.00728299">
    <!-- conflict: "24 Lackey Hill Road, , VT" No match in OSM, but a different address exists <5m away: "24 Lackie Hill Road, Saint Johnsbury, VT" -->
    <tag k="addr:housenumber" v="24"/>
    <tag k="addr:street" v="Lackey Hill Road"/>
    <tag k="addr:state" v="VT"/>
    <tag k="ref:vcgi:esiteid" v="244691"/>
  </node>
  <node id="-698" visible="true" lat="44.44576542" lon="-72.00957524">
    <!-- conflict: "1315 Hospital Drive, , VT" Fuzzy match to "1315 Hospital Drive, Saint Johnsbury, " -->
    <tag k="addr:housenumber" v="1315"/>
    <tag k="addr:street" v="Hospital Drive"/>
    <tag k="addr:state" v="VT"/>
    <tag k="ref:vcgi:esiteid" v="244871"/>
  </node>
  <node id="-785" visible="true" lat="44.43847057" lon="-72.01628942">
    <!-- conflict: "371 Memorial Drive, , VT" No match in OSM, but a different address exists <5m away: " Memorial Drive, Saint Johnsbury, VT" -->
    <tag k="addr:housenumber" v="371"/>
    <tag k="addr:street" v="Memorial Drive"/>
    <tag k="addr:state" v="VT"/>
    <tag k="ref:vcgi:esiteid" v="244968"/>
  </node>
  <node id="-876" visible="true" lat="44.43486171" lon="-72.00697023">
    <!-- conflict: "13 Rocky Ridge Road, , VT" Fuzzy match to "13 Rocky Ridge, Saint Johnsbury, VT" -->
    <tag k="addr:housenumber" v="13"/>
    <tag k="addr:street" v="Rocky Ridge Road"/>
    <tag k="addr:state" v="VT"/>
    <tag k="ref:vcgi:esiteid" v="245065"/>
  </node>
  <node id="-887" visible="true" lat="44.43438321" lon="-72.00723547">
    <!-- conflict: "8 Rocky Ridge Road, , VT" Fuzzy match to "8 Rocky Ridge, Saint Johnsbury, VT" -->
    <tag k="addr:housenumber" v="8"/>
    <tag k="addr:street" v="Rocky Ridge Road"/>
    <tag k="addr:state" v="VT"/>
    <tag k="ref:vcgi:esiteid" v="245077"/>
  </node>
  <node id="-948" visible="true" lat="44.43221863" lon="-72.01773952">
    <!-- conflict: "21 Memorial Drive, , VT" Fuzzy match to "21 Memorial Drive, St. Johnsbury, " -->
    <tag k="addr:housenumber" v="21"/>
    <tag k="addr:street" v="Memorial Drive"/>
    <tag k="addr:state" v="VT"/>
    <tag k="ref:vcgi:esiteid" v="245153"/>
  </node>
  <node id="-1052" visible="true" lat="44.42909626" lon="-71.96554006">
    <!-- conflict: "2870 Portland Street, , VT" Fuzzy match to "2870 Portland Street, , " -->
    <tag k="addr:housenumber" v="2870"/>
    <tag k="addr:street" v="Portland Street"/>
    <tag k="addr:state" v="VT"/>
    <tag k="ref:vcgi:esiteid" v="245266"/>
  </node>
  <node id="-1061" visible="true" lat="44.43010499" lon="-72.01738185">
    <!-- conflict: "8 Memorial Drive, , VT" Fuzzy match to "8 Memorial Drive, St. Johnsbury, " -->
    <tag k="addr:housenumber" v="8"/>
    <tag k="addr:street" v="Memorial Drive"/>
    <tag k="addr:state" v="VT"/>
    <tag k="ref:vcgi:esiteid" v="245277"/>
  </node>
  <node id="-1184" visible="true" lat="44.42783581" lon="-72.01769055">
    <!-- conflict: "222 Hastings Hill, , VT" Fuzzy match to "222 Hastings Street, St. Johnsbury, VT" -->
    <tag k="addr:housenumber" v="222"/>
    <tag k="addr:street" v="Hastings Hill"/>
    <tag k="addr:state" v="VT"/>
    <tag k="ref:vcgi:esiteid" v="245418"/>
  </node>
  <node id="-1189" visible="true" lat="44.42722524" lon="-72.01804168">
    <!-- conflict: "212 Hastings Hill, , VT" Fuzzy match to "212 Hastings Street, St. Johnsbury, VT" -->
    <tag k="addr:housenumber" v="212"/>
    <tag k="addr:street" v="Hastings Hill"/>
    <tag k="addr:state" v="VT"/>
    <tag k="ref:vcgi:esiteid" v="245424"/>
  </node>
  <node id="-1404" visible="true" lat="44.42428342" lon="-72.01500732">
    <!-- conflict: "815 Railroad Street, , VT" Fuzzy match to "815 Railroad Street, St. Johnsbury, " -->
    <tag k="addr:housenumber" v="815"/>
    <tag k="addr:street" v="Railroad Street"/>
    <tag k="addr:state" v="VT"/>
    <tag k="ref:vcgi:esiteid" v="245660"/>
  </node>
  <node id="-1437" visible="true" lat="44.42385444" lon="-72.01436149">
    <!-- conflict: "784 Railroad Street, , VT" Fuzzy match to "784 Railroad Street, St. Johnsbury, " -->
    <tag k="addr:housenumber" v="784"/>
    <tag k="addr:street" v="Railroad Street"/>
    <tag k="addr:state" v="VT"/>
    <tag k="ref:vcgi:esiteid" v="245699"/>
  </node>
  <node id="-1523" visible="true" lat="44.42291908" lon="-72.01446907">
    <!-- conflict: "716 Railroad Street, , VT" Fuzzy match to "716 Railroad Street, St. Johnsbury, " -->
    <tag k="addr:housenumber" v="716"/>
    <tag k="addr:street" v="Railroad Street"/>
    <tag k="addr:state" v="VT"/>
    <tag k="ref:vcgi:esiteid" v="245793"/>
  </node>
  <node id="-1582" visible="true" lat="44.42240128" lon="-72.02164781">
    <!-- conflict: "481 Summer Street, , VT" No match in OSM, but a different address exists <5m away: " Summer Street, Saint Johnsbury, VT" -->
    <tag k="addr:housenumber" v="481"/>
    <tag k="addr:street" v="Summer Street"/>
    <tag k="addr:state" v="VT"/>
    <tag k="ref:vcgi:esiteid" v="245858"/>
  </node>
  <node id="-1662" visible="true" lat="44.4217055" lon="-72.02071206">
    <!-- conflict: "69 Winter Street, , VT" No match in OSM, but a different address exists <5m away: " Winter Street, Saint Johnsbury, VT" -->
    <tag k="addr:housenumber" v="69"/>
    <tag k="addr:street" v="Winter Street"/>
    <tag k="addr:state" v="VT"/>
    <tag k="ref:vcgi:esiteid" v="245944"/>
  </node>
  <node id="-1679" visible="true" lat="44.42158956" lon="-72.02042224">
    <!-- conflict: "49 Winter Street, , VT" No match in OSM, but a different address exists <5m away: " Winter Street, Saint Johnsbury, VT" -->
    <tag k="addr:housenumber" v="49"/>
    <tag k="addr:street" v="Winter Street"/>
    <tag k="addr:state" v="VT"/>
    <tag k="ref:vcgi:esiteid" v="245965"/>
  </node>
  <node id="-1731" visible="true" lat="44.4213149" lon="-72.02025611">
    <!-- conflict: "1375 Main Street, , VT" No match in OSM, but a different address exists <5m away: " Main Street, Saint Johnsbury, VT" -->
    <tag k="addr:housenumber" v="1375"/>
    <tag k="addr:street" v="Main Street"/>
    <tag k="addr:state" v="VT"/>
    <tag k="ref:vcgi:esiteid" v="246020"/>
  </node>
  <node id="-1740" visible="true" lat="44.42123947" lon="-72.0205897">
    <!-- conflict: "36 Steeple Place, , VT" No match in OSM, but a different address exists <5m away: " Steeple Place, Saint Johnsbury, VT" -->
    <tag k="addr:housenumber" v="36"/>
    <tag k="addr:street" v="Steeple Place"/>
    <tag k="addr:state" v="VT"/>
    <tag k="ref:vcgi:esiteid" v="246031"/>
  </node>
  <node id="-1750" visible="true" lat="44.42114741" lon="-72.02025367">
    <!-- conflict: "24 Steeple Place, , VT" No match in OSM, but a different address exists <5m away: " Steeple Place, Saint Johnsbury, VT" -->
    <tag k="addr:housenumber" v="24"/>
    <tag k="addr:street" v="Steeple Place"/>
    <tag k="addr:state" v="VT"/>
    <tag k="ref:vcgi:esiteid" v="246042"/>
  </node>
  <node id="-1754" visible="true" lat="44.42111322" lon="-72.02066706">
    <!-- conflict: "35 Steeple Place, , VT" No match in OSM, but a different address exists <5m away: " Steeple Place, Saint Johnsbury, VT" -->
    <tag k="addr:housenumber" v="35"/>
    <tag k="addr:street" v="Steeple Place"/>
    <tag k="addr:state" v="VT"/>
    <tag k="ref:vcgi:esiteid" v="246046"/>
  </node>
  <node id="-1758" visible="true" lat="44.42124962" lon="-72.00675789">
    <!-- conflict: "459 Portland Street, , VT" Fuzzy match to "459 Portland Street, , " -->
    <tag k="addr:housenumber" v="459"/>
    <tag k="addr:street" v="Portland Street"/>
    <tag k="addr:state" v="VT"/>
    <tag k="ref:vcgi:esiteid" v="246051"/>
  </node>
  <node id="-1780" visible="true" lat="44.42096301" lon="-72.02033929">
    <!-- conflict: "19 Steeple Place, , VT" No match in OSM, but a different address exists <5m away: " Steeple Place, Saint Johnsbury, VT" -->
    <tag k="addr:housenumber" v="19"/>
    <tag k="addr:street" v="Steeple Place"/>
    <tag k="addr:state" v="VT"/>
    <tag k="ref:vcgi:esiteid" v="246076"/>
  </node>
  <node id="-1796" visible="true" lat="44.4208075" lon="-72.0039549">
    <!-- conflict: "580 Portland Street, , VT" Fuzzy match to "580 Portland Street, St. Johnsbury, " -->
    <tag k="addr:housenumber" v="580"/>
    <tag k="addr:street" v="Portland Street"/>
    <tag k="addr:state" v="VT"/>
    <tag k="ref:vcgi:esiteid" v="246092"/>
  </node>
  <node id="-1818" visible="true" lat="44.42079331" lon="-72.00890977">
    <!-- conflict: "347 Portland Street, , VT" No match in OSM, but a different address exists <5m away: " Portland Street, Saint Johnsbury, VT" -->
    <tag k="addr:housenumber" v="347"/>
    <tag k="addr:street" v="Portland Street"/>
    <tag k="addr:state" v="VT"/>
    <tag k="ref:vcgi:esiteid" v="246116"/>
  </node>
  <node id="-1841" visible="true" lat="44.42054769" lon="-72.00515484">
    <!-- conflict: "532 Portland Street, , VT" No match in OSM, but a different address exists <5m away: "510 Portland Street, St. Johnsbury, VT" -->
    <tag k="addr:housenumber" v="532"/>
    <tag k="addr:street" v="Portland Street"/>
    <tag k="addr:state" v="VT"/>
    <tag k="ref:vcgi:esiteid" v="246143"/>
  </node>
  <node id="-1844" visible="true" lat="44.42064739" lon="-72.01004399">
    <!-- conflict: "287 Portland Street, , VT" Fuzzy match to "287 Portland Street, St. Johnsbury, " -->
    <tag k="addr:housenumber" v="287"/>
    <tag k="addr:street" v="Portland Street"/>
    <tag k="addr:state" v="VT"/>
    <tag k="ref:vcgi:esiteid" v="246147"/>
  </node>
  <node id="-1881" visible="true" lat="44.42037151" lon="-72.02202853">
    <!-- conflict: "340 Summer Street, , VT" No match in OSM, but a different address exists <5m away: " Summer Street, Saint Johnsbury, VT" -->
    <tag k="addr:housenumber" v="340"/>
    <tag k="addr:street" v="Summer Street"/>
    <tag k="addr:state" v="VT"/>
    <tag k="ref:vcgi:esiteid" v="246185"/>
  </node>
  <node id="-1883" visible="true" lat="44.42014754" lon="-72.02134205">
    <!-- conflict: "53 Church Street, , VT" No match in OSM, but a different address exists <5m away: " Church Street, Saint Johnsbury, VT" -->
    <tag k="addr:housenumber" v="53"/>
    <tag k="addr:street" v="Church Street"/>
    <tag k="addr:state" v="VT"/>
    <tag k="ref:vcgi:esiteid" v="246188"/>
  </node>
  <node id="-1884" visible="true" lat="44.4203204" lon="-72.00988933">
    <!-- conflict: "292 Portland Street, , VT" No match in OSM, but a different address exists <5m away: " Portland Street, Saint Johnsbury, VT" -->
    <tag k="addr:housenumber" v="292"/>
    <tag k="addr:street" v="Portland Street"/>
    <tag k="addr:state" v="VT"/>
    <tag k="ref:vcgi:esiteid" v="246189"/>
  </node>
  <node id="-1904" visible="true" lat="44.42015803" lon="-72.02187477">
    <!-- conflict: "77 Church Street, , VT" No match in OSM, but a different address exists <5m away: " Church Street, Saint Johnsbury, VT" -->
    <tag k="addr:housenumber" v="77"/>
    <tag k="addr:street" v="Church Street"/>
    <tag k="addr:state" v="VT"/>
    <tag k="ref:vcgi:esiteid" v="246214"/>
  </node>
  <node id="-1911" visible="true" lat="44.42000973" lon="-72.02120628">
    <!-- conflict: "41 Church Street, , VT" No match in OSM, but a different address exists <5m away: " Church Street, Saint Johnsbury, VT" -->
    <tag k="addr:housenumber" v="41"/>
    <tag k="addr:street" v="Church Street"/>
    <tag k="addr:state" v="VT"/>
    <tag k="ref:vcgi:esiteid" v="246222"/>
  </node>
  <node id="-1920" visible="true" lat="44.42019823" lon="-72.02206849">
    <!-- conflict: "322 Summer Street, , VT" No match in OSM, but a different address exists <5m away: " Summer Street, Saint Johnsbury, VT" -->
    <tag k="addr:housenumber" v="322"/>
    <tag k="addr:street" v="Summer Street"/>
    <tag k="addr:state" v="VT"/>
    <tag k="ref:vcgi:esiteid" v="246234"/>
  </node>
  <node id="-1958" visible="true" lat="44.41976176" lon="-72.01570233">
    <!-- conflict: "497 Railroad Street, , VT" Fuzzy match to "497 Railroad Street, St. Johnsbury, " -->
    <tag k="addr:housenumber" v="497"/>
    <tag k="addr:street" v="Railroad Street"/>
    <tag k="addr:state" v="VT"/>
    <tag k="ref:vcgi:esiteid" v="246276"/>
  </node>
  <node id="-1988" visible="true" lat="44.41971152" lon="-72.01414707">
    <!-- conflict: "10 Saint Mary Street, , VT" No match in OSM, but a different address exists <5m away: " Saint Mary Street, Saint Johnsbury, VT" -->
    <tag k="addr:housenumber" v="10"/>
    <tag k="addr:street" v="Saint Mary Street"/>
    <tag k="addr:state" v="VT"/>
    <tag k="ref:vcgi:esiteid" v="246310"/>
  </node>
  <node id="-2012" visible="true" lat="44.41941479" lon="-72.01985518">
    <!-- conflict: "204 Eastern Avenue, , VT" No match in OSM, but a different address exists <5m away: " , Saint Johnsbury, VT" -->
    <tag k="addr:housenumber" v="204"/>
    <tag k="addr:street" v="Eastern Avenue"/>
    <tag k="addr:state" v="VT"/>
    <tag k="ref:vcgi:esiteid" v="246339"/>
  </node>
  <node id="-2031" visible="true" lat="44.41924031" lon="-72.01583948">
    <!-- conflict: "457 Railroad Street, , VT" Fuzzy match to "457 Railroad Street, , " -->
    <tag k="addr:housenumber" v="457"/>
    <tag k="addr:street" v="Railroad Street"/>
    <tag k="addr:state" v="VT"/>
    <tag k="ref:vcgi:esiteid" v="246363"/>
  </node>
  <node id="-2053" visible="true" lat="44.41885684" lon="-72.01798919">
    <!-- conflict: "47 Cherry Street, , VT" Fuzzy match to "47 Cherry Street, Saint Johnsbury, " -->
    <tag k="addr:housenumber" v="47"/>
    <tag k="addr:street" v="Cherry Street"/>
    <tag k="addr:state" v="VT"/>
    <tag k="ref:vcgi:esiteid" v="246389"/>
  </node>
  <node id="-2139" visible="true" lat="44.418361" lon="-72.01724356">
    <!-- conflict: "74 Eastern Avenue, , VT" Fuzzy match to "74 Eastern Avenue, St. Johnsbury, " -->
    <tag k="addr:housenumber" v="74"/>
    <tag k="addr:street" v="Eastern Avenue"/>
    <tag k="addr:state" v="VT"/>
    <tag k="ref:vcgi:esiteid" v="246486"/>
  </node>
  <node id="-2240" visible="true" lat="44.41723492" lon="-72.01624116">
    <!-- conflict: "321 Railroad Street, , VT" No match in OSM, but a different address exists <5m away: "50 Railroad Street, St. Johnsbury, " -->
    <tag k="addr:housenumber" v="321"/>
    <tag k="addr:street" v="Railroad Street"/>
    <tag k="addr:state" v="VT"/>
    <tag k="ref:vcgi:esiteid" v="246604"/>
  </node>
  <node id="-2355" visible="true" lat="44.41532038" lon="-72.01668817">
    <!-- conflict: "189 Railroad Street, , VT" No match in OSM, but a different address exists <5m away: "26 Railroad Street, St. Johnsbury, " -->
    <tag k="addr:housenumber" v="189"/>
    <tag k="addr:street" v="Railroad Street"/>
    <tag k="addr:state" v="VT"/>
    <tag k="ref:vcgi:esiteid" v="246741"/>
  </node>
  <node id="-2557" visible="true" lat="44.43430357" lon="-72.00754845">
    <!-- conflict: "668 Pleasant Street, , VT" No match in OSM, but a different address exists <5m away: "694 Pleasant Street, Saint Johnsbury, VT" -->
    <tag k="addr:housenumber" v="668"/>
    <tag k="addr:street" v="Pleasant Street"/>
    <tag k="addr:state" v="VT"/>
    <tag k="ref:vcgi:esiteid" v="246979"/>
  </node>
  <node id="-2756" visible="true" lat="44.45375694" lon="-72.01614275">
    <!-- conflict: "19 Hill Street, , VT" No match in OSM, but a different address exists <5m away: "1480 Memorial Drive, Saint Johnsbury, VT" -->
    <tag k="addr:housenumber" v="19"/>
    <tag k="addr:street" v="Hill Street"/>
    <tag k="addr:state" v="VT"/>
    <tag k="ref:vcgi:esiteid" v="247186"/>
  </node>
  <node id="-2890" visible="true" lat="44.44088987" lon="-72.01348813">
    <!-- conflict: "590 Memorial Drive, , VT" No match in OSM, but a different address exists <5m away: " Memorial Drive, Saint Johnsbury, VT" -->
    <tag k="addr:housenumber" v="590"/>
    <tag k="addr:street" v="Memorial Drive"/>
    <tag k="addr:state" v="VT"/>
    <tag k="ref:vcgi:esiteid" v="309239"/>
  </node>
  <node id="-3061" visible="true" lat="44.45723228" lon="-72.00008585">
    <!-- conflict: "415 Lackey Hill Road, , VT" No match in OSM, but a different address exists <5m away: "415 Lackie Hill Road, Saint Johnsbury, VT" -->
    <tag k="addr:housenumber" v="415"/>
    <tag k="addr:street" v="Lackey Hill Road"/>
    <tag k="addr:state" v="VT"/>
    <tag k="ref:vcgi:esiteid" v="452585"/>
  </node>
  <node id="-3120" visible="true" lat="44.41987498" lon="-72.02915119">
    <!-- conflict: "176 U.S. Route 2 West, , VT" No match in OSM, but a different address exists <5m away: "100 US-2, St. Johnsbury, VT" -->
    <tag k="addr:housenumber" v="176"/>
    <tag k="addr:street" v="U.S. Route 2 West"/>
    <tag k="addr:state" v="VT"/>
    <tag k="ref:vcgi:esiteid" v="758081"/>
  </node>
</osm>
