<?xml version="1.0" encoding="UTF-8"?>
<osm version="0.6" generator="JOSM" upload="false">
  <node id="-402" visible="true" lat="44.81996547" lon="-73.08609389">
    <tag k="addr:city" v="Saint Albans"/>
    <tag k="addr:housenumber" v="44"/>
    <tag k="addr:street" v="Lower Newton Street"/>
    <tag k="addr:state" v="VT"/>
    <tag k="ref:vcgi:esiteid" v="238554"/>
  </node>
  <node id="-536" visible="true" lat="44.82035871" lon="-73.09149382">
    <tag k="addr:city" v="Saint Albans"/>
    <tag k="addr:housenumber" v="29"/>
    <tag k="addr:street" v="Bellows Street"/>
    <tag k="addr:state" v="VT"/>
    <tag k="ref:vcgi:esiteid" v="238688"/>
  </node>
  <node id="-1119" visible="true" lat="44.81077618" lon="-73.08186715">
    <tag k="addr:city" v="Saint Albans"/>
    <tag k="addr:housenumber" v="9"/>
    <tag k="addr:street" v="Church Street"/>
    <tag k="addr:state" v="VT"/>
    <tag k="ref:vcgi:esiteid" v="239294"/>
  </node>
  <node id="-1128" visible="true" lat="44.81026685" lon="-73.08136032">
    <tag k="addr:city" v="Saint Albans"/>
    <tag k="addr:housenumber" v="45"/>
    <tag k="addr:street" v="Fairfield Street"/>
    <tag k="addr:state" v="VT"/>
    <tag k="ref:vcgi:esiteid" v="239303"/>
  </node>
  <node id="-1129" visible="true" lat="44.81000538" lon="-73.08079681">
    <tag k="addr:city" v="Saint Albans"/>
    <tag k="addr:housenumber" v="45"/>
    <tag k="addr:street" v="Fairfield Street"/>
    <tag k="addr:state" v="VT"/>
    <tag k="ref:vcgi:esiteid" v="239304"/>
  </node>
  <node id="-1144" visible="true" lat="44.81286138" lon="-73.08150346">
    <tag k="addr:city" v="Saint Albans"/>
    <tag k="addr:housenumber" v="11"/>
    <tag k="addr:street" v="Maiden Lane"/>
    <tag k="addr:state" v="VT"/>
    <tag k="ref:vcgi:esiteid" v="239321"/>
  </node>
  <node id="-1163" visible="true" lat="44.8122725" lon="-73.08608003">
    <tag k="addr:city" v="Saint Albans"/>
    <tag k="addr:housenumber" v="40"/>
    <tag k="addr:street" v="Federal Street"/>
    <tag k="addr:state" v="VT"/>
    <tag k="ref:vcgi:esiteid" v="239340"/>
  </node>
  <node id="-1199" visible="true" lat="44.80979036" lon="-73.08258472">
    <tag k="addr:city" v="Saint Albans"/>
    <tag k="addr:housenumber" v="18"/>
    <tag k="addr:street" v="Fairfield Street"/>
    <tag k="addr:state" v="VT"/>
    <tag k="ref:vcgi:esiteid" v="239377"/>
  </node>
  <node id="-1281" visible="true" lat="44.81486956" lon="-73.08148637">
    <tag k="addr:city" v="Saint Albans"/>
    <tag k="addr:housenumber" v="133"/>
    <tag k="addr:street" v="North Main Street"/>
    <tag k="addr:state" v="VT"/>
    <tag k="ref:vcgi:esiteid" v="239465"/>
  </node>
  <node id="-1282" visible="true" lat="44.81427876" lon="-73.08227284">
    <tag k="addr:city" v="Saint Albans"/>
    <tag k="addr:housenumber" v="133"/>
    <tag k="addr:street" v="North Main Street"/>
    <tag k="addr:state" v="VT"/>
    <tag k="ref:vcgi:esiteid" v="239466"/>
  </node>
  <node id="-1619" visible="true" lat="44.80765154" lon="-73.07232833">
    <!-- match: "133 Fairfield Street, Saint Albans, VT"  ignoring missing state when matching to "133 Fairfield Street, Saint Albans, " -->
    <tag k="addr:city" v="Saint Albans"/>
    <tag k="addr:housenumber" v="133"/>
    <tag k="addr:street" v="Fairfield Street"/>
    <tag k="addr:state" v="VT"/>
    <tag k="ref:vcgi:esiteid" v="239810"/>
  </node>
  <node id="-1874" visible="true" lat="44.8083395" lon="-73.0828902">
    <!-- match: "71 South Main Street, Saint Albans, VT"  ignoring missing state when matching to "71 South Main Street, Saint Albans, " -->
    <tag k="addr:city" v="Saint Albans"/>
    <tag k="addr:housenumber" v="71"/>
    <tag k="addr:street" v="South Main Street"/>
    <tag k="addr:state" v="VT"/>
    <tag k="ref:vcgi:esiteid" v="240067"/>
  </node>
  <node id="-2083" visible="true" lat="44.80435601" lon="-73.08831383">
    <!-- match: "142 South Main Street, Saint Albans, VT"  ignoring missing state when matching to "142 South Main Street, Saint Albans, " -->
    <tag k="addr:city" v="Saint Albans"/>
    <tag k="addr:housenumber" v="142"/>
    <tag k="addr:street" v="South Main Street"/>
    <tag k="addr:state" v="VT"/>
    <tag k="ref:vcgi:esiteid" v="240289"/>
  </node>
  <node id="-2094" visible="true" lat="44.80152232" lon="-73.08597531">
    <tag k="addr:city" v="Saint Albans"/>
    <tag k="addr:housenumber" v="169"/>
    <tag k="addr:street" v="South Main Street"/>
    <tag k="addr:state" v="VT"/>
    <tag k="ref:vcgi:esiteid" v="240300"/>
  </node>
  <node id="-2313" visible="true" lat="44.79541447" lon="-73.09336183">
    <tag k="addr:city" v="Saint Albans"/>
    <tag k="addr:housenumber" v="287"/>
    <tag k="addr:street" v="South Main Street"/>
    <tag k="addr:state" v="VT"/>
    <tag k="ref:vcgi:esiteid" v="240524"/>
  </node>
  <node id="-2316" visible="true" lat="44.79508767" lon="-73.09321787">
    <tag k="addr:city" v="Saint Albans"/>
    <tag k="addr:housenumber" v="287"/>
    <tag k="addr:street" v="South Main Street"/>
    <tag k="addr:state" v="VT"/>
    <tag k="ref:vcgi:esiteid" v="240527"/>
  </node>
  <node id="-2452" visible="true" lat="44.81368306" lon="-73.0825483">
    <tag k="addr:city" v="Saint Albans"/>
    <tag k="addr:housenumber" v="109"/>
    <tag k="addr:street" v="North Main Street"/>
    <tag k="addr:state" v="VT"/>
    <tag k="ref:vcgi:esiteid" v="240753"/>
  </node>
  <node id="-2615" visible="true" lat="44.81158734" lon="-73.0836583">
    <tag k="addr:city" v="Saint Albans"/>
    <tag k="addr:housenumber" v="30"/>
    <tag k="addr:street" v="North Main Street"/>
    <tag k="addr:state" v="VT"/>
    <tag k="ref:vcgi:esiteid" v="241016"/>
  </node>
  <node id="-2649" visible="true" lat="44.80946012" lon="-73.07139171">
    <tag k="addr:city" v="Saint Albans"/>
    <tag k="addr:housenumber" v="260"/>
    <tag k="addr:street" v="Crest Road"/>
    <tag k="addr:state" v="VT"/>
    <tag k="ref:vcgi:esiteid" v="241053"/>
  </node>
  <node id="-2681" visible="true" lat="44.81098972" lon="-73.08466977">
    <tag k="addr:city" v="Saint Albans"/>
    <tag k="addr:housenumber" v="43"/>
    <tag k="addr:street" v="Lake Street"/>
    <tag k="addr:state" v="VT"/>
    <tag k="ref:vcgi:esiteid" v="241088"/>
  </node>
  <node id="-2689" visible="true" lat="44.80721211" lon="-73.08767165">
    <tag k="addr:city" v="Saint Albans"/>
    <tag k="addr:housenumber" v="32"/>
    <tag k="addr:street" v="Lower Welden Street"/>
    <tag k="addr:state" v="VT"/>
    <tag k="ref:vcgi:esiteid" v="241097"/>
  </node>
</osm>
