<?xml version="1.0" encoding="UTF-8"?>
<osm version="0.6" generator="JOSM">
  <node id="-102" visible="true" lat="44.39978027" lon="-73.14051055">
    <tag k="addr:city" v="Saint George"/>
    <tag k="addr:housenumber" v="5336"/>
    <tag k="addr:street" v="Vermont Route 116"/>
    <tag k="addr:state" v="VT"/>
    <tag k="ref:vcgi:esiteid" v="243927"/>
  </node>
  <node id="-103" visible="true" lat="44.39916992" lon="-73.13680267">
    <tag k="addr:city" v="Saint George"/>
    <tag k="addr:housenumber" v="5471"/>
    <tag k="addr:street" v="Vermont Route 116"/>
    <tag k="addr:state" v="VT"/>
    <tag k="ref:vcgi:esiteid" v="243928"/>
  </node>
  <node id="-104" visible="true" lat="44.3985939" lon="-73.14013671">
    <tag k="addr:city" v="Saint George"/>
    <tag k="addr:housenumber" v="5410"/>
    <tag k="addr:street" v="Vermont Route 116"/>
    <tag k="addr:state" v="VT"/>
    <tag k="ref:vcgi:esiteid" v="243929"/>
  </node>
  <node id="-105" visible="true" lat="44.39591979" lon="-73.13910674">
    <tag k="addr:city" v="Saint George"/>
    <tag k="addr:housenumber" v="5635"/>
    <tag k="addr:street" v="Vermont Route 116"/>
    <tag k="addr:state" v="VT"/>
    <tag k="ref:vcgi:esiteid" v="243930"/>
  </node>
  <node id="-107" visible="true" lat="44.39213943" lon="-73.12693023">
    <tag k="addr:city" v="Saint George"/>
    <tag k="addr:housenumber" v="7051"/>
    <tag k="addr:street" v="Vermont Route 2A"/>
    <tag k="addr:state" v="VT"/>
    <tag k="ref:vcgi:esiteid" v="243932"/>
  </node>
  <node id="-110" visible="true" lat="44.39081573" lon="-73.12169647">
    <tag k="addr:city" v="Saint George"/>
    <tag k="addr:housenumber" v="339"/>
    <tag k="addr:street" v="Goose Creek Road"/>
    <tag k="addr:state" v="VT"/>
    <tag k="ref:vcgi:esiteid" v="243935"/>
  </node>
  <node id="-112" visible="true" lat="44.38959884" lon="-73.12625121">
    <tag k="addr:city" v="Saint George"/>
    <tag k="addr:housenumber" v="59"/>
    <tag k="addr:street" v="Goose Creek Road"/>
    <tag k="addr:state" v="VT"/>
    <tag k="ref:vcgi:esiteid" v="243938"/>
  </node>
  <node id="-114" visible="true" lat="44.38940811" lon="-73.1251831">
    <tag k="addr:city" v="Saint George"/>
    <tag k="addr:housenumber" v="89"/>
    <tag k="addr:street" v="Goose Creek Road"/>
    <tag k="addr:state" v="VT"/>
    <tag k="ref:vcgi:esiteid" v="243940"/>
  </node>
  <node id="-128" visible="true" lat="44.38284301" lon="-73.12667846">
    <tag k="addr:city" v="Saint George"/>
    <tag k="addr:housenumber" v="7602"/>
    <tag k="addr:street" v="Vermont Route 2A"/>
    <tag k="addr:state" v="VT"/>
    <tag k="ref:vcgi:esiteid" v="243954"/>
  </node>
  <node id="-129" visible="true" lat="44.38285808" lon="-73.12617549">
    <tag k="addr:city" v="Saint George"/>
    <tag k="addr:housenumber" v="7617"/>
    <tag k="addr:street" v="Vermont Route 2A"/>
    <tag k="addr:state" v="VT"/>
    <tag k="ref:vcgi:esiteid" v="243955"/>
  </node>
  <node id="-131" visible="true" lat="44.38103485" lon="-73.12643432">
    <tag k="addr:city" v="Saint George"/>
    <tag k="addr:housenumber" v="7694"/>
    <tag k="addr:street" v="Vermont Route 2A"/>
    <tag k="addr:state" v="VT"/>
    <tag k="ref:vcgi:esiteid" v="243958"/>
  </node>
  <node id="-159" visible="true" lat="44.37848973" lon="-73.12587272">
    <tag k="addr:city" v="Saint George"/>
    <tag k="addr:housenumber" v="89"/>
    <tag k="addr:street" v="Birch Road"/>
    <tag k="addr:state" v="VT"/>
    <tag k="ref:vcgi:esiteid" v="243986"/>
  </node>
  <node id="-198" visible="true" lat="44.37697601" lon="-73.10062408">
    <tag k="addr:city" v="Saint George"/>
    <tag k="addr:housenumber" v="65"/>
    <tag k="addr:street" v="Martel Extension"/>
    <tag k="addr:state" v="VT"/>
    <tag k="ref:vcgi:esiteid" v="244025"/>
  </node>
  <node id="-229" visible="true" lat="44.37564468" lon="-73.12722778">
    <tag k="addr:city" v="Saint George"/>
    <tag k="addr:housenumber" v="8066"/>
    <tag k="addr:street" v="Vermont Route 2A"/>
    <tag k="addr:state" v="VT"/>
    <tag k="ref:vcgi:esiteid" v="244056"/>
  </node>
  <node id="-265" visible="true" lat="44.37263441" lon="-73.13075448">
    <tag k="addr:city" v="Saint George"/>
    <tag k="addr:housenumber" v="70"/>
    <tag k="addr:street" v="Winterbottom Road"/>
    <tag k="addr:state" v="VT"/>
    <tag k="ref:vcgi:esiteid" v="244092"/>
  </node>
  <node id="-270" visible="true" lat="44.37239456" lon="-73.12809753">
    <tag k="addr:city" v="Saint George"/>
    <tag k="addr:housenumber" v="8340"/>
    <tag k="addr:street" v="Vermont Route 2A"/>
    <tag k="addr:state" v="VT"/>
    <tag k="ref:vcgi:esiteid" v="244098"/>
  </node>
  <node id="-272" visible="true" lat="44.37200546" lon="-73.12741851">
    <tag k="addr:city" v="Saint George"/>
    <tag k="addr:housenumber" v="8305"/>
    <tag k="addr:street" v="Vermont Route 2A"/>
    <tag k="addr:state" v="VT"/>
    <tag k="ref:vcgi:esiteid" v="244100"/>
  </node>
  <node id="-283" visible="true" lat="44.37139892" lon="-73.12830352">
    <tag k="addr:city" v="Saint George"/>
    <tag k="addr:housenumber" v="8342"/>
    <tag k="addr:street" v="Vermont Route 2A"/>
    <tag k="addr:state" v="VT"/>
    <tag k="ref:vcgi:esiteid" v="244112"/>
  </node>
  <node id="-288" visible="true" lat="44.37114334" lon="-73.12970733">
    <tag k="addr:city" v="Saint George"/>
    <tag k="addr:housenumber" v="7451"/>
    <tag k="addr:street" v="Vermont Route 116"/>
    <tag k="addr:state" v="VT"/>
    <tag k="ref:vcgi:esiteid" v="244117"/>
  </node>
  <node id="-297" visible="true" lat="44.37071227" lon="-73.13005828">
    <tag k="addr:city" v="Saint George"/>
    <tag k="addr:housenumber" v="7438"/>
    <tag k="addr:street" v="Vermont Route 116"/>
    <tag k="addr:state" v="VT"/>
    <tag k="ref:vcgi:esiteid" v="244127"/>
  </node>
  <node id="-298" visible="true" lat="44.37075424" lon="-73.11760711">
    <tag k="addr:city" v="Saint George"/>
    <tag k="addr:housenumber" v="62"/>
    <tag k="addr:street" v="Enmans Road"/>
    <tag k="addr:state" v="VT"/>
    <tag k="ref:vcgi:esiteid" v="244128"/>
  </node>
  <node id="-304" visible="true" lat="44.37038178" lon="-73.12853654">
    <tag k="addr:city" v="Saint George"/>
    <tag k="addr:housenumber" v="7601"/>
    <tag k="addr:street" v="Vermont Route 116"/>
    <tag k="addr:state" v="VT"/>
    <tag k="ref:vcgi:esiteid" v="244134"/>
  </node>
  <node id="-309" visible="true" lat="44.36997222" lon="-73.11971282">
    <tag k="addr:city" v="Saint George"/>
    <tag k="addr:housenumber" v="877"/>
    <tag k="addr:street" v="Forest Road"/>
    <tag k="addr:state" v="VT"/>
    <tag k="ref:vcgi:esiteid" v="244139"/>
  </node>
  <node id="-314" visible="true" lat="44.37076201" lon="-73.10098581">
    <tag k="addr:city" v="Saint George"/>
    <tag k="addr:housenumber" v="460"/>
    <tag k="addr:street" v="Mount Pritchard Lane"/>
    <tag k="addr:state" v="VT"/>
    <tag k="ref:vcgi:esiteid" v="244145"/>
  </node>
  <node id="-320" visible="true" lat="44.36922454" lon="-73.11762237">
    <tag k="addr:city" v="Saint George"/>
    <tag k="addr:housenumber" v="132"/>
    <tag k="addr:street" v="Enmans Road"/>
    <tag k="addr:state" v="VT"/>
    <tag k="ref:vcgi:esiteid" v="244151"/>
  </node>
  <node id="-327" visible="true" lat="44.36850428" lon="-73.11918977">
    <tag k="addr:city" v="Saint George"/>
    <tag k="addr:housenumber" v="953"/>
    <tag k="addr:street" v="Forest Road"/>
    <tag k="addr:state" v="VT"/>
    <tag k="ref:vcgi:esiteid" v="244159"/>
  </node>
  <node id="-330" visible="true" lat="44.36839915" lon="-73.10230124">
    <tag k="addr:city" v="Saint George"/>
    <tag k="addr:housenumber" v="483"/>
    <tag k="addr:street" v="Mount Pritchard Lane"/>
    <tag k="addr:state" v="VT"/>
    <tag k="ref:vcgi:esiteid" v="244162"/>
  </node>
  <node id="-337" visible="true" lat="44.36790549" lon="-73.12004842">
    <tag k="addr:city" v="Saint George"/>
    <tag k="addr:housenumber" v="1023"/>
    <tag k="addr:street" v="Forest Road"/>
    <tag k="addr:state" v="VT"/>
    <tag k="ref:vcgi:esiteid" v="244170"/>
  </node>
  <node id="-342" visible="true" lat="44.36718011" lon="-73.12292677">
    <tag k="addr:city" v="Saint George"/>
    <tag k="addr:housenumber" v="65"/>
    <tag k="addr:street" v="Shady Nook Lane"/>
    <tag k="addr:state" v="VT"/>
    <tag k="ref:vcgi:esiteid" v="244176"/>
  </node>
  <node id="-343" visible="true" lat="44.36715698" lon="-73.126091">
    <tag k="addr:city" v="Saint George"/>
    <tag k="addr:housenumber" v="7755"/>
    <tag k="addr:street" v="Vermont Route 116"/>
    <tag k="addr:state" v="VT"/>
    <tag k="ref:vcgi:esiteid" v="244177"/>
  </node>
  <node id="-350" visible="true" lat="44.36664199" lon="-73.12287139">
    <tag k="addr:city" v="Saint George"/>
    <tag k="addr:housenumber" v="103"/>
    <tag k="addr:street" v="Shady Nook Lane"/>
    <tag k="addr:state" v="VT"/>
    <tag k="ref:vcgi:esiteid" v="244184"/>
  </node>
  <node id="-351" visible="true" lat="44.36625289" lon="-73.12635803">
    <tag k="addr:city" v="Saint George"/>
    <tag k="addr:housenumber" v="7814"/>
    <tag k="addr:street" v="Vermont Route 116"/>
    <tag k="addr:state" v="VT"/>
    <tag k="ref:vcgi:esiteid" v="244185"/>
  </node>
  <node id="-352" visible="true" lat="44.36618041" lon="-73.12310028">
    <tag k="addr:city" v="Saint George"/>
    <tag k="addr:housenumber" v="136"/>
    <tag k="addr:street" v="Shady Nook Lane"/>
    <tag k="addr:state" v="VT"/>
    <tag k="ref:vcgi:esiteid" v="244186"/>
  </node>
  <node id="-353" visible="true" lat="44.36600494" lon="-73.12262725">
    <tag k="addr:city" v="Saint George"/>
    <tag k="addr:housenumber" v="129"/>
    <tag k="addr:street" v="Shady Nook Lane"/>
    <tag k="addr:state" v="VT"/>
    <tag k="ref:vcgi:esiteid" v="244187"/>
  </node>
  <node id="-354" visible="true" lat="44.3659697" lon="-73.12455843">
    <tag k="addr:city" v="Saint George"/>
    <tag k="addr:housenumber" v="7857"/>
    <tag k="addr:street" v="Vermont Route 116"/>
    <tag k="addr:state" v="VT"/>
    <tag k="ref:vcgi:esiteid" v="244188"/>
  </node>
  <node id="-355" visible="true" lat="44.38395848" lon="-73.12664137">
    <tag k="addr:city" v="Saint George"/>
    <tag k="addr:housenumber" v="7551"/>
    <tag k="addr:street" v="Vermont Route 2A"/>
    <tag k="addr:state" v="VT"/>
    <tag k="ref:vcgi:esiteid" v="244190"/>
  </node>
  <node id="-364" visible="true" lat="44.37844493" lon="-73.12616348">
    <tag k="addr:city" v="Saint George"/>
    <tag k="addr:housenumber" v="7873"/>
    <tag k="addr:street" v="Vermont Route 2A"/>
    <tag k="addr:state" v="VT"/>
    <tag k="ref:vcgi:esiteid" v="244201"/>
  </node>
  <node id="-367" visible="true" lat="44.36939017" lon="-73.13047917">
    <tag k="addr:city" v="Saint George"/>
    <tag k="addr:housenumber" v="7470"/>
    <tag k="addr:street" v="Vermont Route 116"/>
    <tag k="addr:state" v="VT"/>
    <tag k="ref:vcgi:esiteid" v="244204"/>
  </node>
  <node id="-398" visible="true" lat="44.37108415" lon="-73.12767055">
    <tag k="addr:city" v="Saint George"/>
    <tag k="addr:housenumber" v="8377"/>
    <tag k="addr:street" v="Vermont Route 2A"/>
    <tag k="addr:state" v="VT"/>
    <tag k="ref:vcgi:esiteid" v="326825"/>
  </node>
  <node id="-404" visible="true" lat="44.36903025" lon="-73.1247551">
    <tag k="addr:city" v="Saint George"/>
    <tag k="addr:housenumber" v="70"/>
    <tag k="addr:street" v="Peet Road"/>
    <tag k="addr:state" v="VT"/>
    <tag k="ref:vcgi:esiteid" v="337841"/>
  </node>
  <node id="-414" visible="true" lat="44.39242852" lon="-73.12811509">
    <tag k="addr:city" v="Saint George"/>
    <tag k="addr:housenumber" v="7058"/>
    <tag k="addr:street" v="Vermont Route 2A"/>
    <tag k="addr:state" v="VT"/>
    <tag k="ref:vcgi:esiteid" v="447819"/>
  </node>
  <node id="-422" visible="true" lat="44.38743083" lon="-73.13098223">
    <tag k="addr:city" v="Saint George"/>
    <tag k="addr:housenumber" v="7362"/>
    <tag k="addr:street" v="Vermont Route 2A"/>
    <tag k="addr:state" v="VT"/>
    <tag k="ref:vcgi:esiteid" v="453249"/>
  </node>
  <node id="-426" visible="true" lat="44.38466883" lon="-73.12651737">
    <tag k="addr:city" v="Saint George"/>
    <tag k="addr:housenumber" v="7535"/>
    <tag k="addr:street" v="Vermont Route 2A"/>
    <tag k="addr:state" v="VT"/>
    <tag k="ref:vcgi:esiteid" v="455369"/>
  </node>
  <node id="-427" visible="true" lat="44.38798322" lon="-73.12964112">
    <tag k="addr:city" v="Saint George"/>
    <tag k="addr:housenumber" v="7360"/>
    <tag k="addr:street" v="Vermont Route 2A"/>
    <tag k="addr:state" v="VT"/>
    <tag k="ref:vcgi:esiteid" v="612580"/>
  </node>
  <node id="-430" visible="true" lat="44.38750826" lon="-73.12652916">
    <tag k="addr:city" v="Saint George"/>
    <tag k="addr:housenumber" v="55"/>
    <tag k="addr:street" v="Apple Blossom Road"/>
    <tag k="addr:state" v="VT"/>
    <tag k="ref:vcgi:esiteid" v="620455"/>
  </node>
  <node id="-431" visible="true" lat="44.38722418" lon="-73.12647445">
    <tag k="addr:city" v="Saint George"/>
    <tag k="addr:housenumber" v="54"/>
    <tag k="addr:street" v="Apple Blossom Road"/>
    <tag k="addr:state" v="VT"/>
    <tag k="ref:vcgi:esiteid" v="620456"/>
  </node>
  <node id="-432" visible="true" lat="44.39762806" lon="-73.13278763">
    <tag k="addr:city" v="Saint George"/>
    <tag k="addr:housenumber" v="55"/>
    <tag k="addr:street" v="Henry Way"/>
    <tag k="addr:state" v="VT"/>
    <tag k="ref:vcgi:esiteid" v="620457"/>
  </node>
  <node id="-433" visible="true" lat="44.38311329" lon="-73.13245481">
    <tag k="addr:city" v="Saint George"/>
    <tag k="addr:housenumber" v="316"/>
    <tag k="addr:street" v="Acadia Lane"/>
    <tag k="addr:state" v="VT"/>
    <tag k="ref:vcgi:esiteid" v="620458"/>
  </node>
  <node id="-434" visible="true" lat="44.39867558" lon="-73.13297024">
    <tag k="addr:city" v="Saint George"/>
    <tag k="addr:housenumber" v="64"/>
    <tag k="addr:street" v="Henry Way"/>
    <tag k="addr:state" v="VT"/>
    <tag k="ref:vcgi:esiteid" v="620459"/>
  </node>
  <node id="-435" visible="true" lat="44.38453802" lon="-73.13094298">
    <tag k="addr:city" v="Saint George"/>
    <tag k="addr:housenumber" v="216"/>
    <tag k="addr:street" v="Acadia Lane"/>
    <tag k="addr:state" v="VT"/>
    <tag k="ref:vcgi:esiteid" v="655340"/>
  </node>
  <node id="-436" visible="true" lat="44.38524156" lon="-73.11519334">
    <tag k="addr:city" v="Saint George"/>
    <tag k="addr:housenumber" v="883"/>
    <tag k="addr:street" v="Willow Brook Lane"/>
    <tag k="addr:state" v="VT"/>
    <tag k="ref:vcgi:esiteid" v="655341"/>
  </node>
  <node id="-437" visible="true" lat="44.3790058" lon="-73.09961289">
    <tag k="addr:city" v="Saint George"/>
    <tag k="addr:housenumber" v="188"/>
    <tag k="addr:street" v="Martel Lane"/>
    <tag k="addr:state" v="VT"/>
    <tag k="ref:vcgi:esiteid" v="656218"/>
  </node>
  <node id="-438" visible="true" lat="44.39803071" lon="-73.13183639">
    <tag k="addr:city" v="Saint George"/>
    <tag k="addr:housenumber" v="17"/>
    <tag k="addr:street" v="Henry Way"/>
    <tag k="addr:state" v="VT"/>
    <tag k="ref:vcgi:esiteid" v="751239"/>
  </node>
  <node id="-439" visible="true" lat="44.38239439" lon="-73.13151272">
    <tag k="addr:city" v="Saint George"/>
    <tag k="addr:housenumber" v="351"/>
    <tag k="addr:street" v="Acadia Lane"/>
    <tag k="addr:state" v="VT"/>
    <tag k="ref:vcgi:esiteid" v="752184"/>
  </node>
  <node id="-440" visible="true" lat="44.38406355" lon="-73.13077402">
    <tag k="addr:city" v="Saint George"/>
    <tag k="addr:housenumber" v="205"/>
    <tag k="addr:street" v="Acadia Lane"/>
    <tag k="addr:state" v="VT"/>
    <tag k="ref:vcgi:esiteid" v="752790"/>
  </node>
  <node id="-441" visible="true" lat="44.37652357" lon="-73.10619448">
    <tag k="addr:city" v="Saint George"/>
    <tag k="addr:housenumber" v="562"/>
    <tag k="addr:street" v="Martel Lane"/>
    <tag k="addr:state" v="VT"/>
    <tag k="ref:vcgi:esiteid" v="752862"/>
  </node>
  <node id="-442" visible="true" lat="44.38244989" lon="-73.13265048">
    <tag k="addr:city" v="Saint George"/>
    <tag k="addr:housenumber" v="350"/>
    <tag k="addr:street" v="Acadia Lane"/>
    <tag k="addr:state" v="VT"/>
    <tag k="ref:vcgi:esiteid" v="755357"/>
  </node>
  <node id="-443" visible="true" lat="44.38312186" lon="-73.1314697">
    <tag k="addr:city" v="Saint George"/>
    <tag k="addr:housenumber" v="315"/>
    <tag k="addr:street" v="Acadia Lane"/>
    <tag k="addr:state" v="VT"/>
    <tag k="ref:vcgi:esiteid" v="759360"/>
  </node>
  <node id="-444" visible="true" lat="44.39838988" lon="-73.13127039">
    <tag k="addr:city" v="Saint George"/>
    <tag k="addr:housenumber" v="318"/>
    <tag k="addr:street" v="Pillsbury Lane"/>
    <tag k="addr:state" v="VT"/>
    <tag k="ref:vcgi:esiteid" v="759806"/>
  </node>
  <node id="-445" visible="true" lat="44.39852106" lon="-73.1319693">
    <tag k="addr:city" v="Saint George"/>
    <tag k="addr:housenumber" v="329"/>
    <tag k="addr:street" v="Pillsbury Lane"/>
    <tag k="addr:state" v="VT"/>
    <tag k="ref:vcgi:esiteid" v="759807"/>
  </node>
  <node id="-447" visible="true" lat="44.37495113" lon="-73.12199721">
    <tag k="addr:city" v="Saint George"/>
    <tag k="addr:housenumber" v="575"/>
    <tag k="addr:street" v="Forest Road"/>
    <tag k="addr:state" v="VT"/>
    <tag k="ref:vcgi:esiteid" v="762351"/>
  </node>
  <node id="-448" visible="true" lat="44.37220083" lon="-73.12974424">
    <tag k="addr:city" v="Saint George"/>
    <tag k="addr:housenumber" v="7377"/>
    <tag k="addr:street" v="Vermont Route 116"/>
    <tag k="addr:state" v="VT"/>
    <tag k="ref:vcgi:esiteid" v="762352"/>
  </node>
  <node id="-449" visible="true" lat="44.3859776" lon="-73.12482915">
    <tag k="addr:city" v="Saint George"/>
    <tag k="addr:housenumber" v="86"/>
    <tag k="addr:street" v="Hawk Hollow"/>
    <tag k="addr:state" v="VT"/>
    <tag k="ref:vcgi:esiteid" v="765359"/>
  </node>
  <node id="-450" visible="true" lat="44.38595058" lon="-73.12519744">
    <tag k="addr:city" v="Saint George"/>
    <tag k="addr:housenumber" v="80"/>
    <tag k="addr:street" v="Hawk Hollow"/>
    <tag k="addr:state" v="VT"/>
    <tag k="ref:vcgi:esiteid" v="765360"/>
  </node>
  <node id="-451" visible="true" lat="44.38506955" lon="-73.12693629">
    <tag k="addr:city" v="Saint George"/>
    <tag k="addr:housenumber" v="15"/>
    <tag k="addr:street" v="White Tail Path"/>
    <tag k="addr:state" v="VT"/>
    <tag k="ref:vcgi:esiteid" v="765361"/>
  </node>
  <node id="-453" visible="true" lat="44.38578349" lon="-73.12634719">
    <tag k="addr:city" v="Saint George"/>
    <tag k="addr:housenumber" v="103"/>
    <tag k="addr:street" v="White Tail Path"/>
    <tag k="addr:state" v="VT"/>
    <tag k="ref:vcgi:esiteid" v="765363"/>
  </node>
  <node id="-454" visible="true" lat="44.38628125" lon="-73.12632893">
    <tag k="addr:city" v="Saint George"/>
    <tag k="addr:housenumber" v="129"/>
    <tag k="addr:street" v="White Tail Path"/>
    <tag k="addr:state" v="VT"/>
    <tag k="ref:vcgi:esiteid" v="765364"/>
  </node>
  <node id="-455" visible="true" lat="44.38623585" lon="-73.12601">
    <tag k="addr:city" v="Saint George"/>
    <tag k="addr:housenumber" v="122"/>
    <tag k="addr:street" v="White Tail Path"/>
    <tag k="addr:state" v="VT"/>
    <tag k="ref:vcgi:esiteid" v="765365"/>
  </node>
  <node id="-456" visible="true" lat="44.38318381" lon="-73.12931564">
    <tag k="addr:city" v="Saint George"/>
    <tag k="addr:housenumber" v="136"/>
    <tag k="addr:street" v="Camber Lane"/>
    <tag k="addr:state" v="VT"/>
    <tag k="ref:vcgi:esiteid" v="766796"/>
  </node>
  <node id="-457" visible="true" lat="44.38276351" lon="-73.1293211">
    <tag k="addr:city" v="Saint George"/>
    <tag k="addr:housenumber" v="146"/>
    <tag k="addr:street" v="Camber Lane"/>
    <tag k="addr:state" v="VT"/>
    <tag k="ref:vcgi:esiteid" v="766797"/>
  </node>
  <node id="-458" visible="true" lat="44.38268742" lon="-73.12822125">
    <tag k="addr:city" v="Saint George"/>
    <tag k="addr:housenumber" v="174"/>
    <tag k="addr:street" v="Camber Lane"/>
    <tag k="addr:state" v="VT"/>
    <tag k="ref:vcgi:esiteid" v="766798"/>
  </node>
  <node id="-459" visible="true" lat="44.38302569" lon="-73.1281618">
    <tag k="addr:city" v="Saint George"/>
    <tag k="addr:housenumber" v="175"/>
    <tag k="addr:street" v="Camber Lane"/>
    <tag k="addr:state" v="VT"/>
    <tag k="ref:vcgi:esiteid" v="766799"/>
  </node>
  <node id="-460" visible="true" lat="44.38571157" lon="-73.1295021">
    <tag k="addr:city" v="Saint George"/>
    <tag k="addr:housenumber" v="92"/>
    <tag k="addr:street" v="Acadia Lane"/>
    <tag k="addr:state" v="VT"/>
    <tag k="ref:vcgi:esiteid" v="766800"/>
  </node>
  <node id="-461" visible="true" lat="44.38585654" lon="-73.12825515">
    <tag k="addr:city" v="Saint George"/>
    <tag k="addr:housenumber" v="44"/>
    <tag k="addr:street" v="Acadia Lane"/>
    <tag k="addr:state" v="VT"/>
    <tag k="ref:vcgi:esiteid" v="766801"/>
  </node>
  <node id="-462" visible="true" lat="44.38535364" lon="-73.13136438">
    <tag k="addr:city" v="Saint George"/>
    <tag k="addr:housenumber" v="75"/>
    <tag k="addr:street" v="Cadence Road"/>
    <tag k="addr:state" v="VT"/>
    <tag k="ref:vcgi:esiteid" v="766802"/>
  </node>
  <node id="-463" visible="true" lat="44.38501949" lon="-73.13304588">
    <tag k="addr:city" v="Saint George"/>
    <tag k="addr:housenumber" v="119"/>
    <tag k="addr:street" v="Cadence Road"/>
    <tag k="addr:state" v="VT"/>
    <tag k="ref:vcgi:esiteid" v="766805"/>
  </node>
  <node id="-464" visible="true" lat="44.38588212" lon="-73.13091329">
    <tag k="addr:city" v="Saint George"/>
    <tag k="addr:housenumber" v="58"/>
    <tag k="addr:street" v="Cadence Road"/>
    <tag k="addr:state" v="VT"/>
    <tag k="ref:vcgi:esiteid" v="766808"/>
  </node>
  <node id="-465" visible="true" lat="44.38600194" lon="-73.13217123">
    <tag k="addr:city" v="Saint George"/>
    <tag k="addr:housenumber" v="120"/>
    <tag k="addr:street" v="Cadence Road"/>
    <tag k="addr:state" v="VT"/>
    <tag k="ref:vcgi:esiteid" v="766809"/>
  </node>
  <node id="-466" visible="true" lat="44.39892174" lon="-73.13234162">
    <tag k="addr:city" v="Saint George"/>
    <tag k="addr:housenumber" v="355"/>
    <tag k="addr:street" v="Pillsbury Lane"/>
    <tag k="addr:state" v="VT"/>
    <tag k="ref:vcgi:esiteid" v="1052530"/>
  </node>
</osm>
