<?xml version="1.0" encoding="UTF-8"?>
<osm version="0.6" generator="JOSM">
  <node id="-444" visible="true" lat="44.45793485" lon="-72.01494942">
    <!-- multiple: "1786 Memorial Drive, Saint Johnsbury, VT" Multiple exact matches in OSM. -->
    <tag k="addr:city" v="Saint Johnsbury"/>
    <tag k="addr:housenumber" v="1786"/>
    <tag k="addr:street" v="Memorial Drive"/>
    <tag k="addr:state" v="VT"/>
    <tag k="ref:vcgi:esiteid" v="244600"/>
  </node>
  <node id="-714" visible="true" lat="44.44462915" lon="-72.01688389">
    <!-- multiple: "857 Memorial Drive, Saint Johnsbury, VT" Multiple exact matches in OSM. -->
    <tag k="addr:city" v="Saint Johnsbury"/>
    <tag k="addr:housenumber" v="857"/>
    <tag k="addr:street" v="Memorial Drive"/>
    <tag k="addr:state" v="VT"/>
    <tag k="ref:vcgi:esiteid" v="244892"/>
  </node>
  <node id="-872" visible="true" lat="44.43509932" lon="-71.98139662">
    <!-- multiple: "143 Parks Road, Saint Johnsbury, VT" Multiple exact matches in OSM. -->
    <tag k="addr:city" v="Saint Johnsbury"/>
    <tag k="addr:housenumber" v="143"/>
    <tag k="addr:street" v="Parks Road"/>
    <tag k="addr:state" v="VT"/>
    <tag k="ref:vcgi:esiteid" v="245061"/>
  </node>
  <node id="-1053" visible="true" lat="44.42993382" lon="-71.9625591">
    <!-- multiple: "12 U.S. Route 2 East, Saint Johnsbury, VT" Multiple exact matches in OSM. -->
    <tag k="addr:city" v="Saint Johnsbury"/>
    <tag k="addr:housenumber" v="12"/>
    <tag k="addr:street" v="U.S. Route 2 East"/>
    <tag k="addr:state" v="VT"/>
    <tag k="ref:vcgi:esiteid" v="245267"/>
  </node>
  <node id="-1749" visible="true" lat="44.42100016" lon="-72.00261256">
    <!-- multiple: "642 Portland Street, Saint Johnsbury, VT" Multiple exact matches in OSM. -->
    <tag k="addr:city" v="Saint Johnsbury"/>
    <tag k="addr:housenumber" v="642"/>
    <tag k="addr:street" v="Portland Street"/>
    <tag k="addr:state" v="VT"/>
    <tag k="ref:vcgi:esiteid" v="246041"/>
  </node>
  <node id="-1836" visible="true" lat="44.42065964" lon="-72.02070886">
    <!-- multiple: "1325 Main Street, Saint Johnsbury, VT" Multiple exact matches in OSM. -->
    <tag k="addr:city" v="Saint Johnsbury"/>
    <tag k="addr:housenumber" v="1325"/>
    <tag k="addr:street" v="Main Street"/>
    <tag k="addr:state" v="VT"/>
    <tag k="ref:vcgi:esiteid" v="246137"/>
  </node>
  <node id="-2185" visible="true" lat="44.41761547" lon="-72.01636139">
    <!-- multiple: "17 Eastern Avenue, Saint Johnsbury, VT" Multiple exact matches in OSM. -->
    <tag k="addr:city" v="Saint Johnsbury"/>
    <tag k="addr:housenumber" v="17"/>
    <tag k="addr:street" v="Eastern Avenue"/>
    <tag k="addr:state" v="VT"/>
    <tag k="ref:vcgi:esiteid" v="246540"/>
  </node>
  <node id="-2197" visible="true" lat="44.4175328" lon="-72.01442588">
    <!-- multiple: "249 Bay Street, Saint Johnsbury, VT" Multiple exact matches in OSM. -->
    <tag k="addr:city" v="Saint Johnsbury"/>
    <tag k="addr:housenumber" v="249"/>
    <tag k="addr:street" v="Bay Street"/>
    <tag k="addr:state" v="VT"/>
    <tag k="ref:vcgi:esiteid" v="246554"/>
  </node>
  <node id="-2298" visible="true" lat="44.41630019" lon="-72.02270453">
    <!-- multiple: "161 Western Avenue, Saint Johnsbury, VT" Multiple exact matches in OSM. -->
    <tag k="addr:city" v="Saint Johnsbury"/>
    <tag k="addr:housenumber" v="161"/>
    <tag k="addr:street" v="Western Avenue"/>
    <tag k="addr:state" v="VT"/>
    <tag k="ref:vcgi:esiteid" v="246674"/>
  </node>
  <node id="-2376" visible="true" lat="44.41501956" lon="-72.01697836">
    <!-- multiple: "169 Railroad Street, Saint Johnsbury, VT" Multiple exact matches in OSM. -->
    <tag k="addr:city" v="Saint Johnsbury"/>
    <tag k="addr:housenumber" v="169"/>
    <tag k="addr:street" v="Railroad Street"/>
    <tag k="addr:state" v="VT"/>
    <tag k="ref:vcgi:esiteid" v="246766"/>
  </node>
  <node id="-2996" visible="true" lat="44.41816416" lon="-72.02982879">
    <!-- multiple: "85 U.S. Route 2 West, Saint Johnsbury, VT" Multiple exact matches in OSM. -->
    <tag k="addr:city" v="Saint Johnsbury"/>
    <tag k="addr:housenumber" v="85"/>
    <tag k="addr:street" v="U.S. Route 2 West"/>
    <tag k="addr:state" v="VT"/>
    <tag k="ref:vcgi:esiteid" v="342186"/>
  </node>
  <node id="-3140" visible="true" lat="44.41814573" lon="-72.0160414">
    <!-- multiple: "379 Railroad Street, Saint Johnsbury, VT" Multiple exact matches in OSM. -->
    <tag k="addr:city" v="Saint Johnsbury"/>
    <tag k="addr:housenumber" v="379"/>
    <tag k="addr:street" v="Railroad Street"/>
    <tag k="addr:state" v="VT"/>
    <tag k="ref:vcgi:esiteid" v="761462"/>
  </node>
</osm>
