<?xml version="1.0" encoding="UTF-8"?>
<osm version="0.6" generator="JOSM">
  <node id="-100" visible="true" lat="43.96066714" lon="-73.07679299">
    <tag k="addr:city" v="Salisbury"/>
    <tag k="addr:housenumber" v="3091"/>
    <tag k="addr:street" v="Upper Plains Road"/>
    <tag k="addr:state" v="VT"/>
    <tag k="ref:vcgi:esiteid" v="216176"/>
  </node>
  <node id="-101" visible="true" lat="43.95989737" lon="-73.07679528">
    <tag k="addr:city" v="Salisbury"/>
    <tag k="addr:housenumber" v="3033"/>
    <tag k="addr:street" v="Upper Plains Road"/>
    <tag k="addr:state" v="VT"/>
    <tag k="ref:vcgi:esiteid" v="216177"/>
  </node>
  <node id="-102" visible="true" lat="43.95935821" lon="-73.09249877">
    <tag k="addr:city" v="Salisbury"/>
    <tag k="addr:housenumber" v="988"/>
    <tag k="addr:street" v="Lower Plains Road"/>
    <tag k="addr:state" v="VT"/>
    <tag k="ref:vcgi:esiteid" v="216178"/>
  </node>
  <node id="-103" visible="true" lat="43.95936078" lon="-73.0770783">
    <tag k="addr:city" v="Salisbury"/>
    <tag k="addr:housenumber" v="3005"/>
    <tag k="addr:street" v="Upper Plains Road"/>
    <tag k="addr:state" v="VT"/>
    <tag k="ref:vcgi:esiteid" v="216179"/>
  </node>
  <node id="-104" visible="true" lat="43.9588625" lon="-73.09315081">
    <tag k="addr:city" v="Salisbury"/>
    <tag k="addr:housenumber" v="940"/>
    <tag k="addr:street" v="Lower Plains Road"/>
    <tag k="addr:state" v="VT"/>
    <tag k="ref:vcgi:esiteid" v="216180"/>
  </node>
  <node id="-105" visible="true" lat="43.95880532" lon="-73.07784458">
    <tag k="addr:city" v="Salisbury"/>
    <tag k="addr:housenumber" v="2969"/>
    <tag k="addr:street" v="Upper Plains Road"/>
    <tag k="addr:state" v="VT"/>
    <tag k="ref:vcgi:esiteid" v="216181"/>
  </node>
  <node id="-106" visible="true" lat="43.95859368" lon="-73.09272237">
    <tag k="addr:city" v="Salisbury"/>
    <tag k="addr:housenumber" v="904"/>
    <tag k="addr:street" v="Lower Plains Road"/>
    <tag k="addr:state" v="VT"/>
    <tag k="ref:vcgi:esiteid" v="216182"/>
  </node>
  <node id="-107" visible="true" lat="43.95780361" lon="-73.07632259">
    <tag k="addr:city" v="Salisbury"/>
    <tag k="addr:housenumber" v="2928"/>
    <tag k="addr:street" v="Upper Plains Road"/>
    <tag k="addr:state" v="VT"/>
    <tag k="ref:vcgi:esiteid" v="216183"/>
  </node>
  <node id="-108" visible="true" lat="43.95794494" lon="-73.09409805">
    <tag k="addr:city" v="Salisbury"/>
    <tag k="addr:housenumber" v="862"/>
    <tag k="addr:street" v="Lower Plains Road"/>
    <tag k="addr:state" v="VT"/>
    <tag k="ref:vcgi:esiteid" v="216184"/>
  </node>
  <node id="-109" visible="true" lat="43.95823182" lon="-73.06920593">
    <tag k="addr:city" v="Salisbury"/>
    <tag k="addr:housenumber" v="2776"/>
    <tag k="addr:street" v="Upper Plains Road"/>
    <tag k="addr:state" v="VT"/>
    <tag k="ref:vcgi:esiteid" v="216185"/>
  </node>
  <node id="-110" visible="true" lat="43.95821565" lon="-73.07713234">
    <tag k="addr:city" v="Salisbury"/>
    <tag k="addr:housenumber" v="2905"/>
    <tag k="addr:street" v="Upper Plains Road"/>
    <tag k="addr:state" v="VT"/>
    <tag k="ref:vcgi:esiteid" v="216186"/>
  </node>
  <node id="-111" visible="true" lat="43.95766689" lon="-73.09444367">
    <tag k="addr:city" v="Salisbury"/>
    <tag k="addr:housenumber" v="834"/>
    <tag k="addr:street" v="Lower Plains Road"/>
    <tag k="addr:state" v="VT"/>
    <tag k="ref:vcgi:esiteid" v="216187"/>
  </node>
  <node id="-112" visible="true" lat="43.95763095" lon="-73.09296666">
    <tag k="addr:city" v="Salisbury"/>
    <tag k="addr:housenumber" v="70"/>
    <tag k="addr:street" v="Clear View Drive"/>
    <tag k="addr:state" v="VT"/>
    <tag k="ref:vcgi:esiteid" v="216188"/>
  </node>
  <node id="-113" visible="true" lat="43.95776044" lon="-73.07685032">
    <tag k="addr:city" v="Salisbury"/>
    <tag k="addr:housenumber" v="2885"/>
    <tag k="addr:street" v="Upper Plains Road"/>
    <tag k="addr:state" v="VT"/>
    <tag k="ref:vcgi:esiteid" v="216189"/>
  </node>
  <node id="-114" visible="true" lat="43.95727883" lon="-73.07630428">
    <tag k="addr:city" v="Salisbury"/>
    <tag k="addr:housenumber" v="2878"/>
    <tag k="addr:street" v="Upper Plains Road"/>
    <tag k="addr:state" v="VT"/>
    <tag k="ref:vcgi:esiteid" v="216190"/>
  </node>
  <node id="-115" visible="true" lat="43.95698165" lon="-73.09468078">
    <tag k="addr:city" v="Salisbury"/>
    <tag k="addr:housenumber" v="788"/>
    <tag k="addr:street" v="Lower Plains Road"/>
    <tag k="addr:state" v="VT"/>
    <tag k="ref:vcgi:esiteid" v="216191"/>
  </node>
  <node id="-116" visible="true" lat="43.95688918" lon="-73.09314292">
    <tag k="addr:city" v="Salisbury"/>
    <tag k="addr:housenumber" v="50"/>
    <tag k="addr:street" v="Clear View Drive"/>
    <tag k="addr:state" v="VT"/>
    <tag k="ref:vcgi:esiteid" v="216192"/>
  </node>
  <node id="-117" visible="true" lat="43.95713843" lon="-73.07698915">
    <tag k="addr:city" v="Salisbury"/>
    <tag k="addr:housenumber" v="2851"/>
    <tag k="addr:street" v="Upper Plains Road"/>
    <tag k="addr:state" v="VT"/>
    <tag k="ref:vcgi:esiteid" v="216193"/>
  </node>
  <node id="-119" visible="true" lat="43.95680897" lon="-73.07709477">
    <tag k="addr:city" v="Salisbury"/>
    <tag k="addr:housenumber" v="2833"/>
    <tag k="addr:street" v="Upper Plains Road"/>
    <tag k="addr:state" v="VT"/>
    <tag k="ref:vcgi:esiteid" v="216195"/>
  </node>
  <node id="-121" visible="true" lat="43.95652523" lon="-73.07728485">
    <tag k="addr:city" v="Salisbury"/>
    <tag k="addr:housenumber" v="2815"/>
    <tag k="addr:street" v="Upper Plains Road"/>
    <tag k="addr:state" v="VT"/>
    <tag k="ref:vcgi:esiteid" v="216197"/>
  </node>
  <node id="-122" visible="true" lat="43.95640197" lon="-73.0763439">
    <tag k="addr:city" v="Salisbury"/>
    <tag k="addr:housenumber" v="2816"/>
    <tag k="addr:street" v="Upper Plains Road"/>
    <tag k="addr:state" v="VT"/>
    <tag k="ref:vcgi:esiteid" v="216198"/>
  </node>
  <node id="-123" visible="true" lat="43.95637795" lon="-73.09509699">
    <tag k="addr:city" v="Salisbury"/>
    <tag k="addr:housenumber" v="720"/>
    <tag k="addr:street" v="Lower Plains Road"/>
    <tag k="addr:state" v="VT"/>
    <tag k="ref:vcgi:esiteid" v="216199"/>
  </node>
  <node id="-124" visible="true" lat="43.9560584" lon="-73.07744938">
    <tag k="addr:city" v="Salisbury"/>
    <tag k="addr:housenumber" v="2769"/>
    <tag k="addr:street" v="Upper Plains Road"/>
    <tag k="addr:state" v="VT"/>
    <tag k="ref:vcgi:esiteid" v="216200"/>
  </node>
  <node id="-125" visible="true" lat="43.95575624" lon="-73.09496468">
    <tag k="addr:city" v="Salisbury"/>
    <tag k="addr:housenumber" v="684"/>
    <tag k="addr:street" v="Lower Plains Road"/>
    <tag k="addr:state" v="VT"/>
    <tag k="ref:vcgi:esiteid" v="216201"/>
  </node>
  <node id="-126" visible="true" lat="43.9554139" lon="-73.07657112">
    <tag k="addr:city" v="Salisbury"/>
    <tag k="addr:housenumber" v="2774"/>
    <tag k="addr:street" v="Upper Plains Road"/>
    <tag k="addr:state" v="VT"/>
    <tag k="ref:vcgi:esiteid" v="216202"/>
  </node>
  <node id="-127" visible="true" lat="43.95509397" lon="-73.09501045">
    <tag k="addr:city" v="Salisbury"/>
    <tag k="addr:housenumber" v="646"/>
    <tag k="addr:street" v="Lower Plains Road"/>
    <tag k="addr:state" v="VT"/>
    <tag k="ref:vcgi:esiteid" v="216203"/>
  </node>
  <node id="-129" visible="true" lat="43.9543399" lon="-73.09503683">
    <tag k="addr:city" v="Salisbury"/>
    <tag k="addr:housenumber" v="594"/>
    <tag k="addr:street" v="Lower Plains Road"/>
    <tag k="addr:state" v="VT"/>
    <tag k="ref:vcgi:esiteid" v="216205"/>
  </node>
  <node id="-132" visible="true" lat="43.95449402" lon="-73.07817196">
    <tag k="addr:city" v="Salisbury"/>
    <tag k="addr:housenumber" v="2655"/>
    <tag k="addr:street" v="Upper Plains Road"/>
    <tag k="addr:state" v="VT"/>
    <tag k="ref:vcgi:esiteid" v="216208"/>
  </node>
  <node id="-133" visible="true" lat="43.95434156" lon="-73.07719003">
    <tag k="addr:city" v="Salisbury"/>
    <tag k="addr:housenumber" v="2652"/>
    <tag k="addr:street" v="Upper Plains Road"/>
    <tag k="addr:state" v="VT"/>
    <tag k="ref:vcgi:esiteid" v="216209"/>
  </node>
  <node id="-134" visible="true" lat="43.95392558" lon="-73.09769013">
    <tag k="addr:city" v="Salisbury"/>
    <tag k="addr:housenumber" v="547"/>
    <tag k="addr:street" v="Lower Plains Road"/>
    <tag k="addr:state" v="VT"/>
    <tag k="ref:vcgi:esiteid" v="216210"/>
  </node>
  <node id="-136" visible="true" lat="43.95386606" lon="-73.07910678">
    <tag k="addr:city" v="Salisbury"/>
    <tag k="addr:housenumber" v="2565"/>
    <tag k="addr:street" v="Upper Plains Road"/>
    <tag k="addr:state" v="VT"/>
    <tag k="ref:vcgi:esiteid" v="216212"/>
  </node>
  <node id="-137" visible="true" lat="43.95388442" lon="-73.09536669">
    <tag k="addr:city" v="Salisbury"/>
    <tag k="addr:housenumber" v="538"/>
    <tag k="addr:street" v="Lower Plains Road"/>
    <tag k="addr:state" v="VT"/>
    <tag k="ref:vcgi:esiteid" v="216213"/>
  </node>
  <node id="-139" visible="true" lat="43.95337952" lon="-73.07767371">
    <tag k="addr:city" v="Salisbury"/>
    <tag k="addr:housenumber" v="23"/>
    <tag k="addr:street" v="Kirby Drive"/>
    <tag k="addr:state" v="VT"/>
    <tag k="ref:vcgi:esiteid" v="216215"/>
  </node>
  <node id="-140" visible="true" lat="43.9533224" lon="-73.07845094">
    <tag k="addr:city" v="Salisbury"/>
    <tag k="addr:housenumber" v="40"/>
    <tag k="addr:street" v="Kirby Drive"/>
    <tag k="addr:state" v="VT"/>
    <tag k="ref:vcgi:esiteid" v="216216"/>
  </node>
  <node id="-143" visible="true" lat="43.95301537" lon="-73.07820314">
    <tag k="addr:city" v="Salisbury"/>
    <tag k="addr:housenumber" v="56"/>
    <tag k="addr:street" v="Kirby Drive"/>
    <tag k="addr:state" v="VT"/>
    <tag k="ref:vcgi:esiteid" v="216219"/>
  </node>
  <node id="-144" visible="true" lat="43.95282528" lon="-73.08058245">
    <tag k="addr:city" v="Salisbury"/>
    <tag k="addr:housenumber" v="2491"/>
    <tag k="addr:street" v="Upper Plains Road"/>
    <tag k="addr:state" v="VT"/>
    <tag k="ref:vcgi:esiteid" v="216220"/>
  </node>
  <node id="-145" visible="true" lat="43.95296373" lon="-73.07944282">
    <tag k="addr:city" v="Salisbury"/>
    <tag k="addr:housenumber" v="2516"/>
    <tag k="addr:street" v="Upper Plains Road"/>
    <tag k="addr:state" v="VT"/>
    <tag k="ref:vcgi:esiteid" v="216221"/>
  </node>
  <node id="-147" visible="true" lat="43.95217132" lon="-73.0975418">
    <tag k="addr:city" v="Salisbury"/>
    <tag k="addr:housenumber" v="461"/>
    <tag k="addr:street" v="Lower Plains Road"/>
    <tag k="addr:state" v="VT"/>
    <tag k="ref:vcgi:esiteid" v="216223"/>
  </node>
  <node id="-148" visible="true" lat="43.95225891" lon="-73.09419063">
    <tag k="addr:city" v="Salisbury"/>
    <tag k="addr:housenumber" v="466"/>
    <tag k="addr:street" v="Lower Plains Road"/>
    <tag k="addr:state" v="VT"/>
    <tag k="ref:vcgi:esiteid" v="216224"/>
  </node>
  <node id="-149" visible="true" lat="43.95192456" lon="-73.09565662">
    <tag k="addr:city" v="Salisbury"/>
    <tag k="addr:housenumber" v="416"/>
    <tag k="addr:street" v="Lower Plains Road"/>
    <tag k="addr:state" v="VT"/>
    <tag k="ref:vcgi:esiteid" v="216225"/>
  </node>
  <node id="-150" visible="true" lat="43.95155433" lon="-73.13596827">
    <tag k="addr:city" v="Salisbury"/>
    <tag k="addr:housenumber" v="2017"/>
    <tag k="addr:street" v="Middle Road"/>
    <tag k="addr:state" v="VT"/>
    <tag k="ref:vcgi:esiteid" v="216226"/>
  </node>
  <node id="-151" visible="true" lat="43.95161437" lon="-73.08877563">
    <tag k="addr:city" v="Salisbury"/>
    <tag k="addr:housenumber" v="468"/>
    <tag k="addr:street" v="Lower Plains Road"/>
    <tag k="addr:state" v="VT"/>
    <tag k="ref:vcgi:esiteid" v="216227"/>
  </node>
  <node id="-152" visible="true" lat="43.95181363" lon="-73.09942275">
    <tag k="addr:city" v="Salisbury"/>
    <tag k="addr:housenumber" v="413"/>
    <tag k="addr:street" v="Lower Plains Road"/>
    <tag k="addr:state" v="VT"/>
    <tag k="ref:vcgi:esiteid" v="216228"/>
  </node>
  <node id="-153" visible="true" lat="43.95151943" lon="-73.09586106">
    <tag k="addr:city" v="Salisbury"/>
    <tag k="addr:housenumber" v="384"/>
    <tag k="addr:street" v="Lower Plains Road"/>
    <tag k="addr:state" v="VT"/>
    <tag k="ref:vcgi:esiteid" v="216229"/>
  </node>
  <node id="-154" visible="true" lat="43.95126638" lon="-73.09357703">
    <tag k="addr:city" v="Salisbury"/>
    <tag k="addr:housenumber" v="210"/>
    <tag k="addr:street" v="Wildlife Road"/>
    <tag k="addr:state" v="VT"/>
    <tag k="ref:vcgi:esiteid" v="216230"/>
  </node>
  <node id="-155" visible="true" lat="43.95107269" lon="-73.09494018">
    <tag k="addr:city" v="Salisbury"/>
    <tag k="addr:housenumber" v="360"/>
    <tag k="addr:street" v="Lower Plains Road"/>
    <tag k="addr:state" v="VT"/>
    <tag k="ref:vcgi:esiteid" v="216231"/>
  </node>
  <node id="-156" visible="true" lat="43.95117191" lon="-73.08148534">
    <tag k="addr:city" v="Salisbury"/>
    <tag k="addr:housenumber" v="2260"/>
    <tag k="addr:street" v="Upper Plains Road"/>
    <tag k="addr:state" v="VT"/>
    <tag k="ref:vcgi:esiteid" v="216232"/>
  </node>
  <node id="-157" visible="true" lat="43.95049197" lon="-73.08144594">
    <tag k="addr:city" v="Salisbury"/>
    <tag k="addr:housenumber" v="2258"/>
    <tag k="addr:street" v="Upper Plains Road"/>
    <tag k="addr:state" v="VT"/>
    <tag k="ref:vcgi:esiteid" v="216233"/>
  </node>
  <node id="-159" visible="true" lat="43.95064928" lon="-73.09624717">
    <tag k="addr:city" v="Salisbury"/>
    <tag k="addr:housenumber" v="334"/>
    <tag k="addr:street" v="Lower Plains Road"/>
    <tag k="addr:state" v="VT"/>
    <tag k="ref:vcgi:esiteid" v="216235"/>
  </node>
  <node id="-160" visible="true" lat="43.95056228" lon="-73.09711614">
    <tag k="addr:city" v="Salisbury"/>
    <tag k="addr:housenumber" v="307"/>
    <tag k="addr:street" v="Lower Plains Road"/>
    <tag k="addr:state" v="VT"/>
    <tag k="ref:vcgi:esiteid" v="216236"/>
  </node>
  <node id="-161" visible="true" lat="43.95038873" lon="-73.09423123">
    <tag k="addr:city" v="Salisbury"/>
    <tag k="addr:housenumber" v="110"/>
    <tag k="addr:street" v="Wildlife Road"/>
    <tag k="addr:state" v="VT"/>
    <tag k="ref:vcgi:esiteid" v="216237"/>
  </node>
  <node id="-164" visible="true" lat="43.94966125" lon="-73.0951538">
    <tag k="addr:city" v="Salisbury"/>
    <tag k="addr:housenumber" v="68"/>
    <tag k="addr:street" v="Wildlife Road"/>
    <tag k="addr:state" v="VT"/>
    <tag k="ref:vcgi:esiteid" v="216240"/>
  </node>
  <node id="-165" visible="true" lat="43.94945533" lon="-73.09716903">
    <tag k="addr:city" v="Salisbury"/>
    <tag k="addr:housenumber" v="242"/>
    <tag k="addr:street" v="Lower Plains Road"/>
    <tag k="addr:state" v="VT"/>
    <tag k="ref:vcgi:esiteid" v="216241"/>
  </node>
  <node id="-166" visible="true" lat="43.94913632" lon="-73.09738077">
    <tag k="addr:city" v="Salisbury"/>
    <tag k="addr:housenumber" v="210"/>
    <tag k="addr:street" v="Lower Plains Road"/>
    <tag k="addr:state" v="VT"/>
    <tag k="ref:vcgi:esiteid" v="216242"/>
  </node>
  <node id="-172" visible="true" lat="43.94743949" lon="-73.11206131">
    <tag k="addr:city" v="Salisbury"/>
    <tag k="addr:housenumber" v="711"/>
    <tag k="addr:street" v="U.S. Route 7"/>
    <tag k="addr:state" v="VT"/>
    <tag k="ref:vcgi:esiteid" v="216248"/>
  </node>
  <node id="-174" visible="true" lat="43.94718109" lon="-73.08628079">
    <tag k="addr:city" v="Salisbury"/>
    <tag k="addr:housenumber" v="1994"/>
    <tag k="addr:street" v="Upper Plains Road"/>
    <tag k="addr:state" v="VT"/>
    <tag k="ref:vcgi:esiteid" v="216250"/>
  </node>
  <node id="-175" visible="true" lat="43.94658915" lon="-73.09092974">
    <tag k="addr:city" v="Salisbury"/>
    <tag k="addr:housenumber" v="392"/>
    <tag k="addr:street" v="Beaver Pond Road"/>
    <tag k="addr:state" v="VT"/>
    <tag k="ref:vcgi:esiteid" v="216251"/>
  </node>
  <node id="-176" visible="true" lat="43.9464868" lon="-73.08760897">
    <tag k="addr:city" v="Salisbury"/>
    <tag k="addr:housenumber" v="1899"/>
    <tag k="addr:street" v="Upper Plains Road"/>
    <tag k="addr:state" v="VT"/>
    <tag k="ref:vcgi:esiteid" v="216252"/>
  </node>
  <node id="-177" visible="true" lat="43.94607026" lon="-73.09231765">
    <tag k="addr:city" v="Salisbury"/>
    <tag k="addr:housenumber" v="312"/>
    <tag k="addr:street" v="Beaver Pond Road"/>
    <tag k="addr:state" v="VT"/>
    <tag k="ref:vcgi:esiteid" v="216254"/>
  </node>
  <node id="-179" visible="true" lat="43.94540385" lon="-73.0875878">
    <tag k="addr:city" v="Salisbury"/>
    <tag k="addr:housenumber" v="1839"/>
    <tag k="addr:street" v="Upper Plains Road"/>
    <tag k="addr:state" v="VT"/>
    <tag k="ref:vcgi:esiteid" v="216256"/>
  </node>
  <node id="-180" visible="true" lat="43.94519043" lon="-73.09281921">
    <tag k="addr:city" v="Salisbury"/>
    <tag k="addr:housenumber" v="294"/>
    <tag k="addr:street" v="Beaver Pond Road"/>
    <tag k="addr:state" v="VT"/>
    <tag k="ref:vcgi:esiteid" v="216257"/>
  </node>
  <node id="-183" visible="true" lat="43.94429673" lon="-73.15203411">
    <tag k="addr:city" v="Salisbury"/>
    <tag k="addr:housenumber" v="1493"/>
    <tag k="addr:street" v="Shard Villa Road"/>
    <tag k="addr:state" v="VT"/>
    <tag k="ref:vcgi:esiteid" v="216260"/>
  </node>
  <node id="-184" visible="true" lat="43.94483892" lon="-73.08825081">
    <tag k="addr:city" v="Salisbury"/>
    <tag k="addr:housenumber" v="1731"/>
    <tag k="addr:street" v="Upper Plains Road"/>
    <tag k="addr:state" v="VT"/>
    <tag k="ref:vcgi:esiteid" v="216261"/>
  </node>
  <node id="-186" visible="true" lat="43.94372527" lon="-73.11262651">
    <tag k="addr:city" v="Salisbury"/>
    <tag k="addr:housenumber" v="1008"/>
    <tag k="addr:street" v="U.S. Route 7"/>
    <tag k="addr:state" v="VT"/>
    <tag k="ref:vcgi:esiteid" v="216263"/>
  </node>
  <node id="-187" visible="true" lat="43.94318541" lon="-73.11136755">
    <tag k="addr:city" v="Salisbury"/>
    <tag k="addr:housenumber" v="991"/>
    <tag k="addr:street" v="U.S. Route 7"/>
    <tag k="addr:state" v="VT"/>
    <tag k="ref:vcgi:esiteid" v="216264"/>
  </node>
  <node id="-189" visible="true" lat="43.94241867" lon="-73.15204734">
    <tag k="addr:city" v="Salisbury"/>
    <tag k="addr:housenumber" v="1400"/>
    <tag k="addr:street" v="Shard Villa Road"/>
    <tag k="addr:state" v="VT"/>
    <tag k="ref:vcgi:esiteid" v="216266"/>
  </node>
  <node id="-190" visible="true" lat="43.94277009" lon="-73.08850553">
    <tag k="addr:city" v="Salisbury"/>
    <tag k="addr:housenumber" v="1624"/>
    <tag k="addr:street" v="Upper Plains Road"/>
    <tag k="addr:state" v="VT"/>
    <tag k="ref:vcgi:esiteid" v="216267"/>
  </node>
  <node id="-193" visible="true" lat="43.94145337" lon="-73.13749824">
    <tag k="addr:city" v="Salisbury"/>
    <tag k="addr:housenumber" v="92"/>
    <tag k="addr:street" v="Columbus Smith Road"/>
    <tag k="addr:state" v="VT"/>
    <tag k="ref:vcgi:esiteid" v="216270"/>
  </node>
  <node id="-195" visible="true" lat="43.94099563" lon="-73.13927147">
    <tag k="addr:city" v="Salisbury"/>
    <tag k="addr:housenumber" v="228"/>
    <tag k="addr:street" v="Columbus Smith Road"/>
    <tag k="addr:state" v="VT"/>
    <tag k="ref:vcgi:esiteid" v="216272"/>
  </node>
  <node id="-198" visible="true" lat="43.94059039" lon="-73.14766212">
    <tag k="addr:city" v="Salisbury"/>
    <tag k="addr:housenumber" v="704"/>
    <tag k="addr:street" v="Columbus Smith Road"/>
    <tag k="addr:state" v="VT"/>
    <tag k="ref:vcgi:esiteid" v="216275"/>
  </node>
  <node id="-199" visible="true" lat="43.94064152" lon="-73.15017654">
    <tag k="addr:city" v="Salisbury"/>
    <tag k="addr:housenumber" v="784"/>
    <tag k="addr:street" v="Columbus Smith Road"/>
    <tag k="addr:state" v="VT"/>
    <tag k="ref:vcgi:esiteid" v="216276"/>
  </node>
  <node id="-201" visible="true" lat="43.94040387" lon="-73.14076027">
    <tag k="addr:city" v="Salisbury"/>
    <tag k="addr:housenumber" v="311"/>
    <tag k="addr:street" v="Columbus Smith Road"/>
    <tag k="addr:state" v="VT"/>
    <tag k="ref:vcgi:esiteid" v="216278"/>
  </node>
  <node id="-204" visible="true" lat="43.93971191" lon="-73.14765084">
    <tag k="addr:city" v="Salisbury"/>
    <tag k="addr:housenumber" v="655"/>
    <tag k="addr:street" v="Columbus Smith Road"/>
    <tag k="addr:state" v="VT"/>
    <tag k="ref:vcgi:esiteid" v="216281"/>
  </node>
  <node id="-206" visible="true" lat="43.94053287" lon="-73.09181433">
    <tag k="addr:city" v="Salisbury"/>
    <tag k="addr:housenumber" v="1389"/>
    <tag k="addr:street" v="Upper Plains Road"/>
    <tag k="addr:state" v="VT"/>
    <tag k="ref:vcgi:esiteid" v="216283"/>
  </node>
  <node id="-207" visible="true" lat="43.93853194" lon="-73.09049644">
    <tag k="addr:city" v="Salisbury"/>
    <tag k="addr:housenumber" v="1302"/>
    <tag k="addr:street" v="Upper Plains Road"/>
    <tag k="addr:state" v="VT"/>
    <tag k="ref:vcgi:esiteid" v="216284"/>
  </node>
  <node id="-208" visible="true" lat="43.9396482" lon="-73.15429588">
    <tag k="addr:city" v="Salisbury"/>
    <tag k="addr:housenumber" v="1177"/>
    <tag k="addr:street" v="Shard Villa Road"/>
    <tag k="addr:state" v="VT"/>
    <tag k="ref:vcgi:esiteid" v="216285"/>
  </node>
  <node id="-209" visible="true" lat="43.93965085" lon="-73.13446964">
    <tag k="addr:city" v="Salisbury"/>
    <tag k="addr:housenumber" v="1271"/>
    <tag k="addr:street" v="Middle Road"/>
    <tag k="addr:state" v="VT"/>
    <tag k="ref:vcgi:esiteid" v="216286"/>
  </node>
  <node id="-210" visible="true" lat="43.93924391" lon="-73.15211845">
    <tag k="addr:city" v="Salisbury"/>
    <tag k="addr:housenumber" v="883"/>
    <tag k="addr:street" v="Columbus Smith Road"/>
    <tag k="addr:state" v="VT"/>
    <tag k="ref:vcgi:esiteid" v="216287"/>
  </node>
  <node id="-211" visible="true" lat="43.93969294" lon="-73.11039698">
    <tag k="addr:city" v="Salisbury"/>
    <tag k="addr:housenumber" v="1258"/>
    <tag k="addr:street" v="U.S. Route 7"/>
    <tag k="addr:state" v="VT"/>
    <tag k="ref:vcgi:esiteid" v="216288"/>
  </node>
  <node id="-212" visible="true" lat="43.93898655" lon="-73.09209811">
    <tag k="addr:city" v="Salisbury"/>
    <tag k="addr:housenumber" v="1301"/>
    <tag k="addr:street" v="Upper Plains Road"/>
    <tag k="addr:state" v="VT"/>
    <tag k="ref:vcgi:esiteid" v="216289"/>
  </node>
  <node id="-214" visible="true" lat="43.93659975" lon="-73.15457202">
    <tag k="addr:city" v="Salisbury"/>
    <tag k="addr:housenumber" v="973"/>
    <tag k="addr:street" v="Shard Villa Road"/>
    <tag k="addr:state" v="VT"/>
    <tag k="ref:vcgi:esiteid" v="216291"/>
  </node>
  <node id="-215" visible="true" lat="43.93510517" lon="-73.15446557">
    <tag k="addr:city" v="Salisbury"/>
    <tag k="addr:housenumber" v="879"/>
    <tag k="addr:street" v="Shard Villa Road"/>
    <tag k="addr:state" v="VT"/>
    <tag k="ref:vcgi:esiteid" v="216292"/>
  </node>
  <node id="-217" visible="true" lat="43.93525321" lon="-73.13344087">
    <tag k="addr:city" v="Salisbury"/>
    <tag k="addr:housenumber" v="951"/>
    <tag k="addr:street" v="Middle Road"/>
    <tag k="addr:state" v="VT"/>
    <tag k="ref:vcgi:esiteid" v="216294"/>
  </node>
  <node id="-218" visible="true" lat="43.93445112" lon="-73.14381004">
    <tag k="addr:city" v="Salisbury"/>
    <tag k="addr:housenumber" v="563"/>
    <tag k="addr:street" v="Pidgeon Road West"/>
    <tag k="addr:state" v="VT"/>
    <tag k="ref:vcgi:esiteid" v="216295"/>
  </node>
  <node id="-219" visible="true" lat="43.93379111" lon="-73.14513768">
    <tag k="addr:city" v="Salisbury"/>
    <tag k="addr:housenumber" v="507"/>
    <tag k="addr:street" v="Pidgeon Road West"/>
    <tag k="addr:state" v="VT"/>
    <tag k="ref:vcgi:esiteid" v="216296"/>
  </node>
  <node id="-220" visible="true" lat="43.93372555" lon="-73.14064813">
    <tag k="addr:city" v="Salisbury"/>
    <tag k="addr:housenumber" v="711"/>
    <tag k="addr:street" v="Pidgeon Road West"/>
    <tag k="addr:state" v="VT"/>
    <tag k="ref:vcgi:esiteid" v="216297"/>
  </node>
  <node id="-221" visible="true" lat="43.93349762" lon="-73.14625234">
    <tag k="addr:city" v="Salisbury"/>
    <tag k="addr:housenumber" v="433"/>
    <tag k="addr:street" v="Pidgeon Road West"/>
    <tag k="addr:state" v="VT"/>
    <tag k="ref:vcgi:esiteid" v="216298"/>
  </node>
  <node id="-222" visible="true" lat="43.93379788" lon="-73.10732106">
    <tag k="addr:city" v="Salisbury"/>
    <tag k="addr:housenumber" v="1625"/>
    <tag k="addr:street" v="U.S. Route 7"/>
    <tag k="addr:state" v="VT"/>
    <tag k="ref:vcgi:esiteid" v="216299"/>
  </node>
  <node id="-223" visible="true" lat="43.93342392" lon="-73.09092277">
    <tag k="addr:city" v="Salisbury"/>
    <tag k="addr:housenumber" v="902"/>
    <tag k="addr:street" v="Upper Plains Road"/>
    <tag k="addr:state" v="VT"/>
    <tag k="ref:vcgi:esiteid" v="216300"/>
  </node>
  <node id="-224" visible="true" lat="43.93252138" lon="-73.1453765">
    <tag k="addr:city" v="Salisbury"/>
    <tag k="addr:housenumber" v="438"/>
    <tag k="addr:street" v="Pidgeon Road West"/>
    <tag k="addr:state" v="VT"/>
    <tag k="ref:vcgi:esiteid" v="216301"/>
  </node>
  <node id="-225" visible="true" lat="43.93271785" lon="-73.09033451">
    <tag k="addr:city" v="Salisbury"/>
    <tag k="addr:housenumber" v="860"/>
    <tag k="addr:street" v="Upper Plains Road"/>
    <tag k="addr:state" v="VT"/>
    <tag k="ref:vcgi:esiteid" v="216302"/>
  </node>
  <node id="-226" visible="true" lat="43.93213686" lon="-73.10443897">
    <tag k="addr:city" v="Salisbury"/>
    <tag k="addr:housenumber" v="73"/>
    <tag k="addr:street" v="East Brook Road"/>
    <tag k="addr:state" v="VT"/>
    <tag k="ref:vcgi:esiteid" v="216303"/>
  </node>
  <node id="-228" visible="true" lat="43.93177795" lon="-73.14909362">
    <tag k="addr:city" v="Salisbury"/>
    <tag k="addr:housenumber" v="237"/>
    <tag k="addr:street" v="Pidgeon Road West"/>
    <tag k="addr:state" v="VT"/>
    <tag k="ref:vcgi:esiteid" v="216305"/>
  </node>
  <node id="-230" visible="true" lat="43.93169609" lon="-73.15139933">
    <tag k="addr:city" v="Salisbury"/>
    <tag k="addr:housenumber" v="121"/>
    <tag k="addr:street" v="Pidgeon Road West"/>
    <tag k="addr:state" v="VT"/>
    <tag k="ref:vcgi:esiteid" v="216307"/>
  </node>
  <node id="-231" visible="true" lat="43.93162155" lon="-73.1424179">
    <tag k="addr:city" v="Salisbury"/>
    <tag k="addr:housenumber" v="648"/>
    <tag k="addr:street" v="Pidgeon Road West"/>
    <tag k="addr:state" v="VT"/>
    <tag k="ref:vcgi:esiteid" v="216308"/>
  </node>
  <node id="-232" visible="true" lat="43.93206796" lon="-73.09014778">
    <tag k="addr:city" v="Salisbury"/>
    <tag k="addr:housenumber" v="810"/>
    <tag k="addr:street" v="Upper Plains Road"/>
    <tag k="addr:state" v="VT"/>
    <tag k="ref:vcgi:esiteid" v="216309"/>
  </node>
  <node id="-233" visible="true" lat="43.93151479" lon="-73.13118473">
    <tag k="addr:city" v="Salisbury"/>
    <tag k="addr:housenumber" v="674"/>
    <tag k="addr:street" v="Middle Road"/>
    <tag k="addr:state" v="VT"/>
    <tag k="ref:vcgi:esiteid" v="216310"/>
  </node>
  <node id="-234" visible="true" lat="43.93150129" lon="-73.15430819">
    <tag k="addr:city" v="Salisbury"/>
    <tag k="addr:housenumber" v="615"/>
    <tag k="addr:street" v="Shard Villa Road"/>
    <tag k="addr:state" v="VT"/>
    <tag k="ref:vcgi:esiteid" v="216311"/>
  </node>
  <node id="-235" visible="true" lat="43.93127645" lon="-73.10270727">
    <tag k="addr:city" v="Salisbury"/>
    <tag k="addr:housenumber" v="108"/>
    <tag k="addr:street" v="East Brook Road"/>
    <tag k="addr:state" v="VT"/>
    <tag k="ref:vcgi:esiteid" v="216312"/>
  </node>
  <node id="-236" visible="true" lat="43.93098496" lon="-73.15350188">
    <tag k="addr:city" v="Salisbury"/>
    <tag k="addr:housenumber" v="574"/>
    <tag k="addr:street" v="Shard Villa Road"/>
    <tag k="addr:state" v="VT"/>
    <tag k="ref:vcgi:esiteid" v="216313"/>
  </node>
  <node id="-237" visible="true" lat="43.93094027" lon="-73.13345896">
    <tag k="addr:city" v="Salisbury"/>
    <tag k="addr:housenumber" v="124"/>
    <tag k="addr:street" v="Pidgeon Road East"/>
    <tag k="addr:state" v="VT"/>
    <tag k="ref:vcgi:esiteid" v="216314"/>
  </node>
  <node id="-238" visible="true" lat="43.93055671" lon="-73.13593297">
    <tag k="addr:city" v="Salisbury"/>
    <tag k="addr:housenumber" v="241"/>
    <tag k="addr:street" v="Pidgeon Road East"/>
    <tag k="addr:state" v="VT"/>
    <tag k="ref:vcgi:esiteid" v="216315"/>
  </node>
  <node id="-240" visible="true" lat="43.92985824" lon="-73.15279661">
    <tag k="addr:city" v="Salisbury"/>
    <tag k="addr:housenumber" v="490"/>
    <tag k="addr:street" v="Shard Villa Road"/>
    <tag k="addr:state" v="VT"/>
    <tag k="ref:vcgi:esiteid" v="216317"/>
  </node>
  <node id="-241" visible="true" lat="43.92964088" lon="-73.1319481">
    <tag k="addr:city" v="Salisbury"/>
    <tag k="addr:housenumber" v="587"/>
    <tag k="addr:street" v="Middle Road"/>
    <tag k="addr:state" v="VT"/>
    <tag k="ref:vcgi:esiteid" v="216318"/>
  </node>
  <node id="-243" visible="true" lat="43.92935375" lon="-73.15340354">
    <tag k="addr:city" v="Salisbury"/>
    <tag k="addr:housenumber" v="465"/>
    <tag k="addr:street" v="Shard Villa Road"/>
    <tag k="addr:state" v="VT"/>
    <tag k="ref:vcgi:esiteid" v="216320"/>
  </node>
  <node id="-244" visible="true" lat="43.92891883" lon="-73.13183725">
    <tag k="addr:city" v="Salisbury"/>
    <tag k="addr:housenumber" v="523"/>
    <tag k="addr:street" v="Middle Road"/>
    <tag k="addr:state" v="VT"/>
    <tag k="ref:vcgi:esiteid" v="216321"/>
  </node>
  <node id="-246" visible="true" lat="43.92789788" lon="-73.15220844">
    <tag k="addr:city" v="Salisbury"/>
    <tag k="addr:housenumber" v="362"/>
    <tag k="addr:street" v="Shard Villa Road"/>
    <tag k="addr:state" v="VT"/>
    <tag k="ref:vcgi:esiteid" v="216323"/>
  </node>
  <node id="-247" visible="true" lat="43.9280335" lon="-73.10399886">
    <tag k="addr:city" v="Salisbury"/>
    <tag k="addr:housenumber" v="284"/>
    <tag k="addr:street" v="Lake Dunmore Road"/>
    <tag k="addr:state" v="VT"/>
    <tag k="ref:vcgi:esiteid" v="216324"/>
  </node>
  <node id="-248" visible="true" lat="43.92761665" lon="-73.15196737">
    <tag k="addr:city" v="Salisbury"/>
    <tag k="addr:housenumber" v="338"/>
    <tag k="addr:street" v="Shard Villa Road"/>
    <tag k="addr:state" v="VT"/>
    <tag k="ref:vcgi:esiteid" v="216325"/>
  </node>
  <node id="-249" visible="true" lat="43.92686171" lon="-73.13645686">
    <tag k="addr:city" v="Salisbury"/>
    <tag k="addr:housenumber" v="2218"/>
    <tag k="addr:street" v="West Salisbury Road"/>
    <tag k="addr:state" v="VT"/>
    <tag k="ref:vcgi:esiteid" v="216327"/>
  </node>
  <node id="-250" visible="true" lat="43.92590257" lon="-73.12986872">
    <tag k="addr:city" v="Salisbury"/>
    <tag k="addr:housenumber" v="310"/>
    <tag k="addr:street" v="Middle Road"/>
    <tag k="addr:state" v="VT"/>
    <tag k="ref:vcgi:esiteid" v="216328"/>
  </node>
  <node id="-252" visible="true" lat="43.92620787" lon="-73.10089827">
    <tag k="addr:city" v="Salisbury"/>
    <tag k="addr:housenumber" v="53"/>
    <tag k="addr:street" v="Smead Road"/>
    <tag k="addr:state" v="VT"/>
    <tag k="ref:vcgi:esiteid" v="216330"/>
  </node>
  <node id="-253" visible="true" lat="43.92574243" lon="-73.09887381">
    <tag k="addr:city" v="Salisbury"/>
    <tag k="addr:housenumber" v="646"/>
    <tag k="addr:street" v="Lake Dunmore Road"/>
    <tag k="addr:state" v="VT"/>
    <tag k="ref:vcgi:esiteid" v="216331"/>
  </node>
  <node id="-254" visible="true" lat="43.92533144" lon="-73.1507214">
    <tag k="addr:city" v="Salisbury"/>
    <tag k="addr:housenumber" v="146"/>
    <tag k="addr:street" v="Shard Villa Road"/>
    <tag k="addr:state" v="VT"/>
    <tag k="ref:vcgi:esiteid" v="216332"/>
  </node>
  <node id="-256" visible="true" lat="43.92540515" lon="-73.08034166">
    <tag k="addr:city" v="Salisbury"/>
    <tag k="addr:housenumber" v="1921"/>
    <tag k="addr:street" v="Lake Dunmore Road"/>
    <tag k="addr:state" v="VT"/>
    <tag k="ref:vcgi:esiteid" v="216334"/>
  </node>
  <node id="-257" visible="true" lat="43.92534171" lon="-73.08105465">
    <tag k="addr:city" v="Salisbury"/>
    <tag k="addr:housenumber" v="1883"/>
    <tag k="addr:street" v="Lake Dunmore Road"/>
    <tag k="addr:state" v="VT"/>
    <tag k="ref:vcgi:esiteid" v="216335"/>
  </node>
  <node id="-258" visible="true" lat="43.92529482" lon="-73.07972377">
    <tag k="addr:city" v="Salisbury"/>
    <tag k="addr:housenumber" v="1945"/>
    <tag k="addr:street" v="Lake Dunmore Road"/>
    <tag k="addr:state" v="VT"/>
    <tag k="ref:vcgi:esiteid" v="216336"/>
  </node>
  <node id="-259" visible="true" lat="43.92521837" lon="-73.08180055">
    <tag k="addr:city" v="Salisbury"/>
    <tag k="addr:housenumber" v="1847"/>
    <tag k="addr:street" v="Lake Dunmore Road"/>
    <tag k="addr:state" v="VT"/>
    <tag k="ref:vcgi:esiteid" v="216337"/>
  </node>
  <node id="-260" visible="true" lat="43.92526717" lon="-73.07953989">
    <tag k="addr:city" v="Salisbury"/>
    <tag k="addr:housenumber" v="1957"/>
    <tag k="addr:street" v="Lake Dunmore Road"/>
    <tag k="addr:state" v="VT"/>
    <tag k="ref:vcgi:esiteid" v="216338"/>
  </node>
  <node id="-267" visible="true" lat="43.92502283" lon="-73.07875609">
    <tag k="addr:city" v="Salisbury"/>
    <tag k="addr:housenumber" v="1999"/>
    <tag k="addr:street" v="Lake Dunmore Road"/>
    <tag k="addr:state" v="VT"/>
    <tag k="ref:vcgi:esiteid" v="216345"/>
  </node>
  <node id="-270" visible="true" lat="43.92511369" lon="-73.08212697">
    <tag k="addr:city" v="Salisbury"/>
    <tag k="addr:housenumber" v="1831"/>
    <tag k="addr:street" v="Lake Dunmore Road"/>
    <tag k="addr:state" v="VT"/>
    <tag k="ref:vcgi:esiteid" v="216348"/>
  </node>
  <node id="-273" visible="true" lat="43.92511221" lon="-73.10126451">
    <tag k="addr:city" v="Salisbury"/>
    <tag k="addr:housenumber" v="130"/>
    <tag k="addr:street" v="Smead Road"/>
    <tag k="addr:state" v="VT"/>
    <tag k="ref:vcgi:esiteid" v="216351"/>
  </node>
  <node id="-275" visible="true" lat="43.92476552" lon="-73.07980297">
    <tag k="addr:city" v="Salisbury"/>
    <tag k="addr:housenumber" v="1958"/>
    <tag k="addr:street" v="Lake Dunmore Road"/>
    <tag k="addr:state" v="VT"/>
    <tag k="ref:vcgi:esiteid" v="216353"/>
  </node>
  <node id="-276" visible="true" lat="43.92483153" lon="-73.08288191">
    <tag k="addr:city" v="Salisbury"/>
    <tag k="addr:housenumber" v="1825"/>
    <tag k="addr:street" v="Lake Dunmore Road"/>
    <tag k="addr:state" v="VT"/>
    <tag k="ref:vcgi:esiteid" v="216354"/>
  </node>
  <node id="-282" visible="true" lat="43.92412419" lon="-73.15057085">
    <tag k="addr:city" v="Salisbury"/>
    <tag k="addr:housenumber" v="98"/>
    <tag k="addr:street" v="Shard Villa Road"/>
    <tag k="addr:state" v="VT"/>
    <tag k="ref:vcgi:esiteid" v="216360"/>
  </node>
  <node id="-285" visible="true" lat="43.92455107" lon="-73.09648831">
    <tag k="addr:city" v="Salisbury"/>
    <tag k="addr:housenumber" v="786"/>
    <tag k="addr:street" v="Lake Dunmore Road"/>
    <tag k="addr:state" v="VT"/>
    <tag k="ref:vcgi:esiteid" v="216363"/>
  </node>
  <node id="-290" visible="true" lat="43.92393138" lon="-73.15051571">
    <tag k="addr:city" v="Salisbury"/>
    <tag k="addr:housenumber" v="80"/>
    <tag k="addr:street" v="Shard Villa Road"/>
    <tag k="addr:state" v="VT"/>
    <tag k="ref:vcgi:esiteid" v="216368"/>
  </node>
  <node id="-292" visible="true" lat="43.92414463" lon="-73.12982625">
    <tag k="addr:city" v="Salisbury"/>
    <tag k="addr:housenumber" v="156"/>
    <tag k="addr:street" v="Middle Road"/>
    <tag k="addr:state" v="VT"/>
    <tag k="ref:vcgi:esiteid" v="216370"/>
  </node>
  <node id="-300" visible="true" lat="43.92409933" lon="-73.10017385">
    <tag k="addr:city" v="Salisbury"/>
    <tag k="addr:housenumber" v="47"/>
    <tag k="addr:street" v="Sullivan Drive"/>
    <tag k="addr:state" v="VT"/>
    <tag k="ref:vcgi:esiteid" v="216378"/>
  </node>
  <node id="-301" visible="true" lat="43.92392418" lon="-73.13875668">
    <tag k="addr:city" v="Salisbury"/>
    <tag k="addr:housenumber" v="2350"/>
    <tag k="addr:street" v="West Salisbury Road"/>
    <tag k="addr:state" v="VT"/>
    <tag k="ref:vcgi:esiteid" v="216379"/>
  </node>
  <node id="-311" visible="true" lat="43.92323831" lon="-73.13080666">
    <tag k="addr:city" v="Salisbury"/>
    <tag k="addr:housenumber" v="137"/>
    <tag k="addr:street" v="Middle Road"/>
    <tag k="addr:state" v="VT"/>
    <tag k="ref:vcgi:esiteid" v="216389"/>
  </node>
  <node id="-316" visible="true" lat="43.9232881" lon="-73.07665748">
    <tag k="addr:city" v="Salisbury"/>
    <tag k="addr:housenumber" v="56"/>
    <tag k="addr:street" v="Nutmeg Lane"/>
    <tag k="addr:state" v="VT"/>
    <tag k="ref:vcgi:esiteid" v="216394"/>
  </node>
  <node id="-323" visible="true" lat="43.92283103" lon="-73.13550337">
    <tag k="addr:city" v="Salisbury"/>
    <tag k="addr:housenumber" v="2156"/>
    <tag k="addr:street" v="West Salisbury Road"/>
    <tag k="addr:state" v="VT"/>
    <tag k="ref:vcgi:esiteid" v="216401"/>
  </node>
  <node id="-324" visible="true" lat="43.92279563" lon="-73.10007519">
    <tag k="addr:city" v="Salisbury"/>
    <tag k="addr:housenumber" v="77"/>
    <tag k="addr:street" v="Sullivan Drive"/>
    <tag k="addr:state" v="VT"/>
    <tag k="ref:vcgi:esiteid" v="216402"/>
  </node>
  <node id="-325" visible="true" lat="43.92292172" lon="-73.10166257">
    <tag k="addr:city" v="Salisbury"/>
    <tag k="addr:housenumber" v="274"/>
    <tag k="addr:street" v="Smead Road"/>
    <tag k="addr:state" v="VT"/>
    <tag k="ref:vcgi:esiteid" v="216403"/>
  </node>
  <node id="-326" visible="true" lat="43.92267435" lon="-73.13451242">
    <tag k="addr:city" v="Salisbury"/>
    <tag k="addr:housenumber" v="2150"/>
    <tag k="addr:street" v="West Salisbury Road"/>
    <tag k="addr:state" v="VT"/>
    <tag k="ref:vcgi:esiteid" v="216404"/>
  </node>
  <node id="-327" visible="true" lat="43.92287469" lon="-73.10591059">
    <tag k="addr:city" v="Salisbury"/>
    <tag k="addr:housenumber" v="200"/>
    <tag k="addr:street" v="Smead Road"/>
    <tag k="addr:state" v="VT"/>
    <tag k="ref:vcgi:esiteid" v="216405"/>
  </node>
  <node id="-329" visible="true" lat="43.92280171" lon="-73.08103381">
    <tag k="addr:city" v="Salisbury"/>
    <tag k="addr:housenumber" v="1672"/>
    <tag k="addr:street" v="Lake Dunmore Road"/>
    <tag k="addr:state" v="VT"/>
    <tag k="ref:vcgi:esiteid" v="216407"/>
  </node>
  <node id="-332" visible="true" lat="43.92236887" lon="-73.10043421">
    <tag k="addr:city" v="Salisbury"/>
    <tag k="addr:housenumber" v="303"/>
    <tag k="addr:street" v="Smead Road"/>
    <tag k="addr:state" v="VT"/>
    <tag k="ref:vcgi:esiteid" v="216410"/>
  </node>
  <node id="-335" visible="true" lat="43.9224472" lon="-73.07974243">
    <tag k="addr:city" v="Salisbury"/>
    <tag k="addr:housenumber" v="160"/>
    <tag k="addr:street" v="Pine Lane"/>
    <tag k="addr:state" v="VT"/>
    <tag k="ref:vcgi:esiteid" v="216413"/>
  </node>
  <node id="-336" visible="true" lat="43.92241287" lon="-73.08110809">
    <tag k="addr:city" v="Salisbury"/>
    <tag k="addr:housenumber" v="1646"/>
    <tag k="addr:street" v="Lake Dunmore Road"/>
    <tag k="addr:state" v="VT"/>
    <tag k="ref:vcgi:esiteid" v="216414"/>
  </node>
  <node id="-338" visible="true" lat="43.92258279" lon="-73.08826406">
    <tag k="addr:city" v="Salisbury"/>
    <tag k="addr:housenumber" v="87"/>
    <tag k="addr:street" v="Upper Plains Road"/>
    <tag k="addr:state" v="VT"/>
    <tag k="ref:vcgi:esiteid" v="216416"/>
  </node>
  <node id="-346" visible="true" lat="43.92196837" lon="-73.08263259">
    <tag k="addr:city" v="Salisbury"/>
    <tag k="addr:housenumber" v="1635"/>
    <tag k="addr:street" v="Lake Dunmore Road"/>
    <tag k="addr:state" v="VT"/>
    <tag k="ref:vcgi:esiteid" v="216424"/>
  </node>
  <node id="-352" visible="true" lat="43.92204801" lon="-73.09126222">
    <tag k="addr:city" v="Salisbury"/>
    <tag k="addr:housenumber" v="1108"/>
    <tag k="addr:street" v="Lake Dunmore Road"/>
    <tag k="addr:state" v="VT"/>
    <tag k="ref:vcgi:esiteid" v="216430"/>
  </node>
  <node id="-354" visible="true" lat="43.92172844" lon="-73.1416154">
    <tag k="addr:city" v="Salisbury"/>
    <tag k="addr:housenumber" v="2513"/>
    <tag k="addr:street" v="West Salisbury Road"/>
    <tag k="addr:state" v="VT"/>
    <tag k="ref:vcgi:esiteid" v="216433"/>
  </node>
  <node id="-357" visible="true" lat="43.92173607" lon="-73.08246117">
    <tag k="addr:city" v="Salisbury"/>
    <tag k="addr:housenumber" v="1611"/>
    <tag k="addr:street" v="Lake Dunmore Road"/>
    <tag k="addr:state" v="VT"/>
    <tag k="ref:vcgi:esiteid" v="216436"/>
  </node>
  <node id="-366" visible="true" lat="43.92148147" lon="-73.07938398">
    <tag k="addr:city" v="Salisbury"/>
    <tag k="addr:housenumber" v="8"/>
    <tag k="addr:street" v="Moosalamoo Club Road"/>
    <tag k="addr:state" v="VT"/>
    <tag k="ref:vcgi:esiteid" v="216447"/>
  </node>
  <node id="-367" visible="true" lat="43.92127216" lon="-73.14052446">
    <tag k="addr:city" v="Salisbury"/>
    <tag k="addr:housenumber" v="2321"/>
    <tag k="addr:street" v="West Salisbury Road"/>
    <tag k="addr:state" v="VT"/>
    <tag k="ref:vcgi:esiteid" v="216448"/>
  </node>
  <node id="-372" visible="true" lat="43.92129866" lon="-73.08179848">
    <tag k="addr:city" v="Salisbury"/>
    <tag k="addr:housenumber" v="1588"/>
    <tag k="addr:street" v="Lake Dunmore Road"/>
    <tag k="addr:state" v="VT"/>
    <tag k="ref:vcgi:esiteid" v="216453"/>
  </node>
  <node id="-377" visible="true" lat="43.92126989" lon="-73.08132453">
    <tag k="addr:city" v="Salisbury"/>
    <tag k="addr:housenumber" v="67"/>
    <tag k="addr:street" v="Quiet Lane"/>
    <tag k="addr:state" v="VT"/>
    <tag k="ref:vcgi:esiteid" v="216458"/>
  </node>
  <node id="-378" visible="true" lat="43.92129898" lon="-73.08119201">
    <tag k="addr:city" v="Salisbury"/>
    <tag k="addr:housenumber" v="69"/>
    <tag k="addr:street" v="Quiet Lane"/>
    <tag k="addr:state" v="VT"/>
    <tag k="ref:vcgi:esiteid" v="216459"/>
  </node>
  <node id="-379" visible="true" lat="43.92125984" lon="-73.08349952">
    <tag k="addr:city" v="Salisbury"/>
    <tag k="addr:housenumber" v="1511"/>
    <tag k="addr:street" v="Lake Dunmore Road"/>
    <tag k="addr:state" v="VT"/>
    <tag k="ref:vcgi:esiteid" v="216460"/>
  </node>
  <node id="-380" visible="true" lat="43.92088162" lon="-73.13357379">
    <tag k="addr:city" v="Salisbury"/>
    <tag k="addr:housenumber" v="2051"/>
    <tag k="addr:street" v="West Salisbury Road"/>
    <tag k="addr:state" v="VT"/>
    <tag k="ref:vcgi:esiteid" v="216461"/>
  </node>
  <node id="-381" visible="true" lat="43.92098178" lon="-73.13656222">
    <tag k="addr:city" v="Salisbury"/>
    <tag k="addr:housenumber" v="2219"/>
    <tag k="addr:street" v="West Salisbury Road"/>
    <tag k="addr:state" v="VT"/>
    <tag k="ref:vcgi:esiteid" v="216462"/>
  </node>
  <node id="-388" visible="true" lat="43.92073298" lon="-73.10185875">
    <tag k="addr:city" v="Salisbury"/>
    <tag k="addr:housenumber" v="402"/>
    <tag k="addr:street" v="Smead Road"/>
    <tag k="addr:state" v="VT"/>
    <tag k="ref:vcgi:esiteid" v="216469"/>
  </node>
  <node id="-390" visible="true" lat="43.92059199" lon="-73.08662255">
    <tag k="addr:city" v="Salisbury"/>
    <tag k="addr:housenumber" v="7"/>
    <tag k="addr:street" v="Upper Plains Road"/>
    <tag k="addr:state" v="VT"/>
    <tag k="ref:vcgi:esiteid" v="216471"/>
  </node>
  <node id="-392" visible="true" lat="43.92065219" lon="-73.08837425">
    <tag k="addr:city" v="Salisbury"/>
    <tag k="addr:housenumber" v="1304"/>
    <tag k="addr:street" v="Lake Dunmore Road"/>
    <tag k="addr:state" v="VT"/>
    <tag k="ref:vcgi:esiteid" v="216473"/>
  </node>
  <node id="-398" visible="true" lat="43.91978053" lon="-73.15897995">
    <tag k="addr:city" v="Salisbury"/>
    <tag k="addr:housenumber" v="3536"/>
    <tag k="addr:street" v="West Salisbury Road"/>
    <tag k="addr:state" v="VT"/>
    <tag k="ref:vcgi:esiteid" v="216479"/>
  </node>
  <node id="-400" visible="true" lat="43.92002742" lon="-73.09991193">
    <tag k="addr:city" v="Salisbury"/>
    <tag k="addr:housenumber" v="463"/>
    <tag k="addr:street" v="Smead Road"/>
    <tag k="addr:state" v="VT"/>
    <tag k="ref:vcgi:esiteid" v="216481"/>
  </node>
  <node id="-401" visible="true" lat="43.92000961" lon="-73.07113647">
    <tag k="addr:city" v="Salisbury"/>
    <tag k="addr:housenumber" v="2536"/>
    <tag k="addr:street" v="Lake Dunmore Road"/>
    <tag k="addr:state" v="VT"/>
    <tag k="ref:vcgi:esiteid" v="216482"/>
  </node>
  <node id="-402" visible="true" lat="43.91964704" lon="-73.11796669">
    <tag k="addr:city" v="Salisbury"/>
    <tag k="addr:housenumber" v="286"/>
    <tag k="addr:street" v="Kelley Cross Road"/>
    <tag k="addr:state" v="VT"/>
    <tag k="ref:vcgi:esiteid" v="216483"/>
  </node>
  <node id="-405" visible="true" lat="43.919085" lon="-73.15871803">
    <tag k="addr:city" v="Salisbury"/>
    <tag k="addr:housenumber" v="3557"/>
    <tag k="addr:street" v="West Salisbury Road"/>
    <tag k="addr:state" v="VT"/>
    <tag k="ref:vcgi:esiteid" v="216486"/>
  </node>
  <node id="-407" visible="true" lat="43.9189111" lon="-73.16277855">
    <tag k="addr:city" v="Salisbury"/>
    <tag k="addr:housenumber" v="134"/>
    <tag k="addr:street" v="Creek Road"/>
    <tag k="addr:state" v="VT"/>
    <tag k="ref:vcgi:esiteid" v="216488"/>
  </node>
  <node id="-408" visible="true" lat="43.92008013" lon="-73.10184574">
    <tag k="addr:city" v="Salisbury"/>
    <tag k="addr:housenumber" v="512"/>
    <tag k="addr:street" v="Smead Road"/>
    <tag k="addr:state" v="VT"/>
    <tag k="ref:vcgi:esiteid" v="216489"/>
  </node>
  <node id="-414" visible="true" lat="43.91911691" lon="-73.09754831">
    <tag k="addr:city" v="Salisbury"/>
    <tag k="addr:housenumber" v="571"/>
    <tag k="addr:street" v="Smead Road"/>
    <tag k="addr:state" v="VT"/>
    <tag k="ref:vcgi:esiteid" v="216495"/>
  </node>
  <node id="-417" visible="true" lat="43.91851982" lon="-73.16198581">
    <tag k="addr:city" v="Salisbury"/>
    <tag k="addr:housenumber" v="84"/>
    <tag k="addr:street" v="Creek Road"/>
    <tag k="addr:state" v="VT"/>
    <tag k="ref:vcgi:esiteid" v="216498"/>
  </node>
  <node id="-418" visible="true" lat="43.91837396" lon="-73.16086532">
    <tag k="addr:city" v="Salisbury"/>
    <tag k="addr:housenumber" v="34"/>
    <tag k="addr:street" v="Creek Road"/>
    <tag k="addr:state" v="VT"/>
    <tag k="ref:vcgi:esiteid" v="216499"/>
  </node>
  <node id="-419" visible="true" lat="43.91839593" lon="-73.16116403">
    <tag k="addr:city" v="Salisbury"/>
    <tag k="addr:housenumber" v="48"/>
    <tag k="addr:street" v="Creek Road"/>
    <tag k="addr:state" v="VT"/>
    <tag k="ref:vcgi:esiteid" v="216500"/>
  </node>
  <node id="-420" visible="true" lat="43.91844326" lon="-73.16156865">
    <tag k="addr:city" v="Salisbury"/>
    <tag k="addr:housenumber" v="72"/>
    <tag k="addr:street" v="Creek Road"/>
    <tag k="addr:state" v="VT"/>
    <tag k="ref:vcgi:esiteid" v="216501"/>
  </node>
  <node id="-421" visible="true" lat="43.9188974" lon="-73.07050801">
    <tag k="addr:city" v="Salisbury"/>
    <tag k="addr:housenumber" v="30"/>
    <tag k="addr:street" v="Misty Lane"/>
    <tag k="addr:state" v="VT"/>
    <tag k="ref:vcgi:esiteid" v="216502"/>
  </node>
  <node id="-423" visible="true" lat="43.91865269" lon="-73.1218987">
    <tag k="addr:city" v="Salisbury"/>
    <tag k="addr:housenumber" v="442"/>
    <tag k="addr:street" v="Kelley Cross Road"/>
    <tag k="addr:state" v="VT"/>
    <tag k="ref:vcgi:esiteid" v="216504"/>
  </node>
  <node id="-425" visible="true" lat="43.91861693" lon="-73.10479985">
    <tag k="addr:city" v="Salisbury"/>
    <tag k="addr:housenumber" v="766"/>
    <tag k="addr:street" v="Smead Road"/>
    <tag k="addr:state" v="VT"/>
    <tag k="ref:vcgi:esiteid" v="216506"/>
  </node>
  <node id="-426" visible="true" lat="43.91835606" lon="-73.11883979">
    <tag k="addr:city" v="Salisbury"/>
    <tag k="addr:housenumber" v="307"/>
    <tag k="addr:street" v="Kelley Cross Road"/>
    <tag k="addr:state" v="VT"/>
    <tag k="ref:vcgi:esiteid" v="216507"/>
  </node>
  <node id="-427" visible="true" lat="43.91852701" lon="-73.07071623">
    <tag k="addr:city" v="Salisbury"/>
    <tag k="addr:housenumber" v="46"/>
    <tag k="addr:street" v="Misty Lane"/>
    <tag k="addr:state" v="VT"/>
    <tag k="ref:vcgi:esiteid" v="216508"/>
  </node>
  <node id="-430" visible="true" lat="43.91816588" lon="-73.12000868">
    <tag k="addr:city" v="Salisbury"/>
    <tag k="addr:housenumber" v="361"/>
    <tag k="addr:street" v="Kelley Cross Road"/>
    <tag k="addr:state" v="VT"/>
    <tag k="ref:vcgi:esiteid" v="216511"/>
  </node>
  <node id="-431" visible="true" lat="43.91813232" lon="-73.11709128">
    <tag k="addr:city" v="Salisbury"/>
    <tag k="addr:housenumber" v="137"/>
    <tag k="addr:street" v="Kelley Cross Road"/>
    <tag k="addr:state" v="VT"/>
    <tag k="ref:vcgi:esiteid" v="216512"/>
  </node>
  <node id="-433" visible="true" lat="43.91810427" lon="-73.12536274">
    <tag k="addr:city" v="Salisbury"/>
    <tag k="addr:housenumber" v="592"/>
    <tag k="addr:street" v="Kelley Cross Road"/>
    <tag k="addr:state" v="VT"/>
    <tag k="ref:vcgi:esiteid" v="216514"/>
  </node>
  <node id="-434" visible="true" lat="43.91794692" lon="-73.12129786">
    <tag k="addr:city" v="Salisbury"/>
    <tag k="addr:housenumber" v="417"/>
    <tag k="addr:street" v="Kelley Cross Road"/>
    <tag k="addr:state" v="VT"/>
    <tag k="ref:vcgi:esiteid" v="216515"/>
  </node>
  <node id="-436" visible="true" lat="43.91795917" lon="-73.1262441">
    <tag k="addr:city" v="Salisbury"/>
    <tag k="addr:housenumber" v="1563"/>
    <tag k="addr:street" v="West Salisbury Road"/>
    <tag k="addr:state" v="VT"/>
    <tag k="ref:vcgi:esiteid" v="216517"/>
  </node>
  <node id="-439" visible="true" lat="43.91798726" lon="-73.10076743">
    <tag k="addr:city" v="Salisbury"/>
    <tag k="addr:housenumber" v="617"/>
    <tag k="addr:street" v="Smead Road"/>
    <tag k="addr:state" v="VT"/>
    <tag k="ref:vcgi:esiteid" v="216520"/>
  </node>
  <node id="-440" visible="true" lat="43.91765792" lon="-73.06940176">
    <tag k="addr:city" v="Salisbury"/>
    <tag k="addr:housenumber" v="2709"/>
    <tag k="addr:street" v="Lake Dunmore Road"/>
    <tag k="addr:state" v="VT"/>
    <tag k="ref:vcgi:esiteid" v="216521"/>
  </node>
  <node id="-441" visible="true" lat="43.91753061" lon="-73.16090395">
    <tag k="addr:city" v="Salisbury"/>
    <tag k="addr:housenumber" v="70"/>
    <tag k="addr:street" v="Dewey Road"/>
    <tag k="addr:state" v="VT"/>
    <tag k="ref:vcgi:esiteid" v="216522"/>
  </node>
  <node id="-442" visible="true" lat="43.91772721" lon="-73.06908031">
    <tag k="addr:city" v="Salisbury"/>
    <tag k="addr:housenumber" v="2727"/>
    <tag k="addr:street" v="Lake Dunmore Road"/>
    <tag k="addr:state" v="VT"/>
    <tag k="ref:vcgi:esiteid" v="216523"/>
  </node>
  <node id="-443" visible="true" lat="43.91752067" lon="-73.10128877">
    <tag k="addr:city" v="Salisbury"/>
    <tag k="addr:housenumber" v="642"/>
    <tag k="addr:street" v="Smead Road"/>
    <tag k="addr:state" v="VT"/>
    <tag k="ref:vcgi:esiteid" v="216524"/>
  </node>
  <node id="-444" visible="true" lat="43.91763945" lon="-73.09578684">
    <tag k="addr:city" v="Salisbury"/>
    <tag k="addr:housenumber" v="278"/>
    <tag k="addr:street" v="Sunset Drive"/>
    <tag k="addr:state" v="VT"/>
    <tag k="ref:vcgi:esiteid" v="216525"/>
  </node>
  <node id="-446" visible="true" lat="43.91739691" lon="-73.12552907">
    <tag k="addr:city" v="Salisbury"/>
    <tag k="addr:housenumber" v="1501"/>
    <tag k="addr:street" v="West Salisbury Road"/>
    <tag k="addr:state" v="VT"/>
    <tag k="ref:vcgi:esiteid" v="216527"/>
  </node>
  <node id="-448" visible="true" lat="43.91685246" lon="-73.16047127">
    <tag k="addr:city" v="Salisbury"/>
    <tag k="addr:housenumber" v="109"/>
    <tag k="addr:street" v="Dewey Road"/>
    <tag k="addr:state" v="VT"/>
    <tag k="ref:vcgi:esiteid" v="216529"/>
  </node>
  <node id="-451" visible="true" lat="43.91677711" lon="-73.12372323">
    <tag k="addr:city" v="Salisbury"/>
    <tag k="addr:housenumber" v="1426"/>
    <tag k="addr:street" v="West Salisbury Road"/>
    <tag k="addr:state" v="VT"/>
    <tag k="ref:vcgi:esiteid" v="216532"/>
  </node>
  <node id="-452" visible="true" lat="43.91671165" lon="-73.1249091">
    <tag k="addr:city" v="Salisbury"/>
    <tag k="addr:housenumber" v="1447"/>
    <tag k="addr:street" v="West Salisbury Road"/>
    <tag k="addr:state" v="VT"/>
    <tag k="ref:vcgi:esiteid" v="216533"/>
  </node>
  <node id="-454" visible="true" lat="43.91678965" lon="-73.06840761">
    <tag k="addr:city" v="Salisbury"/>
    <tag k="addr:housenumber" v="2791"/>
    <tag k="addr:street" v="Lake Dunmore Road"/>
    <tag k="addr:state" v="VT"/>
    <tag k="ref:vcgi:esiteid" v="216535"/>
  </node>
  <node id="-455" visible="true" lat="43.9166074" lon="-73.08107722">
    <tag k="addr:city" v="Salisbury"/>
    <tag k="addr:housenumber" v="461"/>
    <tag k="addr:street" v="Rustic Lane"/>
    <tag k="addr:state" v="VT"/>
    <tag k="ref:vcgi:esiteid" v="216536"/>
  </node>
  <node id="-457" visible="true" lat="43.91671003" lon="-73.08978573">
    <tag k="addr:city" v="Salisbury"/>
    <tag k="addr:housenumber" v="537"/>
    <tag k="addr:street" v="Sunset Drive"/>
    <tag k="addr:state" v="VT"/>
    <tag k="ref:vcgi:esiteid" v="216538"/>
  </node>
  <node id="-459" visible="true" lat="43.91669614" lon="-73.08224893">
    <tag k="addr:city" v="Salisbury"/>
    <tag k="addr:housenumber" v="500"/>
    <tag k="addr:street" v="Rustic Lane"/>
    <tag k="addr:state" v="VT"/>
    <tag k="ref:vcgi:esiteid" v="216540"/>
  </node>
  <node id="-460" visible="true" lat="43.91681018" lon="-73.09292464">
    <tag k="addr:city" v="Salisbury"/>
    <tag k="addr:housenumber" v="663"/>
    <tag k="addr:street" v="Sunset Drive"/>
    <tag k="addr:state" v="VT"/>
    <tag k="ref:vcgi:esiteid" v="216541"/>
  </node>
  <node id="-462" visible="true" lat="43.91640287" lon="-73.10121877">
    <tag k="addr:city" v="Salisbury"/>
    <tag k="addr:housenumber" v="713"/>
    <tag k="addr:street" v="Smead Road"/>
    <tag k="addr:state" v="VT"/>
    <tag k="ref:vcgi:esiteid" v="216543"/>
  </node>
  <node id="-467" visible="true" lat="43.91605227" lon="-73.12390118">
    <tag k="addr:city" v="Salisbury"/>
    <tag k="addr:housenumber" v="1377"/>
    <tag k="addr:street" v="West Salisbury Road"/>
    <tag k="addr:state" v="VT"/>
    <tag k="ref:vcgi:esiteid" v="216548"/>
  </node>
  <node id="-469" visible="true" lat="43.91633797" lon="-73.06818038">
    <tag k="addr:city" v="Salisbury"/>
    <tag k="addr:housenumber" v="64"/>
    <tag k="addr:street" v="Lake View Drive"/>
    <tag k="addr:state" v="VT"/>
    <tag k="ref:vcgi:esiteid" v="216550"/>
  </node>
  <node id="-470" visible="true" lat="43.91562752" lon="-73.10153772">
    <tag k="addr:city" v="Salisbury"/>
    <tag k="addr:housenumber" v="765"/>
    <tag k="addr:street" v="Smead Road"/>
    <tag k="addr:state" v="VT"/>
    <tag k="ref:vcgi:esiteid" v="216551"/>
  </node>
  <node id="-471" visible="true" lat="43.91595023" lon="-73.06823599">
    <tag k="addr:city" v="Salisbury"/>
    <tag k="addr:housenumber" v="31"/>
    <tag k="addr:street" v="Lake View Drive"/>
    <tag k="addr:state" v="VT"/>
    <tag k="ref:vcgi:esiteid" v="216552"/>
  </node>
  <node id="-472" visible="true" lat="43.91503241" lon="-73.16053887">
    <tag k="addr:city" v="Salisbury"/>
    <tag k="addr:housenumber" v="213"/>
    <tag k="addr:street" v="Dewey Road"/>
    <tag k="addr:state" v="VT"/>
    <tag k="ref:vcgi:esiteid" v="216554"/>
  </node>
  <node id="-473" visible="true" lat="43.91575241" lon="-73.06838989">
    <tag k="addr:city" v="Salisbury"/>
    <tag k="addr:housenumber" v="30"/>
    <tag k="addr:street" v="Lake View Drive"/>
    <tag k="addr:state" v="VT"/>
    <tag k="ref:vcgi:esiteid" v="216555"/>
  </node>
  <node id="-482" visible="true" lat="43.91506497" lon="-73.08588622">
    <tag k="addr:city" v="Salisbury"/>
    <tag k="addr:housenumber" v="369"/>
    <tag k="addr:street" v="West Shore Road"/>
    <tag k="addr:state" v="VT"/>
    <tag k="ref:vcgi:esiteid" v="216564"/>
  </node>
  <node id="-487" visible="true" lat="43.91475492" lon="-73.12199657">
    <tag k="addr:city" v="Salisbury"/>
    <tag k="addr:housenumber" v="1256"/>
    <tag k="addr:street" v="West Salisbury Road"/>
    <tag k="addr:state" v="VT"/>
    <tag k="ref:vcgi:esiteid" v="216569"/>
  </node>
  <node id="-497" visible="true" lat="43.91441345" lon="-73.06841277">
    <tag k="addr:city" v="Salisbury"/>
    <tag k="addr:housenumber" v="2958"/>
    <tag k="addr:street" v="Lake Dunmore Road"/>
    <tag k="addr:state" v="VT"/>
    <tag k="ref:vcgi:esiteid" v="216579"/>
  </node>
  <node id="-498" visible="true" lat="43.91442133" lon="-73.10191822">
    <tag k="addr:city" v="Salisbury"/>
    <tag k="addr:housenumber" v="875"/>
    <tag k="addr:street" v="Smead Road"/>
    <tag k="addr:state" v="VT"/>
    <tag k="ref:vcgi:esiteid" v="216580"/>
  </node>
  <node id="-501" visible="true" lat="43.913985" lon="-73.13808024">
    <tag k="addr:city" v="Salisbury"/>
    <tag k="addr:housenumber" v="896"/>
    <tag k="addr:street" v="Morgan Road"/>
    <tag k="addr:state" v="VT"/>
    <tag k="ref:vcgi:esiteid" v="216583"/>
  </node>
  <node id="-503" visible="true" lat="43.9140892" lon="-73.06768798">
    <tag k="addr:city" v="Salisbury"/>
    <tag k="addr:housenumber" v="2997"/>
    <tag k="addr:street" v="Lake Dunmore Road"/>
    <tag k="addr:state" v="VT"/>
    <tag k="ref:vcgi:esiteid" v="216585"/>
  </node>
  <node id="-505" visible="true" lat="43.91399002" lon="-73.06765747">
    <tag k="addr:city" v="Salisbury"/>
    <tag k="addr:housenumber" v="3003"/>
    <tag k="addr:street" v="Lake Dunmore Road"/>
    <tag k="addr:state" v="VT"/>
    <tag k="ref:vcgi:esiteid" v="216587"/>
  </node>
  <node id="-508" visible="true" lat="43.9137782" lon="-73.12982311">
    <tag k="addr:city" v="Salisbury"/>
    <tag k="addr:housenumber" v="528"/>
    <tag k="addr:street" v="Morgan Road"/>
    <tag k="addr:state" v="VT"/>
    <tag k="ref:vcgi:esiteid" v="216590"/>
  </node>
  <node id="-510" visible="true" lat="43.91351956" lon="-73.0673615">
    <tag k="addr:city" v="Salisbury"/>
    <tag k="addr:housenumber" v="3031"/>
    <tag k="addr:street" v="Lake Dunmore Road"/>
    <tag k="addr:state" v="VT"/>
    <tag k="ref:vcgi:esiteid" v="216592"/>
  </node>
  <node id="-512" visible="true" lat="43.91324989" lon="-73.12113269">
    <tag k="addr:city" v="Salisbury"/>
    <tag k="addr:housenumber" v="1120"/>
    <tag k="addr:street" v="West Salisbury Road"/>
    <tag k="addr:state" v="VT"/>
    <tag k="ref:vcgi:esiteid" v="216594"/>
  </node>
  <node id="-514" visible="true" lat="43.91264646" lon="-73.08752424">
    <tag k="addr:city" v="Salisbury"/>
    <tag k="addr:housenumber" v="528"/>
    <tag k="addr:street" v="West Shore Road"/>
    <tag k="addr:state" v="VT"/>
    <tag k="ref:vcgi:esiteid" v="216596"/>
  </node>
  <node id="-515" visible="true" lat="43.91310906" lon="-73.10300968">
    <tag k="addr:city" v="Salisbury"/>
    <tag k="addr:housenumber" v="962"/>
    <tag k="addr:street" v="Smead Road"/>
    <tag k="addr:state" v="VT"/>
    <tag k="ref:vcgi:esiteid" v="216597"/>
  </node>
  <node id="-516" visible="true" lat="43.91255492" lon="-73.1346187">
    <tag k="addr:city" v="Salisbury"/>
    <tag k="addr:housenumber" v="704"/>
    <tag k="addr:street" v="Morgan Road"/>
    <tag k="addr:state" v="VT"/>
    <tag k="ref:vcgi:esiteid" v="216598"/>
  </node>
  <node id="-518" visible="true" lat="43.91242934" lon="-73.13475652">
    <tag k="addr:city" v="Salisbury"/>
    <tag k="addr:housenumber" v="712"/>
    <tag k="addr:street" v="Morgan Road"/>
    <tag k="addr:state" v="VT"/>
    <tag k="ref:vcgi:esiteid" v="216600"/>
  </node>
  <node id="-520" visible="true" lat="43.91226524" lon="-73.1353614">
    <tag k="addr:city" v="Salisbury"/>
    <tag k="addr:housenumber" v="744"/>
    <tag k="addr:street" v="Morgan Road"/>
    <tag k="addr:state" v="VT"/>
    <tag k="ref:vcgi:esiteid" v="216602"/>
  </node>
  <node id="-521" visible="true" lat="43.91214938" lon="-73.10340921">
    <tag k="addr:city" v="Salisbury"/>
    <tag k="addr:housenumber" v="1010"/>
    <tag k="addr:street" v="Smead Road"/>
    <tag k="addr:state" v="VT"/>
    <tag k="ref:vcgi:esiteid" v="216603"/>
  </node>
  <node id="-523" visible="true" lat="43.91186368" lon="-73.13403982">
    <tag k="addr:city" v="Salisbury"/>
    <tag k="addr:housenumber" v="647"/>
    <tag k="addr:street" v="Morgan Road"/>
    <tag k="addr:state" v="VT"/>
    <tag k="ref:vcgi:esiteid" v="216605"/>
  </node>
  <node id="-524" visible="true" lat="43.91201975" lon="-73.10269606">
    <tag k="addr:city" v="Salisbury"/>
    <tag k="addr:housenumber" v="1041"/>
    <tag k="addr:street" v="Smead Road"/>
    <tag k="addr:state" v="VT"/>
    <tag k="ref:vcgi:esiteid" v="216606"/>
  </node>
  <node id="-525" visible="true" lat="43.91155983" lon="-73.13765305">
    <tag k="addr:city" v="Salisbury"/>
    <tag k="addr:housenumber" v="894"/>
    <tag k="addr:street" v="Morgan Road"/>
    <tag k="addr:state" v="VT"/>
    <tag k="ref:vcgi:esiteid" v="216607"/>
  </node>
  <node id="-526" visible="true" lat="43.9113092" lon="-73.16204214">
    <tag k="addr:city" v="Salisbury"/>
    <tag k="addr:housenumber" v="496"/>
    <tag k="addr:street" v="Dewey Road"/>
    <tag k="addr:state" v="VT"/>
    <tag k="ref:vcgi:esiteid" v="216608"/>
  </node>
  <node id="-527" visible="true" lat="43.91119297" lon="-73.1600684">
    <tag k="addr:city" v="Salisbury"/>
    <tag k="addr:housenumber" v="543"/>
    <tag k="addr:street" v="Dewey Road"/>
    <tag k="addr:state" v="VT"/>
    <tag k="ref:vcgi:esiteid" v="216609"/>
  </node>
  <node id="-529" visible="true" lat="43.91116714" lon="-73.11274719">
    <tag k="addr:city" v="Salisbury"/>
    <tag k="addr:housenumber" v="790"/>
    <tag k="addr:street" v="Holman Road"/>
    <tag k="addr:state" v="VT"/>
    <tag k="ref:vcgi:esiteid" v="216611"/>
  </node>
  <node id="-530" visible="true" lat="43.91066293" lon="-73.13702972">
    <tag k="addr:city" v="Salisbury"/>
    <tag k="addr:housenumber" v="859"/>
    <tag k="addr:street" v="Morgan Road"/>
    <tag k="addr:state" v="VT"/>
    <tag k="ref:vcgi:esiteid" v="216612"/>
  </node>
  <node id="-532" visible="true" lat="43.91066858" lon="-73.13643323">
    <tag k="addr:city" v="Salisbury"/>
    <tag k="addr:housenumber" v="855"/>
    <tag k="addr:street" v="Morgan Road"/>
    <tag k="addr:state" v="VT"/>
    <tag k="ref:vcgi:esiteid" v="216614"/>
  </node>
  <node id="-533" visible="true" lat="43.9103635" lon="-73.12497189">
    <tag k="addr:city" v="Salisbury"/>
    <tag k="addr:housenumber" v="199"/>
    <tag k="addr:street" v="Morgan Road"/>
    <tag k="addr:state" v="VT"/>
    <tag k="ref:vcgi:esiteid" v="216615"/>
  </node>
  <node id="-534" visible="true" lat="43.91096115" lon="-73.06652069">
    <tag k="addr:city" v="Salisbury"/>
    <tag k="addr:housenumber" v="3245"/>
    <tag k="addr:street" v="Lake Dunmore Road"/>
    <tag k="addr:state" v="VT"/>
    <tag k="ref:vcgi:esiteid" v="216616"/>
  </node>
  <node id="-535" visible="true" lat="43.91055679" lon="-73.13757324">
    <tag k="addr:city" v="Salisbury"/>
    <tag k="addr:housenumber" v="913"/>
    <tag k="addr:street" v="Morgan Road"/>
    <tag k="addr:state" v="VT"/>
    <tag k="ref:vcgi:esiteid" v="216617"/>
  </node>
  <node id="-537" visible="true" lat="43.9102551" lon="-73.1404506">
    <tag k="addr:city" v="Salisbury"/>
    <tag k="addr:housenumber" v="1036"/>
    <tag k="addr:street" v="Morgan Road"/>
    <tag k="addr:state" v="VT"/>
    <tag k="ref:vcgi:esiteid" v="216619"/>
  </node>
  <node id="-539" visible="true" lat="43.9109755" lon="-73.14859729">
    <tag k="addr:city" v="Salisbury"/>
    <tag k="addr:housenumber" v="907"/>
    <tag k="addr:street" v="Leland Road"/>
    <tag k="addr:state" v="VT"/>
    <tag k="ref:vcgi:esiteid" v="216621"/>
  </node>
  <node id="-541" visible="true" lat="43.91035834" lon="-73.16117476">
    <tag k="addr:city" v="Salisbury"/>
    <tag k="addr:housenumber" v="577"/>
    <tag k="addr:street" v="Dewey Road"/>
    <tag k="addr:state" v="VT"/>
    <tag k="ref:vcgi:esiteid" v="216623"/>
  </node>
  <node id="-546" visible="true" lat="43.9101311" lon="-73.14782725">
    <tag k="addr:city" v="Salisbury"/>
    <tag k="addr:housenumber" v="909"/>
    <tag k="addr:street" v="Leland Road"/>
    <tag k="addr:state" v="VT"/>
    <tag k="ref:vcgi:esiteid" v="216628"/>
  </node>
  <node id="-547" visible="true" lat="43.90985448" lon="-73.15069769">
    <tag k="addr:city" v="Salisbury"/>
    <tag k="addr:housenumber" v="896"/>
    <tag k="addr:street" v="Leland Road"/>
    <tag k="addr:state" v="VT"/>
    <tag k="ref:vcgi:esiteid" v="216629"/>
  </node>
  <node id="-549" visible="true" lat="43.91001857" lon="-73.11958846">
    <tag k="addr:city" v="Salisbury"/>
    <tag k="addr:housenumber" v="905"/>
    <tag k="addr:street" v="West Salisbury Road"/>
    <tag k="addr:state" v="VT"/>
    <tag k="ref:vcgi:esiteid" v="216631"/>
  </node>
  <node id="-551" visible="true" lat="43.9098061" lon="-73.1236657">
    <tag k="addr:city" v="Salisbury"/>
    <tag k="addr:housenumber" v="179"/>
    <tag k="addr:street" v="Morgan Road"/>
    <tag k="addr:state" v="VT"/>
    <tag k="ref:vcgi:esiteid" v="216633"/>
  </node>
  <node id="-553" visible="true" lat="43.90962639" lon="-73.12313336">
    <tag k="addr:city" v="Salisbury"/>
    <tag k="addr:housenumber" v="181"/>
    <tag k="addr:street" v="Morgan Road"/>
    <tag k="addr:state" v="VT"/>
    <tag k="ref:vcgi:esiteid" v="216635"/>
  </node>
  <node id="-554" visible="true" lat="43.91000684" lon="-73.06623636">
    <tag k="addr:city" v="Salisbury"/>
    <tag k="addr:housenumber" v="3287"/>
    <tag k="addr:street" v="Lake Dunmore Road"/>
    <tag k="addr:state" v="VT"/>
    <tag k="ref:vcgi:esiteid" v="216636"/>
  </node>
  <node id="-557" visible="true" lat="43.90937801" lon="-73.10158738">
    <tag k="addr:city" v="Salisbury"/>
    <tag k="addr:housenumber" v="1329"/>
    <tag k="addr:street" v="Smead Road"/>
    <tag k="addr:state" v="VT"/>
    <tag k="ref:vcgi:esiteid" v="216639"/>
  </node>
  <node id="-560" visible="true" lat="43.90885457" lon="-73.14138431">
    <tag k="addr:city" v="Salisbury"/>
    <tag k="addr:housenumber" v="1118"/>
    <tag k="addr:street" v="Morgan Road"/>
    <tag k="addr:state" v="VT"/>
    <tag k="ref:vcgi:esiteid" v="216642"/>
  </node>
  <node id="-564" visible="true" lat="43.90835179" lon="-73.16151245">
    <tag k="addr:city" v="Salisbury"/>
    <tag k="addr:housenumber" v="695"/>
    <tag k="addr:street" v="Dewey Road"/>
    <tag k="addr:state" v="VT"/>
    <tag k="ref:vcgi:esiteid" v="216646"/>
  </node>
  <node id="-566" visible="true" lat="43.90865314" lon="-73.1479402">
    <tag k="addr:city" v="Salisbury"/>
    <tag k="addr:housenumber" v="1091"/>
    <tag k="addr:street" v="Leland Road"/>
    <tag k="addr:state" v="VT"/>
    <tag k="ref:vcgi:esiteid" v="216648"/>
  </node>
  <node id="-569" visible="true" lat="43.90821259" lon="-73.08783455">
    <tag k="addr:city" v="Salisbury"/>
    <tag k="addr:housenumber" v="854"/>
    <tag k="addr:street" v="West Shore Road"/>
    <tag k="addr:state" v="VT"/>
    <tag k="ref:vcgi:esiteid" v="216651"/>
  </node>
  <node id="-571" visible="true" lat="43.90811644" lon="-73.10262152">
    <tag k="addr:city" v="Salisbury"/>
    <tag k="addr:housenumber" v="1365"/>
    <tag k="addr:street" v="Smead Road"/>
    <tag k="addr:state" v="VT"/>
    <tag k="ref:vcgi:esiteid" v="216653"/>
  </node>
  <node id="-572" visible="true" lat="43.90782223" lon="-73.14151248">
    <tag k="addr:city" v="Salisbury"/>
    <tag k="addr:housenumber" v="1176"/>
    <tag k="addr:street" v="Morgan Road"/>
    <tag k="addr:state" v="VT"/>
    <tag k="ref:vcgi:esiteid" v="216654"/>
  </node>
  <node id="-575" visible="true" lat="43.90802244" lon="-73.08708627">
    <tag k="addr:city" v="Salisbury"/>
    <tag k="addr:housenumber" v="22"/>
    <tag k="addr:street" v="Waterhouse Drive"/>
    <tag k="addr:state" v="VT"/>
    <tag k="ref:vcgi:esiteid" v="216658"/>
  </node>
  <node id="-576" visible="true" lat="43.90781685" lon="-73.14572337">
    <tag k="addr:city" v="Salisbury"/>
    <tag k="addr:housenumber" v="1093"/>
    <tag k="addr:street" v="Leland Road"/>
    <tag k="addr:state" v="VT"/>
    <tag k="ref:vcgi:esiteid" v="216659"/>
  </node>
  <node id="-578" visible="true" lat="43.90771534" lon="-73.08704268">
    <tag k="addr:city" v="Salisbury"/>
    <tag k="addr:housenumber" v="21"/>
    <tag k="addr:street" v="Waterhouse Drive"/>
    <tag k="addr:state" v="VT"/>
    <tag k="ref:vcgi:esiteid" v="216661"/>
  </node>
  <node id="-579" visible="true" lat="43.90784476" lon="-73.0660563">
    <tag k="addr:city" v="Salisbury"/>
    <tag k="addr:housenumber" v="3427"/>
    <tag k="addr:street" v="Lake Dunmore Road"/>
    <tag k="addr:state" v="VT"/>
    <tag k="ref:vcgi:esiteid" v="216662"/>
  </node>
  <node id="-580" visible="true" lat="43.90727924" lon="-73.16173778">
    <tag k="addr:city" v="Salisbury"/>
    <tag k="addr:housenumber" v="777"/>
    <tag k="addr:street" v="Dewey Road"/>
    <tag k="addr:state" v="VT"/>
    <tag k="ref:vcgi:esiteid" v="216663"/>
  </node>
  <node id="-582" visible="true" lat="43.90729456" lon="-73.15041277">
    <tag k="addr:city" v="Salisbury"/>
    <tag k="addr:housenumber" v="1098"/>
    <tag k="addr:street" v="Leland Road"/>
    <tag k="addr:state" v="VT"/>
    <tag k="ref:vcgi:esiteid" v="216665"/>
  </node>
  <node id="-586" visible="true" lat="43.90732877" lon="-73.10342897">
    <tag k="addr:city" v="Salisbury"/>
    <tag k="addr:housenumber" v="1412"/>
    <tag k="addr:street" v="Smead Road"/>
    <tag k="addr:state" v="VT"/>
    <tag k="ref:vcgi:esiteid" v="216669"/>
  </node>
  <node id="-587" visible="true" lat="43.90714462" lon="-73.08525146">
    <tag k="addr:city" v="Salisbury"/>
    <tag k="addr:housenumber" v="947"/>
    <tag k="addr:street" v="West Shore Road"/>
    <tag k="addr:state" v="VT"/>
    <tag k="ref:vcgi:esiteid" v="216670"/>
  </node>
  <node id="-592" visible="true" lat="43.90686857" lon="-73.14231068">
    <tag k="addr:city" v="Salisbury"/>
    <tag k="addr:housenumber" v="1260"/>
    <tag k="addr:street" v="Morgan Road"/>
    <tag k="addr:state" v="VT"/>
    <tag k="ref:vcgi:esiteid" v="216675"/>
  </node>
  <node id="-595" visible="true" lat="43.90676068" lon="-73.10249434">
    <tag k="addr:city" v="Salisbury"/>
    <tag k="addr:housenumber" v="1495"/>
    <tag k="addr:street" v="Smead Road"/>
    <tag k="addr:state" v="VT"/>
    <tag k="ref:vcgi:esiteid" v="216678"/>
  </node>
  <node id="-596" visible="true" lat="43.90650943" lon="-73.11703604">
    <tag k="addr:city" v="Salisbury"/>
    <tag k="addr:housenumber" v="647"/>
    <tag k="addr:street" v="West Salisbury Road"/>
    <tag k="addr:state" v="VT"/>
    <tag k="ref:vcgi:esiteid" v="216679"/>
  </node>
  <node id="-599" visible="true" lat="43.90638043" lon="-73.14884937">
    <tag k="addr:city" v="Salisbury"/>
    <tag k="addr:housenumber" v="1107"/>
    <tag k="addr:street" v="Leland Road"/>
    <tag k="addr:state" v="VT"/>
    <tag k="ref:vcgi:esiteid" v="216682"/>
  </node>
  <node id="-603" visible="true" lat="43.90659204" lon="-73.08382285">
    <tag k="addr:city" v="Salisbury"/>
    <tag k="addr:housenumber" v="87"/>
    <tag k="addr:street" v="Timber Lane"/>
    <tag k="addr:state" v="VT"/>
    <tag k="ref:vcgi:esiteid" v="216686"/>
  </node>
  <node id="-604" visible="true" lat="43.90626525" lon="-73.08744811">
    <tag k="addr:city" v="Salisbury"/>
    <tag k="addr:housenumber" v="992"/>
    <tag k="addr:street" v="West Shore Road"/>
    <tag k="addr:state" v="VT"/>
    <tag k="ref:vcgi:esiteid" v="216687"/>
  </node>
  <node id="-605" visible="true" lat="43.90621185" lon="-73.08390045">
    <tag k="addr:city" v="Salisbury"/>
    <tag k="addr:housenumber" v="83"/>
    <tag k="addr:street" v="Timber Lane"/>
    <tag k="addr:state" v="VT"/>
    <tag k="ref:vcgi:esiteid" v="216688"/>
  </node>
  <node id="-606" visible="true" lat="43.9063174" lon="-73.08373111">
    <tag k="addr:city" v="Salisbury"/>
    <tag k="addr:housenumber" v="85"/>
    <tag k="addr:street" v="Timber Lane"/>
    <tag k="addr:state" v="VT"/>
    <tag k="ref:vcgi:esiteid" v="216689"/>
  </node>
  <node id="-608" visible="true" lat="43.90561364" lon="-73.14409061">
    <tag k="addr:city" v="Salisbury"/>
    <tag k="addr:housenumber" v="1576"/>
    <tag k="addr:street" v="Morgan Road"/>
    <tag k="addr:state" v="VT"/>
    <tag k="ref:vcgi:esiteid" v="216691"/>
  </node>
  <node id="-609" visible="true" lat="43.90583996" lon="-73.1034597">
    <tag k="addr:city" v="Salisbury"/>
    <tag k="addr:housenumber" v="51"/>
    <tag k="addr:street" v="Crane View Drive"/>
    <tag k="addr:state" v="VT"/>
    <tag k="ref:vcgi:esiteid" v="216692"/>
  </node>
  <node id="-611" visible="true" lat="43.90611802" lon="-73.11536761">
    <tag k="addr:city" v="Salisbury"/>
    <tag k="addr:housenumber" v="536"/>
    <tag k="addr:street" v="West Salisbury Road"/>
    <tag k="addr:state" v="VT"/>
    <tag k="ref:vcgi:esiteid" v="216694"/>
  </node>
  <node id="-612" visible="true" lat="43.90559387" lon="-73.08335113">
    <tag k="addr:city" v="Salisbury"/>
    <tag k="addr:housenumber" v="161"/>
    <tag k="addr:street" v="Timber Lane"/>
    <tag k="addr:state" v="VT"/>
    <tag k="ref:vcgi:esiteid" v="216695"/>
  </node>
  <node id="-615" visible="true" lat="43.90564266" lon="-73.11419392">
    <tag k="addr:city" v="Salisbury"/>
    <tag k="addr:housenumber" v="510"/>
    <tag k="addr:street" v="West Salisbury Road"/>
    <tag k="addr:state" v="VT"/>
    <tag k="ref:vcgi:esiteid" v="216698"/>
  </node>
  <node id="-620" visible="true" lat="43.9054404" lon="-73.08203509">
    <tag k="addr:city" v="Salisbury"/>
    <tag k="addr:housenumber" v="273"/>
    <tag k="addr:street" v="Timber Lane"/>
    <tag k="addr:state" v="VT"/>
    <tag k="ref:vcgi:esiteid" v="216703"/>
  </node>
  <node id="-621" visible="true" lat="43.9051317" lon="-73.11463388">
    <tag k="addr:city" v="Salisbury"/>
    <tag k="addr:housenumber" v="498"/>
    <tag k="addr:street" v="West Salisbury Road"/>
    <tag k="addr:state" v="VT"/>
    <tag k="ref:vcgi:esiteid" v="216704"/>
  </node>
  <node id="-624" visible="true" lat="43.90466308" lon="-73.15019988">
    <tag k="addr:city" v="Salisbury"/>
    <tag k="addr:housenumber" v="1260"/>
    <tag k="addr:street" v="Leland Road"/>
    <tag k="addr:state" v="VT"/>
    <tag k="ref:vcgi:esiteid" v="216707"/>
  </node>
  <node id="-628" visible="true" lat="43.90425345" lon="-73.14953165">
    <tag k="addr:city" v="Salisbury"/>
    <tag k="addr:housenumber" v="1293"/>
    <tag k="addr:street" v="Leland Road"/>
    <tag k="addr:state" v="VT"/>
    <tag k="ref:vcgi:esiteid" v="216711"/>
  </node>
  <node id="-630" visible="true" lat="43.90479106" lon="-73.07989843">
    <tag k="addr:city" v="Salisbury"/>
    <tag k="addr:housenumber" v="381"/>
    <tag k="addr:street" v="Timber Lane"/>
    <tag k="addr:state" v="VT"/>
    <tag k="ref:vcgi:esiteid" v="216713"/>
  </node>
  <node id="-632" visible="true" lat="43.9045232" lon="-73.07989448">
    <tag k="addr:city" v="Salisbury"/>
    <tag k="addr:housenumber" v="379"/>
    <tag k="addr:street" v="Timber Lane"/>
    <tag k="addr:state" v="VT"/>
    <tag k="ref:vcgi:esiteid" v="216715"/>
  </node>
  <node id="-633" visible="true" lat="43.90436891" lon="-73.07995651">
    <tag k="addr:city" v="Salisbury"/>
    <tag k="addr:housenumber" v="382"/>
    <tag k="addr:street" v="Timber Lane"/>
    <tag k="addr:state" v="VT"/>
    <tag k="ref:vcgi:esiteid" v="216716"/>
  </node>
  <node id="-635" visible="true" lat="43.90415171" lon="-73.06653736">
    <tag k="addr:city" v="Salisbury"/>
    <tag k="addr:housenumber" v="3668"/>
    <tag k="addr:street" v="Lake Dunmore Road"/>
    <tag k="addr:state" v="VT"/>
    <tag k="ref:vcgi:esiteid" v="216718"/>
  </node>
  <node id="-636" visible="true" lat="43.90391408" lon="-73.11292871">
    <tag k="addr:city" v="Salisbury"/>
    <tag k="addr:housenumber" v="376"/>
    <tag k="addr:street" v="West Salisbury Road"/>
    <tag k="addr:state" v="VT"/>
    <tag k="ref:vcgi:esiteid" v="216719"/>
  </node>
  <node id="-637" visible="true" lat="43.90395591" lon="-73.07968346">
    <tag k="addr:city" v="Salisbury"/>
    <tag k="addr:housenumber" v="429"/>
    <tag k="addr:street" v="Underwood Lane"/>
    <tag k="addr:state" v="VT"/>
    <tag k="ref:vcgi:esiteid" v="216721"/>
  </node>
  <node id="-640" visible="true" lat="43.90372903" lon="-73.11355127">
    <tag k="addr:city" v="Salisbury"/>
    <tag k="addr:housenumber" v="381"/>
    <tag k="addr:street" v="West Salisbury Road"/>
    <tag k="addr:state" v="VT"/>
    <tag k="ref:vcgi:esiteid" v="216724"/>
  </node>
  <node id="-642" visible="true" lat="43.90348694" lon="-73.07956307">
    <tag k="addr:city" v="Salisbury"/>
    <tag k="addr:housenumber" v="485"/>
    <tag k="addr:street" v="Underwood Lane"/>
    <tag k="addr:state" v="VT"/>
    <tag k="ref:vcgi:esiteid" v="216726"/>
  </node>
  <node id="-643" visible="true" lat="43.90290727" lon="-73.15034829">
    <tag k="addr:city" v="Salisbury"/>
    <tag k="addr:housenumber" v="1398"/>
    <tag k="addr:street" v="Leland Road"/>
    <tag k="addr:state" v="VT"/>
    <tag k="ref:vcgi:esiteid" v="216727"/>
  </node>
  <node id="-645" visible="true" lat="43.90330505" lon="-73.06460571">
    <tag k="addr:city" v="Salisbury"/>
    <tag k="addr:housenumber" v="3751"/>
    <tag k="addr:street" v="Lake Dunmore Road"/>
    <tag k="addr:state" v="VT"/>
    <tag k="ref:vcgi:esiteid" v="216729"/>
  </node>
  <node id="-648" visible="true" lat="43.90236655" lon="-73.14921039">
    <tag k="addr:city" v="Salisbury"/>
    <tag k="addr:housenumber" v="1387"/>
    <tag k="addr:street" v="Leland Road"/>
    <tag k="addr:state" v="VT"/>
    <tag k="ref:vcgi:esiteid" v="216732"/>
  </node>
  <node id="-651" visible="true" lat="43.90262985" lon="-73.07874298">
    <tag k="addr:city" v="Salisbury"/>
    <tag k="addr:housenumber" v="400"/>
    <tag k="addr:street" v="Underwood Lane"/>
    <tag k="addr:state" v="VT"/>
    <tag k="ref:vcgi:esiteid" v="216735"/>
  </node>
  <node id="-658" visible="true" lat="43.9011181" lon="-73.14954177">
    <tag k="addr:city" v="Salisbury"/>
    <tag k="addr:housenumber" v="1874"/>
    <tag k="addr:street" v="Morgan Road"/>
    <tag k="addr:state" v="VT"/>
    <tag k="ref:vcgi:esiteid" v="216742"/>
  </node>
  <node id="-660" visible="true" lat="43.90144559" lon="-73.07866864">
    <tag k="addr:city" v="Salisbury"/>
    <tag k="addr:housenumber" v="404"/>
    <tag k="addr:street" v="Underwood Lane"/>
    <tag k="addr:state" v="VT"/>
    <tag k="ref:vcgi:esiteid" v="216744"/>
  </node>
  <node id="-661" visible="true" lat="43.90144846" lon="-73.08073678">
    <tag k="addr:city" v="Salisbury"/>
    <tag k="addr:housenumber" v="330"/>
    <tag k="addr:street" v="Underwood Lane"/>
    <tag k="addr:state" v="VT"/>
    <tag k="ref:vcgi:esiteid" v="216745"/>
  </node>
  <node id="-664" visible="true" lat="43.9011189" lon="-73.10113309">
    <tag k="addr:city" v="Salisbury"/>
    <tag k="addr:housenumber" v="1854"/>
    <tag k="addr:street" v="Smead Road"/>
    <tag k="addr:state" v="VT"/>
    <tag k="ref:vcgi:esiteid" v="216748"/>
  </node>
  <node id="-667" visible="true" lat="43.90095463" lon="-73.08081709">
    <tag k="addr:city" v="Salisbury"/>
    <tag k="addr:housenumber" v="316"/>
    <tag k="addr:street" v="Underwood Lane"/>
    <tag k="addr:state" v="VT"/>
    <tag k="ref:vcgi:esiteid" v="216751"/>
  </node>
  <node id="-672" visible="true" lat="43.90036247" lon="-73.06385547">
    <tag k="addr:city" v="Salisbury"/>
    <tag k="addr:housenumber" v="3963"/>
    <tag k="addr:street" v="Lake Dunmore Road"/>
    <tag k="addr:state" v="VT"/>
    <tag k="ref:vcgi:esiteid" v="216756"/>
  </node>
  <node id="-676" visible="true" lat="43.89996289" lon="-73.09993235">
    <tag k="addr:city" v="Salisbury"/>
    <tag k="addr:housenumber" v="1945"/>
    <tag k="addr:street" v="Smead Road"/>
    <tag k="addr:state" v="VT"/>
    <tag k="ref:vcgi:esiteid" v="216760"/>
  </node>
  <node id="-677" visible="true" lat="43.89981079" lon="-73.0692749">
    <tag k="addr:city" v="Salisbury"/>
    <tag k="addr:housenumber" v="444"/>
    <tag k="addr:street" v="Kelsey Lane"/>
    <tag k="addr:state" v="VT"/>
    <tag k="ref:vcgi:esiteid" v="216761"/>
  </node>
  <node id="-679" visible="true" lat="43.89949681" lon="-73.10503526">
    <tag k="addr:city" v="Salisbury"/>
    <tag k="addr:housenumber" v="635"/>
    <tag k="addr:street" v="Maple Street"/>
    <tag k="addr:state" v="VT"/>
    <tag k="ref:vcgi:esiteid" v="216763"/>
  </node>
  <node id="-681" visible="true" lat="43.89884814" lon="-73.14966781">
    <tag k="addr:city" v="Salisbury"/>
    <tag k="addr:housenumber" v="1671"/>
    <tag k="addr:street" v="Leland Road"/>
    <tag k="addr:state" v="VT"/>
    <tag k="ref:vcgi:esiteid" v="216765"/>
  </node>
  <node id="-683" visible="true" lat="43.89881435" lon="-73.07796481">
    <tag k="addr:city" v="Salisbury"/>
    <tag k="addr:housenumber" v="294"/>
    <tag k="addr:street" v="Vista Lane"/>
    <tag k="addr:state" v="VT"/>
    <tag k="ref:vcgi:esiteid" v="216767"/>
  </node>
  <node id="-686" visible="true" lat="43.89815455" lon="-73.10277751">
    <tag k="addr:city" v="Salisbury"/>
    <tag k="addr:housenumber" v="82"/>
    <tag k="addr:street" v="Schoolhouse Road"/>
    <tag k="addr:state" v="VT"/>
    <tag k="ref:vcgi:esiteid" v="216770"/>
  </node>
  <node id="-687" visible="true" lat="43.89798603" lon="-73.17119792">
    <tag k="addr:city" v="Salisbury"/>
    <tag k="addr:housenumber" v="410"/>
    <tag k="addr:street" v="Hubbard Road"/>
    <tag k="addr:state" v="VT"/>
    <tag k="ref:vcgi:esiteid" v="216771"/>
  </node>
  <node id="-688" visible="true" lat="43.89808283" lon="-73.100865">
    <tag k="addr:city" v="Salisbury"/>
    <tag k="addr:housenumber" v="2070"/>
    <tag k="addr:street" v="Smead Road"/>
    <tag k="addr:state" v="VT"/>
    <tag k="ref:vcgi:esiteid" v="216772"/>
  </node>
  <node id="-689" visible="true" lat="43.8981912" lon="-73.10359862">
    <tag k="addr:city" v="Salisbury"/>
    <tag k="addr:housenumber" v="25"/>
    <tag k="addr:street" v="Schoolhouse Road"/>
    <tag k="addr:state" v="VT"/>
    <tag k="ref:vcgi:esiteid" v="216773"/>
  </node>
  <node id="-691" visible="true" lat="43.89777719" lon="-73.10337039">
    <tag k="addr:city" v="Salisbury"/>
    <tag k="addr:housenumber" v="40"/>
    <tag k="addr:street" v="Schoolhouse Road"/>
    <tag k="addr:state" v="VT"/>
    <tag k="ref:vcgi:esiteid" v="216775"/>
  </node>
  <node id="-692" visible="true" lat="43.89772075" lon="-73.17052627">
    <tag k="addr:city" v="Salisbury"/>
    <tag k="addr:housenumber" v="405"/>
    <tag k="addr:street" v="Hubbard Road"/>
    <tag k="addr:state" v="VT"/>
    <tag k="ref:vcgi:esiteid" v="216776"/>
  </node>
  <node id="-693" visible="true" lat="43.89777013" lon="-73.10103478">
    <tag k="addr:city" v="Salisbury"/>
    <tag k="addr:housenumber" v="2094"/>
    <tag k="addr:street" v="Smead Road"/>
    <tag k="addr:state" v="VT"/>
    <tag k="ref:vcgi:esiteid" v="216777"/>
  </node>
  <node id="-694" visible="true" lat="43.89764748" lon="-73.10430744">
    <tag k="addr:city" v="Salisbury"/>
    <tag k="addr:housenumber" v="756"/>
    <tag k="addr:street" v="Maple Street"/>
    <tag k="addr:state" v="VT"/>
    <tag k="ref:vcgi:esiteid" v="216778"/>
  </node>
  <node id="-696" visible="true" lat="43.89771239" lon="-73.10202507">
    <tag k="addr:city" v="Salisbury"/>
    <tag k="addr:housenumber" v="128"/>
    <tag k="addr:street" v="Schoolhouse Road"/>
    <tag k="addr:state" v="VT"/>
    <tag k="ref:vcgi:esiteid" v="216780"/>
  </node>
  <node id="-698" visible="true" lat="43.89734076" lon="-73.10356537">
    <tag k="addr:city" v="Salisbury"/>
    <tag k="addr:housenumber" v="802"/>
    <tag k="addr:street" v="Maple Street"/>
    <tag k="addr:state" v="VT"/>
    <tag k="ref:vcgi:esiteid" v="216782"/>
  </node>
  <node id="-699" visible="true" lat="43.89740945" lon="-73.06963338">
    <tag k="addr:city" v="Salisbury"/>
    <tag k="addr:housenumber" v="603"/>
    <tag k="addr:street" v="Kelsey Lane"/>
    <tag k="addr:state" v="VT"/>
    <tag k="ref:vcgi:esiteid" v="216783"/>
  </node>
  <node id="-700" visible="true" lat="43.89721892" lon="-73.10338767">
    <tag k="addr:city" v="Salisbury"/>
    <tag k="addr:housenumber" v="816"/>
    <tag k="addr:street" v="Maple Street"/>
    <tag k="addr:state" v="VT"/>
    <tag k="ref:vcgi:esiteid" v="216784"/>
  </node>
  <node id="-701" visible="true" lat="43.89716508" lon="-73.10238027">
    <tag k="addr:city" v="Salisbury"/>
    <tag k="addr:housenumber" v="853"/>
    <tag k="addr:street" v="Maple Street"/>
    <tag k="addr:state" v="VT"/>
    <tag k="ref:vcgi:esiteid" v="216785"/>
  </node>
  <node id="-702" visible="true" lat="43.89719001" lon="-73.10092732">
    <tag k="addr:city" v="Salisbury"/>
    <tag k="addr:housenumber" v="2130"/>
    <tag k="addr:street" v="Smead Road"/>
    <tag k="addr:state" v="VT"/>
    <tag k="ref:vcgi:esiteid" v="216786"/>
  </node>
  <node id="-706" visible="true" lat="43.89712423" lon="-73.09515475">
    <tag k="addr:city" v="Salisbury"/>
    <tag k="addr:housenumber" v="1868"/>
    <tag k="addr:street" v="West Shore Road"/>
    <tag k="addr:state" v="VT"/>
    <tag k="ref:vcgi:esiteid" v="216790"/>
  </node>
  <node id="-722" visible="true" lat="43.89607516" lon="-73.10124997">
    <tag k="addr:city" v="Salisbury"/>
    <tag k="addr:housenumber" v="948"/>
    <tag k="addr:street" v="Maple Street"/>
    <tag k="addr:state" v="VT"/>
    <tag k="ref:vcgi:esiteid" v="216807"/>
  </node>
  <node id="-723" visible="true" lat="43.89604821" lon="-73.10100047">
    <tag k="addr:city" v="Salisbury"/>
    <tag k="addr:housenumber" v="958"/>
    <tag k="addr:street" v="Maple Street"/>
    <tag k="addr:state" v="VT"/>
    <tag k="ref:vcgi:esiteid" v="216808"/>
  </node>
  <node id="-724" visible="true" lat="43.89606414" lon="-73.10074229">
    <tag k="addr:city" v="Salisbury"/>
    <tag k="addr:housenumber" v="968"/>
    <tag k="addr:street" v="Maple Street"/>
    <tag k="addr:state" v="VT"/>
    <tag k="ref:vcgi:esiteid" v="216809"/>
  </node>
  <node id="-729" visible="true" lat="43.89545855" lon="-73.09932742">
    <tag k="addr:city" v="Salisbury"/>
    <tag k="addr:housenumber" v="1057"/>
    <tag k="addr:street" v="Maple Street"/>
    <tag k="addr:state" v="VT"/>
    <tag k="ref:vcgi:esiteid" v="216815"/>
  </node>
  <node id="-736" visible="true" lat="43.89521668" lon="-73.10088276">
    <tag k="addr:city" v="Salisbury"/>
    <tag k="addr:housenumber" v="1084"/>
    <tag k="addr:street" v="Maple Street"/>
    <tag k="addr:state" v="VT"/>
    <tag k="ref:vcgi:esiteid" v="216822"/>
  </node>
  <node id="-739" visible="true" lat="43.894915" lon="-73.09915664">
    <tag k="addr:city" v="Salisbury"/>
    <tag k="addr:housenumber" v="2165"/>
    <tag k="addr:street" v="West Shore Road"/>
    <tag k="addr:state" v="VT"/>
    <tag k="ref:vcgi:esiteid" v="216825"/>
  </node>
  <node id="-742" visible="true" lat="43.89436867" lon="-73.0999876">
    <tag k="addr:city" v="Salisbury"/>
    <tag k="addr:housenumber" v="1089"/>
    <tag k="addr:street" v="Maple Street"/>
    <tag k="addr:state" v="VT"/>
    <tag k="ref:vcgi:esiteid" v="216828"/>
  </node>
  <node id="-743" visible="true" lat="43.89362478" lon="-73.16075521">
    <tag k="addr:city" v="Salisbury"/>
    <tag k="addr:housenumber" v="1715"/>
    <tag k="addr:street" v="Dewey Road"/>
    <tag k="addr:state" v="VT"/>
    <tag k="ref:vcgi:esiteid" v="216829"/>
  </node>
  <node id="-744" visible="true" lat="43.89324903" lon="-73.14738583">
    <tag k="addr:city" v="Salisbury"/>
    <tag k="addr:housenumber" v="2121"/>
    <tag k="addr:street" v="Leland Road"/>
    <tag k="addr:state" v="VT"/>
    <tag k="ref:vcgi:esiteid" v="216830"/>
  </node>
  <node id="-745" visible="true" lat="43.89241052" lon="-73.1495991">
    <tag k="addr:city" v="Salisbury"/>
    <tag k="addr:housenumber" v="2190"/>
    <tag k="addr:street" v="Leland Road"/>
    <tag k="addr:state" v="VT"/>
    <tag k="ref:vcgi:esiteid" v="216831"/>
  </node>
  <node id="-746" visible="true" lat="43.89155484" lon="-73.1487332">
    <tag k="addr:city" v="Salisbury"/>
    <tag k="addr:housenumber" v="2196"/>
    <tag k="addr:street" v="Leland Road"/>
    <tag k="addr:state" v="VT"/>
    <tag k="ref:vcgi:esiteid" v="216832"/>
  </node>
  <node id="-747" visible="true" lat="43.89072817" lon="-73.147262">
    <tag k="addr:city" v="Salisbury"/>
    <tag k="addr:housenumber" v="2281"/>
    <tag k="addr:street" v="Leland Road"/>
    <tag k="addr:state" v="VT"/>
    <tag k="ref:vcgi:esiteid" v="216833"/>
  </node>
  <node id="-748" visible="true" lat="43.89041835" lon="-73.14883506">
    <tag k="addr:city" v="Salisbury"/>
    <tag k="addr:housenumber" v="2284"/>
    <tag k="addr:street" v="Leland Road"/>
    <tag k="addr:state" v="VT"/>
    <tag k="ref:vcgi:esiteid" v="216834"/>
  </node>
  <node id="-749" visible="true" lat="43.88372424" lon="-73.15925561">
    <tag k="addr:city" v="Salisbury"/>
    <tag k="addr:housenumber" v="2446"/>
    <tag k="addr:street" v="Dewey Road"/>
    <tag k="addr:state" v="VT"/>
    <tag k="ref:vcgi:esiteid" v="216835"/>
  </node>
  <node id="-750" visible="true" lat="43.94516712" lon="-73.15251621">
    <tag k="addr:city" v="Salisbury"/>
    <tag k="addr:housenumber" v="1503"/>
    <tag k="addr:street" v="Shard Villa Road"/>
    <tag k="addr:state" v="VT"/>
    <tag k="ref:vcgi:esiteid" v="216837"/>
  </node>
  <node id="-752" visible="true" lat="43.95123528" lon="-73.13456407">
    <tag k="addr:city" v="Salisbury"/>
    <tag k="addr:housenumber" v="2112"/>
    <tag k="addr:street" v="Middle Road"/>
    <tag k="addr:state" v="VT"/>
    <tag k="ref:vcgi:esiteid" v="216839"/>
  </node>
  <node id="-754" visible="true" lat="43.95511039" lon="-73.07777058">
    <tag k="addr:city" v="Salisbury"/>
    <tag k="addr:housenumber" v="2707"/>
    <tag k="addr:street" v="Upper Plains Road"/>
    <tag k="addr:state" v="VT"/>
    <tag k="ref:vcgi:esiteid" v="216841"/>
  </node>
  <node id="-755" visible="true" lat="43.95643546" lon="-73.07632703">
    <tag k="addr:city" v="Salisbury"/>
    <tag k="addr:housenumber" v="2818"/>
    <tag k="addr:street" v="Upper Plains Road"/>
    <tag k="addr:state" v="VT"/>
    <tag k="ref:vcgi:esiteid" v="216842"/>
  </node>
  <node id="-756" visible="true" lat="43.95926852" lon="-73.08786271">
    <tag k="addr:city" v="Salisbury"/>
    <tag k="addr:housenumber" v="275"/>
    <tag k="addr:street" v="Pratt Road"/>
    <tag k="addr:state" v="VT"/>
    <tag k="ref:vcgi:esiteid" v="216843"/>
  </node>
  <node id="-757" visible="true" lat="43.95849311" lon="-73.0896293">
    <tag k="addr:city" v="Salisbury"/>
    <tag k="addr:housenumber" v="250"/>
    <tag k="addr:street" v="Pratt Road"/>
    <tag k="addr:state" v="VT"/>
    <tag k="ref:vcgi:esiteid" v="216844"/>
  </node>
  <node id="-758" visible="true" lat="43.93202695" lon="-73.15551522">
    <tag k="addr:city" v="Salisbury"/>
    <tag k="addr:housenumber" v="655"/>
    <tag k="addr:street" v="Shard Villa Road"/>
    <tag k="addr:state" v="VT"/>
    <tag k="ref:vcgi:esiteid" v="216845"/>
  </node>
  <node id="-759" visible="true" lat="43.93256125" lon="-73.15301767">
    <tag k="addr:city" v="Salisbury"/>
    <tag k="addr:housenumber" v="670"/>
    <tag k="addr:street" v="Shard Villa Road"/>
    <tag k="addr:state" v="VT"/>
    <tag k="ref:vcgi:esiteid" v="216846"/>
  </node>
  <node id="-761" visible="true" lat="43.93332633" lon="-73.13759948">
    <tag k="addr:city" v="Salisbury"/>
    <tag k="addr:housenumber" v="296"/>
    <tag k="addr:street" v="Pidgeon Road East"/>
    <tag k="addr:state" v="VT"/>
    <tag k="ref:vcgi:esiteid" v="216848"/>
  </node>
  <node id="-762" visible="true" lat="43.92706488" lon="-73.10152815">
    <tag k="addr:city" v="Salisbury"/>
    <tag k="addr:housenumber" v="499"/>
    <tag k="addr:street" v="Lake Dunmore Road"/>
    <tag k="addr:state" v="VT"/>
    <tag k="ref:vcgi:esiteid" v="216849"/>
  </node>
  <node id="-764" visible="true" lat="43.92305002" lon="-73.10041917">
    <tag k="addr:city" v="Salisbury"/>
    <tag k="addr:housenumber" v="281"/>
    <tag k="addr:street" v="Smead Road"/>
    <tag k="addr:state" v="VT"/>
    <tag k="ref:vcgi:esiteid" v="216851"/>
  </node>
  <node id="-765" visible="true" lat="43.92225004" lon="-73.09661932">
    <tag k="addr:city" v="Salisbury"/>
    <tag k="addr:housenumber" v="900"/>
    <tag k="addr:street" v="Lake Dunmore Road"/>
    <tag k="addr:state" v="VT"/>
    <tag k="ref:vcgi:esiteid" v="216852"/>
  </node>
  <node id="-766" visible="true" lat="43.93189495" lon="-73.09196178">
    <tag k="addr:city" v="Salisbury"/>
    <tag k="addr:housenumber" v="861"/>
    <tag k="addr:street" v="Upper Plains Road"/>
    <tag k="addr:state" v="VT"/>
    <tag k="ref:vcgi:esiteid" v="216853"/>
  </node>
  <node id="-767" visible="true" lat="43.93336073" lon="-73.09203671">
    <tag k="addr:city" v="Salisbury"/>
    <tag k="addr:housenumber" v="930"/>
    <tag k="addr:street" v="Upper Plains Road"/>
    <tag k="addr:state" v="VT"/>
    <tag k="ref:vcgi:esiteid" v="216854"/>
  </node>
  <node id="-768" visible="true" lat="43.91001253" lon="-73.16207489">
    <tag k="addr:city" v="Salisbury"/>
    <tag k="addr:housenumber" v="560"/>
    <tag k="addr:street" v="Dewey Road"/>
    <tag k="addr:state" v="VT"/>
    <tag k="ref:vcgi:esiteid" v="216856"/>
  </node>
  <node id="-770" visible="true" lat="43.91212675" lon="-73.13404428">
    <tag k="addr:city" v="Salisbury"/>
    <tag k="addr:housenumber" v="649"/>
    <tag k="addr:street" v="Morgan Road"/>
    <tag k="addr:state" v="VT"/>
    <tag k="ref:vcgi:esiteid" v="216859"/>
  </node>
  <node id="-773" visible="true" lat="43.91663051" lon="-73.08760155">
    <tag k="addr:city" v="Salisbury"/>
    <tag k="addr:housenumber" v="200"/>
    <tag k="addr:street" v="West Shore Road"/>
    <tag k="addr:state" v="VT"/>
    <tag k="ref:vcgi:esiteid" v="216865"/>
  </node>
  <node id="-774" visible="true" lat="43.9223637" lon="-73.08862081">
    <tag k="addr:city" v="Salisbury"/>
    <tag k="addr:housenumber" v="85"/>
    <tag k="addr:street" v="Upper Plains Road"/>
    <tag k="addr:state" v="VT"/>
    <tag k="ref:vcgi:esiteid" v="216867"/>
  </node>
  <node id="-775" visible="true" lat="43.89368527" lon="-73.15172237">
    <tag k="addr:city" v="Salisbury"/>
    <tag k="addr:housenumber" v="1928"/>
    <tag k="addr:street" v="Leland Road"/>
    <tag k="addr:state" v="VT"/>
    <tag k="ref:vcgi:esiteid" v="216868"/>
  </node>
  <node id="-776" visible="true" lat="43.88543794" lon="-73.14487295">
    <tag k="addr:city" v="Salisbury"/>
    <tag k="addr:housenumber" v="3606"/>
    <tag k="addr:street" v="Old Jerusalem Road"/>
    <tag k="addr:state" v="VT"/>
    <tag k="ref:vcgi:esiteid" v="216869"/>
  </node>
  <node id="-777" visible="true" lat="43.92148469" lon="-73.07928318">
    <tag k="addr:city" v="Salisbury"/>
    <tag k="addr:housenumber" v="9"/>
    <tag k="addr:street" v="Moosalamoo Club Road"/>
    <tag k="addr:state" v="VT"/>
    <tag k="ref:vcgi:esiteid" v="216870"/>
  </node>
  <node id="-779" visible="true" lat="43.92513306" lon="-73.07901177">
    <tag k="addr:city" v="Salisbury"/>
    <tag k="addr:housenumber" v="1979"/>
    <tag k="addr:street" v="Lake Dunmore Road"/>
    <tag k="addr:state" v="VT"/>
    <tag k="ref:vcgi:esiteid" v="216872"/>
  </node>
  <node id="-781" visible="true" lat="43.92221397" lon="-73.07419383">
    <tag k="addr:city" v="Salisbury"/>
    <tag k="addr:housenumber" v="5"/>
    <tag k="addr:street" v="Keewaydin Way"/>
    <tag k="addr:state" v="VT"/>
    <tag k="ref:vcgi:esiteid" v="216874"/>
  </node>
  <node id="-783" visible="true" lat="43.92256794" lon="-73.07540307">
    <tag k="addr:city" v="Salisbury"/>
    <tag k="addr:housenumber" v="25"/>
    <tag k="addr:street" v="Keewaydin Way"/>
    <tag k="addr:state" v="VT"/>
    <tag k="ref:vcgi:esiteid" v="216876"/>
  </node>
  <node id="-784" visible="true" lat="43.9226028" lon="-73.07585806">
    <tag k="addr:city" v="Salisbury"/>
    <tag k="addr:housenumber" v="35"/>
    <tag k="addr:street" v="Keewaydin Way"/>
    <tag k="addr:state" v="VT"/>
    <tag k="ref:vcgi:esiteid" v="216877"/>
  </node>
  <node id="-788" visible="true" lat="43.90556686" lon="-73.06673673">
    <tag k="addr:city" v="Salisbury"/>
    <tag k="addr:housenumber" v="3570"/>
    <tag k="addr:street" v="Lake Dunmore Road"/>
    <tag k="addr:state" v="VT"/>
    <tag k="ref:vcgi:esiteid" v="216882"/>
  </node>
  <node id="-792" visible="true" lat="43.89725" lon="-73.08933201">
    <tag k="addr:city" v="Salisbury"/>
    <tag k="addr:housenumber" v="81"/>
    <tag k="addr:street" v="Rogers Road"/>
    <tag k="addr:state" v="VT"/>
    <tag k="ref:vcgi:esiteid" v="216886"/>
  </node>
  <node id="-793" visible="true" lat="43.93790915" lon="-73.14407568">
    <tag k="addr:city" v="Salisbury"/>
    <tag k="addr:housenumber" v="525"/>
    <tag k="addr:street" v="Columbus Smith Road"/>
    <tag k="addr:state" v="VT"/>
    <tag k="ref:vcgi:esiteid" v="216887"/>
  </node>
  <node id="-794" visible="true" lat="43.91436992" lon="-73.09658212">
    <tag k="addr:city" v="Salisbury"/>
    <tag k="addr:housenumber" v="855"/>
    <tag k="addr:street" v="Smead Road"/>
    <tag k="addr:state" v="VT"/>
    <tag k="ref:vcgi:esiteid" v="216888"/>
  </node>
  <node id="-795" visible="true" lat="43.94510034" lon="-73.09353455">
    <tag k="addr:city" v="Salisbury"/>
    <tag k="addr:housenumber" v="296"/>
    <tag k="addr:street" v="Beaver Pond Road"/>
    <tag k="addr:state" v="VT"/>
    <tag k="ref:vcgi:esiteid" v="216889"/>
  </node>
  <node id="-796" visible="true" lat="43.92875119" lon="-73.15335085">
    <tag k="addr:city" v="Salisbury"/>
    <tag k="addr:housenumber" v="467"/>
    <tag k="addr:street" v="Shard Villa Road"/>
    <tag k="addr:state" v="VT"/>
    <tag k="ref:vcgi:esiteid" v="216890"/>
  </node>
  <node id="-797" visible="true" lat="43.93814796" lon="-73.15220037">
    <tag k="addr:city" v="Salisbury"/>
    <tag k="addr:housenumber" v="1132"/>
    <tag k="addr:street" v="Shard Villa Road"/>
    <tag k="addr:state" v="VT"/>
    <tag k="ref:vcgi:esiteid" v="216891"/>
  </node>
  <node id="-798" visible="true" lat="43.92836015" lon="-73.13575809">
    <tag k="addr:city" v="Salisbury"/>
    <tag k="addr:housenumber" v="155"/>
    <tag k="addr:street" v="Pidgeon Road East"/>
    <tag k="addr:state" v="VT"/>
    <tag k="ref:vcgi:esiteid" v="216892"/>
  </node>
  <node id="-799" visible="true" lat="43.92846754" lon="-73.0908795">
    <tag k="addr:city" v="Salisbury"/>
    <tag k="addr:housenumber" v="581"/>
    <tag k="addr:street" v="Upper Plains Road"/>
    <tag k="addr:state" v="VT"/>
    <tag k="ref:vcgi:esiteid" v="216893"/>
  </node>
  <node id="-800" visible="true" lat="43.91316352" lon="-73.1511794">
    <tag k="addr:city" v="Salisbury"/>
    <tag k="addr:housenumber" v="662"/>
    <tag k="addr:street" v="Leland Road"/>
    <tag k="addr:state" v="VT"/>
    <tag k="ref:vcgi:esiteid" v="216894"/>
  </node>
  <node id="-801" visible="true" lat="43.8831788" lon="-73.15542443">
    <tag k="addr:city" v="Salisbury"/>
    <tag k="addr:housenumber" v="2505"/>
    <tag k="addr:street" v="Dewey Road"/>
    <tag k="addr:state" v="VT"/>
    <tag k="ref:vcgi:esiteid" v="216895"/>
  </node>
  <node id="-802" visible="true" lat="43.89312599" lon="-73.15001605">
    <tag k="addr:city" v="Salisbury"/>
    <tag k="addr:housenumber" v="1932"/>
    <tag k="addr:street" v="Leland Road"/>
    <tag k="addr:state" v="VT"/>
    <tag k="ref:vcgi:esiteid" v="216896"/>
  </node>
  <node id="-803" visible="true" lat="43.92149017" lon="-73.07917903">
    <tag k="addr:city" v="Salisbury"/>
    <tag k="addr:housenumber" v="10"/>
    <tag k="addr:street" v="Moosalamoo Club Road"/>
    <tag k="addr:state" v="VT"/>
    <tag k="ref:vcgi:esiteid" v="216897"/>
  </node>
  <node id="-806" visible="true" lat="43.9159492" lon="-73.08558869">
    <tag k="addr:city" v="Salisbury"/>
    <tag k="addr:housenumber" v="301"/>
    <tag k="addr:street" v="West Shore Road"/>
    <tag k="addr:state" v="VT"/>
    <tag k="ref:vcgi:esiteid" v="216900"/>
  </node>
  <node id="-807" visible="true" lat="43.93084886" lon="-73.08987714">
    <tag k="addr:city" v="Salisbury"/>
    <tag k="addr:housenumber" v="772"/>
    <tag k="addr:street" v="Upper Plains Road"/>
    <tag k="addr:state" v="VT"/>
    <tag k="ref:vcgi:esiteid" v="216901"/>
  </node>
  <node id="-808" visible="true" lat="43.89601719" lon="-73.15126752">
    <tag k="addr:city" v="Salisbury"/>
    <tag k="addr:housenumber" v="1890"/>
    <tag k="addr:street" v="Leland Road"/>
    <tag k="addr:state" v="VT"/>
    <tag k="ref:vcgi:esiteid" v="216902"/>
  </node>
  <node id="-809" visible="true" lat="43.92972157" lon="-73.08975571">
    <tag k="addr:city" v="Salisbury"/>
    <tag k="addr:housenumber" v="694"/>
    <tag k="addr:street" v="Upper Plains Road"/>
    <tag k="addr:state" v="VT"/>
    <tag k="ref:vcgi:esiteid" v="216903"/>
  </node>
  <node id="-810" visible="true" lat="43.93028023" lon="-73.0898763">
    <tag k="addr:city" v="Salisbury"/>
    <tag k="addr:housenumber" v="696"/>
    <tag k="addr:street" v="Upper Plains Road"/>
    <tag k="addr:state" v="VT"/>
    <tag k="ref:vcgi:esiteid" v="216904"/>
  </node>
  <node id="-811" visible="true" lat="43.91752672" lon="-73.13809793">
    <tag k="addr:city" v="Salisbury"/>
    <tag k="addr:housenumber" v="2153"/>
    <tag k="addr:street" v="West Salisbury Road"/>
    <tag k="addr:state" v="VT"/>
    <tag k="ref:vcgi:esiteid" v="216905"/>
  </node>
  <node id="-812" visible="true" lat="43.91000666" lon="-73.11672245">
    <tag k="addr:city" v="Salisbury"/>
    <tag k="addr:housenumber" v="862"/>
    <tag k="addr:street" v="West Salisbury Road"/>
    <tag k="addr:state" v="VT"/>
    <tag k="ref:vcgi:esiteid" v="216906"/>
  </node>
  <node id="-813" visible="true" lat="43.9148926" lon="-73.10275527">
    <tag k="addr:city" v="Salisbury"/>
    <tag k="addr:housenumber" v="864"/>
    <tag k="addr:street" v="Smead Road"/>
    <tag k="addr:state" v="VT"/>
    <tag k="ref:vcgi:esiteid" v="216907"/>
  </node>
  <node id="-814" visible="true" lat="43.93508905" lon="-73.15306527">
    <tag k="addr:city" v="Salisbury"/>
    <tag k="addr:housenumber" v="916"/>
    <tag k="addr:street" v="Shard Villa Road"/>
    <tag k="addr:state" v="VT"/>
    <tag k="ref:vcgi:esiteid" v="216908"/>
  </node>
  <node id="-815" visible="true" lat="43.93587573" lon="-73.15615043">
    <tag k="addr:city" v="Salisbury"/>
    <tag k="addr:housenumber" v="123"/>
    <tag k="addr:street" v="Story Drive"/>
    <tag k="addr:state" v="VT"/>
    <tag k="ref:vcgi:esiteid" v="216909"/>
  </node>
  <node id="-816" visible="true" lat="43.92163432" lon="-73.09447966">
    <tag k="addr:city" v="Salisbury"/>
    <tag k="addr:housenumber" v="1026"/>
    <tag k="addr:street" v="Lake Dunmore Road"/>
    <tag k="addr:state" v="VT"/>
    <tag k="ref:vcgi:esiteid" v="216910"/>
  </node>
  <node id="-818" visible="true" lat="43.92055839" lon="-73.15108031">
    <tag k="addr:city" v="Salisbury"/>
    <tag k="addr:housenumber" v="150"/>
    <tag k="addr:street" v="Leland Road"/>
    <tag k="addr:state" v="VT"/>
    <tag k="ref:vcgi:esiteid" v="216912"/>
  </node>
  <node id="-819" visible="true" lat="43.90054559" lon="-73.16128967">
    <tag k="addr:city" v="Salisbury"/>
    <tag k="addr:housenumber" v="1351"/>
    <tag k="addr:street" v="Dewey Road"/>
    <tag k="addr:state" v="VT"/>
    <tag k="ref:vcgi:esiteid" v="216913"/>
  </node>
  <node id="-820" visible="true" lat="43.88557427" lon="-73.15947474">
    <tag k="addr:city" v="Salisbury"/>
    <tag k="addr:housenumber" v="2280"/>
    <tag k="addr:street" v="Dewey Road"/>
    <tag k="addr:state" v="VT"/>
    <tag k="ref:vcgi:esiteid" v="216914"/>
  </node>
  <node id="-821" visible="true" lat="43.89476426" lon="-73.10334383">
    <tag k="addr:city" v="Salisbury"/>
    <tag k="addr:housenumber" v="128"/>
    <tag k="addr:street" v="Prospect Street"/>
    <tag k="addr:state" v="VT"/>
    <tag k="ref:vcgi:esiteid" v="216915"/>
  </node>
  <node id="-822" visible="true" lat="43.92723077" lon="-73.09612939">
    <tag k="addr:city" v="Salisbury"/>
    <tag k="addr:housenumber" v="595"/>
    <tag k="addr:street" v="Lake Dunmore Road"/>
    <tag k="addr:state" v="VT"/>
    <tag k="ref:vcgi:esiteid" v="216916"/>
  </node>
  <node id="-823" visible="true" lat="43.92393519" lon="-73.08461077">
    <tag k="addr:city" v="Salisbury"/>
    <tag k="addr:housenumber" v="500"/>
    <tag k="addr:street" v="Blue Jay Avenue"/>
    <tag k="addr:state" v="VT"/>
    <tag k="ref:vcgi:esiteid" v="216917"/>
  </node>
  <node id="-824" visible="true" lat="43.92483439" lon="-73.14152108">
    <tag k="addr:city" v="Salisbury"/>
    <tag k="addr:housenumber" v="2420"/>
    <tag k="addr:street" v="West Salisbury Road"/>
    <tag k="addr:state" v="VT"/>
    <tag k="ref:vcgi:esiteid" v="216919"/>
  </node>
  <node id="-825" visible="true" lat="43.95145085" lon="-73.09847878">
    <tag k="addr:city" v="Salisbury"/>
    <tag k="addr:housenumber" v="405"/>
    <tag k="addr:street" v="Lower Plains Road"/>
    <tag k="addr:state" v="VT"/>
    <tag k="ref:vcgi:esiteid" v="216920"/>
  </node>
  <node id="-826" visible="true" lat="43.92011364" lon="-73.08676929">
    <tag k="addr:city" v="Salisbury"/>
    <tag k="addr:housenumber" v="26"/>
    <tag k="addr:street" v="West Shore Road"/>
    <tag k="addr:state" v="VT"/>
    <tag k="ref:vcgi:esiteid" v="216921"/>
  </node>
  <node id="-830" visible="true" lat="43.94880127" lon="-73.09828828">
    <tag k="addr:city" v="Salisbury"/>
    <tag k="addr:housenumber" v="197"/>
    <tag k="addr:street" v="Lower Plains Road"/>
    <tag k="addr:state" v="VT"/>
    <tag k="ref:vcgi:esiteid" v="216926"/>
  </node>
  <node id="-831" visible="true" lat="43.93369576" lon="-73.14033908">
    <tag k="addr:city" v="Salisbury"/>
    <tag k="addr:housenumber" v="717"/>
    <tag k="addr:street" v="Pidgeon Road West"/>
    <tag k="addr:state" v="VT"/>
    <tag k="ref:vcgi:esiteid" v="216927"/>
  </node>
  <node id="-832" visible="true" lat="43.94076899" lon="-73.10894265">
    <tag k="addr:city" v="Salisbury"/>
    <tag k="addr:housenumber" v="65"/>
    <tag k="addr:street" v="Plains Road"/>
    <tag k="addr:state" v="VT"/>
    <tag k="ref:vcgi:esiteid" v="216928"/>
  </node>
  <node id="-833" visible="true" lat="43.92620187" lon="-73.10316772">
    <tag k="addr:city" v="Salisbury"/>
    <tag k="addr:housenumber" v="482"/>
    <tag k="addr:street" v="Lake Dunmore Road"/>
    <tag k="addr:state" v="VT"/>
    <tag k="ref:vcgi:esiteid" v="216929"/>
  </node>
  <node id="-834" visible="true" lat="43.93126739" lon="-73.0900453">
    <tag k="addr:city" v="Salisbury"/>
    <tag k="addr:housenumber" v="774"/>
    <tag k="addr:street" v="Upper Plains Road"/>
    <tag k="addr:state" v="VT"/>
    <tag k="ref:vcgi:esiteid" v="216930"/>
  </node>
  <node id="-835" visible="true" lat="43.92941089" lon="-73.09102838">
    <tag k="addr:city" v="Salisbury"/>
    <tag k="addr:housenumber" v="647"/>
    <tag k="addr:street" v="Upper Plains Road"/>
    <tag k="addr:state" v="VT"/>
    <tag k="ref:vcgi:esiteid" v="216931"/>
  </node>
  <node id="-836" visible="true" lat="43.92893035" lon="-73.09096768">
    <tag k="addr:city" v="Salisbury"/>
    <tag k="addr:housenumber" v="645"/>
    <tag k="addr:street" v="Upper Plains Road"/>
    <tag k="addr:state" v="VT"/>
    <tag k="ref:vcgi:esiteid" v="216932"/>
  </node>
  <node id="-837" visible="true" lat="43.92356257" lon="-73.08489636">
    <tag k="addr:city" v="Salisbury"/>
    <tag k="addr:housenumber" v="89"/>
    <tag k="addr:street" v="Cardinal Avenue"/>
    <tag k="addr:state" v="VT"/>
    <tag k="ref:vcgi:esiteid" v="216933"/>
  </node>
  <node id="-838" visible="true" lat="43.92460435" lon="-73.08288241">
    <tag k="addr:city" v="Salisbury"/>
    <tag k="addr:housenumber" v="132"/>
    <tag k="addr:street" v="Gold Finch Avenue"/>
    <tag k="addr:state" v="VT"/>
    <tag k="ref:vcgi:esiteid" v="216934"/>
  </node>
  <node id="-839" visible="true" lat="43.92353946" lon="-73.08506532">
    <tag k="addr:city" v="Salisbury"/>
    <tag k="addr:housenumber" v="90"/>
    <tag k="addr:street" v="Cardinal Avenue"/>
    <tag k="addr:state" v="VT"/>
    <tag k="ref:vcgi:esiteid" v="216935"/>
  </node>
  <node id="-840" visible="true" lat="43.92448944" lon="-73.08445836">
    <tag k="addr:city" v="Salisbury"/>
    <tag k="addr:housenumber" v="123"/>
    <tag k="addr:street" v="Gold Finch Avenue"/>
    <tag k="addr:state" v="VT"/>
    <tag k="ref:vcgi:esiteid" v="216936"/>
  </node>
  <node id="-841" visible="true" lat="43.92456398" lon="-73.08303989">
    <tag k="addr:city" v="Salisbury"/>
    <tag k="addr:housenumber" v="131"/>
    <tag k="addr:street" v="Gold Finch Avenue"/>
    <tag k="addr:state" v="VT"/>
    <tag k="ref:vcgi:esiteid" v="216937"/>
  </node>
  <node id="-842" visible="true" lat="43.91771358" lon="-73.08606163">
    <tag k="addr:city" v="Salisbury"/>
    <tag k="addr:housenumber" v="198"/>
    <tag k="addr:street" v="West Shore Road"/>
    <tag k="addr:state" v="VT"/>
    <tag k="ref:vcgi:esiteid" v="216940"/>
  </node>
  <node id="-844" visible="true" lat="43.94082932" lon="-73.14285753">
    <tag k="addr:city" v="Salisbury"/>
    <tag k="addr:housenumber" v="496"/>
    <tag k="addr:street" v="Columbus Smith Road"/>
    <tag k="addr:state" v="VT"/>
    <tag k="ref:vcgi:esiteid" v="306833"/>
  </node>
  <node id="-845" visible="true" lat="43.92155562" lon="-73.09466617">
    <tag k="addr:city" v="Salisbury"/>
    <tag k="addr:housenumber" v="1028"/>
    <tag k="addr:street" v="Lake Dunmore Road"/>
    <tag k="addr:state" v="VT"/>
    <tag k="ref:vcgi:esiteid" v="306836"/>
  </node>
  <node id="-848" visible="true" lat="43.93370888" lon="-73.1548993">
    <tag k="addr:city" v="Salisbury"/>
    <tag k="addr:housenumber" v="725"/>
    <tag k="addr:street" v="Shard Villa Road"/>
    <tag k="addr:state" v="VT"/>
    <tag k="ref:vcgi:esiteid" v="309245"/>
  </node>
  <node id="-849" visible="true" lat="43.93381826" lon="-73.15513232">
    <tag k="addr:city" v="Salisbury"/>
    <tag k="addr:housenumber" v="733"/>
    <tag k="addr:street" v="Shard Villa Road"/>
    <tag k="addr:state" v="VT"/>
    <tag k="ref:vcgi:esiteid" v="309246"/>
  </node>
  <node id="-850" visible="true" lat="43.92413598" lon="-73.08415733">
    <tag k="addr:city" v="Salisbury"/>
    <tag k="addr:housenumber" v="150"/>
    <tag k="addr:street" v="Blue Jay Avenue"/>
    <tag k="addr:state" v="VT"/>
    <tag k="ref:vcgi:esiteid" v="311329"/>
  </node>
  <node id="-851" visible="true" lat="43.92416121" lon="-73.08384065">
    <tag k="addr:city" v="Salisbury"/>
    <tag k="addr:housenumber" v="152"/>
    <tag k="addr:street" v="Blue Jay Avenue"/>
    <tag k="addr:state" v="VT"/>
    <tag k="ref:vcgi:esiteid" v="311330"/>
  </node>
  <node id="-852" visible="true" lat="43.92418696" lon="-73.08294922">
    <tag k="addr:city" v="Salisbury"/>
    <tag k="addr:housenumber" v="158"/>
    <tag k="addr:street" v="Blue Jay Avenue"/>
    <tag k="addr:state" v="VT"/>
    <tag k="ref:vcgi:esiteid" v="311331"/>
  </node>
  <node id="-853" visible="true" lat="43.92353427" lon="-73.08523319">
    <tag k="addr:city" v="Salisbury"/>
    <tag k="addr:housenumber" v="91"/>
    <tag k="addr:street" v="Cardinal Avenue"/>
    <tag k="addr:state" v="VT"/>
    <tag k="ref:vcgi:esiteid" v="311332"/>
  </node>
  <node id="-854" visible="true" lat="43.92293399" lon="-73.08654347">
    <tag k="addr:city" v="Salisbury"/>
    <tag k="addr:housenumber" v="52"/>
    <tag k="addr:street" v="Chickadee Avenue"/>
    <tag k="addr:state" v="VT"/>
    <tag k="ref:vcgi:esiteid" v="311333"/>
  </node>
  <node id="-855" visible="true" lat="43.92302397" lon="-73.08581331">
    <tag k="addr:city" v="Salisbury"/>
    <tag k="addr:housenumber" v="56"/>
    <tag k="addr:street" v="Chickadee Avenue"/>
    <tag k="addr:state" v="VT"/>
    <tag k="ref:vcgi:esiteid" v="311334"/>
  </node>
  <node id="-856" visible="true" lat="43.92435095" lon="-73.08270803">
    <tag k="addr:city" v="Salisbury"/>
    <tag k="addr:housenumber" v="139"/>
    <tag k="addr:street" v="Gold Finch Avenue"/>
    <tag k="addr:state" v="VT"/>
    <tag k="ref:vcgi:esiteid" v="311335"/>
  </node>
  <node id="-857" visible="true" lat="43.92435526" lon="-73.08288023">
    <tag k="addr:city" v="Salisbury"/>
    <tag k="addr:housenumber" v="140"/>
    <tag k="addr:street" v="Gold Finch Avenue"/>
    <tag k="addr:state" v="VT"/>
    <tag k="ref:vcgi:esiteid" v="311336"/>
  </node>
  <node id="-858" visible="true" lat="43.92429355" lon="-73.08381368">
    <tag k="addr:city" v="Salisbury"/>
    <tag k="addr:housenumber" v="146"/>
    <tag k="addr:street" v="Gold Finch Avenue"/>
    <tag k="addr:state" v="VT"/>
    <tag k="ref:vcgi:esiteid" v="311337"/>
  </node>
  <node id="-859" visible="true" lat="43.92430569" lon="-73.08395422">
    <tag k="addr:city" v="Salisbury"/>
    <tag k="addr:housenumber" v="147"/>
    <tag k="addr:street" v="Gold Finch Avenue"/>
    <tag k="addr:state" v="VT"/>
    <tag k="ref:vcgi:esiteid" v="311338"/>
  </node>
  <node id="-860" visible="true" lat="43.9245205" lon="-73.08245455">
    <tag k="addr:city" v="Salisbury"/>
    <tag k="addr:housenumber" v="136"/>
    <tag k="addr:street" v="Gold Finch Avenue"/>
    <tag k="addr:state" v="VT"/>
    <tag k="ref:vcgi:esiteid" v="311339"/>
  </node>
  <node id="-861" visible="true" lat="43.9221254" lon="-73.08371287">
    <tag k="addr:city" v="Salisbury"/>
    <tag k="addr:housenumber" v="200"/>
    <tag k="addr:street" v="Looney Lane"/>
    <tag k="addr:state" v="VT"/>
    <tag k="ref:vcgi:esiteid" v="311340"/>
  </node>
  <node id="-862" visible="true" lat="43.92216992" lon="-73.08221337">
    <tag k="addr:city" v="Salisbury"/>
    <tag k="addr:housenumber" v="190"/>
    <tag k="addr:street" v="Looney Lane"/>
    <tag k="addr:state" v="VT"/>
    <tag k="ref:vcgi:esiteid" v="311341"/>
  </node>
  <node id="-863" visible="true" lat="43.92217748" lon="-73.082766">
    <tag k="addr:city" v="Salisbury"/>
    <tag k="addr:housenumber" v="194"/>
    <tag k="addr:street" v="Looney Lane"/>
    <tag k="addr:state" v="VT"/>
    <tag k="ref:vcgi:esiteid" v="311342"/>
  </node>
  <node id="-864" visible="true" lat="43.92213571" lon="-73.08331848">
    <tag k="addr:city" v="Salisbury"/>
    <tag k="addr:housenumber" v="198"/>
    <tag k="addr:street" v="Looney Lane"/>
    <tag k="addr:state" v="VT"/>
    <tag k="ref:vcgi:esiteid" v="311343"/>
  </node>
  <node id="-865" visible="true" lat="43.92181703" lon="-73.08394603">
    <tag k="addr:city" v="Salisbury"/>
    <tag k="addr:housenumber" v="204"/>
    <tag k="addr:street" v="Looney Lane"/>
    <tag k="addr:state" v="VT"/>
    <tag k="ref:vcgi:esiteid" v="311344"/>
  </node>
  <node id="-866" visible="true" lat="43.9216996" lon="-73.08389591">
    <tag k="addr:city" v="Salisbury"/>
    <tag k="addr:housenumber" v="205"/>
    <tag k="addr:street" v="Looney Lane"/>
    <tag k="addr:state" v="VT"/>
    <tag k="ref:vcgi:esiteid" v="311345"/>
  </node>
  <node id="-867" visible="true" lat="43.92313701" lon="-73.0860049">
    <tag k="addr:city" v="Salisbury"/>
    <tag k="addr:housenumber" v="74"/>
    <tag k="addr:street" v="Woodpecker Avenue"/>
    <tag k="addr:state" v="VT"/>
    <tag k="ref:vcgi:esiteid" v="311346"/>
  </node>
  <node id="-868" visible="true" lat="43.92311509" lon="-73.08631997">
    <tag k="addr:city" v="Salisbury"/>
    <tag k="addr:housenumber" v="76"/>
    <tag k="addr:street" v="Woodpecker Avenue"/>
    <tag k="addr:state" v="VT"/>
    <tag k="ref:vcgi:esiteid" v="311347"/>
  </node>
  <node id="-870" visible="true" lat="43.94657612" lon="-73.09902607">
    <tag k="addr:city" v="Salisbury"/>
    <tag k="addr:housenumber" v="45"/>
    <tag k="addr:street" v="Lower Plains Road"/>
    <tag k="addr:state" v="VT"/>
    <tag k="ref:vcgi:esiteid" v="311744"/>
  </node>
  <node id="-872" visible="true" lat="43.90076123" lon="-73.10740474">
    <tag k="addr:city" v="Salisbury"/>
    <tag k="addr:housenumber" v="515"/>
    <tag k="addr:street" v="Maple Street"/>
    <tag k="addr:state" v="VT"/>
    <tag k="ref:vcgi:esiteid" v="311746"/>
  </node>
  <node id="-873" visible="true" lat="43.9164111" lon="-73.16150674">
    <tag k="addr:city" v="Salisbury"/>
    <tag k="addr:housenumber" v="124"/>
    <tag k="addr:street" v="Dewey Road"/>
    <tag k="addr:state" v="VT"/>
    <tag k="ref:vcgi:esiteid" v="315450"/>
  </node>
  <node id="-875" visible="true" lat="43.91166341" lon="-73.11749054">
    <tag k="addr:city" v="Salisbury"/>
    <tag k="addr:housenumber" v="1028"/>
    <tag k="addr:street" v="West Salisbury Road"/>
    <tag k="addr:state" v="VT"/>
    <tag k="ref:vcgi:esiteid" v="327646"/>
  </node>
  <node id="-876" visible="true" lat="43.90663391" lon="-73.10392975">
    <tag k="addr:city" v="Salisbury"/>
    <tag k="addr:housenumber" v="12"/>
    <tag k="addr:street" v="Crane View Drive"/>
    <tag k="addr:state" v="VT"/>
    <tag k="ref:vcgi:esiteid" v="328134"/>
  </node>
  <node id="-877" visible="true" lat="43.90109357" lon="-73.15244818">
    <tag k="addr:city" v="Salisbury"/>
    <tag k="addr:housenumber" v="1402"/>
    <tag k="addr:street" v="Leland Road"/>
    <tag k="addr:state" v="VT"/>
    <tag k="ref:vcgi:esiteid" v="329532"/>
  </node>
  <node id="-878" visible="true" lat="43.91595311" lon="-73.16176868">
    <tag k="addr:city" v="Salisbury"/>
    <tag k="addr:housenumber" v="158"/>
    <tag k="addr:street" v="Dewey Road"/>
    <tag k="addr:state" v="VT"/>
    <tag k="ref:vcgi:esiteid" v="329629"/>
  </node>
  <node id="-879" visible="true" lat="43.88833724" lon="-73.15040223">
    <tag k="addr:city" v="Salisbury"/>
    <tag k="addr:housenumber" v="2392"/>
    <tag k="addr:street" v="Leland Road"/>
    <tag k="addr:state" v="VT"/>
    <tag k="ref:vcgi:esiteid" v="332446"/>
  </node>
  <node id="-880" visible="true" lat="43.90515628" lon="-73.10329855">
    <tag k="addr:city" v="Salisbury"/>
    <tag k="addr:housenumber" v="1570"/>
    <tag k="addr:street" v="Smead Road"/>
    <tag k="addr:state" v="VT"/>
    <tag k="ref:vcgi:esiteid" v="332447"/>
  </node>
  <node id="-881" visible="true" lat="43.92399817" lon="-73.10189147">
    <tag k="addr:city" v="Salisbury"/>
    <tag k="addr:housenumber" v="250"/>
    <tag k="addr:street" v="Smead Road"/>
    <tag k="addr:state" v="VT"/>
    <tag k="ref:vcgi:esiteid" v="332448"/>
  </node>
  <node id="-882" visible="true" lat="43.95475911" lon="-73.07640452">
    <tag k="addr:city" v="Salisbury"/>
    <tag k="addr:housenumber" v="2688"/>
    <tag k="addr:street" v="Upper Plains Road"/>
    <tag k="addr:state" v="VT"/>
    <tag k="ref:vcgi:esiteid" v="332449"/>
  </node>
  <node id="-883" visible="true" lat="43.91110212" lon="-73.08935031">
    <tag k="addr:city" v="Salisbury"/>
    <tag k="addr:housenumber" v="658"/>
    <tag k="addr:street" v="West Shore Road"/>
    <tag k="addr:state" v="VT"/>
    <tag k="ref:vcgi:esiteid" v="334050"/>
  </node>
  <node id="-884" visible="true" lat="43.90818711" lon="-73.10371375">
    <tag k="addr:city" v="Salisbury"/>
    <tag k="addr:housenumber" v="1352"/>
    <tag k="addr:street" v="Smead Road"/>
    <tag k="addr:state" v="VT"/>
    <tag k="ref:vcgi:esiteid" v="336297"/>
  </node>
  <node id="-886" visible="true" lat="43.90988682" lon="-73.11682147">
    <tag k="addr:city" v="Salisbury"/>
    <tag k="addr:housenumber" v="864"/>
    <tag k="addr:street" v="West Salisbury Road"/>
    <tag k="addr:state" v="VT"/>
    <tag k="ref:vcgi:esiteid" v="337347"/>
  </node>
  <node id="-887" visible="true" lat="43.92111746" lon="-73.13141973">
    <tag k="addr:city" v="Salisbury"/>
    <tag k="addr:housenumber" v="1971"/>
    <tag k="addr:street" v="West Salisbury Road"/>
    <tag k="addr:state" v="VT"/>
    <tag k="ref:vcgi:esiteid" v="338936"/>
  </node>
  <node id="-888" visible="true" lat="43.93442744" lon="-73.13347669">
    <tag k="addr:city" v="Salisbury"/>
    <tag k="addr:housenumber" v="883"/>
    <tag k="addr:street" v="Middle Road"/>
    <tag k="addr:state" v="VT"/>
    <tag k="ref:vcgi:esiteid" v="339224"/>
  </node>
  <node id="-889" visible="true" lat="43.91791702" lon="-73.08316205">
    <tag k="addr:city" v="Salisbury"/>
    <tag k="addr:housenumber" v="148"/>
    <tag k="addr:street" v="Rustic Lane"/>
    <tag k="addr:state" v="VT"/>
    <tag k="ref:vcgi:esiteid" v="341365"/>
  </node>
  <node id="-891" visible="true" lat="43.92189188" lon="-73.10331099">
    <tag k="addr:city" v="Salisbury"/>
    <tag k="addr:housenumber" v="262"/>
    <tag k="addr:street" v="Smead Road"/>
    <tag k="addr:state" v="VT"/>
    <tag k="ref:vcgi:esiteid" v="341861"/>
  </node>
  <node id="-892" visible="true" lat="43.8956879" lon="-73.09339073">
    <tag k="addr:city" v="Salisbury"/>
    <tag k="addr:housenumber" v="1951"/>
    <tag k="addr:street" v="West Shore Road"/>
    <tag k="addr:state" v="VT"/>
    <tag k="ref:vcgi:esiteid" v="342150"/>
  </node>
  <node id="-893" visible="true" lat="43.9231029" lon="-73.08518426">
    <tag k="addr:city" v="Salisbury"/>
    <tag k="addr:housenumber" v="59"/>
    <tag k="addr:street" v="Chickadee Avenue"/>
    <tag k="addr:state" v="VT"/>
    <tag k="ref:vcgi:esiteid" v="343393"/>
  </node>
  <node id="-894" visible="true" lat="43.92383035" lon="-73.08288463">
    <tag k="addr:city" v="Salisbury"/>
    <tag k="addr:housenumber" v="164"/>
    <tag k="addr:street" v="Blue Jay Avenue"/>
    <tag k="addr:state" v="VT"/>
    <tag k="ref:vcgi:esiteid" v="343394"/>
  </node>
  <node id="-895" visible="true" lat="43.92415662" lon="-73.0835228">
    <tag k="addr:city" v="Salisbury"/>
    <tag k="addr:housenumber" v="154"/>
    <tag k="addr:street" v="Blue Jay Avenue"/>
    <tag k="addr:state" v="VT"/>
    <tag k="ref:vcgi:esiteid" v="343395"/>
  </node>
  <node id="-897" visible="true" lat="43.92457146" lon="-73.08421568">
    <tag k="addr:city" v="Salisbury"/>
    <tag k="addr:housenumber" v="124"/>
    <tag k="addr:street" v="Gold Finch Avenue"/>
    <tag k="addr:state" v="VT"/>
    <tag k="ref:vcgi:esiteid" v="343397"/>
  </node>
  <node id="-898" visible="true" lat="43.92454817" lon="-73.08403599">
    <tag k="addr:city" v="Salisbury"/>
    <tag k="addr:housenumber" v="125"/>
    <tag k="addr:street" v="Gold Finch Avenue"/>
    <tag k="addr:state" v="VT"/>
    <tag k="ref:vcgi:esiteid" v="343398"/>
  </node>
  <node id="-899" visible="true" lat="43.9081015" lon="-73.16190765">
    <tag k="addr:city" v="Salisbury"/>
    <tag k="addr:housenumber" v="713"/>
    <tag k="addr:street" v="Dewey Road"/>
    <tag k="addr:state" v="VT"/>
    <tag k="ref:vcgi:esiteid" v="345411"/>
  </node>
  <node id="-900" visible="true" lat="43.93926379" lon="-73.07857995">
    <tag k="addr:city" v="Salisbury"/>
    <tag k="addr:housenumber" v="1853"/>
    <tag k="addr:street" v="Lake Dunmore Road"/>
    <tag k="addr:state" v="VT"/>
    <tag k="ref:vcgi:esiteid" v="365211"/>
  </node>
  <node id="-901" visible="true" lat="43.93682811" lon="-73.09048307">
    <tag k="addr:city" v="Salisbury"/>
    <tag k="addr:housenumber" v="1120"/>
    <tag k="addr:street" v="Upper Plains Road"/>
    <tag k="addr:state" v="VT"/>
    <tag k="ref:vcgi:esiteid" v="446009"/>
  </node>
  <node id="-902" visible="true" lat="43.89783718" lon="-73.15063826">
    <tag k="addr:city" v="Salisbury"/>
    <tag k="addr:housenumber" v="1696"/>
    <tag k="addr:street" v="Leland Road"/>
    <tag k="addr:state" v="VT"/>
    <tag k="ref:vcgi:esiteid" v="446572"/>
  </node>
  <node id="-904" visible="true" lat="43.95516208" lon="-73.07633139">
    <tag k="addr:city" v="Salisbury"/>
    <tag k="addr:housenumber" v="2770"/>
    <tag k="addr:street" v="Upper Plains Road"/>
    <tag k="addr:state" v="VT"/>
    <tag k="ref:vcgi:esiteid" v="447119"/>
  </node>
  <node id="-905" visible="true" lat="43.94924828" lon="-73.08383846">
    <tag k="addr:city" v="Salisbury"/>
    <tag k="addr:housenumber" v="2206"/>
    <tag k="addr:street" v="Upper Plains Road"/>
    <tag k="addr:state" v="VT"/>
    <tag k="ref:vcgi:esiteid" v="448379"/>
  </node>
  <node id="-906" visible="true" lat="43.89038534" lon="-73.1611374">
    <tag k="addr:city" v="Salisbury"/>
    <tag k="addr:housenumber" v="1966"/>
    <tag k="addr:street" v="Dewey Road"/>
    <tag k="addr:state" v="VT"/>
    <tag k="ref:vcgi:esiteid" v="448380"/>
  </node>
  <node id="-907" visible="true" lat="43.93965178" lon="-73.14654594">
    <tag k="addr:city" v="Salisbury"/>
    <tag k="addr:housenumber" v="569"/>
    <tag k="addr:street" v="Columbus Smith Road"/>
    <tag k="addr:state" v="VT"/>
    <tag k="ref:vcgi:esiteid" v="448446"/>
  </node>
  <node id="-908" visible="true" lat="43.94759731" lon="-73.08488067">
    <tag k="addr:city" v="Salisbury"/>
    <tag k="addr:housenumber" v="2120"/>
    <tag k="addr:street" v="Upper Plains Road"/>
    <tag k="addr:state" v="VT"/>
    <tag k="ref:vcgi:esiteid" v="449973"/>
  </node>
  <node id="-909" visible="true" lat="43.94805513" lon="-73.08415446">
    <tag k="addr:city" v="Salisbury"/>
    <tag k="addr:housenumber" v="2122"/>
    <tag k="addr:street" v="Upper Plains Road"/>
    <tag k="addr:state" v="VT"/>
    <tag k="ref:vcgi:esiteid" v="449974"/>
  </node>
  <node id="-910" visible="true" lat="43.91489334" lon="-73.04139349">
    <tag k="addr:city" v="Salisbury"/>
    <tag k="addr:housenumber" v="1149"/>
    <tag k="addr:street" v="National Forest Road 24b"/>
    <tag k="addr:state" v="VT"/>
    <tag k="ref:vcgi:esiteid" v="450363"/>
  </node>
  <node id="-911" visible="true" lat="43.91328597" lon="-73.0671262">
    <tag k="addr:city" v="Salisbury"/>
    <tag k="addr:housenumber" v="3045"/>
    <tag k="addr:street" v="Lake Dunmore Road"/>
    <tag k="addr:state" v="VT"/>
    <tag k="ref:vcgi:esiteid" v="452096"/>
  </node>
  <node id="-912" visible="true" lat="43.91072853" lon="-73.14954761">
    <tag k="addr:city" v="Salisbury"/>
    <tag k="addr:housenumber" v="845"/>
    <tag k="addr:street" v="Leland Road"/>
    <tag k="addr:state" v="VT"/>
    <tag k="ref:vcgi:esiteid" v="452328"/>
  </node>
  <node id="-913" visible="true" lat="43.92124093" lon="-73.08485225">
    <tag k="addr:city" v="Salisbury"/>
    <tag k="addr:housenumber" v="1"/>
    <tag k="addr:street" v="Swallow Drive"/>
    <tag k="addr:state" v="VT"/>
    <tag k="ref:vcgi:esiteid" v="453137"/>
  </node>
  <node id="-914" visible="true" lat="43.92146686" lon="-73.08495677">
    <tag k="addr:city" v="Salisbury"/>
    <tag k="addr:housenumber" v="2"/>
    <tag k="addr:street" v="Swallow Drive"/>
    <tag k="addr:state" v="VT"/>
    <tag k="ref:vcgi:esiteid" v="453138"/>
  </node>
  <node id="-915" visible="true" lat="43.92158689" lon="-73.08498353">
    <tag k="addr:city" v="Salisbury"/>
    <tag k="addr:housenumber" v="3"/>
    <tag k="addr:street" v="Swallow Drive"/>
    <tag k="addr:state" v="VT"/>
    <tag k="ref:vcgi:esiteid" v="453139"/>
  </node>
  <node id="-916" visible="true" lat="43.9217576" lon="-73.08504275">
    <tag k="addr:city" v="Salisbury"/>
    <tag k="addr:housenumber" v="4"/>
    <tag k="addr:street" v="Swallow Drive"/>
    <tag k="addr:state" v="VT"/>
    <tag k="ref:vcgi:esiteid" v="453140"/>
  </node>
  <node id="-917" visible="true" lat="43.92199769" lon="-73.08508986">
    <tag k="addr:city" v="Salisbury"/>
    <tag k="addr:housenumber" v="5"/>
    <tag k="addr:street" v="Swallow Drive"/>
    <tag k="addr:state" v="VT"/>
    <tag k="ref:vcgi:esiteid" v="453141"/>
  </node>
  <node id="-918" visible="true" lat="43.92202283" lon="-73.08469366">
    <tag k="addr:city" v="Salisbury"/>
    <tag k="addr:housenumber" v="10"/>
    <tag k="addr:street" v="Swallow Drive"/>
    <tag k="addr:state" v="VT"/>
    <tag k="ref:vcgi:esiteid" v="453142"/>
  </node>
  <node id="-919" visible="true" lat="43.92185199" lon="-73.08466002">
    <tag k="addr:city" v="Salisbury"/>
    <tag k="addr:housenumber" v="9"/>
    <tag k="addr:street" v="Swallow Drive"/>
    <tag k="addr:state" v="VT"/>
    <tag k="ref:vcgi:esiteid" v="453143"/>
  </node>
  <node id="-920" visible="true" lat="43.92168578" lon="-73.08462642">
    <tag k="addr:city" v="Salisbury"/>
    <tag k="addr:housenumber" v="8"/>
    <tag k="addr:street" v="Swallow Drive"/>
    <tag k="addr:state" v="VT"/>
    <tag k="ref:vcgi:esiteid" v="453144"/>
  </node>
  <node id="-921" visible="true" lat="43.92153828" lon="-73.08454824">
    <tag k="addr:city" v="Salisbury"/>
    <tag k="addr:housenumber" v="7"/>
    <tag k="addr:street" v="Swallow Drive"/>
    <tag k="addr:state" v="VT"/>
    <tag k="ref:vcgi:esiteid" v="453145"/>
  </node>
  <node id="-922" visible="true" lat="43.92134909" lon="-73.08448884">
    <tag k="addr:city" v="Salisbury"/>
    <tag k="addr:housenumber" v="6"/>
    <tag k="addr:street" v="Swallow Drive"/>
    <tag k="addr:state" v="VT"/>
    <tag k="ref:vcgi:esiteid" v="453146"/>
  </node>
  <node id="-923" visible="true" lat="43.92408411" lon="-73.08470106">
    <tag k="addr:city" v="Salisbury"/>
    <tag k="addr:housenumber" v="111"/>
    <tag k="addr:street" v="Owls Avenue"/>
    <tag k="addr:state" v="VT"/>
    <tag k="ref:vcgi:esiteid" v="453147"/>
  </node>
  <node id="-924" visible="true" lat="43.92406464" lon="-73.08489271">
    <tag k="addr:city" v="Salisbury"/>
    <tag k="addr:housenumber" v="112"/>
    <tag k="addr:street" v="Owls Avenue"/>
    <tag k="addr:state" v="VT"/>
    <tag k="ref:vcgi:esiteid" v="453148"/>
  </node>
  <node id="-925" visible="true" lat="43.92396156" lon="-73.08516666">
    <tag k="addr:city" v="Salisbury"/>
    <tag k="addr:housenumber" v="113"/>
    <tag k="addr:street" v="Owls Avenue"/>
    <tag k="addr:state" v="VT"/>
    <tag k="ref:vcgi:esiteid" v="453149"/>
  </node>
  <node id="-926" visible="true" lat="43.92387703" lon="-73.085428">
    <tag k="addr:city" v="Salisbury"/>
    <tag k="addr:housenumber" v="114"/>
    <tag k="addr:street" v="Owls Avenue"/>
    <tag k="addr:state" v="VT"/>
    <tag k="ref:vcgi:esiteid" v="453150"/>
  </node>
  <node id="-927" visible="true" lat="43.92379194" lon="-73.08579805">
    <tag k="addr:city" v="Salisbury"/>
    <tag k="addr:housenumber" v="115"/>
    <tag k="addr:street" v="Owls Avenue"/>
    <tag k="addr:state" v="VT"/>
    <tag k="ref:vcgi:esiteid" v="453151"/>
  </node>
  <node id="-928" visible="true" lat="43.92397762" lon="-73.08564001">
    <tag k="addr:city" v="Salisbury"/>
    <tag k="addr:housenumber" v="116"/>
    <tag k="addr:street" v="Owls Avenue"/>
    <tag k="addr:state" v="VT"/>
    <tag k="ref:vcgi:esiteid" v="453152"/>
  </node>
  <node id="-929" visible="true" lat="43.92408031" lon="-73.08544279">
    <tag k="addr:city" v="Salisbury"/>
    <tag k="addr:housenumber" v="117"/>
    <tag k="addr:street" v="Owls Avenue"/>
    <tag k="addr:state" v="VT"/>
    <tag k="ref:vcgi:esiteid" v="453153"/>
  </node>
  <node id="-930" visible="true" lat="43.92414583" lon="-73.08528357">
    <tag k="addr:city" v="Salisbury"/>
    <tag k="addr:housenumber" v="118"/>
    <tag k="addr:street" v="Owls Avenue"/>
    <tag k="addr:state" v="VT"/>
    <tag k="ref:vcgi:esiteid" v="453154"/>
  </node>
  <node id="-931" visible="true" lat="43.92419742" lon="-73.085137">
    <tag k="addr:city" v="Salisbury"/>
    <tag k="addr:housenumber" v="119"/>
    <tag k="addr:street" v="Owls Avenue"/>
    <tag k="addr:state" v="VT"/>
    <tag k="ref:vcgi:esiteid" v="453155"/>
  </node>
  <node id="-932" visible="true" lat="43.9242814" lon="-73.08498435">
    <tag k="addr:city" v="Salisbury"/>
    <tag k="addr:housenumber" v="120"/>
    <tag k="addr:street" v="Owls Avenue"/>
    <tag k="addr:state" v="VT"/>
    <tag k="ref:vcgi:esiteid" v="453156"/>
  </node>
  <node id="-933" visible="true" lat="43.92431958" lon="-73.08474813">
    <tag k="addr:city" v="Salisbury"/>
    <tag k="addr:housenumber" v="121"/>
    <tag k="addr:street" v="Owls Avenue"/>
    <tag k="addr:state" v="VT"/>
    <tag k="ref:vcgi:esiteid" v="453157"/>
  </node>
  <node id="-934" visible="true" lat="43.92217976" lon="-73.08518594">
    <tag k="addr:city" v="Salisbury"/>
    <tag k="addr:housenumber" v="11"/>
    <tag k="addr:street" v="Robins Road"/>
    <tag k="addr:state" v="VT"/>
    <tag k="ref:vcgi:esiteid" v="453299"/>
  </node>
  <node id="-935" visible="true" lat="43.92215865" lon="-73.08539367">
    <tag k="addr:city" v="Salisbury"/>
    <tag k="addr:housenumber" v="12"/>
    <tag k="addr:street" v="Robins Road"/>
    <tag k="addr:state" v="VT"/>
    <tag k="ref:vcgi:esiteid" v="453300"/>
  </node>
  <node id="-936" visible="true" lat="43.92213766" lon="-73.0855806">
    <tag k="addr:city" v="Salisbury"/>
    <tag k="addr:housenumber" v="13"/>
    <tag k="addr:street" v="Robins Road"/>
    <tag k="addr:state" v="VT"/>
    <tag k="ref:vcgi:esiteid" v="453301"/>
  </node>
  <node id="-937" visible="true" lat="43.92212185" lon="-73.08573293">
    <tag k="addr:city" v="Salisbury"/>
    <tag k="addr:housenumber" v="14"/>
    <tag k="addr:street" v="Robins Road"/>
    <tag k="addr:state" v="VT"/>
    <tag k="ref:vcgi:esiteid" v="453302"/>
  </node>
  <node id="-938" visible="true" lat="43.92211602" lon="-73.08589228">
    <tag k="addr:city" v="Salisbury"/>
    <tag k="addr:housenumber" v="15"/>
    <tag k="addr:street" v="Robins Road"/>
    <tag k="addr:state" v="VT"/>
    <tag k="ref:vcgi:esiteid" v="453303"/>
  </node>
  <node id="-939" visible="true" lat="43.92233559" lon="-73.08606078">
    <tag k="addr:city" v="Salisbury"/>
    <tag k="addr:housenumber" v="16"/>
    <tag k="addr:street" v="Robins Road"/>
    <tag k="addr:state" v="VT"/>
    <tag k="ref:vcgi:esiteid" v="453304"/>
  </node>
  <node id="-940" visible="true" lat="43.92236682" lon="-73.08583236">
    <tag k="addr:city" v="Salisbury"/>
    <tag k="addr:housenumber" v="17"/>
    <tag k="addr:street" v="Robins Road"/>
    <tag k="addr:state" v="VT"/>
    <tag k="ref:vcgi:esiteid" v="453305"/>
  </node>
  <node id="-941" visible="true" lat="43.92239275" lon="-73.08565934">
    <tag k="addr:city" v="Salisbury"/>
    <tag k="addr:housenumber" v="18"/>
    <tag k="addr:street" v="Robins Road"/>
    <tag k="addr:state" v="VT"/>
    <tag k="ref:vcgi:esiteid" v="453306"/>
  </node>
  <node id="-942" visible="true" lat="43.922434" lon="-73.08543102">
    <tag k="addr:city" v="Salisbury"/>
    <tag k="addr:housenumber" v="19"/>
    <tag k="addr:street" v="Robins Road"/>
    <tag k="addr:state" v="VT"/>
    <tag k="ref:vcgi:esiteid" v="453307"/>
  </node>
  <node id="-943" visible="true" lat="43.92244505" lon="-73.08523013">
    <tag k="addr:city" v="Salisbury"/>
    <tag k="addr:housenumber" v="20"/>
    <tag k="addr:street" v="Robins Road"/>
    <tag k="addr:state" v="VT"/>
    <tag k="ref:vcgi:esiteid" v="453308"/>
  </node>
  <node id="-944" visible="true" lat="43.92247091" lon="-73.08507097">
    <tag k="addr:city" v="Salisbury"/>
    <tag k="addr:housenumber" v="21"/>
    <tag k="addr:street" v="Robins Road"/>
    <tag k="addr:state" v="VT"/>
    <tag k="ref:vcgi:esiteid" v="453309"/>
  </node>
  <node id="-945" visible="true" lat="43.92250225" lon="-73.08482176">
    <tag k="addr:city" v="Salisbury"/>
    <tag k="addr:housenumber" v="22"/>
    <tag k="addr:street" v="Swallow Drive"/>
    <tag k="addr:state" v="VT"/>
    <tag k="ref:vcgi:esiteid" v="453310"/>
  </node>
  <node id="-946" visible="true" lat="43.9225182" lon="-73.0846417">
    <tag k="addr:city" v="Salisbury"/>
    <tag k="addr:housenumber" v="23"/>
    <tag k="addr:street" v="Swallow Drive"/>
    <tag k="addr:state" v="VT"/>
    <tag k="ref:vcgi:esiteid" v="453311"/>
  </node>
  <node id="-947" visible="true" lat="43.92253408" lon="-73.08447551">
    <tag k="addr:city" v="Salisbury"/>
    <tag k="addr:housenumber" v="24"/>
    <tag k="addr:street" v="Swallow Drive"/>
    <tag k="addr:state" v="VT"/>
    <tag k="ref:vcgi:esiteid" v="453312"/>
  </node>
  <node id="-948" visible="true" lat="43.92254484" lon="-73.08433007">
    <tag k="addr:city" v="Salisbury"/>
    <tag k="addr:housenumber" v="25"/>
    <tag k="addr:street" v="Swallow Drive"/>
    <tag k="addr:state" v="VT"/>
    <tag k="ref:vcgi:esiteid" v="453313"/>
  </node>
  <node id="-949" visible="true" lat="43.92271012" lon="-73.08433862">
    <tag k="addr:city" v="Salisbury"/>
    <tag k="addr:housenumber" v="26"/>
    <tag k="addr:street" v="Swallow Drive"/>
    <tag k="addr:state" v="VT"/>
    <tag k="ref:vcgi:esiteid" v="453314"/>
  </node>
  <node id="-950" visible="true" lat="43.9228102" lon="-73.08436039">
    <tag k="addr:city" v="Salisbury"/>
    <tag k="addr:housenumber" v="27"/>
    <tag k="addr:street" v="Swallow Drive"/>
    <tag k="addr:state" v="VT"/>
    <tag k="ref:vcgi:esiteid" v="453315"/>
  </node>
  <node id="-951" visible="true" lat="43.92292542" lon="-73.08436152">
    <tag k="addr:city" v="Salisbury"/>
    <tag k="addr:housenumber" v="28"/>
    <tag k="addr:street" v="Swallow Drive"/>
    <tag k="addr:state" v="VT"/>
    <tag k="ref:vcgi:esiteid" v="453316"/>
  </node>
  <node id="-952" visible="true" lat="43.9229396" lon="-73.084528">
    <tag k="addr:city" v="Salisbury"/>
    <tag k="addr:housenumber" v="29"/>
    <tag k="addr:street" v="Chickadee Avenue"/>
    <tag k="addr:state" v="VT"/>
    <tag k="ref:vcgi:esiteid" v="453317"/>
  </node>
  <node id="-953" visible="true" lat="43.9229186" lon="-73.08471494">
    <tag k="addr:city" v="Salisbury"/>
    <tag k="addr:housenumber" v="30"/>
    <tag k="addr:street" v="Chickadee Avenue"/>
    <tag k="addr:state" v="VT"/>
    <tag k="ref:vcgi:esiteid" v="453318"/>
  </node>
  <node id="-955" visible="true" lat="43.92284116" lon="-73.0851647">
    <tag k="addr:city" v="Salisbury"/>
    <tag k="addr:housenumber" v="31"/>
    <tag k="addr:street" v="Chickadee Avenue"/>
    <tag k="addr:state" v="VT"/>
    <tag k="ref:vcgi:esiteid" v="453320"/>
  </node>
  <node id="-956" visible="true" lat="43.92284538" lon="-73.08531723">
    <tag k="addr:city" v="Salisbury"/>
    <tag k="addr:housenumber" v="31A"/>
    <tag k="addr:street" v="Chickadee Avenue"/>
    <tag k="addr:state" v="VT"/>
    <tag k="ref:vcgi:esiteid" v="453321"/>
  </node>
  <node id="-957" visible="true" lat="43.92283942" lon="-73.08550431">
    <tag k="addr:city" v="Salisbury"/>
    <tag k="addr:housenumber" v="32"/>
    <tag k="addr:street" v="Chickadee Avenue"/>
    <tag k="addr:state" v="VT"/>
    <tag k="ref:vcgi:esiteid" v="453322"/>
  </node>
  <node id="-958" visible="true" lat="43.92283853" lon="-73.08567758">
    <tag k="addr:city" v="Salisbury"/>
    <tag k="addr:housenumber" v="33"/>
    <tag k="addr:street" v="Chickadee Avenue"/>
    <tag k="addr:state" v="VT"/>
    <tag k="ref:vcgi:esiteid" v="453323"/>
  </node>
  <node id="-959" visible="true" lat="43.92281757" lon="-73.08585758">
    <tag k="addr:city" v="Salisbury"/>
    <tag k="addr:housenumber" v="34"/>
    <tag k="addr:street" v="Chickadee Avenue"/>
    <tag k="addr:state" v="VT"/>
    <tag k="ref:vcgi:esiteid" v="453324"/>
  </node>
  <node id="-960" visible="true" lat="43.92281671" lon="-73.08602392">
    <tag k="addr:city" v="Salisbury"/>
    <tag k="addr:housenumber" v="35"/>
    <tag k="addr:street" v="Chickadee Avenue"/>
    <tag k="addr:state" v="VT"/>
    <tag k="ref:vcgi:esiteid" v="453325"/>
  </node>
  <node id="-961" visible="true" lat="43.9228008" lon="-73.08619704">
    <tag k="addr:city" v="Salisbury"/>
    <tag k="addr:housenumber" v="36"/>
    <tag k="addr:street" v="Chickadee Avenue"/>
    <tag k="addr:state" v="VT"/>
    <tag k="ref:vcgi:esiteid" v="453326"/>
  </node>
  <node id="-962" visible="true" lat="43.92276992" lon="-73.08635616">
    <tag k="addr:city" v="Salisbury"/>
    <tag k="addr:housenumber" v="37"/>
    <tag k="addr:street" v="Chickadee Avenue"/>
    <tag k="addr:state" v="VT"/>
    <tag k="ref:vcgi:esiteid" v="453327"/>
  </node>
  <node id="-963" visible="true" lat="43.9227141" lon="-73.08649423">
    <tag k="addr:city" v="Salisbury"/>
    <tag k="addr:housenumber" v="39"/>
    <tag k="addr:street" v="Chickadee Avenue"/>
    <tag k="addr:state" v="VT"/>
    <tag k="ref:vcgi:esiteid" v="453328"/>
  </node>
  <node id="-964" visible="true" lat="43.92262379" lon="-73.08652107">
    <tag k="addr:city" v="Salisbury"/>
    <tag k="addr:housenumber" v="40"/>
    <tag k="addr:street" v="Chickadee Avenue"/>
    <tag k="addr:state" v="VT"/>
    <tag k="ref:vcgi:esiteid" v="453329"/>
  </node>
  <node id="-965" visible="true" lat="43.92253398" lon="-73.08645087">
    <tag k="addr:city" v="Salisbury"/>
    <tag k="addr:housenumber" v="41"/>
    <tag k="addr:street" v="Chickadee Avenue"/>
    <tag k="addr:state" v="VT"/>
    <tag k="ref:vcgi:esiteid" v="453330"/>
  </node>
  <node id="-966" visible="true" lat="43.92242419" lon="-73.08636662">
    <tag k="addr:city" v="Salisbury"/>
    <tag k="addr:housenumber" v="42"/>
    <tag k="addr:street" v="Robins Road"/>
    <tag k="addr:state" v="VT"/>
    <tag k="ref:vcgi:esiteid" v="453331"/>
  </node>
  <node id="-967" visible="true" lat="43.92235964" lon="-73.08625509">
    <tag k="addr:city" v="Salisbury"/>
    <tag k="addr:housenumber" v="43"/>
    <tag k="addr:street" v="Robins Road"/>
    <tag k="addr:state" v="VT"/>
    <tag k="ref:vcgi:esiteid" v="453332"/>
  </node>
  <node id="-968" visible="true" lat="43.92198854" lon="-73.08632769">
    <tag k="addr:city" v="Salisbury"/>
    <tag k="addr:housenumber" v="44A"/>
    <tag k="addr:street" v="Robins Road"/>
    <tag k="addr:state" v="VT"/>
    <tag k="ref:vcgi:esiteid" v="453333"/>
  </node>
  <node id="-969" visible="true" lat="43.92211833" lon="-73.08641907">
    <tag k="addr:city" v="Salisbury"/>
    <tag k="addr:housenumber" v="44"/>
    <tag k="addr:street" v="Robins Road"/>
    <tag k="addr:state" v="VT"/>
    <tag k="ref:vcgi:esiteid" v="453334"/>
  </node>
  <node id="-970" visible="true" lat="43.92221806" lon="-73.08651015">
    <tag k="addr:city" v="Salisbury"/>
    <tag k="addr:housenumber" v="45"/>
    <tag k="addr:street" v="Robins Road"/>
    <tag k="addr:state" v="VT"/>
    <tag k="ref:vcgi:esiteid" v="453335"/>
  </node>
  <node id="-971" visible="true" lat="43.92230777" lon="-73.08660113">
    <tag k="addr:city" v="Salisbury"/>
    <tag k="addr:housenumber" v="46"/>
    <tag k="addr:street" v="Robins Road"/>
    <tag k="addr:state" v="VT"/>
    <tag k="ref:vcgi:esiteid" v="453336"/>
  </node>
  <node id="-972" visible="true" lat="43.92242227" lon="-73.08674088">
    <tag k="addr:city" v="Salisbury"/>
    <tag k="addr:housenumber" v="47"/>
    <tag k="addr:street" v="Chickadee Avenue"/>
    <tag k="addr:state" v="VT"/>
    <tag k="ref:vcgi:esiteid" v="453337"/>
  </node>
  <node id="-973" visible="true" lat="43.92257718" lon="-73.08681864">
    <tag k="addr:city" v="Salisbury"/>
    <tag k="addr:housenumber" v="48"/>
    <tag k="addr:street" v="Chickadee Avenue"/>
    <tag k="addr:state" v="VT"/>
    <tag k="ref:vcgi:esiteid" v="453338"/>
  </node>
  <node id="-974" visible="true" lat="43.9226672" lon="-73.08684725">
    <tag k="addr:city" v="Salisbury"/>
    <tag k="addr:housenumber" v="49"/>
    <tag k="addr:street" v="Chickadee Avenue"/>
    <tag k="addr:state" v="VT"/>
    <tag k="ref:vcgi:esiteid" v="453339"/>
  </node>
  <node id="-975" visible="true" lat="43.92290237" lon="-73.08690502">
    <tag k="addr:city" v="Salisbury"/>
    <tag k="addr:housenumber" v="51"/>
    <tag k="addr:street" v="Chickadee Avenue"/>
    <tag k="addr:state" v="VT"/>
    <tag k="ref:vcgi:esiteid" v="453340"/>
  </node>
  <node id="-976" visible="true" lat="43.92277208" lon="-73.08691067">
    <tag k="addr:city" v="Salisbury"/>
    <tag k="addr:housenumber" v="50"/>
    <tag k="addr:street" v="Chickadee Avenue"/>
    <tag k="addr:state" v="VT"/>
    <tag k="ref:vcgi:esiteid" v="453341"/>
  </node>
  <node id="-977" visible="true" lat="43.92226246" lon="-73.08468772">
    <tag k="addr:city" v="Salisbury"/>
    <tag k="addr:housenumber" v="188"/>
    <tag k="addr:street" v="Swallow Drive"/>
    <tag k="addr:state" v="VT"/>
    <tag k="ref:vcgi:esiteid" v="453342"/>
  </node>
  <node id="-978" visible="true" lat="43.9222684" lon="-73.08450757">
    <tag k="addr:city" v="Salisbury"/>
    <tag k="addr:housenumber" v="187"/>
    <tag k="addr:street" v="Swallow Drive"/>
    <tag k="addr:state" v="VT"/>
    <tag k="ref:vcgi:esiteid" v="453343"/>
  </node>
  <node id="-979" visible="true" lat="43.92230421" lon="-73.08436237">
    <tag k="addr:city" v="Salisbury"/>
    <tag k="addr:housenumber" v="186"/>
    <tag k="addr:street" v="Swallow Drive"/>
    <tag k="addr:state" v="VT"/>
    <tag k="ref:vcgi:esiteid" v="453344"/>
  </node>
  <node id="-980" visible="true" lat="43.92233508" lon="-73.08420325">
    <tag k="addr:city" v="Salisbury"/>
    <tag k="addr:housenumber" v="185"/>
    <tag k="addr:street" v="Swallow Drive"/>
    <tag k="addr:state" v="VT"/>
    <tag k="ref:vcgi:esiteid" v="453345"/>
  </node>
  <node id="-981" visible="true" lat="43.92204545" lon="-73.08402021">
    <tag k="addr:city" v="Salisbury"/>
    <tag k="addr:housenumber" v="201"/>
    <tag k="addr:street" v="Looney Lane"/>
    <tag k="addr:state" v="VT"/>
    <tag k="ref:vcgi:esiteid" v="453346"/>
  </node>
  <node id="-982" visible="true" lat="43.92198054" lon="-73.08397799">
    <tag k="addr:city" v="Salisbury"/>
    <tag k="addr:housenumber" v="202"/>
    <tag k="addr:street" v="Looney Lane"/>
    <tag k="addr:state" v="VT"/>
    <tag k="ref:vcgi:esiteid" v="453347"/>
  </node>
  <node id="-983" visible="true" lat="43.92192046" lon="-73.08397047">
    <tag k="addr:city" v="Salisbury"/>
    <tag k="addr:housenumber" v="203"/>
    <tag k="addr:street" v="Looney Lane"/>
    <tag k="addr:state" v="VT"/>
    <tag k="ref:vcgi:esiteid" v="453348"/>
  </node>
  <node id="-984" visible="true" lat="43.9217567" lon="-73.08366391">
    <tag k="addr:city" v="Salisbury"/>
    <tag k="addr:housenumber" v="206"/>
    <tag k="addr:street" v="Looney Lane"/>
    <tag k="addr:state" v="VT"/>
    <tag k="ref:vcgi:esiteid" v="453349"/>
  </node>
  <node id="-985" visible="true" lat="43.92184172" lon="-73.08369246">
    <tag k="addr:city" v="Salisbury"/>
    <tag k="addr:housenumber" v="207"/>
    <tag k="addr:street" v="Looney Lane"/>
    <tag k="addr:state" v="VT"/>
    <tag k="ref:vcgi:esiteid" v="453350"/>
  </node>
  <node id="-986" visible="true" lat="43.92193196" lon="-73.08367948">
    <tag k="addr:city" v="Salisbury"/>
    <tag k="addr:housenumber" v="208"/>
    <tag k="addr:street" v="Looney Lane"/>
    <tag k="addr:state" v="VT"/>
    <tag k="ref:vcgi:esiteid" v="453351"/>
  </node>
  <node id="-987" visible="true" lat="43.92194798" lon="-73.08348557">
    <tag k="addr:city" v="Salisbury"/>
    <tag k="addr:housenumber" v="209"/>
    <tag k="addr:street" v="Looney Lane"/>
    <tag k="addr:state" v="VT"/>
    <tag k="ref:vcgi:esiteid" v="453352"/>
  </node>
  <node id="-988" visible="true" lat="43.92213277" lon="-73.08359827">
    <tag k="addr:city" v="Salisbury"/>
    <tag k="addr:housenumber" v="199"/>
    <tag k="addr:street" v="Looney Lane"/>
    <tag k="addr:state" v="VT"/>
    <tag k="ref:vcgi:esiteid" v="453353"/>
  </node>
  <node id="-989" visible="true" lat="43.92217916" lon="-73.08319302">
    <tag k="addr:city" v="Salisbury"/>
    <tag k="addr:housenumber" v="197"/>
    <tag k="addr:street" v="Looney Lane"/>
    <tag k="addr:state" v="VT"/>
    <tag k="ref:vcgi:esiteid" v="453354"/>
  </node>
  <node id="-990" visible="true" lat="43.92218842" lon="-73.08306136">
    <tag k="addr:city" v="Salisbury"/>
    <tag k="addr:housenumber" v="196"/>
    <tag k="addr:street" v="Looney Lane"/>
    <tag k="addr:state" v="VT"/>
    <tag k="ref:vcgi:esiteid" v="453355"/>
  </node>
  <node id="-991" visible="true" lat="43.92215579" lon="-73.08203208">
    <tag k="addr:city" v="Salisbury"/>
    <tag k="addr:housenumber" v="189"/>
    <tag k="addr:street" v="Looney Lane"/>
    <tag k="addr:state" v="VT"/>
    <tag k="ref:vcgi:esiteid" v="453356"/>
  </node>
  <node id="-992" visible="true" lat="43.92214998" lon="-73.08234104">
    <tag k="addr:city" v="Salisbury"/>
    <tag k="addr:housenumber" v="191"/>
    <tag k="addr:street" v="Looney Lane"/>
    <tag k="addr:state" v="VT"/>
    <tag k="ref:vcgi:esiteid" v="453357"/>
  </node>
  <node id="-993" visible="true" lat="43.92219353" lon="-73.0824899">
    <tag k="addr:city" v="Salisbury"/>
    <tag k="addr:housenumber" v="192"/>
    <tag k="addr:street" v="Looney Lane"/>
    <tag k="addr:state" v="VT"/>
    <tag k="ref:vcgi:esiteid" v="453358"/>
  </node>
  <node id="-994" visible="true" lat="43.92218284" lon="-73.08262148">
    <tag k="addr:city" v="Salisbury"/>
    <tag k="addr:housenumber" v="193"/>
    <tag k="addr:street" v="Looney Lane"/>
    <tag k="addr:state" v="VT"/>
    <tag k="ref:vcgi:esiteid" v="453359"/>
  </node>
  <node id="-995" visible="true" lat="43.92218942" lon="-73.0828653">
    <tag k="addr:city" v="Salisbury"/>
    <tag k="addr:housenumber" v="195"/>
    <tag k="addr:street" v="Looney Lane"/>
    <tag k="addr:state" v="VT"/>
    <tag k="ref:vcgi:esiteid" v="453360"/>
  </node>
  <node id="-997" visible="true" lat="43.92314811" lon="-73.08405303">
    <tag k="addr:city" v="Salisbury"/>
    <tag k="addr:housenumber" v="171"/>
    <tag k="addr:street" v="Swallow Drive"/>
    <tag k="addr:state" v="VT"/>
    <tag k="ref:vcgi:esiteid" v="453363"/>
  </node>
  <node id="-998" visible="true" lat="43.92301966" lon="-73.08402541">
    <tag k="addr:city" v="Salisbury"/>
    <tag k="addr:housenumber" v="172"/>
    <tag k="addr:street" v="Swallow Drive"/>
    <tag k="addr:state" v="VT"/>
    <tag k="ref:vcgi:esiteid" v="453364"/>
  </node>
  <node id="-999" visible="true" lat="43.92290536" lon="-73.0840243">
    <tag k="addr:city" v="Salisbury"/>
    <tag k="addr:housenumber" v="173"/>
    <tag k="addr:street" v="Swallow Drive"/>
    <tag k="addr:state" v="VT"/>
    <tag k="ref:vcgi:esiteid" v="453365"/>
  </node>
  <node id="-1000" visible="true" lat="43.92280539" lon="-73.08401673">
    <tag k="addr:city" v="Salisbury"/>
    <tag k="addr:housenumber" v="174"/>
    <tag k="addr:street" v="Swallow Drive"/>
    <tag k="addr:state" v="VT"/>
    <tag k="ref:vcgi:esiteid" v="453366"/>
  </node>
  <node id="-1001" visible="true" lat="43.92267697" lon="-73.08398253">
    <tag k="addr:city" v="Salisbury"/>
    <tag k="addr:housenumber" v="175"/>
    <tag k="addr:street" v="Seagul Circle"/>
    <tag k="addr:state" v="VT"/>
    <tag k="ref:vcgi:esiteid" v="453367"/>
  </node>
  <node id="-1002" visible="true" lat="43.92269683" lon="-73.08382458">
    <tag k="addr:city" v="Salisbury"/>
    <tag k="addr:housenumber" v="176"/>
    <tag k="addr:street" v="Seagul Circle"/>
    <tag k="addr:state" v="VT"/>
    <tag k="ref:vcgi:esiteid" v="453368"/>
  </node>
  <node id="-1003" visible="true" lat="43.92270233" lon="-73.08367967">
    <tag k="addr:city" v="Salisbury"/>
    <tag k="addr:housenumber" v="177"/>
    <tag k="addr:street" v="Seagul Circle"/>
    <tag k="addr:state" v="VT"/>
    <tag k="ref:vcgi:esiteid" v="453369"/>
  </node>
  <node id="-1004" visible="true" lat="43.9227032" lon="-73.08350836">
    <tag k="addr:city" v="Salisbury"/>
    <tag k="addr:housenumber" v="178"/>
    <tag k="addr:street" v="Seagul Circle"/>
    <tag k="addr:state" v="VT"/>
    <tag k="ref:vcgi:esiteid" v="453370"/>
  </node>
  <node id="-1005" visible="true" lat="43.92266118" lon="-73.08334321">
    <tag k="addr:city" v="Salisbury"/>
    <tag k="addr:housenumber" v="179"/>
    <tag k="addr:street" v="Seagul Circle"/>
    <tag k="addr:state" v="VT"/>
    <tag k="ref:vcgi:esiteid" v="453371"/>
  </node>
  <node id="-1006" visible="true" lat="43.92258569" lon="-73.0832041">
    <tag k="addr:city" v="Salisbury"/>
    <tag k="addr:housenumber" v="180"/>
    <tag k="addr:street" v="Seagul Circle"/>
    <tag k="addr:state" v="VT"/>
    <tag k="ref:vcgi:esiteid" v="453372"/>
  </node>
  <node id="-1007" visible="true" lat="43.92249081" lon="-73.08313069">
    <tag k="addr:city" v="Salisbury"/>
    <tag k="addr:housenumber" v="181"/>
    <tag k="addr:street" v="Seagul Circle"/>
    <tag k="addr:state" v="VT"/>
    <tag k="ref:vcgi:esiteid" v="453373"/>
  </node>
  <node id="-1008" visible="true" lat="43.92238131" lon="-73.08312303">
    <tag k="addr:city" v="Salisbury"/>
    <tag k="addr:housenumber" v="182"/>
    <tag k="addr:street" v="Seagul Circle"/>
    <tag k="addr:state" v="VT"/>
    <tag k="ref:vcgi:esiteid" v="453374"/>
  </node>
  <node id="-1009" visible="true" lat="43.92229729" lon="-73.08372183">
    <tag k="addr:city" v="Salisbury"/>
    <tag k="addr:housenumber" v="183"/>
    <tag k="addr:street" v="Seagul Circle"/>
    <tag k="addr:state" v="VT"/>
    <tag k="ref:vcgi:esiteid" v="453375"/>
  </node>
  <node id="-1010" visible="true" lat="43.92232525" lon="-73.08384071">
    <tag k="addr:city" v="Salisbury"/>
    <tag k="addr:housenumber" v="184"/>
    <tag k="addr:street" v="Seagul Circle"/>
    <tag k="addr:state" v="VT"/>
    <tag k="ref:vcgi:esiteid" v="453376"/>
  </node>
  <node id="-1011" visible="true" lat="43.92296948" lon="-73.08638389">
    <tag k="addr:city" v="Salisbury"/>
    <tag k="addr:housenumber" v="53"/>
    <tag k="addr:street" v="Chickadee Avenue"/>
    <tag k="addr:state" v="VT"/>
    <tag k="ref:vcgi:esiteid" v="453377"/>
  </node>
  <node id="-1012" visible="true" lat="43.92299417" lon="-73.08621281">
    <tag k="addr:city" v="Salisbury"/>
    <tag k="addr:housenumber" v="54"/>
    <tag k="addr:street" v="Chickadee Avenue"/>
    <tag k="addr:state" v="VT"/>
    <tag k="ref:vcgi:esiteid" v="453378"/>
  </node>
  <node id="-1013" visible="true" lat="43.92300931" lon="-73.08604823">
    <tag k="addr:city" v="Salisbury"/>
    <tag k="addr:housenumber" v="55"/>
    <tag k="addr:street" v="Chickadee Avenue"/>
    <tag k="addr:state" v="VT"/>
    <tag k="ref:vcgi:esiteid" v="453379"/>
  </node>
  <node id="-1014" visible="true" lat="43.92319831" lon="-73.08448183">
    <tag k="addr:city" v="Salisbury"/>
    <tag k="addr:housenumber" v="63"/>
    <tag k="addr:street" v="Chickadee Avenue"/>
    <tag k="addr:state" v="VT"/>
    <tag k="ref:vcgi:esiteid" v="453380"/>
  </node>
  <node id="-1015" visible="true" lat="43.92316393" lon="-73.08468576">
    <tag k="addr:city" v="Salisbury"/>
    <tag k="addr:housenumber" v="62"/>
    <tag k="addr:street" v="Chickadee Avenue"/>
    <tag k="addr:state" v="VT"/>
    <tag k="ref:vcgi:esiteid" v="453381"/>
  </node>
  <node id="-1016" visible="true" lat="43.92315356" lon="-73.08485039">
    <tag k="addr:city" v="Salisbury"/>
    <tag k="addr:housenumber" v="61"/>
    <tag k="addr:street" v="Chickadee Avenue"/>
    <tag k="addr:state" v="VT"/>
    <tag k="ref:vcgi:esiteid" v="453382"/>
  </node>
  <node id="-1017" visible="true" lat="43.92310503" lon="-73.08502782">
    <tag k="addr:city" v="Salisbury"/>
    <tag k="addr:housenumber" v="60"/>
    <tag k="addr:street" v="Chickadee Avenue"/>
    <tag k="addr:state" v="VT"/>
    <tag k="ref:vcgi:esiteid" v="453383"/>
  </node>
  <node id="-1018" visible="true" lat="43.92306027" lon="-73.08539639">
    <tag k="addr:city" v="Salisbury"/>
    <tag k="addr:housenumber" v="58"/>
    <tag k="addr:street" v="Chickadee Avenue"/>
    <tag k="addr:state" v="VT"/>
    <tag k="ref:vcgi:esiteid" v="453384"/>
  </node>
  <node id="-1019" visible="true" lat="43.92307368" lon="-73.08556784">
    <tag k="addr:city" v="Salisbury"/>
    <tag k="addr:housenumber" v="57"/>
    <tag k="addr:street" v="Chickadee Avenue"/>
    <tag k="addr:state" v="VT"/>
    <tag k="ref:vcgi:esiteid" v="453385"/>
  </node>
  <node id="-1020" visible="true" lat="43.923322" lon="-73.08450939">
    <tag k="addr:city" v="Salisbury"/>
    <tag k="addr:housenumber" v="64"/>
    <tag k="addr:street" v="Woodpecker Avenue"/>
    <tag k="addr:state" v="VT"/>
    <tag k="ref:vcgi:esiteid" v="453386"/>
  </node>
  <node id="-1021" visible="true" lat="43.92329728" lon="-73.08468706">
    <tag k="addr:city" v="Salisbury"/>
    <tag k="addr:housenumber" v="65"/>
    <tag k="addr:street" v="Woodpecker Avenue"/>
    <tag k="addr:state" v="VT"/>
    <tag k="ref:vcgi:esiteid" v="453387"/>
  </node>
  <node id="-1022" visible="true" lat="43.92327239" lon="-73.08489768">
    <tag k="addr:city" v="Salisbury"/>
    <tag k="addr:housenumber" v="66"/>
    <tag k="addr:street" v="Woodpecker Avenue"/>
    <tag k="addr:state" v="VT"/>
    <tag k="ref:vcgi:esiteid" v="453388"/>
  </node>
  <node id="-1023" visible="true" lat="43.92325266" lon="-73.08502927">
    <tag k="addr:city" v="Salisbury"/>
    <tag k="addr:housenumber" v="67"/>
    <tag k="addr:street" v="Woodpecker Avenue"/>
    <tag k="addr:state" v="VT"/>
    <tag k="ref:vcgi:esiteid" v="453389"/>
  </node>
  <node id="-1024" visible="true" lat="43.92322801" lon="-73.08519376">
    <tag k="addr:city" v="Salisbury"/>
    <tag k="addr:housenumber" v="68"/>
    <tag k="addr:street" v="Woodpecker Avenue"/>
    <tag k="addr:state" v="VT"/>
    <tag k="ref:vcgi:esiteid" v="453390"/>
  </node>
  <node id="-1025" visible="true" lat="43.92321801" lon="-73.08528591">
    <tag k="addr:city" v="Salisbury"/>
    <tag k="addr:housenumber" v="69"/>
    <tag k="addr:street" v="Woodpecker Avenue"/>
    <tag k="addr:state" v="VT"/>
    <tag k="ref:vcgi:esiteid" v="453391"/>
  </node>
  <node id="-1026" visible="true" lat="43.92320761" lon="-73.08545714">
    <tag k="addr:city" v="Salisbury"/>
    <tag k="addr:housenumber" v="70"/>
    <tag k="addr:street" v="Woodpecker Avenue"/>
    <tag k="addr:state" v="VT"/>
    <tag k="ref:vcgi:esiteid" v="453392"/>
  </node>
  <node id="-1027" visible="true" lat="43.9231972" lon="-73.08562836">
    <tag k="addr:city" v="Salisbury"/>
    <tag k="addr:housenumber" v="71"/>
    <tag k="addr:street" v="Woodpecker Avenue"/>
    <tag k="addr:state" v="VT"/>
    <tag k="ref:vcgi:esiteid" v="453393"/>
  </node>
  <node id="-1028" visible="true" lat="43.92317744" lon="-73.08576654">
    <tag k="addr:city" v="Salisbury"/>
    <tag k="addr:housenumber" v="72"/>
    <tag k="addr:street" v="Woodpecker Avenue"/>
    <tag k="addr:state" v="VT"/>
    <tag k="ref:vcgi:esiteid" v="453394"/>
  </node>
  <node id="-1029" visible="true" lat="43.92315779" lon="-73.08588495">
    <tag k="addr:city" v="Salisbury"/>
    <tag k="addr:housenumber" v="73"/>
    <tag k="addr:street" v="Woodpecker Avenue"/>
    <tag k="addr:state" v="VT"/>
    <tag k="ref:vcgi:esiteid" v="453395"/>
  </node>
  <node id="-1030" visible="true" lat="43.92313259" lon="-73.08615487">
    <tag k="addr:city" v="Salisbury"/>
    <tag k="addr:housenumber" v="75"/>
    <tag k="addr:street" v="Woodpecker Avenue"/>
    <tag k="addr:state" v="VT"/>
    <tag k="ref:vcgi:esiteid" v="453396"/>
  </node>
  <node id="-1032" visible="true" lat="43.92441709" lon="-73.08457283">
    <tag k="addr:city" v="Salisbury"/>
    <tag k="addr:housenumber" v="122"/>
    <tag k="addr:street" v="Gold Finch Avenue"/>
    <tag k="addr:state" v="VT"/>
    <tag k="ref:vcgi:esiteid" v="453398"/>
  </node>
  <node id="-1033" visible="true" lat="43.92458265" lon="-73.08386279">
    <tag k="addr:city" v="Salisbury"/>
    <tag k="addr:housenumber" v="126"/>
    <tag k="addr:street" v="Gold Finch Avenue"/>
    <tag k="addr:state" v="VT"/>
    <tag k="ref:vcgi:esiteid" v="453399"/>
  </node>
  <node id="-1034" visible="true" lat="43.92460255" lon="-73.08369825">
    <tag k="addr:city" v="Salisbury"/>
    <tag k="addr:housenumber" v="127"/>
    <tag k="addr:street" v="Gold Finch Avenue"/>
    <tag k="addr:state" v="VT"/>
    <tag k="ref:vcgi:esiteid" v="453400"/>
  </node>
  <node id="-1035" visible="true" lat="43.92456515" lon="-73.0835595">
    <tag k="addr:city" v="Salisbury"/>
    <tag k="addr:housenumber" v="128"/>
    <tag k="addr:street" v="Gold Finch Avenue"/>
    <tag k="addr:state" v="VT"/>
    <tag k="ref:vcgi:esiteid" v="453401"/>
  </node>
  <node id="-1036" visible="true" lat="43.92454688" lon="-73.08340777">
    <tag k="addr:city" v="Salisbury"/>
    <tag k="addr:housenumber" v="129"/>
    <tag k="addr:street" v="Gold Finch Avenue"/>
    <tag k="addr:state" v="VT"/>
    <tag k="ref:vcgi:esiteid" v="453402"/>
  </node>
  <node id="-1037" visible="true" lat="43.92454302" lon="-73.08322981">
    <tag k="addr:city" v="Salisbury"/>
    <tag k="addr:housenumber" v="130"/>
    <tag k="addr:street" v="Gold Finch Avenue"/>
    <tag k="addr:state" v="VT"/>
    <tag k="ref:vcgi:esiteid" v="453403"/>
  </node>
  <node id="-1038" visible="true" lat="43.92459297" lon="-73.08277563">
    <tag k="addr:city" v="Salisbury"/>
    <tag k="addr:housenumber" v="133"/>
    <tag k="addr:street" v="Gold Finch Avenue"/>
    <tag k="addr:state" v="VT"/>
    <tag k="ref:vcgi:esiteid" v="453404"/>
  </node>
  <node id="-1039" visible="true" lat="43.92460772" lon="-73.08268352">
    <tag k="addr:city" v="Salisbury"/>
    <tag k="addr:housenumber" v="134"/>
    <tag k="addr:street" v="Gold Finch Avenue"/>
    <tag k="addr:state" v="VT"/>
    <tag k="ref:vcgi:esiteid" v="453405"/>
  </node>
  <node id="-1040" visible="true" lat="43.92461796" lon="-73.08254359">
    <tag k="addr:city" v="Salisbury"/>
    <tag k="addr:housenumber" v="135"/>
    <tag k="addr:street" v="Gold Finch Avenue"/>
    <tag k="addr:state" v="VT"/>
    <tag k="ref:vcgi:esiteid" v="453406"/>
  </node>
  <node id="-1041" visible="true" lat="43.92425314" lon="-73.08263723">
    <tag k="addr:city" v="Salisbury"/>
    <tag k="addr:housenumber" v="138"/>
    <tag k="addr:street" v="Gold Finch Avenue"/>
    <tag k="addr:state" v="VT"/>
    <tag k="ref:vcgi:esiteid" v="453407"/>
  </node>
  <node id="-1042" visible="true" lat="43.92416265" lon="-73.08263634">
    <tag k="addr:city" v="Salisbury"/>
    <tag k="addr:housenumber" v="137"/>
    <tag k="addr:street" v="Blue Jay Avenue"/>
    <tag k="addr:state" v="VT"/>
    <tag k="ref:vcgi:esiteid" v="453408"/>
  </node>
  <node id="-1043" visible="true" lat="43.92417855" lon="-73.08232021">
    <tag k="addr:city" v="Salisbury"/>
    <tag k="addr:housenumber" v="137A"/>
    <tag k="addr:street" v="Blue Jay Avenue"/>
    <tag k="addr:state" v="VT"/>
    <tag k="ref:vcgi:esiteid" v="453409"/>
  </node>
  <node id="-1044" visible="true" lat="43.92419046" lon="-73.08278817">
    <tag k="addr:city" v="Salisbury"/>
    <tag k="addr:housenumber" v="159"/>
    <tag k="addr:street" v="Blue Jay Avenue"/>
    <tag k="addr:state" v="VT"/>
    <tag k="ref:vcgi:esiteid" v="453410"/>
  </node>
  <node id="-1045" visible="true" lat="43.92415583" lon="-73.08397393">
    <tag k="addr:city" v="Salisbury"/>
    <tag k="addr:housenumber" v="151"/>
    <tag k="addr:street" v="Blue Jay Avenue"/>
    <tag k="addr:state" v="VT"/>
    <tag k="ref:vcgi:esiteid" v="453411"/>
  </node>
  <node id="-1046" visible="true" lat="43.92414778" lon="-73.08368392">
    <tag k="addr:city" v="Salisbury"/>
    <tag k="addr:housenumber" v="153"/>
    <tag k="addr:street" v="Blue Jay Avenue"/>
    <tag k="addr:state" v="VT"/>
    <tag k="ref:vcgi:esiteid" v="453412"/>
  </node>
  <node id="-1047" visible="true" lat="43.92416845" lon="-73.08336783">
    <tag k="addr:city" v="Salisbury"/>
    <tag k="addr:housenumber" v="155"/>
    <tag k="addr:street" v="Blue Jay Avenue"/>
    <tag k="addr:state" v="VT"/>
    <tag k="ref:vcgi:esiteid" v="453413"/>
  </node>
  <node id="-1048" visible="true" lat="43.92418344" lon="-73.0832296">
    <tag k="addr:city" v="Salisbury"/>
    <tag k="addr:housenumber" v="156"/>
    <tag k="addr:street" v="Blue Jay Avenue"/>
    <tag k="addr:state" v="VT"/>
    <tag k="ref:vcgi:esiteid" v="453414"/>
  </node>
  <node id="-1049" visible="true" lat="43.92419364" lon="-73.08309791">
    <tag k="addr:city" v="Salisbury"/>
    <tag k="addr:housenumber" v="157"/>
    <tag k="addr:street" v="Blue Jay Avenue"/>
    <tag k="addr:state" v="VT"/>
    <tag k="ref:vcgi:esiteid" v="453415"/>
  </node>
  <node id="-1050" visible="true" lat="43.92427303" lon="-73.0843375">
    <tag k="addr:city" v="Salisbury"/>
    <tag k="addr:housenumber" v="149"/>
    <tag k="addr:street" v="Gold Finch Avenue"/>
    <tag k="addr:state" v="VT"/>
    <tag k="ref:vcgi:esiteid" v="453416"/>
  </node>
  <node id="-1051" visible="true" lat="43.92428354" lon="-73.08414651">
    <tag k="addr:city" v="Salisbury"/>
    <tag k="addr:housenumber" v="148"/>
    <tag k="addr:street" v="Gold Finch Avenue"/>
    <tag k="addr:state" v="VT"/>
    <tag k="ref:vcgi:esiteid" v="453417"/>
  </node>
  <node id="-1052" visible="true" lat="43.92429079" lon="-73.08365896">
    <tag k="addr:city" v="Salisbury"/>
    <tag k="addr:housenumber" v="145"/>
    <tag k="addr:street" v="Gold Finch Avenue"/>
    <tag k="addr:state" v="VT"/>
    <tag k="ref:vcgi:esiteid" v="453418"/>
  </node>
  <node id="-1053" visible="true" lat="43.92432024" lon="-73.08348792">
    <tag k="addr:city" v="Salisbury"/>
    <tag k="addr:housenumber" v="144"/>
    <tag k="addr:street" v="Gold Finch Avenue"/>
    <tag k="addr:state" v="VT"/>
    <tag k="ref:vcgi:esiteid" v="453419"/>
  </node>
  <node id="-1054" visible="true" lat="43.92432334" lon="-73.08334628">
    <tag k="addr:city" v="Salisbury"/>
    <tag k="addr:housenumber" v="143"/>
    <tag k="addr:street" v="Gold Finch Avenue"/>
    <tag k="addr:state" v="VT"/>
    <tag k="ref:vcgi:esiteid" v="453420"/>
  </node>
  <node id="-1055" visible="true" lat="43.92432055" lon="-73.08319304">
    <tag k="addr:city" v="Salisbury"/>
    <tag k="addr:housenumber" v="142"/>
    <tag k="addr:street" v="Gold Finch Avenue"/>
    <tag k="addr:state" v="VT"/>
    <tag k="ref:vcgi:esiteid" v="453421"/>
  </node>
  <node id="-1056" visible="true" lat="43.92433557" lon="-73.08304987">
    <tag k="addr:city" v="Salisbury"/>
    <tag k="addr:housenumber" v="141"/>
    <tag k="addr:street" v="Gold Finch Avenue"/>
    <tag k="addr:state" v="VT"/>
    <tag k="ref:vcgi:esiteid" v="453422"/>
  </node>
  <node id="-1057" visible="true" lat="43.92389054" lon="-73.08369458">
    <tag k="addr:city" v="Salisbury"/>
    <tag k="addr:housenumber" v="169"/>
    <tag k="addr:street" v="Blue Jay Avenue"/>
    <tag k="addr:state" v="VT"/>
    <tag k="ref:vcgi:esiteid" v="453423"/>
  </node>
  <node id="-1058" visible="true" lat="43.9238771" lon="-73.08352971">
    <tag k="addr:city" v="Salisbury"/>
    <tag k="addr:housenumber" v="168"/>
    <tag k="addr:street" v="Blue Jay Avenue"/>
    <tag k="addr:state" v="VT"/>
    <tag k="ref:vcgi:esiteid" v="453424"/>
  </node>
  <node id="-1059" visible="true" lat="43.92389246" lon="-73.083319">
    <tag k="addr:city" v="Salisbury"/>
    <tag k="addr:housenumber" v="167"/>
    <tag k="addr:street" v="Blue Jay Avenue"/>
    <tag k="addr:state" v="VT"/>
    <tag k="ref:vcgi:esiteid" v="453425"/>
  </node>
  <node id="-1060" visible="true" lat="43.92389327" lon="-73.08316087">
    <tag k="addr:city" v="Salisbury"/>
    <tag k="addr:housenumber" v="166"/>
    <tag k="addr:street" v="Blue Jay Avenue"/>
    <tag k="addr:state" v="VT"/>
    <tag k="ref:vcgi:esiteid" v="453426"/>
  </node>
  <node id="-1061" visible="true" lat="43.9239036" lon="-73.08300282">
    <tag k="addr:city" v="Salisbury"/>
    <tag k="addr:housenumber" v="165"/>
    <tag k="addr:street" v="Blue Jay Avenue"/>
    <tag k="addr:state" v="VT"/>
    <tag k="ref:vcgi:esiteid" v="453427"/>
  </node>
  <node id="-1062" visible="true" lat="43.92394338" lon="-73.08267374">
    <tag k="addr:city" v="Salisbury"/>
    <tag k="addr:housenumber" v="163"/>
    <tag k="addr:street" v="Blue Jay Avenue"/>
    <tag k="addr:state" v="VT"/>
    <tag k="ref:vcgi:esiteid" v="453428"/>
  </node>
  <node id="-1063" visible="true" lat="43.92394165" lon="-73.08234532">
    <tag k="addr:city" v="Salisbury"/>
    <tag k="addr:housenumber" v="161"/>
    <tag k="addr:street" v="Blue Jay Avenue"/>
    <tag k="addr:state" v="VT"/>
    <tag k="ref:vcgi:esiteid" v="453429"/>
  </node>
  <node id="-1064" visible="true" lat="43.92400295" lon="-73.08219988">
    <tag k="addr:city" v="Salisbury"/>
    <tag k="addr:housenumber" v="160"/>
    <tag k="addr:street" v="Blue Jay Avenue"/>
    <tag k="addr:state" v="VT"/>
    <tag k="ref:vcgi:esiteid" v="453430"/>
  </node>
  <node id="-1065" visible="true" lat="43.92395831" lon="-73.08254869">
    <tag k="addr:city" v="Salisbury"/>
    <tag k="addr:housenumber" v="162"/>
    <tag k="addr:street" v="Blue Jay Avenue"/>
    <tag k="addr:state" v="VT"/>
    <tag k="ref:vcgi:esiteid" v="453431"/>
  </node>
  <node id="-1066" visible="true" lat="43.9238278" lon="-73.08478781">
    <tag k="addr:city" v="Salisbury"/>
    <tag k="addr:housenumber" v="110"/>
    <tag k="addr:street" v="Cardinal Avenue"/>
    <tag k="addr:state" v="VT"/>
    <tag k="ref:vcgi:esiteid" v="453432"/>
  </node>
  <node id="-1067" visible="true" lat="43.92379815" lon="-73.08499838">
    <tag k="addr:city" v="Salisbury"/>
    <tag k="addr:housenumber" v="109"/>
    <tag k="addr:street" v="Cardinal Avenue"/>
    <tag k="addr:state" v="VT"/>
    <tag k="ref:vcgi:esiteid" v="453433"/>
  </node>
  <node id="-1068" visible="true" lat="43.92350277" lon="-73.08687345">
    <tag k="addr:city" v="Salisbury"/>
    <tag k="addr:housenumber" v="100A"/>
    <tag k="addr:street" v="Cardinal Avenue"/>
    <tag k="addr:state" v="VT"/>
    <tag k="ref:vcgi:esiteid" v="453434"/>
  </node>
  <node id="-1069" visible="true" lat="43.92358475" lon="-73.08667657">
    <tag k="addr:city" v="Salisbury"/>
    <tag k="addr:housenumber" v="100"/>
    <tag k="addr:street" v="Cardinal Avenue"/>
    <tag k="addr:state" v="VT"/>
    <tag k="ref:vcgi:esiteid" v="453435"/>
  </node>
  <node id="-1070" visible="true" lat="43.92360491" lon="-73.08645932">
    <tag k="addr:city" v="Salisbury"/>
    <tag k="addr:housenumber" v="101"/>
    <tag k="addr:street" v="Cardinal Avenue"/>
    <tag k="addr:state" v="VT"/>
    <tag k="ref:vcgi:esiteid" v="453436"/>
  </node>
  <node id="-1071" visible="true" lat="43.92363923" lon="-73.08626857">
    <tag k="addr:city" v="Salisbury"/>
    <tag k="addr:housenumber" v="102"/>
    <tag k="addr:street" v="Cardinal Avenue"/>
    <tag k="addr:state" v="VT"/>
    <tag k="ref:vcgi:esiteid" v="453437"/>
  </node>
  <node id="-1072" visible="true" lat="43.92365909" lon="-73.08611062">
    <tag k="addr:city" v="Salisbury"/>
    <tag k="addr:housenumber" v="103"/>
    <tag k="addr:street" v="Cardinal Avenue"/>
    <tag k="addr:state" v="VT"/>
    <tag k="ref:vcgi:esiteid" v="453438"/>
  </node>
  <node id="-1073" visible="true" lat="43.92366936" lon="-73.08596575">
    <tag k="addr:city" v="Salisbury"/>
    <tag k="addr:housenumber" v="104"/>
    <tag k="addr:street" v="Cardinal Avenue"/>
    <tag k="addr:state" v="VT"/>
    <tag k="ref:vcgi:esiteid" v="453439"/>
  </node>
  <node id="-1074" visible="true" lat="43.92368456" lon="-73.08578799">
    <tag k="addr:city" v="Salisbury"/>
    <tag k="addr:housenumber" v="105"/>
    <tag k="addr:street" v="Cardinal Avenue"/>
    <tag k="addr:state" v="VT"/>
    <tag k="ref:vcgi:esiteid" v="453440"/>
  </node>
  <node id="-1075" visible="true" lat="43.92371918" lon="-73.08553793">
    <tag k="addr:city" v="Salisbury"/>
    <tag k="addr:housenumber" v="106"/>
    <tag k="addr:street" v="Cardinal Avenue"/>
    <tag k="addr:state" v="VT"/>
    <tag k="ref:vcgi:esiteid" v="453441"/>
  </node>
  <node id="-1076" visible="true" lat="43.9237487" lon="-73.08535372">
    <tag k="addr:city" v="Salisbury"/>
    <tag k="addr:housenumber" v="107"/>
    <tag k="addr:street" v="Cardinal Avenue"/>
    <tag k="addr:state" v="VT"/>
    <tag k="ref:vcgi:esiteid" v="453442"/>
  </node>
  <node id="-1077" visible="true" lat="43.92375441" lon="-73.08516927">
    <tag k="addr:city" v="Salisbury"/>
    <tag k="addr:housenumber" v="108"/>
    <tag k="addr:street" v="Cardinal Avenue"/>
    <tag k="addr:state" v="VT"/>
    <tag k="ref:vcgi:esiteid" v="453443"/>
  </node>
  <node id="-1078" visible="true" lat="43.92360964" lon="-73.08460776">
    <tag k="addr:city" v="Salisbury"/>
    <tag k="addr:housenumber" v="87"/>
    <tag k="addr:street" v="Cardinal Avenue"/>
    <tag k="addr:state" v="VT"/>
    <tag k="ref:vcgi:esiteid" v="453444"/>
  </node>
  <node id="-1079" visible="true" lat="43.92355293" lon="-73.08452154">
    <tag k="addr:city" v="Salisbury"/>
    <tag k="addr:housenumber" v="86"/>
    <tag k="addr:street" v="Swallow Drive"/>
    <tag k="addr:state" v="VT"/>
    <tag k="ref:vcgi:esiteid" v="453445"/>
  </node>
  <node id="-1080" visible="true" lat="43.92348122" lon="-73.08457355">
    <tag k="addr:city" v="Salisbury"/>
    <tag k="addr:housenumber" v="85"/>
    <tag k="addr:street" v="Woodpecker Avenue"/>
    <tag k="addr:state" v="VT"/>
    <tag k="ref:vcgi:esiteid" v="453446"/>
  </node>
  <node id="-1081" visible="true" lat="43.9234566" lon="-73.08473145">
    <tag k="addr:city" v="Salisbury"/>
    <tag k="addr:housenumber" v="84"/>
    <tag k="addr:street" v="Woodpecker Avenue"/>
    <tag k="addr:state" v="VT"/>
    <tag k="ref:vcgi:esiteid" v="453447"/>
  </node>
  <node id="-1082" visible="true" lat="43.9234415" lon="-73.08488945">
    <tag k="addr:city" v="Salisbury"/>
    <tag k="addr:housenumber" v="83"/>
    <tag k="addr:street" v="Woodpecker Avenue"/>
    <tag k="addr:state" v="VT"/>
    <tag k="ref:vcgi:esiteid" v="453448"/>
  </node>
  <node id="-1083" visible="true" lat="43.92342634" lon="-73.08506062">
    <tag k="addr:city" v="Salisbury"/>
    <tag k="addr:housenumber" v="82"/>
    <tag k="addr:street" v="Woodpecker Avenue"/>
    <tag k="addr:state" v="VT"/>
    <tag k="ref:vcgi:esiteid" v="453449"/>
  </node>
  <node id="-1084" visible="true" lat="43.92341117" lon="-73.0852318">
    <tag k="addr:city" v="Salisbury"/>
    <tag k="addr:housenumber" v="81"/>
    <tag k="addr:street" v="Woodpecker Avenue"/>
    <tag k="addr:state" v="VT"/>
    <tag k="ref:vcgi:esiteid" v="453450"/>
  </node>
  <node id="-1085" visible="true" lat="43.92340074" lon="-73.08540961">
    <tag k="addr:city" v="Salisbury"/>
    <tag k="addr:housenumber" v="80"/>
    <tag k="addr:street" v="Woodpecker Avenue"/>
    <tag k="addr:state" v="VT"/>
    <tag k="ref:vcgi:esiteid" v="453451"/>
  </node>
  <node id="-1086" visible="true" lat="43.92336632" lon="-73.08562013">
    <tag k="addr:city" v="Salisbury"/>
    <tag k="addr:housenumber" v="79"/>
    <tag k="addr:street" v="Woodpecker Avenue"/>
    <tag k="addr:state" v="VT"/>
    <tag k="ref:vcgi:esiteid" v="453452"/>
  </node>
  <node id="-1087" visible="true" lat="43.9233416" lon="-73.0857978">
    <tag k="addr:city" v="Salisbury"/>
    <tag k="addr:housenumber" v="78"/>
    <tag k="addr:street" v="Woodpecker Avenue"/>
    <tag k="addr:state" v="VT"/>
    <tag k="ref:vcgi:esiteid" v="453453"/>
  </node>
  <node id="-1088" visible="true" lat="43.9233167" lon="-73.08600841">
    <tag k="addr:city" v="Salisbury"/>
    <tag k="addr:housenumber" v="77"/>
    <tag k="addr:street" v="Woodpecker Avenue"/>
    <tag k="addr:state" v="VT"/>
    <tag k="ref:vcgi:esiteid" v="453454"/>
  </node>
  <node id="-1089" visible="true" lat="43.92329198" lon="-73.08618608">
    <tag k="addr:city" v="Salisbury"/>
    <tag k="addr:housenumber" v="99"/>
    <tag k="addr:street" v="Woodpecker Avenue"/>
    <tag k="addr:state" v="VT"/>
    <tag k="ref:vcgi:esiteid" v="453455"/>
  </node>
  <node id="-1090" visible="true" lat="43.92341965" lon="-73.08636525">
    <tag k="addr:city" v="Salisbury"/>
    <tag k="addr:housenumber" v="98"/>
    <tag k="addr:street" v="Cardinal Avenue"/>
    <tag k="addr:state" v="VT"/>
    <tag k="ref:vcgi:esiteid" v="453456"/>
  </node>
  <node id="-1091" visible="true" lat="43.92359944" lon="-73.08473944">
    <tag k="addr:city" v="Salisbury"/>
    <tag k="addr:housenumber" v="88"/>
    <tag k="addr:street" v="Cardinal Avenue"/>
    <tag k="addr:state" v="VT"/>
    <tag k="ref:vcgi:esiteid" v="453457"/>
  </node>
  <node id="-1092" visible="true" lat="43.92352004" lon="-73.08536465">
    <tag k="addr:city" v="Salisbury"/>
    <tag k="addr:housenumber" v="92"/>
    <tag k="addr:street" v="Cardinal Avenue"/>
    <tag k="addr:state" v="VT"/>
    <tag k="ref:vcgi:esiteid" v="453458"/>
  </node>
  <node id="-1093" visible="true" lat="43.92350974" lon="-73.08551611">
    <tag k="addr:city" v="Salisbury"/>
    <tag k="addr:housenumber" v="93"/>
    <tag k="addr:street" v="Cardinal Avenue"/>
    <tag k="addr:state" v="VT"/>
    <tag k="ref:vcgi:esiteid" v="453459"/>
  </node>
  <node id="-1094" visible="true" lat="43.92348984" lon="-73.08568065">
    <tag k="addr:city" v="Salisbury"/>
    <tag k="addr:housenumber" v="94"/>
    <tag k="addr:street" v="Cardinal Avenue"/>
    <tag k="addr:state" v="VT"/>
    <tag k="ref:vcgi:esiteid" v="453460"/>
  </node>
  <node id="-1095" visible="true" lat="43.92346532" lon="-73.08581878">
    <tag k="addr:city" v="Salisbury"/>
    <tag k="addr:housenumber" v="95"/>
    <tag k="addr:street" v="Cardinal Avenue"/>
    <tag k="addr:state" v="VT"/>
    <tag k="ref:vcgi:esiteid" v="453461"/>
  </node>
  <node id="-1096" visible="true" lat="43.92345988" lon="-73.08595052">
    <tag k="addr:city" v="Salisbury"/>
    <tag k="addr:housenumber" v="96"/>
    <tag k="addr:street" v="Cardinal Avenue"/>
    <tag k="addr:state" v="VT"/>
    <tag k="ref:vcgi:esiteid" v="453462"/>
  </node>
  <node id="-1097" visible="true" lat="43.92342536" lon="-73.0861808">
    <tag k="addr:city" v="Salisbury"/>
    <tag k="addr:housenumber" v="97"/>
    <tag k="addr:street" v="Cardinal Avenue"/>
    <tag k="addr:state" v="VT"/>
    <tag k="ref:vcgi:esiteid" v="453463"/>
  </node>
  <node id="-1099" visible="true" lat="43.89502926" lon="-73.15139394">
    <tag k="addr:city" v="Salisbury"/>
    <tag k="addr:housenumber" v="1904"/>
    <tag k="addr:street" v="Leland Road"/>
    <tag k="addr:state" v="VT"/>
    <tag k="ref:vcgi:esiteid" v="454306"/>
  </node>
  <node id="-1101" visible="true" lat="43.94290528" lon="-73.10769971">
    <tag k="addr:city" v="Salisbury"/>
    <tag k="addr:housenumber" v="234"/>
    <tag k="addr:street" v="Pomainville Drive"/>
    <tag k="addr:state" v="VT"/>
    <tag k="ref:vcgi:esiteid" v="454970"/>
  </node>
  <node id="-1102" visible="true" lat="43.95074638" lon="-73.14024165">
    <tag k="addr:city" v="Salisbury"/>
    <tag k="addr:housenumber" v="1960"/>
    <tag k="addr:street" v="Shard Villa Road"/>
    <tag k="addr:state" v="VT"/>
    <tag k="ref:vcgi:esiteid" v="455162"/>
  </node>
  <node id="-1103" visible="true" lat="43.93081656" lon="-73.15637222">
    <tag k="addr:city" v="Salisbury"/>
    <tag k="addr:housenumber" v="589"/>
    <tag k="addr:street" v="Shard Villa Road"/>
    <tag k="addr:state" v="VT"/>
    <tag k="ref:vcgi:esiteid" v="455163"/>
  </node>
  <node id="-1104" visible="true" lat="43.93584879" lon="-73.15532825">
    <tag k="addr:city" v="Salisbury"/>
    <tag k="addr:housenumber" v="55"/>
    <tag k="addr:street" v="Story Drive"/>
    <tag k="addr:state" v="VT"/>
    <tag k="ref:vcgi:esiteid" v="610795"/>
  </node>
  <node id="-1105" visible="true" lat="43.94622857" lon="-73.08672007">
    <tag k="addr:city" v="Salisbury"/>
    <tag k="addr:housenumber" v="1872"/>
    <tag k="addr:street" v="Upper Plains Road"/>
    <tag k="addr:state" v="VT"/>
    <tag k="ref:vcgi:esiteid" v="611093"/>
  </node>
  <node id="-1106" visible="true" lat="43.89983428" lon="-73.10334507">
    <tag k="addr:city" v="Salisbury"/>
    <tag k="addr:housenumber" v="579"/>
    <tag k="addr:street" v="Maple Street"/>
    <tag k="addr:state" v="VT"/>
    <tag k="ref:vcgi:esiteid" v="611491"/>
  </node>
  <node id="-1107" visible="true" lat="43.90477842" lon="-73.1137056">
    <tag k="addr:city" v="Salisbury"/>
    <tag k="addr:housenumber" v="430"/>
    <tag k="addr:street" v="West Salisbury Road"/>
    <tag k="addr:state" v="VT"/>
    <tag k="ref:vcgi:esiteid" v="611650"/>
  </node>
  <node id="-1109" visible="true" lat="43.90445838" lon="-73.11505683">
    <tag k="addr:city" v="Salisbury"/>
    <tag k="addr:housenumber" v="463"/>
    <tag k="addr:street" v="West Salisbury Road"/>
    <tag k="addr:state" v="VT"/>
    <tag k="ref:vcgi:esiteid" v="611652"/>
  </node>
  <node id="-1110" visible="true" lat="43.91816646" lon="-73.17365113">
    <tag k="addr:city" v="Salisbury"/>
    <tag k="addr:housenumber" v="700"/>
    <tag k="addr:street" v="Creek Road"/>
    <tag k="addr:state" v="VT"/>
    <tag k="ref:vcgi:esiteid" v="612931"/>
  </node>
  <node id="-1111" visible="true" lat="43.91824697" lon="-73.08084362">
    <tag k="addr:city" v="Salisbury"/>
    <tag k="addr:housenumber" v="354"/>
    <tag k="addr:street" v="Rustic Lane"/>
    <tag k="addr:state" v="VT"/>
    <tag k="ref:vcgi:esiteid" v="618000"/>
  </node>
  <node id="-1112" visible="true" lat="43.91707636" lon="-73.08130002">
    <tag k="addr:city" v="Salisbury"/>
    <tag k="addr:housenumber" v="464"/>
    <tag k="addr:street" v="Rustic Lane"/>
    <tag k="addr:state" v="VT"/>
    <tag k="ref:vcgi:esiteid" v="618001"/>
  </node>
  <node id="-1113" visible="true" lat="43.91609554" lon="-73.08171082">
    <tag k="addr:city" v="Salisbury"/>
    <tag k="addr:housenumber" v="523"/>
    <tag k="addr:street" v="Rustic Lane"/>
    <tag k="addr:state" v="VT"/>
    <tag k="ref:vcgi:esiteid" v="618002"/>
  </node>
  <node id="-1114" visible="true" lat="43.91597835" lon="-73.08227629">
    <tag k="addr:city" v="Salisbury"/>
    <tag k="addr:housenumber" v="553"/>
    <tag k="addr:street" v="Rustic Lane"/>
    <tag k="addr:state" v="VT"/>
    <tag k="ref:vcgi:esiteid" v="618003"/>
  </node>
  <node id="-1115" visible="true" lat="43.91576964" lon="-73.08304511">
    <tag k="addr:city" v="Salisbury"/>
    <tag k="addr:housenumber" v="595"/>
    <tag k="addr:street" v="Rustic Lane"/>
    <tag k="addr:state" v="VT"/>
    <tag k="ref:vcgi:esiteid" v="618004"/>
  </node>
  <node id="-1116" visible="true" lat="43.91778263" lon="-73.08140177">
    <tag k="addr:city" v="Salisbury"/>
    <tag k="addr:housenumber" v="450"/>
    <tag k="addr:street" v="Rustic Lane"/>
    <tag k="addr:state" v="VT"/>
    <tag k="ref:vcgi:esiteid" v="618005"/>
  </node>
  <node id="-1117" visible="true" lat="43.92789363" lon="-73.11007952">
    <tag k="addr:city" v="Salisbury"/>
    <tag k="addr:housenumber" v="2078"/>
    <tag k="addr:street" v="U.S. Route 7"/>
    <tag k="addr:state" v="VT"/>
    <tag k="ref:vcgi:esiteid" v="618077"/>
  </node>
  <node id="-1120" visible="true" lat="43.92746745" lon="-73.13055179">
    <tag k="addr:city" v="Salisbury"/>
    <tag k="addr:housenumber" v="456"/>
    <tag k="addr:street" v="Middle Road"/>
    <tag k="addr:state" v="VT"/>
    <tag k="ref:vcgi:esiteid" v="752308"/>
  </node>
  <node id="-1151" visible="true" lat="43.94990562" lon="-73.09751427">
    <tag k="addr:city" v="Salisbury"/>
    <tag k="addr:housenumber" v="261"/>
    <tag k="addr:street" v="Lower Plains Road"/>
    <tag k="addr:state" v="VT"/>
    <tag k="ref:vcgi:esiteid" v="752583"/>
  </node>
  <node id="-1152" visible="true" lat="43.88842666" lon="-73.14992718">
    <tag k="addr:city" v="Salisbury"/>
    <tag k="addr:housenumber" v="2390"/>
    <tag k="addr:street" v="Leland Road"/>
    <tag k="addr:state" v="VT"/>
    <tag k="ref:vcgi:esiteid" v="758250"/>
  </node>
  <node id="-1153" visible="true" lat="43.88654202" lon="-73.14667656">
    <tag k="addr:city" v="Salisbury"/>
    <tag k="addr:housenumber" v="2556"/>
    <tag k="addr:street" v="Leland Road"/>
    <tag k="addr:state" v="VT"/>
    <tag k="ref:vcgi:esiteid" v="761687"/>
  </node>
  <node id="-1154" visible="true" lat="43.91213241" lon="-73.12456749">
    <tag k="addr:city" v="Salisbury"/>
    <tag k="addr:housenumber" v="214"/>
    <tag k="addr:street" v="Morgan Road"/>
    <tag k="addr:state" v="VT"/>
    <tag k="ref:vcgi:esiteid" v="763087"/>
  </node>
  <node id="-1155" visible="true" lat="43.91560793" lon="-73.08608656">
    <tag k="addr:city" v="Salisbury"/>
    <tag k="addr:housenumber" v="349"/>
    <tag k="addr:street" v="West Shore Road"/>
    <tag k="addr:state" v="VT"/>
    <tag k="ref:vcgi:esiteid" v="763354"/>
  </node>
  <node id="-1156" visible="true" lat="43.9437422" lon="-73.152641">
    <tag k="addr:city" v="Salisbury"/>
    <tag k="addr:housenumber" v="1495"/>
    <tag k="addr:street" v="Shard Villa Road"/>
    <tag k="addr:state" v="VT"/>
    <tag k="ref:vcgi:esiteid" v="764592"/>
  </node>
  <node id="-1157" visible="true" lat="43.93799793" lon="-73.09221745">
    <tag k="addr:city" v="Salisbury"/>
    <tag k="addr:housenumber" v="1255"/>
    <tag k="addr:street" v="Upper Plains Road"/>
    <tag k="addr:state" v="VT"/>
    <tag k="ref:vcgi:esiteid" v="764613"/>
  </node>
  <node id="-1158" visible="true" lat="43.93586597" lon="-73.09391089">
    <tag k="addr:city" v="Salisbury"/>
    <tag k="addr:housenumber" v="1111"/>
    <tag k="addr:street" v="Upper Plains Road"/>
    <tag k="addr:state" v="VT"/>
    <tag k="ref:vcgi:esiteid" v="764614"/>
  </node>
  <node id="-1159" visible="true" lat="43.95332447" lon="-73.1359309">
    <tag k="addr:city" v="Salisbury"/>
    <tag k="addr:housenumber" v="2189"/>
    <tag k="addr:street" v="Middle Road"/>
    <tag k="addr:state" v="VT"/>
    <tag k="ref:vcgi:esiteid" v="764615"/>
  </node>
  <node id="-1161" visible="true" lat="43.897709" lon="-73.09109242">
    <tag k="addr:city" v="Salisbury"/>
    <tag k="addr:housenumber" v="1664"/>
    <tag k="addr:street" v="West Shore Road"/>
    <tag k="addr:state" v="VT"/>
    <tag k="ref:vcgi:esiteid" v="900296"/>
  </node>
  <node id="-1162" visible="true" lat="43.89588654" lon="-73.09645804">
    <tag k="addr:city" v="Salisbury"/>
    <tag k="addr:housenumber" v="1866"/>
    <tag k="addr:street" v="West Shore Road"/>
    <tag k="addr:state" v="VT"/>
    <tag k="ref:vcgi:esiteid" v="900297"/>
  </node>
</osm>
