<?xml version="1.0" encoding="UTF-8"?>
<osm version="0.6" generator="JOSM">
  <node id="-105" visible="true" lat="43.21050358" lon="-73.18954734">
    <tag k="addr:city" v="Sandgate"/>
    <tag k="addr:housenumber" v="643"/>
    <tag k="addr:street" v="Snow Road"/>
    <tag k="addr:state" v="VT"/>
    <tag k="ref:vcgi:esiteid" v="216949"/>
  </node>
  <node id="-109" visible="true" lat="43.2053" lon="-73.19089766">
    <tag k="addr:city" v="Sandgate"/>
    <tag k="addr:housenumber" v="326"/>
    <tag k="addr:street" v="Snow Road"/>
    <tag k="addr:state" v="VT"/>
    <tag k="ref:vcgi:esiteid" v="216954"/>
  </node>
  <node id="-110" visible="true" lat="43.20432358" lon="-73.19700911">
    <tag k="addr:city" v="Sandgate"/>
    <tag k="addr:housenumber" v="3761"/>
    <tag k="addr:street" v="Rupert Road"/>
    <tag k="addr:state" v="VT"/>
    <tag k="ref:vcgi:esiteid" v="216955"/>
  </node>
  <node id="-111" visible="true" lat="43.20375402" lon="-73.19527255">
    <tag k="addr:city" v="Sandgate"/>
    <tag k="addr:housenumber" v="3646"/>
    <tag k="addr:street" v="Rupert Road"/>
    <tag k="addr:state" v="VT"/>
    <tag k="ref:vcgi:esiteid" v="216956"/>
  </node>
  <node id="-112" visible="true" lat="43.2024134" lon="-73.19591625">
    <tag k="addr:city" v="Sandgate"/>
    <tag k="addr:housenumber" v="3603"/>
    <tag k="addr:street" v="Rupert Road"/>
    <tag k="addr:state" v="VT"/>
    <tag k="ref:vcgi:esiteid" v="216957"/>
  </node>
  <node id="-114" visible="true" lat="43.20138076" lon="-73.19492495">
    <tag k="addr:city" v="Sandgate"/>
    <tag k="addr:housenumber" v="3510"/>
    <tag k="addr:street" v="Rupert Road"/>
    <tag k="addr:state" v="VT"/>
    <tag k="ref:vcgi:esiteid" v="216959"/>
  </node>
  <node id="-115" visible="true" lat="43.20071964" lon="-73.19503561">
    <tag k="addr:city" v="Sandgate"/>
    <tag k="addr:housenumber" v="3484"/>
    <tag k="addr:street" v="Rupert Road"/>
    <tag k="addr:state" v="VT"/>
    <tag k="ref:vcgi:esiteid" v="216960"/>
  </node>
  <node id="-116" visible="true" lat="43.20031196" lon="-73.19707636">
    <tag k="addr:city" v="Sandgate"/>
    <tag k="addr:housenumber" v="3427"/>
    <tag k="addr:street" v="Rupert Road"/>
    <tag k="addr:state" v="VT"/>
    <tag k="ref:vcgi:esiteid" v="216961"/>
  </node>
  <node id="-117" visible="true" lat="43.19611382" lon="-73.20372484">
    <tag k="addr:city" v="Sandgate"/>
    <tag k="addr:housenumber" v="3117"/>
    <tag k="addr:street" v="Rupert Road"/>
    <tag k="addr:state" v="VT"/>
    <tag k="ref:vcgi:esiteid" v="216962"/>
  </node>
  <node id="-118" visible="true" lat="43.1971678" lon="-73.20001198">
    <tag k="addr:city" v="Sandgate"/>
    <tag k="addr:housenumber" v="3122"/>
    <tag k="addr:street" v="Rupert Road"/>
    <tag k="addr:state" v="VT"/>
    <tag k="ref:vcgi:esiteid" v="216963"/>
  </node>
  <node id="-119" visible="true" lat="43.19422054" lon="-73.20335435">
    <tag k="addr:city" v="Sandgate"/>
    <tag k="addr:housenumber" v="2865"/>
    <tag k="addr:street" v="Rupert Road"/>
    <tag k="addr:state" v="VT"/>
    <tag k="ref:vcgi:esiteid" v="216964"/>
  </node>
  <node id="-120" visible="true" lat="43.19327513" lon="-73.2038547">
    <tag k="addr:city" v="Sandgate"/>
    <tag k="addr:housenumber" v="2793"/>
    <tag k="addr:street" v="Rupert Road"/>
    <tag k="addr:state" v="VT"/>
    <tag k="ref:vcgi:esiteid" v="216965"/>
  </node>
  <node id="-121" visible="true" lat="43.1916175" lon="-73.20377601">
    <tag k="addr:city" v="Sandgate"/>
    <tag k="addr:housenumber" v="2650"/>
    <tag k="addr:street" v="Rupert Road"/>
    <tag k="addr:state" v="VT"/>
    <tag k="ref:vcgi:esiteid" v="216966"/>
  </node>
  <node id="-122" visible="true" lat="43.19139913" lon="-73.20511904">
    <tag k="addr:city" v="Sandgate"/>
    <tag k="addr:housenumber" v="2591"/>
    <tag k="addr:street" v="Rupert Road"/>
    <tag k="addr:state" v="VT"/>
    <tag k="ref:vcgi:esiteid" v="216967"/>
  </node>
  <node id="-123" visible="true" lat="43.19104202" lon="-73.20464313">
    <tag k="addr:city" v="Sandgate"/>
    <tag k="addr:housenumber" v="2566"/>
    <tag k="addr:street" v="Rupert Road"/>
    <tag k="addr:state" v="VT"/>
    <tag k="ref:vcgi:esiteid" v="216968"/>
  </node>
  <node id="-124" visible="true" lat="43.19054508" lon="-73.13281774">
    <tag k="addr:city" v="Sandgate"/>
    <tag k="addr:housenumber" v="98"/>
    <tag k="addr:street" v="Woodsgift Lane"/>
    <tag k="addr:state" v="VT"/>
    <tag k="ref:vcgi:esiteid" v="216969"/>
  </node>
  <node id="-125" visible="true" lat="43.19028888" lon="-73.13358185">
    <tag k="addr:city" v="Sandgate"/>
    <tag k="addr:housenumber" v="97"/>
    <tag k="addr:street" v="Woodsgift Lane"/>
    <tag k="addr:state" v="VT"/>
    <tag k="ref:vcgi:esiteid" v="216970"/>
  </node>
  <node id="-126" visible="true" lat="43.18891835" lon="-73.13427244">
    <tag k="addr:city" v="Sandgate"/>
    <tag k="addr:housenumber" v="7821"/>
    <tag k="addr:street" v="Sandgate Road"/>
    <tag k="addr:state" v="VT"/>
    <tag k="ref:vcgi:esiteid" v="216971"/>
  </node>
  <node id="-127" visible="true" lat="43.18876979" lon="-73.13476063">
    <tag k="addr:city" v="Sandgate"/>
    <tag k="addr:housenumber" v="7797"/>
    <tag k="addr:street" v="Sandgate Road"/>
    <tag k="addr:state" v="VT"/>
    <tag k="ref:vcgi:esiteid" v="216972"/>
  </node>
  <node id="-128" visible="true" lat="43.18876741" lon="-73.13558985">
    <tag k="addr:city" v="Sandgate"/>
    <tag k="addr:housenumber" v="7757"/>
    <tag k="addr:street" v="Sandgate Road"/>
    <tag k="addr:state" v="VT"/>
    <tag k="ref:vcgi:esiteid" v="216973"/>
  </node>
  <node id="-129" visible="true" lat="43.18849848" lon="-73.13602069">
    <tag k="addr:city" v="Sandgate"/>
    <tag k="addr:housenumber" v="7723"/>
    <tag k="addr:street" v="Sandgate Road"/>
    <tag k="addr:state" v="VT"/>
    <tag k="ref:vcgi:esiteid" v="216974"/>
  </node>
  <node id="-130" visible="true" lat="43.18846072" lon="-73.13331476">
    <tag k="addr:city" v="Sandgate"/>
    <tag k="addr:housenumber" v="7852"/>
    <tag k="addr:street" v="Sandgate Road"/>
    <tag k="addr:state" v="VT"/>
    <tag k="ref:vcgi:esiteid" v="216975"/>
  </node>
  <node id="-132" visible="true" lat="43.18793324" lon="-73.13598927">
    <tag k="addr:city" v="Sandgate"/>
    <tag k="addr:housenumber" v="7712"/>
    <tag k="addr:street" v="Sandgate Road"/>
    <tag k="addr:state" v="VT"/>
    <tag k="ref:vcgi:esiteid" v="216977"/>
  </node>
  <node id="-133" visible="true" lat="43.1874494" lon="-73.20918191">
    <tag k="addr:city" v="Sandgate"/>
    <tag k="addr:housenumber" v="2331"/>
    <tag k="addr:street" v="Rupert Road"/>
    <tag k="addr:state" v="VT"/>
    <tag k="ref:vcgi:esiteid" v="216978"/>
  </node>
  <node id="-134" visible="true" lat="43.18743339" lon="-73.13900911">
    <tag k="addr:city" v="Sandgate"/>
    <tag k="addr:housenumber" v="7561"/>
    <tag k="addr:street" v="Sandgate Road"/>
    <tag k="addr:state" v="VT"/>
    <tag k="ref:vcgi:esiteid" v="216979"/>
  </node>
  <node id="-136" visible="true" lat="43.18664853" lon="-73.13947742">
    <tag k="addr:city" v="Sandgate"/>
    <tag k="addr:housenumber" v="7530"/>
    <tag k="addr:street" v="Sandgate Road"/>
    <tag k="addr:state" v="VT"/>
    <tag k="ref:vcgi:esiteid" v="216981"/>
  </node>
  <node id="-137" visible="true" lat="43.18662383" lon="-73.14006083">
    <tag k="addr:city" v="Sandgate"/>
    <tag k="addr:housenumber" v="7492"/>
    <tag k="addr:street" v="Sandgate Road"/>
    <tag k="addr:state" v="VT"/>
    <tag k="ref:vcgi:esiteid" v="216982"/>
  </node>
  <node id="-139" visible="true" lat="43.18114477" lon="-73.21201711">
    <tag k="addr:city" v="Sandgate"/>
    <tag k="addr:housenumber" v="1782"/>
    <tag k="addr:street" v="Rupert Road"/>
    <tag k="addr:state" v="VT"/>
    <tag k="ref:vcgi:esiteid" v="216984"/>
  </node>
  <node id="-140" visible="true" lat="43.17958626" lon="-73.21213398">
    <tag k="addr:city" v="Sandgate"/>
    <tag k="addr:housenumber" v="1662"/>
    <tag k="addr:street" v="Rupert Road"/>
    <tag k="addr:state" v="VT"/>
    <tag k="ref:vcgi:esiteid" v="216985"/>
  </node>
  <node id="-141" visible="true" lat="43.17931137" lon="-73.21324354">
    <tag k="addr:city" v="Sandgate"/>
    <tag k="addr:housenumber" v="1651"/>
    <tag k="addr:street" v="Rupert Road"/>
    <tag k="addr:state" v="VT"/>
    <tag k="ref:vcgi:esiteid" v="216986"/>
  </node>
  <node id="-144" visible="true" lat="43.17866136" lon="-73.22252169">
    <tag k="addr:city" v="Sandgate"/>
    <tag k="addr:housenumber" v="1285"/>
    <tag k="addr:street" v="West Road"/>
    <tag k="addr:state" v="VT"/>
    <tag k="ref:vcgi:esiteid" v="216989"/>
  </node>
  <node id="-146" visible="true" lat="43.17722929" lon="-73.15400554">
    <tag k="addr:city" v="Sandgate"/>
    <tag k="addr:housenumber" v="5110"/>
    <tag k="addr:street" v="Sandgate Road"/>
    <tag k="addr:state" v="VT"/>
    <tag k="ref:vcgi:esiteid" v="216991"/>
  </node>
  <node id="-148" visible="true" lat="43.17751221" lon="-73.15245697">
    <tag k="addr:city" v="Sandgate"/>
    <tag k="addr:housenumber" v="6384"/>
    <tag k="addr:street" v="Sandgate Road"/>
    <tag k="addr:state" v="VT"/>
    <tag k="ref:vcgi:esiteid" v="216993"/>
  </node>
  <node id="-149" visible="true" lat="43.17752943" lon="-73.153626">
    <tag k="addr:city" v="Sandgate"/>
    <tag k="addr:housenumber" v="5112"/>
    <tag k="addr:street" v="Sandgate Road"/>
    <tag k="addr:state" v="VT"/>
    <tag k="ref:vcgi:esiteid" v="216995"/>
  </node>
  <node id="-151" visible="true" lat="43.17594528" lon="-73.16365814">
    <tag k="addr:city" v="Sandgate"/>
    <tag k="addr:housenumber" v="5967"/>
    <tag k="addr:street" v="Sandgate Road"/>
    <tag k="addr:state" v="VT"/>
    <tag k="ref:vcgi:esiteid" v="216997"/>
  </node>
  <node id="-152" visible="true" lat="43.17597898" lon="-73.15884416">
    <tag k="addr:city" v="Sandgate"/>
    <tag k="addr:housenumber" v="6192"/>
    <tag k="addr:street" v="Sandgate Road"/>
    <tag k="addr:state" v="VT"/>
    <tag k="ref:vcgi:esiteid" v="216998"/>
  </node>
  <node id="-154" visible="true" lat="43.17526488" lon="-73.17576101">
    <tag k="addr:city" v="Sandgate"/>
    <tag k="addr:housenumber" v="507"/>
    <tag k="addr:street" v="Wuerslin Road"/>
    <tag k="addr:state" v="VT"/>
    <tag k="ref:vcgi:esiteid" v="217000"/>
  </node>
  <node id="-156" visible="true" lat="43.17489007" lon="-73.16521566">
    <tag k="addr:city" v="Sandgate"/>
    <tag k="addr:housenumber" v="5835"/>
    <tag k="addr:street" v="Sandgate Road"/>
    <tag k="addr:state" v="VT"/>
    <tag k="ref:vcgi:esiteid" v="217002"/>
  </node>
  <node id="-157" visible="true" lat="43.17455404" lon="-73.16581701">
    <tag k="addr:city" v="Sandgate"/>
    <tag k="addr:housenumber" v="5833"/>
    <tag k="addr:street" v="Sandgate Road"/>
    <tag k="addr:state" v="VT"/>
    <tag k="ref:vcgi:esiteid" v="217003"/>
  </node>
  <node id="-159" visible="true" lat="43.17277105" lon="-73.16757018">
    <tag k="addr:city" v="Sandgate"/>
    <tag k="addr:housenumber" v="5677"/>
    <tag k="addr:street" v="Sandgate Road"/>
    <tag k="addr:state" v="VT"/>
    <tag k="ref:vcgi:esiteid" v="217005"/>
  </node>
  <node id="-162" visible="true" lat="43.17175293" lon="-73.22710418">
    <tag k="addr:city" v="Sandgate"/>
    <tag k="addr:housenumber" v="652"/>
    <tag k="addr:street" v="West Road"/>
    <tag k="addr:state" v="VT"/>
    <tag k="ref:vcgi:esiteid" v="217009"/>
  </node>
  <node id="-163" visible="true" lat="43.17188824" lon="-73.16754506">
    <tag k="addr:city" v="Sandgate"/>
    <tag k="addr:housenumber" v="5662"/>
    <tag k="addr:street" v="Sandgate Road"/>
    <tag k="addr:state" v="VT"/>
    <tag k="ref:vcgi:esiteid" v="217010"/>
  </node>
  <node id="-165" visible="true" lat="43.17132042" lon="-73.16823714">
    <tag k="addr:city" v="Sandgate"/>
    <tag k="addr:housenumber" v="5604"/>
    <tag k="addr:street" v="Sandgate Road"/>
    <tag k="addr:state" v="VT"/>
    <tag k="ref:vcgi:esiteid" v="217012"/>
  </node>
  <node id="-167" visible="true" lat="43.17090027" lon="-73.16839287">
    <tag k="addr:city" v="Sandgate"/>
    <tag k="addr:housenumber" v="5584"/>
    <tag k="addr:street" v="Sandgate Road"/>
    <tag k="addr:state" v="VT"/>
    <tag k="ref:vcgi:esiteid" v="217014"/>
  </node>
  <node id="-168" visible="true" lat="43.17162668" lon="-73.23080531">
    <tag k="addr:city" v="Sandgate"/>
    <tag k="addr:housenumber" v="581"/>
    <tag k="addr:street" v="West Road"/>
    <tag k="addr:state" v="VT"/>
    <tag k="ref:vcgi:esiteid" v="217015"/>
  </node>
  <node id="-169" visible="true" lat="43.17040284" lon="-73.16894157">
    <tag k="addr:city" v="Sandgate"/>
    <tag k="addr:housenumber" v="5536"/>
    <tag k="addr:street" v="Sandgate Road"/>
    <tag k="addr:state" v="VT"/>
    <tag k="ref:vcgi:esiteid" v="217016"/>
  </node>
  <node id="-171" visible="true" lat="43.16995596" lon="-73.16920904">
    <tag k="addr:city" v="Sandgate"/>
    <tag k="addr:housenumber" v="5494"/>
    <tag k="addr:street" v="Sandgate Road"/>
    <tag k="addr:state" v="VT"/>
    <tag k="ref:vcgi:esiteid" v="217018"/>
  </node>
  <node id="-172" visible="true" lat="43.16999549" lon="-73.16966051">
    <tag k="addr:city" v="Sandgate"/>
    <tag k="addr:housenumber" v="5481"/>
    <tag k="addr:street" v="Sandgate Road"/>
    <tag k="addr:state" v="VT"/>
    <tag k="ref:vcgi:esiteid" v="217019"/>
  </node>
  <node id="-175" visible="true" lat="43.16835515" lon="-73.22937945">
    <tag k="addr:city" v="Sandgate"/>
    <tag k="addr:housenumber" v="420"/>
    <tag k="addr:street" v="West Road"/>
    <tag k="addr:state" v="VT"/>
    <tag k="ref:vcgi:esiteid" v="217022"/>
  </node>
  <node id="-176" visible="true" lat="43.1683725" lon="-73.17106275">
    <tag k="addr:city" v="Sandgate"/>
    <tag k="addr:housenumber" v="5353"/>
    <tag k="addr:street" v="Sandgate Road"/>
    <tag k="addr:state" v="VT"/>
    <tag k="ref:vcgi:esiteid" v="217023"/>
  </node>
  <node id="-181" visible="true" lat="43.16630566" lon="-73.17363713">
    <tag k="addr:city" v="Sandgate"/>
    <tag k="addr:housenumber" v="5163"/>
    <tag k="addr:street" v="Sandgate Road"/>
    <tag k="addr:state" v="VT"/>
    <tag k="ref:vcgi:esiteid" v="217028"/>
  </node>
  <node id="-183" visible="true" lat="43.16560278" lon="-73.23124598">
    <tag k="addr:city" v="Sandgate"/>
    <tag k="addr:housenumber" v="207"/>
    <tag k="addr:street" v="West Road"/>
    <tag k="addr:state" v="VT"/>
    <tag k="ref:vcgi:esiteid" v="217030"/>
  </node>
  <node id="-185" visible="true" lat="43.16512297" lon="-73.23078548">
    <tag k="addr:city" v="Sandgate"/>
    <tag k="addr:housenumber" v="33"/>
    <tag k="addr:street" v="Sophies Way"/>
    <tag k="addr:state" v="VT"/>
    <tag k="ref:vcgi:esiteid" v="217032"/>
  </node>
  <node id="-188" visible="true" lat="43.16437142" lon="-73.23193327">
    <tag k="addr:city" v="Sandgate"/>
    <tag k="addr:housenumber" v="143"/>
    <tag k="addr:street" v="West Road"/>
    <tag k="addr:state" v="VT"/>
    <tag k="ref:vcgi:esiteid" v="217035"/>
  </node>
  <node id="-190" visible="true" lat="43.1647495" lon="-73.17589742">
    <tag k="addr:city" v="Sandgate"/>
    <tag k="addr:housenumber" v="4995"/>
    <tag k="addr:street" v="Sandgate Road"/>
    <tag k="addr:state" v="VT"/>
    <tag k="ref:vcgi:esiteid" v="217037"/>
  </node>
  <node id="-192" visible="true" lat="43.16427141" lon="-73.2313834">
    <tag k="addr:city" v="Sandgate"/>
    <tag k="addr:housenumber" v="120"/>
    <tag k="addr:street" v="West Road"/>
    <tag k="addr:state" v="VT"/>
    <tag k="ref:vcgi:esiteid" v="217039"/>
  </node>
  <node id="-194" visible="true" lat="43.16405487" lon="-73.25054168">
    <tag k="addr:city" v="Sandgate"/>
    <tag k="addr:housenumber" v="248"/>
    <tag k="addr:street" v="Erthein Drive"/>
    <tag k="addr:state" v="VT"/>
    <tag k="ref:vcgi:esiteid" v="217041"/>
  </node>
  <node id="-195" visible="true" lat="43.1640045" lon="-73.23035947">
    <tag k="addr:city" v="Sandgate"/>
    <tag k="addr:housenumber" v="70"/>
    <tag k="addr:street" v="Sophies Way"/>
    <tag k="addr:state" v="VT"/>
    <tag k="ref:vcgi:esiteid" v="217042"/>
  </node>
  <node id="-197" visible="true" lat="43.16405796" lon="-73.2418505">
    <tag k="addr:city" v="Sandgate"/>
    <tag k="addr:housenumber" v="2654"/>
    <tag k="addr:street" v="West Sandgate Road"/>
    <tag k="addr:state" v="VT"/>
    <tag k="ref:vcgi:esiteid" v="217044"/>
  </node>
  <node id="-198" visible="true" lat="43.16405084" lon="-73.17592183">
    <tag k="addr:city" v="Sandgate"/>
    <tag k="addr:housenumber" v="4966"/>
    <tag k="addr:street" v="Sandgate Road"/>
    <tag k="addr:state" v="VT"/>
    <tag k="ref:vcgi:esiteid" v="217045"/>
  </node>
  <node id="-199" visible="true" lat="43.16391956" lon="-73.23235229">
    <tag k="addr:city" v="Sandgate"/>
    <tag k="addr:housenumber" v="93"/>
    <tag k="addr:street" v="West Road"/>
    <tag k="addr:state" v="VT"/>
    <tag k="ref:vcgi:esiteid" v="217046"/>
  </node>
  <node id="-201" visible="true" lat="43.16365923" lon="-73.25171397">
    <tag k="addr:city" v="Sandgate"/>
    <tag k="addr:housenumber" v="226"/>
    <tag k="addr:street" v="Erthein Drive"/>
    <tag k="addr:state" v="VT"/>
    <tag k="ref:vcgi:esiteid" v="217048"/>
  </node>
  <node id="-203" visible="true" lat="43.16378931" lon="-73.23153523">
    <tag k="addr:city" v="Sandgate"/>
    <tag k="addr:housenumber" v="82"/>
    <tag k="addr:street" v="West Road"/>
    <tag k="addr:state" v="VT"/>
    <tag k="ref:vcgi:esiteid" v="217050"/>
  </node>
  <node id="-204" visible="true" lat="43.16330999" lon="-73.23288394">
    <tag k="addr:city" v="Sandgate"/>
    <tag k="addr:housenumber" v="19"/>
    <tag k="addr:street" v="West Road"/>
    <tag k="addr:state" v="VT"/>
    <tag k="ref:vcgi:esiteid" v="217051"/>
  </node>
  <node id="-205" visible="true" lat="43.1633129" lon="-73.24340452">
    <tag k="addr:city" v="Sandgate"/>
    <tag k="addr:housenumber" v="2712"/>
    <tag k="addr:street" v="West Sandgate Road"/>
    <tag k="addr:state" v="VT"/>
    <tag k="ref:vcgi:esiteid" v="217052"/>
  </node>
  <node id="-206" visible="true" lat="43.16330554" lon="-73.23455797">
    <tag k="addr:city" v="Sandgate"/>
    <tag k="addr:housenumber" v="2226"/>
    <tag k="addr:street" v="West Sandgate Road"/>
    <tag k="addr:state" v="VT"/>
    <tag k="ref:vcgi:esiteid" v="217053"/>
  </node>
  <node id="-208" visible="true" lat="43.16321248" lon="-73.24634193">
    <tag k="addr:city" v="Sandgate"/>
    <tag k="addr:housenumber" v="3"/>
    <tag k="addr:street" v="Lincoln Lane"/>
    <tag k="addr:state" v="VT"/>
    <tag k="ref:vcgi:esiteid" v="217055"/>
  </node>
  <node id="-209" visible="true" lat="43.16278298" lon="-73.24687285">
    <tag k="addr:city" v="Sandgate"/>
    <tag k="addr:housenumber" v="2914"/>
    <tag k="addr:street" v="West Sandgate Road"/>
    <tag k="addr:state" v="VT"/>
    <tag k="ref:vcgi:esiteid" v="217056"/>
  </node>
  <node id="-210" visible="true" lat="43.16317382" lon="-73.18084466">
    <tag k="addr:city" v="Sandgate"/>
    <tag k="addr:housenumber" v="181"/>
    <tag k="addr:street" v="Wilcox Hollow Road"/>
    <tag k="addr:state" v="VT"/>
    <tag k="ref:vcgi:esiteid" v="217057"/>
  </node>
  <node id="-211" visible="true" lat="43.16254049" lon="-73.24752747">
    <tag k="addr:city" v="Sandgate"/>
    <tag k="addr:housenumber" v="2950"/>
    <tag k="addr:street" v="West Sandgate Road"/>
    <tag k="addr:state" v="VT"/>
    <tag k="ref:vcgi:esiteid" v="217058"/>
  </node>
  <node id="-212" visible="true" lat="43.16260618" lon="-73.24624132">
    <tag k="addr:city" v="Sandgate"/>
    <tag k="addr:housenumber" v="2899"/>
    <tag k="addr:street" v="West Sandgate Road"/>
    <tag k="addr:state" v="VT"/>
    <tag k="ref:vcgi:esiteid" v="217059"/>
  </node>
  <node id="-214" visible="true" lat="43.16241865" lon="-73.2337131">
    <tag k="addr:city" v="Sandgate"/>
    <tag k="addr:housenumber" v="2231"/>
    <tag k="addr:street" v="West Sandgate Road"/>
    <tag k="addr:state" v="VT"/>
    <tag k="ref:vcgi:esiteid" v="217061"/>
  </node>
  <node id="-215" visible="true" lat="43.16209972" lon="-73.23154608">
    <tag k="addr:city" v="Sandgate"/>
    <tag k="addr:housenumber" v="2089"/>
    <tag k="addr:street" v="West Sandgate Road"/>
    <tag k="addr:state" v="VT"/>
    <tag k="ref:vcgi:esiteid" v="217062"/>
  </node>
  <node id="-216" visible="true" lat="43.16223862" lon="-73.23213426">
    <tag k="addr:city" v="Sandgate"/>
    <tag k="addr:housenumber" v="2113"/>
    <tag k="addr:street" v="West Sandgate Road"/>
    <tag k="addr:state" v="VT"/>
    <tag k="ref:vcgi:esiteid" v="217063"/>
  </node>
  <node id="-218" visible="true" lat="43.16174621" lon="-73.25690439">
    <tag k="addr:city" v="Sandgate"/>
    <tag k="addr:housenumber" v="150"/>
    <tag k="addr:street" v="Campbell Road"/>
    <tag k="addr:state" v="VT"/>
    <tag k="ref:vcgi:esiteid" v="217065"/>
  </node>
  <node id="-220" visible="true" lat="43.16251111" lon="-73.25927564">
    <tag k="addr:city" v="Sandgate"/>
    <tag k="addr:housenumber" v="86"/>
    <tag k="addr:street" v="Littmann Lane"/>
    <tag k="addr:state" v="VT"/>
    <tag k="ref:vcgi:esiteid" v="217067"/>
  </node>
  <node id="-223" visible="true" lat="43.16137917" lon="-73.17851551">
    <tag k="addr:city" v="Sandgate"/>
    <tag k="addr:housenumber" v="4735"/>
    <tag k="addr:street" v="Sandgate Road"/>
    <tag k="addr:state" v="VT"/>
    <tag k="ref:vcgi:esiteid" v="217070"/>
  </node>
  <node id="-224" visible="true" lat="43.16077837" lon="-73.26050967">
    <tag k="addr:city" v="Sandgate"/>
    <tag k="addr:housenumber" v="188"/>
    <tag k="addr:street" v="Littmann Lane"/>
    <tag k="addr:state" v="VT"/>
    <tag k="ref:vcgi:esiteid" v="217071"/>
  </node>
  <node id="-225" visible="true" lat="43.1610886" lon="-73.18810473">
    <tag k="addr:city" v="Sandgate"/>
    <tag k="addr:housenumber" v="723"/>
    <tag k="addr:street" v="Stannards Road"/>
    <tag k="addr:state" v="VT"/>
    <tag k="ref:vcgi:esiteid" v="217072"/>
  </node>
  <node id="-226" visible="true" lat="43.16062783" lon="-73.25629431">
    <tag k="addr:city" v="Sandgate"/>
    <tag k="addr:housenumber" v="3412"/>
    <tag k="addr:street" v="West Sandgate Road"/>
    <tag k="addr:state" v="VT"/>
    <tag k="ref:vcgi:esiteid" v="217073"/>
  </node>
  <node id="-228" visible="true" lat="43.16057796" lon="-73.2556228">
    <tag k="addr:city" v="Sandgate"/>
    <tag k="addr:housenumber" v="3393"/>
    <tag k="addr:street" v="West Sandgate Road"/>
    <tag k="addr:state" v="VT"/>
    <tag k="ref:vcgi:esiteid" v="217075"/>
  </node>
  <node id="-229" visible="true" lat="43.16077095" lon="-73.17815528">
    <tag k="addr:city" v="Sandgate"/>
    <tag k="addr:housenumber" v="4706"/>
    <tag k="addr:street" v="Sandgate Road"/>
    <tag k="addr:state" v="VT"/>
    <tag k="ref:vcgi:esiteid" v="217076"/>
  </node>
  <node id="-232" visible="true" lat="43.16029665" lon="-73.17876366">
    <tag k="addr:city" v="Sandgate"/>
    <tag k="addr:housenumber" v="4648"/>
    <tag k="addr:street" v="Sandgate Road"/>
    <tag k="addr:state" v="VT"/>
    <tag k="ref:vcgi:esiteid" v="217079"/>
  </node>
  <node id="-233" visible="true" lat="43.15962302" lon="-73.26183557">
    <tag k="addr:city" v="Sandgate"/>
    <tag k="addr:housenumber" v="263"/>
    <tag k="addr:street" v="Littmann Lane"/>
    <tag k="addr:state" v="VT"/>
    <tag k="ref:vcgi:esiteid" v="217080"/>
  </node>
  <node id="-234" visible="true" lat="43.15993842" lon="-73.17939297">
    <tag k="addr:city" v="Sandgate"/>
    <tag k="addr:housenumber" v="4630"/>
    <tag k="addr:street" v="Sandgate Road"/>
    <tag k="addr:state" v="VT"/>
    <tag k="ref:vcgi:esiteid" v="217081"/>
  </node>
  <node id="-238" visible="true" lat="43.15868828" lon="-73.25923538">
    <tag k="addr:city" v="Sandgate"/>
    <tag k="addr:housenumber" v="3600"/>
    <tag k="addr:street" v="West Sandgate Road"/>
    <tag k="addr:state" v="VT"/>
    <tag k="ref:vcgi:esiteid" v="217087"/>
  </node>
  <node id="-240" visible="true" lat="43.15891939" lon="-73.18175139">
    <tag k="addr:city" v="Sandgate"/>
    <tag k="addr:housenumber" v="103"/>
    <tag k="addr:street" v="Mazzola Trail"/>
    <tag k="addr:state" v="VT"/>
    <tag k="ref:vcgi:esiteid" v="217089"/>
  </node>
  <node id="-241" visible="true" lat="43.15843551" lon="-73.17955262">
    <tag k="addr:city" v="Sandgate"/>
    <tag k="addr:housenumber" v="4416"/>
    <tag k="addr:street" v="Sandgate Road"/>
    <tag k="addr:state" v="VT"/>
    <tag k="ref:vcgi:esiteid" v="217090"/>
  </node>
  <node id="-242" visible="true" lat="43.15787194" lon="-73.26031508">
    <tag k="addr:city" v="Sandgate"/>
    <tag k="addr:housenumber" v="3602"/>
    <tag k="addr:street" v="West Sandgate Road"/>
    <tag k="addr:state" v="VT"/>
    <tag k="ref:vcgi:esiteid" v="217091"/>
  </node>
  <node id="-245" visible="true" lat="43.15668558" lon="-73.25714281">
    <tag k="addr:city" v="Sandgate"/>
    <tag k="addr:housenumber" v="3699"/>
    <tag k="addr:street" v="West Sandgate Road"/>
    <tag k="addr:state" v="VT"/>
    <tag k="ref:vcgi:esiteid" v="217094"/>
  </node>
  <node id="-250" visible="true" lat="43.15559598" lon="-73.25964774">
    <tag k="addr:city" v="Sandgate"/>
    <tag k="addr:housenumber" v="3810"/>
    <tag k="addr:street" v="West Sandgate Road"/>
    <tag k="addr:state" v="VT"/>
    <tag k="ref:vcgi:esiteid" v="217099"/>
  </node>
  <node id="-251" visible="true" lat="43.1557915" lon="-73.18426018">
    <tag k="addr:city" v="Sandgate"/>
    <tag k="addr:housenumber" v="4233"/>
    <tag k="addr:street" v="Sandgate Road"/>
    <tag k="addr:state" v="VT"/>
    <tag k="ref:vcgi:esiteid" v="217100"/>
  </node>
  <node id="-252" visible="true" lat="43.15524555" lon="-73.26231778">
    <tag k="addr:city" v="Sandgate"/>
    <tag k="addr:housenumber" v="3920"/>
    <tag k="addr:street" v="West Sandgate Road"/>
    <tag k="addr:state" v="VT"/>
    <tag k="ref:vcgi:esiteid" v="217101"/>
  </node>
  <node id="-253" visible="true" lat="43.1543559" lon="-73.26104533">
    <tag k="addr:city" v="Sandgate"/>
    <tag k="addr:housenumber" v="3919"/>
    <tag k="addr:street" v="West Sandgate Road"/>
    <tag k="addr:state" v="VT"/>
    <tag k="ref:vcgi:esiteid" v="217102"/>
  </node>
  <node id="-254" visible="true" lat="43.15461885" lon="-73.18815102">
    <tag k="addr:city" v="Sandgate"/>
    <tag k="addr:housenumber" v="4025"/>
    <tag k="addr:street" v="Sandgate Road"/>
    <tag k="addr:state" v="VT"/>
    <tag k="ref:vcgi:esiteid" v="217103"/>
  </node>
  <node id="-255" visible="true" lat="43.15366255" lon="-73.18718795">
    <tag k="addr:city" v="Sandgate"/>
    <tag k="addr:housenumber" v="46"/>
    <tag k="addr:street" v="Hamilton Hollow Road"/>
    <tag k="addr:state" v="VT"/>
    <tag k="ref:vcgi:esiteid" v="217104"/>
  </node>
  <node id="-256" visible="true" lat="43.15321771" lon="-73.18554738">
    <tag k="addr:city" v="Sandgate"/>
    <tag k="addr:housenumber" v="223"/>
    <tag k="addr:street" v="Hamilton Hollow Road"/>
    <tag k="addr:state" v="VT"/>
    <tag k="ref:vcgi:esiteid" v="217105"/>
  </node>
  <node id="-257" visible="true" lat="43.15308375" lon="-73.19033378">
    <tag k="addr:city" v="Sandgate"/>
    <tag k="addr:housenumber" v="3826"/>
    <tag k="addr:street" v="Sandgate Road"/>
    <tag k="addr:state" v="VT"/>
    <tag k="ref:vcgi:esiteid" v="217106"/>
  </node>
  <node id="-258" visible="true" lat="43.15215258" lon="-73.19246468">
    <tag k="addr:city" v="Sandgate"/>
    <tag k="addr:housenumber" v="3694"/>
    <tag k="addr:street" v="Sandgate Road"/>
    <tag k="addr:state" v="VT"/>
    <tag k="ref:vcgi:esiteid" v="217107"/>
  </node>
  <node id="-259" visible="true" lat="43.151037" lon="-73.25771806">
    <tag k="addr:city" v="Sandgate"/>
    <tag k="addr:housenumber" v="342"/>
    <tag k="addr:street" v="Weldon Drive"/>
    <tag k="addr:state" v="VT"/>
    <tag k="ref:vcgi:esiteid" v="217108"/>
  </node>
  <node id="-260" visible="true" lat="43.15127254" lon="-73.19405667">
    <tag k="addr:city" v="Sandgate"/>
    <tag k="addr:housenumber" v="3622"/>
    <tag k="addr:street" v="Sandgate Road"/>
    <tag k="addr:state" v="VT"/>
    <tag k="ref:vcgi:esiteid" v="217109"/>
  </node>
  <node id="-262" visible="true" lat="43.15037978" lon="-73.25642639">
    <tag k="addr:city" v="Sandgate"/>
    <tag k="addr:housenumber" v="391"/>
    <tag k="addr:street" v="Weldon Drive"/>
    <tag k="addr:state" v="VT"/>
    <tag k="ref:vcgi:esiteid" v="217111"/>
  </node>
  <node id="-263" visible="true" lat="43.15049716" lon="-73.19657749">
    <tag k="addr:city" v="Sandgate"/>
    <tag k="addr:housenumber" v="3458"/>
    <tag k="addr:street" v="Sandgate Road"/>
    <tag k="addr:state" v="VT"/>
    <tag k="ref:vcgi:esiteid" v="217112"/>
  </node>
  <node id="-264" visible="true" lat="43.15047609" lon="-73.19716687">
    <tag k="addr:city" v="Sandgate"/>
    <tag k="addr:housenumber" v="3433"/>
    <tag k="addr:street" v="Sandgate Road"/>
    <tag k="addr:state" v="VT"/>
    <tag k="ref:vcgi:esiteid" v="217113"/>
  </node>
  <node id="-265" visible="true" lat="43.15027787" lon="-73.19672332">
    <tag k="addr:city" v="Sandgate"/>
    <tag k="addr:housenumber" v="3446"/>
    <tag k="addr:street" v="Sandgate Road"/>
    <tag k="addr:state" v="VT"/>
    <tag k="ref:vcgi:esiteid" v="217114"/>
  </node>
  <node id="-269" visible="true" lat="43.14977497" lon="-73.19715136">
    <tag k="addr:city" v="Sandgate"/>
    <tag k="addr:housenumber" v="3402"/>
    <tag k="addr:street" v="Sandgate Road"/>
    <tag k="addr:state" v="VT"/>
    <tag k="ref:vcgi:esiteid" v="217118"/>
  </node>
  <node id="-270" visible="true" lat="43.14977462" lon="-73.19777062">
    <tag k="addr:city" v="Sandgate"/>
    <tag k="addr:housenumber" v="3381"/>
    <tag k="addr:street" v="Sandgate Road"/>
    <tag k="addr:state" v="VT"/>
    <tag k="ref:vcgi:esiteid" v="217119"/>
  </node>
  <node id="-272" visible="true" lat="43.14892759" lon="-73.19760473">
    <tag k="addr:city" v="Sandgate"/>
    <tag k="addr:housenumber" v="3336"/>
    <tag k="addr:street" v="Sandgate Road"/>
    <tag k="addr:state" v="VT"/>
    <tag k="ref:vcgi:esiteid" v="217121"/>
  </node>
  <node id="-275" visible="true" lat="43.14802672" lon="-73.19824973">
    <tag k="addr:city" v="Sandgate"/>
    <tag k="addr:housenumber" v="3266"/>
    <tag k="addr:street" v="Sandgate Road"/>
    <tag k="addr:state" v="VT"/>
    <tag k="ref:vcgi:esiteid" v="217125"/>
  </node>
  <node id="-276" visible="true" lat="43.14801168" lon="-73.19907924">
    <tag k="addr:city" v="Sandgate"/>
    <tag k="addr:housenumber" v="3217"/>
    <tag k="addr:street" v="Sandgate Road"/>
    <tag k="addr:state" v="VT"/>
    <tag k="ref:vcgi:esiteid" v="217126"/>
  </node>
  <node id="-279" visible="true" lat="43.14693564" lon="-73.20276156">
    <tag k="addr:city" v="Sandgate"/>
    <tag k="addr:housenumber" v="92"/>
    <tag k="addr:street" v="West Sandgate Road"/>
    <tag k="addr:state" v="VT"/>
    <tag k="ref:vcgi:esiteid" v="217130"/>
  </node>
  <node id="-280" visible="true" lat="43.14621743" lon="-73.19937353">
    <tag k="addr:city" v="Sandgate"/>
    <tag k="addr:housenumber" v="1333"/>
    <tag k="addr:street" v="Woodcock Road"/>
    <tag k="addr:state" v="VT"/>
    <tag k="ref:vcgi:esiteid" v="217131"/>
  </node>
  <node id="-281" visible="true" lat="43.14575702" lon="-73.20479132">
    <tag k="addr:city" v="Sandgate"/>
    <tag k="addr:housenumber" v="190"/>
    <tag k="addr:street" v="Swearing Hill Road"/>
    <tag k="addr:state" v="VT"/>
    <tag k="ref:vcgi:esiteid" v="217132"/>
  </node>
  <node id="-282" visible="true" lat="43.14531697" lon="-73.20158647">
    <tag k="addr:city" v="Sandgate"/>
    <tag k="addr:housenumber" v="3010"/>
    <tag k="addr:street" v="Sandgate Road"/>
    <tag k="addr:state" v="VT"/>
    <tag k="ref:vcgi:esiteid" v="217133"/>
  </node>
  <node id="-286" visible="true" lat="43.14472059" lon="-73.20513121">
    <tag k="addr:city" v="Sandgate"/>
    <tag k="addr:housenumber" v="283"/>
    <tag k="addr:street" v="Swearing Hill Road"/>
    <tag k="addr:state" v="VT"/>
    <tag k="ref:vcgi:esiteid" v="217137"/>
  </node>
  <node id="-287" visible="true" lat="43.1444891" lon="-73.20322511">
    <tag k="addr:city" v="Sandgate"/>
    <tag k="addr:housenumber" v="61"/>
    <tag k="addr:street" v="Swearing Hill Road"/>
    <tag k="addr:state" v="VT"/>
    <tag k="ref:vcgi:esiteid" v="217138"/>
  </node>
  <node id="-291" visible="true" lat="43.14375742" lon="-73.2035011">
    <tag k="addr:city" v="Sandgate"/>
    <tag k="addr:housenumber" v="2925"/>
    <tag k="addr:street" v="Sandgate Road"/>
    <tag k="addr:state" v="VT"/>
    <tag k="ref:vcgi:esiteid" v="217142"/>
  </node>
  <node id="-293" visible="true" lat="43.14265677" lon="-73.20225518">
    <tag k="addr:city" v="Sandgate"/>
    <tag k="addr:housenumber" v="2742"/>
    <tag k="addr:street" v="Sandgate Road"/>
    <tag k="addr:state" v="VT"/>
    <tag k="ref:vcgi:esiteid" v="217144"/>
  </node>
  <node id="-294" visible="true" lat="43.14199613" lon="-73.20379216">
    <tag k="addr:city" v="Sandgate"/>
    <tag k="addr:housenumber" v="2747"/>
    <tag k="addr:street" v="Sandgate Road"/>
    <tag k="addr:state" v="VT"/>
    <tag k="ref:vcgi:esiteid" v="217145"/>
  </node>
  <node id="-297" visible="true" lat="43.14177454" lon="-73.20332803">
    <tag k="addr:city" v="Sandgate"/>
    <tag k="addr:housenumber" v="2740"/>
    <tag k="addr:street" v="Sandgate Road"/>
    <tag k="addr:state" v="VT"/>
    <tag k="ref:vcgi:esiteid" v="217148"/>
  </node>
  <node id="-301" visible="true" lat="43.14055444" lon="-73.20603584">
    <tag k="addr:city" v="Sandgate"/>
    <tag k="addr:housenumber" v="252"/>
    <tag k="addr:street" v="Tudor Road"/>
    <tag k="addr:state" v="VT"/>
    <tag k="ref:vcgi:esiteid" v="217152"/>
  </node>
  <node id="-304" visible="true" lat="43.13994159" lon="-73.20395193">
    <tag k="addr:city" v="Sandgate"/>
    <tag k="addr:housenumber" v="2593"/>
    <tag k="addr:street" v="Sandgate Road"/>
    <tag k="addr:state" v="VT"/>
    <tag k="ref:vcgi:esiteid" v="217155"/>
  </node>
  <node id="-307" visible="true" lat="43.13965471" lon="-73.20266795">
    <tag k="addr:city" v="Sandgate"/>
    <tag k="addr:housenumber" v="2538"/>
    <tag k="addr:street" v="Sandgate Road"/>
    <tag k="addr:state" v="VT"/>
    <tag k="ref:vcgi:esiteid" v="217158"/>
  </node>
  <node id="-311" visible="true" lat="43.13874654" lon="-73.20616396">
    <tag k="addr:city" v="Sandgate"/>
    <tag k="addr:housenumber" v="231"/>
    <tag k="addr:street" v="Tudor Road"/>
    <tag k="addr:state" v="VT"/>
    <tag k="ref:vcgi:esiteid" v="217162"/>
  </node>
  <node id="-312" visible="true" lat="43.13890536" lon="-73.2028193">
    <tag k="addr:city" v="Sandgate"/>
    <tag k="addr:housenumber" v="2536"/>
    <tag k="addr:street" v="Sandgate Road"/>
    <tag k="addr:state" v="VT"/>
    <tag k="ref:vcgi:esiteid" v="217163"/>
  </node>
  <node id="-313" visible="true" lat="43.13844373" lon="-73.20453192">
    <tag k="addr:city" v="Sandgate"/>
    <tag k="addr:housenumber" v="101"/>
    <tag k="addr:street" v="Tudor Road"/>
    <tag k="addr:state" v="VT"/>
    <tag k="ref:vcgi:esiteid" v="217164"/>
  </node>
  <node id="-314" visible="true" lat="43.13820881" lon="-73.20364598">
    <tag k="addr:city" v="Sandgate"/>
    <tag k="addr:housenumber" v="2498"/>
    <tag k="addr:street" v="Sandgate Road"/>
    <tag k="addr:state" v="VT"/>
    <tag k="ref:vcgi:esiteid" v="217165"/>
  </node>
  <node id="-316" visible="true" lat="43.13809405" lon="-73.20446655">
    <tag k="addr:city" v="Sandgate"/>
    <tag k="addr:housenumber" v="103"/>
    <tag k="addr:street" v="Tudor Road"/>
    <tag k="addr:state" v="VT"/>
    <tag k="ref:vcgi:esiteid" v="217167"/>
  </node>
  <node id="-318" visible="true" lat="43.13758031" lon="-73.20424921">
    <tag k="addr:city" v="Sandgate"/>
    <tag k="addr:housenumber" v="2461"/>
    <tag k="addr:street" v="Sandgate Road"/>
    <tag k="addr:state" v="VT"/>
    <tag k="ref:vcgi:esiteid" v="217169"/>
  </node>
  <node id="-320" visible="true" lat="43.13610109" lon="-73.20385693">
    <tag k="addr:city" v="Sandgate"/>
    <tag k="addr:housenumber" v="2352"/>
    <tag k="addr:street" v="Sandgate Road"/>
    <tag k="addr:state" v="VT"/>
    <tag k="ref:vcgi:esiteid" v="217171"/>
  </node>
  <node id="-328" visible="true" lat="43.13289619" lon="-73.20339918">
    <tag k="addr:city" v="Sandgate"/>
    <tag k="addr:housenumber" v="1966"/>
    <tag k="addr:street" v="Sandgate Road"/>
    <tag k="addr:state" v="VT"/>
    <tag k="ref:vcgi:esiteid" v="217179"/>
  </node>
  <node id="-329" visible="true" lat="43.13264114" lon="-73.2057679">
    <tag k="addr:city" v="Sandgate"/>
    <tag k="addr:housenumber" v="1971"/>
    <tag k="addr:street" v="Sandgate Road"/>
    <tag k="addr:state" v="VT"/>
    <tag k="ref:vcgi:esiteid" v="217180"/>
  </node>
  <node id="-333" visible="true" lat="43.13149845" lon="-73.20433817">
    <tag k="addr:city" v="Sandgate"/>
    <tag k="addr:housenumber" v="1978"/>
    <tag k="addr:street" v="Sandgate Road"/>
    <tag k="addr:state" v="VT"/>
    <tag k="ref:vcgi:esiteid" v="217184"/>
  </node>
  <node id="-338" visible="true" lat="43.13017938" lon="-73.20528776">
    <tag k="addr:city" v="Sandgate"/>
    <tag k="addr:housenumber" v="1907"/>
    <tag k="addr:street" v="Sandgate Road"/>
    <tag k="addr:state" v="VT"/>
    <tag k="ref:vcgi:esiteid" v="217190"/>
  </node>
  <node id="-339" visible="true" lat="43.12929774" lon="-73.25524025">
    <tag k="addr:city" v="Sandgate"/>
    <tag k="addr:housenumber" v="25"/>
    <tag k="addr:street" v="Pantaleon Road"/>
    <tag k="addr:state" v="VT"/>
    <tag k="ref:vcgi:esiteid" v="217191"/>
  </node>
  <node id="-341" visible="true" lat="43.12926049" lon="-73.2052063">
    <tag k="addr:city" v="Sandgate"/>
    <tag k="addr:housenumber" v="9"/>
    <tag k="addr:street" v="Southeast Corners Road"/>
    <tag k="addr:state" v="VT"/>
    <tag k="ref:vcgi:esiteid" v="217194"/>
  </node>
  <node id="-343" visible="true" lat="43.12898723" lon="-73.20433431">
    <tag k="addr:city" v="Sandgate"/>
    <tag k="addr:housenumber" v="47"/>
    <tag k="addr:street" v="Southeast Corners Road"/>
    <tag k="addr:state" v="VT"/>
    <tag k="ref:vcgi:esiteid" v="217196"/>
  </node>
  <node id="-344" visible="true" lat="43.1286601" lon="-73.20304565">
    <tag k="addr:city" v="Sandgate"/>
    <tag k="addr:housenumber" v="18"/>
    <tag k="addr:street" v="Woodcock Road"/>
    <tag k="addr:state" v="VT"/>
    <tag k="ref:vcgi:esiteid" v="217197"/>
  </node>
  <node id="-345" visible="true" lat="43.12829019" lon="-73.20409676">
    <tag k="addr:city" v="Sandgate"/>
    <tag k="addr:housenumber" v="104"/>
    <tag k="addr:street" v="Southeast Corners Road"/>
    <tag k="addr:state" v="VT"/>
    <tag k="ref:vcgi:esiteid" v="217198"/>
  </node>
  <node id="-346" visible="true" lat="43.12801193" lon="-73.2029338">
    <tag k="addr:city" v="Sandgate"/>
    <tag k="addr:housenumber" v="158"/>
    <tag k="addr:street" v="Southeast Corners Road"/>
    <tag k="addr:state" v="VT"/>
    <tag k="ref:vcgi:esiteid" v="217199"/>
  </node>
  <node id="-347" visible="true" lat="43.12622955" lon="-73.25816842">
    <tag k="addr:city" v="Sandgate"/>
    <tag k="addr:housenumber" v="125"/>
    <tag k="addr:street" v="Chunks Brook Road"/>
    <tag k="addr:state" v="VT"/>
    <tag k="ref:vcgi:esiteid" v="217200"/>
  </node>
  <node id="-348" visible="true" lat="43.12786209" lon="-73.25612744">
    <tag k="addr:city" v="Sandgate"/>
    <tag k="addr:housenumber" v="1523"/>
    <tag k="addr:street" v="Chunks Brook Road"/>
    <tag k="addr:state" v="VT"/>
    <tag k="ref:vcgi:esiteid" v="217201"/>
  </node>
  <node id="-349" visible="true" lat="43.12820108" lon="-73.19707981">
    <tag k="addr:city" v="Sandgate"/>
    <tag k="addr:housenumber" v="433"/>
    <tag k="addr:street" v="Southeast Corners Road"/>
    <tag k="addr:state" v="VT"/>
    <tag k="ref:vcgi:esiteid" v="217202"/>
  </node>
  <node id="-351" visible="true" lat="43.12806827" lon="-73.1978493">
    <tag k="addr:city" v="Sandgate"/>
    <tag k="addr:housenumber" v="419"/>
    <tag k="addr:street" v="Southeast Corners Road"/>
    <tag k="addr:state" v="VT"/>
    <tag k="ref:vcgi:esiteid" v="217204"/>
  </node>
  <node id="-352" visible="true" lat="43.12787246" lon="-73.19637298">
    <tag k="addr:city" v="Sandgate"/>
    <tag k="addr:housenumber" v="491"/>
    <tag k="addr:street" v="Southeast Corners Road"/>
    <tag k="addr:state" v="VT"/>
    <tag k="ref:vcgi:esiteid" v="217205"/>
  </node>
  <node id="-357" visible="true" lat="43.12639617" lon="-73.20657348">
    <tag k="addr:city" v="Sandgate"/>
    <tag k="addr:housenumber" v="1647"/>
    <tag k="addr:street" v="Sandgate Road"/>
    <tag k="addr:state" v="VT"/>
    <tag k="ref:vcgi:esiteid" v="217211"/>
  </node>
  <node id="-359" visible="true" lat="43.12551879" lon="-73.25682067">
    <tag k="addr:city" v="Sandgate"/>
    <tag k="addr:housenumber" v="1361"/>
    <tag k="addr:street" v="Chunks Brook Road"/>
    <tag k="addr:state" v="VT"/>
    <tag k="ref:vcgi:esiteid" v="217213"/>
  </node>
  <node id="-362" visible="true" lat="43.12503056" lon="-73.20689827">
    <tag k="addr:city" v="Sandgate"/>
    <tag k="addr:housenumber" v="1467"/>
    <tag k="addr:street" v="Sandgate Road"/>
    <tag k="addr:state" v="VT"/>
    <tag k="ref:vcgi:esiteid" v="217217"/>
  </node>
  <node id="-363" visible="true" lat="43.12453815" lon="-73.25984969">
    <tag k="addr:city" v="Sandgate"/>
    <tag k="addr:housenumber" v="121"/>
    <tag k="addr:street" v="Chunks Brook Road"/>
    <tag k="addr:state" v="VT"/>
    <tag k="ref:vcgi:esiteid" v="217218"/>
  </node>
  <node id="-364" visible="true" lat="43.12408439" lon="-73.20588051">
    <tag k="addr:city" v="Sandgate"/>
    <tag k="addr:housenumber" v="1494"/>
    <tag k="addr:street" v="Sandgate Road"/>
    <tag k="addr:state" v="VT"/>
    <tag k="ref:vcgi:esiteid" v="217219"/>
  </node>
  <node id="-365" visible="true" lat="43.12374391" lon="-73.20618148">
    <tag k="addr:city" v="Sandgate"/>
    <tag k="addr:housenumber" v="1474"/>
    <tag k="addr:street" v="Sandgate Road"/>
    <tag k="addr:state" v="VT"/>
    <tag k="ref:vcgi:esiteid" v="217220"/>
  </node>
  <node id="-366" visible="true" lat="43.12389118" lon="-73.25729628">
    <tag k="addr:city" v="Sandgate"/>
    <tag k="addr:housenumber" v="1212"/>
    <tag k="addr:street" v="Chunks Brook Road"/>
    <tag k="addr:state" v="VT"/>
    <tag k="ref:vcgi:esiteid" v="217221"/>
  </node>
  <node id="-368" visible="true" lat="43.12216993" lon="-73.20777524">
    <tag k="addr:city" v="Sandgate"/>
    <tag k="addr:housenumber" v="1327"/>
    <tag k="addr:street" v="Sandgate Road"/>
    <tag k="addr:state" v="VT"/>
    <tag k="ref:vcgi:esiteid" v="217223"/>
  </node>
  <node id="-369" visible="true" lat="43.15216562" lon="-73.26158865">
    <tag k="addr:city" v="Sandgate"/>
    <tag k="addr:housenumber" v="4007"/>
    <tag k="addr:street" v="West Sandgate Road"/>
    <tag k="addr:state" v="VT"/>
    <tag k="ref:vcgi:esiteid" v="217224"/>
  </node>
  <node id="-370" visible="true" lat="43.12139582" lon="-73.21002708">
    <tag k="addr:city" v="Sandgate"/>
    <tag k="addr:housenumber" v="219"/>
    <tag k="addr:street" v="Shamrock Hill"/>
    <tag k="addr:state" v="VT"/>
    <tag k="ref:vcgi:esiteid" v="217225"/>
  </node>
  <node id="-371" visible="true" lat="43.15978118" lon="-73.25707016">
    <tag k="addr:city" v="Sandgate"/>
    <tag k="addr:housenumber" v="3478"/>
    <tag k="addr:street" v="West Sandgate Road"/>
    <tag k="addr:state" v="VT"/>
    <tag k="ref:vcgi:esiteid" v="217226"/>
  </node>
  <node id="-374" visible="true" lat="43.16282083" lon="-73.23559939">
    <tag k="addr:city" v="Sandgate"/>
    <tag k="addr:housenumber" v="2306"/>
    <tag k="addr:street" v="West Sandgate Road"/>
    <tag k="addr:state" v="VT"/>
    <tag k="ref:vcgi:esiteid" v="217229"/>
  </node>
  <node id="-375" visible="true" lat="43.16271615" lon="-73.23270642">
    <tag k="addr:city" v="Sandgate"/>
    <tag k="addr:housenumber" v="2157"/>
    <tag k="addr:street" v="West Sandgate Road"/>
    <tag k="addr:state" v="VT"/>
    <tag k="ref:vcgi:esiteid" v="217230"/>
  </node>
  <node id="-384" visible="true" lat="43.18216685" lon="-73.21233452">
    <tag k="addr:city" v="Sandgate"/>
    <tag k="addr:housenumber" v="1823"/>
    <tag k="addr:street" v="Rupert Road"/>
    <tag k="addr:state" v="VT"/>
    <tag k="ref:vcgi:esiteid" v="217239"/>
  </node>
  <node id="-386" visible="true" lat="43.16310019" lon="-73.23868881">
    <tag k="addr:city" v="Sandgate"/>
    <tag k="addr:housenumber" v="2472"/>
    <tag k="addr:street" v="West Sandgate Road"/>
    <tag k="addr:state" v="VT"/>
    <tag k="ref:vcgi:esiteid" v="217241"/>
  </node>
  <node id="-387" visible="true" lat="43.17319426" lon="-73.22811758">
    <tag k="addr:city" v="Sandgate"/>
    <tag k="addr:housenumber" v="759"/>
    <tag k="addr:street" v="West Road"/>
    <tag k="addr:state" v="VT"/>
    <tag k="ref:vcgi:esiteid" v="217242"/>
  </node>
  <node id="-391" visible="true" lat="43.12687569" lon="-73.20656668">
    <tag k="addr:city" v="Sandgate"/>
    <tag k="addr:housenumber" v="1667"/>
    <tag k="addr:street" v="Sandgate Road"/>
    <tag k="addr:state" v="VT"/>
    <tag k="ref:vcgi:esiteid" v="217246"/>
  </node>
  <node id="-394" visible="true" lat="43.13373638" lon="-73.25494498">
    <tag k="addr:city" v="Sandgate"/>
    <tag k="addr:housenumber" v="131"/>
    <tag k="addr:street" v="Pantaleon Road"/>
    <tag k="addr:state" v="VT"/>
    <tag k="ref:vcgi:esiteid" v="217249"/>
  </node>
  <node id="-395" visible="true" lat="43.19522571" lon="-73.13334671">
    <tag k="addr:city" v="Sandgate"/>
    <tag k="addr:housenumber" v="546"/>
    <tag k="addr:street" v="Moffitt Hollow Road"/>
    <tag k="addr:state" v="VT"/>
    <tag k="ref:vcgi:esiteid" v="217250"/>
  </node>
  <node id="-396" visible="true" lat="43.17501799" lon="-73.22635318">
    <tag k="addr:city" v="Sandgate"/>
    <tag k="addr:housenumber" v="939"/>
    <tag k="addr:street" v="West Road"/>
    <tag k="addr:state" v="VT"/>
    <tag k="ref:vcgi:esiteid" v="217251"/>
  </node>
  <node id="-397" visible="true" lat="43.1544465" lon="-73.2565491">
    <tag k="addr:city" v="Sandgate"/>
    <tag k="addr:housenumber" v="3785"/>
    <tag k="addr:street" v="West Sandgate Road"/>
    <tag k="addr:state" v="VT"/>
    <tag k="ref:vcgi:esiteid" v="217252"/>
  </node>
  <node id="-399" visible="true" lat="43.16379721" lon="-73.17995699">
    <tag k="addr:city" v="Sandgate"/>
    <tag k="addr:housenumber" v="276"/>
    <tag k="addr:street" v="Wilcox Hollow Road"/>
    <tag k="addr:state" v="VT"/>
    <tag k="ref:vcgi:esiteid" v="217254"/>
  </node>
  <node id="-400" visible="true" lat="43.17658813" lon="-73.16485994">
    <tag k="addr:city" v="Sandgate"/>
    <tag k="addr:housenumber" v="5969"/>
    <tag k="addr:street" v="Sandgate Road"/>
    <tag k="addr:state" v="VT"/>
    <tag k="ref:vcgi:esiteid" v="217255"/>
  </node>
  <node id="-404" visible="true" lat="43.12594126" lon="-73.25493166">
    <tag k="addr:city" v="Sandgate"/>
    <tag k="addr:housenumber" v="1356"/>
    <tag k="addr:street" v="Chunks Brook Road"/>
    <tag k="addr:state" v="VT"/>
    <tag k="ref:vcgi:esiteid" v="311350"/>
  </node>
  <node id="-406" visible="true" lat="43.15507987" lon="-73.19315726">
    <tag k="addr:city" v="Sandgate"/>
    <tag k="addr:housenumber" v="3701"/>
    <tag k="addr:street" v="Sandgate Road"/>
    <tag k="addr:state" v="VT"/>
    <tag k="ref:vcgi:esiteid" v="311352"/>
  </node>
  <node id="-407" visible="true" lat="43.17423997" lon="-73.22399817">
    <tag k="addr:city" v="Sandgate"/>
    <tag k="addr:housenumber" v="874"/>
    <tag k="addr:street" v="West Road"/>
    <tag k="addr:state" v="VT"/>
    <tag k="ref:vcgi:esiteid" v="331688"/>
  </node>
  <node id="-415" visible="true" lat="43.16215131" lon="-73.18102536">
    <tag k="addr:city" v="Sandgate"/>
    <tag k="addr:housenumber" v="168"/>
    <tag k="addr:street" v="Stannards Road"/>
    <tag k="addr:state" v="VT"/>
    <tag k="ref:vcgi:esiteid" v="337054"/>
  </node>
  <node id="-417" visible="true" lat="43.13948941" lon="-73.20525223">
    <tag k="addr:city" v="Sandgate"/>
    <tag k="addr:housenumber" v="82"/>
    <tag k="addr:street" v="Tudor Road"/>
    <tag k="addr:state" v="VT"/>
    <tag k="ref:vcgi:esiteid" v="340847"/>
  </node>
  <node id="-420" visible="true" lat="43.1292089" lon="-73.25470417">
    <tag k="addr:city" v="Sandgate"/>
    <tag k="addr:housenumber" v="23"/>
    <tag k="addr:street" v="Pantaleon Road"/>
    <tag k="addr:state" v="VT"/>
    <tag k="ref:vcgi:esiteid" v="343682"/>
  </node>
  <node id="-421" visible="true" lat="43.18853777" lon="-73.13354809">
    <tag k="addr:city" v="Sandgate"/>
    <tag k="addr:housenumber" v="7860"/>
    <tag k="addr:street" v="Sandgate Road"/>
    <tag k="addr:state" v="VT"/>
    <tag k="ref:vcgi:esiteid" v="343686"/>
  </node>
  <node id="-422" visible="true" lat="43.14763593" lon="-73.199018">
    <tag k="addr:city" v="Sandgate"/>
    <tag k="addr:housenumber" v="1431"/>
    <tag k="addr:street" v="Woodcock Road"/>
    <tag k="addr:state" v="VT"/>
    <tag k="ref:vcgi:esiteid" v="345938"/>
  </node>
  <node id="-430" visible="true" lat="43.18989971" lon="-73.13210641">
    <tag k="addr:city" v="Sandgate"/>
    <tag k="addr:housenumber" v="90"/>
    <tag k="addr:street" v="Woodsgift Lane"/>
    <tag k="addr:state" v="VT"/>
    <tag k="ref:vcgi:esiteid" v="450202"/>
  </node>
  <node id="-433" visible="true" lat="43.18162991" lon="-73.15039643">
    <tag k="addr:city" v="Sandgate"/>
    <tag k="addr:housenumber" v="6839"/>
    <tag k="addr:street" v="Sandgate Road"/>
    <tag k="addr:state" v="VT"/>
    <tag k="ref:vcgi:esiteid" v="610453"/>
  </node>
  <node id="-461" visible="true" lat="43.15549948" lon="-73.25830892">
    <tag k="addr:city" v="Sandgate"/>
    <tag k="addr:housenumber" v="3769"/>
    <tag k="addr:street" v="West Sandgate Road"/>
    <tag k="addr:state" v="VT"/>
    <tag k="ref:vcgi:esiteid" v="1050305"/>
  </node>
</osm>
