<?xml version="1.0" encoding="UTF-8"?>
<osm version="0.6" generator="JOSM">
  <node id="-100" visible="true" lat="43.21598443" lon="-73.24581235">
    <tag k="addr:city" v="Sandgate"/>
    <tag k="addr:housenumber" v="900"/>
    <tag k="addr:street" v="Chambers Road"/>
    <tag k="addr:state" v="VT"/>
    <tag k="ref:vcgi:esiteid" v="216944"/>
  </node>
  <node id="-101" visible="true" lat="43.21662973" lon="-73.24809973">
    <tag k="addr:city" v="Sandgate"/>
    <tag k="addr:housenumber" v="875"/>
    <tag k="addr:street" v="Chambers Road"/>
    <tag k="addr:state" v="VT"/>
    <tag k="ref:vcgi:esiteid" v="216945"/>
  </node>
  <node id="-102" visible="true" lat="43.21312208" lon="-73.20620378">
    <tag k="addr:city" v="Sandgate"/>
    <tag k="addr:housenumber" v="4548"/>
    <tag k="addr:street" v="Rupert Road"/>
    <tag k="addr:state" v="VT"/>
    <tag k="ref:vcgi:esiteid" v="216946"/>
  </node>
  <node id="-103" visible="true" lat="43.21239873" lon="-73.20577621">
    <tag k="addr:city" v="Sandgate"/>
    <tag k="addr:housenumber" v="4498"/>
    <tag k="addr:street" v="Rupert Road"/>
    <tag k="addr:state" v="VT"/>
    <tag k="ref:vcgi:esiteid" v="216947"/>
  </node>
  <node id="-104" visible="true" lat="43.21049499" lon="-73.20315551">
    <tag k="addr:city" v="Sandgate"/>
    <tag k="addr:housenumber" v="4304"/>
    <tag k="addr:street" v="Rupert Road"/>
    <tag k="addr:state" v="VT"/>
    <tag k="ref:vcgi:esiteid" v="216948"/>
  </node>
  <node id="-106" visible="true" lat="43.20981606" lon="-73.2023277">
    <tag k="addr:city" v="Sandgate"/>
    <tag k="addr:housenumber" v="4244"/>
    <tag k="addr:street" v="Rupert Road"/>
    <tag k="addr:state" v="VT"/>
    <tag k="ref:vcgi:esiteid" v="216950"/>
  </node>
  <node id="-107" visible="true" lat="43.20892905" lon="-73.25729069">
    <tag k="addr:city" v="Sandgate"/>
    <tag k="addr:housenumber" v="525"/>
    <tag k="addr:street" v="Chambers Road"/>
    <tag k="addr:state" v="VT"/>
    <tag k="ref:vcgi:esiteid" v="216951"/>
  </node>
  <node id="-113" visible="true" lat="43.20138919" lon="-73.19533141">
    <tag k="addr:city" v="Sandgate"/>
    <tag k="addr:housenumber" v="3507"/>
    <tag k="addr:street" v="Rupert Road"/>
    <tag k="addr:state" v="VT"/>
    <tag k="ref:vcgi:esiteid" v="216958"/>
  </node>
  <node id="-131" visible="true" lat="43.18803699" lon="-73.13711226">
    <tag k="addr:city" v="Sandgate"/>
    <tag k="addr:housenumber" v="7667"/>
    <tag k="addr:street" v="Sandgate Road"/>
    <tag k="addr:state" v="VT"/>
    <tag k="ref:vcgi:esiteid" v="216976"/>
  </node>
  <node id="-135" visible="true" lat="43.18731159" lon="-73.13733162">
    <tag k="addr:city" v="Sandgate"/>
    <tag k="addr:housenumber" v="7650"/>
    <tag k="addr:street" v="Sandgate Road"/>
    <tag k="addr:state" v="VT"/>
    <tag k="ref:vcgi:esiteid" v="216980"/>
  </node>
  <node id="-138" visible="true" lat="43.18467361" lon="-73.14031103">
    <tag k="addr:city" v="Sandgate"/>
    <tag k="addr:housenumber" v="7448"/>
    <tag k="addr:street" v="Sandgate Road"/>
    <tag k="addr:state" v="VT"/>
    <tag k="ref:vcgi:esiteid" v="216983"/>
  </node>
  <node id="-142" visible="true" lat="43.17941882" lon="-73.18016541">
    <tag k="addr:city" v="Sandgate"/>
    <tag k="addr:housenumber" v="902"/>
    <tag k="addr:street" v="Wuerslin Road"/>
    <tag k="addr:state" v="VT"/>
    <tag k="ref:vcgi:esiteid" v="216987"/>
  </node>
  <node id="-143" visible="true" lat="43.17928834" lon="-73.18052306">
    <tag k="addr:city" v="Sandgate"/>
    <tag k="addr:housenumber" v="903"/>
    <tag k="addr:street" v="Wuerslin Road"/>
    <tag k="addr:state" v="VT"/>
    <tag k="ref:vcgi:esiteid" v="216988"/>
  </node>
  <node id="-145" visible="true" lat="43.17710073" lon="-73.21411173">
    <tag k="addr:city" v="Sandgate"/>
    <tag k="addr:housenumber" v="1615"/>
    <tag k="addr:street" v="Rupert Road"/>
    <tag k="addr:state" v="VT"/>
    <tag k="ref:vcgi:esiteid" v="216990"/>
  </node>
  <node id="-147" visible="true" lat="43.1786769" lon="-73.17988982">
    <tag k="addr:city" v="Sandgate"/>
    <tag k="addr:housenumber" v="835"/>
    <tag k="addr:street" v="Wuerslin Road"/>
    <tag k="addr:state" v="VT"/>
    <tag k="ref:vcgi:esiteid" v="216992"/>
  </node>
  <node id="-153" visible="true" lat="43.1754004" lon="-73.22430733">
    <tag k="addr:city" v="Sandgate"/>
    <tag k="addr:housenumber" v="996"/>
    <tag k="addr:street" v="West Road"/>
    <tag k="addr:state" v="VT"/>
    <tag k="ref:vcgi:esiteid" v="216999"/>
  </node>
  <node id="-155" visible="true" lat="43.17459763" lon="-73.2397266">
    <tag k="addr:city" v="Sandgate"/>
    <tag k="addr:housenumber" v="626"/>
    <tag k="addr:street" v="Lincoln Lane"/>
    <tag k="addr:state" v="VT"/>
    <tag k="ref:vcgi:esiteid" v="217001"/>
  </node>
  <node id="-158" visible="true" lat="43.17239236" lon="-73.22727325">
    <tag k="addr:city" v="Sandgate"/>
    <tag k="addr:housenumber" v="711"/>
    <tag k="addr:street" v="West Road"/>
    <tag k="addr:state" v="VT"/>
    <tag k="ref:vcgi:esiteid" v="217004"/>
  </node>
  <node id="-160" visible="true" lat="43.175502" lon="-73.24179459">
    <tag k="addr:city" v="Sandgate"/>
    <tag k="addr:housenumber" v="636"/>
    <tag k="addr:street" v="Lincoln Lane"/>
    <tag k="addr:state" v="VT"/>
    <tag k="ref:vcgi:esiteid" v="217007"/>
  </node>
  <node id="-161" visible="true" lat="43.17180736" lon="-73.244697">
    <tag k="addr:city" v="Sandgate"/>
    <tag k="addr:housenumber" v="679"/>
    <tag k="addr:street" v="Lincoln Lane"/>
    <tag k="addr:state" v="VT"/>
    <tag k="ref:vcgi:esiteid" v="217008"/>
  </node>
  <node id="-164" visible="true" lat="43.17169127" lon="-73.21274087">
    <tag k="addr:city" v="Sandgate"/>
    <tag k="addr:housenumber" v="1064"/>
    <tag k="addr:street" v="Rupert Road"/>
    <tag k="addr:state" v="VT"/>
    <tag k="ref:vcgi:esiteid" v="217011"/>
  </node>
  <node id="-166" visible="true" lat="43.17089173" lon="-73.21635886">
    <tag k="addr:city" v="Sandgate"/>
    <tag k="addr:housenumber" v="1020"/>
    <tag k="addr:street" v="Rupert Road"/>
    <tag k="addr:state" v="VT"/>
    <tag k="ref:vcgi:esiteid" v="217013"/>
  </node>
  <node id="-170" visible="true" lat="43.16743496" lon="-73.21413543">
    <tag k="addr:city" v="Sandgate"/>
    <tag k="addr:housenumber" v="950"/>
    <tag k="addr:street" v="Rupert Road"/>
    <tag k="addr:state" v="VT"/>
    <tag k="ref:vcgi:esiteid" v="217017"/>
  </node>
  <node id="-173" visible="true" lat="43.16970266" lon="-73.22979447">
    <tag k="addr:city" v="Sandgate"/>
    <tag k="addr:housenumber" v="493"/>
    <tag k="addr:street" v="West Road"/>
    <tag k="addr:state" v="VT"/>
    <tag k="ref:vcgi:esiteid" v="217020"/>
  </node>
  <node id="-174" visible="true" lat="43.16900419" lon="-73.1896876">
    <tag k="addr:city" v="Sandgate"/>
    <tag k="addr:housenumber" v="635"/>
    <tag k="addr:street" v="Wilcox Hollow Road"/>
    <tag k="addr:state" v="VT"/>
    <tag k="ref:vcgi:esiteid" v="217021"/>
  </node>
  <node id="-177" visible="true" lat="43.16793683" lon="-73.25727901">
    <tag k="addr:city" v="Sandgate"/>
    <tag k="addr:housenumber" v="613"/>
    <tag k="addr:street" v="Campbell Road"/>
    <tag k="addr:state" v="VT"/>
    <tag k="ref:vcgi:esiteid" v="217024"/>
  </node>
  <node id="-178" visible="true" lat="43.16756371" lon="-73.18256246">
    <tag k="addr:city" v="Sandgate"/>
    <tag k="addr:housenumber" v="546"/>
    <tag k="addr:street" v="Wilcox Hollow Road"/>
    <tag k="addr:state" v="VT"/>
    <tag k="ref:vcgi:esiteid" v="217025"/>
  </node>
  <node id="-179" visible="true" lat="43.16698559" lon="-73.25781836">
    <tag k="addr:city" v="Sandgate"/>
    <tag k="addr:housenumber" v="615"/>
    <tag k="addr:street" v="Campbell Road"/>
    <tag k="addr:state" v="VT"/>
    <tag k="ref:vcgi:esiteid" v="217026"/>
  </node>
  <node id="-180" visible="true" lat="43.16680597" lon="-73.24518979">
    <tag k="addr:city" v="Sandgate"/>
    <tag k="addr:housenumber" v="289"/>
    <tag k="addr:street" v="Lincoln Lane"/>
    <tag k="addr:state" v="VT"/>
    <tag k="ref:vcgi:esiteid" v="217027"/>
  </node>
  <node id="-182" visible="true" lat="43.16551893" lon="-73.259212">
    <tag k="addr:city" v="Sandgate"/>
    <tag k="addr:housenumber" v="307"/>
    <tag k="addr:street" v="Gilberts Road"/>
    <tag k="addr:state" v="VT"/>
    <tag k="ref:vcgi:esiteid" v="217029"/>
  </node>
  <node id="-184" visible="true" lat="43.16559805" lon="-73.22594966">
    <tag k="addr:city" v="Sandgate"/>
    <tag k="addr:housenumber" v="300"/>
    <tag k="addr:street" v="Sophies Way"/>
    <tag k="addr:state" v="VT"/>
    <tag k="ref:vcgi:esiteid" v="217031"/>
  </node>
  <node id="-186" visible="true" lat="43.16491118" lon="-73.22657841">
    <tag k="addr:city" v="Sandgate"/>
    <tag k="addr:housenumber" v="238"/>
    <tag k="addr:street" v="Sophies Way"/>
    <tag k="addr:state" v="VT"/>
    <tag k="ref:vcgi:esiteid" v="217033"/>
  </node>
  <node id="-187" visible="true" lat="43.16529636" lon="-73.24927115">
    <tag k="addr:city" v="Sandgate"/>
    <tag k="addr:housenumber" v="250"/>
    <tag k="addr:street" v="Erthein Drive"/>
    <tag k="addr:state" v="VT"/>
    <tag k="ref:vcgi:esiteid" v="217034"/>
  </node>
  <node id="-189" visible="true" lat="43.16419436" lon="-73.25783164">
    <tag k="addr:city" v="Sandgate"/>
    <tag k="addr:housenumber" v="26"/>
    <tag k="addr:street" v="Gilberts Road"/>
    <tag k="addr:state" v="VT"/>
    <tag k="ref:vcgi:esiteid" v="217036"/>
  </node>
  <node id="-191" visible="true" lat="43.16439056" lon="-73.22844696">
    <tag k="addr:city" v="Sandgate"/>
    <tag k="addr:housenumber" v="150"/>
    <tag k="addr:street" v="Sophies Way"/>
    <tag k="addr:state" v="VT"/>
    <tag k="ref:vcgi:esiteid" v="217038"/>
  </node>
  <node id="-193" visible="true" lat="43.16412847" lon="-73.25358274">
    <tag k="addr:city" v="Sandgate"/>
    <tag k="addr:housenumber" v="283"/>
    <tag k="addr:street" v="Erthein Drive"/>
    <tag k="addr:state" v="VT"/>
    <tag k="ref:vcgi:esiteid" v="217040"/>
  </node>
  <node id="-196" visible="true" lat="43.16394244" lon="-73.25946654">
    <tag k="addr:city" v="Sandgate"/>
    <tag k="addr:housenumber" v="189"/>
    <tag k="addr:street" v="Gilberts Road"/>
    <tag k="addr:state" v="VT"/>
    <tag k="ref:vcgi:esiteid" v="217043"/>
  </node>
  <node id="-200" visible="true" lat="43.16366195" lon="-73.25962829">
    <tag k="addr:city" v="Sandgate"/>
    <tag k="addr:housenumber" v="191"/>
    <tag k="addr:street" v="Gilberts Road"/>
    <tag k="addr:state" v="VT"/>
    <tag k="ref:vcgi:esiteid" v="217047"/>
  </node>
  <node id="-202" visible="true" lat="43.1635345" lon="-73.25731728">
    <tag k="addr:city" v="Sandgate"/>
    <tag k="addr:housenumber" v="299"/>
    <tag k="addr:street" v="Campbell Road"/>
    <tag k="addr:state" v="VT"/>
    <tag k="ref:vcgi:esiteid" v="217049"/>
  </node>
  <node id="-213" visible="true" lat="43.16247558" lon="-73.24573516">
    <tag k="addr:city" v="Sandgate"/>
    <tag k="addr:housenumber" v="2857"/>
    <tag k="addr:street" v="West Sandgate Road"/>
    <tag k="addr:state" v="VT"/>
    <tag k="ref:vcgi:esiteid" v="217060"/>
  </node>
  <node id="-217" visible="true" lat="43.1608544" lon="-73.25038201">
    <tag k="addr:city" v="Sandgate"/>
    <tag k="addr:housenumber" v="3107"/>
    <tag k="addr:street" v="West Sandgate Road"/>
    <tag k="addr:state" v="VT"/>
    <tag k="ref:vcgi:esiteid" v="217064"/>
  </node>
  <node id="-219" visible="true" lat="43.1620872" lon="-73.17663669">
    <tag k="addr:city" v="Sandgate"/>
    <tag k="addr:housenumber" v="4756"/>
    <tag k="addr:street" v="Sandgate Road"/>
    <tag k="addr:state" v="VT"/>
    <tag k="ref:vcgi:esiteid" v="217066"/>
  </node>
  <node id="-221" visible="true" lat="43.16157934" lon="-73.23101916">
    <tag k="addr:city" v="Sandgate"/>
    <tag k="addr:housenumber" v="2065"/>
    <tag k="addr:street" v="West Sandgate Road"/>
    <tag k="addr:state" v="VT"/>
    <tag k="ref:vcgi:esiteid" v="217068"/>
  </node>
  <node id="-222" visible="true" lat="43.16127229" lon="-73.23003725">
    <tag k="addr:city" v="Sandgate"/>
    <tag k="addr:housenumber" v="2009"/>
    <tag k="addr:street" v="West Sandgate Road"/>
    <tag k="addr:state" v="VT"/>
    <tag k="ref:vcgi:esiteid" v="217069"/>
  </node>
  <node id="-227" visible="true" lat="43.16062979" lon="-73.22865301">
    <tag k="addr:city" v="Sandgate"/>
    <tag k="addr:housenumber" v="1917"/>
    <tag k="addr:street" v="West Sandgate Road"/>
    <tag k="addr:state" v="VT"/>
    <tag k="ref:vcgi:esiteid" v="217074"/>
  </node>
  <node id="-230" visible="true" lat="43.16022016" lon="-73.22815233">
    <tag k="addr:city" v="Sandgate"/>
    <tag k="addr:housenumber" v="1851"/>
    <tag k="addr:street" v="West Sandgate Road"/>
    <tag k="addr:state" v="VT"/>
    <tag k="ref:vcgi:esiteid" v="217077"/>
  </node>
  <node id="-231" visible="true" lat="43.16008522" lon="-73.2407057">
    <tag k="addr:city" v="Sandgate"/>
    <tag k="addr:housenumber" v="2589"/>
    <tag k="addr:street" v="West Sandgate Road"/>
    <tag k="addr:state" v="VT"/>
    <tag k="ref:vcgi:esiteid" v="217078"/>
  </node>
  <node id="-235" visible="true" lat="43.15981342" lon="-73.22550641">
    <tag k="addr:city" v="Sandgate"/>
    <tag k="addr:housenumber" v="1738"/>
    <tag k="addr:street" v="West Sandgate Road"/>
    <tag k="addr:state" v="VT"/>
    <tag k="ref:vcgi:esiteid" v="217082"/>
  </node>
  <node id="-236" visible="true" lat="43.15936992" lon="-73.22658544">
    <tag k="addr:city" v="Sandgate"/>
    <tag k="addr:housenumber" v="1793"/>
    <tag k="addr:street" v="West Sandgate Road"/>
    <tag k="addr:state" v="VT"/>
    <tag k="ref:vcgi:esiteid" v="217083"/>
  </node>
  <node id="-237" visible="true" lat="43.15900421" lon="-73.25718689">
    <tag k="addr:city" v="Sandgate"/>
    <tag k="addr:housenumber" v="3533"/>
    <tag k="addr:street" v="West Sandgate Road"/>
    <tag k="addr:state" v="VT"/>
    <tag k="ref:vcgi:esiteid" v="217085"/>
  </node>
  <node id="-239" visible="true" lat="43.15885446" lon="-73.22378512">
    <tag k="addr:city" v="Sandgate"/>
    <tag k="addr:housenumber" v="1618"/>
    <tag k="addr:street" v="West Sandgate Road"/>
    <tag k="addr:state" v="VT"/>
    <tag k="ref:vcgi:esiteid" v="217088"/>
  </node>
  <node id="-243" visible="true" lat="43.15768078" lon="-73.22140392">
    <tag k="addr:city" v="Sandgate"/>
    <tag k="addr:housenumber" v="1458"/>
    <tag k="addr:street" v="West Sandgate Road"/>
    <tag k="addr:state" v="VT"/>
    <tag k="ref:vcgi:esiteid" v="217092"/>
  </node>
  <node id="-244" visible="true" lat="43.15711721" lon="-73.18297417">
    <tag k="addr:city" v="Sandgate"/>
    <tag k="addr:housenumber" v="4355"/>
    <tag k="addr:street" v="Sandgate Road"/>
    <tag k="addr:state" v="VT"/>
    <tag k="ref:vcgi:esiteid" v="217093"/>
  </node>
  <node id="-246" visible="true" lat="43.1570838" lon="-73.21729634">
    <tag k="addr:city" v="Sandgate"/>
    <tag k="addr:housenumber" v="1108"/>
    <tag k="addr:street" v="West Sandgate Road"/>
    <tag k="addr:state" v="VT"/>
    <tag k="ref:vcgi:esiteid" v="217095"/>
  </node>
  <node id="-247" visible="true" lat="43.1563034" lon="-73.21625518">
    <tag k="addr:city" v="Sandgate"/>
    <tag k="addr:housenumber" v="1098"/>
    <tag k="addr:street" v="West Sandgate Road"/>
    <tag k="addr:state" v="VT"/>
    <tag k="ref:vcgi:esiteid" v="217096"/>
  </node>
  <node id="-248" visible="true" lat="43.15609597" lon="-73.22446462">
    <tag k="addr:city" v="Sandgate"/>
    <tag k="addr:housenumber" v="104"/>
    <tag k="addr:street" v="Tate Hill Road"/>
    <tag k="addr:state" v="VT"/>
    <tag k="ref:vcgi:esiteid" v="217097"/>
  </node>
  <node id="-249" visible="true" lat="43.15602111" lon="-73.21796417">
    <tag k="addr:city" v="Sandgate"/>
    <tag k="addr:housenumber" v="1140"/>
    <tag k="addr:street" v="West Sandgate Road"/>
    <tag k="addr:state" v="VT"/>
    <tag k="ref:vcgi:esiteid" v="217098"/>
  </node>
  <node id="-261" visible="true" lat="43.15212301" lon="-73.20917817">
    <tag k="addr:city" v="Sandgate"/>
    <tag k="addr:housenumber" v="511"/>
    <tag k="addr:street" v="West Sandgate Road"/>
    <tag k="addr:state" v="VT"/>
    <tag k="ref:vcgi:esiteid" v="217110"/>
  </node>
  <node id="-266" visible="true" lat="43.15041874" lon="-73.17950572">
    <tag k="addr:city" v="Sandgate"/>
    <tag k="addr:housenumber" v="509"/>
    <tag k="addr:street" v="Hamilton Hollow Road"/>
    <tag k="addr:state" v="VT"/>
    <tag k="ref:vcgi:esiteid" v="217115"/>
  </node>
  <node id="-267" visible="true" lat="43.15000582" lon="-73.17769281">
    <tag k="addr:city" v="Sandgate"/>
    <tag k="addr:housenumber" v="565"/>
    <tag k="addr:street" v="Hamilton Hollow Road"/>
    <tag k="addr:state" v="VT"/>
    <tag k="ref:vcgi:esiteid" v="217116"/>
  </node>
  <node id="-268" visible="true" lat="43.15011935" lon="-73.17857275">
    <tag k="addr:city" v="Sandgate"/>
    <tag k="addr:housenumber" v="531"/>
    <tag k="addr:street" v="Hamilton Hollow Road"/>
    <tag k="addr:state" v="VT"/>
    <tag k="ref:vcgi:esiteid" v="217117"/>
  </node>
  <node id="-271" visible="true" lat="43.14982555" lon="-73.17722005">
    <tag k="addr:city" v="Sandgate"/>
    <tag k="addr:housenumber" v="567"/>
    <tag k="addr:street" v="Hamilton Hollow Road"/>
    <tag k="addr:state" v="VT"/>
    <tag k="ref:vcgi:esiteid" v="217120"/>
  </node>
  <node id="-273" visible="true" lat="43.14895764" lon="-73.17825953">
    <tag k="addr:city" v="Sandgate"/>
    <tag k="addr:housenumber" v="640"/>
    <tag k="addr:street" v="Hamilton Hollow Road"/>
    <tag k="addr:state" v="VT"/>
    <tag k="ref:vcgi:esiteid" v="217122"/>
  </node>
  <node id="-274" visible="true" lat="43.14808416" lon="-73.26108126">
    <tag k="addr:city" v="Sandgate"/>
    <tag k="addr:housenumber" v="524"/>
    <tag k="addr:street" v="Weldon Drive"/>
    <tag k="addr:state" v="VT"/>
    <tag k="ref:vcgi:esiteid" v="217124"/>
  </node>
  <node id="-277" visible="true" lat="43.14736202" lon="-73.22802461">
    <tag k="addr:city" v="Sandgate"/>
    <tag k="addr:housenumber" v="803"/>
    <tag k="addr:street" v="Tate Hill Road"/>
    <tag k="addr:state" v="VT"/>
    <tag k="ref:vcgi:esiteid" v="217128"/>
  </node>
  <node id="-278" visible="true" lat="43.14709172" lon="-73.20497461">
    <tag k="addr:city" v="Sandgate"/>
    <tag k="addr:housenumber" v="271"/>
    <tag k="addr:street" v="West Sandgate Road"/>
    <tag k="addr:state" v="VT"/>
    <tag k="ref:vcgi:esiteid" v="217129"/>
  </node>
  <node id="-283" visible="true" lat="43.1454419" lon="-73.17437914">
    <tag k="addr:city" v="Sandgate"/>
    <tag k="addr:housenumber" v="954"/>
    <tag k="addr:street" v="Hamilton Hollow Road"/>
    <tag k="addr:state" v="VT"/>
    <tag k="ref:vcgi:esiteid" v="217134"/>
  </node>
  <node id="-284" visible="true" lat="43.14551656" lon="-73.21805539">
    <tag k="addr:city" v="Sandgate"/>
    <tag k="addr:housenumber" v="256"/>
    <tag k="addr:street" v="Swearing Hill Road"/>
    <tag k="addr:state" v="VT"/>
    <tag k="ref:vcgi:esiteid" v="217135"/>
  </node>
  <node id="-285" visible="true" lat="43.14524459" lon="-73.13500213">
    <tag k="addr:city" v="Sandgate"/>
    <tag k="addr:housenumber" v="3225"/>
    <tag k="addr:street" v="Skyline Drive"/>
    <tag k="addr:state" v="VT"/>
    <tag k="ref:vcgi:esiteid" v="217136"/>
  </node>
  <node id="-288" visible="true" lat="43.14479803" lon="-73.21652396">
    <tag k="addr:city" v="Sandgate"/>
    <tag k="addr:housenumber" v="258"/>
    <tag k="addr:street" v="Swearing Hill Road"/>
    <tag k="addr:state" v="VT"/>
    <tag k="ref:vcgi:esiteid" v="217139"/>
  </node>
  <node id="-289" visible="true" lat="43.14466941" lon="-73.21648772">
    <tag k="addr:city" v="Sandgate"/>
    <tag k="addr:housenumber" v="260"/>
    <tag k="addr:street" v="Swearing Hill Road"/>
    <tag k="addr:state" v="VT"/>
    <tag k="ref:vcgi:esiteid" v="217140"/>
  </node>
  <node id="-290" visible="true" lat="43.14450507" lon="-73.17223845">
    <tag k="addr:city" v="Sandgate"/>
    <tag k="addr:housenumber" v="1105"/>
    <tag k="addr:street" v="Hamilton Hollow Road"/>
    <tag k="addr:state" v="VT"/>
    <tag k="ref:vcgi:esiteid" v="217141"/>
  </node>
  <node id="-292" visible="true" lat="43.14296121" lon="-73.21415943">
    <tag k="addr:city" v="Sandgate"/>
    <tag k="addr:housenumber" v="793"/>
    <tag k="addr:street" v="Tudor Road"/>
    <tag k="addr:state" v="VT"/>
    <tag k="ref:vcgi:esiteid" v="217143"/>
  </node>
  <node id="-295" visible="true" lat="43.14209575" lon="-73.21091482">
    <tag k="addr:city" v="Sandgate"/>
    <tag k="addr:housenumber" v="569"/>
    <tag k="addr:street" v="Tudor Road"/>
    <tag k="addr:state" v="VT"/>
    <tag k="ref:vcgi:esiteid" v="217146"/>
  </node>
  <node id="-296" visible="true" lat="43.14195814" lon="-73.20901587">
    <tag k="addr:city" v="Sandgate"/>
    <tag k="addr:housenumber" v="410"/>
    <tag k="addr:street" v="Tudor Road"/>
    <tag k="addr:state" v="VT"/>
    <tag k="ref:vcgi:esiteid" v="217147"/>
  </node>
  <node id="-298" visible="true" lat="43.14149141" lon="-73.20751003">
    <tag k="addr:city" v="Sandgate"/>
    <tag k="addr:housenumber" v="310"/>
    <tag k="addr:street" v="Tudor Road"/>
    <tag k="addr:state" v="VT"/>
    <tag k="ref:vcgi:esiteid" v="217149"/>
  </node>
  <node id="-299" visible="true" lat="43.14065739" lon="-73.20984191">
    <tag k="addr:city" v="Sandgate"/>
    <tag k="addr:housenumber" v="419"/>
    <tag k="addr:street" v="Tudor Road"/>
    <tag k="addr:state" v="VT"/>
    <tag k="ref:vcgi:esiteid" v="217150"/>
  </node>
  <node id="-300" visible="true" lat="43.14033643" lon="-73.20742235">
    <tag k="addr:city" v="Sandgate"/>
    <tag k="addr:housenumber" v="16"/>
    <tag k="addr:street" v="Mountainview Road"/>
    <tag k="addr:state" v="VT"/>
    <tag k="ref:vcgi:esiteid" v="217151"/>
  </node>
  <node id="-302" visible="true" lat="43.13991559" lon="-73.20884603">
    <tag k="addr:city" v="Sandgate"/>
    <tag k="addr:housenumber" v="64"/>
    <tag k="addr:street" v="Walsh Road"/>
    <tag k="addr:state" v="VT"/>
    <tag k="ref:vcgi:esiteid" v="217153"/>
  </node>
  <node id="-303" visible="true" lat="43.13864342" lon="-73.19823856">
    <tag k="addr:city" v="Sandgate"/>
    <tag k="addr:housenumber" v="798"/>
    <tag k="addr:street" v="Woodcock Road"/>
    <tag k="addr:state" v="VT"/>
    <tag k="ref:vcgi:esiteid" v="217154"/>
  </node>
  <node id="-305" visible="true" lat="43.13974899" lon="-73.20760221">
    <tag k="addr:city" v="Sandgate"/>
    <tag k="addr:housenumber" v="151"/>
    <tag k="addr:street" v="Mountainview Road"/>
    <tag k="addr:state" v="VT"/>
    <tag k="ref:vcgi:esiteid" v="217156"/>
  </node>
  <node id="-306" visible="true" lat="43.1398081" lon="-73.20403774">
    <tag k="addr:city" v="Sandgate"/>
    <tag k="addr:housenumber" v="2581"/>
    <tag k="addr:street" v="Sandgate Road"/>
    <tag k="addr:state" v="VT"/>
    <tag k="ref:vcgi:esiteid" v="217157"/>
  </node>
  <node id="-308" visible="true" lat="43.13942553" lon="-73.20902545">
    <tag k="addr:city" v="Sandgate"/>
    <tag k="addr:housenumber" v="100"/>
    <tag k="addr:street" v="Walsh Road"/>
    <tag k="addr:state" v="VT"/>
    <tag k="ref:vcgi:esiteid" v="217159"/>
  </node>
  <node id="-309" visible="true" lat="43.13915497" lon="-73.20851845">
    <tag k="addr:city" v="Sandgate"/>
    <tag k="addr:housenumber" v="125"/>
    <tag k="addr:street" v="Walsh Road"/>
    <tag k="addr:state" v="VT"/>
    <tag k="ref:vcgi:esiteid" v="217160"/>
  </node>
  <node id="-310" visible="true" lat="43.1388249" lon="-73.20924014">
    <tag k="addr:city" v="Sandgate"/>
    <tag k="addr:housenumber" v="164"/>
    <tag k="addr:street" v="Walsh Road"/>
    <tag k="addr:state" v="VT"/>
    <tag k="ref:vcgi:esiteid" v="217161"/>
  </node>
  <node id="-315" visible="true" lat="43.13856887" lon="-73.1364746">
    <tag k="addr:city" v="Sandgate"/>
    <tag k="addr:housenumber" v="2602"/>
    <tag k="addr:street" v="Skyline Drive"/>
    <tag k="addr:state" v="VT"/>
    <tag k="ref:vcgi:esiteid" v="217166"/>
  </node>
  <node id="-317" visible="true" lat="43.13836669" lon="-73.14032745">
    <tag k="addr:city" v="Sandgate"/>
    <tag k="addr:housenumber" v="1"/>
    <tag k="addr:street" v="Saint Bruno Drive"/>
    <tag k="addr:state" v="VT"/>
    <tag k="ref:vcgi:esiteid" v="217168"/>
  </node>
  <node id="-319" visible="true" lat="43.13730801" lon="-73.19892056">
    <tag k="addr:city" v="Sandgate"/>
    <tag k="addr:housenumber" v="727"/>
    <tag k="addr:street" v="Woodcock Road"/>
    <tag k="addr:state" v="VT"/>
    <tag k="ref:vcgi:esiteid" v="217170"/>
  </node>
  <node id="-321" visible="true" lat="43.13487219" lon="-73.19851768">
    <tag k="addr:city" v="Sandgate"/>
    <tag k="addr:housenumber" v="527"/>
    <tag k="addr:street" v="Woodcock Road"/>
    <tag k="addr:state" v="VT"/>
    <tag k="ref:vcgi:esiteid" v="217172"/>
  </node>
  <node id="-322" visible="true" lat="43.13391056" lon="-73.19786767">
    <tag k="addr:city" v="Sandgate"/>
    <tag k="addr:housenumber" v="490"/>
    <tag k="addr:street" v="Woodcock Road"/>
    <tag k="addr:state" v="VT"/>
    <tag k="ref:vcgi:esiteid" v="217173"/>
  </node>
  <node id="-323" visible="true" lat="43.13367897" lon="-73.23889595">
    <tag k="addr:city" v="Sandgate"/>
    <tag k="addr:housenumber" v="2363"/>
    <tag k="addr:street" v="Tate Hill Road"/>
    <tag k="addr:state" v="VT"/>
    <tag k="ref:vcgi:esiteid" v="217174"/>
  </node>
  <node id="-325" visible="true" lat="43.1334982" lon="-73.20489503">
    <tag k="addr:city" v="Sandgate"/>
    <tag k="addr:housenumber" v="2137"/>
    <tag k="addr:street" v="Sandgate Road"/>
    <tag k="addr:state" v="VT"/>
    <tag k="ref:vcgi:esiteid" v="217176"/>
  </node>
  <node id="-326" visible="true" lat="43.13290931" lon="-73.19920588">
    <tag k="addr:city" v="Sandgate"/>
    <tag k="addr:housenumber" v="437"/>
    <tag k="addr:street" v="Woodcock Road"/>
    <tag k="addr:state" v="VT"/>
    <tag k="ref:vcgi:esiteid" v="217177"/>
  </node>
  <node id="-327" visible="true" lat="43.13146813" lon="-73.18043413">
    <tag k="addr:city" v="Sandgate"/>
    <tag k="addr:housenumber" v="10"/>
    <tag k="addr:street" v="Sullivan Lane"/>
    <tag k="addr:state" v="VT"/>
    <tag k="ref:vcgi:esiteid" v="217178"/>
  </node>
  <node id="-330" visible="true" lat="43.13414091" lon="-73.20062866">
    <tag k="addr:city" v="Sandgate"/>
    <tag k="addr:housenumber" v="441"/>
    <tag k="addr:street" v="Woodcock Road"/>
    <tag k="addr:state" v="VT"/>
    <tag k="ref:vcgi:esiteid" v="217181"/>
  </node>
  <node id="-331" visible="true" lat="43.1325204" lon="-73.18076913">
    <tag k="addr:city" v="Sandgate"/>
    <tag k="addr:housenumber" v="1381"/>
    <tag k="addr:street" v="Southeast Corners Road"/>
    <tag k="addr:state" v="VT"/>
    <tag k="ref:vcgi:esiteid" v="217182"/>
  </node>
  <node id="-332" visible="true" lat="43.13217777" lon="-73.17882691">
    <tag k="addr:city" v="Sandgate"/>
    <tag k="addr:housenumber" v="33"/>
    <tag k="addr:street" v="Sullivan Lane"/>
    <tag k="addr:state" v="VT"/>
    <tag k="ref:vcgi:esiteid" v="217183"/>
  </node>
  <node id="-334" visible="true" lat="43.13124457" lon="-73.17881195">
    <tag k="addr:city" v="Sandgate"/>
    <tag k="addr:housenumber" v="53"/>
    <tag k="addr:street" v="Sullivan Lane"/>
    <tag k="addr:state" v="VT"/>
    <tag k="ref:vcgi:esiteid" v="217185"/>
  </node>
  <node id="-335" visible="true" lat="43.13114619" lon="-73.18495703">
    <tag k="addr:city" v="Sandgate"/>
    <tag k="addr:housenumber" v="1153"/>
    <tag k="addr:street" v="Southeast Corners Road"/>
    <tag k="addr:state" v="VT"/>
    <tag k="ref:vcgi:esiteid" v="217187"/>
  </node>
  <node id="-336" visible="true" lat="43.13106679" lon="-73.1954883">
    <tag k="addr:city" v="Sandgate"/>
    <tag k="addr:housenumber" v="809"/>
    <tag k="addr:street" v="Southeast Corners Road"/>
    <tag k="addr:state" v="VT"/>
    <tag k="ref:vcgi:esiteid" v="217188"/>
  </node>
  <node id="-337" visible="true" lat="43.13064089" lon="-73.18451259">
    <tag k="addr:city" v="Sandgate"/>
    <tag k="addr:housenumber" v="1130"/>
    <tag k="addr:street" v="Southeast Corners Road"/>
    <tag k="addr:state" v="VT"/>
    <tag k="ref:vcgi:esiteid" v="217189"/>
  </node>
  <node id="-340" visible="true" lat="43.12957382" lon="-73.18721008">
    <tag k="addr:city" v="Sandgate"/>
    <tag k="addr:housenumber" v="982"/>
    <tag k="addr:street" v="Southeast Corners Road"/>
    <tag k="addr:state" v="VT"/>
    <tag k="ref:vcgi:esiteid" v="217192"/>
  </node>
  <node id="-341" visible="true" lat="43.12947574" lon="-73.20204999">
    <tag k="addr:city" v="Sandgate"/>
    <tag k="addr:housenumber" v="114"/>
    <tag k="addr:street" v="Woodcock Road"/>
    <tag k="addr:state" v="VT"/>
    <tag k="ref:vcgi:esiteid" v="217193"/>
  </node>
  <node id="-343" visible="true" lat="43.12918451" lon="-73.19235602">
    <tag k="addr:city" v="Sandgate"/>
    <tag k="addr:housenumber" v="807"/>
    <tag k="addr:street" v="Southeast Corners Road"/>
    <tag k="addr:state" v="VT"/>
    <tag k="ref:vcgi:esiteid" v="217195"/>
  </node>
  <node id="-351" visible="true" lat="43.12807914" lon="-73.193252">
    <tag k="addr:city" v="Sandgate"/>
    <tag k="addr:housenumber" v="703"/>
    <tag k="addr:street" v="Southeast Corners Road"/>
    <tag k="addr:state" v="VT"/>
    <tag k="ref:vcgi:esiteid" v="217203"/>
  </node>
  <node id="-354" visible="true" lat="43.12768936" lon="-73.19258117">
    <tag k="addr:city" v="Sandgate"/>
    <tag k="addr:housenumber" v="680"/>
    <tag k="addr:street" v="Southeast Corners Road"/>
    <tag k="addr:state" v="VT"/>
    <tag k="ref:vcgi:esiteid" v="217206"/>
  </node>
  <node id="-355" visible="true" lat="43.12747047" lon="-73.1935764">
    <tag k="addr:city" v="Sandgate"/>
    <tag k="addr:housenumber" v="620"/>
    <tag k="addr:street" v="Southeast Corners Road"/>
    <tag k="addr:state" v="VT"/>
    <tag k="ref:vcgi:esiteid" v="217207"/>
  </node>
  <node id="-356" visible="true" lat="43.1272454" lon="-73.20389798">
    <tag k="addr:city" v="Sandgate"/>
    <tag k="addr:housenumber" v="84"/>
    <tag k="addr:street" v="Bentley Road"/>
    <tag k="addr:state" v="VT"/>
    <tag k="ref:vcgi:esiteid" v="217208"/>
  </node>
  <node id="-357" visible="true" lat="43.12721633" lon="-73.1925888">
    <tag k="addr:city" v="Sandgate"/>
    <tag k="addr:housenumber" v="113"/>
    <tag k="addr:street" v="Oxlot Road"/>
    <tag k="addr:state" v="VT"/>
    <tag k="ref:vcgi:esiteid" v="217209"/>
  </node>
  <node id="-358" visible="true" lat="43.12679289" lon="-73.19112633">
    <tag k="addr:city" v="Sandgate"/>
    <tag k="addr:housenumber" v="161"/>
    <tag k="addr:street" v="Oxlot Road"/>
    <tag k="addr:state" v="VT"/>
    <tag k="ref:vcgi:esiteid" v="217210"/>
  </node>
  <node id="-360" visible="true" lat="43.12644008" lon="-73.19012041">
    <tag k="addr:city" v="Sandgate"/>
    <tag k="addr:housenumber" v="247"/>
    <tag k="addr:street" v="Oxlot Road"/>
    <tag k="addr:state" v="VT"/>
    <tag k="ref:vcgi:esiteid" v="217212"/>
  </node>
  <node id="-363" visible="true" lat="43.12503309" lon="-73.25859953">
    <tag k="addr:city" v="Sandgate"/>
    <tag k="addr:housenumber" v="123"/>
    <tag k="addr:street" v="Chunks Brook Road"/>
    <tag k="addr:state" v="VT"/>
    <tag k="ref:vcgi:esiteid" v="217215"/>
  </node>
  <node id="-369" visible="true" lat="43.12362322" lon="-73.13551504">
    <tag k="addr:city" v="Sandgate"/>
    <tag k="addr:housenumber" v="1080"/>
    <tag k="addr:street" v="Bentley Hill Road"/>
    <tag k="addr:state" v="VT"/>
    <tag k="ref:vcgi:esiteid" v="217222"/>
  </node>
  <node id="-374" visible="true" lat="43.17705639" lon="-73.24470514">
    <tag k="addr:city" v="Sandgate"/>
    <tag k="addr:housenumber" v="680"/>
    <tag k="addr:street" v="Lincoln Lane"/>
    <tag k="addr:state" v="VT"/>
    <tag k="ref:vcgi:esiteid" v="217227"/>
  </node>
  <node id="-375" visible="true" lat="43.16013651" lon="-73.23804765">
    <tag k="addr:city" v="Sandgate"/>
    <tag k="addr:housenumber" v="2457"/>
    <tag k="addr:street" v="West Sandgate Road"/>
    <tag k="addr:state" v="VT"/>
    <tag k="ref:vcgi:esiteid" v="217228"/>
  </node>
  <node id="-378" visible="true" lat="43.1584602" lon="-73.22361918">
    <tag k="addr:city" v="Sandgate"/>
    <tag k="addr:housenumber" v="1586"/>
    <tag k="addr:street" v="West Sandgate Road"/>
    <tag k="addr:state" v="VT"/>
    <tag k="ref:vcgi:esiteid" v="217231"/>
  </node>
  <node id="-379" visible="true" lat="43.15842358" lon="-73.22282483">
    <tag k="addr:city" v="Sandgate"/>
    <tag k="addr:housenumber" v="1562"/>
    <tag k="addr:street" v="West Sandgate Road"/>
    <tag k="addr:state" v="VT"/>
    <tag k="ref:vcgi:esiteid" v="217232"/>
  </node>
  <node id="-380" visible="true" lat="43.1570964" lon="-73.22072268">
    <tag k="addr:city" v="Sandgate"/>
    <tag k="addr:housenumber" v="1420"/>
    <tag k="addr:street" v="West Sandgate Road"/>
    <tag k="addr:state" v="VT"/>
    <tag k="ref:vcgi:esiteid" v="217233"/>
  </node>
  <node id="-381" visible="true" lat="43.15674213" lon="-73.2205443">
    <tag k="addr:city" v="Sandgate"/>
    <tag k="addr:housenumber" v="1408"/>
    <tag k="addr:street" v="West Sandgate Road"/>
    <tag k="addr:state" v="VT"/>
    <tag k="ref:vcgi:esiteid" v="217234"/>
  </node>
  <node id="-382" visible="true" lat="43.15643725" lon="-73.22044535">
    <tag k="addr:city" v="Sandgate"/>
    <tag k="addr:housenumber" v="1406"/>
    <tag k="addr:street" v="West Sandgate Road"/>
    <tag k="addr:state" v="VT"/>
    <tag k="ref:vcgi:esiteid" v="217235"/>
  </node>
  <node id="-383" visible="true" lat="43.15643693" lon="-73.22149482">
    <tag k="addr:city" v="Sandgate"/>
    <tag k="addr:housenumber" v="1419"/>
    <tag k="addr:street" v="West Sandgate Road"/>
    <tag k="addr:state" v="VT"/>
    <tag k="ref:vcgi:esiteid" v="217236"/>
  </node>
  <node id="-384" visible="true" lat="43.14146489" lon="-73.20509397">
    <tag k="addr:city" v="Sandgate"/>
    <tag k="addr:housenumber" v="2729"/>
    <tag k="addr:street" v="Sandgate Road"/>
    <tag k="addr:state" v="VT"/>
    <tag k="ref:vcgi:esiteid" v="217237"/>
  </node>
  <node id="-385" visible="true" lat="43.19917383" lon="-73.19781177">
    <tag k="addr:city" v="Sandgate"/>
    <tag k="addr:housenumber" v="3293"/>
    <tag k="addr:street" v="Rupert Road"/>
    <tag k="addr:state" v="VT"/>
    <tag k="ref:vcgi:esiteid" v="217238"/>
  </node>
  <node id="-387" visible="true" lat="43.16266195" lon="-73.23065152">
    <tag k="addr:city" v="Sandgate"/>
    <tag k="addr:housenumber" v="2044"/>
    <tag k="addr:street" v="West Sandgate Road"/>
    <tag k="addr:state" v="VT"/>
    <tag k="ref:vcgi:esiteid" v="217240"/>
  </node>
  <node id="-390" visible="true" lat="43.13919074" lon="-73.14659794">
    <tag k="addr:city" v="Sandgate"/>
    <tag k="addr:housenumber" v="335"/>
    <tag k="addr:street" v="Saint Bruno Drive"/>
    <tag k="addr:state" v="VT"/>
    <tag k="ref:vcgi:esiteid" v="217243"/>
  </node>
  <node id="-391" visible="true" lat="43.13686069" lon="-73.15028835">
    <tag k="addr:city" v="Sandgate"/>
    <tag k="addr:housenumber" v="591"/>
    <tag k="addr:street" v="Saint Bruno Drive"/>
    <tag k="addr:state" v="VT"/>
    <tag k="ref:vcgi:esiteid" v="217244"/>
  </node>
  <node id="-392" visible="true" lat="43.15912257" lon="-73.14894932">
    <tag k="addr:city" v="Sandgate"/>
    <tag k="addr:housenumber" v="1800"/>
    <tag k="addr:street" v="Beartown Road"/>
    <tag k="addr:state" v="VT"/>
    <tag k="ref:vcgi:esiteid" v="217245"/>
  </node>
  <node id="-394" visible="true" lat="43.13585038" lon="-73.16960257">
    <tag k="addr:city" v="Sandgate"/>
    <tag k="addr:housenumber" v="2249"/>
    <tag k="addr:street" v="Southeast Corners Road"/>
    <tag k="addr:state" v="VT"/>
    <tag k="ref:vcgi:esiteid" v="217247"/>
  </node>
  <node id="-395" visible="true" lat="43.13607427" lon="-73.16907614">
    <tag k="addr:city" v="Sandgate"/>
    <tag k="addr:housenumber" v="2251"/>
    <tag k="addr:street" v="Southeast Corners Road"/>
    <tag k="addr:state" v="VT"/>
    <tag k="ref:vcgi:esiteid" v="217248"/>
  </node>
  <node id="-400" visible="true" lat="43.16843712" lon="-73.21908945">
    <tag k="addr:city" v="Sandgate"/>
    <tag k="addr:housenumber" v="951"/>
    <tag k="addr:street" v="Rupert Road"/>
    <tag k="addr:state" v="VT"/>
    <tag k="ref:vcgi:esiteid" v="217253"/>
  </node>
  <node id="-403" visible="true" lat="43.13873785" lon="-73.19980463">
    <tag k="addr:city" v="Sandgate"/>
    <tag k="addr:housenumber" v="875"/>
    <tag k="addr:street" v="Woodcock Road"/>
    <tag k="addr:state" v="VT"/>
    <tag k="ref:vcgi:esiteid" v="217256"/>
  </node>
  <node id="-404" visible="true" lat="43.13299654" lon="-73.19779815">
    <tag k="addr:city" v="Sandgate"/>
    <tag k="addr:housenumber" v="420"/>
    <tag k="addr:street" v="Woodcock Road"/>
    <tag k="addr:state" v="VT"/>
    <tag k="ref:vcgi:esiteid" v="217257"/>
  </node>
  <node id="-405" visible="true" lat="43.1341985" lon="-73.18023015">
    <tag k="addr:city" v="Sandgate"/>
    <tag k="addr:housenumber" v="1543"/>
    <tag k="addr:street" v="Southeast Corners Road"/>
    <tag k="addr:state" v="VT"/>
    <tag k="ref:vcgi:esiteid" v="311349"/>
  </node>
  <node id="-407" visible="true" lat="43.16500702" lon="-73.21958756">
    <tag k="addr:city" v="Sandgate"/>
    <tag k="addr:housenumber" v="705"/>
    <tag k="addr:street" v="Rupert Road"/>
    <tag k="addr:state" v="VT"/>
    <tag k="ref:vcgi:esiteid" v="311351"/>
  </node>
  <node id="-410" visible="true" lat="43.14771809" lon="-73.22742233">
    <tag k="addr:city" v="Sandgate"/>
    <tag k="addr:housenumber" v="771"/>
    <tag k="addr:street" v="Tate Hill Road"/>
    <tag k="addr:state" v="VT"/>
    <tag k="ref:vcgi:esiteid" v="331689"/>
  </node>
  <node id="-411" visible="true" lat="43.21199681" lon="-73.22001765">
    <tag k="addr:city" v="Sandgate"/>
    <tag k="addr:housenumber" v="4525"/>
    <tag k="addr:street" v="Rupert Road"/>
    <tag k="addr:state" v="VT"/>
    <tag k="ref:vcgi:esiteid" v="331698"/>
  </node>
  <node id="-414" visible="true" lat="43.14166823" lon="-73.16403636">
    <tag k="addr:city" v="Sandgate"/>
    <tag k="addr:housenumber" v="1725"/>
    <tag k="addr:street" v="Hopper Brook Road"/>
    <tag k="addr:state" v="VT"/>
    <tag k="ref:vcgi:esiteid" v="333324"/>
  </node>
  <node id="-415" visible="true" lat="43.14109906" lon="-73.15472376">
    <tag k="addr:city" v="Sandgate"/>
    <tag k="addr:housenumber" v="1243"/>
    <tag k="addr:street" v="Hopper Brook Road"/>
    <tag k="addr:state" v="VT"/>
    <tag k="ref:vcgi:esiteid" v="333325"/>
  </node>
  <node id="-418" visible="true" lat="43.1595925" lon="-73.22500422">
    <tag k="addr:city" v="Sandgate"/>
    <tag k="addr:housenumber" v="1702"/>
    <tag k="addr:street" v="West Sandgate Road"/>
    <tag k="addr:state" v="VT"/>
    <tag k="ref:vcgi:esiteid" v="340220"/>
  </node>
  <node id="-420" visible="true" lat="43.15919704" lon="-73.22579589">
    <tag k="addr:city" v="Sandgate"/>
    <tag k="addr:housenumber" v="1725"/>
    <tag k="addr:street" v="West Sandgate Road"/>
    <tag k="addr:state" v="VT"/>
    <tag k="ref:vcgi:esiteid" v="343677"/>
  </node>
  <node id="-421" visible="true" lat="43.18190895" lon="-73.21169603">
    <tag k="addr:city" v="Sandgate"/>
    <tag k="addr:housenumber" v="1843"/>
    <tag k="addr:street" v="Rupert Road"/>
    <tag k="addr:state" v="VT"/>
    <tag k="ref:vcgi:esiteid" v="343680"/>
  </node>
  <node id="-425" visible="true" lat="43.15436935" lon="-73.25997699">
    <tag k="addr:city" v="Sandgate"/>
    <tag k="addr:housenumber" v="54"/>
    <tag k="addr:street" v="Weldon Drive"/>
    <tag k="addr:state" v="VT"/>
    <tag k="ref:vcgi:esiteid" v="365358"/>
  </node>
  <node id="-426" visible="true" lat="43.16662557" lon="-73.1758669">
    <tag k="addr:city" v="Sandgate"/>
    <tag k="addr:housenumber" v="5057"/>
    <tag k="addr:street" v="Sandgate Road"/>
    <tag k="addr:state" v="VT"/>
    <tag k="ref:vcgi:esiteid" v="450124"/>
  </node>
  <node id="-427" visible="true" lat="43.14851795" lon="-73.17363454">
    <tag k="addr:city" v="Sandgate"/>
    <tag k="addr:housenumber" v="697"/>
    <tag k="addr:street" v="Hamilton Hollow Road"/>
    <tag k="addr:state" v="VT"/>
    <tag k="ref:vcgi:esiteid" v="450198"/>
  </node>
  <node id="-428" visible="true" lat="43.14717364" lon="-73.17585737">
    <tag k="addr:city" v="Sandgate"/>
    <tag k="addr:housenumber" v="845"/>
    <tag k="addr:street" v="Hamilton Hollow Road"/>
    <tag k="addr:state" v="VT"/>
    <tag k="ref:vcgi:esiteid" v="450199"/>
  </node>
  <node id="-429" visible="true" lat="43.16253651" lon="-73.21676344">
    <tag k="addr:city" v="Sandgate"/>
    <tag k="addr:housenumber" v="668"/>
    <tag k="addr:street" v="Rupert Road"/>
    <tag k="addr:state" v="VT"/>
    <tag k="ref:vcgi:esiteid" v="450200"/>
  </node>
  <node id="-432" visible="true" lat="43.20104603" lon="-73.1954916">
    <tag k="addr:city" v="Sandgate"/>
    <tag k="addr:housenumber" v="3483"/>
    <tag k="addr:street" v="Rupert Road"/>
    <tag k="addr:state" v="VT"/>
    <tag k="ref:vcgi:esiteid" v="450736"/>
  </node>
  <node id="-435" visible="true" lat="43.20645296" lon="-73.19775666">
    <tag k="addr:city" v="Sandgate"/>
    <tag k="addr:housenumber" v="3852"/>
    <tag k="addr:street" v="Rupert Road"/>
    <tag k="addr:state" v="VT"/>
    <tag k="ref:vcgi:esiteid" v="611901"/>
  </node>
  <node id="-440" visible="true" lat="43.17058922" lon="-73.16896071">
    <tag k="addr:city" v="Sandgate"/>
    <tag k="addr:housenumber" v="5534"/>
    <tag k="addr:street" v="Sandgate Road"/>
    <tag k="addr:state" v="VT"/>
    <tag k="ref:vcgi:esiteid" v="617581"/>
  </node>
  <node id="-443" visible="true" lat="43.15525087" lon="-73.25426761">
    <tag k="addr:city" v="Sandgate"/>
    <tag k="addr:housenumber" v="3767"/>
    <tag k="addr:street" v="West Sandgate Road"/>
    <tag k="addr:state" v="VT"/>
    <tag k="ref:vcgi:esiteid" v="620885"/>
  </node>
  <node id="-453" visible="true" lat="43.14679943" lon="-73.20025306">
    <tag k="addr:city" v="Sandgate"/>
    <tag k="addr:housenumber" v="3130"/>
    <tag k="addr:street" v="Sandgate Road"/>
    <tag k="addr:state" v="VT"/>
    <tag k="ref:vcgi:esiteid" v="758185"/>
  </node>
  <node id="-454" visible="true" lat="43.16287363" lon="-73.2330903">
    <tag k="addr:city" v="Sandgate"/>
    <tag k="addr:housenumber" v="2185"/>
    <tag k="addr:street" v="West Sandgate Road"/>
    <tag k="addr:state" v="VT"/>
    <tag k="ref:vcgi:esiteid" v="758391"/>
  </node>
  <node id="-455" visible="true" lat="43.17885484" lon="-73.17793437">
    <tag k="addr:city" v="Sandgate"/>
    <tag k="addr:housenumber" v="762"/>
    <tag k="addr:street" v="Wuerslin Road"/>
    <tag k="addr:state" v="VT"/>
    <tag k="ref:vcgi:esiteid" v="763450"/>
  </node>
  <node id="-456" visible="true" lat="43.16014664" lon="-73.22265119">
    <tag k="addr:city" v="Sandgate"/>
    <tag k="addr:housenumber" v="81"/>
    <tag k="addr:street" v="Rupert Road"/>
    <tag k="addr:state" v="VT"/>
    <tag k="ref:vcgi:esiteid" v="764011"/>
  </node>
  <node id="-457" visible="true" lat="43.20171115" lon="-73.13823672">
    <tag k="addr:city" v="Sandgate"/>
    <tag k="addr:housenumber" v="1211"/>
    <tag k="addr:street" v="Moffitt Hollow Road"/>
    <tag k="addr:state" v="VT"/>
    <tag k="ref:vcgi:esiteid" v="764012"/>
  </node>
  <node id="-458" visible="true" lat="43.20359789" lon="-73.14203272">
    <tag k="addr:city" v="Sandgate"/>
    <tag k="addr:housenumber" v="1440"/>
    <tag k="addr:street" v="Moffitt Hollow Road"/>
    <tag k="addr:state" v="VT"/>
    <tag k="ref:vcgi:esiteid" v="764013"/>
  </node>
</osm>
