<?xml version="1.0" encoding="UTF-8"?>
<osm version="0.6" generator="JOSM">
  <node id="-108" visible="true" lat="42.90183682" lon="-72.94998476">
    <tag k="addr:city" v="Searsburg"/>
    <tag k="addr:housenumber" v="227"/>
    <tag k="addr:street" v="Somerset Road"/>
    <tag k="addr:state" v="VT"/>
    <tag k="ref:vcgi:esiteid" v="217266"/>
  </node>
  <node id="-110" visible="true" lat="42.89552916" lon="-72.98782338">
    <tag k="addr:city" v="Searsburg"/>
    <tag k="addr:housenumber" v="1595"/>
    <tag k="addr:street" v="Vermont Route 9 West"/>
    <tag k="addr:state" v="VT"/>
    <tag k="ref:vcgi:esiteid" v="217268"/>
  </node>
  <node id="-111" visible="true" lat="42.89608539" lon="-73.00232262">
    <tag k="addr:city" v="Searsburg"/>
    <tag k="addr:housenumber" v="65"/>
    <tag k="addr:street" v="Rake Branch Trail"/>
    <tag k="addr:state" v="VT"/>
    <tag k="ref:vcgi:esiteid" v="217269"/>
  </node>
  <node id="-123" visible="true" lat="42.89527469" lon="-72.96730918">
    <tag k="addr:city" v="Searsburg"/>
    <tag k="addr:housenumber" v="1368"/>
    <tag k="addr:street" v="Vermont Route 9 West"/>
    <tag k="addr:state" v="VT"/>
    <tag k="ref:vcgi:esiteid" v="217281"/>
  </node>
  <node id="-142" visible="true" lat="42.89316965" lon="-72.97568346">
    <tag k="addr:city" v="Searsburg"/>
    <tag k="addr:housenumber" v="29"/>
    <tag k="addr:street" v="Vermont Route 8"/>
    <tag k="addr:state" v="VT"/>
    <tag k="ref:vcgi:esiteid" v="217301"/>
  </node>
  <node id="-145" visible="true" lat="42.89279308" lon="-72.97547982">
    <tag k="addr:city" v="Searsburg"/>
    <tag k="addr:housenumber" v="35"/>
    <tag k="addr:street" v="Vermont Route 8"/>
    <tag k="addr:state" v="VT"/>
    <tag k="ref:vcgi:esiteid" v="217304"/>
  </node>
  <node id="-146" visible="true" lat="42.89257431" lon="-72.9744873">
    <tag k="addr:city" v="Searsburg"/>
    <tag k="addr:housenumber" v="42"/>
    <tag k="addr:street" v="Vermont Route 8"/>
    <tag k="addr:state" v="VT"/>
    <tag k="ref:vcgi:esiteid" v="217305"/>
  </node>
  <node id="-151" visible="true" lat="42.89208958" lon="-72.99994156">
    <tag k="addr:city" v="Searsburg"/>
    <tag k="addr:housenumber" v="54"/>
    <tag k="addr:street" v="Old Route 9"/>
    <tag k="addr:state" v="VT"/>
    <tag k="ref:vcgi:esiteid" v="217310"/>
  </node>
  <node id="-152" visible="true" lat="42.89202131" lon="-72.99916798">
    <tag k="addr:city" v="Searsburg"/>
    <tag k="addr:housenumber" v="44"/>
    <tag k="addr:street" v="Old Route 9"/>
    <tag k="addr:state" v="VT"/>
    <tag k="ref:vcgi:esiteid" v="217311"/>
  </node>
  <node id="-154" visible="true" lat="42.89161679" lon="-72.97402144">
    <tag k="addr:city" v="Searsburg"/>
    <tag k="addr:housenumber" v="54"/>
    <tag k="addr:street" v="Vermont Route 8"/>
    <tag k="addr:state" v="VT"/>
    <tag k="ref:vcgi:esiteid" v="217313"/>
  </node>
  <node id="-155" visible="true" lat="42.89201394" lon="-72.99931439">
    <tag k="addr:city" v="Searsburg"/>
    <tag k="addr:housenumber" v="48"/>
    <tag k="addr:street" v="Old Route 9"/>
    <tag k="addr:state" v="VT"/>
    <tag k="ref:vcgi:esiteid" v="217314"/>
  </node>
  <node id="-162" visible="true" lat="42.89072702" lon="-73.00040276">
    <tag k="addr:city" v="Searsburg"/>
    <tag k="addr:housenumber" v="20"/>
    <tag k="addr:street" v="Bishop Road"/>
    <tag k="addr:state" v="VT"/>
    <tag k="ref:vcgi:esiteid" v="217321"/>
  </node>
  <node id="-165" visible="true" lat="42.89035796" lon="-73.00096893">
    <tag k="addr:city" v="Searsburg"/>
    <tag k="addr:housenumber" v="27"/>
    <tag k="addr:street" v="Bishop Road"/>
    <tag k="addr:state" v="VT"/>
    <tag k="ref:vcgi:esiteid" v="217324"/>
  </node>
  <node id="-166" visible="true" lat="42.88994598" lon="-73.00151062">
    <tag k="addr:city" v="Searsburg"/>
    <tag k="addr:housenumber" v="35"/>
    <tag k="addr:street" v="Bishop Road"/>
    <tag k="addr:state" v="VT"/>
    <tag k="ref:vcgi:esiteid" v="217325"/>
  </node>
  <node id="-170" visible="true" lat="42.88940034" lon="-73.00219401">
    <tag k="addr:city" v="Searsburg"/>
    <tag k="addr:housenumber" v="43"/>
    <tag k="addr:street" v="Bishop Road"/>
    <tag k="addr:state" v="VT"/>
    <tag k="ref:vcgi:esiteid" v="217329"/>
  </node>
  <node id="-173" visible="true" lat="42.88830419" lon="-72.95163958">
    <tag k="addr:city" v="Searsburg"/>
    <tag k="addr:housenumber" v="1126"/>
    <tag k="addr:street" v="Vermont Route 9 West"/>
    <tag k="addr:state" v="VT"/>
    <tag k="ref:vcgi:esiteid" v="217332"/>
  </node>
  <node id="-174" visible="true" lat="42.88816016" lon="-72.97711626">
    <tag k="addr:city" v="Searsburg"/>
    <tag k="addr:housenumber" v="37"/>
    <tag k="addr:street" v="Putnam Road"/>
    <tag k="addr:state" v="VT"/>
    <tag k="ref:vcgi:esiteid" v="217333"/>
  </node>
  <node id="-176" visible="true" lat="42.8864347" lon="-72.95050774">
    <tag k="addr:city" v="Searsburg"/>
    <tag k="addr:housenumber" v="1098"/>
    <tag k="addr:street" v="Vermont Route 9 West"/>
    <tag k="addr:state" v="VT"/>
    <tag k="ref:vcgi:esiteid" v="217335"/>
  </node>
  <node id="-192" visible="true" lat="42.87844497" lon="-72.95730524">
    <tag k="addr:city" v="Searsburg"/>
    <tag k="addr:housenumber" v="179"/>
    <tag k="addr:street" v="Sleepy Hollow Road"/>
    <tag k="addr:state" v="VT"/>
    <tag k="ref:vcgi:esiteid" v="217352"/>
  </node>
  <node id="-200" visible="true" lat="42.87285875" lon="-72.93710988">
    <tag k="addr:city" v="Searsburg"/>
    <tag k="addr:housenumber" v="779"/>
    <tag k="addr:street" v="Vermont Route 9 West"/>
    <tag k="addr:state" v="VT"/>
    <tag k="ref:vcgi:esiteid" v="217360"/>
  </node>
  <node id="-204" visible="true" lat="42.89603197" lon="-72.96782762">
    <tag k="addr:city" v="Searsburg"/>
    <tag k="addr:housenumber" v="1367"/>
    <tag k="addr:street" v="Vermont Route 9 West"/>
    <tag k="addr:state" v="VT"/>
    <tag k="ref:vcgi:esiteid" v="217364"/>
  </node>
  <node id="-205" visible="true" lat="42.87080206" lon="-72.92721463">
    <tag k="addr:city" v="Searsburg"/>
    <tag k="addr:housenumber" v="133"/>
    <tag k="addr:street" v="New England Power Road"/>
    <tag k="addr:state" v="VT"/>
    <tag k="ref:vcgi:esiteid" v="217366"/>
  </node>
  <node id="-207" visible="true" lat="42.89446855" lon="-72.96723506">
    <tag k="addr:city" v="Searsburg"/>
    <tag k="addr:housenumber" v="1370"/>
    <tag k="addr:street" v="Vermont Route 9 West"/>
    <tag k="addr:state" v="VT"/>
    <tag k="ref:vcgi:esiteid" v="217368"/>
  </node>
  <node id="-214" visible="true" lat="42.88329557" lon="-72.93285789">
    <tag k="addr:city" v="Searsburg"/>
    <tag k="addr:housenumber" v="765"/>
    <tag k="addr:street" v="Vermont Route 9 West"/>
    <tag k="addr:state" v="VT"/>
    <tag k="ref:vcgi:esiteid" v="217375"/>
  </node>
  <node id="-219" visible="true" lat="42.89473961" lon="-72.99422217">
    <tag k="addr:city" v="Searsburg"/>
    <tag k="addr:housenumber" v="1659"/>
    <tag k="addr:street" v="Vermont Route 9 West"/>
    <tag k="addr:state" v="VT"/>
    <tag k="ref:vcgi:esiteid" v="446153"/>
  </node>
  <node id="-220" visible="true" lat="42.87144755" lon="-72.9287994">
    <tag k="addr:city" v="Searsburg"/>
    <tag k="addr:housenumber" v="690"/>
    <tag k="addr:street" v="Vermont Route 9 West"/>
    <tag k="addr:state" v="VT"/>
    <tag k="ref:vcgi:esiteid" v="446275"/>
  </node>
  <node id="-221" visible="true" lat="42.87519768" lon="-72.94521896">
    <tag k="addr:city" v="Searsburg"/>
    <tag k="addr:housenumber" v="8"/>
    <tag k="addr:street" v="Lind Lane"/>
    <tag k="addr:state" v="VT"/>
    <tag k="ref:vcgi:esiteid" v="446277"/>
  </node>
  <node id="-222" visible="true" lat="42.89441671" lon="-72.97202844">
    <tag k="addr:city" v="Searsburg"/>
    <tag k="addr:housenumber" v="1420"/>
    <tag k="addr:street" v="Vermont Route 9 West"/>
    <tag k="addr:state" v="VT"/>
    <tag k="ref:vcgi:esiteid" v="446279"/>
  </node>
  <node id="-223" visible="true" lat="42.89225998" lon="-72.95432899">
    <tag k="addr:city" v="Searsburg"/>
    <tag k="addr:housenumber" v="1189"/>
    <tag k="addr:street" v="Vermont Route 9 West"/>
    <tag k="addr:state" v="VT"/>
    <tag k="ref:vcgi:esiteid" v="446295"/>
  </node>
  <node id="-227" visible="true" lat="42.89484369" lon="-72.99481244">
    <tag k="addr:city" v="Searsburg"/>
    <tag k="addr:housenumber" v="1667"/>
    <tag k="addr:street" v="Vermont Route 9 West"/>
    <tag k="addr:state" v="VT"/>
    <tag k="ref:vcgi:esiteid" v="449574"/>
  </node>
  <node id="-230" visible="true" lat="42.89332683" lon="-73.0013423">
    <tag k="addr:city" v="Searsburg"/>
    <tag k="addr:housenumber" v="1801"/>
    <tag k="addr:street" v="Vermont Route 9 West"/>
    <tag k="addr:state" v="VT"/>
    <tag k="ref:vcgi:esiteid" v="611067"/>
  </node>
  <node id="-232" visible="true" lat="42.87762763" lon="-72.96959083">
    <tag k="addr:city" v="Searsburg"/>
    <tag k="addr:housenumber" v="260"/>
    <tag k="addr:street" v="Vermont Route 8"/>
    <tag k="addr:state" v="VT"/>
    <tag k="ref:vcgi:esiteid" v="612055"/>
  </node>
  <node id="-234" visible="true" lat="42.87950968" lon="-72.94548923">
    <tag k="addr:city" v="Searsburg"/>
    <tag k="addr:housenumber" v="100"/>
    <tag k="addr:street" v="Lind Lane"/>
    <tag k="addr:state" v="VT"/>
    <tag k="ref:vcgi:esiteid" v="612741"/>
  </node>
  <node id="-235" visible="true" lat="42.88584066" lon="-72.95025498">
    <tag k="addr:city" v="Searsburg"/>
    <tag k="addr:housenumber" v="1056"/>
    <tag k="addr:street" v="Vermont Route 9 West"/>
    <tag k="addr:state" v="VT"/>
    <tag k="ref:vcgi:esiteid" v="612743"/>
  </node>
  <node id="-237" visible="true" lat="42.89508715" lon="-72.96830152">
    <tag k="addr:city" v="Searsburg"/>
    <tag k="addr:housenumber" v="1378"/>
    <tag k="addr:street" v="Vermont Route 9 West"/>
    <tag k="addr:state" v="VT"/>
    <tag k="ref:vcgi:esiteid" v="617312"/>
  </node>
  <node id="-250" visible="true" lat="42.88275578" lon="-72.95390814">
    <tag k="addr:city" v="Searsburg"/>
    <tag k="addr:housenumber" v="118"/>
    <tag k="addr:street" v="Sleepy Hollow Road"/>
    <tag k="addr:state" v="VT"/>
    <tag k="ref:vcgi:esiteid" v="758249"/>
  </node>
  <node id="-251" visible="true" lat="42.87327857" lon="-72.93311004">
    <tag k="addr:city" v="Searsburg"/>
    <tag k="addr:housenumber" v="749"/>
    <tag k="addr:street" v="Vermont Route 9 West"/>
    <tag k="addr:state" v="VT"/>
    <tag k="ref:vcgi:esiteid" v="759032"/>
  </node>
  <node id="-252" visible="true" lat="42.87211305" lon="-72.93029826">
    <tag k="addr:city" v="Searsburg"/>
    <tag k="addr:housenumber" v="699"/>
    <tag k="addr:street" v="Vermont Route 9 West"/>
    <tag k="addr:state" v="VT"/>
    <tag k="ref:vcgi:esiteid" v="759033"/>
  </node>
  <node id="-254" visible="true" lat="42.8843211" lon="-72.97357504">
    <tag k="addr:city" v="Searsburg"/>
    <tag k="addr:housenumber" v="171"/>
    <tag k="addr:street" v="Vermont Route 8"/>
    <tag k="addr:state" v="VT"/>
    <tag k="ref:vcgi:esiteid" v="759216"/>
  </node>
  <node id="-255" visible="true" lat="42.88403227" lon="-72.97360088">
    <tag k="addr:city" v="Searsburg"/>
    <tag k="addr:housenumber" v="173"/>
    <tag k="addr:street" v="Vermont Route 8"/>
    <tag k="addr:state" v="VT"/>
    <tag k="ref:vcgi:esiteid" v="759217"/>
  </node>
  <node id="-256" visible="true" lat="42.88585218" lon="-72.9531237">
    <tag k="addr:city" v="Searsburg"/>
    <tag k="addr:housenumber" v="62"/>
    <tag k="addr:street" v="Sleepy Hollow Road"/>
    <tag k="addr:state" v="VT"/>
    <tag k="ref:vcgi:esiteid" v="763821"/>
  </node>
  <node id="-258" visible="true" lat="42.89464958" lon="-72.97570639">
    <tag k="addr:city" v="Searsburg"/>
    <tag k="addr:housenumber" v="4"/>
    <tag k="addr:street" v="Vermont Route 8"/>
    <tag k="addr:state" v="VT"/>
    <tag k="ref:vcgi:esiteid" v="900032"/>
  </node>
  <node id="-259" visible="true" lat="42.86017285" lon="-72.97462356">
    <tag k="addr:city" v="Searsburg"/>
    <tag k="addr:housenumber" v="566"/>
    <tag k="addr:street" v="Vermont Route 8"/>
    <tag k="addr:state" v="VT"/>
    <tag k="ref:vcgi:esiteid" v="900249"/>
  </node>
  <node id="-260" visible="true" lat="42.87939722" lon="-72.94618582">
    <tag k="addr:city" v="Searsburg"/>
    <tag k="addr:housenumber" v="950"/>
    <tag k="addr:street" v="Vermont Route 9 West"/>
    <tag k="addr:state" v="VT"/>
    <tag k="ref:vcgi:esiteid" v="900286"/>
  </node>
  <node id="-262" visible="true" lat="42.88632341" lon="-72.98659547">
    <tag k="addr:city" v="Searsburg"/>
    <tag k="addr:housenumber" v="146"/>
    <tag k="addr:street" v="Putnam Road"/>
    <tag k="addr:state" v="VT"/>
    <tag k="ref:vcgi:esiteid" v="900396"/>
  </node>
  <node id="-263" visible="true" lat="42.8957831" lon="-72.97729176">
    <tag k="addr:city" v="Searsburg"/>
    <tag k="addr:housenumber" v="13"/>
    <tag k="addr:street" v="Town Garage Road"/>
    <tag k="addr:state" v="VT"/>
    <tag k="ref:vcgi:esiteid" v="1050262"/>
  </node>
  <node id="-267" visible="true" lat="42.88489847" lon="-72.98562401">
    <tag k="addr:city" v="Searsburg"/>
    <tag k="addr:housenumber" v="34"/>
    <tag k="addr:street" v="Putnam Road"/>
    <tag k="addr:state" v="VT"/>
    <tag k="ref:vcgi:esiteid" v="1051828"/>
  </node>
  <node id="-268" visible="true" lat="42.88350441" lon="-72.99082105">
    <tag k="addr:city" v="Searsburg"/>
    <tag k="addr:housenumber" v="43"/>
    <tag k="addr:street" v="Putnam Road"/>
    <tag k="addr:state" v="VT"/>
    <tag k="ref:vcgi:esiteid" v="1051829"/>
  </node>
  <node id="-269" visible="true" lat="42.88106129" lon="-72.9906851">
    <tag k="addr:city" v="Searsburg"/>
    <tag k="addr:housenumber" v="50"/>
    <tag k="addr:street" v="Putnam Road"/>
    <tag k="addr:state" v="VT"/>
    <tag k="ref:vcgi:esiteid" v="1051830"/>
  </node>
  <node id="-270" visible="true" lat="42.87863196" lon="-72.99066585">
    <tag k="addr:city" v="Searsburg"/>
    <tag k="addr:housenumber" v="58"/>
    <tag k="addr:street" v="Putnam Road"/>
    <tag k="addr:state" v="VT"/>
    <tag k="ref:vcgi:esiteid" v="1051831"/>
  </node>
  <node id="-271" visible="true" lat="42.87644964" lon="-72.98969646">
    <tag k="addr:city" v="Searsburg"/>
    <tag k="addr:housenumber" v="64"/>
    <tag k="addr:street" v="Putnam Road"/>
    <tag k="addr:state" v="VT"/>
    <tag k="ref:vcgi:esiteid" v="1051832"/>
  </node>
  <node id="-272" visible="true" lat="42.87449703" lon="-72.98847637">
    <tag k="addr:city" v="Searsburg"/>
    <tag k="addr:housenumber" v="70"/>
    <tag k="addr:street" v="Putnam Road"/>
    <tag k="addr:state" v="VT"/>
    <tag k="ref:vcgi:esiteid" v="1051833"/>
  </node>
  <node id="-273" visible="true" lat="42.87273364" lon="-72.9864418">
    <tag k="addr:city" v="Searsburg"/>
    <tag k="addr:housenumber" v="78"/>
    <tag k="addr:street" v="Putnam Road"/>
    <tag k="addr:state" v="VT"/>
    <tag k="ref:vcgi:esiteid" v="1051834"/>
  </node>
  <node id="-274" visible="true" lat="42.87048008" lon="-72.98541382">
    <tag k="addr:city" v="Searsburg"/>
    <tag k="addr:housenumber" v="83"/>
    <tag k="addr:street" v="Putnam Road"/>
    <tag k="addr:state" v="VT"/>
    <tag k="ref:vcgi:esiteid" v="1051835"/>
  </node>
</osm>
