<?xml version="1.0" encoding="UTF-8"?>
<osm version="0.6" generator="JOSM" upload="false">
  <node id="-100" visible="true" lat="42.91933483" lon="-72.97003993">
    <tag k="addr:city" v="Searsburg"/>
    <tag k="addr:housenumber" v="706"/>
    <tag k="addr:street" v="Somerset Road"/>
    <tag k="addr:state" v="VT"/>
    <tag k="ref:vcgi:esiteid" v="217258"/>
  </node>
  <node id="-101" visible="true" lat="42.91896265" lon="-72.9693122">
    <tag k="addr:city" v="Searsburg"/>
    <tag k="addr:housenumber" v="698"/>
    <tag k="addr:street" v="Somerset Road"/>
    <tag k="addr:state" v="VT"/>
    <tag k="ref:vcgi:esiteid" v="217259"/>
  </node>
  <node id="-102" visible="true" lat="42.91867075" lon="-72.96257844">
    <tag k="addr:city" v="Searsburg"/>
    <tag k="addr:housenumber" v="618"/>
    <tag k="addr:street" v="Somerset Road"/>
    <tag k="addr:state" v="VT"/>
    <tag k="ref:vcgi:esiteid" v="217260"/>
  </node>
  <node id="-103" visible="true" lat="42.91844811" lon="-72.96964533">
    <tag k="addr:city" v="Searsburg"/>
    <tag k="addr:housenumber" v="702"/>
    <tag k="addr:street" v="Somerset Road"/>
    <tag k="addr:state" v="VT"/>
    <tag k="ref:vcgi:esiteid" v="217261"/>
  </node>
  <node id="-104" visible="true" lat="42.91437015" lon="-72.96022624">
    <tag k="addr:city" v="Searsburg"/>
    <tag k="addr:housenumber" v="550"/>
    <tag k="addr:street" v="Somerset Road"/>
    <tag k="addr:state" v="VT"/>
    <tag k="ref:vcgi:esiteid" v="217262"/>
  </node>
  <node id="-105" visible="true" lat="42.91351328" lon="-72.96012271">
    <tag k="addr:city" v="Searsburg"/>
    <tag k="addr:housenumber" v="544"/>
    <tag k="addr:street" v="Somerset Road"/>
    <tag k="addr:state" v="VT"/>
    <tag k="ref:vcgi:esiteid" v="217263"/>
  </node>
  <node id="-106" visible="true" lat="42.91426364" lon="-72.95905241">
    <tag k="addr:city" v="Searsburg"/>
    <tag k="addr:housenumber" v="539"/>
    <tag k="addr:street" v="Somerset Road"/>
    <tag k="addr:state" v="VT"/>
    <tag k="ref:vcgi:esiteid" v="217264"/>
  </node>
  <node id="-107" visible="true" lat="42.91321977" lon="-72.95986791">
    <tag k="addr:city" v="Searsburg"/>
    <tag k="addr:housenumber" v="526"/>
    <tag k="addr:street" v="Somerset Road"/>
    <tag k="addr:state" v="VT"/>
    <tag k="ref:vcgi:esiteid" v="217265"/>
  </node>
  <node id="-108" visible="true" lat="42.90183682" lon="-72.94998476">
    <tag k="addr:city" v="Searsburg"/>
    <tag k="addr:housenumber" v="227"/>
    <tag k="addr:street" v="Somerset Road"/>
    <tag k="addr:state" v="VT"/>
    <tag k="ref:vcgi:esiteid" v="217266"/>
  </node>
  <node id="-110" visible="true" lat="42.89552916" lon="-72.98782338">
    <tag k="addr:city" v="Searsburg"/>
    <tag k="addr:housenumber" v="1595"/>
    <tag k="addr:street" v="Vermont Route 9 West"/>
    <tag k="addr:state" v="VT"/>
    <tag k="ref:vcgi:esiteid" v="217268"/>
  </node>
  <node id="-112" visible="true" lat="42.89588339" lon="-72.97777682">
    <tag k="addr:city" v="Searsburg"/>
    <tag k="addr:housenumber" v="18"/>
    <tag k="addr:street" v="Town Garage Road"/>
    <tag k="addr:state" v="VT"/>
    <tag k="ref:vcgi:esiteid" v="217270"/>
  </node>
  <node id="-113" visible="true" lat="42.89574525" lon="-73.00214901">
    <tag k="addr:city" v="Searsburg"/>
    <tag k="addr:housenumber" v="61"/>
    <tag k="addr:street" v="Rake Branch Trail"/>
    <tag k="addr:state" v="VT"/>
    <tag k="ref:vcgi:esiteid" v="217271"/>
  </node>
  <node id="-114" visible="true" lat="42.89566812" lon="-72.98519495">
    <tag k="addr:city" v="Searsburg"/>
    <tag k="addr:housenumber" v="1561"/>
    <tag k="addr:street" v="Vermont Route 9 West"/>
    <tag k="addr:state" v="VT"/>
    <tag k="ref:vcgi:esiteid" v="217272"/>
  </node>
  <node id="-115" visible="true" lat="42.8955355" lon="-72.98194345">
    <tag k="addr:city" v="Searsburg"/>
    <tag k="addr:housenumber" v="1527"/>
    <tag k="addr:street" v="Vermont Route 9 West"/>
    <tag k="addr:state" v="VT"/>
    <tag k="ref:vcgi:esiteid" v="217273"/>
  </node>
  <node id="-118" visible="true" lat="42.89541612" lon="-72.97568788">
    <tag k="addr:city" v="Searsburg"/>
    <tag k="addr:housenumber" v="1459"/>
    <tag k="addr:street" v="Vermont Route 9 West"/>
    <tag k="addr:state" v="VT"/>
    <tag k="ref:vcgi:esiteid" v="217276"/>
  </node>
  <node id="-120" visible="true" lat="42.89528372" lon="-73.00213636">
    <tag k="addr:city" v="Searsburg"/>
    <tag k="addr:housenumber" v="55"/>
    <tag k="addr:street" v="Rake Branch Trail"/>
    <tag k="addr:state" v="VT"/>
    <tag k="ref:vcgi:esiteid" v="217278"/>
  </node>
  <node id="-121" visible="true" lat="42.89515978" lon="-72.98281315">
    <tag k="addr:city" v="Searsburg"/>
    <tag k="addr:housenumber" v="1534"/>
    <tag k="addr:street" v="Vermont Route 9 West"/>
    <tag k="addr:state" v="VT"/>
    <tag k="ref:vcgi:esiteid" v="217279"/>
  </node>
  <node id="-122" visible="true" lat="42.89520844" lon="-72.97457653">
    <tag k="addr:city" v="Searsburg"/>
    <tag k="addr:housenumber" v="1447"/>
    <tag k="addr:street" v="Vermont Route 9 West"/>
    <tag k="addr:state" v="VT"/>
    <tag k="ref:vcgi:esiteid" v="217280"/>
  </node>
  <node id="-124" visible="true" lat="42.89491724" lon="-73.00231495">
    <tag k="addr:city" v="Searsburg"/>
    <tag k="addr:housenumber" v="47"/>
    <tag k="addr:street" v="Rake Branch Trail"/>
    <tag k="addr:state" v="VT"/>
    <tag k="ref:vcgi:esiteid" v="217282"/>
  </node>
  <node id="-125" visible="true" lat="42.89475998" lon="-72.97945521">
    <tag k="addr:city" v="Searsburg"/>
    <tag k="addr:housenumber" v="1498"/>
    <tag k="addr:street" v="Vermont Route 9 West"/>
    <tag k="addr:state" v="VT"/>
    <tag k="ref:vcgi:esiteid" v="217283"/>
  </node>
  <node id="-127" visible="true" lat="42.89476273" lon="-72.97790672">
    <tag k="addr:city" v="Searsburg"/>
    <tag k="addr:housenumber" v="1482"/>
    <tag k="addr:street" v="Vermont Route 9 West"/>
    <tag k="addr:state" v="VT"/>
    <tag k="ref:vcgi:esiteid" v="217285"/>
  </node>
  <node id="-130" visible="true" lat="42.89463803" lon="-72.97837162">
    <tag k="addr:city" v="Searsburg"/>
    <tag k="addr:housenumber" v="1488"/>
    <tag k="addr:street" v="Vermont Route 9 West"/>
    <tag k="addr:state" v="VT"/>
    <tag k="ref:vcgi:esiteid" v="217289"/>
  </node>
  <node id="-132" visible="true" lat="42.89431707" lon="-73.0023614">
    <tag k="addr:city" v="Searsburg"/>
    <tag k="addr:housenumber" v="39"/>
    <tag k="addr:street" v="Rake Branch Trail"/>
    <tag k="addr:state" v="VT"/>
    <tag k="ref:vcgi:esiteid" v="217291"/>
  </node>
  <node id="-134" visible="true" lat="42.89428423" lon="-72.95502117">
    <tag k="addr:city" v="Searsburg"/>
    <tag k="addr:housenumber" v="66"/>
    <tag k="addr:street" v="Somerset Road"/>
    <tag k="addr:state" v="VT"/>
    <tag k="ref:vcgi:esiteid" v="217294"/>
  </node>
  <node id="-136" visible="true" lat="42.89399083" lon="-73.00241395">
    <tag k="addr:city" v="Searsburg"/>
    <tag k="addr:housenumber" v="33"/>
    <tag k="addr:street" v="Rake Branch Trail"/>
    <tag k="addr:state" v="VT"/>
    <tag k="ref:vcgi:esiteid" v="217296"/>
  </node>
  <node id="-138" visible="true" lat="42.8932413" lon="-72.99603282">
    <tag k="addr:city" v="Searsburg"/>
    <tag k="addr:housenumber" v="6"/>
    <tag k="addr:street" v="Old Route 9"/>
    <tag k="addr:state" v="VT"/>
    <tag k="ref:vcgi:esiteid" v="217299"/>
  </node>
  <node id="-141" visible="true" lat="42.89280614" lon="-72.99737456">
    <tag k="addr:city" v="Searsburg"/>
    <tag k="addr:housenumber" v="18"/>
    <tag k="addr:street" v="Old Route 9"/>
    <tag k="addr:state" v="VT"/>
    <tag k="ref:vcgi:esiteid" v="217303"/>
  </node>
  <node id="-143" visible="true" lat="42.89239045" lon="-72.99654958">
    <tag k="addr:city" v="Searsburg"/>
    <tag k="addr:housenumber" v="16"/>
    <tag k="addr:street" v="Old Route 9"/>
    <tag k="addr:state" v="VT"/>
    <tag k="ref:vcgi:esiteid" v="217306"/>
  </node>
  <node id="-144" visible="true" lat="42.89263584" lon="-72.95296595">
    <tag k="addr:city" v="Searsburg"/>
    <tag k="addr:housenumber" v="50"/>
    <tag k="addr:street" v="Somerset Road"/>
    <tag k="addr:state" v="VT"/>
    <tag k="ref:vcgi:esiteid" v="217307"/>
  </node>
  <node id="-145" visible="true" lat="42.89217568" lon="-73.0003048">
    <tag k="addr:city" v="Searsburg"/>
    <tag k="addr:housenumber" v="56"/>
    <tag k="addr:street" v="Old Route 9"/>
    <tag k="addr:state" v="VT"/>
    <tag k="ref:vcgi:esiteid" v="217308"/>
  </node>
  <node id="-146" visible="true" lat="42.89221977" lon="-72.97508738">
    <tag k="addr:city" v="Searsburg"/>
    <tag k="addr:housenumber" v="45"/>
    <tag k="addr:street" v="Vermont Route 8"/>
    <tag k="addr:state" v="VT"/>
    <tag k="ref:vcgi:esiteid" v="217309"/>
  </node>
  <node id="-148" visible="true" lat="42.89190081" lon="-73.00059284">
    <tag k="addr:city" v="Searsburg"/>
    <tag k="addr:housenumber" v="5"/>
    <tag k="addr:street" v="Bishop Road"/>
    <tag k="addr:state" v="VT"/>
    <tag k="ref:vcgi:esiteid" v="217312"/>
  </node>
  <node id="-149" visible="true" lat="42.89161679" lon="-72.97402144">
    <tag k="addr:city" v="Searsburg"/>
    <tag k="addr:housenumber" v="54"/>
    <tag k="addr:street" v="Vermont Route 8"/>
    <tag k="addr:state" v="VT"/>
    <tag k="ref:vcgi:esiteid" v="217313"/>
  </node>
  <node id="-150" visible="true" lat="42.8916475" lon="-73.00151268">
    <tag k="addr:city" v="Searsburg"/>
    <tag k="addr:housenumber" v="68"/>
    <tag k="addr:street" v="Old Route 9"/>
    <tag k="addr:state" v="VT"/>
    <tag k="ref:vcgi:esiteid" v="217315"/>
  </node>
  <node id="-151" visible="true" lat="42.89160105" lon="-72.95243451">
    <tag k="addr:city" v="Searsburg"/>
    <tag k="addr:housenumber" v="36"/>
    <tag k="addr:street" v="Somerset Road"/>
    <tag k="addr:state" v="VT"/>
    <tag k="ref:vcgi:esiteid" v="217316"/>
  </node>
  <node id="-152" visible="true" lat="42.89155843" lon="-72.97454964">
    <tag k="addr:city" v="Searsburg"/>
    <tag k="addr:housenumber" v="57"/>
    <tag k="addr:street" v="Vermont Route 8"/>
    <tag k="addr:state" v="VT"/>
    <tag k="ref:vcgi:esiteid" v="217317"/>
  </node>
  <node id="-153" visible="true" lat="42.89136554" lon="-73.00258266">
    <tag k="addr:city" v="Searsburg"/>
    <tag k="addr:housenumber" v="70"/>
    <tag k="addr:street" v="Old Route 9"/>
    <tag k="addr:state" v="VT"/>
    <tag k="ref:vcgi:esiteid" v="217318"/>
  </node>
  <node id="-154" visible="true" lat="42.89124507" lon="-72.95288638">
    <tag k="addr:city" v="Searsburg"/>
    <tag k="addr:housenumber" v="30"/>
    <tag k="addr:street" v="Somerset Road"/>
    <tag k="addr:state" v="VT"/>
    <tag k="ref:vcgi:esiteid" v="217319"/>
  </node>
  <node id="-155" visible="true" lat="42.89108129" lon="-72.97419103">
    <tag k="addr:city" v="Searsburg"/>
    <tag k="addr:housenumber" v="64"/>
    <tag k="addr:street" v="Vermont Route 8"/>
    <tag k="addr:state" v="VT"/>
    <tag k="ref:vcgi:esiteid" v="217320"/>
  </node>
  <node id="-157" visible="true" lat="42.89071215" lon="-72.97296512">
    <tag k="addr:city" v="Searsburg"/>
    <tag k="addr:housenumber" v="72"/>
    <tag k="addr:street" v="Vermont Route 8"/>
    <tag k="addr:state" v="VT"/>
    <tag k="ref:vcgi:esiteid" v="217322"/>
  </node>
  <node id="-158" visible="true" lat="42.890687" lon="-72.97408734">
    <tag k="addr:city" v="Searsburg"/>
    <tag k="addr:housenumber" v="70"/>
    <tag k="addr:street" v="Vermont Route 8"/>
    <tag k="addr:state" v="VT"/>
    <tag k="ref:vcgi:esiteid" v="217323"/>
  </node>
  <node id="-159" visible="true" lat="42.8900976" lon="-72.9747449">
    <tag k="addr:city" v="Searsburg"/>
    <tag k="addr:housenumber" v="79"/>
    <tag k="addr:street" v="Vermont Route 8"/>
    <tag k="addr:state" v="VT"/>
    <tag k="ref:vcgi:esiteid" v="217326"/>
  </node>
  <node id="-161" visible="true" lat="42.88968971" lon="-72.97622994">
    <tag k="addr:city" v="Searsburg"/>
    <tag k="addr:housenumber" v="21"/>
    <tag k="addr:street" v="Putnam Road"/>
    <tag k="addr:state" v="VT"/>
    <tag k="ref:vcgi:esiteid" v="217328"/>
  </node>
  <node id="-163" visible="true" lat="42.88965395" lon="-72.97481753">
    <tag k="addr:city" v="Searsburg"/>
    <tag k="addr:housenumber" v="85"/>
    <tag k="addr:street" v="Vermont Route 8"/>
    <tag k="addr:state" v="VT"/>
    <tag k="ref:vcgi:esiteid" v="217330"/>
  </node>
  <node id="-170" visible="true" lat="42.88216797" lon="-72.97082064">
    <tag k="addr:city" v="Searsburg"/>
    <tag k="addr:housenumber" v="18"/>
    <tag k="addr:street" v="Hager Lane"/>
    <tag k="addr:state" v="VT"/>
    <tag k="ref:vcgi:esiteid" v="217337"/>
  </node>
  <node id="-172" visible="true" lat="42.88215274" lon="-72.97014369">
    <tag k="addr:city" v="Searsburg"/>
    <tag k="addr:housenumber" v="19"/>
    <tag k="addr:street" v="Hager Lane"/>
    <tag k="addr:state" v="VT"/>
    <tag k="ref:vcgi:esiteid" v="217339"/>
  </node>
  <node id="-173" visible="true" lat="42.88166725" lon="-72.97044551">
    <tag k="addr:city" v="Searsburg"/>
    <tag k="addr:housenumber" v="11"/>
    <tag k="addr:street" v="Hager Lane"/>
    <tag k="addr:state" v="VT"/>
    <tag k="ref:vcgi:esiteid" v="217340"/>
  </node>
  <node id="-174" visible="true" lat="42.88164976" lon="-72.95385006">
    <tag k="addr:city" v="Searsburg"/>
    <tag k="addr:housenumber" v="128"/>
    <tag k="addr:street" v="Sleepy Hollow Road"/>
    <tag k="addr:state" v="VT"/>
    <tag k="ref:vcgi:esiteid" v="217341"/>
  </node>
  <node id="-175" visible="true" lat="42.88125204" lon="-72.95440065">
    <tag k="addr:city" v="Searsburg"/>
    <tag k="addr:housenumber" v="135"/>
    <tag k="addr:street" v="Sleepy Hollow Road"/>
    <tag k="addr:state" v="VT"/>
    <tag k="ref:vcgi:esiteid" v="217342"/>
  </node>
  <node id="-176" visible="true" lat="42.88120048" lon="-72.95408923">
    <tag k="addr:city" v="Searsburg"/>
    <tag k="addr:housenumber" v="134"/>
    <tag k="addr:street" v="Sleepy Hollow Road"/>
    <tag k="addr:state" v="VT"/>
    <tag k="ref:vcgi:esiteid" v="217343"/>
  </node>
  <node id="-178" visible="true" lat="42.88013051" lon="-72.94626658">
    <tag k="addr:city" v="Searsburg"/>
    <tag k="addr:housenumber" v="101"/>
    <tag k="addr:street" v="Lind Lane"/>
    <tag k="addr:state" v="VT"/>
    <tag k="ref:vcgi:esiteid" v="217345"/>
  </node>
  <node id="-180" visible="true" lat="42.8797968" lon="-72.94521902">
    <tag k="addr:city" v="Searsburg"/>
    <tag k="addr:housenumber" v="97"/>
    <tag k="addr:street" v="Lind Lane"/>
    <tag k="addr:state" v="VT"/>
    <tag k="ref:vcgi:esiteid" v="217347"/>
  </node>
  <node id="-182" visible="true" lat="42.87906204" lon="-72.94317301">
    <tag k="addr:city" v="Searsburg"/>
    <tag k="addr:housenumber" v="71"/>
    <tag k="addr:street" v="Lind Lane"/>
    <tag k="addr:state" v="VT"/>
    <tag k="ref:vcgi:esiteid" v="217350"/>
  </node>
  <node id="-185" visible="true" lat="42.87348401" lon="-72.92824084">
    <tag k="addr:city" v="Searsburg"/>
    <tag k="addr:housenumber" v="693"/>
    <tag k="addr:street" v="Vermont Route 9 West"/>
    <tag k="addr:state" v="VT"/>
    <tag k="ref:vcgi:esiteid" v="217353"/>
  </node>
  <node id="-187" visible="true" lat="42.87277946" lon="-72.93753479">
    <tag k="addr:city" v="Searsburg"/>
    <tag k="addr:housenumber" v="789"/>
    <tag k="addr:street" v="Vermont Route 9 West"/>
    <tag k="addr:state" v="VT"/>
    <tag k="ref:vcgi:esiteid" v="217355"/>
  </node>
  <node id="-188" visible="true" lat="42.87273339" lon="-72.9257466">
    <tag k="addr:city" v="Searsburg"/>
    <tag k="addr:housenumber" v="665"/>
    <tag k="addr:street" v="Vermont Route 9 West"/>
    <tag k="addr:state" v="VT"/>
    <tag k="ref:vcgi:esiteid" v="217356"/>
  </node>
  <node id="-189" visible="true" lat="42.87253036" lon="-72.93592095">
    <tag k="addr:city" v="Searsburg"/>
    <tag k="addr:housenumber" v="771"/>
    <tag k="addr:street" v="Vermont Route 9 West"/>
    <tag k="addr:state" v="VT"/>
    <tag k="ref:vcgi:esiteid" v="217357"/>
  </node>
  <node id="-190" visible="true" lat="42.87222795" lon="-72.93191468">
    <tag k="addr:city" v="Searsburg"/>
    <tag k="addr:housenumber" v="725"/>
    <tag k="addr:street" v="Vermont Route 9 West"/>
    <tag k="addr:state" v="VT"/>
    <tag k="ref:vcgi:esiteid" v="217358"/>
  </node>
  <node id="-193" visible="true" lat="42.89725327" lon="-73.00211136">
    <tag k="addr:city" v="Searsburg"/>
    <tag k="addr:housenumber" v="66"/>
    <tag k="addr:street" v="Rake Branch Trail"/>
    <tag k="addr:state" v="VT"/>
    <tag k="ref:vcgi:esiteid" v="217361"/>
  </node>
  <node id="-194" visible="true" lat="42.89756978" lon="-73.00173658">
    <tag k="addr:city" v="Searsburg"/>
    <tag k="addr:housenumber" v="68"/>
    <tag k="addr:street" v="Rake Branch Trail"/>
    <tag k="addr:state" v="VT"/>
    <tag k="ref:vcgi:esiteid" v="217362"/>
  </node>
  <node id="-195" visible="true" lat="42.89763418" lon="-73.00215948">
    <tag k="addr:city" v="Searsburg"/>
    <tag k="addr:housenumber" v="70"/>
    <tag k="addr:street" v="Rake Branch Trail"/>
    <tag k="addr:state" v="VT"/>
    <tag k="ref:vcgi:esiteid" v="217363"/>
  </node>
  <node id="-198" visible="true" lat="42.89656122" lon="-73.00214792">
    <tag k="addr:city" v="Searsburg"/>
    <tag k="addr:housenumber" v="72"/>
    <tag k="addr:street" v="Rake Branch Trail"/>
    <tag k="addr:state" v="VT"/>
    <tag k="ref:vcgi:esiteid" v="217367"/>
  </node>
  <node id="-201" visible="true" lat="42.89640463" lon="-72.98473584">
    <tag k="addr:city" v="Searsburg"/>
    <tag k="addr:housenumber" v="1549"/>
    <tag k="addr:street" v="Vermont Route 9 West"/>
    <tag k="addr:state" v="VT"/>
    <tag k="ref:vcgi:esiteid" v="217370"/>
  </node>
  <node id="-207" visible="true" lat="42.89274211" lon="-72.97476912">
    <tag k="addr:city" v="Searsburg"/>
    <tag k="addr:housenumber" v="36"/>
    <tag k="addr:street" v="Vermont Route 8"/>
    <tag k="addr:state" v="VT"/>
    <tag k="ref:vcgi:esiteid" v="217376"/>
  </node>
  <node id="-208" visible="true" lat="42.85988207" lon="-72.97333031">
    <tag k="addr:city" v="Searsburg"/>
    <tag k="addr:housenumber" v="528"/>
    <tag k="addr:street" v="Sleepy Hollow Road"/>
    <tag k="addr:state" v="VT"/>
    <tag k="ref:vcgi:esiteid" v="217377"/>
  </node>
  <node id="-209" visible="true" lat="42.88625794" lon="-72.95336557">
    <tag k="addr:city" v="Searsburg"/>
    <tag k="addr:housenumber" v="24"/>
    <tag k="addr:street" v="Sleepy Hollow Road"/>
    <tag k="addr:state" v="VT"/>
    <tag k="ref:vcgi:esiteid" v="315277"/>
  </node>
  <node id="-216" visible="true" lat="42.87942034" lon="-72.97378432">
    <tag k="addr:city" v="Searsburg"/>
    <tag k="addr:housenumber" v="33"/>
    <tag k="addr:street" v="Bond Brook Way"/>
    <tag k="addr:state" v="VT"/>
    <tag k="ref:vcgi:esiteid" v="446996"/>
  </node>
  <node id="-220" visible="true" lat="42.88765984" lon="-72.95417575">
    <tag k="addr:city" v="Searsburg"/>
    <tag k="addr:housenumber" v="17"/>
    <tag k="addr:street" v="Sleepy Hollow Road"/>
    <tag k="addr:state" v="VT"/>
    <tag k="ref:vcgi:esiteid" v="453016"/>
  </node>
  <node id="-224" visible="true" lat="42.91648041" lon="-72.95987202">
    <tag k="addr:city" v="Searsburg"/>
    <tag k="addr:housenumber" v="571"/>
    <tag k="addr:street" v="Somerset Road"/>
    <tag k="addr:state" v="VT"/>
    <tag k="ref:vcgi:esiteid" v="612507"/>
  </node>
  <node id="-242" visible="true" lat="42.87327857" lon="-72.93311004">
    <tag k="addr:city" v="Searsburg"/>
    <tag k="addr:housenumber" v="749"/>
    <tag k="addr:street" v="Vermont Route 9 West"/>
    <tag k="addr:state" v="VT"/>
    <tag k="ref:vcgi:esiteid" v="759032"/>
  </node>
  <node id="-243" visible="true" lat="42.87211305" lon="-72.93029826">
    <tag k="addr:city" v="Searsburg"/>
    <tag k="addr:housenumber" v="699"/>
    <tag k="addr:street" v="Vermont Route 9 West"/>
    <tag k="addr:state" v="VT"/>
    <tag k="ref:vcgi:esiteid" v="759033"/>
  </node>
  <node id="-251" visible="true" lat="42.89464958" lon="-72.97570639">
    <tag k="addr:city" v="Searsburg"/>
    <tag k="addr:housenumber" v="4"/>
    <tag k="addr:street" v="Vermont Route 8"/>
    <tag k="addr:state" v="VT"/>
    <tag k="ref:vcgi:esiteid" v="900032"/>
  </node>
  <node id="-254" visible="true" lat="42.91233078" lon="-72.9517789">
    <tag k="addr:city" v="Searsburg"/>
    <tag k="addr:housenumber" v="389"/>
    <tag k="addr:street" v="Somerset Road"/>
    <tag k="addr:state" v="VT"/>
    <tag k="ref:vcgi:esiteid" v="900288"/>
  </node>
</osm>
