<?xml version="1.0" encoding="UTF-8"?>
<osm version="0.6" generator="JOSM">
  <node id="-100" visible="true" lat="43.0068311" lon="-73.15527617">
    <tag k="addr:city" v="Shaftsbury"/>
    <tag k="addr:housenumber" v="5654"/>
    <tag k="addr:street" v="East Road"/>
    <tag k="addr:state" v="VT"/>
    <tag k="ref:vcgi:esiteid" v="28"/>
  </node>
  <node id="-111" visible="true" lat="43.02576446" lon="-73.16856384">
    <tag k="addr:city" v="Shaftsbury"/>
    <tag k="addr:housenumber" v="1922"/>
    <tag k="addr:street" v="Old Depot Road"/>
    <tag k="addr:state" v="VT"/>
    <tag k="ref:vcgi:esiteid" v="217385"/>
  </node>
  <node id="-113" visible="true" lat="43.02546681" lon="-73.16663439">
    <tag k="addr:city" v="Shaftsbury"/>
    <tag k="addr:housenumber" v="1984"/>
    <tag k="addr:street" v="Old Depot Road"/>
    <tag k="addr:state" v="VT"/>
    <tag k="ref:vcgi:esiteid" v="217387"/>
  </node>
  <node id="-120" visible="true" lat="43.02462383" lon="-73.1583308">
    <tag k="addr:city" v="Shaftsbury"/>
    <tag k="addr:housenumber" v="2843"/>
    <tag k="addr:street" v="Maple Hill Road"/>
    <tag k="addr:state" v="VT"/>
    <tag k="ref:vcgi:esiteid" v="217394"/>
  </node>
  <node id="-126" visible="true" lat="43.02346193" lon="-73.17197608">
    <tag k="addr:city" v="Shaftsbury"/>
    <tag k="addr:housenumber" v="1657"/>
    <tag k="addr:street" v="Old Depot Road"/>
    <tag k="addr:state" v="VT"/>
    <tag k="ref:vcgi:esiteid" v="217400"/>
  </node>
  <node id="-130" visible="true" lat="43.02271191" lon="-73.15848084">
    <tag k="addr:city" v="Shaftsbury"/>
    <tag k="addr:housenumber" v="2720"/>
    <tag k="addr:street" v="Maple Hill Road"/>
    <tag k="addr:state" v="VT"/>
    <tag k="ref:vcgi:esiteid" v="217404"/>
  </node>
  <node id="-135" visible="true" lat="43.02199116" lon="-73.17597135">
    <tag k="addr:city" v="Shaftsbury"/>
    <tag k="addr:housenumber" v="1377"/>
    <tag k="addr:street" v="Old Depot Road"/>
    <tag k="addr:state" v="VT"/>
    <tag k="ref:vcgi:esiteid" v="217409"/>
  </node>
  <node id="-138" visible="true" lat="43.02164855" lon="-73.15895078">
    <tag k="addr:city" v="Shaftsbury"/>
    <tag k="addr:housenumber" v="2640"/>
    <tag k="addr:street" v="Maple Hill Road"/>
    <tag k="addr:state" v="VT"/>
    <tag k="ref:vcgi:esiteid" v="217412"/>
  </node>
  <node id="-139" visible="true" lat="43.02136634" lon="-73.17415856">
    <tag k="addr:city" v="Shaftsbury"/>
    <tag k="addr:housenumber" v="1480"/>
    <tag k="addr:street" v="Old Depot Road"/>
    <tag k="addr:state" v="VT"/>
    <tag k="ref:vcgi:esiteid" v="217413"/>
  </node>
  <node id="-141" visible="true" lat="43.02113504" lon="-73.16106583">
    <tag k="addr:city" v="Shaftsbury"/>
    <tag k="addr:housenumber" v="2595"/>
    <tag k="addr:street" v="Maple Hill Road"/>
    <tag k="addr:state" v="VT"/>
    <tag k="ref:vcgi:esiteid" v="217415"/>
  </node>
  <node id="-142" visible="true" lat="43.02088773" lon="-73.17472049">
    <tag k="addr:city" v="Shaftsbury"/>
    <tag k="addr:housenumber" v="1412"/>
    <tag k="addr:street" v="Old Depot Road"/>
    <tag k="addr:state" v="VT"/>
    <tag k="ref:vcgi:esiteid" v="217416"/>
  </node>
  <node id="-144" visible="true" lat="43.02047038" lon="-73.17583707">
    <tag k="addr:city" v="Shaftsbury"/>
    <tag k="addr:housenumber" v="1370"/>
    <tag k="addr:street" v="Old Depot Road"/>
    <tag k="addr:state" v="VT"/>
    <tag k="ref:vcgi:esiteid" v="217418"/>
  </node>
  <node id="-146" visible="true" lat="43.02048629" lon="-73.17321993">
    <tag k="addr:city" v="Shaftsbury"/>
    <tag k="addr:housenumber" v="122"/>
    <tag k="addr:street" v="Sugar House Road"/>
    <tag k="addr:state" v="VT"/>
    <tag k="ref:vcgi:esiteid" v="217420"/>
  </node>
  <node id="-147" visible="true" lat="43.01900671" lon="-73.17250531">
    <tag k="addr:city" v="Shaftsbury"/>
    <tag k="addr:housenumber" v="217"/>
    <tag k="addr:street" v="Sugar House Road"/>
    <tag k="addr:state" v="VT"/>
    <tag k="ref:vcgi:esiteid" v="217421"/>
  </node>
  <node id="-148" visible="true" lat="43.01906585" lon="-73.17958068">
    <tag k="addr:city" v="Shaftsbury"/>
    <tag k="addr:housenumber" v="1139"/>
    <tag k="addr:street" v="Old Depot Road"/>
    <tag k="addr:state" v="VT"/>
    <tag k="ref:vcgi:esiteid" v="217422"/>
  </node>
  <node id="-151" visible="true" lat="43.01901249" lon="-73.1766811">
    <tag k="addr:city" v="Shaftsbury"/>
    <tag k="addr:housenumber" v="1264"/>
    <tag k="addr:street" v="Old Depot Road"/>
    <tag k="addr:state" v="VT"/>
    <tag k="ref:vcgi:esiteid" v="217425"/>
  </node>
  <node id="-153" visible="true" lat="43.01890945" lon="-73.16108703">
    <tag k="addr:city" v="Shaftsbury"/>
    <tag k="addr:housenumber" v="2425"/>
    <tag k="addr:street" v="Maple Hill Road"/>
    <tag k="addr:state" v="VT"/>
    <tag k="ref:vcgi:esiteid" v="217427"/>
  </node>
  <node id="-155" visible="true" lat="43.01832879" lon="-73.17747548">
    <tag k="addr:city" v="Shaftsbury"/>
    <tag k="addr:housenumber" v="1204"/>
    <tag k="addr:street" v="Old Depot Road"/>
    <tag k="addr:state" v="VT"/>
    <tag k="ref:vcgi:esiteid" v="217429"/>
  </node>
  <node id="-156" visible="true" lat="43.01825152" lon="-73.17948182">
    <tag k="addr:city" v="Shaftsbury"/>
    <tag k="addr:housenumber" v="1111"/>
    <tag k="addr:street" v="Old Depot Road"/>
    <tag k="addr:state" v="VT"/>
    <tag k="ref:vcgi:esiteid" v="217430"/>
  </node>
  <node id="-158" visible="true" lat="43.01763017" lon="-73.18004864">
    <tag k="addr:city" v="Shaftsbury"/>
    <tag k="addr:housenumber" v="1093"/>
    <tag k="addr:street" v="Old Depot Road"/>
    <tag k="addr:state" v="VT"/>
    <tag k="ref:vcgi:esiteid" v="217432"/>
  </node>
  <node id="-160" visible="true" lat="43.01755495" lon="-73.17850785">
    <tag k="addr:city" v="Shaftsbury"/>
    <tag k="addr:housenumber" v="1130"/>
    <tag k="addr:street" v="Old Depot Road"/>
    <tag k="addr:state" v="VT"/>
    <tag k="ref:vcgi:esiteid" v="217434"/>
  </node>
  <node id="-165" visible="true" lat="43.01688766" lon="-73.16067504">
    <tag k="addr:city" v="Shaftsbury"/>
    <tag k="addr:housenumber" v="2284"/>
    <tag k="addr:street" v="Maple Hill Road"/>
    <tag k="addr:state" v="VT"/>
    <tag k="ref:vcgi:esiteid" v="217439"/>
  </node>
  <node id="-166" visible="true" lat="43.01653289" lon="-73.16106414">
    <tag k="addr:city" v="Shaftsbury"/>
    <tag k="addr:housenumber" v="2261"/>
    <tag k="addr:street" v="Maple Hill Road"/>
    <tag k="addr:state" v="VT"/>
    <tag k="ref:vcgi:esiteid" v="217440"/>
  </node>
  <node id="-168" visible="true" lat="43.01547937" lon="-73.18119698">
    <tag k="addr:city" v="Shaftsbury"/>
    <tag k="addr:housenumber" v="926"/>
    <tag k="addr:street" v="Old Depot Road"/>
    <tag k="addr:state" v="VT"/>
    <tag k="ref:vcgi:esiteid" v="217442"/>
  </node>
  <node id="-169" visible="true" lat="43.01521464" lon="-73.1818235">
    <tag k="addr:city" v="Shaftsbury"/>
    <tag k="addr:housenumber" v="898"/>
    <tag k="addr:street" v="Old Depot Road"/>
    <tag k="addr:state" v="VT"/>
    <tag k="ref:vcgi:esiteid" v="217443"/>
  </node>
  <node id="-171" visible="true" lat="43.01484758" lon="-73.17655008">
    <tag k="addr:city" v="Shaftsbury"/>
    <tag k="addr:housenumber" v="209"/>
    <tag k="addr:street" v="Jack Cross Road"/>
    <tag k="addr:state" v="VT"/>
    <tag k="ref:vcgi:esiteid" v="217445"/>
  </node>
  <node id="-172" visible="true" lat="43.01468258" lon="-73.18255349">
    <tag k="addr:city" v="Shaftsbury"/>
    <tag k="addr:housenumber" v="846"/>
    <tag k="addr:street" v="Old Depot Road"/>
    <tag k="addr:state" v="VT"/>
    <tag k="ref:vcgi:esiteid" v="217446"/>
  </node>
  <node id="-173" visible="true" lat="43.01479336" lon="-73.1634247">
    <tag k="addr:city" v="Shaftsbury"/>
    <tag k="addr:housenumber" v="2231"/>
    <tag k="addr:street" v="Maple Hill Road"/>
    <tag k="addr:state" v="VT"/>
    <tag k="ref:vcgi:esiteid" v="217447"/>
  </node>
  <node id="-174" visible="true" lat="43.01457595" lon="-73.1831665">
    <tag k="addr:city" v="Shaftsbury"/>
    <tag k="addr:housenumber" v="817"/>
    <tag k="addr:street" v="Old Depot Road"/>
    <tag k="addr:state" v="VT"/>
    <tag k="ref:vcgi:esiteid" v="217448"/>
  </node>
  <node id="-176" visible="true" lat="43.01439285" lon="-73.18288421">
    <tag k="addr:city" v="Shaftsbury"/>
    <tag k="addr:housenumber" v="818"/>
    <tag k="addr:street" v="Old Depot Road"/>
    <tag k="addr:state" v="VT"/>
    <tag k="ref:vcgi:esiteid" v="217450"/>
  </node>
  <node id="-177" visible="true" lat="43.01442794" lon="-73.16090226">
    <tag k="addr:city" v="Shaftsbury"/>
    <tag k="addr:housenumber" v="2118"/>
    <tag k="addr:street" v="Maple Hill Road"/>
    <tag k="addr:state" v="VT"/>
    <tag k="ref:vcgi:esiteid" v="217451"/>
  </node>
  <node id="-178" visible="true" lat="43.0143486" lon="-73.18096504">
    <tag k="addr:city" v="Shaftsbury"/>
    <tag k="addr:housenumber" v="207"/>
    <tag k="addr:street" v="Maple Hill Road"/>
    <tag k="addr:state" v="VT"/>
    <tag k="ref:vcgi:esiteid" v="217452"/>
  </node>
  <node id="-179" visible="true" lat="43.01425504" lon="-73.18369457">
    <tag k="addr:city" v="Shaftsbury"/>
    <tag k="addr:housenumber" v="781"/>
    <tag k="addr:street" v="Old Depot Road"/>
    <tag k="addr:state" v="VT"/>
    <tag k="ref:vcgi:esiteid" v="217453"/>
  </node>
  <node id="-180" visible="true" lat="43.01422309" lon="-73.17824261">
    <tag k="addr:city" v="Shaftsbury"/>
    <tag k="addr:housenumber" v="250"/>
    <tag k="addr:street" v="Jack Cross Road"/>
    <tag k="addr:state" v="VT"/>
    <tag k="ref:vcgi:esiteid" v="217454"/>
  </node>
  <node id="-182" visible="true" lat="43.01380458" lon="-73.1830674">
    <tag k="addr:city" v="Shaftsbury"/>
    <tag k="addr:housenumber" v="99"/>
    <tag k="addr:street" v="Maple Hill Road"/>
    <tag k="addr:state" v="VT"/>
    <tag k="ref:vcgi:esiteid" v="217456"/>
  </node>
  <node id="-183" visible="true" lat="43.01345062" lon="-73.18413543">
    <tag k="addr:city" v="Shaftsbury"/>
    <tag k="addr:housenumber" v="726"/>
    <tag k="addr:street" v="Old Depot Road"/>
    <tag k="addr:state" v="VT"/>
    <tag k="ref:vcgi:esiteid" v="217457"/>
  </node>
  <node id="-184" visible="true" lat="43.01350203" lon="-73.18209171">
    <tag k="addr:city" v="Shaftsbury"/>
    <tag k="addr:housenumber" v="163"/>
    <tag k="addr:street" v="Maple Hill Road"/>
    <tag k="addr:state" v="VT"/>
    <tag k="ref:vcgi:esiteid" v="217458"/>
  </node>
  <node id="-185" visible="true" lat="43.01342436" lon="-73.18291204">
    <tag k="addr:city" v="Shaftsbury"/>
    <tag k="addr:housenumber" v="121"/>
    <tag k="addr:street" v="Maple Hill Road"/>
    <tag k="addr:state" v="VT"/>
    <tag k="ref:vcgi:esiteid" v="217459"/>
  </node>
  <node id="-186" visible="true" lat="43.01339986" lon="-73.1836737">
    <tag k="addr:city" v="Shaftsbury"/>
    <tag k="addr:housenumber" v="83"/>
    <tag k="addr:street" v="Maple Hill Road"/>
    <tag k="addr:state" v="VT"/>
    <tag k="ref:vcgi:esiteid" v="217460"/>
  </node>
  <node id="-187" visible="true" lat="43.01326744" lon="-73.17840193">
    <tag k="addr:city" v="Shaftsbury"/>
    <tag k="addr:housenumber" v="351"/>
    <tag k="addr:street" v="Maple Hill Road"/>
    <tag k="addr:state" v="VT"/>
    <tag k="ref:vcgi:esiteid" v="217461"/>
  </node>
  <node id="-189" visible="true" lat="43.01289321" lon="-73.18779468">
    <tag k="addr:city" v="Shaftsbury"/>
    <tag k="addr:housenumber" v="533"/>
    <tag k="addr:street" v="Old Depot Road"/>
    <tag k="addr:state" v="VT"/>
    <tag k="ref:vcgi:esiteid" v="217463"/>
  </node>
  <node id="-190" visible="true" lat="43.0127695" lon="-73.18929782">
    <tag k="addr:city" v="Shaftsbury"/>
    <tag k="addr:housenumber" v="455"/>
    <tag k="addr:street" v="Old Depot Road"/>
    <tag k="addr:state" v="VT"/>
    <tag k="ref:vcgi:esiteid" v="217464"/>
  </node>
  <node id="-192" visible="true" lat="43.01274968" lon="-73.18349884">
    <tag k="addr:city" v="Shaftsbury"/>
    <tag k="addr:housenumber" v="78"/>
    <tag k="addr:street" v="Maple Hill Road"/>
    <tag k="addr:state" v="VT"/>
    <tag k="ref:vcgi:esiteid" v="217466"/>
  </node>
  <node id="-193" visible="true" lat="43.01275791" lon="-73.18459663">
    <tag k="addr:city" v="Shaftsbury"/>
    <tag k="addr:housenumber" v="66"/>
    <tag k="addr:street" v="Maple Hill Road"/>
    <tag k="addr:state" v="VT"/>
    <tag k="ref:vcgi:esiteid" v="217467"/>
  </node>
  <node id="-194" visible="true" lat="43.01259726" lon="-73.18934611">
    <tag k="addr:city" v="Shaftsbury"/>
    <tag k="addr:housenumber" v="453"/>
    <tag k="addr:street" v="Old Depot Road"/>
    <tag k="addr:state" v="VT"/>
    <tag k="ref:vcgi:esiteid" v="217468"/>
  </node>
  <node id="-197" visible="true" lat="43.01218034" lon="-73.188874">
    <tag k="addr:city" v="Shaftsbury"/>
    <tag k="addr:housenumber" v="475"/>
    <tag k="addr:street" v="Old Depot Road"/>
    <tag k="addr:state" v="VT"/>
    <tag k="ref:vcgi:esiteid" v="217471"/>
  </node>
  <node id="-198" visible="true" lat="43.01237559" lon="-73.16319032">
    <tag k="addr:city" v="Shaftsbury"/>
    <tag k="addr:housenumber" v="1987"/>
    <tag k="addr:street" v="Maple Hill Road"/>
    <tag k="addr:state" v="VT"/>
    <tag k="ref:vcgi:esiteid" v="217472"/>
  </node>
  <node id="-199" visible="true" lat="43.01194018" lon="-73.18850683">
    <tag k="addr:city" v="Shaftsbury"/>
    <tag k="addr:housenumber" v="482"/>
    <tag k="addr:street" v="Old Depot Road"/>
    <tag k="addr:state" v="VT"/>
    <tag k="ref:vcgi:esiteid" v="217473"/>
  </node>
  <node id="-200" visible="true" lat="43.01180396" lon="-73.18778383">
    <tag k="addr:city" v="Shaftsbury"/>
    <tag k="addr:housenumber" v="508"/>
    <tag k="addr:street" v="Old Depot Road"/>
    <tag k="addr:state" v="VT"/>
    <tag k="ref:vcgi:esiteid" v="217474"/>
  </node>
  <node id="-201" visible="true" lat="43.01141794" lon="-73.17531354">
    <tag k="addr:city" v="Shaftsbury"/>
    <tag k="addr:housenumber" v="580"/>
    <tag k="addr:street" v="Maple Hill Road"/>
    <tag k="addr:state" v="VT"/>
    <tag k="ref:vcgi:esiteid" v="217475"/>
  </node>
  <node id="-202" visible="true" lat="43.0106884" lon="-73.18976635">
    <tag k="addr:city" v="Shaftsbury"/>
    <tag k="addr:housenumber" v="364"/>
    <tag k="addr:street" v="Old Depot Road"/>
    <tag k="addr:state" v="VT"/>
    <tag k="ref:vcgi:esiteid" v="217476"/>
  </node>
  <node id="-206" visible="true" lat="43.01032496" lon="-73.16367695">
    <tag k="addr:city" v="Shaftsbury"/>
    <tag k="addr:housenumber" v="1799"/>
    <tag k="addr:street" v="Maple Hill Road"/>
    <tag k="addr:state" v="VT"/>
    <tag k="ref:vcgi:esiteid" v="217480"/>
  </node>
  <node id="-210" visible="true" lat="43.00972366" lon="-73.19049072">
    <tag k="addr:city" v="Shaftsbury"/>
    <tag k="addr:housenumber" v="314"/>
    <tag k="addr:street" v="Old Depot Road"/>
    <tag k="addr:state" v="VT"/>
    <tag k="ref:vcgi:esiteid" v="217484"/>
  </node>
  <node id="-212" visible="true" lat="43.00937119" lon="-73.19072938">
    <tag k="addr:city" v="Shaftsbury"/>
    <tag k="addr:housenumber" v="258"/>
    <tag k="addr:street" v="Old Depot Road"/>
    <tag k="addr:state" v="VT"/>
    <tag k="ref:vcgi:esiteid" v="217486"/>
  </node>
  <node id="-214" visible="true" lat="43.00889145" lon="-73.1590185">
    <tag k="addr:city" v="Shaftsbury"/>
    <tag k="addr:housenumber" v="5777"/>
    <tag k="addr:street" v="East Road"/>
    <tag k="addr:state" v="VT"/>
    <tag k="ref:vcgi:esiteid" v="217488"/>
  </node>
  <node id="-216" visible="true" lat="43.00855054" lon="-73.19149852">
    <tag k="addr:city" v="Shaftsbury"/>
    <tag k="addr:housenumber" v="192"/>
    <tag k="addr:street" v="Old Depot Road"/>
    <tag k="addr:state" v="VT"/>
    <tag k="ref:vcgi:esiteid" v="217490"/>
  </node>
  <node id="-219" visible="true" lat="43.00854348" lon="-73.17296866">
    <tag k="addr:city" v="Shaftsbury"/>
    <tag k="addr:housenumber" v="586"/>
    <tag k="addr:street" v="Maple Hill Road"/>
    <tag k="addr:state" v="VT"/>
    <tag k="ref:vcgi:esiteid" v="217493"/>
  </node>
  <node id="-220" visible="true" lat="43.0085583" lon="-73.18895396">
    <tag k="addr:city" v="Shaftsbury"/>
    <tag k="addr:housenumber" v="150"/>
    <tag k="addr:street" v="Dexter Road"/>
    <tag k="addr:state" v="VT"/>
    <tag k="ref:vcgi:esiteid" v="217494"/>
  </node>
  <node id="-223" visible="true" lat="43.00830872" lon="-73.15688056">
    <tag k="addr:city" v="Shaftsbury"/>
    <tag k="addr:housenumber" v="5696"/>
    <tag k="addr:street" v="East Road"/>
    <tag k="addr:state" v="VT"/>
    <tag k="ref:vcgi:esiteid" v="217497"/>
  </node>
  <node id="-225" visible="true" lat="43.00747151" lon="-73.19977151">
    <tag k="addr:city" v="Shaftsbury"/>
    <tag k="addr:housenumber" v="332"/>
    <tag k="addr:street" v="Birch Hill Road"/>
    <tag k="addr:state" v="VT"/>
    <tag k="ref:vcgi:esiteid" v="217499"/>
  </node>
  <node id="-226" visible="true" lat="43.00749253" lon="-73.19720448">
    <tag k="addr:city" v="Shaftsbury"/>
    <tag k="addr:housenumber" v="200"/>
    <tag k="addr:street" v="Birch Hill Road"/>
    <tag k="addr:state" v="VT"/>
    <tag k="ref:vcgi:esiteid" v="217500"/>
  </node>
  <node id="-228" visible="true" lat="43.00692316" lon="-73.19924801">
    <tag k="addr:city" v="Shaftsbury"/>
    <tag k="addr:housenumber" v="327"/>
    <tag k="addr:street" v="Birch Hill Road"/>
    <tag k="addr:state" v="VT"/>
    <tag k="ref:vcgi:esiteid" v="217502"/>
  </node>
  <node id="-229" visible="true" lat="43.00691396" lon="-73.18363807">
    <tag k="addr:city" v="Shaftsbury"/>
    <tag k="addr:housenumber" v="471"/>
    <tag k="addr:street" v="Dexter Road"/>
    <tag k="addr:state" v="VT"/>
    <tag k="ref:vcgi:esiteid" v="217503"/>
  </node>
  <node id="-230" visible="true" lat="43.00656762" lon="-73.20172744">
    <tag k="addr:city" v="Shaftsbury"/>
    <tag k="addr:housenumber" v="455"/>
    <tag k="addr:street" v="Birch Hill Road"/>
    <tag k="addr:state" v="VT"/>
    <tag k="ref:vcgi:esiteid" v="217504"/>
  </node>
  <node id="-232" visible="true" lat="43.00718728" lon="-73.18546979">
    <tag k="addr:city" v="Shaftsbury"/>
    <tag k="addr:housenumber" v="367"/>
    <tag k="addr:street" v="Dexter Road"/>
    <tag k="addr:state" v="VT"/>
    <tag k="ref:vcgi:esiteid" v="217506"/>
  </node>
  <node id="-233" visible="true" lat="43.00653097" lon="-73.18716">
    <tag k="addr:city" v="Shaftsbury"/>
    <tag k="addr:housenumber" v="316"/>
    <tag k="addr:street" v="Dexter Road"/>
    <tag k="addr:state" v="VT"/>
    <tag k="ref:vcgi:esiteid" v="217507"/>
  </node>
  <node id="-234" visible="true" lat="43.00656412" lon="-73.19783725">
    <tag k="addr:city" v="Shaftsbury"/>
    <tag k="addr:housenumber" v="249"/>
    <tag k="addr:street" v="Birch Hill Road"/>
    <tag k="addr:state" v="VT"/>
    <tag k="ref:vcgi:esiteid" v="217508"/>
  </node>
  <node id="-238" visible="true" lat="43.00598689" lon="-73.16101412">
    <tag k="addr:city" v="Shaftsbury"/>
    <tag k="addr:housenumber" v="5673"/>
    <tag k="addr:street" v="East Road"/>
    <tag k="addr:state" v="VT"/>
    <tag k="ref:vcgi:esiteid" v="217512"/>
  </node>
  <node id="-248" visible="true" lat="43.00485914" lon="-73.18129988">
    <tag k="addr:city" v="Shaftsbury"/>
    <tag k="addr:housenumber" v="636"/>
    <tag k="addr:street" v="Dexter Road"/>
    <tag k="addr:state" v="VT"/>
    <tag k="ref:vcgi:esiteid" v="217522"/>
  </node>
  <node id="-249" visible="true" lat="43.00500976" lon="-73.16740787">
    <tag k="addr:city" v="Shaftsbury"/>
    <tag k="addr:housenumber" v="1325"/>
    <tag k="addr:street" v="Maple Hill Road"/>
    <tag k="addr:state" v="VT"/>
    <tag k="ref:vcgi:esiteid" v="217523"/>
  </node>
  <node id="-266" visible="true" lat="43.0038948" lon="-73.15721893">
    <tag k="addr:city" v="Shaftsbury"/>
    <tag k="addr:housenumber" v="16"/>
    <tag k="addr:street" v="Glastenbury Road"/>
    <tag k="addr:state" v="VT"/>
    <tag k="ref:vcgi:esiteid" v="217540"/>
  </node>
  <node id="-275" visible="true" lat="43.00296843" lon="-73.16813941">
    <tag k="addr:city" v="Shaftsbury"/>
    <tag k="addr:housenumber" v="2725"/>
    <tag k="addr:street" v="Cider Mill Road"/>
    <tag k="addr:state" v="VT"/>
    <tag k="ref:vcgi:esiteid" v="217549"/>
  </node>
  <node id="-281" visible="true" lat="43.00214254" lon="-73.19593378">
    <tag k="addr:city" v="Shaftsbury"/>
    <tag k="addr:housenumber" v="48"/>
    <tag k="addr:street" v="Hidden Valley Road"/>
    <tag k="addr:state" v="VT"/>
    <tag k="ref:vcgi:esiteid" v="217555"/>
  </node>
  <node id="-291" visible="true" lat="43.00165462" lon="-73.19039095">
    <tag k="addr:city" v="Shaftsbury"/>
    <tag k="addr:housenumber" v="1688"/>
    <tag k="addr:street" v="Hidden Valley Road"/>
    <tag k="addr:state" v="VT"/>
    <tag k="ref:vcgi:esiteid" v="217565"/>
  </node>
  <node id="-293" visible="true" lat="43.00121427" lon="-73.189138">
    <tag k="addr:city" v="Shaftsbury"/>
    <tag k="addr:housenumber" v="1602"/>
    <tag k="addr:street" v="Hidden Valley Road"/>
    <tag k="addr:state" v="VT"/>
    <tag k="ref:vcgi:esiteid" v="217567"/>
  </node>
  <node id="-298" visible="true" lat="43.00077364" lon="-73.19101791">
    <tag k="addr:city" v="Shaftsbury"/>
    <tag k="addr:housenumber" v="1707"/>
    <tag k="addr:street" v="Hidden Valley Road"/>
    <tag k="addr:state" v="VT"/>
    <tag k="ref:vcgi:esiteid" v="217572"/>
  </node>
  <node id="-300" visible="true" lat="43.00068646" lon="-73.16812202">
    <tag k="addr:city" v="Shaftsbury"/>
    <tag k="addr:housenumber" v="2560"/>
    <tag k="addr:street" v="Cider Mill Road"/>
    <tag k="addr:state" v="VT"/>
    <tag k="ref:vcgi:esiteid" v="217574"/>
  </node>
  <node id="-301" visible="true" lat="43.00038916" lon="-73.18976841">
    <tag k="addr:city" v="Shaftsbury"/>
    <tag k="addr:housenumber" v="1631"/>
    <tag k="addr:street" v="Hidden Valley Road"/>
    <tag k="addr:state" v="VT"/>
    <tag k="ref:vcgi:esiteid" v="217575"/>
  </node>
  <node id="-304" visible="true" lat="43.00035035" lon="-73.19350527">
    <tag k="addr:city" v="Shaftsbury"/>
    <tag k="addr:housenumber" v="253"/>
    <tag k="addr:street" v="Hidden Valley Road"/>
    <tag k="addr:state" v="VT"/>
    <tag k="ref:vcgi:esiteid" v="217578"/>
  </node>
  <node id="-306" visible="true" lat="43.00023792" lon="-73.18859882">
    <tag k="addr:city" v="Shaftsbury"/>
    <tag k="addr:housenumber" v="1525"/>
    <tag k="addr:street" v="Hidden Valley Road"/>
    <tag k="addr:state" v="VT"/>
    <tag k="ref:vcgi:esiteid" v="217580"/>
  </node>
  <node id="-307" visible="true" lat="43.00030096" lon="-73.19169915">
    <tag k="addr:city" v="Shaftsbury"/>
    <tag k="addr:housenumber" v="129"/>
    <tag k="addr:street" v="Pine Circle"/>
    <tag k="addr:state" v="VT"/>
    <tag k="ref:vcgi:esiteid" v="217581"/>
  </node>
  <node id="-309" visible="true" lat="43.00009918" lon="-73.19421386">
    <tag k="addr:city" v="Shaftsbury"/>
    <tag k="addr:housenumber" v="270"/>
    <tag k="addr:street" v="Hidden Valley Road"/>
    <tag k="addr:state" v="VT"/>
    <tag k="ref:vcgi:esiteid" v="217583"/>
  </node>
  <node id="-310" visible="true" lat="43.00015312" lon="-73.15721935">
    <tag k="addr:city" v="Shaftsbury"/>
    <tag k="addr:housenumber" v="5148"/>
    <tag k="addr:street" v="East Road"/>
    <tag k="addr:state" v="VT"/>
    <tag k="ref:vcgi:esiteid" v="217584"/>
  </node>
  <node id="-313" visible="true" lat="42.99966346" lon="-73.18792341">
    <tag k="addr:city" v="Shaftsbury"/>
    <tag k="addr:housenumber" v="1475"/>
    <tag k="addr:street" v="Hidden Valley Road"/>
    <tag k="addr:state" v="VT"/>
    <tag k="ref:vcgi:esiteid" v="217587"/>
  </node>
  <node id="-314" visible="true" lat="42.99953682" lon="-73.18690224">
    <tag k="addr:city" v="Shaftsbury"/>
    <tag k="addr:housenumber" v="1460"/>
    <tag k="addr:street" v="Hidden Valley Road"/>
    <tag k="addr:state" v="VT"/>
    <tag k="ref:vcgi:esiteid" v="217588"/>
  </node>
  <node id="-315" visible="true" lat="42.99982554" lon="-73.16868068">
    <tag k="addr:city" v="Shaftsbury"/>
    <tag k="addr:housenumber" v="2480"/>
    <tag k="addr:street" v="Cider Mill Road"/>
    <tag k="addr:state" v="VT"/>
    <tag k="ref:vcgi:esiteid" v="217589"/>
  </node>
  <node id="-316" visible="true" lat="42.9996939" lon="-73.19345223">
    <tag k="addr:city" v="Shaftsbury"/>
    <tag k="addr:housenumber" v="311"/>
    <tag k="addr:street" v="Hidden Valley Road"/>
    <tag k="addr:state" v="VT"/>
    <tag k="ref:vcgi:esiteid" v="217590"/>
  </node>
  <node id="-317" visible="true" lat="42.99954922" lon="-73.19129118">
    <tag k="addr:city" v="Shaftsbury"/>
    <tag k="addr:housenumber" v="127"/>
    <tag k="addr:street" v="Pine Circle"/>
    <tag k="addr:state" v="VT"/>
    <tag k="ref:vcgi:esiteid" v="217591"/>
  </node>
  <node id="-319" visible="true" lat="42.99947738" lon="-73.17063903">
    <tag k="addr:city" v="Shaftsbury"/>
    <tag k="addr:housenumber" v="2445"/>
    <tag k="addr:street" v="Cider Mill Road"/>
    <tag k="addr:state" v="VT"/>
    <tag k="ref:vcgi:esiteid" v="217593"/>
  </node>
  <node id="-320" visible="true" lat="42.99928283" lon="-73.19409942">
    <tag k="addr:city" v="Shaftsbury"/>
    <tag k="addr:housenumber" v="320"/>
    <tag k="addr:street" v="Hidden Valley Road"/>
    <tag k="addr:state" v="VT"/>
    <tag k="ref:vcgi:esiteid" v="217594"/>
  </node>
  <node id="-321" visible="true" lat="42.99923683" lon="-73.19043589">
    <tag k="addr:city" v="Shaftsbury"/>
    <tag k="addr:housenumber" v="102"/>
    <tag k="addr:street" v="Pine Circle"/>
    <tag k="addr:state" v="VT"/>
    <tag k="ref:vcgi:esiteid" v="217595"/>
  </node>
  <node id="-323" visible="true" lat="42.9991188" lon="-73.19257354">
    <tag k="addr:city" v="Shaftsbury"/>
    <tag k="addr:housenumber" v="19"/>
    <tag k="addr:street" v="Middle Road"/>
    <tag k="addr:state" v="VT"/>
    <tag k="ref:vcgi:esiteid" v="217597"/>
  </node>
  <node id="-325" visible="true" lat="42.99911499" lon="-73.17111205">
    <tag k="addr:city" v="Shaftsbury"/>
    <tag k="addr:housenumber" v="2399"/>
    <tag k="addr:street" v="Cider Mill Road"/>
    <tag k="addr:state" v="VT"/>
    <tag k="ref:vcgi:esiteid" v="217599"/>
  </node>
  <node id="-327" visible="true" lat="42.99860728" lon="-73.19031349">
    <tag k="addr:city" v="Shaftsbury"/>
    <tag k="addr:housenumber" v="76"/>
    <tag k="addr:street" v="Pine Circle"/>
    <tag k="addr:state" v="VT"/>
    <tag k="ref:vcgi:esiteid" v="217601"/>
  </node>
  <node id="-330" visible="true" lat="42.99872775" lon="-73.17071363">
    <tag k="addr:city" v="Shaftsbury"/>
    <tag k="addr:housenumber" v="2375"/>
    <tag k="addr:street" v="Cider Mill Road"/>
    <tag k="addr:state" v="VT"/>
    <tag k="ref:vcgi:esiteid" v="217604"/>
  </node>
  <node id="-331" visible="true" lat="42.99856244" lon="-73.1939536">
    <tag k="addr:city" v="Shaftsbury"/>
    <tag k="addr:housenumber" v="370"/>
    <tag k="addr:street" v="Hidden Valley Road"/>
    <tag k="addr:state" v="VT"/>
    <tag k="ref:vcgi:esiteid" v="217605"/>
  </node>
  <node id="-334" visible="true" lat="42.99846822" lon="-73.18673315">
    <tag k="addr:city" v="Shaftsbury"/>
    <tag k="addr:housenumber" v="1386"/>
    <tag k="addr:street" v="Hidden Valley Road"/>
    <tag k="addr:state" v="VT"/>
    <tag k="ref:vcgi:esiteid" v="217608"/>
  </node>
  <node id="-336" visible="true" lat="42.99838279" lon="-73.19140036">
    <tag k="addr:city" v="Shaftsbury"/>
    <tag k="addr:housenumber" v="83"/>
    <tag k="addr:street" v="Middle Road"/>
    <tag k="addr:state" v="VT"/>
    <tag k="ref:vcgi:esiteid" v="217610"/>
  </node>
  <node id="-338" visible="true" lat="42.9981402" lon="-73.19242666">
    <tag k="addr:city" v="Shaftsbury"/>
    <tag k="addr:housenumber" v="44"/>
    <tag k="addr:street" v="Middle Road"/>
    <tag k="addr:state" v="VT"/>
    <tag k="ref:vcgi:esiteid" v="217612"/>
  </node>
  <node id="-340" visible="true" lat="42.99775695" lon="-73.19330596">
    <tag k="addr:city" v="Shaftsbury"/>
    <tag k="addr:housenumber" v="440"/>
    <tag k="addr:street" v="Hidden Valley Road"/>
    <tag k="addr:state" v="VT"/>
    <tag k="ref:vcgi:esiteid" v="217614"/>
  </node>
  <node id="-341" visible="true" lat="42.99775696" lon="-73.15513637">
    <tag k="addr:city" v="Shaftsbury"/>
    <tag k="addr:housenumber" v="4959"/>
    <tag k="addr:street" v="East Road"/>
    <tag k="addr:state" v="VT"/>
    <tag k="ref:vcgi:esiteid" v="217615"/>
  </node>
  <node id="-347" visible="true" lat="42.99739047" lon="-73.191664">
    <tag k="addr:city" v="Shaftsbury"/>
    <tag k="addr:housenumber" v="132"/>
    <tag k="addr:street" v="Middle Road"/>
    <tag k="addr:state" v="VT"/>
    <tag k="ref:vcgi:esiteid" v="217621"/>
  </node>
  <node id="-348" visible="true" lat="42.99751347" lon="-73.19049805">
    <tag k="addr:city" v="Shaftsbury"/>
    <tag k="addr:housenumber" v="161"/>
    <tag k="addr:street" v="Middle Road"/>
    <tag k="addr:state" v="VT"/>
    <tag k="ref:vcgi:esiteid" v="217622"/>
  </node>
  <node id="-350" visible="true" lat="42.99728416" lon="-73.18801522">
    <tag k="addr:city" v="Shaftsbury"/>
    <tag k="addr:housenumber" v="1283"/>
    <tag k="addr:street" v="Hidden Valley Road"/>
    <tag k="addr:state" v="VT"/>
    <tag k="ref:vcgi:esiteid" v="217624"/>
  </node>
  <node id="-351" visible="true" lat="42.99719395" lon="-73.18974994">
    <tag k="addr:city" v="Shaftsbury"/>
    <tag k="addr:housenumber" v="249"/>
    <tag k="addr:street" v="Middle Road"/>
    <tag k="addr:state" v="VT"/>
    <tag k="ref:vcgi:esiteid" v="217625"/>
  </node>
  <node id="-352" visible="true" lat="42.99702213" lon="-73.19252605">
    <tag k="addr:city" v="Shaftsbury"/>
    <tag k="addr:housenumber" v="483"/>
    <tag k="addr:street" v="Hidden Valley Road"/>
    <tag k="addr:state" v="VT"/>
    <tag k="ref:vcgi:esiteid" v="217626"/>
  </node>
  <node id="-353" visible="true" lat="42.99700624" lon="-73.18718101">
    <tag k="addr:city" v="Shaftsbury"/>
    <tag k="addr:housenumber" v="1292"/>
    <tag k="addr:street" v="Hidden Valley Road"/>
    <tag k="addr:state" v="VT"/>
    <tag k="ref:vcgi:esiteid" v="217627"/>
  </node>
  <node id="-354" visible="true" lat="42.99700927" lon="-73.15309143">
    <tag k="addr:city" v="Shaftsbury"/>
    <tag k="addr:housenumber" v="4874"/>
    <tag k="addr:street" v="East Road"/>
    <tag k="addr:state" v="VT"/>
    <tag k="ref:vcgi:esiteid" v="217628"/>
  </node>
  <node id="-355" visible="true" lat="42.99685782" lon="-73.18883343">
    <tag k="addr:city" v="Shaftsbury"/>
    <tag k="addr:housenumber" v="341"/>
    <tag k="addr:street" v="Middle Road"/>
    <tag k="addr:state" v="VT"/>
    <tag k="ref:vcgi:esiteid" v="217629"/>
  </node>
  <node id="-356" visible="true" lat="42.99652995" lon="-73.19076259">
    <tag k="addr:city" v="Shaftsbury"/>
    <tag k="addr:housenumber" v="212"/>
    <tag k="addr:street" v="Middle Road"/>
    <tag k="addr:state" v="VT"/>
    <tag k="ref:vcgi:esiteid" v="217630"/>
  </node>
  <node id="-357" visible="true" lat="42.99649544" lon="-73.19448508">
    <tag k="addr:city" v="Shaftsbury"/>
    <tag k="addr:housenumber" v="532"/>
    <tag k="addr:street" v="Hidden Valley Road"/>
    <tag k="addr:state" v="VT"/>
    <tag k="ref:vcgi:esiteid" v="217631"/>
  </node>
  <node id="-362" visible="true" lat="42.99633015" lon="-73.18733622">
    <tag k="addr:city" v="Shaftsbury"/>
    <tag k="addr:housenumber" v="1208"/>
    <tag k="addr:street" v="Hidden Valley Road"/>
    <tag k="addr:state" v="VT"/>
    <tag k="ref:vcgi:esiteid" v="217636"/>
  </node>
  <node id="-363" visible="true" lat="42.99597549" lon="-73.18897247">
    <tag k="addr:city" v="Shaftsbury"/>
    <tag k="addr:housenumber" v="1165"/>
    <tag k="addr:street" v="Hidden Valley Road"/>
    <tag k="addr:state" v="VT"/>
    <tag k="ref:vcgi:esiteid" v="217637"/>
  </node>
  <node id="-367" visible="true" lat="42.99576962" lon="-73.19472686">
    <tag k="addr:city" v="Shaftsbury"/>
    <tag k="addr:housenumber" v="606"/>
    <tag k="addr:street" v="Hidden Valley Road"/>
    <tag k="addr:state" v="VT"/>
    <tag k="ref:vcgi:esiteid" v="217641"/>
  </node>
  <node id="-369" visible="true" lat="42.99562366" lon="-73.19359662">
    <tag k="addr:city" v="Shaftsbury"/>
    <tag k="addr:housenumber" v="595"/>
    <tag k="addr:street" v="Hidden Valley Road"/>
    <tag k="addr:state" v="VT"/>
    <tag k="ref:vcgi:esiteid" v="217643"/>
  </node>
  <node id="-371" visible="true" lat="42.99554443" lon="-73.18984985">
    <tag k="addr:city" v="Shaftsbury"/>
    <tag k="addr:housenumber" v="1131"/>
    <tag k="addr:street" v="Hidden Valley Road"/>
    <tag k="addr:state" v="VT"/>
    <tag k="ref:vcgi:esiteid" v="217645"/>
  </node>
  <node id="-375" visible="true" lat="42.99541032" lon="-73.15385145">
    <tag k="addr:city" v="Shaftsbury"/>
    <tag k="addr:housenumber" v="4778"/>
    <tag k="addr:street" v="East Road"/>
    <tag k="addr:state" v="VT"/>
    <tag k="ref:vcgi:esiteid" v="217649"/>
  </node>
  <node id="-376" visible="true" lat="42.9952038" lon="-73.19456485">
    <tag k="addr:city" v="Shaftsbury"/>
    <tag k="addr:housenumber" v="636"/>
    <tag k="addr:street" v="Hidden Valley Road"/>
    <tag k="addr:state" v="VT"/>
    <tag k="ref:vcgi:esiteid" v="217650"/>
  </node>
  <node id="-377" visible="true" lat="42.99531596" lon="-73.18823693">
    <tag k="addr:city" v="Shaftsbury"/>
    <tag k="addr:housenumber" v="1142"/>
    <tag k="addr:street" v="Hidden Valley Road"/>
    <tag k="addr:state" v="VT"/>
    <tag k="ref:vcgi:esiteid" v="217651"/>
  </node>
  <node id="-380" visible="true" lat="42.99497487" lon="-73.19317976">
    <tag k="addr:city" v="Shaftsbury"/>
    <tag k="addr:housenumber" v="617"/>
    <tag k="addr:street" v="Hidden Valley Road"/>
    <tag k="addr:state" v="VT"/>
    <tag k="ref:vcgi:esiteid" v="217654"/>
  </node>
  <node id="-383" visible="true" lat="42.99459456" lon="-73.18932956">
    <tag k="addr:city" v="Shaftsbury"/>
    <tag k="addr:housenumber" v="1060"/>
    <tag k="addr:street" v="Hidden Valley Road"/>
    <tag k="addr:state" v="VT"/>
    <tag k="ref:vcgi:esiteid" v="217657"/>
  </node>
  <node id="-386" visible="true" lat="42.99434423" lon="-73.19297482">
    <tag k="addr:city" v="Shaftsbury"/>
    <tag k="addr:housenumber" v="679"/>
    <tag k="addr:street" v="Hidden Valley Road"/>
    <tag k="addr:state" v="VT"/>
    <tag k="ref:vcgi:esiteid" v="217660"/>
  </node>
  <node id="-391" visible="true" lat="42.994059" lon="-73.19511934">
    <tag k="addr:city" v="Shaftsbury"/>
    <tag k="addr:housenumber" v="680"/>
    <tag k="addr:street" v="Hidden Valley Road"/>
    <tag k="addr:state" v="VT"/>
    <tag k="ref:vcgi:esiteid" v="217665"/>
  </node>
  <node id="-392" visible="true" lat="42.99373465" lon="-73.20116139">
    <tag k="addr:city" v="Shaftsbury"/>
    <tag k="addr:housenumber" v="85"/>
    <tag k="addr:street" v="Fran Zando Road"/>
    <tag k="addr:state" v="VT"/>
    <tag k="ref:vcgi:esiteid" v="217666"/>
  </node>
  <node id="-393" visible="true" lat="42.99379489" lon="-73.19250083">
    <tag k="addr:city" v="Shaftsbury"/>
    <tag k="addr:housenumber" v="757"/>
    <tag k="addr:street" v="Hidden Valley Road"/>
    <tag k="addr:state" v="VT"/>
    <tag k="ref:vcgi:esiteid" v="217667"/>
  </node>
  <node id="-400" visible="true" lat="42.99331106" lon="-73.19494669">
    <tag k="addr:city" v="Shaftsbury"/>
    <tag k="addr:housenumber" v="60"/>
    <tag k="addr:street" v="Cedar Circle"/>
    <tag k="addr:state" v="VT"/>
    <tag k="ref:vcgi:esiteid" v="217674"/>
  </node>
  <node id="-401" visible="true" lat="42.99313227" lon="-73.19138032">
    <tag k="addr:city" v="Shaftsbury"/>
    <tag k="addr:housenumber" v="887"/>
    <tag k="addr:street" v="Hidden Valley Road"/>
    <tag k="addr:state" v="VT"/>
    <tag k="ref:vcgi:esiteid" v="217675"/>
  </node>
  <node id="-402" visible="true" lat="42.99315612" lon="-73.19230957">
    <tag k="addr:city" v="Shaftsbury"/>
    <tag k="addr:housenumber" v="865"/>
    <tag k="addr:street" v="Hidden Valley Road"/>
    <tag k="addr:state" v="VT"/>
    <tag k="ref:vcgi:esiteid" v="217676"/>
  </node>
  <node id="-404" visible="true" lat="42.99278259" lon="-73.15502929">
    <tag k="addr:city" v="Shaftsbury"/>
    <tag k="addr:housenumber" v="4589"/>
    <tag k="addr:street" v="East Road"/>
    <tag k="addr:state" v="VT"/>
    <tag k="ref:vcgi:esiteid" v="217678"/>
  </node>
  <node id="-406" visible="true" lat="42.99241106" lon="-73.20120603">
    <tag k="addr:city" v="Shaftsbury"/>
    <tag k="addr:housenumber" v="118"/>
    <tag k="addr:street" v="Fran Zando Road"/>
    <tag k="addr:state" v="VT"/>
    <tag k="ref:vcgi:esiteid" v="217680"/>
  </node>
  <node id="-407" visible="true" lat="42.99245834" lon="-73.1949768">
    <tag k="addr:city" v="Shaftsbury"/>
    <tag k="addr:housenumber" v="168"/>
    <tag k="addr:street" v="Cedar Circle"/>
    <tag k="addr:state" v="VT"/>
    <tag k="ref:vcgi:esiteid" v="217681"/>
  </node>
  <node id="-408" visible="true" lat="42.99241818" lon="-73.19369598">
    <tag k="addr:city" v="Shaftsbury"/>
    <tag k="addr:housenumber" v="143"/>
    <tag k="addr:street" v="Cedar Circle"/>
    <tag k="addr:state" v="VT"/>
    <tag k="ref:vcgi:esiteid" v="217682"/>
  </node>
  <node id="-410" visible="true" lat="42.99268182" lon="-73.15269898">
    <tag k="addr:city" v="Shaftsbury"/>
    <tag k="addr:housenumber" v="4578"/>
    <tag k="addr:street" v="East Road"/>
    <tag k="addr:state" v="VT"/>
    <tag k="ref:vcgi:esiteid" v="217684"/>
  </node>
  <node id="-411" visible="true" lat="42.99236679" lon="-73.17812347">
    <tag k="addr:city" v="Shaftsbury"/>
    <tag k="addr:housenumber" v="1781"/>
    <tag k="addr:street" v="Cider Mill Road"/>
    <tag k="addr:state" v="VT"/>
    <tag k="ref:vcgi:esiteid" v="217685"/>
  </node>
  <node id="-412" visible="true" lat="42.99238288" lon="-73.15252932">
    <tag k="addr:city" v="Shaftsbury"/>
    <tag k="addr:housenumber" v="4564"/>
    <tag k="addr:street" v="East Road"/>
    <tag k="addr:state" v="VT"/>
    <tag k="ref:vcgi:esiteid" v="217686"/>
  </node>
  <node id="-413" visible="true" lat="42.99200846" lon="-73.1911993">
    <tag k="addr:city" v="Shaftsbury"/>
    <tag k="addr:housenumber" v="886"/>
    <tag k="addr:street" v="Hidden Valley Road"/>
    <tag k="addr:state" v="VT"/>
    <tag k="ref:vcgi:esiteid" v="217687"/>
  </node>
  <node id="-414" visible="true" lat="42.99195861" lon="-73.1929779">
    <tag k="addr:city" v="Shaftsbury"/>
    <tag k="addr:housenumber" v="814"/>
    <tag k="addr:street" v="Hidden Valley Road"/>
    <tag k="addr:state" v="VT"/>
    <tag k="ref:vcgi:esiteid" v="217688"/>
  </node>
  <node id="-416" visible="true" lat="42.99149911" lon="-73.19499636">
    <tag k="addr:city" v="Shaftsbury"/>
    <tag k="addr:housenumber" v="202"/>
    <tag k="addr:street" v="Cedar Circle"/>
    <tag k="addr:state" v="VT"/>
    <tag k="ref:vcgi:esiteid" v="217690"/>
  </node>
  <node id="-417" visible="true" lat="42.99123319" lon="-73.19101931">
    <tag k="addr:city" v="Shaftsbury"/>
    <tag k="addr:housenumber" v="81"/>
    <tag k="addr:street" v="Hummingbird Lane"/>
    <tag k="addr:state" v="VT"/>
    <tag k="ref:vcgi:esiteid" v="217691"/>
  </node>
  <node id="-419" visible="true" lat="42.99083722" lon="-73.19192916">
    <tag k="addr:city" v="Shaftsbury"/>
    <tag k="addr:housenumber" v="82"/>
    <tag k="addr:street" v="Hummingbird Lane"/>
    <tag k="addr:state" v="VT"/>
    <tag k="ref:vcgi:esiteid" v="217693"/>
  </node>
  <node id="-420" visible="true" lat="42.99059271" lon="-73.20103605">
    <tag k="addr:city" v="Shaftsbury"/>
    <tag k="addr:housenumber" v="289"/>
    <tag k="addr:street" v="Valley View Road"/>
    <tag k="addr:state" v="VT"/>
    <tag k="ref:vcgi:esiteid" v="217694"/>
  </node>
  <node id="-421" visible="true" lat="42.99038367" lon="-73.1791344">
    <tag k="addr:city" v="Shaftsbury"/>
    <tag k="addr:housenumber" v="1649"/>
    <tag k="addr:street" v="Cider Mill Road"/>
    <tag k="addr:state" v="VT"/>
    <tag k="ref:vcgi:esiteid" v="217695"/>
  </node>
  <node id="-422" visible="true" lat="42.99017652" lon="-73.20171613">
    <tag k="addr:city" v="Shaftsbury"/>
    <tag k="addr:housenumber" v="214"/>
    <tag k="addr:street" v="Valley View Road"/>
    <tag k="addr:state" v="VT"/>
    <tag k="ref:vcgi:esiteid" v="217696"/>
  </node>
  <node id="-424" visible="true" lat="42.98974648" lon="-73.1790072">
    <tag k="addr:city" v="Shaftsbury"/>
    <tag k="addr:housenumber" v="1601"/>
    <tag k="addr:street" v="Cider Mill Road"/>
    <tag k="addr:state" v="VT"/>
    <tag k="ref:vcgi:esiteid" v="217698"/>
  </node>
  <node id="-427" visible="true" lat="42.98918914" lon="-73.15820312">
    <tag k="addr:city" v="Shaftsbury"/>
    <tag k="addr:housenumber" v="4319"/>
    <tag k="addr:street" v="East Road"/>
    <tag k="addr:state" v="VT"/>
    <tag k="ref:vcgi:esiteid" v="217701"/>
  </node>
  <node id="-428" visible="true" lat="42.98890514" lon="-73.15548242">
    <tag k="addr:city" v="Shaftsbury"/>
    <tag k="addr:housenumber" v="4322"/>
    <tag k="addr:street" v="East Road"/>
    <tag k="addr:state" v="VT"/>
    <tag k="ref:vcgi:esiteid" v="217702"/>
  </node>
  <node id="-431" visible="true" lat="42.98837661" lon="-73.18104553">
    <tag k="addr:city" v="Shaftsbury"/>
    <tag k="addr:housenumber" v="1467"/>
    <tag k="addr:street" v="Cider Mill Road"/>
    <tag k="addr:state" v="VT"/>
    <tag k="ref:vcgi:esiteid" v="217705"/>
  </node>
  <node id="-442" visible="true" lat="42.98686392" lon="-73.18045788">
    <tag k="addr:city" v="Shaftsbury"/>
    <tag k="addr:housenumber" v="1386"/>
    <tag k="addr:street" v="Cider Mill Road"/>
    <tag k="addr:state" v="VT"/>
    <tag k="ref:vcgi:esiteid" v="217716"/>
  </node>
  <node id="-445" visible="true" lat="42.98672223" lon="-73.17749618">
    <tag k="addr:city" v="Shaftsbury"/>
    <tag k="addr:housenumber" v="166"/>
    <tag k="addr:street" v="Clement Greene Road"/>
    <tag k="addr:state" v="VT"/>
    <tag k="ref:vcgi:esiteid" v="217719"/>
  </node>
  <node id="-456" visible="true" lat="42.98548177" lon="-73.20244165">
    <tag k="addr:city" v="Shaftsbury"/>
    <tag k="addr:housenumber" v="189"/>
    <tag k="addr:street" v="Tunic Road"/>
    <tag k="addr:state" v="VT"/>
    <tag k="ref:vcgi:esiteid" v="217730"/>
  </node>
  <node id="-461" visible="true" lat="42.98513758" lon="-73.17935063">
    <tag k="addr:city" v="Shaftsbury"/>
    <tag k="addr:housenumber" v="48"/>
    <tag k="addr:street" v="Clement Greene Road"/>
    <tag k="addr:state" v="VT"/>
    <tag k="ref:vcgi:esiteid" v="217735"/>
  </node>
  <node id="-476" visible="true" lat="42.98341736" lon="-73.19949173">
    <tag k="addr:city" v="Shaftsbury"/>
    <tag k="addr:housenumber" v="331"/>
    <tag k="addr:street" v="Tunic Road"/>
    <tag k="addr:state" v="VT"/>
    <tag k="ref:vcgi:esiteid" v="217750"/>
  </node>
  <node id="-478" visible="true" lat="42.98357069" lon="-73.20387788">
    <tag k="addr:city" v="Shaftsbury"/>
    <tag k="addr:housenumber" v="143"/>
    <tag k="addr:street" v="Tunic Road"/>
    <tag k="addr:state" v="VT"/>
    <tag k="ref:vcgi:esiteid" v="217752"/>
  </node>
  <node id="-480" visible="true" lat="42.98317304" lon="-73.20474659">
    <tag k="addr:city" v="Shaftsbury"/>
    <tag k="addr:housenumber" v="107"/>
    <tag k="addr:street" v="Tunic Road"/>
    <tag k="addr:state" v="VT"/>
    <tag k="ref:vcgi:esiteid" v="217754"/>
  </node>
  <node id="-484" visible="true" lat="42.98282681" lon="-73.20647486">
    <tag k="addr:city" v="Shaftsbury"/>
    <tag k="addr:housenumber" v="12"/>
    <tag k="addr:street" v="Tunic Road"/>
    <tag k="addr:state" v="VT"/>
    <tag k="ref:vcgi:esiteid" v="217758"/>
  </node>
  <node id="-485" visible="true" lat="42.98284568" lon="-73.20837566">
    <tag k="addr:city" v="Shaftsbury"/>
    <tag k="addr:housenumber" v="80"/>
    <tag k="addr:street" v="West Mountain Road"/>
    <tag k="addr:state" v="VT"/>
    <tag k="ref:vcgi:esiteid" v="217759"/>
  </node>
  <node id="-486" visible="true" lat="42.98289773" lon="-73.20592841">
    <tag k="addr:city" v="Shaftsbury"/>
    <tag k="addr:housenumber" v="40"/>
    <tag k="addr:street" v="Tunic Road"/>
    <tag k="addr:state" v="VT"/>
    <tag k="ref:vcgi:esiteid" v="217760"/>
  </node>
  <node id="-490" visible="true" lat="42.98242989" lon="-73.20748252">
    <tag k="addr:city" v="Shaftsbury"/>
    <tag k="addr:housenumber" v="33"/>
    <tag k="addr:street" v="West Mountain Road"/>
    <tag k="addr:state" v="VT"/>
    <tag k="ref:vcgi:esiteid" v="217764"/>
  </node>
  <node id="-524" visible="true" lat="42.97989273" lon="-73.17694854">
    <tag k="addr:city" v="Shaftsbury"/>
    <tag k="addr:housenumber" v="969"/>
    <tag k="addr:street" v="Trumbull Hill Road"/>
    <tag k="addr:state" v="VT"/>
    <tag k="ref:vcgi:esiteid" v="217798"/>
  </node>
  <node id="-536" visible="true" lat="42.97939338" lon="-73.17563825">
    <tag k="addr:city" v="Shaftsbury"/>
    <tag k="addr:housenumber" v="1103"/>
    <tag k="addr:street" v="Trumbull Hill Road"/>
    <tag k="addr:state" v="VT"/>
    <tag k="ref:vcgi:esiteid" v="217810"/>
  </node>
  <node id="-537" visible="true" lat="42.97924872" lon="-73.20610383">
    <tag k="addr:city" v="Shaftsbury"/>
    <tag k="addr:housenumber" v="76"/>
    <tag k="addr:street" v="Marshall Drive"/>
    <tag k="addr:state" v="VT"/>
    <tag k="ref:vcgi:esiteid" v="217811"/>
  </node>
  <node id="-553" visible="true" lat="42.9772644" lon="-73.20449066">
    <tag k="addr:city" v="Shaftsbury"/>
    <tag k="addr:housenumber" v="162"/>
    <tag k="addr:street" v="Lawrence Road"/>
    <tag k="addr:state" v="VT"/>
    <tag k="ref:vcgi:esiteid" v="217827"/>
  </node>
  <node id="-554" visible="true" lat="42.97741317" lon="-73.17646026">
    <tag k="addr:city" v="Shaftsbury"/>
    <tag k="addr:housenumber" v="957"/>
    <tag k="addr:street" v="Trumbull Hill Road"/>
    <tag k="addr:state" v="VT"/>
    <tag k="ref:vcgi:esiteid" v="217828"/>
  </node>
  <node id="-559" visible="true" lat="42.97691918" lon="-73.20571372">
    <tag k="addr:city" v="Shaftsbury"/>
    <tag k="addr:housenumber" v="75"/>
    <tag k="addr:street" v="Lawrence Road"/>
    <tag k="addr:state" v="VT"/>
    <tag k="ref:vcgi:esiteid" v="217833"/>
  </node>
  <node id="-562" visible="true" lat="42.97681808" lon="-73.20506286">
    <tag k="addr:city" v="Shaftsbury"/>
    <tag k="addr:housenumber" v="109"/>
    <tag k="addr:street" v="Lawrence Road"/>
    <tag k="addr:state" v="VT"/>
    <tag k="ref:vcgi:esiteid" v="217836"/>
  </node>
  <node id="-577" visible="true" lat="42.97590637" lon="-73.21176147">
    <tag k="addr:city" v="Shaftsbury"/>
    <tag k="addr:housenumber" v="210"/>
    <tag k="addr:street" v="Paulin Drive"/>
    <tag k="addr:state" v="VT"/>
    <tag k="ref:vcgi:esiteid" v="217851"/>
  </node>
  <node id="-581" visible="true" lat="42.97531828" lon="-73.20770265">
    <tag k="addr:city" v="Shaftsbury"/>
    <tag k="addr:housenumber" v="23"/>
    <tag k="addr:street" v="Paulin Drive"/>
    <tag k="addr:state" v="VT"/>
    <tag k="ref:vcgi:esiteid" v="217855"/>
  </node>
  <node id="-587" visible="true" lat="42.97470696" lon="-73.21044624">
    <tag k="addr:city" v="Shaftsbury"/>
    <tag k="addr:housenumber" v="125"/>
    <tag k="addr:street" v="Paulin Drive"/>
    <tag k="addr:state" v="VT"/>
    <tag k="ref:vcgi:esiteid" v="217861"/>
  </node>
  <node id="-592" visible="true" lat="42.9741746" lon="-73.18722747">
    <tag k="addr:city" v="Shaftsbury"/>
    <tag k="addr:housenumber" v="353"/>
    <tag k="addr:street" v="Cider Mill Road"/>
    <tag k="addr:state" v="VT"/>
    <tag k="ref:vcgi:esiteid" v="217867"/>
  </node>
  <node id="-598" visible="true" lat="42.9738555" lon="-73.17526634">
    <tag k="addr:city" v="Shaftsbury"/>
    <tag k="addr:housenumber" v="54"/>
    <tag k="addr:street" v="Holy Smoke Road"/>
    <tag k="addr:state" v="VT"/>
    <tag k="ref:vcgi:esiteid" v="217873"/>
  </node>
  <node id="-604" visible="true" lat="42.97358463" lon="-73.17146369">
    <tag k="addr:city" v="Shaftsbury"/>
    <tag k="addr:housenumber" v="251"/>
    <tag k="addr:street" v="Holy Smoke Road"/>
    <tag k="addr:state" v="VT"/>
    <tag k="ref:vcgi:esiteid" v="217879"/>
  </node>
  <node id="-607" visible="true" lat="42.97338961" lon="-73.18779989">
    <tag k="addr:city" v="Shaftsbury"/>
    <tag k="addr:housenumber" v="253"/>
    <tag k="addr:street" v="Cider Mill Road"/>
    <tag k="addr:state" v="VT"/>
    <tag k="ref:vcgi:esiteid" v="217882"/>
  </node>
  <node id="-611" visible="true" lat="42.97306823" lon="-73.18637847">
    <tag k="addr:city" v="Shaftsbury"/>
    <tag k="addr:housenumber" v="318"/>
    <tag k="addr:street" v="Cider Mill Road"/>
    <tag k="addr:state" v="VT"/>
    <tag k="ref:vcgi:esiteid" v="217886"/>
  </node>
  <node id="-615" visible="true" lat="42.9726461" lon="-73.17312391">
    <tag k="addr:city" v="Shaftsbury"/>
    <tag k="addr:housenumber" v="55"/>
    <tag k="addr:street" v="Farrell Road"/>
    <tag k="addr:state" v="VT"/>
    <tag k="ref:vcgi:esiteid" v="217891"/>
  </node>
  <node id="-617" visible="true" lat="42.97204933" lon="-73.17033812">
    <tag k="addr:city" v="Shaftsbury"/>
    <tag k="addr:housenumber" v="371"/>
    <tag k="addr:street" v="Holy Smoke Road"/>
    <tag k="addr:state" v="VT"/>
    <tag k="ref:vcgi:esiteid" v="217893"/>
  </node>
  <node id="-618" visible="true" lat="42.97198562" lon="-73.17396854">
    <tag k="addr:city" v="Shaftsbury"/>
    <tag k="addr:housenumber" v="170"/>
    <tag k="addr:street" v="Farrell Road"/>
    <tag k="addr:state" v="VT"/>
    <tag k="ref:vcgi:esiteid" v="217894"/>
  </node>
  <node id="-619" visible="true" lat="42.97188949" lon="-73.17088317">
    <tag k="addr:city" v="Shaftsbury"/>
    <tag k="addr:housenumber" v="388"/>
    <tag k="addr:street" v="Holy Smoke Road"/>
    <tag k="addr:state" v="VT"/>
    <tag k="ref:vcgi:esiteid" v="217895"/>
  </node>
  <node id="-620" visible="true" lat="42.9714119" lon="-73.17981937">
    <tag k="addr:city" v="Shaftsbury"/>
    <tag k="addr:housenumber" v="474"/>
    <tag k="addr:street" v="Trumbull Hill Road"/>
    <tag k="addr:state" v="VT"/>
    <tag k="ref:vcgi:esiteid" v="217896"/>
  </node>
  <node id="-621" visible="true" lat="42.97153313" lon="-73.18211652">
    <tag k="addr:city" v="Shaftsbury"/>
    <tag k="addr:housenumber" v="367"/>
    <tag k="addr:street" v="Trumbull Hill Road"/>
    <tag k="addr:state" v="VT"/>
    <tag k="ref:vcgi:esiteid" v="217897"/>
  </node>
  <node id="-623" visible="true" lat="42.97133873" lon="-73.18287349">
    <tag k="addr:city" v="Shaftsbury"/>
    <tag k="addr:housenumber" v="317"/>
    <tag k="addr:street" v="Trumbull Hill Road"/>
    <tag k="addr:state" v="VT"/>
    <tag k="ref:vcgi:esiteid" v="217899"/>
  </node>
  <node id="-624" visible="true" lat="42.9710874" lon="-73.18830225">
    <tag k="addr:city" v="Shaftsbury"/>
    <tag k="addr:housenumber" v="143"/>
    <tag k="addr:street" v="Cider Mill Road"/>
    <tag k="addr:state" v="VT"/>
    <tag k="ref:vcgi:esiteid" v="217900"/>
  </node>
  <node id="-626" visible="true" lat="42.97088241" lon="-73.18572235">
    <tag k="addr:city" v="Shaftsbury"/>
    <tag k="addr:housenumber" v="217"/>
    <tag k="addr:street" v="Trumbull Hill Road"/>
    <tag k="addr:state" v="VT"/>
    <tag k="ref:vcgi:esiteid" v="217902"/>
  </node>
  <node id="-630" visible="true" lat="42.97045353" lon="-73.18743139">
    <tag k="addr:city" v="Shaftsbury"/>
    <tag k="addr:housenumber" v="100"/>
    <tag k="addr:street" v="Cider Mill Road"/>
    <tag k="addr:state" v="VT"/>
    <tag k="ref:vcgi:esiteid" v="217906"/>
  </node>
  <node id="-634" visible="true" lat="42.97041147" lon="-73.17100048">
    <tag k="addr:city" v="Shaftsbury"/>
    <tag k="addr:housenumber" v="498"/>
    <tag k="addr:street" v="Holy Smoke Road"/>
    <tag k="addr:state" v="VT"/>
    <tag k="ref:vcgi:esiteid" v="217910"/>
  </node>
  <node id="-636" visible="true" lat="42.9699278" lon="-73.17120523">
    <tag k="addr:city" v="Shaftsbury"/>
    <tag k="addr:housenumber" v="522"/>
    <tag k="addr:street" v="Holy Smoke Road"/>
    <tag k="addr:state" v="VT"/>
    <tag k="ref:vcgi:esiteid" v="217912"/>
  </node>
  <node id="-637" visible="true" lat="42.96971434" lon="-73.20813634">
    <tag k="addr:city" v="Shaftsbury"/>
    <tag k="addr:housenumber" v="34"/>
    <tag k="addr:street" v="Myers Road"/>
    <tag k="addr:state" v="VT"/>
    <tag k="ref:vcgi:esiteid" v="217913"/>
  </node>
  <node id="-641" visible="true" lat="42.96931604" lon="-73.18297667">
    <tag k="addr:city" v="Shaftsbury"/>
    <tag k="addr:housenumber" v="115"/>
    <tag k="addr:street" v="Fox Hill Road"/>
    <tag k="addr:state" v="VT"/>
    <tag k="ref:vcgi:esiteid" v="217917"/>
  </node>
  <node id="-642" visible="true" lat="42.96928859" lon="-73.18448407">
    <tag k="addr:city" v="Shaftsbury"/>
    <tag k="addr:housenumber" v="134"/>
    <tag k="addr:street" v="Fox Hill Road"/>
    <tag k="addr:state" v="VT"/>
    <tag k="ref:vcgi:esiteid" v="217918"/>
  </node>
  <node id="-643" visible="true" lat="42.96959751" lon="-73.21146395">
    <tag k="addr:city" v="Shaftsbury"/>
    <tag k="addr:housenumber" v="150"/>
    <tag k="addr:street" v="Myers Road"/>
    <tag k="addr:state" v="VT"/>
    <tag k="ref:vcgi:esiteid" v="217919"/>
  </node>
  <node id="-644" visible="true" lat="42.96871487" lon="-73.18335404">
    <tag k="addr:city" v="Shaftsbury"/>
    <tag k="addr:housenumber" v="143"/>
    <tag k="addr:street" v="Fox Hill Road"/>
    <tag k="addr:state" v="VT"/>
    <tag k="ref:vcgi:esiteid" v="217920"/>
  </node>
  <node id="-645" visible="true" lat="42.96865404" lon="-73.18525518">
    <tag k="addr:city" v="Shaftsbury"/>
    <tag k="addr:housenumber" v="150"/>
    <tag k="addr:street" v="Fox Hill Road"/>
    <tag k="addr:state" v="VT"/>
    <tag k="ref:vcgi:esiteid" v="217921"/>
  </node>
  <node id="-646" visible="true" lat="42.96874309" lon="-73.17142179">
    <tag k="addr:city" v="Shaftsbury"/>
    <tag k="addr:housenumber" v="632"/>
    <tag k="addr:street" v="Holy Smoke Road"/>
    <tag k="addr:state" v="VT"/>
    <tag k="ref:vcgi:esiteid" v="217922"/>
  </node>
  <node id="-647" visible="true" lat="42.96830649" lon="-73.16962247">
    <tag k="addr:city" v="Shaftsbury"/>
    <tag k="addr:housenumber" v="605"/>
    <tag k="addr:street" v="Holy Smoke Road"/>
    <tag k="addr:state" v="VT"/>
    <tag k="ref:vcgi:esiteid" v="217923"/>
  </node>
  <node id="-648" visible="true" lat="42.96788764" lon="-73.21199573">
    <tag k="addr:city" v="Shaftsbury"/>
    <tag k="addr:housenumber" v="244"/>
    <tag k="addr:street" v="Myers Road"/>
    <tag k="addr:state" v="VT"/>
    <tag k="ref:vcgi:esiteid" v="217924"/>
  </node>
  <node id="-649" visible="true" lat="42.96780516" lon="-73.18518747">
    <tag k="addr:city" v="Shaftsbury"/>
    <tag k="addr:housenumber" v="218"/>
    <tag k="addr:street" v="Fox Hill Road"/>
    <tag k="addr:state" v="VT"/>
    <tag k="ref:vcgi:esiteid" v="217925"/>
  </node>
  <node id="-654" visible="true" lat="42.96761623" lon="-73.18378461">
    <tag k="addr:city" v="Shaftsbury"/>
    <tag k="addr:housenumber" v="277"/>
    <tag k="addr:street" v="Fox Hill Road"/>
    <tag k="addr:state" v="VT"/>
    <tag k="ref:vcgi:esiteid" v="217930"/>
  </node>
  <node id="-656" visible="true" lat="42.96707423" lon="-73.18495333">
    <tag k="addr:city" v="Shaftsbury"/>
    <tag k="addr:housenumber" v="266"/>
    <tag k="addr:street" v="Fox Hill Road"/>
    <tag k="addr:state" v="VT"/>
    <tag k="ref:vcgi:esiteid" v="217932"/>
  </node>
  <node id="-657" visible="true" lat="42.96702239" lon="-73.17137438">
    <tag k="addr:city" v="Shaftsbury"/>
    <tag k="addr:housenumber" v="708"/>
    <tag k="addr:street" v="Holy Smoke Road"/>
    <tag k="addr:state" v="VT"/>
    <tag k="ref:vcgi:esiteid" v="217933"/>
  </node>
  <node id="-659" visible="true" lat="42.96715482" lon="-73.160633">
    <tag k="addr:city" v="Shaftsbury"/>
    <tag k="addr:housenumber" v="174"/>
    <tag k="addr:street" v="Waite Cemetery Road"/>
    <tag k="addr:state" v="VT"/>
    <tag k="ref:vcgi:esiteid" v="217935"/>
  </node>
  <node id="-660" visible="true" lat="42.96697891" lon="-73.18350781">
    <tag k="addr:city" v="Shaftsbury"/>
    <tag k="addr:housenumber" v="293"/>
    <tag k="addr:street" v="Fox Hill Road"/>
    <tag k="addr:state" v="VT"/>
    <tag k="ref:vcgi:esiteid" v="217936"/>
  </node>
  <node id="-661" visible="true" lat="42.96671035" lon="-73.18445035">
    <tag k="addr:city" v="Shaftsbury"/>
    <tag k="addr:housenumber" v="290"/>
    <tag k="addr:street" v="Fox Hill Road"/>
    <tag k="addr:state" v="VT"/>
    <tag k="ref:vcgi:esiteid" v="217937"/>
  </node>
  <node id="-664" visible="true" lat="42.96657835" lon="-73.21814415">
    <tag k="addr:city" v="Shaftsbury"/>
    <tag k="addr:housenumber" v="630"/>
    <tag k="addr:street" v="Myers Road"/>
    <tag k="addr:state" v="VT"/>
    <tag k="ref:vcgi:esiteid" v="217940"/>
  </node>
  <node id="-665" visible="true" lat="42.96651262" lon="-73.21509648">
    <tag k="addr:city" v="Shaftsbury"/>
    <tag k="addr:housenumber" v="490"/>
    <tag k="addr:street" v="Myers Road"/>
    <tag k="addr:state" v="VT"/>
    <tag k="ref:vcgi:esiteid" v="217941"/>
  </node>
  <node id="-668" visible="true" lat="42.9660336" lon="-73.21986541">
    <tag k="addr:city" v="Shaftsbury"/>
    <tag k="addr:housenumber" v="712"/>
    <tag k="addr:street" v="Myers Road"/>
    <tag k="addr:state" v="VT"/>
    <tag k="ref:vcgi:esiteid" v="217944"/>
  </node>
  <node id="-671" visible="true" lat="42.96581063" lon="-73.21499481">
    <tag k="addr:city" v="Shaftsbury"/>
    <tag k="addr:housenumber" v="477"/>
    <tag k="addr:street" v="Myers Road"/>
    <tag k="addr:state" v="VT"/>
    <tag k="ref:vcgi:esiteid" v="217947"/>
  </node>
  <node id="-672" visible="true" lat="42.96577914" lon="-73.21862512">
    <tag k="addr:city" v="Shaftsbury"/>
    <tag k="addr:housenumber" v="677"/>
    <tag k="addr:street" v="Myers Road"/>
    <tag k="addr:state" v="VT"/>
    <tag k="ref:vcgi:esiteid" v="217948"/>
  </node>
  <node id="-673" visible="true" lat="42.96578642" lon="-73.21198018">
    <tag k="addr:city" v="Shaftsbury"/>
    <tag k="addr:housenumber" v="373"/>
    <tag k="addr:street" v="Myers Road"/>
    <tag k="addr:state" v="VT"/>
    <tag k="ref:vcgi:esiteid" v="217949"/>
  </node>
  <node id="-674" visible="true" lat="42.96572529" lon="-73.22071523">
    <tag k="addr:city" v="Shaftsbury"/>
    <tag k="addr:housenumber" v="764"/>
    <tag k="addr:street" v="Myers Road"/>
    <tag k="addr:state" v="VT"/>
    <tag k="ref:vcgi:esiteid" v="217950"/>
  </node>
  <node id="-677" visible="true" lat="42.9653208" lon="-73.21963596">
    <tag k="addr:city" v="Shaftsbury"/>
    <tag k="addr:housenumber" v="737"/>
    <tag k="addr:street" v="Myers Road"/>
    <tag k="addr:state" v="VT"/>
    <tag k="ref:vcgi:esiteid" v="217953"/>
  </node>
  <node id="-683" visible="true" lat="42.96540069" lon="-73.16877746">
    <tag k="addr:city" v="Shaftsbury"/>
    <tag k="addr:housenumber" v="1035"/>
    <tag k="addr:street" v="Holy Smoke Road"/>
    <tag k="addr:state" v="VT"/>
    <tag k="ref:vcgi:esiteid" v="217961"/>
  </node>
  <node id="-684" visible="true" lat="42.96535498" lon="-73.16182771">
    <tag k="addr:city" v="Shaftsbury"/>
    <tag k="addr:housenumber" v="44"/>
    <tag k="addr:street" v="Waite Cemetery Road"/>
    <tag k="addr:state" v="VT"/>
    <tag k="ref:vcgi:esiteid" v="217962"/>
  </node>
  <node id="-687" visible="true" lat="42.96493911" lon="-73.22171783">
    <tag k="addr:city" v="Shaftsbury"/>
    <tag k="addr:housenumber" v="826"/>
    <tag k="addr:street" v="Myers Road"/>
    <tag k="addr:state" v="VT"/>
    <tag k="ref:vcgi:esiteid" v="217965"/>
  </node>
  <node id="-698" visible="true" lat="42.96411383" lon="-73.16314701">
    <tag k="addr:city" v="Shaftsbury"/>
    <tag k="addr:housenumber" v="2455"/>
    <tag k="addr:street" v="East Road"/>
    <tag k="addr:state" v="VT"/>
    <tag k="ref:vcgi:esiteid" v="217976"/>
  </node>
  <node id="-700" visible="true" lat="42.96400806" lon="-73.16261819">
    <tag k="addr:city" v="Shaftsbury"/>
    <tag k="addr:housenumber" v="2460"/>
    <tag k="addr:street" v="East Road"/>
    <tag k="addr:state" v="VT"/>
    <tag k="ref:vcgi:esiteid" v="217978"/>
  </node>
  <node id="-705" visible="true" lat="42.96330918" lon="-73.22237842">
    <tag k="addr:city" v="Shaftsbury"/>
    <tag k="addr:housenumber" v="941"/>
    <tag k="addr:street" v="Myers Road"/>
    <tag k="addr:state" v="VT"/>
    <tag k="ref:vcgi:esiteid" v="217983"/>
  </node>
  <node id="-708" visible="true" lat="42.96343527" lon="-73.16345605">
    <tag k="addr:city" v="Shaftsbury"/>
    <tag k="addr:housenumber" v="2407"/>
    <tag k="addr:street" v="East Road"/>
    <tag k="addr:state" v="VT"/>
    <tag k="ref:vcgi:esiteid" v="217986"/>
  </node>
  <node id="-716" visible="true" lat="42.9628066" lon="-73.2242411">
    <tag k="addr:city" v="Shaftsbury"/>
    <tag k="addr:housenumber" v="1036"/>
    <tag k="addr:street" v="Myers Road"/>
    <tag k="addr:state" v="VT"/>
    <tag k="ref:vcgi:esiteid" v="217994"/>
  </node>
  <node id="-720" visible="true" lat="42.96308898" lon="-73.16322326">
    <tag k="addr:city" v="Shaftsbury"/>
    <tag k="addr:housenumber" v="2390"/>
    <tag k="addr:street" v="East Road"/>
    <tag k="addr:state" v="VT"/>
    <tag k="ref:vcgi:esiteid" v="217998"/>
  </node>
  <node id="-722" visible="true" lat="42.96260189" lon="-73.22348433">
    <tag k="addr:city" v="Shaftsbury"/>
    <tag k="addr:housenumber" v="1017"/>
    <tag k="addr:street" v="Myers Road"/>
    <tag k="addr:state" v="VT"/>
    <tag k="ref:vcgi:esiteid" v="218000"/>
  </node>
  <node id="-728" visible="true" lat="42.96261978" lon="-73.16421508">
    <tag k="addr:city" v="Shaftsbury"/>
    <tag k="addr:housenumber" v="2351"/>
    <tag k="addr:street" v="East Road"/>
    <tag k="addr:state" v="VT"/>
    <tag k="ref:vcgi:esiteid" v="218007"/>
  </node>
  <node id="-729" visible="true" lat="42.96252708" lon="-73.16332241">
    <tag k="addr:city" v="Shaftsbury"/>
    <tag k="addr:housenumber" v="2354"/>
    <tag k="addr:street" v="East Road"/>
    <tag k="addr:state" v="VT"/>
    <tag k="ref:vcgi:esiteid" v="218008"/>
  </node>
  <node id="-736" visible="true" lat="42.96165516" lon="-73.2261795">
    <tag k="addr:city" v="Shaftsbury"/>
    <tag k="addr:housenumber" v="1163"/>
    <tag k="addr:street" v="Myers Road"/>
    <tag k="addr:state" v="VT"/>
    <tag k="ref:vcgi:esiteid" v="218015"/>
  </node>
  <node id="-737" visible="true" lat="42.96170371" lon="-73.19624922">
    <tag k="addr:city" v="Shaftsbury"/>
    <tag k="addr:housenumber" v="171"/>
    <tag k="addr:street" v="Simeon Dean Road"/>
    <tag k="addr:state" v="VT"/>
    <tag k="ref:vcgi:esiteid" v="218016"/>
  </node>
  <node id="-739" visible="true" lat="42.96159744" lon="-73.16455078">
    <tag k="addr:city" v="Shaftsbury"/>
    <tag k="addr:housenumber" v="2269"/>
    <tag k="addr:street" v="East Road"/>
    <tag k="addr:state" v="VT"/>
    <tag k="ref:vcgi:esiteid" v="218018"/>
  </node>
  <node id="-744" visible="true" lat="42.96101276" lon="-73.18738176">
    <tag k="addr:city" v="Shaftsbury"/>
    <tag k="addr:housenumber" v="808"/>
    <tag k="addr:street" v="Rod And Gun Club Road"/>
    <tag k="addr:state" v="VT"/>
    <tag k="ref:vcgi:esiteid" v="218023"/>
  </node>
  <node id="-745" visible="true" lat="42.96088385" lon="-73.19320747">
    <tag k="addr:city" v="Shaftsbury"/>
    <tag k="addr:housenumber" v="273"/>
    <tag k="addr:street" v="Simeon Dean Road"/>
    <tag k="addr:state" v="VT"/>
    <tag k="ref:vcgi:esiteid" v="218024"/>
  </node>
  <node id="-746" visible="true" lat="42.96090864" lon="-73.19447457">
    <tag k="addr:city" v="Shaftsbury"/>
    <tag k="addr:housenumber" v="243"/>
    <tag k="addr:street" v="Simeon Dean Road"/>
    <tag k="addr:state" v="VT"/>
    <tag k="ref:vcgi:esiteid" v="218025"/>
  </node>
  <node id="-749" visible="true" lat="42.96049934" lon="-73.20073806">
    <tag k="addr:city" v="Shaftsbury"/>
    <tag k="addr:housenumber" v="303"/>
    <tag k="addr:street" v="Grove Road"/>
    <tag k="addr:state" v="VT"/>
    <tag k="ref:vcgi:esiteid" v="218028"/>
  </node>
  <node id="-751" visible="true" lat="42.96042703" lon="-73.20005687">
    <tag k="addr:city" v="Shaftsbury"/>
    <tag k="addr:housenumber" v="347"/>
    <tag k="addr:street" v="Grove Road"/>
    <tag k="addr:state" v="VT"/>
    <tag k="ref:vcgi:esiteid" v="218030"/>
  </node>
  <node id="-752" visible="true" lat="42.96013727" lon="-73.19324183">
    <tag k="addr:city" v="Shaftsbury"/>
    <tag k="addr:housenumber" v="298"/>
    <tag k="addr:street" v="Simeon Dean Road"/>
    <tag k="addr:state" v="VT"/>
    <tag k="ref:vcgi:esiteid" v="218031"/>
  </node>
  <node id="-753" visible="true" lat="42.96014238" lon="-73.19461732">
    <tag k="addr:city" v="Shaftsbury"/>
    <tag k="addr:housenumber" v="234"/>
    <tag k="addr:street" v="Simeon Dean Road"/>
    <tag k="addr:state" v="VT"/>
    <tag k="ref:vcgi:esiteid" v="218032"/>
  </node>
  <node id="-754" visible="true" lat="42.96021641" lon="-73.1918238">
    <tag k="addr:city" v="Shaftsbury"/>
    <tag k="addr:housenumber" v="362"/>
    <tag k="addr:street" v="Simeon Dean Road"/>
    <tag k="addr:state" v="VT"/>
    <tag k="ref:vcgi:esiteid" v="218033"/>
  </node>
  <node id="-756" visible="true" lat="42.96016858" lon="-73.20156472">
    <tag k="addr:city" v="Shaftsbury"/>
    <tag k="addr:housenumber" v="291"/>
    <tag k="addr:street" v="Grove Road"/>
    <tag k="addr:state" v="VT"/>
    <tag k="ref:vcgi:esiteid" v="218035"/>
  </node>
  <node id="-758" visible="true" lat="42.95994186" lon="-73.22454071">
    <tag k="addr:city" v="Shaftsbury"/>
    <tag k="addr:housenumber" v="1113"/>
    <tag k="addr:street" v="Myers Road"/>
    <tag k="addr:state" v="VT"/>
    <tag k="ref:vcgi:esiteid" v="218037"/>
  </node>
  <node id="-759" visible="true" lat="42.9601514" lon="-73.18896447">
    <tag k="addr:city" v="Shaftsbury"/>
    <tag k="addr:housenumber" v="835"/>
    <tag k="addr:street" v="Rod And Gun Club Road"/>
    <tag k="addr:state" v="VT"/>
    <tag k="ref:vcgi:esiteid" v="218038"/>
  </node>
  <node id="-760" visible="true" lat="42.96009312" lon="-73.1857854">
    <tag k="addr:city" v="Shaftsbury"/>
    <tag k="addr:housenumber" v="714"/>
    <tag k="addr:street" v="Rod And Gun Club Road"/>
    <tag k="addr:state" v="VT"/>
    <tag k="ref:vcgi:esiteid" v="218039"/>
  </node>
  <node id="-761" visible="true" lat="42.95979025" lon="-73.20475167">
    <tag k="addr:city" v="Shaftsbury"/>
    <tag k="addr:housenumber" v="27"/>
    <tag k="addr:street" v="Grove Road"/>
    <tag k="addr:state" v="VT"/>
    <tag k="ref:vcgi:esiteid" v="218040"/>
  </node>
  <node id="-763" visible="true" lat="42.95994719" lon="-73.19605525">
    <tag k="addr:city" v="Shaftsbury"/>
    <tag k="addr:housenumber" v="126"/>
    <tag k="addr:street" v="Simeon Dean Road"/>
    <tag k="addr:state" v="VT"/>
    <tag k="ref:vcgi:esiteid" v="218042"/>
  </node>
  <node id="-768" visible="true" lat="42.95987021" lon="-73.18565951">
    <tag k="addr:city" v="Shaftsbury"/>
    <tag k="addr:housenumber" v="684"/>
    <tag k="addr:street" v="Rod And Gun Club Road"/>
    <tag k="addr:state" v="VT"/>
    <tag k="ref:vcgi:esiteid" v="218047"/>
  </node>
  <node id="-770" visible="true" lat="42.9595892" lon="-73.20414982">
    <tag k="addr:city" v="Shaftsbury"/>
    <tag k="addr:housenumber" v="115"/>
    <tag k="addr:street" v="Grove Road"/>
    <tag k="addr:state" v="VT"/>
    <tag k="ref:vcgi:esiteid" v="218049"/>
  </node>
  <node id="-771" visible="true" lat="42.95929907" lon="-73.22823167">
    <tag k="addr:city" v="Shaftsbury"/>
    <tag k="addr:housenumber" v="515"/>
    <tag k="addr:street" v="Ehrich Road"/>
    <tag k="addr:state" v="VT"/>
    <tag k="ref:vcgi:esiteid" v="218050"/>
  </node>
  <node id="-776" visible="true" lat="42.95897039" lon="-73.22529992">
    <tag k="addr:city" v="Shaftsbury"/>
    <tag k="addr:housenumber" v="458"/>
    <tag k="addr:street" v="Ehrich Road"/>
    <tag k="addr:state" v="VT"/>
    <tag k="ref:vcgi:esiteid" v="218055"/>
  </node>
  <node id="-777" visible="true" lat="42.9589774" lon="-73.2032191">
    <tag k="addr:city" v="Shaftsbury"/>
    <tag k="addr:housenumber" v="160"/>
    <tag k="addr:street" v="Grove Road"/>
    <tag k="addr:state" v="VT"/>
    <tag k="ref:vcgi:esiteid" v="218056"/>
  </node>
  <node id="-779" visible="true" lat="42.95903469" lon="-73.20223584">
    <tag k="addr:city" v="Shaftsbury"/>
    <tag k="addr:housenumber" v="192"/>
    <tag k="addr:street" v="Grove Road"/>
    <tag k="addr:state" v="VT"/>
    <tag k="ref:vcgi:esiteid" v="218058"/>
  </node>
  <node id="-781" visible="true" lat="42.95877075" lon="-73.20399959">
    <tag k="addr:city" v="Shaftsbury"/>
    <tag k="addr:housenumber" v="136"/>
    <tag k="addr:street" v="Grove Road"/>
    <tag k="addr:state" v="VT"/>
    <tag k="ref:vcgi:esiteid" v="218060"/>
  </node>
  <node id="-783" visible="true" lat="42.95854395" lon="-73.2230255">
    <tag k="addr:city" v="Shaftsbury"/>
    <tag k="addr:housenumber" v="460"/>
    <tag k="addr:street" v="Ehrich Road"/>
    <tag k="addr:state" v="VT"/>
    <tag k="ref:vcgi:esiteid" v="218062"/>
  </node>
  <node id="-799" visible="true" lat="42.9568961" lon="-73.20315568">
    <tag k="addr:city" v="Shaftsbury"/>
    <tag k="addr:housenumber" v="381"/>
    <tag k="addr:street" v="Airport Road"/>
    <tag k="addr:state" v="VT"/>
    <tag k="ref:vcgi:esiteid" v="218078"/>
  </node>
  <node id="-804" visible="true" lat="42.955771" lon="-73.22758178">
    <tag k="addr:city" v="Shaftsbury"/>
    <tag k="addr:housenumber" v="250"/>
    <tag k="addr:street" v="Ehrich Road"/>
    <tag k="addr:state" v="VT"/>
    <tag k="ref:vcgi:esiteid" v="218083"/>
  </node>
  <node id="-807" visible="true" lat="42.95571955" lon="-73.20631412">
    <tag k="addr:city" v="Shaftsbury"/>
    <tag k="addr:housenumber" v="173"/>
    <tag k="addr:street" v="Airport Road"/>
    <tag k="addr:state" v="VT"/>
    <tag k="ref:vcgi:esiteid" v="218086"/>
  </node>
  <node id="-810" visible="true" lat="42.95538238" lon="-73.20396893">
    <tag k="addr:city" v="Shaftsbury"/>
    <tag k="addr:housenumber" v="295"/>
    <tag k="addr:street" v="Airport Road"/>
    <tag k="addr:state" v="VT"/>
    <tag k="ref:vcgi:esiteid" v="218089"/>
  </node>
  <node id="-811" visible="true" lat="42.95521545" lon="-73.20654296">
    <tag k="addr:city" v="Shaftsbury"/>
    <tag k="addr:housenumber" v="171"/>
    <tag k="addr:street" v="Airport Road"/>
    <tag k="addr:state" v="VT"/>
    <tag k="ref:vcgi:esiteid" v="218090"/>
  </node>
  <node id="-816" visible="true" lat="42.95499755" lon="-73.18376098">
    <tag k="addr:city" v="Shaftsbury"/>
    <tag k="addr:housenumber" v="280"/>
    <tag k="addr:street" v="Rod And Gun Club Road"/>
    <tag k="addr:state" v="VT"/>
    <tag k="ref:vcgi:esiteid" v="218095"/>
  </node>
  <node id="-818" visible="true" lat="42.95444471" lon="-73.2286177">
    <tag k="addr:city" v="Shaftsbury"/>
    <tag k="addr:housenumber" v="187"/>
    <tag k="addr:street" v="Ehrich Road"/>
    <tag k="addr:state" v="VT"/>
    <tag k="ref:vcgi:esiteid" v="218097"/>
  </node>
  <node id="-819" visible="true" lat="42.95468902" lon="-73.18656921">
    <tag k="addr:city" v="Shaftsbury"/>
    <tag k="addr:housenumber" v="351"/>
    <tag k="addr:street" v="Rod And Gun Club Road"/>
    <tag k="addr:state" v="VT"/>
    <tag k="ref:vcgi:esiteid" v="218098"/>
  </node>
  <node id="-820" visible="true" lat="42.95442199" lon="-73.20484161">
    <tag k="addr:city" v="Shaftsbury"/>
    <tag k="addr:housenumber" v="230"/>
    <tag k="addr:street" v="Airport Road"/>
    <tag k="addr:state" v="VT"/>
    <tag k="ref:vcgi:esiteid" v="218099"/>
  </node>
  <node id="-821" visible="true" lat="42.95443586" lon="-73.20635918">
    <tag k="addr:city" v="Shaftsbury"/>
    <tag k="addr:housenumber" v="161"/>
    <tag k="addr:street" v="Airport Road"/>
    <tag k="addr:state" v="VT"/>
    <tag k="ref:vcgi:esiteid" v="218100"/>
  </node>
  <node id="-823" visible="true" lat="42.95437194" lon="-73.20686299">
    <tag k="addr:city" v="Shaftsbury"/>
    <tag k="addr:housenumber" v="137"/>
    <tag k="addr:street" v="Airport Road"/>
    <tag k="addr:state" v="VT"/>
    <tag k="ref:vcgi:esiteid" v="218102"/>
  </node>
  <node id="-826" visible="true" lat="42.95436744" lon="-73.18282919">
    <tag k="addr:city" v="Shaftsbury"/>
    <tag k="addr:housenumber" v="278"/>
    <tag k="addr:street" v="Rod And Gun Club Road"/>
    <tag k="addr:state" v="VT"/>
    <tag k="ref:vcgi:esiteid" v="218105"/>
  </node>
  <node id="-829" visible="true" lat="42.95407674" lon="-73.20749394">
    <tag k="addr:city" v="Shaftsbury"/>
    <tag k="addr:housenumber" v="99"/>
    <tag k="addr:street" v="Airport Road"/>
    <tag k="addr:state" v="VT"/>
    <tag k="ref:vcgi:esiteid" v="218108"/>
  </node>
  <node id="-830" visible="true" lat="42.95376205" lon="-73.231781">
    <tag k="addr:city" v="Shaftsbury"/>
    <tag k="addr:housenumber" v="152"/>
    <tag k="addr:street" v="Horton Hill Road"/>
    <tag k="addr:state" v="VT"/>
    <tag k="ref:vcgi:esiteid" v="218109"/>
  </node>
  <node id="-831" visible="true" lat="42.95395964" lon="-73.20789749">
    <tag k="addr:city" v="Shaftsbury"/>
    <tag k="addr:housenumber" v="75"/>
    <tag k="addr:street" v="Airport Road"/>
    <tag k="addr:state" v="VT"/>
    <tag k="ref:vcgi:esiteid" v="218110"/>
  </node>
  <node id="-832" visible="true" lat="42.95353503" lon="-73.22882384">
    <tag k="addr:city" v="Shaftsbury"/>
    <tag k="addr:housenumber" v="127"/>
    <tag k="addr:street" v="Ehrich Road"/>
    <tag k="addr:state" v="VT"/>
    <tag k="ref:vcgi:esiteid" v="218111"/>
  </node>
  <node id="-836" visible="true" lat="42.95353449" lon="-73.20714388">
    <tag k="addr:city" v="Shaftsbury"/>
    <tag k="addr:housenumber" v="96"/>
    <tag k="addr:street" v="Airport Road"/>
    <tag k="addr:state" v="VT"/>
    <tag k="ref:vcgi:esiteid" v="218115"/>
  </node>
  <node id="-839" visible="true" lat="42.95336441" lon="-73.2080902">
    <tag k="addr:city" v="Shaftsbury"/>
    <tag k="addr:housenumber" v="50"/>
    <tag k="addr:street" v="Airport Road"/>
    <tag k="addr:state" v="VT"/>
    <tag k="ref:vcgi:esiteid" v="218118"/>
  </node>
  <node id="-840" visible="true" lat="42.95348188" lon="-73.18522">
    <tag k="addr:city" v="Shaftsbury"/>
    <tag k="addr:housenumber" v="272"/>
    <tag k="addr:street" v="Rod And Gun Club Road"/>
    <tag k="addr:state" v="VT"/>
    <tag k="ref:vcgi:esiteid" v="218119"/>
  </node>
  <node id="-849" visible="true" lat="42.9525299" lon="-73.23063659">
    <tag k="addr:city" v="Shaftsbury"/>
    <tag k="addr:housenumber" v="98"/>
    <tag k="addr:street" v="Horton Hill Road"/>
    <tag k="addr:state" v="VT"/>
    <tag k="ref:vcgi:esiteid" v="218128"/>
  </node>
  <node id="-851" visible="true" lat="42.95268818" lon="-73.18702668">
    <tag k="addr:city" v="Shaftsbury"/>
    <tag k="addr:housenumber" v="211"/>
    <tag k="addr:street" v="Rod And Gun Club Road"/>
    <tag k="addr:state" v="VT"/>
    <tag k="ref:vcgi:esiteid" v="218130"/>
  </node>
  <node id="-860" visible="true" lat="42.95217895" lon="-73.23013305">
    <tag k="addr:city" v="Shaftsbury"/>
    <tag k="addr:housenumber" v="88"/>
    <tag k="addr:street" v="Horton Hill Road"/>
    <tag k="addr:state" v="VT"/>
    <tag k="ref:vcgi:esiteid" v="218139"/>
  </node>
  <node id="-869" visible="true" lat="42.95198884" lon="-73.22517087">
    <tag k="addr:city" v="Shaftsbury"/>
    <tag k="addr:housenumber" v="582"/>
    <tag k="addr:street" v="Twitchell Hill Road"/>
    <tag k="addr:state" v="VT"/>
    <tag k="ref:vcgi:esiteid" v="218148"/>
  </node>
  <node id="-876" visible="true" lat="42.95157929" lon="-73.22477246">
    <tag k="addr:city" v="Shaftsbury"/>
    <tag k="addr:housenumber" v="568"/>
    <tag k="addr:street" v="Twitchell Hill Road"/>
    <tag k="addr:state" v="VT"/>
    <tag k="ref:vcgi:esiteid" v="218155"/>
  </node>
  <node id="-877" visible="true" lat="42.95146414" lon="-73.22888976">
    <tag k="addr:city" v="Shaftsbury"/>
    <tag k="addr:housenumber" v="27"/>
    <tag k="addr:street" v="Horton Hill Road"/>
    <tag k="addr:state" v="VT"/>
    <tag k="ref:vcgi:esiteid" v="218156"/>
  </node>
  <node id="-878" visible="true" lat="42.95145807" lon="-73.23104164">
    <tag k="addr:city" v="Shaftsbury"/>
    <tag k="addr:housenumber" v="137"/>
    <tag k="addr:street" v="Horton Hill Road"/>
    <tag k="addr:state" v="VT"/>
    <tag k="ref:vcgi:esiteid" v="218157"/>
  </node>
  <node id="-879" visible="true" lat="42.95140901" lon="-73.22733712">
    <tag k="addr:city" v="Shaftsbury"/>
    <tag k="addr:housenumber" v="683"/>
    <tag k="addr:street" v="Twitchell Hill Road"/>
    <tag k="addr:state" v="VT"/>
    <tag k="ref:vcgi:esiteid" v="218158"/>
  </node>
  <node id="-886" visible="true" lat="42.95111905" lon="-73.22577669">
    <tag k="addr:city" v="Shaftsbury"/>
    <tag k="addr:housenumber" v="545"/>
    <tag k="addr:street" v="Twitchell Hill Road"/>
    <tag k="addr:state" v="VT"/>
    <tag k="ref:vcgi:esiteid" v="218165"/>
  </node>
  <node id="-893" visible="true" lat="42.95077614" lon="-73.22468955">
    <tag k="addr:city" v="Shaftsbury"/>
    <tag k="addr:housenumber" v="514"/>
    <tag k="addr:street" v="Twitchell Hill Road"/>
    <tag k="addr:state" v="VT"/>
    <tag k="ref:vcgi:esiteid" v="218172"/>
  </node>
  <node id="-901" visible="true" lat="42.95039735" lon="-73.21075262">
    <tag k="addr:city" v="Shaftsbury"/>
    <tag k="addr:housenumber" v="1250"/>
    <tag k="addr:street" v="Vermont Route 7A"/>
    <tag k="addr:state" v="VT"/>
    <tag k="ref:vcgi:esiteid" v="218180"/>
  </node>
  <node id="-905" visible="true" lat="42.95000902" lon="-73.22441293">
    <tag k="addr:city" v="Shaftsbury"/>
    <tag k="addr:housenumber" v="462"/>
    <tag k="addr:street" v="Twitchell Hill Road"/>
    <tag k="addr:state" v="VT"/>
    <tag k="ref:vcgi:esiteid" v="218184"/>
  </node>
  <node id="-907" visible="true" lat="42.94988362" lon="-73.22602614">
    <tag k="addr:city" v="Shaftsbury"/>
    <tag k="addr:housenumber" v="411"/>
    <tag k="addr:street" v="Twitchell Hill Road"/>
    <tag k="addr:state" v="VT"/>
    <tag k="ref:vcgi:esiteid" v="218186"/>
  </node>
  <node id="-912" visible="true" lat="42.94909049" lon="-73.22419151">
    <tag k="addr:city" v="Shaftsbury"/>
    <tag k="addr:housenumber" v="394"/>
    <tag k="addr:street" v="Twitchell Hill Road"/>
    <tag k="addr:state" v="VT"/>
    <tag k="ref:vcgi:esiteid" v="218192"/>
  </node>
  <node id="-915" visible="true" lat="42.94908538" lon="-73.18625687">
    <tag k="addr:city" v="Shaftsbury"/>
    <tag k="addr:housenumber" v="1316"/>
    <tag k="addr:street" v="Buck Hill Road"/>
    <tag k="addr:state" v="VT"/>
    <tag k="ref:vcgi:esiteid" v="218196"/>
  </node>
  <node id="-917" visible="true" lat="42.94896569" lon="-73.18480851">
    <tag k="addr:city" v="Shaftsbury"/>
    <tag k="addr:housenumber" v="1430"/>
    <tag k="addr:street" v="Buck Hill Road"/>
    <tag k="addr:state" v="VT"/>
    <tag k="ref:vcgi:esiteid" v="218198"/>
  </node>
  <node id="-918" visible="true" lat="42.94863757" lon="-73.22386333">
    <tag k="addr:city" v="Shaftsbury"/>
    <tag k="addr:housenumber" v="368"/>
    <tag k="addr:street" v="Twitchell Hill Road"/>
    <tag k="addr:state" v="VT"/>
    <tag k="ref:vcgi:esiteid" v="218199"/>
  </node>
  <node id="-924" visible="true" lat="42.94855588" lon="-73.22409451">
    <tag k="addr:city" v="Shaftsbury"/>
    <tag k="addr:housenumber" v="358"/>
    <tag k="addr:street" v="Twitchell Hill Road"/>
    <tag k="addr:state" v="VT"/>
    <tag k="ref:vcgi:esiteid" v="218205"/>
  </node>
  <node id="-925" visible="true" lat="42.94879596" lon="-73.18874663">
    <tag k="addr:city" v="Shaftsbury"/>
    <tag k="addr:housenumber" v="1185"/>
    <tag k="addr:street" v="Buck Hill Road"/>
    <tag k="addr:state" v="VT"/>
    <tag k="ref:vcgi:esiteid" v="218206"/>
  </node>
  <node id="-929" visible="true" lat="42.94827231" lon="-73.22396344">
    <tag k="addr:city" v="Shaftsbury"/>
    <tag k="addr:housenumber" v="338"/>
    <tag k="addr:street" v="Twitchell Hill Road"/>
    <tag k="addr:state" v="VT"/>
    <tag k="ref:vcgi:esiteid" v="218210"/>
  </node>
  <node id="-936" visible="true" lat="42.94819098" lon="-73.21201049">
    <tag k="addr:city" v="Shaftsbury"/>
    <tag k="addr:housenumber" v="95"/>
    <tag k="addr:street" v="Grange Road"/>
    <tag k="addr:state" v="VT"/>
    <tag k="ref:vcgi:esiteid" v="218217"/>
  </node>
  <node id="-939" visible="true" lat="42.94796258" lon="-73.2239125">
    <tag k="addr:city" v="Shaftsbury"/>
    <tag k="addr:housenumber" v="316"/>
    <tag k="addr:street" v="Twitchell Hill Road"/>
    <tag k="addr:state" v="VT"/>
    <tag k="ref:vcgi:esiteid" v="218220"/>
  </node>
  <node id="-941" visible="true" lat="42.94802699" lon="-73.21235958">
    <tag k="addr:city" v="Shaftsbury"/>
    <tag k="addr:housenumber" v="79"/>
    <tag k="addr:street" v="Grange Road"/>
    <tag k="addr:state" v="VT"/>
    <tag k="ref:vcgi:esiteid" v="218222"/>
  </node>
  <node id="-944" visible="true" lat="42.94804383" lon="-73.19411158">
    <tag k="addr:city" v="Shaftsbury"/>
    <tag k="addr:housenumber" v="887"/>
    <tag k="addr:street" v="Buck Hill Road"/>
    <tag k="addr:state" v="VT"/>
    <tag k="ref:vcgi:esiteid" v="218225"/>
  </node>
  <node id="-945" visible="true" lat="42.94779624" lon="-73.21378711">
    <tag k="addr:city" v="Shaftsbury"/>
    <tag k="addr:housenumber" v="4"/>
    <tag k="addr:street" v="Grange Road"/>
    <tag k="addr:state" v="VT"/>
    <tag k="ref:vcgi:esiteid" v="218227"/>
  </node>
  <node id="-948" visible="true" lat="42.94774874" lon="-73.224386">
    <tag k="addr:city" v="Shaftsbury"/>
    <tag k="addr:housenumber" v="299"/>
    <tag k="addr:street" v="Twitchell Hill Road"/>
    <tag k="addr:state" v="VT"/>
    <tag k="ref:vcgi:esiteid" v="218231"/>
  </node>
  <node id="-953" visible="true" lat="42.94750784" lon="-73.22379911">
    <tag k="addr:city" v="Shaftsbury"/>
    <tag k="addr:housenumber" v="282"/>
    <tag k="addr:street" v="Twitchell Hill Road"/>
    <tag k="addr:state" v="VT"/>
    <tag k="ref:vcgi:esiteid" v="218237"/>
  </node>
  <node id="-956" visible="true" lat="42.94738941" lon="-73.21176644">
    <tag k="addr:city" v="Shaftsbury"/>
    <tag k="addr:housenumber" v="49"/>
    <tag k="addr:street" v="Underpass Road"/>
    <tag k="addr:state" v="VT"/>
    <tag k="ref:vcgi:esiteid" v="218240"/>
  </node>
  <node id="-957" visible="true" lat="42.94750213" lon="-73.19020843">
    <tag k="addr:city" v="Shaftsbury"/>
    <tag k="addr:housenumber" v="1132"/>
    <tag k="addr:street" v="Buck Hill Road"/>
    <tag k="addr:state" v="VT"/>
    <tag k="ref:vcgi:esiteid" v="218241"/>
  </node>
  <node id="-960" visible="true" lat="42.94708578" lon="-73.22365694">
    <tag k="addr:city" v="Shaftsbury"/>
    <tag k="addr:housenumber" v="252"/>
    <tag k="addr:street" v="Twitchell Hill Road"/>
    <tag k="addr:state" v="VT"/>
    <tag k="ref:vcgi:esiteid" v="218245"/>
  </node>
  <node id="-964" visible="true" lat="42.9471129" lon="-73.20988027">
    <tag k="addr:city" v="Shaftsbury"/>
    <tag k="addr:housenumber" v="43"/>
    <tag k="addr:street" v="Buck Hill Road"/>
    <tag k="addr:state" v="VT"/>
    <tag k="ref:vcgi:esiteid" v="218249"/>
  </node>
  <node id="-966" visible="true" lat="42.94689281" lon="-73.21203546">
    <tag k="addr:city" v="Shaftsbury"/>
    <tag k="addr:housenumber" v="56"/>
    <tag k="addr:street" v="Church Street"/>
    <tag k="addr:state" v="VT"/>
    <tag k="ref:vcgi:esiteid" v="218251"/>
  </node>
  <node id="-968" visible="true" lat="42.94681768" lon="-73.22356543">
    <tag k="addr:city" v="Shaftsbury"/>
    <tag k="addr:housenumber" v="230"/>
    <tag k="addr:street" v="Twitchell Hill Road"/>
    <tag k="addr:state" v="VT"/>
    <tag k="ref:vcgi:esiteid" v="218254"/>
  </node>
  <node id="-971" visible="true" lat="42.94675064" lon="-73.2102127">
    <tag k="addr:city" v="Shaftsbury"/>
    <tag k="addr:housenumber" v="41"/>
    <tag k="addr:street" v="Buck Hill Road"/>
    <tag k="addr:state" v="VT"/>
    <tag k="ref:vcgi:esiteid" v="218257"/>
  </node>
  <node id="-972" visible="true" lat="42.94659775" lon="-73.22403778">
    <tag k="addr:city" v="Shaftsbury"/>
    <tag k="addr:housenumber" v="225"/>
    <tag k="addr:street" v="Twitchell Hill Road"/>
    <tag k="addr:state" v="VT"/>
    <tag k="ref:vcgi:esiteid" v="218258"/>
  </node>
  <node id="-974" visible="true" lat="42.94662321" lon="-73.2234766">
    <tag k="addr:city" v="Shaftsbury"/>
    <tag k="addr:housenumber" v="218"/>
    <tag k="addr:street" v="Twitchell Hill Road"/>
    <tag k="addr:state" v="VT"/>
    <tag k="ref:vcgi:esiteid" v="218260"/>
  </node>
  <node id="-975" visible="true" lat="42.94663667" lon="-73.21525445">
    <tag k="addr:city" v="Shaftsbury"/>
    <tag k="addr:housenumber" v="240"/>
    <tag k="addr:street" v="Church Street"/>
    <tag k="addr:state" v="VT"/>
    <tag k="ref:vcgi:esiteid" v="218261"/>
  </node>
  <node id="-977" visible="true" lat="42.9465994" lon="-73.21440814">
    <tag k="addr:city" v="Shaftsbury"/>
    <tag k="addr:housenumber" v="180"/>
    <tag k="addr:street" v="Church Street"/>
    <tag k="addr:state" v="VT"/>
    <tag k="ref:vcgi:esiteid" v="218264"/>
  </node>
  <node id="-979" visible="true" lat="42.94658279" lon="-73.2098236">
    <tag k="addr:city" v="Shaftsbury"/>
    <tag k="addr:housenumber" v="61"/>
    <tag k="addr:street" v="Buck Hill Road"/>
    <tag k="addr:state" v="VT"/>
    <tag k="ref:vcgi:esiteid" v="218266"/>
  </node>
  <node id="-980" visible="true" lat="42.94657715" lon="-73.21284237">
    <tag k="addr:city" v="Shaftsbury"/>
    <tag k="addr:housenumber" v="102"/>
    <tag k="addr:street" v="Church Street"/>
    <tag k="addr:state" v="VT"/>
    <tag k="ref:vcgi:esiteid" v="218267"/>
  </node>
  <node id="-981" visible="true" lat="42.9465932" lon="-73.21360991">
    <tag k="addr:city" v="Shaftsbury"/>
    <tag k="addr:housenumber" v="140"/>
    <tag k="addr:street" v="Church Street"/>
    <tag k="addr:state" v="VT"/>
    <tag k="ref:vcgi:esiteid" v="218269"/>
  </node>
  <node id="-982" visible="true" lat="42.94657525" lon="-73.21311971">
    <tag k="addr:city" v="Shaftsbury"/>
    <tag k="addr:housenumber" v="116"/>
    <tag k="addr:street" v="Church Street"/>
    <tag k="addr:state" v="VT"/>
    <tag k="ref:vcgi:esiteid" v="218270"/>
  </node>
  <node id="-983" visible="true" lat="42.94659051" lon="-73.21172103">
    <tag k="addr:city" v="Shaftsbury"/>
    <tag k="addr:housenumber" v="46"/>
    <tag k="addr:street" v="Church Street"/>
    <tag k="addr:state" v="VT"/>
    <tag k="ref:vcgi:esiteid" v="218271"/>
  </node>
  <node id="-984" visible="true" lat="42.94656194" lon="-73.21336554">
    <tag k="addr:city" v="Shaftsbury"/>
    <tag k="addr:housenumber" v="130"/>
    <tag k="addr:street" v="Church Street"/>
    <tag k="addr:state" v="VT"/>
    <tag k="ref:vcgi:esiteid" v="218272"/>
  </node>
  <node id="-985" visible="true" lat="42.94654796" lon="-73.21045858">
    <tag k="addr:city" v="Shaftsbury"/>
    <tag k="addr:housenumber" v="21"/>
    <tag k="addr:street" v="Buck Hill Road"/>
    <tag k="addr:state" v="VT"/>
    <tag k="ref:vcgi:esiteid" v="218273"/>
  </node>
  <node id="-987" visible="true" lat="42.94652172" lon="-73.2123098">
    <tag k="addr:city" v="Shaftsbury"/>
    <tag k="addr:housenumber" v="78"/>
    <tag k="addr:street" v="Church Street"/>
    <tag k="addr:state" v="VT"/>
    <tag k="ref:vcgi:esiteid" v="218276"/>
  </node>
  <node id="-988" visible="true" lat="42.94639462" lon="-73.20782451">
    <tag k="addr:city" v="Shaftsbury"/>
    <tag k="addr:housenumber" v="129"/>
    <tag k="addr:street" v="Buck Hill Road"/>
    <tag k="addr:state" v="VT"/>
    <tag k="ref:vcgi:esiteid" v="218277"/>
  </node>
  <node id="-989" visible="true" lat="42.94638061" lon="-73.22390746">
    <tag k="addr:city" v="Shaftsbury"/>
    <tag k="addr:housenumber" v="207"/>
    <tag k="addr:street" v="Twitchell Hill Road"/>
    <tag k="addr:state" v="VT"/>
    <tag k="ref:vcgi:esiteid" v="218278"/>
  </node>
  <node id="-991" visible="true" lat="42.9465049" lon="-73.20847786">
    <tag k="addr:city" v="Shaftsbury"/>
    <tag k="addr:housenumber" v="97"/>
    <tag k="addr:street" v="Buck Hill Road"/>
    <tag k="addr:state" v="VT"/>
    <tag k="ref:vcgi:esiteid" v="218280"/>
  </node>
  <node id="-992" visible="true" lat="42.94649207" lon="-73.19947169">
    <tag k="addr:city" v="Shaftsbury"/>
    <tag k="addr:housenumber" v="589"/>
    <tag k="addr:street" v="Buck Hill Road"/>
    <tag k="addr:state" v="VT"/>
    <tag k="ref:vcgi:esiteid" v="218281"/>
  </node>
  <node id="-993" visible="true" lat="42.94638855" lon="-73.21013658">
    <tag k="addr:city" v="Shaftsbury"/>
    <tag k="addr:housenumber" v="31"/>
    <tag k="addr:street" v="Buck Hill Road"/>
    <tag k="addr:state" v="VT"/>
    <tag k="ref:vcgi:esiteid" v="218282"/>
  </node>
  <node id="-995" visible="true" lat="42.9462971" lon="-73.2234178">
    <tag k="addr:city" v="Shaftsbury"/>
    <tag k="addr:housenumber" v="198"/>
    <tag k="addr:street" v="Twitchell Hill Road"/>
    <tag k="addr:state" v="VT"/>
    <tag k="ref:vcgi:esiteid" v="218284"/>
  </node>
  <node id="-997" visible="true" lat="42.94625339" lon="-73.21406873">
    <tag k="addr:city" v="Shaftsbury"/>
    <tag k="addr:housenumber" v="167"/>
    <tag k="addr:street" v="Church Street"/>
    <tag k="addr:state" v="VT"/>
    <tag k="ref:vcgi:esiteid" v="218287"/>
  </node>
  <node id="-1000" visible="true" lat="42.94624328" lon="-73.21380615">
    <tag k="addr:city" v="Shaftsbury"/>
    <tag k="addr:housenumber" v="149"/>
    <tag k="addr:street" v="Church Street"/>
    <tag k="addr:state" v="VT"/>
    <tag k="ref:vcgi:esiteid" v="218290"/>
  </node>
  <node id="-1002" visible="true" lat="42.94613135" lon="-73.21158091">
    <tag k="addr:city" v="Shaftsbury"/>
    <tag k="addr:housenumber" v="41"/>
    <tag k="addr:street" v="Church Street"/>
    <tag k="addr:state" v="VT"/>
    <tag k="ref:vcgi:esiteid" v="218293"/>
  </node>
  <node id="-1003" visible="true" lat="42.94609605" lon="-73.21331532">
    <tag k="addr:city" v="Shaftsbury"/>
    <tag k="addr:housenumber" v="127"/>
    <tag k="addr:street" v="Church Street"/>
    <tag k="addr:state" v="VT"/>
    <tag k="ref:vcgi:esiteid" v="218295"/>
  </node>
  <node id="-1004" visible="true" lat="42.94612151" lon="-73.21285357">
    <tag k="addr:city" v="Shaftsbury"/>
    <tag k="addr:housenumber" v="103"/>
    <tag k="addr:street" v="Church Street"/>
    <tag k="addr:state" v="VT"/>
    <tag k="ref:vcgi:esiteid" v="218296"/>
  </node>
  <node id="-1006" visible="true" lat="42.94610992" lon="-73.22380086">
    <tag k="addr:city" v="Shaftsbury"/>
    <tag k="addr:housenumber" v="189"/>
    <tag k="addr:street" v="Twitchell Hill Road"/>
    <tag k="addr:state" v="VT"/>
    <tag k="ref:vcgi:esiteid" v="218298"/>
  </node>
  <node id="-1008" visible="true" lat="42.94613664" lon="-73.21196684">
    <tag k="addr:city" v="Shaftsbury"/>
    <tag k="addr:housenumber" v="57"/>
    <tag k="addr:street" v="Church Street"/>
    <tag k="addr:state" v="VT"/>
    <tag k="ref:vcgi:esiteid" v="218300"/>
  </node>
  <node id="-1009" visible="true" lat="42.94618268" lon="-73.21230464">
    <tag k="addr:city" v="Shaftsbury"/>
    <tag k="addr:housenumber" v="480"/>
    <tag k="addr:street" v="Cleveland Avenue"/>
    <tag k="addr:state" v="VT"/>
    <tag k="ref:vcgi:esiteid" v="218301"/>
  </node>
  <node id="-1011" visible="true" lat="42.94621406" lon="-73.20659169">
    <tag k="addr:city" v="Shaftsbury"/>
    <tag k="addr:housenumber" v="217"/>
    <tag k="addr:street" v="Buck Hill Road"/>
    <tag k="addr:state" v="VT"/>
    <tag k="ref:vcgi:esiteid" v="218304"/>
  </node>
  <node id="-1016" visible="true" lat="42.94601821" lon="-73.21581268">
    <tag k="addr:city" v="Shaftsbury"/>
    <tag k="addr:housenumber" v="251"/>
    <tag k="addr:street" v="Church Street"/>
    <tag k="addr:state" v="VT"/>
    <tag k="ref:vcgi:esiteid" v="218309"/>
  </node>
  <node id="-1017" visible="true" lat="42.94603105" lon="-73.20936627">
    <tag k="addr:city" v="Shaftsbury"/>
    <tag k="addr:housenumber" v="72"/>
    <tag k="addr:street" v="Buck Hill Road"/>
    <tag k="addr:state" v="VT"/>
    <tag k="ref:vcgi:esiteid" v="218310"/>
  </node>
  <node id="-1018" visible="true" lat="42.94590836" lon="-73.22323346">
    <tag k="addr:city" v="Shaftsbury"/>
    <tag k="addr:housenumber" v="170"/>
    <tag k="addr:street" v="Twitchell Hill Road"/>
    <tag k="addr:state" v="VT"/>
    <tag k="ref:vcgi:esiteid" v="218311"/>
  </node>
  <node id="-1020" visible="true" lat="42.94601256" lon="-73.20907997">
    <tag k="addr:city" v="Shaftsbury"/>
    <tag k="addr:housenumber" v="86"/>
    <tag k="addr:street" v="Buck Hill Road"/>
    <tag k="addr:state" v="VT"/>
    <tag k="ref:vcgi:esiteid" v="218313"/>
  </node>
  <node id="-1022" visible="true" lat="42.94589663" lon="-73.20966695">
    <tag k="addr:city" v="Shaftsbury"/>
    <tag k="addr:housenumber" v="58"/>
    <tag k="addr:street" v="Buck Hill Road"/>
    <tag k="addr:state" v="VT"/>
    <tag k="ref:vcgi:esiteid" v="218315"/>
  </node>
  <node id="-1023" visible="true" lat="42.94615349" lon="-73.19747166">
    <tag k="addr:city" v="Shaftsbury"/>
    <tag k="addr:housenumber" v="697"/>
    <tag k="addr:street" v="Buck Hill Road"/>
    <tag k="addr:state" v="VT"/>
    <tag k="ref:vcgi:esiteid" v="218316"/>
  </node>
  <node id="-1024" visible="true" lat="42.94587326" lon="-73.22373962">
    <tag k="addr:city" v="Shaftsbury"/>
    <tag k="addr:housenumber" v="171"/>
    <tag k="addr:street" v="Twitchell Hill Road"/>
    <tag k="addr:state" v="VT"/>
    <tag k="ref:vcgi:esiteid" v="218317"/>
  </node>
  <node id="-1025" visible="true" lat="42.94593767" lon="-73.20863307">
    <tag k="addr:city" v="Shaftsbury"/>
    <tag k="addr:housenumber" v="114"/>
    <tag k="addr:street" v="Buck Hill Road"/>
    <tag k="addr:state" v="VT"/>
    <tag k="ref:vcgi:esiteid" v="218318"/>
  </node>
  <node id="-1028" visible="true" lat="42.94591595" lon="-73.21229788">
    <tag k="addr:city" v="Shaftsbury"/>
    <tag k="addr:housenumber" v="462"/>
    <tag k="addr:street" v="Cleveland Avenue"/>
    <tag k="addr:state" v="VT"/>
    <tag k="ref:vcgi:esiteid" v="218321"/>
  </node>
  <node id="-1030" visible="true" lat="42.94589881" lon="-73.21445506">
    <tag k="addr:city" v="Shaftsbury"/>
    <tag k="addr:housenumber" v="265"/>
    <tag k="addr:street" v="Sycamore Lane"/>
    <tag k="addr:state" v="VT"/>
    <tag k="ref:vcgi:esiteid" v="218323"/>
  </node>
  <node id="-1034" visible="true" lat="42.94583639" lon="-73.20925626">
    <tag k="addr:city" v="Shaftsbury"/>
    <tag k="addr:housenumber" v="78"/>
    <tag k="addr:street" v="Buck Hill Road"/>
    <tag k="addr:state" v="VT"/>
    <tag k="ref:vcgi:esiteid" v="218329"/>
  </node>
  <node id="-1035" visible="true" lat="42.94574335" lon="-73.20762027">
    <tag k="addr:city" v="Shaftsbury"/>
    <tag k="addr:housenumber" v="166"/>
    <tag k="addr:street" v="Buck Hill Road"/>
    <tag k="addr:state" v="VT"/>
    <tag k="ref:vcgi:esiteid" v="218330"/>
  </node>
  <node id="-1037" visible="true" lat="42.94573101" lon="-73.21233524">
    <tag k="addr:city" v="Shaftsbury"/>
    <tag k="addr:housenumber" v="450"/>
    <tag k="addr:street" v="Cleveland Avenue"/>
    <tag k="addr:state" v="VT"/>
    <tag k="ref:vcgi:esiteid" v="218332"/>
  </node>
  <node id="-1038" visible="true" lat="42.94562911" lon="-73.22367095">
    <tag k="addr:city" v="Shaftsbury"/>
    <tag k="addr:housenumber" v="153"/>
    <tag k="addr:street" v="Twitchell Hill Road"/>
    <tag k="addr:state" v="VT"/>
    <tag k="ref:vcgi:esiteid" v="218333"/>
  </node>
  <node id="-1039" visible="true" lat="42.94561503" lon="-73.22308484">
    <tag k="addr:city" v="Shaftsbury"/>
    <tag k="addr:housenumber" v="150"/>
    <tag k="addr:street" v="Twitchell Hill Road"/>
    <tag k="addr:state" v="VT"/>
    <tag k="ref:vcgi:esiteid" v="218334"/>
  </node>
  <node id="-1042" visible="true" lat="42.94563607" lon="-73.21419051">
    <tag k="addr:city" v="Shaftsbury"/>
    <tag k="addr:housenumber" v="266"/>
    <tag k="addr:street" v="Sycamore Lane"/>
    <tag k="addr:state" v="VT"/>
    <tag k="ref:vcgi:esiteid" v="218337"/>
  </node>
  <node id="-1045" visible="true" lat="42.9455986" lon="-73.21466827">
    <tag k="addr:city" v="Shaftsbury"/>
    <tag k="addr:housenumber" v="261"/>
    <tag k="addr:street" v="Sycamore Lane"/>
    <tag k="addr:state" v="VT"/>
    <tag k="ref:vcgi:esiteid" v="218340"/>
  </node>
  <node id="-1048" visible="true" lat="42.94543421" lon="-73.21419417">
    <tag k="addr:city" v="Shaftsbury"/>
    <tag k="addr:housenumber" v="256"/>
    <tag k="addr:street" v="Sycamore Lane"/>
    <tag k="addr:state" v="VT"/>
    <tag k="ref:vcgi:esiteid" v="218343"/>
  </node>
  <node id="-1050" visible="true" lat="42.94550931" lon="-73.21285368">
    <tag k="addr:city" v="Shaftsbury"/>
    <tag k="addr:housenumber" v="433"/>
    <tag k="addr:street" v="Cleveland Avenue"/>
    <tag k="addr:state" v="VT"/>
    <tag k="ref:vcgi:esiteid" v="218345"/>
  </node>
  <node id="-1051" visible="true" lat="42.94554619" lon="-73.1991695">
    <tag k="addr:city" v="Shaftsbury"/>
    <tag k="addr:housenumber" v="562"/>
    <tag k="addr:street" v="Buck Hill Road"/>
    <tag k="addr:state" v="VT"/>
    <tag k="ref:vcgi:esiteid" v="218346"/>
  </node>
  <node id="-1052" visible="true" lat="42.9452992" lon="-73.2236042">
    <tag k="addr:city" v="Shaftsbury"/>
    <tag k="addr:housenumber" v="135"/>
    <tag k="addr:street" v="Twitchell Hill Road"/>
    <tag k="addr:state" v="VT"/>
    <tag k="ref:vcgi:esiteid" v="218347"/>
  </node>
  <node id="-1054" visible="true" lat="42.94544133" lon="-73.21234068">
    <tag k="addr:city" v="Shaftsbury"/>
    <tag k="addr:housenumber" v="426"/>
    <tag k="addr:street" v="Cleveland Avenue"/>
    <tag k="addr:state" v="VT"/>
    <tag k="ref:vcgi:esiteid" v="218349"/>
  </node>
  <node id="-1055" visible="true" lat="42.9452006" lon="-73.20679433">
    <tag k="addr:city" v="Shaftsbury"/>
    <tag k="addr:housenumber" v="210"/>
    <tag k="addr:street" v="Buck Hill Road"/>
    <tag k="addr:state" v="VT"/>
    <tag k="ref:vcgi:esiteid" v="218350"/>
  </node>
  <node id="-1057" visible="true" lat="42.94533157" lon="-73.21469116">
    <tag k="addr:city" v="Shaftsbury"/>
    <tag k="addr:housenumber" v="243"/>
    <tag k="addr:street" v="Sycamore Lane"/>
    <tag k="addr:state" v="VT"/>
    <tag k="ref:vcgi:esiteid" v="218352"/>
  </node>
  <node id="-1059" visible="true" lat="42.94527816" lon="-73.2128601">
    <tag k="addr:city" v="Shaftsbury"/>
    <tag k="addr:housenumber" v="419"/>
    <tag k="addr:street" v="Cleveland Avenue"/>
    <tag k="addr:state" v="VT"/>
    <tag k="ref:vcgi:esiteid" v="218354"/>
  </node>
  <node id="-1061" visible="true" lat="42.94523851" lon="-73.21421747">
    <tag k="addr:city" v="Shaftsbury"/>
    <tag k="addr:housenumber" v="238"/>
    <tag k="addr:street" v="Sycamore Lane"/>
    <tag k="addr:state" v="VT"/>
    <tag k="ref:vcgi:esiteid" v="218356"/>
  </node>
  <node id="-1065" visible="true" lat="42.94480615" lon="-73.20822423">
    <tag k="addr:city" v="Shaftsbury"/>
    <tag k="addr:housenumber" v="150"/>
    <tag k="addr:street" v="Buck Hill Road"/>
    <tag k="addr:state" v="VT"/>
    <tag k="ref:vcgi:esiteid" v="218361"/>
  </node>
  <node id="-1067" visible="true" lat="42.94513692" lon="-73.21287329">
    <tag k="addr:city" v="Shaftsbury"/>
    <tag k="addr:housenumber" v="407"/>
    <tag k="addr:street" v="Cleveland Avenue"/>
    <tag k="addr:state" v="VT"/>
    <tag k="ref:vcgi:esiteid" v="218364"/>
  </node>
  <node id="-1068" visible="true" lat="42.94508743" lon="-73.2146759">
    <tag k="addr:city" v="Shaftsbury"/>
    <tag k="addr:housenumber" v="227"/>
    <tag k="addr:street" v="Sycamore Lane"/>
    <tag k="addr:state" v="VT"/>
    <tag k="ref:vcgi:esiteid" v="218365"/>
  </node>
  <node id="-1072" visible="true" lat="42.94502499" lon="-73.21421652">
    <tag k="addr:city" v="Shaftsbury"/>
    <tag k="addr:housenumber" v="224"/>
    <tag k="addr:street" v="Sycamore Lane"/>
    <tag k="addr:state" v="VT"/>
    <tag k="ref:vcgi:esiteid" v="218369"/>
  </node>
  <node id="-1073" visible="true" lat="42.94494247" lon="-73.22390747">
    <tag k="addr:city" v="Shaftsbury"/>
    <tag k="addr:housenumber" v="111"/>
    <tag k="addr:street" v="Twitchell Hill Road"/>
    <tag k="addr:state" v="VT"/>
    <tag k="ref:vcgi:esiteid" v="218370"/>
  </node>
  <node id="-1074" visible="true" lat="42.94499206" lon="-73.21287536">
    <tag k="addr:city" v="Shaftsbury"/>
    <tag k="addr:housenumber" v="399"/>
    <tag k="addr:street" v="Cleveland Avenue"/>
    <tag k="addr:state" v="VT"/>
    <tag k="ref:vcgi:esiteid" v="218371"/>
  </node>
  <node id="-1076" visible="true" lat="42.94505565" lon="-73.20293425">
    <tag k="addr:city" v="Shaftsbury"/>
    <tag k="addr:housenumber" v="468"/>
    <tag k="addr:street" v="Buck Hill Road"/>
    <tag k="addr:state" v="VT"/>
    <tag k="ref:vcgi:esiteid" v="218373"/>
  </node>
  <node id="-1077" visible="true" lat="42.94491707" lon="-73.22287891">
    <tag k="addr:city" v="Shaftsbury"/>
    <tag k="addr:housenumber" v="96"/>
    <tag k="addr:street" v="Twitchell Hill Road"/>
    <tag k="addr:state" v="VT"/>
    <tag k="ref:vcgi:esiteid" v="218374"/>
  </node>
  <node id="-1078" visible="true" lat="42.94494239" lon="-73.21234522">
    <tag k="addr:city" v="Shaftsbury"/>
    <tag k="addr:housenumber" v="396"/>
    <tag k="addr:street" v="Cleveland Avenue"/>
    <tag k="addr:state" v="VT"/>
    <tag k="ref:vcgi:esiteid" v="218375"/>
  </node>
  <node id="-1079" visible="true" lat="42.94489836" lon="-73.22412984">
    <tag k="addr:city" v="Shaftsbury"/>
    <tag k="addr:housenumber" v="109"/>
    <tag k="addr:street" v="Twitchell Hill Road"/>
    <tag k="addr:state" v="VT"/>
    <tag k="ref:vcgi:esiteid" v="218376"/>
  </node>
  <node id="-1086" visible="true" lat="42.94477462" lon="-73.22389221">
    <tag k="addr:city" v="Shaftsbury"/>
    <tag k="addr:housenumber" v="105"/>
    <tag k="addr:street" v="Twitchell Hill Road"/>
    <tag k="addr:state" v="VT"/>
    <tag k="ref:vcgi:esiteid" v="218383"/>
  </node>
  <node id="-1087" visible="true" lat="42.94475017" lon="-73.22339256">
    <tag k="addr:city" v="Shaftsbury"/>
    <tag k="addr:housenumber" v="93"/>
    <tag k="addr:street" v="Twitchell Hill Road"/>
    <tag k="addr:state" v="VT"/>
    <tag k="ref:vcgi:esiteid" v="218384"/>
  </node>
  <node id="-1088" visible="true" lat="42.94475758" lon="-73.21422932">
    <tag k="addr:city" v="Shaftsbury"/>
    <tag k="addr:housenumber" v="208"/>
    <tag k="addr:street" v="Sycamore Lane"/>
    <tag k="addr:state" v="VT"/>
    <tag k="ref:vcgi:esiteid" v="218385"/>
  </node>
  <node id="-1089" visible="true" lat="42.94478607" lon="-73.21286773">
    <tag k="addr:city" v="Shaftsbury"/>
    <tag k="addr:housenumber" v="385"/>
    <tag k="addr:street" v="Cleveland Avenue"/>
    <tag k="addr:state" v="VT"/>
    <tag k="ref:vcgi:esiteid" v="218386"/>
  </node>
  <node id="-1092" visible="true" lat="42.94455357" lon="-73.22335437">
    <tag k="addr:city" v="Shaftsbury"/>
    <tag k="addr:housenumber" v="83"/>
    <tag k="addr:street" v="Twitchell Hill Road"/>
    <tag k="addr:state" v="VT"/>
    <tag k="ref:vcgi:esiteid" v="218389"/>
  </node>
  <node id="-1093" visible="true" lat="42.94472213" lon="-73.21235866">
    <tag k="addr:city" v="Shaftsbury"/>
    <tag k="addr:housenumber" v="378"/>
    <tag k="addr:street" v="Cleveland Avenue"/>
    <tag k="addr:state" v="VT"/>
    <tag k="ref:vcgi:esiteid" v="218391"/>
  </node>
  <node id="-1094" visible="true" lat="42.94472939" lon="-73.21168919">
    <tag k="addr:city" v="Shaftsbury"/>
    <tag k="addr:housenumber" v="45"/>
    <tag k="addr:street" v="Meadow Lane"/>
    <tag k="addr:state" v="VT"/>
    <tag k="ref:vcgi:esiteid" v="218392"/>
  </node>
  <node id="-1098" visible="true" lat="42.94472317" lon="-73.21111734">
    <tag k="addr:city" v="Shaftsbury"/>
    <tag k="addr:housenumber" v="69"/>
    <tag k="addr:street" v="Meadow Lane"/>
    <tag k="addr:state" v="VT"/>
    <tag k="ref:vcgi:esiteid" v="218396"/>
  </node>
  <node id="-1103" visible="true" lat="42.94445518" lon="-73.22280052">
    <tag k="addr:city" v="Shaftsbury"/>
    <tag k="addr:housenumber" v="68"/>
    <tag k="addr:street" v="Twitchell Hill Road"/>
    <tag k="addr:state" v="VT"/>
    <tag k="ref:vcgi:esiteid" v="218401"/>
  </node>
  <node id="-1104" visible="true" lat="42.94451446" lon="-73.2129407">
    <tag k="addr:city" v="Shaftsbury"/>
    <tag k="addr:housenumber" v="365"/>
    <tag k="addr:street" v="Cleveland Avenue"/>
    <tag k="addr:state" v="VT"/>
    <tag k="ref:vcgi:esiteid" v="218402"/>
  </node>
  <node id="-1105" visible="true" lat="42.94449549" lon="-73.21231431">
    <tag k="addr:city" v="Shaftsbury"/>
    <tag k="addr:housenumber" v="364"/>
    <tag k="addr:street" v="Cleveland Avenue"/>
    <tag k="addr:state" v="VT"/>
    <tag k="ref:vcgi:esiteid" v="218403"/>
  </node>
  <node id="-1107" visible="true" lat="42.94445004" lon="-73.22085456">
    <tag k="addr:city" v="Shaftsbury"/>
    <tag k="addr:housenumber" v="60"/>
    <tag k="addr:street" v="Gratz Road"/>
    <tag k="addr:state" v="VT"/>
    <tag k="ref:vcgi:esiteid" v="218405"/>
  </node>
  <node id="-1109" visible="true" lat="42.94437084" lon="-73.21141275">
    <tag k="addr:city" v="Shaftsbury"/>
    <tag k="addr:housenumber" v="56"/>
    <tag k="addr:street" v="Meadow Lane"/>
    <tag k="addr:state" v="VT"/>
    <tag k="ref:vcgi:esiteid" v="218407"/>
  </node>
  <node id="-1112" visible="true" lat="42.9443283" lon="-73.22331237">
    <tag k="addr:city" v="Shaftsbury"/>
    <tag k="addr:housenumber" v="61"/>
    <tag k="addr:street" v="Twitchell Hill Road"/>
    <tag k="addr:state" v="VT"/>
    <tag k="ref:vcgi:esiteid" v="218410"/>
  </node>
  <node id="-1114" visible="true" lat="42.94429872" lon="-73.21291364">
    <tag k="addr:city" v="Shaftsbury"/>
    <tag k="addr:housenumber" v="355"/>
    <tag k="addr:street" v="Cleveland Avenue"/>
    <tag k="addr:state" v="VT"/>
    <tag k="ref:vcgi:esiteid" v="218412"/>
  </node>
  <node id="-1115" visible="true" lat="42.94437568" lon="-73.21100167">
    <tag k="addr:city" v="Shaftsbury"/>
    <tag k="addr:housenumber" v="79"/>
    <tag k="addr:street" v="Meadow Lane"/>
    <tag k="addr:state" v="VT"/>
    <tag k="ref:vcgi:esiteid" v="218413"/>
  </node>
  <node id="-1117" visible="true" lat="42.94429862" lon="-73.22120026">
    <tag k="addr:city" v="Shaftsbury"/>
    <tag k="addr:housenumber" v="72"/>
    <tag k="addr:street" v="Gratz Road"/>
    <tag k="addr:state" v="VT"/>
    <tag k="ref:vcgi:esiteid" v="218415"/>
  </node>
  <node id="-1119" visible="true" lat="42.94424747" lon="-73.21426334">
    <tag k="addr:city" v="Shaftsbury"/>
    <tag k="addr:housenumber" v="172"/>
    <tag k="addr:street" v="Sycamore Lane"/>
    <tag k="addr:state" v="VT"/>
    <tag k="ref:vcgi:esiteid" v="218417"/>
  </node>
  <node id="-1121" visible="true" lat="42.94430058" lon="-73.21237266">
    <tag k="addr:city" v="Shaftsbury"/>
    <tag k="addr:housenumber" v="350"/>
    <tag k="addr:street" v="Cleveland Avenue"/>
    <tag k="addr:state" v="VT"/>
    <tag k="ref:vcgi:esiteid" v="218419"/>
  </node>
  <node id="-1122" visible="true" lat="42.94419098" lon="-73.22385406">
    <tag k="addr:city" v="Shaftsbury"/>
    <tag k="addr:housenumber" v="49"/>
    <tag k="addr:street" v="Twitchell Hill Road"/>
    <tag k="addr:state" v="VT"/>
    <tag k="ref:vcgi:esiteid" v="218420"/>
  </node>
  <node id="-1124" visible="true" lat="42.94414271" lon="-73.22096066">
    <tag k="addr:city" v="Shaftsbury"/>
    <tag k="addr:housenumber" v="71"/>
    <tag k="addr:street" v="Gratz Road"/>
    <tag k="addr:state" v="VT"/>
    <tag k="ref:vcgi:esiteid" v="218422"/>
  </node>
  <node id="-1125" visible="true" lat="42.94418716" lon="-73.21138763">
    <tag k="addr:city" v="Shaftsbury"/>
    <tag k="addr:housenumber" v="90"/>
    <tag k="addr:street" v="Meadow Lane"/>
    <tag k="addr:state" v="VT"/>
    <tag k="ref:vcgi:esiteid" v="218423"/>
  </node>
  <node id="-1127" visible="true" lat="42.94402949" lon="-73.22325436">
    <tag k="addr:city" v="Shaftsbury"/>
    <tag k="addr:housenumber" v="43"/>
    <tag k="addr:street" v="Twitchell Hill Road"/>
    <tag k="addr:state" v="VT"/>
    <tag k="ref:vcgi:esiteid" v="218425"/>
  </node>
  <node id="-1128" visible="true" lat="42.94394019" lon="-73.22277975">
    <tag k="addr:city" v="Shaftsbury"/>
    <tag k="addr:housenumber" v="32"/>
    <tag k="addr:street" v="Twitchell Hill Road"/>
    <tag k="addr:state" v="VT"/>
    <tag k="ref:vcgi:esiteid" v="218426"/>
  </node>
  <node id="-1129" visible="true" lat="42.94402694" lon="-73.2129364">
    <tag k="addr:city" v="Shaftsbury"/>
    <tag k="addr:housenumber" v="333"/>
    <tag k="addr:street" v="Cleveland Avenue"/>
    <tag k="addr:state" v="VT"/>
    <tag k="ref:vcgi:esiteid" v="218427"/>
  </node>
  <node id="-1130" visible="true" lat="42.94403076" lon="-73.21135711">
    <tag k="addr:city" v="Shaftsbury"/>
    <tag k="addr:housenumber" v="102"/>
    <tag k="addr:street" v="Meadow Lane"/>
    <tag k="addr:state" v="VT"/>
    <tag k="ref:vcgi:esiteid" v="218428"/>
  </node>
  <node id="-1131" visible="true" lat="42.94403607" lon="-73.21231345">
    <tag k="addr:city" v="Shaftsbury"/>
    <tag k="addr:housenumber" v="332"/>
    <tag k="addr:street" v="Cleveland Avenue"/>
    <tag k="addr:state" v="VT"/>
    <tag k="ref:vcgi:esiteid" v="218429"/>
  </node>
  <node id="-1134" visible="true" lat="42.94397105" lon="-73.2147548">
    <tag k="addr:city" v="Shaftsbury"/>
    <tag k="addr:housenumber" v="149"/>
    <tag k="addr:street" v="Sycamore Lane"/>
    <tag k="addr:state" v="VT"/>
    <tag k="ref:vcgi:esiteid" v="218433"/>
  </node>
  <node id="-1135" visible="true" lat="42.94399069" lon="-73.21076071">
    <tag k="addr:city" v="Shaftsbury"/>
    <tag k="addr:housenumber" v="109"/>
    <tag k="addr:street" v="Meadow Lane"/>
    <tag k="addr:state" v="VT"/>
    <tag k="ref:vcgi:esiteid" v="218434"/>
  </node>
  <node id="-1137" visible="true" lat="42.9439711" lon="-73.2142768">
    <tag k="addr:city" v="Shaftsbury"/>
    <tag k="addr:housenumber" v="148"/>
    <tag k="addr:street" v="Sycamore Lane"/>
    <tag k="addr:state" v="VT"/>
    <tag k="ref:vcgi:esiteid" v="218436"/>
  </node>
  <node id="-1138" visible="true" lat="42.94385528" lon="-73.21134185">
    <tag k="addr:city" v="Shaftsbury"/>
    <tag k="addr:housenumber" v="114"/>
    <tag k="addr:street" v="Meadow Lane"/>
    <tag k="addr:state" v="VT"/>
    <tag k="ref:vcgi:esiteid" v="218437"/>
  </node>
  <node id="-1141" visible="true" lat="42.94378289" lon="-73.21295538">
    <tag k="addr:city" v="Shaftsbury"/>
    <tag k="addr:housenumber" v="315"/>
    <tag k="addr:street" v="Cleveland Avenue"/>
    <tag k="addr:state" v="VT"/>
    <tag k="ref:vcgi:esiteid" v="218440"/>
  </node>
  <node id="-1142" visible="true" lat="42.94380228" lon="-73.21355519">
    <tag k="addr:city" v="Shaftsbury"/>
    <tag k="addr:housenumber" v="72"/>
    <tag k="addr:street" v="Colvin Avenue"/>
    <tag k="addr:state" v="VT"/>
    <tag k="ref:vcgi:esiteid" v="218441"/>
  </node>
  <node id="-1143" visible="true" lat="42.94382518" lon="-73.2106957">
    <tag k="addr:city" v="Shaftsbury"/>
    <tag k="addr:housenumber" v="121"/>
    <tag k="addr:street" v="Meadow Lane"/>
    <tag k="addr:state" v="VT"/>
    <tag k="ref:vcgi:esiteid" v="218443"/>
  </node>
  <node id="-1145" visible="true" lat="42.94377427" lon="-73.21385921">
    <tag k="addr:city" v="Shaftsbury"/>
    <tag k="addr:housenumber" v="67"/>
    <tag k="addr:street" v="Colvin Avenue"/>
    <tag k="addr:state" v="VT"/>
    <tag k="ref:vcgi:esiteid" v="218445"/>
  </node>
  <node id="-1146" visible="true" lat="42.94371555" lon="-73.22318908">
    <tag k="addr:city" v="Shaftsbury"/>
    <tag k="addr:housenumber" v="11"/>
    <tag k="addr:street" v="Twitchell Hill Road"/>
    <tag k="addr:state" v="VT"/>
    <tag k="ref:vcgi:esiteid" v="218446"/>
  </node>
  <node id="-1147" visible="true" lat="42.9437009" lon="-73.21428893">
    <tag k="addr:city" v="Shaftsbury"/>
    <tag k="addr:housenumber" v="130"/>
    <tag k="addr:street" v="Sycamore Lane"/>
    <tag k="addr:state" v="VT"/>
    <tag k="ref:vcgi:esiteid" v="218447"/>
  </node>
  <node id="-1149" visible="true" lat="42.94365107" lon="-73.21477644">
    <tag k="addr:city" v="Shaftsbury"/>
    <tag k="addr:housenumber" v="129"/>
    <tag k="addr:street" v="Sycamore Lane"/>
    <tag k="addr:state" v="VT"/>
    <tag k="ref:vcgi:esiteid" v="218449"/>
  </node>
  <node id="-1150" visible="true" lat="42.94365036" lon="-73.21239218">
    <tag k="addr:city" v="Shaftsbury"/>
    <tag k="addr:housenumber" v="308"/>
    <tag k="addr:street" v="Cleveland Avenue"/>
    <tag k="addr:state" v="VT"/>
    <tag k="ref:vcgi:esiteid" v="218450"/>
  </node>
  <node id="-1152" visible="true" lat="42.94367436" lon="-73.21295057">
    <tag k="addr:city" v="Shaftsbury"/>
    <tag k="addr:housenumber" v="307"/>
    <tag k="addr:street" v="Cleveland Avenue"/>
    <tag k="addr:state" v="VT"/>
    <tag k="ref:vcgi:esiteid" v="218452"/>
  </node>
  <node id="-1157" visible="true" lat="42.94356002" lon="-73.21069473">
    <tag k="addr:city" v="Shaftsbury"/>
    <tag k="addr:housenumber" v="142"/>
    <tag k="addr:street" v="Meadow Lane"/>
    <tag k="addr:state" v="VT"/>
    <tag k="ref:vcgi:esiteid" v="218459"/>
  </node>
  <node id="-1158" visible="true" lat="42.94364171" lon="-73.20920864">
    <tag k="addr:city" v="Shaftsbury"/>
    <tag k="addr:housenumber" v="17"/>
    <tag k="addr:street" v="Ledgely Drive"/>
    <tag k="addr:state" v="VT"/>
    <tag k="ref:vcgi:esiteid" v="218460"/>
  </node>
  <node id="-1159" visible="true" lat="42.94353913" lon="-73.21349809">
    <tag k="addr:city" v="Shaftsbury"/>
    <tag k="addr:housenumber" v="42"/>
    <tag k="addr:street" v="Colvin Avenue"/>
    <tag k="addr:state" v="VT"/>
    <tag k="ref:vcgi:esiteid" v="218461"/>
  </node>
  <node id="-1160" visible="true" lat="42.94345927" lon="-73.21429383">
    <tag k="addr:city" v="Shaftsbury"/>
    <tag k="addr:housenumber" v="118"/>
    <tag k="addr:street" v="Sycamore Lane"/>
    <tag k="addr:state" v="VT"/>
    <tag k="ref:vcgi:esiteid" v="218462"/>
  </node>
  <node id="-1161" visible="true" lat="42.94353176" lon="-73.2129753">
    <tag k="addr:city" v="Shaftsbury"/>
    <tag k="addr:housenumber" v="16"/>
    <tag k="addr:street" v="Colvin Avenue"/>
    <tag k="addr:state" v="VT"/>
    <tag k="ref:vcgi:esiteid" v="218463"/>
  </node>
  <node id="-1162" visible="true" lat="42.94347242" lon="-73.21239749">
    <tag k="addr:city" v="Shaftsbury"/>
    <tag k="addr:housenumber" v="296"/>
    <tag k="addr:street" v="Cleveland Avenue"/>
    <tag k="addr:state" v="VT"/>
    <tag k="ref:vcgi:esiteid" v="218464"/>
  </node>
  <node id="-1163" visible="true" lat="42.94345855" lon="-73.21478271">
    <tag k="addr:city" v="Shaftsbury"/>
    <tag k="addr:housenumber" v="113"/>
    <tag k="addr:street" v="Sycamore Lane"/>
    <tag k="addr:state" v="VT"/>
    <tag k="ref:vcgi:esiteid" v="218465"/>
  </node>
  <node id="-1164" visible="true" lat="42.9434967" lon="-73.20832061">
    <tag k="addr:city" v="Shaftsbury"/>
    <tag k="addr:housenumber" v="63"/>
    <tag k="addr:street" v="Ledgely Drive"/>
    <tag k="addr:state" v="VT"/>
    <tag k="ref:vcgi:esiteid" v="218466"/>
  </node>
  <node id="-1167" visible="true" lat="42.94346346" lon="-73.21386442">
    <tag k="addr:city" v="Shaftsbury"/>
    <tag k="addr:housenumber" v="51"/>
    <tag k="addr:street" v="Colvin Avenue"/>
    <tag k="addr:state" v="VT"/>
    <tag k="ref:vcgi:esiteid" v="218469"/>
  </node>
  <node id="-1168" visible="true" lat="42.94358383" lon="-73.20880408">
    <tag k="addr:city" v="Shaftsbury"/>
    <tag k="addr:housenumber" v="43"/>
    <tag k="addr:street" v="Ledgely Drive"/>
    <tag k="addr:state" v="VT"/>
    <tag k="ref:vcgi:esiteid" v="218470"/>
  </node>
  <node id="-1172" visible="true" lat="42.94350813" lon="-73.20782279">
    <tag k="addr:city" v="Shaftsbury"/>
    <tag k="addr:housenumber" v="89"/>
    <tag k="addr:street" v="Ledgely Drive"/>
    <tag k="addr:state" v="VT"/>
    <tag k="ref:vcgi:esiteid" v="218474"/>
  </node>
  <node id="-1173" visible="true" lat="42.94329264" lon="-73.21298303">
    <tag k="addr:city" v="Shaftsbury"/>
    <tag k="addr:housenumber" v="287"/>
    <tag k="addr:street" v="Cleveland Avenue"/>
    <tag k="addr:state" v="VT"/>
    <tag k="ref:vcgi:esiteid" v="218475"/>
  </node>
  <node id="-1175" visible="true" lat="42.94340915" lon="-73.20721696">
    <tag k="addr:city" v="Shaftsbury"/>
    <tag k="addr:housenumber" v="94"/>
    <tag k="addr:street" v="Ledgely Drive"/>
    <tag k="addr:state" v="VT"/>
    <tag k="ref:vcgi:esiteid" v="218478"/>
  </node>
  <node id="-1177" visible="true" lat="42.94325637" lon="-73.21353912">
    <tag k="addr:city" v="Shaftsbury"/>
    <tag k="addr:housenumber" v="43"/>
    <tag k="addr:street" v="Colvin Avenue"/>
    <tag k="addr:state" v="VT"/>
    <tag k="ref:vcgi:esiteid" v="218480"/>
  </node>
  <node id="-1178" visible="true" lat="42.94323349" lon="-73.21481323">
    <tag k="addr:city" v="Shaftsbury"/>
    <tag k="addr:housenumber" v="99"/>
    <tag k="addr:street" v="Sycamore Lane"/>
    <tag k="addr:state" v="VT"/>
    <tag k="ref:vcgi:esiteid" v="218481"/>
  </node>
  <node id="-1179" visible="true" lat="42.94322332" lon="-73.21431288">
    <tag k="addr:city" v="Shaftsbury"/>
    <tag k="addr:housenumber" v="98"/>
    <tag k="addr:street" v="Sycamore Lane"/>
    <tag k="addr:state" v="VT"/>
    <tag k="ref:vcgi:esiteid" v="218482"/>
  </node>
  <node id="-1180" visible="true" lat="42.94327059" lon="-73.21241094">
    <tag k="addr:city" v="Shaftsbury"/>
    <tag k="addr:housenumber" v="278"/>
    <tag k="addr:street" v="Cleveland Avenue"/>
    <tag k="addr:state" v="VT"/>
    <tag k="ref:vcgi:esiteid" v="218483"/>
  </node>
  <node id="-1182" visible="true" lat="42.94318067" lon="-73.20854481">
    <tag k="addr:city" v="Shaftsbury"/>
    <tag k="addr:housenumber" v="50"/>
    <tag k="addr:street" v="Ledgely Drive"/>
    <tag k="addr:state" v="VT"/>
    <tag k="ref:vcgi:esiteid" v="218485"/>
  </node>
  <node id="-1183" visible="true" lat="42.94312074" lon="-73.20895589">
    <tag k="addr:city" v="Shaftsbury"/>
    <tag k="addr:housenumber" v="30"/>
    <tag k="addr:street" v="Ledgely Drive"/>
    <tag k="addr:state" v="VT"/>
    <tag k="ref:vcgi:esiteid" v="218486"/>
  </node>
  <node id="-1185" visible="true" lat="42.9430921" lon="-73.20794914">
    <tag k="addr:city" v="Shaftsbury"/>
    <tag k="addr:housenumber" v="11"/>
    <tag k="addr:street" v="Westview Place"/>
    <tag k="addr:state" v="VT"/>
    <tag k="ref:vcgi:esiteid" v="218489"/>
  </node>
  <node id="-1189" visible="true" lat="42.94305769" lon="-73.21482393">
    <tag k="addr:city" v="Shaftsbury"/>
    <tag k="addr:housenumber" v="85"/>
    <tag k="addr:street" v="Sycamore Lane"/>
    <tag k="addr:state" v="VT"/>
    <tag k="ref:vcgi:esiteid" v="218493"/>
  </node>
  <node id="-1190" visible="true" lat="42.94301393" lon="-73.2142936">
    <tag k="addr:city" v="Shaftsbury"/>
    <tag k="addr:housenumber" v="82"/>
    <tag k="addr:street" v="Sycamore Lane"/>
    <tag k="addr:state" v="VT"/>
    <tag k="ref:vcgi:esiteid" v="218494"/>
  </node>
  <node id="-1199" visible="true" lat="42.94287115" lon="-73.21484767">
    <tag k="addr:city" v="Shaftsbury"/>
    <tag k="addr:housenumber" v="69"/>
    <tag k="addr:street" v="Sycamore Lane"/>
    <tag k="addr:state" v="VT"/>
    <tag k="ref:vcgi:esiteid" v="218503"/>
  </node>
  <node id="-1200" visible="true" lat="42.94277572" lon="-73.21294403">
    <tag k="addr:city" v="Shaftsbury"/>
    <tag k="addr:housenumber" v="245"/>
    <tag k="addr:street" v="Cleveland Avenue"/>
    <tag k="addr:state" v="VT"/>
    <tag k="ref:vcgi:esiteid" v="218504"/>
  </node>
  <node id="-1202" visible="true" lat="42.94279595" lon="-73.21431724">
    <tag k="addr:city" v="Shaftsbury"/>
    <tag k="addr:housenumber" v="66"/>
    <tag k="addr:street" v="Sycamore Lane"/>
    <tag k="addr:state" v="VT"/>
    <tag k="ref:vcgi:esiteid" v="218506"/>
  </node>
  <node id="-1206" visible="true" lat="42.94274403" lon="-73.20794966">
    <tag k="addr:city" v="Shaftsbury"/>
    <tag k="addr:housenumber" v="41"/>
    <tag k="addr:street" v="Westview Place"/>
    <tag k="addr:state" v="VT"/>
    <tag k="ref:vcgi:esiteid" v="218511"/>
  </node>
  <node id="-1207" visible="true" lat="42.94267654" lon="-73.21486663">
    <tag k="addr:city" v="Shaftsbury"/>
    <tag k="addr:housenumber" v="59"/>
    <tag k="addr:street" v="Sycamore Lane"/>
    <tag k="addr:state" v="VT"/>
    <tag k="ref:vcgi:esiteid" v="218512"/>
  </node>
  <node id="-1208" visible="true" lat="42.94270477" lon="-73.20847964">
    <tag k="addr:city" v="Shaftsbury"/>
    <tag k="addr:housenumber" v="44"/>
    <tag k="addr:street" v="Westview Place"/>
    <tag k="addr:state" v="VT"/>
    <tag k="ref:vcgi:esiteid" v="218513"/>
  </node>
  <node id="-1212" visible="true" lat="42.94253853" lon="-73.21433315">
    <tag k="addr:city" v="Shaftsbury"/>
    <tag k="addr:housenumber" v="54"/>
    <tag k="addr:street" v="Sycamore Lane"/>
    <tag k="addr:state" v="VT"/>
    <tag k="ref:vcgi:esiteid" v="218518"/>
  </node>
  <node id="-1213" visible="true" lat="42.94253974" lon="-73.21303044">
    <tag k="addr:city" v="Shaftsbury"/>
    <tag k="addr:housenumber" v="231"/>
    <tag k="addr:street" v="Cleveland Avenue"/>
    <tag k="addr:state" v="VT"/>
    <tag k="ref:vcgi:esiteid" v="218519"/>
  </node>
  <node id="-1215" visible="true" lat="42.9426203" lon="-73.206932">
    <tag k="addr:city" v="Shaftsbury"/>
    <tag k="addr:housenumber" v="63"/>
    <tag k="addr:street" v="Stevens Road"/>
    <tag k="addr:state" v="VT"/>
    <tag k="ref:vcgi:esiteid" v="218521"/>
  </node>
  <node id="-1216" visible="true" lat="42.94245979" lon="-73.21488436">
    <tag k="addr:city" v="Shaftsbury"/>
    <tag k="addr:housenumber" v="47"/>
    <tag k="addr:street" v="Sycamore Lane"/>
    <tag k="addr:state" v="VT"/>
    <tag k="ref:vcgi:esiteid" v="218522"/>
  </node>
  <node id="-1223" visible="true" lat="42.94226725" lon="-73.21435728">
    <tag k="addr:city" v="Shaftsbury"/>
    <tag k="addr:housenumber" v="38"/>
    <tag k="addr:street" v="Sycamore Lane"/>
    <tag k="addr:state" v="VT"/>
    <tag k="ref:vcgi:esiteid" v="218529"/>
  </node>
  <node id="-1224" visible="true" lat="42.94234466" lon="-73.20850372">
    <tag k="addr:city" v="Shaftsbury"/>
    <tag k="addr:housenumber" v="68"/>
    <tag k="addr:street" v="Westview Place"/>
    <tag k="addr:state" v="VT"/>
    <tag k="ref:vcgi:esiteid" v="218531"/>
  </node>
  <node id="-1227" visible="true" lat="42.94226358" lon="-73.2080188">
    <tag k="addr:city" v="Shaftsbury"/>
    <tag k="addr:housenumber" v="73"/>
    <tag k="addr:street" v="Westview Place"/>
    <tag k="addr:state" v="VT"/>
    <tag k="ref:vcgi:esiteid" v="218534"/>
  </node>
  <node id="-1228" visible="true" lat="42.9422782" lon="-73.20729252">
    <tag k="addr:city" v="Shaftsbury"/>
    <tag k="addr:housenumber" v="46"/>
    <tag k="addr:street" v="Stevens Road"/>
    <tag k="addr:state" v="VT"/>
    <tag k="ref:vcgi:esiteid" v="218535"/>
  </node>
  <node id="-1229" visible="true" lat="42.9421861" lon="-73.21489944">
    <tag k="addr:city" v="Shaftsbury"/>
    <tag k="addr:housenumber" v="27"/>
    <tag k="addr:street" v="Sycamore Lane"/>
    <tag k="addr:state" v="VT"/>
    <tag k="ref:vcgi:esiteid" v="218536"/>
  </node>
  <node id="-1230" visible="true" lat="42.94216176" lon="-73.21307468">
    <tag k="addr:city" v="Shaftsbury"/>
    <tag k="addr:housenumber" v="207"/>
    <tag k="addr:street" v="Cleveland Avenue"/>
    <tag k="addr:state" v="VT"/>
    <tag k="ref:vcgi:esiteid" v="218538"/>
  </node>
  <node id="-1232" visible="true" lat="42.94219589" lon="-73.19728088">
    <tag k="addr:city" v="Shaftsbury"/>
    <tag k="addr:housenumber" v="722"/>
    <tag k="addr:street" v="Buck Hill Road"/>
    <tag k="addr:state" v="VT"/>
    <tag k="ref:vcgi:esiteid" v="218540"/>
  </node>
  <node id="-1233" visible="true" lat="42.94211556" lon="-73.21364361">
    <tag k="addr:city" v="Shaftsbury"/>
    <tag k="addr:housenumber" v="48"/>
    <tag k="addr:street" v="Holliday Drive"/>
    <tag k="addr:state" v="VT"/>
    <tag k="ref:vcgi:esiteid" v="218541"/>
  </node>
  <node id="-1234" visible="true" lat="42.94206028" lon="-73.21397595">
    <tag k="addr:city" v="Shaftsbury"/>
    <tag k="addr:housenumber" v="64"/>
    <tag k="addr:street" v="Holliday Drive"/>
    <tag k="addr:state" v="VT"/>
    <tag k="ref:vcgi:esiteid" v="218542"/>
  </node>
  <node id="-1235" visible="true" lat="42.94196628" lon="-73.21437316">
    <tag k="addr:city" v="Shaftsbury"/>
    <tag k="addr:housenumber" v="84"/>
    <tag k="addr:street" v="Holliday Drive"/>
    <tag k="addr:state" v="VT"/>
    <tag k="ref:vcgi:esiteid" v="218544"/>
  </node>
  <node id="-1236" visible="true" lat="42.94192485" lon="-73.21488984">
    <tag k="addr:city" v="Shaftsbury"/>
    <tag k="addr:housenumber" v="11"/>
    <tag k="addr:street" v="Sycamore Lane"/>
    <tag k="addr:state" v="VT"/>
    <tag k="ref:vcgi:esiteid" v="218545"/>
  </node>
  <node id="-1237" visible="true" lat="42.94188328" lon="-73.20854336">
    <tag k="addr:city" v="Shaftsbury"/>
    <tag k="addr:housenumber" v="98"/>
    <tag k="addr:street" v="Westview Place"/>
    <tag k="addr:state" v="VT"/>
    <tag k="ref:vcgi:esiteid" v="218546"/>
  </node>
  <node id="-1238" visible="true" lat="42.94195219" lon="-73.20804773">
    <tag k="addr:city" v="Shaftsbury"/>
    <tag k="addr:housenumber" v="101"/>
    <tag k="addr:street" v="Westview Place"/>
    <tag k="addr:state" v="VT"/>
    <tag k="ref:vcgi:esiteid" v="218547"/>
  </node>
  <node id="-1239" visible="true" lat="42.94184873" lon="-73.21571673">
    <tag k="addr:city" v="Shaftsbury"/>
    <tag k="addr:housenumber" v="148"/>
    <tag k="addr:street" v="Holliday Drive"/>
    <tag k="addr:state" v="VT"/>
    <tag k="ref:vcgi:esiteid" v="218548"/>
  </node>
  <node id="-1240" visible="true" lat="42.94186187" lon="-73.21541214">
    <tag k="addr:city" v="Shaftsbury"/>
    <tag k="addr:housenumber" v="136"/>
    <tag k="addr:street" v="Holliday Drive"/>
    <tag k="addr:state" v="VT"/>
    <tag k="ref:vcgi:esiteid" v="218549"/>
  </node>
  <node id="-1241" visible="true" lat="42.94171367" lon="-73.21338593">
    <tag k="addr:city" v="Shaftsbury"/>
    <tag k="addr:housenumber" v="37"/>
    <tag k="addr:street" v="Holliday Drive"/>
    <tag k="addr:state" v="VT"/>
    <tag k="ref:vcgi:esiteid" v="218550"/>
  </node>
  <node id="-1243" visible="true" lat="42.94167114" lon="-73.21389073">
    <tag k="addr:city" v="Shaftsbury"/>
    <tag k="addr:housenumber" v="63"/>
    <tag k="addr:street" v="Holliday Drive"/>
    <tag k="addr:state" v="VT"/>
    <tag k="ref:vcgi:esiteid" v="218552"/>
  </node>
  <node id="-1244" visible="true" lat="42.9417396" lon="-73.21250583">
    <tag k="addr:city" v="Shaftsbury"/>
    <tag k="addr:housenumber" v="174"/>
    <tag k="addr:street" v="Cleveland Avenue"/>
    <tag k="addr:state" v="VT"/>
    <tag k="ref:vcgi:esiteid" v="218553"/>
  </node>
  <node id="-1245" visible="true" lat="42.94162924" lon="-73.21422894">
    <tag k="addr:city" v="Shaftsbury"/>
    <tag k="addr:housenumber" v="81"/>
    <tag k="addr:street" v="Holliday Drive"/>
    <tag k="addr:state" v="VT"/>
    <tag k="ref:vcgi:esiteid" v="218554"/>
  </node>
  <node id="-1246" visible="true" lat="42.94160456" lon="-73.22334337">
    <tag k="addr:city" v="Shaftsbury"/>
    <tag k="addr:housenumber" v="57"/>
    <tag k="addr:street" v="Paran Road"/>
    <tag k="addr:state" v="VT"/>
    <tag k="ref:vcgi:esiteid" v="218555"/>
  </node>
  <node id="-1247" visible="true" lat="42.94165291" lon="-73.21301593">
    <tag k="addr:city" v="Shaftsbury"/>
    <tag k="addr:housenumber" v="165"/>
    <tag k="addr:street" v="Cleveland Avenue"/>
    <tag k="addr:state" v="VT"/>
    <tag k="ref:vcgi:esiteid" v="218556"/>
  </node>
  <node id="-1248" visible="true" lat="42.94147028" lon="-73.21504695">
    <tag k="addr:city" v="Shaftsbury"/>
    <tag k="addr:housenumber" v="125"/>
    <tag k="addr:street" v="Holliday Drive"/>
    <tag k="addr:state" v="VT"/>
    <tag k="ref:vcgi:esiteid" v="218558"/>
  </node>
  <node id="-1251" visible="true" lat="42.9414811" lon="-73.21477376">
    <tag k="addr:city" v="Shaftsbury"/>
    <tag k="addr:housenumber" v="111"/>
    <tag k="addr:street" v="Holliday Drive"/>
    <tag k="addr:state" v="VT"/>
    <tag k="ref:vcgi:esiteid" v="218562"/>
  </node>
  <node id="-1254" visible="true" lat="42.94145965" lon="-73.21541595">
    <tag k="addr:city" v="Shaftsbury"/>
    <tag k="addr:housenumber" v="141"/>
    <tag k="addr:street" v="Holliday Drive"/>
    <tag k="addr:state" v="VT"/>
    <tag k="ref:vcgi:esiteid" v="218565"/>
  </node>
  <node id="-1580" visible="true" lat="42.9329329" lon="-73.21028638">
    <tag k="addr:city" v="Shaftsbury"/>
    <tag k="addr:housenumber" v="17"/>
    <tag k="addr:street" v="Vermont Route 7A"/>
    <tag k="addr:state" v="VT"/>
    <tag k="ref:vcgi:esiteid" v="218920"/>
  </node>
  <node id="-1582" visible="true" lat="42.93294304" lon="-73.20973895">
    <tag k="addr:city" v="Shaftsbury"/>
    <tag k="addr:housenumber" v="11"/>
    <tag k="addr:street" v="Town Line Road"/>
    <tag k="addr:state" v="VT"/>
    <tag k="ref:vcgi:esiteid" v="218922"/>
  </node>
  <node id="-1603" visible="true" lat="43.0166207" lon="-73.18114855">
    <tag k="addr:city" v="Shaftsbury"/>
    <tag k="addr:housenumber" v="1029"/>
    <tag k="addr:street" v="Old Depot Road"/>
    <tag k="addr:state" v="VT"/>
    <tag k="ref:vcgi:esiteid" v="218944"/>
  </node>
  <node id="-1605" visible="true" lat="42.968176" lon="-73.18386601">
    <tag k="addr:city" v="Shaftsbury"/>
    <tag k="addr:housenumber" v="189"/>
    <tag k="addr:street" v="Fox Hill Road"/>
    <tag k="addr:state" v="VT"/>
    <tag k="ref:vcgi:esiteid" v="218946"/>
  </node>
  <node id="-1609" visible="true" lat="42.97037302" lon="-73.18271465">
    <tag k="addr:city" v="Shaftsbury"/>
    <tag k="addr:housenumber" v="61"/>
    <tag k="addr:street" v="Fox Hill Road"/>
    <tag k="addr:state" v="VT"/>
    <tag k="ref:vcgi:esiteid" v="218951"/>
  </node>
  <node id="-1610" visible="true" lat="42.94454248" lon="-73.2142573">
    <tag k="addr:city" v="Shaftsbury"/>
    <tag k="addr:housenumber" v="192"/>
    <tag k="addr:street" v="Sycamore Lane"/>
    <tag k="addr:state" v="VT"/>
    <tag k="ref:vcgi:esiteid" v="218952"/>
  </node>
  <node id="-1615" visible="true" lat="42.95004773" lon="-73.18621922">
    <tag k="addr:city" v="Shaftsbury"/>
    <tag k="addr:housenumber" v="1323"/>
    <tag k="addr:street" v="Buck Hill Road"/>
    <tag k="addr:state" v="VT"/>
    <tag k="ref:vcgi:esiteid" v="218957"/>
  </node>
  <node id="-1618" visible="true" lat="42.98980232" lon="-73.15811576">
    <tag k="addr:city" v="Shaftsbury"/>
    <tag k="addr:housenumber" v="4309"/>
    <tag k="addr:street" v="East Road"/>
    <tag k="addr:state" v="VT"/>
    <tag k="ref:vcgi:esiteid" v="218960"/>
  </node>
  <node id="-1621" visible="true" lat="42.95990123" lon="-73.20578612">
    <tag k="addr:city" v="Shaftsbury"/>
    <tag k="addr:housenumber" v="124"/>
    <tag k="addr:street" v="Bahan Road"/>
    <tag k="addr:state" v="VT"/>
    <tag k="ref:vcgi:esiteid" v="218963"/>
  </node>
  <node id="-1622" visible="true" lat="42.97174618" lon="-73.18328038">
    <tag k="addr:city" v="Shaftsbury"/>
    <tag k="addr:housenumber" v="28"/>
    <tag k="addr:street" v="Oak Hill Road"/>
    <tag k="addr:state" v="VT"/>
    <tag k="ref:vcgi:esiteid" v="218964"/>
  </node>
  <node id="-1623" visible="true" lat="42.97337578" lon="-73.18422213">
    <tag k="addr:city" v="Shaftsbury"/>
    <tag k="addr:housenumber" v="138"/>
    <tag k="addr:street" v="Oak Hill Road"/>
    <tag k="addr:state" v="VT"/>
    <tag k="ref:vcgi:esiteid" v="218965"/>
  </node>
  <node id="-1625" visible="true" lat="42.95240034" lon="-73.22455143">
    <tag k="addr:city" v="Shaftsbury"/>
    <tag k="addr:housenumber" v="741"/>
    <tag k="addr:street" v="Daniels Road"/>
    <tag k="addr:state" v="VT"/>
    <tag k="ref:vcgi:esiteid" v="218967"/>
  </node>
  <node id="-1627" visible="true" lat="42.94658012" lon="-73.21396664">
    <tag k="addr:city" v="Shaftsbury"/>
    <tag k="addr:housenumber" v="154"/>
    <tag k="addr:street" v="Church Street"/>
    <tag k="addr:state" v="VT"/>
    <tag k="ref:vcgi:esiteid" v="218969"/>
  </node>
  <node id="-1630" visible="true" lat="42.96582589" lon="-73.1703177">
    <tag k="addr:city" v="Shaftsbury"/>
    <tag k="addr:housenumber" v="907"/>
    <tag k="addr:street" v="Holy Smoke Road"/>
    <tag k="addr:state" v="VT"/>
    <tag k="ref:vcgi:esiteid" v="218972"/>
  </node>
  <node id="-1631" visible="true" lat="42.99686824" lon="-73.20339903">
    <tag k="addr:city" v="Shaftsbury"/>
    <tag k="addr:housenumber" v="96"/>
    <tag k="addr:street" v="Highland Woods Drive"/>
    <tag k="addr:state" v="VT"/>
    <tag k="ref:vcgi:esiteid" v="218974"/>
  </node>
  <node id="-1635" visible="true" lat="43.00387049" lon="-73.19107863">
    <tag k="addr:city" v="Shaftsbury"/>
    <tag k="addr:housenumber" v="1710"/>
    <tag k="addr:street" v="Hidden Valley Road"/>
    <tag k="addr:state" v="VT"/>
    <tag k="ref:vcgi:esiteid" v="218979"/>
  </node>
  <node id="-1636" visible="true" lat="43.00383978" lon="-73.19227522">
    <tag k="addr:city" v="Shaftsbury"/>
    <tag k="addr:housenumber" v="1768"/>
    <tag k="addr:street" v="Hidden Valley Road"/>
    <tag k="addr:state" v="VT"/>
    <tag k="ref:vcgi:esiteid" v="218980"/>
  </node>
  <node id="-1637" visible="true" lat="42.95959241" lon="-73.20277382">
    <tag k="addr:city" v="Shaftsbury"/>
    <tag k="addr:housenumber" v="191"/>
    <tag k="addr:street" v="Grove Road"/>
    <tag k="addr:state" v="VT"/>
    <tag k="ref:vcgi:esiteid" v="218981"/>
  </node>
  <node id="-1641" visible="true" lat="42.95931515" lon="-73.20106956">
    <tag k="addr:city" v="Shaftsbury"/>
    <tag k="addr:housenumber" v="258"/>
    <tag k="addr:street" v="Grove Road"/>
    <tag k="addr:state" v="VT"/>
    <tag k="ref:vcgi:esiteid" v="218985"/>
  </node>
  <node id="-1644" visible="true" lat="42.99225703" lon="-73.20225223">
    <tag k="addr:city" v="Shaftsbury"/>
    <tag k="addr:housenumber" v="56"/>
    <tag k="addr:street" v="Fran Zando Road"/>
    <tag k="addr:state" v="VT"/>
    <tag k="ref:vcgi:esiteid" v="218988"/>
  </node>
  <node id="-1646" visible="true" lat="42.95955555" lon="-73.1999539">
    <tag k="addr:city" v="Shaftsbury"/>
    <tag k="addr:housenumber" v="364"/>
    <tag k="addr:street" v="Grove Road"/>
    <tag k="addr:state" v="VT"/>
    <tag k="ref:vcgi:esiteid" v="218990"/>
  </node>
  <node id="-1647" visible="true" lat="42.95993427" lon="-73.20207853">
    <tag k="addr:city" v="Shaftsbury"/>
    <tag k="addr:housenumber" v="225"/>
    <tag k="addr:street" v="Grove Road"/>
    <tag k="addr:state" v="VT"/>
    <tag k="ref:vcgi:esiteid" v="218991"/>
  </node>
  <node id="-1648" visible="true" lat="42.95915251" lon="-73.19950757">
    <tag k="addr:city" v="Shaftsbury"/>
    <tag k="addr:housenumber" v="374"/>
    <tag k="addr:street" v="Grove Road"/>
    <tag k="addr:state" v="VT"/>
    <tag k="ref:vcgi:esiteid" v="218992"/>
  </node>
  <node id="-1649" visible="true" lat="42.95909634" lon="-73.20155466">
    <tag k="addr:city" v="Shaftsbury"/>
    <tag k="addr:housenumber" v="254"/>
    <tag k="addr:street" v="Grove Road"/>
    <tag k="addr:state" v="VT"/>
    <tag k="ref:vcgi:esiteid" v="218993"/>
  </node>
  <node id="-1656" visible="true" lat="42.95967706" lon="-73.19925922">
    <tag k="addr:city" v="Shaftsbury"/>
    <tag k="addr:housenumber" v="399"/>
    <tag k="addr:street" v="Grove Road"/>
    <tag k="addr:state" v="VT"/>
    <tag k="ref:vcgi:esiteid" v="219000"/>
  </node>
  <node id="-1657" visible="true" lat="42.96012128" lon="-73.19965152">
    <tag k="addr:city" v="Shaftsbury"/>
    <tag k="addr:housenumber" v="355"/>
    <tag k="addr:street" v="Grove Road"/>
    <tag k="addr:state" v="VT"/>
    <tag k="ref:vcgi:esiteid" v="219001"/>
  </node>
  <node id="-1662" visible="true" lat="42.96364987" lon="-73.16164257">
    <tag k="addr:city" v="Shaftsbury"/>
    <tag k="addr:housenumber" v="79"/>
    <tag k="addr:street" v="Reservoir Road"/>
    <tag k="addr:state" v="VT"/>
    <tag k="ref:vcgi:esiteid" v="219006"/>
  </node>
  <node id="-1667" visible="true" lat="43.00757163" lon="-73.20194502">
    <tag k="addr:city" v="Shaftsbury"/>
    <tag k="addr:housenumber" v="468"/>
    <tag k="addr:street" v="Birch Hill Road"/>
    <tag k="addr:state" v="VT"/>
    <tag k="ref:vcgi:esiteid" v="219011"/>
  </node>
  <node id="-1668" visible="true" lat="43.00704283" lon="-73.20408511">
    <tag k="addr:city" v="Shaftsbury"/>
    <tag k="addr:housenumber" v="498"/>
    <tag k="addr:street" v="Birch Hill Road"/>
    <tag k="addr:state" v="VT"/>
    <tag k="ref:vcgi:esiteid" v="219012"/>
  </node>
  <node id="-1675" visible="true" lat="43.00729629" lon="-73.20097947">
    <tag k="addr:city" v="Shaftsbury"/>
    <tag k="addr:housenumber" v="426"/>
    <tag k="addr:street" v="Birch Hill Road"/>
    <tag k="addr:state" v="VT"/>
    <tag k="ref:vcgi:esiteid" v="219019"/>
  </node>
  <node id="-1676" visible="true" lat="42.97736871" lon="-73.18170104">
    <tag k="addr:city" v="Shaftsbury"/>
    <tag k="addr:housenumber" v="290"/>
    <tag k="addr:street" v="Oak Hill Road"/>
    <tag k="addr:state" v="VT"/>
    <tag k="ref:vcgi:esiteid" v="219020"/>
  </node>
  <node id="-1677" visible="true" lat="43.00618805" lon="-73.19622317">
    <tag k="addr:city" v="Shaftsbury"/>
    <tag k="addr:housenumber" v="127"/>
    <tag k="addr:street" v="Birch Hill Road"/>
    <tag k="addr:state" v="VT"/>
    <tag k="ref:vcgi:esiteid" v="219021"/>
  </node>
  <node id="-1678" visible="true" lat="43.00766999" lon="-73.19907061">
    <tag k="addr:city" v="Shaftsbury"/>
    <tag k="addr:housenumber" v="298"/>
    <tag k="addr:street" v="Birch Hill Road"/>
    <tag k="addr:state" v="VT"/>
    <tag k="ref:vcgi:esiteid" v="219022"/>
  </node>
  <node id="-1683" visible="true" lat="42.97644545" lon="-73.18292151">
    <tag k="addr:city" v="Shaftsbury"/>
    <tag k="addr:housenumber" v="272"/>
    <tag k="addr:street" v="Oak Hill Road"/>
    <tag k="addr:state" v="VT"/>
    <tag k="ref:vcgi:esiteid" v="219028"/>
  </node>
  <node id="-1685" visible="true" lat="42.99060256" lon="-73.17806516">
    <tag k="addr:city" v="Shaftsbury"/>
    <tag k="addr:housenumber" v="1680"/>
    <tag k="addr:street" v="Cider Mill Road"/>
    <tag k="addr:state" v="VT"/>
    <tag k="ref:vcgi:esiteid" v="219030"/>
  </node>
  <node id="-1688" visible="true" lat="42.95760584" lon="-73.18689622">
    <tag k="addr:city" v="Shaftsbury"/>
    <tag k="addr:housenumber" v="551"/>
    <tag k="addr:street" v="Rod And Gun Club Road"/>
    <tag k="addr:state" v="VT"/>
    <tag k="ref:vcgi:esiteid" v="219033"/>
  </node>
  <node id="-1692" visible="true" lat="42.95506622" lon="-73.20281564">
    <tag k="addr:city" v="Shaftsbury"/>
    <tag k="addr:housenumber" v="380"/>
    <tag k="addr:street" v="Airport Road"/>
    <tag k="addr:state" v="VT"/>
    <tag k="ref:vcgi:esiteid" v="219037"/>
  </node>
  <node id="-1694" visible="true" lat="42.94890544" lon="-73.19050926">
    <tag k="addr:city" v="Shaftsbury"/>
    <tag k="addr:housenumber" v="1111"/>
    <tag k="addr:street" v="Buck Hill Road"/>
    <tag k="addr:state" v="VT"/>
    <tag k="ref:vcgi:esiteid" v="219039"/>
  </node>
  <node id="-1696" visible="true" lat="43.00650398" lon="-73.20055192">
    <tag k="addr:city" v="Shaftsbury"/>
    <tag k="addr:housenumber" v="401"/>
    <tag k="addr:street" v="Birch Hill Road"/>
    <tag k="addr:state" v="VT"/>
    <tag k="ref:vcgi:esiteid" v="219042"/>
  </node>
  <node id="-1697" visible="true" lat="42.97717832" lon="-73.18464668">
    <tag k="addr:city" v="Shaftsbury"/>
    <tag k="addr:housenumber" v="303"/>
    <tag k="addr:street" v="Oak Hill Road"/>
    <tag k="addr:state" v="VT"/>
    <tag k="ref:vcgi:esiteid" v="219043"/>
  </node>
  <node id="-1698" visible="true" lat="42.97166613" lon="-73.18514077">
    <tag k="addr:city" v="Shaftsbury"/>
    <tag k="addr:housenumber" v="97"/>
    <tag k="addr:street" v="Oak Hill Road"/>
    <tag k="addr:state" v="VT"/>
    <tag k="ref:vcgi:esiteid" v="219044"/>
  </node>
  <node id="-1699" visible="true" lat="42.97730341" lon="-73.18343003">
    <tag k="addr:city" v="Shaftsbury"/>
    <tag k="addr:housenumber" v="300"/>
    <tag k="addr:street" v="Oak Hill Road"/>
    <tag k="addr:state" v="VT"/>
    <tag k="ref:vcgi:esiteid" v="219045"/>
  </node>
  <node id="-1700" visible="true" lat="42.97258125" lon="-73.18505809">
    <tag k="addr:city" v="Shaftsbury"/>
    <tag k="addr:housenumber" v="157"/>
    <tag k="addr:street" v="Oak Hill Road"/>
    <tag k="addr:state" v="VT"/>
    <tag k="ref:vcgi:esiteid" v="219046"/>
  </node>
  <node id="-1701" visible="true" lat="42.97466356" lon="-73.18386874">
    <tag k="addr:city" v="Shaftsbury"/>
    <tag k="addr:housenumber" v="266"/>
    <tag k="addr:street" v="Oak Hill Road"/>
    <tag k="addr:state" v="VT"/>
    <tag k="ref:vcgi:esiteid" v="219047"/>
  </node>
  <node id="-1703" visible="true" lat="43.00791701" lon="-73.20374468">
    <tag k="addr:city" v="Shaftsbury"/>
    <tag k="addr:housenumber" v="486"/>
    <tag k="addr:street" v="Birch Hill Road"/>
    <tag k="addr:state" v="VT"/>
    <tag k="ref:vcgi:esiteid" v="219049"/>
  </node>
  <node id="-1704" visible="true" lat="43.0064486" lon="-73.19855162">
    <tag k="addr:city" v="Shaftsbury"/>
    <tag k="addr:housenumber" v="257"/>
    <tag k="addr:street" v="Birch Hill Road"/>
    <tag k="addr:state" v="VT"/>
    <tag k="ref:vcgi:esiteid" v="219050"/>
  </node>
  <node id="-1706" visible="true" lat="42.98235567" lon="-73.20849445">
    <tag k="addr:city" v="Shaftsbury"/>
    <tag k="addr:housenumber" v="77"/>
    <tag k="addr:street" v="West Mountain Road"/>
    <tag k="addr:state" v="VT"/>
    <tag k="ref:vcgi:esiteid" v="219052"/>
  </node>
  <node id="-1707" visible="true" lat="42.98304814" lon="-73.19863764">
    <tag k="addr:city" v="Shaftsbury"/>
    <tag k="addr:housenumber" v="413"/>
    <tag k="addr:street" v="Tunic Road"/>
    <tag k="addr:state" v="VT"/>
    <tag k="ref:vcgi:esiteid" v="219053"/>
  </node>
  <node id="-1708" visible="true" lat="42.9796629" lon="-73.174331">
    <tag k="addr:city" v="Shaftsbury"/>
    <tag k="addr:housenumber" v="1206"/>
    <tag k="addr:street" v="Trumbull Hill Road"/>
    <tag k="addr:state" v="VT"/>
    <tag k="ref:vcgi:esiteid" v="219054"/>
  </node>
  <node id="-1715" visible="true" lat="42.95025518" lon="-73.18507283">
    <tag k="addr:city" v="Shaftsbury"/>
    <tag k="addr:housenumber" v="1379"/>
    <tag k="addr:street" v="Buck Hill Road"/>
    <tag k="addr:state" v="VT"/>
    <tag k="ref:vcgi:esiteid" v="219062"/>
  </node>
  <node id="-1728" visible="true" lat="42.94838854" lon="-73.22335763">
    <tag k="addr:city" v="Shaftsbury"/>
    <tag k="addr:housenumber" v="35"/>
    <tag k="addr:street" v="Babsy Lane"/>
    <tag k="addr:state" v="VT"/>
    <tag k="ref:vcgi:esiteid" v="219075"/>
  </node>
  <node id="-1729" visible="true" lat="42.9724546" lon="-73.17092519">
    <tag k="addr:city" v="Shaftsbury"/>
    <tag k="addr:housenumber" v="338"/>
    <tag k="addr:street" v="Holy Smoke Road"/>
    <tag k="addr:state" v="VT"/>
    <tag k="ref:vcgi:esiteid" v="219076"/>
  </node>
  <node id="-1732" visible="true" lat="42.95130987" lon="-73.18542378">
    <tag k="addr:city" v="Shaftsbury"/>
    <tag k="addr:housenumber" v="110"/>
    <tag k="addr:street" v="Rod And Gun Club Road"/>
    <tag k="addr:state" v="VT"/>
    <tag k="ref:vcgi:esiteid" v="219079"/>
  </node>
  <node id="-1737" visible="true" lat="42.98903064" lon="-73.20315706">
    <tag k="addr:city" v="Shaftsbury"/>
    <tag k="addr:housenumber" v="136"/>
    <tag k="addr:street" v="Valley View Road"/>
    <tag k="addr:state" v="VT"/>
    <tag k="ref:vcgi:esiteid" v="219084"/>
  </node>
  <node id="-1740" visible="true" lat="42.95548234" lon="-73.20724959">
    <tag k="addr:city" v="Shaftsbury"/>
    <tag k="addr:housenumber" v="123"/>
    <tag k="addr:street" v="Airport Road"/>
    <tag k="addr:state" v="VT"/>
    <tag k="ref:vcgi:esiteid" v="219087"/>
  </node>
  <node id="-1744" visible="true" lat="42.94740156" lon="-73.22304134">
    <tag k="addr:city" v="Shaftsbury"/>
    <tag k="addr:housenumber" v="67"/>
    <tag k="addr:street" v="Babsy Lane"/>
    <tag k="addr:state" v="VT"/>
    <tag k="ref:vcgi:esiteid" v="219091"/>
  </node>
  <node id="-1748" visible="true" lat="43.00231248" lon="-73.15716333">
    <tag k="addr:city" v="Shaftsbury"/>
    <tag k="addr:housenumber" v="5288"/>
    <tag k="addr:street" v="East Road"/>
    <tag k="addr:state" v="VT"/>
    <tag k="ref:vcgi:esiteid" v="219095"/>
  </node>
  <node id="-1751" visible="true" lat="42.9949629" lon="-73.19191851">
    <tag k="addr:city" v="Shaftsbury"/>
    <tag k="addr:housenumber" v="107"/>
    <tag k="addr:street" v="Deer Run Road"/>
    <tag k="addr:state" v="VT"/>
    <tag k="ref:vcgi:esiteid" v="219098"/>
  </node>
  <node id="-1752" visible="true" lat="42.99570624" lon="-73.19206238">
    <tag k="addr:city" v="Shaftsbury"/>
    <tag k="addr:housenumber" v="159"/>
    <tag k="addr:street" v="Deer Run Road"/>
    <tag k="addr:state" v="VT"/>
    <tag k="ref:vcgi:esiteid" v="219099"/>
  </node>
  <node id="-1757" visible="true" lat="42.99158701" lon="-73.19217913">
    <tag k="addr:city" v="Shaftsbury"/>
    <tag k="addr:housenumber" v="80"/>
    <tag k="addr:street" v="Hummingbird Lane"/>
    <tag k="addr:state" v="VT"/>
    <tag k="ref:vcgi:esiteid" v="219104"/>
  </node>
  <node id="-1758" visible="true" lat="42.94650428" lon="-73.22279476">
    <tag k="addr:city" v="Shaftsbury"/>
    <tag k="addr:housenumber" v="119"/>
    <tag k="addr:street" v="Babsy Lane"/>
    <tag k="addr:state" v="VT"/>
    <tag k="ref:vcgi:esiteid" v="219105"/>
  </node>
  <node id="-1760" visible="true" lat="42.94668313" lon="-73.20939198">
    <tag k="addr:city" v="Shaftsbury"/>
    <tag k="addr:housenumber" v="69"/>
    <tag k="addr:street" v="Buck Hill Road"/>
    <tag k="addr:state" v="VT"/>
    <tag k="ref:vcgi:esiteid" v="219107"/>
  </node>
  <node id="-1763" visible="true" lat="42.97142682" lon="-73.17314276">
    <tag k="addr:city" v="Shaftsbury"/>
    <tag k="addr:housenumber" v="191"/>
    <tag k="addr:street" v="Farrell Road"/>
    <tag k="addr:state" v="VT"/>
    <tag k="ref:vcgi:esiteid" v="306279"/>
  </node>
  <node id="-1764" visible="true" lat="42.96460805" lon="-73.16845782">
    <tag k="addr:city" v="Shaftsbury"/>
    <tag k="addr:housenumber" v="1004"/>
    <tag k="addr:street" v="Holy Smoke Road"/>
    <tag k="addr:state" v="VT"/>
    <tag k="ref:vcgi:esiteid" v="306505"/>
  </node>
  <node id="-1767" visible="true" lat="43.00464207" lon="-73.19070099">
    <tag k="addr:city" v="Shaftsbury"/>
    <tag k="addr:housenumber" v="199"/>
    <tag k="addr:street" v="White Farm Lane"/>
    <tag k="addr:state" v="VT"/>
    <tag k="ref:vcgi:esiteid" v="307147"/>
  </node>
  <node id="-1770" visible="true" lat="43.00259609" lon="-73.19063431">
    <tag k="addr:city" v="Shaftsbury"/>
    <tag k="addr:housenumber" v="1700"/>
    <tag k="addr:street" v="Hidden Valley Road"/>
    <tag k="addr:state" v="VT"/>
    <tag k="ref:vcgi:esiteid" v="309247"/>
  </node>
  <node id="-1772" visible="true" lat="42.99251214" lon="-73.19028656">
    <tag k="addr:city" v="Shaftsbury"/>
    <tag k="addr:housenumber" v="924"/>
    <tag k="addr:street" v="Hidden Valley Road"/>
    <tag k="addr:state" v="VT"/>
    <tag k="ref:vcgi:esiteid" v="309249"/>
  </node>
  <node id="-1773" visible="true" lat="42.95619057" lon="-73.22424758">
    <tag k="addr:city" v="Shaftsbury"/>
    <tag k="addr:housenumber" v="408"/>
    <tag k="addr:street" v="Ehrich Road"/>
    <tag k="addr:state" v="VT"/>
    <tag k="ref:vcgi:esiteid" v="310788"/>
  </node>
  <node id="-1776" visible="true" lat="42.95143546" lon="-73.2281126">
    <tag k="addr:city" v="Shaftsbury"/>
    <tag k="addr:housenumber" v="723"/>
    <tag k="addr:street" v="Twitchell Hill Road"/>
    <tag k="addr:state" v="VT"/>
    <tag k="ref:vcgi:esiteid" v="315888"/>
  </node>
  <node id="-1777" visible="true" lat="42.94691107" lon="-73.20883608">
    <tag k="addr:city" v="Shaftsbury"/>
    <tag k="addr:housenumber" v="83"/>
    <tag k="addr:street" v="Buck Hill Road"/>
    <tag k="addr:state" v="VT"/>
    <tag k="ref:vcgi:esiteid" v="316731"/>
  </node>
  <node id="-1788" visible="true" lat="43.00748322" lon="-73.19812329">
    <tag k="addr:city" v="Shaftsbury"/>
    <tag k="addr:housenumber" v="270"/>
    <tag k="addr:street" v="Birch Hill Road"/>
    <tag k="addr:state" v="VT"/>
    <tag k="ref:vcgi:esiteid" v="326386"/>
  </node>
  <node id="-1796" visible="true" lat="42.9596871" lon="-73.20345617">
    <tag k="addr:city" v="Shaftsbury"/>
    <tag k="addr:housenumber" v="137"/>
    <tag k="addr:street" v="Grove Road"/>
    <tag k="addr:state" v="VT"/>
    <tag k="ref:vcgi:esiteid" v="328587"/>
  </node>
  <node id="-1797" visible="true" lat="43.00604767" lon="-73.19105611">
    <tag k="addr:city" v="Shaftsbury"/>
    <tag k="addr:housenumber" v="145"/>
    <tag k="addr:street" v="White Farm Lane"/>
    <tag k="addr:state" v="VT"/>
    <tag k="ref:vcgi:esiteid" v="328588"/>
  </node>
  <node id="-1799" visible="true" lat="43.00782665" lon="-73.19616412">
    <tag k="addr:city" v="Shaftsbury"/>
    <tag k="addr:housenumber" v="162"/>
    <tag k="addr:street" v="Birch Hill Road"/>
    <tag k="addr:state" v="VT"/>
    <tag k="ref:vcgi:esiteid" v="328632"/>
  </node>
  <node id="-1804" visible="true" lat="42.94598899" lon="-73.22266576">
    <tag k="addr:city" v="Shaftsbury"/>
    <tag k="addr:housenumber" v="116"/>
    <tag k="addr:street" v="Twitchell Hill Road"/>
    <tag k="addr:state" v="VT"/>
    <tag k="ref:vcgi:esiteid" v="329755"/>
  </node>
  <node id="-1808" visible="true" lat="42.99622557" lon="-73.15523531">
    <tag k="addr:city" v="Shaftsbury"/>
    <tag k="addr:housenumber" v="4833"/>
    <tag k="addr:street" v="East Road"/>
    <tag k="addr:state" v="VT"/>
    <tag k="ref:vcgi:esiteid" v="336497"/>
  </node>
  <node id="-1809" visible="true" lat="42.95132036" lon="-73.22644425">
    <tag k="addr:city" v="Shaftsbury"/>
    <tag k="addr:housenumber" v="639"/>
    <tag k="addr:street" v="Twitchell Hill Road"/>
    <tag k="addr:state" v="VT"/>
    <tag k="ref:vcgi:esiteid" v="336591"/>
  </node>
  <node id="-1811" visible="true" lat="42.94573005" lon="-73.2256108">
    <tag k="addr:city" v="Shaftsbury"/>
    <tag k="addr:housenumber" v="265"/>
    <tag k="addr:street" v="Twitchell Hill Road"/>
    <tag k="addr:state" v="VT"/>
    <tag k="ref:vcgi:esiteid" v="337688"/>
  </node>
  <node id="-1831" visible="true" lat="43.00294077" lon="-73.15498181">
    <tag k="addr:city" v="Shaftsbury"/>
    <tag k="addr:housenumber" v="164"/>
    <tag k="addr:street" v="Glastenbury Road"/>
    <tag k="addr:state" v="VT"/>
    <tag k="ref:vcgi:esiteid" v="449348"/>
  </node>
  <node id="-1832" visible="true" lat="42.95196279" lon="-73.18483906">
    <tag k="addr:city" v="Shaftsbury"/>
    <tag k="addr:housenumber" v="146"/>
    <tag k="addr:street" v="Rod And Gun Club Road"/>
    <tag k="addr:state" v="VT"/>
    <tag k="ref:vcgi:esiteid" v="450431"/>
  </node>
  <node id="-1840" visible="true" lat="42.97292506" lon="-73.16596209">
    <tag k="addr:city" v="Shaftsbury"/>
    <tag k="addr:housenumber" v="170"/>
    <tag k="addr:street" v="Forest Heights"/>
    <tag k="addr:state" v="VT"/>
    <tag k="ref:vcgi:esiteid" v="610218"/>
  </node>
  <node id="-1842" visible="true" lat="42.97316872" lon="-73.16839566">
    <tag k="addr:city" v="Shaftsbury"/>
    <tag k="addr:housenumber" v="107"/>
    <tag k="addr:street" v="Forest Heights"/>
    <tag k="addr:state" v="VT"/>
    <tag k="ref:vcgi:esiteid" v="610220"/>
  </node>
</osm>
