<?xml version="1.0" encoding="UTF-8"?>
<osm version="0.6" generator="JOSM">
  <node id="-101" visible="true" lat="43.7835641" lon="-72.36542411">
    <!-- conflict: "687 Chapel Hill Road, Sharon, VT" Fuzzy match to "687 Chapel Hill Road, Norwich, VT" -->
    <tag k="addr:city" v="Sharon"/>
    <tag k="addr:housenumber" v="687"/>
    <tag k="addr:street" v="Chapel Hill Road"/>
    <tag k="addr:state" v="VT"/>
    <tag k="ref:vcgi:esiteid" v="182193"/>
  </node>
  <node id="-104" visible="true" lat="43.82323826" lon="-72.4723944">
    <!-- conflict: "397 Lds Lane, Sharon, VT" Fuzzy match to "397 LDS Lane, Sharon, VT" -->
    <tag k="addr:city" v="Sharon"/>
    <tag k="addr:housenumber" v="397"/>
    <tag k="addr:street" v="Lds Lane"/>
    <tag k="addr:state" v="VT"/>
    <tag k="ref:vcgi:esiteid" v="219109"/>
  </node>
  <node id="-134" visible="true" lat="43.81881021" lon="-72.42189447">
    <!-- conflict: "576 High Lake Road, Sharon, VT" No match in OSM, but a different address exists <5m away: "576 Highlake Road, Sharon, VT" -->
    <tag k="addr:city" v="Sharon"/>
    <tag k="addr:housenumber" v="576"/>
    <tag k="addr:street" v="High Lake Road"/>
    <tag k="addr:state" v="VT"/>
    <tag k="ref:vcgi:esiteid" v="219143"/>
  </node>
  <node id="-140" visible="true" lat="43.81821758" lon="-72.42203123">
    <!-- conflict: "619 High Lake Road, Sharon, VT" No match in OSM, but a different address exists <5m away: "619 Highlake Road, Sharon, VT" -->
    <tag k="addr:city" v="Sharon"/>
    <tag k="addr:housenumber" v="619"/>
    <tag k="addr:street" v="High Lake Road"/>
    <tag k="addr:state" v="VT"/>
    <tag k="ref:vcgi:esiteid" v="219152"/>
  </node>
  <node id="-142" visible="true" lat="43.8176725" lon="-72.42261574">
    <!-- conflict: "663 High Lake Road, Sharon, VT" No match in OSM, but a different address exists <5m away: "663 Highlake Road, Sharon, VT" -->
    <tag k="addr:city" v="Sharon"/>
    <tag k="addr:housenumber" v="663"/>
    <tag k="addr:street" v="High Lake Road"/>
    <tag k="addr:state" v="VT"/>
    <tag k="ref:vcgi:esiteid" v="219154"/>
  </node>
  <node id="-145" visible="true" lat="43.81666416" lon="-72.423806">
    <!-- conflict: "756 High Lake Road, Sharon, VT" No match in OSM, but a different address exists <5m away: "756 Highlake Road, Sharon, VT" -->
    <tag k="addr:city" v="Sharon"/>
    <tag k="addr:housenumber" v="756"/>
    <tag k="addr:street" v="High Lake Road"/>
    <tag k="addr:state" v="VT"/>
    <tag k="ref:vcgi:esiteid" v="219157"/>
  </node>
  <node id="-147" visible="true" lat="43.81619379" lon="-72.42424978">
    <!-- conflict: "800 High Lake Road, Sharon, VT" No match in OSM, but a different address exists <5m away: "800 Highlake Road, Sharon, VT" -->
    <tag k="addr:city" v="Sharon"/>
    <tag k="addr:housenumber" v="800"/>
    <tag k="addr:street" v="High Lake Road"/>
    <tag k="addr:state" v="VT"/>
    <tag k="ref:vcgi:esiteid" v="219159"/>
  </node>
  <node id="-150" visible="true" lat="43.8157129" lon="-72.42496932">
    <!-- conflict: "848 High Lake Road, Sharon, VT" No match in OSM, but a different address exists <5m away: "848 Highlake Road, Sharon, VT" -->
    <tag k="addr:city" v="Sharon"/>
    <tag k="addr:housenumber" v="848"/>
    <tag k="addr:street" v="High Lake Road"/>
    <tag k="addr:state" v="VT"/>
    <tag k="ref:vcgi:esiteid" v="219162"/>
  </node>
  <node id="-157" visible="true" lat="43.81457425" lon="-72.39367668">
    <!-- conflict: "100 Treeline Drive, Sharon, VT" No match in OSM, but a different address exists <5m away: "1644 Downer Road, Sharon, VT" -->
    <tag k="addr:city" v="Sharon"/>
    <tag k="addr:housenumber" v="100"/>
    <tag k="addr:street" v="Treeline Drive"/>
    <tag k="addr:state" v="VT"/>
    <tag k="ref:vcgi:esiteid" v="219169"/>
  </node>
  <node id="-339" visible="true" lat="43.78916931" lon="-72.48677062">
    <!-- conflict: "17 Academy Drive, Sharon, VT" No match in OSM, but a different address exists <5m away: "6754 VT Route 14, Sharon, VT" -->
    <tag k="addr:city" v="Sharon"/>
    <tag k="addr:housenumber" v="17"/>
    <tag k="addr:street" v="Academy Drive"/>
    <tag k="addr:state" v="VT"/>
    <tag k="ref:vcgi:esiteid" v="219354"/>
  </node>
  <node id="-344" visible="true" lat="43.78889465" lon="-72.47750854">
    <!-- conflict: "270 Daisy Lane, Sharon, VT" Fuzzy match to "270 Daisy Lane, , " -->
    <tag k="addr:city" v="Sharon"/>
    <tag k="addr:housenumber" v="270"/>
    <tag k="addr:street" v="Daisy Lane"/>
    <tag k="addr:state" v="VT"/>
    <tag k="ref:vcgi:esiteid" v="219359"/>
  </node>
  <node id="-357" visible="true" lat="43.78759765" lon="-72.48130035">
    <!-- conflict: "6602 Vermont Route 14, Sharon, VT" No match in OSM, but a different address exists <5m away: "6602 Vt Route 14, Sharon, VT" -->
    <tag k="addr:city" v="Sharon"/>
    <tag k="addr:housenumber" v="6602"/>
    <tag k="addr:street" v="Vermont Route 14"/>
    <tag k="addr:state" v="VT"/>
    <tag k="ref:vcgi:esiteid" v="219372"/>
  </node>
  <node id="-363" visible="true" lat="43.78738677" lon="-72.48044664">
    <!-- conflict: "6558 Vermont Route 14, Sharon, VT" No match in OSM, but a different address exists <5m away: "6558 Vt Route 14, Sharon, VT" -->
    <tag k="addr:city" v="Sharon"/>
    <tag k="addr:housenumber" v="6558"/>
    <tag k="addr:street" v="Vermont Route 14"/>
    <tag k="addr:state" v="VT"/>
    <tag k="ref:vcgi:esiteid" v="219379"/>
  </node>
  <node id="-385" visible="true" lat="43.78436446" lon="-72.45130099">
    <!-- conflict: "4866 Vermont Route 14, Sharon, VT" No match in OSM, but a different address exists <5m away: "4866 Vt Route 14, Sharon, VT" -->
    <tag k="addr:city" v="Sharon"/>
    <tag k="addr:housenumber" v="4866"/>
    <tag k="addr:street" v="Vermont Route 14"/>
    <tag k="addr:state" v="VT"/>
    <tag k="ref:vcgi:esiteid" v="219403"/>
  </node>
  <node id="-386" visible="true" lat="43.784373" lon="-72.45500368">
    <!-- conflict: "5056 Vermont Route 14, Sharon, VT" No match in OSM, but a different address exists <5m away: "5056 Vt Route 14, Sharon, VT" -->
    <tag k="addr:city" v="Sharon"/>
    <tag k="addr:housenumber" v="5056"/>
    <tag k="addr:street" v="Vermont Route 14"/>
    <tag k="addr:state" v="VT"/>
    <tag k="ref:vcgi:esiteid" v="219404"/>
  </node>
  <node id="-387" visible="true" lat="43.78448557" lon="-72.45265">
    <!-- conflict: "4930 Vermont Route 14, Sharon, VT" No match in OSM, but a different address exists <5m away: "4930 Vt Route 14, Sharon, VT" -->
    <tag k="addr:city" v="Sharon"/>
    <tag k="addr:housenumber" v="4930"/>
    <tag k="addr:street" v="Vermont Route 14"/>
    <tag k="addr:state" v="VT"/>
    <tag k="ref:vcgi:esiteid" v="219405"/>
  </node>
  <node id="-389" visible="true" lat="43.78433307" lon="-72.4508626">
    <!-- conflict: "4844 Vermont Route 14, Sharon, VT" No match in OSM, but a different address exists <5m away: "4844 Vt Route 14, Sharon, VT" -->
    <tag k="addr:city" v="Sharon"/>
    <tag k="addr:housenumber" v="4844"/>
    <tag k="addr:street" v="Vermont Route 14"/>
    <tag k="addr:state" v="VT"/>
    <tag k="ref:vcgi:esiteid" v="219407"/>
  </node>
  <node id="-390" visible="true" lat="43.78417431" lon="-72.44980312">
    <!-- conflict: "4794 Vermont Route 14, Sharon, VT" No match in OSM, but a different address exists <5m away: "4794 Vt Route 14, Sharon, VT" -->
    <tag k="addr:city" v="Sharon"/>
    <tag k="addr:housenumber" v="4794"/>
    <tag k="addr:street" v="Vermont Route 14"/>
    <tag k="addr:state" v="VT"/>
    <tag k="ref:vcgi:esiteid" v="219408"/>
  </node>
  <node id="-394" visible="true" lat="43.78413216" lon="-72.45509908">
    <!-- conflict: "5054 Vermont Route 14, Sharon, VT" No match in OSM, but a different address exists <5m away: "5054 Vt Route 14, Sharon, VT" -->
    <tag k="addr:city" v="Sharon"/>
    <tag k="addr:housenumber" v="5054"/>
    <tag k="addr:street" v="Vermont Route 14"/>
    <tag k="addr:state" v="VT"/>
    <tag k="ref:vcgi:esiteid" v="219413"/>
  </node>
  <node id="-395" visible="true" lat="43.78403015" lon="-72.45574467">
    <!-- conflict: "5094 Vermont Route 14, Sharon, VT" No match in OSM, but a different address exists <5m away: "5094 Route 14, Sharon, VT" -->
    <tag k="addr:city" v="Sharon"/>
    <tag k="addr:housenumber" v="5094"/>
    <tag k="addr:street" v="Vermont Route 14"/>
    <tag k="addr:state" v="VT"/>
    <tag k="ref:vcgi:esiteid" v="219414"/>
  </node>
  <node id="-396" visible="true" lat="43.78402585" lon="-72.45588693">
    <!-- conflict: "5100 Vermont Route 14, Sharon, VT" No match in OSM, but a different address exists <5m away: "5100 Vt Route 14, Sharon, VT" -->
    <tag k="addr:city" v="Sharon"/>
    <tag k="addr:housenumber" v="5100"/>
    <tag k="addr:street" v="Vermont Route 14"/>
    <tag k="addr:state" v="VT"/>
    <tag k="ref:vcgi:esiteid" v="219415"/>
  </node>
  <node id="-397" visible="true" lat="43.78407889" lon="-72.45540795">
    <!-- conflict: "5076 Vermont Route 14, Sharon, VT" No match in OSM, but a different address exists <5m away: "5076 Vt Route 14, Sharon, VT" -->
    <tag k="addr:city" v="Sharon"/>
    <tag k="addr:housenumber" v="5076"/>
    <tag k="addr:street" v="Vermont Route 14"/>
    <tag k="addr:state" v="VT"/>
    <tag k="ref:vcgi:esiteid" v="219417"/>
  </node>
  <node id="-398" visible="true" lat="43.78400598" lon="-72.45614088">
    <!-- conflict: "5114 Vermont Route 14, Sharon, VT" No match in OSM, but a different address exists <5m away: "5114 Route 14, Sharon, VT" -->
    <tag k="addr:city" v="Sharon"/>
    <tag k="addr:housenumber" v="5114"/>
    <tag k="addr:street" v="Vermont Route 14"/>
    <tag k="addr:state" v="VT"/>
    <tag k="ref:vcgi:esiteid" v="219418"/>
  </node>
  <node id="-399" visible="true" lat="43.78397834" lon="-72.4564639">
    <!-- conflict: "5126 Vermont Route 14, Sharon, VT" No match in OSM, but a different address exists <5m away: "5126 Vt Route 14, Sharon, VT" -->
    <tag k="addr:city" v="Sharon"/>
    <tag k="addr:housenumber" v="5126"/>
    <tag k="addr:street" v="Vermont Route 14"/>
    <tag k="addr:state" v="VT"/>
    <tag k="ref:vcgi:esiteid" v="219419"/>
  </node>
  <node id="-400" visible="true" lat="43.78383856" lon="-72.44926538">
    <!-- conflict: "4762 Vermont Route 14, Sharon, VT" No match in OSM, but a different address exists <5m away: "4762 Vt Route 14, Sharon, VT" -->
    <tag k="addr:city" v="Sharon"/>
    <tag k="addr:housenumber" v="4762"/>
    <tag k="addr:street" v="Vermont Route 14"/>
    <tag k="addr:state" v="VT"/>
    <tag k="ref:vcgi:esiteid" v="219420"/>
  </node>
  <node id="-401" visible="true" lat="43.78404025" lon="-72.45311441">
    <!-- conflict: "4959 Vermont Route 14, Sharon, VT" No match in OSM, but a different address exists <5m away: "4959 Vt Route 14, Sharon, VT" -->
    <tag k="addr:city" v="Sharon"/>
    <tag k="addr:housenumber" v="4959"/>
    <tag k="addr:street" v="Vermont Route 14"/>
    <tag k="addr:state" v="VT"/>
    <tag k="ref:vcgi:esiteid" v="219421"/>
  </node>
  <node id="-403" visible="true" lat="43.78386915" lon="-72.45673774">
    <!-- conflict: "5144 Vermont Route 14, Sharon, VT" No match in OSM, but a different address exists <5m away: "5144 Vt Route 14, Sharon, VT" -->
    <tag k="addr:city" v="Sharon"/>
    <tag k="addr:housenumber" v="5144"/>
    <tag k="addr:street" v="Vermont Route 14"/>
    <tag k="addr:state" v="VT"/>
    <tag k="ref:vcgi:esiteid" v="219423"/>
  </node>
  <node id="-404" visible="true" lat="43.78396395" lon="-72.4535798">
    <!-- conflict: "4983 Vermont Route 14, Sharon, VT" No match in OSM, but a different address exists <5m away: "4983 Vt Route 14, Sharon, VT" -->
    <tag k="addr:city" v="Sharon"/>
    <tag k="addr:housenumber" v="4983"/>
    <tag k="addr:street" v="Vermont Route 14"/>
    <tag k="addr:state" v="VT"/>
    <tag k="ref:vcgi:esiteid" v="219424"/>
  </node>
  <node id="-405" visible="true" lat="43.78390673" lon="-72.45382394">
    <!-- conflict: "4995 Vermont Route 14, Sharon, VT" No match in OSM, but a different address exists <5m away: "4995 Route 14, Sharon, VT" -->
    <tag k="addr:city" v="Sharon"/>
    <tag k="addr:housenumber" v="4995"/>
    <tag k="addr:street" v="Vermont Route 14"/>
    <tag k="addr:state" v="VT"/>
    <tag k="ref:vcgi:esiteid" v="219425"/>
  </node>
  <node id="-406" visible="true" lat="43.78368759" lon="-72.45790863">
    <!-- conflict: "5198 Vermont Route 14, Sharon, VT" No match in OSM, but a different address exists <5m away: "5198 Vt Route 14, Sharon, VT" -->
    <tag k="addr:city" v="Sharon"/>
    <tag k="addr:housenumber" v="5198"/>
    <tag k="addr:street" v="Vermont Route 14"/>
    <tag k="addr:state" v="VT"/>
    <tag k="ref:vcgi:esiteid" v="219426"/>
  </node>
  <node id="-408" visible="true" lat="43.78370797" lon="-72.44888344">
    <!-- conflict: "4742 Vermont Route 14, Sharon, VT" No match in OSM, but a different address exists <5m away: "4742 Vt Route 14, Sharon, VT" -->
    <tag k="addr:city" v="Sharon"/>
    <tag k="addr:housenumber" v="4742"/>
    <tag k="addr:street" v="Vermont Route 14"/>
    <tag k="addr:state" v="VT"/>
    <tag k="ref:vcgi:esiteid" v="219428"/>
  </node>
  <node id="-410" visible="true" lat="43.7836341" lon="-72.45823184">
    <!-- conflict: "5220 Vermont Route 14, Sharon, VT" No match in OSM, but a different address exists <5m away: "5220 Vt Route 14, Sharon, VT" -->
    <tag k="addr:city" v="Sharon"/>
    <tag k="addr:housenumber" v="5220"/>
    <tag k="addr:street" v="Vermont Route 14"/>
    <tag k="addr:state" v="VT"/>
    <tag k="ref:vcgi:esiteid" v="219430"/>
  </node>
  <node id="-413" visible="true" lat="43.78361739" lon="-72.45854016">
    <!-- conflict: "5228 Vermont Route 14, Sharon, VT" No match in OSM, but a different address exists <5m away: "5228 Vt Route 14, Sharon, VT" -->
    <tag k="addr:city" v="Sharon"/>
    <tag k="addr:housenumber" v="5228"/>
    <tag k="addr:street" v="Vermont Route 14"/>
    <tag k="addr:state" v="VT"/>
    <tag k="ref:vcgi:esiteid" v="219433"/>
  </node>
  <node id="-416" visible="true" lat="43.78334057" lon="-72.4492731">
    <!-- conflict: "4735 Vermont Route 14, Sharon, VT" No match in OSM, but a different address exists <5m away: "4735 Vt Route 14, Sharon, VT" -->
    <tag k="addr:city" v="Sharon"/>
    <tag k="addr:housenumber" v="4735"/>
    <tag k="addr:street" v="Vermont Route 14"/>
    <tag k="addr:state" v="VT"/>
    <tag k="ref:vcgi:esiteid" v="219439"/>
  </node>
  <node id="-419" visible="true" lat="43.78291463" lon="-72.46020355">
    <!-- conflict: "5326 Vermont Route 14, Sharon, VT" No match in OSM, but a different address exists <5m away: "5326 VT Route 14, Sharon, VT" -->
    <tag k="addr:city" v="Sharon"/>
    <tag k="addr:housenumber" v="5326"/>
    <tag k="addr:street" v="Vermont Route 14"/>
    <tag k="addr:state" v="VT"/>
    <tag k="ref:vcgi:esiteid" v="219442"/>
  </node>
  <node id="-420" visible="true" lat="43.78306127" lon="-72.44889768">
    <!-- conflict: "4707 Vermont Route 14, Sharon, VT" No match in OSM, but a different address exists <5m away: "4707 Vt Route 14, Sharon, VT" -->
    <tag k="addr:city" v="Sharon"/>
    <tag k="addr:housenumber" v="4707"/>
    <tag k="addr:street" v="Vermont Route 14"/>
    <tag k="addr:state" v="VT"/>
    <tag k="ref:vcgi:esiteid" v="219443"/>
  </node>
  <node id="-421" visible="true" lat="43.78299028" lon="-72.44797657">
    <!-- conflict: "4674 Vermont Route 14, Sharon, VT" No match in OSM, but a different address exists <5m away: "4674 Vt Route 14, Sharon, VT" -->
    <tag k="addr:city" v="Sharon"/>
    <tag k="addr:housenumber" v="4674"/>
    <tag k="addr:street" v="Vermont Route 14"/>
    <tag k="addr:state" v="VT"/>
    <tag k="ref:vcgi:esiteid" v="219445"/>
  </node>
  <node id="-425" visible="true" lat="43.78235011" lon="-72.46258078">
    <!-- conflict: "5442 Vermont Route 14, Sharon, VT" No match in OSM, but a different address exists <5m away: "5442 Vt Route 14, Sharon, VT" -->
    <tag k="addr:city" v="Sharon"/>
    <tag k="addr:housenumber" v="5442"/>
    <tag k="addr:street" v="Vermont Route 14"/>
    <tag k="addr:state" v="VT"/>
    <tag k="ref:vcgi:esiteid" v="219449"/>
  </node>
  <node id="-429" visible="true" lat="43.78219448" lon="-72.44806005">
    <!-- conflict: "4635 Vermont Route 14, Sharon, VT" No match in OSM, but a different address exists <5m away: "4635 Vt Route 14, Sharon, VT" -->
    <tag k="addr:city" v="Sharon"/>
    <tag k="addr:housenumber" v="4635"/>
    <tag k="addr:street" v="Vermont Route 14"/>
    <tag k="addr:state" v="VT"/>
    <tag k="ref:vcgi:esiteid" v="219453"/>
  </node>
  <node id="-430" visible="true" lat="43.78184811" lon="-72.47010751">
    <!-- conflict: "5908 Vermont Route 14, Sharon, VT" No match in OSM, but a different address exists <5m away: "5908 Vt Route 14, Sharon, VT" -->
    <tag k="addr:city" v="Sharon"/>
    <tag k="addr:housenumber" v="5908"/>
    <tag k="addr:street" v="Vermont Route 14"/>
    <tag k="addr:state" v="VT"/>
    <tag k="ref:vcgi:esiteid" v="219454"/>
  </node>
  <node id="-437" visible="true" lat="43.78134921" lon="-72.46523769">
    <!-- conflict: "5632 Vermont Route 14, Sharon, VT" No match in OSM, but a different address exists <5m away: "5632 Vt Route 14, Sharon, VT" -->
    <tag k="addr:city" v="Sharon"/>
    <tag k="addr:housenumber" v="5632"/>
    <tag k="addr:street" v="Vermont Route 14"/>
    <tag k="addr:state" v="VT"/>
    <tag k="ref:vcgi:esiteid" v="219462"/>
  </node>
  <node id="-439" visible="true" lat="43.7811222" lon="-72.46866076">
    <!-- conflict: "5808 Vermont Route 14, Sharon, VT" No match in OSM, but a different address exists <5m away: "5808 VT Route 14, Sharon, VT" -->
    <tag k="addr:city" v="Sharon"/>
    <tag k="addr:housenumber" v="5808"/>
    <tag k="addr:street" v="Vermont Route 14"/>
    <tag k="addr:state" v="VT"/>
    <tag k="ref:vcgi:esiteid" v="219465"/>
  </node>
  <node id="-440" visible="true" lat="43.78112028" lon="-72.46460114">
    <!-- conflict: "5592 Vermont Route 14, Sharon, VT" No match in OSM, but a different address exists <5m away: "5592 Vt Route 14, Sharon, VT" -->
    <tag k="addr:city" v="Sharon"/>
    <tag k="addr:housenumber" v="5592"/>
    <tag k="addr:street" v="Vermont Route 14"/>
    <tag k="addr:state" v="VT"/>
    <tag k="ref:vcgi:esiteid" v="219466"/>
  </node>
  <node id="-483" visible="true" lat="43.77485977" lon="-72.44596984">
    <!-- conflict: "12 Woodys Place, Sharon, VT" No match in OSM, but a different address exists <5m away: "4065 Vt Route 14, Sharon, VT" -->
    <tag k="addr:city" v="Sharon"/>
    <tag k="addr:housenumber" v="12"/>
    <tag k="addr:street" v="Woodys Place"/>
    <tag k="addr:state" v="VT"/>
    <tag k="ref:vcgi:esiteid" v="219510"/>
  </node>
  <node id="-501" visible="true" lat="43.77020782" lon="-72.44738005">
    <!-- conflict: "3773 Vermont Route 14, Sharon, VT" No match in OSM, but a different address exists <5m away: "3773 Vt Route 14, Sharon, VT" -->
    <tag k="addr:city" v="Sharon"/>
    <tag k="addr:housenumber" v="3773"/>
    <tag k="addr:street" v="Vermont Route 14"/>
    <tag k="addr:state" v="VT"/>
    <tag k="ref:vcgi:esiteid" v="219530"/>
  </node>
  <node id="-508" visible="true" lat="43.76938906" lon="-72.44669357">
    <!-- conflict: "3702 Vermont Route 14, Sharon, VT" No match in OSM, but a different address exists <5m away: "3702 Vt Route 14, Sharon, VT" -->
    <tag k="addr:city" v="Sharon"/>
    <tag k="addr:housenumber" v="3702"/>
    <tag k="addr:street" v="Vermont Route 14"/>
    <tag k="addr:state" v="VT"/>
    <tag k="ref:vcgi:esiteid" v="219537"/>
  </node>
  <node id="-509" visible="true" lat="43.76903897" lon="-72.44650074">
    <!-- conflict: "3668 Vermont Route 14, Sharon, VT" No match in OSM, but a different address exists <5m away: "3668 Vt Route 14, Sharon, VT" -->
    <tag k="addr:city" v="Sharon"/>
    <tag k="addr:housenumber" v="3668"/>
    <tag k="addr:street" v="Vermont Route 14"/>
    <tag k="addr:state" v="VT"/>
    <tag k="ref:vcgi:esiteid" v="219538"/>
  </node>
  <node id="-510" visible="true" lat="43.76856461" lon="-72.44710343">
    <!-- conflict: "3649 Vermont Route 14, Sharon, VT" No match in OSM, but a different address exists <5m away: "3649 Vt Route 14, Sharon, VT" -->
    <tag k="addr:city" v="Sharon"/>
    <tag k="addr:housenumber" v="3649"/>
    <tag k="addr:street" v="Vermont Route 14"/>
    <tag k="addr:state" v="VT"/>
    <tag k="ref:vcgi:esiteid" v="219539"/>
  </node>
  <node id="-511" visible="true" lat="43.76826858" lon="-72.44641294">
    <!-- conflict: "3620 Vermont Route 14, Sharon, VT" No match in OSM, but a different address exists <5m away: "3620 Vt Route 14, Sharon, VT" -->
    <tag k="addr:city" v="Sharon"/>
    <tag k="addr:housenumber" v="3620"/>
    <tag k="addr:street" v="Vermont Route 14"/>
    <tag k="addr:state" v="VT"/>
    <tag k="ref:vcgi:esiteid" v="219540"/>
  </node>
  <node id="-516" visible="true" lat="43.76777654" lon="-72.44710669">
    <!-- conflict: "3579 Vermont Route 14, Sharon, VT" No match in OSM, but a different address exists <5m away: "3579 Vt Route 14, Sharon, VT" -->
    <tag k="addr:city" v="Sharon"/>
    <tag k="addr:housenumber" v="3579"/>
    <tag k="addr:street" v="Vermont Route 14"/>
    <tag k="addr:state" v="VT"/>
    <tag k="ref:vcgi:esiteid" v="219545"/>
  </node>
  <node id="-630" visible="true" lat="43.72366605" lon="-72.42980051">
    <!-- conflict: "199 Vermont Route 14, Sharon, VT" No match in OSM, but a different address exists <5m away: "199 Vt Route 14, Sharon, VT" -->
    <tag k="addr:city" v="Sharon"/>
    <tag k="addr:housenumber" v="199"/>
    <tag k="addr:street" v="Vermont Route 14"/>
    <tag k="addr:state" v="VT"/>
    <tag k="ref:vcgi:esiteid" v="219679"/>
  </node>
  <node id="-631" visible="true" lat="43.72350145" lon="-72.42933801">
    <!-- conflict: "177 Vermont Route 14, Sharon, VT" No match in OSM, but a different address exists <5m away: "177 Vt Route 14, Sharon, VT" -->
    <tag k="addr:city" v="Sharon"/>
    <tag k="addr:housenumber" v="177"/>
    <tag k="addr:street" v="Vermont Route 14"/>
    <tag k="addr:state" v="VT"/>
    <tag k="ref:vcgi:esiteid" v="219681"/>
  </node>
  <node id="-632" visible="true" lat="43.72338431" lon="-72.42702818">
    <!-- conflict: "64 Vermont Route 14, Sharon, VT" No match in OSM, but a different address exists <5m away: "64 Vt Route 14, Sharon, VT" -->
    <tag k="addr:city" v="Sharon"/>
    <tag k="addr:housenumber" v="64"/>
    <tag k="addr:street" v="Vermont Route 14"/>
    <tag k="addr:state" v="VT"/>
    <tag k="ref:vcgi:esiteid" v="219682"/>
  </node>
  <node id="-635" visible="true" lat="43.72304051" lon="-72.42661412">
    <!-- conflict: "34 Vermont Route 14, Sharon, VT" No match in OSM, but a different address exists <5m away: "34 Vt Route 14, Sharon, VT" -->
    <tag k="addr:city" v="Sharon"/>
    <tag k="addr:housenumber" v="34"/>
    <tag k="addr:street" v="Vermont Route 14"/>
    <tag k="addr:state" v="VT"/>
    <tag k="ref:vcgi:esiteid" v="219685"/>
  </node>
  <node id="-655" visible="true" lat="43.81435657" lon="-72.42036854">
    <!-- conflict: "160 High Lake Road, Sharon, VT" No match in OSM, but a different address exists <5m away: "160 Highlake Road, Sharon, VT" -->
    <tag k="addr:city" v="Sharon"/>
    <tag k="addr:housenumber" v="160"/>
    <tag k="addr:street" v="High Lake Road"/>
    <tag k="addr:state" v="VT"/>
    <tag k="ref:vcgi:esiteid" v="219708"/>
  </node>
  <node id="-656" visible="true" lat="43.81554122" lon="-72.42660116">
    <!-- conflict: "920 High Lake Road, Sharon, VT" No match in OSM, but a different address exists <5m away: "920 Highlake Road, Sharon, VT" -->
    <tag k="addr:city" v="Sharon"/>
    <tag k="addr:housenumber" v="920"/>
    <tag k="addr:street" v="High Lake Road"/>
    <tag k="addr:state" v="VT"/>
    <tag k="ref:vcgi:esiteid" v="219709"/>
  </node>
  <node id="-730" visible="true" lat="43.81548228" lon="-72.42583855">
    <!-- conflict: "880 High Lake Road, Sharon, VT" No match in OSM, but a different address exists <5m away: "880 Highlake Road, Sharon, VT" -->
    <tag k="addr:city" v="Sharon"/>
    <tag k="addr:housenumber" v="880"/>
    <tag k="addr:street" v="High Lake Road"/>
    <tag k="addr:state" v="VT"/>
    <tag k="ref:vcgi:esiteid" v="219786"/>
  </node>
  <node id="-766" visible="true" lat="43.81610669" lon="-72.42746768">
    <!-- conflict: "1020 High Lake Road, Sharon, VT" No match in OSM, but a different address exists <5m away: "1020 Highlake Road, Sharon, VT" -->
    <tag k="addr:city" v="Sharon"/>
    <tag k="addr:housenumber" v="1020"/>
    <tag k="addr:street" v="High Lake Road"/>
    <tag k="addr:state" v="VT"/>
    <tag k="ref:vcgi:esiteid" v="219822"/>
  </node>
  <node id="-779" visible="true" lat="43.7813235" lon="-72.44757448">
    <!-- conflict: "4573 Vermont Route 14, Sharon, VT" No match in OSM, but a different address exists <5m away: "4573 Vt Route 14, Sharon, VT" -->
    <tag k="addr:city" v="Sharon"/>
    <tag k="addr:housenumber" v="4573"/>
    <tag k="addr:street" v="Vermont Route 14"/>
    <tag k="addr:state" v="VT"/>
    <tag k="ref:vcgi:esiteid" v="305723"/>
  </node>
  <node id="-817" visible="true" lat="43.82630526" lon="-72.41562887">
    <!-- conflict: "601 Old Orchard Road, Sharon, VT" Fuzzy match to "601 Old Orchard Road, Strafford, VT" -->
    <tag k="addr:city" v="Sharon"/>
    <tag k="addr:housenumber" v="601"/>
    <tag k="addr:street" v="Old Orchard Road"/>
    <tag k="addr:state" v="VT"/>
    <tag k="ref:vcgi:esiteid" v="449785"/>
  </node>
  <node id="-833" visible="true" lat="43.79604487" lon="-72.38381474">
    <!-- conflict: "1850 SFH, Sharon, VT" Fuzzy match to "1850 Sfh, Sharon, VT" -->
    <tag k="addr:city" v="Sharon"/>
    <tag k="addr:housenumber" v="1850"/>
    <tag k="addr:street" v="SFH"/>
    <tag k="addr:state" v="VT"/>
    <tag k="ref:vcgi:esiteid" v="450752"/>
  </node>
  <node id="-862" visible="true" lat="43.72863154" lon="-72.43174754">
    <!-- conflict: "732 Vermont Route 14, Sharon, VT" No match in OSM, but a different address exists <5m away: "732 Vt Route 14, Sharon, VT" -->
    <tag k="addr:city" v="Sharon"/>
    <tag k="addr:housenumber" v="732"/>
    <tag k="addr:street" v="Vermont Route 14"/>
    <tag k="addr:state" v="VT"/>
    <tag k="ref:vcgi:esiteid" v="452837"/>
  </node>
  <node id="-863" visible="true" lat="43.80810936" lon="-72.34131154">
    <!-- conflict: "119 Copperas Road, Sharon, VT" No match in OSM, but a different address exists <5m away: " Town Highway 22, Norwich, VT" -->
    <tag k="addr:city" v="Sharon"/>
    <tag k="addr:housenumber" v="119"/>
    <tag k="addr:street" v="Copperas Road"/>
    <tag k="addr:state" v="VT"/>
    <tag k="ref:vcgi:esiteid" v="454382"/>
  </node>
  <node id="-897" visible="true" lat="43.79262311" lon="-72.35980472">
    <!-- conflict: "2844 Chapel Hill Road, Sharon, VT" Fuzzy match to "2844 Chapel Hill Road, Norwich, VT" -->
    <tag k="addr:city" v="Sharon"/>
    <tag k="addr:housenumber" v="2844"/>
    <tag k="addr:street" v="Chapel Hill Road"/>
    <tag k="addr:state" v="VT"/>
    <tag k="ref:vcgi:esiteid" v="751504"/>
  </node>
</osm>
