<?xml version="1.0" encoding="UTF-8"?>
<osm version="0.6" generator="JOSM">
  <node id="-100" visible="true" lat="43.78179401" lon="-72.46755761">
    <tag k="addr:city" v="Sharon"/>
    <tag k="addr:housenumber" v="61"/>
    <tag k="addr:street" v="Shippee Lane"/>
    <tag k="addr:state" v="VT"/>
    <tag k="ref:vcgi:esiteid" v="271"/>
  </node>
  <node id="-102" visible="true" lat="43.75366567" lon="-72.51783532">
    <tag k="addr:city" v="Sharon"/>
    <tag k="addr:housenumber" v="93"/>
    <tag k="addr:street" v="Leonard Road"/>
    <tag k="addr:state" v="VT"/>
    <tag k="ref:vcgi:esiteid" v="190214"/>
  </node>
  <node id="-105" visible="true" lat="43.82271019" lon="-72.47206731">
    <tag k="addr:city" v="Sharon"/>
    <tag k="addr:housenumber" v="402"/>
    <tag k="addr:street" v="Lds Lane"/>
    <tag k="addr:state" v="VT"/>
    <tag k="ref:vcgi:esiteid" v="219110"/>
  </node>
  <node id="-113" visible="true" lat="43.82718063" lon="-72.45803011">
    <tag k="addr:city" v="Sharon"/>
    <tag k="addr:housenumber" v="1706"/>
    <tag k="addr:street" v="Clifford Farm Road"/>
    <tag k="addr:state" v="VT"/>
    <tag k="ref:vcgi:esiteid" v="219118"/>
  </node>
  <node id="-133" visible="true" lat="43.81896039" lon="-72.40502604">
    <tag k="addr:city" v="Sharon"/>
    <tag k="addr:housenumber" v="87"/>
    <tag k="addr:street" v="Aldrich Farm Road"/>
    <tag k="addr:state" v="VT"/>
    <tag k="ref:vcgi:esiteid" v="219142"/>
  </node>
  <node id="-136" visible="true" lat="43.81877956" lon="-72.42529049">
    <tag k="addr:city" v="Sharon"/>
    <tag k="addr:housenumber" v="197"/>
    <tag k="addr:street" v="Standing Pond Road"/>
    <tag k="addr:state" v="VT"/>
    <tag k="ref:vcgi:esiteid" v="219146"/>
  </node>
  <node id="-139" visible="true" lat="43.81822866" lon="-72.42259753">
    <tag k="addr:city" v="Sharon"/>
    <tag k="addr:housenumber" v="626"/>
    <tag k="addr:street" v="High Lake Road"/>
    <tag k="addr:state" v="VT"/>
    <tag k="ref:vcgi:esiteid" v="219150"/>
  </node>
  <node id="-154" visible="true" lat="43.81476833" lon="-72.40979864">
    <tag k="addr:city" v="Sharon"/>
    <tag k="addr:housenumber" v="167"/>
    <tag k="addr:street" v="Cowslip Hill Road"/>
    <tag k="addr:state" v="VT"/>
    <tag k="ref:vcgi:esiteid" v="219166"/>
  </node>
  <node id="-161" visible="true" lat="43.81379894" lon="-72.449238">
    <tag k="addr:city" v="Sharon"/>
    <tag k="addr:housenumber" v="2293"/>
    <tag k="addr:street" v="Fay Brook Road"/>
    <tag k="addr:state" v="VT"/>
    <tag k="ref:vcgi:esiteid" v="219174"/>
  </node>
  <node id="-166" visible="true" lat="43.81327709" lon="-72.41550055">
    <tag k="addr:city" v="Sharon"/>
    <tag k="addr:housenumber" v="94"/>
    <tag k="addr:street" v="Muir Road"/>
    <tag k="addr:state" v="VT"/>
    <tag k="ref:vcgi:esiteid" v="219179"/>
  </node>
  <node id="-179" visible="true" lat="43.81117477" lon="-72.41498541">
    <tag k="addr:city" v="Sharon"/>
    <tag k="addr:housenumber" v="224"/>
    <tag k="addr:street" v="Muir Road"/>
    <tag k="addr:state" v="VT"/>
    <tag k="ref:vcgi:esiteid" v="219192"/>
  </node>
  <node id="-194" visible="true" lat="43.80709552" lon="-72.47508067">
    <tag k="addr:city" v="Sharon"/>
    <tag k="addr:housenumber" v="257"/>
    <tag k="addr:street" v="Town Farm Road"/>
    <tag k="addr:state" v="VT"/>
    <tag k="ref:vcgi:esiteid" v="219207"/>
  </node>
  <node id="-243" visible="true" lat="43.79910965" lon="-72.47496719">
    <tag k="addr:city" v="Sharon"/>
    <tag k="addr:housenumber" v="870"/>
    <tag k="addr:street" v="White Brook Road"/>
    <tag k="addr:state" v="VT"/>
    <tag k="ref:vcgi:esiteid" v="219256"/>
  </node>
  <node id="-274" visible="true" lat="43.79673442" lon="-72.41641642">
    <tag k="addr:city" v="Sharon"/>
    <tag k="addr:housenumber" v="101"/>
    <tag k="addr:street" v="Dyer Road"/>
    <tag k="addr:state" v="VT"/>
    <tag k="ref:vcgi:esiteid" v="219288"/>
  </node>
  <node id="-287" visible="true" lat="43.79586029" lon="-72.49254608">
    <tag k="addr:city" v="Sharon"/>
    <tag k="addr:housenumber" v="11"/>
    <tag k="addr:street" v="Westland Farm Road"/>
    <tag k="addr:state" v="VT"/>
    <tag k="ref:vcgi:esiteid" v="219302"/>
  </node>
  <node id="-299" visible="true" lat="43.79445266" lon="-72.49316406">
    <tag k="addr:city" v="Sharon"/>
    <tag k="addr:housenumber" v="59"/>
    <tag k="addr:street" v="Westland Farm Road"/>
    <tag k="addr:state" v="VT"/>
    <tag k="ref:vcgi:esiteid" v="219314"/>
  </node>
  <node id="-302" visible="true" lat="43.79432296" lon="-72.49058532">
    <tag k="addr:city" v="Sharon"/>
    <tag k="addr:housenumber" v="238"/>
    <tag k="addr:street" v="Westland Farm Road"/>
    <tag k="addr:state" v="VT"/>
    <tag k="ref:vcgi:esiteid" v="219317"/>
  </node>
  <node id="-303" visible="true" lat="43.79394149" lon="-72.42337036">
    <tag k="addr:city" v="Sharon"/>
    <tag k="addr:housenumber" v="678"/>
    <tag k="addr:street" v="Carpenter Road"/>
    <tag k="addr:state" v="VT"/>
    <tag k="ref:vcgi:esiteid" v="219318"/>
  </node>
  <node id="-311" visible="true" lat="43.79266263" lon="-72.47308536">
    <tag k="addr:city" v="Sharon"/>
    <tag k="addr:housenumber" v="763"/>
    <tag k="addr:street" v="Eastman Road"/>
    <tag k="addr:state" v="VT"/>
    <tag k="ref:vcgi:esiteid" v="219326"/>
  </node>
  <node id="-316" visible="true" lat="43.79203201" lon="-72.4656824">
    <tag k="addr:city" v="Sharon"/>
    <tag k="addr:housenumber" v="687"/>
    <tag k="addr:street" v="Fay Brook Road"/>
    <tag k="addr:state" v="VT"/>
    <tag k="ref:vcgi:esiteid" v="219331"/>
  </node>
  <node id="-320" visible="true" lat="43.79158197" lon="-72.46377839">
    <tag k="addr:city" v="Sharon"/>
    <tag k="addr:housenumber" v="490"/>
    <tag k="addr:street" v="Fay Brook Road"/>
    <tag k="addr:state" v="VT"/>
    <tag k="ref:vcgi:esiteid" v="219335"/>
  </node>
  <node id="-329" visible="true" lat="43.79017425" lon="-72.46591891">
    <tag k="addr:city" v="Sharon"/>
    <tag k="addr:housenumber" v="70"/>
    <tag k="addr:street" v="Horse Farm Road"/>
    <tag k="addr:state" v="VT"/>
    <tag k="ref:vcgi:esiteid" v="219344"/>
  </node>
  <node id="-332" visible="true" lat="43.78991951" lon="-72.46437722">
    <tag k="addr:city" v="Sharon"/>
    <tag k="addr:housenumber" v="551"/>
    <tag k="addr:street" v="Fay Brook Road"/>
    <tag k="addr:state" v="VT"/>
    <tag k="ref:vcgi:esiteid" v="219347"/>
  </node>
  <node id="-334" visible="true" lat="43.7895906" lon="-72.47508181">
    <tag k="addr:city" v="Sharon"/>
    <tag k="addr:housenumber" v="315"/>
    <tag k="addr:street" v="Eastman Road"/>
    <tag k="addr:state" v="VT"/>
    <tag k="ref:vcgi:esiteid" v="219349"/>
  </node>
  <node id="-337" visible="true" lat="43.78934878" lon="-72.46409422">
    <tag k="addr:city" v="Sharon"/>
    <tag k="addr:housenumber" v="507"/>
    <tag k="addr:street" v="Fay Brook Road"/>
    <tag k="addr:state" v="VT"/>
    <tag k="ref:vcgi:esiteid" v="219352"/>
  </node>
  <node id="-340" visible="true" lat="43.78912521" lon="-72.46640719">
    <tag k="addr:city" v="Sharon"/>
    <tag k="addr:housenumber" v="138"/>
    <tag k="addr:street" v="Horse Farm Road"/>
    <tag k="addr:state" v="VT"/>
    <tag k="ref:vcgi:esiteid" v="219355"/>
  </node>
  <node id="-342" visible="true" lat="43.78919586" lon="-72.46373928">
    <tag k="addr:city" v="Sharon"/>
    <tag k="addr:housenumber" v="498"/>
    <tag k="addr:street" v="Fay Brook Road"/>
    <tag k="addr:state" v="VT"/>
    <tag k="ref:vcgi:esiteid" v="219357"/>
  </node>
  <node id="-345" visible="true" lat="43.78885743" lon="-72.46733776">
    <tag k="addr:city" v="Sharon"/>
    <tag k="addr:housenumber" v="114"/>
    <tag k="addr:street" v="Horse Farm Road"/>
    <tag k="addr:state" v="VT"/>
    <tag k="ref:vcgi:esiteid" v="219360"/>
  </node>
  <node id="-346" visible="true" lat="43.78879867" lon="-72.45070051">
    <tag k="addr:city" v="Sharon"/>
    <tag k="addr:housenumber" v="377"/>
    <tag k="addr:street" v="Route 132"/>
    <tag k="addr:state" v="VT"/>
    <tag k="ref:vcgi:esiteid" v="219361"/>
  </node>
  <node id="-348" visible="true" lat="43.78856948" lon="-72.4731576">
    <tag k="addr:city" v="Sharon"/>
    <tag k="addr:housenumber" v="494"/>
    <tag k="addr:street" v="Eastman Road"/>
    <tag k="addr:state" v="VT"/>
    <tag k="ref:vcgi:esiteid" v="219363"/>
  </node>
  <node id="-362" visible="true" lat="43.78732681" lon="-72.47428131">
    <tag k="addr:city" v="Sharon"/>
    <tag k="addr:housenumber" v="394"/>
    <tag k="addr:street" v="Eastman Road"/>
    <tag k="addr:state" v="VT"/>
    <tag k="ref:vcgi:esiteid" v="219378"/>
  </node>
  <node id="-368" visible="true" lat="43.78689575" lon="-72.47919464">
    <tag k="addr:city" v="Sharon"/>
    <tag k="addr:housenumber" v="6482"/>
    <tag k="addr:street" v="Vermont Route 14"/>
    <tag k="addr:state" v="VT"/>
    <tag k="ref:vcgi:esiteid" v="219384"/>
  </node>
  <node id="-369" visible="true" lat="43.7868956" lon="-72.46365829">
    <tag k="addr:city" v="Sharon"/>
    <tag k="addr:housenumber" v="423"/>
    <tag k="addr:street" v="Fay Brook Road"/>
    <tag k="addr:state" v="VT"/>
    <tag k="ref:vcgi:esiteid" v="219385"/>
  </node>
  <node id="-373" visible="true" lat="43.78622604" lon="-72.46236361">
    <tag k="addr:city" v="Sharon"/>
    <tag k="addr:housenumber" v="246"/>
    <tag k="addr:street" v="Fay Brook Road"/>
    <tag k="addr:state" v="VT"/>
    <tag k="ref:vcgi:esiteid" v="219391"/>
  </node>
  <node id="-374" visible="true" lat="43.78585815" lon="-72.47556304">
    <tag k="addr:city" v="Sharon"/>
    <tag k="addr:housenumber" v="6316"/>
    <tag k="addr:street" v="Vermont Route 14"/>
    <tag k="addr:state" v="VT"/>
    <tag k="ref:vcgi:esiteid" v="219392"/>
  </node>
  <node id="-375" visible="true" lat="43.78551677" lon="-72.47681428">
    <tag k="addr:city" v="Sharon"/>
    <tag k="addr:housenumber" v="6336"/>
    <tag k="addr:street" v="Vermont Route 14"/>
    <tag k="addr:state" v="VT"/>
    <tag k="ref:vcgi:esiteid" v="219393"/>
  </node>
  <node id="-378" visible="true" lat="43.78492651" lon="-72.45618244">
    <tag k="addr:city" v="Sharon"/>
    <tag k="addr:housenumber" v="135"/>
    <tag k="addr:street" v="School Street"/>
    <tag k="addr:state" v="VT"/>
    <tag k="ref:vcgi:esiteid" v="219396"/>
  </node>
  <node id="-388" visible="true" lat="43.78428989" lon="-72.4501215">
    <tag k="addr:city" v="Sharon"/>
    <tag k="addr:housenumber" v="4806"/>
    <tag k="addr:street" v="Vermont Route 14"/>
    <tag k="addr:state" v="VT"/>
    <tag k="ref:vcgi:esiteid" v="219406"/>
  </node>
  <node id="-393" visible="true" lat="43.78411432" lon="-72.45465321">
    <tag k="addr:city" v="Sharon"/>
    <tag k="addr:housenumber" v="5038"/>
    <tag k="addr:street" v="Vermont Route 14"/>
    <tag k="addr:state" v="VT"/>
    <tag k="ref:vcgi:esiteid" v="219412"/>
  </node>
  <node id="-402" visible="true" lat="43.78381555" lon="-72.45717453">
    <tag k="addr:city" v="Sharon"/>
    <tag k="addr:housenumber" v="5168"/>
    <tag k="addr:street" v="Vermont Route 14"/>
    <tag k="addr:state" v="VT"/>
    <tag k="ref:vcgi:esiteid" v="219422"/>
  </node>
  <node id="-407" visible="true" lat="43.78360029" lon="-72.47283165">
    <tag k="addr:city" v="Sharon"/>
    <tag k="addr:housenumber" v="6094"/>
    <tag k="addr:street" v="Vermont Route 14"/>
    <tag k="addr:state" v="VT"/>
    <tag k="ref:vcgi:esiteid" v="219427"/>
  </node>
  <node id="-412" visible="true" lat="43.78375247" lon="-72.45452198">
    <tag k="addr:city" v="Sharon"/>
    <tag k="addr:housenumber" v="5037"/>
    <tag k="addr:street" v="Vermont Route 14"/>
    <tag k="addr:state" v="VT"/>
    <tag k="ref:vcgi:esiteid" v="219432"/>
  </node>
  <node id="-414" visible="true" lat="43.78339318" lon="-72.47123564">
    <tag k="addr:city" v="Sharon"/>
    <tag k="addr:housenumber" v="6064"/>
    <tag k="addr:street" v="Vermont Route 14"/>
    <tag k="addr:state" v="VT"/>
    <tag k="ref:vcgi:esiteid" v="219434"/>
  </node>
  <node id="-417" visible="true" lat="43.78318723" lon="-72.47225948">
    <tag k="addr:city" v="Sharon"/>
    <tag k="addr:housenumber" v="6052"/>
    <tag k="addr:street" v="Vermont Route 14"/>
    <tag k="addr:state" v="VT"/>
    <tag k="ref:vcgi:esiteid" v="219440"/>
  </node>
  <node id="-423" visible="true" lat="43.78259658" lon="-72.44783019">
    <tag k="addr:city" v="Sharon"/>
    <tag k="addr:housenumber" v="4650"/>
    <tag k="addr:street" v="Vermont Route 14"/>
    <tag k="addr:state" v="VT"/>
    <tag k="ref:vcgi:esiteid" v="219447"/>
  </node>
  <node id="-428" visible="true" lat="43.78227592" lon="-72.44758599">
    <tag k="addr:city" v="Sharon"/>
    <tag k="addr:housenumber" v="4626"/>
    <tag k="addr:street" v="Vermont Route 14"/>
    <tag k="addr:state" v="VT"/>
    <tag k="ref:vcgi:esiteid" v="219452"/>
  </node>
  <node id="-435" visible="true" lat="43.78149032" lon="-72.46952056">
    <tag k="addr:city" v="Sharon"/>
    <tag k="addr:housenumber" v="5868"/>
    <tag k="addr:street" v="Vermont Route 14"/>
    <tag k="addr:state" v="VT"/>
    <tag k="ref:vcgi:esiteid" v="219460"/>
  </node>
  <node id="-441" visible="true" lat="43.78091803" lon="-72.46795591">
    <tag k="addr:city" v="Sharon"/>
    <tag k="addr:housenumber" v="5772"/>
    <tag k="addr:street" v="Vermont Route 14"/>
    <tag k="addr:state" v="VT"/>
    <tag k="ref:vcgi:esiteid" v="219467"/>
  </node>
  <node id="-465" visible="true" lat="43.77711868" lon="-72.43195343">
    <tag k="addr:city" v="Sharon"/>
    <tag k="addr:housenumber" v="140"/>
    <tag k="addr:street" v="Robinson Hollow"/>
    <tag k="addr:state" v="VT"/>
    <tag k="ref:vcgi:esiteid" v="219492"/>
  </node>
  <node id="-578" visible="true" lat="43.75428234" lon="-72.39555165">
    <tag k="addr:city" v="Sharon"/>
    <tag k="addr:housenumber" v="79"/>
    <tag k="addr:street" v="Bridge Lane"/>
    <tag k="addr:state" v="VT"/>
    <tag k="ref:vcgi:esiteid" v="219611"/>
  </node>
  <node id="-599" visible="true" lat="43.74669525" lon="-72.44539137">
    <tag k="addr:city" v="Sharon"/>
    <tag k="addr:housenumber" v="2019"/>
    <tag k="addr:street" v="Vermont Route 14"/>
    <tag k="addr:state" v="VT"/>
    <tag k="ref:vcgi:esiteid" v="219633"/>
  </node>
  <node id="-610" visible="true" lat="43.7430598" lon="-72.44129465">
    <tag k="addr:city" v="Sharon"/>
    <tag k="addr:housenumber" v="1700"/>
    <tag k="addr:street" v="Vermont Route 14"/>
    <tag k="addr:state" v="VT"/>
    <tag k="ref:vcgi:esiteid" v="219646"/>
  </node>
  <node id="-633" visible="true" lat="43.72331538" lon="-72.42731234">
    <tag k="addr:city" v="Sharon"/>
    <tag k="addr:housenumber" v="76"/>
    <tag k="addr:street" v="Vermont Route 14"/>
    <tag k="addr:state" v="VT"/>
    <tag k="ref:vcgi:esiteid" v="219683"/>
  </node>
  <node id="-636" visible="true" lat="43.72284724" lon="-72.42587637">
    <tag k="addr:city" v="Sharon"/>
    <tag k="addr:housenumber" v="3"/>
    <tag k="addr:street" v="Vermont Route 14"/>
    <tag k="addr:state" v="VT"/>
    <tag k="ref:vcgi:esiteid" v="219686"/>
  </node>
  <node id="-639" visible="true" lat="43.81626003" lon="-72.39731968">
    <tag k="addr:city" v="Sharon"/>
    <tag k="addr:housenumber" v="1533"/>
    <tag k="addr:street" v="Downer Road"/>
    <tag k="addr:state" v="VT"/>
    <tag k="ref:vcgi:esiteid" v="219689"/>
  </node>
  <node id="-640" visible="true" lat="43.81605751" lon="-72.39788573">
    <tag k="addr:city" v="Sharon"/>
    <tag k="addr:housenumber" v="1535"/>
    <tag k="addr:street" v="Downer Road"/>
    <tag k="addr:state" v="VT"/>
    <tag k="ref:vcgi:esiteid" v="219690"/>
  </node>
  <node id="-641" visible="true" lat="43.81604226" lon="-72.39677895">
    <tag k="addr:city" v="Sharon"/>
    <tag k="addr:housenumber" v="1531"/>
    <tag k="addr:street" v="Downer Road"/>
    <tag k="addr:state" v="VT"/>
    <tag k="ref:vcgi:esiteid" v="219691"/>
  </node>
  <node id="-643" visible="true" lat="43.79881763" lon="-72.38609394">
    <tag k="addr:city" v="Sharon"/>
    <tag k="addr:housenumber" v="2002"/>
    <tag k="addr:street" v="SFH"/>
    <tag k="addr:state" v="VT"/>
    <tag k="ref:vcgi:esiteid" v="219694"/>
  </node>
  <node id="-650" visible="true" lat="43.77514648" lon="-72.48341369">
    <tag k="addr:city" v="Sharon"/>
    <tag k="addr:housenumber" v="446"/>
    <tag k="addr:street" v="Old Stage Road"/>
    <tag k="addr:state" v="VT"/>
    <tag k="ref:vcgi:esiteid" v="219702"/>
  </node>
  <node id="-663" visible="true" lat="43.78828126" lon="-72.48549225">
    <tag k="addr:city" v="Sharon"/>
    <tag k="addr:housenumber" v="6800"/>
    <tag k="addr:street" v="Vermont Route 14"/>
    <tag k="addr:state" v="VT"/>
    <tag k="ref:vcgi:esiteid" v="219716"/>
  </node>
  <node id="-680" visible="true" lat="43.72726042" lon="-72.42576556">
    <tag k="addr:city" v="Sharon"/>
    <tag k="addr:housenumber" v="1"/>
    <tag k="addr:street" v="Interstate 89 North"/>
    <tag k="addr:state" v="VT"/>
    <tag k="ref:vcgi:esiteid" v="219733"/>
  </node>
  <node id="-683" visible="true" lat="43.7865283" lon="-72.46037095">
    <tag k="addr:city" v="Sharon"/>
    <tag k="addr:housenumber" v="59"/>
    <tag k="addr:street" v="Breezy Lane"/>
    <tag k="addr:state" v="VT"/>
    <tag k="ref:vcgi:esiteid" v="219736"/>
  </node>
  <node id="-684" visible="true" lat="43.78781887" lon="-72.45797048">
    <tag k="addr:city" v="Sharon"/>
    <tag k="addr:housenumber" v="275"/>
    <tag k="addr:street" v="Wendy Lane"/>
    <tag k="addr:state" v="VT"/>
    <tag k="ref:vcgi:esiteid" v="219737"/>
  </node>
  <node id="-693" visible="true" lat="43.7672148" lon="-72.46736344">
    <tag k="addr:city" v="Sharon"/>
    <tag k="addr:housenumber" v="973"/>
    <tag k="addr:street" v="Honey Brook Road"/>
    <tag k="addr:state" v="VT"/>
    <tag k="ref:vcgi:esiteid" v="219746"/>
  </node>
  <node id="-704" visible="true" lat="43.79236215" lon="-72.46247624">
    <tag k="addr:city" v="Sharon"/>
    <tag k="addr:housenumber" v="501"/>
    <tag k="addr:street" v="Baxter Mountain Road"/>
    <tag k="addr:state" v="VT"/>
    <tag k="ref:vcgi:esiteid" v="219758"/>
  </node>
  <node id="-705" visible="true" lat="43.79407604" lon="-72.46071183">
    <tag k="addr:city" v="Sharon"/>
    <tag k="addr:housenumber" v="79"/>
    <tag k="addr:street" v="Karilyn Drive"/>
    <tag k="addr:state" v="VT"/>
    <tag k="ref:vcgi:esiteid" v="219759"/>
  </node>
  <node id="-706" visible="true" lat="43.79463517" lon="-72.46057873">
    <tag k="addr:city" v="Sharon"/>
    <tag k="addr:housenumber" v="107"/>
    <tag k="addr:street" v="Karilyn Drive"/>
    <tag k="addr:state" v="VT"/>
    <tag k="ref:vcgi:esiteid" v="219760"/>
  </node>
  <node id="-707" visible="true" lat="43.79580085" lon="-72.46813321">
    <tag k="addr:city" v="Sharon"/>
    <tag k="addr:housenumber" v="1052"/>
    <tag k="addr:street" v="Eastman Road"/>
    <tag k="addr:state" v="VT"/>
    <tag k="ref:vcgi:esiteid" v="219761"/>
  </node>
  <node id="-710" visible="true" lat="43.77132608" lon="-72.38411651">
    <tag k="addr:city" v="Sharon"/>
    <tag k="addr:housenumber" v="3265"/>
    <tag k="addr:street" v="Beaver Meadow Road"/>
    <tag k="addr:state" v="VT"/>
    <tag k="ref:vcgi:esiteid" v="219765"/>
  </node>
  <node id="-715" visible="true" lat="43.78748427" lon="-72.46197694">
    <tag k="addr:city" v="Sharon"/>
    <tag k="addr:housenumber" v="151"/>
    <tag k="addr:street" v="Baxter Mountain Road"/>
    <tag k="addr:state" v="VT"/>
    <tag k="ref:vcgi:esiteid" v="219770"/>
  </node>
  <node id="-726" visible="true" lat="43.75813996" lon="-72.45022968">
    <tag k="addr:city" v="Sharon"/>
    <tag k="addr:housenumber" v="5"/>
    <tag k="addr:street" v="Clowns Alley"/>
    <tag k="addr:state" v="VT"/>
    <tag k="ref:vcgi:esiteid" v="219782"/>
  </node>
  <node id="-727" visible="true" lat="43.75759262" lon="-72.4501029">
    <tag k="addr:city" v="Sharon"/>
    <tag k="addr:housenumber" v="37"/>
    <tag k="addr:street" v="Clowns Alley"/>
    <tag k="addr:state" v="VT"/>
    <tag k="ref:vcgi:esiteid" v="219783"/>
  </node>
  <node id="-732" visible="true" lat="43.81759879" lon="-72.40239636">
    <tag k="addr:city" v="Sharon"/>
    <tag k="addr:housenumber" v="225"/>
    <tag k="addr:street" v="Aldrich Farm Road"/>
    <tag k="addr:state" v="VT"/>
    <tag k="ref:vcgi:esiteid" v="219788"/>
  </node>
  <node id="-741" visible="true" lat="43.80647809" lon="-72.45600437">
    <tag k="addr:city" v="Sharon"/>
    <tag k="addr:housenumber" v="1739"/>
    <tag k="addr:street" v="Fay Brook Road"/>
    <tag k="addr:state" v="VT"/>
    <tag k="ref:vcgi:esiteid" v="219797"/>
  </node>
  <node id="-743" visible="true" lat="43.78385364" lon="-72.50078318">
    <tag k="addr:city" v="Sharon"/>
    <tag k="addr:housenumber" v="410"/>
    <tag k="addr:street" v="Harlow Road"/>
    <tag k="addr:state" v="VT"/>
    <tag k="ref:vcgi:esiteid" v="219799"/>
  </node>
  <node id="-744" visible="true" lat="43.79585637" lon="-72.45942653">
    <tag k="addr:city" v="Sharon"/>
    <tag k="addr:housenumber" v="109"/>
    <tag k="addr:street" v="Karilyn Drive"/>
    <tag k="addr:state" v="VT"/>
    <tag k="ref:vcgi:esiteid" v="219800"/>
  </node>
  <node id="-745" visible="true" lat="43.79337021" lon="-72.46083983">
    <tag k="addr:city" v="Sharon"/>
    <tag k="addr:housenumber" v="47"/>
    <tag k="addr:street" v="Karilyn Drive"/>
    <tag k="addr:state" v="VT"/>
    <tag k="ref:vcgi:esiteid" v="219801"/>
  </node>
  <node id="-746" visible="true" lat="43.79240249" lon="-72.45559615">
    <tag k="addr:city" v="Sharon"/>
    <tag k="addr:housenumber" v="800"/>
    <tag k="addr:street" v="Baxter Mountain Road"/>
    <tag k="addr:state" v="VT"/>
    <tag k="ref:vcgi:esiteid" v="219802"/>
  </node>
  <node id="-753" visible="true" lat="43.74785229" lon="-72.48732661">
    <tag k="addr:city" v="Sharon"/>
    <tag k="addr:housenumber" v="1994"/>
    <tag k="addr:street" v="Howe Hill Road"/>
    <tag k="addr:state" v="VT"/>
    <tag k="ref:vcgi:esiteid" v="219809"/>
  </node>
  <node id="-764" visible="true" lat="43.78757832" lon="-72.46097056">
    <tag k="addr:city" v="Sharon"/>
    <tag k="addr:housenumber" v="53"/>
    <tag k="addr:street" v="Breezy Lane"/>
    <tag k="addr:state" v="VT"/>
    <tag k="ref:vcgi:esiteid" v="219820"/>
  </node>
  <node id="-765" visible="true" lat="43.78847438" lon="-72.46334895">
    <tag k="addr:city" v="Sharon"/>
    <tag k="addr:housenumber" v="450"/>
    <tag k="addr:street" v="Fay Brook Road"/>
    <tag k="addr:state" v="VT"/>
    <tag k="ref:vcgi:esiteid" v="219821"/>
  </node>
  <node id="-783" visible="true" lat="43.78246298" lon="-72.46038794">
    <tag k="addr:city" v="Sharon"/>
    <tag k="addr:housenumber" v="5387"/>
    <tag k="addr:street" v="Vermont Route 14"/>
    <tag k="addr:state" v="VT"/>
    <tag k="ref:vcgi:esiteid" v="306289"/>
  </node>
  <node id="-788" visible="true" lat="43.78490937" lon="-72.45152909">
    <tag k="addr:city" v="Sharon"/>
    <tag k="addr:housenumber" v="4932"/>
    <tag k="addr:street" v="Vermont Route 14"/>
    <tag k="addr:state" v="VT"/>
    <tag k="ref:vcgi:esiteid" v="307044"/>
  </node>
  <node id="-789" visible="true" lat="43.7803841" lon="-72.46644732">
    <tag k="addr:city" v="Sharon"/>
    <tag k="addr:housenumber" v="5733"/>
    <tag k="addr:street" v="Vermont Route 14"/>
    <tag k="addr:state" v="VT"/>
    <tag k="ref:vcgi:esiteid" v="309250"/>
  </node>
  <node id="-790" visible="true" lat="43.78947938" lon="-72.47216797">
    <tag k="addr:city" v="Sharon"/>
    <tag k="addr:housenumber" v="630"/>
    <tag k="addr:street" v="Eastman Road"/>
    <tag k="addr:state" v="VT"/>
    <tag k="ref:vcgi:esiteid" v="311924"/>
  </node>
  <node id="-798" visible="true" lat="43.77380816" lon="-72.38915862">
    <tag k="addr:city" v="Sharon"/>
    <tag k="addr:housenumber" v="2985"/>
    <tag k="addr:street" v="Beaver Meadow Road"/>
    <tag k="addr:state" v="VT"/>
    <tag k="ref:vcgi:esiteid" v="317639"/>
  </node>
  <node id="-800" visible="true" lat="43.81907037" lon="-72.41048697">
    <tag k="addr:city" v="Sharon"/>
    <tag k="addr:housenumber" v="3803"/>
    <tag k="addr:street" v="Route 132"/>
    <tag k="addr:state" v="VT"/>
    <tag k="ref:vcgi:esiteid" v="323982"/>
  </node>
  <node id="-803" visible="true" lat="43.79275917" lon="-72.4022319">
    <tag k="addr:city" v="Sharon"/>
    <tag k="addr:housenumber" v="1378"/>
    <tag k="addr:street" v="Beaver Meadow Road"/>
    <tag k="addr:state" v="VT"/>
    <tag k="ref:vcgi:esiteid" v="326369"/>
  </node>
  <node id="-804" visible="true" lat="43.79490395" lon="-72.45821931">
    <tag k="addr:city" v="Sharon"/>
    <tag k="addr:housenumber" v="765"/>
    <tag k="addr:street" v="Baxter Mountain Road"/>
    <tag k="addr:state" v="VT"/>
    <tag k="ref:vcgi:esiteid" v="326407"/>
  </node>
  <node id="-808" visible="true" lat="43.80323582" lon="-72.42016587">
    <tag k="addr:city" v="Sharon"/>
    <tag k="addr:housenumber" v="2364"/>
    <tag k="addr:street" v="Route 132"/>
    <tag k="addr:state" v="VT"/>
    <tag k="ref:vcgi:esiteid" v="327688"/>
  </node>
  <node id="-810" visible="true" lat="43.761169" lon="-72.38950648">
    <tag k="addr:city" v="Sharon"/>
    <tag k="addr:housenumber" v="76"/>
    <tag k="addr:street" v="Ruella Road"/>
    <tag k="addr:state" v="VT"/>
    <tag k="ref:vcgi:esiteid" v="334705"/>
  </node>
  <node id="-813" visible="true" lat="43.77838346" lon="-72.49441195">
    <tag k="addr:city" v="Sharon"/>
    <tag k="addr:housenumber" v="63"/>
    <tag k="addr:street" v="Harlow Road"/>
    <tag k="addr:state" v="VT"/>
    <tag k="ref:vcgi:esiteid" v="365647"/>
  </node>
  <node id="-818" visible="true" lat="43.82968207" lon="-72.44704779">
    <tag k="addr:city" v="Sharon"/>
    <tag k="addr:housenumber" v="475"/>
    <tag k="addr:street" v="Blake Hill Road"/>
    <tag k="addr:state" v="VT"/>
    <tag k="ref:vcgi:esiteid" v="450737"/>
  </node>
  <node id="-823" visible="true" lat="43.81227881" lon="-72.35590084">
    <tag k="addr:city" v="Sharon"/>
    <tag k="addr:housenumber" v="212"/>
    <tag k="addr:street" v="Turnpike Road"/>
    <tag k="addr:state" v="VT"/>
    <tag k="ref:vcgi:esiteid" v="450742"/>
  </node>
  <node id="-825" visible="true" lat="43.80567636" lon="-72.35077726">
    <tag k="addr:city" v="Sharon"/>
    <tag k="addr:housenumber" v="239"/>
    <tag k="addr:street" v="Turnpike Road"/>
    <tag k="addr:state" v="VT"/>
    <tag k="ref:vcgi:esiteid" v="450744"/>
  </node>
  <node id="-826" visible="true" lat="43.80662956" lon="-72.34519087">
    <tag k="addr:city" v="Sharon"/>
    <tag k="addr:housenumber" v="245"/>
    <tag k="addr:street" v="Turnpike Road"/>
    <tag k="addr:state" v="VT"/>
    <tag k="ref:vcgi:esiteid" v="450745"/>
  </node>
  <node id="-829" visible="true" lat="43.79794853" lon="-72.45973731">
    <tag k="addr:city" v="Sharon"/>
    <tag k="addr:housenumber" v="1244"/>
    <tag k="addr:street" v="Fay Brook Road"/>
    <tag k="addr:state" v="VT"/>
    <tag k="ref:vcgi:esiteid" v="450748"/>
  </node>
  <node id="-834" visible="true" lat="43.7986844" lon="-72.3856468">
    <tag k="addr:city" v="Sharon"/>
    <tag k="addr:housenumber" v="1980"/>
    <tag k="addr:street" v="SFH"/>
    <tag k="addr:state" v="VT"/>
    <tag k="ref:vcgi:esiteid" v="450753"/>
  </node>
  <node id="-838" visible="true" lat="43.77426133" lon="-72.44612365">
    <tag k="addr:city" v="Sharon"/>
    <tag k="addr:housenumber" v="67"/>
    <tag k="addr:street" v="Woodys Place"/>
    <tag k="addr:state" v="VT"/>
    <tag k="ref:vcgi:esiteid" v="450775"/>
  </node>
  <node id="-839" visible="true" lat="43.77397848" lon="-72.39091937">
    <tag k="addr:city" v="Sharon"/>
    <tag k="addr:housenumber" v="34"/>
    <tag k="addr:street" v="Holt Road"/>
    <tag k="addr:state" v="VT"/>
    <tag k="ref:vcgi:esiteid" v="450780"/>
  </node>
  <node id="-843" visible="true" lat="43.77033641" lon="-72.39535864">
    <tag k="addr:city" v="Sharon"/>
    <tag k="addr:housenumber" v="509"/>
    <tag k="addr:street" v="Holt Road"/>
    <tag k="addr:state" v="VT"/>
    <tag k="ref:vcgi:esiteid" v="450784"/>
  </node>
  <node id="-847" visible="true" lat="43.74529043" lon="-72.43452794">
    <tag k="addr:city" v="Sharon"/>
    <tag k="addr:housenumber" v="1868"/>
    <tag k="addr:street" v="Quarry Road"/>
    <tag k="addr:state" v="VT"/>
    <tag k="ref:vcgi:esiteid" v="450788"/>
  </node>
  <node id="-848" visible="true" lat="43.74605235" lon="-72.43429717">
    <tag k="addr:city" v="Sharon"/>
    <tag k="addr:housenumber" v="1847"/>
    <tag k="addr:street" v="Quarry Road"/>
    <tag k="addr:state" v="VT"/>
    <tag k="ref:vcgi:esiteid" v="450789"/>
  </node>
  <node id="-850" visible="true" lat="43.78235737" lon="-72.46420562">
    <tag k="addr:city" v="Sharon"/>
    <tag k="addr:housenumber" v="5450"/>
    <tag k="addr:street" v="Vermont Route 14"/>
    <tag k="addr:state" v="VT"/>
    <tag k="ref:vcgi:esiteid" v="450791"/>
  </node>
  <node id="-854" visible="true" lat="43.81059152" lon="-72.48201133">
    <tag k="addr:city" v="Sharon"/>
    <tag k="addr:housenumber" v="72"/>
    <tag k="addr:street" v="Bingham Road"/>
    <tag k="addr:state" v="VT"/>
    <tag k="ref:vcgi:esiteid" v="452118"/>
  </node>
  <node id="-859" visible="true" lat="43.82008267" lon="-72.38464384">
    <tag k="addr:city" v="Sharon"/>
    <tag k="addr:housenumber" v="275"/>
    <tag k="addr:street" v="Star Mountain Road"/>
    <tag k="addr:state" v="VT"/>
    <tag k="ref:vcgi:esiteid" v="452224"/>
  </node>
  <node id="-864" visible="true" lat="43.82473984" lon="-72.43381712">
    <tag k="addr:city" v="Sharon"/>
    <tag k="addr:housenumber" v="475"/>
    <tag k="addr:street" v="Powell Farm Road"/>
    <tag k="addr:state" v="VT"/>
    <tag k="ref:vcgi:esiteid" v="454842"/>
  </node>
  <node id="-866" visible="true" lat="43.8063301" lon="-72.41613117">
    <tag k="addr:city" v="Sharon"/>
    <tag k="addr:housenumber" v="2548"/>
    <tag k="addr:street" v="Route 132"/>
    <tag k="addr:state" v="VT"/>
    <tag k="ref:vcgi:esiteid" v="454844"/>
  </node>
  <node id="-867" visible="true" lat="43.7855932" lon="-72.48299773">
    <tag k="addr:city" v="Sharon"/>
    <tag k="addr:housenumber" v="1460"/>
    <tag k="addr:street" v="River Road"/>
    <tag k="addr:state" v="VT"/>
    <tag k="ref:vcgi:esiteid" v="454845"/>
  </node>
  <node id="-868" visible="true" lat="43.78951406" lon="-72.49327605">
    <tag k="addr:city" v="Sharon"/>
    <tag k="addr:housenumber" v="51"/>
    <tag k="addr:street" v="Commerce Park"/>
    <tag k="addr:state" v="VT"/>
    <tag k="ref:vcgi:esiteid" v="454846"/>
  </node>
  <node id="-869" visible="true" lat="43.78456686" lon="-72.47947628">
    <tag k="addr:city" v="Sharon"/>
    <tag k="addr:housenumber" v="1328"/>
    <tag k="addr:street" v="River Road"/>
    <tag k="addr:state" v="VT"/>
    <tag k="ref:vcgi:esiteid" v="454847"/>
  </node>
  <node id="-871" visible="true" lat="43.78878199" lon="-72.42188482">
    <tag k="addr:city" v="Sharon"/>
    <tag k="addr:housenumber" v="1119"/>
    <tag k="addr:street" v="Carpenter Road"/>
    <tag k="addr:state" v="VT"/>
    <tag k="ref:vcgi:esiteid" v="454853"/>
  </node>
  <node id="-873" visible="true" lat="43.75533445" lon="-72.48156681">
    <tag k="addr:city" v="Sharon"/>
    <tag k="addr:housenumber" v="2579"/>
    <tag k="addr:street" v="Howe Hill Road"/>
    <tag k="addr:state" v="VT"/>
    <tag k="ref:vcgi:esiteid" v="454855"/>
  </node>
  <node id="-875" visible="true" lat="43.74655513" lon="-72.49129898">
    <tag k="addr:city" v="Sharon"/>
    <tag k="addr:housenumber" v="1787"/>
    <tag k="addr:street" v="Howe Hill Road"/>
    <tag k="addr:state" v="VT"/>
    <tag k="ref:vcgi:esiteid" v="454857"/>
  </node>
  <node id="-877" visible="true" lat="43.72398443" lon="-72.42865046">
    <tag k="addr:city" v="Sharon"/>
    <tag k="addr:housenumber" v="128"/>
    <tag k="addr:street" v="Vermont Route 14"/>
    <tag k="addr:state" v="VT"/>
    <tag k="ref:vcgi:esiteid" v="454859"/>
  </node>
  <node id="-881" visible="true" lat="43.78172507" lon="-72.48219443">
    <tag k="addr:city" v="Sharon"/>
    <tag k="addr:housenumber" v="38"/>
    <tag k="addr:street" v="Jersey Lane"/>
    <tag k="addr:state" v="VT"/>
    <tag k="ref:vcgi:esiteid" v="612718"/>
  </node>
  <node id="-883" visible="true" lat="43.78428392" lon="-72.47918173">
    <tag k="addr:city" v="Sharon"/>
    <tag k="addr:housenumber" v="1294"/>
    <tag k="addr:street" v="River Road"/>
    <tag k="addr:state" v="VT"/>
    <tag k="ref:vcgi:esiteid" v="612781"/>
  </node>
  <node id="-889" visible="true" lat="43.78993788" lon="-72.42448497">
    <tag k="addr:city" v="Sharon"/>
    <tag k="addr:housenumber" v="1062"/>
    <tag k="addr:street" v="Carpenter Road"/>
    <tag k="addr:state" v="VT"/>
    <tag k="ref:vcgi:esiteid" v="616032"/>
  </node>
  <node id="-891" visible="true" lat="43.77772823" lon="-72.48026209">
    <tag k="addr:city" v="Sharon"/>
    <tag k="addr:housenumber" v="207"/>
    <tag k="addr:street" v="Old Stage Road"/>
    <tag k="addr:state" v="VT"/>
    <tag k="ref:vcgi:esiteid" v="619253"/>
  </node>
  <node id="-893" visible="true" lat="43.82058288" lon="-72.40735833">
    <tag k="addr:city" v="Sharon"/>
    <tag k="addr:housenumber" v="157"/>
    <tag k="addr:street" v="Cross Road"/>
    <tag k="addr:state" v="VT"/>
    <tag k="ref:vcgi:esiteid" v="620734"/>
  </node>
  <node id="-896" visible="true" lat="43.74125306" lon="-72.4387425">
    <tag k="addr:city" v="Sharon"/>
    <tag k="addr:housenumber" v="49"/>
    <tag k="addr:street" v="Erad Lane"/>
    <tag k="addr:state" v="VT"/>
    <tag k="ref:vcgi:esiteid" v="751463"/>
  </node>
  <node id="-898" visible="true" lat="43.81641121" lon="-72.39245083">
    <tag k="addr:city" v="Sharon"/>
    <tag k="addr:housenumber" v="1805"/>
    <tag k="addr:street" v="Downer Road"/>
    <tag k="addr:state" v="VT"/>
    <tag k="ref:vcgi:esiteid" v="752048"/>
  </node>
  <node id="-900" visible="true" lat="43.78896973" lon="-72.46591328">
    <tag k="addr:city" v="Sharon"/>
    <tag k="addr:housenumber" v="151"/>
    <tag k="addr:street" v="Horse Farm Road"/>
    <tag k="addr:state" v="VT"/>
    <tag k="ref:vcgi:esiteid" v="752270"/>
  </node>
  <node id="-901" visible="true" lat="43.78853317" lon="-72.4658487">
    <tag k="addr:city" v="Sharon"/>
    <tag k="addr:housenumber" v="189"/>
    <tag k="addr:street" v="Horse Farm Road"/>
    <tag k="addr:state" v="VT"/>
    <tag k="ref:vcgi:esiteid" v="752271"/>
  </node>
  <node id="-902" visible="true" lat="43.78822634" lon="-72.4658232">
    <tag k="addr:city" v="Sharon"/>
    <tag k="addr:housenumber" v="203"/>
    <tag k="addr:street" v="Horse Farm Road"/>
    <tag k="addr:state" v="VT"/>
    <tag k="ref:vcgi:esiteid" v="752272"/>
  </node>
  <node id="-903" visible="true" lat="43.79819688" lon="-72.38362448">
    <tag k="addr:city" v="Sharon"/>
    <tag k="addr:housenumber" v="550"/>
    <tag k="addr:street" v="Drum Heller Road"/>
    <tag k="addr:state" v="VT"/>
    <tag k="ref:vcgi:esiteid" v="756297"/>
  </node>
  <node id="-906" visible="true" lat="43.78531756" lon="-72.47622218">
    <tag k="addr:city" v="Sharon"/>
    <tag k="addr:housenumber" v="6326"/>
    <tag k="addr:street" v="Vermont Route 14"/>
    <tag k="addr:state" v="VT"/>
    <tag k="ref:vcgi:esiteid" v="757407"/>
  </node>
  <node id="-907" visible="true" lat="43.73760256" lon="-72.4466013">
    <tag k="addr:city" v="Sharon"/>
    <tag k="addr:housenumber" v="1031"/>
    <tag k="addr:street" v="Kenyon Hill Road"/>
    <tag k="addr:state" v="VT"/>
    <tag k="ref:vcgi:esiteid" v="757642"/>
  </node>
  <node id="-909" visible="true" lat="43.76909238" lon="-72.44807906">
    <tag k="addr:city" v="Sharon"/>
    <tag k="addr:housenumber" v="3805"/>
    <tag k="addr:street" v="Vermont Route 14"/>
    <tag k="addr:state" v="VT"/>
    <tag k="ref:vcgi:esiteid" v="757644"/>
  </node>
  <node id="-911" visible="true" lat="43.7798643" lon="-72.48059555">
    <tag k="addr:city" v="Sharon"/>
    <tag k="addr:housenumber" v="203"/>
    <tag k="addr:street" v="Old Stage Road"/>
    <tag k="addr:state" v="VT"/>
    <tag k="ref:vcgi:esiteid" v="759354"/>
  </node>
  <node id="-912" visible="true" lat="43.77107319" lon="-72.38677593">
    <tag k="addr:city" v="Sharon"/>
    <tag k="addr:housenumber" v="3208"/>
    <tag k="addr:street" v="Beaver Meadow Road"/>
    <tag k="addr:state" v="VT"/>
    <tag k="ref:vcgi:esiteid" v="759412"/>
  </node>
  <node id="-913" visible="true" lat="43.79713777" lon="-72.43583556">
    <tag k="addr:city" v="Sharon"/>
    <tag k="addr:housenumber" v="129"/>
    <tag k="addr:street" v="Mosher Lane"/>
    <tag k="addr:state" v="VT"/>
    <tag k="ref:vcgi:esiteid" v="759416"/>
  </node>
  <node id="-914" visible="true" lat="43.81469616" lon="-72.39469603">
    <tag k="addr:city" v="Sharon"/>
    <tag k="addr:housenumber" v="10"/>
    <tag k="addr:street" v="Treeline Drive"/>
    <tag k="addr:state" v="VT"/>
    <tag k="ref:vcgi:esiteid" v="763595"/>
  </node>
  <node id="-915" visible="true" lat="43.8152072" lon="-72.39366379">
    <tag k="addr:city" v="Sharon"/>
    <tag k="addr:housenumber" v="33"/>
    <tag k="addr:street" v="Treeline Drive"/>
    <tag k="addr:state" v="VT"/>
    <tag k="ref:vcgi:esiteid" v="763596"/>
  </node>
  <node id="-931" visible="true" lat="43.76598132" lon="-72.48612576">
    <tag k="addr:city" v="Sharon"/>
    <tag k="addr:housenumber" v="779"/>
    <tag k="addr:street" v="Moore Road"/>
    <tag k="addr:state" v="VT"/>
    <tag k="ref:vcgi:esiteid" v="763612"/>
  </node>
  <node id="-932" visible="true" lat="43.81309959" lon="-72.45354306">
    <tag k="addr:city" v="Sharon"/>
    <tag k="addr:housenumber" v="119"/>
    <tag k="addr:street" v="Clifford Farm Road"/>
    <tag k="addr:state" v="VT"/>
    <tag k="ref:vcgi:esiteid" v="763652"/>
  </node>
  <node id="-933" visible="true" lat="43.76267021" lon="-72.49027017">
    <tag k="addr:city" v="Sharon"/>
    <tag k="addr:housenumber" v="484"/>
    <tag k="addr:street" v="Leons Lane"/>
    <tag k="addr:state" v="VT"/>
    <tag k="ref:vcgi:esiteid" v="763916"/>
  </node>
  <node id="-934" visible="true" lat="43.82289518" lon="-72.43778699">
    <tag k="addr:city" v="Sharon"/>
    <tag k="addr:housenumber" v="178"/>
    <tag k="addr:street" v="Powell Farm Road"/>
    <tag k="addr:state" v="VT"/>
    <tag k="ref:vcgi:esiteid" v="765590"/>
  </node>
  <node id="-935" visible="true" lat="43.80776427" lon="-72.40197725">
    <tag k="addr:city" v="Sharon"/>
    <tag k="addr:housenumber" v="933"/>
    <tag k="addr:street" v="Downer Road"/>
    <tag k="addr:state" v="VT"/>
    <tag k="ref:vcgi:esiteid" v="765591"/>
  </node>
  <node id="-936" visible="true" lat="43.77465589" lon="-72.47033612">
    <tag k="addr:city" v="Sharon"/>
    <tag k="addr:housenumber" v="4160"/>
    <tag k="addr:street" v="Howe Hill Road"/>
    <tag k="addr:state" v="VT"/>
    <tag k="ref:vcgi:esiteid" v="765592"/>
  </node>
  <node id="-937" visible="true" lat="43.77622956" lon="-72.47713206">
    <tag k="addr:city" v="Sharon"/>
    <tag k="addr:housenumber" v="181"/>
    <tag k="addr:street" v="Lukes Lane"/>
    <tag k="addr:state" v="VT"/>
    <tag k="ref:vcgi:esiteid" v="765593"/>
  </node>
  <node id="-938" visible="true" lat="43.72386439" lon="-72.42817364">
    <tag k="addr:city" v="Sharon"/>
    <tag k="addr:housenumber" v="102"/>
    <tag k="addr:street" v="Vermont Route 14"/>
    <tag k="addr:state" v="VT"/>
    <tag k="ref:vcgi:esiteid" v="765594"/>
  </node>
  <node id="-939" visible="true" lat="43.72529075" lon="-72.42913295">
    <tag k="addr:city" v="Sharon"/>
    <tag k="addr:housenumber" v="291"/>
    <tag k="addr:street" v="Wood Lane"/>
    <tag k="addr:state" v="VT"/>
    <tag k="ref:vcgi:esiteid" v="765595"/>
  </node>
  <node id="-940" visible="true" lat="43.77424821" lon="-72.44654532">
    <tag k="addr:city" v="Sharon"/>
    <tag k="addr:housenumber" v="54"/>
    <tag k="addr:street" v="Woodys Place"/>
    <tag k="addr:state" v="VT"/>
    <tag k="ref:vcgi:esiteid" v="768470"/>
  </node>
  <node id="-941" visible="true" lat="43.77904309" lon="-72.47509623">
    <tag k="addr:city" v="Sharon"/>
    <tag k="addr:housenumber" v="359"/>
    <tag k="addr:street" v="Lukes Lane"/>
    <tag k="addr:state" v="VT"/>
    <tag k="ref:vcgi:esiteid" v="768471"/>
  </node>
  <node id="-942" visible="true" lat="43.76235742" lon="-72.4496181">
    <tag k="addr:city" v="Sharon"/>
    <tag k="addr:housenumber" v="3103"/>
    <tag k="addr:street" v="Vermont Route 14"/>
    <tag k="addr:state" v="VT"/>
    <tag k="ref:vcgi:esiteid" v="768477"/>
  </node>
  <node id="-943" visible="true" lat="43.78782278" lon="-72.4854955">
    <tag k="addr:city" v="Sharon"/>
    <tag k="addr:housenumber" v="6795"/>
    <tag k="addr:street" v="Vermont Route 14"/>
    <tag k="addr:state" v="VT"/>
    <tag k="ref:vcgi:esiteid" v="768478"/>
  </node>
  <node id="-944" visible="true" lat="43.7907523" lon="-72.488986">
    <tag k="addr:city" v="Sharon"/>
    <tag k="addr:housenumber" v="6968"/>
    <tag k="addr:street" v="Vermont Route 14"/>
    <tag k="addr:state" v="VT"/>
    <tag k="ref:vcgi:esiteid" v="768479"/>
  </node>
  <node id="-945" visible="true" lat="43.78992715" lon="-72.48907491">
    <tag k="addr:city" v="Sharon"/>
    <tag k="addr:housenumber" v="6989"/>
    <tag k="addr:street" v="Vermont Route 14"/>
    <tag k="addr:state" v="VT"/>
    <tag k="ref:vcgi:esiteid" v="768480"/>
  </node>
  <node id="-946" visible="true" lat="43.77829794" lon="-72.37404726">
    <tag k="addr:city" v="Sharon"/>
    <tag k="addr:housenumber" v="323"/>
    <tag k="addr:street" v="Sugar House Road"/>
    <tag k="addr:state" v="VT"/>
    <tag k="ref:vcgi:esiteid" v="769832"/>
  </node>
  <node id="-948" visible="true" lat="43.79249665" lon="-72.40700296">
    <tag k="addr:city" v="Sharon"/>
    <tag k="addr:housenumber" v="249"/>
    <tag k="addr:street" v="Odonnell Farm Road"/>
    <tag k="addr:state" v="VT"/>
    <tag k="ref:vcgi:esiteid" v="770209"/>
  </node>
  <node id="-949" visible="true" lat="43.80773372" lon="-72.36941484">
    <tag k="addr:city" v="Sharon"/>
    <tag k="addr:housenumber" v="550"/>
    <tag k="addr:street" v="Krivak Road"/>
    <tag k="addr:state" v="VT"/>
    <tag k="ref:vcgi:esiteid" v="770210"/>
  </node>
  <node id="-950" visible="true" lat="43.80797696" lon="-72.36703358">
    <tag k="addr:city" v="Sharon"/>
    <tag k="addr:housenumber" v="485"/>
    <tag k="addr:street" v="Krivak Road"/>
    <tag k="addr:state" v="VT"/>
    <tag k="ref:vcgi:esiteid" v="770211"/>
  </node>
  <node id="-963" visible="true" lat="43.78880937" lon="-72.3946534">
    <tag k="addr:city" v="Sharon"/>
    <tag k="addr:housenumber" v="1836"/>
    <tag k="addr:street" v="Beaver Meadow Road"/>
    <tag k="addr:state" v="VT"/>
    <tag k="ref:vcgi:esiteid" v="770949"/>
  </node>
  <node id="-964" visible="true" lat="43.81434014" lon="-72.39550723">
    <tag k="addr:city" v="Sharon"/>
    <tag k="addr:housenumber" v="1578"/>
    <tag k="addr:street" v="Downer Road"/>
    <tag k="addr:state" v="VT"/>
    <tag k="ref:vcgi:esiteid" v="800064"/>
  </node>
  <node id="-967" visible="true" lat="43.78083747" lon="-72.48599058">
    <tag k="addr:city" v="Sharon"/>
    <tag k="addr:housenumber" v="548"/>
    <tag k="addr:street" v="Broad Brook Road"/>
    <tag k="addr:state" v="VT"/>
    <tag k="ref:vcgi:esiteid" v="800125"/>
  </node>
  <node id="-969" visible="true" lat="43.78961646" lon="-72.49886366">
    <tag k="addr:city" v="Sharon"/>
    <tag k="addr:housenumber" v="114694"/>
    <tag k="addr:street" v="Interstate 89 South"/>
    <tag k="addr:state" v="VT"/>
    <tag k="ref:vcgi:esiteid" v="1050500"/>
  </node>
  <node id="-970" visible="true" lat="43.78190154" lon="-72.47441209">
    <tag k="addr:city" v="Sharon"/>
    <tag k="addr:housenumber" v="114948"/>
    <tag k="addr:street" v="Interstate 89 South"/>
    <tag k="addr:state" v="VT"/>
    <tag k="ref:vcgi:esiteid" v="1050501"/>
  </node>
  <node id="-971" visible="true" lat="43.78248311" lon="-72.47232683">
    <tag k="addr:city" v="Sharon"/>
    <tag k="addr:housenumber" v="15337"/>
    <tag k="addr:street" v="Interstate 89 North"/>
    <tag k="addr:state" v="VT"/>
    <tag k="ref:vcgi:esiteid" v="1050502"/>
  </node>
  <node id="-972" visible="true" lat="43.78426985" lon="-72.46380111">
    <tag k="addr:city" v="Sharon"/>
    <tag k="addr:housenumber" v="14359"/>
    <tag k="addr:street" v="Interstate 89 North"/>
    <tag k="addr:state" v="VT"/>
    <tag k="ref:vcgi:esiteid" v="1050503"/>
  </node>
  <node id="-973" visible="true" lat="43.78475444" lon="-72.45705579">
    <tag k="addr:city" v="Sharon"/>
    <tag k="addr:housenumber" v="137"/>
    <tag k="addr:street" v="School Street"/>
    <tag k="addr:state" v="VT"/>
    <tag k="ref:vcgi:esiteid" v="1050504"/>
  </node>
  <node id="-974" visible="true" lat="43.78624368" lon="-72.45593614">
    <tag k="addr:city" v="Sharon"/>
    <tag k="addr:housenumber" v="13610"/>
    <tag k="addr:street" v="Interstate 89 North"/>
    <tag k="addr:state" v="VT"/>
    <tag k="ref:vcgi:esiteid" v="1050505"/>
  </node>
  <node id="-975" visible="true" lat="43.7830111" lon="-72.44664702">
    <tag k="addr:city" v="Sharon"/>
    <tag k="addr:housenumber" v="11144"/>
    <tag k="addr:street" v="Interstate 89 North"/>
    <tag k="addr:state" v="VT"/>
    <tag k="ref:vcgi:esiteid" v="1050506"/>
  </node>
  <node id="-976" visible="true" lat="43.76880497" lon="-72.44573656">
    <tag k="addr:city" v="Sharon"/>
    <tag k="addr:housenumber" v="35806"/>
    <tag k="addr:street" v="Interstate 89 South"/>
    <tag k="addr:state" v="VT"/>
    <tag k="ref:vcgi:esiteid" v="1050507"/>
  </node>
  <node id="-977" visible="true" lat="43.75470213" lon="-72.44652499">
    <tag k="addr:city" v="Sharon"/>
    <tag k="addr:housenumber" v="11114"/>
    <tag k="addr:street" v="Interstate 89 North"/>
    <tag k="addr:state" v="VT"/>
    <tag k="ref:vcgi:esiteid" v="1050508"/>
  </node>
  <node id="-978" visible="true" lat="43.74189154" lon="-72.43632106">
    <tag k="addr:city" v="Sharon"/>
    <tag k="addr:housenumber" v="10021"/>
    <tag k="addr:street" v="Interstate 89 North"/>
    <tag k="addr:state" v="VT"/>
    <tag k="ref:vcgi:esiteid" v="1050509"/>
  </node>
  <node id="-979" visible="true" lat="43.72997823" lon="-72.43074203">
    <tag k="addr:city" v="Sharon"/>
    <tag k="addr:housenumber" v="9128"/>
    <tag k="addr:street" v="Interstate 89 North"/>
    <tag k="addr:state" v="VT"/>
    <tag k="ref:vcgi:esiteid" v="1050510"/>
  </node>
  <node id="-980" visible="true" lat="43.72704846" lon="-72.42744892">
    <tag k="addr:city" v="Sharon"/>
    <tag k="addr:housenumber" v="8851"/>
    <tag k="addr:street" v="Interstate 89 North"/>
    <tag k="addr:state" v="VT"/>
    <tag k="ref:vcgi:esiteid" v="1050511"/>
  </node>
  <node id="-981" visible="true" lat="43.80318332" lon="-72.42089892">
    <tag k="addr:city" v="Sharon"/>
    <tag k="addr:housenumber" v="2281"/>
    <tag k="addr:street" v="Route 132"/>
    <tag k="addr:state" v="VT"/>
    <tag k="ref:vcgi:esiteid" v="1050673"/>
  </node>
</osm>
