<?xml version="1.0" encoding="UTF-8"?>
<osm version="0.6" generator="JOSM" upload="false">
  <node id="-141" visible="true" lat="44.6570053" lon="-72.16625976">
    <tag k="addr:city" v="Sheffield"/>
    <tag k="addr:housenumber" v="212"/>
    <tag k="addr:street" v="Town Highway 16"/>
    <tag k="addr:state" v="VT"/>
    <tag k="ref:vcgi:esiteid" v="219866"/>
  </node>
  <node id="-144" visible="true" lat="44.65678405" lon="-72.1683197">
    <tag k="addr:city" v="Sheffield"/>
    <tag k="addr:housenumber" v="303"/>
    <tag k="addr:street" v="Town Highway 16"/>
    <tag k="addr:state" v="VT"/>
    <tag k="ref:vcgi:esiteid" v="219869"/>
  </node>
  <node id="-145" visible="true" lat="44.65649413" lon="-72.16361999">
    <tag k="addr:city" v="Sheffield"/>
    <tag k="addr:housenumber" v="58"/>
    <tag k="addr:street" v="Town Highway 16"/>
    <tag k="addr:state" v="VT"/>
    <tag k="ref:vcgi:esiteid" v="219870"/>
  </node>
  <node id="-146" visible="true" lat="44.65638351" lon="-72.1686325">
    <tag k="addr:city" v="Sheffield"/>
    <tag k="addr:housenumber" v="331"/>
    <tag k="addr:street" v="Town Highway 16"/>
    <tag k="addr:state" v="VT"/>
    <tag k="ref:vcgi:esiteid" v="219871"/>
  </node>
  <node id="-157" visible="true" lat="44.65057463" lon="-72.18281694">
    <tag k="addr:city" v="Sheffield"/>
    <tag k="addr:housenumber" v="1218"/>
    <tag k="addr:street" v="Town Highway 16"/>
    <tag k="addr:state" v="VT"/>
    <tag k="ref:vcgi:esiteid" v="219882"/>
  </node>
  <node id="-194" visible="true" lat="44.63664379" lon="-72.18739101">
    <tag k="addr:city" v="Sheffield"/>
    <tag k="addr:housenumber" v="3726"/>
    <tag k="addr:street" v="Sheffield Square Road"/>
    <tag k="addr:state" v="VT"/>
    <tag k="ref:vcgi:esiteid" v="219921"/>
  </node>
  <node id="-198" visible="true" lat="44.63608932" lon="-72.19277191">
    <tag k="addr:city" v="Sheffield"/>
    <tag k="addr:housenumber" v="4013"/>
    <tag k="addr:street" v="Sheffield Square Road"/>
    <tag k="addr:state" v="VT"/>
    <tag k="ref:vcgi:esiteid" v="219925"/>
  </node>
  <node id="-200" visible="true" lat="44.63567901" lon="-72.18513044">
    <tag k="addr:city" v="Sheffield"/>
    <tag k="addr:housenumber" v="3616"/>
    <tag k="addr:street" v="Sheffield Square Road"/>
    <tag k="addr:state" v="VT"/>
    <tag k="ref:vcgi:esiteid" v="219928"/>
  </node>
  <node id="-202" visible="true" lat="44.63573243" lon="-72.19077562">
    <tag k="addr:city" v="Sheffield"/>
    <tag k="addr:housenumber" v="53"/>
    <tag k="addr:street" v="Quarry Road"/>
    <tag k="addr:state" v="VT"/>
    <tag k="ref:vcgi:esiteid" v="219930"/>
  </node>
  <node id="-205" visible="true" lat="44.63486099" lon="-72.19149017">
    <tag k="addr:city" v="Sheffield"/>
    <tag k="addr:housenumber" v="103"/>
    <tag k="addr:street" v="Quarry Road"/>
    <tag k="addr:state" v="VT"/>
    <tag k="ref:vcgi:esiteid" v="219933"/>
  </node>
  <node id="-207" visible="true" lat="44.63463973" lon="-72.1839981">
    <tag k="addr:city" v="Sheffield"/>
    <tag k="addr:housenumber" v="3563"/>
    <tag k="addr:street" v="Sheffield Square Road"/>
    <tag k="addr:state" v="VT"/>
    <tag k="ref:vcgi:esiteid" v="219935"/>
  </node>
  <node id="-209" visible="true" lat="44.63457676" lon="-72.19255132">
    <tag k="addr:city" v="Sheffield"/>
    <tag k="addr:housenumber" v="162"/>
    <tag k="addr:street" v="Quarry Road"/>
    <tag k="addr:state" v="VT"/>
    <tag k="ref:vcgi:esiteid" v="219938"/>
  </node>
  <node id="-212" visible="true" lat="44.63389258" lon="-72.19200294">
    <tag k="addr:city" v="Sheffield"/>
    <tag k="addr:housenumber" v="151"/>
    <tag k="addr:street" v="Quarry Road"/>
    <tag k="addr:state" v="VT"/>
    <tag k="ref:vcgi:esiteid" v="219941"/>
  </node>
  <node id="-223" visible="true" lat="44.63178253" lon="-72.1712265">
    <tag k="addr:city" v="Sheffield"/>
    <tag k="addr:housenumber" v="2908"/>
    <tag k="addr:street" v="Sheffield Square Road"/>
    <tag k="addr:state" v="VT"/>
    <tag k="ref:vcgi:esiteid" v="219952"/>
  </node>
  <node id="-237" visible="true" lat="44.62953567" lon="-72.18111419">
    <tag k="addr:city" v="Sheffield"/>
    <tag k="addr:housenumber" v="399"/>
    <tag k="addr:street" v="Dunbar Road"/>
    <tag k="addr:state" v="VT"/>
    <tag k="ref:vcgi:esiteid" v="219966"/>
  </node>
  <node id="-244" visible="true" lat="44.62599182" lon="-72.19272613">
    <tag k="addr:city" v="Sheffield"/>
    <tag k="addr:housenumber" v="738"/>
    <tag k="addr:street" v="Quarry Road"/>
    <tag k="addr:state" v="VT"/>
    <tag k="ref:vcgi:esiteid" v="219973"/>
  </node>
  <node id="-245" visible="true" lat="44.62582015" lon="-72.18171691">
    <tag k="addr:city" v="Sheffield"/>
    <tag k="addr:housenumber" v="671"/>
    <tag k="addr:street" v="Hod Brooks Road"/>
    <tag k="addr:state" v="VT"/>
    <tag k="ref:vcgi:esiteid" v="219974"/>
  </node>
  <node id="-249" visible="true" lat="44.62551116" lon="-72.19272613">
    <tag k="addr:city" v="Sheffield"/>
    <tag k="addr:housenumber" v="772"/>
    <tag k="addr:street" v="Quarry Road"/>
    <tag k="addr:state" v="VT"/>
    <tag k="ref:vcgi:esiteid" v="219978"/>
  </node>
  <node id="-253" visible="true" lat="44.62468719" lon="-72.18789672">
    <tag k="addr:city" v="Sheffield"/>
    <tag k="addr:housenumber" v="219"/>
    <tag k="addr:street" v="Hod Brooks Road"/>
    <tag k="addr:state" v="VT"/>
    <tag k="ref:vcgi:esiteid" v="219983"/>
  </node>
  <node id="-257" visible="true" lat="44.62365722" lon="-72.18236541">
    <tag k="addr:city" v="Sheffield"/>
    <tag k="addr:housenumber" v="522"/>
    <tag k="addr:street" v="Hod Brooks Road"/>
    <tag k="addr:state" v="VT"/>
    <tag k="ref:vcgi:esiteid" v="219987"/>
  </node>
  <node id="-259" visible="true" lat="44.62334823" lon="-72.15255737">
    <tag k="addr:city" v="Sheffield"/>
    <tag k="addr:housenumber" v="1774"/>
    <tag k="addr:street" v="Sheffield Square Road"/>
    <tag k="addr:state" v="VT"/>
    <tag k="ref:vcgi:esiteid" v="219989"/>
  </node>
  <node id="-270" visible="true" lat="44.62050628" lon="-72.15000152">
    <tag k="addr:city" v="Sheffield"/>
    <tag k="addr:housenumber" v="1570"/>
    <tag k="addr:street" v="Sheffield Square Road"/>
    <tag k="addr:state" v="VT"/>
    <tag k="ref:vcgi:esiteid" v="220000"/>
  </node>
  <node id="-276" visible="true" lat="44.61965523" lon="-72.16048969">
    <tag k="addr:city" v="Sheffield"/>
    <tag k="addr:housenumber" v="246"/>
    <tag k="addr:street" v="Dunn Mountain Road"/>
    <tag k="addr:state" v="VT"/>
    <tag k="ref:vcgi:esiteid" v="220006"/>
  </node>
  <node id="-278" visible="true" lat="44.61930084" lon="-72.1508789">
    <tag k="addr:city" v="Sheffield"/>
    <tag k="addr:housenumber" v="1567"/>
    <tag k="addr:street" v="Sheffield Square Road"/>
    <tag k="addr:state" v="VT"/>
    <tag k="ref:vcgi:esiteid" v="220008"/>
  </node>
  <node id="-279" visible="true" lat="44.61907196" lon="-72.14825439">
    <tag k="addr:city" v="Sheffield"/>
    <tag k="addr:housenumber" v="1446"/>
    <tag k="addr:street" v="Sheffield Square Road"/>
    <tag k="addr:state" v="VT"/>
    <tag k="ref:vcgi:esiteid" v="220009"/>
  </node>
  <node id="-285" visible="true" lat="44.61812984" lon="-72.1029608">
    <tag k="addr:city" v="Sheffield"/>
    <tag k="addr:housenumber" v="50"/>
    <tag k="addr:street" v="Maple Row"/>
    <tag k="addr:state" v="VT"/>
    <tag k="ref:vcgi:esiteid" v="220016"/>
  </node>
  <node id="-286" visible="true" lat="44.61751655" lon="-72.10054798">
    <tag k="addr:city" v="Sheffield"/>
    <tag k="addr:housenumber" v="195"/>
    <tag k="addr:street" v="Maple Row"/>
    <tag k="addr:state" v="VT"/>
    <tag k="ref:vcgi:esiteid" v="220017"/>
  </node>
  <node id="-288" visible="true" lat="44.61738967" lon="-72.1010971">
    <tag k="addr:city" v="Sheffield"/>
    <tag k="addr:housenumber" v="155"/>
    <tag k="addr:street" v="Maple Row"/>
    <tag k="addr:state" v="VT"/>
    <tag k="ref:vcgi:esiteid" v="220019"/>
  </node>
  <node id="-290" visible="true" lat="44.61691665" lon="-72.14657592">
    <tag k="addr:city" v="Sheffield"/>
    <tag k="addr:housenumber" v="1267"/>
    <tag k="addr:street" v="Sheffield Square Road"/>
    <tag k="addr:state" v="VT"/>
    <tag k="ref:vcgi:esiteid" v="220021"/>
  </node>
  <node id="-294" visible="true" lat="44.61633557" lon="-72.10018968">
    <tag k="addr:city" v="Sheffield"/>
    <tag k="addr:housenumber" v="271"/>
    <tag k="addr:street" v="Maple Row"/>
    <tag k="addr:state" v="VT"/>
    <tag k="ref:vcgi:esiteid" v="220025"/>
  </node>
  <node id="-295" visible="true" lat="44.61533622" lon="-72.09974974">
    <tag k="addr:city" v="Sheffield"/>
    <tag k="addr:housenumber" v="299"/>
    <tag k="addr:street" v="Maple Row"/>
    <tag k="addr:state" v="VT"/>
    <tag k="ref:vcgi:esiteid" v="220026"/>
  </node>
  <node id="-296" visible="true" lat="44.6157101" lon="-72.16355264">
    <tag k="addr:city" v="Sheffield"/>
    <tag k="addr:housenumber" v="566"/>
    <tag k="addr:street" v="Dunn Mountain Road"/>
    <tag k="addr:state" v="VT"/>
    <tag k="ref:vcgi:esiteid" v="220027"/>
  </node>
  <node id="-297" visible="true" lat="44.61544799" lon="-72.13135528">
    <tag k="addr:city" v="Sheffield"/>
    <tag k="addr:housenumber" v="600"/>
    <tag k="addr:street" v="Sheffield Square Road"/>
    <tag k="addr:state" v="VT"/>
    <tag k="ref:vcgi:esiteid" v="220028"/>
  </node>
  <node id="-298" visible="true" lat="44.6151443" lon="-72.16393419">
    <tag k="addr:city" v="Sheffield"/>
    <tag k="addr:housenumber" v="568"/>
    <tag k="addr:street" v="Dunn Mountain Road"/>
    <tag k="addr:state" v="VT"/>
    <tag k="ref:vcgi:esiteid" v="220029"/>
  </node>
  <node id="-299" visible="true" lat="44.61509323" lon="-72.14005279">
    <tag k="addr:city" v="Sheffield"/>
    <tag k="addr:housenumber" v="949"/>
    <tag k="addr:street" v="Sheffield Square Road"/>
    <tag k="addr:state" v="VT"/>
    <tag k="ref:vcgi:esiteid" v="220030"/>
  </node>
  <node id="-300" visible="true" lat="44.61493682" lon="-72.10074615">
    <tag k="addr:city" v="Sheffield"/>
    <tag k="addr:housenumber" v="284"/>
    <tag k="addr:street" v="Maple Row"/>
    <tag k="addr:state" v="VT"/>
    <tag k="ref:vcgi:esiteid" v="220031"/>
  </node>
  <node id="-301" visible="true" lat="44.61507034" lon="-72.14544677">
    <tag k="addr:city" v="Sheffield"/>
    <tag k="addr:housenumber" v="1177"/>
    <tag k="addr:street" v="Sheffield Square Road"/>
    <tag k="addr:state" v="VT"/>
    <tag k="ref:vcgi:esiteid" v="220032"/>
  </node>
  <node id="-302" visible="true" lat="44.61481249" lon="-72.14306006">
    <tag k="addr:city" v="Sheffield"/>
    <tag k="addr:housenumber" v="1079"/>
    <tag k="addr:street" v="Sheffield Square Road"/>
    <tag k="addr:state" v="VT"/>
    <tag k="ref:vcgi:esiteid" v="220034"/>
  </node>
  <node id="-303" visible="true" lat="44.61482238" lon="-72.14157867">
    <tag k="addr:city" v="Sheffield"/>
    <tag k="addr:housenumber" v="983"/>
    <tag k="addr:street" v="Sheffield Square Road"/>
    <tag k="addr:state" v="VT"/>
    <tag k="ref:vcgi:esiteid" v="220035"/>
  </node>
  <node id="-304" visible="true" lat="44.61479818" lon="-72.1624001">
    <tag k="addr:city" v="Sheffield"/>
    <tag k="addr:housenumber" v="583"/>
    <tag k="addr:street" v="Dunn Mountain Road"/>
    <tag k="addr:state" v="VT"/>
    <tag k="ref:vcgi:esiteid" v="220036"/>
  </node>
  <node id="-309" visible="true" lat="44.6126024" lon="-72.09825729">
    <tag k="addr:city" v="Sheffield"/>
    <tag k="addr:housenumber" v="152"/>
    <tag k="addr:street" v="Ott Drive"/>
    <tag k="addr:state" v="VT"/>
    <tag k="ref:vcgi:esiteid" v="220041"/>
  </node>
  <node id="-311" visible="true" lat="44.61229705" lon="-72.12301635">
    <tag k="addr:city" v="Sheffield"/>
    <tag k="addr:housenumber" v="40"/>
    <tag k="addr:street" v="Sheffield Square Road"/>
    <tag k="addr:state" v="VT"/>
    <tag k="ref:vcgi:esiteid" v="220043"/>
  </node>
  <node id="-314" visible="true" lat="44.61173487" lon="-72.1634191">
    <tag k="addr:city" v="Sheffield"/>
    <tag k="addr:housenumber" v="826"/>
    <tag k="addr:street" v="Dunn Mountain Road"/>
    <tag k="addr:state" v="VT"/>
    <tag k="ref:vcgi:esiteid" v="220046"/>
  </node>
  <node id="-317" visible="true" lat="44.60988294" lon="-72.09663846">
    <tag k="addr:city" v="Sheffield"/>
    <tag k="addr:housenumber" v="13"/>
    <tag k="addr:street" v="Mosher Road"/>
    <tag k="addr:state" v="VT"/>
    <tag k="ref:vcgi:esiteid" v="220049"/>
  </node>
  <node id="-320" visible="true" lat="44.60838739" lon="-72.10267092">
    <tag k="addr:city" v="Sheffield"/>
    <tag k="addr:housenumber" v="506"/>
    <tag k="addr:street" v="Nelson Hill Road"/>
    <tag k="addr:state" v="VT"/>
    <tag k="ref:vcgi:esiteid" v="220052"/>
  </node>
  <node id="-335" visible="true" lat="44.60550055" lon="-72.11749948">
    <tag k="addr:city" v="Sheffield"/>
    <tag k="addr:housenumber" v="63"/>
    <tag k="addr:street" v="Sheldon Farm Road"/>
    <tag k="addr:state" v="VT"/>
    <tag k="ref:vcgi:esiteid" v="220070"/>
  </node>
  <node id="-337" visible="true" lat="44.60452651" lon="-72.12946319">
    <tag k="addr:city" v="Sheffield"/>
    <tag k="addr:housenumber" v="450"/>
    <tag k="addr:street" v="Keniston Hill Road"/>
    <tag k="addr:state" v="VT"/>
    <tag k="ref:vcgi:esiteid" v="220072"/>
  </node>
  <node id="-338" visible="true" lat="44.60423324" lon="-72.1159009">
    <tag k="addr:city" v="Sheffield"/>
    <tag k="addr:housenumber" v="79"/>
    <tag k="addr:street" v="Sheldon Farm Road"/>
    <tag k="addr:state" v="VT"/>
    <tag k="ref:vcgi:esiteid" v="220073"/>
  </node>
  <node id="-344" visible="true" lat="44.60354712" lon="-72.13333085">
    <tag k="addr:city" v="Sheffield"/>
    <tag k="addr:housenumber" v="598"/>
    <tag k="addr:street" v="Keniston Hill Road"/>
    <tag k="addr:state" v="VT"/>
    <tag k="ref:vcgi:esiteid" v="220080"/>
  </node>
  <node id="-347" visible="true" lat="44.60352074" lon="-72.11655268">
    <tag k="addr:city" v="Sheffield"/>
    <tag k="addr:housenumber" v="11"/>
    <tag k="addr:street" v="Sheldon Farm Road"/>
    <tag k="addr:state" v="VT"/>
    <tag k="ref:vcgi:esiteid" v="220083"/>
  </node>
  <node id="-353" visible="true" lat="44.6029311" lon="-72.11320183">
    <tag k="addr:city" v="Sheffield"/>
    <tag k="addr:housenumber" v="97"/>
    <tag k="addr:street" v="Berry Hill Road"/>
    <tag k="addr:state" v="VT"/>
    <tag k="ref:vcgi:esiteid" v="220090"/>
  </node>
  <node id="-357" visible="true" lat="44.60278175" lon="-72.11344412">
    <tag k="addr:city" v="Sheffield"/>
    <tag k="addr:housenumber" v="75"/>
    <tag k="addr:street" v="Berry Hill Road"/>
    <tag k="addr:state" v="VT"/>
    <tag k="ref:vcgi:esiteid" v="220094"/>
  </node>
  <node id="-358" visible="true" lat="44.60270842" lon="-72.11921494">
    <tag k="addr:city" v="Sheffield"/>
    <tag k="addr:housenumber" v="3249"/>
    <tag k="addr:street" v="Vermont Route 122"/>
    <tag k="addr:state" v="VT"/>
    <tag k="ref:vcgi:esiteid" v="220096"/>
  </node>
  <node id="-361" visible="true" lat="44.60245705" lon="-72.11390851">
    <tag k="addr:city" v="Sheffield"/>
    <tag k="addr:housenumber" v="33"/>
    <tag k="addr:street" v="Berry Hill Road"/>
    <tag k="addr:state" v="VT"/>
    <tag k="ref:vcgi:esiteid" v="220099"/>
  </node>
  <node id="-364" visible="true" lat="44.60221602" lon="-72.13640122">
    <tag k="addr:city" v="Sheffield"/>
    <tag k="addr:housenumber" v="741"/>
    <tag k="addr:street" v="Keniston Hill Road"/>
    <tag k="addr:state" v="VT"/>
    <tag k="ref:vcgi:esiteid" v="220102"/>
  </node>
  <node id="-365" visible="true" lat="44.60226659" lon="-72.11423122">
    <tag k="addr:city" v="Sheffield"/>
    <tag k="addr:housenumber" v="17"/>
    <tag k="addr:street" v="Berry Hill Road"/>
    <tag k="addr:state" v="VT"/>
    <tag k="ref:vcgi:esiteid" v="220103"/>
  </node>
  <node id="-366" visible="true" lat="44.60218232" lon="-72.11443617">
    <tag k="addr:city" v="Sheffield"/>
    <tag k="addr:housenumber" v="5"/>
    <tag k="addr:street" v="Berry Hill Road"/>
    <tag k="addr:state" v="VT"/>
    <tag k="ref:vcgi:esiteid" v="220104"/>
  </node>
  <node id="-368" visible="true" lat="44.6018952" lon="-72.11484375">
    <tag k="addr:city" v="Sheffield"/>
    <tag k="addr:housenumber" v="8"/>
    <tag k="addr:street" v="Chesley Hill Road"/>
    <tag k="addr:state" v="VT"/>
    <tag k="ref:vcgi:esiteid" v="220106"/>
  </node>
  <node id="-372" visible="true" lat="44.60151498" lon="-72.12198959">
    <tag k="addr:city" v="Sheffield"/>
    <tag k="addr:housenumber" v="20"/>
    <tag k="addr:street" v="Keniston Hill Road"/>
    <tag k="addr:state" v="VT"/>
    <tag k="ref:vcgi:esiteid" v="220111"/>
  </node>
  <node id="-374" visible="true" lat="44.60109646" lon="-72.11580933">
    <tag k="addr:city" v="Sheffield"/>
    <tag k="addr:housenumber" v="66"/>
    <tag k="addr:street" v="Chesley Hill Road"/>
    <tag k="addr:state" v="VT"/>
    <tag k="ref:vcgi:esiteid" v="220113"/>
  </node>
  <node id="-376" visible="true" lat="44.60133703" lon="-72.12052801">
    <tag k="addr:city" v="Sheffield"/>
    <tag k="addr:housenumber" v="246"/>
    <tag k="addr:street" v="Dane Road"/>
    <tag k="addr:state" v="VT"/>
    <tag k="ref:vcgi:esiteid" v="220115"/>
  </node>
  <node id="-379" visible="true" lat="44.60108343" lon="-72.11872412">
    <tag k="addr:city" v="Sheffield"/>
    <tag k="addr:housenumber" v="154"/>
    <tag k="addr:street" v="Dane Road"/>
    <tag k="addr:state" v="VT"/>
    <tag k="ref:vcgi:esiteid" v="220118"/>
  </node>
  <node id="-380" visible="true" lat="44.60099839" lon="-72.12034871">
    <tag k="addr:city" v="Sheffield"/>
    <tag k="addr:housenumber" v="223"/>
    <tag k="addr:street" v="Dane Road"/>
    <tag k="addr:state" v="VT"/>
    <tag k="ref:vcgi:esiteid" v="220119"/>
  </node>
  <node id="-382" visible="true" lat="44.60101079" lon="-72.11805543">
    <tag k="addr:city" v="Sheffield"/>
    <tag k="addr:housenumber" v="118"/>
    <tag k="addr:street" v="Dane Road"/>
    <tag k="addr:state" v="VT"/>
    <tag k="ref:vcgi:esiteid" v="220121"/>
  </node>
  <node id="-384" visible="true" lat="44.6007105" lon="-72.11500904">
    <tag k="addr:city" v="Sheffield"/>
    <tag k="addr:housenumber" v="83"/>
    <tag k="addr:street" v="Chesley Hill Road"/>
    <tag k="addr:state" v="VT"/>
    <tag k="ref:vcgi:esiteid" v="220123"/>
  </node>
  <node id="-385" visible="true" lat="44.60069363" lon="-72.12154661">
    <tag k="addr:city" v="Sheffield"/>
    <tag k="addr:housenumber" v="299"/>
    <tag k="addr:street" v="Dane Road"/>
    <tag k="addr:state" v="VT"/>
    <tag k="ref:vcgi:esiteid" v="220124"/>
  </node>
  <node id="-386" visible="true" lat="44.6005476" lon="-72.11922943">
    <tag k="addr:city" v="Sheffield"/>
    <tag k="addr:housenumber" v="177"/>
    <tag k="addr:street" v="Dane Road"/>
    <tag k="addr:state" v="VT"/>
    <tag k="ref:vcgi:esiteid" v="220125"/>
  </node>
  <node id="-387" visible="true" lat="44.6006359" lon="-72.12280379">
    <tag k="addr:city" v="Sheffield"/>
    <tag k="addr:housenumber" v="381"/>
    <tag k="addr:street" v="Dane Road"/>
    <tag k="addr:state" v="VT"/>
    <tag k="ref:vcgi:esiteid" v="220126"/>
  </node>
  <node id="-388" visible="true" lat="44.60048675" lon="-72.11560058">
    <tag k="addr:city" v="Sheffield"/>
    <tag k="addr:housenumber" v="123"/>
    <tag k="addr:street" v="Chesley Hill Road"/>
    <tag k="addr:state" v="VT"/>
    <tag k="ref:vcgi:esiteid" v="220127"/>
  </node>
  <node id="-389" visible="true" lat="44.60046005" lon="-72.11533355">
    <tag k="addr:city" v="Sheffield"/>
    <tag k="addr:housenumber" v="125"/>
    <tag k="addr:street" v="Chesley Hill Road"/>
    <tag k="addr:state" v="VT"/>
    <tag k="ref:vcgi:esiteid" v="220130"/>
  </node>
  <node id="-390" visible="true" lat="44.60034669" lon="-72.11849176">
    <tag k="addr:city" v="Sheffield"/>
    <tag k="addr:housenumber" v="29"/>
    <tag k="addr:street" v="Clifford Field Road"/>
    <tag k="addr:state" v="VT"/>
    <tag k="ref:vcgi:esiteid" v="220131"/>
  </node>
  <node id="-391" visible="true" lat="44.60010541" lon="-72.11563888">
    <tag k="addr:city" v="Sheffield"/>
    <tag k="addr:housenumber" v="147"/>
    <tag k="addr:street" v="Chesley Hill Road"/>
    <tag k="addr:state" v="VT"/>
    <tag k="ref:vcgi:esiteid" v="220134"/>
  </node>
  <node id="-395" visible="true" lat="44.59992599" lon="-72.13243103">
    <tag k="addr:city" v="Sheffield"/>
    <tag k="addr:housenumber" v="848"/>
    <tag k="addr:street" v="Dane Road"/>
    <tag k="addr:state" v="VT"/>
    <tag k="ref:vcgi:esiteid" v="220138"/>
  </node>
  <node id="-396" visible="true" lat="44.59979037" lon="-72.11578059">
    <tag k="addr:city" v="Sheffield"/>
    <tag k="addr:housenumber" v="169"/>
    <tag k="addr:street" v="Chesley Hill Road"/>
    <tag k="addr:state" v="VT"/>
    <tag k="ref:vcgi:esiteid" v="220139"/>
  </node>
  <node id="-397" visible="true" lat="44.5997195" lon="-72.11722346">
    <tag k="addr:city" v="Sheffield"/>
    <tag k="addr:housenumber" v="184"/>
    <tag k="addr:street" v="Chesley Hill Road"/>
    <tag k="addr:state" v="VT"/>
    <tag k="ref:vcgi:esiteid" v="220140"/>
  </node>
  <node id="-398" visible="true" lat="44.59970092" lon="-72.12895202">
    <tag k="addr:city" v="Sheffield"/>
    <tag k="addr:housenumber" v="664"/>
    <tag k="addr:street" v="Dane Road"/>
    <tag k="addr:state" v="VT"/>
    <tag k="ref:vcgi:esiteid" v="220141"/>
  </node>
  <node id="-399" visible="true" lat="44.59952351" lon="-72.11867484">
    <tag k="addr:city" v="Sheffield"/>
    <tag k="addr:housenumber" v="87"/>
    <tag k="addr:street" v="Clifford Field Road"/>
    <tag k="addr:state" v="VT"/>
    <tag k="ref:vcgi:esiteid" v="220142"/>
  </node>
  <node id="-400" visible="true" lat="44.59972314" lon="-72.11933099">
    <tag k="addr:city" v="Sheffield"/>
    <tag k="addr:housenumber" v="96"/>
    <tag k="addr:street" v="Clifford Field Road"/>
    <tag k="addr:state" v="VT"/>
    <tag k="ref:vcgi:esiteid" v="220143"/>
  </node>
  <node id="-402" visible="true" lat="44.5993208" lon="-72.1157811">
    <tag k="addr:city" v="Sheffield"/>
    <tag k="addr:housenumber" v="201"/>
    <tag k="addr:street" v="Chesley Hill Road"/>
    <tag k="addr:state" v="VT"/>
    <tag k="ref:vcgi:esiteid" v="220145"/>
  </node>
  <node id="-403" visible="true" lat="44.59930949" lon="-72.11453829">
    <tag k="addr:city" v="Sheffield"/>
    <tag k="addr:housenumber" v="191"/>
    <tag k="addr:street" v="Chesley Hill Road"/>
    <tag k="addr:state" v="VT"/>
    <tag k="ref:vcgi:esiteid" v="220146"/>
  </node>
  <node id="-404" visible="true" lat="44.59927368" lon="-72.12868499">
    <tag k="addr:city" v="Sheffield"/>
    <tag k="addr:housenumber" v="655"/>
    <tag k="addr:street" v="Dane Road"/>
    <tag k="addr:state" v="VT"/>
    <tag k="ref:vcgi:esiteid" v="220147"/>
  </node>
  <node id="-406" visible="true" lat="44.59906784" lon="-72.11662636">
    <tag k="addr:city" v="Sheffield"/>
    <tag k="addr:housenumber" v="236"/>
    <tag k="addr:street" v="Chesley Hill Road"/>
    <tag k="addr:state" v="VT"/>
    <tag k="ref:vcgi:esiteid" v="220149"/>
  </node>
  <node id="-407" visible="true" lat="44.59901947" lon="-72.11756903">
    <tag k="addr:city" v="Sheffield"/>
    <tag k="addr:housenumber" v="256"/>
    <tag k="addr:street" v="Chesley Hill Road"/>
    <tag k="addr:state" v="VT"/>
    <tag k="ref:vcgi:esiteid" v="220150"/>
  </node>
  <node id="-409" visible="true" lat="44.59869201" lon="-72.11587596">
    <tag k="addr:city" v="Sheffield"/>
    <tag k="addr:housenumber" v="245"/>
    <tag k="addr:street" v="Chesley Hill Road"/>
    <tag k="addr:state" v="VT"/>
    <tag k="ref:vcgi:esiteid" v="220152"/>
  </node>
  <node id="-420" visible="true" lat="44.59634263" lon="-72.10742836">
    <tag k="addr:city" v="Sheffield"/>
    <tag k="addr:housenumber" v="97"/>
    <tag k="addr:street" v="Dexter Cemetery Road"/>
    <tag k="addr:state" v="VT"/>
    <tag k="ref:vcgi:esiteid" v="220164"/>
  </node>
  <node id="-424" visible="true" lat="44.59583318" lon="-72.10844359">
    <tag k="addr:city" v="Sheffield"/>
    <tag k="addr:housenumber" v="144"/>
    <tag k="addr:street" v="Dexter Cemetery Road"/>
    <tag k="addr:state" v="VT"/>
    <tag k="ref:vcgi:esiteid" v="220168"/>
  </node>
  <node id="-440" visible="true" lat="44.59378815" lon="-72.11872864">
    <tag k="addr:city" v="Sheffield"/>
    <tag k="addr:housenumber" v="550"/>
    <tag k="addr:street" v="Chesley Hill Road"/>
    <tag k="addr:state" v="VT"/>
    <tag k="ref:vcgi:esiteid" v="220184"/>
  </node>
  <node id="-445" visible="true" lat="44.58670804" lon="-72.09516893">
    <tag k="addr:city" v="Sheffield"/>
    <tag k="addr:housenumber" v="312"/>
    <tag k="addr:street" v="Vertical Mile Road"/>
    <tag k="addr:state" v="VT"/>
    <tag k="ref:vcgi:esiteid" v="220189"/>
  </node>
  <node id="-451" visible="true" lat="44.61070596" lon="-72.09728004">
    <tag k="addr:city" v="Sheffield"/>
    <tag k="addr:housenumber" v="42"/>
    <tag k="addr:street" v="Ott Drive"/>
    <tag k="addr:state" v="VT"/>
    <tag k="ref:vcgi:esiteid" v="220197"/>
  </node>
  <node id="-453" visible="true" lat="44.61293149" lon="-72.16520748">
    <tag k="addr:city" v="Sheffield"/>
    <tag k="addr:housenumber" v="11"/>
    <tag k="addr:street" v="Hams Camp Road"/>
    <tag k="addr:state" v="VT"/>
    <tag k="ref:vcgi:esiteid" v="220199"/>
  </node>
  <node id="-459" visible="true" lat="44.60044015" lon="-72.12169733">
    <tag k="addr:city" v="Sheffield"/>
    <tag k="addr:housenumber" v="55"/>
    <tag k="addr:street" v="Brian Road"/>
    <tag k="addr:state" v="VT"/>
    <tag k="ref:vcgi:esiteid" v="220205"/>
  </node>
  <node id="-462" visible="true" lat="44.6013372" lon="-72.12276096">
    <tag k="addr:city" v="Sheffield"/>
    <tag k="addr:housenumber" v="35"/>
    <tag k="addr:street" v="Keniston Hill Road"/>
    <tag k="addr:state" v="VT"/>
    <tag k="ref:vcgi:esiteid" v="220208"/>
  </node>
  <node id="-464" visible="true" lat="44.61467506" lon="-72.13836869">
    <tag k="addr:city" v="Sheffield"/>
    <tag k="addr:housenumber" v="811"/>
    <tag k="addr:street" v="Sheffield Square Road"/>
    <tag k="addr:state" v="VT"/>
    <tag k="ref:vcgi:esiteid" v="220210"/>
  </node>
  <node id="-466" visible="true" lat="44.60898171" lon="-72.1034285">
    <tag k="addr:city" v="Sheffield"/>
    <tag k="addr:housenumber" v="487"/>
    <tag k="addr:street" v="Nelson Hill Road"/>
    <tag k="addr:state" v="VT"/>
    <tag k="ref:vcgi:esiteid" v="220212"/>
  </node>
  <node id="-468" visible="true" lat="44.61773878" lon="-72.16160418">
    <tag k="addr:city" v="Sheffield"/>
    <tag k="addr:housenumber" v="394"/>
    <tag k="addr:street" v="Dunn Mountain Road"/>
    <tag k="addr:state" v="VT"/>
    <tag k="ref:vcgi:esiteid" v="220214"/>
  </node>
  <node id="-478" visible="true" lat="44.60006801" lon="-72.1208394">
    <tag k="addr:city" v="Sheffield"/>
    <tag k="addr:housenumber" v="117"/>
    <tag k="addr:street" v="Brian Road"/>
    <tag k="addr:state" v="VT"/>
    <tag k="ref:vcgi:esiteid" v="220224"/>
  </node>
  <node id="-484" visible="true" lat="44.61614456" lon="-72.10492337">
    <tag k="addr:city" v="Sheffield"/>
    <tag k="addr:housenumber" v="1066"/>
    <tag k="addr:street" v="Berry Hill Road"/>
    <tag k="addr:state" v="VT"/>
    <tag k="ref:vcgi:esiteid" v="220230"/>
  </node>
  <node id="-486" visible="true" lat="44.61391697" lon="-72.16332766">
    <tag k="addr:city" v="Sheffield"/>
    <tag k="addr:housenumber" v="671"/>
    <tag k="addr:street" v="Dunn Mountain Road"/>
    <tag k="addr:state" v="VT"/>
    <tag k="ref:vcgi:esiteid" v="220232"/>
  </node>
  <node id="-500" visible="true" lat="44.61582735" lon="-72.16165355">
    <tag k="addr:city" v="Sheffield"/>
    <tag k="addr:housenumber" v="541"/>
    <tag k="addr:street" v="Dunn Mountain Road"/>
    <tag k="addr:state" v="VT"/>
    <tag k="ref:vcgi:esiteid" v="220246"/>
  </node>
  <node id="-501" visible="true" lat="44.63493643" lon="-72.18626375">
    <tag k="addr:city" v="Sheffield"/>
    <tag k="addr:housenumber" v="3635"/>
    <tag k="addr:street" v="Sheffield Square Road"/>
    <tag k="addr:state" v="VT"/>
    <tag k="ref:vcgi:esiteid" v="220247"/>
  </node>
  <node id="-506" visible="true" lat="44.62448713" lon="-72.18282588">
    <tag k="addr:city" v="Sheffield"/>
    <tag k="addr:housenumber" v="491"/>
    <tag k="addr:street" v="Hod Brooks Road"/>
    <tag k="addr:state" v="VT"/>
    <tag k="ref:vcgi:esiteid" v="220252"/>
  </node>
  <node id="-515" visible="true" lat="44.63602606" lon="-72.18262492">
    <tag k="addr:city" v="Sheffield"/>
    <tag k="addr:housenumber" v="3518"/>
    <tag k="addr:street" v="Sheffield Square Road"/>
    <tag k="addr:state" v="VT"/>
    <tag k="ref:vcgi:esiteid" v="327607"/>
  </node>
  <node id="-516" visible="true" lat="44.61712277" lon="-72.16130084">
    <tag k="addr:city" v="Sheffield"/>
    <tag k="addr:housenumber" v="415"/>
    <tag k="addr:street" v="Dunn Mountain Road"/>
    <tag k="addr:state" v="VT"/>
    <tag k="ref:vcgi:esiteid" v="327608"/>
  </node>
  <node id="-527" visible="true" lat="44.61666412" lon="-72.16158673">
    <tag k="addr:city" v="Sheffield"/>
    <tag k="addr:housenumber" v="455"/>
    <tag k="addr:street" v="Dunn Mountain Road"/>
    <tag k="addr:state" v="VT"/>
    <tag k="ref:vcgi:esiteid" v="328245"/>
  </node>
  <node id="-528" visible="true" lat="44.61351307" lon="-72.13581289">
    <tag k="addr:city" v="Sheffield"/>
    <tag k="addr:housenumber" v="655"/>
    <tag k="addr:street" v="Sheffield Square Road"/>
    <tag k="addr:state" v="VT"/>
    <tag k="ref:vcgi:esiteid" v="328246"/>
  </node>
  <node id="-529" visible="true" lat="44.62127518" lon="-72.15525213">
    <tag k="addr:city" v="Sheffield"/>
    <tag k="addr:housenumber" v="1815"/>
    <tag k="addr:street" v="Sheffield Square Road"/>
    <tag k="addr:state" v="VT"/>
    <tag k="ref:vcgi:esiteid" v="328247"/>
  </node>
  <node id="-550" visible="true" lat="44.6179634" lon="-72.1603818">
    <tag k="addr:city" v="Sheffield"/>
    <tag k="addr:housenumber" v="355"/>
    <tag k="addr:street" v="Dunn Mountain Road"/>
    <tag k="addr:state" v="VT"/>
    <tag k="ref:vcgi:esiteid" v="449825"/>
  </node>
  <node id="-581" visible="true" lat="44.61176479" lon="-72.09936772">
    <tag k="addr:city" v="Sheffield"/>
    <tag k="addr:housenumber" v="181"/>
    <tag k="addr:street" v="Ott Drive"/>
    <tag k="addr:state" v="VT"/>
    <tag k="ref:vcgi:esiteid" v="611523"/>
  </node>
  <node id="-591" visible="true" lat="44.62111919" lon="-72.15817609">
    <tag k="addr:city" v="Sheffield"/>
    <tag k="addr:housenumber" v="101"/>
    <tag k="addr:street" v="Dunn Mountain Road"/>
    <tag k="addr:state" v="VT"/>
    <tag k="ref:vcgi:esiteid" v="612778"/>
  </node>
  <node id="-618" visible="true" lat="44.65023191" lon="-72.081909">
    <tag k="addr:city" v="Sheffield"/>
    <tag k="addr:housenumber" v="300"/>
    <tag k="addr:street" v="Kivimae Road"/>
    <tag k="addr:state" v="VT"/>
    <tag k="ref:vcgi:esiteid" v="758348"/>
  </node>
</osm>
