<?xml version="1.0" encoding="UTF-8"?>
<osm version="0.6" generator="JOSM" upload="false">
  <node id="-339" visible="true" lat="44.60394977" lon="-72.11872919">
    <!-- conflict: "3301 Vermont Route 122, Sheffield, VT" No match in OSM, but a different address exists <5m away: "3301 Vt Route 122, Sheffield, VT" -->
    <tag k="addr:city" v="Sheffield"/>
    <tag k="addr:housenumber" v="3301"/>
    <tag k="addr:street" v="Vermont Route 122"/>
    <tag k="addr:state" v="VT"/>
    <tag k="ref:vcgi:esiteid" v="220074"/>
  </node>
  <node id="-343" visible="true" lat="44.60363354" lon="-72.11680131">
    <!-- conflict: "3210 Vermont Route 122, Sheffield, VT" No match in OSM, but a different address exists <5m away: "3210 Vt Route 122, Sheffield, VT" -->
    <tag k="addr:city" v="Sheffield"/>
    <tag k="addr:housenumber" v="3210"/>
    <tag k="addr:street" v="Vermont Route 122"/>
    <tag k="addr:state" v="VT"/>
    <tag k="ref:vcgi:esiteid" v="220079"/>
  </node>
  <node id="-350" visible="true" lat="44.60322137" lon="-72.11614149">
    <!-- conflict: "3166 Vermont Route 122, Sheffield, VT" No match in OSM, but a different address exists <5m away: "3166 Vt Route 122, Sheffield, VT" -->
    <tag k="addr:city" v="Sheffield"/>
    <tag k="addr:housenumber" v="3166"/>
    <tag k="addr:street" v="Vermont Route 122"/>
    <tag k="addr:state" v="VT"/>
    <tag k="ref:vcgi:esiteid" v="220087"/>
  </node>
  <node id="-352" visible="true" lat="44.6030631" lon="-72.11580573">
    <!-- conflict: "3148 Vermont Route 122, Sheffield, VT" No match in OSM, but a different address exists <5m away: "3148 Vt Route 122, Sheffield, VT" -->
    <tag k="addr:city" v="Sheffield"/>
    <tag k="addr:housenumber" v="3148"/>
    <tag k="addr:street" v="Vermont Route 122"/>
    <tag k="addr:state" v="VT"/>
    <tag k="ref:vcgi:esiteid" v="220089"/>
  </node>
  <node id="-354" visible="true" lat="44.60289142" lon="-72.11557761">
    <!-- conflict: "3138 Vermont Route 122, Sheffield, VT" No match in OSM, but a different address exists <5m away: "3138 Vt Route 122, Sheffield, VT" -->
    <tag k="addr:city" v="Sheffield"/>
    <tag k="addr:housenumber" v="3138"/>
    <tag k="addr:street" v="Vermont Route 122"/>
    <tag k="addr:state" v="VT"/>
    <tag k="ref:vcgi:esiteid" v="220091"/>
  </node>
  <node id="-355" visible="true" lat="44.60282898" lon="-72.11540222">
    <!-- conflict: "3126 Vermont Route 122, Sheffield, VT" No match in OSM, but a different address exists <5m away: "3126 Vt Route 122, Sheffield, VT" -->
    <tag k="addr:city" v="Sheffield"/>
    <tag k="addr:housenumber" v="3126"/>
    <tag k="addr:street" v="Vermont Route 122"/>
    <tag k="addr:state" v="VT"/>
    <tag k="ref:vcgi:esiteid" v="220092"/>
  </node>
  <node id="-356" visible="true" lat="44.60277048" lon="-72.11606926">
    <!-- conflict: "3147 Vermont Route 122, Sheffield, VT" No match in OSM, but a different address exists <5m away: "3147 Vt Route 122, Sheffield, VT" -->
    <tag k="addr:city" v="Sheffield"/>
    <tag k="addr:housenumber" v="3147"/>
    <tag k="addr:street" v="Vermont Route 122"/>
    <tag k="addr:state" v="VT"/>
    <tag k="ref:vcgi:esiteid" v="220093"/>
  </node>
  <node id="-359" visible="true" lat="44.60261449" lon="-72.11574825">
    <!-- conflict: "3125 Vermont Route 122, Sheffield, VT" No match in OSM, but a different address exists <5m away: "3125 Vt Route 122, Sheffield, VT" -->
    <tag k="addr:city" v="Sheffield"/>
    <tag k="addr:housenumber" v="3125"/>
    <tag k="addr:street" v="Vermont Route 122"/>
    <tag k="addr:state" v="VT"/>
    <tag k="ref:vcgi:esiteid" v="220097"/>
  </node>
  <node id="-363" visible="true" lat="44.60229701" lon="-72.11513352">
    <!-- conflict: "3091 Vermont Route 122, Sheffield, VT" No match in OSM, but a different address exists <5m away: "3091 Vt Route 122, Sheffield, VT" -->
    <tag k="addr:city" v="Sheffield"/>
    <tag k="addr:housenumber" v="3091"/>
    <tag k="addr:street" v="Vermont Route 122"/>
    <tag k="addr:state" v="VT"/>
    <tag k="ref:vcgi:esiteid" v="220101"/>
  </node>
  <node id="-367" visible="true" lat="44.60204956" lon="-72.11304847">
    <!-- conflict: "2986 Vermont Route 122, Sheffield, VT" No match in OSM, but a different address exists <5m away: "2986 Vt Route 122, Sheffield, VT" -->
    <tag k="addr:city" v="Sheffield"/>
    <tag k="addr:housenumber" v="2986"/>
    <tag k="addr:street" v="Vermont Route 122"/>
    <tag k="addr:state" v="VT"/>
    <tag k="ref:vcgi:esiteid" v="220105"/>
  </node>
  <node id="-369" visible="true" lat="44.60201841" lon="-72.11389768">
    <!-- conflict: "3024 Vermont Route 122, Sheffield, VT" No match in OSM, but a different address exists <5m away: "3024 Vt Route 122, Sheffield, VT" -->
    <tag k="addr:city" v="Sheffield"/>
    <tag k="addr:housenumber" v="3024"/>
    <tag k="addr:street" v="Vermont Route 122"/>
    <tag k="addr:state" v="VT"/>
    <tag k="ref:vcgi:esiteid" v="220107"/>
  </node>
  <node id="-370" visible="true" lat="44.60171302" lon="-72.11422095">
    <!-- conflict: "3037 Vermont Route 122, Sheffield, VT" No match in OSM, but a different address exists <5m away: "3037 Vt Route 122, Sheffield, VT" -->
    <tag k="addr:city" v="Sheffield"/>
    <tag k="addr:housenumber" v="3037"/>
    <tag k="addr:street" v="Vermont Route 122"/>
    <tag k="addr:state" v="VT"/>
    <tag k="ref:vcgi:esiteid" v="220108"/>
  </node>
  <node id="-371" visible="true" lat="44.60152796" lon="-72.11381253">
    <!-- conflict: "3013 Vermont Route 122, Sheffield, VT" No match in OSM, but a different address exists <5m away: "3013 Vt Route 122, Sheffield, VT" -->
    <tag k="addr:city" v="Sheffield"/>
    <tag k="addr:housenumber" v="3013"/>
    <tag k="addr:street" v="Vermont Route 122"/>
    <tag k="addr:state" v="VT"/>
    <tag k="ref:vcgi:esiteid" v="220110"/>
  </node>
  <node id="-375" visible="true" lat="44.60122757" lon="-72.11344081">
    <!-- conflict: "2977 Vermont Route 122, Sheffield, VT" No match in OSM, but a different address exists <5m away: "2977 Vt Route 122, Sheffield, VT" -->
    <tag k="addr:city" v="Sheffield"/>
    <tag k="addr:housenumber" v="2977"/>
    <tag k="addr:street" v="Vermont Route 122"/>
    <tag k="addr:state" v="VT"/>
    <tag k="ref:vcgi:esiteid" v="220114"/>
  </node>
  <node id="-377" visible="true" lat="44.60114264" lon="-72.11306454">
    <!-- conflict: "2963 Vermont Route 122, Sheffield, VT" No match in OSM, but a different address exists <5m away: "2963 Vt Route 122, Sheffield, VT" -->
    <tag k="addr:city" v="Sheffield"/>
    <tag k="addr:housenumber" v="2963"/>
    <tag k="addr:street" v="Vermont Route 122"/>
    <tag k="addr:state" v="VT"/>
    <tag k="ref:vcgi:esiteid" v="220116"/>
  </node>
  <node id="-378" visible="true" lat="44.6009986" lon="-72.11274446">
    <!-- conflict: "2947 Vermont Route 122, Sheffield, VT" No match in OSM, but a different address exists <5m away: "2947 Vt Route 122, Sheffield, VT" -->
    <tag k="addr:city" v="Sheffield"/>
    <tag k="addr:housenumber" v="2947"/>
    <tag k="addr:street" v="Vermont Route 122"/>
    <tag k="addr:state" v="VT"/>
    <tag k="ref:vcgi:esiteid" v="220117"/>
  </node>
  <node id="-383" visible="true" lat="44.60068262" lon="-72.11225242">
    <!-- conflict: "2919 Vermont Route 122, Sheffield, VT" No match in OSM, but a different address exists <5m away: "2919 Vt Route 122, Sheffield, VT" -->
    <tag k="addr:city" v="Sheffield"/>
    <tag k="addr:housenumber" v="2919"/>
    <tag k="addr:street" v="Vermont Route 122"/>
    <tag k="addr:state" v="VT"/>
    <tag k="ref:vcgi:esiteid" v="220122"/>
  </node>
  <node id="-393" visible="true" lat="44.59992522" lon="-72.11141065">
    <!-- conflict: "2849 Vermont Route 122, Sheffield, VT" No match in OSM, but a different address exists <5m away: "2849 Vt Route 122, Sheffield, VT" -->
    <tag k="addr:city" v="Sheffield"/>
    <tag k="addr:housenumber" v="2849"/>
    <tag k="addr:street" v="Vermont Route 122"/>
    <tag k="addr:state" v="VT"/>
    <tag k="ref:vcgi:esiteid" v="220136"/>
  </node>
  <node id="-415" visible="true" lat="44.59781782" lon="-72.10759303">
    <!-- conflict: "2601 Vermont Route 122, Sheffield, VT" No match in OSM, but a different address exists <5m away: "2601 Vt Route 122, Sheffield, VT" -->
    <tag k="addr:city" v="Sheffield"/>
    <tag k="addr:housenumber" v="2601"/>
    <tag k="addr:street" v="Vermont Route 122"/>
    <tag k="addr:state" v="VT"/>
    <tag k="ref:vcgi:esiteid" v="220159"/>
  </node>
  <node id="-426" visible="true" lat="44.59577745" lon="-72.10078603">
    <!-- conflict: "2234 Vermont Route 122, Sheffield, VT" No match in OSM, but a different address exists <5m away: "2234 Vt Route 122, Sheffield, VT" -->
    <tag k="addr:city" v="Sheffield"/>
    <tag k="addr:housenumber" v="2234"/>
    <tag k="addr:street" v="Vermont Route 122"/>
    <tag k="addr:state" v="VT"/>
    <tag k="ref:vcgi:esiteid" v="220170"/>
  </node>
  <node id="-430" visible="true" lat="44.5955526" lon="-72.10006852">
    <!-- conflict: "2202 Vermont Route 122, Sheffield, VT" No match in OSM, but a different address exists <5m away: "2202 Vt Route 122, Sheffield, VT" -->
    <tag k="addr:city" v="Sheffield"/>
    <tag k="addr:housenumber" v="2202"/>
    <tag k="addr:street" v="Vermont Route 122"/>
    <tag k="addr:state" v="VT"/>
    <tag k="ref:vcgi:esiteid" v="220174"/>
  </node>
  <node id="-435" visible="true" lat="44.59490019" lon="-72.09836264">
    <!-- conflict: "2054 Vermont Route 122, Sheffield, VT" No match in OSM, but a different address exists <5m away: "2054 Vt Route 122, Sheffield, VT" -->
    <tag k="addr:city" v="Sheffield"/>
    <tag k="addr:housenumber" v="2054"/>
    <tag k="addr:street" v="Vermont Route 122"/>
    <tag k="addr:state" v="VT"/>
    <tag k="ref:vcgi:esiteid" v="220179"/>
  </node>
  <node id="-439" visible="true" lat="44.5938972" lon="-72.09778028">
    <!-- conflict: "2055 Vermont Route 122, Sheffield, VT" No match in OSM, but a different address exists <5m away: "2055 Vt Route 122, Sheffield, VT" -->
    <tag k="addr:city" v="Sheffield"/>
    <tag k="addr:housenumber" v="2055"/>
    <tag k="addr:street" v="Vermont Route 122"/>
    <tag k="addr:state" v="VT"/>
    <tag k="ref:vcgi:esiteid" v="220183"/>
  </node>
  <node id="-441" visible="true" lat="44.59117773" lon="-72.09253903">
    <!-- conflict: "1721 Vermont Route 122, Sheffield, VT" No match in OSM, but a different address exists <5m away: "1721 Vt Route 122, Sheffield, VT" -->
    <tag k="addr:city" v="Sheffield"/>
    <tag k="addr:housenumber" v="1721"/>
    <tag k="addr:street" v="Vermont Route 122"/>
    <tag k="addr:state" v="VT"/>
    <tag k="ref:vcgi:esiteid" v="220185"/>
  </node>
  <node id="-442" visible="true" lat="44.59110525" lon="-72.09235592">
    <!-- conflict: "1709 Vermont Route 122, Sheffield, VT" No match in OSM, but a different address exists <5m away: "1709 Vt Route 122, Sheffield, VT" -->
    <tag k="addr:city" v="Sheffield"/>
    <tag k="addr:housenumber" v="1709"/>
    <tag k="addr:street" v="Vermont Route 122"/>
    <tag k="addr:state" v="VT"/>
    <tag k="ref:vcgi:esiteid" v="220186"/>
  </node>
  <node id="-443" visible="true" lat="44.59121693" lon="-72.09147089">
    <!-- conflict: "1692 Vermont Route 122, Sheffield, VT" No match in OSM, but a different address exists <5m away: "1692 Vt Route 122, Sheffield, VT" -->
    <tag k="addr:city" v="Sheffield"/>
    <tag k="addr:housenumber" v="1692"/>
    <tag k="addr:street" v="Vermont Route 122"/>
    <tag k="addr:state" v="VT"/>
    <tag k="ref:vcgi:esiteid" v="220187"/>
  </node>
  <node id="-448" visible="true" lat="44.59099386" lon="-72.09210577">
    <!-- conflict: "1705 Vermont Route 122, Sheffield, VT" No match in OSM, but a different address exists <5m away: "1705 Vt Route 122, Sheffield, VT" -->
    <tag k="addr:city" v="Sheffield"/>
    <tag k="addr:housenumber" v="1705"/>
    <tag k="addr:street" v="Vermont Route 122"/>
    <tag k="addr:state" v="VT"/>
    <tag k="ref:vcgi:esiteid" v="220193"/>
  </node>
  <node id="-479" visible="true" lat="44.59501135" lon="-72.10002372">
    <!-- conflict: "2199 Vermont Route 122, Sheffield, VT" No match in OSM, but a different address exists <5m away: "2199 Vt Route 122, Sheffield, VT" -->
    <tag k="addr:city" v="Sheffield"/>
    <tag k="addr:housenumber" v="2199"/>
    <tag k="addr:street" v="Vermont Route 122"/>
    <tag k="addr:state" v="VT"/>
    <tag k="ref:vcgi:esiteid" v="220225"/>
  </node>
  <node id="-508" visible="true" lat="44.58600745" lon="-72.0961544">
    <!-- conflict: "378 Vertical Mile Road, Sheffield, VT" Fuzzy match to "378 Vertical Mile Road, Wheelock, VT" -->
    <tag k="addr:city" v="Sheffield"/>
    <tag k="addr:housenumber" v="378"/>
    <tag k="addr:street" v="Vertical Mile Road"/>
    <tag k="addr:state" v="VT"/>
    <tag k="ref:vcgi:esiteid" v="285618"/>
  </node>
  <node id="-510" visible="true" lat="44.59098087" lon="-72.08980744">
    <!-- conflict: "182 Sulfur Spring Road, Sheffield, VT" Fuzzy match to "182 Sulfur Spring Road, Wheelock, VT" -->
    <tag k="addr:city" v="Sheffield"/>
    <tag k="addr:housenumber" v="182"/>
    <tag k="addr:street" v="Sulfur Spring Road"/>
    <tag k="addr:state" v="VT"/>
    <tag k="ref:vcgi:esiteid" v="285643"/>
  </node>
  <node id="-511" visible="true" lat="44.58503568" lon="-72.09524751">
    <!-- conflict: "452 Vertical Mile Road, Sheffield, VT" Fuzzy match to "452 Vertical Mile Road, Wheelock, VT" -->
    <tag k="addr:city" v="Sheffield"/>
    <tag k="addr:housenumber" v="452"/>
    <tag k="addr:street" v="Vertical Mile Road"/>
    <tag k="addr:state" v="VT"/>
    <tag k="ref:vcgi:esiteid" v="285703"/>
  </node>
  <node id="-533" visible="true" lat="44.59663136" lon="-72.10234631">
    <!-- conflict: "2406 Vermont Route 122, Sheffield, VT" No match in OSM, but a different address exists <5m away: "2406 Vt Route 122, Sheffield, VT" -->
    <tag k="addr:city" v="Sheffield"/>
    <tag k="addr:housenumber" v="2406"/>
    <tag k="addr:street" v="Vermont Route 122"/>
    <tag k="addr:state" v="VT"/>
    <tag k="ref:vcgi:esiteid" v="328251"/>
  </node>
  <node id="-552" visible="true" lat="44.60061344" lon="-72.11196158">
    <!-- conflict: "2897 Vermont Route 122, Sheffield, VT" No match in OSM, but a different address exists <5m away: "2897 Vt Route 122, Sheffield, VT" -->
    <tag k="addr:city" v="Sheffield"/>
    <tag k="addr:housenumber" v="2897"/>
    <tag k="addr:street" v="Vermont Route 122"/>
    <tag k="addr:state" v="VT"/>
    <tag k="ref:vcgi:esiteid" v="449957"/>
  </node>
  <node id="-555" visible="true" lat="44.59417296" lon="-72.1156216">
    <!-- conflict: "552 Chesley Hill Road, Sheffield, VT" Fuzzy match to "552 Chesley Hill Road, Wheelock, VT" -->
    <tag k="addr:city" v="Sheffield"/>
    <tag k="addr:housenumber" v="552"/>
    <tag k="addr:street" v="Chesley Hill Road"/>
    <tag k="addr:state" v="VT"/>
    <tag k="ref:vcgi:esiteid" v="450796"/>
  </node>
</osm>
