<?xml version="1.0" encoding="UTF-8"?>
<osm version="0.6" generator="JOSM">
  <node id="-181" visible="true" lat="44.41941883" lon="-73.21143576">
    <tag k="addr:city" v="Shelburne"/>
    <tag k="addr:housenumber" v="2455"/>
    <tag k="addr:street" v="Shelburne Road"/>
    <tag k="addr:state" v="VT"/>
    <tag k="ref:vcgi:esiteid" v="220352"/>
  </node>
  <node id="-205" visible="true" lat="44.41811926" lon="-73.213321">
    <tag k="addr:city" v="Shelburne"/>
    <tag k="addr:housenumber" v="2572"/>
    <tag k="addr:street" v="Shelburne Road"/>
    <tag k="addr:state" v="VT"/>
    <tag k="ref:vcgi:esiteid" v="220379"/>
  </node>
  <node id="-213" visible="true" lat="44.41786022" lon="-73.20792474">
    <tag k="addr:city" v="Shelburne"/>
    <tag k="addr:housenumber" v="291"/>
    <tag k="addr:street" v="Martindale Road"/>
    <tag k="addr:state" v="VT"/>
    <tag k="ref:vcgi:esiteid" v="220388"/>
  </node>
  <node id="-216" visible="true" lat="44.41780797" lon="-73.2083877">
    <tag k="addr:city" v="Shelburne"/>
    <tag k="addr:housenumber" v="267"/>
    <tag k="addr:street" v="Martindale Road"/>
    <tag k="addr:state" v="VT"/>
    <tag k="ref:vcgi:esiteid" v="220392"/>
  </node>
  <node id="-260" visible="true" lat="44.41665383" lon="-73.21258186">
    <tag k="addr:city" v="Shelburne"/>
    <tag k="addr:housenumber" v="2659"/>
    <tag k="addr:street" v="Shelburne Road"/>
    <tag k="addr:state" v="VT"/>
    <tag k="ref:vcgi:esiteid" v="220440"/>
  </node>
  <node id="-625" visible="true" lat="44.41102218" lon="-73.21452331">
    <tag k="addr:city" v="Shelburne"/>
    <tag k="addr:housenumber" v="3053"/>
    <tag k="addr:street" v="Shelburne Road"/>
    <tag k="addr:state" v="VT"/>
    <tag k="ref:vcgi:esiteid" v="220842"/>
  </node>
  <node id="-642" visible="true" lat="44.41065978" lon="-73.21468353">
    <tag k="addr:city" v="Shelburne"/>
    <tag k="addr:housenumber" v="3093"/>
    <tag k="addr:street" v="Shelburne Road"/>
    <tag k="addr:state" v="VT"/>
    <tag k="ref:vcgi:esiteid" v="220863"/>
  </node>
  <node id="-739" visible="true" lat="44.4087677" lon="-73.21468353">
    <tag k="addr:city" v="Shelburne"/>
    <tag k="addr:housenumber" v="3229"/>
    <tag k="addr:street" v="Shelburne Road"/>
    <tag k="addr:state" v="VT"/>
    <tag k="ref:vcgi:esiteid" v="220969"/>
  </node>
  <node id="-838" visible="true" lat="44.40344619" lon="-73.2178421">
    <tag k="addr:city" v="Shelburne"/>
    <tag k="addr:housenumber" v="3614"/>
    <tag k="addr:street" v="Shelburne Road"/>
    <tag k="addr:state" v="VT"/>
    <tag k="ref:vcgi:esiteid" v="221090"/>
  </node>
  <node id="-841" visible="true" lat="44.40337313" lon="-73.22158534">
    <tag k="addr:city" v="Shelburne"/>
    <tag k="addr:housenumber" v="322"/>
    <tag k="addr:street" v="Bay Road"/>
    <tag k="addr:state" v="VT"/>
    <tag k="ref:vcgi:esiteid" v="221093"/>
  </node>
  <node id="-846" visible="true" lat="44.40309524" lon="-73.22177887">
    <tag k="addr:city" v="Shelburne"/>
    <tag k="addr:housenumber" v="346"/>
    <tag k="addr:street" v="Bay Road"/>
    <tag k="addr:state" v="VT"/>
    <tag k="ref:vcgi:esiteid" v="221099"/>
  </node>
  <node id="-851" visible="true" lat="44.40290069" lon="-73.22132873">
    <tag k="addr:city" v="Shelburne"/>
    <tag k="addr:housenumber" v="341"/>
    <tag k="addr:street" v="Bay Road"/>
    <tag k="addr:state" v="VT"/>
    <tag k="ref:vcgi:esiteid" v="221104"/>
  </node>
  <node id="-854" visible="true" lat="44.40281295" lon="-73.22219085">
    <tag k="addr:city" v="Shelburne"/>
    <tag k="addr:housenumber" v="376"/>
    <tag k="addr:street" v="Bay Road"/>
    <tag k="addr:state" v="VT"/>
    <tag k="ref:vcgi:esiteid" v="221107"/>
  </node>
  <node id="-855" visible="true" lat="44.40283584" lon="-73.19934844">
    <tag k="addr:city" v="Shelburne"/>
    <tag k="addr:housenumber" v="4946"/>
    <tag k="addr:street" v="Spear Street"/>
    <tag k="addr:state" v="VT"/>
    <tag k="ref:vcgi:esiteid" v="221108"/>
  </node>
  <node id="-856" visible="true" lat="44.40261077" lon="-73.22151184">
    <tag k="addr:city" v="Shelburne"/>
    <tag k="addr:housenumber" v="11"/>
    <tag k="addr:street" v="Bayfield Drive"/>
    <tag k="addr:state" v="VT"/>
    <tag k="ref:vcgi:esiteid" v="221109"/>
  </node>
  <node id="-858" visible="true" lat="44.40254592" lon="-73.22087097">
    <tag k="addr:city" v="Shelburne"/>
    <tag k="addr:housenumber" v="57"/>
    <tag k="addr:street" v="Bayfield Drive"/>
    <tag k="addr:state" v="VT"/>
    <tag k="ref:vcgi:esiteid" v="221111"/>
  </node>
  <node id="-860" visible="true" lat="44.40246963" lon="-73.22063446">
    <tag k="addr:city" v="Shelburne"/>
    <tag k="addr:housenumber" v="63"/>
    <tag k="addr:street" v="Bayfield Drive"/>
    <tag k="addr:state" v="VT"/>
    <tag k="ref:vcgi:esiteid" v="221113"/>
  </node>
  <node id="-861" visible="true" lat="44.40258789" lon="-73.19986724">
    <tag k="addr:city" v="Shelburne"/>
    <tag k="addr:housenumber" v="32"/>
    <tag k="addr:street" v="Morse Drive"/>
    <tag k="addr:state" v="VT"/>
    <tag k="ref:vcgi:esiteid" v="221114"/>
  </node>
  <node id="-862" visible="true" lat="44.40245437" lon="-73.20056915">
    <tag k="addr:city" v="Shelburne"/>
    <tag k="addr:housenumber" v="66"/>
    <tag k="addr:street" v="Morse Drive"/>
    <tag k="addr:state" v="VT"/>
    <tag k="ref:vcgi:esiteid" v="221116"/>
  </node>
  <node id="-863" visible="true" lat="44.40241622" lon="-73.20100402">
    <tag k="addr:city" v="Shelburne"/>
    <tag k="addr:housenumber" v="88"/>
    <tag k="addr:street" v="Morse Drive"/>
    <tag k="addr:state" v="VT"/>
    <tag k="ref:vcgi:esiteid" v="221117"/>
  </node>
  <node id="-864" visible="true" lat="44.4022115" lon="-73.21724173">
    <tag k="addr:city" v="Shelburne"/>
    <tag k="addr:housenumber" v="3689"/>
    <tag k="addr:street" v="Shelburne Road"/>
    <tag k="addr:state" v="VT"/>
    <tag k="ref:vcgi:esiteid" v="221118"/>
  </node>
  <node id="-865" visible="true" lat="44.40225219" lon="-73.2219696">
    <tag k="addr:city" v="Shelburne"/>
    <tag k="addr:housenumber" v="18"/>
    <tag k="addr:street" v="Bayfield Drive"/>
    <tag k="addr:state" v="VT"/>
    <tag k="ref:vcgi:esiteid" v="221119"/>
  </node>
  <node id="-866" visible="true" lat="44.40223214" lon="-73.22225398">
    <tag k="addr:city" v="Shelburne"/>
    <tag k="addr:housenumber" v="399"/>
    <tag k="addr:street" v="Bay Road"/>
    <tag k="addr:state" v="VT"/>
    <tag k="ref:vcgi:esiteid" v="221120"/>
  </node>
  <node id="-867" visible="true" lat="44.40237808" lon="-73.20137023">
    <tag k="addr:city" v="Shelburne"/>
    <tag k="addr:housenumber" v="106"/>
    <tag k="addr:street" v="Morse Drive"/>
    <tag k="addr:state" v="VT"/>
    <tag k="ref:vcgi:esiteid" v="221121"/>
  </node>
  <node id="-871" visible="true" lat="44.40214132" lon="-73.22031869">
    <tag k="addr:city" v="Shelburne"/>
    <tag k="addr:housenumber" v="79"/>
    <tag k="addr:street" v="Bayfield Drive"/>
    <tag k="addr:state" v="VT"/>
    <tag k="ref:vcgi:esiteid" v="221125"/>
  </node>
  <node id="-872" visible="true" lat="44.40212631" lon="-73.22148895">
    <tag k="addr:city" v="Shelburne"/>
    <tag k="addr:housenumber" v="32"/>
    <tag k="addr:street" v="Bayfield Drive"/>
    <tag k="addr:state" v="VT"/>
    <tag k="ref:vcgi:esiteid" v="221126"/>
  </node>
  <node id="-875" visible="true" lat="44.40209579" lon="-73.22105407">
    <tag k="addr:city" v="Shelburne"/>
    <tag k="addr:housenumber" v="66"/>
    <tag k="addr:street" v="Bayfield Drive"/>
    <tag k="addr:state" v="VT"/>
    <tag k="ref:vcgi:esiteid" v="221129"/>
  </node>
  <node id="-876" visible="true" lat="44.4020195" lon="-73.22254943">
    <tag k="addr:city" v="Shelburne"/>
    <tag k="addr:housenumber" v="425"/>
    <tag k="addr:street" v="Bay Road"/>
    <tag k="addr:state" v="VT"/>
    <tag k="ref:vcgi:esiteid" v="221131"/>
  </node>
  <node id="-877" visible="true" lat="44.40214538" lon="-73.19977569">
    <tag k="addr:city" v="Shelburne"/>
    <tag k="addr:housenumber" v="29"/>
    <tag k="addr:street" v="Morse Drive"/>
    <tag k="addr:state" v="VT"/>
    <tag k="ref:vcgi:esiteid" v="221132"/>
  </node>
  <node id="-878" visible="true" lat="44.40199661" lon="-73.22226715">
    <tag k="addr:city" v="Shelburne"/>
    <tag k="addr:housenumber" v="413"/>
    <tag k="addr:street" v="Bay Road"/>
    <tag k="addr:state" v="VT"/>
    <tag k="ref:vcgi:esiteid" v="221133"/>
  </node>
  <node id="-879" visible="true" lat="44.40210723" lon="-73.20049285">
    <tag k="addr:city" v="Shelburne"/>
    <tag k="addr:housenumber" v="65"/>
    <tag k="addr:street" v="Morse Drive"/>
    <tag k="addr:state" v="VT"/>
    <tag k="ref:vcgi:esiteid" v="221134"/>
  </node>
  <node id="-881" visible="true" lat="44.4018898" lon="-73.22267913">
    <tag k="addr:city" v="Shelburne"/>
    <tag k="addr:housenumber" v="441"/>
    <tag k="addr:street" v="Bay Road"/>
    <tag k="addr:state" v="VT"/>
    <tag k="ref:vcgi:esiteid" v="221137"/>
  </node>
  <node id="-882" visible="true" lat="44.4019165" lon="-73.21726226">
    <tag k="addr:city" v="Shelburne"/>
    <tag k="addr:housenumber" v="3723"/>
    <tag k="addr:street" v="Shelburne Road"/>
    <tag k="addr:state" v="VT"/>
    <tag k="ref:vcgi:esiteid" v="221138"/>
  </node>
  <node id="-883" visible="true" lat="44.40185835" lon="-73.22025591">
    <tag k="addr:city" v="Shelburne"/>
    <tag k="addr:housenumber" v="97"/>
    <tag k="addr:street" v="Bayfield Drive"/>
    <tag k="addr:state" v="VT"/>
    <tag k="ref:vcgi:esiteid" v="221139"/>
  </node>
  <node id="-884" visible="true" lat="44.40198516" lon="-73.20164489">
    <tag k="addr:city" v="Shelburne"/>
    <tag k="addr:housenumber" v="123"/>
    <tag k="addr:street" v="Morse Drive"/>
    <tag k="addr:state" v="VT"/>
    <tag k="ref:vcgi:esiteid" v="221140"/>
  </node>
  <node id="-885" visible="true" lat="44.40191268" lon="-73.20104217">
    <tag k="addr:city" v="Shelburne"/>
    <tag k="addr:housenumber" v="93"/>
    <tag k="addr:street" v="Morse Drive"/>
    <tag k="addr:state" v="VT"/>
    <tag k="ref:vcgi:esiteid" v="221141"/>
  </node>
  <node id="-886" visible="true" lat="44.40177535" lon="-73.22280883">
    <tag k="addr:city" v="Shelburne"/>
    <tag k="addr:housenumber" v="451"/>
    <tag k="addr:street" v="Bay Road"/>
    <tag k="addr:state" v="VT"/>
    <tag k="ref:vcgi:esiteid" v="221142"/>
  </node>
  <node id="-890" visible="true" lat="44.40169525" lon="-73.217453">
    <tag k="addr:city" v="Shelburne"/>
    <tag k="addr:housenumber" v="3725"/>
    <tag k="addr:street" v="Shelburne Road"/>
    <tag k="addr:state" v="VT"/>
    <tag k="ref:vcgi:esiteid" v="221146"/>
  </node>
  <node id="-891" visible="true" lat="44.40180206" lon="-73.19992065">
    <tag k="addr:city" v="Shelburne"/>
    <tag k="addr:housenumber" v="5018"/>
    <tag k="addr:street" v="Spear Street"/>
    <tag k="addr:state" v="VT"/>
    <tag k="ref:vcgi:esiteid" v="221147"/>
  </node>
  <node id="-892" visible="true" lat="44.40163803" lon="-73.22095489">
    <tag k="addr:city" v="Shelburne"/>
    <tag k="addr:housenumber" v="110"/>
    <tag k="addr:street" v="Bayfield Drive"/>
    <tag k="addr:state" v="VT"/>
    <tag k="ref:vcgi:esiteid" v="221148"/>
  </node>
  <node id="-893" visible="true" lat="44.40164947" lon="-73.21775817">
    <tag k="addr:city" v="Shelburne"/>
    <tag k="addr:housenumber" v="3733"/>
    <tag k="addr:street" v="Shelburne Road"/>
    <tag k="addr:state" v="VT"/>
    <tag k="ref:vcgi:esiteid" v="221149"/>
  </node>
  <node id="-894" visible="true" lat="44.40160751" lon="-73.22293853">
    <tag k="addr:city" v="Shelburne"/>
    <tag k="addr:housenumber" v="465"/>
    <tag k="addr:street" v="Bay Road"/>
    <tag k="addr:state" v="VT"/>
    <tag k="ref:vcgi:esiteid" v="221150"/>
  </node>
  <node id="-895" visible="true" lat="44.40171432" lon="-73.20453643">
    <tag k="addr:city" v="Shelburne"/>
    <tag k="addr:housenumber" v="20"/>
    <tag k="addr:street" v="Pierson Drive"/>
    <tag k="addr:state" v="VT"/>
    <tag k="ref:vcgi:esiteid" v="221151"/>
  </node>
  <node id="-897" visible="true" lat="44.40154813" lon="-73.22013277">
    <tag k="addr:city" v="Shelburne"/>
    <tag k="addr:housenumber" v="115"/>
    <tag k="addr:street" v="Bayfield Drive"/>
    <tag k="addr:state" v="VT"/>
    <tag k="ref:vcgi:esiteid" v="221153"/>
  </node>
  <node id="-900" visible="true" lat="44.40140857" lon="-73.22281943">
    <tag k="addr:city" v="Shelburne"/>
    <tag k="addr:housenumber" v="485"/>
    <tag k="addr:street" v="Bay Road"/>
    <tag k="addr:state" v="VT"/>
    <tag k="ref:vcgi:esiteid" v="221158"/>
  </node>
  <node id="-901" visible="true" lat="44.40135192" lon="-73.22096252">
    <tag k="addr:city" v="Shelburne"/>
    <tag k="addr:housenumber" v="130"/>
    <tag k="addr:street" v="Bayfield Drive"/>
    <tag k="addr:state" v="VT"/>
    <tag k="ref:vcgi:esiteid" v="221159"/>
  </node>
  <node id="-902" visible="true" lat="44.40145874" lon="-73.20244598">
    <tag k="addr:city" v="Shelburne"/>
    <tag k="addr:housenumber" v="143"/>
    <tag k="addr:street" v="Morse Drive"/>
    <tag k="addr:state" v="VT"/>
    <tag k="ref:vcgi:esiteid" v="221160"/>
  </node>
  <node id="-903" visible="true" lat="44.40122686" lon="-73.22027993">
    <tag k="addr:city" v="Shelburne"/>
    <tag k="addr:housenumber" v="131"/>
    <tag k="addr:street" v="Bayfield Drive"/>
    <tag k="addr:state" v="VT"/>
    <tag k="ref:vcgi:esiteid" v="221161"/>
  </node>
  <node id="-904" visible="true" lat="44.4012947" lon="-73.21942901">
    <tag k="addr:city" v="Shelburne"/>
    <tag k="addr:housenumber" v="3762"/>
    <tag k="addr:street" v="Shelburne Road"/>
    <tag k="addr:state" v="VT"/>
    <tag k="ref:vcgi:esiteid" v="221162"/>
  </node>
  <node id="-906" visible="true" lat="44.40137481" lon="-73.19999694">
    <tag k="addr:city" v="Shelburne"/>
    <tag k="addr:housenumber" v="5044"/>
    <tag k="addr:street" v="Spear Street"/>
    <tag k="addr:state" v="VT"/>
    <tag k="ref:vcgi:esiteid" v="221164"/>
  </node>
  <node id="-907" visible="true" lat="44.40131783" lon="-73.20480079">
    <tag k="addr:city" v="Shelburne"/>
    <tag k="addr:housenumber" v="48"/>
    <tag k="addr:street" v="Pierson Drive"/>
    <tag k="addr:state" v="VT"/>
    <tag k="ref:vcgi:esiteid" v="221165"/>
  </node>
  <node id="-908" visible="true" lat="44.40122985" lon="-73.21772003">
    <tag k="addr:city" v="Shelburne"/>
    <tag k="addr:housenumber" v="3761"/>
    <tag k="addr:street" v="Shelburne Road"/>
    <tag k="addr:state" v="VT"/>
    <tag k="ref:vcgi:esiteid" v="221166"/>
  </node>
  <node id="-911" visible="true" lat="44.40114473" lon="-73.22144576">
    <tag k="addr:city" v="Shelburne"/>
    <tag k="addr:housenumber" v="34"/>
    <tag k="addr:street" v="Bayview Lane"/>
    <tag k="addr:state" v="VT"/>
    <tag k="ref:vcgi:esiteid" v="221169"/>
  </node>
  <node id="-913" visible="true" lat="44.40114641" lon="-73.22317531">
    <tag k="addr:city" v="Shelburne"/>
    <tag k="addr:housenumber" v="499"/>
    <tag k="addr:street" v="Bay Road"/>
    <tag k="addr:state" v="VT"/>
    <tag k="ref:vcgi:esiteid" v="221171"/>
  </node>
  <node id="-914" visible="true" lat="44.40109132" lon="-73.2218196">
    <tag k="addr:city" v="Shelburne"/>
    <tag k="addr:housenumber" v="52"/>
    <tag k="addr:street" v="Bayview Lane"/>
    <tag k="addr:state" v="VT"/>
    <tag k="ref:vcgi:esiteid" v="221172"/>
  </node>
  <node id="-916" visible="true" lat="44.40100167" lon="-73.22029009">
    <tag k="addr:city" v="Shelburne"/>
    <tag k="addr:housenumber" v="149"/>
    <tag k="addr:street" v="Bayfield Drive"/>
    <tag k="addr:state" v="VT"/>
    <tag k="ref:vcgi:esiteid" v="221174"/>
  </node>
  <node id="-917" visible="true" lat="44.40101241" lon="-73.22337341">
    <tag k="addr:city" v="Shelburne"/>
    <tag k="addr:housenumber" v="509"/>
    <tag k="addr:street" v="Bay Road"/>
    <tag k="addr:state" v="VT"/>
    <tag k="ref:vcgi:esiteid" v="221175"/>
  </node>
  <node id="-918" visible="true" lat="44.40105799" lon="-73.20377117">
    <tag k="addr:city" v="Shelburne"/>
    <tag k="addr:housenumber" v="45"/>
    <tag k="addr:street" v="Pierson Drive"/>
    <tag k="addr:state" v="VT"/>
    <tag k="ref:vcgi:esiteid" v="221176"/>
  </node>
  <node id="-919" visible="true" lat="44.40107726" lon="-73.20064544">
    <tag k="addr:city" v="Shelburne"/>
    <tag k="addr:housenumber" v="341"/>
    <tag k="addr:street" v="Collamer Circle"/>
    <tag k="addr:state" v="VT"/>
    <tag k="ref:vcgi:esiteid" v="221177"/>
  </node>
  <node id="-920" visible="true" lat="44.4008773" lon="-73.20490414">
    <tag k="addr:city" v="Shelburne"/>
    <tag k="addr:housenumber" v="70"/>
    <tag k="addr:street" v="Pierson Drive"/>
    <tag k="addr:state" v="VT"/>
    <tag k="ref:vcgi:esiteid" v="221178"/>
  </node>
  <node id="-921" visible="true" lat="44.40100479" lon="-73.20115661">
    <tag k="addr:city" v="Shelburne"/>
    <tag k="addr:housenumber" v="317"/>
    <tag k="addr:street" v="Collamer Circle"/>
    <tag k="addr:state" v="VT"/>
    <tag k="ref:vcgi:esiteid" v="221179"/>
  </node>
  <node id="-922" visible="true" lat="44.40098571" lon="-73.201622">
    <tag k="addr:city" v="Shelburne"/>
    <tag k="addr:housenumber" v="293"/>
    <tag k="addr:street" v="Collamer Circle"/>
    <tag k="addr:state" v="VT"/>
    <tag k="ref:vcgi:esiteid" v="221181"/>
  </node>
  <node id="-923" visible="true" lat="44.40099716" lon="-73.19997406">
    <tag k="addr:city" v="Shelburne"/>
    <tag k="addr:housenumber" v="5076"/>
    <tag k="addr:street" v="Spear Street"/>
    <tag k="addr:state" v="VT"/>
    <tag k="ref:vcgi:esiteid" v="221182"/>
  </node>
  <node id="-924" visible="true" lat="44.40070657" lon="-73.22031164">
    <tag k="addr:city" v="Shelburne"/>
    <tag k="addr:housenumber" v="165"/>
    <tag k="addr:street" v="Bayfield Drive"/>
    <tag k="addr:state" v="VT"/>
    <tag k="ref:vcgi:esiteid" v="221183"/>
  </node>
  <node id="-925" visible="true" lat="44.40092468" lon="-73.2020874">
    <tag k="addr:city" v="Shelburne"/>
    <tag k="addr:housenumber" v="271"/>
    <tag k="addr:street" v="Collamer Circle"/>
    <tag k="addr:state" v="VT"/>
    <tag k="ref:vcgi:esiteid" v="221184"/>
  </node>
  <node id="-926" visible="true" lat="44.40079498" lon="-73.22259521">
    <tag k="addr:city" v="Shelburne"/>
    <tag k="addr:housenumber" v="78"/>
    <tag k="addr:street" v="Bayview Lane"/>
    <tag k="addr:state" v="VT"/>
    <tag k="ref:vcgi:esiteid" v="221185"/>
  </node>
  <node id="-927" visible="true" lat="44.40076065" lon="-73.21871948">
    <tag k="addr:city" v="Shelburne"/>
    <tag k="addr:housenumber" v="3804"/>
    <tag k="addr:street" v="Shelburne Road"/>
    <tag k="addr:state" v="VT"/>
    <tag k="ref:vcgi:esiteid" v="221186"/>
  </node>
  <node id="-928" visible="true" lat="44.40084838" lon="-73.20256042">
    <tag k="addr:city" v="Shelburne"/>
    <tag k="addr:housenumber" v="249"/>
    <tag k="addr:street" v="Collamer Circle"/>
    <tag k="addr:state" v="VT"/>
    <tag k="ref:vcgi:esiteid" v="221187"/>
  </node>
  <node id="-929" visible="true" lat="44.40072417" lon="-73.2211409">
    <tag k="addr:city" v="Shelburne"/>
    <tag k="addr:housenumber" v="23"/>
    <tag k="addr:street" v="Bayview Lane"/>
    <tag k="addr:state" v="VT"/>
    <tag k="ref:vcgi:esiteid" v="221190"/>
  </node>
  <node id="-930" visible="true" lat="44.40061659" lon="-73.22312832">
    <tag k="addr:city" v="Shelburne"/>
    <tag k="addr:housenumber" v="215"/>
    <tag k="addr:street" v="Maple Leaf Lane"/>
    <tag k="addr:state" v="VT"/>
    <tag k="ref:vcgi:esiteid" v="221191"/>
  </node>
  <node id="-931" visible="true" lat="44.40073776" lon="-73.20399475">
    <tag k="addr:city" v="Shelburne"/>
    <tag k="addr:housenumber" v="58"/>
    <tag k="addr:street" v="Potter Place"/>
    <tag k="addr:state" v="VT"/>
    <tag k="ref:vcgi:esiteid" v="221192"/>
  </node>
  <node id="-932" visible="true" lat="44.40065144" lon="-73.22176136">
    <tag k="addr:city" v="Shelburne"/>
    <tag k="addr:housenumber" v="49"/>
    <tag k="addr:street" v="Bayview Lane"/>
    <tag k="addr:state" v="VT"/>
    <tag k="ref:vcgi:esiteid" v="221193"/>
  </node>
  <node id="-933" visible="true" lat="44.40062372" lon="-73.21763665">
    <tag k="addr:city" v="Shelburne"/>
    <tag k="addr:housenumber" v="3805"/>
    <tag k="addr:street" v="Shelburne Road"/>
    <tag k="addr:state" v="VT"/>
    <tag k="ref:vcgi:esiteid" v="221194"/>
  </node>
  <node id="-934" visible="true" lat="44.40054321" lon="-73.22518157">
    <tag k="addr:city" v="Shelburne"/>
    <tag k="addr:housenumber" v="602"/>
    <tag k="addr:street" v="Bay Road"/>
    <tag k="addr:state" v="VT"/>
    <tag k="ref:vcgi:esiteid" v="221195"/>
  </node>
  <node id="-936" visible="true" lat="44.40075432" lon="-73.2031066">
    <tag k="addr:city" v="Shelburne"/>
    <tag k="addr:housenumber" v="233"/>
    <tag k="addr:street" v="Collamer Circle"/>
    <tag k="addr:state" v="VT"/>
    <tag k="ref:vcgi:esiteid" v="221197"/>
  </node>
  <node id="-939" visible="true" lat="44.40044134" lon="-73.22588223">
    <tag k="addr:city" v="Shelburne"/>
    <tag k="addr:housenumber" v="638"/>
    <tag k="addr:street" v="Bay Road"/>
    <tag k="addr:state" v="VT"/>
    <tag k="ref:vcgi:esiteid" v="221200"/>
  </node>
  <node id="-941" visible="true" lat="44.40054082" lon="-73.22218098">
    <tag k="addr:city" v="Shelburne"/>
    <tag k="addr:housenumber" v="71"/>
    <tag k="addr:street" v="Bayview Lane"/>
    <tag k="addr:state" v="VT"/>
    <tag k="ref:vcgi:esiteid" v="221202"/>
  </node>
  <node id="-942" visible="true" lat="44.40048217" lon="-73.22559356">
    <tag k="addr:city" v="Shelburne"/>
    <tag k="addr:housenumber" v="624"/>
    <tag k="addr:street" v="Bay Road"/>
    <tag k="addr:state" v="VT"/>
    <tag k="ref:vcgi:esiteid" v="221203"/>
  </node>
  <node id="-946" visible="true" lat="44.40056228" lon="-73.20498657">
    <tag k="addr:city" v="Shelburne"/>
    <tag k="addr:housenumber" v="98"/>
    <tag k="addr:street" v="Pierson Drive"/>
    <tag k="addr:state" v="VT"/>
    <tag k="ref:vcgi:esiteid" v="221207"/>
  </node>
  <node id="-947" visible="true" lat="44.4005661" lon="-73.20069122">
    <tag k="addr:city" v="Shelburne"/>
    <tag k="addr:housenumber" v="338"/>
    <tag k="addr:street" v="Collamer Circle"/>
    <tag k="addr:state" v="VT"/>
    <tag k="ref:vcgi:esiteid" v="221208"/>
  </node>
  <node id="-948" visible="true" lat="44.40053176" lon="-73.20442199">
    <tag k="addr:city" v="Shelburne"/>
    <tag k="addr:housenumber" v="105"/>
    <tag k="addr:street" v="Pierson Drive"/>
    <tag k="addr:state" v="VT"/>
    <tag k="ref:vcgi:esiteid" v="221209"/>
  </node>
  <node id="-949" visible="true" lat="44.40055084" lon="-73.20109558">
    <tag k="addr:city" v="Shelburne"/>
    <tag k="addr:housenumber" v="316"/>
    <tag k="addr:street" v="Collamer Circle"/>
    <tag k="addr:state" v="VT"/>
    <tag k="ref:vcgi:esiteid" v="221210"/>
  </node>
  <node id="-950" visible="true" lat="44.40045065" lon="-73.21940779">
    <tag k="addr:city" v="Shelburne"/>
    <tag k="addr:housenumber" v="40"/>
    <tag k="addr:street" v="Maple Leaf Lane"/>
    <tag k="addr:state" v="VT"/>
    <tag k="ref:vcgi:esiteid" v="221211"/>
  </node>
  <node id="-951" visible="true" lat="44.40044832" lon="-73.21972954">
    <tag k="addr:city" v="Shelburne"/>
    <tag k="addr:housenumber" v="56"/>
    <tag k="addr:street" v="Maple Leaf Lane"/>
    <tag k="addr:state" v="VT"/>
    <tag k="ref:vcgi:esiteid" v="221212"/>
  </node>
  <node id="-952" visible="true" lat="44.40032958" lon="-73.22647094">
    <tag k="addr:city" v="Shelburne"/>
    <tag k="addr:housenumber" v="670"/>
    <tag k="addr:street" v="Bay Road"/>
    <tag k="addr:state" v="VT"/>
    <tag k="ref:vcgi:esiteid" v="221213"/>
  </node>
  <node id="-953" visible="true" lat="44.40047073" lon="-73.20159912">
    <tag k="addr:city" v="Shelburne"/>
    <tag k="addr:housenumber" v="290"/>
    <tag k="addr:street" v="Collamer Circle"/>
    <tag k="addr:state" v="VT"/>
    <tag k="ref:vcgi:esiteid" v="221214"/>
  </node>
  <node id="-954" visible="true" lat="44.40034484" lon="-73.21998596">
    <tag k="addr:city" v="Shelburne"/>
    <tag k="addr:housenumber" v="70"/>
    <tag k="addr:street" v="Maple Leaf Lane"/>
    <tag k="addr:state" v="VT"/>
    <tag k="ref:vcgi:esiteid" v="221215"/>
  </node>
  <node id="-955" visible="true" lat="44.4004631" lon="-73.19937133">
    <tag k="addr:city" v="Shelburne"/>
    <tag k="addr:housenumber" v="5095"/>
    <tag k="addr:street" v="Spear Street"/>
    <tag k="addr:state" v="VT"/>
    <tag k="ref:vcgi:esiteid" v="221216"/>
  </node>
  <node id="-956" visible="true" lat="44.40029144" lon="-73.22679901">
    <tag k="addr:city" v="Shelburne"/>
    <tag k="addr:housenumber" v="686"/>
    <tag k="addr:street" v="Bay Road"/>
    <tag k="addr:state" v="VT"/>
    <tag k="ref:vcgi:esiteid" v="221217"/>
  </node>
  <node id="-957" visible="true" lat="44.40037788" lon="-73.22034022">
    <tag k="addr:city" v="Shelburne"/>
    <tag k="addr:housenumber" v="189"/>
    <tag k="addr:street" v="Bayfield Drive"/>
    <tag k="addr:state" v="VT"/>
    <tag k="ref:vcgi:esiteid" v="221218"/>
  </node>
  <node id="-958" visible="true" lat="44.40042877" lon="-73.20216369">
    <tag k="addr:city" v="Shelburne"/>
    <tag k="addr:housenumber" v="262"/>
    <tag k="addr:street" v="Collamer Circle"/>
    <tag k="addr:state" v="VT"/>
    <tag k="ref:vcgi:esiteid" v="221219"/>
  </node>
  <node id="-960" visible="true" lat="44.4002571" lon="-73.22082519">
    <tag k="addr:city" v="Shelburne"/>
    <tag k="addr:housenumber" v="112"/>
    <tag k="addr:street" v="Maple Leaf Lane"/>
    <tag k="addr:state" v="VT"/>
    <tag k="ref:vcgi:esiteid" v="221223"/>
  </node>
  <node id="-961" visible="true" lat="44.40020752" lon="-73.22707367">
    <tag k="addr:city" v="Shelburne"/>
    <tag k="addr:housenumber" v="700"/>
    <tag k="addr:street" v="Bay Road"/>
    <tag k="addr:state" v="VT"/>
    <tag k="ref:vcgi:esiteid" v="221224"/>
  </node>
  <node id="-962" visible="true" lat="44.40024185" lon="-73.22112274">
    <tag k="addr:city" v="Shelburne"/>
    <tag k="addr:housenumber" v="128"/>
    <tag k="addr:street" v="Maple Leaf Lane"/>
    <tag k="addr:state" v="VT"/>
    <tag k="ref:vcgi:esiteid" v="221225"/>
  </node>
  <node id="-963" visible="true" lat="44.40023132" lon="-73.22144766">
    <tag k="addr:city" v="Shelburne"/>
    <tag k="addr:housenumber" v="146"/>
    <tag k="addr:street" v="Maple Leaf Lane"/>
    <tag k="addr:state" v="VT"/>
    <tag k="ref:vcgi:esiteid" v="221227"/>
  </node>
  <node id="-964" visible="true" lat="44.40015411" lon="-73.22428894">
    <tag k="addr:city" v="Shelburne"/>
    <tag k="addr:housenumber" v="567"/>
    <tag k="addr:street" v="Bay Road"/>
    <tag k="addr:state" v="VT"/>
    <tag k="ref:vcgi:esiteid" v="221228"/>
  </node>
  <node id="-965" visible="true" lat="44.40019317" lon="-73.22176047">
    <tag k="addr:city" v="Shelburne"/>
    <tag k="addr:housenumber" v="160"/>
    <tag k="addr:street" v="Maple Leaf Lane"/>
    <tag k="addr:state" v="VT"/>
    <tag k="ref:vcgi:esiteid" v="221229"/>
  </node>
  <node id="-966" visible="true" lat="44.40027361" lon="-73.20526587">
    <tag k="addr:city" v="Shelburne"/>
    <tag k="addr:housenumber" v="134"/>
    <tag k="addr:street" v="Pierson Drive"/>
    <tag k="addr:state" v="VT"/>
    <tag k="ref:vcgi:esiteid" v="221230"/>
  </node>
  <node id="-967" visible="true" lat="44.40026855" lon="-73.20252227">
    <tag k="addr:city" v="Shelburne"/>
    <tag k="addr:housenumber" v="220"/>
    <tag k="addr:street" v="Collamer Circle"/>
    <tag k="addr:state" v="VT"/>
    <tag k="ref:vcgi:esiteid" v="221231"/>
  </node>
  <node id="-968" visible="true" lat="44.40021267" lon="-73.22260644">
    <tag k="addr:city" v="Shelburne"/>
    <tag k="addr:housenumber" v="192"/>
    <tag k="addr:street" v="Maple Leaf Lane"/>
    <tag k="addr:state" v="VT"/>
    <tag k="ref:vcgi:esiteid" v="221232"/>
  </node>
  <node id="-969" visible="true" lat="44.40027237" lon="-73.20032501">
    <tag k="addr:city" v="Shelburne"/>
    <tag k="addr:housenumber" v="354"/>
    <tag k="addr:street" v="Collamer Circle"/>
    <tag k="addr:state" v="VT"/>
    <tag k="ref:vcgi:esiteid" v="221233"/>
  </node>
  <node id="-970" visible="true" lat="44.40015884" lon="-73.22208853">
    <tag k="addr:city" v="Shelburne"/>
    <tag k="addr:housenumber" v="176"/>
    <tag k="addr:street" v="Maple Leaf Lane"/>
    <tag k="addr:state" v="VT"/>
    <tag k="ref:vcgi:esiteid" v="221234"/>
  </node>
  <node id="-971" visible="true" lat="44.40031409" lon="-73.20320062">
    <tag k="addr:city" v="Shelburne"/>
    <tag k="addr:housenumber" v="205"/>
    <tag k="addr:street" v="Collamer Circle"/>
    <tag k="addr:state" v="VT"/>
    <tag k="ref:vcgi:esiteid" v="221235"/>
  </node>
  <node id="-972" visible="true" lat="44.40010452" lon="-73.21903228">
    <tag k="addr:city" v="Shelburne"/>
    <tag k="addr:housenumber" v="27"/>
    <tag k="addr:street" v="Maple Leaf Lane"/>
    <tag k="addr:state" v="VT"/>
    <tag k="ref:vcgi:esiteid" v="221236"/>
  </node>
  <node id="-973" visible="true" lat="44.40005111" lon="-73.22608184">
    <tag k="addr:city" v="Shelburne"/>
    <tag k="addr:housenumber" v="653"/>
    <tag k="addr:street" v="Bay Road"/>
    <tag k="addr:state" v="VT"/>
    <tag k="ref:vcgi:esiteid" v="221237"/>
  </node>
  <node id="-975" visible="true" lat="44.40008163" lon="-73.21791839">
    <tag k="addr:city" v="Shelburne"/>
    <tag k="addr:housenumber" v="3849"/>
    <tag k="addr:street" v="Shelburne Road"/>
    <tag k="addr:state" v="VT"/>
    <tag k="ref:vcgi:esiteid" v="221239"/>
  </node>
  <node id="-976" visible="true" lat="44.40004002" lon="-73.21943145">
    <tag k="addr:city" v="Shelburne"/>
    <tag k="addr:housenumber" v="41"/>
    <tag k="addr:street" v="Maple Leaf Lane"/>
    <tag k="addr:state" v="VT"/>
    <tag k="ref:vcgi:esiteid" v="221240"/>
  </node>
  <node id="-977" visible="true" lat="44.40002441" lon="-73.22332">
    <tag k="addr:city" v="Shelburne"/>
    <tag k="addr:housenumber" v="211"/>
    <tag k="addr:street" v="Maple Leaf Lane"/>
    <tag k="addr:state" v="VT"/>
    <tag k="ref:vcgi:esiteid" v="221241"/>
  </node>
  <node id="-978" visible="true" lat="44.40000142" lon="-73.21982102">
    <tag k="addr:city" v="Shelburne"/>
    <tag k="addr:housenumber" v="63"/>
    <tag k="addr:street" v="Maple Leaf Lane"/>
    <tag k="addr:state" v="VT"/>
    <tag k="ref:vcgi:esiteid" v="221242"/>
  </node>
  <node id="-979" visible="true" lat="44.39996719" lon="-73.21817016">
    <tag k="addr:city" v="Shelburne"/>
    <tag k="addr:housenumber" v="3851"/>
    <tag k="addr:street" v="Shelburne Road"/>
    <tag k="addr:state" v="VT"/>
    <tag k="ref:vcgi:esiteid" v="221244"/>
  </node>
  <node id="-980" visible="true" lat="44.39999234" lon="-73.22026348">
    <tag k="addr:city" v="Shelburne"/>
    <tag k="addr:housenumber" v="87"/>
    <tag k="addr:street" v="Maple Leaf Lane"/>
    <tag k="addr:state" v="VT"/>
    <tag k="ref:vcgi:esiteid" v="221245"/>
  </node>
  <node id="-981" visible="true" lat="44.40001678" lon="-73.20443725">
    <tag k="addr:city" v="Shelburne"/>
    <tag k="addr:housenumber" v="65"/>
    <tag k="addr:street" v="Potter Place"/>
    <tag k="addr:state" v="VT"/>
    <tag k="ref:vcgi:esiteid" v="221246"/>
  </node>
  <node id="-982" visible="true" lat="44.39993708" lon="-73.22061789">
    <tag k="addr:city" v="Shelburne"/>
    <tag k="addr:housenumber" v="107"/>
    <tag k="addr:street" v="Maple Leaf Lane"/>
    <tag k="addr:state" v="VT"/>
    <tag k="ref:vcgi:esiteid" v="221247"/>
  </node>
  <node id="-983" visible="true" lat="44.399743" lon="-73.2271921">
    <tag k="addr:city" v="Shelburne"/>
    <tag k="addr:housenumber" v="715"/>
    <tag k="addr:street" v="Bay Road"/>
    <tag k="addr:state" v="VT"/>
    <tag k="ref:vcgi:esiteid" v="221248"/>
  </node>
  <node id="-984" visible="true" lat="44.39989015" lon="-73.22105932">
    <tag k="addr:city" v="Shelburne"/>
    <tag k="addr:housenumber" v="125"/>
    <tag k="addr:street" v="Maple Leaf Lane"/>
    <tag k="addr:state" v="VT"/>
    <tag k="ref:vcgi:esiteid" v="221249"/>
  </node>
  <node id="-985" visible="true" lat="44.39995956" lon="-73.20037078">
    <tag k="addr:city" v="Shelburne"/>
    <tag k="addr:housenumber" v="5150"/>
    <tag k="addr:street" v="Spear Street"/>
    <tag k="addr:state" v="VT"/>
    <tag k="ref:vcgi:esiteid" v="221250"/>
  </node>
  <node id="-986" visible="true" lat="44.39971957" lon="-73.22775356">
    <tag k="addr:city" v="Shelburne"/>
    <tag k="addr:housenumber" v="743"/>
    <tag k="addr:street" v="Bay Road"/>
    <tag k="addr:state" v="VT"/>
    <tag k="ref:vcgi:esiteid" v="221251"/>
  </node>
  <node id="-987" visible="true" lat="44.3999176" lon="-73.20600891">
    <tag k="addr:city" v="Shelburne"/>
    <tag k="addr:housenumber" v="164"/>
    <tag k="addr:street" v="Pierson Drive"/>
    <tag k="addr:state" v="VT"/>
    <tag k="ref:vcgi:esiteid" v="221252"/>
  </node>
  <node id="-988" visible="true" lat="44.39982713" lon="-73.22172098">
    <tag k="addr:city" v="Shelburne"/>
    <tag k="addr:housenumber" v="157"/>
    <tag k="addr:street" v="Maple Leaf Lane"/>
    <tag k="addr:state" v="VT"/>
    <tag k="ref:vcgi:esiteid" v="221253"/>
  </node>
  <node id="-990" visible="true" lat="44.39976015" lon="-73.22225902">
    <tag k="addr:city" v="Shelburne"/>
    <tag k="addr:housenumber" v="179"/>
    <tag k="addr:street" v="Maple Leaf Lane"/>
    <tag k="addr:state" v="VT"/>
    <tag k="ref:vcgi:esiteid" v="221255"/>
  </node>
  <node id="-991" visible="true" lat="44.39972305" lon="-73.22839355">
    <tag k="addr:city" v="Shelburne"/>
    <tag k="addr:housenumber" v="771"/>
    <tag k="addr:street" v="Bay Road"/>
    <tag k="addr:state" v="VT"/>
    <tag k="ref:vcgi:esiteid" v="221256"/>
  </node>
  <node id="-993" visible="true" lat="44.39973068" lon="-73.21839141">
    <tag k="addr:city" v="Shelburne"/>
    <tag k="addr:housenumber" v="3871"/>
    <tag k="addr:street" v="Shelburne Road"/>
    <tag k="addr:state" v="VT"/>
    <tag k="ref:vcgi:esiteid" v="221259"/>
  </node>
  <node id="-994" visible="true" lat="44.39968872" lon="-73.22265625">
    <tag k="addr:city" v="Shelburne"/>
    <tag k="addr:housenumber" v="205"/>
    <tag k="addr:street" v="Maple Leaf Lane"/>
    <tag k="addr:state" v="VT"/>
    <tag k="ref:vcgi:esiteid" v="221260"/>
  </node>
  <node id="-995" visible="true" lat="44.39962387" lon="-73.22902679">
    <tag k="addr:city" v="Shelburne"/>
    <tag k="addr:housenumber" v="805"/>
    <tag k="addr:street" v="Bay Road"/>
    <tag k="addr:state" v="VT"/>
    <tag k="ref:vcgi:esiteid" v="221261"/>
  </node>
  <node id="-996" visible="true" lat="44.39962648" lon="-73.22331955">
    <tag k="addr:city" v="Shelburne"/>
    <tag k="addr:housenumber" v="209"/>
    <tag k="addr:street" v="Maple Leaf Lane"/>
    <tag k="addr:state" v="VT"/>
    <tag k="ref:vcgi:esiteid" v="221262"/>
  </node>
  <node id="-997" visible="true" lat="44.39983252" lon="-73.20098536">
    <tag k="addr:city" v="Shelburne"/>
    <tag k="addr:housenumber" v="30"/>
    <tag k="addr:street" v="Collamer Circle"/>
    <tag k="addr:state" v="VT"/>
    <tag k="ref:vcgi:esiteid" v="221263"/>
  </node>
  <node id="-998" visible="true" lat="44.39973449" lon="-73.20145416">
    <tag k="addr:city" v="Shelburne"/>
    <tag k="addr:housenumber" v="60"/>
    <tag k="addr:street" v="Collamer Circle"/>
    <tag k="addr:state" v="VT"/>
    <tag k="ref:vcgi:esiteid" v="221264"/>
  </node>
  <node id="-999" visible="true" lat="44.39962249" lon="-73.20594821">
    <tag k="addr:city" v="Shelburne"/>
    <tag k="addr:housenumber" v="180"/>
    <tag k="addr:street" v="Pierson Drive"/>
    <tag k="addr:state" v="VT"/>
    <tag k="ref:vcgi:esiteid" v="221265"/>
  </node>
  <node id="-1000" visible="true" lat="44.39961945" lon="-73.20243879">
    <tag k="addr:city" v="Shelburne"/>
    <tag k="addr:housenumber" v="106"/>
    <tag k="addr:street" v="Collamer Circle"/>
    <tag k="addr:state" v="VT"/>
    <tag k="ref:vcgi:esiteid" v="221266"/>
  </node>
  <node id="-1001" visible="true" lat="44.39966583" lon="-73.20194244">
    <tag k="addr:city" v="Shelburne"/>
    <tag k="addr:housenumber" v="86"/>
    <tag k="addr:street" v="Collamer Circle"/>
    <tag k="addr:state" v="VT"/>
    <tag k="ref:vcgi:esiteid" v="221267"/>
  </node>
  <node id="-1002" visible="true" lat="44.3994522" lon="-73.23103332">
    <tag k="addr:city" v="Shelburne"/>
    <tag k="addr:housenumber" v="886"/>
    <tag k="addr:street" v="Bay Road"/>
    <tag k="addr:state" v="VT"/>
    <tag k="ref:vcgi:esiteid" v="221269"/>
  </node>
  <node id="-1003" visible="true" lat="44.3995552" lon="-73.20287323">
    <tag k="addr:city" v="Shelburne"/>
    <tag k="addr:housenumber" v="130"/>
    <tag k="addr:street" v="Collamer Circle"/>
    <tag k="addr:state" v="VT"/>
    <tag k="ref:vcgi:esiteid" v="221270"/>
  </node>
  <node id="-1004" visible="true" lat="44.3994504" lon="-73.20502163">
    <tag k="addr:city" v="Shelburne"/>
    <tag k="addr:housenumber" v="175"/>
    <tag k="addr:street" v="Pierson Drive"/>
    <tag k="addr:state" v="VT"/>
    <tag k="ref:vcgi:esiteid" v="221272"/>
  </node>
  <node id="-1005" visible="true" lat="44.39947726" lon="-73.20358405">
    <tag k="addr:city" v="Shelburne"/>
    <tag k="addr:housenumber" v="157"/>
    <tag k="addr:street" v="Collamer Circle"/>
    <tag k="addr:state" v="VT"/>
    <tag k="ref:vcgi:esiteid" v="221274"/>
  </node>
  <node id="-1006" visible="true" lat="44.39931488" lon="-73.22209167">
    <tag k="addr:city" v="Shelburne"/>
    <tag k="addr:housenumber" v="34"/>
    <tag k="addr:street" v="Red Cedar Lane"/>
    <tag k="addr:state" v="VT"/>
    <tag k="ref:vcgi:esiteid" v="221275"/>
  </node>
  <node id="-1007" visible="true" lat="44.3994255" lon="-73.20416259">
    <tag k="addr:city" v="Shelburne"/>
    <tag k="addr:housenumber" v="52"/>
    <tag k="addr:street" v="Collamer Court"/>
    <tag k="addr:state" v="VT"/>
    <tag k="ref:vcgi:esiteid" v="221276"/>
  </node>
  <node id="-1008" visible="true" lat="44.39931488" lon="-73.22180175">
    <tag k="addr:city" v="Shelburne"/>
    <tag k="addr:housenumber" v="28"/>
    <tag k="addr:street" v="Red Cedar Lane"/>
    <tag k="addr:state" v="VT"/>
    <tag k="ref:vcgi:esiteid" v="221277"/>
  </node>
  <node id="-1009" visible="true" lat="44.39942932" lon="-73.20053863">
    <tag k="addr:city" v="Shelburne"/>
    <tag k="addr:housenumber" v="17"/>
    <tag k="addr:street" v="Collamer Circle"/>
    <tag k="addr:state" v="VT"/>
    <tag k="ref:vcgi:esiteid" v="221278"/>
  </node>
  <node id="-1010" visible="true" lat="44.3992948" lon="-73.20609378">
    <tag k="addr:city" v="Shelburne"/>
    <tag k="addr:housenumber" v="196"/>
    <tag k="addr:street" v="Pierson Drive"/>
    <tag k="addr:state" v="VT"/>
    <tag k="ref:vcgi:esiteid" v="221279"/>
  </node>
  <node id="-1012" visible="true" lat="44.39923858" lon="-73.22149658">
    <tag k="addr:city" v="Shelburne"/>
    <tag k="addr:housenumber" v="14"/>
    <tag k="addr:street" v="Red Cedar Lane"/>
    <tag k="addr:state" v="VT"/>
    <tag k="ref:vcgi:esiteid" v="221282"/>
  </node>
  <node id="-1013" visible="true" lat="44.39928641" lon="-73.201177">
    <tag k="addr:city" v="Shelburne"/>
    <tag k="addr:housenumber" v="55"/>
    <tag k="addr:street" v="Collamer Circle"/>
    <tag k="addr:state" v="VT"/>
    <tag k="ref:vcgi:esiteid" v="221283"/>
  </node>
  <node id="-1014" visible="true" lat="44.39918518" lon="-73.22219848">
    <tag k="addr:city" v="Shelburne"/>
    <tag k="addr:housenumber" v="40"/>
    <tag k="addr:street" v="Red Cedar Lane"/>
    <tag k="addr:state" v="VT"/>
    <tag k="ref:vcgi:esiteid" v="221284"/>
  </node>
  <node id="-1015" visible="true" lat="44.39920948" lon="-73.20160466">
    <tag k="addr:city" v="Shelburne"/>
    <tag k="addr:housenumber" v="81"/>
    <tag k="addr:street" v="Collamer Circle"/>
    <tag k="addr:state" v="VT"/>
    <tag k="ref:vcgi:esiteid" v="221286"/>
  </node>
  <node id="-1016" visible="true" lat="44.39916594" lon="-73.20210979">
    <tag k="addr:city" v="Shelburne"/>
    <tag k="addr:housenumber" v="101"/>
    <tag k="addr:street" v="Collamer Circle"/>
    <tag k="addr:state" v="VT"/>
    <tag k="ref:vcgi:esiteid" v="221287"/>
  </node>
  <node id="-1017" visible="true" lat="44.39896392" lon="-73.22178649">
    <tag k="addr:city" v="Shelburne"/>
    <tag k="addr:housenumber" v="60"/>
    <tag k="addr:street" v="Red Cedar Lane"/>
    <tag k="addr:state" v="VT"/>
    <tag k="ref:vcgi:esiteid" v="221288"/>
  </node>
  <node id="-1018" visible="true" lat="44.39903605" lon="-73.20614923">
    <tag k="addr:city" v="Shelburne"/>
    <tag k="addr:housenumber" v="226"/>
    <tag k="addr:street" v="Pierson Drive"/>
    <tag k="addr:state" v="VT"/>
    <tag k="ref:vcgi:esiteid" v="221289"/>
  </node>
  <node id="-1020" visible="true" lat="44.3990261" lon="-73.20299375">
    <tag k="addr:city" v="Shelburne"/>
    <tag k="addr:housenumber" v="9"/>
    <tag k="addr:street" v="Collamer Court"/>
    <tag k="addr:state" v="VT"/>
    <tag k="ref:vcgi:esiteid" v="221291"/>
  </node>
  <node id="-1021" visible="true" lat="44.39891433" lon="-73.22214508">
    <tag k="addr:city" v="Shelburne"/>
    <tag k="addr:housenumber" v="48"/>
    <tag k="addr:street" v="Red Cedar Lane"/>
    <tag k="addr:state" v="VT"/>
    <tag k="ref:vcgi:esiteid" v="221292"/>
  </node>
  <node id="-1022" visible="true" lat="44.39875773" lon="-73.23071617">
    <tag k="addr:city" v="Shelburne"/>
    <tag k="addr:housenumber" v="20"/>
    <tag k="addr:street" v="Yacht Haven Drive"/>
    <tag k="addr:state" v="VT"/>
    <tag k="ref:vcgi:esiteid" v="221293"/>
  </node>
  <node id="-1023" visible="true" lat="44.39899444" lon="-73.20528411">
    <tag k="addr:city" v="Shelburne"/>
    <tag k="addr:housenumber" v="225"/>
    <tag k="addr:street" v="Pierson Drive"/>
    <tag k="addr:state" v="VT"/>
    <tag k="ref:vcgi:esiteid" v="221294"/>
  </node>
  <node id="-1024" visible="true" lat="44.39897367" lon="-73.20347099">
    <tag k="addr:city" v="Shelburne"/>
    <tag k="addr:housenumber" v="31"/>
    <tag k="addr:street" v="Collamer Court"/>
    <tag k="addr:state" v="VT"/>
    <tag k="ref:vcgi:esiteid" v="221295"/>
  </node>
  <node id="-1025" visible="true" lat="44.39875793" lon="-73.22813415">
    <tag k="addr:city" v="Shelburne"/>
    <tag k="addr:housenumber" v="274"/>
    <tag k="addr:street" v="Spinnaker Lane"/>
    <tag k="addr:state" v="VT"/>
    <tag k="ref:vcgi:esiteid" v="221296"/>
  </node>
  <node id="-1026" visible="true" lat="44.39888204" lon="-73.20393388">
    <tag k="addr:city" v="Shelburne"/>
    <tag k="addr:housenumber" v="53"/>
    <tag k="addr:street" v="Collamer Court"/>
    <tag k="addr:state" v="VT"/>
    <tag k="ref:vcgi:esiteid" v="221297"/>
  </node>
  <node id="-1027" visible="true" lat="44.3987946" lon="-73.22985778">
    <tag k="addr:city" v="Shelburne"/>
    <tag k="addr:housenumber" v="41"/>
    <tag k="addr:street" v="Yacht Haven Drive"/>
    <tag k="addr:state" v="VT"/>
    <tag k="ref:vcgi:esiteid" v="221299"/>
  </node>
  <node id="-1028" visible="true" lat="44.39875245" lon="-73.20462396">
    <tag k="addr:city" v="Shelburne"/>
    <tag k="addr:housenumber" v="65"/>
    <tag k="addr:street" v="Collamer Court"/>
    <tag k="addr:state" v="VT"/>
    <tag k="ref:vcgi:esiteid" v="221301"/>
  </node>
  <node id="-1029" visible="true" lat="44.39853085" lon="-73.23121735">
    <tag k="addr:city" v="Shelburne"/>
    <tag k="addr:housenumber" v="13"/>
    <tag k="addr:street" v="Spinnaker Lane"/>
    <tag k="addr:state" v="VT"/>
    <tag k="ref:vcgi:esiteid" v="221303"/>
  </node>
  <node id="-1030" visible="true" lat="44.39845688" lon="-73.22394055">
    <tag k="addr:city" v="Shelburne"/>
    <tag k="addr:housenumber" v="136"/>
    <tag k="addr:street" v="Point View Drive"/>
    <tag k="addr:state" v="VT"/>
    <tag k="ref:vcgi:esiteid" v="221305"/>
  </node>
  <node id="-1031" visible="true" lat="44.39862974" lon="-73.20630002">
    <tag k="addr:city" v="Shelburne"/>
    <tag k="addr:housenumber" v="262"/>
    <tag k="addr:street" v="Pierson Drive"/>
    <tag k="addr:state" v="VT"/>
    <tag k="ref:vcgi:esiteid" v="221306"/>
  </node>
  <node id="-1032" visible="true" lat="44.39862823" lon="-73.22124481">
    <tag k="addr:city" v="Shelburne"/>
    <tag k="addr:housenumber" v="56"/>
    <tag k="addr:street" v="White Cedar Lane"/>
    <tag k="addr:state" v="VT"/>
    <tag k="ref:vcgi:esiteid" v="221307"/>
  </node>
  <node id="-1033" visible="true" lat="44.39861679" lon="-73.22096252">
    <tag k="addr:city" v="Shelburne"/>
    <tag k="addr:housenumber" v="50"/>
    <tag k="addr:street" v="White Cedar Lane"/>
    <tag k="addr:state" v="VT"/>
    <tag k="ref:vcgi:esiteid" v="221308"/>
  </node>
  <node id="-1034" visible="true" lat="44.3987236" lon="-73.20069122">
    <tag k="addr:city" v="Shelburne"/>
    <tag k="addr:housenumber" v="5234"/>
    <tag k="addr:street" v="Spear Street"/>
    <tag k="addr:state" v="VT"/>
    <tag k="ref:vcgi:esiteid" v="221309"/>
  </node>
  <node id="-1035" visible="true" lat="44.39868545" lon="-73.20540619">
    <tag k="addr:city" v="Shelburne"/>
    <tag k="addr:housenumber" v="239"/>
    <tag k="addr:street" v="Pierson Drive"/>
    <tag k="addr:state" v="VT"/>
    <tag k="ref:vcgi:esiteid" v="221310"/>
  </node>
  <node id="-1036" visible="true" lat="44.39857617" lon="-73.22903422">
    <tag k="addr:city" v="Shelburne"/>
    <tag k="addr:housenumber" v="241"/>
    <tag k="addr:street" v="Spinnaker Lane"/>
    <tag k="addr:state" v="VT"/>
    <tag k="ref:vcgi:esiteid" v="221311"/>
  </node>
  <node id="-1037" visible="true" lat="44.39871597" lon="-73.19953918">
    <tag k="addr:city" v="Shelburne"/>
    <tag k="addr:housenumber" v="5225"/>
    <tag k="addr:street" v="Spear Street"/>
    <tag k="addr:state" v="VT"/>
    <tag k="ref:vcgi:esiteid" v="221312"/>
  </node>
  <node id="-1038" visible="true" lat="44.39843368" lon="-73.23192596">
    <tag k="addr:city" v="Shelburne"/>
    <tag k="addr:housenumber" v="16"/>
    <tag k="addr:street" v="Spinnaker Lane"/>
    <tag k="addr:state" v="VT"/>
    <tag k="ref:vcgi:esiteid" v="221313"/>
  </node>
  <node id="-1039" visible="true" lat="44.39846801" lon="-73.22082519">
    <tag k="addr:city" v="Shelburne"/>
    <tag k="addr:housenumber" v="44"/>
    <tag k="addr:street" v="White Cedar Lane"/>
    <tag k="addr:state" v="VT"/>
    <tag k="ref:vcgi:esiteid" v="221314"/>
  </node>
  <node id="-1040" visible="true" lat="44.39840316" lon="-73.23049163">
    <tag k="addr:city" v="Shelburne"/>
    <tag k="addr:housenumber" v="52"/>
    <tag k="addr:street" v="Yacht Haven Drive"/>
    <tag k="addr:state" v="VT"/>
    <tag k="ref:vcgi:esiteid" v="221315"/>
  </node>
  <node id="-1041" visible="true" lat="44.39834594" lon="-73.22966766">
    <tag k="addr:city" v="Shelburne"/>
    <tag k="addr:housenumber" v="73"/>
    <tag k="addr:street" v="Yacht Haven Drive"/>
    <tag k="addr:state" v="VT"/>
    <tag k="ref:vcgi:esiteid" v="221316"/>
  </node>
  <node id="-1043" visible="true" lat="44.39815644" lon="-73.2281094">
    <tag k="addr:city" v="Shelburne"/>
    <tag k="addr:housenumber" v="260"/>
    <tag k="addr:street" v="Spinnaker Lane"/>
    <tag k="addr:state" v="VT"/>
    <tag k="ref:vcgi:esiteid" v="221318"/>
  </node>
  <node id="-1044" visible="true" lat="44.39828491" lon="-73.22154235">
    <tag k="addr:city" v="Shelburne"/>
    <tag k="addr:housenumber" v="20"/>
    <tag k="addr:street" v="White Cedar Lane"/>
    <tag k="addr:state" v="VT"/>
    <tag k="ref:vcgi:esiteid" v="221319"/>
  </node>
  <node id="-1045" visible="true" lat="44.39827346" lon="-73.22090911">
    <tag k="addr:city" v="Shelburne"/>
    <tag k="addr:housenumber" v="38"/>
    <tag k="addr:street" v="White Cedar Lane"/>
    <tag k="addr:state" v="VT"/>
    <tag k="ref:vcgi:esiteid" v="221320"/>
  </node>
  <node id="-1046" visible="true" lat="44.39820098" lon="-73.22126007">
    <tag k="addr:city" v="Shelburne"/>
    <tag k="addr:housenumber" v="30"/>
    <tag k="addr:street" v="White Cedar Lane"/>
    <tag k="addr:state" v="VT"/>
    <tag k="ref:vcgi:esiteid" v="221321"/>
  </node>
  <node id="-1048" visible="true" lat="44.39811325" lon="-73.23034668">
    <tag k="addr:city" v="Shelburne"/>
    <tag k="addr:housenumber" v="70"/>
    <tag k="addr:street" v="Yacht Haven Drive"/>
    <tag k="addr:state" v="VT"/>
    <tag k="ref:vcgi:esiteid" v="221323"/>
  </node>
  <node id="-1049" visible="true" lat="44.39823532" lon="-73.20626831">
    <tag k="addr:city" v="Shelburne"/>
    <tag k="addr:housenumber" v="272"/>
    <tag k="addr:street" v="Pierson Drive"/>
    <tag k="addr:state" v="VT"/>
    <tag k="ref:vcgi:esiteid" v="221324"/>
  </node>
  <node id="-1050" visible="true" lat="44.39818954" lon="-73.20072937">
    <tag k="addr:city" v="Shelburne"/>
    <tag k="addr:housenumber" v="5272"/>
    <tag k="addr:street" v="Spear Street"/>
    <tag k="addr:state" v="VT"/>
    <tag k="ref:vcgi:esiteid" v="221326"/>
  </node>
  <node id="-1051" visible="true" lat="44.39800643" lon="-73.22932434">
    <tag k="addr:city" v="Shelburne"/>
    <tag k="addr:housenumber" v="207"/>
    <tag k="addr:street" v="Spinnaker Lane"/>
    <tag k="addr:state" v="VT"/>
    <tag k="ref:vcgi:esiteid" v="221327"/>
  </node>
  <node id="-1052" visible="true" lat="44.39822143" lon="-73.19997102">
    <tag k="addr:city" v="Shelburne"/>
    <tag k="addr:housenumber" v="5271"/>
    <tag k="addr:street" v="Spear Street"/>
    <tag k="addr:state" v="VT"/>
    <tag k="ref:vcgi:esiteid" v="221328"/>
  </node>
  <node id="-1054" visible="true" lat="44.39779323" lon="-73.22846318">
    <tag k="addr:city" v="Shelburne"/>
    <tag k="addr:housenumber" v="232"/>
    <tag k="addr:street" v="Spinnaker Lane"/>
    <tag k="addr:state" v="VT"/>
    <tag k="ref:vcgi:esiteid" v="221330"/>
  </node>
  <node id="-1055" visible="true" lat="44.39800268" lon="-73.20625857">
    <tag k="addr:city" v="Shelburne"/>
    <tag k="addr:housenumber" v="292"/>
    <tag k="addr:street" v="Pierson Drive"/>
    <tag k="addr:state" v="VT"/>
    <tag k="ref:vcgi:esiteid" v="221331"/>
  </node>
  <node id="-1057" visible="true" lat="44.39783096" lon="-73.23091888">
    <tag k="addr:city" v="Shelburne"/>
    <tag k="addr:housenumber" v="71"/>
    <tag k="addr:street" v="Spinnaker Lane"/>
    <tag k="addr:state" v="VT"/>
    <tag k="ref:vcgi:esiteid" v="221333"/>
  </node>
  <node id="-1059" visible="true" lat="44.39772796" lon="-73.23165893">
    <tag k="addr:city" v="Shelburne"/>
    <tag k="addr:housenumber" v="68"/>
    <tag k="addr:street" v="Spinnaker Lane"/>
    <tag k="addr:state" v="VT"/>
    <tag k="ref:vcgi:esiteid" v="221336"/>
  </node>
  <node id="-1060" visible="true" lat="44.39773559" lon="-73.2299652">
    <tag k="addr:city" v="Shelburne"/>
    <tag k="addr:housenumber" v="169"/>
    <tag k="addr:street" v="Spinnaker Lane"/>
    <tag k="addr:state" v="VT"/>
    <tag k="ref:vcgi:esiteid" v="221337"/>
  </node>
  <node id="-1061" visible="true" lat="44.39782609" lon="-73.2000239">
    <tag k="addr:city" v="Shelburne"/>
    <tag k="addr:housenumber" v="5291"/>
    <tag k="addr:street" v="Spear Street"/>
    <tag k="addr:state" v="VT"/>
    <tag k="ref:vcgi:esiteid" v="221338"/>
  </node>
  <node id="-1062" visible="true" lat="44.39780807" lon="-73.21007537">
    <tag k="addr:city" v="Shelburne"/>
    <tag k="addr:housenumber" v="501"/>
    <tag k="addr:street" v="Longmeadow Drive"/>
    <tag k="addr:state" v="VT"/>
    <tag k="ref:vcgi:esiteid" v="221339"/>
  </node>
  <node id="-1063" visible="true" lat="44.39761776" lon="-73.22080802">
    <tag k="addr:city" v="Shelburne"/>
    <tag k="addr:housenumber" v="4066"/>
    <tag k="addr:street" v="Shelburne Road"/>
    <tag k="addr:state" v="VT"/>
    <tag k="ref:vcgi:esiteid" v="221340"/>
  </node>
  <node id="-1064" visible="true" lat="44.39755559" lon="-73.22895493">
    <tag k="addr:city" v="Shelburne"/>
    <tag k="addr:housenumber" v="212"/>
    <tag k="addr:street" v="Spinnaker Lane"/>
    <tag k="addr:state" v="VT"/>
    <tag k="ref:vcgi:esiteid" v="221341"/>
  </node>
  <node id="-1065" visible="true" lat="44.39774322" lon="-73.2104721">
    <tag k="addr:city" v="Shelburne"/>
    <tag k="addr:housenumber" v="481"/>
    <tag k="addr:street" v="Longmeadow Drive"/>
    <tag k="addr:state" v="VT"/>
    <tag k="ref:vcgi:esiteid" v="221342"/>
  </node>
  <node id="-1066" visible="true" lat="44.39770889" lon="-73.21098327">
    <tag k="addr:city" v="Shelburne"/>
    <tag k="addr:housenumber" v="455"/>
    <tag k="addr:street" v="Longmeadow Drive"/>
    <tag k="addr:state" v="VT"/>
    <tag k="ref:vcgi:esiteid" v="221343"/>
  </node>
  <node id="-1067" visible="true" lat="44.39754104" lon="-73.2306137">
    <tag k="addr:city" v="Shelburne"/>
    <tag k="addr:housenumber" v="115"/>
    <tag k="addr:street" v="Spinnaker Lane"/>
    <tag k="addr:state" v="VT"/>
    <tag k="ref:vcgi:esiteid" v="221344"/>
  </node>
  <node id="-1068" visible="true" lat="44.39775655" lon="-73.20886322">
    <tag k="addr:city" v="Shelburne"/>
    <tag k="addr:housenumber" v="559"/>
    <tag k="addr:street" v="Longmeadow Drive"/>
    <tag k="addr:state" v="VT"/>
    <tag k="ref:vcgi:esiteid" v="221346"/>
  </node>
  <node id="-1069" visible="true" lat="44.39762878" lon="-73.21141052">
    <tag k="addr:city" v="Shelburne"/>
    <tag k="addr:housenumber" v="435"/>
    <tag k="addr:street" v="Longmeadow Drive"/>
    <tag k="addr:state" v="VT"/>
    <tag k="ref:vcgi:esiteid" v="221347"/>
  </node>
  <node id="-1071" visible="true" lat="44.39758682" lon="-73.21178436">
    <tag k="addr:city" v="Shelburne"/>
    <tag k="addr:housenumber" v="415"/>
    <tag k="addr:street" v="Longmeadow Drive"/>
    <tag k="addr:state" v="VT"/>
    <tag k="ref:vcgi:esiteid" v="221349"/>
  </node>
  <node id="-1072" visible="true" lat="44.397583" lon="-73.2121582">
    <tag k="addr:city" v="Shelburne"/>
    <tag k="addr:housenumber" v="397"/>
    <tag k="addr:street" v="Longmeadow Drive"/>
    <tag k="addr:state" v="VT"/>
    <tag k="ref:vcgi:esiteid" v="221350"/>
  </node>
  <node id="-1073" visible="true" lat="44.39751815" lon="-73.21253967">
    <tag k="addr:city" v="Shelburne"/>
    <tag k="addr:housenumber" v="377"/>
    <tag k="addr:street" v="Longmeadow Drive"/>
    <tag k="addr:state" v="VT"/>
    <tag k="ref:vcgi:esiteid" v="221352"/>
  </node>
  <node id="-1075" visible="true" lat="44.39746093" lon="-73.21289062">
    <tag k="addr:city" v="Shelburne"/>
    <tag k="addr:housenumber" v="359"/>
    <tag k="addr:street" v="Longmeadow Drive"/>
    <tag k="addr:state" v="VT"/>
    <tag k="ref:vcgi:esiteid" v="221355"/>
  </node>
  <node id="-1076" visible="true" lat="44.39733505" lon="-73.22960662">
    <tag k="addr:city" v="Shelburne"/>
    <tag k="addr:housenumber" v="168"/>
    <tag k="addr:street" v="Spinnaker Lane"/>
    <tag k="addr:state" v="VT"/>
    <tag k="ref:vcgi:esiteid" v="221356"/>
  </node>
  <node id="-1078" visible="true" lat="44.39741134" lon="-73.21347808">
    <tag k="addr:city" v="Shelburne"/>
    <tag k="addr:housenumber" v="331"/>
    <tag k="addr:street" v="Longmeadow Drive"/>
    <tag k="addr:state" v="VT"/>
    <tag k="ref:vcgi:esiteid" v="221358"/>
  </node>
  <node id="-1079" visible="true" lat="44.39733505" lon="-73.21390533">
    <tag k="addr:city" v="Shelburne"/>
    <tag k="addr:housenumber" v="309"/>
    <tag k="addr:street" v="Longmeadow Drive"/>
    <tag k="addr:state" v="VT"/>
    <tag k="ref:vcgi:esiteid" v="221361"/>
  </node>
  <node id="-1080" visible="true" lat="44.39734649" lon="-73.2102127">
    <tag k="addr:city" v="Shelburne"/>
    <tag k="addr:housenumber" v="488"/>
    <tag k="addr:street" v="Longmeadow Drive"/>
    <tag k="addr:state" v="VT"/>
    <tag k="ref:vcgi:esiteid" v="221362"/>
  </node>
  <node id="-1081" visible="true" lat="44.39720535" lon="-73.22860717">
    <tag k="addr:city" v="Shelburne"/>
    <tag k="addr:housenumber" v="171"/>
    <tag k="addr:street" v="Yacht Haven Drive"/>
    <tag k="addr:state" v="VT"/>
    <tag k="ref:vcgi:esiteid" v="221363"/>
  </node>
  <node id="-1082" visible="true" lat="44.39730834" lon="-73.21092987">
    <tag k="addr:city" v="Shelburne"/>
    <tag k="addr:housenumber" v="454"/>
    <tag k="addr:street" v="Longmeadow Drive"/>
    <tag k="addr:state" v="VT"/>
    <tag k="ref:vcgi:esiteid" v="221364"/>
  </node>
  <node id="-1083" visible="true" lat="44.39728546" lon="-73.21437835">
    <tag k="addr:city" v="Shelburne"/>
    <tag k="addr:housenumber" v="285"/>
    <tag k="addr:street" v="Longmeadow Drive"/>
    <tag k="addr:state" v="VT"/>
    <tag k="ref:vcgi:esiteid" v="221365"/>
  </node>
  <node id="-1084" visible="true" lat="44.39724731" lon="-73.21470642">
    <tag k="addr:city" v="Shelburne"/>
    <tag k="addr:housenumber" v="269"/>
    <tag k="addr:street" v="Longmeadow Drive"/>
    <tag k="addr:state" v="VT"/>
    <tag k="ref:vcgi:esiteid" v="221367"/>
  </node>
  <node id="-1085" visible="true" lat="44.39727401" lon="-73.20932769">
    <tag k="addr:city" v="Shelburne"/>
    <tag k="addr:housenumber" v="540"/>
    <tag k="addr:street" v="Longmeadow Drive"/>
    <tag k="addr:state" v="VT"/>
    <tag k="ref:vcgi:esiteid" v="221368"/>
  </node>
  <node id="-1087" visible="true" lat="44.39720916" lon="-73.21500396">
    <tag k="addr:city" v="Shelburne"/>
    <tag k="addr:housenumber" v="253"/>
    <tag k="addr:street" v="Longmeadow Drive"/>
    <tag k="addr:state" v="VT"/>
    <tag k="ref:vcgi:esiteid" v="221370"/>
  </node>
  <node id="-1088" visible="true" lat="44.39717483" lon="-73.21539306">
    <tag k="addr:city" v="Shelburne"/>
    <tag k="addr:housenumber" v="233"/>
    <tag k="addr:street" v="Longmeadow Drive"/>
    <tag k="addr:state" v="VT"/>
    <tag k="ref:vcgi:esiteid" v="221371"/>
  </node>
  <node id="-1089" visible="true" lat="44.39715194" lon="-73.21578979">
    <tag k="addr:city" v="Shelburne"/>
    <tag k="addr:housenumber" v="215"/>
    <tag k="addr:street" v="Longmeadow Drive"/>
    <tag k="addr:state" v="VT"/>
    <tag k="ref:vcgi:esiteid" v="221372"/>
  </node>
  <node id="-1090" visible="true" lat="44.39717483" lon="-73.21149444">
    <tag k="addr:city" v="Shelburne"/>
    <tag k="addr:housenumber" v="286"/>
    <tag k="addr:street" v="Richmond Drive"/>
    <tag k="addr:state" v="VT"/>
    <tag k="ref:vcgi:esiteid" v="221373"/>
  </node>
  <node id="-1091" visible="true" lat="44.39696274" lon="-73.23204227">
    <tag k="addr:city" v="Shelburne"/>
    <tag k="addr:housenumber" v="987"/>
    <tag k="addr:street" v="Bay Road"/>
    <tag k="addr:state" v="VT"/>
    <tag k="ref:vcgi:esiteid" v="221375"/>
  </node>
  <node id="-1094" visible="true" lat="44.39710235" lon="-73.21260833">
    <tag k="addr:city" v="Shelburne"/>
    <tag k="addr:housenumber" v="370"/>
    <tag k="addr:street" v="Longmeadow Drive"/>
    <tag k="addr:state" v="VT"/>
    <tag k="ref:vcgi:esiteid" v="221379"/>
  </node>
  <node id="-1095" visible="true" lat="44.39706039" lon="-73.21640014">
    <tag k="addr:city" v="Shelburne"/>
    <tag k="addr:housenumber" v="185"/>
    <tag k="addr:street" v="Longmeadow Drive"/>
    <tag k="addr:state" v="VT"/>
    <tag k="ref:vcgi:esiteid" v="221380"/>
  </node>
  <node id="-1096" visible="true" lat="44.39697647" lon="-73.22930908">
    <tag k="addr:city" v="Shelburne"/>
    <tag k="addr:housenumber" v="160"/>
    <tag k="addr:street" v="Yacht Haven Drive"/>
    <tag k="addr:state" v="VT"/>
    <tag k="ref:vcgi:esiteid" v="221381"/>
  </node>
  <node id="-1097" visible="true" lat="44.39704132" lon="-73.21289825">
    <tag k="addr:city" v="Shelburne"/>
    <tag k="addr:housenumber" v="354"/>
    <tag k="addr:street" v="Longmeadow Drive"/>
    <tag k="addr:state" v="VT"/>
    <tag k="ref:vcgi:esiteid" v="221382"/>
  </node>
  <node id="-1098" visible="true" lat="44.39699172" lon="-73.2168045">
    <tag k="addr:city" v="Shelburne"/>
    <tag k="addr:housenumber" v="167"/>
    <tag k="addr:street" v="Longmeadow Drive"/>
    <tag k="addr:state" v="VT"/>
    <tag k="ref:vcgi:esiteid" v="221383"/>
  </node>
  <node id="-1099" visible="true" lat="44.3970108" lon="-73.21321106">
    <tag k="addr:city" v="Shelburne"/>
    <tag k="addr:housenumber" v="338"/>
    <tag k="addr:street" v="Longmeadow Drive"/>
    <tag k="addr:state" v="VT"/>
    <tag k="ref:vcgi:esiteid" v="221384"/>
  </node>
  <node id="-1100" visible="true" lat="44.39700698" lon="-73.21357727">
    <tag k="addr:city" v="Shelburne"/>
    <tag k="addr:housenumber" v="320"/>
    <tag k="addr:street" v="Longmeadow Drive"/>
    <tag k="addr:state" v="VT"/>
    <tag k="ref:vcgi:esiteid" v="221385"/>
  </node>
  <node id="-1101" visible="true" lat="44.39699935" lon="-73.21030425">
    <tag k="addr:city" v="Shelburne"/>
    <tag k="addr:housenumber" v="37"/>
    <tag k="addr:street" v="Munroe Drive"/>
    <tag k="addr:state" v="VT"/>
    <tag k="ref:vcgi:esiteid" v="221387"/>
  </node>
  <node id="-1102" visible="true" lat="44.39697265" lon="-73.21105957">
    <tag k="addr:city" v="Shelburne"/>
    <tag k="addr:housenumber" v="40"/>
    <tag k="addr:street" v="Munroe Drive"/>
    <tag k="addr:state" v="VT"/>
    <tag k="ref:vcgi:esiteid" v="221388"/>
  </node>
  <node id="-1103" visible="true" lat="44.39694976" lon="-73.21217346">
    <tag k="addr:city" v="Shelburne"/>
    <tag k="addr:housenumber" v="400"/>
    <tag k="addr:street" v="Longmeadow Drive"/>
    <tag k="addr:state" v="VT"/>
    <tag k="ref:vcgi:esiteid" v="221389"/>
  </node>
  <node id="-1104" visible="true" lat="44.3969345" lon="-73.21392822">
    <tag k="addr:city" v="Shelburne"/>
    <tag k="addr:housenumber" v="302"/>
    <tag k="addr:street" v="Longmeadow Drive"/>
    <tag k="addr:state" v="VT"/>
    <tag k="ref:vcgi:esiteid" v="221390"/>
  </node>
  <node id="-1105" visible="true" lat="44.39689636" lon="-73.2142868">
    <tag k="addr:city" v="Shelburne"/>
    <tag k="addr:housenumber" v="286"/>
    <tag k="addr:street" v="Longmeadow Drive"/>
    <tag k="addr:state" v="VT"/>
    <tag k="ref:vcgi:esiteid" v="221391"/>
  </node>
  <node id="-1107" visible="true" lat="44.39688873" lon="-73.2115631">
    <tag k="addr:city" v="Shelburne"/>
    <tag k="addr:housenumber" v="262"/>
    <tag k="addr:street" v="Richmond Drive"/>
    <tag k="addr:state" v="VT"/>
    <tag k="ref:vcgi:esiteid" v="221393"/>
  </node>
  <node id="-1109" visible="true" lat="44.39685821" lon="-73.21459197">
    <tag k="addr:city" v="Shelburne"/>
    <tag k="addr:housenumber" v="270"/>
    <tag k="addr:street" v="Longmeadow Drive"/>
    <tag k="addr:state" v="VT"/>
    <tag k="ref:vcgi:esiteid" v="221395"/>
  </node>
  <node id="-1110" visible="true" lat="44.39680862" lon="-73.2149353">
    <tag k="addr:city" v="Shelburne"/>
    <tag k="addr:housenumber" v="252"/>
    <tag k="addr:street" v="Longmeadow Drive"/>
    <tag k="addr:state" v="VT"/>
    <tag k="ref:vcgi:esiteid" v="221397"/>
  </node>
  <node id="-1111" visible="true" lat="44.39670181" lon="-73.22891235">
    <tag k="addr:city" v="Shelburne"/>
    <tag k="addr:housenumber" v="182"/>
    <tag k="addr:street" v="Yacht Haven Drive"/>
    <tag k="addr:state" v="VT"/>
    <tag k="ref:vcgi:esiteid" v="221398"/>
  </node>
  <node id="-1112" visible="true" lat="44.39675903" lon="-73.21527862">
    <tag k="addr:city" v="Shelburne"/>
    <tag k="addr:housenumber" v="23"/>
    <tag k="addr:street" v="Richmond Drive"/>
    <tag k="addr:state" v="VT"/>
    <tag k="ref:vcgi:esiteid" v="221401"/>
  </node>
  <node id="-1113" visible="true" lat="44.39670779" lon="-73.21888979">
    <tag k="addr:city" v="Shelburne"/>
    <tag k="addr:housenumber" v="4067"/>
    <tag k="addr:street" v="Shelburne Road"/>
    <tag k="addr:state" v="VT"/>
    <tag k="ref:vcgi:esiteid" v="221402"/>
  </node>
  <node id="-1114" visible="true" lat="44.3967247" lon="-73.21032714">
    <tag k="addr:city" v="Shelburne"/>
    <tag k="addr:housenumber" v="47"/>
    <tag k="addr:street" v="Munroe Drive"/>
    <tag k="addr:state" v="VT"/>
    <tag k="ref:vcgi:esiteid" v="221403"/>
  </node>
  <node id="-1115" visible="true" lat="44.39667892" lon="-73.21585845">
    <tag k="addr:city" v="Shelburne"/>
    <tag k="addr:housenumber" v="206"/>
    <tag k="addr:street" v="Longmeadow Drive"/>
    <tag k="addr:state" v="VT"/>
    <tag k="ref:vcgi:esiteid" v="221404"/>
  </node>
  <node id="-1116" visible="true" lat="44.3966751" lon="-73.21227264">
    <tag k="addr:city" v="Shelburne"/>
    <tag k="addr:housenumber" v="245"/>
    <tag k="addr:street" v="Richmond Drive"/>
    <tag k="addr:state" v="VT"/>
    <tag k="ref:vcgi:esiteid" v="221405"/>
  </node>
  <node id="-1118" visible="true" lat="44.39663314" lon="-73.21083068">
    <tag k="addr:city" v="Shelburne"/>
    <tag k="addr:housenumber" v="48"/>
    <tag k="addr:street" v="Munroe Drive"/>
    <tag k="addr:state" v="VT"/>
    <tag k="ref:vcgi:esiteid" v="221407"/>
  </node>
  <node id="-1119" visible="true" lat="44.39661788" lon="-73.21260833">
    <tag k="addr:city" v="Shelburne"/>
    <tag k="addr:housenumber" v="203"/>
    <tag k="addr:street" v="Richmond Drive"/>
    <tag k="addr:state" v="VT"/>
    <tag k="ref:vcgi:esiteid" v="221408"/>
  </node>
  <node id="-1121" visible="true" lat="44.39658355" lon="-73.21287536">
    <tag k="addr:city" v="Shelburne"/>
    <tag k="addr:housenumber" v="189"/>
    <tag k="addr:street" v="Richmond Drive"/>
    <tag k="addr:state" v="VT"/>
    <tag k="ref:vcgi:esiteid" v="221410"/>
  </node>
  <node id="-1122" visible="true" lat="44.39658737" lon="-73.21166229">
    <tag k="addr:city" v="Shelburne"/>
    <tag k="addr:housenumber" v="242"/>
    <tag k="addr:street" v="Richmond Drive"/>
    <tag k="addr:state" v="VT"/>
    <tag k="ref:vcgi:esiteid" v="221411"/>
  </node>
  <node id="-1123" visible="true" lat="44.39653778" lon="-73.21327209">
    <tag k="addr:city" v="Shelburne"/>
    <tag k="addr:housenumber" v="171"/>
    <tag k="addr:street" v="Richmond Drive"/>
    <tag k="addr:state" v="VT"/>
    <tag k="ref:vcgi:esiteid" v="221412"/>
  </node>
  <node id="-1124" visible="true" lat="44.39649581" lon="-73.21360015">
    <tag k="addr:city" v="Shelburne"/>
    <tag k="addr:housenumber" v="153"/>
    <tag k="addr:street" v="Richmond Drive"/>
    <tag k="addr:state" v="VT"/>
    <tag k="ref:vcgi:esiteid" v="221413"/>
  </node>
  <node id="-1125" visible="true" lat="44.39645385" lon="-73.21397399">
    <tag k="addr:city" v="Shelburne"/>
    <tag k="addr:housenumber" v="135"/>
    <tag k="addr:street" v="Richmond Drive"/>
    <tag k="addr:state" v="VT"/>
    <tag k="ref:vcgi:esiteid" v="221414"/>
  </node>
  <node id="-1126" visible="true" lat="44.39641952" lon="-73.218544">
    <tag k="addr:city" v="Shelburne"/>
    <tag k="addr:housenumber" v="65"/>
    <tag k="addr:street" v="Longmeadow Drive"/>
    <tag k="addr:state" v="VT"/>
    <tag k="ref:vcgi:esiteid" v="221415"/>
  </node>
  <node id="-1127" visible="true" lat="44.39642333" lon="-73.2158432">
    <tag k="addr:city" v="Shelburne"/>
    <tag k="addr:housenumber" v="34"/>
    <tag k="addr:street" v="Richmond Drive"/>
    <tag k="addr:state" v="VT"/>
    <tag k="ref:vcgi:esiteid" v="221416"/>
  </node>
  <node id="-1128" visible="true" lat="44.3964157" lon="-73.21422577">
    <tag k="addr:city" v="Shelburne"/>
    <tag k="addr:housenumber" v="123"/>
    <tag k="addr:street" v="Richmond Drive"/>
    <tag k="addr:state" v="VT"/>
    <tag k="ref:vcgi:esiteid" v="221417"/>
  </node>
  <node id="-1129" visible="true" lat="44.39637756" lon="-73.21460723">
    <tag k="addr:city" v="Shelburne"/>
    <tag k="addr:housenumber" v="103"/>
    <tag k="addr:street" v="Richmond Drive"/>
    <tag k="addr:state" v="VT"/>
    <tag k="ref:vcgi:esiteid" v="221419"/>
  </node>
  <node id="-1130" visible="true" lat="44.39633178" lon="-73.21929931">
    <tag k="addr:city" v="Shelburne"/>
    <tag k="addr:housenumber" v="4109"/>
    <tag k="addr:street" v="Shelburne Road"/>
    <tag k="addr:state" v="VT"/>
    <tag k="ref:vcgi:esiteid" v="221420"/>
  </node>
  <node id="-1132" visible="true" lat="44.39632797" lon="-73.21494293">
    <tag k="addr:city" v="Shelburne"/>
    <tag k="addr:housenumber" v="87"/>
    <tag k="addr:street" v="Richmond Drive"/>
    <tag k="addr:state" v="VT"/>
    <tag k="ref:vcgi:esiteid" v="221422"/>
  </node>
  <node id="-1133" visible="true" lat="44.39629745" lon="-73.21536254">
    <tag k="addr:city" v="Shelburne"/>
    <tag k="addr:housenumber" v="43"/>
    <tag k="addr:street" v="Richmond Drive"/>
    <tag k="addr:state" v="VT"/>
    <tag k="ref:vcgi:esiteid" v="221423"/>
  </node>
  <node id="-1134" visible="true" lat="44.3962326" lon="-73.21247863">
    <tag k="addr:city" v="Shelburne"/>
    <tag k="addr:housenumber" v="206"/>
    <tag k="addr:street" v="Richmond Drive"/>
    <tag k="addr:state" v="VT"/>
    <tag k="ref:vcgi:esiteid" v="221425"/>
  </node>
  <node id="-1135" visible="true" lat="44.39618301" lon="-73.21596527">
    <tag k="addr:city" v="Shelburne"/>
    <tag k="addr:housenumber" v="48"/>
    <tag k="addr:street" v="Richmond Drive"/>
    <tag k="addr:state" v="VT"/>
    <tag k="ref:vcgi:esiteid" v="221426"/>
  </node>
  <node id="-1136" visible="true" lat="44.39619827" lon="-73.21193695">
    <tag k="addr:city" v="Shelburne"/>
    <tag k="addr:housenumber" v="228"/>
    <tag k="addr:street" v="Richmond Drive"/>
    <tag k="addr:state" v="VT"/>
    <tag k="ref:vcgi:esiteid" v="221427"/>
  </node>
  <node id="-1137" visible="true" lat="44.39617538" lon="-73.2128067">
    <tag k="addr:city" v="Shelburne"/>
    <tag k="addr:housenumber" v="190"/>
    <tag k="addr:street" v="Richmond Drive"/>
    <tag k="addr:state" v="VT"/>
    <tag k="ref:vcgi:esiteid" v="221429"/>
  </node>
  <node id="-1138" visible="true" lat="44.39614105" lon="-73.21321105">
    <tag k="addr:city" v="Shelburne"/>
    <tag k="addr:housenumber" v="168"/>
    <tag k="addr:street" v="Richmond Drive"/>
    <tag k="addr:state" v="VT"/>
    <tag k="ref:vcgi:esiteid" v="221431"/>
  </node>
  <node id="-1139" visible="true" lat="44.3960762" lon="-73.21356964">
    <tag k="addr:city" v="Shelburne"/>
    <tag k="addr:housenumber" v="150"/>
    <tag k="addr:street" v="Richmond Drive"/>
    <tag k="addr:state" v="VT"/>
    <tag k="ref:vcgi:esiteid" v="221433"/>
  </node>
  <node id="-1140" visible="true" lat="44.39603805" lon="-73.21391296">
    <tag k="addr:city" v="Shelburne"/>
    <tag k="addr:housenumber" v="134"/>
    <tag k="addr:street" v="Richmond Drive"/>
    <tag k="addr:state" v="VT"/>
    <tag k="ref:vcgi:esiteid" v="221434"/>
  </node>
  <node id="-1141" visible="true" lat="44.39586981" lon="-73.21915105">
    <tag k="addr:city" v="Shelburne"/>
    <tag k="addr:housenumber" v="44"/>
    <tag k="addr:street" v="Longmeadow Drive"/>
    <tag k="addr:state" v="VT"/>
    <tag k="ref:vcgi:esiteid" v="221435"/>
  </node>
  <node id="-1142" visible="true" lat="44.39595031" lon="-73.2142868">
    <tag k="addr:city" v="Shelburne"/>
    <tag k="addr:housenumber" v="114"/>
    <tag k="addr:street" v="Richmond Drive"/>
    <tag k="addr:state" v="VT"/>
    <tag k="ref:vcgi:esiteid" v="221436"/>
  </node>
  <node id="-1143" visible="true" lat="44.39592743" lon="-73.21466827">
    <tag k="addr:city" v="Shelburne"/>
    <tag k="addr:housenumber" v="96"/>
    <tag k="addr:street" v="Richmond Drive"/>
    <tag k="addr:state" v="VT"/>
    <tag k="ref:vcgi:esiteid" v="221437"/>
  </node>
  <node id="-1144" visible="true" lat="44.39588546" lon="-73.21653747">
    <tag k="addr:city" v="Shelburne"/>
    <tag k="addr:housenumber" v="31"/>
    <tag k="addr:street" v="Deer Run Drive"/>
    <tag k="addr:state" v="VT"/>
    <tag k="ref:vcgi:esiteid" v="221438"/>
  </node>
  <node id="-1145" visible="true" lat="44.39588165" lon="-73.21508026">
    <tag k="addr:city" v="Shelburne"/>
    <tag k="addr:housenumber" v="74"/>
    <tag k="addr:street" v="Richmond Drive"/>
    <tag k="addr:state" v="VT"/>
    <tag k="ref:vcgi:esiteid" v="221439"/>
  </node>
  <node id="-1146" visible="true" lat="44.39579391" lon="-73.21847534">
    <tag k="addr:city" v="Shelburne"/>
    <tag k="addr:housenumber" v="68"/>
    <tag k="addr:street" v="Longmeadow Drive"/>
    <tag k="addr:state" v="VT"/>
    <tag k="ref:vcgi:esiteid" v="221440"/>
  </node>
  <node id="-1147" visible="true" lat="44.39580535" lon="-73.21543884">
    <tag k="addr:city" v="Shelburne"/>
    <tag k="addr:housenumber" v="62"/>
    <tag k="addr:street" v="Richmond Drive"/>
    <tag k="addr:state" v="VT"/>
    <tag k="ref:vcgi:esiteid" v="221441"/>
  </node>
  <node id="-1148" visible="true" lat="44.39579773" lon="-73.21596527">
    <tag k="addr:city" v="Shelburne"/>
    <tag k="addr:housenumber" v="54"/>
    <tag k="addr:street" v="Richmond Drive"/>
    <tag k="addr:state" v="VT"/>
    <tag k="ref:vcgi:esiteid" v="221442"/>
  </node>
  <node id="-1150" visible="true" lat="44.39569091" lon="-73.21786499">
    <tag k="addr:city" v="Shelburne"/>
    <tag k="addr:housenumber" v="86"/>
    <tag k="addr:street" v="Longmeadow Drive"/>
    <tag k="addr:state" v="VT"/>
    <tag k="ref:vcgi:esiteid" v="221444"/>
  </node>
  <node id="-1151" visible="true" lat="44.39567947" lon="-73.21265411">
    <tag k="addr:city" v="Shelburne"/>
    <tag k="addr:housenumber" v="42"/>
    <tag k="addr:street" v="Cardinal Way"/>
    <tag k="addr:state" v="VT"/>
    <tag k="ref:vcgi:esiteid" v="221448"/>
  </node>
  <node id="-1153" visible="true" lat="44.3955841" lon="-73.21318817">
    <tag k="addr:city" v="Shelburne"/>
    <tag k="addr:housenumber" v="43"/>
    <tag k="addr:street" v="Cardinal Way"/>
    <tag k="addr:state" v="VT"/>
    <tag k="ref:vcgi:esiteid" v="221450"/>
  </node>
  <node id="-1154" visible="true" lat="44.39553609" lon="-73.21922593">
    <tag k="addr:city" v="Shelburne"/>
    <tag k="addr:housenumber" v="17"/>
    <tag k="addr:street" v="Drew Lane"/>
    <tag k="addr:state" v="VT"/>
    <tag k="ref:vcgi:esiteid" v="221451"/>
  </node>
  <node id="-1155" visible="true" lat="44.39546203" lon="-73.21656799">
    <tag k="addr:city" v="Shelburne"/>
    <tag k="addr:housenumber" v="103"/>
    <tag k="addr:street" v="Deer Run Drive"/>
    <tag k="addr:state" v="VT"/>
    <tag k="ref:vcgi:esiteid" v="221454"/>
  </node>
  <node id="-1156" visible="true" lat="44.395401" lon="-73.21498107">
    <tag k="addr:city" v="Shelburne"/>
    <tag k="addr:housenumber" v="177"/>
    <tag k="addr:street" v="Deer Run Drive"/>
    <tag k="addr:state" v="VT"/>
    <tag k="ref:vcgi:esiteid" v="221456"/>
  </node>
  <node id="-1157" visible="true" lat="44.39547551" lon="-73.21235612">
    <tag k="addr:city" v="Shelburne"/>
    <tag k="addr:housenumber" v="38"/>
    <tag k="addr:street" v="Cardinal Way"/>
    <tag k="addr:state" v="VT"/>
    <tag k="ref:vcgi:esiteid" v="221457"/>
  </node>
  <node id="-1158" visible="true" lat="44.39535522" lon="-73.21549987">
    <tag k="addr:city" v="Shelburne"/>
    <tag k="addr:housenumber" v="151"/>
    <tag k="addr:street" v="Deer Run Drive"/>
    <tag k="addr:state" v="VT"/>
    <tag k="ref:vcgi:esiteid" v="221458"/>
  </node>
  <node id="-1159" visible="true" lat="44.39533615" lon="-73.21608734">
    <tag k="addr:city" v="Shelburne"/>
    <tag k="addr:housenumber" v="125"/>
    <tag k="addr:street" v="Deer Run Drive"/>
    <tag k="addr:state" v="VT"/>
    <tag k="ref:vcgi:esiteid" v="221459"/>
  </node>
  <node id="-1160" visible="true" lat="44.39534378" lon="-73.21444702">
    <tag k="addr:city" v="Shelburne"/>
    <tag k="addr:housenumber" v="209"/>
    <tag k="addr:street" v="Deer Run Drive"/>
    <tag k="addr:state" v="VT"/>
    <tag k="ref:vcgi:esiteid" v="221460"/>
  </node>
  <node id="-1161" visible="true" lat="44.3953247" lon="-73.21333313">
    <tag k="addr:city" v="Shelburne"/>
    <tag k="addr:housenumber" v="29"/>
    <tag k="addr:street" v="Cardinal Way"/>
    <tag k="addr:state" v="VT"/>
    <tag k="ref:vcgi:esiteid" v="221461"/>
  </node>
  <node id="-1162" visible="true" lat="44.39517469" lon="-73.21211344">
    <tag k="addr:city" v="Shelburne"/>
    <tag k="addr:housenumber" v="81"/>
    <tag k="addr:street" v="Thrush Way"/>
    <tag k="addr:state" v="VT"/>
    <tag k="ref:vcgi:esiteid" v="221463"/>
  </node>
  <node id="-1163" visible="true" lat="44.39506912" lon="-73.21330261">
    <tag k="addr:city" v="Shelburne"/>
    <tag k="addr:housenumber" v="11"/>
    <tag k="addr:street" v="Cardinal Way"/>
    <tag k="addr:state" v="VT"/>
    <tag k="ref:vcgi:esiteid" v="221466"/>
  </node>
  <node id="-1164" visible="true" lat="44.39499664" lon="-73.21404266">
    <tag k="addr:city" v="Shelburne"/>
    <tag k="addr:housenumber" v="217"/>
    <tag k="addr:street" v="Deer Run Drive"/>
    <tag k="addr:state" v="VT"/>
    <tag k="ref:vcgi:esiteid" v="221467"/>
  </node>
  <node id="-1166" visible="true" lat="44.39480972" lon="-73.2170639">
    <tag k="addr:city" v="Shelburne"/>
    <tag k="addr:housenumber" v="88"/>
    <tag k="addr:street" v="Deer Run Drive"/>
    <tag k="addr:state" v="VT"/>
    <tag k="ref:vcgi:esiteid" v="221471"/>
  </node>
  <node id="-1169" visible="true" lat="44.39487442" lon="-73.21196461">
    <tag k="addr:city" v="Shelburne"/>
    <tag k="addr:housenumber" v="93"/>
    <tag k="addr:street" v="Thrush Way"/>
    <tag k="addr:state" v="VT"/>
    <tag k="ref:vcgi:esiteid" v="221474"/>
  </node>
  <node id="-1172" visible="true" lat="44.39456558" lon="-73.21484374">
    <tag k="addr:city" v="Shelburne"/>
    <tag k="addr:housenumber" v="204"/>
    <tag k="addr:street" v="Deer Run Drive"/>
    <tag k="addr:state" v="VT"/>
    <tag k="ref:vcgi:esiteid" v="221478"/>
  </node>
  <node id="-1173" visible="true" lat="44.39455032" lon="-73.21640777">
    <tag k="addr:city" v="Shelburne"/>
    <tag k="addr:housenumber" v="108"/>
    <tag k="addr:street" v="Deer Run Drive"/>
    <tag k="addr:state" v="VT"/>
    <tag k="ref:vcgi:esiteid" v="221479"/>
  </node>
  <node id="-1174" visible="true" lat="44.39455413" lon="-73.21204376">
    <tag k="addr:city" v="Shelburne"/>
    <tag k="addr:housenumber" v="92"/>
    <tag k="addr:street" v="Thrush Way"/>
    <tag k="addr:state" v="VT"/>
    <tag k="ref:vcgi:esiteid" v="221480"/>
  </node>
  <node id="-1177" visible="true" lat="44.39445877" lon="-73.21528625">
    <tag k="addr:city" v="Shelburne"/>
    <tag k="addr:housenumber" v="170"/>
    <tag k="addr:street" v="Deer Run Drive"/>
    <tag k="addr:state" v="VT"/>
    <tag k="ref:vcgi:esiteid" v="221483"/>
  </node>
  <node id="-1178" visible="true" lat="44.39447105" lon="-73.21239683">
    <tag k="addr:city" v="Shelburne"/>
    <tag k="addr:housenumber" v="78"/>
    <tag k="addr:street" v="Thrush Way"/>
    <tag k="addr:state" v="VT"/>
    <tag k="ref:vcgi:esiteid" v="221484"/>
  </node>
  <node id="-1179" visible="true" lat="44.39438629" lon="-73.21448516">
    <tag k="addr:city" v="Shelburne"/>
    <tag k="addr:housenumber" v="216"/>
    <tag k="addr:street" v="Deer Run Drive"/>
    <tag k="addr:state" v="VT"/>
    <tag k="ref:vcgi:esiteid" v="221485"/>
  </node>
  <node id="-1180" visible="true" lat="44.39442428" lon="-73.21584797">
    <tag k="addr:city" v="Shelburne"/>
    <tag k="addr:housenumber" v="130"/>
    <tag k="addr:street" v="Deer Run Drive"/>
    <tag k="addr:state" v="VT"/>
    <tag k="ref:vcgi:esiteid" v="221486"/>
  </node>
  <node id="-1181" visible="true" lat="44.39435958" lon="-73.21296691">
    <tag k="addr:city" v="Shelburne"/>
    <tag k="addr:housenumber" v="63"/>
    <tag k="addr:street" v="Quail Way"/>
    <tag k="addr:state" v="VT"/>
    <tag k="ref:vcgi:esiteid" v="221487"/>
  </node>
  <node id="-1186" visible="true" lat="44.39411926" lon="-73.21243286">
    <tag k="addr:city" v="Shelburne"/>
    <tag k="addr:housenumber" v="95"/>
    <tag k="addr:street" v="Quail Way"/>
    <tag k="addr:state" v="VT"/>
    <tag k="ref:vcgi:esiteid" v="221494"/>
  </node>
  <node id="-1187" visible="true" lat="44.39405441" lon="-73.21209716">
    <tag k="addr:city" v="Shelburne"/>
    <tag k="addr:housenumber" v="113"/>
    <tag k="addr:street" v="Quail Way"/>
    <tag k="addr:state" v="VT"/>
    <tag k="ref:vcgi:esiteid" v="221496"/>
  </node>
  <node id="-1190" visible="true" lat="44.39382553" lon="-73.21187591">
    <tag k="addr:city" v="Shelburne"/>
    <tag k="addr:housenumber" v="117"/>
    <tag k="addr:street" v="Quail Way"/>
    <tag k="addr:state" v="VT"/>
    <tag k="ref:vcgi:esiteid" v="221499"/>
  </node>
  <node id="-1191" visible="true" lat="44.39379119" lon="-73.21390533">
    <tag k="addr:city" v="Shelburne"/>
    <tag k="addr:housenumber" v="34"/>
    <tag k="addr:street" v="Partridge Way"/>
    <tag k="addr:state" v="VT"/>
    <tag k="ref:vcgi:esiteid" v="221500"/>
  </node>
  <node id="-1192" visible="true" lat="44.3937416" lon="-73.2128601">
    <tag k="addr:city" v="Shelburne"/>
    <tag k="addr:housenumber" v="88"/>
    <tag k="addr:street" v="Quail Way"/>
    <tag k="addr:state" v="VT"/>
    <tag k="ref:vcgi:esiteid" v="221501"/>
  </node>
  <node id="-1194" visible="true" lat="44.39367294" lon="-73.21416473">
    <tag k="addr:city" v="Shelburne"/>
    <tag k="addr:housenumber" v="44"/>
    <tag k="addr:street" v="Partridge Way"/>
    <tag k="addr:state" v="VT"/>
    <tag k="ref:vcgi:esiteid" v="221504"/>
  </node>
  <node id="-1196" visible="true" lat="44.39366149" lon="-73.2133789">
    <tag k="addr:city" v="Shelburne"/>
    <tag k="addr:housenumber" v="31"/>
    <tag k="addr:street" v="Partridge Way"/>
    <tag k="addr:state" v="VT"/>
    <tag k="ref:vcgi:esiteid" v="221506"/>
  </node>
  <node id="-1200" visible="true" lat="44.39353565" lon="-73.21209107">
    <tag k="addr:city" v="Shelburne"/>
    <tag k="addr:housenumber" v="116"/>
    <tag k="addr:street" v="Quail Way"/>
    <tag k="addr:state" v="VT"/>
    <tag k="ref:vcgi:esiteid" v="221510"/>
  </node>
  <node id="-1201" visible="true" lat="44.3935852" lon="-73.21263122">
    <tag k="addr:city" v="Shelburne"/>
    <tag k="addr:housenumber" v="104"/>
    <tag k="addr:street" v="Quail Way"/>
    <tag k="addr:state" v="VT"/>
    <tag k="ref:vcgi:esiteid" v="221511"/>
  </node>
  <node id="-1202" visible="true" lat="44.39352798" lon="-73.22040557">
    <tag k="addr:city" v="Shelburne"/>
    <tag k="addr:housenumber" v="4309"/>
    <tag k="addr:street" v="Shelburne Road"/>
    <tag k="addr:state" v="VT"/>
    <tag k="ref:vcgi:esiteid" v="221512"/>
  </node>
  <node id="-1204" visible="true" lat="44.39345169" lon="-73.21413421">
    <tag k="addr:city" v="Shelburne"/>
    <tag k="addr:housenumber" v="50"/>
    <tag k="addr:street" v="Partridge Way"/>
    <tag k="addr:state" v="VT"/>
    <tag k="ref:vcgi:esiteid" v="221514"/>
  </node>
  <node id="-1205" visible="true" lat="44.39338684" lon="-73.21340942">
    <tag k="addr:city" v="Shelburne"/>
    <tag k="addr:housenumber" v="49"/>
    <tag k="addr:street" v="Partridge Way"/>
    <tag k="addr:state" v="VT"/>
    <tag k="ref:vcgi:esiteid" v="221516"/>
  </node>
  <node id="-1206" visible="true" lat="44.39328765" lon="-73.21376037">
    <tag k="addr:city" v="Shelburne"/>
    <tag k="addr:housenumber" v="51"/>
    <tag k="addr:street" v="Partridge Way"/>
    <tag k="addr:state" v="VT"/>
    <tag k="ref:vcgi:esiteid" v="221517"/>
  </node>
  <node id="-1221" visible="true" lat="44.39209747" lon="-73.25711822">
    <tag k="addr:city" v="Shelburne"/>
    <tag k="addr:housenumber" v="352"/>
    <tag k="addr:street" v="Farm Barn Lane"/>
    <tag k="addr:state" v="VT"/>
    <tag k="ref:vcgi:esiteid" v="221538"/>
  </node>
  <node id="-1224" visible="true" lat="44.39201885" lon="-73.22067107">
    <tag k="addr:city" v="Shelburne"/>
    <tag k="addr:housenumber" v="4405"/>
    <tag k="addr:street" v="Shelburne Road"/>
    <tag k="addr:state" v="VT"/>
    <tag k="ref:vcgi:esiteid" v="221541"/>
  </node>
  <node id="-1232" visible="true" lat="44.39162826" lon="-73.21881103">
    <tag k="addr:city" v="Shelburne"/>
    <tag k="addr:housenumber" v="139"/>
    <tag k="addr:street" v="Hoes Lane"/>
    <tag k="addr:state" v="VT"/>
    <tag k="ref:vcgi:esiteid" v="221550"/>
  </node>
  <node id="-1236" visible="true" lat="44.3914833" lon="-73.22040557">
    <tag k="addr:city" v="Shelburne"/>
    <tag k="addr:housenumber" v="45"/>
    <tag k="addr:street" v="Hoes Lane"/>
    <tag k="addr:state" v="VT"/>
    <tag k="ref:vcgi:esiteid" v="221554"/>
  </node>
  <node id="-1248" visible="true" lat="44.39073944" lon="-73.25623321">
    <tag k="addr:city" v="Shelburne"/>
    <tag k="addr:housenumber" v="354"/>
    <tag k="addr:street" v="Farm Barn Lane"/>
    <tag k="addr:state" v="VT"/>
    <tag k="ref:vcgi:esiteid" v="221571"/>
  </node>
  <node id="-1249" visible="true" lat="44.39097595" lon="-73.21846771">
    <tag k="addr:city" v="Shelburne"/>
    <tag k="addr:housenumber" v="109"/>
    <tag k="addr:street" v="Bourgea Lane"/>
    <tag k="addr:state" v="VT"/>
    <tag k="ref:vcgi:esiteid" v="221572"/>
  </node>
  <node id="-1251" visible="true" lat="44.39089655" lon="-73.22118678">
    <tag k="addr:city" v="Shelburne"/>
    <tag k="addr:housenumber" v="29"/>
    <tag k="addr:street" v="Webster Road"/>
    <tag k="addr:state" v="VT"/>
    <tag k="ref:vcgi:esiteid" v="221575"/>
  </node>
  <node id="-1259" visible="true" lat="44.39057409" lon="-73.22121907">
    <tag k="addr:city" v="Shelburne"/>
    <tag k="addr:housenumber" v="33"/>
    <tag k="addr:street" v="Webster Road"/>
    <tag k="addr:state" v="VT"/>
    <tag k="ref:vcgi:esiteid" v="221583"/>
  </node>
  <node id="-1262" visible="true" lat="44.39056778" lon="-73.2148056">
    <tag k="addr:city" v="Shelburne"/>
    <tag k="addr:housenumber" v="80"/>
    <tag k="addr:street" v="Farmstead Drive"/>
    <tag k="addr:state" v="VT"/>
    <tag k="ref:vcgi:esiteid" v="221588"/>
  </node>
  <node id="-1267" visible="true" lat="44.39036941" lon="-73.21869659">
    <tag k="addr:city" v="Shelburne"/>
    <tag k="addr:housenumber" v="144"/>
    <tag k="addr:street" v="Bourgea Lane"/>
    <tag k="addr:state" v="VT"/>
    <tag k="ref:vcgi:esiteid" v="221594"/>
  </node>
  <node id="-1270" visible="true" lat="44.39026641" lon="-73.21455383">
    <tag k="addr:city" v="Shelburne"/>
    <tag k="addr:housenumber" v="76"/>
    <tag k="addr:street" v="Farmstead Drive"/>
    <tag k="addr:state" v="VT"/>
    <tag k="ref:vcgi:esiteid" v="221597"/>
  </node>
  <node id="-1271" visible="true" lat="44.39018312" lon="-73.22134163">
    <tag k="addr:city" v="Shelburne"/>
    <tag k="addr:housenumber" v="59"/>
    <tag k="addr:street" v="Webster Road"/>
    <tag k="addr:state" v="VT"/>
    <tag k="ref:vcgi:esiteid" v="221598"/>
  </node>
  <node id="-1280" visible="true" lat="44.38989639" lon="-73.21422577">
    <tag k="addr:city" v="Shelburne"/>
    <tag k="addr:housenumber" v="54"/>
    <tag k="addr:street" v="Farmstead Drive"/>
    <tag k="addr:state" v="VT"/>
    <tag k="ref:vcgi:esiteid" v="221609"/>
  </node>
  <node id="-1281" visible="true" lat="44.38969039" lon="-73.22159576">
    <tag k="addr:city" v="Shelburne"/>
    <tag k="addr:housenumber" v="93"/>
    <tag k="addr:street" v="Webster Road"/>
    <tag k="addr:state" v="VT"/>
    <tag k="ref:vcgi:esiteid" v="221611"/>
  </node>
  <node id="-1285" visible="true" lat="44.38943099" lon="-73.22088623">
    <tag k="addr:city" v="Shelburne"/>
    <tag k="addr:housenumber" v="115"/>
    <tag k="addr:street" v="Webster Road"/>
    <tag k="addr:state" v="VT"/>
    <tag k="ref:vcgi:esiteid" v="221616"/>
  </node>
  <node id="-1287" visible="true" lat="44.38949935" lon="-73.21434041">
    <tag k="addr:city" v="Shelburne"/>
    <tag k="addr:housenumber" v="20"/>
    <tag k="addr:street" v="Farmstead Drive"/>
    <tag k="addr:state" v="VT"/>
    <tag k="ref:vcgi:esiteid" v="221618"/>
  </node>
  <node id="-1293" visible="true" lat="44.38906147" lon="-73.22147235">
    <tag k="addr:city" v="Shelburne"/>
    <tag k="addr:housenumber" v="127"/>
    <tag k="addr:street" v="Webster Road"/>
    <tag k="addr:state" v="VT"/>
    <tag k="ref:vcgi:esiteid" v="221624"/>
  </node>
  <node id="-1294" visible="true" lat="44.38917541" lon="-73.22248077">
    <tag k="addr:city" v="Shelburne"/>
    <tag k="addr:housenumber" v="140"/>
    <tag k="addr:street" v="Webster Road"/>
    <tag k="addr:state" v="VT"/>
    <tag k="ref:vcgi:esiteid" v="221625"/>
  </node>
  <node id="-1300" visible="true" lat="44.38885498" lon="-73.21481323">
    <tag k="addr:city" v="Shelburne"/>
    <tag k="addr:housenumber" v="640"/>
    <tag k="addr:street" v="Webster Road"/>
    <tag k="addr:state" v="VT"/>
    <tag k="ref:vcgi:esiteid" v="221632"/>
  </node>
  <node id="-1304" visible="true" lat="44.38822552" lon="-73.27641518">
    <tag k="addr:city" v="Shelburne"/>
    <tag k="addr:housenumber" v="2348"/>
    <tag k="addr:street" v="North Gate Road"/>
    <tag k="addr:state" v="VT"/>
    <tag k="ref:vcgi:esiteid" v="221637"/>
  </node>
  <node id="-1306" visible="true" lat="44.38827896" lon="-73.25792694">
    <tag k="addr:city" v="Shelburne"/>
    <tag k="addr:housenumber" v="576"/>
    <tag k="addr:street" v="Farm Barn Lane"/>
    <tag k="addr:state" v="VT"/>
    <tag k="ref:vcgi:esiteid" v="221639"/>
  </node>
  <node id="-1307" visible="true" lat="44.38845825" lon="-73.22286224">
    <tag k="addr:city" v="Shelburne"/>
    <tag k="addr:housenumber" v="194"/>
    <tag k="addr:street" v="Webster Road"/>
    <tag k="addr:state" v="VT"/>
    <tag k="ref:vcgi:esiteid" v="221640"/>
  </node>
  <node id="-1323" visible="true" lat="44.38788986" lon="-73.25849151">
    <tag k="addr:city" v="Shelburne"/>
    <tag k="addr:housenumber" v="614"/>
    <tag k="addr:street" v="Farm Barn Lane"/>
    <tag k="addr:state" v="VT"/>
    <tag k="ref:vcgi:esiteid" v="221657"/>
  </node>
  <node id="-1324" visible="true" lat="44.38805432" lon="-73.2224863">
    <tag k="addr:city" v="Shelburne"/>
    <tag k="addr:housenumber" v="207"/>
    <tag k="addr:street" v="Webster Road"/>
    <tag k="addr:state" v="VT"/>
    <tag k="ref:vcgi:esiteid" v="221658"/>
  </node>
  <node id="-1347" visible="true" lat="44.38733673" lon="-73.23609924">
    <tag k="addr:city" v="Shelburne"/>
    <tag k="addr:housenumber" v="359"/>
    <tag k="addr:street" v="Turtle Lane"/>
    <tag k="addr:state" v="VT"/>
    <tag k="ref:vcgi:esiteid" v="221683"/>
  </node>
  <node id="-1352" visible="true" lat="44.38717651" lon="-73.2228012">
    <tag k="addr:city" v="Shelburne"/>
    <tag k="addr:housenumber" v="58"/>
    <tag k="addr:street" v="Chesapeake Drive"/>
    <tag k="addr:state" v="VT"/>
    <tag k="ref:vcgi:esiteid" v="221690"/>
  </node>
  <node id="-1353" visible="true" lat="44.38699741" lon="-73.24546954">
    <tag k="addr:city" v="Shelburne"/>
    <tag k="addr:housenumber" v="98"/>
    <tag k="addr:street" v="South Gate Road"/>
    <tag k="addr:state" v="VT"/>
    <tag k="ref:vcgi:esiteid" v="221691"/>
  </node>
  <node id="-1355" visible="true" lat="44.38704681" lon="-73.21999359">
    <tag k="addr:city" v="Shelburne"/>
    <tag k="addr:housenumber" v="97"/>
    <tag k="addr:street" v="Gardenside Lane"/>
    <tag k="addr:state" v="VT"/>
    <tag k="ref:vcgi:esiteid" v="221693"/>
  </node>
  <node id="-1357" visible="true" lat="44.38687515" lon="-73.22082519">
    <tag k="addr:city" v="Shelburne"/>
    <tag k="addr:housenumber" v="96"/>
    <tag k="addr:street" v="Gardenside Lane"/>
    <tag k="addr:state" v="VT"/>
    <tag k="ref:vcgi:esiteid" v="221695"/>
  </node>
  <node id="-1361" visible="true" lat="44.38661575" lon="-73.221138">
    <tag k="addr:city" v="Shelburne"/>
    <tag k="addr:housenumber" v="41"/>
    <tag k="addr:street" v="Harvest Lane"/>
    <tag k="addr:state" v="VT"/>
    <tag k="ref:vcgi:esiteid" v="221701"/>
  </node>
  <node id="-1363" visible="true" lat="44.3865509" lon="-73.21986389">
    <tag k="addr:city" v="Shelburne"/>
    <tag k="addr:housenumber" v="123"/>
    <tag k="addr:street" v="Gardenside Lane"/>
    <tag k="addr:state" v="VT"/>
    <tag k="ref:vcgi:esiteid" v="221703"/>
  </node>
  <node id="-1364" visible="true" lat="44.38654708" lon="-73.2175827">
    <tag k="addr:city" v="Shelburne"/>
    <tag k="addr:housenumber" v="142"/>
    <tag k="addr:street" v="Acorn Lane"/>
    <tag k="addr:state" v="VT"/>
    <tag k="ref:vcgi:esiteid" v="221704"/>
  </node>
  <node id="-1367" visible="true" lat="44.38641357" lon="-73.21861267">
    <tag k="addr:city" v="Shelburne"/>
    <tag k="addr:housenumber" v="251"/>
    <tag k="addr:street" v="Gardenside Lane"/>
    <tag k="addr:state" v="VT"/>
    <tag k="ref:vcgi:esiteid" v="221707"/>
  </node>
  <node id="-1369" visible="true" lat="44.38630294" lon="-73.22135925">
    <tag k="addr:city" v="Shelburne"/>
    <tag k="addr:housenumber" v="63"/>
    <tag k="addr:street" v="Harvest Lane"/>
    <tag k="addr:state" v="VT"/>
    <tag k="ref:vcgi:esiteid" v="221709"/>
  </node>
  <node id="-1372" visible="true" lat="44.38605499" lon="-73.22063445">
    <tag k="addr:city" v="Shelburne"/>
    <tag k="addr:housenumber" v="148"/>
    <tag k="addr:street" v="Gardenside Lane"/>
    <tag k="addr:state" v="VT"/>
    <tag k="ref:vcgi:esiteid" v="221716"/>
  </node>
  <node id="-1373" visible="true" lat="44.38602829" lon="-73.22141265">
    <tag k="addr:city" v="Shelburne"/>
    <tag k="addr:housenumber" v="85"/>
    <tag k="addr:street" v="Harvest Lane"/>
    <tag k="addr:state" v="VT"/>
    <tag k="ref:vcgi:esiteid" v="221717"/>
  </node>
  <node id="-1375" visible="true" lat="44.38592147" lon="-73.21965026">
    <tag k="addr:city" v="Shelburne"/>
    <tag k="addr:housenumber" v="156"/>
    <tag k="addr:street" v="Gardenside Lane"/>
    <tag k="addr:state" v="VT"/>
    <tag k="ref:vcgi:esiteid" v="221721"/>
  </node>
  <node id="-1377" visible="true" lat="44.38586044" lon="-73.21882629">
    <tag k="addr:city" v="Shelburne"/>
    <tag k="addr:housenumber" v="232"/>
    <tag k="addr:street" v="Gardenside Lane"/>
    <tag k="addr:state" v="VT"/>
    <tag k="ref:vcgi:esiteid" v="221723"/>
  </node>
  <node id="-1378" visible="true" lat="44.38579559" lon="-73.22055053">
    <tag k="addr:city" v="Shelburne"/>
    <tag k="addr:housenumber" v="150"/>
    <tag k="addr:street" v="Gardenside Lane"/>
    <tag k="addr:state" v="VT"/>
    <tag k="ref:vcgi:esiteid" v="221724"/>
  </node>
  <node id="-1379" visible="true" lat="44.38578414" lon="-73.22181701">
    <tag k="addr:city" v="Shelburne"/>
    <tag k="addr:housenumber" v="87"/>
    <tag k="addr:street" v="Harvest Lane"/>
    <tag k="addr:state" v="VT"/>
    <tag k="ref:vcgi:esiteid" v="221725"/>
  </node>
  <node id="-1380" visible="true" lat="44.3857727" lon="-73.22310638">
    <tag k="addr:city" v="Shelburne"/>
    <tag k="addr:housenumber" v="142"/>
    <tag k="addr:street" v="Chesapeake Drive"/>
    <tag k="addr:state" v="VT"/>
    <tag k="ref:vcgi:esiteid" v="221726"/>
  </node>
  <node id="-1381" visible="true" lat="44.38576507" lon="-73.2178421">
    <tag k="addr:city" v="Shelburne"/>
    <tag k="addr:housenumber" v="240"/>
    <tag k="addr:street" v="Gardenside Lane"/>
    <tag k="addr:state" v="VT"/>
    <tag k="ref:vcgi:esiteid" v="221727"/>
  </node>
  <node id="-1382" visible="true" lat="44.38569641" lon="-73.21986389">
    <tag k="addr:city" v="Shelburne"/>
    <tag k="addr:housenumber" v="154"/>
    <tag k="addr:street" v="Gardenside Lane"/>
    <tag k="addr:state" v="VT"/>
    <tag k="ref:vcgi:esiteid" v="221728"/>
  </node>
  <node id="-1383" visible="true" lat="44.38566207" lon="-73.22022247">
    <tag k="addr:city" v="Shelburne"/>
    <tag k="addr:housenumber" v="152"/>
    <tag k="addr:street" v="Gardenside Lane"/>
    <tag k="addr:state" v="VT"/>
    <tag k="ref:vcgi:esiteid" v="221729"/>
  </node>
  <node id="-1385" visible="true" lat="44.38557434" lon="-73.21877288">
    <tag k="addr:city" v="Shelburne"/>
    <tag k="addr:housenumber" v="234"/>
    <tag k="addr:street" v="Gardenside Lane"/>
    <tag k="addr:state" v="VT"/>
    <tag k="ref:vcgi:esiteid" v="221731"/>
  </node>
  <node id="-1386" visible="true" lat="44.38553237" lon="-73.21796417">
    <tag k="addr:city" v="Shelburne"/>
    <tag k="addr:housenumber" v="238"/>
    <tag k="addr:street" v="Gardenside Lane"/>
    <tag k="addr:state" v="VT"/>
    <tag k="ref:vcgi:esiteid" v="221732"/>
  </node>
  <node id="-1388" visible="true" lat="44.38544082" lon="-73.21834564">
    <tag k="addr:city" v="Shelburne"/>
    <tag k="addr:housenumber" v="236"/>
    <tag k="addr:street" v="Gardenside Lane"/>
    <tag k="addr:state" v="VT"/>
    <tag k="ref:vcgi:esiteid" v="221734"/>
  </node>
  <node id="-1390" visible="true" lat="44.38520159" lon="-73.24456914">
    <tag k="addr:city" v="Shelburne"/>
    <tag k="addr:housenumber" v="889"/>
    <tag k="addr:street" v="Harbor Road"/>
    <tag k="addr:state" v="VT"/>
    <tag k="ref:vcgi:esiteid" v="221736"/>
  </node>
  <node id="-1392" visible="true" lat="44.38500341" lon="-73.22637961">
    <tag k="addr:city" v="Shelburne"/>
    <tag k="addr:housenumber" v="4966"/>
    <tag k="addr:street" v="Shelburne Road"/>
    <tag k="addr:state" v="VT"/>
    <tag k="ref:vcgi:esiteid" v="221739"/>
  </node>
  <node id="-1398" visible="true" lat="44.38474683" lon="-73.22653844">
    <tag k="addr:city" v="Shelburne"/>
    <tag k="addr:housenumber" v="4980"/>
    <tag k="addr:street" v="Shelburne Road"/>
    <tag k="addr:state" v="VT"/>
    <tag k="ref:vcgi:esiteid" v="221745"/>
  </node>
  <node id="-1399" visible="true" lat="44.38468933" lon="-73.23599243">
    <tag k="addr:city" v="Shelburne"/>
    <tag k="addr:housenumber" v="154"/>
    <tag k="addr:street" v="Turtle Lane"/>
    <tag k="addr:state" v="VT"/>
    <tag k="ref:vcgi:esiteid" v="221746"/>
  </node>
  <node id="-1401" visible="true" lat="44.38442007" lon="-73.24505867">
    <tag k="addr:city" v="Shelburne"/>
    <tag k="addr:housenumber" v="200"/>
    <tag k="addr:street" v="Depot Road"/>
    <tag k="addr:state" v="VT"/>
    <tag k="ref:vcgi:esiteid" v="221748"/>
  </node>
  <node id="-1403" visible="true" lat="44.38435881" lon="-73.24476498">
    <tag k="addr:city" v="Shelburne"/>
    <tag k="addr:housenumber" v="182"/>
    <tag k="addr:street" v="Depot Road"/>
    <tag k="addr:state" v="VT"/>
    <tag k="ref:vcgi:esiteid" v="221750"/>
  </node>
  <node id="-1405" visible="true" lat="44.38419937" lon="-73.24527103">
    <tag k="addr:city" v="Shelburne"/>
    <tag k="addr:housenumber" v="205"/>
    <tag k="addr:street" v="Depot Road"/>
    <tag k="addr:state" v="VT"/>
    <tag k="ref:vcgi:esiteid" v="221752"/>
  </node>
  <node id="-1406" visible="true" lat="44.38402537" lon="-73.24527862">
    <tag k="addr:city" v="Shelburne"/>
    <tag k="addr:housenumber" v="181"/>
    <tag k="addr:street" v="Depot Road"/>
    <tag k="addr:state" v="VT"/>
    <tag k="ref:vcgi:esiteid" v="221753"/>
  </node>
  <node id="-1408" visible="true" lat="44.38410186" lon="-73.23595428">
    <tag k="addr:city" v="Shelburne"/>
    <tag k="addr:housenumber" v="114"/>
    <tag k="addr:street" v="Turtle Lane"/>
    <tag k="addr:state" v="VT"/>
    <tag k="ref:vcgi:esiteid" v="221755"/>
  </node>
  <node id="-1414" visible="true" lat="44.38364791" lon="-73.23697662">
    <tag k="addr:city" v="Shelburne"/>
    <tag k="addr:housenumber" v="81"/>
    <tag k="addr:street" v="Turtle Lane"/>
    <tag k="addr:state" v="VT"/>
    <tag k="ref:vcgi:esiteid" v="221764"/>
  </node>
  <node id="-1416" visible="true" lat="44.38362884" lon="-73.22715759">
    <tag k="addr:city" v="Shelburne"/>
    <tag k="addr:housenumber" v="5070"/>
    <tag k="addr:street" v="Shelburne Road"/>
    <tag k="addr:state" v="VT"/>
    <tag k="ref:vcgi:esiteid" v="221767"/>
  </node>
  <node id="-1419" visible="true" lat="44.38318633" lon="-73.23664855">
    <tag k="addr:city" v="Shelburne"/>
    <tag k="addr:housenumber" v="53"/>
    <tag k="addr:street" v="Turtle Lane"/>
    <tag k="addr:state" v="VT"/>
    <tag k="ref:vcgi:esiteid" v="221774"/>
  </node>
  <node id="-1422" visible="true" lat="44.38314056" lon="-73.22712707">
    <tag k="addr:city" v="Shelburne"/>
    <tag k="addr:housenumber" v="5112"/>
    <tag k="addr:street" v="Shelburne Road"/>
    <tag k="addr:state" v="VT"/>
    <tag k="ref:vcgi:esiteid" v="221777"/>
  </node>
  <node id="-1426" visible="true" lat="44.38303756" lon="-73.22859954">
    <tag k="addr:city" v="Shelburne"/>
    <tag k="addr:housenumber" v="166"/>
    <tag k="addr:street" v="Athletic Drive"/>
    <tag k="addr:state" v="VT"/>
    <tag k="ref:vcgi:esiteid" v="221783"/>
  </node>
  <node id="-1430" visible="true" lat="44.38295364" lon="-73.221138">
    <tag k="addr:city" v="Shelburne"/>
    <tag k="addr:housenumber" v="408"/>
    <tag k="addr:street" v="Shelburnewood Drive"/>
    <tag k="addr:state" v="VT"/>
    <tag k="ref:vcgi:esiteid" v="221789"/>
  </node>
  <node id="-1433" visible="true" lat="44.38276701" lon="-73.22640056">
    <tag k="addr:city" v="Shelburne"/>
    <tag k="addr:housenumber" v="5115"/>
    <tag k="addr:street" v="Shelburne Road"/>
    <tag k="addr:state" v="VT"/>
    <tag k="ref:vcgi:esiteid" v="221792"/>
  </node>
  <node id="-1434" visible="true" lat="44.38280105" lon="-73.22767639">
    <tag k="addr:city" v="Shelburne"/>
    <tag k="addr:housenumber" v="5138"/>
    <tag k="addr:street" v="Shelburne Road"/>
    <tag k="addr:state" v="VT"/>
    <tag k="ref:vcgi:esiteid" v="221794"/>
  </node>
  <node id="-1442" visible="true" lat="44.38240281" lon="-73.22612877">
    <tag k="addr:city" v="Shelburne"/>
    <tag k="addr:housenumber" v="5167"/>
    <tag k="addr:street" v="Shelburne Road"/>
    <tag k="addr:state" v="VT"/>
    <tag k="ref:vcgi:esiteid" v="221806"/>
  </node>
  <node id="-1445" visible="true" lat="44.38242549" lon="-73.22728763">
    <tag k="addr:city" v="Shelburne"/>
    <tag k="addr:housenumber" v="5166"/>
    <tag k="addr:street" v="Shelburne Road"/>
    <tag k="addr:state" v="VT"/>
    <tag k="ref:vcgi:esiteid" v="221810"/>
  </node>
  <node id="-1447" visible="true" lat="44.38228607" lon="-73.22776031">
    <tag k="addr:city" v="Shelburne"/>
    <tag k="addr:housenumber" v="5172"/>
    <tag k="addr:street" v="Shelburne Road"/>
    <tag k="addr:state" v="VT"/>
    <tag k="ref:vcgi:esiteid" v="221812"/>
  </node>
  <node id="-1452" visible="true" lat="44.38211533" lon="-73.22657878">
    <tag k="addr:city" v="Shelburne"/>
    <tag k="addr:housenumber" v="5171"/>
    <tag k="addr:street" v="Shelburne Road"/>
    <tag k="addr:state" v="VT"/>
    <tag k="ref:vcgi:esiteid" v="221819"/>
  </node>
  <node id="-1459" visible="true" lat="44.38198089" lon="-73.22756957">
    <tag k="addr:city" v="Shelburne"/>
    <tag k="addr:housenumber" v="5174"/>
    <tag k="addr:street" v="Shelburne Road"/>
    <tag k="addr:state" v="VT"/>
    <tag k="ref:vcgi:esiteid" v="221826"/>
  </node>
  <node id="-1473" visible="true" lat="44.38177108" lon="-73.22886657">
    <tag k="addr:city" v="Shelburne"/>
    <tag k="addr:housenumber" v="53"/>
    <tag k="addr:street" v="Railroad Lane"/>
    <tag k="addr:state" v="VT"/>
    <tag k="ref:vcgi:esiteid" v="221840"/>
  </node>
  <node id="-1478" visible="true" lat="44.38166427" lon="-73.2335205">
    <tag k="addr:city" v="Shelburne"/>
    <tag k="addr:housenumber" v="303"/>
    <tag k="addr:street" v="Harbor Road"/>
    <tag k="addr:state" v="VT"/>
    <tag k="ref:vcgi:esiteid" v="221846"/>
  </node>
  <node id="-1483" visible="true" lat="44.38161468" lon="-73.22924041">
    <tag k="addr:city" v="Shelburne"/>
    <tag k="addr:housenumber" v="19"/>
    <tag k="addr:street" v="Railroad Lane"/>
    <tag k="addr:state" v="VT"/>
    <tag k="ref:vcgi:esiteid" v="221851"/>
  </node>
  <node id="-1484" visible="true" lat="44.38155365" lon="-73.23723602">
    <tag k="addr:city" v="Shelburne"/>
    <tag k="addr:housenumber" v="56"/>
    <tag k="addr:street" v="School Street"/>
    <tag k="addr:state" v="VT"/>
    <tag k="ref:vcgi:esiteid" v="221852"/>
  </node>
  <node id="-1489" visible="true" lat="44.38159179" lon="-73.22812652">
    <tag k="addr:city" v="Shelburne"/>
    <tag k="addr:housenumber" v="5226"/>
    <tag k="addr:street" v="Shelburne Road"/>
    <tag k="addr:state" v="VT"/>
    <tag k="ref:vcgi:esiteid" v="221857"/>
  </node>
  <node id="-1490" visible="true" lat="44.38158035" lon="-73.22847747">
    <tag k="addr:city" v="Shelburne"/>
    <tag k="addr:housenumber" v="66"/>
    <tag k="addr:street" v="Harbor Road"/>
    <tag k="addr:state" v="VT"/>
    <tag k="ref:vcgi:esiteid" v="221858"/>
  </node>
  <node id="-1491" visible="true" lat="44.38154983" lon="-73.23071289">
    <tag k="addr:city" v="Shelburne"/>
    <tag k="addr:housenumber" v="168"/>
    <tag k="addr:street" v="Harbor Road"/>
    <tag k="addr:state" v="VT"/>
    <tag k="ref:vcgi:esiteid" v="221859"/>
  </node>
  <node id="-1494" visible="true" lat="44.38156275" lon="-73.23275299">
    <tag k="addr:city" v="Shelburne"/>
    <tag k="addr:housenumber" v="261"/>
    <tag k="addr:street" v="Harbor Road"/>
    <tag k="addr:state" v="VT"/>
    <tag k="ref:vcgi:esiteid" v="221862"/>
  </node>
  <node id="-1496" visible="true" lat="44.3814888" lon="-73.2323532">
    <tag k="addr:city" v="Shelburne"/>
    <tag k="addr:housenumber" v="245"/>
    <tag k="addr:street" v="Harbor Road"/>
    <tag k="addr:state" v="VT"/>
    <tag k="ref:vcgi:esiteid" v="221864"/>
  </node>
  <node id="-1498" visible="true" lat="44.3814888" lon="-73.22942352">
    <tag k="addr:city" v="Shelburne"/>
    <tag k="addr:housenumber" v="122"/>
    <tag k="addr:street" v="Harbor Road"/>
    <tag k="addr:state" v="VT"/>
    <tag k="ref:vcgi:esiteid" v="221866"/>
  </node>
  <node id="-1500" visible="true" lat="44.38152473" lon="-73.22900682">
    <tag k="addr:city" v="Shelburne"/>
    <tag k="addr:housenumber" v="31"/>
    <tag k="addr:street" v="Railroad Lane"/>
    <tag k="addr:state" v="VT"/>
    <tag k="ref:vcgi:esiteid" v="221868"/>
  </node>
  <node id="-1501" visible="true" lat="44.38143157" lon="-73.23008727">
    <tag k="addr:city" v="Shelburne"/>
    <tag k="addr:housenumber" v="136"/>
    <tag k="addr:street" v="Harbor Road"/>
    <tag k="addr:state" v="VT"/>
    <tag k="ref:vcgi:esiteid" v="221869"/>
  </node>
  <node id="-1503" visible="true" lat="44.38140487" lon="-73.22774505">
    <tag k="addr:city" v="Shelburne"/>
    <tag k="addr:housenumber" v="5224"/>
    <tag k="addr:street" v="Shelburne Road"/>
    <tag k="addr:state" v="VT"/>
    <tag k="ref:vcgi:esiteid" v="221871"/>
  </node>
  <node id="-1505" visible="true" lat="44.38137942" lon="-73.23200425">
    <tag k="addr:city" v="Shelburne"/>
    <tag k="addr:housenumber" v="221"/>
    <tag k="addr:street" v="Harbor Road"/>
    <tag k="addr:state" v="VT"/>
    <tag k="ref:vcgi:esiteid" v="221874"/>
  </node>
  <node id="-1508" visible="true" lat="44.38131655" lon="-73.2316527">
    <tag k="addr:city" v="Shelburne"/>
    <tag k="addr:housenumber" v="203"/>
    <tag k="addr:street" v="Harbor Road"/>
    <tag k="addr:state" v="VT"/>
    <tag k="ref:vcgi:esiteid" v="221879"/>
  </node>
  <node id="-1511" visible="true" lat="44.38126373" lon="-73.22946167">
    <tag k="addr:city" v="Shelburne"/>
    <tag k="addr:housenumber" v="102"/>
    <tag k="addr:street" v="Harbor Road"/>
    <tag k="addr:state" v="VT"/>
    <tag k="ref:vcgi:esiteid" v="221882"/>
  </node>
  <node id="-1512" visible="true" lat="44.38125228" lon="-73.23134613">
    <tag k="addr:city" v="Shelburne"/>
    <tag k="addr:housenumber" v="193"/>
    <tag k="addr:street" v="Harbor Road"/>
    <tag k="addr:state" v="VT"/>
    <tag k="ref:vcgi:esiteid" v="221883"/>
  </node>
  <node id="-1515" visible="true" lat="44.38123321" lon="-73.22866058">
    <tag k="addr:city" v="Shelburne"/>
    <tag k="addr:housenumber" v="64"/>
    <tag k="addr:street" v="Harbor Road"/>
    <tag k="addr:state" v="VT"/>
    <tag k="ref:vcgi:esiteid" v="221886"/>
  </node>
  <node id="-1517" visible="true" lat="44.38116836" lon="-73.23105621">
    <tag k="addr:city" v="Shelburne"/>
    <tag k="addr:housenumber" v="175"/>
    <tag k="addr:street" v="Harbor Road"/>
    <tag k="addr:state" v="VT"/>
    <tag k="ref:vcgi:esiteid" v="221888"/>
  </node>
  <node id="-1518" visible="true" lat="44.38117218" lon="-73.22922515">
    <tag k="addr:city" v="Shelburne"/>
    <tag k="addr:housenumber" v="9"/>
    <tag k="addr:street" v="Railroad Lane"/>
    <tag k="addr:state" v="VT"/>
    <tag k="ref:vcgi:esiteid" v="221889"/>
  </node>
  <node id="-1519" visible="true" lat="44.38111496" lon="-73.23075103">
    <tag k="addr:city" v="Shelburne"/>
    <tag k="addr:housenumber" v="161"/>
    <tag k="addr:street" v="Harbor Road"/>
    <tag k="addr:state" v="VT"/>
    <tag k="ref:vcgi:esiteid" v="221891"/>
  </node>
  <node id="-1524" visible="true" lat="44.38094558" lon="-73.23111449">
    <tag k="addr:city" v="Shelburne"/>
    <tag k="addr:housenumber" v="177"/>
    <tag k="addr:street" v="Harbor Road"/>
    <tag k="addr:state" v="VT"/>
    <tag k="ref:vcgi:esiteid" v="221898"/>
  </node>
  <node id="-1525" visible="true" lat="44.38093672" lon="-73.23023002">
    <tag k="addr:city" v="Shelburne"/>
    <tag k="addr:housenumber" v="12"/>
    <tag k="addr:street" v="Cottage Lane"/>
    <tag k="addr:state" v="VT"/>
    <tag k="ref:vcgi:esiteid" v="221900"/>
  </node>
  <node id="-1526" visible="true" lat="44.38101577" lon="-73.22865295">
    <tag k="addr:city" v="Shelburne"/>
    <tag k="addr:housenumber" v="60"/>
    <tag k="addr:street" v="Harbor Road"/>
    <tag k="addr:state" v="VT"/>
    <tag k="ref:vcgi:esiteid" v="221901"/>
  </node>
  <node id="-1527" visible="true" lat="44.38100846" lon="-73.22709154">
    <tag k="addr:city" v="Shelburne"/>
    <tag k="addr:housenumber" v="5247"/>
    <tag k="addr:street" v="Shelburne Road"/>
    <tag k="addr:state" v="VT"/>
    <tag k="ref:vcgi:esiteid" v="221902"/>
  </node>
  <node id="-1528" visible="true" lat="44.38098526" lon="-73.2284851">
    <tag k="addr:city" v="Shelburne"/>
    <tag k="addr:housenumber" v="52"/>
    <tag k="addr:street" v="Harbor Road"/>
    <tag k="addr:state" v="VT"/>
    <tag k="ref:vcgi:esiteid" v="221903"/>
  </node>
  <node id="-1529" visible="true" lat="44.38072945" lon="-73.2310722">
    <tag k="addr:city" v="Shelburne"/>
    <tag k="addr:housenumber" v="163"/>
    <tag k="addr:street" v="Harbor Road"/>
    <tag k="addr:state" v="VT"/>
    <tag k="ref:vcgi:esiteid" v="221904"/>
  </node>
  <node id="-1530" visible="true" lat="44.38091278" lon="-73.22805023">
    <tag k="addr:city" v="Shelburne"/>
    <tag k="addr:housenumber" v="30"/>
    <tag k="addr:street" v="Harbor Road"/>
    <tag k="addr:state" v="VT"/>
    <tag k="ref:vcgi:esiteid" v="221905"/>
  </node>
  <node id="-1532" visible="true" lat="44.38068389" lon="-73.23031616">
    <tag k="addr:city" v="Shelburne"/>
    <tag k="addr:housenumber" v="38"/>
    <tag k="addr:street" v="Cottage Lane"/>
    <tag k="addr:state" v="VT"/>
    <tag k="ref:vcgi:esiteid" v="221908"/>
  </node>
  <node id="-1538" visible="true" lat="44.3806991" lon="-73.22876535">
    <tag k="addr:city" v="Shelburne"/>
    <tag k="addr:housenumber" v="61"/>
    <tag k="addr:street" v="Harbor Road"/>
    <tag k="addr:state" v="VT"/>
    <tag k="ref:vcgi:esiteid" v="221914"/>
  </node>
  <node id="-1540" visible="true" lat="44.38060379" lon="-73.22852325">
    <tag k="addr:city" v="Shelburne"/>
    <tag k="addr:housenumber" v="45"/>
    <tag k="addr:street" v="Harbor Road"/>
    <tag k="addr:state" v="VT"/>
    <tag k="ref:vcgi:esiteid" v="221916"/>
  </node>
  <node id="-1543" visible="true" lat="44.38055038" lon="-73.22819518">
    <tag k="addr:city" v="Shelburne"/>
    <tag k="addr:housenumber" v="29"/>
    <tag k="addr:street" v="Harbor Road"/>
    <tag k="addr:state" v="VT"/>
    <tag k="ref:vcgi:esiteid" v="221920"/>
  </node>
  <node id="-1544" visible="true" lat="44.38051223" lon="-73.22782897">
    <tag k="addr:city" v="Shelburne"/>
    <tag k="addr:housenumber" v="5288"/>
    <tag k="addr:street" v="Shelburne Road"/>
    <tag k="addr:state" v="VT"/>
    <tag k="ref:vcgi:esiteid" v="221922"/>
  </node>
  <node id="-1545" visible="true" lat="44.38047409" lon="-73.23053741">
    <tag k="addr:city" v="Shelburne"/>
    <tag k="addr:housenumber" v="50"/>
    <tag k="addr:street" v="Cottage Lane"/>
    <tag k="addr:state" v="VT"/>
    <tag k="ref:vcgi:esiteid" v="221924"/>
  </node>
  <node id="-1549" visible="true" lat="44.38024811" lon="-73.23071377">
    <tag k="addr:city" v="Shelburne"/>
    <tag k="addr:housenumber" v="84"/>
    <tag k="addr:street" v="Village Vale Drive"/>
    <tag k="addr:state" v="VT"/>
    <tag k="ref:vcgi:esiteid" v="221929"/>
  </node>
  <node id="-1552" visible="true" lat="44.38017654" lon="-73.22886657">
    <tag k="addr:city" v="Shelburne"/>
    <tag k="addr:housenumber" v="5302"/>
    <tag k="addr:street" v="Shelburne Road"/>
    <tag k="addr:state" v="VT"/>
    <tag k="ref:vcgi:esiteid" v="221932"/>
  </node>
  <node id="-1555" visible="true" lat="44.38008657" lon="-73.23096731">
    <tag k="addr:city" v="Shelburne"/>
    <tag k="addr:housenumber" v="98"/>
    <tag k="addr:street" v="Village Vale Drive"/>
    <tag k="addr:state" v="VT"/>
    <tag k="ref:vcgi:esiteid" v="221935"/>
  </node>
  <node id="-1560" visible="true" lat="44.37996292" lon="-73.23011779">
    <tag k="addr:city" v="Shelburne"/>
    <tag k="addr:housenumber" v="75"/>
    <tag k="addr:street" v="Village Vale Drive"/>
    <tag k="addr:state" v="VT"/>
    <tag k="ref:vcgi:esiteid" v="221940"/>
  </node>
  <node id="-1561" visible="true" lat="44.37992858" lon="-73.23108673">
    <tag k="addr:city" v="Shelburne"/>
    <tag k="addr:housenumber" v="110"/>
    <tag k="addr:street" v="Village Vale Drive"/>
    <tag k="addr:state" v="VT"/>
    <tag k="ref:vcgi:esiteid" v="221942"/>
  </node>
  <node id="-1562" visible="true" lat="44.38002001" lon="-73.22812492">
    <tag k="addr:city" v="Shelburne"/>
    <tag k="addr:housenumber" v="5332"/>
    <tag k="addr:street" v="Shelburne Road"/>
    <tag k="addr:state" v="VT"/>
    <tag k="ref:vcgi:esiteid" v="221943"/>
  </node>
  <node id="-1564" visible="true" lat="44.37985742" lon="-73.22740775">
    <tag k="addr:city" v="Shelburne"/>
    <tag k="addr:housenumber" v="54"/>
    <tag k="addr:street" v="Falls Road"/>
    <tag k="addr:state" v="VT"/>
    <tag k="ref:vcgi:esiteid" v="221945"/>
  </node>
  <node id="-1565" visible="true" lat="44.37987441" lon="-73.22688908">
    <tag k="addr:city" v="Shelburne"/>
    <tag k="addr:housenumber" v="65"/>
    <tag k="addr:street" v="Falls Road"/>
    <tag k="addr:state" v="VT"/>
    <tag k="ref:vcgi:esiteid" v="221946"/>
  </node>
  <node id="-1566" visible="true" lat="44.37979888" lon="-73.2304306">
    <tag k="addr:city" v="Shelburne"/>
    <tag k="addr:housenumber" v="95"/>
    <tag k="addr:street" v="Village Vale Drive"/>
    <tag k="addr:state" v="VT"/>
    <tag k="ref:vcgi:esiteid" v="221947"/>
  </node>
  <node id="-1567" visible="true" lat="44.37973022" lon="-73.23675537">
    <tag k="addr:city" v="Shelburne"/>
    <tag k="addr:housenumber" v="12"/>
    <tag k="addr:street" v="Davis Avenue"/>
    <tag k="addr:state" v="VT"/>
    <tag k="ref:vcgi:esiteid" v="221948"/>
  </node>
  <node id="-1568" visible="true" lat="44.37968444" lon="-73.24047851">
    <tag k="addr:city" v="Shelburne"/>
    <tag k="addr:housenumber" v="194"/>
    <tag k="addr:street" v="Davis Avenue"/>
    <tag k="addr:state" v="VT"/>
    <tag k="ref:vcgi:esiteid" v="221949"/>
  </node>
  <node id="-1569" visible="true" lat="44.37969207" lon="-73.23725128">
    <tag k="addr:city" v="Shelburne"/>
    <tag k="addr:housenumber" v="30"/>
    <tag k="addr:street" v="Davis Avenue"/>
    <tag k="addr:state" v="VT"/>
    <tag k="ref:vcgi:esiteid" v="221950"/>
  </node>
  <node id="-1570" visible="true" lat="44.37966918" lon="-73.23135376">
    <tag k="addr:city" v="Shelburne"/>
    <tag k="addr:housenumber" v="130"/>
    <tag k="addr:street" v="Village Vale Drive"/>
    <tag k="addr:state" v="VT"/>
    <tag k="ref:vcgi:esiteid" v="221951"/>
  </node>
  <node id="-1571" visible="true" lat="44.37966918" lon="-73.22684478">
    <tag k="addr:city" v="Shelburne"/>
    <tag k="addr:housenumber" v="77"/>
    <tag k="addr:street" v="Falls Road"/>
    <tag k="addr:state" v="VT"/>
    <tag k="ref:vcgi:esiteid" v="221952"/>
  </node>
  <node id="-1572" visible="true" lat="44.37959289" lon="-73.23776245">
    <tag k="addr:city" v="Shelburne"/>
    <tag k="addr:housenumber" v="56"/>
    <tag k="addr:street" v="Davis Avenue"/>
    <tag k="addr:state" v="VT"/>
    <tag k="ref:vcgi:esiteid" v="221953"/>
  </node>
  <node id="-1573" visible="true" lat="44.37969385" lon="-73.22875447">
    <tag k="addr:city" v="Shelburne"/>
    <tag k="addr:housenumber" v="5376"/>
    <tag k="addr:street" v="Shelburne Road"/>
    <tag k="addr:state" v="VT"/>
    <tag k="ref:vcgi:esiteid" v="221955"/>
  </node>
  <node id="-1574" visible="true" lat="44.37951846" lon="-73.2276126">
    <tag k="addr:city" v="Shelburne"/>
    <tag k="addr:housenumber" v="5347"/>
    <tag k="addr:street" v="Shelburne Road"/>
    <tag k="addr:state" v="VT"/>
    <tag k="ref:vcgi:esiteid" v="221956"/>
  </node>
  <node id="-1575" visible="true" lat="44.37955856" lon="-73.2306137">
    <tag k="addr:city" v="Shelburne"/>
    <tag k="addr:housenumber" v="121"/>
    <tag k="addr:street" v="Village Vale Drive"/>
    <tag k="addr:state" v="VT"/>
    <tag k="ref:vcgi:esiteid" v="221957"/>
  </node>
  <node id="-1576" visible="true" lat="44.37945938" lon="-73.23979949">
    <tag k="addr:city" v="Shelburne"/>
    <tag k="addr:housenumber" v="172"/>
    <tag k="addr:street" v="Davis Avenue"/>
    <tag k="addr:state" v="VT"/>
    <tag k="ref:vcgi:esiteid" v="221959"/>
  </node>
  <node id="-1577" visible="true" lat="44.37946319" lon="-73.2272644">
    <tag k="addr:city" v="Shelburne"/>
    <tag k="addr:housenumber" v="86"/>
    <tag k="addr:street" v="Falls Road"/>
    <tag k="addr:state" v="VT"/>
    <tag k="ref:vcgi:esiteid" v="221960"/>
  </node>
  <node id="-1578" visible="true" lat="44.37954973" lon="-73.22922672">
    <tag k="addr:city" v="Shelburne"/>
    <tag k="addr:housenumber" v="5380"/>
    <tag k="addr:street" v="Shelburne Road"/>
    <tag k="addr:state" v="VT"/>
    <tag k="ref:vcgi:esiteid" v="221961"/>
  </node>
  <node id="-1579" visible="true" lat="44.37934875" lon="-73.2387619">
    <tag k="addr:city" v="Shelburne"/>
    <tag k="addr:housenumber" v="112"/>
    <tag k="addr:street" v="Davis Avenue"/>
    <tag k="addr:state" v="VT"/>
    <tag k="ref:vcgi:esiteid" v="221962"/>
  </node>
  <node id="-1580" visible="true" lat="44.37945919" lon="-73.23834391">
    <tag k="addr:city" v="Shelburne"/>
    <tag k="addr:housenumber" v="82"/>
    <tag k="addr:street" v="Davis Avenue"/>
    <tag k="addr:state" v="VT"/>
    <tag k="ref:vcgi:esiteid" v="221963"/>
  </node>
  <node id="-1581" visible="true" lat="44.37932968" lon="-73.23925018">
    <tag k="addr:city" v="Shelburne"/>
    <tag k="addr:housenumber" v="136"/>
    <tag k="addr:street" v="Davis Avenue"/>
    <tag k="addr:state" v="VT"/>
    <tag k="ref:vcgi:esiteid" v="221964"/>
  </node>
  <node id="-1582" visible="true" lat="44.37936789" lon="-73.22665178">
    <tag k="addr:city" v="Shelburne"/>
    <tag k="addr:housenumber" v="97"/>
    <tag k="addr:street" v="Falls Road"/>
    <tag k="addr:state" v="VT"/>
    <tag k="ref:vcgi:esiteid" v="221965"/>
  </node>
  <node id="-1583" visible="true" lat="44.37923431" lon="-73.24077606">
    <tag k="addr:city" v="Shelburne"/>
    <tag k="addr:housenumber" v="241"/>
    <tag k="addr:street" v="Fletcher Lane"/>
    <tag k="addr:state" v="VT"/>
    <tag k="ref:vcgi:esiteid" v="221966"/>
  </node>
  <node id="-1585" visible="true" lat="44.37923812" lon="-73.23701477">
    <tag k="addr:city" v="Shelburne"/>
    <tag k="addr:housenumber" v="25"/>
    <tag k="addr:street" v="Davis Avenue"/>
    <tag k="addr:state" v="VT"/>
    <tag k="ref:vcgi:esiteid" v="221969"/>
  </node>
  <node id="-1586" visible="true" lat="44.37924575" lon="-73.23131561">
    <tag k="addr:city" v="Shelburne"/>
    <tag k="addr:housenumber" v="140"/>
    <tag k="addr:street" v="Village Vale Drive"/>
    <tag k="addr:state" v="VT"/>
    <tag k="ref:vcgi:esiteid" v="221970"/>
  </node>
  <node id="-1587" visible="true" lat="44.37913967" lon="-73.22771928">
    <tag k="addr:city" v="Shelburne"/>
    <tag k="addr:housenumber" v="5373"/>
    <tag k="addr:street" v="Shelburne Road"/>
    <tag k="addr:state" v="VT"/>
    <tag k="ref:vcgi:esiteid" v="221971"/>
  </node>
  <node id="-1588" visible="true" lat="44.37915801" lon="-73.23757934">
    <tag k="addr:city" v="Shelburne"/>
    <tag k="addr:housenumber" v="57"/>
    <tag k="addr:street" v="Davis Avenue"/>
    <tag k="addr:state" v="VT"/>
    <tag k="ref:vcgi:esiteid" v="221972"/>
  </node>
  <node id="-1589" visible="true" lat="44.37919616" lon="-73.23085784">
    <tag k="addr:city" v="Shelburne"/>
    <tag k="addr:housenumber" v="141"/>
    <tag k="addr:street" v="Village Vale Drive"/>
    <tag k="addr:state" v="VT"/>
    <tag k="ref:vcgi:esiteid" v="221973"/>
  </node>
  <node id="-1590" visible="true" lat="44.37914276" lon="-73.23612213">
    <tag k="addr:city" v="Shelburne"/>
    <tag k="addr:housenumber" v="21"/>
    <tag k="addr:street" v="Stokes Lane"/>
    <tag k="addr:state" v="VT"/>
    <tag k="ref:vcgi:esiteid" v="221974"/>
  </node>
  <node id="-1591" visible="true" lat="44.37905502" lon="-73.23802185">
    <tag k="addr:city" v="Shelburne"/>
    <tag k="addr:housenumber" v="81"/>
    <tag k="addr:street" v="Davis Avenue"/>
    <tag k="addr:state" v="VT"/>
    <tag k="ref:vcgi:esiteid" v="221975"/>
  </node>
  <node id="-1593" visible="true" lat="44.37895202" lon="-73.24022674">
    <tag k="addr:city" v="Shelburne"/>
    <tag k="addr:housenumber" v="236"/>
    <tag k="addr:street" v="Fletcher Lane"/>
    <tag k="addr:state" v="VT"/>
    <tag k="ref:vcgi:esiteid" v="221977"/>
  </node>
  <node id="-1594" visible="true" lat="44.37893676" lon="-73.23844909">
    <tag k="addr:city" v="Shelburne"/>
    <tag k="addr:housenumber" v="101"/>
    <tag k="addr:street" v="Davis Avenue"/>
    <tag k="addr:state" v="VT"/>
    <tag k="ref:vcgi:esiteid" v="221978"/>
  </node>
  <node id="-1595" visible="true" lat="44.37890243" lon="-73.2409439">
    <tag k="addr:city" v="Shelburne"/>
    <tag k="addr:housenumber" v="215"/>
    <tag k="addr:street" v="Fletcher Lane"/>
    <tag k="addr:state" v="VT"/>
    <tag k="ref:vcgi:esiteid" v="221979"/>
  </node>
  <node id="-1596" visible="true" lat="44.37893295" lon="-73.23589324">
    <tag k="addr:city" v="Shelburne"/>
    <tag k="addr:housenumber" v="37"/>
    <tag k="addr:street" v="Stokes Lane"/>
    <tag k="addr:state" v="VT"/>
    <tag k="ref:vcgi:esiteid" v="221980"/>
  </node>
  <node id="-1597" visible="true" lat="44.37891006" lon="-73.23887634">
    <tag k="addr:city" v="Shelburne"/>
    <tag k="addr:housenumber" v="119"/>
    <tag k="addr:street" v="Davis Avenue"/>
    <tag k="addr:state" v="VT"/>
    <tag k="ref:vcgi:esiteid" v="221981"/>
  </node>
  <node id="-1598" visible="true" lat="44.37903888" lon="-73.22715066">
    <tag k="addr:city" v="Shelburne"/>
    <tag k="addr:housenumber" v="120"/>
    <tag k="addr:street" v="Falls Road"/>
    <tag k="addr:state" v="VT"/>
    <tag k="ref:vcgi:esiteid" v="221982"/>
  </node>
  <node id="-1599" visible="true" lat="44.37887573" lon="-73.23950958">
    <tag k="addr:city" v="Shelburne"/>
    <tag k="addr:housenumber" v="149"/>
    <tag k="addr:street" v="Davis Avenue"/>
    <tag k="addr:state" v="VT"/>
    <tag k="ref:vcgi:esiteid" v="221983"/>
  </node>
  <node id="-1602" visible="true" lat="44.37878478" lon="-73.22785336">
    <tag k="addr:city" v="Shelburne"/>
    <tag k="addr:housenumber" v="5397"/>
    <tag k="addr:street" v="Shelburne Road"/>
    <tag k="addr:state" v="VT"/>
    <tag k="ref:vcgi:esiteid" v="221986"/>
  </node>
  <node id="-1605" visible="true" lat="44.37864991" lon="-73.2271582">
    <tag k="addr:city" v="Shelburne"/>
    <tag k="addr:housenumber" v="138"/>
    <tag k="addr:street" v="Falls Road"/>
    <tag k="addr:state" v="VT"/>
    <tag k="ref:vcgi:esiteid" v="221989"/>
  </node>
  <node id="-1606" visible="true" lat="44.37868118" lon="-73.23558807">
    <tag k="addr:city" v="Shelburne"/>
    <tag k="addr:housenumber" v="61"/>
    <tag k="addr:street" v="Stokes Lane"/>
    <tag k="addr:state" v="VT"/>
    <tag k="ref:vcgi:esiteid" v="221990"/>
  </node>
  <node id="-1607" visible="true" lat="44.37866973" lon="-73.23646545">
    <tag k="addr:city" v="Shelburne"/>
    <tag k="addr:housenumber" v="32"/>
    <tag k="addr:street" v="Stokes Lane"/>
    <tag k="addr:state" v="VT"/>
    <tag k="ref:vcgi:esiteid" v="221991"/>
  </node>
  <node id="-1609" visible="true" lat="44.37862396" lon="-73.24047088">
    <tag k="addr:city" v="Shelburne"/>
    <tag k="addr:housenumber" v="208"/>
    <tag k="addr:street" v="Fletcher Lane"/>
    <tag k="addr:state" v="VT"/>
    <tag k="ref:vcgi:esiteid" v="221993"/>
  </node>
  <node id="-1610" visible="true" lat="44.37870187" lon="-73.22653801">
    <tag k="addr:city" v="Shelburne"/>
    <tag k="addr:housenumber" v="145"/>
    <tag k="addr:street" v="Falls Road"/>
    <tag k="addr:state" v="VT"/>
    <tag k="ref:vcgi:esiteid" v="221994"/>
  </node>
  <node id="-1611" visible="true" lat="44.37860107" lon="-73.24116516">
    <tag k="addr:city" v="Shelburne"/>
    <tag k="addr:housenumber" v="193"/>
    <tag k="addr:street" v="Fletcher Lane"/>
    <tag k="addr:state" v="VT"/>
    <tag k="ref:vcgi:esiteid" v="221995"/>
  </node>
  <node id="-1613" visible="true" lat="44.37849426" lon="-73.24001312">
    <tag k="addr:city" v="Shelburne"/>
    <tag k="addr:housenumber" v="148"/>
    <tag k="addr:street" v="Fletcher Lane"/>
    <tag k="addr:state" v="VT"/>
    <tag k="ref:vcgi:esiteid" v="221997"/>
  </node>
  <node id="-1614" visible="true" lat="44.37852784" lon="-73.23178901">
    <tag k="addr:city" v="Shelburne"/>
    <tag k="addr:housenumber" v="393"/>
    <tag k="addr:street" v="Tracy Lane"/>
    <tag k="addr:state" v="VT"/>
    <tag k="ref:vcgi:esiteid" v="221998"/>
  </node>
  <node id="-1615" visible="true" lat="44.37842559" lon="-73.2390747">
    <tag k="addr:city" v="Shelburne"/>
    <tag k="addr:housenumber" v="92"/>
    <tag k="addr:street" v="Fletcher Lane"/>
    <tag k="addr:state" v="VT"/>
    <tag k="ref:vcgi:esiteid" v="221999"/>
  </node>
  <node id="-1616" visible="true" lat="44.37842941" lon="-73.23532867">
    <tag k="addr:city" v="Shelburne"/>
    <tag k="addr:housenumber" v="81"/>
    <tag k="addr:street" v="Stokes Lane"/>
    <tag k="addr:state" v="VT"/>
    <tag k="ref:vcgi:esiteid" v="222000"/>
  </node>
  <node id="-1617" visible="true" lat="44.37836837" lon="-73.2395401">
    <tag k="addr:city" v="Shelburne"/>
    <tag k="addr:housenumber" v="116"/>
    <tag k="addr:street" v="Fletcher Lane"/>
    <tag k="addr:state" v="VT"/>
    <tag k="ref:vcgi:esiteid" v="222001"/>
  </node>
  <node id="-1619" visible="true" lat="44.37837219" lon="-73.23821258">
    <tag k="addr:city" v="Shelburne"/>
    <tag k="addr:housenumber" v="50"/>
    <tag k="addr:street" v="Fletcher Lane"/>
    <tag k="addr:state" v="VT"/>
    <tag k="ref:vcgi:esiteid" v="222003"/>
  </node>
  <node id="-1620" visible="true" lat="44.378376" lon="-73.2361679">
    <tag k="addr:city" v="Shelburne"/>
    <tag k="addr:housenumber" v="58"/>
    <tag k="addr:street" v="Stokes Lane"/>
    <tag k="addr:state" v="VT"/>
    <tag k="ref:vcgi:esiteid" v="222004"/>
  </node>
  <node id="-1621" visible="true" lat="44.37835693" lon="-73.23782348">
    <tag k="addr:city" v="Shelburne"/>
    <tag k="addr:housenumber" v="34"/>
    <tag k="addr:street" v="Fletcher Lane"/>
    <tag k="addr:state" v="VT"/>
    <tag k="ref:vcgi:esiteid" v="222005"/>
  </node>
  <node id="-1622" visible="true" lat="44.37841033" lon="-73.22647857">
    <tag k="addr:city" v="Shelburne"/>
    <tag k="addr:housenumber" v="165"/>
    <tag k="addr:street" v="Falls Road"/>
    <tag k="addr:state" v="VT"/>
    <tag k="ref:vcgi:esiteid" v="222006"/>
  </node>
  <node id="-1623" visible="true" lat="44.37833022" lon="-73.23857879">
    <tag k="addr:city" v="Shelburne"/>
    <tag k="addr:housenumber" v="68"/>
    <tag k="addr:street" v="Fletcher Lane"/>
    <tag k="addr:state" v="VT"/>
    <tag k="ref:vcgi:esiteid" v="222007"/>
  </node>
  <node id="-1624" visible="true" lat="44.37830352" lon="-73.23738098">
    <tag k="addr:city" v="Shelburne"/>
    <tag k="addr:housenumber" v="12"/>
    <tag k="addr:street" v="Fletcher Lane"/>
    <tag k="addr:state" v="VT"/>
    <tag k="ref:vcgi:esiteid" v="222009"/>
  </node>
  <node id="-1625" visible="true" lat="44.37841811" lon="-73.23255202">
    <tag k="addr:city" v="Shelburne"/>
    <tag k="addr:housenumber" v="359"/>
    <tag k="addr:street" v="Tracy Lane"/>
    <tag k="addr:state" v="VT"/>
    <tag k="ref:vcgi:esiteid" v="222010"/>
  </node>
  <node id="-1627" visible="true" lat="44.37819484" lon="-73.23153076">
    <tag k="addr:city" v="Shelburne"/>
    <tag k="addr:housenumber" v="392"/>
    <tag k="addr:street" v="Tracy Lane"/>
    <tag k="addr:state" v="VT"/>
    <tag k="ref:vcgi:esiteid" v="222012"/>
  </node>
  <node id="-1628" visible="true" lat="44.37818145" lon="-73.24127197">
    <tag k="addr:city" v="Shelburne"/>
    <tag k="addr:housenumber" v="185"/>
    <tag k="addr:street" v="Fletcher Lane"/>
    <tag k="addr:state" v="VT"/>
    <tag k="ref:vcgi:esiteid" v="222014"/>
  </node>
  <node id="-1629" visible="true" lat="44.37820434" lon="-73.23511505">
    <tag k="addr:city" v="Shelburne"/>
    <tag k="addr:housenumber" v="101"/>
    <tag k="addr:street" v="Stokes Lane"/>
    <tag k="addr:state" v="VT"/>
    <tag k="ref:vcgi:esiteid" v="222015"/>
  </node>
  <node id="-1630" visible="true" lat="44.3781486" lon="-73.23297518">
    <tag k="addr:city" v="Shelburne"/>
    <tag k="addr:housenumber" v="347"/>
    <tag k="addr:street" v="Tracy Lane"/>
    <tag k="addr:state" v="VT"/>
    <tag k="ref:vcgi:esiteid" v="222018"/>
  </node>
  <node id="-1631" visible="true" lat="44.37820815" lon="-73.22636413">
    <tag k="addr:city" v="Shelburne"/>
    <tag k="addr:housenumber" v="181"/>
    <tag k="addr:street" v="Falls Road"/>
    <tag k="addr:state" v="VT"/>
    <tag k="ref:vcgi:esiteid" v="222019"/>
  </node>
  <node id="-1636" visible="true" lat="44.37802505" lon="-73.24039459">
    <tag k="addr:city" v="Shelburne"/>
    <tag k="addr:housenumber" v="155"/>
    <tag k="addr:street" v="Fletcher Lane"/>
    <tag k="addr:state" v="VT"/>
    <tag k="ref:vcgi:esiteid" v="222024"/>
  </node>
  <node id="-1641" visible="true" lat="44.37794113" lon="-73.23806762">
    <tag k="addr:city" v="Shelburne"/>
    <tag k="addr:housenumber" v="45"/>
    <tag k="addr:street" v="Fletcher Lane"/>
    <tag k="addr:state" v="VT"/>
    <tag k="ref:vcgi:esiteid" v="222030"/>
  </node>
  <node id="-1642" visible="true" lat="44.37793731" lon="-73.23852539">
    <tag k="addr:city" v="Shelburne"/>
    <tag k="addr:housenumber" v="67"/>
    <tag k="addr:street" v="Fletcher Lane"/>
    <tag k="addr:state" v="VT"/>
    <tag k="ref:vcgi:esiteid" v="222031"/>
  </node>
  <node id="-1645" visible="true" lat="44.37800598" lon="-73.22631836">
    <tag k="addr:city" v="Shelburne"/>
    <tag k="addr:housenumber" v="195"/>
    <tag k="addr:street" v="Falls Road"/>
    <tag k="addr:state" v="VT"/>
    <tag k="ref:vcgi:esiteid" v="222034"/>
  </node>
  <node id="-1646" visible="true" lat="44.37794494" lon="-73.23470306">
    <tag k="addr:city" v="Shelburne"/>
    <tag k="addr:housenumber" v="131"/>
    <tag k="addr:street" v="Stokes Lane"/>
    <tag k="addr:state" v="VT"/>
    <tag k="ref:vcgi:esiteid" v="222035"/>
  </node>
  <node id="-1647" visible="true" lat="44.37788772" lon="-73.23945617">
    <tag k="addr:city" v="Shelburne"/>
    <tag k="addr:housenumber" v="113"/>
    <tag k="addr:street" v="Fletcher Lane"/>
    <tag k="addr:state" v="VT"/>
    <tag k="ref:vcgi:esiteid" v="222036"/>
  </node>
  <node id="-1648" visible="true" lat="44.37791442" lon="-73.23563385">
    <tag k="addr:city" v="Shelburne"/>
    <tag k="addr:housenumber" v="98"/>
    <tag k="addr:street" v="Stokes Lane"/>
    <tag k="addr:state" v="VT"/>
    <tag k="ref:vcgi:esiteid" v="222037"/>
  </node>
  <node id="-1650" visible="true" lat="44.37789153" lon="-73.23761749">
    <tag k="addr:city" v="Shelburne"/>
    <tag k="addr:housenumber" v="15"/>
    <tag k="addr:street" v="Fletcher Lane"/>
    <tag k="addr:state" v="VT"/>
    <tag k="ref:vcgi:esiteid" v="222039"/>
  </node>
  <node id="-1651" visible="true" lat="44.37787246" lon="-73.24006652">
    <tag k="addr:city" v="Shelburne"/>
    <tag k="addr:housenumber" v="141"/>
    <tag k="addr:street" v="Fletcher Lane"/>
    <tag k="addr:state" v="VT"/>
    <tag k="ref:vcgi:esiteid" v="222040"/>
  </node>
  <node id="-1653" visible="true" lat="44.3778084" lon="-73.23198118">
    <tag k="addr:city" v="Shelburne"/>
    <tag k="addr:housenumber" v="374"/>
    <tag k="addr:street" v="Tracy Lane"/>
    <tag k="addr:state" v="VT"/>
    <tag k="ref:vcgi:esiteid" v="222042"/>
  </node>
  <node id="-1654" visible="true" lat="44.37786483" lon="-73.2390213">
    <tag k="addr:city" v="Shelburne"/>
    <tag k="addr:housenumber" v="91"/>
    <tag k="addr:street" v="Fletcher Lane"/>
    <tag k="addr:state" v="VT"/>
    <tag k="ref:vcgi:esiteid" v="222043"/>
  </node>
  <node id="-1657" visible="true" lat="44.37784957" lon="-73.23299407">
    <tag k="addr:city" v="Shelburne"/>
    <tag k="addr:housenumber" v="339"/>
    <tag k="addr:street" v="Tracy Lane"/>
    <tag k="addr:state" v="VT"/>
    <tag k="ref:vcgi:esiteid" v="222046"/>
  </node>
  <node id="-1658" visible="true" lat="44.37779235" lon="-73.23438262">
    <tag k="addr:city" v="Shelburne"/>
    <tag k="addr:housenumber" v="151"/>
    <tag k="addr:street" v="Stokes Lane"/>
    <tag k="addr:state" v="VT"/>
    <tag k="ref:vcgi:esiteid" v="222047"/>
  </node>
  <node id="-1659" visible="true" lat="44.37766643" lon="-73.22799642">
    <tag k="addr:city" v="Shelburne"/>
    <tag k="addr:housenumber" v="30"/>
    <tag k="addr:street" v="Church Street"/>
    <tag k="addr:state" v="VT"/>
    <tag k="ref:vcgi:esiteid" v="222048"/>
  </node>
  <node id="-1660" visible="true" lat="44.37778472" lon="-73.22634887">
    <tag k="addr:city" v="Shelburne"/>
    <tag k="addr:housenumber" v="209"/>
    <tag k="addr:street" v="Falls Road"/>
    <tag k="addr:state" v="VT"/>
    <tag k="ref:vcgi:esiteid" v="222049"/>
  </node>
  <node id="-1662" visible="true" lat="44.3775656" lon="-73.23224607">
    <tag k="addr:city" v="Shelburne"/>
    <tag k="addr:housenumber" v="330"/>
    <tag k="addr:street" v="Tracy Lane"/>
    <tag k="addr:state" v="VT"/>
    <tag k="ref:vcgi:esiteid" v="222051"/>
  </node>
  <node id="-1664" visible="true" lat="44.3776474" lon="-73.23519134">
    <tag k="addr:city" v="Shelburne"/>
    <tag k="addr:housenumber" v="124"/>
    <tag k="addr:street" v="Stokes Lane"/>
    <tag k="addr:state" v="VT"/>
    <tag k="ref:vcgi:esiteid" v="222053"/>
  </node>
  <node id="-1665" visible="true" lat="44.37760162" lon="-73.23617553">
    <tag k="addr:city" v="Shelburne"/>
    <tag k="addr:housenumber" v="57"/>
    <tag k="addr:street" v="Tracy Lane"/>
    <tag k="addr:state" v="VT"/>
    <tag k="ref:vcgi:esiteid" v="222055"/>
  </node>
  <node id="-1668" visible="true" lat="44.3775978" lon="-73.23393249">
    <tag k="addr:city" v="Shelburne"/>
    <tag k="addr:housenumber" v="179"/>
    <tag k="addr:street" v="Stokes Lane"/>
    <tag k="addr:state" v="VT"/>
    <tag k="ref:vcgi:esiteid" v="222058"/>
  </node>
  <node id="-1671" visible="true" lat="44.37751007" lon="-73.23348236">
    <tag k="addr:city" v="Shelburne"/>
    <tag k="addr:housenumber" v="205"/>
    <tag k="addr:street" v="Stokes Lane"/>
    <tag k="addr:state" v="VT"/>
    <tag k="ref:vcgi:esiteid" v="222061"/>
  </node>
  <node id="-1672" visible="true" lat="44.37746048" lon="-73.23477935">
    <tag k="addr:city" v="Shelburne"/>
    <tag k="addr:housenumber" v="148"/>
    <tag k="addr:street" v="Stokes Lane"/>
    <tag k="addr:state" v="VT"/>
    <tag k="ref:vcgi:esiteid" v="222062"/>
  </node>
  <node id="-1673" visible="true" lat="44.37741851" lon="-73.23313903">
    <tag k="addr:city" v="Shelburne"/>
    <tag k="addr:housenumber" v="223"/>
    <tag k="addr:street" v="Stokes Lane"/>
    <tag k="addr:state" v="VT"/>
    <tag k="ref:vcgi:esiteid" v="222063"/>
  </node>
  <node id="-1674" visible="true" lat="44.37796252" lon="-73.13705644">
    <tag k="addr:city" v="Shelburne"/>
    <tag k="addr:housenumber" v="2352"/>
    <tag k="addr:street" v="Pond Road"/>
    <tag k="addr:state" v="VT"/>
    <tag k="ref:vcgi:esiteid" v="222064"/>
  </node>
  <node id="-1675" visible="true" lat="44.37728578" lon="-73.23251321">
    <tag k="addr:city" v="Shelburne"/>
    <tag k="addr:housenumber" v="312"/>
    <tag k="addr:street" v="Tracy Lane"/>
    <tag k="addr:state" v="VT"/>
    <tag k="ref:vcgi:esiteid" v="222066"/>
  </node>
  <node id="-1676" visible="true" lat="44.37744903" lon="-73.22615814">
    <tag k="addr:city" v="Shelburne"/>
    <tag k="addr:housenumber" v="233"/>
    <tag k="addr:street" v="Falls Road"/>
    <tag k="addr:state" v="VT"/>
    <tag k="ref:vcgi:esiteid" v="222067"/>
  </node>
  <node id="-1677" visible="true" lat="44.37737274" lon="-73.23674774">
    <tag k="addr:city" v="Shelburne"/>
    <tag k="addr:housenumber" v="52"/>
    <tag k="addr:street" v="Tracy Lane"/>
    <tag k="addr:state" v="VT"/>
    <tag k="ref:vcgi:esiteid" v="222068"/>
  </node>
  <node id="-1680" visible="true" lat="44.37731933" lon="-73.23584747">
    <tag k="addr:city" v="Shelburne"/>
    <tag k="addr:housenumber" v="87"/>
    <tag k="addr:street" v="Tracy Lane"/>
    <tag k="addr:state" v="VT"/>
    <tag k="ref:vcgi:esiteid" v="222071"/>
  </node>
  <node id="-1681" visible="true" lat="44.37737655" lon="-73.22667694">
    <tag k="addr:city" v="Shelburne"/>
    <tag k="addr:housenumber" v="98"/>
    <tag k="addr:street" v="Church Street"/>
    <tag k="addr:state" v="VT"/>
    <tag k="ref:vcgi:esiteid" v="222072"/>
  </node>
  <node id="-1684" visible="true" lat="44.37735456" lon="-73.24084944">
    <tag k="addr:city" v="Shelburne"/>
    <tag k="addr:housenumber" v="160"/>
    <tag k="addr:street" v="Heritage Lane"/>
    <tag k="addr:state" v="VT"/>
    <tag k="ref:vcgi:esiteid" v="222075"/>
  </node>
  <node id="-1685" visible="true" lat="44.37721252" lon="-73.24048614">
    <tag k="addr:city" v="Shelburne"/>
    <tag k="addr:housenumber" v="142"/>
    <tag k="addr:street" v="Heritage Lane"/>
    <tag k="addr:state" v="VT"/>
    <tag k="ref:vcgi:esiteid" v="222076"/>
  </node>
  <node id="-1686" visible="true" lat="44.37723922" lon="-73.23441314">
    <tag k="addr:city" v="Shelburne"/>
    <tag k="addr:housenumber" v="168"/>
    <tag k="addr:street" v="Stokes Lane"/>
    <tag k="addr:state" v="VT"/>
    <tag k="ref:vcgi:esiteid" v="222077"/>
  </node>
  <node id="-1687" visible="true" lat="44.37730634" lon="-73.23787477">
    <tag k="addr:city" v="Shelburne"/>
    <tag k="addr:housenumber" v="10"/>
    <tag k="addr:street" v="Heritage Lane"/>
    <tag k="addr:state" v="VT"/>
    <tag k="ref:vcgi:esiteid" v="222078"/>
  </node>
  <node id="-1688" visible="true" lat="44.3772949" lon="-73.23899629">
    <tag k="addr:city" v="Shelburne"/>
    <tag k="addr:housenumber" v="64"/>
    <tag k="addr:street" v="Heritage Lane"/>
    <tag k="addr:state" v="VT"/>
    <tag k="ref:vcgi:esiteid" v="222079"/>
  </node>
  <node id="-1689" visible="true" lat="44.37729871" lon="-73.23821046">
    <tag k="addr:city" v="Shelburne"/>
    <tag k="addr:housenumber" v="26"/>
    <tag k="addr:street" v="Heritage Lane"/>
    <tag k="addr:state" v="VT"/>
    <tag k="ref:vcgi:esiteid" v="222080"/>
  </node>
  <node id="-1690" visible="true" lat="44.37719345" lon="-73.23976898">
    <tag k="addr:city" v="Shelburne"/>
    <tag k="addr:housenumber" v="106"/>
    <tag k="addr:street" v="Heritage Lane"/>
    <tag k="addr:state" v="VT"/>
    <tag k="ref:vcgi:esiteid" v="222081"/>
  </node>
  <node id="-1691" visible="true" lat="44.37718963" lon="-73.24005127">
    <tag k="addr:city" v="Shelburne"/>
    <tag k="addr:housenumber" v="120"/>
    <tag k="addr:street" v="Heritage Lane"/>
    <tag k="addr:state" v="VT"/>
    <tag k="ref:vcgi:esiteid" v="222082"/>
  </node>
  <node id="-1693" visible="true" lat="44.37727583" lon="-73.23857667">
    <tag k="addr:city" v="Shelburne"/>
    <tag k="addr:housenumber" v="44"/>
    <tag k="addr:street" v="Heritage Lane"/>
    <tag k="addr:state" v="VT"/>
    <tag k="ref:vcgi:esiteid" v="222084"/>
  </node>
  <node id="-1694" visible="true" lat="44.37726057" lon="-73.23941591">
    <tag k="addr:city" v="Shelburne"/>
    <tag k="addr:housenumber" v="86"/>
    <tag k="addr:street" v="Heritage Lane"/>
    <tag k="addr:state" v="VT"/>
    <tag k="ref:vcgi:esiteid" v="222085"/>
  </node>
  <node id="-1695" visible="true" lat="44.37720975" lon="-73.24127025">
    <tag k="addr:city" v="Shelburne"/>
    <tag k="addr:housenumber" v="168"/>
    <tag k="addr:street" v="Heritage Lane"/>
    <tag k="addr:state" v="VT"/>
    <tag k="ref:vcgi:esiteid" v="222086"/>
  </node>
  <node id="-1696" visible="true" lat="44.37701953" lon="-73.23712987">
    <tag k="addr:city" v="Shelburne"/>
    <tag k="addr:housenumber" v="369"/>
    <tag k="addr:street" v="School Street"/>
    <tag k="addr:state" v="VT"/>
    <tag k="ref:vcgi:esiteid" v="222087"/>
  </node>
  <node id="-1698" visible="true" lat="44.37714386" lon="-73.23651885">
    <tag k="addr:city" v="Shelburne"/>
    <tag k="addr:housenumber" v="72"/>
    <tag k="addr:street" v="Tracy Lane"/>
    <tag k="addr:state" v="VT"/>
    <tag k="ref:vcgi:esiteid" v="222089"/>
  </node>
  <node id="-1700" visible="true" lat="44.37713241" lon="-73.23542022">
    <tag k="addr:city" v="Shelburne"/>
    <tag k="addr:housenumber" v="111"/>
    <tag k="addr:street" v="Tracy Lane"/>
    <tag k="addr:state" v="VT"/>
    <tag k="ref:vcgi:esiteid" v="222091"/>
  </node>
  <node id="-1701" visible="true" lat="44.37712478" lon="-73.23387145">
    <tag k="addr:city" v="Shelburne"/>
    <tag k="addr:housenumber" v="192"/>
    <tag k="addr:street" v="Stokes Lane"/>
    <tag k="addr:state" v="VT"/>
    <tag k="ref:vcgi:esiteid" v="222093"/>
  </node>
  <node id="-1702" visible="true" lat="44.37704467" lon="-73.2334671">
    <tag k="addr:city" v="Shelburne"/>
    <tag k="addr:housenumber" v="214"/>
    <tag k="addr:street" v="Stokes Lane"/>
    <tag k="addr:state" v="VT"/>
    <tag k="ref:vcgi:esiteid" v="222096"/>
  </node>
  <node id="-1703" visible="true" lat="44.3770256" lon="-73.23277282">
    <tag k="addr:city" v="Shelburne"/>
    <tag k="addr:housenumber" v="282"/>
    <tag k="addr:street" v="Tracy Lane"/>
    <tag k="addr:state" v="VT"/>
    <tag k="ref:vcgi:esiteid" v="222098"/>
  </node>
  <node id="-1705" visible="true" lat="44.37693405" lon="-73.23505401">
    <tag k="addr:city" v="Shelburne"/>
    <tag k="addr:housenumber" v="135"/>
    <tag k="addr:street" v="Tracy Lane"/>
    <tag k="addr:state" v="VT"/>
    <tag k="ref:vcgi:esiteid" v="222101"/>
  </node>
  <node id="-1706" visible="true" lat="44.37690734" lon="-73.23609924">
    <tag k="addr:city" v="Shelburne"/>
    <tag k="addr:housenumber" v="92"/>
    <tag k="addr:street" v="Tracy Lane"/>
    <tag k="addr:state" v="VT"/>
    <tag k="ref:vcgi:esiteid" v="222102"/>
  </node>
  <node id="-1709" visible="true" lat="44.3766983" lon="-73.23298027">
    <tag k="addr:city" v="Shelburne"/>
    <tag k="addr:housenumber" v="264"/>
    <tag k="addr:street" v="Tracy Lane"/>
    <tag k="addr:state" v="VT"/>
    <tag k="ref:vcgi:esiteid" v="222106"/>
  </node>
  <node id="-1712" visible="true" lat="44.37658496" lon="-73.23989217">
    <tag k="addr:city" v="Shelburne"/>
    <tag k="addr:housenumber" v="113"/>
    <tag k="addr:street" v="Heritage Lane"/>
    <tag k="addr:state" v="VT"/>
    <tag k="ref:vcgi:esiteid" v="222109"/>
  </node>
  <node id="-1713" visible="true" lat="44.37664971" lon="-73.24032038">
    <tag k="addr:city" v="Shelburne"/>
    <tag k="addr:housenumber" v="133"/>
    <tag k="addr:street" v="Heritage Lane"/>
    <tag k="addr:state" v="VT"/>
    <tag k="ref:vcgi:esiteid" v="222110"/>
  </node>
  <node id="-1714" visible="true" lat="44.37655074" lon="-73.2395277">
    <tag k="addr:city" v="Shelburne"/>
    <tag k="addr:housenumber" v="95"/>
    <tag k="addr:street" v="Heritage Lane"/>
    <tag k="addr:state" v="VT"/>
    <tag k="ref:vcgi:esiteid" v="222111"/>
  </node>
  <node id="-1715" visible="true" lat="44.37658373" lon="-73.23918451">
    <tag k="addr:city" v="Shelburne"/>
    <tag k="addr:housenumber" v="75"/>
    <tag k="addr:street" v="Heritage Lane"/>
    <tag k="addr:state" v="VT"/>
    <tag k="ref:vcgi:esiteid" v="222112"/>
  </node>
  <node id="-1717" visible="true" lat="44.37672042" lon="-73.23454284">
    <tag k="addr:city" v="Shelburne"/>
    <tag k="addr:housenumber" v="169"/>
    <tag k="addr:street" v="Tracy Lane"/>
    <tag k="addr:state" v="VT"/>
    <tag k="ref:vcgi:esiteid" v="222114"/>
  </node>
  <node id="-1718" visible="true" lat="44.37669754" lon="-73.23796844">
    <tag k="addr:city" v="Shelburne"/>
    <tag k="addr:housenumber" v="19"/>
    <tag k="addr:street" v="Heritage Lane"/>
    <tag k="addr:state" v="VT"/>
    <tag k="ref:vcgi:esiteid" v="222115"/>
  </node>
  <node id="-1719" visible="true" lat="44.37671279" lon="-73.23576355">
    <tag k="addr:city" v="Shelburne"/>
    <tag k="addr:housenumber" v="114"/>
    <tag k="addr:street" v="Tracy Lane"/>
    <tag k="addr:state" v="VT"/>
    <tag k="ref:vcgi:esiteid" v="222116"/>
  </node>
  <node id="-1720" visible="true" lat="44.37668331" lon="-73.23717586">
    <tag k="addr:city" v="Shelburne"/>
    <tag k="addr:housenumber" v="385"/>
    <tag k="addr:street" v="School Street"/>
    <tag k="addr:state" v="VT"/>
    <tag k="ref:vcgi:esiteid" v="222117"/>
  </node>
  <node id="-1721" visible="true" lat="44.37655377" lon="-73.24070154">
    <tag k="addr:city" v="Shelburne"/>
    <tag k="addr:housenumber" v="147"/>
    <tag k="addr:street" v="Heritage Lane"/>
    <tag k="addr:state" v="VT"/>
    <tag k="ref:vcgi:esiteid" v="222119"/>
  </node>
  <node id="-1722" visible="true" lat="44.37667083" lon="-73.23841857">
    <tag k="addr:city" v="Shelburne"/>
    <tag k="addr:housenumber" v="41"/>
    <tag k="addr:street" v="Heritage Lane"/>
    <tag k="addr:state" v="VT"/>
    <tag k="ref:vcgi:esiteid" v="222120"/>
  </node>
  <node id="-1723" visible="true" lat="44.3766365" lon="-73.24102783">
    <tag k="addr:city" v="Shelburne"/>
    <tag k="addr:housenumber" v="169"/>
    <tag k="addr:street" v="Heritage Lane"/>
    <tag k="addr:state" v="VT"/>
    <tag k="ref:vcgi:esiteid" v="222121"/>
  </node>
  <node id="-1725" visible="true" lat="44.3766365" lon="-73.23878479">
    <tag k="addr:city" v="Shelburne"/>
    <tag k="addr:housenumber" v="59"/>
    <tag k="addr:street" v="Heritage Lane"/>
    <tag k="addr:state" v="VT"/>
    <tag k="ref:vcgi:esiteid" v="222123"/>
  </node>
  <node id="-1726" visible="true" lat="44.37665176" lon="-73.23374175">
    <tag k="addr:city" v="Shelburne"/>
    <tag k="addr:housenumber" v="237"/>
    <tag k="addr:street" v="Tracy Lane"/>
    <tag k="addr:state" v="VT"/>
    <tag k="ref:vcgi:esiteid" v="222124"/>
  </node>
  <node id="-1728" visible="true" lat="44.3766365" lon="-73.23414611">
    <tag k="addr:city" v="Shelburne"/>
    <tag k="addr:housenumber" v="189"/>
    <tag k="addr:street" v="Tracy Lane"/>
    <tag k="addr:state" v="VT"/>
    <tag k="ref:vcgi:esiteid" v="222126"/>
  </node>
  <node id="-1735" visible="true" lat="44.37643432" lon="-73.23321533">
    <tag k="addr:city" v="Shelburne"/>
    <tag k="addr:housenumber" v="236"/>
    <tag k="addr:street" v="Tracy Lane"/>
    <tag k="addr:state" v="VT"/>
    <tag k="ref:vcgi:esiteid" v="222133"/>
  </node>
  <node id="-1740" visible="true" lat="44.3763237" lon="-73.23496246">
    <tag k="addr:city" v="Shelburne"/>
    <tag k="addr:housenumber" v="160"/>
    <tag k="addr:street" v="Tracy Lane"/>
    <tag k="addr:state" v="VT"/>
    <tag k="ref:vcgi:esiteid" v="222139"/>
  </node>
  <node id="-1742" visible="true" lat="44.37621688" lon="-73.23448944">
    <tag k="addr:city" v="Shelburne"/>
    <tag k="addr:housenumber" v="182"/>
    <tag k="addr:street" v="Tracy Lane"/>
    <tag k="addr:state" v="VT"/>
    <tag k="ref:vcgi:esiteid" v="222142"/>
  </node>
  <node id="-1744" visible="true" lat="44.3760786" lon="-73.23359003">
    <tag k="addr:city" v="Shelburne"/>
    <tag k="addr:housenumber" v="220"/>
    <tag k="addr:street" v="Tracy Lane"/>
    <tag k="addr:state" v="VT"/>
    <tag k="ref:vcgi:esiteid" v="222144"/>
  </node>
  <node id="-1745" visible="true" lat="44.37615585" lon="-73.23408508">
    <tag k="addr:city" v="Shelburne"/>
    <tag k="addr:housenumber" v="202"/>
    <tag k="addr:street" v="Tracy Lane"/>
    <tag k="addr:state" v="VT"/>
    <tag k="ref:vcgi:esiteid" v="222145"/>
  </node>
  <node id="-2047" visible="true" lat="44.36960378" lon="-73.23439316">
    <tag k="addr:city" v="Shelburne"/>
    <tag k="addr:housenumber" v="122"/>
    <tag k="addr:street" v="Bostwick Road"/>
    <tag k="addr:state" v="VT"/>
    <tag k="ref:vcgi:esiteid" v="222481"/>
  </node>
  <node id="-2402" visible="true" lat="44.41275787" lon="-73.21386718">
    <tag k="addr:city" v="Shelburne"/>
    <tag k="addr:housenumber" v="2989"/>
    <tag k="addr:street" v="Shelburne Road"/>
    <tag k="addr:state" v="VT"/>
    <tag k="ref:vcgi:esiteid" v="222902"/>
  </node>
  <node id="-2403" visible="true" lat="44.41248321" lon="-73.21378326">
    <tag k="addr:city" v="Shelburne"/>
    <tag k="addr:housenumber" v="2989"/>
    <tag k="addr:street" v="Shelburne Road"/>
    <tag k="addr:state" v="VT"/>
    <tag k="ref:vcgi:esiteid" v="222903"/>
  </node>
  <node id="-2419" visible="true" lat="44.3981781" lon="-73.23106384">
    <tag k="addr:city" v="Shelburne"/>
    <tag k="addr:housenumber" v="43"/>
    <tag k="addr:street" v="Spinnaker Lane"/>
    <tag k="addr:state" v="VT"/>
    <tag k="ref:vcgi:esiteid" v="222921"/>
  </node>
  <node id="-2420" visible="true" lat="44.3970159" lon="-73.23025576">
    <tag k="addr:city" v="Shelburne"/>
    <tag k="addr:housenumber" v="140"/>
    <tag k="addr:street" v="Spinnaker Lane"/>
    <tag k="addr:state" v="VT"/>
    <tag k="ref:vcgi:esiteid" v="222922"/>
  </node>
  <node id="-2421" visible="true" lat="44.40049743" lon="-73.21885681">
    <tag k="addr:city" v="Shelburne"/>
    <tag k="addr:housenumber" v="3830"/>
    <tag k="addr:street" v="Shelburne Road"/>
    <tag k="addr:state" v="VT"/>
    <tag k="ref:vcgi:esiteid" v="222923"/>
  </node>
  <node id="-2423" visible="true" lat="44.39785334" lon="-73.20845036">
    <tag k="addr:city" v="Shelburne"/>
    <tag k="addr:housenumber" v="567"/>
    <tag k="addr:street" v="Longmeadow Drive"/>
    <tag k="addr:state" v="VT"/>
    <tag k="ref:vcgi:esiteid" v="222925"/>
  </node>
  <node id="-2424" visible="true" lat="44.39124784" lon="-73.22485019">
    <tag k="addr:city" v="Shelburne"/>
    <tag k="addr:housenumber" v="4750"/>
    <tag k="addr:street" v="Shelburne Road"/>
    <tag k="addr:state" v="VT"/>
    <tag k="ref:vcgi:esiteid" v="222926"/>
  </node>
  <node id="-2425" visible="true" lat="44.39011149" lon="-73.22485038">
    <tag k="addr:city" v="Shelburne"/>
    <tag k="addr:housenumber" v="4744"/>
    <tag k="addr:street" v="Shelburne Road"/>
    <tag k="addr:state" v="VT"/>
    <tag k="ref:vcgi:esiteid" v="222928"/>
  </node>
  <node id="-2427" visible="true" lat="44.38676939" lon="-73.2225139">
    <tag k="addr:city" v="Shelburne"/>
    <tag k="addr:housenumber" v="67"/>
    <tag k="addr:street" v="Chesapeake Drive"/>
    <tag k="addr:state" v="VT"/>
    <tag k="ref:vcgi:esiteid" v="222932"/>
  </node>
  <node id="-2428" visible="true" lat="44.38615992" lon="-73.22279198">
    <tag k="addr:city" v="Shelburne"/>
    <tag k="addr:housenumber" v="153"/>
    <tag k="addr:street" v="Chesapeake Drive"/>
    <tag k="addr:state" v="VT"/>
    <tag k="ref:vcgi:esiteid" v="222933"/>
  </node>
  <node id="-2451" visible="true" lat="44.3781929" lon="-73.23680114">
    <tag k="addr:city" v="Shelburne"/>
    <tag k="addr:housenumber" v="11"/>
    <tag k="addr:street" v="Tracy Lane"/>
    <tag k="addr:state" v="VT"/>
    <tag k="ref:vcgi:esiteid" v="222958"/>
  </node>
  <node id="-2452" visible="true" lat="44.38031387" lon="-73.22823333">
    <tag k="addr:city" v="Shelburne"/>
    <tag k="addr:housenumber" v="33"/>
    <tag k="addr:street" v="Harbor Road"/>
    <tag k="addr:state" v="VT"/>
    <tag k="ref:vcgi:esiteid" v="222959"/>
  </node>
  <node id="-2453" visible="true" lat="44.37932741" lon="-73.22555321">
    <tag k="addr:city" v="Shelburne"/>
    <tag k="addr:housenumber" v="15"/>
    <tag k="addr:street" v="Shelburne Shopping Park"/>
    <tag k="addr:state" v="VT"/>
    <tag k="ref:vcgi:esiteid" v="222960"/>
  </node>
  <node id="-2463" visible="true" lat="44.37848466" lon="-73.13691245">
    <tag k="addr:city" v="Shelburne"/>
    <tag k="addr:housenumber" v="2381"/>
    <tag k="addr:street" v="Pond Road"/>
    <tag k="addr:state" v="VT"/>
    <tag k="ref:vcgi:esiteid" v="222970"/>
  </node>
  <node id="-2470" visible="true" lat="44.402462" lon="-73.14537811">
    <tag k="addr:city" v="Shelburne"/>
    <tag k="addr:housenumber" v="80"/>
    <tag k="addr:street" v="Rosewood Drive"/>
    <tag k="addr:state" v="VT"/>
    <tag k="ref:vcgi:esiteid" v="222982"/>
  </node>
  <node id="-2502" visible="true" lat="44.36082458" lon="-73.23552703">
    <tag k="addr:city" v="Shelburne"/>
    <tag k="addr:housenumber" v="6701"/>
    <tag k="addr:street" v="Shelburne Road"/>
    <tag k="addr:state" v="VT"/>
    <tag k="ref:vcgi:esiteid" v="223017"/>
  </node>
  <node id="-2517" visible="true" lat="44.37898359" lon="-73.22607743">
    <tag k="addr:city" v="Shelburne"/>
    <tag k="addr:housenumber" v="10"/>
    <tag k="addr:street" v="Shelburne Shopping Park"/>
    <tag k="addr:state" v="VT"/>
    <tag k="ref:vcgi:esiteid" v="223036"/>
  </node>
  <node id="-2519" visible="true" lat="44.41728232" lon="-73.21214667">
    <tag k="addr:city" v="Shelburne"/>
    <tag k="addr:housenumber" v="2649"/>
    <tag k="addr:street" v="Shelburne Road"/>
    <tag k="addr:state" v="VT"/>
    <tag k="ref:vcgi:esiteid" v="223038"/>
  </node>
  <node id="-2520" visible="true" lat="44.41956673" lon="-73.2129372">
    <tag k="addr:city" v="Shelburne"/>
    <tag k="addr:housenumber" v="2500"/>
    <tag k="addr:street" v="Shelburne Road"/>
    <tag k="addr:state" v="VT"/>
    <tag k="ref:vcgi:esiteid" v="223039"/>
  </node>
  <node id="-2523" visible="true" lat="44.39961401" lon="-73.2196099">
    <tag k="addr:city" v="Shelburne"/>
    <tag k="addr:housenumber" v="3910"/>
    <tag k="addr:street" v="Shelburne Road"/>
    <tag k="addr:state" v="VT"/>
    <tag k="ref:vcgi:esiteid" v="223043"/>
  </node>
  <node id="-2524" visible="true" lat="44.39504623" lon="-73.21268463">
    <tag k="addr:city" v="Shelburne"/>
    <tag k="addr:housenumber" v="65"/>
    <tag k="addr:street" v="Thrush Way"/>
    <tag k="addr:state" v="VT"/>
    <tag k="ref:vcgi:esiteid" v="223044"/>
  </node>
  <node id="-2528" visible="true" lat="44.38749313" lon="-73.22317504">
    <tag k="addr:city" v="Shelburne"/>
    <tag k="addr:housenumber" v="236"/>
    <tag k="addr:street" v="Webster Road"/>
    <tag k="addr:state" v="VT"/>
    <tag k="ref:vcgi:esiteid" v="223049"/>
  </node>
  <node id="-2543" visible="true" lat="44.39702745" lon="-73.23082642">
    <tag k="addr:city" v="Shelburne"/>
    <tag k="addr:housenumber" v="124"/>
    <tag k="addr:street" v="Spinnaker Lane"/>
    <tag k="addr:state" v="VT"/>
    <tag k="ref:vcgi:esiteid" v="223065"/>
  </node>
  <node id="-2544" visible="true" lat="44.38654995" lon="-73.22269138">
    <tag k="addr:city" v="Shelburne"/>
    <tag k="addr:housenumber" v="95"/>
    <tag k="addr:street" v="Chesapeake Drive"/>
    <tag k="addr:state" v="VT"/>
    <tag k="ref:vcgi:esiteid" v="223066"/>
  </node>
  <node id="-2545" visible="true" lat="44.38632216" lon="-73.22274463">
    <tag k="addr:city" v="Shelburne"/>
    <tag k="addr:housenumber" v="111"/>
    <tag k="addr:street" v="Chesapeake Drive"/>
    <tag k="addr:state" v="VT"/>
    <tag k="ref:vcgi:esiteid" v="223067"/>
  </node>
  <node id="-2549" visible="true" lat="44.38567815" lon="-73.22286361">
    <tag k="addr:city" v="Shelburne"/>
    <tag k="addr:housenumber" v="155"/>
    <tag k="addr:street" v="Chesapeake Drive"/>
    <tag k="addr:state" v="VT"/>
    <tag k="ref:vcgi:esiteid" v="223071"/>
  </node>
  <node id="-2550" visible="true" lat="44.38749496" lon="-73.22263797">
    <tag k="addr:city" v="Shelburne"/>
    <tag k="addr:housenumber" v="12"/>
    <tag k="addr:street" v="Chesapeake Drive"/>
    <tag k="addr:state" v="VT"/>
    <tag k="ref:vcgi:esiteid" v="223072"/>
  </node>
  <node id="-2554" visible="true" lat="44.39804696" lon="-73.23181852">
    <tag k="addr:city" v="Shelburne"/>
    <tag k="addr:housenumber" v="38"/>
    <tag k="addr:street" v="Spinnaker Lane"/>
    <tag k="addr:state" v="VT"/>
    <tag k="ref:vcgi:esiteid" v="223076"/>
  </node>
  <node id="-2555" visible="true" lat="44.39909398" lon="-73.22997948">
    <tag k="addr:city" v="Shelburne"/>
    <tag k="addr:housenumber" v="849"/>
    <tag k="addr:street" v="Bay Road"/>
    <tag k="addr:state" v="VT"/>
    <tag k="ref:vcgi:esiteid" v="223077"/>
  </node>
  <node id="-2556" visible="true" lat="44.39725894" lon="-73.23127316">
    <tag k="addr:city" v="Shelburne"/>
    <tag k="addr:housenumber" v="94"/>
    <tag k="addr:street" v="Spinnaker Lane"/>
    <tag k="addr:state" v="VT"/>
    <tag k="ref:vcgi:esiteid" v="223078"/>
  </node>
  <node id="-2562" visible="true" lat="44.39776995" lon="-73.20927846">
    <tag k="addr:city" v="Shelburne"/>
    <tag k="addr:housenumber" v="537"/>
    <tag k="addr:street" v="Longmeadow Drive"/>
    <tag k="addr:state" v="VT"/>
    <tag k="ref:vcgi:esiteid" v="223084"/>
  </node>
  <node id="-2573" visible="true" lat="44.39779611" lon="-73.20967721">
    <tag k="addr:city" v="Shelburne"/>
    <tag k="addr:housenumber" v="515"/>
    <tag k="addr:street" v="Longmeadow Drive"/>
    <tag k="addr:state" v="VT"/>
    <tag k="ref:vcgi:esiteid" v="223095"/>
  </node>
  <node id="-2574" visible="true" lat="44.39714663" lon="-73.20897684">
    <tag k="addr:city" v="Shelburne"/>
    <tag k="addr:housenumber" v="560"/>
    <tag k="addr:street" v="Longmeadow Drive"/>
    <tag k="addr:state" v="VT"/>
    <tag k="ref:vcgi:esiteid" v="223096"/>
  </node>
  <node id="-2580" visible="true" lat="44.38060291" lon="-73.22885144">
    <tag k="addr:city" v="Shelburne"/>
    <tag k="addr:housenumber" v="63"/>
    <tag k="addr:street" v="Harbor Road"/>
    <tag k="addr:state" v="VT"/>
    <tag k="ref:vcgi:esiteid" v="223102"/>
  </node>
  <node id="-2582" visible="true" lat="44.39868719" lon="-73.2228705">
    <tag k="addr:city" v="Shelburne"/>
    <tag k="addr:housenumber" v="228"/>
    <tag k="addr:street" v="Winter Haven Road"/>
    <tag k="addr:state" v="VT"/>
    <tag k="ref:vcgi:esiteid" v="223104"/>
  </node>
  <node id="-2583" visible="true" lat="44.39875819" lon="-73.22323835">
    <tag k="addr:city" v="Shelburne"/>
    <tag k="addr:housenumber" v="240"/>
    <tag k="addr:street" v="Winter Haven Road"/>
    <tag k="addr:state" v="VT"/>
    <tag k="ref:vcgi:esiteid" v="223105"/>
  </node>
  <node id="-2584" visible="true" lat="44.39840231" lon="-73.2233156">
    <tag k="addr:city" v="Shelburne"/>
    <tag k="addr:housenumber" v="239"/>
    <tag k="addr:street" v="Winter Haven Road"/>
    <tag k="addr:state" v="VT"/>
    <tag k="ref:vcgi:esiteid" v="223106"/>
  </node>
  <node id="-2585" visible="true" lat="44.39796077" lon="-73.223353">
    <tag k="addr:city" v="Shelburne"/>
    <tag k="addr:housenumber" v="235"/>
    <tag k="addr:street" v="Winter Haven Road"/>
    <tag k="addr:state" v="VT"/>
    <tag k="ref:vcgi:esiteid" v="223107"/>
  </node>
  <node id="-2586" visible="true" lat="44.39799104" lon="-73.22295049">
    <tag k="addr:city" v="Shelburne"/>
    <tag k="addr:housenumber" v="231"/>
    <tag k="addr:street" v="Winter Haven Road"/>
    <tag k="addr:state" v="VT"/>
    <tag k="ref:vcgi:esiteid" v="223108"/>
  </node>
  <node id="-2589" visible="true" lat="44.3972458" lon="-73.20964402">
    <tag k="addr:city" v="Shelburne"/>
    <tag k="addr:housenumber" v="516"/>
    <tag k="addr:street" v="Longmeadow Drive"/>
    <tag k="addr:state" v="VT"/>
    <tag k="ref:vcgi:esiteid" v="223111"/>
  </node>
  <node id="-2594" visible="true" lat="44.39704601" lon="-73.20859802">
    <tag k="addr:city" v="Shelburne"/>
    <tag k="addr:housenumber" v="570"/>
    <tag k="addr:street" v="Longmeadow Drive"/>
    <tag k="addr:state" v="VT"/>
    <tag k="ref:vcgi:esiteid" v="223116"/>
  </node>
  <node id="-2613" visible="true" lat="44.38561071" lon="-73.22356496">
    <tag k="addr:city" v="Shelburne"/>
    <tag k="addr:housenumber" v="140"/>
    <tag k="addr:street" v="Chesapeake Drive"/>
    <tag k="addr:state" v="VT"/>
    <tag k="ref:vcgi:esiteid" v="223135"/>
  </node>
  <node id="-2618" visible="true" lat="44.3979088" lon="-73.21633396">
    <tag k="addr:city" v="Shelburne"/>
    <tag k="addr:housenumber" v="3933"/>
    <tag k="addr:street" v="Shelburne Road"/>
    <tag k="addr:state" v="VT"/>
    <tag k="ref:vcgi:esiteid" v="223140"/>
  </node>
  <node id="-2622" visible="true" lat="44.39501498" lon="-73.21946331">
    <tag k="addr:city" v="Shelburne"/>
    <tag k="addr:housenumber" v="47"/>
    <tag k="addr:street" v="Drew Lane"/>
    <tag k="addr:state" v="VT"/>
    <tag k="ref:vcgi:esiteid" v="223144"/>
  </node>
  <node id="-2632" visible="true" lat="44.39982327" lon="-73.20378183">
    <tag k="addr:city" v="Shelburne"/>
    <tag k="addr:housenumber" v="23"/>
    <tag k="addr:street" v="Potter Place"/>
    <tag k="addr:state" v="VT"/>
    <tag k="ref:vcgi:esiteid" v="223154"/>
  </node>
  <node id="-2635" visible="true" lat="44.39504232" lon="-73.2192052">
    <tag k="addr:city" v="Shelburne"/>
    <tag k="addr:housenumber" v="57"/>
    <tag k="addr:street" v="Drew Lane"/>
    <tag k="addr:state" v="VT"/>
    <tag k="ref:vcgi:esiteid" v="223157"/>
  </node>
  <node id="-2636" visible="true" lat="44.39471216" lon="-73.21966865">
    <tag k="addr:city" v="Shelburne"/>
    <tag k="addr:housenumber" v="36"/>
    <tag k="addr:street" v="Drew Lane"/>
    <tag k="addr:state" v="VT"/>
    <tag k="ref:vcgi:esiteid" v="223158"/>
  </node>
  <node id="-2637" visible="true" lat="44.39474797" lon="-73.21937567">
    <tag k="addr:city" v="Shelburne"/>
    <tag k="addr:housenumber" v="50"/>
    <tag k="addr:street" v="Drew Lane"/>
    <tag k="addr:state" v="VT"/>
    <tag k="ref:vcgi:esiteid" v="223159"/>
  </node>
  <node id="-2638" visible="true" lat="44.39506834" lon="-73.21895622">
    <tag k="addr:city" v="Shelburne"/>
    <tag k="addr:housenumber" v="71"/>
    <tag k="addr:street" v="Drew Lane"/>
    <tag k="addr:state" v="VT"/>
    <tag k="ref:vcgi:esiteid" v="223160"/>
  </node>
  <node id="-2639" visible="true" lat="44.39508576" lon="-73.21868731">
    <tag k="addr:city" v="Shelburne"/>
    <tag k="addr:housenumber" v="85"/>
    <tag k="addr:street" v="Drew Lane"/>
    <tag k="addr:state" v="VT"/>
    <tag k="ref:vcgi:esiteid" v="223161"/>
  </node>
  <node id="-2640" visible="true" lat="44.39510633" lon="-73.21844702">
    <tag k="addr:city" v="Shelburne"/>
    <tag k="addr:housenumber" v="95"/>
    <tag k="addr:street" v="Drew Lane"/>
    <tag k="addr:state" v="VT"/>
    <tag k="ref:vcgi:esiteid" v="223162"/>
  </node>
  <node id="-2641" visible="true" lat="44.39477323" lon="-73.21912401">
    <tag k="addr:city" v="Shelburne"/>
    <tag k="addr:housenumber" v="60"/>
    <tag k="addr:street" v="Drew Lane"/>
    <tag k="addr:state" v="VT"/>
    <tag k="ref:vcgi:esiteid" v="223163"/>
  </node>
  <node id="-2642" visible="true" lat="44.39479613" lon="-73.21886249">
    <tag k="addr:city" v="Shelburne"/>
    <tag k="addr:housenumber" v="74"/>
    <tag k="addr:street" v="Drew Lane"/>
    <tag k="addr:state" v="VT"/>
    <tag k="ref:vcgi:esiteid" v="223164"/>
  </node>
  <node id="-2723" visible="true" lat="44.3874598" lon="-73.21991514">
    <tag k="addr:city" v="Shelburne"/>
    <tag k="addr:housenumber" v="81"/>
    <tag k="addr:street" v="Gardenside Lane"/>
    <tag k="addr:state" v="VT"/>
    <tag k="ref:vcgi:esiteid" v="223248"/>
  </node>
  <node id="-2724" visible="true" lat="44.39010007" lon="-73.21941857">
    <tag k="addr:city" v="Shelburne"/>
    <tag k="addr:housenumber" v="108"/>
    <tag k="addr:street" v="Bourgea Lane"/>
    <tag k="addr:state" v="VT"/>
    <tag k="ref:vcgi:esiteid" v="223249"/>
  </node>
  <node id="-2725" visible="true" lat="44.38201671" lon="-73.23292028">
    <tag k="addr:city" v="Shelburne"/>
    <tag k="addr:housenumber" v="14"/>
    <tag k="addr:street" v="McCabe Circle"/>
    <tag k="addr:state" v="VT"/>
    <tag k="ref:vcgi:esiteid" v="223250"/>
  </node>
  <node id="-2726" visible="true" lat="44.38207397" lon="-73.23287907">
    <tag k="addr:city" v="Shelburne"/>
    <tag k="addr:housenumber" v="16"/>
    <tag k="addr:street" v="McCabe Circle"/>
    <tag k="addr:state" v="VT"/>
    <tag k="ref:vcgi:esiteid" v="223251"/>
  </node>
  <node id="-2727" visible="true" lat="44.38206957" lon="-73.23255879">
    <tag k="addr:city" v="Shelburne"/>
    <tag k="addr:housenumber" v="18"/>
    <tag k="addr:street" v="McCabe Circle"/>
    <tag k="addr:state" v="VT"/>
    <tag k="ref:vcgi:esiteid" v="223252"/>
  </node>
  <node id="-2728" visible="true" lat="44.38227123" lon="-73.2326309">
    <tag k="addr:city" v="Shelburne"/>
    <tag k="addr:housenumber" v="20"/>
    <tag k="addr:street" v="McCabe Circle"/>
    <tag k="addr:state" v="VT"/>
    <tag k="ref:vcgi:esiteid" v="223253"/>
  </node>
  <node id="-2729" visible="true" lat="44.38236867" lon="-73.23282946">
    <tag k="addr:city" v="Shelburne"/>
    <tag k="addr:housenumber" v="22"/>
    <tag k="addr:street" v="McCabe Circle"/>
    <tag k="addr:state" v="VT"/>
    <tag k="ref:vcgi:esiteid" v="223254"/>
  </node>
  <node id="-2732" visible="true" lat="44.38242469" lon="-73.23317348">
    <tag k="addr:city" v="Shelburne"/>
    <tag k="addr:housenumber" v="28"/>
    <tag k="addr:street" v="McCabe Circle"/>
    <tag k="addr:state" v="VT"/>
    <tag k="ref:vcgi:esiteid" v="223257"/>
  </node>
  <node id="-2733" visible="true" lat="44.38247849" lon="-73.23335327">
    <tag k="addr:city" v="Shelburne"/>
    <tag k="addr:housenumber" v="30"/>
    <tag k="addr:street" v="McCabe Circle"/>
    <tag k="addr:state" v="VT"/>
    <tag k="ref:vcgi:esiteid" v="223258"/>
  </node>
  <node id="-2734" visible="true" lat="44.38240585" lon="-73.23357091">
    <tag k="addr:city" v="Shelburne"/>
    <tag k="addr:housenumber" v="32"/>
    <tag k="addr:street" v="McCabe Circle"/>
    <tag k="addr:state" v="VT"/>
    <tag k="ref:vcgi:esiteid" v="223259"/>
  </node>
  <node id="-2735" visible="true" lat="44.38229799" lon="-73.2336056">
    <tag k="addr:city" v="Shelburne"/>
    <tag k="addr:housenumber" v="34"/>
    <tag k="addr:street" v="McCabe Circle"/>
    <tag k="addr:state" v="VT"/>
    <tag k="ref:vcgi:esiteid" v="223260"/>
  </node>
  <node id="-2736" visible="true" lat="44.38209473" lon="-73.23320363">
    <tag k="addr:city" v="Shelburne"/>
    <tag k="addr:housenumber" v="25"/>
    <tag k="addr:street" v="McCabe Circle"/>
    <tag k="addr:state" v="VT"/>
    <tag k="ref:vcgi:esiteid" v="223261"/>
  </node>
  <node id="-2737" visible="true" lat="44.3821309" lon="-73.23335799">
    <tag k="addr:city" v="Shelburne"/>
    <tag k="addr:housenumber" v="27"/>
    <tag k="addr:street" v="McCabe Circle"/>
    <tag k="addr:state" v="VT"/>
    <tag k="ref:vcgi:esiteid" v="223262"/>
  </node>
  <node id="-2817" visible="true" lat="44.38183267" lon="-73.22949561">
    <tag k="addr:city" v="Shelburne"/>
    <tag k="addr:housenumber" v="108"/>
    <tag k="addr:street" v="Athletic Drive"/>
    <tag k="addr:state" v="VT"/>
    <tag k="ref:vcgi:esiteid" v="310668"/>
  </node>
  <node id="-2818" visible="true" lat="44.37959784" lon="-73.22841717">
    <tag k="addr:city" v="Shelburne"/>
    <tag k="addr:housenumber" v="5374"/>
    <tag k="addr:street" v="Shelburne Road"/>
    <tag k="addr:state" v="VT"/>
    <tag k="ref:vcgi:esiteid" v="310669"/>
  </node>
  <node id="-2858" visible="true" lat="44.38218986" lon="-73.23366727">
    <tag k="addr:city" v="Shelburne"/>
    <tag k="addr:housenumber" v="36"/>
    <tag k="addr:street" v="McCabe Circle"/>
    <tag k="addr:state" v="VT"/>
    <tag k="ref:vcgi:esiteid" v="310711"/>
  </node>
  <node id="-2863" visible="true" lat="44.39913366" lon="-73.2294669">
    <tag k="addr:city" v="Shelburne"/>
    <tag k="addr:housenumber" v="837"/>
    <tag k="addr:street" v="Bay Road"/>
    <tag k="addr:state" v="VT"/>
    <tag k="ref:vcgi:esiteid" v="311149"/>
  </node>
  <node id="-3030" visible="true" lat="44.3985385" lon="-73.22481321">
    <tag k="addr:city" v="Shelburne"/>
    <tag k="addr:housenumber" v="132"/>
    <tag k="addr:street" v="Point View Drive"/>
    <tag k="addr:state" v="VT"/>
    <tag k="ref:vcgi:esiteid" v="317088"/>
  </node>
  <node id="-3112" visible="true" lat="44.39899996" lon="-73.2242447">
    <tag k="addr:city" v="Shelburne"/>
    <tag k="addr:housenumber" v="120"/>
    <tag k="addr:street" v="Point View Drive"/>
    <tag k="addr:state" v="VT"/>
    <tag k="ref:vcgi:esiteid" v="335114"/>
  </node>
  <node id="-3121" visible="true" lat="44.39962932" lon="-73.224879">
    <tag k="addr:city" v="Shelburne"/>
    <tag k="addr:housenumber" v="70"/>
    <tag k="addr:street" v="Point View Drive"/>
    <tag k="addr:state" v="VT"/>
    <tag k="ref:vcgi:esiteid" v="337454"/>
  </node>
  <node id="-3132" visible="true" lat="44.40268116" lon="-73.21874553">
    <tag k="addr:city" v="Shelburne"/>
    <tag k="addr:housenumber" v="3708"/>
    <tag k="addr:street" v="Shelburne Road"/>
    <tag k="addr:state" v="VT"/>
    <tag k="ref:vcgi:esiteid" v="340023"/>
  </node>
  <node id="-3247" visible="true" lat="44.37010395" lon="-73.24753505">
    <tag k="addr:city" v="Shelburne"/>
    <tag k="addr:housenumber" v="197"/>
    <tag k="addr:street" v="Limerick Road"/>
    <tag k="addr:state" v="VT"/>
    <tag k="ref:vcgi:esiteid" v="450181"/>
  </node>
  <node id="-3262" visible="true" lat="44.3990772" lon="-73.20253229">
    <tag k="addr:city" v="Shelburne"/>
    <tag k="addr:housenumber" v="113"/>
    <tag k="addr:street" v="Collamer Circle"/>
    <tag k="addr:state" v="VT"/>
    <tag k="ref:vcgi:esiteid" v="451572"/>
  </node>
  <node id="-3275" visible="true" lat="44.38718223" lon="-73.22372708">
    <tag k="addr:city" v="Shelburne"/>
    <tag k="addr:housenumber" v="240"/>
    <tag k="addr:street" v="Webster Road"/>
    <tag k="addr:state" v="VT"/>
    <tag k="ref:vcgi:esiteid" v="452951"/>
  </node>
</osm>
