<?xml version="1.0" encoding="UTF-8"?>
<osm version="0.6" generator="JOSM">
  <node id="-115" visible="true" lat="44.92997482" lon="-72.93135817">
    <tag k="addr:housenumber" v="2029"/>
    <tag k="addr:street" v="Rice Hill Road"/>
    <tag k="addr:state" v="VT"/>
    <tag k="ref:vcgi:esiteid" v="223334"/>
  </node>
  <node id="-118" visible="true" lat="44.92790489" lon="-72.93105707">
    <tag k="addr:housenumber" v="1888"/>
    <tag k="addr:street" v="Rice Hill Road"/>
    <tag k="addr:state" v="VT"/>
    <tag k="ref:vcgi:esiteid" v="223337"/>
  </node>
  <node id="-122" visible="true" lat="44.92713013" lon="-72.95081021">
    <tag k="addr:housenumber" v="374"/>
    <tag k="addr:street" v="Dunton Road"/>
    <tag k="addr:state" v="VT"/>
    <tag k="ref:vcgi:esiteid" v="223341"/>
  </node>
  <node id="-123" visible="true" lat="44.9271655" lon="-72.9518763">
    <tag k="addr:housenumber" v="373"/>
    <tag k="addr:street" v="Dunton Road"/>
    <tag k="addr:state" v="VT"/>
    <tag k="ref:vcgi:esiteid" v="223342"/>
  </node>
  <node id="-125" visible="true" lat="44.92659639" lon="-72.95347768">
    <tag k="addr:housenumber" v="83"/>
    <tag k="addr:street" v="Meadow Lane"/>
    <tag k="addr:state" v="VT"/>
    <tag k="ref:vcgi:esiteid" v="223344"/>
  </node>
  <node id="-126" visible="true" lat="44.92620559" lon="-72.95387799">
    <tag k="addr:housenumber" v="69"/>
    <tag k="addr:street" v="Meadow Lane"/>
    <tag k="addr:state" v="VT"/>
    <tag k="ref:vcgi:esiteid" v="223345"/>
  </node>
  <node id="-127" visible="true" lat="44.9263747" lon="-72.93206157">
    <tag k="addr:housenumber" v="1762"/>
    <tag k="addr:street" v="Rice Hill Road"/>
    <tag k="addr:state" v="VT"/>
    <tag k="ref:vcgi:esiteid" v="223346"/>
  </node>
  <node id="-128" visible="true" lat="44.92606345" lon="-72.95149319">
    <tag k="addr:housenumber" v="312"/>
    <tag k="addr:street" v="Dunton Road"/>
    <tag k="addr:state" v="VT"/>
    <tag k="ref:vcgi:esiteid" v="223347"/>
  </node>
  <node id="-130" visible="true" lat="44.92584966" lon="-72.93241412">
    <tag k="addr:housenumber" v="1740"/>
    <tag k="addr:street" v="Rice Hill Road"/>
    <tag k="addr:state" v="VT"/>
    <tag k="ref:vcgi:esiteid" v="223349"/>
  </node>
  <node id="-132" visible="true" lat="44.92559432" lon="-72.95800781">
    <tag k="addr:housenumber" v="337"/>
    <tag k="addr:street" v="Rice Hill Road"/>
    <tag k="addr:state" v="VT"/>
    <tag k="ref:vcgi:esiteid" v="223351"/>
  </node>
  <node id="-133" visible="true" lat="44.92545929" lon="-72.953749">
    <tag k="addr:housenumber" v="245"/>
    <tag k="addr:street" v="Dunton Road"/>
    <tag k="addr:state" v="VT"/>
    <tag k="ref:vcgi:esiteid" v="223352"/>
  </node>
  <node id="-136" visible="true" lat="44.92451622" lon="-72.95478736">
    <tag k="addr:housenumber" v="151"/>
    <tag k="addr:street" v="Dunton Road"/>
    <tag k="addr:state" v="VT"/>
    <tag k="ref:vcgi:esiteid" v="223355"/>
  </node>
  <node id="-141" visible="true" lat="44.92414728" lon="-72.95217839">
    <tag k="addr:housenumber" v="132"/>
    <tag k="addr:street" v="Dunton Road"/>
    <tag k="addr:state" v="VT"/>
    <tag k="ref:vcgi:esiteid" v="223360"/>
  </node>
  <node id="-143" visible="true" lat="44.92367839" lon="-72.94065948">
    <tag k="addr:housenumber" v="1205"/>
    <tag k="addr:street" v="Rice Hill Road"/>
    <tag k="addr:state" v="VT"/>
    <tag k="ref:vcgi:esiteid" v="223362"/>
  </node>
  <node id="-144" visible="true" lat="44.92383845" lon="-72.93321993">
    <tag k="addr:housenumber" v="1564"/>
    <tag k="addr:street" v="Rice Hill Road"/>
    <tag k="addr:state" v="VT"/>
    <tag k="ref:vcgi:esiteid" v="223363"/>
  </node>
  <node id="-147" visible="true" lat="44.92339464" lon="-72.93995157">
    <tag k="addr:housenumber" v="1226"/>
    <tag k="addr:street" v="Rice Hill Road"/>
    <tag k="addr:state" v="VT"/>
    <tag k="ref:vcgi:esiteid" v="223366"/>
  </node>
  <node id="-150" visible="true" lat="44.92312355" lon="-72.93598822">
    <tag k="addr:housenumber" v="1420"/>
    <tag k="addr:street" v="Rice Hill Road"/>
    <tag k="addr:state" v="VT"/>
    <tag k="ref:vcgi:esiteid" v="223369"/>
  </node>
  <node id="-153" visible="true" lat="44.92275344" lon="-72.93504008">
    <tag k="addr:housenumber" v="1492"/>
    <tag k="addr:street" v="Rice Hill Road"/>
    <tag k="addr:state" v="VT"/>
    <tag k="ref:vcgi:esiteid" v="223372"/>
  </node>
  <node id="-154" visible="true" lat="44.92275362" lon="-72.96526226">
    <tag k="addr:housenumber" v="41"/>
    <tag k="addr:street" v="Regan Road"/>
    <tag k="addr:state" v="VT"/>
    <tag k="ref:vcgi:esiteid" v="223373"/>
  </node>
  <node id="-155" visible="true" lat="44.92247639" lon="-72.96549887">
    <tag k="addr:housenumber" v="42"/>
    <tag k="addr:street" v="Regan Road"/>
    <tag k="addr:state" v="VT"/>
    <tag k="ref:vcgi:esiteid" v="223374"/>
  </node>
  <node id="-157" visible="true" lat="44.92264428" lon="-72.96451983">
    <tag k="addr:housenumber" v="86"/>
    <tag k="addr:street" v="Regan Road"/>
    <tag k="addr:state" v="VT"/>
    <tag k="ref:vcgi:esiteid" v="223376"/>
  </node>
  <node id="-160" visible="true" lat="44.92262923" lon="-72.94617738">
    <tag k="addr:housenumber" v="899"/>
    <tag k="addr:street" v="Rice Hill Road"/>
    <tag k="addr:state" v="VT"/>
    <tag k="ref:vcgi:esiteid" v="223379"/>
  </node>
  <node id="-162" visible="true" lat="44.92267766" lon="-72.9476415">
    <tag k="addr:housenumber" v="827"/>
    <tag k="addr:street" v="Rice Hill Road"/>
    <tag k="addr:state" v="VT"/>
    <tag k="ref:vcgi:esiteid" v="223381"/>
  </node>
  <node id="-163" visible="true" lat="44.92217755" lon="-72.95279582">
    <tag k="addr:housenumber" v="28"/>
    <tag k="addr:street" v="Dunton Road"/>
    <tag k="addr:state" v="VT"/>
    <tag k="ref:vcgi:esiteid" v="223382"/>
  </node>
  <node id="-164" visible="true" lat="44.9220314" lon="-72.94641113">
    <tag k="addr:housenumber" v="884"/>
    <tag k="addr:street" v="Rice Hill Road"/>
    <tag k="addr:state" v="VT"/>
    <tag k="ref:vcgi:esiteid" v="223383"/>
  </node>
  <node id="-166" visible="true" lat="44.92196707" lon="-72.94791044">
    <tag k="addr:housenumber" v="820"/>
    <tag k="addr:street" v="Rice Hill Road"/>
    <tag k="addr:state" v="VT"/>
    <tag k="ref:vcgi:esiteid" v="223385"/>
  </node>
  <node id="-167" visible="true" lat="44.9218551" lon="-72.94919932">
    <tag k="addr:housenumber" v="754"/>
    <tag k="addr:street" v="Rice Hill Road"/>
    <tag k="addr:state" v="VT"/>
    <tag k="ref:vcgi:esiteid" v="223386"/>
  </node>
  <node id="-168" visible="true" lat="44.92162629" lon="-72.94702691">
    <tag k="addr:housenumber" v="870"/>
    <tag k="addr:street" v="Rice Hill Road"/>
    <tag k="addr:state" v="VT"/>
    <tag k="ref:vcgi:esiteid" v="223387"/>
  </node>
  <node id="-169" visible="true" lat="44.92163085" lon="-72.95591735">
    <tag k="addr:housenumber" v="419"/>
    <tag k="addr:street" v="Rice Hill Road"/>
    <tag k="addr:state" v="VT"/>
    <tag k="ref:vcgi:esiteid" v="223388"/>
  </node>
  <node id="-170" visible="true" lat="44.9215659" lon="-72.95075853">
    <tag k="addr:housenumber" v="670"/>
    <tag k="addr:street" v="Rice Hill Road"/>
    <tag k="addr:state" v="VT"/>
    <tag k="ref:vcgi:esiteid" v="223389"/>
  </node>
  <node id="-171" visible="true" lat="44.92158126" lon="-72.95264434">
    <tag k="addr:housenumber" v="572"/>
    <tag k="addr:street" v="Rice Hill Road"/>
    <tag k="addr:state" v="VT"/>
    <tag k="ref:vcgi:esiteid" v="223390"/>
  </node>
  <node id="-173" visible="true" lat="44.92147827" lon="-72.95333099">
    <tag k="addr:housenumber" v="538"/>
    <tag k="addr:street" v="Rice Hill Road"/>
    <tag k="addr:state" v="VT"/>
    <tag k="ref:vcgi:esiteid" v="223392"/>
  </node>
  <node id="-175" visible="true" lat="44.92087665" lon="-72.95534888">
    <tag k="addr:housenumber" v="422"/>
    <tag k="addr:street" v="Rice Hill Road"/>
    <tag k="addr:state" v="VT"/>
    <tag k="ref:vcgi:esiteid" v="223394"/>
  </node>
  <node id="-176" visible="true" lat="44.92086477" lon="-72.95203185">
    <tag k="addr:housenumber" v="618"/>
    <tag k="addr:street" v="Rice Hill Road"/>
    <tag k="addr:state" v="VT"/>
    <tag k="ref:vcgi:esiteid" v="223395"/>
  </node>
  <node id="-180" visible="true" lat="44.92048077" lon="-72.94432686">
    <tag k="addr:housenumber" v="915"/>
    <tag k="addr:street" v="Rice Hill Road"/>
    <tag k="addr:state" v="VT"/>
    <tag k="ref:vcgi:esiteid" v="223400"/>
  </node>
  <node id="-181" visible="true" lat="44.92027849" lon="-72.96184719">
    <tag k="addr:housenumber" v="113"/>
    <tag k="addr:street" v="Rice Hill Road"/>
    <tag k="addr:state" v="VT"/>
    <tag k="ref:vcgi:esiteid" v="223401"/>
  </node>
  <node id="-185" visible="true" lat="44.91957531" lon="-72.96331992">
    <tag k="addr:housenumber" v="30"/>
    <tag k="addr:street" v="Rice Hill Road"/>
    <tag k="addr:state" v="VT"/>
    <tag k="ref:vcgi:esiteid" v="223405"/>
  </node>
  <node id="-192" visible="true" lat="44.91717528" lon="-72.96552612">
    <tag k="addr:housenumber" v="1237"/>
    <tag k="addr:street" v="Shawville Road"/>
    <tag k="addr:state" v="VT"/>
    <tag k="ref:vcgi:esiteid" v="223412"/>
  </node>
  <node id="-246" visible="true" lat="44.90992044" lon="-72.98189828">
    <tag k="addr:housenumber" v="1121"/>
    <tag k="addr:street" v="Heather Lane"/>
    <tag k="addr:state" v="VT"/>
    <tag k="ref:vcgi:esiteid" v="223467"/>
  </node>
  <node id="-297" visible="true" lat="44.90589695" lon="-72.97780829">
    <tag k="addr:housenumber" v="424"/>
    <tag k="addr:street" v="Mill Street"/>
    <tag k="addr:state" v="VT"/>
    <tag k="ref:vcgi:esiteid" v="223523"/>
  </node>
  <node id="-303" visible="true" lat="44.9054756" lon="-72.97693206">
    <tag k="addr:housenumber" v="117"/>
    <tag k="addr:street" v="Shawville Road"/>
    <tag k="addr:state" v="VT"/>
    <tag k="ref:vcgi:esiteid" v="223530"/>
  </node>
  <node id="-314" visible="true" lat="44.90478896" lon="-72.9771228">
    <tag k="addr:housenumber" v="69"/>
    <tag k="addr:street" v="Shawville Road"/>
    <tag k="addr:state" v="VT"/>
    <tag k="ref:vcgi:esiteid" v="223543"/>
  </node>
  <node id="-320" visible="true" lat="44.90488864" lon="-72.97527768">
    <tag k="addr:housenumber" v="545"/>
    <tag k="addr:street" v="Mill Street"/>
    <tag k="addr:state" v="VT"/>
    <tag k="ref:vcgi:esiteid" v="223549"/>
  </node>
  <node id="-325" visible="true" lat="44.90475275" lon="-72.97502181">
    <tag k="addr:housenumber" v="557"/>
    <tag k="addr:street" v="Mill Street"/>
    <tag k="addr:state" v="VT"/>
    <tag k="ref:vcgi:esiteid" v="223554"/>
  </node>
  <node id="-329" visible="true" lat="44.90443465" lon="-72.97583407">
    <tag k="addr:housenumber" v="554"/>
    <tag k="addr:street" v="Mill Street"/>
    <tag k="addr:state" v="VT"/>
    <tag k="ref:vcgi:esiteid" v="223558"/>
  </node>
  <node id="-330" visible="true" lat="44.90446525" lon="-72.97482075">
    <tag k="addr:housenumber" v="585"/>
    <tag k="addr:street" v="Mill Street"/>
    <tag k="addr:state" v="VT"/>
    <tag k="ref:vcgi:esiteid" v="223559"/>
  </node>
  <node id="-333" visible="true" lat="44.90449741" lon="-72.96340445">
    <tag k="addr:housenumber" v="386"/>
    <tag k="addr:street" v="Bergeron Road"/>
    <tag k="addr:state" v="VT"/>
    <tag k="ref:vcgi:esiteid" v="223562"/>
  </node>
  <node id="-335" visible="true" lat="44.90425516" lon="-72.9745862">
    <tag k="addr:housenumber" v="595"/>
    <tag k="addr:street" v="Mill Street"/>
    <tag k="addr:state" v="VT"/>
    <tag k="ref:vcgi:esiteid" v="223564"/>
  </node>
  <node id="-337" visible="true" lat="44.90427737" lon="-72.97523109">
    <tag k="addr:housenumber" v="580"/>
    <tag k="addr:street" v="Mill Street"/>
    <tag k="addr:state" v="VT"/>
    <tag k="ref:vcgi:esiteid" v="223566"/>
  </node>
  <node id="-339" visible="true" lat="44.90408705" lon="-72.97750427">
    <tag k="addr:housenumber" v="17"/>
    <tag k="addr:street" v="Shawville Road"/>
    <tag k="addr:state" v="VT"/>
    <tag k="ref:vcgi:esiteid" v="223568"/>
  </node>
  <node id="-340" visible="true" lat="44.90404509" lon="-72.97692443">
    <tag k="addr:housenumber" v="22"/>
    <tag k="addr:street" v="Shawville Road"/>
    <tag k="addr:state" v="VT"/>
    <tag k="ref:vcgi:esiteid" v="223569"/>
  </node>
  <node id="-342" visible="true" lat="44.90403248" lon="-72.97507206">
    <tag k="addr:housenumber" v="602"/>
    <tag k="addr:street" v="Mill Street"/>
    <tag k="addr:state" v="VT"/>
    <tag k="ref:vcgi:esiteid" v="223571"/>
  </node>
  <node id="-346" visible="true" lat="44.90384171" lon="-72.97486795">
    <tag k="addr:housenumber" v="616"/>
    <tag k="addr:street" v="Mill Street"/>
    <tag k="addr:state" v="VT"/>
    <tag k="ref:vcgi:esiteid" v="223576"/>
  </node>
  <node id="-349" visible="true" lat="44.90365131" lon="-72.97462114">
    <tag k="addr:housenumber" v="618"/>
    <tag k="addr:street" v="Mill Street"/>
    <tag k="addr:state" v="VT"/>
    <tag k="ref:vcgi:esiteid" v="223579"/>
  </node>
  <node id="-352" visible="true" lat="44.90372256" lon="-72.97403501">
    <tag k="addr:housenumber" v="648"/>
    <tag k="addr:street" v="Mill Street"/>
    <tag k="addr:state" v="VT"/>
    <tag k="ref:vcgi:esiteid" v="223582"/>
  </node>
  <node id="-353" visible="true" lat="44.90355836" lon="-72.97382184">
    <tag k="addr:housenumber" v="652"/>
    <tag k="addr:street" v="Mill Street"/>
    <tag k="addr:state" v="VT"/>
    <tag k="ref:vcgi:esiteid" v="223583"/>
  </node>
  <node id="-354" visible="true" lat="44.90350932" lon="-72.97435494">
    <tag k="addr:housenumber" v="650"/>
    <tag k="addr:street" v="Mill Street"/>
    <tag k="addr:state" v="VT"/>
    <tag k="ref:vcgi:esiteid" v="223584"/>
  </node>
  <node id="-359" visible="true" lat="44.90321858" lon="-72.97330349">
    <tag k="addr:housenumber" v="701"/>
    <tag k="addr:street" v="Mill Street"/>
    <tag k="addr:state" v="VT"/>
    <tag k="ref:vcgi:esiteid" v="223590"/>
  </node>
  <node id="-360" visible="true" lat="44.90307511" lon="-72.97396743">
    <tag k="addr:housenumber" v="682"/>
    <tag k="addr:street" v="Mill Street"/>
    <tag k="addr:state" v="VT"/>
    <tag k="ref:vcgi:esiteid" v="223591"/>
  </node>
  <node id="-361" visible="true" lat="44.90294891" lon="-72.97376586">
    <tag k="addr:housenumber" v="684"/>
    <tag k="addr:street" v="Mill Street"/>
    <tag k="addr:state" v="VT"/>
    <tag k="ref:vcgi:esiteid" v="223592"/>
  </node>
  <node id="-364" visible="true" lat="44.9028897" lon="-72.97300656">
    <tag k="addr:housenumber" v="721"/>
    <tag k="addr:street" v="Mill Street"/>
    <tag k="addr:state" v="VT"/>
    <tag k="ref:vcgi:esiteid" v="223595"/>
  </node>
  <node id="-368" visible="true" lat="44.90272428" lon="-72.97279909">
    <tag k="addr:housenumber" v="725"/>
    <tag k="addr:street" v="Mill Street"/>
    <tag k="addr:state" v="VT"/>
    <tag k="ref:vcgi:esiteid" v="223599"/>
  </node>
  <node id="-394" visible="true" lat="44.90201592" lon="-72.97224321">
    <tag k="addr:housenumber" v="38"/>
    <tag k="addr:street" v="School Street"/>
    <tag k="addr:state" v="VT"/>
    <tag k="ref:vcgi:esiteid" v="223625"/>
  </node>
  <node id="-395" visible="true" lat="44.90200867" lon="-72.9740598">
    <tag k="addr:housenumber" v="134"/>
    <tag k="addr:street" v="School Street"/>
    <tag k="addr:state" v="VT"/>
    <tag k="ref:vcgi:esiteid" v="223626"/>
  </node>
  <node id="-397" visible="true" lat="44.9020114" lon="-72.97386765">
    <tag k="addr:housenumber" v="130"/>
    <tag k="addr:street" v="School Street"/>
    <tag k="addr:state" v="VT"/>
    <tag k="ref:vcgi:esiteid" v="223628"/>
  </node>
  <node id="-399" visible="true" lat="44.90201978" lon="-72.97345562">
    <tag k="addr:housenumber" v="96"/>
    <tag k="addr:street" v="School Street"/>
    <tag k="addr:state" v="VT"/>
    <tag k="ref:vcgi:esiteid" v="223630"/>
  </node>
  <node id="-400" visible="true" lat="44.90202845" lon="-72.97292587">
    <tag k="addr:housenumber" v="76"/>
    <tag k="addr:street" v="School Street"/>
    <tag k="addr:state" v="VT"/>
    <tag k="ref:vcgi:esiteid" v="223631"/>
  </node>
  <node id="-401" visible="true" lat="44.90202029" lon="-72.97304828">
    <tag k="addr:housenumber" v="84"/>
    <tag k="addr:street" v="School Street"/>
    <tag k="addr:state" v="VT"/>
    <tag k="ref:vcgi:esiteid" v="223632"/>
  </node>
  <node id="-402" visible="true" lat="44.90201403" lon="-72.9736668">
    <tag k="addr:housenumber" v="124"/>
    <tag k="addr:street" v="School Street"/>
    <tag k="addr:state" v="VT"/>
    <tag k="ref:vcgi:esiteid" v="223633"/>
  </node>
  <node id="-403" visible="true" lat="44.90202315" lon="-72.97445224">
    <tag k="addr:housenumber" v="152"/>
    <tag k="addr:street" v="School Street"/>
    <tag k="addr:state" v="VT"/>
    <tag k="ref:vcgi:esiteid" v="223634"/>
  </node>
  <node id="-404" visible="true" lat="44.90202409" lon="-72.97486772">
    <tag k="addr:housenumber" v="158"/>
    <tag k="addr:street" v="School Street"/>
    <tag k="addr:state" v="VT"/>
    <tag k="ref:vcgi:esiteid" v="223635"/>
  </node>
  <node id="-405" visible="true" lat="44.90200324" lon="-72.97326408">
    <tag k="addr:housenumber" v="92"/>
    <tag k="addr:street" v="School Street"/>
    <tag k="addr:state" v="VT"/>
    <tag k="ref:vcgi:esiteid" v="223636"/>
  </node>
  <node id="-406" visible="true" lat="44.90202378" lon="-72.97425772">
    <tag k="addr:housenumber" v="140"/>
    <tag k="addr:street" v="School Street"/>
    <tag k="addr:state" v="VT"/>
    <tag k="ref:vcgi:esiteid" v="223637"/>
  </node>
  <node id="-407" visible="true" lat="44.90201825" lon="-72.9726208">
    <tag k="addr:housenumber" v="62"/>
    <tag k="addr:street" v="School Street"/>
    <tag k="addr:state" v="VT"/>
    <tag k="ref:vcgi:esiteid" v="223638"/>
  </node>
  <node id="-409" visible="true" lat="44.90202453" lon="-72.97466475">
    <tag k="addr:housenumber" v="156"/>
    <tag k="addr:street" v="School Street"/>
    <tag k="addr:state" v="VT"/>
    <tag k="ref:vcgi:esiteid" v="223640"/>
  </node>
  <node id="-411" visible="true" lat="44.9016959" lon="-72.97405284">
    <tag k="addr:housenumber" v="133"/>
    <tag k="addr:street" v="School Street"/>
    <tag k="addr:state" v="VT"/>
    <tag k="ref:vcgi:esiteid" v="223642"/>
  </node>
  <node id="-412" visible="true" lat="44.90174864" lon="-72.9726596">
    <tag k="addr:housenumber" v="57"/>
    <tag k="addr:street" v="School Street"/>
    <tag k="addr:state" v="VT"/>
    <tag k="ref:vcgi:esiteid" v="223643"/>
  </node>
  <node id="-413" visible="true" lat="44.90174483" lon="-72.97283508">
    <tag k="addr:housenumber" v="67"/>
    <tag k="addr:street" v="School Street"/>
    <tag k="addr:state" v="VT"/>
    <tag k="ref:vcgi:esiteid" v="223644"/>
  </node>
  <node id="-414" visible="true" lat="44.9017372" lon="-72.97385741">
    <tag k="addr:housenumber" v="117"/>
    <tag k="addr:street" v="School Street"/>
    <tag k="addr:state" v="VT"/>
    <tag k="ref:vcgi:esiteid" v="223645"/>
  </node>
  <node id="-415" visible="true" lat="44.9017372" lon="-72.97305633">
    <tag k="addr:housenumber" v="77"/>
    <tag k="addr:street" v="School Street"/>
    <tag k="addr:state" v="VT"/>
    <tag k="ref:vcgi:esiteid" v="223646"/>
  </node>
  <node id="-416" visible="true" lat="44.90172957" lon="-72.97445251">
    <tag k="addr:housenumber" v="145"/>
    <tag k="addr:street" v="School Street"/>
    <tag k="addr:state" v="VT"/>
    <tag k="ref:vcgi:esiteid" v="223647"/>
  </node>
  <node id="-417" visible="true" lat="44.90173338" lon="-72.97222473">
    <tag k="addr:housenumber" v="37"/>
    <tag k="addr:street" v="School Street"/>
    <tag k="addr:state" v="VT"/>
    <tag k="ref:vcgi:esiteid" v="223648"/>
  </node>
  <node id="-419" visible="true" lat="44.90172576" lon="-72.97365905">
    <tag k="addr:housenumber" v="107"/>
    <tag k="addr:street" v="School Street"/>
    <tag k="addr:state" v="VT"/>
    <tag k="ref:vcgi:esiteid" v="223650"/>
  </node>
  <node id="-420" visible="true" lat="44.90170668" lon="-72.97324706">
    <tag k="addr:housenumber" v="87"/>
    <tag k="addr:street" v="School Street"/>
    <tag k="addr:state" v="VT"/>
    <tag k="ref:vcgi:esiteid" v="223651"/>
  </node>
  <node id="-421" visible="true" lat="44.90169142" lon="-72.97424651">
    <tag k="addr:housenumber" v="139"/>
    <tag k="addr:street" v="School Street"/>
    <tag k="addr:state" v="VT"/>
    <tag k="ref:vcgi:esiteid" v="223652"/>
  </node>
  <node id="-422" visible="true" lat="44.90169142" lon="-72.97345306">
    <tag k="addr:housenumber" v="97"/>
    <tag k="addr:street" v="School Street"/>
    <tag k="addr:state" v="VT"/>
    <tag k="ref:vcgi:esiteid" v="223653"/>
  </node>
  <node id="-423" visible="true" lat="44.90167616" lon="-72.97243835">
    <tag k="addr:housenumber" v="47"/>
    <tag k="addr:street" v="School Street"/>
    <tag k="addr:state" v="VT"/>
    <tag k="ref:vcgi:esiteid" v="223654"/>
  </node>
  <node id="-446" visible="true" lat="44.90066942" lon="-72.96947452">
    <tag k="addr:housenumber" v="78"/>
    <tag k="addr:street" v="Poor Farm Road"/>
    <tag k="addr:state" v="VT"/>
    <tag k="ref:vcgi:esiteid" v="223677"/>
  </node>
  <node id="-469" visible="true" lat="44.89826583" lon="-72.95250274">
    <tag k="addr:housenumber" v="242"/>
    <tag k="addr:street" v="Main Street"/>
    <tag k="addr:state" v="VT"/>
    <tag k="ref:vcgi:esiteid" v="223700"/>
  </node>
  <node id="-491" visible="true" lat="44.8959732" lon="-73.01469421">
    <tag k="addr:housenumber" v="348"/>
    <tag k="addr:street" v="Woods Hill Road"/>
    <tag k="addr:state" v="VT"/>
    <tag k="ref:vcgi:esiteid" v="223722"/>
  </node>
  <node id="-493" visible="true" lat="44.89622115" lon="-72.94967986">
    <tag k="addr:housenumber" v="416"/>
    <tag k="addr:street" v="Main Street"/>
    <tag k="addr:state" v="VT"/>
    <tag k="ref:vcgi:esiteid" v="223724"/>
  </node>
  <node id="-501" visible="true" lat="44.89517211" lon="-72.94619323">
    <tag k="addr:housenumber" v="608"/>
    <tag k="addr:street" v="Main Street"/>
    <tag k="addr:state" v="VT"/>
    <tag k="ref:vcgi:esiteid" v="223732"/>
  </node>
  <node id="-502" visible="true" lat="44.89514922" lon="-72.94861938">
    <tag k="addr:housenumber" v="498"/>
    <tag k="addr:street" v="Main Street"/>
    <tag k="addr:state" v="VT"/>
    <tag k="ref:vcgi:esiteid" v="223733"/>
  </node>
  <node id="-530" visible="true" lat="44.89327171" lon="-72.94522111">
    <tag k="addr:housenumber" v="757"/>
    <tag k="addr:street" v="Main Street"/>
    <tag k="addr:state" v="VT"/>
    <tag k="ref:vcgi:esiteid" v="223762"/>
  </node>
  <node id="-615" visible="true" lat="44.88655471" lon="-72.947052">
    <tag k="addr:housenumber" v="1228"/>
    <tag k="addr:street" v="Main Street"/>
    <tag k="addr:state" v="VT"/>
    <tag k="ref:vcgi:esiteid" v="223850"/>
  </node>
  <node id="-625" visible="true" lat="44.88600774" lon="-72.94743563">
    <tag k="addr:housenumber" v="1272"/>
    <tag k="addr:street" v="Main Street"/>
    <tag k="addr:state" v="VT"/>
    <tag k="ref:vcgi:esiteid" v="223861"/>
  </node>
  <node id="-626" visible="true" lat="44.88591961" lon="-72.94688882">
    <tag k="addr:housenumber" v="1271"/>
    <tag k="addr:street" v="Main Street"/>
    <tag k="addr:state" v="VT"/>
    <tag k="ref:vcgi:esiteid" v="223862"/>
  </node>
  <node id="-629" visible="true" lat="44.88531494" lon="-72.94739532">
    <tag k="addr:housenumber" v="1314"/>
    <tag k="addr:street" v="Main Street"/>
    <tag k="addr:state" v="VT"/>
    <tag k="ref:vcgi:esiteid" v="223865"/>
  </node>
  <node id="-631" visible="true" lat="44.88529205" lon="-72.95084381">
    <tag k="addr:housenumber" v="150"/>
    <tag k="addr:street" v="Sheldon Woods Road"/>
    <tag k="addr:state" v="VT"/>
    <tag k="ref:vcgi:esiteid" v="223867"/>
  </node>
  <node id="-632" visible="true" lat="44.88518905" lon="-72.94698333">
    <tag k="addr:housenumber" v="1321"/>
    <tag k="addr:street" v="Main Street"/>
    <tag k="addr:state" v="VT"/>
    <tag k="ref:vcgi:esiteid" v="223868"/>
  </node>
  <node id="-636" visible="true" lat="44.88497543" lon="-72.94777679">
    <tag k="addr:housenumber" v="29"/>
    <tag k="addr:street" v="Sheldon Woods Road"/>
    <tag k="addr:state" v="VT"/>
    <tag k="ref:vcgi:esiteid" v="223872"/>
  </node>
  <node id="-639" visible="true" lat="44.88483362" lon="-72.94928546">
    <tag k="addr:housenumber" v="115"/>
    <tag k="addr:street" v="Sheldon Woods Road"/>
    <tag k="addr:state" v="VT"/>
    <tag k="ref:vcgi:esiteid" v="223875"/>
  </node>
  <node id="-643" visible="true" lat="44.88472366" lon="-72.95034027">
    <tag k="addr:housenumber" v="165"/>
    <tag k="addr:street" v="Sheldon Woods Road"/>
    <tag k="addr:state" v="VT"/>
    <tag k="ref:vcgi:esiteid" v="223879"/>
  </node>
  <node id="-659" visible="true" lat="44.8840962" lon="-72.94783077">
    <tag k="addr:housenumber" v="1404"/>
    <tag k="addr:street" v="Main Street"/>
    <tag k="addr:state" v="VT"/>
    <tag k="ref:vcgi:esiteid" v="223895"/>
  </node>
  <node id="-660" visible="true" lat="44.88385569" lon="-72.94641876">
    <tag k="addr:housenumber" v="1413"/>
    <tag k="addr:street" v="Main Street"/>
    <tag k="addr:state" v="VT"/>
    <tag k="ref:vcgi:esiteid" v="223896"/>
  </node>
  <node id="-665" visible="true" lat="44.88343811" lon="-72.94709014">
    <tag k="addr:housenumber" v="1444"/>
    <tag k="addr:street" v="Main Street"/>
    <tag k="addr:state" v="VT"/>
    <tag k="ref:vcgi:esiteid" v="223901"/>
  </node>
  <node id="-666" visible="true" lat="44.88340992" lon="-72.9465575">
    <tag k="addr:housenumber" v="1449"/>
    <tag k="addr:street" v="Main Street"/>
    <tag k="addr:state" v="VT"/>
    <tag k="ref:vcgi:esiteid" v="223902"/>
  </node>
  <node id="-671" visible="true" lat="44.8831551" lon="-72.94723559">
    <tag k="addr:housenumber" v="1462"/>
    <tag k="addr:street" v="Main Street"/>
    <tag k="addr:state" v="VT"/>
    <tag k="ref:vcgi:esiteid" v="223907"/>
  </node>
  <node id="-675" visible="true" lat="44.88307022" lon="-72.94644226">
    <tag k="addr:housenumber" v="1475"/>
    <tag k="addr:street" v="Main Street"/>
    <tag k="addr:state" v="VT"/>
    <tag k="ref:vcgi:esiteid" v="223911"/>
  </node>
  <node id="-676" visible="true" lat="44.88291525" lon="-72.94713694">
    <tag k="addr:housenumber" v="1476"/>
    <tag k="addr:street" v="Main Street"/>
    <tag k="addr:state" v="VT"/>
    <tag k="ref:vcgi:esiteid" v="223912"/>
  </node>
  <node id="-681" visible="true" lat="44.88271331" lon="-72.94657134">
    <tag k="addr:housenumber" v="1495"/>
    <tag k="addr:street" v="Main Street"/>
    <tag k="addr:state" v="VT"/>
    <tag k="ref:vcgi:esiteid" v="223917"/>
  </node>
  <node id="-683" visible="true" lat="44.88261188" lon="-72.94708622">
    <tag k="addr:housenumber" v="1504"/>
    <tag k="addr:street" v="Main Street"/>
    <tag k="addr:state" v="VT"/>
    <tag k="ref:vcgi:esiteid" v="223919"/>
  </node>
  <node id="-686" visible="true" lat="44.88243703" lon="-72.9464132">
    <tag k="addr:housenumber" v="1517"/>
    <tag k="addr:street" v="Main Street"/>
    <tag k="addr:state" v="VT"/>
    <tag k="ref:vcgi:esiteid" v="223922"/>
  </node>
  <node id="-690" visible="true" lat="44.88220303" lon="-72.94702823">
    <tag k="addr:housenumber" v="1526"/>
    <tag k="addr:street" v="Main Street"/>
    <tag k="addr:state" v="VT"/>
    <tag k="ref:vcgi:esiteid" v="223926"/>
  </node>
  <node id="-692" visible="true" lat="44.88223038" lon="-72.94633536">
    <tag k="addr:housenumber" v="1533"/>
    <tag k="addr:street" v="Main Street"/>
    <tag k="addr:state" v="VT"/>
    <tag k="ref:vcgi:esiteid" v="223928"/>
  </node>
  <node id="-699" visible="true" lat="44.88164669" lon="-72.94690957">
    <tag k="addr:housenumber" v="1570"/>
    <tag k="addr:street" v="Main Street"/>
    <tag k="addr:state" v="VT"/>
    <tag k="ref:vcgi:esiteid" v="223935"/>
  </node>
  <node id="-702" visible="true" lat="44.88153002" lon="-72.94400701">
    <tag k="addr:housenumber" v="125"/>
    <tag k="addr:street" v="Bridge Street"/>
    <tag k="addr:state" v="VT"/>
    <tag k="ref:vcgi:esiteid" v="223938"/>
  </node>
  <node id="-703" visible="true" lat="44.88150203" lon="-72.94420199">
    <tag k="addr:housenumber" v="107"/>
    <tag k="addr:street" v="Bridge Street"/>
    <tag k="addr:state" v="VT"/>
    <tag k="ref:vcgi:esiteid" v="223939"/>
  </node>
  <node id="-704" visible="true" lat="44.88147271" lon="-72.94477355">
    <tag k="addr:housenumber" v="83"/>
    <tag k="addr:street" v="Bridge Street"/>
    <tag k="addr:state" v="VT"/>
    <tag k="ref:vcgi:esiteid" v="223940"/>
  </node>
  <node id="-705" visible="true" lat="44.88145381" lon="-72.94456548">
    <tag k="addr:housenumber" v="93"/>
    <tag k="addr:street" v="Bridge Street"/>
    <tag k="addr:state" v="VT"/>
    <tag k="ref:vcgi:esiteid" v="223941"/>
  </node>
  <node id="-706" visible="true" lat="44.88145201" lon="-72.94502636">
    <tag k="addr:housenumber" v="65"/>
    <tag k="addr:street" v="Bridge Street"/>
    <tag k="addr:state" v="VT"/>
    <tag k="ref:vcgi:esiteid" v="223942"/>
  </node>
  <node id="-708" visible="true" lat="44.88142881" lon="-72.94528955">
    <tag k="addr:housenumber" v="57"/>
    <tag k="addr:street" v="Bridge Street"/>
    <tag k="addr:state" v="VT"/>
    <tag k="ref:vcgi:esiteid" v="223944"/>
  </node>
  <node id="-709" visible="true" lat="44.88147006" lon="-72.94608344">
    <tag k="addr:housenumber" v="21"/>
    <tag k="addr:street" v="Bridge Street"/>
    <tag k="addr:state" v="VT"/>
    <tag k="ref:vcgi:esiteid" v="223945"/>
  </node>
  <node id="-710" visible="true" lat="44.88144408" lon="-72.94579561">
    <tag k="addr:housenumber" v="33"/>
    <tag k="addr:street" v="Bridge Street"/>
    <tag k="addr:state" v="VT"/>
    <tag k="ref:vcgi:esiteid" v="223946"/>
  </node>
  <node id="-711" visible="true" lat="44.8812293" lon="-72.94403355">
    <tag k="addr:housenumber" v="110"/>
    <tag k="addr:street" v="Bridge Street"/>
    <tag k="addr:state" v="VT"/>
    <tag k="ref:vcgi:esiteid" v="223947"/>
  </node>
  <node id="-712" visible="true" lat="44.88114902" lon="-72.94690571">
    <tag k="addr:housenumber" v="1598"/>
    <tag k="addr:street" v="Main Street"/>
    <tag k="addr:state" v="VT"/>
    <tag k="ref:vcgi:esiteid" v="223948"/>
  </node>
  <node id="-713" visible="true" lat="44.88117217" lon="-72.94448852">
    <tag k="addr:housenumber" v="94"/>
    <tag k="addr:street" v="Bridge Street"/>
    <tag k="addr:state" v="VT"/>
    <tag k="ref:vcgi:esiteid" v="223950"/>
  </node>
  <node id="-714" visible="true" lat="44.88108185" lon="-72.94519886">
    <tag k="addr:housenumber" v="54"/>
    <tag k="addr:street" v="Bridge Street"/>
    <tag k="addr:state" v="VT"/>
    <tag k="ref:vcgi:esiteid" v="223951"/>
  </node>
  <node id="-716" visible="true" lat="44.88088522" lon="-72.94695219">
    <tag k="addr:housenumber" v="1618"/>
    <tag k="addr:street" v="Main Street"/>
    <tag k="addr:state" v="VT"/>
    <tag k="ref:vcgi:esiteid" v="223953"/>
  </node>
  <node id="-718" visible="true" lat="44.88068182" lon="-72.9460427">
    <tag k="addr:housenumber" v="1637"/>
    <tag k="addr:street" v="Main Street"/>
    <tag k="addr:state" v="VT"/>
    <tag k="ref:vcgi:esiteid" v="223955"/>
  </node>
  <node id="-720" visible="true" lat="44.88063142" lon="-72.94677108">
    <tag k="addr:housenumber" v="1640"/>
    <tag k="addr:street" v="Main Street"/>
    <tag k="addr:state" v="VT"/>
    <tag k="ref:vcgi:esiteid" v="223957"/>
  </node>
  <node id="-725" visible="true" lat="44.88028857" lon="-72.94664262">
    <tag k="addr:housenumber" v="1660"/>
    <tag k="addr:street" v="Main Street"/>
    <tag k="addr:state" v="VT"/>
    <tag k="ref:vcgi:esiteid" v="223962"/>
  </node>
  <node id="-771" visible="true" lat="44.90401189" lon="-72.9743542">
    <tag k="addr:housenumber" v="614"/>
    <tag k="addr:street" v="Mill Street"/>
    <tag k="addr:state" v="VT"/>
    <tag k="ref:vcgi:esiteid" v="224010"/>
  </node>
  <node id="-819" visible="true" lat="44.92488779" lon="-72.95307219">
    <tag k="addr:housenumber" v="171"/>
    <tag k="addr:street" v="Dunton Road"/>
    <tag k="addr:state" v="VT"/>
    <tag k="ref:vcgi:esiteid" v="224065"/>
  </node>
  <node id="-820" visible="true" lat="44.92423743" lon="-72.93220755">
    <tag k="addr:housenumber" v="1630"/>
    <tag k="addr:street" v="Rice Hill Road"/>
    <tag k="addr:state" v="VT"/>
    <tag k="ref:vcgi:esiteid" v="224067"/>
  </node>
  <node id="-821" visible="true" lat="44.93106657" lon="-72.91934423">
    <tag k="addr:housenumber" v="2036"/>
    <tag k="addr:street" v="Rice Hill Road"/>
    <tag k="addr:state" v="VT"/>
    <tag k="ref:vcgi:esiteid" v="224068"/>
  </node>
  <node id="-822" visible="true" lat="44.92972734" lon="-72.92083082">
    <tag k="addr:housenumber" v="2032"/>
    <tag k="addr:street" v="Rice Hill Road"/>
    <tag k="addr:state" v="VT"/>
    <tag k="ref:vcgi:esiteid" v="224069"/>
  </node>
  <node id="-873" visible="true" lat="44.91783303" lon="-72.96432922">
    <tag k="addr:housenumber" v="1276"/>
    <tag k="addr:street" v="Shawville Road"/>
    <tag k="addr:state" v="VT"/>
    <tag k="ref:vcgi:esiteid" v="224132"/>
  </node>
  <node id="-874" visible="true" lat="44.91813062" lon="-72.96417763">
    <tag k="addr:housenumber" v="1290"/>
    <tag k="addr:street" v="Shawville Road"/>
    <tag k="addr:state" v="VT"/>
    <tag k="ref:vcgi:esiteid" v="224133"/>
  </node>
  <node id="-905" visible="true" lat="44.90620199" lon="-72.97906311">
    <tag k="addr:housenumber" v="350"/>
    <tag k="addr:street" v="Mill Street"/>
    <tag k="addr:state" v="VT"/>
    <tag k="ref:vcgi:esiteid" v="313168"/>
  </node>
  <node id="-906" visible="true" lat="44.904977" lon="-72.9837354">
    <tag k="addr:housenumber" v="2422"/>
    <tag k="addr:street" v="Vermont Route 105"/>
    <tag k="addr:state" v="VT"/>
    <tag k="ref:vcgi:esiteid" v="313169"/>
  </node>
  <node id="-907" visible="true" lat="44.8843621" lon="-72.94634637">
    <tag k="addr:housenumber" v="1375"/>
    <tag k="addr:street" v="Main Street"/>
    <tag k="addr:state" v="VT"/>
    <tag k="ref:vcgi:esiteid" v="313170"/>
  </node>
  <node id="-908" visible="true" lat="44.90433384" lon="-72.96297553">
    <tag k="addr:housenumber" v="373"/>
    <tag k="addr:street" v="Bergeron Road"/>
    <tag k="addr:state" v="VT"/>
    <tag k="ref:vcgi:esiteid" v="313171"/>
  </node>
  <node id="-927" visible="true" lat="44.90438788" lon="-72.97795051">
    <tag k="addr:housenumber" v="67"/>
    <tag k="addr:street" v="Shawville Road"/>
    <tag k="addr:state" v="VT"/>
    <tag k="ref:vcgi:esiteid" v="326862"/>
  </node>
  <node id="-928" visible="true" lat="44.89290097" lon="-73.02260714">
    <tag k="addr:housenumber" v="775"/>
    <tag k="addr:street" v="Woods Hill Road"/>
    <tag k="addr:state" v="VT"/>
    <tag k="ref:vcgi:esiteid" v="326863"/>
  </node>
  <node id="-983" visible="true" lat="44.90166284" lon="-72.96807999">
    <tag k="addr:housenumber" v="110"/>
    <tag k="addr:street" v="Poor Farm Road"/>
    <tag k="addr:state" v="VT"/>
    <tag k="ref:vcgi:esiteid" v="335709"/>
  </node>
  <node id="-1007" visible="true" lat="44.91057451" lon="-72.97955124">
    <tag k="addr:housenumber" v="965"/>
    <tag k="addr:street" v="Heather Lane"/>
    <tag k="addr:state" v="VT"/>
    <tag k="ref:vcgi:esiteid" v="341681"/>
  </node>
  <node id="-1025" visible="true" lat="44.90569195" lon="-72.97583431">
    <tag k="addr:housenumber" v="479"/>
    <tag k="addr:street" v="Mill Street"/>
    <tag k="addr:state" v="VT"/>
    <tag k="ref:vcgi:esiteid" v="342859"/>
  </node>
  <node id="-1033" visible="true" lat="44.92616318" lon="-72.95240836">
    <tag k="addr:housenumber" v="319"/>
    <tag k="addr:street" v="Dunton Road"/>
    <tag k="addr:state" v="VT"/>
    <tag k="ref:vcgi:esiteid" v="342868"/>
  </node>
  <node id="-1043" visible="true" lat="44.90199805" lon="-72.97231954">
    <tag k="addr:housenumber" v="40"/>
    <tag k="addr:street" v="School Street"/>
    <tag k="addr:state" v="VT"/>
    <tag k="ref:vcgi:esiteid" v="345319"/>
  </node>
  <node id="-1059" visible="true" lat="44.88519167" lon="-72.94019117">
    <tag k="addr:housenumber" v="217"/>
    <tag k="addr:street" v="Pleasant Street"/>
    <tag k="addr:state" v="VT"/>
    <tag k="ref:vcgi:esiteid" v="450312"/>
  </node>
  <node id="-1060" visible="true" lat="44.88711155" lon="-72.94587998">
    <tag k="addr:housenumber" v="1153"/>
    <tag k="addr:street" v="Main Street"/>
    <tag k="addr:state" v="VT"/>
    <tag k="ref:vcgi:esiteid" v="450313"/>
  </node>
  <node id="-1062" visible="true" lat="44.90289447" lon="-72.97748788">
    <tag k="addr:housenumber" v="67"/>
    <tag k="addr:street" v="Sweet Hollow Road"/>
    <tag k="addr:state" v="VT"/>
    <tag k="ref:vcgi:esiteid" v="452020"/>
  </node>
  <node id="-1074" visible="true" lat="44.90509958" lon="-72.9764157">
    <tag k="addr:housenumber" v="482"/>
    <tag k="addr:street" v="Mill Street"/>
    <tag k="addr:state" v="VT"/>
    <tag k="ref:vcgi:esiteid" v="453527"/>
  </node>
  <node id="-1075" visible="true" lat="44.90578328" lon="-72.98201585">
    <tag k="addr:housenumber" v="118"/>
    <tag k="addr:street" v="Mill Street"/>
    <tag k="addr:state" v="VT"/>
    <tag k="ref:vcgi:esiteid" v="453528"/>
  </node>
  <node id="-1090" visible="true" lat="44.89147272" lon="-73.0196625">
    <tag k="addr:housenumber" v="541"/>
    <tag k="addr:street" v="Woods Hill Road"/>
    <tag k="addr:state" v="VT"/>
    <tag k="ref:vcgi:esiteid" v="615543"/>
  </node>
  <node id="-1091" visible="true" lat="44.89599516" lon="-73.01607409">
    <tag k="addr:housenumber" v="444"/>
    <tag k="addr:street" v="Woods Hill Road"/>
    <tag k="addr:state" v="VT"/>
    <tag k="ref:vcgi:esiteid" v="615545"/>
  </node>
</osm>
