<?xml version="1.0" encoding="UTF-8"?>
<osm version="0.6" generator="JOSM">
  <node id="-365" visible="true" lat="43.89452362" lon="-73.31330871">
    <tag k="addr:housenumber" v="65"/>
    <tag k="addr:street" v="Inn Road"/>
    <tag k="addr:state" v="VT"/>
    <tag k="ref:vcgi:esiteid" v="225780"/>
  </node>
  <node id="-367" visible="true" lat="43.8944522" lon="-73.31062085">
    <tag k="addr:housenumber" v="74"/>
    <tag k="addr:street" v="Main Street"/>
    <tag k="addr:state" v="VT"/>
    <tag k="ref:vcgi:esiteid" v="225782"/>
  </node>
  <node id="-371" visible="true" lat="43.89436428" lon="-73.31218409">
    <tag k="addr:housenumber" v="99"/>
    <tag k="addr:street" v="Inn Road"/>
    <tag k="addr:state" v="VT"/>
    <tag k="ref:vcgi:esiteid" v="225786"/>
  </node>
  <node id="-373" visible="true" lat="43.89434093" lon="-73.31261616">
    <tag k="addr:housenumber" v="83"/>
    <tag k="addr:street" v="Inn Road"/>
    <tag k="addr:state" v="VT"/>
    <tag k="ref:vcgi:esiteid" v="225788"/>
  </node>
  <node id="-378" visible="true" lat="43.89423117" lon="-73.31321727">
    <tag k="addr:housenumber" v="51"/>
    <tag k="addr:street" v="Inn Road"/>
    <tag k="addr:state" v="VT"/>
    <tag k="ref:vcgi:esiteid" v="225794"/>
  </node>
  <node id="-379" visible="true" lat="43.89422678" lon="-73.31383385">
    <tag k="addr:housenumber" v="23"/>
    <tag k="addr:street" v="Inn Road"/>
    <tag k="addr:state" v="VT"/>
    <tag k="ref:vcgi:esiteid" v="225795"/>
  </node>
  <node id="-381" visible="true" lat="43.89414182" lon="-73.31410939">
    <tag k="addr:housenumber" v="11"/>
    <tag k="addr:street" v="Inn Road"/>
    <tag k="addr:state" v="VT"/>
    <tag k="ref:vcgi:esiteid" v="225797"/>
  </node>
  <node id="-382" visible="true" lat="43.89405455" lon="-73.31475744">
    <tag k="addr:housenumber" v="280"/>
    <tag k="addr:street" v="Main Street"/>
    <tag k="addr:state" v="VT"/>
    <tag k="ref:vcgi:esiteid" v="225798"/>
  </node>
  <node id="-384" visible="true" lat="43.89402389" lon="-73.31005096">
    <tag k="addr:housenumber" v="51"/>
    <tag k="addr:street" v="Main Street"/>
    <tag k="addr:state" v="VT"/>
    <tag k="ref:vcgi:esiteid" v="225801"/>
  </node>
  <node id="-386" visible="true" lat="43.89412963" lon="-73.31533694">
    <tag k="addr:housenumber" v="308"/>
    <tag k="addr:street" v="Main Street"/>
    <tag k="addr:state" v="VT"/>
    <tag k="ref:vcgi:esiteid" v="225803"/>
  </node>
  <node id="-387" visible="true" lat="43.89394725" lon="-73.31050227">
    <tag k="addr:housenumber" v="75"/>
    <tag k="addr:street" v="Main Street"/>
    <tag k="addr:state" v="VT"/>
    <tag k="ref:vcgi:esiteid" v="225804"/>
  </node>
  <node id="-390" visible="true" lat="43.89393615" lon="-73.31131744">
    <tag k="addr:housenumber" v="115"/>
    <tag k="addr:street" v="Main Street"/>
    <tag k="addr:state" v="VT"/>
    <tag k="ref:vcgi:esiteid" v="225807"/>
  </node>
  <node id="-391" visible="true" lat="43.89386749" lon="-73.31166839">
    <tag k="addr:housenumber" v="131"/>
    <tag k="addr:street" v="Main Street"/>
    <tag k="addr:state" v="VT"/>
    <tag k="ref:vcgi:esiteid" v="225808"/>
  </node>
  <node id="-392" visible="true" lat="43.89396264" lon="-73.31748239">
    <tag k="addr:housenumber" v="416"/>
    <tag k="addr:street" v="Main Street"/>
    <tag k="addr:state" v="VT"/>
    <tag k="ref:vcgi:esiteid" v="225809"/>
  </node>
  <node id="-393" visible="true" lat="43.89394134" lon="-73.3157282">
    <tag k="addr:housenumber" v="332"/>
    <tag k="addr:street" v="Main Street"/>
    <tag k="addr:state" v="VT"/>
    <tag k="ref:vcgi:esiteid" v="225810"/>
  </node>
  <node id="-396" visible="true" lat="43.89379119" lon="-73.31208801">
    <tag k="addr:housenumber" v="153"/>
    <tag k="addr:street" v="Main Street"/>
    <tag k="addr:state" v="VT"/>
    <tag k="ref:vcgi:esiteid" v="225813"/>
  </node>
  <node id="-397" visible="true" lat="43.89385265" lon="-73.31633085">
    <tag k="addr:housenumber" v="362"/>
    <tag k="addr:street" v="Main Street"/>
    <tag k="addr:state" v="VT"/>
    <tag k="ref:vcgi:esiteid" v="225814"/>
  </node>
  <node id="-398" visible="true" lat="43.89377528" lon="-73.31250309">
    <tag k="addr:housenumber" v="175"/>
    <tag k="addr:street" v="Main Street"/>
    <tag k="addr:state" v="VT"/>
    <tag k="ref:vcgi:esiteid" v="225815"/>
  </node>
  <node id="-399" visible="true" lat="43.89370727" lon="-73.31298065">
    <tag k="addr:housenumber" v="199"/>
    <tag k="addr:street" v="Main Street"/>
    <tag k="addr:state" v="VT"/>
    <tag k="ref:vcgi:esiteid" v="225816"/>
  </node>
  <node id="-400" visible="true" lat="43.89369157" lon="-73.31278642">
    <tag k="addr:housenumber" v="191"/>
    <tag k="addr:street" v="Main Street"/>
    <tag k="addr:state" v="VT"/>
    <tag k="ref:vcgi:esiteid" v="225817"/>
  </node>
  <node id="-401" visible="true" lat="43.89374832" lon="-73.31727746">
    <tag k="addr:housenumber" v="410"/>
    <tag k="addr:street" v="Main Street"/>
    <tag k="addr:state" v="VT"/>
    <tag k="ref:vcgi:esiteid" v="225818"/>
  </node>
  <node id="-402" visible="true" lat="43.8936882" lon="-73.31310272">
    <tag k="addr:housenumber" v="205"/>
    <tag k="addr:street" v="Main Street"/>
    <tag k="addr:state" v="VT"/>
    <tag k="ref:vcgi:esiteid" v="225819"/>
  </node>
  <node id="-403" visible="true" lat="43.89368057" lon="-73.31328582">
    <tag k="addr:housenumber" v="213"/>
    <tag k="addr:street" v="Main Street"/>
    <tag k="addr:state" v="VT"/>
    <tag k="ref:vcgi:esiteid" v="225820"/>
  </node>
  <node id="-404" visible="true" lat="43.89366531" lon="-73.31356048">
    <tag k="addr:housenumber" v="227"/>
    <tag k="addr:street" v="Main Street"/>
    <tag k="addr:state" v="VT"/>
    <tag k="ref:vcgi:esiteid" v="225821"/>
  </node>
  <node id="-405" visible="true" lat="43.8936171" lon="-73.3138943">
    <tag k="addr:housenumber" v="245"/>
    <tag k="addr:street" v="Main Street"/>
    <tag k="addr:state" v="VT"/>
    <tag k="ref:vcgi:esiteid" v="225822"/>
  </node>
  <node id="-408" visible="true" lat="43.89340669" lon="-73.31457688">
    <tag k="addr:housenumber" v="279"/>
    <tag k="addr:street" v="Main Street"/>
    <tag k="addr:state" v="VT"/>
    <tag k="ref:vcgi:esiteid" v="225825"/>
  </node>
  <node id="-409" visible="true" lat="43.89337577" lon="-73.31524673">
    <tag k="addr:housenumber" v="297"/>
    <tag k="addr:street" v="Main Street"/>
    <tag k="addr:state" v="VT"/>
    <tag k="ref:vcgi:esiteid" v="225826"/>
  </node>
  <node id="-411" visible="true" lat="43.8932981" lon="-73.31645005">
    <tag k="addr:housenumber" v="28"/>
    <tag k="addr:street" v="School Road"/>
    <tag k="addr:state" v="VT"/>
    <tag k="ref:vcgi:esiteid" v="225830"/>
  </node>
  <node id="-413" visible="true" lat="43.89289679" lon="-73.31378891">
    <tag k="addr:housenumber" v="53"/>
    <tag k="addr:street" v="Firehouse Road"/>
    <tag k="addr:state" v="VT"/>
    <tag k="ref:vcgi:esiteid" v="225832"/>
  </node>
  <node id="-418" visible="true" lat="43.89238739" lon="-73.31625366">
    <tag k="addr:housenumber" v="82"/>
    <tag k="addr:street" v="School Road"/>
    <tag k="addr:state" v="VT"/>
    <tag k="ref:vcgi:esiteid" v="225837"/>
  </node>
  <node id="-423" visible="true" lat="43.89185059" lon="-73.3163309">
    <tag k="addr:housenumber" v="130"/>
    <tag k="addr:street" v="School Road"/>
    <tag k="addr:state" v="VT"/>
    <tag k="ref:vcgi:esiteid" v="225843"/>
  </node>
  <node id="-426" visible="true" lat="43.89061046" lon="-73.31519698">
    <tag k="addr:housenumber" v="215"/>
    <tag k="addr:street" v="School Street"/>
    <tag k="addr:state" v="VT"/>
    <tag k="ref:vcgi:esiteid" v="225849"/>
  </node>
  <node id="-429" visible="true" lat="43.89023971" lon="-73.31571197">
    <tag k="addr:housenumber" v="234"/>
    <tag k="addr:street" v="School Street"/>
    <tag k="addr:state" v="VT"/>
    <tag k="ref:vcgi:esiteid" v="225852"/>
  </node>
  <node id="-430" visible="true" lat="43.89019012" lon="-73.31517028">
    <tag k="addr:housenumber" v="241"/>
    <tag k="addr:street" v="School Street"/>
    <tag k="addr:state" v="VT"/>
    <tag k="ref:vcgi:esiteid" v="225853"/>
  </node>
  <node id="-433" visible="true" lat="43.88947296" lon="-73.31554412">
    <tag k="addr:housenumber" v="288"/>
    <tag k="addr:street" v="School Street"/>
    <tag k="addr:state" v="VT"/>
    <tag k="ref:vcgi:esiteid" v="225856"/>
  </node>
  <node id="-435" visible="true" lat="43.88876825" lon="-73.31559803">
    <tag k="addr:housenumber" v="342"/>
    <tag k="addr:street" v="School Street"/>
    <tag k="addr:state" v="VT"/>
    <tag k="ref:vcgi:esiteid" v="225858"/>
  </node>
  <node id="-438" visible="true" lat="43.8880278" lon="-73.31538498">
    <tag k="addr:housenumber" v="400"/>
    <tag k="addr:street" v="School Street"/>
    <tag k="addr:state" v="VT"/>
    <tag k="ref:vcgi:esiteid" v="225861"/>
  </node>
  <node id="-440" visible="true" lat="43.88794959" lon="-73.31454501">
    <tag k="addr:housenumber" v="405"/>
    <tag k="addr:street" v="School Street"/>
    <tag k="addr:state" v="VT"/>
    <tag k="ref:vcgi:esiteid" v="225863"/>
  </node>
  <node id="-443" visible="true" lat="43.88731268" lon="-73.31549652">
    <tag k="addr:housenumber" v="448"/>
    <tag k="addr:street" v="School Street"/>
    <tag k="addr:state" v="VT"/>
    <tag k="ref:vcgi:esiteid" v="225866"/>
  </node>
  <node id="-446" visible="true" lat="43.88692903" lon="-73.31456532">
    <tag k="addr:housenumber" v="247"/>
    <tag k="addr:street" v="Cemetery Hill Road"/>
    <tag k="addr:state" v="VT"/>
    <tag k="ref:vcgi:esiteid" v="225869"/>
  </node>
  <node id="-448" visible="true" lat="43.8860512" lon="-73.37404369">
    <tag k="addr:housenumber" v="3153"/>
    <tag k="addr:street" v="Watch Point Road"/>
    <tag k="addr:state" v="VT"/>
    <tag k="ref:vcgi:esiteid" v="225871"/>
  </node>
  <node id="-457" visible="true" lat="43.88606291" lon="-73.23431075">
    <tag k="addr:housenumber" v="1282"/>
    <tag k="addr:street" v="Webster Road"/>
    <tag k="addr:state" v="VT"/>
    <tag k="ref:vcgi:esiteid" v="225880"/>
  </node>
  <node id="-467" visible="true" lat="43.88490397" lon="-73.30141727">
    <tag k="addr:housenumber" v="445"/>
    <tag k="addr:street" v="Richville Road"/>
    <tag k="addr:state" v="VT"/>
    <tag k="ref:vcgi:esiteid" v="225890"/>
  </node>
  <node id="-468" visible="true" lat="43.8848713" lon="-73.30062027">
    <tag k="addr:housenumber" v="489"/>
    <tag k="addr:street" v="Richville Road"/>
    <tag k="addr:state" v="VT"/>
    <tag k="ref:vcgi:esiteid" v="225891"/>
  </node>
  <node id="-470" visible="true" lat="43.8845743" lon="-73.31391283">
    <tag k="addr:housenumber" v="625"/>
    <tag k="addr:street" v="School Street"/>
    <tag k="addr:state" v="VT"/>
    <tag k="ref:vcgi:esiteid" v="225893"/>
  </node>
  <node id="-471" visible="true" lat="43.88410568" lon="-73.31552124">
    <tag k="addr:housenumber" v="654"/>
    <tag k="addr:street" v="School Street"/>
    <tag k="addr:state" v="VT"/>
    <tag k="ref:vcgi:esiteid" v="225895"/>
  </node>
  <node id="-479" visible="true" lat="43.88330841" lon="-73.30096435">
    <tag k="addr:housenumber" v="536"/>
    <tag k="addr:street" v="Richville Road"/>
    <tag k="addr:state" v="VT"/>
    <tag k="ref:vcgi:esiteid" v="225903"/>
  </node>
  <node id="-483" visible="true" lat="43.88280105" lon="-73.3007965">
    <tag k="addr:housenumber" v="572"/>
    <tag k="addr:street" v="Richville Road"/>
    <tag k="addr:state" v="VT"/>
    <tag k="ref:vcgi:esiteid" v="225907"/>
  </node>
  <node id="-490" visible="true" lat="43.88183422" lon="-73.29902639">
    <tag k="addr:housenumber" v="679"/>
    <tag k="addr:street" v="Richville Road"/>
    <tag k="addr:state" v="VT"/>
    <tag k="ref:vcgi:esiteid" v="225914"/>
  </node>
  <node id="-495" visible="true" lat="43.88070722" lon="-73.29673808">
    <tag k="addr:housenumber" v="845"/>
    <tag k="addr:street" v="Richville Road"/>
    <tag k="addr:state" v="VT"/>
    <tag k="ref:vcgi:esiteid" v="225919"/>
  </node>
  <node id="-496" visible="true" lat="43.88064193" lon="-73.29352569">
    <tag k="addr:housenumber" v="967"/>
    <tag k="addr:street" v="Richville Road"/>
    <tag k="addr:state" v="VT"/>
    <tag k="ref:vcgi:esiteid" v="225920"/>
  </node>
  <node id="-497" visible="true" lat="43.88055419" lon="-73.29829406">
    <tag k="addr:housenumber" v="764"/>
    <tag k="addr:street" v="Richville Road"/>
    <tag k="addr:state" v="VT"/>
    <tag k="ref:vcgi:esiteid" v="225921"/>
  </node>
  <node id="-498" visible="true" lat="43.8805802" lon="-73.29303779">
    <tag k="addr:housenumber" v="1029"/>
    <tag k="addr:street" v="Richville Road"/>
    <tag k="addr:state" v="VT"/>
    <tag k="ref:vcgi:esiteid" v="225922"/>
  </node>
  <node id="-499" visible="true" lat="43.8803957" lon="-73.29459942">
    <tag k="addr:housenumber" v="941"/>
    <tag k="addr:street" v="Richville Road"/>
    <tag k="addr:state" v="VT"/>
    <tag k="ref:vcgi:esiteid" v="225923"/>
  </node>
  <node id="-509" visible="true" lat="43.87924957" lon="-73.28925323">
    <tag k="addr:housenumber" v="1254"/>
    <tag k="addr:street" v="Richville Road"/>
    <tag k="addr:state" v="VT"/>
    <tag k="ref:vcgi:esiteid" v="225933"/>
  </node>
  <node id="-515" visible="true" lat="43.87859654" lon="-73.287175">
    <tag k="addr:housenumber" v="1359"/>
    <tag k="addr:street" v="Richville Road"/>
    <tag k="addr:state" v="VT"/>
    <tag k="ref:vcgi:esiteid" v="225939"/>
  </node>
  <node id="-522" visible="true" lat="43.87736892" lon="-73.28398895">
    <tag k="addr:housenumber" v="1547"/>
    <tag k="addr:street" v="Richville Road"/>
    <tag k="addr:state" v="VT"/>
    <tag k="ref:vcgi:esiteid" v="225946"/>
  </node>
  <node id="-523" visible="true" lat="43.87734603" lon="-73.28453826">
    <tag k="addr:housenumber" v="1523"/>
    <tag k="addr:street" v="Richville Road"/>
    <tag k="addr:state" v="VT"/>
    <tag k="ref:vcgi:esiteid" v="225947"/>
  </node>
  <node id="-524" visible="true" lat="43.87726593" lon="-73.28592681">
    <tag k="addr:housenumber" v="1452"/>
    <tag k="addr:street" v="Richville Road"/>
    <tag k="addr:state" v="VT"/>
    <tag k="ref:vcgi:esiteid" v="225948"/>
  </node>
  <node id="-526" visible="true" lat="43.87697601" lon="-73.28538513">
    <tag k="addr:housenumber" v="1498"/>
    <tag k="addr:street" v="Richville Road"/>
    <tag k="addr:state" v="VT"/>
    <tag k="ref:vcgi:esiteid" v="225950"/>
  </node>
  <node id="-540" visible="true" lat="43.87596511" lon="-73.28090667">
    <tag k="addr:housenumber" v="1727"/>
    <tag k="addr:street" v="Richville Road"/>
    <tag k="addr:state" v="VT"/>
    <tag k="ref:vcgi:esiteid" v="225964"/>
  </node>
  <node id="-543" visible="true" lat="43.87564248" lon="-73.28003896">
    <tag k="addr:housenumber" v="1773"/>
    <tag k="addr:street" v="Richville Road"/>
    <tag k="addr:state" v="VT"/>
    <tag k="ref:vcgi:esiteid" v="225967"/>
  </node>
  <node id="-548" visible="true" lat="43.87496185" lon="-73.28034973">
    <tag k="addr:housenumber" v="31"/>
    <tag k="addr:street" v="Kerrfield Drive"/>
    <tag k="addr:state" v="VT"/>
    <tag k="ref:vcgi:esiteid" v="225972"/>
  </node>
  <node id="-553" visible="true" lat="43.87461471" lon="-73.27814483">
    <tag k="addr:housenumber" v="1893"/>
    <tag k="addr:street" v="Richville Road"/>
    <tag k="addr:state" v="VT"/>
    <tag k="ref:vcgi:esiteid" v="225977"/>
  </node>
  <node id="-554" visible="true" lat="43.8742485" lon="-73.27880096">
    <tag k="addr:housenumber" v="1868"/>
    <tag k="addr:street" v="Richville Road"/>
    <tag k="addr:state" v="VT"/>
    <tag k="ref:vcgi:esiteid" v="225978"/>
  </node>
  <node id="-564" visible="true" lat="43.87309646" lon="-73.27885436">
    <tag k="addr:housenumber" v="247"/>
    <tag k="addr:street" v="Kerrfield Drive"/>
    <tag k="addr:state" v="VT"/>
    <tag k="ref:vcgi:esiteid" v="225988"/>
  </node>
  <node id="-571" visible="true" lat="43.87276105" lon="-73.27410472">
    <tag k="addr:housenumber" v="1509"/>
    <tag k="addr:street" v="North Orwell Road"/>
    <tag k="addr:state" v="VT"/>
    <tag k="ref:vcgi:esiteid" v="225995"/>
  </node>
  <node id="-572" visible="true" lat="43.87269134" lon="-73.27474969">
    <tag k="addr:housenumber" v="1491"/>
    <tag k="addr:street" v="North Orwell Road"/>
    <tag k="addr:state" v="VT"/>
    <tag k="ref:vcgi:esiteid" v="225996"/>
  </node>
  <node id="-574" visible="true" lat="43.87246322" lon="-73.27534484">
    <tag k="addr:housenumber" v="1471"/>
    <tag k="addr:street" v="North Orwell Road"/>
    <tag k="addr:state" v="VT"/>
    <tag k="ref:vcgi:esiteid" v="225998"/>
  </node>
  <node id="-576" visible="true" lat="43.8718872" lon="-73.27653503">
    <tag k="addr:housenumber" v="1443"/>
    <tag k="addr:street" v="North Orwell Road"/>
    <tag k="addr:state" v="VT"/>
    <tag k="ref:vcgi:esiteid" v="226000"/>
  </node>
  <node id="-580" visible="true" lat="43.87129029" lon="-73.27416972">
    <tag k="addr:housenumber" v="1358"/>
    <tag k="addr:street" v="North Orwell Road"/>
    <tag k="addr:state" v="VT"/>
    <tag k="ref:vcgi:esiteid" v="226004"/>
  </node>
  <node id="-582" visible="true" lat="43.87109756" lon="-73.27533721">
    <tag k="addr:housenumber" v="1365"/>
    <tag k="addr:street" v="North Orwell Road"/>
    <tag k="addr:state" v="VT"/>
    <tag k="ref:vcgi:esiteid" v="226006"/>
  </node>
  <node id="-585" visible="true" lat="43.870121" lon="-73.2745285">
    <tag k="addr:housenumber" v="1316"/>
    <tag k="addr:street" v="North Orwell Road"/>
    <tag k="addr:state" v="VT"/>
    <tag k="ref:vcgi:esiteid" v="226010"/>
  </node>
  <node id="-592" visible="true" lat="43.86932387" lon="-73.27408691">
    <tag k="addr:housenumber" v="1290"/>
    <tag k="addr:street" v="North Orwell Road"/>
    <tag k="addr:state" v="VT"/>
    <tag k="ref:vcgi:esiteid" v="226017"/>
  </node>
  <node id="-602" visible="true" lat="43.8667984" lon="-73.2891922">
    <tag k="addr:housenumber" v="274"/>
    <tag k="addr:street" v="Lewis Road"/>
    <tag k="addr:state" v="VT"/>
    <tag k="ref:vcgi:esiteid" v="226028"/>
  </node>
  <node id="-608" visible="true" lat="43.86495208" lon="-73.27984619">
    <tag k="addr:housenumber" v="889"/>
    <tag k="addr:street" v="North Orwell Road"/>
    <tag k="addr:state" v="VT"/>
    <tag k="ref:vcgi:esiteid" v="226034"/>
  </node>
  <node id="-611" visible="true" lat="43.86433029" lon="-73.28092956">
    <tag k="addr:housenumber" v="1505"/>
    <tag k="addr:street" v="Brown Road"/>
    <tag k="addr:state" v="VT"/>
    <tag k="ref:vcgi:esiteid" v="226037"/>
  </node>
  <node id="-613" visible="true" lat="43.86401368" lon="-73.28279398">
    <tag k="addr:housenumber" v="1413"/>
    <tag k="addr:street" v="Brown Road"/>
    <tag k="addr:state" v="VT"/>
    <tag k="ref:vcgi:esiteid" v="226039"/>
  </node>
  <node id="-614" visible="true" lat="43.8635065" lon="-73.28826613">
    <tag k="addr:housenumber" v="52"/>
    <tag k="addr:street" v="Lewis Road"/>
    <tag k="addr:state" v="VT"/>
    <tag k="ref:vcgi:esiteid" v="226040"/>
  </node>
  <node id="-617" visible="true" lat="43.86162185" lon="-73.28016662">
    <tag k="addr:housenumber" v="659"/>
    <tag k="addr:street" v="North Orwell Road"/>
    <tag k="addr:state" v="VT"/>
    <tag k="ref:vcgi:esiteid" v="226043"/>
  </node>
  <node id="-618" visible="true" lat="43.86098798" lon="-73.3322434">
    <tag k="addr:housenumber" v="2528"/>
    <tag k="addr:street" v="Hemenway Hill Road"/>
    <tag k="addr:state" v="VT"/>
    <tag k="ref:vcgi:esiteid" v="226044"/>
  </node>
  <node id="-622" visible="true" lat="43.8606684" lon="-73.29146163">
    <tag k="addr:housenumber" v="914"/>
    <tag k="addr:street" v="Brown Road"/>
    <tag k="addr:state" v="VT"/>
    <tag k="ref:vcgi:esiteid" v="226048"/>
  </node>
  <node id="-625" visible="true" lat="43.86008834" lon="-73.30680847">
    <tag k="addr:housenumber" v="132"/>
    <tag k="addr:street" v="Brown Road"/>
    <tag k="addr:state" v="VT"/>
    <tag k="ref:vcgi:esiteid" v="226051"/>
  </node>
  <node id="-627" visible="true" lat="43.8599748" lon="-73.29481908">
    <tag k="addr:housenumber" v="738"/>
    <tag k="addr:street" v="Brown Road"/>
    <tag k="addr:state" v="VT"/>
    <tag k="ref:vcgi:esiteid" v="226053"/>
  </node>
  <node id="-635" visible="true" lat="43.85856513" lon="-73.33143246">
    <tag k="addr:housenumber" v="2378"/>
    <tag k="addr:street" v="Hemenway Hill Road"/>
    <tag k="addr:state" v="VT"/>
    <tag k="ref:vcgi:esiteid" v="226061"/>
  </node>
  <node id="-636" visible="true" lat="43.85820927" lon="-73.3331118">
    <tag k="addr:housenumber" v="1152"/>
    <tag k="addr:street" v="Barnum Hill Road"/>
    <tag k="addr:state" v="VT"/>
    <tag k="ref:vcgi:esiteid" v="226062"/>
  </node>
  <node id="-638" visible="true" lat="43.85828105" lon="-73.32942789">
    <tag k="addr:housenumber" v="1009"/>
    <tag k="addr:street" v="Barnum Hill Road"/>
    <tag k="addr:state" v="VT"/>
    <tag k="ref:vcgi:esiteid" v="226064"/>
  </node>
  <node id="-639" visible="true" lat="43.85821134" lon="-73.33029348">
    <tag k="addr:housenumber" v="1047"/>
    <tag k="addr:street" v="Barnum Hill Road"/>
    <tag k="addr:state" v="VT"/>
    <tag k="ref:vcgi:esiteid" v="226065"/>
  </node>
  <node id="-643" visible="true" lat="43.85760388" lon="-73.33151444">
    <tag k="addr:housenumber" v="2290"/>
    <tag k="addr:street" v="Hemenway Hill Road"/>
    <tag k="addr:state" v="VT"/>
    <tag k="ref:vcgi:esiteid" v="226069"/>
  </node>
  <node id="-671" visible="true" lat="43.85062582" lon="-73.36749279">
    <tag k="addr:housenumber" v="74"/>
    <tag k="addr:street" v="Hanson Road"/>
    <tag k="addr:state" v="VT"/>
    <tag k="ref:vcgi:esiteid" v="226097"/>
  </node>
  <node id="-674" visible="true" lat="43.84938049" lon="-73.36811828">
    <tag k="addr:housenumber" v="160"/>
    <tag k="addr:street" v="Hanson Road"/>
    <tag k="addr:state" v="VT"/>
    <tag k="ref:vcgi:esiteid" v="226100"/>
  </node>
  <node id="-675" visible="true" lat="43.84913188" lon="-73.36729451">
    <tag k="addr:housenumber" v="195"/>
    <tag k="addr:street" v="Hanson Road"/>
    <tag k="addr:state" v="VT"/>
    <tag k="ref:vcgi:esiteid" v="226101"/>
  </node>
  <node id="-677" visible="true" lat="43.84754086" lon="-73.36745926">
    <tag k="addr:housenumber" v="130"/>
    <tag k="addr:street" v="Ti View Lane"/>
    <tag k="addr:state" v="VT"/>
    <tag k="ref:vcgi:esiteid" v="226103"/>
  </node>
  <node id="-678" visible="true" lat="43.84755372" lon="-73.3667666">
    <tag k="addr:housenumber" v="82"/>
    <tag k="addr:street" v="Ti View Lane"/>
    <tag k="addr:state" v="VT"/>
    <tag k="ref:vcgi:esiteid" v="226104"/>
  </node>
  <node id="-679" visible="true" lat="43.84735077" lon="-73.3670776">
    <tag k="addr:housenumber" v="96"/>
    <tag k="addr:street" v="Ti View Lane"/>
    <tag k="addr:state" v="VT"/>
    <tag k="ref:vcgi:esiteid" v="226105"/>
  </node>
  <node id="-680" visible="true" lat="43.84723654" lon="-73.36743868">
    <tag k="addr:housenumber" v="121"/>
    <tag k="addr:street" v="Ti View Lane"/>
    <tag k="addr:state" v="VT"/>
    <tag k="ref:vcgi:esiteid" v="226106"/>
  </node>
  <node id="-681" visible="true" lat="43.8468404" lon="-73.36730198">
    <tag k="addr:housenumber" v="101"/>
    <tag k="addr:street" v="Ti View Lane"/>
    <tag k="addr:state" v="VT"/>
    <tag k="ref:vcgi:esiteid" v="226107"/>
  </node>
  <node id="-707" visible="true" lat="43.86171428" lon="-73.28555686">
    <tag k="addr:housenumber" v="1266"/>
    <tag k="addr:street" v="Brown Road"/>
    <tag k="addr:state" v="VT"/>
    <tag k="ref:vcgi:esiteid" v="226133"/>
  </node>
  <node id="-708" visible="true" lat="43.86535748" lon="-73.28184412">
    <tag k="addr:housenumber" v="1471"/>
    <tag k="addr:street" v="Brown Road"/>
    <tag k="addr:state" v="VT"/>
    <tag k="ref:vcgi:esiteid" v="226134"/>
  </node>
  <node id="-717" visible="true" lat="43.87801159" lon="-73.28585721">
    <tag k="addr:housenumber" v="1449"/>
    <tag k="addr:street" v="Richville Road"/>
    <tag k="addr:state" v="VT"/>
    <tag k="ref:vcgi:esiteid" v="226143"/>
  </node>
  <node id="-762" visible="true" lat="43.84802876" lon="-73.32969957">
    <tag k="addr:housenumber" v="1673"/>
    <tag k="addr:street" v="Hemenway Hill Road"/>
    <tag k="addr:state" v="VT"/>
    <tag k="ref:vcgi:esiteid" v="226189"/>
  </node>
  <node id="-764" visible="true" lat="43.86150384" lon="-73.30485978">
    <tag k="addr:housenumber" v="241"/>
    <tag k="addr:street" v="Brown Road"/>
    <tag k="addr:state" v="VT"/>
    <tag k="ref:vcgi:esiteid" v="226191"/>
  </node>
  <node id="-798" visible="true" lat="43.86567172" lon="-73.28870629">
    <tag k="addr:housenumber" v="190"/>
    <tag k="addr:street" v="Lewis Road"/>
    <tag k="addr:state" v="VT"/>
    <tag k="ref:vcgi:esiteid" v="311925"/>
  </node>
  <node id="-800" visible="true" lat="43.89117447" lon="-73.31517802">
    <tag k="addr:housenumber" v="21"/>
    <tag k="addr:street" v="Oliver Howe Court"/>
    <tag k="addr:state" v="VT"/>
    <tag k="ref:vcgi:esiteid" v="316063"/>
  </node>
  <node id="-810" visible="true" lat="43.89137124" lon="-73.31394242">
    <tag k="addr:housenumber" v="87"/>
    <tag k="addr:street" v="Oliver Howe Court"/>
    <tag k="addr:state" v="VT"/>
    <tag k="ref:vcgi:esiteid" v="328391"/>
  </node>
  <node id="-813" visible="true" lat="43.89068644" lon="-73.31456845">
    <tag k="addr:housenumber" v="44"/>
    <tag k="addr:street" v="Oliver Howe Court"/>
    <tag k="addr:state" v="VT"/>
    <tag k="ref:vcgi:esiteid" v="328394"/>
  </node>
  <node id="-815" visible="true" lat="43.89069494" lon="-73.31384175">
    <tag k="addr:housenumber" v="82"/>
    <tag k="addr:street" v="Oliver Howe Court"/>
    <tag k="addr:state" v="VT"/>
    <tag k="ref:vcgi:esiteid" v="328396"/>
  </node>
  <node id="-820" visible="true" lat="43.85921967" lon="-73.37201727">
    <tag k="addr:housenumber" v="191"/>
    <tag k="addr:street" v="Holmes Lane"/>
    <tag k="addr:state" v="VT"/>
    <tag k="ref:vcgi:esiteid" v="335831"/>
  </node>
  <node id="-822" visible="true" lat="43.84394572" lon="-73.36669587">
    <tag k="addr:housenumber" v="175"/>
    <tag k="addr:street" v="Meadow Lane"/>
    <tag k="addr:state" v="VT"/>
    <tag k="ref:vcgi:esiteid" v="336150"/>
  </node>
  <node id="-831" visible="true" lat="43.8498399" lon="-73.32972">
    <tag k="addr:housenumber" v="1825"/>
    <tag k="addr:street" v="Hemenway Hill Road"/>
    <tag k="addr:state" v="VT"/>
    <tag k="ref:vcgi:esiteid" v="340058"/>
  </node>
  <node id="-835" visible="true" lat="43.86080729" lon="-73.30699877">
    <tag k="addr:housenumber" v="141"/>
    <tag k="addr:street" v="Brown Road"/>
    <tag k="addr:state" v="VT"/>
    <tag k="ref:vcgi:esiteid" v="341376"/>
  </node>
  <node id="-837" visible="true" lat="43.84416696" lon="-73.36420885">
    <tag k="addr:housenumber" v="57"/>
    <tag k="addr:street" v="Meadow Lane"/>
    <tag k="addr:state" v="VT"/>
    <tag k="ref:vcgi:esiteid" v="341539"/>
  </node>
  <node id="-838" visible="true" lat="43.84395481" lon="-73.36614968">
    <tag k="addr:housenumber" v="171"/>
    <tag k="addr:street" v="Meadow Lane"/>
    <tag k="addr:state" v="VT"/>
    <tag k="ref:vcgi:esiteid" v="341540"/>
  </node>
  <node id="-846" visible="true" lat="43.8883394" lon="-73.31544163">
    <tag k="addr:housenumber" v="368"/>
    <tag k="addr:street" v="School Street"/>
    <tag k="addr:state" v="VT"/>
    <tag k="ref:vcgi:esiteid" v="446040"/>
  </node>
  <node id="-847" visible="true" lat="43.87406757" lon="-73.28142384">
    <tag k="addr:housenumber" v="146"/>
    <tag k="addr:street" v="Kerrfield Drive"/>
    <tag k="addr:state" v="VT"/>
    <tag k="ref:vcgi:esiteid" v="446483"/>
  </node>
  <node id="-850" visible="true" lat="43.88373504" lon="-73.30003829">
    <tag k="addr:housenumber" v="499"/>
    <tag k="addr:street" v="Richville Road"/>
    <tag k="addr:state" v="VT"/>
    <tag k="ref:vcgi:esiteid" v="452462"/>
  </node>
</osm>
