<?xml version="1.0" encoding="UTF-8"?>
<osm version="0.6" generator="JOSM">
  <node id="-102" visible="true" lat="43.48219238" lon="-72.85285459">
    <tag k="addr:city" v="Shrewsbury"/>
    <tag k="addr:housenumber" v="131"/>
    <tag k="addr:street" v="Lushus Acres Lane"/>
    <tag k="addr:state" v="VT"/>
    <tag k="ref:vcgi:esiteid" v="170981"/>
  </node>
  <node id="-103" visible="true" lat="43.48259492" lon="-72.85213359">
    <tag k="addr:city" v="Shrewsbury"/>
    <tag k="addr:housenumber" v="150"/>
    <tag k="addr:street" v="Lushus Acres Lane"/>
    <tag k="addr:state" v="VT"/>
    <tag k="ref:vcgi:esiteid" v="226219"/>
  </node>
  <node id="-111" visible="true" lat="43.56311416" lon="-72.91254425">
    <tag k="addr:city" v="Shrewsbury"/>
    <tag k="addr:housenumber" v="647"/>
    <tag k="addr:street" v="Upper Cold River Road"/>
    <tag k="addr:state" v="VT"/>
    <tag k="ref:vcgi:esiteid" v="226227"/>
  </node>
  <node id="-114" visible="true" lat="43.56221945" lon="-72.91078304">
    <tag k="addr:city" v="Shrewsbury"/>
    <tag k="addr:housenumber" v="713"/>
    <tag k="addr:street" v="Upper Cold River Road"/>
    <tag k="addr:state" v="VT"/>
    <tag k="ref:vcgi:esiteid" v="226230"/>
  </node>
  <node id="-116" visible="true" lat="43.56211748" lon="-72.9037755">
    <tag k="addr:city" v="Shrewsbury"/>
    <tag k="addr:housenumber" v="1061"/>
    <tag k="addr:street" v="Upper Cold River Road"/>
    <tag k="addr:state" v="VT"/>
    <tag k="ref:vcgi:esiteid" v="226232"/>
  </node>
  <node id="-117" visible="true" lat="43.56180145" lon="-72.91166889">
    <tag k="addr:city" v="Shrewsbury"/>
    <tag k="addr:housenumber" v="694"/>
    <tag k="addr:street" v="Upper Cold River Road"/>
    <tag k="addr:state" v="VT"/>
    <tag k="ref:vcgi:esiteid" v="226233"/>
  </node>
  <node id="-121" visible="true" lat="43.56151054" lon="-72.90505622">
    <tag k="addr:city" v="Shrewsbury"/>
    <tag k="addr:housenumber" v="1049"/>
    <tag k="addr:street" v="Upper Cold River Road"/>
    <tag k="addr:state" v="VT"/>
    <tag k="ref:vcgi:esiteid" v="226237"/>
  </node>
  <node id="-123" visible="true" lat="43.55996107" lon="-72.88858049">
    <tag k="addr:city" v="Shrewsbury"/>
    <tag k="addr:housenumber" v="1871"/>
    <tag k="addr:street" v="Upper Cold River Road"/>
    <tag k="addr:state" v="VT"/>
    <tag k="ref:vcgi:esiteid" v="226239"/>
  </node>
  <node id="-124" visible="true" lat="43.56008247" lon="-72.91664038">
    <tag k="addr:city" v="Shrewsbury"/>
    <tag k="addr:housenumber" v="4635"/>
    <tag k="addr:street" v="Cold River Road"/>
    <tag k="addr:state" v="VT"/>
    <tag k="ref:vcgi:esiteid" v="226240"/>
  </node>
  <node id="-125" visible="true" lat="43.55968756" lon="-72.89391429">
    <tag k="addr:city" v="Shrewsbury"/>
    <tag k="addr:housenumber" v="1598"/>
    <tag k="addr:street" v="Upper Cold River Road"/>
    <tag k="addr:state" v="VT"/>
    <tag k="ref:vcgi:esiteid" v="226241"/>
  </node>
  <node id="-126" visible="true" lat="43.55997313" lon="-72.89249618">
    <tag k="addr:city" v="Shrewsbury"/>
    <tag k="addr:housenumber" v="1657"/>
    <tag k="addr:street" v="Upper Cold River Road"/>
    <tag k="addr:state" v="VT"/>
    <tag k="ref:vcgi:esiteid" v="226242"/>
  </node>
  <node id="-128" visible="true" lat="43.55941701" lon="-72.91860761">
    <tag k="addr:city" v="Shrewsbury"/>
    <tag k="addr:housenumber" v="77"/>
    <tag k="addr:street" v="Wallace Road"/>
    <tag k="addr:state" v="VT"/>
    <tag k="ref:vcgi:esiteid" v="226244"/>
  </node>
  <node id="-129" visible="true" lat="43.55945144" lon="-72.91429108">
    <tag k="addr:city" v="Shrewsbury"/>
    <tag k="addr:housenumber" v="4755"/>
    <tag k="addr:street" v="Cold River Road"/>
    <tag k="addr:state" v="VT"/>
    <tag k="ref:vcgi:esiteid" v="226245"/>
  </node>
  <node id="-130" visible="true" lat="43.55884677" lon="-72.9160295">
    <tag k="addr:city" v="Shrewsbury"/>
    <tag k="addr:housenumber" v="4660"/>
    <tag k="addr:street" v="Cold River Road"/>
    <tag k="addr:state" v="VT"/>
    <tag k="ref:vcgi:esiteid" v="226246"/>
  </node>
  <node id="-131" visible="true" lat="43.55907944" lon="-72.89122329">
    <tag k="addr:city" v="Shrewsbury"/>
    <tag k="addr:housenumber" v="1722"/>
    <tag k="addr:street" v="Upper Cold River Road"/>
    <tag k="addr:state" v="VT"/>
    <tag k="ref:vcgi:esiteid" v="226247"/>
  </node>
  <node id="-132" visible="true" lat="43.55899025" lon="-72.91505395">
    <tag k="addr:city" v="Shrewsbury"/>
    <tag k="addr:housenumber" v="4722"/>
    <tag k="addr:street" v="Cold River Road"/>
    <tag k="addr:state" v="VT"/>
    <tag k="ref:vcgi:esiteid" v="226248"/>
  </node>
  <node id="-133" visible="true" lat="43.55892846" lon="-72.9127885">
    <tag k="addr:city" v="Shrewsbury"/>
    <tag k="addr:housenumber" v="4817"/>
    <tag k="addr:street" v="Cold River Road"/>
    <tag k="addr:state" v="VT"/>
    <tag k="ref:vcgi:esiteid" v="226249"/>
  </node>
  <node id="-135" visible="true" lat="43.55760472" lon="-72.91424069">
    <tag k="addr:city" v="Shrewsbury"/>
    <tag k="addr:housenumber" v="4816"/>
    <tag k="addr:street" v="Cold River Road"/>
    <tag k="addr:state" v="VT"/>
    <tag k="ref:vcgi:esiteid" v="226251"/>
  </node>
  <node id="-136" visible="true" lat="43.55829354" lon="-72.88841099">
    <tag k="addr:city" v="Shrewsbury"/>
    <tag k="addr:housenumber" v="1892"/>
    <tag k="addr:street" v="Upper Cold River Road"/>
    <tag k="addr:state" v="VT"/>
    <tag k="ref:vcgi:esiteid" v="226252"/>
  </node>
  <node id="-137" visible="true" lat="43.5582876" lon="-72.88714128">
    <tag k="addr:city" v="Shrewsbury"/>
    <tag k="addr:housenumber" v="1951"/>
    <tag k="addr:street" v="Upper Cold River Road"/>
    <tag k="addr:state" v="VT"/>
    <tag k="ref:vcgi:esiteid" v="226253"/>
  </node>
  <node id="-138" visible="true" lat="43.55794143" lon="-72.92156219">
    <tag k="addr:city" v="Shrewsbury"/>
    <tag k="addr:housenumber" v="321"/>
    <tag k="addr:street" v="Wallace Road"/>
    <tag k="addr:state" v="VT"/>
    <tag k="ref:vcgi:esiteid" v="226254"/>
  </node>
  <node id="-140" visible="true" lat="43.55796896" lon="-72.88773044">
    <tag k="addr:city" v="Shrewsbury"/>
    <tag k="addr:housenumber" v="1944"/>
    <tag k="addr:street" v="Upper Cold River Road"/>
    <tag k="addr:state" v="VT"/>
    <tag k="ref:vcgi:esiteid" v="226256"/>
  </node>
  <node id="-142" visible="true" lat="43.55752944" lon="-72.9199829">
    <tag k="addr:city" v="Shrewsbury"/>
    <tag k="addr:housenumber" v="209"/>
    <tag k="addr:street" v="Wallace Road"/>
    <tag k="addr:state" v="VT"/>
    <tag k="ref:vcgi:esiteid" v="226258"/>
  </node>
  <node id="-143" visible="true" lat="43.55734902" lon="-72.88632948">
    <tag k="addr:city" v="Shrewsbury"/>
    <tag k="addr:housenumber" v="2020"/>
    <tag k="addr:street" v="Upper Cold River Road"/>
    <tag k="addr:state" v="VT"/>
    <tag k="ref:vcgi:esiteid" v="226259"/>
  </node>
  <node id="-144" visible="true" lat="43.55710728" lon="-72.88425675">
    <tag k="addr:city" v="Shrewsbury"/>
    <tag k="addr:housenumber" v="2115"/>
    <tag k="addr:street" v="Upper Cold River Road"/>
    <tag k="addr:state" v="VT"/>
    <tag k="ref:vcgi:esiteid" v="226260"/>
  </node>
  <node id="-145" visible="true" lat="43.55681821" lon="-72.88291636">
    <tag k="addr:city" v="Shrewsbury"/>
    <tag k="addr:housenumber" v="2183"/>
    <tag k="addr:street" v="Upper Cold River Road"/>
    <tag k="addr:state" v="VT"/>
    <tag k="ref:vcgi:esiteid" v="226261"/>
  </node>
  <node id="-146" visible="true" lat="43.55649563" lon="-72.87877873">
    <tag k="addr:city" v="Shrewsbury"/>
    <tag k="addr:housenumber" v="2373"/>
    <tag k="addr:street" v="Upper Cold River Road"/>
    <tag k="addr:state" v="VT"/>
    <tag k="ref:vcgi:esiteid" v="226262"/>
  </node>
  <node id="-149" visible="true" lat="43.55613933" lon="-72.88186589">
    <tag k="addr:city" v="Shrewsbury"/>
    <tag k="addr:housenumber" v="2252"/>
    <tag k="addr:street" v="Upper Cold River Road"/>
    <tag k="addr:state" v="VT"/>
    <tag k="ref:vcgi:esiteid" v="226265"/>
  </node>
  <node id="-152" visible="true" lat="43.55563677" lon="-72.83112611">
    <tag k="addr:city" v="Shrewsbury"/>
    <tag k="addr:housenumber" v="1004"/>
    <tag k="addr:street" v="Coldham Road"/>
    <tag k="addr:state" v="VT"/>
    <tag k="ref:vcgi:esiteid" v="226268"/>
  </node>
  <node id="-153" visible="true" lat="43.55536524" lon="-72.87769225">
    <tag k="addr:city" v="Shrewsbury"/>
    <tag k="addr:housenumber" v="2459"/>
    <tag k="addr:street" v="Upper Cold River Road"/>
    <tag k="addr:state" v="VT"/>
    <tag k="ref:vcgi:esiteid" v="226269"/>
  </node>
  <node id="-159" visible="true" lat="43.55271174" lon="-72.87564089">
    <tag k="addr:city" v="Shrewsbury"/>
    <tag k="addr:housenumber" v="2646"/>
    <tag k="addr:street" v="Upper Cold River Road"/>
    <tag k="addr:state" v="VT"/>
    <tag k="ref:vcgi:esiteid" v="226275"/>
  </node>
  <node id="-161" visible="true" lat="43.55195238" lon="-72.87523759">
    <tag k="addr:city" v="Shrewsbury"/>
    <tag k="addr:housenumber" v="883"/>
    <tag k="addr:street" v="Wilmouth Hill Road"/>
    <tag k="addr:state" v="VT"/>
    <tag k="ref:vcgi:esiteid" v="226277"/>
  </node>
  <node id="-165" visible="true" lat="43.55162522" lon="-72.87037913">
    <tag k="addr:city" v="Shrewsbury"/>
    <tag k="addr:housenumber" v="2929"/>
    <tag k="addr:street" v="Upper Cold River Road"/>
    <tag k="addr:state" v="VT"/>
    <tag k="ref:vcgi:esiteid" v="226281"/>
  </node>
  <node id="-171" visible="true" lat="43.55021983" lon="-72.86148163">
    <tag k="addr:city" v="Shrewsbury"/>
    <tag k="addr:housenumber" v="3423"/>
    <tag k="addr:street" v="Upper Cold River Road"/>
    <tag k="addr:state" v="VT"/>
    <tag k="ref:vcgi:esiteid" v="226287"/>
  </node>
  <node id="-172" visible="true" lat="43.54990328" lon="-72.86041829">
    <tag k="addr:city" v="Shrewsbury"/>
    <tag k="addr:housenumber" v="3448"/>
    <tag k="addr:street" v="Upper Cold River Road"/>
    <tag k="addr:state" v="VT"/>
    <tag k="ref:vcgi:esiteid" v="226288"/>
  </node>
  <node id="-178" visible="true" lat="43.54916763" lon="-72.81806945">
    <tag k="addr:city" v="Shrewsbury"/>
    <tag k="addr:housenumber" v="479"/>
    <tag k="addr:street" v="Tin Shanty Road"/>
    <tag k="addr:state" v="VT"/>
    <tag k="ref:vcgi:esiteid" v="226294"/>
  </node>
  <node id="-185" visible="true" lat="43.54758527" lon="-72.81626178">
    <tag k="addr:city" v="Shrewsbury"/>
    <tag k="addr:housenumber" v="444"/>
    <tag k="addr:street" v="Tin Shanty Road"/>
    <tag k="addr:state" v="VT"/>
    <tag k="ref:vcgi:esiteid" v="226301"/>
  </node>
  <node id="-191" visible="true" lat="43.54692618" lon="-72.86107366">
    <tag k="addr:city" v="Shrewsbury"/>
    <tag k="addr:housenumber" v="211"/>
    <tag k="addr:street" v="Kister Road"/>
    <tag k="addr:state" v="VT"/>
    <tag k="ref:vcgi:esiteid" v="226307"/>
  </node>
  <node id="-192" visible="true" lat="43.54714607" lon="-72.83283152">
    <tag k="addr:city" v="Shrewsbury"/>
    <tag k="addr:housenumber" v="407"/>
    <tag k="addr:street" v="Coldham Road"/>
    <tag k="addr:state" v="VT"/>
    <tag k="ref:vcgi:esiteid" v="226308"/>
  </node>
  <node id="-198" visible="true" lat="43.54434613" lon="-72.84519745">
    <tag k="addr:city" v="Shrewsbury"/>
    <tag k="addr:housenumber" v="4446"/>
    <tag k="addr:street" v="Upper Cold River Road"/>
    <tag k="addr:state" v="VT"/>
    <tag k="ref:vcgi:esiteid" v="226314"/>
  </node>
  <node id="-201" visible="true" lat="43.54361002" lon="-72.83611041">
    <tag k="addr:city" v="Shrewsbury"/>
    <tag k="addr:housenumber" v="116"/>
    <tag k="addr:street" v="Coldham Road"/>
    <tag k="addr:state" v="VT"/>
    <tag k="ref:vcgi:esiteid" v="226317"/>
  </node>
  <node id="-203" visible="true" lat="43.54274368" lon="-72.83499908">
    <tag k="addr:city" v="Shrewsbury"/>
    <tag k="addr:housenumber" v="38"/>
    <tag k="addr:street" v="Coldham Road"/>
    <tag k="addr:state" v="VT"/>
    <tag k="ref:vcgi:esiteid" v="226319"/>
  </node>
  <node id="-205" visible="true" lat="43.54196074" lon="-72.83814031">
    <tag k="addr:city" v="Shrewsbury"/>
    <tag k="addr:housenumber" v="4838"/>
    <tag k="addr:street" v="Upper Cold River Road"/>
    <tag k="addr:state" v="VT"/>
    <tag k="ref:vcgi:esiteid" v="226321"/>
  </node>
  <node id="-208" visible="true" lat="43.54009703" lon="-72.83445953">
    <tag k="addr:city" v="Shrewsbury"/>
    <tag k="addr:housenumber" v="4953"/>
    <tag k="addr:street" v="Upper Cold River Road"/>
    <tag k="addr:state" v="VT"/>
    <tag k="ref:vcgi:esiteid" v="226324"/>
  </node>
  <node id="-215" visible="true" lat="43.5390092" lon="-72.83708808">
    <tag k="addr:city" v="Shrewsbury"/>
    <tag k="addr:housenumber" v="5098"/>
    <tag k="addr:street" v="Upper Cold River Road"/>
    <tag k="addr:state" v="VT"/>
    <tag k="ref:vcgi:esiteid" v="226331"/>
  </node>
  <node id="-221" visible="true" lat="43.53714875" lon="-72.84591187">
    <tag k="addr:city" v="Shrewsbury"/>
    <tag k="addr:housenumber" v="330"/>
    <tag k="addr:street" v="Griffith Road"/>
    <tag k="addr:state" v="VT"/>
    <tag k="ref:vcgi:esiteid" v="226337"/>
  </node>
  <node id="-225" visible="true" lat="43.536489" lon="-72.83716014">
    <tag k="addr:city" v="Shrewsbury"/>
    <tag k="addr:housenumber" v="5282"/>
    <tag k="addr:street" v="Upper Cold River Road"/>
    <tag k="addr:state" v="VT"/>
    <tag k="ref:vcgi:esiteid" v="226341"/>
  </node>
  <node id="-228" visible="true" lat="43.53595651" lon="-72.83295926">
    <tag k="addr:city" v="Shrewsbury"/>
    <tag k="addr:housenumber" v="144"/>
    <tag k="addr:street" v="Plumley Road"/>
    <tag k="addr:state" v="VT"/>
    <tag k="ref:vcgi:esiteid" v="226345"/>
  </node>
  <node id="-233" visible="true" lat="43.53529997" lon="-72.83409314">
    <tag k="addr:city" v="Shrewsbury"/>
    <tag k="addr:housenumber" v="67"/>
    <tag k="addr:street" v="Plumley Road"/>
    <tag k="addr:state" v="VT"/>
    <tag k="ref:vcgi:esiteid" v="226350"/>
  </node>
  <node id="-234" visible="true" lat="43.53503557" lon="-72.83354153">
    <tag k="addr:city" v="Shrewsbury"/>
    <tag k="addr:housenumber" v="76"/>
    <tag k="addr:street" v="Plumley Road"/>
    <tag k="addr:state" v="VT"/>
    <tag k="ref:vcgi:esiteid" v="226351"/>
  </node>
  <node id="-235" visible="true" lat="43.53469575" lon="-72.83695682">
    <tag k="addr:city" v="Shrewsbury"/>
    <tag k="addr:housenumber" v="5382"/>
    <tag k="addr:street" v="Upper Cold River Road"/>
    <tag k="addr:state" v="VT"/>
    <tag k="ref:vcgi:esiteid" v="226352"/>
  </node>
  <node id="-236" visible="true" lat="43.53456766" lon="-72.83368653">
    <tag k="addr:city" v="Shrewsbury"/>
    <tag k="addr:housenumber" v="34"/>
    <tag k="addr:street" v="Plumley Road"/>
    <tag k="addr:state" v="VT"/>
    <tag k="ref:vcgi:esiteid" v="226353"/>
  </node>
  <node id="-237" visible="true" lat="43.53457825" lon="-72.83423409">
    <tag k="addr:city" v="Shrewsbury"/>
    <tag k="addr:housenumber" v="35"/>
    <tag k="addr:street" v="Plumley Road"/>
    <tag k="addr:state" v="VT"/>
    <tag k="ref:vcgi:esiteid" v="226354"/>
  </node>
  <node id="-238" visible="true" lat="43.5343007" lon="-72.84563264">
    <tag k="addr:city" v="Shrewsbury"/>
    <tag k="addr:housenumber" v="131"/>
    <tag k="addr:street" v="Griffith Road"/>
    <tag k="addr:state" v="VT"/>
    <tag k="ref:vcgi:esiteid" v="226355"/>
  </node>
  <node id="-242" visible="true" lat="43.53398895" lon="-72.83570098">
    <tag k="addr:city" v="Shrewsbury"/>
    <tag k="addr:housenumber" v="5492"/>
    <tag k="addr:street" v="Upper Cold River Road"/>
    <tag k="addr:state" v="VT"/>
    <tag k="ref:vcgi:esiteid" v="226359"/>
  </node>
  <node id="-244" visible="true" lat="43.5336195" lon="-72.84450603">
    <tag k="addr:city" v="Shrewsbury"/>
    <tag k="addr:housenumber" v="68"/>
    <tag k="addr:street" v="Griffith Road"/>
    <tag k="addr:state" v="VT"/>
    <tag k="ref:vcgi:esiteid" v="226361"/>
  </node>
  <node id="-247" visible="true" lat="43.53345579" lon="-72.84179907">
    <tag k="addr:city" v="Shrewsbury"/>
    <tag k="addr:housenumber" v="9085"/>
    <tag k="addr:street" v="Cold River Road"/>
    <tag k="addr:state" v="VT"/>
    <tag k="ref:vcgi:esiteid" v="226364"/>
  </node>
  <node id="-248" visible="true" lat="43.53368677" lon="-72.83218948">
    <tag k="addr:city" v="Shrewsbury"/>
    <tag k="addr:housenumber" v="5601"/>
    <tag k="addr:street" v="Upper Cold River Road"/>
    <tag k="addr:state" v="VT"/>
    <tag k="ref:vcgi:esiteid" v="226365"/>
  </node>
  <node id="-257" visible="true" lat="43.53268432" lon="-72.83209991">
    <tag k="addr:city" v="Shrewsbury"/>
    <tag k="addr:housenumber" v="5641"/>
    <tag k="addr:street" v="Upper Cold River Road"/>
    <tag k="addr:state" v="VT"/>
    <tag k="ref:vcgi:esiteid" v="226374"/>
  </node>
  <node id="-260" visible="true" lat="43.53253131" lon="-72.84051688">
    <tag k="addr:city" v="Shrewsbury"/>
    <tag k="addr:housenumber" v="9171"/>
    <tag k="addr:street" v="Cold River Road"/>
    <tag k="addr:state" v="VT"/>
    <tag k="ref:vcgi:esiteid" v="226377"/>
  </node>
  <node id="-263" visible="true" lat="43.53234421" lon="-72.83064696">
    <tag k="addr:city" v="Shrewsbury"/>
    <tag k="addr:housenumber" v="5669"/>
    <tag k="addr:street" v="Upper Cold River Road"/>
    <tag k="addr:state" v="VT"/>
    <tag k="ref:vcgi:esiteid" v="226380"/>
  </node>
  <node id="-265" visible="true" lat="43.5319062" lon="-72.83777609">
    <tag k="addr:city" v="Shrewsbury"/>
    <tag k="addr:housenumber" v="9315"/>
    <tag k="addr:street" v="Cold River Road"/>
    <tag k="addr:state" v="VT"/>
    <tag k="ref:vcgi:esiteid" v="226382"/>
  </node>
  <node id="-266" visible="true" lat="43.53165326" lon="-72.8297244">
    <tag k="addr:city" v="Shrewsbury"/>
    <tag k="addr:housenumber" v="5671"/>
    <tag k="addr:street" v="Upper Cold River Road"/>
    <tag k="addr:state" v="VT"/>
    <tag k="ref:vcgi:esiteid" v="226383"/>
  </node>
  <node id="-268" visible="true" lat="43.53213739" lon="-72.83697213">
    <tag k="addr:city" v="Shrewsbury"/>
    <tag k="addr:housenumber" v="9417"/>
    <tag k="addr:street" v="Cold River Road"/>
    <tag k="addr:state" v="VT"/>
    <tag k="ref:vcgi:esiteid" v="226385"/>
  </node>
  <node id="-269" visible="true" lat="43.53170928" lon="-72.83474221">
    <tag k="addr:city" v="Shrewsbury"/>
    <tag k="addr:housenumber" v="9499"/>
    <tag k="addr:street" v="Cold River Road"/>
    <tag k="addr:state" v="VT"/>
    <tag k="ref:vcgi:esiteid" v="226386"/>
  </node>
  <node id="-270" visible="true" lat="43.53119525" lon="-72.8340148">
    <tag k="addr:city" v="Shrewsbury"/>
    <tag k="addr:housenumber" v="9547"/>
    <tag k="addr:street" v="Cold River Road"/>
    <tag k="addr:state" v="VT"/>
    <tag k="ref:vcgi:esiteid" v="226387"/>
  </node>
  <node id="-271" visible="true" lat="43.53074669" lon="-72.83790545">
    <tag k="addr:city" v="Shrewsbury"/>
    <tag k="addr:housenumber" v="9334"/>
    <tag k="addr:street" v="Cold River Road"/>
    <tag k="addr:state" v="VT"/>
    <tag k="ref:vcgi:esiteid" v="226388"/>
  </node>
  <node id="-272" visible="true" lat="43.53091944" lon="-72.81702608">
    <tag k="addr:city" v="Shrewsbury"/>
    <tag k="addr:housenumber" v="477"/>
    <tag k="addr:street" v="Old Plymouth Road"/>
    <tag k="addr:state" v="VT"/>
    <tag k="ref:vcgi:esiteid" v="226389"/>
  </node>
  <node id="-273" visible="true" lat="43.53096271" lon="-72.83335021">
    <tag k="addr:city" v="Shrewsbury"/>
    <tag k="addr:housenumber" v="9567"/>
    <tag k="addr:street" v="Cold River Road"/>
    <tag k="addr:state" v="VT"/>
    <tag k="ref:vcgi:esiteid" v="226390"/>
  </node>
  <node id="-274" visible="true" lat="43.53069123" lon="-72.82531186">
    <tag k="addr:city" v="Shrewsbury"/>
    <tag k="addr:housenumber" v="166"/>
    <tag k="addr:street" v="Ccc Road"/>
    <tag k="addr:state" v="VT"/>
    <tag k="ref:vcgi:esiteid" v="226391"/>
  </node>
  <node id="-275" visible="true" lat="43.53114524" lon="-72.83247877">
    <tag k="addr:city" v="Shrewsbury"/>
    <tag k="addr:housenumber" v="9627"/>
    <tag k="addr:street" v="Cold River Road"/>
    <tag k="addr:state" v="VT"/>
    <tag k="ref:vcgi:esiteid" v="226392"/>
  </node>
  <node id="-276" visible="true" lat="43.53075067" lon="-72.81814521">
    <tag k="addr:city" v="Shrewsbury"/>
    <tag k="addr:housenumber" v="421"/>
    <tag k="addr:street" v="Old Plymouth Road"/>
    <tag k="addr:state" v="VT"/>
    <tag k="ref:vcgi:esiteid" v="226393"/>
  </node>
  <node id="-277" visible="true" lat="43.53050693" lon="-72.82608256">
    <tag k="addr:city" v="Shrewsbury"/>
    <tag k="addr:housenumber" v="137"/>
    <tag k="addr:street" v="Ccc Road"/>
    <tag k="addr:state" v="VT"/>
    <tag k="ref:vcgi:esiteid" v="226394"/>
  </node>
  <node id="-279" visible="true" lat="43.53070225" lon="-72.82424991">
    <tag k="addr:city" v="Shrewsbury"/>
    <tag k="addr:housenumber" v="139"/>
    <tag k="addr:street" v="Old Plymouth Road"/>
    <tag k="addr:state" v="VT"/>
    <tag k="ref:vcgi:esiteid" v="226396"/>
  </node>
  <node id="-280" visible="true" lat="43.52979685" lon="-72.83551151">
    <tag k="addr:city" v="Shrewsbury"/>
    <tag k="addr:housenumber" v="9440"/>
    <tag k="addr:street" v="Cold River Road"/>
    <tag k="addr:state" v="VT"/>
    <tag k="ref:vcgi:esiteid" v="226398"/>
  </node>
  <node id="-281" visible="true" lat="43.53027132" lon="-72.82212042">
    <tag k="addr:city" v="Shrewsbury"/>
    <tag k="addr:housenumber" v="215"/>
    <tag k="addr:street" v="Old Plymouth Road"/>
    <tag k="addr:state" v="VT"/>
    <tag k="ref:vcgi:esiteid" v="226399"/>
  </node>
  <node id="-284" visible="true" lat="43.52981986" lon="-72.82935065">
    <tag k="addr:city" v="Shrewsbury"/>
    <tag k="addr:housenumber" v="9765"/>
    <tag k="addr:street" v="Cold River Road"/>
    <tag k="addr:state" v="VT"/>
    <tag k="ref:vcgi:esiteid" v="226402"/>
  </node>
  <node id="-285" visible="true" lat="43.52973357" lon="-72.82641411">
    <tag k="addr:city" v="Shrewsbury"/>
    <tag k="addr:housenumber" v="75"/>
    <tag k="addr:street" v="Ccc Road"/>
    <tag k="addr:state" v="VT"/>
    <tag k="ref:vcgi:esiteid" v="226403"/>
  </node>
  <node id="-286" visible="true" lat="43.52954456" lon="-72.83103555">
    <tag k="addr:city" v="Shrewsbury"/>
    <tag k="addr:housenumber" v="31"/>
    <tag k="addr:street" v="Birch Lane"/>
    <tag k="addr:state" v="VT"/>
    <tag k="ref:vcgi:esiteid" v="226404"/>
  </node>
  <node id="-288" visible="true" lat="43.52930839" lon="-72.83172663">
    <tag k="addr:city" v="Shrewsbury"/>
    <tag k="addr:housenumber" v="60"/>
    <tag k="addr:street" v="Birch Lane"/>
    <tag k="addr:state" v="VT"/>
    <tag k="ref:vcgi:esiteid" v="226406"/>
  </node>
  <node id="-290" visible="true" lat="43.52913273" lon="-72.82738232">
    <tag k="addr:city" v="Shrewsbury"/>
    <tag k="addr:housenumber" v="9871"/>
    <tag k="addr:street" v="Cold River Road"/>
    <tag k="addr:state" v="VT"/>
    <tag k="ref:vcgi:esiteid" v="226408"/>
  </node>
  <node id="-291" visible="true" lat="43.5289367" lon="-72.82821013">
    <tag k="addr:city" v="Shrewsbury"/>
    <tag k="addr:housenumber" v="9850"/>
    <tag k="addr:street" v="Cold River Road"/>
    <tag k="addr:state" v="VT"/>
    <tag k="ref:vcgi:esiteid" v="226409"/>
  </node>
  <node id="-292" visible="true" lat="43.52861132" lon="-72.83225577">
    <tag k="addr:city" v="Shrewsbury"/>
    <tag k="addr:housenumber" v="94"/>
    <tag k="addr:street" v="Birch Lane"/>
    <tag k="addr:state" v="VT"/>
    <tag k="ref:vcgi:esiteid" v="226410"/>
  </node>
  <node id="-293" visible="true" lat="43.52867403" lon="-72.82724506">
    <tag k="addr:city" v="Shrewsbury"/>
    <tag k="addr:housenumber" v="2658"/>
    <tag k="addr:street" v="Northam Road"/>
    <tag k="addr:state" v="VT"/>
    <tag k="ref:vcgi:esiteid" v="226411"/>
  </node>
  <node id="-294" visible="true" lat="43.52808537" lon="-72.82945993">
    <tag k="addr:city" v="Shrewsbury"/>
    <tag k="addr:housenumber" v="2544"/>
    <tag k="addr:street" v="Northam Road"/>
    <tag k="addr:state" v="VT"/>
    <tag k="ref:vcgi:esiteid" v="226412"/>
  </node>
  <node id="-295" visible="true" lat="43.52790311" lon="-72.82807376">
    <tag k="addr:city" v="Shrewsbury"/>
    <tag k="addr:housenumber" v="26"/>
    <tag k="addr:street" v="Eastham Road"/>
    <tag k="addr:state" v="VT"/>
    <tag k="ref:vcgi:esiteid" v="226413"/>
  </node>
  <node id="-296" visible="true" lat="43.52764085" lon="-72.83020974">
    <tag k="addr:city" v="Shrewsbury"/>
    <tag k="addr:housenumber" v="2496"/>
    <tag k="addr:street" v="Northam Road"/>
    <tag k="addr:state" v="VT"/>
    <tag k="ref:vcgi:esiteid" v="226414"/>
  </node>
  <node id="-299" visible="true" lat="43.52656835" lon="-72.82688062">
    <tag k="addr:city" v="Shrewsbury"/>
    <tag k="addr:housenumber" v="45"/>
    <tag k="addr:street" v="Eastham Road"/>
    <tag k="addr:state" v="VT"/>
    <tag k="ref:vcgi:esiteid" v="226417"/>
  </node>
  <node id="-301" visible="true" lat="43.52411857" lon="-72.8279243">
    <tag k="addr:city" v="Shrewsbury"/>
    <tag k="addr:housenumber" v="315"/>
    <tag k="addr:street" v="Eastham Road"/>
    <tag k="addr:state" v="VT"/>
    <tag k="ref:vcgi:esiteid" v="226419"/>
  </node>
  <node id="-340" visible="true" lat="43.51622802" lon="-72.81720312">
    <tag k="addr:city" v="Shrewsbury"/>
    <tag k="addr:housenumber" v="1130"/>
    <tag k="addr:street" v="Eastham Road"/>
    <tag k="addr:state" v="VT"/>
    <tag k="ref:vcgi:esiteid" v="226458"/>
  </node>
  <node id="-342" visible="true" lat="43.51613405" lon="-72.81635032">
    <tag k="addr:city" v="Shrewsbury"/>
    <tag k="addr:housenumber" v="1141"/>
    <tag k="addr:street" v="Eastham Road"/>
    <tag k="addr:state" v="VT"/>
    <tag k="ref:vcgi:esiteid" v="226460"/>
  </node>
  <node id="-355" visible="true" lat="43.51366305" lon="-72.87491578">
    <tag k="addr:city" v="Shrewsbury"/>
    <tag k="addr:housenumber" v="478"/>
    <tag k="addr:street" v="Lottery Road"/>
    <tag k="addr:state" v="VT"/>
    <tag k="ref:vcgi:esiteid" v="226474"/>
  </node>
  <node id="-356" visible="true" lat="43.51363933" lon="-72.81179237">
    <tag k="addr:city" v="Shrewsbury"/>
    <tag k="addr:housenumber" v="293"/>
    <tag k="addr:street" v="Hempstead Road"/>
    <tag k="addr:state" v="VT"/>
    <tag k="ref:vcgi:esiteid" v="226475"/>
  </node>
  <node id="-362" visible="true" lat="43.51226866" lon="-72.80998511">
    <tag k="addr:city" v="Shrewsbury"/>
    <tag k="addr:housenumber" v="316"/>
    <tag k="addr:street" v="Hempstead Road"/>
    <tag k="addr:state" v="VT"/>
    <tag k="ref:vcgi:esiteid" v="226481"/>
  </node>
  <node id="-363" visible="true" lat="43.51179597" lon="-72.81458832">
    <tag k="addr:city" v="Shrewsbury"/>
    <tag k="addr:housenumber" v="74"/>
    <tag k="addr:street" v="Hempstead Road"/>
    <tag k="addr:state" v="VT"/>
    <tag k="ref:vcgi:esiteid" v="226482"/>
  </node>
  <node id="-364" visible="true" lat="43.51156276" lon="-72.81346767">
    <tag k="addr:city" v="Shrewsbury"/>
    <tag k="addr:housenumber" v="146"/>
    <tag k="addr:street" v="Hempstead Road"/>
    <tag k="addr:state" v="VT"/>
    <tag k="ref:vcgi:esiteid" v="226483"/>
  </node>
  <node id="-370" visible="true" lat="43.5113449" lon="-72.8153305">
    <tag k="addr:city" v="Shrewsbury"/>
    <tag k="addr:housenumber" v="42"/>
    <tag k="addr:street" v="Hempstead Road"/>
    <tag k="addr:state" v="VT"/>
    <tag k="ref:vcgi:esiteid" v="226489"/>
  </node>
  <node id="-375" visible="true" lat="43.51061398" lon="-72.86578366">
    <tag k="addr:city" v="Shrewsbury"/>
    <tag k="addr:housenumber" v="2101"/>
    <tag k="addr:street" v="Keiffer Road"/>
    <tag k="addr:state" v="VT"/>
    <tag k="ref:vcgi:esiteid" v="226494"/>
  </node>
  <node id="-380" visible="true" lat="43.50976678" lon="-72.86912219">
    <tag k="addr:city" v="Shrewsbury"/>
    <tag k="addr:housenumber" v="88"/>
    <tag k="addr:street" v="Lottery Road"/>
    <tag k="addr:state" v="VT"/>
    <tag k="ref:vcgi:esiteid" v="226499"/>
  </node>
  <node id="-382" visible="true" lat="43.50952148" lon="-72.87893676">
    <tag k="addr:city" v="Shrewsbury"/>
    <tag k="addr:housenumber" v="1993"/>
    <tag k="addr:street" v="Lincoln Hill Road"/>
    <tag k="addr:state" v="VT"/>
    <tag k="ref:vcgi:esiteid" v="226501"/>
  </node>
  <node id="-383" visible="true" lat="43.50945417" lon="-72.87040265">
    <tag k="addr:city" v="Shrewsbury"/>
    <tag k="addr:housenumber" v="2435"/>
    <tag k="addr:street" v="Lincoln Hill Road"/>
    <tag k="addr:state" v="VT"/>
    <tag k="ref:vcgi:esiteid" v="226502"/>
  </node>
  <node id="-384" visible="true" lat="43.5095053" lon="-72.87003672">
    <tag k="addr:city" v="Shrewsbury"/>
    <tag k="addr:housenumber" v="2443"/>
    <tag k="addr:street" v="Lincoln Hill Road"/>
    <tag k="addr:state" v="VT"/>
    <tag k="ref:vcgi:esiteid" v="226503"/>
  </node>
  <node id="-386" visible="true" lat="43.50925278" lon="-72.86692476">
    <tag k="addr:city" v="Shrewsbury"/>
    <tag k="addr:housenumber" v="2202"/>
    <tag k="addr:street" v="Keiffer Road"/>
    <tag k="addr:state" v="VT"/>
    <tag k="ref:vcgi:esiteid" v="226505"/>
  </node>
  <node id="-387" visible="true" lat="43.50922488" lon="-72.86849809">
    <tag k="addr:city" v="Shrewsbury"/>
    <tag k="addr:housenumber" v="20"/>
    <tag k="addr:street" v="Lottery Road"/>
    <tag k="addr:state" v="VT"/>
    <tag k="ref:vcgi:esiteid" v="226506"/>
  </node>
  <node id="-388" visible="true" lat="43.5090866" lon="-72.87720489">
    <tag k="addr:city" v="Shrewsbury"/>
    <tag k="addr:housenumber" v="2084"/>
    <tag k="addr:street" v="Lincoln Hill Road"/>
    <tag k="addr:state" v="VT"/>
    <tag k="ref:vcgi:esiteid" v="226507"/>
  </node>
  <node id="-389" visible="true" lat="43.50874732" lon="-72.86868545">
    <tag k="addr:city" v="Shrewsbury"/>
    <tag k="addr:housenumber" v="2512"/>
    <tag k="addr:street" v="Lincoln Hill Road"/>
    <tag k="addr:state" v="VT"/>
    <tag k="ref:vcgi:esiteid" v="226508"/>
  </node>
  <node id="-390" visible="true" lat="43.50890923" lon="-72.86671888">
    <tag k="addr:city" v="Shrewsbury"/>
    <tag k="addr:housenumber" v="23"/>
    <tag k="addr:street" v="Northam Road"/>
    <tag k="addr:state" v="VT"/>
    <tag k="ref:vcgi:esiteid" v="226509"/>
  </node>
  <node id="-391" visible="true" lat="43.5087802" lon="-72.86835883">
    <tag k="addr:city" v="Shrewsbury"/>
    <tag k="addr:housenumber" v="2536"/>
    <tag k="addr:street" v="Lincoln Hill Road"/>
    <tag k="addr:state" v="VT"/>
    <tag k="ref:vcgi:esiteid" v="226510"/>
  </node>
  <node id="-392" visible="true" lat="43.50874782" lon="-72.86496024">
    <tag k="addr:city" v="Shrewsbury"/>
    <tag k="addr:housenumber" v="101"/>
    <tag k="addr:street" v="Northam Road"/>
    <tag k="addr:state" v="VT"/>
    <tag k="ref:vcgi:esiteid" v="226511"/>
  </node>
  <node id="-393" visible="true" lat="43.5082086" lon="-72.86742374">
    <tag k="addr:city" v="Shrewsbury"/>
    <tag k="addr:housenumber" v="2568"/>
    <tag k="addr:street" v="Lincoln Hill Road"/>
    <tag k="addr:state" v="VT"/>
    <tag k="ref:vcgi:esiteid" v="226512"/>
  </node>
  <node id="-394" visible="true" lat="43.50813293" lon="-72.88243866">
    <tag k="addr:city" v="Shrewsbury"/>
    <tag k="addr:housenumber" v="113"/>
    <tag k="addr:street" v="Smith Lane"/>
    <tag k="addr:state" v="VT"/>
    <tag k="ref:vcgi:esiteid" v="226513"/>
  </node>
  <node id="-396" visible="true" lat="43.50766196" lon="-72.86271369">
    <tag k="addr:city" v="Shrewsbury"/>
    <tag k="addr:housenumber" v="214"/>
    <tag k="addr:street" v="Northam Road"/>
    <tag k="addr:state" v="VT"/>
    <tag k="ref:vcgi:esiteid" v="226515"/>
  </node>
  <node id="-399" visible="true" lat="43.50759479" lon="-72.8667473">
    <tag k="addr:city" v="Shrewsbury"/>
    <tag k="addr:housenumber" v="66"/>
    <tag k="addr:street" v="Russellville Road"/>
    <tag k="addr:state" v="VT"/>
    <tag k="ref:vcgi:esiteid" v="226518"/>
  </node>
  <node id="-402" visible="true" lat="43.50652529" lon="-72.86605026">
    <tag k="addr:city" v="Shrewsbury"/>
    <tag k="addr:housenumber" v="170"/>
    <tag k="addr:street" v="Russellville Road"/>
    <tag k="addr:state" v="VT"/>
    <tag k="ref:vcgi:esiteid" v="226521"/>
  </node>
  <node id="-405" visible="true" lat="43.50499445" lon="-72.86438743">
    <tag k="addr:city" v="Shrewsbury"/>
    <tag k="addr:housenumber" v="278"/>
    <tag k="addr:street" v="Russellville Road"/>
    <tag k="addr:state" v="VT"/>
    <tag k="ref:vcgi:esiteid" v="226524"/>
  </node>
  <node id="-410" visible="true" lat="43.50402136" lon="-72.86403427">
    <tag k="addr:city" v="Shrewsbury"/>
    <tag k="addr:housenumber" v="346"/>
    <tag k="addr:street" v="Russellville Road"/>
    <tag k="addr:state" v="VT"/>
    <tag k="ref:vcgi:esiteid" v="226529"/>
  </node>
  <node id="-411" visible="true" lat="43.50403797" lon="-72.884331">
    <tag k="addr:city" v="Shrewsbury"/>
    <tag k="addr:housenumber" v="420"/>
    <tag k="addr:street" v="Smith Lane"/>
    <tag k="addr:state" v="VT"/>
    <tag k="ref:vcgi:esiteid" v="226530"/>
  </node>
  <node id="-412" visible="true" lat="43.50415851" lon="-72.86239848">
    <tag k="addr:city" v="Shrewsbury"/>
    <tag k="addr:housenumber" v="411"/>
    <tag k="addr:street" v="Russellville Road"/>
    <tag k="addr:state" v="VT"/>
    <tag k="ref:vcgi:esiteid" v="226531"/>
  </node>
  <node id="-414" visible="true" lat="43.50288018" lon="-72.86262055">
    <tag k="addr:city" v="Shrewsbury"/>
    <tag k="addr:housenumber" v="430"/>
    <tag k="addr:street" v="Russellville Road"/>
    <tag k="addr:state" v="VT"/>
    <tag k="ref:vcgi:esiteid" v="226533"/>
  </node>
  <node id="-415" visible="true" lat="43.50338179" lon="-72.86131988">
    <tag k="addr:city" v="Shrewsbury"/>
    <tag k="addr:housenumber" v="467"/>
    <tag k="addr:street" v="Russellville Road"/>
    <tag k="addr:state" v="VT"/>
    <tag k="ref:vcgi:esiteid" v="226534"/>
  </node>
  <node id="-416" visible="true" lat="43.50182455" lon="-72.82139205">
    <tag k="addr:city" v="Shrewsbury"/>
    <tag k="addr:housenumber" v="2208"/>
    <tag k="addr:street" v="Eastham Road"/>
    <tag k="addr:state" v="VT"/>
    <tag k="ref:vcgi:esiteid" v="226535"/>
  </node>
  <node id="-421" visible="true" lat="43.50029915" lon="-72.87151072">
    <tag k="addr:city" v="Shrewsbury"/>
    <tag k="addr:housenumber" v="133"/>
    <tag k="addr:street" v="Copperas Hill Road"/>
    <tag k="addr:state" v="VT"/>
    <tag k="ref:vcgi:esiteid" v="226541"/>
  </node>
  <node id="-431" visible="true" lat="43.49945289" lon="-72.87226502">
    <tag k="addr:city" v="Shrewsbury"/>
    <tag k="addr:housenumber" v="189"/>
    <tag k="addr:street" v="Copperas Hill Road"/>
    <tag k="addr:state" v="VT"/>
    <tag k="ref:vcgi:esiteid" v="226551"/>
  </node>
  <node id="-433" visible="true" lat="43.49862274" lon="-72.82392471">
    <tag k="addr:city" v="Shrewsbury"/>
    <tag k="addr:housenumber" v="2579"/>
    <tag k="addr:street" v="Eastham Road"/>
    <tag k="addr:state" v="VT"/>
    <tag k="ref:vcgi:esiteid" v="226553"/>
  </node>
  <node id="-436" visible="true" lat="43.49781588" lon="-72.87673959">
    <tag k="addr:city" v="Shrewsbury"/>
    <tag k="addr:housenumber" v="562"/>
    <tag k="addr:street" v="Town Hill Road"/>
    <tag k="addr:state" v="VT"/>
    <tag k="ref:vcgi:esiteid" v="226556"/>
  </node>
  <node id="-439" visible="true" lat="43.49743506" lon="-72.87905209">
    <tag k="addr:city" v="Shrewsbury"/>
    <tag k="addr:housenumber" v="662"/>
    <tag k="addr:street" v="Town Hill Road"/>
    <tag k="addr:state" v="VT"/>
    <tag k="ref:vcgi:esiteid" v="226559"/>
  </node>
  <node id="-440" visible="true" lat="43.49745957" lon="-72.83109964">
    <tag k="addr:city" v="Shrewsbury"/>
    <tag k="addr:housenumber" v="382"/>
    <tag k="addr:street" v="Old Farm Road"/>
    <tag k="addr:state" v="VT"/>
    <tag k="ref:vcgi:esiteid" v="226560"/>
  </node>
  <node id="-442" visible="true" lat="43.49662781" lon="-72.83379633">
    <tag k="addr:city" v="Shrewsbury"/>
    <tag k="addr:housenumber" v="329"/>
    <tag k="addr:street" v="Old Farm Road"/>
    <tag k="addr:state" v="VT"/>
    <tag k="ref:vcgi:esiteid" v="226562"/>
  </node>
  <node id="-446" visible="true" lat="43.49602252" lon="-72.81419483">
    <tag k="addr:city" v="Shrewsbury"/>
    <tag k="addr:housenumber" v="3131"/>
    <tag k="addr:street" v="Eastham Road"/>
    <tag k="addr:state" v="VT"/>
    <tag k="ref:vcgi:esiteid" v="226566"/>
  </node>
  <node id="-448" visible="true" lat="43.49542212" lon="-72.88041065">
    <tag k="addr:city" v="Shrewsbury"/>
    <tag k="addr:housenumber" v="521"/>
    <tag k="addr:street" v="Town Hill Road"/>
    <tag k="addr:state" v="VT"/>
    <tag k="ref:vcgi:esiteid" v="226568"/>
  </node>
  <node id="-456" visible="true" lat="43.49416298" lon="-72.88179553">
    <tag k="addr:city" v="Shrewsbury"/>
    <tag k="addr:housenumber" v="72"/>
    <tag k="addr:street" v="Stewart Lane"/>
    <tag k="addr:state" v="VT"/>
    <tag k="ref:vcgi:esiteid" v="226576"/>
  </node>
  <node id="-459" visible="true" lat="43.49407757" lon="-72.83440629">
    <tag k="addr:city" v="Shrewsbury"/>
    <tag k="addr:housenumber" v="137"/>
    <tag k="addr:street" v="Old Farm Road"/>
    <tag k="addr:state" v="VT"/>
    <tag k="ref:vcgi:esiteid" v="226579"/>
  </node>
  <node id="-460" visible="true" lat="43.49391124" lon="-72.88262352">
    <tag k="addr:city" v="Shrewsbury"/>
    <tag k="addr:housenumber" v="97"/>
    <tag k="addr:street" v="Stewart Lane"/>
    <tag k="addr:state" v="VT"/>
    <tag k="ref:vcgi:esiteid" v="226580"/>
  </node>
  <node id="-461" visible="true" lat="43.49428302" lon="-72.80949591">
    <tag k="addr:city" v="Shrewsbury"/>
    <tag k="addr:housenumber" v="3389"/>
    <tag k="addr:street" v="Eastham Road"/>
    <tag k="addr:state" v="VT"/>
    <tag k="ref:vcgi:esiteid" v="226581"/>
  </node>
  <node id="-466" visible="true" lat="43.49363614" lon="-72.8805112">
    <tag k="addr:city" v="Shrewsbury"/>
    <tag k="addr:housenumber" v="406"/>
    <tag k="addr:street" v="Town Hill Road"/>
    <tag k="addr:state" v="VT"/>
    <tag k="ref:vcgi:esiteid" v="226586"/>
  </node>
  <node id="-470" visible="true" lat="43.49296698" lon="-72.89786638">
    <tag k="addr:city" v="Shrewsbury"/>
    <tag k="addr:housenumber" v="135"/>
    <tag k="addr:street" v="Spring Lake Road"/>
    <tag k="addr:state" v="VT"/>
    <tag k="ref:vcgi:esiteid" v="226590"/>
  </node>
  <node id="-472" visible="true" lat="43.49295504" lon="-72.88148029">
    <tag k="addr:city" v="Shrewsbury"/>
    <tag k="addr:housenumber" v="333"/>
    <tag k="addr:street" v="Town Hill Road"/>
    <tag k="addr:state" v="VT"/>
    <tag k="ref:vcgi:esiteid" v="226592"/>
  </node>
  <node id="-476" visible="true" lat="43.49291367" lon="-72.80488727">
    <tag k="addr:city" v="Shrewsbury"/>
    <tag k="addr:housenumber" v="3661"/>
    <tag k="addr:street" v="Eastham Road"/>
    <tag k="addr:state" v="VT"/>
    <tag k="ref:vcgi:esiteid" v="226596"/>
  </node>
  <node id="-477" visible="true" lat="43.49290506" lon="-72.80341401">
    <tag k="addr:city" v="Shrewsbury"/>
    <tag k="addr:housenumber" v="3723"/>
    <tag k="addr:street" v="Eastham Road"/>
    <tag k="addr:state" v="VT"/>
    <tag k="ref:vcgi:esiteid" v="226597"/>
  </node>
  <node id="-478" visible="true" lat="43.49282238" lon="-72.80227816">
    <tag k="addr:city" v="Shrewsbury"/>
    <tag k="addr:housenumber" v="3783"/>
    <tag k="addr:street" v="Eastham Road"/>
    <tag k="addr:state" v="VT"/>
    <tag k="ref:vcgi:esiteid" v="226598"/>
  </node>
  <node id="-479" visible="true" lat="43.49249112" lon="-72.88084873">
    <tag k="addr:city" v="Shrewsbury"/>
    <tag k="addr:housenumber" v="23"/>
    <tag k="addr:street" v="Shunpike Road"/>
    <tag k="addr:state" v="VT"/>
    <tag k="ref:vcgi:esiteid" v="226599"/>
  </node>
  <node id="-480" visible="true" lat="43.49252655" lon="-72.88016468">
    <tag k="addr:city" v="Shrewsbury"/>
    <tag k="addr:housenumber" v="53"/>
    <tag k="addr:street" v="Shunpike Road"/>
    <tag k="addr:state" v="VT"/>
    <tag k="ref:vcgi:esiteid" v="226600"/>
  </node>
  <node id="-483" visible="true" lat="43.49290024" lon="-72.80094335">
    <tag k="addr:city" v="Shrewsbury"/>
    <tag k="addr:housenumber" v="33"/>
    <tag k="addr:street" v="Tabor Road"/>
    <tag k="addr:state" v="VT"/>
    <tag k="ref:vcgi:esiteid" v="226603"/>
  </node>
  <node id="-484" visible="true" lat="43.49304589" lon="-72.79927245">
    <tag k="addr:city" v="Shrewsbury"/>
    <tag k="addr:housenumber" v="109"/>
    <tag k="addr:street" v="Tabor Road"/>
    <tag k="addr:state" v="VT"/>
    <tag k="ref:vcgi:esiteid" v="226604"/>
  </node>
  <node id="-485" visible="true" lat="43.4924124" lon="-72.7911048">
    <tag k="addr:city" v="Shrewsbury"/>
    <tag k="addr:housenumber" v="571"/>
    <tag k="addr:street" v="Tabor Road"/>
    <tag k="addr:state" v="VT"/>
    <tag k="ref:vcgi:esiteid" v="226605"/>
  </node>
  <node id="-486" visible="true" lat="43.49153078" lon="-72.83315397">
    <tag k="addr:city" v="Shrewsbury"/>
    <tag k="addr:housenumber" v="2398"/>
    <tag k="addr:street" v="Russellville Road"/>
    <tag k="addr:state" v="VT"/>
    <tag k="ref:vcgi:esiteid" v="226606"/>
  </node>
  <node id="-487" visible="true" lat="43.49160306" lon="-72.83798932">
    <tag k="addr:city" v="Shrewsbury"/>
    <tag k="addr:housenumber" v="2161"/>
    <tag k="addr:street" v="Russellville Road"/>
    <tag k="addr:state" v="VT"/>
    <tag k="ref:vcgi:esiteid" v="226607"/>
  </node>
  <node id="-488" visible="true" lat="43.49185108" lon="-72.79780297">
    <tag k="addr:city" v="Shrewsbury"/>
    <tag k="addr:housenumber" v="257"/>
    <tag k="addr:street" v="Tabor Road"/>
    <tag k="addr:state" v="VT"/>
    <tag k="ref:vcgi:esiteid" v="226608"/>
  </node>
  <node id="-489" visible="true" lat="43.49165209" lon="-72.79891677">
    <tag k="addr:city" v="Shrewsbury"/>
    <tag k="addr:housenumber" v="173"/>
    <tag k="addr:street" v="Tabor Road"/>
    <tag k="addr:state" v="VT"/>
    <tag k="ref:vcgi:esiteid" v="226609"/>
  </node>
  <node id="-490" visible="true" lat="43.49120905" lon="-72.83796733">
    <tag k="addr:city" v="Shrewsbury"/>
    <tag k="addr:housenumber" v="2158"/>
    <tag k="addr:street" v="Russellville Road"/>
    <tag k="addr:state" v="VT"/>
    <tag k="ref:vcgi:esiteid" v="226610"/>
  </node>
  <node id="-491" visible="true" lat="43.49157202" lon="-72.79352436">
    <tag k="addr:city" v="Shrewsbury"/>
    <tag k="addr:housenumber" v="453"/>
    <tag k="addr:street" v="Tabor Road"/>
    <tag k="addr:state" v="VT"/>
    <tag k="ref:vcgi:esiteid" v="226611"/>
  </node>
  <node id="-492" visible="true" lat="43.49123195" lon="-72.80678427">
    <tag k="addr:city" v="Shrewsbury"/>
    <tag k="addr:housenumber" v="151"/>
    <tag k="addr:street" v="Mount Holly Road"/>
    <tag k="addr:state" v="VT"/>
    <tag k="ref:vcgi:esiteid" v="226612"/>
  </node>
  <node id="-493" visible="true" lat="43.49117523" lon="-72.84336135">
    <tag k="addr:city" v="Shrewsbury"/>
    <tag k="addr:housenumber" v="1783"/>
    <tag k="addr:street" v="Russellville Road"/>
    <tag k="addr:state" v="VT"/>
    <tag k="ref:vcgi:esiteid" v="226613"/>
  </node>
  <node id="-494" visible="true" lat="43.49119567" lon="-72.80462646">
    <tag k="addr:city" v="Shrewsbury"/>
    <tag k="addr:housenumber" v="79"/>
    <tag k="addr:street" v="Mount Holly Road"/>
    <tag k="addr:state" v="VT"/>
    <tag k="ref:vcgi:esiteid" v="226614"/>
  </node>
  <node id="-495" visible="true" lat="43.49104173" lon="-72.80985239">
    <tag k="addr:city" v="Shrewsbury"/>
    <tag k="addr:housenumber" v="125"/>
    <tag k="addr:street" v="Sanderson Road"/>
    <tag k="addr:state" v="VT"/>
    <tag k="ref:vcgi:esiteid" v="226615"/>
  </node>
  <node id="-496" visible="true" lat="43.49101524" lon="-72.81060911">
    <tag k="addr:city" v="Shrewsbury"/>
    <tag k="addr:housenumber" v="163"/>
    <tag k="addr:street" v="Sanderson Road"/>
    <tag k="addr:state" v="VT"/>
    <tag k="ref:vcgi:esiteid" v="226616"/>
  </node>
  <node id="-497" visible="true" lat="43.49105199" lon="-72.79534082">
    <tag k="addr:city" v="Shrewsbury"/>
    <tag k="addr:housenumber" v="358"/>
    <tag k="addr:street" v="Tabor Road"/>
    <tag k="addr:state" v="VT"/>
    <tag k="ref:vcgi:esiteid" v="226617"/>
  </node>
  <node id="-498" visible="true" lat="43.49110866" lon="-72.83929086">
    <tag k="addr:city" v="Shrewsbury"/>
    <tag k="addr:housenumber" v="18"/>
    <tag k="addr:street" v="Crown Point Road"/>
    <tag k="addr:state" v="VT"/>
    <tag k="ref:vcgi:esiteid" v="226618"/>
  </node>
  <node id="-499" visible="true" lat="43.49071269" lon="-72.79309977">
    <tag k="addr:city" v="Shrewsbury"/>
    <tag k="addr:housenumber" v="474"/>
    <tag k="addr:street" v="Tabor Road"/>
    <tag k="addr:state" v="VT"/>
    <tag k="ref:vcgi:esiteid" v="226619"/>
  </node>
  <node id="-500" visible="true" lat="43.49037788" lon="-72.84080306">
    <tag k="addr:city" v="Shrewsbury"/>
    <tag k="addr:housenumber" v="2041"/>
    <tag k="addr:street" v="Russellville Road"/>
    <tag k="addr:state" v="VT"/>
    <tag k="ref:vcgi:esiteid" v="226620"/>
  </node>
  <node id="-502" visible="true" lat="43.49033752" lon="-72.81745876">
    <tag k="addr:city" v="Shrewsbury"/>
    <tag k="addr:housenumber" v="515"/>
    <tag k="addr:street" v="Sanderson Road"/>
    <tag k="addr:state" v="VT"/>
    <tag k="ref:vcgi:esiteid" v="226622"/>
  </node>
  <node id="-503" visible="true" lat="43.48993143" lon="-72.87754399">
    <tag k="addr:city" v="Shrewsbury"/>
    <tag k="addr:housenumber" v="262"/>
    <tag k="addr:street" v="Shunpike Road"/>
    <tag k="addr:state" v="VT"/>
    <tag k="ref:vcgi:esiteid" v="226623"/>
  </node>
  <node id="-506" visible="true" lat="43.49002235" lon="-72.87660399">
    <tag k="addr:city" v="Shrewsbury"/>
    <tag k="addr:housenumber" v="297"/>
    <tag k="addr:street" v="Shunpike Road"/>
    <tag k="addr:state" v="VT"/>
    <tag k="ref:vcgi:esiteid" v="226626"/>
  </node>
  <node id="-512" visible="true" lat="43.48974946" lon="-72.84133708">
    <tag k="addr:city" v="Shrewsbury"/>
    <tag k="addr:housenumber" v="1929"/>
    <tag k="addr:street" v="Russellville Road"/>
    <tag k="addr:state" v="VT"/>
    <tag k="ref:vcgi:esiteid" v="226632"/>
  </node>
  <node id="-513" visible="true" lat="43.4894014" lon="-72.88065085">
    <tag k="addr:city" v="Shrewsbury"/>
    <tag k="addr:housenumber" v="98"/>
    <tag k="addr:street" v="Town Hill Road"/>
    <tag k="addr:state" v="VT"/>
    <tag k="ref:vcgi:esiteid" v="226633"/>
  </node>
  <node id="-516" visible="true" lat="43.48913074" lon="-72.8807989">
    <tag k="addr:city" v="Shrewsbury"/>
    <tag k="addr:housenumber" v="80"/>
    <tag k="addr:street" v="Town Hill Road"/>
    <tag k="addr:state" v="VT"/>
    <tag k="ref:vcgi:esiteid" v="226636"/>
  </node>
  <node id="-523" visible="true" lat="43.48889953" lon="-72.88078951">
    <tag k="addr:city" v="Shrewsbury"/>
    <tag k="addr:housenumber" v="58"/>
    <tag k="addr:street" v="Town Hill Road"/>
    <tag k="addr:state" v="VT"/>
    <tag k="ref:vcgi:esiteid" v="226643"/>
  </node>
  <node id="-528" visible="true" lat="43.48874562" lon="-72.83882753">
    <tag k="addr:city" v="Shrewsbury"/>
    <tag k="addr:housenumber" v="77"/>
    <tag k="addr:street" v="Frank Lord Road"/>
    <tag k="addr:state" v="VT"/>
    <tag k="ref:vcgi:esiteid" v="226648"/>
  </node>
  <node id="-529" visible="true" lat="43.4886214" lon="-72.88082287">
    <tag k="addr:city" v="Shrewsbury"/>
    <tag k="addr:housenumber" v="40"/>
    <tag k="addr:street" v="Town Hill Road"/>
    <tag k="addr:state" v="VT"/>
    <tag k="ref:vcgi:esiteid" v="226649"/>
  </node>
  <node id="-539" visible="true" lat="43.48793338" lon="-72.84990076">
    <tag k="addr:city" v="Shrewsbury"/>
    <tag k="addr:housenumber" v="386"/>
    <tag k="addr:street" v="Robinson Road"/>
    <tag k="addr:state" v="VT"/>
    <tag k="ref:vcgi:esiteid" v="226659"/>
  </node>
  <node id="-540" visible="true" lat="43.48799622" lon="-72.83764464">
    <tag k="addr:city" v="Shrewsbury"/>
    <tag k="addr:housenumber" v="209"/>
    <tag k="addr:street" v="Frank Lord Road"/>
    <tag k="addr:state" v="VT"/>
    <tag k="ref:vcgi:esiteid" v="226660"/>
  </node>
  <node id="-541" visible="true" lat="43.48748165" lon="-72.87113045">
    <tag k="addr:city" v="Shrewsbury"/>
    <tag k="addr:housenumber" v="637"/>
    <tag k="addr:street" v="Shunpike Road"/>
    <tag k="addr:state" v="VT"/>
    <tag k="ref:vcgi:esiteid" v="226661"/>
  </node>
  <node id="-543" visible="true" lat="43.48701247" lon="-72.87269005">
    <tag k="addr:city" v="Shrewsbury"/>
    <tag k="addr:housenumber" v="576"/>
    <tag k="addr:street" v="Shunpike Road"/>
    <tag k="addr:state" v="VT"/>
    <tag k="ref:vcgi:esiteid" v="226663"/>
  </node>
  <node id="-546" visible="true" lat="43.486885" lon="-72.86679103">
    <tag k="addr:city" v="Shrewsbury"/>
    <tag k="addr:housenumber" v="851"/>
    <tag k="addr:street" v="Shunpike Road"/>
    <tag k="addr:state" v="VT"/>
    <tag k="ref:vcgi:esiteid" v="226666"/>
  </node>
  <node id="-553" visible="true" lat="43.48580719" lon="-72.83485038">
    <tag k="addr:city" v="Shrewsbury"/>
    <tag k="addr:housenumber" v="399"/>
    <tag k="addr:street" v="Frank Lord Road"/>
    <tag k="addr:state" v="VT"/>
    <tag k="ref:vcgi:esiteid" v="226673"/>
  </node>
  <node id="-555" visible="true" lat="43.48528533" lon="-72.83052779">
    <tag k="addr:city" v="Shrewsbury"/>
    <tag k="addr:housenumber" v="595"/>
    <tag k="addr:street" v="Frank Lord Road"/>
    <tag k="addr:state" v="VT"/>
    <tag k="ref:vcgi:esiteid" v="226675"/>
  </node>
  <node id="-557" visible="true" lat="43.48412611" lon="-72.83569331">
    <tag k="addr:city" v="Shrewsbury"/>
    <tag k="addr:housenumber" v="450"/>
    <tag k="addr:street" v="Frank Lord Road"/>
    <tag k="addr:state" v="VT"/>
    <tag k="ref:vcgi:esiteid" v="226677"/>
  </node>
  <node id="-561" visible="true" lat="43.4837943" lon="-72.87320664">
    <tag k="addr:city" v="Shrewsbury"/>
    <tag k="addr:housenumber" v="258"/>
    <tag k="addr:street" v="Nice Road"/>
    <tag k="addr:state" v="VT"/>
    <tag k="ref:vcgi:esiteid" v="226681"/>
  </node>
  <node id="-562" visible="true" lat="43.48460253" lon="-72.83364475">
    <tag k="addr:city" v="Shrewsbury"/>
    <tag k="addr:housenumber" v="508"/>
    <tag k="addr:street" v="Frank Lord Road"/>
    <tag k="addr:state" v="VT"/>
    <tag k="ref:vcgi:esiteid" v="226682"/>
  </node>
  <node id="-567" visible="true" lat="43.48312521" lon="-72.82843942">
    <tag k="addr:city" v="Shrewsbury"/>
    <tag k="addr:housenumber" v="783"/>
    <tag k="addr:street" v="Frank Lord Road"/>
    <tag k="addr:state" v="VT"/>
    <tag k="ref:vcgi:esiteid" v="226687"/>
  </node>
  <node id="-572" visible="true" lat="43.56035398" lon="-72.89931827">
    <tag k="addr:city" v="Shrewsbury"/>
    <tag k="addr:housenumber" v="1320"/>
    <tag k="addr:street" v="Upper Cold River Road"/>
    <tag k="addr:state" v="VT"/>
    <tag k="ref:vcgi:esiteid" v="226692"/>
  </node>
  <node id="-574" visible="true" lat="43.56089401" lon="-72.89450836">
    <tag k="addr:city" v="Shrewsbury"/>
    <tag k="addr:housenumber" v="1551"/>
    <tag k="addr:street" v="Upper Cold River Road"/>
    <tag k="addr:state" v="VT"/>
    <tag k="ref:vcgi:esiteid" v="226694"/>
  </node>
  <node id="-577" visible="true" lat="43.55833945" lon="-72.92014847">
    <tag k="addr:city" v="Shrewsbury"/>
    <tag k="addr:housenumber" v="240"/>
    <tag k="addr:street" v="Wallace Road"/>
    <tag k="addr:state" v="VT"/>
    <tag k="ref:vcgi:esiteid" v="226697"/>
  </node>
  <node id="-579" visible="true" lat="43.55635875" lon="-72.88304187">
    <tag k="addr:city" v="Shrewsbury"/>
    <tag k="addr:housenumber" v="2200"/>
    <tag k="addr:street" v="Upper Cold River Road"/>
    <tag k="addr:state" v="VT"/>
    <tag k="ref:vcgi:esiteid" v="226699"/>
  </node>
  <node id="-582" visible="true" lat="43.5495843" lon="-72.83029542">
    <tag k="addr:city" v="Shrewsbury"/>
    <tag k="addr:housenumber" v="630"/>
    <tag k="addr:street" v="Coldham Road"/>
    <tag k="addr:state" v="VT"/>
    <tag k="ref:vcgi:esiteid" v="226702"/>
  </node>
  <node id="-588" visible="true" lat="43.53040644" lon="-72.81984972">
    <tag k="addr:city" v="Shrewsbury"/>
    <tag k="addr:housenumber" v="371"/>
    <tag k="addr:street" v="Old Plymouth Road"/>
    <tag k="addr:state" v="VT"/>
    <tag k="ref:vcgi:esiteid" v="226708"/>
  </node>
  <node id="-590" visible="true" lat="43.50067505" lon="-72.81662747">
    <tag k="addr:city" v="Shrewsbury"/>
    <tag k="addr:housenumber" v="240"/>
    <tag k="addr:street" v="Hinckley Road"/>
    <tag k="addr:state" v="VT"/>
    <tag k="ref:vcgi:esiteid" v="226710"/>
  </node>
  <node id="-599" visible="true" lat="43.48657667" lon="-72.81815876">
    <tag k="addr:city" v="Shrewsbury"/>
    <tag k="addr:housenumber" v="500"/>
    <tag k="addr:street" v="Jesser Road"/>
    <tag k="addr:state" v="VT"/>
    <tag k="ref:vcgi:esiteid" v="226719"/>
  </node>
  <node id="-603" visible="true" lat="43.51319668" lon="-72.81040887">
    <tag k="addr:city" v="Shrewsbury"/>
    <tag k="addr:housenumber" v="349"/>
    <tag k="addr:street" v="Hempstead Road"/>
    <tag k="addr:state" v="VT"/>
    <tag k="ref:vcgi:esiteid" v="226723"/>
  </node>
  <node id="-606" visible="true" lat="43.4906242" lon="-72.88026008">
    <tag k="addr:city" v="Shrewsbury"/>
    <tag k="addr:housenumber" v="230"/>
    <tag k="addr:street" v="Town Hill Road"/>
    <tag k="addr:state" v="VT"/>
    <tag k="ref:vcgi:esiteid" v="226726"/>
  </node>
  <node id="-608" visible="true" lat="43.53037442" lon="-72.83154945">
    <tag k="addr:city" v="Shrewsbury"/>
    <tag k="addr:housenumber" v="9675"/>
    <tag k="addr:street" v="Cold River Road"/>
    <tag k="addr:state" v="VT"/>
    <tag k="ref:vcgi:esiteid" v="226728"/>
  </node>
  <node id="-609" visible="true" lat="43.5295362" lon="-72.82872274">
    <tag k="addr:city" v="Shrewsbury"/>
    <tag k="addr:housenumber" v="9809"/>
    <tag k="addr:street" v="Cold River Road"/>
    <tag k="addr:state" v="VT"/>
    <tag k="ref:vcgi:esiteid" v="226729"/>
  </node>
  <node id="-610" visible="true" lat="43.52950728" lon="-72.82833023">
    <tag k="addr:city" v="Shrewsbury"/>
    <tag k="addr:housenumber" v="9823"/>
    <tag k="addr:street" v="Cold River Road"/>
    <tag k="addr:state" v="VT"/>
    <tag k="ref:vcgi:esiteid" v="226730"/>
  </node>
  <node id="-613" visible="true" lat="43.50663935" lon="-72.79952038">
    <tag k="addr:city" v="Shrewsbury"/>
    <tag k="addr:housenumber" v="581"/>
    <tag k="addr:street" v="Saltash Road"/>
    <tag k="addr:state" v="VT"/>
    <tag k="ref:vcgi:esiteid" v="226733"/>
  </node>
  <node id="-625" visible="true" lat="43.49143012" lon="-72.88138599">
    <tag k="addr:city" v="Shrewsbury"/>
    <tag k="addr:housenumber" v="231"/>
    <tag k="addr:street" v="Town Hill Road"/>
    <tag k="addr:state" v="VT"/>
    <tag k="ref:vcgi:esiteid" v="226748"/>
  </node>
  <node id="-626" visible="true" lat="43.55539596" lon="-72.91997976">
    <tag k="addr:city" v="Shrewsbury"/>
    <tag k="addr:housenumber" v="400"/>
    <tag k="addr:street" v="Wallace Road"/>
    <tag k="addr:state" v="VT"/>
    <tag k="ref:vcgi:esiteid" v="226751"/>
  </node>
  <node id="-629" visible="true" lat="43.49433402" lon="-72.830037">
    <tag k="addr:city" v="Shrewsbury"/>
    <tag k="addr:housenumber" v="2665"/>
    <tag k="addr:street" v="Russellville Road"/>
    <tag k="addr:state" v="VT"/>
    <tag k="ref:vcgi:esiteid" v="226754"/>
  </node>
  <node id="-631" visible="true" lat="43.49647428" lon="-72.81464805">
    <tag k="addr:city" v="Shrewsbury"/>
    <tag k="addr:housenumber" v="3081"/>
    <tag k="addr:street" v="Eastham Road"/>
    <tag k="addr:state" v="VT"/>
    <tag k="ref:vcgi:esiteid" v="226756"/>
  </node>
  <node id="-632" visible="true" lat="43.56161138" lon="-72.89794424">
    <tag k="addr:city" v="Shrewsbury"/>
    <tag k="addr:housenumber" v="100"/>
    <tag k="addr:street" v="Moonshine Lane"/>
    <tag k="addr:state" v="VT"/>
    <tag k="ref:vcgi:esiteid" v="226757"/>
  </node>
  <node id="-633" visible="true" lat="43.55332384" lon="-72.87059776">
    <tag k="addr:city" v="Shrewsbury"/>
    <tag k="addr:housenumber" v="2859"/>
    <tag k="addr:street" v="Upper Cold River Road"/>
    <tag k="addr:state" v="VT"/>
    <tag k="ref:vcgi:esiteid" v="226758"/>
  </node>
  <node id="-634" visible="true" lat="43.5584634" lon="-72.8890488">
    <tag k="addr:city" v="Shrewsbury"/>
    <tag k="addr:housenumber" v="1850"/>
    <tag k="addr:street" v="Upper Cold River Road"/>
    <tag k="addr:state" v="VT"/>
    <tag k="ref:vcgi:esiteid" v="226759"/>
  </node>
  <node id="-636" visible="true" lat="43.50776107" lon="-72.86845676">
    <tag k="addr:city" v="Shrewsbury"/>
    <tag k="addr:housenumber" v="95"/>
    <tag k="addr:street" v="Cemetery Road"/>
    <tag k="addr:state" v="VT"/>
    <tag k="ref:vcgi:esiteid" v="226762"/>
  </node>
  <node id="-637" visible="true" lat="43.54968315" lon="-72.8664094">
    <tag k="addr:city" v="Shrewsbury"/>
    <tag k="addr:housenumber" v="3180"/>
    <tag k="addr:street" v="Upper Cold River Road"/>
    <tag k="addr:state" v="VT"/>
    <tag k="ref:vcgi:esiteid" v="226763"/>
  </node>
  <node id="-638" visible="true" lat="43.49254314" lon="-72.79901971">
    <tag k="addr:city" v="Shrewsbury"/>
    <tag k="addr:housenumber" v="111"/>
    <tag k="addr:street" v="Tabor Road"/>
    <tag k="addr:state" v="VT"/>
    <tag k="ref:vcgi:esiteid" v="226764"/>
  </node>
  <node id="-639" visible="true" lat="43.49112674" lon="-72.80122171">
    <tag k="addr:city" v="Shrewsbury"/>
    <tag k="addr:housenumber" v="94"/>
    <tag k="addr:street" v="Tabor Road"/>
    <tag k="addr:state" v="VT"/>
    <tag k="ref:vcgi:esiteid" v="226765"/>
  </node>
  <node id="-640" visible="true" lat="43.48943626" lon="-72.80172187">
    <tag k="addr:city" v="Shrewsbury"/>
    <tag k="addr:housenumber" v="96"/>
    <tag k="addr:street" v="Tabor Road"/>
    <tag k="addr:state" v="VT"/>
    <tag k="ref:vcgi:esiteid" v="226766"/>
  </node>
  <node id="-641" visible="true" lat="43.50599354" lon="-72.86304542">
    <tag k="addr:city" v="Shrewsbury"/>
    <tag k="addr:housenumber" v="217"/>
    <tag k="addr:street" v="Russellville Road"/>
    <tag k="addr:state" v="VT"/>
    <tag k="ref:vcgi:esiteid" v="226767"/>
  </node>
  <node id="-645" visible="true" lat="43.48565641" lon="-72.85026402">
    <tag k="addr:city" v="Shrewsbury"/>
    <tag k="addr:housenumber" v="514"/>
    <tag k="addr:street" v="Robinson Road"/>
    <tag k="addr:state" v="VT"/>
    <tag k="ref:vcgi:esiteid" v="226771"/>
  </node>
  <node id="-647" visible="true" lat="43.51200342" lon="-72.8662665">
    <tag k="addr:city" v="Shrewsbury"/>
    <tag k="addr:housenumber" v="2005"/>
    <tag k="addr:street" v="Keiffer Road"/>
    <tag k="addr:state" v="VT"/>
    <tag k="ref:vcgi:esiteid" v="226773"/>
  </node>
  <node id="-651" visible="true" lat="43.56036335" lon="-72.89712975">
    <tag k="addr:city" v="Shrewsbury"/>
    <tag k="addr:housenumber" v="1500"/>
    <tag k="addr:street" v="Upper Cold River Road"/>
    <tag k="addr:state" v="VT"/>
    <tag k="ref:vcgi:esiteid" v="226777"/>
  </node>
  <node id="-653" visible="true" lat="43.5618126" lon="-72.9016305">
    <tag k="addr:city" v="Shrewsbury"/>
    <tag k="addr:housenumber" v="1101"/>
    <tag k="addr:street" v="Upper Cold River Road"/>
    <tag k="addr:state" v="VT"/>
    <tag k="ref:vcgi:esiteid" v="226779"/>
  </node>
  <node id="-655" visible="true" lat="43.53005529" lon="-72.83663005">
    <tag k="addr:city" v="Shrewsbury"/>
    <tag k="addr:housenumber" v="9400"/>
    <tag k="addr:street" v="Cold River Road"/>
    <tag k="addr:state" v="VT"/>
    <tag k="ref:vcgi:esiteid" v="226781"/>
  </node>
  <node id="-657" visible="true" lat="43.48732812" lon="-72.80499832">
    <tag k="addr:city" v="Shrewsbury"/>
    <tag k="addr:housenumber" v="501"/>
    <tag k="addr:street" v="Mount Holly Road"/>
    <tag k="addr:state" v="VT"/>
    <tag k="ref:vcgi:esiteid" v="226783"/>
  </node>
  <node id="-664" visible="true" lat="43.48761607" lon="-72.83673426">
    <tag k="addr:city" v="Shrewsbury"/>
    <tag k="addr:housenumber" v="211"/>
    <tag k="addr:street" v="Frank Lord Road"/>
    <tag k="addr:state" v="VT"/>
    <tag k="ref:vcgi:esiteid" v="226791"/>
  </node>
  <node id="-665" visible="true" lat="43.50911402" lon="-72.86797564">
    <tag k="addr:city" v="Shrewsbury"/>
    <tag k="addr:housenumber" v="2541"/>
    <tag k="addr:street" v="Lincoln Hill Road"/>
    <tag k="addr:state" v="VT"/>
    <tag k="ref:vcgi:esiteid" v="226792"/>
  </node>
  <node id="-668" visible="true" lat="43.52021951" lon="-72.82528536">
    <tag k="addr:city" v="Shrewsbury"/>
    <tag k="addr:housenumber" v="560"/>
    <tag k="addr:street" v="Eastham Road"/>
    <tag k="addr:state" v="VT"/>
    <tag k="ref:vcgi:esiteid" v="307038"/>
  </node>
  <node id="-669" visible="true" lat="43.51929966" lon="-72.82396256">
    <tag k="addr:city" v="Shrewsbury"/>
    <tag k="addr:housenumber" v="600"/>
    <tag k="addr:street" v="Eastham Road"/>
    <tag k="addr:state" v="VT"/>
    <tag k="ref:vcgi:esiteid" v="307039"/>
  </node>
  <node id="-675" visible="true" lat="43.55445632" lon="-72.87910482">
    <tag k="addr:city" v="Shrewsbury"/>
    <tag k="addr:housenumber" v="2400"/>
    <tag k="addr:street" v="Upper Cold River Road"/>
    <tag k="addr:state" v="VT"/>
    <tag k="ref:vcgi:esiteid" v="315324"/>
  </node>
  <node id="-681" visible="true" lat="43.53330927" lon="-72.83369012">
    <tag k="addr:city" v="Shrewsbury"/>
    <tag k="addr:housenumber" v="5570"/>
    <tag k="addr:street" v="Upper Cold River Road"/>
    <tag k="addr:state" v="VT"/>
    <tag k="ref:vcgi:esiteid" v="328325"/>
  </node>
  <node id="-682" visible="true" lat="43.5328369" lon="-72.83314281">
    <tag k="addr:city" v="Shrewsbury"/>
    <tag k="addr:housenumber" v="5610"/>
    <tag k="addr:street" v="Upper Cold River Road"/>
    <tag k="addr:state" v="VT"/>
    <tag k="ref:vcgi:esiteid" v="328326"/>
  </node>
  <node id="-689" visible="true" lat="43.50864683" lon="-72.86944137">
    <tag k="addr:city" v="Shrewsbury"/>
    <tag k="addr:housenumber" v="2450"/>
    <tag k="addr:street" v="Lincoln Hill Road"/>
    <tag k="addr:state" v="VT"/>
    <tag k="ref:vcgi:esiteid" v="331026"/>
  </node>
  <node id="-692" visible="true" lat="43.48939391" lon="-72.81245739">
    <tag k="addr:city" v="Shrewsbury"/>
    <tag k="addr:housenumber" v="99"/>
    <tag k="addr:street" v="Jesser Road"/>
    <tag k="addr:state" v="VT"/>
    <tag k="ref:vcgi:esiteid" v="332438"/>
  </node>
  <node id="-693" visible="true" lat="43.50412064" lon="-72.79586276">
    <tag k="addr:city" v="Shrewsbury"/>
    <tag k="addr:housenumber" v="900"/>
    <tag k="addr:street" v="Saltash Road"/>
    <tag k="addr:state" v="VT"/>
    <tag k="ref:vcgi:esiteid" v="333954"/>
  </node>
  <node id="-695" visible="true" lat="43.51353087" lon="-72.80606737">
    <tag k="addr:city" v="Shrewsbury"/>
    <tag k="addr:housenumber" v="461"/>
    <tag k="addr:street" v="Hempstead Road"/>
    <tag k="addr:state" v="VT"/>
    <tag k="ref:vcgi:esiteid" v="338582"/>
  </node>
  <node id="-696" visible="true" lat="43.49249629" lon="-72.80979544">
    <tag k="addr:city" v="Shrewsbury"/>
    <tag k="addr:housenumber" v="3400"/>
    <tag k="addr:street" v="Eastham Road"/>
    <tag k="addr:state" v="VT"/>
    <tag k="ref:vcgi:esiteid" v="338616"/>
  </node>
  <node id="-702" visible="true" lat="43.48683882" lon="-72.83819035">
    <tag k="addr:city" v="Shrewsbury"/>
    <tag k="addr:housenumber" v="224"/>
    <tag k="addr:street" v="Frank Lord Road"/>
    <tag k="addr:state" v="VT"/>
    <tag k="ref:vcgi:esiteid" v="344947"/>
  </node>
  <node id="-703" visible="true" lat="43.48360909" lon="-72.86163758">
    <tag k="addr:city" v="Shrewsbury"/>
    <tag k="addr:housenumber" v="1150"/>
    <tag k="addr:street" v="Shunpike Road"/>
    <tag k="addr:state" v="VT"/>
    <tag k="ref:vcgi:esiteid" v="365040"/>
  </node>
  <node id="-706" visible="true" lat="43.48449378" lon="-72.863891">
    <tag k="addr:city" v="Shrewsbury"/>
    <tag k="addr:housenumber" v="1050"/>
    <tag k="addr:street" v="Shunpike Road"/>
    <tag k="addr:state" v="VT"/>
    <tag k="ref:vcgi:esiteid" v="448604"/>
  </node>
  <node id="-707" visible="true" lat="43.48593203" lon="-72.87107078">
    <tag k="addr:city" v="Shrewsbury"/>
    <tag k="addr:housenumber" v="48"/>
    <tag k="addr:street" v="Nice Road"/>
    <tag k="addr:state" v="VT"/>
    <tag k="ref:vcgi:esiteid" v="448605"/>
  </node>
  <node id="-709" visible="true" lat="43.50986952" lon="-72.86558893">
    <tag k="addr:city" v="Shrewsbury"/>
    <tag k="addr:housenumber" v="2165"/>
    <tag k="addr:street" v="Keiffer Road"/>
    <tag k="addr:state" v="VT"/>
    <tag k="ref:vcgi:esiteid" v="448607"/>
  </node>
  <node id="-733" visible="true" lat="43.51804693" lon="-72.82116236">
    <tag k="addr:city" v="Shrewsbury"/>
    <tag k="addr:housenumber" v="790"/>
    <tag k="addr:street" v="Eastham Road"/>
    <tag k="addr:state" v="VT"/>
    <tag k="ref:vcgi:esiteid" v="610525"/>
  </node>
  <node id="-736" visible="true" lat="43.512981" lon="-72.81047804">
    <tag k="addr:city" v="Shrewsbury"/>
    <tag k="addr:housenumber" v="347"/>
    <tag k="addr:street" v="Hempstead Road"/>
    <tag k="addr:state" v="VT"/>
    <tag k="ref:vcgi:esiteid" v="611357"/>
  </node>
  <node id="-738" visible="true" lat="43.49439874" lon="-72.87980587">
    <tag k="addr:city" v="Shrewsbury"/>
    <tag k="addr:housenumber" v="464"/>
    <tag k="addr:street" v="Town Hill Road"/>
    <tag k="addr:state" v="VT"/>
    <tag k="ref:vcgi:esiteid" v="611381"/>
  </node>
  <node id="-740" visible="true" lat="43.49293534" lon="-72.80429166">
    <tag k="addr:city" v="Shrewsbury"/>
    <tag k="addr:housenumber" v="3663"/>
    <tag k="addr:street" v="Eastham Road"/>
    <tag k="addr:state" v="VT"/>
    <tag k="ref:vcgi:esiteid" v="611760"/>
  </node>
  <node id="-755" visible="true" lat="43.56297838" lon="-72.91359805">
    <tag k="addr:city" v="Shrewsbury"/>
    <tag k="addr:housenumber" v="601"/>
    <tag k="addr:street" v="Upper Cold River Road"/>
    <tag k="addr:state" v="VT"/>
    <tag k="ref:vcgi:esiteid" v="756523"/>
  </node>
  <node id="-768" visible="true" lat="43.56456483" lon="-72.84832477">
    <tag k="addr:city" v="Shrewsbury"/>
    <tag k="addr:housenumber" v="1951"/>
    <tag k="addr:street" v="Clement Shelter Road"/>
    <tag k="addr:state" v="VT"/>
    <tag k="ref:vcgi:esiteid" v="1050982"/>
  </node>
</osm>
