<?xml version="1.0" encoding="UTF-8"?>
<osm version="0.6" generator="JOSM" upload="false">
  <node id="-203" visible="true" lat="43.54159223" lon="-72.8165009">
    <!-- conflict: "1300 Ccc Road, Shrewsbury, VT" No match in OSM, but a different address exists <5m away: "1300 Civilian Conservation Corps Road, Shrewsbury, VT" -->
    <tag k="addr:city" v="Shrewsbury"/>
    <tag k="addr:housenumber" v="1300"/>
    <tag k="addr:street" v="Ccc Road"/>
    <tag k="addr:state" v="VT"/>
    <tag k="ref:vcgi:esiteid" v="226322"/>
  </node>
  <node id="-206" visible="true" lat="43.54119875" lon="-72.81938469">
    <!-- conflict: "1051 Ccc Road, Shrewsbury, VT" Fuzzy match to "1051 CCC Road, Shrewsbury, VT" -->
    <tag k="addr:city" v="Shrewsbury"/>
    <tag k="addr:housenumber" v="1051"/>
    <tag k="addr:street" v="Ccc Road"/>
    <tag k="addr:state" v="VT"/>
    <tag k="ref:vcgi:esiteid" v="226325"/>
  </node>
  <node id="-208" visible="true" lat="43.54054481" lon="-72.81617574">
    <!-- conflict: "898 Ccc Road, Shrewsbury, VT" No match in OSM, but a different address exists <5m away: "898 Civilian Conservation Corps Road, Shrewsbury, VT" -->
    <tag k="addr:city" v="Shrewsbury"/>
    <tag k="addr:housenumber" v="898"/>
    <tag k="addr:street" v="Ccc Road"/>
    <tag k="addr:state" v="VT"/>
    <tag k="ref:vcgi:esiteid" v="226327"/>
  </node>
  <node id="-220" visible="true" lat="43.53684498" lon="-72.82068395">
    <!-- conflict: "813 Ccc Road, Shrewsbury, VT" Fuzzy match to "813 CCC Road, Shrewsbury, VT" -->
    <tag k="addr:city" v="Shrewsbury"/>
    <tag k="addr:housenumber" v="813"/>
    <tag k="addr:street" v="Ccc Road"/>
    <tag k="addr:state" v="VT"/>
    <tag k="ref:vcgi:esiteid" v="226339"/>
  </node>
  <node id="-237" visible="true" lat="43.53441023" lon="-72.82137164">
    <!-- conflict: "505 Ccc Road, Shrewsbury, VT" Fuzzy match to "505 CCC Road, Shrewsbury, VT" -->
    <tag k="addr:city" v="Shrewsbury"/>
    <tag k="addr:housenumber" v="505"/>
    <tag k="addr:street" v="Ccc Road"/>
    <tag k="addr:state" v="VT"/>
    <tag k="ref:vcgi:esiteid" v="226357"/>
  </node>
  <node id="-238" visible="true" lat="43.53425951" lon="-72.82186153">
    <!-- conflict: "477 Ccc Road, Shrewsbury, VT" Fuzzy match to "477 CCC Road, Shrewsbury, VT" -->
    <tag k="addr:city" v="Shrewsbury"/>
    <tag k="addr:housenumber" v="477"/>
    <tag k="addr:street" v="Ccc Road"/>
    <tag k="addr:state" v="VT"/>
    <tag k="ref:vcgi:esiteid" v="226358"/>
  </node>
  <node id="-240" visible="true" lat="43.53461464" lon="-72.82342648">
    <!-- conflict: "409 Ccc Road, Shrewsbury, VT" Fuzzy match to "409 CCC Road, Shrewsbury, VT" -->
    <tag k="addr:city" v="Shrewsbury"/>
    <tag k="addr:housenumber" v="409"/>
    <tag k="addr:street" v="Ccc Road"/>
    <tag k="addr:state" v="VT"/>
    <tag k="ref:vcgi:esiteid" v="226360"/>
  </node>
  <node id="-243" visible="true" lat="43.53331724" lon="-72.82191105">
    <!-- conflict: "418 Ccc Road, Shrewsbury, VT" Fuzzy match to "418 CCC Road, Shrewsbury, VT" -->
    <tag k="addr:city" v="Shrewsbury"/>
    <tag k="addr:housenumber" v="418"/>
    <tag k="addr:street" v="Ccc Road"/>
    <tag k="addr:state" v="VT"/>
    <tag k="ref:vcgi:esiteid" v="226363"/>
  </node>
  <node id="-247" visible="true" lat="43.53318892" lon="-72.82248407">
    <!-- conflict: "392 Ccc Road, Shrewsbury, VT" Fuzzy match to "392 CCC Road, Shrewsbury, VT" -->
    <tag k="addr:city" v="Shrewsbury"/>
    <tag k="addr:housenumber" v="392"/>
    <tag k="addr:street" v="Ccc Road"/>
    <tag k="addr:state" v="VT"/>
    <tag k="ref:vcgi:esiteid" v="226367"/>
  </node>
  <node id="-249" visible="true" lat="43.53321074" lon="-72.82365688">
    <!-- conflict: "355 Ccc Road, Shrewsbury, VT" Fuzzy match to "355 CCC Road, Shrewsbury, VT" -->
    <tag k="addr:city" v="Shrewsbury"/>
    <tag k="addr:housenumber" v="355"/>
    <tag k="addr:street" v="Ccc Road"/>
    <tag k="addr:state" v="VT"/>
    <tag k="ref:vcgi:esiteid" v="226369"/>
  </node>
  <node id="-251" visible="true" lat="43.53272043" lon="-72.82325348">
    <!-- conflict: "346 Ccc Road, Shrewsbury, VT" Fuzzy match to "346 CCC Road, Shrewsbury, VT" -->
    <tag k="addr:city" v="Shrewsbury"/>
    <tag k="addr:housenumber" v="346"/>
    <tag k="addr:street" v="Ccc Road"/>
    <tag k="addr:state" v="VT"/>
    <tag k="ref:vcgi:esiteid" v="226371"/>
  </node>
  <node id="-253" visible="true" lat="43.53275926" lon="-72.82409662">
    <!-- conflict: "323 Ccc Road, Shrewsbury, VT" Fuzzy match to "323 CCC Road, Shrewsbury, VT" -->
    <tag k="addr:city" v="Shrewsbury"/>
    <tag k="addr:housenumber" v="323"/>
    <tag k="addr:street" v="Ccc Road"/>
    <tag k="addr:state" v="VT"/>
    <tag k="ref:vcgi:esiteid" v="226373"/>
  </node>
  <node id="-259" visible="true" lat="43.5322934" lon="-72.82283747">
    <!-- conflict: "348 Ccc Road, Shrewsbury, VT" Fuzzy match to "348 CCC Road, Shrewsbury, VT" -->
    <tag k="addr:city" v="Shrewsbury"/>
    <tag k="addr:housenumber" v="348"/>
    <tag k="addr:street" v="Ccc Road"/>
    <tag k="addr:state" v="VT"/>
    <tag k="ref:vcgi:esiteid" v="226379"/>
  </node>
  <node id="-401" visible="true" lat="43.50599731" lon="-72.85289823">
    <!-- conflict: "1434 Crown Point Road, Shrewsbury, VT" Fuzzy match to "1434 Crown Point Road, , " -->
    <tag k="addr:city" v="Shrewsbury"/>
    <tag k="addr:housenumber" v="1434"/>
    <tag k="addr:street" v="Crown Point Road"/>
    <tag k="addr:state" v="VT"/>
    <tag k="ref:vcgi:esiteid" v="226523"/>
  </node>
  <node id="-504" visible="true" lat="43.48996547" lon="-72.8835135">
    <!-- conflict: "5125 Vermont Route 103, Shrewsbury, VT" No match in OSM, but a different address exists <5m away: "5125 Vt Route 103, Shrewsbury, VT" -->
    <tag k="addr:city" v="Shrewsbury"/>
    <tag k="addr:housenumber" v="5125"/>
    <tag k="addr:street" v="Vermont Route 103"/>
    <tag k="addr:state" v="VT"/>
    <tag k="ref:vcgi:esiteid" v="226627"/>
  </node>
  <node id="-507" visible="true" lat="43.48966193" lon="-72.88300996">
    <!-- conflict: "5147 Vermont Route 103, Shrewsbury, VT" No match in OSM, but a different address exists <5m away: "5147 Vt Route 103, Shrewsbury, VT" -->
    <tag k="addr:city" v="Shrewsbury"/>
    <tag k="addr:housenumber" v="5147"/>
    <tag k="addr:street" v="Vermont Route 103"/>
    <tag k="addr:state" v="VT"/>
    <tag k="ref:vcgi:esiteid" v="226630"/>
  </node>
  <node id="-508" visible="true" lat="43.48961184" lon="-72.88289216">
    <!-- conflict: "5159 Vermont Route 103, Shrewsbury, VT" No match in OSM, but a different address exists <5m away: "5159 Vt Route 103, Shrewsbury, VT" -->
    <tag k="addr:city" v="Shrewsbury"/>
    <tag k="addr:housenumber" v="5159"/>
    <tag k="addr:street" v="Vermont Route 103"/>
    <tag k="addr:state" v="VT"/>
    <tag k="ref:vcgi:esiteid" v="226631"/>
  </node>
  <node id="-511" visible="true" lat="43.48938371" lon="-72.88238879">
    <!-- conflict: "5187 Vermont Route 103, Shrewsbury, VT" No match in OSM, but a different address exists <5m away: "5187 Vt Route 103, Shrewsbury, VT" -->
    <tag k="addr:city" v="Shrewsbury"/>
    <tag k="addr:housenumber" v="5187"/>
    <tag k="addr:street" v="Vermont Route 103"/>
    <tag k="addr:state" v="VT"/>
    <tag k="ref:vcgi:esiteid" v="226634"/>
  </node>
  <node id="-515" visible="true" lat="43.48909026" lon="-72.88209714">
    <!-- conflict: "5207 Vermont Route 103, Shrewsbury, VT" No match in OSM, but a different address exists <5m away: "5207 Vt Route 103, Shrewsbury, VT" -->
    <tag k="addr:city" v="Shrewsbury"/>
    <tag k="addr:housenumber" v="5207"/>
    <tag k="addr:street" v="Vermont Route 103"/>
    <tag k="addr:state" v="VT"/>
    <tag k="ref:vcgi:esiteid" v="226638"/>
  </node>
  <node id="-521" visible="true" lat="43.48880566" lon="-72.88250324">
    <!-- conflict: "5206 Vermont Route 103, Shrewsbury, VT" No match in OSM, but a different address exists <5m away: "5206 Vt Route 103, Shrewsbury, VT" -->
    <tag k="addr:city" v="Shrewsbury"/>
    <tag k="addr:housenumber" v="5206"/>
    <tag k="addr:street" v="Vermont Route 103"/>
    <tag k="addr:state" v="VT"/>
    <tag k="ref:vcgi:esiteid" v="226644"/>
  </node>
  <node id="-524" visible="true" lat="43.48873918" lon="-72.88280589">
    <!-- conflict: "5152 Vermont Route 103, Shrewsbury, VT" No match in OSM, but a different address exists <5m away: "5152 Vt Route 103, Shrewsbury, VT" -->
    <tag k="addr:city" v="Shrewsbury"/>
    <tag k="addr:housenumber" v="5152"/>
    <tag k="addr:street" v="Vermont Route 103"/>
    <tag k="addr:state" v="VT"/>
    <tag k="ref:vcgi:esiteid" v="226647"/>
  </node>
  <node id="-531" visible="true" lat="43.48814504" lon="-72.88220556">
    <!-- conflict: "26 Dodge Road, Shrewsbury, VT" No match in OSM, but a different address exists <5m away: "5244 Vt Route 103, Shrewsbury, VT" -->
    <tag k="addr:city" v="Shrewsbury"/>
    <tag k="addr:housenumber" v="26"/>
    <tag k="addr:street" v="Dodge Road"/>
    <tag k="addr:state" v="VT"/>
    <tag k="ref:vcgi:esiteid" v="226654"/>
  </node>
  <node id="-532" visible="true" lat="43.48814275" lon="-72.88081394">
    <!-- conflict: "5299 Vermont Route 103, Shrewsbury, VT" No match in OSM, but a different address exists <5m away: "5299 Vt Route 103, Shrewsbury, VT" -->
    <tag k="addr:city" v="Shrewsbury"/>
    <tag k="addr:housenumber" v="5299"/>
    <tag k="addr:street" v="Vermont Route 103"/>
    <tag k="addr:state" v="VT"/>
    <tag k="ref:vcgi:esiteid" v="226655"/>
  </node>
  <node id="-533" visible="true" lat="43.48792412" lon="-72.88222845">
    <!-- conflict: "40 Dodge Road, Shrewsbury, VT" No match in OSM, but a different address exists <5m away: "5246 Vt Route 103, Shrewsbury, VT" -->
    <tag k="addr:city" v="Shrewsbury"/>
    <tag k="addr:housenumber" v="40"/>
    <tag k="addr:street" v="Dodge Road"/>
    <tag k="addr:state" v="VT"/>
    <tag k="ref:vcgi:esiteid" v="226656"/>
  </node>
  <node id="-534" visible="true" lat="43.48792482" lon="-72.88068948">
    <!-- conflict: "5309 Vermont Route 103, Shrewsbury, VT" No match in OSM, but a different address exists <5m away: "5309 Vt Route 103, Shrewsbury, VT" -->
    <tag k="addr:city" v="Shrewsbury"/>
    <tag k="addr:housenumber" v="5309"/>
    <tag k="addr:street" v="Vermont Route 103"/>
    <tag k="addr:state" v="VT"/>
    <tag k="ref:vcgi:esiteid" v="226657"/>
  </node>
  <node id="-542" visible="true" lat="43.48720698" lon="-72.88032629">
    <!-- conflict: "5367 Vermont Route 103, Shrewsbury, VT" No match in OSM, but a different address exists <5m away: "5367 Vt Route 103, Shrewsbury, VT" -->
    <tag k="addr:city" v="Shrewsbury"/>
    <tag k="addr:housenumber" v="5367"/>
    <tag k="addr:street" v="Vermont Route 103"/>
    <tag k="addr:state" v="VT"/>
    <tag k="ref:vcgi:esiteid" v="226665"/>
  </node>
  <node id="-545" visible="true" lat="43.48650567" lon="-72.87983049">
    <!-- conflict: "5419 Vermont Route 103, Shrewsbury, VT" No match in OSM, but a different address exists <5m away: "5419 Vt Route 103, Shrewsbury, VT" -->
    <tag k="addr:city" v="Shrewsbury"/>
    <tag k="addr:housenumber" v="5419"/>
    <tag k="addr:street" v="Vermont Route 103"/>
    <tag k="addr:state" v="VT"/>
    <tag k="ref:vcgi:esiteid" v="226668"/>
  </node>
  <node id="-547" visible="true" lat="43.48618099" lon="-72.88016819">
    <!-- conflict: "5442 Vermont Route 103, Shrewsbury, VT" No match in OSM, but a different address exists <5m away: "5442 Vt Route 103, Shrewsbury, VT" -->
    <tag k="addr:city" v="Shrewsbury"/>
    <tag k="addr:housenumber" v="5442"/>
    <tag k="addr:street" v="Vermont Route 103"/>
    <tag k="addr:state" v="VT"/>
    <tag k="ref:vcgi:esiteid" v="226670"/>
  </node>
  <node id="-548" visible="true" lat="43.48581954" lon="-72.88090102">
    <!-- conflict: "5444 Vermont Route 103, Shrewsbury, VT" No match in OSM, but a different address exists <5m away: "5444 Vt Route 103, Shrewsbury, VT" -->
    <tag k="addr:city" v="Shrewsbury"/>
    <tag k="addr:housenumber" v="5444"/>
    <tag k="addr:street" v="Vermont Route 103"/>
    <tag k="addr:state" v="VT"/>
    <tag k="ref:vcgi:esiteid" v="226671"/>
  </node>
  <node id="-551" visible="true" lat="43.48560238" lon="-72.88048271">
    <!-- conflict: "5446 Vermont Route 103, Shrewsbury, VT" Fuzzy match to "5446 Vermont Route 103, Cuttingsville, VT" -->
    <tag k="addr:city" v="Shrewsbury"/>
    <tag k="addr:housenumber" v="5446"/>
    <tag k="addr:street" v="Vermont Route 103"/>
    <tag k="addr:state" v="VT"/>
    <tag k="ref:vcgi:esiteid" v="226674"/>
  </node>
  <node id="-553" visible="true" lat="43.48496246" lon="-72.87961578">
    <!-- conflict: "5518 Vermont Route 103, Shrewsbury, VT" No match in OSM, but a different address exists <5m away: "5518 Vt Route 103, Shrewsbury, VT" -->
    <tag k="addr:city" v="Shrewsbury"/>
    <tag k="addr:housenumber" v="5518"/>
    <tag k="addr:street" v="Vermont Route 103"/>
    <tag k="addr:state" v="VT"/>
    <tag k="ref:vcgi:esiteid" v="226676"/>
  </node>
  <node id="-556" visible="true" lat="43.48456524" lon="-72.87922825">
    <!-- conflict: "5584 Vermont Route 103, Shrewsbury, VT" No match in OSM, but a different address exists <5m away: "5584 Vt Route 103, Shrewsbury, VT" -->
    <tag k="addr:city" v="Shrewsbury"/>
    <tag k="addr:housenumber" v="5584"/>
    <tag k="addr:street" v="Vermont Route 103"/>
    <tag k="addr:state" v="VT"/>
    <tag k="ref:vcgi:esiteid" v="226679"/>
  </node>
  <node id="-561" visible="true" lat="43.4835592" lon="-72.87707065">
    <!-- conflict: "5593 Vermont Route 103, Shrewsbury, VT" No match in OSM, but a different address exists <5m away: "5593 Vt Route 103, Shrewsbury, VT" -->
    <tag k="addr:city" v="Shrewsbury"/>
    <tag k="addr:housenumber" v="5593"/>
    <tag k="addr:street" v="Vermont Route 103"/>
    <tag k="addr:state" v="VT"/>
    <tag k="ref:vcgi:esiteid" v="226684"/>
  </node>
  <node id="-562" visible="true" lat="43.48286641" lon="-72.87710716">
    <!-- conflict: "5707 Vermont Route 103, Shrewsbury, VT" No match in OSM, but a different address exists <5m away: "5707 Vt Route 103, Shrewsbury, VT" -->
    <tag k="addr:city" v="Shrewsbury"/>
    <tag k="addr:housenumber" v="5707"/>
    <tag k="addr:street" v="Vermont Route 103"/>
    <tag k="addr:state" v="VT"/>
    <tag k="ref:vcgi:esiteid" v="226685"/>
  </node>
  <node id="-597" visible="true" lat="43.48749699" lon="-72.88108917">
    <!-- conflict: "5304 Vermont Route 103, Shrewsbury, VT" No match in OSM, but a different address exists <5m away: "5304 Vt Route 103, Shrewsbury, VT" -->
    <tag k="addr:city" v="Shrewsbury"/>
    <tag k="addr:housenumber" v="5304"/>
    <tag k="addr:street" v="Vermont Route 103"/>
    <tag k="addr:state" v="VT"/>
    <tag k="ref:vcgi:esiteid" v="226720"/>
  </node>
  <node id="-647" visible="true" lat="43.54307653" lon="-72.80648725">
    <!-- conflict: "1800 Ccc Road, Shrewsbury, VT" Fuzzy match to "1800 CCC Road, Shrewsbury, VT" -->
    <tag k="addr:city" v="Shrewsbury"/>
    <tag k="addr:housenumber" v="1800"/>
    <tag k="addr:street" v="Ccc Road"/>
    <tag k="addr:state" v="VT"/>
    <tag k="ref:vcgi:esiteid" v="226776"/>
  </node>
  <node id="-655" visible="true" lat="43.48781867" lon="-72.88181095">
    <!-- conflict: "15 Dodge Road, Shrewsbury, VT" No match in OSM, but a different address exists <5m away: "5242 Vt Route 103, Shrewsbury, VT" -->
    <tag k="addr:city" v="Shrewsbury"/>
    <tag k="addr:housenumber" v="15"/>
    <tag k="addr:street" v="Dodge Road"/>
    <tag k="addr:state" v="VT"/>
    <tag k="ref:vcgi:esiteid" v="226784"/>
  </node>
  <node id="-669" visible="true" lat="43.53921002" lon="-72.81721583">
    <!-- conflict: "896 Ccc Road, Shrewsbury, VT" No match in OSM, but a different address exists <5m away: "896 Civilian Conservation Corps Road, Shrewsbury, VT" -->
    <tag k="addr:city" v="Shrewsbury"/>
    <tag k="addr:housenumber" v="896"/>
    <tag k="addr:street" v="Ccc Road"/>
    <tag k="addr:state" v="VT"/>
    <tag k="ref:vcgi:esiteid" v="309251"/>
  </node>
  <node id="-670" visible="true" lat="43.47939055" lon="-72.87820562">
    <!-- conflict: "6720 Vermont Route 103, Shrewsbury, VT" No match in OSM, but a different address exists <5m away: "6720 Vt Route 103, Shrewsbury, VT" -->
    <tag k="addr:city" v="Shrewsbury"/>
    <tag k="addr:housenumber" v="6720"/>
    <tag k="addr:street" v="Vermont Route 103"/>
    <tag k="addr:state" v="VT"/>
    <tag k="ref:vcgi:esiteid" v="309252"/>
  </node>
  <node id="-673" visible="true" lat="43.51044111" lon="-72.8802128">
    <!-- conflict: "1907 Lincoln Hill Road, Shrewsbury, VT" No match in OSM, but a different address exists <5m away: "1893 Lincoln Hill Road, Shrewsbury, VT" -->
    <tag k="addr:city" v="Shrewsbury"/>
    <tag k="addr:housenumber" v="1907"/>
    <tag k="addr:street" v="Lincoln Hill Road"/>
    <tag k="addr:state" v="VT"/>
    <tag k="ref:vcgi:esiteid" v="315325"/>
  </node>
  <node id="-675" visible="true" lat="43.53850304" lon="-72.81942938">
    <!-- conflict: "901 Ccc Road, Shrewsbury, VT" Fuzzy match to "901 CCC Road, Shrewsbury, VT" -->
    <tag k="addr:city" v="Shrewsbury"/>
    <tag k="addr:housenumber" v="901"/>
    <tag k="addr:street" v="Ccc Road"/>
    <tag k="addr:state" v="VT"/>
    <tag k="ref:vcgi:esiteid" v="315327"/>
  </node>
</osm>
