<?xml version="1.0" encoding="UTF-8"?>
<osm version="0.6" generator="JOSM" upload="false">
  <node id="-150" visible="true" lat="43.3400341" lon="-72.53133114">
    <!-- conflict: "93 Vermont Route 106, , VT" No match in OSM, but a different address exists <5m away: "96 State Route 106, North Springfield, VT" -->
    <tag k="addr:housenumber" v="93"/>
    <tag k="addr:street" v="Vermont Route 106"/>
    <tag k="addr:state" v="VT"/>
    <tag k="ref:vcgi:esiteid" v="234400"/>
  </node>
  <node id="-163" visible="true" lat="43.33898925" lon="-72.52824401">
    <!-- conflict: "67 Vermont Route 106, , VT" No match in OSM, but a different address exists <5m away: "67 State Route 106, North Springfield, VT" -->
    <tag k="addr:housenumber" v="67"/>
    <tag k="addr:street" v="Vermont Route 106"/>
    <tag k="addr:state" v="VT"/>
    <tag k="ref:vcgi:esiteid" v="234415"/>
  </node>
  <node id="-168" visible="true" lat="43.33843565" lon="-72.52687859">
    <!-- conflict: "44 School Street, , VT" No match in OSM, but a different address exists <5m away: "44 School Ns, Springfield, VT" -->
    <tag k="addr:housenumber" v="44"/>
    <tag k="addr:street" v="School Street"/>
    <tag k="addr:state" v="VT"/>
    <tag k="ref:vcgi:esiteid" v="234421"/>
  </node>
  <node id="-376" visible="true" lat="43.33313307" lon="-72.52115251">
    <!-- conflict: "10 Boynton Drive, , VT" No match in OSM, but a different address exists <5m away: "9 Boynton Drive, Springfield, VT" -->
    <tag k="addr:housenumber" v="10"/>
    <tag k="addr:street" v="Boynton Drive"/>
    <tag k="addr:state" v="VT"/>
    <tag k="ref:vcgi:esiteid" v="234650"/>
  </node>
  <node id="-472" visible="true" lat="43.33232601" lon="-72.52240656">
    <!-- conflict: "286 Giddings Street, , VT" No match in OSM, but a different address exists <5m away: "30 Main Street Ns, Springfield, VT" -->
    <tag k="addr:housenumber" v="286"/>
    <tag k="addr:street" v="Giddings Street"/>
    <tag k="addr:state" v="VT"/>
    <tag k="ref:vcgi:esiteid" v="234756"/>
  </node>
  <node id="-637" visible="true" lat="43.32773985" lon="-72.50556141">
    <!-- conflict: "34 Plain Hill Road, , VT" No match in OSM, but a different address exists <5m away: "34 Plainhill Road, Springfield, VT" -->
    <tag k="addr:housenumber" v="34"/>
    <tag k="addr:street" v="Plain Hill Road"/>
    <tag k="addr:state" v="VT"/>
    <tag k="ref:vcgi:esiteid" v="234946"/>
  </node>
  <node id="-695" visible="true" lat="43.32495195" lon="-72.51040021">
    <!-- conflict: "400 River Street, , VT" No match in OSM, but a different address exists <5m away: "480 River Street, Springfield, VT" -->
    <tag k="addr:housenumber" v="400"/>
    <tag k="addr:street" v="River Street"/>
    <tag k="addr:state" v="VT"/>
    <tag k="ref:vcgi:esiteid" v="235011"/>
  </node>
  <node id="-797" visible="true" lat="43.32181183" lon="-72.49493933">
    <!-- conflict: "201 Walnut Hill Road, , VT" No match in OSM, but a different address exists <5m away: "21 Walnut Hill Road, Springfield, VT" -->
    <tag k="addr:housenumber" v="201"/>
    <tag k="addr:street" v="Walnut Hill Road"/>
    <tag k="addr:state" v="VT"/>
    <tag k="ref:vcgi:esiteid" v="235117"/>
  </node>
  <node id="-926" visible="true" lat="43.31686755" lon="-72.50827064">
    <!-- conflict: "85 Davis Road, , VT" No match in OSM, but a different address exists <5m away: "126;85 town highway 34;Davis Road, Springfield, VT" -->
    <tag k="addr:housenumber" v="85"/>
    <tag k="addr:street" v="Davis Road"/>
    <tag k="addr:state" v="VT"/>
    <tag k="ref:vcgi:esiteid" v="235257"/>
  </node>
  <node id="-935" visible="true" lat="43.31653788" lon="-72.50801486">
    <!-- conflict: "59 Davis Road, , VT" No match in OSM, but a different address exists <5m away: "124 Davis Road, Springfield, VT" -->
    <tag k="addr:housenumber" v="59"/>
    <tag k="addr:street" v="Davis Road"/>
    <tag k="addr:state" v="VT"/>
    <tag k="ref:vcgi:esiteid" v="235266"/>
  </node>
  <node id="-942" visible="true" lat="43.31623738" lon="-72.5073448">
    <!-- conflict: "28 Davis Road, , VT" No match in OSM, but a different address exists <5m away: "128 Davis Road, Springfield, VT" -->
    <tag k="addr:housenumber" v="28"/>
    <tag k="addr:street" v="Davis Road"/>
    <tag k="addr:state" v="VT"/>
    <tag k="ref:vcgi:esiteid" v="235274"/>
  </node>
  <node id="-946" visible="true" lat="43.31592759" lon="-72.50724082">
    <!-- conflict: "31 Davis Road, , VT" No match in OSM, but a different address exists <5m away: "120 Davis Road, Springfield, VT" -->
    <tag k="addr:housenumber" v="31"/>
    <tag k="addr:street" v="Davis Road"/>
    <tag k="addr:state" v="VT"/>
    <tag k="ref:vcgi:esiteid" v="235278"/>
  </node>
  <node id="-951" visible="true" lat="43.31581874" lon="-72.50776233">
    <!-- conflict: "35 Davis Road, , VT" No match in OSM, but a different address exists <5m away: "122 Davis Road, Springfield, VT" -->
    <tag k="addr:housenumber" v="35"/>
    <tag k="addr:street" v="Davis Road"/>
    <tag k="addr:state" v="VT"/>
    <tag k="ref:vcgi:esiteid" v="235283"/>
  </node>
  <node id="-1047" visible="true" lat="43.30969619" lon="-72.481781">
    <!-- conflict: "216 Elm Hill, , VT" Fuzzy match to "216 Elm Hill Road, Springfield, VT" -->
    <tag k="addr:housenumber" v="216"/>
    <tag k="addr:street" v="Elm Hill"/>
    <tag k="addr:state" v="VT"/>
    <tag k="ref:vcgi:esiteid" v="235384"/>
  </node>
  <node id="-1183" visible="true" lat="43.30543225" lon="-72.49272597">
    <!-- conflict: "9 Eaton Avenue, , VT" No match in OSM, but a different address exists <5m away: "4 Eaton Avenue, Springfield, VT" -->
    <tag k="addr:housenumber" v="9"/>
    <tag k="addr:street" v="Eaton Avenue"/>
    <tag k="addr:state" v="VT"/>
    <tag k="ref:vcgi:esiteid" v="235531"/>
  </node>
  <node id="-1203" visible="true" lat="43.304985" lon="-72.48514639">
    <!-- conflict: "160 Hoover Street, , VT" No match in OSM, but a different address exists <5m away: "53 North Main Street, Springfield, VT" -->
    <tag k="addr:housenumber" v="160"/>
    <tag k="addr:street" v="Hoover Street"/>
    <tag k="addr:state" v="VT"/>
    <tag k="ref:vcgi:esiteid" v="235553"/>
  </node>
  <node id="-1212" visible="true" lat="43.30466906" lon="-72.48578587">
    <!-- conflict: "226 Fellows Hill, , VT" No match in OSM, but a different address exists <5m away: "48 North Main Street, Springfield, VT" -->
    <tag k="addr:housenumber" v="226"/>
    <tag k="addr:street" v="Fellows Hill"/>
    <tag k="addr:state" v="VT"/>
    <tag k="ref:vcgi:esiteid" v="235563"/>
  </node>
  <node id="-1213" visible="true" lat="43.30476949" lon="-72.48520354">
    <!-- conflict: "170 Hoover Street, , VT" No match in OSM, but a different address exists <5m away: "23 Douglas Street, Springfield, VT" -->
    <tag k="addr:housenumber" v="170"/>
    <tag k="addr:street" v="Hoover Street"/>
    <tag k="addr:state" v="VT"/>
    <tag k="ref:vcgi:esiteid" v="235564"/>
  </node>
  <node id="-1217" visible="true" lat="43.3046151" lon="-72.48254952">
    <!-- conflict: "86 Elm Hill, , VT" Fuzzy match to "86 Elm Hill Street, Springfield, VT" -->
    <tag k="addr:housenumber" v="86"/>
    <tag k="addr:street" v="Elm Hill"/>
    <tag k="addr:state" v="VT"/>
    <tag k="ref:vcgi:esiteid" v="235569"/>
  </node>
  <node id="-1229" visible="true" lat="43.30452338" lon="-72.48198545">
    <!-- conflict: "85 Elm Hill, , VT" Fuzzy match to "85 Elm Hill Street, Springfield, VT" -->
    <tag k="addr:housenumber" v="85"/>
    <tag k="addr:street" v="Elm Hill"/>
    <tag k="addr:state" v="VT"/>
    <tag k="ref:vcgi:esiteid" v="235582"/>
  </node>
  <node id="-1230" visible="true" lat="43.3044224" lon="-72.4858651">
    <!-- conflict: "200 Fellows Hill, , VT" No match in OSM, but a different address exists <5m away: "42 North Main Street, Springfield, VT" -->
    <tag k="addr:housenumber" v="200"/>
    <tag k="addr:street" v="Fellows Hill"/>
    <tag k="addr:state" v="VT"/>
    <tag k="ref:vcgi:esiteid" v="235583"/>
  </node>
  <node id="-1234" visible="true" lat="43.3043366" lon="-72.48487727">
    <!-- conflict: "50 Earle Street, , VT" No match in OSM, but a different address exists <5m away: "50 Earl Street, Springfield, VT" -->
    <tag k="addr:housenumber" v="50"/>
    <tag k="addr:street" v="Earle Street"/>
    <tag k="addr:state" v="VT"/>
    <tag k="ref:vcgi:esiteid" v="235588"/>
  </node>
  <node id="-1235" visible="true" lat="43.30431892" lon="-72.48214726">
    <!-- conflict: "79 Elm Hill, , VT" Fuzzy match to "79 Elm Hill Street, Springfield, VT" -->
    <tag k="addr:housenumber" v="79"/>
    <tag k="addr:street" v="Elm Hill"/>
    <tag k="addr:state" v="VT"/>
    <tag k="ref:vcgi:esiteid" v="235589"/>
  </node>
  <node id="-1238" visible="true" lat="43.3044904" lon="-72.48156323">
    <!-- conflict: "79 1/2 Elm Hill, , VT" No match in OSM, but a different address exists <5m away: "79 1/2 Mark Street, Springfield, VT" -->
    <tag k="addr:housenumber" v="79 1/2"/>
    <tag k="addr:street" v="Elm Hill"/>
    <tag k="addr:state" v="VT"/>
    <tag k="ref:vcgi:esiteid" v="235592"/>
  </node>
  <node id="-1243" visible="true" lat="43.30426598" lon="-72.48590142">
    <!-- conflict: "194 Fellows Hill, , VT" No match in OSM, but a different address exists <5m away: "36 North Main Street, Springfield, VT" -->
    <tag k="addr:housenumber" v="194"/>
    <tag k="addr:street" v="Fellows Hill"/>
    <tag k="addr:state" v="VT"/>
    <tag k="ref:vcgi:esiteid" v="235597"/>
  </node>
  <node id="-1244" visible="true" lat="43.3042357" lon="-72.48551693">
    <!-- conflict: "201 Fellows Hill, , VT" No match in OSM, but a different address exists <5m away: "71 Ellis Street, Springfield, VT" -->
    <tag k="addr:housenumber" v="201"/>
    <tag k="addr:street" v="Fellows Hill"/>
    <tag k="addr:state" v="VT"/>
    <tag k="ref:vcgi:esiteid" v="235599"/>
  </node>
  <node id="-1247" visible="true" lat="43.30424111" lon="-72.48444271">
    <!-- conflict: "1 Earle Street, , VT" No match in OSM, but a different address exists <5m away: "1 Earl Street, Springfield, VT" -->
    <tag k="addr:housenumber" v="1"/>
    <tag k="addr:street" v="Earle Street"/>
    <tag k="addr:state" v="VT"/>
    <tag k="ref:vcgi:esiteid" v="235603"/>
  </node>
  <node id="-1253" visible="true" lat="43.30408482" lon="-72.48601065">
    <!-- conflict: "180 Fellows Hill, , VT" No match in OSM, but a different address exists <5m away: "34 North Main Street, Springfield, VT" -->
    <tag k="addr:housenumber" v="180"/>
    <tag k="addr:street" v="Fellows Hill"/>
    <tag k="addr:state" v="VT"/>
    <tag k="ref:vcgi:esiteid" v="235609"/>
  </node>
  <node id="-1258" visible="true" lat="43.30406613" lon="-72.48220522">
    <!-- conflict: "77 Elm Hill, , VT" No match in OSM, but a different address exists <5m away: "75 Elm Hill Street, Springfield, VT" -->
    <tag k="addr:housenumber" v="77"/>
    <tag k="addr:street" v="Elm Hill"/>
    <tag k="addr:state" v="VT"/>
    <tag k="ref:vcgi:esiteid" v="235615"/>
  </node>
  <node id="-1264" visible="true" lat="43.30394554" lon="-72.48606365">
    <!-- conflict: "170 Fellows Hill, , VT" No match in OSM, but a different address exists <5m away: "32 North Main Street, Springfield, VT" -->
    <tag k="addr:housenumber" v="170"/>
    <tag k="addr:street" v="Fellows Hill"/>
    <tag k="addr:state" v="VT"/>
    <tag k="ref:vcgi:esiteid" v="235621"/>
  </node>
  <node id="-1268" visible="true" lat="43.30385827" lon="-72.48227549">
    <!-- conflict: "75 Elm Hill, , VT" Fuzzy match to "75 Elm Hill Street, Springfield, VT" -->
    <tag k="addr:housenumber" v="75"/>
    <tag k="addr:street" v="Elm Hill"/>
    <tag k="addr:state" v="VT"/>
    <tag k="ref:vcgi:esiteid" v="235627"/>
  </node>
  <node id="-1269" visible="true" lat="43.30383678" lon="-72.48515555">
    <!-- conflict: "34 Earle Street, , VT" No match in OSM, but a different address exists <5m away: "34 Earl Street, Springfield, VT" -->
    <tag k="addr:housenumber" v="34"/>
    <tag k="addr:street" v="Earle Street"/>
    <tag k="addr:state" v="VT"/>
    <tag k="ref:vcgi:esiteid" v="235628"/>
  </node>
  <node id="-1270" visible="true" lat="43.30374149" lon="-72.4857166">
    <!-- conflict: "161 Fellows Hill, , VT" No match in OSM, but a different address exists <5m away: "23 North Main Street, Springfield, VT" -->
    <tag k="addr:housenumber" v="161"/>
    <tag k="addr:street" v="Fellows Hill"/>
    <tag k="addr:state" v="VT"/>
    <tag k="ref:vcgi:esiteid" v="235629"/>
  </node>
  <node id="-1274" visible="true" lat="43.30374858" lon="-72.48281189">
    <!-- conflict: "76 Elm Hill, , VT" Fuzzy match to "76 Elm Hill Street, Springfield, VT" -->
    <tag k="addr:housenumber" v="76"/>
    <tag k="addr:street" v="Elm Hill"/>
    <tag k="addr:state" v="VT"/>
    <tag k="ref:vcgi:esiteid" v="235634"/>
  </node>
  <node id="-1275" visible="true" lat="43.30372806" lon="-72.48478402">
    <!-- conflict: "35 Earle Street, , VT" No match in OSM, but a different address exists <5m away: "35 Earl Street, Springfield, VT" -->
    <tag k="addr:housenumber" v="35"/>
    <tag k="addr:street" v="Earle Street"/>
    <tag k="addr:state" v="VT"/>
    <tag k="ref:vcgi:esiteid" v="235635"/>
  </node>
  <node id="-1278" visible="true" lat="43.30365558" lon="-72.48628352">
    <!-- conflict: "146 Fellows Hill, , VT" No match in OSM, but a different address exists <5m away: "18 North Main Street, Springfield, VT" -->
    <tag k="addr:housenumber" v="146"/>
    <tag k="addr:street" v="Fellows Hill"/>
    <tag k="addr:state" v="VT"/>
    <tag k="ref:vcgi:esiteid" v="235639"/>
  </node>
  <node id="-1280" visible="true" lat="43.30354124" lon="-72.4822751">
    <!-- conflict: "73 Elm Hill, , VT" Fuzzy match to "73 Elm Hill Street, Springfield, VT" -->
    <tag k="addr:housenumber" v="73"/>
    <tag k="addr:street" v="Elm Hill"/>
    <tag k="addr:state" v="VT"/>
    <tag k="ref:vcgi:esiteid" v="235641"/>
  </node>
  <node id="-1283" visible="true" lat="43.30347256" lon="-72.48635619">
    <!-- conflict: "134 Fellows Hill, , VT" No match in OSM, but a different address exists <5m away: "12 North Main Street, Springfield, VT" -->
    <tag k="addr:housenumber" v="134"/>
    <tag k="addr:street" v="Fellows Hill"/>
    <tag k="addr:state" v="VT"/>
    <tag k="ref:vcgi:esiteid" v="235644"/>
  </node>
  <node id="-1285" visible="true" lat="43.30348447" lon="-72.48288801">
    <!-- conflict: "74 Elm Hill, , VT" Fuzzy match to "74 Elm Hill Street, Springfield, VT" -->
    <tag k="addr:housenumber" v="74"/>
    <tag k="addr:street" v="Elm Hill"/>
    <tag k="addr:state" v="VT"/>
    <tag k="ref:vcgi:esiteid" v="235647"/>
  </node>
  <node id="-1290" visible="true" lat="43.30348767" lon="-72.48592536">
    <!-- conflict: "145 Fellows Hill, , VT" No match in OSM, but a different address exists <5m away: "15 Bellevue Street, Springfield, VT" -->
    <tag k="addr:housenumber" v="145"/>
    <tag k="addr:street" v="Fellows Hill"/>
    <tag k="addr:state" v="VT"/>
    <tag k="ref:vcgi:esiteid" v="235653"/>
  </node>
  <node id="-1294" visible="true" lat="43.30336568" lon="-72.48481617">
    <!-- conflict: "27 Earle Street, , VT" No match in OSM, but a different address exists <5m away: "27 Earl Street, Springfield, VT" -->
    <tag k="addr:housenumber" v="27"/>
    <tag k="addr:street" v="Earle Street"/>
    <tag k="addr:state" v="VT"/>
    <tag k="ref:vcgi:esiteid" v="235658"/>
  </node>
  <node id="-1296" visible="true" lat="43.30332946" lon="-72.48504638">
    <!-- conflict: "23 Earle Street, , VT" No match in OSM, but a different address exists <5m away: "23 Earl Street, Springfield, VT" -->
    <tag k="addr:housenumber" v="23"/>
    <tag k="addr:street" v="Earle Street"/>
    <tag k="addr:state" v="VT"/>
    <tag k="ref:vcgi:esiteid" v="235660"/>
  </node>
  <node id="-1298" visible="true" lat="43.30330657" lon="-72.48641204">
    <!-- conflict: "124 Fellows Hill, , VT" No match in OSM, but a different address exists <5m away: "8 North Main Street, Springfield, VT" -->
    <tag k="addr:housenumber" v="124"/>
    <tag k="addr:street" v="Fellows Hill"/>
    <tag k="addr:state" v="VT"/>
    <tag k="ref:vcgi:esiteid" v="235662"/>
  </node>
  <node id="-1299" visible="true" lat="43.30339041" lon="-72.48553824">
    <!-- conflict: "5 Bellvue Street, , VT" No match in OSM, but a different address exists <5m away: "5 Bellevue Street, Springfield, VT" -->
    <tag k="addr:housenumber" v="5"/>
    <tag k="addr:street" v="Bellvue Street"/>
    <tag k="addr:state" v="VT"/>
    <tag k="ref:vcgi:esiteid" v="235663"/>
  </node>
  <node id="-1303" visible="true" lat="43.30327701" lon="-72.49054411">
    <!-- conflict: "55 Springfield Plaza Road, , VT" Fuzzy match to "55 Springfield Plaza, Springfield, VT" -->
    <tag k="addr:housenumber" v="55"/>
    <tag k="addr:street" v="Springfield Plaza Road"/>
    <tag k="addr:state" v="VT"/>
    <tag k="ref:vcgi:esiteid" v="235667"/>
  </node>
  <node id="-1307" visible="true" lat="43.30324442" lon="-72.48604687">
    <!-- conflict: "2 Bellvue Street, , VT" No match in OSM, but a different address exists <5m away: "9 North Main Street, Springfield, VT" -->
    <tag k="addr:housenumber" v="2"/>
    <tag k="addr:street" v="Bellvue Street"/>
    <tag k="addr:state" v="VT"/>
    <tag k="ref:vcgi:esiteid" v="235671"/>
  </node>
  <node id="-1308" visible="true" lat="43.30308925" lon="-72.48582903">
    <!-- conflict: "6 Bellvue Street, , VT" No match in OSM, but a different address exists <5m away: "6 Bellevue Street, Springfield, VT" -->
    <tag k="addr:housenumber" v="6"/>
    <tag k="addr:street" v="Bellvue Street"/>
    <tag k="addr:state" v="VT"/>
    <tag k="ref:vcgi:esiteid" v="235672"/>
  </node>
  <node id="-1309" visible="true" lat="43.3032221" lon="-72.48227007">
    <!-- conflict: "69 Elm Hill, , VT" Fuzzy match to "69 Elm Hill Street, Springfield, VT" -->
    <tag k="addr:housenumber" v="69"/>
    <tag k="addr:street" v="Elm Hill"/>
    <tag k="addr:state" v="VT"/>
    <tag k="ref:vcgi:esiteid" v="235673"/>
  </node>
  <node id="-1311" visible="true" lat="43.30318451" lon="-72.48652885">
    <!-- conflict: "110 Fellows Hill, , VT" No match in OSM, but a different address exists <5m away: "6 North Main Street, Springfield, VT" -->
    <tag k="addr:housenumber" v="110"/>
    <tag k="addr:street" v="Fellows Hill"/>
    <tag k="addr:state" v="VT"/>
    <tag k="ref:vcgi:esiteid" v="235675"/>
  </node>
  <node id="-1312" visible="true" lat="43.30311021" lon="-72.48296099">
    <!-- conflict: "64 Elm Hill, , VT" Fuzzy match to "64 Elm Hill Street, Springfield, VT" -->
    <tag k="addr:housenumber" v="64"/>
    <tag k="addr:street" v="Elm Hill"/>
    <tag k="addr:state" v="VT"/>
    <tag k="ref:vcgi:esiteid" v="235676"/>
  </node>
  <node id="-1320" visible="true" lat="43.30295188" lon="-72.48522975">
    <!-- conflict: "11 Earle Street, , VT" No match in OSM, but a different address exists <5m away: "11 Earl Street, Springfield, VT" -->
    <tag k="addr:housenumber" v="11"/>
    <tag k="addr:street" v="Earle Street"/>
    <tag k="addr:state" v="VT"/>
    <tag k="ref:vcgi:esiteid" v="235685"/>
  </node>
  <node id="-1324" visible="true" lat="43.3030285" lon="-72.49044442">
    <!-- conflict: "75 Springfield Plaza Road, , VT" Fuzzy match to "75 Springfield Plaza, Springfield, VT" -->
    <tag k="addr:housenumber" v="75"/>
    <tag k="addr:street" v="Springfield Plaza Road"/>
    <tag k="addr:state" v="VT"/>
    <tag k="ref:vcgi:esiteid" v="235689"/>
  </node>
  <node id="-1326" visible="true" lat="43.30287844" lon="-72.48299704">
    <!-- conflict: "62 Elm Hill, , VT" Fuzzy match to "62 Elm Hill Street, Springfield, VT" -->
    <tag k="addr:housenumber" v="62"/>
    <tag k="addr:street" v="Elm Hill"/>
    <tag k="addr:state" v="VT"/>
    <tag k="ref:vcgi:esiteid" v="235691"/>
  </node>
  <node id="-1328" visible="true" lat="43.30299032" lon="-72.48249629">
    <!-- conflict: "61 Elm Hill, , VT" Fuzzy match to "61 Elm Hill Street, Springfield, VT" -->
    <tag k="addr:housenumber" v="61"/>
    <tag k="addr:street" v="Elm Hill"/>
    <tag k="addr:state" v="VT"/>
    <tag k="ref:vcgi:esiteid" v="235693"/>
  </node>
  <node id="-1334" visible="true" lat="43.30279284" lon="-72.49036232">
    <!-- conflict: "91 Springfield Plaza Road, , VT" Fuzzy match to "91 Springfield Plaza, Springfield, VT" -->
    <tag k="addr:housenumber" v="91"/>
    <tag k="addr:street" v="Springfield Plaza Road"/>
    <tag k="addr:state" v="VT"/>
    <tag k="ref:vcgi:esiteid" v="235699"/>
  </node>
  <node id="-1338" visible="true" lat="43.30269246" lon="-72.48301125">
    <!-- conflict: "58 Elm Hill, , VT" No match in OSM, but a different address exists <5m away: "58 Mary Street, Springfield, VT" -->
    <tag k="addr:housenumber" v="58"/>
    <tag k="addr:street" v="Elm Hill"/>
    <tag k="addr:state" v="VT"/>
    <tag k="ref:vcgi:esiteid" v="235703"/>
  </node>
  <node id="-1348" visible="true" lat="43.30263893" lon="-72.48253452">
    <!-- conflict: "59 Elm Hill, , VT" No match in OSM, but a different address exists <5m away: "59 Lincoln Street, Springfield, VT" -->
    <tag k="addr:housenumber" v="59"/>
    <tag k="addr:street" v="Elm Hill"/>
    <tag k="addr:state" v="VT"/>
    <tag k="ref:vcgi:esiteid" v="235715"/>
  </node>
  <node id="-1356" visible="true" lat="43.30243878" lon="-72.48307077">
    <!-- conflict: "56 Elm Hill, , VT" Fuzzy match to "56 Elm Hill Street, Springfield, VT" -->
    <tag k="addr:housenumber" v="56"/>
    <tag k="addr:street" v="Elm Hill"/>
    <tag k="addr:state" v="VT"/>
    <tag k="ref:vcgi:esiteid" v="235723"/>
  </node>
  <node id="-1360" visible="true" lat="43.3022976" lon="-72.48264194">
    <!-- conflict: "55 Elm Hill, , VT" Fuzzy match to "55 Elm Hill Street, Springfield, VT" -->
    <tag k="addr:housenumber" v="55"/>
    <tag k="addr:street" v="Elm Hill"/>
    <tag k="addr:state" v="VT"/>
    <tag k="ref:vcgi:esiteid" v="235728"/>
  </node>
  <node id="-1365" visible="true" lat="43.30219369" lon="-72.48318346">
    <!-- conflict: "52 Elm Hill, , VT" Fuzzy match to "52 Elm Hill Street, Springfield, VT" -->
    <tag k="addr:housenumber" v="52"/>
    <tag k="addr:street" v="Elm Hill"/>
    <tag k="addr:state" v="VT"/>
    <tag k="ref:vcgi:esiteid" v="235733"/>
  </node>
  <node id="-1367" visible="true" lat="43.30218602" lon="-72.48209884">
    <!-- conflict: "249 Harvard Street, , VT" No match in OSM, but a different address exists <5m away: "6 Harvard Street, Springfield, VT" -->
    <tag k="addr:housenumber" v="249"/>
    <tag k="addr:street" v="Harvard Street"/>
    <tag k="addr:state" v="VT"/>
    <tag k="ref:vcgi:esiteid" v="235735"/>
  </node>
  <node id="-1372" visible="true" lat="43.30222957" lon="-72.48236606">
    <!-- conflict: "263 Harvard Street, , VT" No match in OSM, but a different address exists <5m away: "4 Harvard Street, Springfield, VT" -->
    <tag k="addr:housenumber" v="263"/>
    <tag k="addr:street" v="Harvard Street"/>
    <tag k="addr:state" v="VT"/>
    <tag k="ref:vcgi:esiteid" v="235740"/>
  </node>
  <node id="-1374" visible="true" lat="43.30211925" lon="-72.48159457">
    <!-- conflict: "223 Harvard Street, , VT" No match in OSM, but a different address exists <5m away: "10 Harvard Street, Springfield, VT" -->
    <tag k="addr:housenumber" v="223"/>
    <tag k="addr:street" v="Harvard Street"/>
    <tag k="addr:state" v="VT"/>
    <tag k="ref:vcgi:esiteid" v="235742"/>
  </node>
  <node id="-1378" visible="true" lat="43.30197404" lon="-72.49096411">
    <!-- conflict: "172 Springfield Plaza Road, , VT" Fuzzy match to "172 Springfield Plaza, Springfield, VT" -->
    <tag k="addr:housenumber" v="172"/>
    <tag k="addr:street" v="Springfield Plaza Road"/>
    <tag k="addr:state" v="VT"/>
    <tag k="ref:vcgi:esiteid" v="235746"/>
  </node>
  <node id="-1379" visible="true" lat="43.30200271" lon="-72.49196659">
    <!-- conflict: "124 Springfield Plaza Road, , VT" Fuzzy match to "124 Springfield Plaza, Springfield, VT" -->
    <tag k="addr:housenumber" v="124"/>
    <tag k="addr:street" v="Springfield Plaza Road"/>
    <tag k="addr:state" v="VT"/>
    <tag k="ref:vcgi:esiteid" v="235747"/>
  </node>
  <node id="-1380" visible="true" lat="43.30214936" lon="-72.48181183">
    <!-- conflict: "235 Harvard Street, , VT" No match in OSM, but a different address exists <5m away: "8 Harvard Street, Springfield, VT" -->
    <tag k="addr:housenumber" v="235"/>
    <tag k="addr:street" v="Harvard Street"/>
    <tag k="addr:state" v="VT"/>
    <tag k="ref:vcgi:esiteid" v="235748"/>
  </node>
  <node id="-1381" visible="true" lat="43.30189784" lon="-72.48215138">
    <!-- conflict: "248 Harvard Street, , VT" No match in OSM, but a different address exists <5m away: "5 Harvard Street, Springfield, VT" -->
    <tag k="addr:housenumber" v="248"/>
    <tag k="addr:street" v="Harvard Street"/>
    <tag k="addr:state" v="VT"/>
    <tag k="ref:vcgi:esiteid" v="235749"/>
  </node>
  <node id="-1383" visible="true" lat="43.30194815" lon="-72.48253332">
    <!-- conflict: "266 Harvard Street, , VT" No match in OSM, but a different address exists <5m away: "5 Harvard Street, Springfield, VT" -->
    <tag k="addr:housenumber" v="266"/>
    <tag k="addr:street" v="Harvard Street"/>
    <tag k="addr:state" v="VT"/>
    <tag k="ref:vcgi:esiteid" v="235751"/>
  </node>
  <node id="-1388" visible="true" lat="43.30206945" lon="-72.48131393">
    <!-- conflict: "209 Harvard Street, , VT" No match in OSM, but a different address exists <5m away: "12 Harvard Street, Springfield, VT" -->
    <tag k="addr:housenumber" v="209"/>
    <tag k="addr:street" v="Harvard Street"/>
    <tag k="addr:state" v="VT"/>
    <tag k="ref:vcgi:esiteid" v="235756"/>
  </node>
  <node id="-1389" visible="true" lat="43.3019851" lon="-72.4808221">
    <!-- conflict: "185 Harvard Street, , VT" No match in OSM, but a different address exists <5m away: "16 Harvard Street, Springfield, VT" -->
    <tag k="addr:housenumber" v="185"/>
    <tag k="addr:street" v="Harvard Street"/>
    <tag k="addr:state" v="VT"/>
    <tag k="ref:vcgi:esiteid" v="235758"/>
  </node>
  <node id="-1390" visible="true" lat="43.30204724" lon="-72.48109533">
    <!-- conflict: "199 Harvard Street, , VT" No match in OSM, but a different address exists <5m away: "14 Harvard Street, Springfield, VT" -->
    <tag k="addr:housenumber" v="199"/>
    <tag k="addr:street" v="Harvard Street"/>
    <tag k="addr:state" v="VT"/>
    <tag k="ref:vcgi:esiteid" v="235759"/>
  </node>
  <node id="-1391" visible="true" lat="43.30195524" lon="-72.48324978">
    <!-- conflict: "48 Elm Hill, , VT" Fuzzy match to "48 Elm Hill Street, Springfield, VT" -->
    <tag k="addr:housenumber" v="48"/>
    <tag k="addr:street" v="Elm Hill"/>
    <tag k="addr:state" v="VT"/>
    <tag k="ref:vcgi:esiteid" v="235760"/>
  </node>
  <node id="-1394" visible="true" lat="43.30185034" lon="-72.49148761">
    <!-- conflict: "144 Springfield Plaza Road, , VT" Fuzzy match to "144 Springfield Plaza road, Springfield, VT" -->
    <tag k="addr:housenumber" v="144"/>
    <tag k="addr:street" v="Springfield Plaza Road"/>
    <tag k="addr:state" v="VT"/>
    <tag k="ref:vcgi:esiteid" v="235764"/>
  </node>
  <node id="-1396" visible="true" lat="43.30185991" lon="-72.4819102">
    <!-- conflict: "234 Harvard Street, , VT" No match in OSM, but a different address exists <5m away: "7 Harvard Street, Springfield, VT" -->
    <tag k="addr:housenumber" v="234"/>
    <tag k="addr:street" v="Harvard Street"/>
    <tag k="addr:state" v="VT"/>
    <tag k="ref:vcgi:esiteid" v="235766"/>
  </node>
  <node id="-1397" visible="true" lat="43.30181511" lon="-72.48161669">
    <!-- conflict: "222 Harvard Street, , VT" No match in OSM, but a different address exists <5m away: "9 Harvard Street, Springfield, VT" -->
    <tag k="addr:housenumber" v="222"/>
    <tag k="addr:street" v="Harvard Street"/>
    <tag k="addr:state" v="VT"/>
    <tag k="ref:vcgi:esiteid" v="235767"/>
  </node>
  <node id="-1398" visible="true" lat="43.30203039" lon="-72.48367337">
    <!-- conflict: "50 Elm Hill, , VT" Fuzzy match to "50 Elm Hill Street, Springfield, VT" -->
    <tag k="addr:housenumber" v="50"/>
    <tag k="addr:street" v="Elm Hill"/>
    <tag k="addr:state" v="VT"/>
    <tag k="ref:vcgi:esiteid" v="235768"/>
  </node>
  <node id="-1401" visible="true" lat="43.30178648" lon="-72.4813783">
    <!-- conflict: "208 Harvard Street, , VT" No match in OSM, but a different address exists <5m away: "11 Hillcrest Road, Springfield, VT" -->
    <tag k="addr:housenumber" v="208"/>
    <tag k="addr:street" v="Harvard Street"/>
    <tag k="addr:state" v="VT"/>
    <tag k="ref:vcgi:esiteid" v="235771"/>
  </node>
  <node id="-1402" visible="true" lat="43.30174883" lon="-72.48115633">
    <!-- conflict: "198 Harvard Street, , VT" No match in OSM, but a different address exists <5m away: "13 Harvard Street, Springfield, VT" -->
    <tag k="addr:housenumber" v="198"/>
    <tag k="addr:street" v="Harvard Street"/>
    <tag k="addr:state" v="VT"/>
    <tag k="ref:vcgi:esiteid" v="235772"/>
  </node>
  <node id="-1409" visible="true" lat="43.30169227" lon="-72.48081403">
    <!-- conflict: "170 Harvard Street, , VT" No match in OSM, but a different address exists <5m away: "16 Hillcrest Road, Springfield, VT" -->
    <tag k="addr:housenumber" v="170"/>
    <tag k="addr:street" v="Harvard Street"/>
    <tag k="addr:state" v="VT"/>
    <tag k="ref:vcgi:esiteid" v="235781"/>
  </node>
  <node id="-1420" visible="true" lat="43.30152203" lon="-72.48079479">
    <!-- conflict: "154 Harvard Street, , VT" No match in OSM, but a different address exists <5m away: "14 Hillcrest Road, Springfield, VT" -->
    <tag k="addr:housenumber" v="154"/>
    <tag k="addr:street" v="Harvard Street"/>
    <tag k="addr:state" v="VT"/>
    <tag k="ref:vcgi:esiteid" v="235794"/>
  </node>
  <node id="-1422" visible="true" lat="43.30152201" lon="-72.48272783">
    <!-- conflict: "41 Harvard Street, , VT" No match in OSM, but a different address exists <5m away: "45 Hillcrest Road, Springfield, VT" -->
    <tag k="addr:housenumber" v="41"/>
    <tag k="addr:street" v="Harvard Street"/>
    <tag k="addr:state" v="VT"/>
    <tag k="ref:vcgi:esiteid" v="235797"/>
  </node>
  <node id="-1427" visible="true" lat="43.30149286" lon="-72.48227129">
    <!-- conflict: "58 Harvard Street, , VT" No match in OSM, but a different address exists <5m away: "2 Hillcrest Road, Springfield, VT" -->
    <tag k="addr:housenumber" v="58"/>
    <tag k="addr:street" v="Harvard Street"/>
    <tag k="addr:state" v="VT"/>
    <tag k="ref:vcgi:esiteid" v="235804"/>
  </node>
  <node id="-1428" visible="true" lat="43.30145809" lon="-72.48199502">
    <!-- conflict: "74 Harvard Street, , VT" No match in OSM, but a different address exists <5m away: "4 Hillcrest Road, Springfield, VT" -->
    <tag k="addr:housenumber" v="74"/>
    <tag k="addr:street" v="Harvard Street"/>
    <tag k="addr:state" v="VT"/>
    <tag k="ref:vcgi:esiteid" v="235806"/>
  </node>
  <node id="-1431" visible="true" lat="43.30138208" lon="-72.48093754">
    <!-- conflict: "134 Harvard Street, , VT" No match in OSM, but a different address exists <5m away: "12 Hillcrest Road, Springfield, VT" -->
    <tag k="addr:housenumber" v="134"/>
    <tag k="addr:street" v="Harvard Street"/>
    <tag k="addr:state" v="VT"/>
    <tag k="ref:vcgi:esiteid" v="235809"/>
  </node>
  <node id="-1432" visible="true" lat="43.30144674" lon="-72.48176013">
    <!-- conflict: "86 Harvard Street, , VT" No match in OSM, but a different address exists <5m away: "6 Hillcrest Road, Springfield, VT" -->
    <tag k="addr:housenumber" v="86"/>
    <tag k="addr:street" v="Harvard Street"/>
    <tag k="addr:state" v="VT"/>
    <tag k="ref:vcgi:esiteid" v="235810"/>
  </node>
  <node id="-1435" visible="true" lat="43.30136056" lon="-72.48148253">
    <!-- conflict: "100 Harvard Street, , VT" No match in OSM, but a different address exists <5m away: "8 Hillcrest Road, Springfield, VT" -->
    <tag k="addr:housenumber" v="100"/>
    <tag k="addr:street" v="Harvard Street"/>
    <tag k="addr:state" v="VT"/>
    <tag k="ref:vcgi:esiteid" v="235813"/>
  </node>
  <node id="-1436" visible="true" lat="43.30133816" lon="-72.48124583">
    <!-- conflict: "112 Harvard Street, , VT" No match in OSM, but a different address exists <5m away: "10 Hillcrest Road, Springfield, VT" -->
    <tag k="addr:housenumber" v="112"/>
    <tag k="addr:street" v="Harvard Street"/>
    <tag k="addr:state" v="VT"/>
    <tag k="ref:vcgi:esiteid" v="235814"/>
  </node>
  <node id="-1442" visible="true" lat="43.30120904" lon="-72.48258088">
    <!-- conflict: "49 Harvard Street, , VT" No match in OSM, but a different address exists <5m away: "1 Hillcrest Road, Springfield, VT" -->
    <tag k="addr:housenumber" v="49"/>
    <tag k="addr:street" v="Harvard Street"/>
    <tag k="addr:state" v="VT"/>
    <tag k="ref:vcgi:esiteid" v="235820"/>
  </node>
  <node id="-1445" visible="true" lat="43.30114824" lon="-72.48207322">
    <!-- conflict: "71 Harvard Street, , VT" No match in OSM, but a different address exists <5m away: "3 Hillcrest Road, Springfield, VT" -->
    <tag k="addr:housenumber" v="71"/>
    <tag k="addr:street" v="Harvard Street"/>
    <tag k="addr:state" v="VT"/>
    <tag k="ref:vcgi:esiteid" v="235824"/>
  </node>
  <node id="-1461" visible="true" lat="43.30104324" lon="-72.48161439">
    <!-- conflict: "2 Hill Place, , VT" No match in OSM, but a different address exists <5m away: "2 Hillcrest Road, Springfield, VT" -->
    <tag k="addr:housenumber" v="2"/>
    <tag k="addr:street" v="Hill Place"/>
    <tag k="addr:state" v="VT"/>
    <tag k="ref:vcgi:esiteid" v="235842"/>
  </node>
  <node id="-1473" visible="true" lat="43.30042196" lon="-72.48088061">
    <!-- conflict: "9 Elm Terrace, , VT" Fuzzy match to "9 Elm Hill Street, Springfield, VT" -->
    <tag k="addr:housenumber" v="9"/>
    <tag k="addr:street" v="Elm Terrace"/>
    <tag k="addr:state" v="VT"/>
    <tag k="ref:vcgi:esiteid" v="235859"/>
  </node>
  <node id="-1477" visible="true" lat="43.30029675" lon="-72.48096457">
    <!-- conflict: "8 Elm Terrace, , VT" No match in OSM, but a different address exists <5m away: " , Springfield, VT" -->
    <tag k="addr:housenumber" v="8"/>
    <tag k="addr:street" v="Elm Terrace"/>
    <tag k="addr:state" v="VT"/>
    <tag k="ref:vcgi:esiteid" v="235863"/>
  </node>
  <node id="-1512" visible="true" lat="43.30040963" lon="-72.48222397">
    <!-- conflict: "9 Elm Hill, , VT" Fuzzy match to "9 Elm Hill Street, Springfield, VT" -->
    <tag k="addr:housenumber" v="9"/>
    <tag k="addr:street" v="Elm Hill"/>
    <tag k="addr:state" v="VT"/>
    <tag k="ref:vcgi:esiteid" v="235901"/>
  </node>
  <node id="-1606" visible="true" lat="43.29984283" lon="-72.48688507">
    <!-- conflict: "36 1/2 Prospect Street, , VT" No match in OSM, but a different address exists <5m away: " Prospect Street, Springfield, VT" -->
    <tag k="addr:housenumber" v="36 1/2"/>
    <tag k="addr:street" v="Prospect Street"/>
    <tag k="addr:state" v="VT"/>
    <tag k="ref:vcgi:esiteid" v="236001"/>
  </node>
  <node id="-1640" visible="true" lat="43.29962122" lon="-72.48242745">
    <!-- conflict: "1 Main Street, , VT" No match in OSM, but a different address exists <5m away: "1 River Street, Springfield, VT" -->
    <tag k="addr:housenumber" v="1"/>
    <tag k="addr:street" v="Main Street"/>
    <tag k="addr:state" v="VT"/>
    <tag k="ref:vcgi:esiteid" v="236037"/>
  </node>
  <node id="-1662" visible="true" lat="43.29950837" lon="-72.4823499">
    <!-- conflict: "3 Main Street, , VT" No match in OSM, but a different address exists <5m away: "3 River Street, Springfield, VT" -->
    <tag k="addr:housenumber" v="3"/>
    <tag k="addr:street" v="Main Street"/>
    <tag k="addr:state" v="VT"/>
    <tag k="ref:vcgi:esiteid" v="236063"/>
  </node>
  <node id="-1695" visible="true" lat="43.29931644" lon="-72.48230758">
    <!-- conflict: "9 Main Street, , VT" Fuzzy match to "9 North Main Street, Springfield, VT" -->
    <tag k="addr:housenumber" v="9"/>
    <tag k="addr:street" v="Main Street"/>
    <tag k="addr:state" v="VT"/>
    <tag k="ref:vcgi:esiteid" v="236105"/>
  </node>
  <node id="-1807" visible="true" lat="43.29829653" lon="-72.48050203">
    <!-- conflict: "10 Pleasant Street, , VT" No match in OSM, but a different address exists <5m away: "40 Pleasant Street, Springfield, VT" -->
    <tag k="addr:housenumber" v="10"/>
    <tag k="addr:street" v="Pleasant Street"/>
    <tag k="addr:state" v="VT"/>
    <tag k="ref:vcgi:esiteid" v="236236"/>
  </node>
  <node id="-1809" visible="true" lat="43.29830865" lon="-72.47912736">
    <!-- conflict: "6 Common Street, , VT" No match in OSM, but a different address exists <5m away: "24 Summer Hill Street, Springfield, VT" -->
    <tag k="addr:housenumber" v="6"/>
    <tag k="addr:street" v="Common Street"/>
    <tag k="addr:state" v="VT"/>
    <tag k="ref:vcgi:esiteid" v="236238"/>
  </node>
  <node id="-1833" visible="true" lat="43.29833837" lon="-72.48169144">
    <!-- conflict: "50 Main Street, , VT" Fuzzy match to "50 North Main Street, Springfield, VT" -->
    <tag k="addr:housenumber" v="50"/>
    <tag k="addr:street" v="Main Street"/>
    <tag k="addr:state" v="VT"/>
    <tag k="ref:vcgi:esiteid" v="236265"/>
  </node>
  <node id="-1869" visible="true" lat="43.29788255" lon="-72.47978922">
    <!-- conflict: "36 Cherry Hill, , VT" No match in OSM, but a different address exists <5m away: "10 Summer Hill Street, Springfield, VT" -->
    <tag k="addr:housenumber" v="36"/>
    <tag k="addr:street" v="Cherry Hill"/>
    <tag k="addr:state" v="VT"/>
    <tag k="ref:vcgi:esiteid" v="236302"/>
  </node>
  <node id="-1962" visible="true" lat="43.2968713" lon="-72.49179117">
    <!-- conflict: "13 Goodyear Avenue, , VT" No match in OSM, but a different address exists <5m away: "15 Goodyear Avenue, Springfield, VT" -->
    <tag k="addr:housenumber" v="13"/>
    <tag k="addr:street" v="Goodyear Avenue"/>
    <tag k="addr:state" v="VT"/>
    <tag k="ref:vcgi:esiteid" v="236403"/>
  </node>
  <node id="-2243" visible="true" lat="43.29419708" lon="-72.47894287">
    <!-- conflict: "34 Clinton Street, , VT" No match in OSM, but a different address exists <5m away: "36 Clinton Street, Springfield, VT" -->
    <tag k="addr:housenumber" v="34"/>
    <tag k="addr:street" v="Clinton Street"/>
    <tag k="addr:state" v="VT"/>
    <tag k="ref:vcgi:esiteid" v="236714"/>
  </node>
  <node id="-2551" visible="true" lat="43.29064173" lon="-72.50743089">
    <!-- conflict: "51 John Nourse Road, , VT" Fuzzy match to "51 John Nourse Drive, Springfield, VT" -->
    <tag k="addr:housenumber" v="51"/>
    <tag k="addr:street" v="John Nourse Road"/>
    <tag k="addr:state" v="VT"/>
    <tag k="ref:vcgi:esiteid" v="237051"/>
  </node>
  <node id="-2568" visible="true" lat="43.2904129" lon="-72.50843048">
    <!-- conflict: "50 John Nourse Road, , VT" Fuzzy match to "50 John Nourse Drive, Springfield, VT" -->
    <tag k="addr:housenumber" v="50"/>
    <tag k="addr:street" v="John Nourse Road"/>
    <tag k="addr:state" v="VT"/>
    <tag k="ref:vcgi:esiteid" v="237069"/>
  </node>
  <node id="-2652" visible="true" lat="43.28936005" lon="-72.50924597">
    <!-- conflict: "20 John Nourse Road, , VT" Fuzzy match to "20 John Nourse Drive, Springfield, VT" -->
    <tag k="addr:housenumber" v="20"/>
    <tag k="addr:street" v="John Nourse Road"/>
    <tag k="addr:state" v="VT"/>
    <tag k="ref:vcgi:esiteid" v="237158"/>
  </node>
  <node id="-2832" visible="true" lat="43.2869094" lon="-72.50874705">
    <!-- conflict: "61 Monument Hill Drive, , VT" No match in OSM, but a different address exists <5m away: "59 Monument Hill Drive, Springfield, " -->
    <tag k="addr:housenumber" v="61"/>
    <tag k="addr:street" v="Monument Hill Drive"/>
    <tag k="addr:state" v="VT"/>
    <tag k="ref:vcgi:esiteid" v="237349"/>
  </node>
  <node id="-3135" visible="true" lat="43.2717058" lon="-72.45456122">
    <!-- conflict: "24 Paddock Road, , VT" Fuzzy match to "24 Paddock Rd, Springfield, VT" -->
    <tag k="addr:housenumber" v="24"/>
    <tag k="addr:street" v="Paddock Road"/>
    <tag k="addr:state" v="VT"/>
    <tag k="ref:vcgi:esiteid" v="237674"/>
  </node>
  <node id="-3674" visible="true" lat="43.31652963" lon="-72.50086354">
    <!-- conflict: "15 Walnut Hill Court, , VT" Fuzzy match to "15 Walnut Hill Road, Springfield, VT" -->
    <tag k="addr:housenumber" v="15"/>
    <tag k="addr:street" v="Walnut Hill Court"/>
    <tag k="addr:state" v="VT"/>
    <tag k="ref:vcgi:esiteid" v="238219"/>
  </node>
  <node id="-3691" visible="true" lat="43.29857347" lon="-72.48178058">
    <!-- conflict: "34 Main Street, , VT" Fuzzy match to "34 North Main Street, Springfield, VT" -->
    <tag k="addr:housenumber" v="34"/>
    <tag k="addr:street" v="Main Street"/>
    <tag k="addr:state" v="VT"/>
    <tag k="ref:vcgi:esiteid" v="315404"/>
  </node>
  <node id="-3692" visible="true" lat="43.2985119" lon="-72.48178384">
    <!-- conflict: "36 Main Street, , VT" Fuzzy match to "36 North Main Street, Springfield, VT" -->
    <tag k="addr:housenumber" v="36"/>
    <tag k="addr:street" v="Main Street"/>
    <tag k="addr:state" v="VT"/>
    <tag k="ref:vcgi:esiteid" v="315405"/>
  </node>
  <node id="-3694" visible="true" lat="43.29812598" lon="-72.48223138">
    <!-- conflict: "47 Main Street, , VT" Fuzzy match to "47 North Main Street, Springfield, VT" -->
    <tag k="addr:housenumber" v="47"/>
    <tag k="addr:street" v="Main Street"/>
    <tag k="addr:state" v="VT"/>
    <tag k="ref:vcgi:esiteid" v="315407"/>
  </node>
  <node id="-3854" visible="true" lat="43.29366168" lon="-72.47833715">
    <!-- conflict: "43 Clinton Street, , VT" No match in OSM, but a different address exists <5m away: "45 Clinton Street, Springfield, VT" -->
    <tag k="addr:housenumber" v="43"/>
    <tag k="addr:street" v="Clinton Street"/>
    <tag k="addr:state" v="VT"/>
    <tag k="ref:vcgi:esiteid" v="344447"/>
  </node>
  <node id="-3858" visible="true" lat="43.30188405" lon="-72.48274987">
    <!-- conflict: "51 Elm Hill, , VT" Fuzzy match to "51 Elm Hill Street, Springfield, VT" -->
    <tag k="addr:housenumber" v="51"/>
    <tag k="addr:street" v="Elm Hill"/>
    <tag k="addr:state" v="VT"/>
    <tag k="ref:vcgi:esiteid" v="344451"/>
  </node>
  <node id="-3871" visible="true" lat="43.33296109" lon="-72.52703514">
    <!-- conflict: "527 Giddings Street, , VT" No match in OSM, but a different address exists <5m away: "521 Giddings Street, Springfield, " -->
    <tag k="addr:housenumber" v="527"/>
    <tag k="addr:street" v="Giddings Street"/>
    <tag k="addr:state" v="VT"/>
    <tag k="ref:vcgi:esiteid" v="344464"/>
  </node>
  <node id="-4042" visible="true" lat="43.30484876" lon="-72.48551933">
    <!-- conflict: "171 Hoover Street, , VT" No match in OSM, but a different address exists <5m away: "50 North Main Street, Springfield, VT" -->
    <tag k="addr:housenumber" v="171"/>
    <tag k="addr:street" v="Hoover Street"/>
    <tag k="addr:state" v="VT"/>
    <tag k="ref:vcgi:esiteid" v="756676"/>
  </node>
  <node id="-4058" visible="true" lat="43.30301456" lon="-72.49132526">
    <!-- conflict: "65 Springfield Plaza Road, , VT" Fuzzy match to "65 Springfield Plaza, Springfield, VT" -->
    <tag k="addr:housenumber" v="65"/>
    <tag k="addr:street" v="Springfield Plaza Road"/>
    <tag k="addr:state" v="VT"/>
    <tag k="ref:vcgi:esiteid" v="757662"/>
  </node>
</osm>
