<?xml version="1.0" encoding="UTF-8"?>
<osm version="0.6" generator="JOSM">
  <node id="-737" visible="true" lat="43.32343484" lon="-72.50317043">
    <!-- multiple: "31 Meadow Drive, Springfield, VT" Multiple exact matches in OSM. -->
    <tag k="addr:city" v="Springfield"/>
    <tag k="addr:housenumber" v="31"/>
    <tag k="addr:street" v="Meadow Drive"/>
    <tag k="addr:state" v="VT"/>
    <tag k="ref:vcgi:esiteid" v="235055"/>
  </node>
  <node id="-817" visible="true" lat="43.32104492" lon="-72.50605773">
    <!-- multiple: "361 River Street, Springfield, VT" Multiple exact matches in OSM. -->
    <tag k="addr:city" v="Springfield"/>
    <tag k="addr:housenumber" v="361"/>
    <tag k="addr:street" v="River Street"/>
    <tag k="addr:state" v="VT"/>
    <tag k="ref:vcgi:esiteid" v="235137"/>
  </node>
  <node id="-842" visible="true" lat="43.31984533" lon="-72.50533132">
    <!-- multiple: "28 Orchard Lane, Springfield, VT" Multiple exact matches in OSM. -->
    <tag k="addr:city" v="Springfield"/>
    <tag k="addr:housenumber" v="28"/>
    <tag k="addr:street" v="Orchard Lane"/>
    <tag k="addr:state" v="VT"/>
    <tag k="ref:vcgi:esiteid" v="235166"/>
  </node>
  <node id="-911" visible="true" lat="43.31750696" lon="-72.50259137">
    <!-- multiple: "10 Orchard Lane, Springfield, VT" Multiple exact matches in OSM. -->
    <tag k="addr:city" v="Springfield"/>
    <tag k="addr:housenumber" v="10"/>
    <tag k="addr:street" v="Orchard Lane"/>
    <tag k="addr:state" v="VT"/>
    <tag k="ref:vcgi:esiteid" v="235240"/>
  </node>
  <node id="-938" visible="true" lat="43.31630802" lon="-72.50657576">
    <!-- multiple: "119 Fairground Road, Springfield, VT" Multiple exact matches in OSM. -->
    <tag k="addr:city" v="Springfield"/>
    <tag k="addr:housenumber" v="119"/>
    <tag k="addr:street" v="Fairground Road"/>
    <tag k="addr:state" v="VT"/>
    <tag k="ref:vcgi:esiteid" v="235270"/>
  </node>
  <node id="-1090" visible="true" lat="43.30833726" lon="-72.49437211">
    <!-- multiple: "41 Westview Terrace, Springfield, VT" Multiple exact matches in OSM. -->
    <tag k="addr:city" v="Springfield"/>
    <tag k="addr:housenumber" v="41"/>
    <tag k="addr:street" v="Westview Terrace"/>
    <tag k="addr:state" v="VT"/>
    <tag k="ref:vcgi:esiteid" v="235429"/>
  </node>
  <node id="-1171" visible="true" lat="43.30576521" lon="-72.49859121">
    <!-- multiple: "33 Fairground Road, Springfield, VT" Multiple exact matches in OSM. -->
    <tag k="addr:city" v="Springfield"/>
    <tag k="addr:housenumber" v="33"/>
    <tag k="addr:street" v="Fairground Road"/>
    <tag k="addr:state" v="VT"/>
    <tag k="ref:vcgi:esiteid" v="235518"/>
  </node>
  <node id="-1173" visible="true" lat="43.30577468" lon="-72.4994812">
    <!-- multiple: "33 Fairground Road, Springfield, VT" Multiple exact matches in OSM. -->
    <tag k="addr:city" v="Springfield"/>
    <tag k="addr:housenumber" v="33"/>
    <tag k="addr:street" v="Fairground Road"/>
    <tag k="addr:state" v="VT"/>
    <tag k="ref:vcgi:esiteid" v="235520"/>
  </node>
  <node id="-1174" visible="true" lat="43.30575179" lon="-72.48033142">
    <!-- multiple: "62 Mark Street, Springfield, VT" Multiple exact matches in OSM. -->
    <tag k="addr:city" v="Springfield"/>
    <tag k="addr:housenumber" v="62"/>
    <tag k="addr:street" v="Mark Street"/>
    <tag k="addr:state" v="VT"/>
    <tag k="ref:vcgi:esiteid" v="235521"/>
  </node>
  <node id="-1199" visible="true" lat="43.30503562" lon="-72.47999216">
    <!-- multiple: "24 Litchfield Street, Springfield, VT" Multiple exact matches in OSM. -->
    <tag k="addr:city" v="Springfield"/>
    <tag k="addr:housenumber" v="24"/>
    <tag k="addr:street" v="Litchfield Street"/>
    <tag k="addr:state" v="VT"/>
    <tag k="ref:vcgi:esiteid" v="235549"/>
  </node>
  <node id="-1295" visible="true" lat="43.30357454" lon="-72.4810327">
    <!-- multiple: "8 Litchfield Street, Springfield, VT" Multiple exact matches in OSM. -->
    <tag k="addr:city" v="Springfield"/>
    <tag k="addr:housenumber" v="8"/>
    <tag k="addr:street" v="Litchfield Street"/>
    <tag k="addr:state" v="VT"/>
    <tag k="ref:vcgi:esiteid" v="235659"/>
  </node>
  <node id="-1455" visible="true" lat="43.30109974" lon="-72.50989035">
    <!-- multiple: "125 Chester Road, Springfield, VT" Multiple exact matches in OSM. -->
    <tag k="addr:city" v="Springfield"/>
    <tag k="addr:housenumber" v="125"/>
    <tag k="addr:street" v="Chester Road"/>
    <tag k="addr:state" v="VT"/>
    <tag k="ref:vcgi:esiteid" v="235836"/>
  </node>
  <node id="-1636" visible="true" lat="43.29968261" lon="-72.47973632">
    <!-- multiple: "41 Pleasant Street, Springfield, VT" Multiple exact matches in OSM. -->
    <tag k="addr:city" v="Springfield"/>
    <tag k="addr:housenumber" v="41"/>
    <tag k="addr:street" v="Pleasant Street"/>
    <tag k="addr:state" v="VT"/>
    <tag k="ref:vcgi:esiteid" v="236033"/>
  </node>
  <node id="-1660" visible="true" lat="43.29962754" lon="-72.48678956">
    <!-- multiple: "36 Prospect Street, Springfield, VT" Multiple exact matches in OSM. -->
    <tag k="addr:city" v="Springfield"/>
    <tag k="addr:housenumber" v="36"/>
    <tag k="addr:street" v="Prospect Street"/>
    <tag k="addr:state" v="VT"/>
    <tag k="ref:vcgi:esiteid" v="236061"/>
  </node>
  <node id="-1675" visible="true" lat="43.2995149" lon="-72.48130715">
    <!-- multiple: "6 Main Street, Springfield, VT" Multiple exact matches in OSM. -->
    <tag k="addr:city" v="Springfield"/>
    <tag k="addr:housenumber" v="6"/>
    <tag k="addr:street" v="Main Street"/>
    <tag k="addr:state" v="VT"/>
    <tag k="ref:vcgi:esiteid" v="236079"/>
  </node>
  <node id="-1726" visible="true" lat="43.29858038" lon="-72.4807315">
    <!-- multiple: "30 Pleasant Street, Springfield, VT" Multiple exact matches in OSM. -->
    <tag k="addr:city" v="Springfield"/>
    <tag k="addr:housenumber" v="30"/>
    <tag k="addr:street" v="Pleasant Street"/>
    <tag k="addr:state" v="VT"/>
    <tag k="ref:vcgi:esiteid" v="236144"/>
  </node>
  <node id="-1802" visible="true" lat="43.29861352" lon="-72.49031395">
    <!-- multiple: "157 Park Street, Springfield, VT" Multiple exact matches in OSM. -->
    <tag k="addr:city" v="Springfield"/>
    <tag k="addr:housenumber" v="157"/>
    <tag k="addr:street" v="Park Street"/>
    <tag k="addr:state" v="VT"/>
    <tag k="ref:vcgi:esiteid" v="236230"/>
  </node>
  <node id="-1813" visible="true" lat="43.29820359" lon="-72.48223067">
    <!-- multiple: "43 Main Street, Springfield, VT" Multiple exact matches in OSM. -->
    <tag k="addr:city" v="Springfield"/>
    <tag k="addr:housenumber" v="43"/>
    <tag k="addr:street" v="Main Street"/>
    <tag k="addr:state" v="VT"/>
    <tag k="ref:vcgi:esiteid" v="236243"/>
  </node>
  <node id="-1843" visible="true" lat="43.29798507" lon="-72.48023223">
    <!-- multiple: "48 Summer Street, Springfield, VT" Multiple exact matches in OSM. -->
    <tag k="addr:city" v="Springfield"/>
    <tag k="addr:housenumber" v="48"/>
    <tag k="addr:street" v="Summer Street"/>
    <tag k="addr:state" v="VT"/>
    <tag k="ref:vcgi:esiteid" v="236276"/>
  </node>
  <node id="-1853" visible="true" lat="43.29805034" lon="-72.48171279">
    <!-- multiple: "56 Main Street, Springfield, VT" Multiple exact matches in OSM. -->
    <tag k="addr:city" v="Springfield"/>
    <tag k="addr:housenumber" v="56"/>
    <tag k="addr:street" v="Main Street"/>
    <tag k="addr:state" v="VT"/>
    <tag k="ref:vcgi:esiteid" v="236286"/>
  </node>
  <node id="-1924" visible="true" lat="43.2972347" lon="-72.48148795">
    <!-- multiple: "90 Main Street, Springfield, VT" Multiple exact matches in OSM. -->
    <tag k="addr:city" v="Springfield"/>
    <tag k="addr:housenumber" v="90"/>
    <tag k="addr:street" v="Main Street"/>
    <tag k="addr:state" v="VT"/>
    <tag k="ref:vcgi:esiteid" v="236359"/>
  </node>
  <node id="-2104" visible="true" lat="43.29559154" lon="-72.47823398">
    <!-- multiple: "57 Wall Street, Springfield, VT" Multiple exact matches in OSM. -->
    <tag k="addr:city" v="Springfield"/>
    <tag k="addr:housenumber" v="57"/>
    <tag k="addr:street" v="Wall Street"/>
    <tag k="addr:state" v="VT"/>
    <tag k="ref:vcgi:esiteid" v="236557"/>
  </node>
  <node id="-3600" visible="true" lat="43.30863748" lon="-72.49475155">
    <!-- multiple: "37 Westview Terrace, Springfield, VT" Multiple exact matches in OSM. -->
    <tag k="addr:city" v="Springfield"/>
    <tag k="addr:housenumber" v="37"/>
    <tag k="addr:street" v="Westview Terrace"/>
    <tag k="addr:state" v="VT"/>
    <tag k="ref:vcgi:esiteid" v="238144"/>
  </node>
  <node id="-3806" visible="true" lat="43.30199427" lon="-72.48882405">
    <!-- multiple: "5 Morgan Street, Springfield, VT" Multiple exact matches in OSM. -->
    <tag k="addr:city" v="Springfield"/>
    <tag k="addr:housenumber" v="5"/>
    <tag k="addr:street" v="Morgan Street"/>
    <tag k="addr:state" v="VT"/>
    <tag k="ref:vcgi:esiteid" v="337861"/>
  </node>
  <node id="-3882" visible="true" lat="43.30614683" lon="-72.49163729">
    <!-- multiple: "25 Summit Avenue, Springfield, VT" Multiple exact matches in OSM. -->
    <tag k="addr:city" v="Springfield"/>
    <tag k="addr:housenumber" v="25"/>
    <tag k="addr:street" v="Summit Avenue"/>
    <tag k="addr:state" v="VT"/>
    <tag k="ref:vcgi:esiteid" v="344475"/>
  </node>
</osm>
