<?xml version="1.0" encoding="UTF-8"?>
<osm version="0.6" generator="JOSM">
  <node id="-108" visible="true" lat="42.81890426" lon="-73.01636297">
    <tag k="addr:city" v="Stamford"/>
    <tag k="addr:housenumber" v="260"/>
    <tag k="addr:street" v="Bergrucken Lane"/>
    <tag k="addr:state" v="VT"/>
    <tag k="ref:vcgi:esiteid" v="247352"/>
  </node>
  <node id="-124" visible="true" lat="42.80880737" lon="-73.02221679">
    <tag k="addr:city" v="Stamford"/>
    <tag k="addr:housenumber" v="389"/>
    <tag k="addr:street" v="Sportsmen Road"/>
    <tag k="addr:state" v="VT"/>
    <tag k="ref:vcgi:esiteid" v="247368"/>
  </node>
  <node id="-125" visible="true" lat="42.80654712" lon="-73.02516741">
    <tag k="addr:city" v="Stamford"/>
    <tag k="addr:housenumber" v="255"/>
    <tag k="addr:street" v="Sportsmen Road"/>
    <tag k="addr:state" v="VT"/>
    <tag k="ref:vcgi:esiteid" v="247369"/>
  </node>
  <node id="-132" visible="true" lat="42.80079463" lon="-73.02086899">
    <tag k="addr:city" v="Stamford"/>
    <tag k="addr:housenumber" v="103"/>
    <tag k="addr:street" v="Rondeau Road"/>
    <tag k="addr:state" v="VT"/>
    <tag k="ref:vcgi:esiteid" v="247378"/>
  </node>
  <node id="-135" visible="true" lat="42.80033311" lon="-73.03536601">
    <tag k="addr:city" v="Stamford"/>
    <tag k="addr:housenumber" v="446"/>
    <tag k="addr:street" v="Collins Road"/>
    <tag k="addr:state" v="VT"/>
    <tag k="ref:vcgi:esiteid" v="247382"/>
  </node>
  <node id="-140" visible="true" lat="42.79884338" lon="-73.03419495">
    <tag k="addr:city" v="Stamford"/>
    <tag k="addr:housenumber" v="442"/>
    <tag k="addr:street" v="Collins Road"/>
    <tag k="addr:state" v="VT"/>
    <tag k="ref:vcgi:esiteid" v="247387"/>
  </node>
  <node id="-142" visible="true" lat="42.79699104" lon="-73.03193676">
    <tag k="addr:city" v="Stamford"/>
    <tag k="addr:housenumber" v="274"/>
    <tag k="addr:street" v="Collins Road"/>
    <tag k="addr:state" v="VT"/>
    <tag k="ref:vcgi:esiteid" v="247389"/>
  </node>
  <node id="-144" visible="true" lat="42.79646742" lon="-73.03377923">
    <tag k="addr:city" v="Stamford"/>
    <tag k="addr:housenumber" v="105"/>
    <tag k="addr:street" v="Bellows Road"/>
    <tag k="addr:state" v="VT"/>
    <tag k="ref:vcgi:esiteid" v="247391"/>
  </node>
  <node id="-146" visible="true" lat="42.79610763" lon="-73.03029869">
    <tag k="addr:city" v="Stamford"/>
    <tag k="addr:housenumber" v="186"/>
    <tag k="addr:street" v="Collins Road"/>
    <tag k="addr:state" v="VT"/>
    <tag k="ref:vcgi:esiteid" v="247393"/>
  </node>
  <node id="-147" visible="true" lat="42.79563453" lon="-73.02929735">
    <tag k="addr:city" v="Stamford"/>
    <tag k="addr:housenumber" v="4581"/>
    <tag k="addr:street" v="Main Road"/>
    <tag k="addr:state" v="VT"/>
    <tag k="ref:vcgi:esiteid" v="247394"/>
  </node>
  <node id="-148" visible="true" lat="42.7953333" lon="-73.02353192">
    <tag k="addr:city" v="Stamford"/>
    <tag k="addr:housenumber" v="431"/>
    <tag k="addr:street" v="Andrea Drive"/>
    <tag k="addr:state" v="VT"/>
    <tag k="ref:vcgi:esiteid" v="247395"/>
  </node>
  <node id="-154" visible="true" lat="42.78982262" lon="-73.03206337">
    <tag k="addr:city" v="Stamford"/>
    <tag k="addr:housenumber" v="75"/>
    <tag k="addr:street" v="Arcadia Drive"/>
    <tag k="addr:state" v="VT"/>
    <tag k="ref:vcgi:esiteid" v="247401"/>
  </node>
  <node id="-164" visible="true" lat="42.78318024" lon="-73.04393768">
    <tag k="addr:city" v="Stamford"/>
    <tag k="addr:housenumber" v="3623"/>
    <tag k="addr:street" v="Main Road"/>
    <tag k="addr:state" v="VT"/>
    <tag k="ref:vcgi:esiteid" v="247411"/>
  </node>
  <node id="-166" visible="true" lat="42.78264679" lon="-73.04382166">
    <tag k="addr:city" v="Stamford"/>
    <tag k="addr:housenumber" v="805"/>
    <tag k="addr:street" v="Lincoln Road"/>
    <tag k="addr:state" v="VT"/>
    <tag k="ref:vcgi:esiteid" v="247413"/>
  </node>
  <node id="-167" visible="true" lat="42.78233348" lon="-73.04486253">
    <tag k="addr:city" v="Stamford"/>
    <tag k="addr:housenumber" v="38"/>
    <tag k="addr:street" v="Autumn Lane"/>
    <tag k="addr:state" v="VT"/>
    <tag k="ref:vcgi:esiteid" v="247414"/>
  </node>
  <node id="-168" visible="true" lat="42.78185014" lon="-73.10841653">
    <tag k="addr:city" v="Stamford"/>
    <tag k="addr:housenumber" v="755"/>
    <tag k="addr:street" v="Maltese Road"/>
    <tag k="addr:state" v="VT"/>
    <tag k="ref:vcgi:esiteid" v="247415"/>
  </node>
  <node id="-169" visible="true" lat="42.78208367" lon="-73.04535897">
    <tag k="addr:city" v="Stamford"/>
    <tag k="addr:housenumber" v="51"/>
    <tag k="addr:street" v="Autumn Lane"/>
    <tag k="addr:state" v="VT"/>
    <tag k="ref:vcgi:esiteid" v="247416"/>
  </node>
  <node id="-170" visible="true" lat="42.78198713" lon="-73.04378472">
    <tag k="addr:city" v="Stamford"/>
    <tag k="addr:housenumber" v="766"/>
    <tag k="addr:street" v="Lincoln Road"/>
    <tag k="addr:state" v="VT"/>
    <tag k="ref:vcgi:esiteid" v="247417"/>
  </node>
  <node id="-171" visible="true" lat="42.78180513" lon="-73.04452937">
    <tag k="addr:city" v="Stamford"/>
    <tag k="addr:housenumber" v="23"/>
    <tag k="addr:street" v="Autumn Lane"/>
    <tag k="addr:state" v="VT"/>
    <tag k="ref:vcgi:esiteid" v="247418"/>
  </node>
  <node id="-172" visible="true" lat="42.78145395" lon="-73.10524859">
    <tag k="addr:city" v="Stamford"/>
    <tag k="addr:housenumber" v="854"/>
    <tag k="addr:street" v="Maltese Road"/>
    <tag k="addr:state" v="VT"/>
    <tag k="ref:vcgi:esiteid" v="247419"/>
  </node>
  <node id="-175" visible="true" lat="42.78090018" lon="-73.0450033">
    <tag k="addr:city" v="Stamford"/>
    <tag k="addr:housenumber" v="674"/>
    <tag k="addr:street" v="Lincoln Road"/>
    <tag k="addr:state" v="VT"/>
    <tag k="ref:vcgi:esiteid" v="247422"/>
  </node>
  <node id="-176" visible="true" lat="42.78060816" lon="-73.04533808">
    <tag k="addr:city" v="Stamford"/>
    <tag k="addr:housenumber" v="644"/>
    <tag k="addr:street" v="Lincoln Road"/>
    <tag k="addr:state" v="VT"/>
    <tag k="ref:vcgi:esiteid" v="247423"/>
  </node>
  <node id="-177" visible="true" lat="42.78056393" lon="-73.04655949">
    <tag k="addr:city" v="Stamford"/>
    <tag k="addr:housenumber" v="589"/>
    <tag k="addr:street" v="Lincoln Road"/>
    <tag k="addr:state" v="VT"/>
    <tag k="ref:vcgi:esiteid" v="247424"/>
  </node>
  <node id="-181" visible="true" lat="42.77955467" lon="-73.04583212">
    <tag k="addr:city" v="Stamford"/>
    <tag k="addr:housenumber" v="556"/>
    <tag k="addr:street" v="Lincoln Road"/>
    <tag k="addr:state" v="VT"/>
    <tag k="ref:vcgi:esiteid" v="247428"/>
  </node>
  <node id="-182" visible="true" lat="42.77905093" lon="-73.10075328">
    <tag k="addr:city" v="Stamford"/>
    <tag k="addr:housenumber" v="463"/>
    <tag k="addr:street" v="Maltese Road"/>
    <tag k="addr:state" v="VT"/>
    <tag k="ref:vcgi:esiteid" v="247429"/>
  </node>
  <node id="-183" visible="true" lat="42.77916415" lon="-73.04752787">
    <tag k="addr:city" v="Stamford"/>
    <tag k="addr:housenumber" v="483"/>
    <tag k="addr:street" v="Lincoln Road"/>
    <tag k="addr:state" v="VT"/>
    <tag k="ref:vcgi:esiteid" v="247430"/>
  </node>
  <node id="-184" visible="true" lat="42.77905283" lon="-73.047007">
    <tag k="addr:city" v="Stamford"/>
    <tag k="addr:housenumber" v="486"/>
    <tag k="addr:street" v="Lincoln Road"/>
    <tag k="addr:state" v="VT"/>
    <tag k="ref:vcgi:esiteid" v="247431"/>
  </node>
  <node id="-185" visible="true" lat="42.77873361" lon="-73.04731243">
    <tag k="addr:city" v="Stamford"/>
    <tag k="addr:housenumber" v="456"/>
    <tag k="addr:street" v="Lincoln Road"/>
    <tag k="addr:state" v="VT"/>
    <tag k="ref:vcgi:esiteid" v="247432"/>
  </node>
  <node id="-187" visible="true" lat="42.77847177" lon="-73.04747487">
    <tag k="addr:city" v="Stamford"/>
    <tag k="addr:housenumber" v="434"/>
    <tag k="addr:street" v="Lincoln Road"/>
    <tag k="addr:state" v="VT"/>
    <tag k="ref:vcgi:esiteid" v="247434"/>
  </node>
  <node id="-188" visible="true" lat="42.77853979" lon="-73.03699449">
    <tag k="addr:city" v="Stamford"/>
    <tag k="addr:housenumber" v="317"/>
    <tag k="addr:street" v="Basin Road"/>
    <tag k="addr:state" v="VT"/>
    <tag k="ref:vcgi:esiteid" v="247435"/>
  </node>
  <node id="-189" visible="true" lat="42.77808066" lon="-73.04263615">
    <tag k="addr:city" v="Stamford"/>
    <tag k="addr:housenumber" v="24"/>
    <tag k="addr:street" v="Basin Road"/>
    <tag k="addr:state" v="VT"/>
    <tag k="ref:vcgi:esiteid" v="247436"/>
  </node>
  <node id="-190" visible="true" lat="42.77801615" lon="-73.04902263">
    <tag k="addr:city" v="Stamford"/>
    <tag k="addr:housenumber" v="385"/>
    <tag k="addr:street" v="Lincoln Road"/>
    <tag k="addr:state" v="VT"/>
    <tag k="ref:vcgi:esiteid" v="247437"/>
  </node>
  <node id="-192" visible="true" lat="42.7778778" lon="-73.04707388">
    <tag k="addr:city" v="Stamford"/>
    <tag k="addr:housenumber" v="386"/>
    <tag k="addr:street" v="Lincoln Road"/>
    <tag k="addr:state" v="VT"/>
    <tag k="ref:vcgi:esiteid" v="247439"/>
  </node>
  <node id="-193" visible="true" lat="42.77723557" lon="-73.09880942">
    <tag k="addr:city" v="Stamford"/>
    <tag k="addr:housenumber" v="240"/>
    <tag k="addr:street" v="Maltese Road"/>
    <tag k="addr:state" v="VT"/>
    <tag k="ref:vcgi:esiteid" v="247440"/>
  </node>
  <node id="-194" visible="true" lat="42.77710503" lon="-73.04837507">
    <tag k="addr:city" v="Stamford"/>
    <tag k="addr:housenumber" v="314"/>
    <tag k="addr:street" v="Lincoln Road"/>
    <tag k="addr:state" v="VT"/>
    <tag k="ref:vcgi:esiteid" v="247441"/>
  </node>
  <node id="-195" visible="true" lat="42.77656667" lon="-73.06046644">
    <tag k="addr:city" v="Stamford"/>
    <tag k="addr:housenumber" v="684"/>
    <tag k="addr:street" v="Sumner Road"/>
    <tag k="addr:state" v="VT"/>
    <tag k="ref:vcgi:esiteid" v="247442"/>
  </node>
  <node id="-197" visible="true" lat="42.77613458" lon="-73.08504232">
    <tag k="addr:city" v="Stamford"/>
    <tag k="addr:housenumber" v="32"/>
    <tag k="addr:street" v="County Road"/>
    <tag k="addr:state" v="VT"/>
    <tag k="ref:vcgi:esiteid" v="247444"/>
  </node>
  <node id="-199" visible="true" lat="42.77583453" lon="-73.04990623">
    <tag k="addr:city" v="Stamford"/>
    <tag k="addr:housenumber" v="211"/>
    <tag k="addr:street" v="Lincoln Road"/>
    <tag k="addr:state" v="VT"/>
    <tag k="ref:vcgi:esiteid" v="247446"/>
  </node>
  <node id="-202" visible="true" lat="42.77521191" lon="-73.06095901">
    <tag k="addr:city" v="Stamford"/>
    <tag k="addr:housenumber" v="680"/>
    <tag k="addr:street" v="Sumner Road"/>
    <tag k="addr:state" v="VT"/>
    <tag k="ref:vcgi:esiteid" v="247449"/>
  </node>
  <node id="-203" visible="true" lat="42.77478782" lon="-73.08378535">
    <tag k="addr:city" v="Stamford"/>
    <tag k="addr:housenumber" v="53"/>
    <tag k="addr:street" v="County Road"/>
    <tag k="addr:state" v="VT"/>
    <tag k="ref:vcgi:esiteid" v="247450"/>
  </node>
  <node id="-219" visible="true" lat="42.77310221" lon="-73.06155054">
    <tag k="addr:city" v="Stamford"/>
    <tag k="addr:housenumber" v="562"/>
    <tag k="addr:street" v="Sumner Road"/>
    <tag k="addr:state" v="VT"/>
    <tag k="ref:vcgi:esiteid" v="247467"/>
  </node>
  <node id="-221" visible="true" lat="42.77268522" lon="-73.05116069">
    <tag k="addr:city" v="Stamford"/>
    <tag k="addr:housenumber" v="2581"/>
    <tag k="addr:street" v="Main Road"/>
    <tag k="addr:state" v="VT"/>
    <tag k="ref:vcgi:esiteid" v="247471"/>
  </node>
  <node id="-226" visible="true" lat="42.77068098" lon="-73.05231657">
    <tag k="addr:city" v="Stamford"/>
    <tag k="addr:housenumber" v="2477"/>
    <tag k="addr:street" v="Main Road"/>
    <tag k="addr:state" v="VT"/>
    <tag k="ref:vcgi:esiteid" v="247479"/>
  </node>
  <node id="-227" visible="true" lat="42.7702234" lon="-73.0528101">
    <tag k="addr:city" v="Stamford"/>
    <tag k="addr:housenumber" v="2395"/>
    <tag k="addr:street" v="Main Road"/>
    <tag k="addr:state" v="VT"/>
    <tag k="ref:vcgi:esiteid" v="247480"/>
  </node>
  <node id="-228" visible="true" lat="42.76965258" lon="-73.06138211">
    <tag k="addr:city" v="Stamford"/>
    <tag k="addr:housenumber" v="276"/>
    <tag k="addr:street" v="Sumner Road"/>
    <tag k="addr:state" v="VT"/>
    <tag k="ref:vcgi:esiteid" v="247481"/>
  </node>
  <node id="-229" visible="true" lat="42.76934838" lon="-73.05501847">
    <tag k="addr:city" v="Stamford"/>
    <tag k="addr:housenumber" v="2291"/>
    <tag k="addr:street" v="Main Road"/>
    <tag k="addr:state" v="VT"/>
    <tag k="ref:vcgi:esiteid" v="247482"/>
  </node>
  <node id="-231" visible="true" lat="42.76901327" lon="-73.06146089">
    <tag k="addr:city" v="Stamford"/>
    <tag k="addr:housenumber" v="258"/>
    <tag k="addr:street" v="Sumner Road"/>
    <tag k="addr:state" v="VT"/>
    <tag k="ref:vcgi:esiteid" v="247484"/>
  </node>
  <node id="-258" visible="true" lat="42.76273305" lon="-73.10772479">
    <tag k="addr:city" v="Stamford"/>
    <tag k="addr:housenumber" v="622"/>
    <tag k="addr:street" v="Schenk Road"/>
    <tag k="addr:state" v="VT"/>
    <tag k="ref:vcgi:esiteid" v="247511"/>
  </node>
  <node id="-283" visible="true" lat="42.76037774" lon="-73.11293755">
    <tag k="addr:city" v="Stamford"/>
    <tag k="addr:housenumber" v="263"/>
    <tag k="addr:street" v="Schenk Road"/>
    <tag k="addr:state" v="VT"/>
    <tag k="ref:vcgi:esiteid" v="247536"/>
  </node>
  <node id="-288" visible="true" lat="42.75957747" lon="-73.11703472">
    <tag k="addr:city" v="Stamford"/>
    <tag k="addr:housenumber" v="39"/>
    <tag k="addr:street" v="Schenk Road"/>
    <tag k="addr:state" v="VT"/>
    <tag k="ref:vcgi:esiteid" v="247541"/>
  </node>
  <node id="-331" visible="true" lat="42.75500869" lon="-73.06840515">
    <tag k="addr:city" v="Stamford"/>
    <tag k="addr:housenumber" v="997"/>
    <tag k="addr:street" v="Main Road"/>
    <tag k="addr:state" v="VT"/>
    <tag k="ref:vcgi:esiteid" v="247584"/>
  </node>
  <node id="-369" visible="true" lat="42.75100625" lon="-73.07545322">
    <tag k="addr:city" v="Stamford"/>
    <tag k="addr:housenumber" v="323"/>
    <tag k="addr:street" v="Jepson Road"/>
    <tag k="addr:state" v="VT"/>
    <tag k="ref:vcgi:esiteid" v="247622"/>
  </node>
  <node id="-375" visible="true" lat="42.75020467" lon="-73.11782142">
    <tag k="addr:city" v="Stamford"/>
    <tag k="addr:housenumber" v="558"/>
    <tag k="addr:street" v="Klondike Road"/>
    <tag k="addr:state" v="VT"/>
    <tag k="ref:vcgi:esiteid" v="247628"/>
  </node>
  <node id="-382" visible="true" lat="42.74959905" lon="-73.12041014">
    <tag k="addr:city" v="Stamford"/>
    <tag k="addr:housenumber" v="449"/>
    <tag k="addr:street" v="Klondike Road"/>
    <tag k="addr:state" v="VT"/>
    <tag k="ref:vcgi:esiteid" v="247635"/>
  </node>
  <node id="-396" visible="true" lat="42.74990731" lon="-73.09767239">
    <tag k="addr:city" v="Stamford"/>
    <tag k="addr:housenumber" v="766"/>
    <tag k="addr:street" v="Boulger Road"/>
    <tag k="addr:state" v="VT"/>
    <tag k="ref:vcgi:esiteid" v="247650"/>
  </node>
  <node id="-397" visible="true" lat="42.74404321" lon="-73.11244532">
    <tag k="addr:city" v="Stamford"/>
    <tag k="addr:housenumber" v="491"/>
    <tag k="addr:street" v="Magee Road"/>
    <tag k="addr:state" v="VT"/>
    <tag k="ref:vcgi:esiteid" v="247651"/>
  </node>
  <node id="-402" visible="true" lat="42.74655061" lon="-73.1189927">
    <tag k="addr:city" v="Stamford"/>
    <tag k="addr:housenumber" v="254"/>
    <tag k="addr:street" v="Klondike Road"/>
    <tag k="addr:state" v="VT"/>
    <tag k="ref:vcgi:esiteid" v="247656"/>
  </node>
  <node id="-412" visible="true" lat="42.74466775" lon="-73.11791277">
    <tag k="addr:city" v="Stamford"/>
    <tag k="addr:housenumber" v="98"/>
    <tag k="addr:street" v="Klondike Road"/>
    <tag k="addr:state" v="VT"/>
    <tag k="ref:vcgi:esiteid" v="247666"/>
  </node>
  <node id="-431" visible="true" lat="42.78279062" lon="-73.10253161">
    <tag k="addr:city" v="Stamford"/>
    <tag k="addr:housenumber" v="394"/>
    <tag k="addr:street" v="Maltese Road"/>
    <tag k="addr:state" v="VT"/>
    <tag k="ref:vcgi:esiteid" v="247686"/>
  </node>
  <node id="-432" visible="true" lat="42.7759567" lon="-73.0511576">
    <tag k="addr:city" v="Stamford"/>
    <tag k="addr:housenumber" v="117"/>
    <tag k="addr:street" v="Lincoln Road"/>
    <tag k="addr:state" v="VT"/>
    <tag k="ref:vcgi:esiteid" v="247687"/>
  </node>
  <node id="-433" visible="true" lat="42.77831224" lon="-73.03942123">
    <tag k="addr:city" v="Stamford"/>
    <tag k="addr:housenumber" v="179"/>
    <tag k="addr:street" v="Basin Road"/>
    <tag k="addr:state" v="VT"/>
    <tag k="ref:vcgi:esiteid" v="247688"/>
  </node>
  <node id="-435" visible="true" lat="42.74598527" lon="-73.06246457">
    <tag k="addr:city" v="Stamford"/>
    <tag k="addr:housenumber" v="333"/>
    <tag k="addr:street" v="East Road"/>
    <tag k="addr:state" v="VT"/>
    <tag k="ref:vcgi:esiteid" v="247690"/>
  </node>
  <node id="-442" visible="true" lat="42.81986619" lon="-73.01851629">
    <tag k="addr:city" v="Stamford"/>
    <tag k="addr:housenumber" v="1001"/>
    <tag k="addr:street" v="Oberdorf Road"/>
    <tag k="addr:state" v="VT"/>
    <tag k="ref:vcgi:esiteid" v="247697"/>
  </node>
  <node id="-443" visible="true" lat="42.82132652" lon="-73.01611458">
    <tag k="addr:city" v="Stamford"/>
    <tag k="addr:housenumber" v="850"/>
    <tag k="addr:street" v="Oberdorf Road"/>
    <tag k="addr:state" v="VT"/>
    <tag k="ref:vcgi:esiteid" v="247698"/>
  </node>
  <node id="-444" visible="true" lat="42.82076914" lon="-73.01757328">
    <tag k="addr:city" v="Stamford"/>
    <tag k="addr:housenumber" v="930"/>
    <tag k="addr:street" v="Oberdorf Road"/>
    <tag k="addr:state" v="VT"/>
    <tag k="ref:vcgi:esiteid" v="247699"/>
  </node>
  <node id="-446" visible="true" lat="42.77872119" lon="-73.03860127">
    <tag k="addr:city" v="Stamford"/>
    <tag k="addr:housenumber" v="275"/>
    <tag k="addr:street" v="Basin Road"/>
    <tag k="addr:state" v="VT"/>
    <tag k="ref:vcgi:esiteid" v="247701"/>
  </node>
  <node id="-447" visible="true" lat="42.7784634" lon="-73.03798274">
    <tag k="addr:city" v="Stamford"/>
    <tag k="addr:housenumber" v="245"/>
    <tag k="addr:street" v="Basin Road"/>
    <tag k="addr:state" v="VT"/>
    <tag k="ref:vcgi:esiteid" v="247702"/>
  </node>
  <node id="-448" visible="true" lat="42.7783444" lon="-73.03827885">
    <tag k="addr:city" v="Stamford"/>
    <tag k="addr:housenumber" v="241"/>
    <tag k="addr:street" v="Basin Road"/>
    <tag k="addr:state" v="VT"/>
    <tag k="ref:vcgi:esiteid" v="247703"/>
  </node>
  <node id="-449" visible="true" lat="42.78161857" lon="-73.03515106">
    <tag k="addr:city" v="Stamford"/>
    <tag k="addr:housenumber" v="277"/>
    <tag k="addr:street" v="Basin Road"/>
    <tag k="addr:state" v="VT"/>
    <tag k="ref:vcgi:esiteid" v="247704"/>
  </node>
  <node id="-452" visible="true" lat="42.77741129" lon="-73.08789866">
    <tag k="addr:city" v="Stamford"/>
    <tag k="addr:housenumber" v="226"/>
    <tag k="addr:street" v="County Road"/>
    <tag k="addr:state" v="VT"/>
    <tag k="ref:vcgi:esiteid" v="247707"/>
  </node>
  <node id="-458" visible="true" lat="42.74631859" lon="-73.08807511">
    <tag k="addr:city" v="Stamford"/>
    <tag k="addr:housenumber" v="1178"/>
    <tag k="addr:street" v="Jepson Road"/>
    <tag k="addr:state" v="VT"/>
    <tag k="ref:vcgi:esiteid" v="247713"/>
  </node>
  <node id="-464" visible="true" lat="42.78833896" lon="-73.02890819">
    <tag k="addr:city" v="Stamford"/>
    <tag k="addr:housenumber" v="276"/>
    <tag k="addr:street" v="Arcadia Drive"/>
    <tag k="addr:state" v="VT"/>
    <tag k="ref:vcgi:esiteid" v="247719"/>
  </node>
  <node id="-466" visible="true" lat="42.77522182" lon="-73.06216596">
    <tag k="addr:city" v="Stamford"/>
    <tag k="addr:housenumber" v="691"/>
    <tag k="addr:street" v="Sumner Road"/>
    <tag k="addr:state" v="VT"/>
    <tag k="ref:vcgi:esiteid" v="247721"/>
  </node>
  <node id="-471" visible="true" lat="42.76844891" lon="-73.06323039">
    <tag k="addr:city" v="Stamford"/>
    <tag k="addr:housenumber" v="193"/>
    <tag k="addr:street" v="Sumner Road"/>
    <tag k="addr:state" v="VT"/>
    <tag k="ref:vcgi:esiteid" v="247727"/>
  </node>
  <node id="-474" visible="true" lat="42.77736485" lon="-73.04153939">
    <tag k="addr:city" v="Stamford"/>
    <tag k="addr:housenumber" v="84"/>
    <tag k="addr:street" v="Basin Road"/>
    <tag k="addr:state" v="VT"/>
    <tag k="ref:vcgi:esiteid" v="247730"/>
  </node>
  <node id="-475" visible="true" lat="42.75935415" lon="-73.06758706">
    <tag k="addr:city" v="Stamford"/>
    <tag k="addr:housenumber" v="1299"/>
    <tag k="addr:street" v="Main Road"/>
    <tag k="addr:state" v="VT"/>
    <tag k="ref:vcgi:esiteid" v="247731"/>
  </node>
  <node id="-484" visible="true" lat="42.79185266" lon="-73.02498533">
    <tag k="addr:city" v="Stamford"/>
    <tag k="addr:housenumber" v="525"/>
    <tag k="addr:street" v="Andrea Drive"/>
    <tag k="addr:state" v="VT"/>
    <tag k="ref:vcgi:esiteid" v="247741"/>
  </node>
  <node id="-489" visible="true" lat="42.76731037" lon="-73.06111708">
    <tag k="addr:city" v="Stamford"/>
    <tag k="addr:housenumber" v="160"/>
    <tag k="addr:street" v="Sumner Road"/>
    <tag k="addr:state" v="VT"/>
    <tag k="ref:vcgi:esiteid" v="247746"/>
  </node>
  <node id="-494" visible="true" lat="42.78142987" lon="-73.06306871">
    <tag k="addr:city" v="Stamford"/>
    <tag k="addr:housenumber" v="585"/>
    <tag k="addr:street" v="Sumner Road"/>
    <tag k="addr:state" v="VT"/>
    <tag k="ref:vcgi:esiteid" v="247751"/>
  </node>
  <node id="-495" visible="true" lat="42.77354352" lon="-73.06345494">
    <tag k="addr:city" v="Stamford"/>
    <tag k="addr:housenumber" v="539"/>
    <tag k="addr:street" v="Sumner Road"/>
    <tag k="addr:state" v="VT"/>
    <tag k="ref:vcgi:esiteid" v="247752"/>
  </node>
  <node id="-500" visible="true" lat="42.7903402" lon="-73.03033328">
    <tag k="addr:city" v="Stamford"/>
    <tag k="addr:housenumber" v="95"/>
    <tag k="addr:street" v="Arcadia Drive"/>
    <tag k="addr:state" v="VT"/>
    <tag k="ref:vcgi:esiteid" v="305671"/>
  </node>
  <node id="-505" visible="true" lat="42.76836665" lon="-73.06143958">
    <tag k="addr:city" v="Stamford"/>
    <tag k="addr:housenumber" v="220"/>
    <tag k="addr:street" v="Sumner Road"/>
    <tag k="addr:state" v="VT"/>
    <tag k="ref:vcgi:esiteid" v="309258"/>
  </node>
  <node id="-507" visible="true" lat="42.82002493" lon="-73.01684069">
    <tag k="addr:city" v="Stamford"/>
    <tag k="addr:housenumber" v="931"/>
    <tag k="addr:street" v="Oberdorf Road"/>
    <tag k="addr:state" v="VT"/>
    <tag k="ref:vcgi:esiteid" v="309261"/>
  </node>
  <node id="-516" visible="true" lat="42.77792433" lon="-73.08478822">
    <tag k="addr:city" v="Stamford"/>
    <tag k="addr:housenumber" v="1288"/>
    <tag k="addr:street" v="Old County Road"/>
    <tag k="addr:state" v="VT"/>
    <tag k="ref:vcgi:esiteid" v="323935"/>
  </node>
  <node id="-526" visible="true" lat="42.77467128" lon="-73.10901211">
    <tag k="addr:city" v="Stamford"/>
    <tag k="addr:housenumber" v="1390"/>
    <tag k="addr:street" v="County Road"/>
    <tag k="addr:state" v="VT"/>
    <tag k="ref:vcgi:esiteid" v="328768"/>
  </node>
  <node id="-529" visible="true" lat="42.76490581" lon="-73.12202645">
    <tag k="addr:city" v="Stamford"/>
    <tag k="addr:housenumber" v="1709"/>
    <tag k="addr:street" v="Klondike Road"/>
    <tag k="addr:state" v="VT"/>
    <tag k="ref:vcgi:esiteid" v="328771"/>
  </node>
  <node id="-530" visible="true" lat="42.75738892" lon="-73.11858558">
    <tag k="addr:city" v="Stamford"/>
    <tag k="addr:housenumber" v="1159"/>
    <tag k="addr:street" v="Klondike Road"/>
    <tag k="addr:state" v="VT"/>
    <tag k="ref:vcgi:esiteid" v="328772"/>
  </node>
  <node id="-531" visible="true" lat="42.76219891" lon="-73.11104147">
    <tag k="addr:city" v="Stamford"/>
    <tag k="addr:housenumber" v="459"/>
    <tag k="addr:street" v="Schenk Road"/>
    <tag k="addr:state" v="VT"/>
    <tag k="ref:vcgi:esiteid" v="328773"/>
  </node>
  <node id="-532" visible="true" lat="42.76270556" lon="-73.11002226">
    <tag k="addr:city" v="Stamford"/>
    <tag k="addr:housenumber" v="515"/>
    <tag k="addr:street" v="Schenk Road"/>
    <tag k="addr:state" v="VT"/>
    <tag k="ref:vcgi:esiteid" v="328774"/>
  </node>
  <node id="-537" visible="true" lat="42.74991" lon="-73.12686283">
    <tag k="addr:city" v="Stamford"/>
    <tag k="addr:housenumber" v="399"/>
    <tag k="addr:street" v="Risky Ranch Road"/>
    <tag k="addr:state" v="VT"/>
    <tag k="ref:vcgi:esiteid" v="328779"/>
  </node>
  <node id="-538" visible="true" lat="42.74853799" lon="-73.1233142">
    <tag k="addr:city" v="Stamford"/>
    <tag k="addr:housenumber" v="301"/>
    <tag k="addr:street" v="Risky Ranch Road"/>
    <tag k="addr:state" v="VT"/>
    <tag k="ref:vcgi:esiteid" v="328780"/>
  </node>
  <node id="-539" visible="true" lat="42.77782567" lon="-73.08992206">
    <tag k="addr:city" v="Stamford"/>
    <tag k="addr:housenumber" v="262"/>
    <tag k="addr:street" v="County Road"/>
    <tag k="addr:state" v="VT"/>
    <tag k="ref:vcgi:esiteid" v="328781"/>
  </node>
  <node id="-543" visible="true" lat="42.75452533" lon="-73.06807732">
    <tag k="addr:city" v="Stamford"/>
    <tag k="addr:housenumber" v="980"/>
    <tag k="addr:street" v="Main Road"/>
    <tag k="addr:state" v="VT"/>
    <tag k="ref:vcgi:esiteid" v="337629"/>
  </node>
  <node id="-546" visible="true" lat="42.77089651" lon="-73.11392504">
    <tag k="addr:city" v="Stamford"/>
    <tag k="addr:housenumber" v="1675"/>
    <tag k="addr:street" v="County Road"/>
    <tag k="addr:state" v="VT"/>
    <tag k="ref:vcgi:esiteid" v="338194"/>
  </node>
  <node id="-551" visible="true" lat="42.81964127" lon="-73.02327912">
    <tag k="addr:city" v="Stamford"/>
    <tag k="addr:housenumber" v="238"/>
    <tag k="addr:street" v="Bergabhang Drive"/>
    <tag k="addr:state" v="VT"/>
    <tag k="ref:vcgi:esiteid" v="339690"/>
  </node>
  <node id="-553" visible="true" lat="42.80261709" lon="-73.02457621">
    <tag k="addr:city" v="Stamford"/>
    <tag k="addr:housenumber" v="5125"/>
    <tag k="addr:street" v="Main Road"/>
    <tag k="addr:state" v="VT"/>
    <tag k="ref:vcgi:esiteid" v="340313"/>
  </node>
  <node id="-556" visible="true" lat="42.80533313" lon="-73.01801843">
    <tag k="addr:city" v="Stamford"/>
    <tag k="addr:housenumber" v="5462"/>
    <tag k="addr:street" v="Main Road"/>
    <tag k="addr:state" v="VT"/>
    <tag k="ref:vcgi:esiteid" v="341364"/>
  </node>
  <node id="-560" visible="true" lat="42.7463418" lon="-73.11969867">
    <tag k="addr:city" v="Stamford"/>
    <tag k="addr:housenumber" v="267"/>
    <tag k="addr:street" v="Klondike Road"/>
    <tag k="addr:state" v="VT"/>
    <tag k="ref:vcgi:esiteid" v="345861"/>
  </node>
  <node id="-561" visible="true" lat="42.81542452" lon="-73.02722853">
    <tag k="addr:city" v="Stamford"/>
    <tag k="addr:housenumber" v="879"/>
    <tag k="addr:street" v="Bergrucken Lane"/>
    <tag k="addr:state" v="VT"/>
    <tag k="ref:vcgi:esiteid" v="447791"/>
  </node>
  <node id="-562" visible="true" lat="42.75164412" lon="-73.02006096">
    <tag k="addr:city" v="Stamford"/>
    <tag k="addr:housenumber" v="780"/>
    <tag k="addr:street" v="Wiley Mountain Road"/>
    <tag k="addr:state" v="VT"/>
    <tag k="ref:vcgi:esiteid" v="449768"/>
  </node>
  <node id="-564" visible="true" lat="42.77319513" lon="-73.10466909">
    <tag k="addr:city" v="Stamford"/>
    <tag k="addr:housenumber" v="1129"/>
    <tag k="addr:street" v="County Road"/>
    <tag k="addr:state" v="VT"/>
    <tag k="ref:vcgi:esiteid" v="452083"/>
  </node>
  <node id="-574" visible="true" lat="42.77704199" lon="-73.04958914">
    <tag k="addr:city" v="Stamford"/>
    <tag k="addr:housenumber" v="295"/>
    <tag k="addr:street" v="Lincoln Road"/>
    <tag k="addr:state" v="VT"/>
    <tag k="ref:vcgi:esiteid" v="455423"/>
  </node>
  <node id="-575" visible="true" lat="42.81832372" lon="-73.02077781">
    <tag k="addr:city" v="Stamford"/>
    <tag k="addr:housenumber" v="1179"/>
    <tag k="addr:street" v="Bergrucken Lane"/>
    <tag k="addr:state" v="VT"/>
    <tag k="ref:vcgi:esiteid" v="455496"/>
  </node>
  <node id="-576" visible="true" lat="42.78096535" lon="-73.04594108">
    <tag k="addr:city" v="Stamford"/>
    <tag k="addr:housenumber" v="637"/>
    <tag k="addr:street" v="Lincoln Road"/>
    <tag k="addr:state" v="VT"/>
    <tag k="ref:vcgi:esiteid" v="455497"/>
  </node>
  <node id="-577" visible="true" lat="42.7725184" lon="-73.12093891">
    <tag k="addr:city" v="Stamford"/>
    <tag k="addr:housenumber" v="2028"/>
    <tag k="addr:street" v="County Road"/>
    <tag k="addr:state" v="VT"/>
    <tag k="ref:vcgi:esiteid" v="455498"/>
  </node>
  <node id="-700" visible="true" lat="42.81360679" lon="-73.01612069">
    <tag k="addr:city" v="Stamford"/>
    <tag k="addr:housenumber" v="886"/>
    <tag k="addr:street" v="Sportsmen Road"/>
    <tag k="addr:state" v="VT"/>
    <tag k="ref:vcgi:esiteid" v="615638"/>
  </node>
  <node id="-701" visible="true" lat="42.75074174" lon="-73.0603554">
    <tag k="addr:city" v="Stamford"/>
    <tag k="addr:housenumber" v="507"/>
    <tag k="addr:street" v="The Lane"/>
    <tag k="addr:state" v="VT"/>
    <tag k="ref:vcgi:esiteid" v="617242"/>
  </node>
  <node id="-702" visible="true" lat="42.78137407" lon="-73.04247424">
    <tag k="addr:city" v="Stamford"/>
    <tag k="addr:housenumber" v="3401"/>
    <tag k="addr:street" v="Main Road"/>
    <tag k="addr:state" v="VT"/>
    <tag k="ref:vcgi:esiteid" v="618084"/>
  </node>
  <node id="-703" visible="true" lat="42.74901307" lon="-73.10447319">
    <tag k="addr:city" v="Stamford"/>
    <tag k="addr:housenumber" v="250"/>
    <tag k="addr:street" v="Magee Road"/>
    <tag k="addr:state" v="VT"/>
    <tag k="ref:vcgi:esiteid" v="620325"/>
  </node>
  <node id="-709" visible="true" lat="42.74612861" lon="-73.09925041">
    <tag k="addr:city" v="Stamford"/>
    <tag k="addr:housenumber" v="651"/>
    <tag k="addr:street" v="Boulger Road"/>
    <tag k="addr:state" v="VT"/>
    <tag k="ref:vcgi:esiteid" v="655306"/>
  </node>
  <node id="-710" visible="true" lat="42.82020015" lon="-73.0200841">
    <tag k="addr:city" v="Stamford"/>
    <tag k="addr:housenumber" v="373"/>
    <tag k="addr:street" v="Bergabhang Drive"/>
    <tag k="addr:state" v="VT"/>
    <tag k="ref:vcgi:esiteid" v="753758"/>
  </node>
  <node id="-711" visible="true" lat="42.76060052" lon="-73.0550454">
    <tag k="addr:city" v="Stamford"/>
    <tag k="addr:housenumber" v="1373"/>
    <tag k="addr:street" v="East Road"/>
    <tag k="addr:state" v="VT"/>
    <tag k="ref:vcgi:esiteid" v="755669"/>
  </node>
  <node id="-715" visible="true" lat="42.74381638" lon="-73.0361523">
    <tag k="addr:city" v="Stamford"/>
    <tag k="addr:housenumber" v="1814"/>
    <tag k="addr:street" v="Wiley Mountain Road"/>
    <tag k="addr:state" v="VT"/>
    <tag k="ref:vcgi:esiteid" v="756361"/>
  </node>
  <node id="-716" visible="true" lat="42.76825233" lon="-73.05452356">
    <tag k="addr:city" v="Stamford"/>
    <tag k="addr:housenumber" v="2260"/>
    <tag k="addr:street" v="Main Road"/>
    <tag k="addr:state" v="VT"/>
    <tag k="ref:vcgi:esiteid" v="756626"/>
  </node>
  <node id="-719" visible="true" lat="42.80083116" lon="-73.02047643">
    <tag k="addr:city" v="Stamford"/>
    <tag k="addr:housenumber" v="105"/>
    <tag k="addr:street" v="Rondeau Road"/>
    <tag k="addr:state" v="VT"/>
    <tag k="ref:vcgi:esiteid" v="757589"/>
  </node>
  <node id="-720" visible="true" lat="42.75238772" lon="-73.05674795">
    <tag k="addr:city" v="Stamford"/>
    <tag k="addr:housenumber" v="780"/>
    <tag k="addr:street" v="East Road"/>
    <tag k="addr:state" v="VT"/>
    <tag k="ref:vcgi:esiteid" v="759223"/>
  </node>
  <node id="-721" visible="true" lat="42.82252181" lon="-73.02680986">
    <tag k="addr:city" v="Stamford"/>
    <tag k="addr:housenumber" v="694"/>
    <tag k="addr:street" v="Oberhugel Road"/>
    <tag k="addr:state" v="VT"/>
    <tag k="ref:vcgi:esiteid" v="759224"/>
  </node>
  <node id="-725" visible="true" lat="42.82020446" lon="-73.02105711">
    <tag k="addr:city" v="Stamford"/>
    <tag k="addr:housenumber" v="279"/>
    <tag k="addr:street" v="Bergabhang Drive"/>
    <tag k="addr:state" v="VT"/>
    <tag k="ref:vcgi:esiteid" v="761487"/>
  </node>
  <node id="-726" visible="true" lat="42.75011855" lon="-73.06921942">
    <tag k="addr:city" v="Stamford"/>
    <tag k="addr:housenumber" v="14"/>
    <tag k="addr:street" v="The Lane"/>
    <tag k="addr:state" v="VT"/>
    <tag k="ref:vcgi:esiteid" v="761488"/>
  </node>
  <node id="-727" visible="true" lat="42.74469001" lon="-73.09521748">
    <tag k="addr:city" v="Stamford"/>
    <tag k="addr:housenumber" v="369"/>
    <tag k="addr:street" v="Boulger Road"/>
    <tag k="addr:state" v="VT"/>
    <tag k="ref:vcgi:esiteid" v="762909"/>
  </node>
  <node id="-728" visible="true" lat="42.79288634" lon="-73.02989199">
    <tag k="addr:city" v="Stamford"/>
    <tag k="addr:housenumber" v="6"/>
    <tag k="addr:street" v="Andrea Drive"/>
    <tag k="addr:state" v="VT"/>
    <tag k="ref:vcgi:esiteid" v="762910"/>
  </node>
  <node id="-729" visible="true" lat="42.79357197" lon="-73.02841824">
    <tag k="addr:city" v="Stamford"/>
    <tag k="addr:housenumber" v="91"/>
    <tag k="addr:street" v="Andrea Drive"/>
    <tag k="addr:state" v="VT"/>
    <tag k="ref:vcgi:esiteid" v="762911"/>
  </node>
  <node id="-730" visible="true" lat="42.76268483" lon="-73.09218706">
    <tag k="addr:city" v="Stamford"/>
    <tag k="addr:housenumber" v="75"/>
    <tag k="addr:street" v="Blaze Line Road"/>
    <tag k="addr:state" v="VT"/>
    <tag k="ref:vcgi:esiteid" v="762912"/>
  </node>
  <node id="-731" visible="true" lat="42.77233695" lon="-73.0625423">
    <tag k="addr:city" v="Stamford"/>
    <tag k="addr:housenumber" v="475"/>
    <tag k="addr:street" v="Sumner Road"/>
    <tag k="addr:state" v="VT"/>
    <tag k="ref:vcgi:esiteid" v="764479"/>
  </node>
  <node id="-732" visible="true" lat="42.7712534" lon="-73.06169134">
    <tag k="addr:city" v="Stamford"/>
    <tag k="addr:housenumber" v="412"/>
    <tag k="addr:street" v="Sumner Road"/>
    <tag k="addr:state" v="VT"/>
    <tag k="ref:vcgi:esiteid" v="764480"/>
  </node>
  <node id="-733" visible="true" lat="42.77109373" lon="-73.06227192">
    <tag k="addr:city" v="Stamford"/>
    <tag k="addr:housenumber" v="405"/>
    <tag k="addr:street" v="Sumner Road"/>
    <tag k="addr:state" v="VT"/>
    <tag k="ref:vcgi:esiteid" v="764481"/>
  </node>
  <node id="-734" visible="true" lat="42.77081203" lon="-73.06159045">
    <tag k="addr:city" v="Stamford"/>
    <tag k="addr:housenumber" v="376"/>
    <tag k="addr:street" v="Sumner Road"/>
    <tag k="addr:state" v="VT"/>
    <tag k="ref:vcgi:esiteid" v="764482"/>
  </node>
  <node id="-735" visible="true" lat="42.77224675" lon="-73.06163427">
    <tag k="addr:city" v="Stamford"/>
    <tag k="addr:housenumber" v="478"/>
    <tag k="addr:street" v="Sumner Road"/>
    <tag k="addr:state" v="VT"/>
    <tag k="ref:vcgi:esiteid" v="764483"/>
  </node>
  <node id="-737" visible="true" lat="42.76795329" lon="-73.05758467">
    <tag k="addr:city" v="Stamford"/>
    <tag k="addr:housenumber" v="2139"/>
    <tag k="addr:street" v="Main Road"/>
    <tag k="addr:state" v="VT"/>
    <tag k="ref:vcgi:esiteid" v="765001"/>
  </node>
  <node id="-738" visible="true" lat="42.74390731" lon="-73.1092764">
    <tag k="addr:city" v="Stamford"/>
    <tag k="addr:housenumber" v="539"/>
    <tag k="addr:street" v="Magee Road"/>
    <tag k="addr:state" v="VT"/>
    <tag k="ref:vcgi:esiteid" v="765002"/>
  </node>
  <node id="-739" visible="true" lat="42.74586978" lon="-73.09059048">
    <tag k="addr:city" v="Stamford"/>
    <tag k="addr:housenumber" v="153"/>
    <tag k="addr:street" v="Boulger Road"/>
    <tag k="addr:state" v="VT"/>
    <tag k="ref:vcgi:esiteid" v="766360"/>
  </node>
  <node id="-740" visible="true" lat="42.80368568" lon="-73.01844265">
    <tag k="addr:city" v="Stamford"/>
    <tag k="addr:housenumber" v="5340"/>
    <tag k="addr:street" v="Main Road"/>
    <tag k="addr:state" v="VT"/>
    <tag k="ref:vcgi:esiteid" v="767793"/>
  </node>
  <node id="-742" visible="true" lat="42.77647921" lon="-73.13614352">
    <tag k="addr:city" v="Stamford"/>
    <tag k="addr:housenumber" v="2870"/>
    <tag k="addr:street" v="County Road"/>
    <tag k="addr:state" v="VT"/>
    <tag k="ref:vcgi:esiteid" v="770646"/>
  </node>
</osm>
