<?xml version="1.0" encoding="UTF-8"?>
<osm version="0.6" generator="JOSM" upload="false">
  <node id="-102" visible="true" lat="42.82352004" lon="-73.02424124">
    <tag k="addr:city" v="Stamford"/>
    <tag k="addr:housenumber" v="540"/>
    <tag k="addr:street" v="Oberhugel Road"/>
    <tag k="addr:state" v="VT"/>
    <tag k="ref:vcgi:esiteid" v="247346"/>
  </node>
  <node id="-103" visible="true" lat="42.82293113" lon="-73.01616575">
    <tag k="addr:city" v="Stamford"/>
    <tag k="addr:housenumber" v="106"/>
    <tag k="addr:street" v="Oberhugel Road"/>
    <tag k="addr:state" v="VT"/>
    <tag k="ref:vcgi:esiteid" v="247347"/>
  </node>
  <node id="-104" visible="true" lat="42.82280331" lon="-73.02224952">
    <tag k="addr:city" v="Stamford"/>
    <tag k="addr:housenumber" v="26"/>
    <tag k="addr:street" v="Bergabhang Drive"/>
    <tag k="addr:state" v="VT"/>
    <tag k="ref:vcgi:esiteid" v="247348"/>
  </node>
  <node id="-105" visible="true" lat="42.82223889" lon="-73.01782988">
    <tag k="addr:city" v="Stamford"/>
    <tag k="addr:housenumber" v="211"/>
    <tag k="addr:street" v="Oberhugel Road"/>
    <tag k="addr:state" v="VT"/>
    <tag k="ref:vcgi:esiteid" v="247349"/>
  </node>
  <node id="-106" visible="true" lat="42.82228019" lon="-73.02740032">
    <tag k="addr:city" v="Stamford"/>
    <tag k="addr:housenumber" v="750"/>
    <tag k="addr:street" v="Oberhugel Road"/>
    <tag k="addr:state" v="VT"/>
    <tag k="ref:vcgi:esiteid" v="247350"/>
  </node>
  <node id="-107" visible="true" lat="42.81960501" lon="-73.02514085">
    <tag k="addr:city" v="Stamford"/>
    <tag k="addr:housenumber" v="92"/>
    <tag k="addr:street" v="Lebensanschauung Circle"/>
    <tag k="addr:state" v="VT"/>
    <tag k="ref:vcgi:esiteid" v="247351"/>
  </node>
  <node id="-109" visible="true" lat="42.81809233" lon="-73.02655055">
    <tag k="addr:city" v="Stamford"/>
    <tag k="addr:housenumber" v="30"/>
    <tag k="addr:street" v="Erfreulichblick Circle"/>
    <tag k="addr:state" v="VT"/>
    <tag k="ref:vcgi:esiteid" v="247353"/>
  </node>
  <node id="-110" visible="true" lat="42.81786967" lon="-73.01969951">
    <tag k="addr:city" v="Stamford"/>
    <tag k="addr:housenumber" v="1246"/>
    <tag k="addr:street" v="Bergrucken Lane"/>
    <tag k="addr:state" v="VT"/>
    <tag k="ref:vcgi:esiteid" v="247354"/>
  </node>
  <node id="-111" visible="true" lat="42.81755448" lon="-73.02076337">
    <tag k="addr:city" v="Stamford"/>
    <tag k="addr:housenumber" v="1180"/>
    <tag k="addr:street" v="Bergrucken Lane"/>
    <tag k="addr:state" v="VT"/>
    <tag k="ref:vcgi:esiteid" v="247355"/>
  </node>
  <node id="-112" visible="true" lat="42.81744764" lon="-73.02125367">
    <tag k="addr:city" v="Stamford"/>
    <tag k="addr:housenumber" v="1160"/>
    <tag k="addr:street" v="Bergrucken Lane"/>
    <tag k="addr:state" v="VT"/>
    <tag k="ref:vcgi:esiteid" v="247356"/>
  </node>
  <node id="-113" visible="true" lat="42.8173341" lon="-73.02440035">
    <tag k="addr:city" v="Stamford"/>
    <tag k="addr:housenumber" v="987"/>
    <tag k="addr:street" v="Bergrucken Lane"/>
    <tag k="addr:state" v="VT"/>
    <tag k="ref:vcgi:esiteid" v="247357"/>
  </node>
  <node id="-114" visible="true" lat="42.81670155" lon="-73.01945401">
    <tag k="addr:city" v="Stamford"/>
    <tag k="addr:housenumber" v="514"/>
    <tag k="addr:street" v="Bergrucken Lane"/>
    <tag k="addr:state" v="VT"/>
    <tag k="ref:vcgi:esiteid" v="247358"/>
  </node>
  <node id="-115" visible="true" lat="42.81629597" lon="-73.01893472">
    <tag k="addr:city" v="Stamford"/>
    <tag k="addr:housenumber" v="511"/>
    <tag k="addr:street" v="Bergrucken Lane"/>
    <tag k="addr:state" v="VT"/>
    <tag k="ref:vcgi:esiteid" v="247359"/>
  </node>
  <node id="-116" visible="true" lat="42.81520463" lon="-73.02440867">
    <tag k="addr:city" v="Stamford"/>
    <tag k="addr:housenumber" v="795"/>
    <tag k="addr:street" v="Bergrucken Lane"/>
    <tag k="addr:state" v="VT"/>
    <tag k="ref:vcgi:esiteid" v="247360"/>
  </node>
  <node id="-117" visible="true" lat="42.81520643" lon="-73.02178335">
    <tag k="addr:city" v="Stamford"/>
    <tag k="addr:housenumber" v="667"/>
    <tag k="addr:street" v="Bergrucken Lane"/>
    <tag k="addr:state" v="VT"/>
    <tag k="ref:vcgi:esiteid" v="247361"/>
  </node>
  <node id="-118" visible="true" lat="42.81419876" lon="-73.01677689">
    <tag k="addr:city" v="Stamford"/>
    <tag k="addr:housenumber" v="897"/>
    <tag k="addr:street" v="Sportsmen Road"/>
    <tag k="addr:state" v="VT"/>
    <tag k="ref:vcgi:esiteid" v="247362"/>
  </node>
  <node id="-119" visible="true" lat="42.81236726" lon="-73.0185652">
    <tag k="addr:city" v="Stamford"/>
    <tag k="addr:housenumber" v="749"/>
    <tag k="addr:street" v="Sportsmen Road"/>
    <tag k="addr:state" v="VT"/>
    <tag k="ref:vcgi:esiteid" v="247363"/>
  </node>
  <node id="-120" visible="true" lat="42.81194367" lon="-73.01798755">
    <tag k="addr:city" v="Stamford"/>
    <tag k="addr:housenumber" v="726"/>
    <tag k="addr:street" v="Sportsmen Road"/>
    <tag k="addr:state" v="VT"/>
    <tag k="ref:vcgi:esiteid" v="247364"/>
  </node>
  <node id="-121" visible="true" lat="42.8109897" lon="-73.01770631">
    <tag k="addr:city" v="Stamford"/>
    <tag k="addr:housenumber" v="90"/>
    <tag k="addr:street" v="Suzanne Drive"/>
    <tag k="addr:state" v="VT"/>
    <tag k="ref:vcgi:esiteid" v="247365"/>
  </node>
  <node id="-122" visible="true" lat="42.81094439" lon="-73.01710407">
    <tag k="addr:city" v="Stamford"/>
    <tag k="addr:housenumber" v="115"/>
    <tag k="addr:street" v="Suzanne Drive"/>
    <tag k="addr:state" v="VT"/>
    <tag k="ref:vcgi:esiteid" v="247366"/>
  </node>
  <node id="-123" visible="true" lat="42.80918367" lon="-73.01942708">
    <tag k="addr:city" v="Stamford"/>
    <tag k="addr:housenumber" v="492"/>
    <tag k="addr:street" v="Sportsmen Road"/>
    <tag k="addr:state" v="VT"/>
    <tag k="ref:vcgi:esiteid" v="247367"/>
  </node>
  <node id="-126" visible="true" lat="42.80606624" lon="-73.02019981">
    <tag k="addr:city" v="Stamford"/>
    <tag k="addr:housenumber" v="180"/>
    <tag k="addr:street" v="Sportsmen Road"/>
    <tag k="addr:state" v="VT"/>
    <tag k="ref:vcgi:esiteid" v="247370"/>
  </node>
  <node id="-127" visible="true" lat="42.80393596" lon="-73.01847186">
    <tag k="addr:city" v="Stamford"/>
    <tag k="addr:housenumber" v="5338"/>
    <tag k="addr:street" v="Main Road"/>
    <tag k="addr:state" v="VT"/>
    <tag k="ref:vcgi:esiteid" v="247371"/>
  </node>
  <node id="-128" visible="true" lat="42.80343246" lon="-73.02155304">
    <tag k="addr:city" v="Stamford"/>
    <tag k="addr:housenumber" v="5265"/>
    <tag k="addr:street" v="Main Road"/>
    <tag k="addr:state" v="VT"/>
    <tag k="ref:vcgi:esiteid" v="247373"/>
  </node>
  <node id="-129" visible="true" lat="42.80259699" lon="-73.0229497">
    <tag k="addr:city" v="Stamford"/>
    <tag k="addr:housenumber" v="5131"/>
    <tag k="addr:street" v="Main Road"/>
    <tag k="addr:state" v="VT"/>
    <tag k="ref:vcgi:esiteid" v="247374"/>
  </node>
  <node id="-130" visible="true" lat="42.8023146" lon="-73.02215792">
    <tag k="addr:city" v="Stamford"/>
    <tag k="addr:housenumber" v="5155"/>
    <tag k="addr:street" v="Main Road"/>
    <tag k="addr:state" v="VT"/>
    <tag k="ref:vcgi:esiteid" v="247375"/>
  </node>
  <node id="-131" visible="true" lat="42.80199779" lon="-73.02121601">
    <tag k="addr:city" v="Stamford"/>
    <tag k="addr:housenumber" v="5172"/>
    <tag k="addr:street" v="Main Road"/>
    <tag k="addr:state" v="VT"/>
    <tag k="ref:vcgi:esiteid" v="247376"/>
  </node>
  <node id="-133" visible="true" lat="42.80063237" lon="-73.02273612">
    <tag k="addr:city" v="Stamford"/>
    <tag k="addr:housenumber" v="137"/>
    <tag k="addr:street" v="Bushika Road"/>
    <tag k="addr:state" v="VT"/>
    <tag k="ref:vcgi:esiteid" v="247380"/>
  </node>
  <node id="-134" visible="true" lat="42.80053021" lon="-73.02223699">
    <tag k="addr:city" v="Stamford"/>
    <tag k="addr:housenumber" v="138"/>
    <tag k="addr:street" v="Bushika Road"/>
    <tag k="addr:state" v="VT"/>
    <tag k="ref:vcgi:esiteid" v="247381"/>
  </node>
  <node id="-136" visible="true" lat="42.8003133" lon="-73.02522741">
    <tag k="addr:city" v="Stamford"/>
    <tag k="addr:housenumber" v="4957"/>
    <tag k="addr:street" v="Main Road"/>
    <tag k="addr:state" v="VT"/>
    <tag k="ref:vcgi:esiteid" v="247383"/>
  </node>
  <node id="-137" visible="true" lat="42.80010435" lon="-73.02311348">
    <tag k="addr:city" v="Stamford"/>
    <tag k="addr:housenumber" v="85"/>
    <tag k="addr:street" v="Bushika Road"/>
    <tag k="addr:state" v="VT"/>
    <tag k="ref:vcgi:esiteid" v="247384"/>
  </node>
  <node id="-138" visible="true" lat="42.79993634" lon="-73.02264">
    <tag k="addr:city" v="Stamford"/>
    <tag k="addr:housenumber" v="96"/>
    <tag k="addr:street" v="Bushika Road"/>
    <tag k="addr:state" v="VT"/>
    <tag k="ref:vcgi:esiteid" v="247385"/>
  </node>
  <node id="-139" visible="true" lat="42.79942352" lon="-73.02494721">
    <tag k="addr:city" v="Stamford"/>
    <tag k="addr:housenumber" v="4937"/>
    <tag k="addr:street" v="Main Road"/>
    <tag k="addr:state" v="VT"/>
    <tag k="ref:vcgi:esiteid" v="247386"/>
  </node>
  <node id="-141" visible="true" lat="42.79722915" lon="-73.02691979">
    <tag k="addr:city" v="Stamford"/>
    <tag k="addr:housenumber" v="4733"/>
    <tag k="addr:street" v="Main Road"/>
    <tag k="addr:state" v="VT"/>
    <tag k="ref:vcgi:esiteid" v="247388"/>
  </node>
  <node id="-143" visible="true" lat="42.79693143" lon="-73.02728959">
    <tag k="addr:city" v="Stamford"/>
    <tag k="addr:housenumber" v="4697"/>
    <tag k="addr:street" v="Main Road"/>
    <tag k="addr:state" v="VT"/>
    <tag k="ref:vcgi:esiteid" v="247390"/>
  </node>
  <node id="-145" visible="true" lat="42.7963303" lon="-73.02788788">
    <tag k="addr:city" v="Stamford"/>
    <tag k="addr:housenumber" v="4651"/>
    <tag k="addr:street" v="Main Road"/>
    <tag k="addr:state" v="VT"/>
    <tag k="ref:vcgi:esiteid" v="247392"/>
  </node>
  <node id="-149" visible="true" lat="42.79474432" lon="-73.0290945">
    <tag k="addr:city" v="Stamford"/>
    <tag k="addr:housenumber" v="4519"/>
    <tag k="addr:street" v="Main Road"/>
    <tag k="addr:state" v="VT"/>
    <tag k="ref:vcgi:esiteid" v="247396"/>
  </node>
  <node id="-150" visible="true" lat="42.79154332" lon="-73.03212401">
    <tag k="addr:city" v="Stamford"/>
    <tag k="addr:housenumber" v="4251"/>
    <tag k="addr:street" v="Main Road"/>
    <tag k="addr:state" v="VT"/>
    <tag k="ref:vcgi:esiteid" v="247397"/>
  </node>
  <node id="-151" visible="true" lat="42.79121358" lon="-73.03248625">
    <tag k="addr:city" v="Stamford"/>
    <tag k="addr:housenumber" v="4221"/>
    <tag k="addr:street" v="Main Road"/>
    <tag k="addr:state" v="VT"/>
    <tag k="ref:vcgi:esiteid" v="247398"/>
  </node>
  <node id="-152" visible="true" lat="42.79013783" lon="-73.03308177">
    <tag k="addr:city" v="Stamford"/>
    <tag k="addr:housenumber" v="4142"/>
    <tag k="addr:street" v="Main Road"/>
    <tag k="addr:state" v="VT"/>
    <tag k="ref:vcgi:esiteid" v="247399"/>
  </node>
  <node id="-153" visible="true" lat="42.78983095" lon="-73.03334544">
    <tag k="addr:city" v="Stamford"/>
    <tag k="addr:housenumber" v="4124"/>
    <tag k="addr:street" v="Main Road"/>
    <tag k="addr:state" v="VT"/>
    <tag k="ref:vcgi:esiteid" v="247400"/>
  </node>
  <node id="-155" visible="true" lat="42.78972856" lon="-73.03395347">
    <tag k="addr:city" v="Stamford"/>
    <tag k="addr:housenumber" v="4096"/>
    <tag k="addr:street" v="Main Road"/>
    <tag k="addr:state" v="VT"/>
    <tag k="ref:vcgi:esiteid" v="247402"/>
  </node>
  <node id="-156" visible="true" lat="42.78883001" lon="-73.03741575">
    <tag k="addr:city" v="Stamford"/>
    <tag k="addr:housenumber" v="301"/>
    <tag k="addr:street" v="Harley Road"/>
    <tag k="addr:state" v="VT"/>
    <tag k="ref:vcgi:esiteid" v="247403"/>
  </node>
  <node id="-157" visible="true" lat="42.78841435" lon="-73.03585076">
    <tag k="addr:city" v="Stamford"/>
    <tag k="addr:housenumber" v="3958"/>
    <tag k="addr:street" v="Main Road"/>
    <tag k="addr:state" v="VT"/>
    <tag k="ref:vcgi:esiteid" v="247404"/>
  </node>
  <node id="-158" visible="true" lat="42.78704056" lon="-73.04023212">
    <tag k="addr:city" v="Stamford"/>
    <tag k="addr:housenumber" v="3711"/>
    <tag k="addr:street" v="Main Road"/>
    <tag k="addr:state" v="VT"/>
    <tag k="ref:vcgi:esiteid" v="247405"/>
  </node>
  <node id="-159" visible="true" lat="42.78542323" lon="-73.03890732">
    <tag k="addr:city" v="Stamford"/>
    <tag k="addr:housenumber" v="24"/>
    <tag k="addr:street" v="Brookside Drive"/>
    <tag k="addr:state" v="VT"/>
    <tag k="ref:vcgi:esiteid" v="247406"/>
  </node>
  <node id="-160" visible="true" lat="42.78490932" lon="-73.03999991">
    <tag k="addr:city" v="Stamford"/>
    <tag k="addr:housenumber" v="3643"/>
    <tag k="addr:street" v="Main Road"/>
    <tag k="addr:state" v="VT"/>
    <tag k="ref:vcgi:esiteid" v="247407"/>
  </node>
  <node id="-161" visible="true" lat="42.78471788" lon="-73.03851473">
    <tag k="addr:city" v="Stamford"/>
    <tag k="addr:housenumber" v="101"/>
    <tag k="addr:street" v="Brookside Drive"/>
    <tag k="addr:state" v="VT"/>
    <tag k="ref:vcgi:esiteid" v="247408"/>
  </node>
  <node id="-162" visible="true" lat="42.78418539" lon="-73.03927644">
    <tag k="addr:city" v="Stamford"/>
    <tag k="addr:housenumber" v="146"/>
    <tag k="addr:street" v="Brookside Drive"/>
    <tag k="addr:state" v="VT"/>
    <tag k="ref:vcgi:esiteid" v="247409"/>
  </node>
  <node id="-163" visible="true" lat="42.78348511" lon="-73.03962076">
    <tag k="addr:city" v="Stamford"/>
    <tag k="addr:housenumber" v="198"/>
    <tag k="addr:street" v="Brookside Drive"/>
    <tag k="addr:state" v="VT"/>
    <tag k="ref:vcgi:esiteid" v="247410"/>
  </node>
  <node id="-165" visible="true" lat="42.78279495" lon="-73.03990173">
    <tag k="addr:city" v="Stamford"/>
    <tag k="addr:housenumber" v="3508"/>
    <tag k="addr:street" v="Main Road"/>
    <tag k="addr:state" v="VT"/>
    <tag k="ref:vcgi:esiteid" v="247412"/>
  </node>
  <node id="-173" visible="true" lat="42.78145509" lon="-73.0409906">
    <tag k="addr:city" v="Stamford"/>
    <tag k="addr:housenumber" v="322"/>
    <tag k="addr:street" v="Robillard Road"/>
    <tag k="addr:state" v="VT"/>
    <tag k="ref:vcgi:esiteid" v="247420"/>
  </node>
  <node id="-174" visible="true" lat="42.78113476" lon="-73.04109757">
    <tag k="addr:city" v="Stamford"/>
    <tag k="addr:housenumber" v="310"/>
    <tag k="addr:street" v="Robillard Road"/>
    <tag k="addr:state" v="VT"/>
    <tag k="ref:vcgi:esiteid" v="247421"/>
  </node>
  <node id="-178" visible="true" lat="42.78048856" lon="-73.04130657">
    <tag k="addr:city" v="Stamford"/>
    <tag k="addr:housenumber" v="266"/>
    <tag k="addr:street" v="Robillard Road"/>
    <tag k="addr:state" v="VT"/>
    <tag k="ref:vcgi:esiteid" v="247425"/>
  </node>
  <node id="-179" visible="true" lat="42.78005593" lon="-73.04152457">
    <tag k="addr:city" v="Stamford"/>
    <tag k="addr:housenumber" v="236"/>
    <tag k="addr:street" v="Robillard Road"/>
    <tag k="addr:state" v="VT"/>
    <tag k="ref:vcgi:esiteid" v="247426"/>
  </node>
  <node id="-180" visible="true" lat="42.77986793" lon="-73.04057556">
    <tag k="addr:city" v="Stamford"/>
    <tag k="addr:housenumber" v="220"/>
    <tag k="addr:street" v="Robillard Road"/>
    <tag k="addr:state" v="VT"/>
    <tag k="ref:vcgi:esiteid" v="247427"/>
  </node>
  <node id="-186" visible="true" lat="42.77867895" lon="-73.04282639">
    <tag k="addr:city" v="Stamford"/>
    <tag k="addr:housenumber" v="123"/>
    <tag k="addr:street" v="Robillard Road"/>
    <tag k="addr:state" v="VT"/>
    <tag k="ref:vcgi:esiteid" v="247433"/>
  </node>
  <node id="-191" visible="true" lat="42.77811394" lon="-73.04410774">
    <tag k="addr:city" v="Stamford"/>
    <tag k="addr:housenumber" v="35"/>
    <tag k="addr:street" v="Robillard Road"/>
    <tag k="addr:state" v="VT"/>
    <tag k="ref:vcgi:esiteid" v="247438"/>
  </node>
  <node id="-196" visible="true" lat="42.77641122" lon="-73.0477482">
    <tag k="addr:city" v="Stamford"/>
    <tag k="addr:housenumber" v="200"/>
    <tag k="addr:street" v="Lincoln Road"/>
    <tag k="addr:state" v="VT"/>
    <tag k="ref:vcgi:esiteid" v="247443"/>
  </node>
  <node id="-198" visible="true" lat="42.77597848" lon="-73.04557217">
    <tag k="addr:city" v="Stamford"/>
    <tag k="addr:housenumber" v="2908"/>
    <tag k="addr:street" v="Main Road"/>
    <tag k="addr:state" v="VT"/>
    <tag k="ref:vcgi:esiteid" v="247445"/>
  </node>
  <node id="-200" visible="true" lat="42.7752463" lon="-73.08618414">
    <tag k="addr:city" v="Stamford"/>
    <tag k="addr:housenumber" v="180"/>
    <tag k="addr:street" v="County Road"/>
    <tag k="addr:state" v="VT"/>
    <tag k="ref:vcgi:esiteid" v="247447"/>
  </node>
  <node id="-201" visible="true" lat="42.77506286" lon="-73.08496166">
    <tag k="addr:city" v="Stamford"/>
    <tag k="addr:housenumber" v="112"/>
    <tag k="addr:street" v="County Road"/>
    <tag k="addr:state" v="VT"/>
    <tag k="ref:vcgi:esiteid" v="247448"/>
  </node>
  <node id="-204" visible="true" lat="42.77478598" lon="-73.04690589">
    <tag k="addr:city" v="Stamford"/>
    <tag k="addr:housenumber" v="2870"/>
    <tag k="addr:street" v="Main Road"/>
    <tag k="addr:state" v="VT"/>
    <tag k="ref:vcgi:esiteid" v="247451"/>
  </node>
  <node id="-205" visible="true" lat="42.77475324" lon="-73.08438248">
    <tag k="addr:city" v="Stamford"/>
    <tag k="addr:housenumber" v="87"/>
    <tag k="addr:street" v="County Road"/>
    <tag k="addr:state" v="VT"/>
    <tag k="ref:vcgi:esiteid" v="247452"/>
  </node>
  <node id="-206" visible="true" lat="42.77486772" lon="-73.04960429">
    <tag k="addr:city" v="Stamford"/>
    <tag k="addr:housenumber" v="142"/>
    <tag k="addr:street" v="Lincoln Road"/>
    <tag k="addr:state" v="VT"/>
    <tag k="ref:vcgi:esiteid" v="247453"/>
  </node>
  <node id="-207" visible="true" lat="42.77459988" lon="-73.08991726">
    <tag k="addr:city" v="Stamford"/>
    <tag k="addr:housenumber" v="409"/>
    <tag k="addr:street" v="County Road"/>
    <tag k="addr:state" v="VT"/>
    <tag k="ref:vcgi:esiteid" v="247454"/>
  </node>
  <node id="-208" visible="true" lat="42.77450606" lon="-73.09895945">
    <tag k="addr:city" v="Stamford"/>
    <tag k="addr:housenumber" v="11"/>
    <tag k="addr:street" v="Maltese Road"/>
    <tag k="addr:state" v="VT"/>
    <tag k="ref:vcgi:esiteid" v="247455"/>
  </node>
  <node id="-209" visible="true" lat="42.77454022" lon="-73.09209464">
    <tag k="addr:city" v="Stamford"/>
    <tag k="addr:housenumber" v="496"/>
    <tag k="addr:street" v="County Road"/>
    <tag k="addr:state" v="VT"/>
    <tag k="ref:vcgi:esiteid" v="247456"/>
  </node>
  <node id="-210" visible="true" lat="42.77431314" lon="-73.09298354">
    <tag k="addr:city" v="Stamford"/>
    <tag k="addr:housenumber" v="540"/>
    <tag k="addr:street" v="County Road"/>
    <tag k="addr:state" v="VT"/>
    <tag k="ref:vcgi:esiteid" v="247457"/>
  </node>
  <node id="-211" visible="true" lat="42.77465448" lon="-73.04804991">
    <tag k="addr:city" v="Stamford"/>
    <tag k="addr:housenumber" v="2811"/>
    <tag k="addr:street" v="Main Road"/>
    <tag k="addr:state" v="VT"/>
    <tag k="ref:vcgi:esiteid" v="247458"/>
  </node>
  <node id="-212" visible="true" lat="42.77414627" lon="-73.09659013">
    <tag k="addr:city" v="Stamford"/>
    <tag k="addr:housenumber" v="732"/>
    <tag k="addr:street" v="County Road"/>
    <tag k="addr:state" v="VT"/>
    <tag k="ref:vcgi:esiteid" v="247459"/>
  </node>
  <node id="-213" visible="true" lat="42.77444604" lon="-73.10329508">
    <tag k="addr:city" v="Stamford"/>
    <tag k="addr:housenumber" v="1040"/>
    <tag k="addr:street" v="County Road"/>
    <tag k="addr:state" v="VT"/>
    <tag k="ref:vcgi:esiteid" v="247460"/>
  </node>
  <node id="-214" visible="true" lat="42.77398311" lon="-73.09733642">
    <tag k="addr:city" v="Stamford"/>
    <tag k="addr:housenumber" v="764"/>
    <tag k="addr:street" v="County Road"/>
    <tag k="addr:state" v="VT"/>
    <tag k="ref:vcgi:esiteid" v="247461"/>
  </node>
  <node id="-215" visible="true" lat="42.77393699" lon="-73.05042722">
    <tag k="addr:city" v="Stamford"/>
    <tag k="addr:housenumber" v="79"/>
    <tag k="addr:street" v="Lincoln Road"/>
    <tag k="addr:state" v="VT"/>
    <tag k="ref:vcgi:esiteid" v="247463"/>
  </node>
  <node id="-216" visible="true" lat="42.77323219" lon="-73.10072001">
    <tag k="addr:city" v="Stamford"/>
    <tag k="addr:housenumber" v="971"/>
    <tag k="addr:street" v="County Road"/>
    <tag k="addr:state" v="VT"/>
    <tag k="ref:vcgi:esiteid" v="247464"/>
  </node>
  <node id="-217" visible="true" lat="42.77271389" lon="-73.107097">
    <tag k="addr:city" v="Stamford"/>
    <tag k="addr:housenumber" v="1321"/>
    <tag k="addr:street" v="County Road"/>
    <tag k="addr:state" v="VT"/>
    <tag k="ref:vcgi:esiteid" v="247465"/>
  </node>
  <node id="-218" visible="true" lat="42.77290843" lon="-73.11011012">
    <tag k="addr:city" v="Stamford"/>
    <tag k="addr:housenumber" v="1414"/>
    <tag k="addr:street" v="County Road"/>
    <tag k="addr:state" v="VT"/>
    <tag k="ref:vcgi:esiteid" v="247466"/>
  </node>
  <node id="-220" visible="true" lat="42.77235878" lon="-73.10859446">
    <tag k="addr:city" v="Stamford"/>
    <tag k="addr:housenumber" v="1359"/>
    <tag k="addr:street" v="County Road"/>
    <tag k="addr:state" v="VT"/>
    <tag k="ref:vcgi:esiteid" v="247469"/>
  </node>
  <node id="-222" visible="true" lat="42.77157001" lon="-73.11033782">
    <tag k="addr:city" v="Stamford"/>
    <tag k="addr:housenumber" v="1507"/>
    <tag k="addr:street" v="County Road"/>
    <tag k="addr:state" v="VT"/>
    <tag k="ref:vcgi:esiteid" v="247472"/>
  </node>
  <node id="-224" visible="true" lat="42.77122298" lon="-73.08399773">
    <tag k="addr:city" v="Stamford"/>
    <tag k="addr:housenumber" v="306"/>
    <tag k="addr:street" v="Sparrow Drive"/>
    <tag k="addr:state" v="VT"/>
    <tag k="ref:vcgi:esiteid" v="247474"/>
  </node>
  <node id="-230" visible="true" lat="42.76899717" lon="-73.08311187">
    <tag k="addr:city" v="Stamford"/>
    <tag k="addr:housenumber" v="460"/>
    <tag k="addr:street" v="Sparrow Drive"/>
    <tag k="addr:state" v="VT"/>
    <tag k="ref:vcgi:esiteid" v="247483"/>
  </node>
  <node id="-232" visible="true" lat="42.76752072" lon="-73.06426322">
    <tag k="addr:city" v="Stamford"/>
    <tag k="addr:housenumber" v="75"/>
    <tag k="addr:street" v="Sumner Road"/>
    <tag k="addr:state" v="VT"/>
    <tag k="ref:vcgi:esiteid" v="247485"/>
  </node>
  <node id="-233" visible="true" lat="42.76701174" lon="-73.06216138">
    <tag k="addr:city" v="Stamford"/>
    <tag k="addr:housenumber" v="128"/>
    <tag k="addr:street" v="Sumner Road"/>
    <tag k="addr:state" v="VT"/>
    <tag k="ref:vcgi:esiteid" v="247486"/>
  </node>
  <node id="-234" visible="true" lat="42.76694425" lon="-73.05629866">
    <tag k="addr:city" v="Stamford"/>
    <tag k="addr:housenumber" v="366"/>
    <tag k="addr:street" v="Clough Road"/>
    <tag k="addr:state" v="VT"/>
    <tag k="ref:vcgi:esiteid" v="247487"/>
  </node>
  <node id="-235" visible="true" lat="42.76673123" lon="-73.07626027">
    <tag k="addr:city" v="Stamford"/>
    <tag k="addr:housenumber" v="291"/>
    <tag k="addr:street" v="Tatro Road"/>
    <tag k="addr:state" v="VT"/>
    <tag k="ref:vcgi:esiteid" v="247488"/>
  </node>
  <node id="-236" visible="true" lat="42.76663825" lon="-73.05733376">
    <tag k="addr:city" v="Stamford"/>
    <tag k="addr:housenumber" v="293"/>
    <tag k="addr:street" v="Clough Road"/>
    <tag k="addr:state" v="VT"/>
    <tag k="ref:vcgi:esiteid" v="247489"/>
  </node>
  <node id="-237" visible="true" lat="42.76616253" lon="-73.06237608">
    <tag k="addr:city" v="Stamford"/>
    <tag k="addr:housenumber" v="1801"/>
    <tag k="addr:street" v="Main Road"/>
    <tag k="addr:state" v="VT"/>
    <tag k="ref:vcgi:esiteid" v="247490"/>
  </node>
  <node id="-238" visible="true" lat="42.76573612" lon="-73.07931244">
    <tag k="addr:city" v="Stamford"/>
    <tag k="addr:housenumber" v="133"/>
    <tag k="addr:street" v="Tatro Road"/>
    <tag k="addr:state" v="VT"/>
    <tag k="ref:vcgi:esiteid" v="247491"/>
  </node>
  <node id="-239" visible="true" lat="42.76593029" lon="-73.05773538">
    <tag k="addr:city" v="Stamford"/>
    <tag k="addr:housenumber" v="263"/>
    <tag k="addr:street" v="Clough Road"/>
    <tag k="addr:state" v="VT"/>
    <tag k="ref:vcgi:esiteid" v="247492"/>
  </node>
  <node id="-240" visible="true" lat="42.76570675" lon="-73.07547549">
    <tag k="addr:city" v="Stamford"/>
    <tag k="addr:housenumber" v="325"/>
    <tag k="addr:street" v="Tatro Road"/>
    <tag k="addr:state" v="VT"/>
    <tag k="ref:vcgi:esiteid" v="247493"/>
  </node>
  <node id="-241" visible="true" lat="42.76565303" lon="-73.07455731">
    <tag k="addr:city" v="Stamford"/>
    <tag k="addr:housenumber" v="357"/>
    <tag k="addr:street" v="Tatro Road"/>
    <tag k="addr:state" v="VT"/>
    <tag k="ref:vcgi:esiteid" v="247494"/>
  </node>
  <node id="-242" visible="true" lat="42.76567971" lon="-73.07748049">
    <tag k="addr:city" v="Stamford"/>
    <tag k="addr:housenumber" v="225"/>
    <tag k="addr:street" v="Tatro Road"/>
    <tag k="addr:state" v="VT"/>
    <tag k="ref:vcgi:esiteid" v="247495"/>
  </node>
  <node id="-243" visible="true" lat="42.76543264" lon="-73.06437921">
    <tag k="addr:city" v="Stamford"/>
    <tag k="addr:housenumber" v="1725"/>
    <tag k="addr:street" v="Main Road"/>
    <tag k="addr:state" v="VT"/>
    <tag k="ref:vcgi:esiteid" v="247496"/>
  </node>
  <node id="-244" visible="true" lat="42.76526364" lon="-73.07561024">
    <tag k="addr:city" v="Stamford"/>
    <tag k="addr:housenumber" v="318"/>
    <tag k="addr:street" v="Tatro Road"/>
    <tag k="addr:state" v="VT"/>
    <tag k="ref:vcgi:esiteid" v="247497"/>
  </node>
  <node id="-245" visible="true" lat="42.76532617" lon="-73.06019296">
    <tag k="addr:city" v="Stamford"/>
    <tag k="addr:housenumber" v="93"/>
    <tag k="addr:street" v="Clough Road"/>
    <tag k="addr:state" v="VT"/>
    <tag k="ref:vcgi:esiteid" v="247498"/>
  </node>
  <node id="-246" visible="true" lat="42.76536089" lon="-73.05959993">
    <tag k="addr:city" v="Stamford"/>
    <tag k="addr:housenumber" v="161"/>
    <tag k="addr:street" v="Clough Road"/>
    <tag k="addr:state" v="VT"/>
    <tag k="ref:vcgi:esiteid" v="247499"/>
  </node>
  <node id="-247" visible="true" lat="42.76539887" lon="-73.06099033">
    <tag k="addr:city" v="Stamford"/>
    <tag k="addr:housenumber" v="73"/>
    <tag k="addr:street" v="Clough Road"/>
    <tag k="addr:state" v="VT"/>
    <tag k="ref:vcgi:esiteid" v="247500"/>
  </node>
  <node id="-248" visible="true" lat="42.76535546" lon="-73.05735795">
    <tag k="addr:city" v="Stamford"/>
    <tag k="addr:housenumber" v="1774"/>
    <tag k="addr:street" v="East Road"/>
    <tag k="addr:state" v="VT"/>
    <tag k="ref:vcgi:esiteid" v="247501"/>
  </node>
  <node id="-249" visible="true" lat="42.76510646" lon="-73.05841554">
    <tag k="addr:city" v="Stamford"/>
    <tag k="addr:housenumber" v="200"/>
    <tag k="addr:street" v="Clough Road"/>
    <tag k="addr:state" v="VT"/>
    <tag k="ref:vcgi:esiteid" v="247502"/>
  </node>
  <node id="-250" visible="true" lat="42.76492309" lon="-73.06046295">
    <tag k="addr:city" v="Stamford"/>
    <tag k="addr:housenumber" v="102"/>
    <tag k="addr:street" v="Clough Road"/>
    <tag k="addr:state" v="VT"/>
    <tag k="ref:vcgi:esiteid" v="247503"/>
  </node>
  <node id="-251" visible="true" lat="42.76462517" lon="-73.05571642">
    <tag k="addr:city" v="Stamford"/>
    <tag k="addr:housenumber" v="1682"/>
    <tag k="addr:street" v="East Road"/>
    <tag k="addr:state" v="VT"/>
    <tag k="ref:vcgi:esiteid" v="247504"/>
  </node>
  <node id="-252" visible="true" lat="42.7640575" lon="-73.06668823">
    <tag k="addr:city" v="Stamford"/>
    <tag k="addr:housenumber" v="1607"/>
    <tag k="addr:street" v="Main Road"/>
    <tag k="addr:state" v="VT"/>
    <tag k="ref:vcgi:esiteid" v="247505"/>
  </node>
  <node id="-253" visible="true" lat="42.76406691" lon="-73.09398352">
    <tag k="addr:city" v="Stamford"/>
    <tag k="addr:housenumber" v="1339"/>
    <tag k="addr:street" v="Lesure Road"/>
    <tag k="addr:state" v="VT"/>
    <tag k="ref:vcgi:esiteid" v="247506"/>
  </node>
  <node id="-254" visible="true" lat="42.76406525" lon="-73.09110512">
    <tag k="addr:city" v="Stamford"/>
    <tag k="addr:housenumber" v="1310"/>
    <tag k="addr:street" v="Lesure Road"/>
    <tag k="addr:state" v="VT"/>
    <tag k="ref:vcgi:esiteid" v="247507"/>
  </node>
  <node id="-255" visible="true" lat="42.76409637" lon="-73.06618891">
    <tag k="addr:city" v="Stamford"/>
    <tag k="addr:housenumber" v="1609"/>
    <tag k="addr:street" v="Main Road"/>
    <tag k="addr:state" v="VT"/>
    <tag k="ref:vcgi:esiteid" v="247508"/>
  </node>
  <node id="-256" visible="true" lat="42.76409037" lon="-73.06560995">
    <tag k="addr:city" v="Stamford"/>
    <tag k="addr:housenumber" v="1635"/>
    <tag k="addr:street" v="Main Road"/>
    <tag k="addr:state" v="VT"/>
    <tag k="ref:vcgi:esiteid" v="247509"/>
  </node>
  <node id="-257" visible="true" lat="42.76405248" lon="-73.0511462">
    <tag k="addr:city" v="Stamford"/>
    <tag k="addr:housenumber" v="113"/>
    <tag k="addr:street" v="Forgette Road"/>
    <tag k="addr:state" v="VT"/>
    <tag k="ref:vcgi:esiteid" v="247510"/>
  </node>
  <node id="-259" visible="true" lat="42.76371087" lon="-73.06515901">
    <tag k="addr:city" v="Stamford"/>
    <tag k="addr:housenumber" v="1630"/>
    <tag k="addr:street" v="Main Road"/>
    <tag k="addr:state" v="VT"/>
    <tag k="ref:vcgi:esiteid" v="247512"/>
  </node>
  <node id="-260" visible="true" lat="42.76352613" lon="-73.09177499">
    <tag k="addr:city" v="Stamford"/>
    <tag k="addr:housenumber" v="1289"/>
    <tag k="addr:street" v="Lesure Road"/>
    <tag k="addr:state" v="VT"/>
    <tag k="ref:vcgi:esiteid" v="247513"/>
  </node>
  <node id="-261" visible="true" lat="42.76379302" lon="-73.05497014">
    <tag k="addr:city" v="Stamford"/>
    <tag k="addr:housenumber" v="1590"/>
    <tag k="addr:street" v="East Road"/>
    <tag k="addr:state" v="VT"/>
    <tag k="ref:vcgi:esiteid" v="247514"/>
  </node>
  <node id="-262" visible="true" lat="42.7635779" lon="-73.06781496">
    <tag k="addr:city" v="Stamford"/>
    <tag k="addr:housenumber" v="1557"/>
    <tag k="addr:street" v="Main Road"/>
    <tag k="addr:state" v="VT"/>
    <tag k="ref:vcgi:esiteid" v="247515"/>
  </node>
  <node id="-263" visible="true" lat="42.76335494" lon="-73.06645314">
    <tag k="addr:city" v="Stamford"/>
    <tag k="addr:housenumber" v="1575"/>
    <tag k="addr:street" v="Main Road"/>
    <tag k="addr:state" v="VT"/>
    <tag k="ref:vcgi:esiteid" v="247516"/>
  </node>
  <node id="-264" visible="true" lat="42.76339591" lon="-73.04743393">
    <tag k="addr:city" v="Stamford"/>
    <tag k="addr:housenumber" v="347"/>
    <tag k="addr:street" v="Forgette Road"/>
    <tag k="addr:state" v="VT"/>
    <tag k="ref:vcgi:esiteid" v="247517"/>
  </node>
  <node id="-265" visible="true" lat="42.76332547" lon="-73.05032205">
    <tag k="addr:city" v="Stamford"/>
    <tag k="addr:housenumber" v="207"/>
    <tag k="addr:street" v="Forgette Road"/>
    <tag k="addr:state" v="VT"/>
    <tag k="ref:vcgi:esiteid" v="247518"/>
  </node>
  <node id="-266" visible="true" lat="42.76316806" lon="-73.06565247">
    <tag k="addr:city" v="Stamford"/>
    <tag k="addr:housenumber" v="1580"/>
    <tag k="addr:street" v="Main Road"/>
    <tag k="addr:state" v="VT"/>
    <tag k="ref:vcgi:esiteid" v="247519"/>
  </node>
  <node id="-267" visible="true" lat="42.76326825" lon="-73.06446084">
    <tag k="addr:city" v="Stamford"/>
    <tag k="addr:housenumber" v="85"/>
    <tag k="addr:street" v="Clayton Avenue"/>
    <tag k="addr:state" v="VT"/>
    <tag k="ref:vcgi:esiteid" v="247520"/>
  </node>
  <node id="-268" visible="true" lat="42.76319834" lon="-73.06338778">
    <tag k="addr:city" v="Stamford"/>
    <tag k="addr:housenumber" v="131"/>
    <tag k="addr:street" v="Clayton Avenue"/>
    <tag k="addr:state" v="VT"/>
    <tag k="ref:vcgi:esiteid" v="247521"/>
  </node>
  <node id="-269" visible="true" lat="42.76301556" lon="-73.05613359">
    <tag k="addr:city" v="Stamford"/>
    <tag k="addr:housenumber" v="1625"/>
    <tag k="addr:street" v="East Road"/>
    <tag k="addr:state" v="VT"/>
    <tag k="ref:vcgi:esiteid" v="247522"/>
  </node>
  <node id="-270" visible="true" lat="42.76283823" lon="-73.06518518">
    <tag k="addr:city" v="Stamford"/>
    <tag k="addr:housenumber" v="48"/>
    <tag k="addr:street" v="Clayton Avenue"/>
    <tag k="addr:state" v="VT"/>
    <tag k="ref:vcgi:esiteid" v="247523"/>
  </node>
  <node id="-271" visible="true" lat="42.76286878" lon="-73.06580144">
    <tag k="addr:city" v="Stamford"/>
    <tag k="addr:housenumber" v="1554"/>
    <tag k="addr:street" v="Main Road"/>
    <tag k="addr:state" v="VT"/>
    <tag k="ref:vcgi:esiteid" v="247524"/>
  </node>
  <node id="-272" visible="true" lat="42.76279964" lon="-73.06404468">
    <tag k="addr:city" v="Stamford"/>
    <tag k="addr:housenumber" v="102"/>
    <tag k="addr:street" v="Clayton Avenue"/>
    <tag k="addr:state" v="VT"/>
    <tag k="ref:vcgi:esiteid" v="247525"/>
  </node>
  <node id="-273" visible="true" lat="42.7627463" lon="-73.05046324">
    <tag k="addr:city" v="Stamford"/>
    <tag k="addr:housenumber" v="196"/>
    <tag k="addr:street" v="Forgette Road"/>
    <tag k="addr:state" v="VT"/>
    <tag k="ref:vcgi:esiteid" v="247526"/>
  </node>
  <node id="-274" visible="true" lat="42.76268218" lon="-73.06680062">
    <tag k="addr:city" v="Stamford"/>
    <tag k="addr:housenumber" v="1531"/>
    <tag k="addr:street" v="Main Road"/>
    <tag k="addr:state" v="VT"/>
    <tag k="ref:vcgi:esiteid" v="247527"/>
  </node>
  <node id="-275" visible="true" lat="42.76243483" lon="-73.05405774">
    <tag k="addr:city" v="Stamford"/>
    <tag k="addr:housenumber" v="1484"/>
    <tag k="addr:street" v="East Road"/>
    <tag k="addr:state" v="VT"/>
    <tag k="ref:vcgi:esiteid" v="247528"/>
  </node>
  <node id="-276" visible="true" lat="42.76212749" lon="-73.06612049">
    <tag k="addr:city" v="Stamford"/>
    <tag k="addr:housenumber" v="1498"/>
    <tag k="addr:street" v="Main Road"/>
    <tag k="addr:state" v="VT"/>
    <tag k="ref:vcgi:esiteid" v="247529"/>
  </node>
  <node id="-277" visible="true" lat="42.76190072" lon="-73.06703475">
    <tag k="addr:city" v="Stamford"/>
    <tag k="addr:housenumber" v="1477"/>
    <tag k="addr:street" v="Main Road"/>
    <tag k="addr:state" v="VT"/>
    <tag k="ref:vcgi:esiteid" v="247530"/>
  </node>
  <node id="-278" visible="true" lat="42.76178993" lon="-73.0891624">
    <tag k="addr:city" v="Stamford"/>
    <tag k="addr:housenumber" v="1154"/>
    <tag k="addr:street" v="Lesure Road"/>
    <tag k="addr:state" v="VT"/>
    <tag k="ref:vcgi:esiteid" v="247531"/>
  </node>
  <node id="-279" visible="true" lat="42.76186463" lon="-73.09223268">
    <tag k="addr:city" v="Stamford"/>
    <tag k="addr:housenumber" v="1153"/>
    <tag k="addr:street" v="Lesure Road"/>
    <tag k="addr:state" v="VT"/>
    <tag k="ref:vcgi:esiteid" v="247532"/>
  </node>
  <node id="-280" visible="true" lat="42.76145965" lon="-73.06717034">
    <tag k="addr:city" v="Stamford"/>
    <tag k="addr:housenumber" v="1443"/>
    <tag k="addr:street" v="Main Road"/>
    <tag k="addr:state" v="VT"/>
    <tag k="ref:vcgi:esiteid" v="247533"/>
  </node>
  <node id="-281" visible="true" lat="42.76088431" lon="-73.06741149">
    <tag k="addr:city" v="Stamford"/>
    <tag k="addr:housenumber" v="1405"/>
    <tag k="addr:street" v="Main Road"/>
    <tag k="addr:state" v="VT"/>
    <tag k="ref:vcgi:esiteid" v="247534"/>
  </node>
  <node id="-282" visible="true" lat="42.76065747" lon="-73.06638227">
    <tag k="addr:city" v="Stamford"/>
    <tag k="addr:housenumber" v="1400"/>
    <tag k="addr:street" v="Main Road"/>
    <tag k="addr:state" v="VT"/>
    <tag k="ref:vcgi:esiteid" v="247535"/>
  </node>
  <node id="-284" visible="true" lat="42.76034851" lon="-73.07532747">
    <tag k="addr:city" v="Stamford"/>
    <tag k="addr:housenumber" v="477"/>
    <tag k="addr:street" v="Nichols Road"/>
    <tag k="addr:state" v="VT"/>
    <tag k="ref:vcgi:esiteid" v="247537"/>
  </node>
  <node id="-285" visible="true" lat="42.76037503" lon="-73.06808219">
    <tag k="addr:city" v="Stamford"/>
    <tag k="addr:housenumber" v="1339"/>
    <tag k="addr:street" v="Main Road"/>
    <tag k="addr:state" v="VT"/>
    <tag k="ref:vcgi:esiteid" v="247538"/>
  </node>
  <node id="-286" visible="true" lat="42.76013964" lon="-73.07725994">
    <tag k="addr:city" v="Stamford"/>
    <tag k="addr:housenumber" v="610"/>
    <tag k="addr:street" v="Mill Road"/>
    <tag k="addr:state" v="VT"/>
    <tag k="ref:vcgi:esiteid" v="247539"/>
  </node>
  <node id="-287" visible="true" lat="42.75994909" lon="-73.07361541">
    <tag k="addr:city" v="Stamford"/>
    <tag k="addr:housenumber" v="418"/>
    <tag k="addr:street" v="Nichols Road"/>
    <tag k="addr:state" v="VT"/>
    <tag k="ref:vcgi:esiteid" v="247540"/>
  </node>
  <node id="-289" visible="true" lat="42.75962282" lon="-73.06774012">
    <tag k="addr:city" v="Stamford"/>
    <tag k="addr:housenumber" v="1315"/>
    <tag k="addr:street" v="Main Road"/>
    <tag k="addr:state" v="VT"/>
    <tag k="ref:vcgi:esiteid" v="247542"/>
  </node>
  <node id="-290" visible="true" lat="42.75918336" lon="-73.09001458">
    <tag k="addr:city" v="Stamford"/>
    <tag k="addr:housenumber" v="971"/>
    <tag k="addr:street" v="Lesure Road"/>
    <tag k="addr:state" v="VT"/>
    <tag k="ref:vcgi:esiteid" v="247543"/>
  </node>
  <node id="-291" visible="true" lat="42.75917391" lon="-73.07683688">
    <tag k="addr:city" v="Stamford"/>
    <tag k="addr:housenumber" v="536"/>
    <tag k="addr:street" v="Mill Road"/>
    <tag k="addr:state" v="VT"/>
    <tag k="ref:vcgi:esiteid" v="247544"/>
  </node>
  <node id="-292" visible="true" lat="42.75926596" lon="-73.06796276">
    <tag k="addr:city" v="Stamford"/>
    <tag k="addr:housenumber" v="1287"/>
    <tag k="addr:street" v="Main Road"/>
    <tag k="addr:state" v="VT"/>
    <tag k="ref:vcgi:esiteid" v="247545"/>
  </node>
  <node id="-293" visible="true" lat="42.75906274" lon="-73.05471394">
    <tag k="addr:city" v="Stamford"/>
    <tag k="addr:housenumber" v="1248"/>
    <tag k="addr:street" v="East Road"/>
    <tag k="addr:state" v="VT"/>
    <tag k="ref:vcgi:esiteid" v="247546"/>
  </node>
  <node id="-294" visible="true" lat="42.75880299" lon="-73.07654529">
    <tag k="addr:city" v="Stamford"/>
    <tag k="addr:housenumber" v="510"/>
    <tag k="addr:street" v="Mill Road"/>
    <tag k="addr:state" v="VT"/>
    <tag k="ref:vcgi:esiteid" v="247547"/>
  </node>
  <node id="-295" visible="true" lat="42.75869751" lon="-73.07287598">
    <tag k="addr:city" v="Stamford"/>
    <tag k="addr:housenumber" v="346"/>
    <tag k="addr:street" v="Nichols Road"/>
    <tag k="addr:state" v="VT"/>
    <tag k="ref:vcgi:esiteid" v="247548"/>
  </node>
  <node id="-296" visible="true" lat="42.75842" lon="-73.06788851">
    <tag k="addr:city" v="Stamford"/>
    <tag k="addr:housenumber" v="1235"/>
    <tag k="addr:street" v="Main Road"/>
    <tag k="addr:state" v="VT"/>
    <tag k="ref:vcgi:esiteid" v="247549"/>
  </node>
  <node id="-297" visible="true" lat="42.75823853" lon="-73.05490835">
    <tag k="addr:city" v="Stamford"/>
    <tag k="addr:housenumber" v="1190"/>
    <tag k="addr:street" v="East Road"/>
    <tag k="addr:state" v="VT"/>
    <tag k="ref:vcgi:esiteid" v="247550"/>
  </node>
  <node id="-298" visible="true" lat="42.75788809" lon="-73.0672268">
    <tag k="addr:city" v="Stamford"/>
    <tag k="addr:housenumber" v="1202"/>
    <tag k="addr:street" v="Main Road"/>
    <tag k="addr:state" v="VT"/>
    <tag k="ref:vcgi:esiteid" v="247551"/>
  </node>
  <node id="-299" visible="true" lat="42.75775309" lon="-73.08775111">
    <tag k="addr:city" v="Stamford"/>
    <tag k="addr:housenumber" v="848"/>
    <tag k="addr:street" v="Lesure Road"/>
    <tag k="addr:state" v="VT"/>
    <tag k="ref:vcgi:esiteid" v="247552"/>
  </node>
  <node id="-300" visible="true" lat="42.75747142" lon="-73.07657547">
    <tag k="addr:city" v="Stamford"/>
    <tag k="addr:housenumber" v="86"/>
    <tag k="addr:street" v="Henry Hill"/>
    <tag k="addr:state" v="VT"/>
    <tag k="ref:vcgi:esiteid" v="247553"/>
  </node>
  <node id="-301" visible="true" lat="42.75735407" lon="-73.05569717">
    <tag k="addr:city" v="Stamford"/>
    <tag k="addr:housenumber" v="1091"/>
    <tag k="addr:street" v="East Road"/>
    <tag k="addr:state" v="VT"/>
    <tag k="ref:vcgi:esiteid" v="247554"/>
  </node>
  <node id="-302" visible="true" lat="42.75685585" lon="-73.07392219">
    <tag k="addr:city" v="Stamford"/>
    <tag k="addr:housenumber" v="319"/>
    <tag k="addr:street" v="Mill Road"/>
    <tag k="addr:state" v="VT"/>
    <tag k="ref:vcgi:esiteid" v="247555"/>
  </node>
  <node id="-303" visible="true" lat="42.75714485" lon="-73.07467229">
    <tag k="addr:city" v="Stamford"/>
    <tag k="addr:housenumber" v="351"/>
    <tag k="addr:street" v="Mill Road"/>
    <tag k="addr:state" v="VT"/>
    <tag k="ref:vcgi:esiteid" v="247556"/>
  </node>
  <node id="-304" visible="true" lat="42.75713464" lon="-73.0756053">
    <tag k="addr:city" v="Stamford"/>
    <tag k="addr:housenumber" v="17"/>
    <tag k="addr:street" v="Henry Hill"/>
    <tag k="addr:state" v="VT"/>
    <tag k="ref:vcgi:esiteid" v="247557"/>
  </node>
  <node id="-305" visible="true" lat="42.75693955" lon="-73.07326514">
    <tag k="addr:city" v="Stamford"/>
    <tag k="addr:housenumber" v="283"/>
    <tag k="addr:street" v="Mill Road"/>
    <tag k="addr:state" v="VT"/>
    <tag k="ref:vcgi:esiteid" v="247558"/>
  </node>
  <node id="-306" visible="true" lat="42.7568696" lon="-73.07661079">
    <tag k="addr:city" v="Stamford"/>
    <tag k="addr:housenumber" v="61"/>
    <tag k="addr:street" v="Henry Hill"/>
    <tag k="addr:state" v="VT"/>
    <tag k="ref:vcgi:esiteid" v="247559"/>
  </node>
  <node id="-307" visible="true" lat="42.75707461" lon="-73.06744634">
    <tag k="addr:city" v="Stamford"/>
    <tag k="addr:housenumber" v="1138"/>
    <tag k="addr:street" v="Main Road"/>
    <tag k="addr:state" v="VT"/>
    <tag k="ref:vcgi:esiteid" v="247560"/>
  </node>
  <node id="-308" visible="true" lat="42.75701376" lon="-73.06794829">
    <tag k="addr:city" v="Stamford"/>
    <tag k="addr:housenumber" v="1135"/>
    <tag k="addr:street" v="Main Road"/>
    <tag k="addr:state" v="VT"/>
    <tag k="ref:vcgi:esiteid" v="247561"/>
  </node>
  <node id="-309" visible="true" lat="42.75704393" lon="-73.07212504">
    <tag k="addr:city" v="Stamford"/>
    <tag k="addr:housenumber" v="202"/>
    <tag k="addr:street" v="Mill Road"/>
    <tag k="addr:state" v="VT"/>
    <tag k="ref:vcgi:esiteid" v="247562"/>
  </node>
  <node id="-310" visible="true" lat="42.75690724" lon="-73.06971278">
    <tag k="addr:city" v="Stamford"/>
    <tag k="addr:housenumber" v="96"/>
    <tag k="addr:street" v="Mill Road"/>
    <tag k="addr:state" v="VT"/>
    <tag k="ref:vcgi:esiteid" v="247563"/>
  </node>
  <node id="-311" visible="true" lat="42.75679193" lon="-73.07235505">
    <tag k="addr:city" v="Stamford"/>
    <tag k="addr:housenumber" v="229"/>
    <tag k="addr:street" v="Mill Road"/>
    <tag k="addr:state" v="VT"/>
    <tag k="ref:vcgi:esiteid" v="247564"/>
  </node>
  <node id="-312" visible="true" lat="42.75676766" lon="-73.05524451">
    <tag k="addr:city" v="Stamford"/>
    <tag k="addr:housenumber" v="1100"/>
    <tag k="addr:street" v="East Road"/>
    <tag k="addr:state" v="VT"/>
    <tag k="ref:vcgi:esiteid" v="247565"/>
  </node>
  <node id="-313" visible="true" lat="42.75662635" lon="-73.07146136">
    <tag k="addr:city" v="Stamford"/>
    <tag k="addr:housenumber" v="185"/>
    <tag k="addr:street" v="Mill Road"/>
    <tag k="addr:state" v="VT"/>
    <tag k="ref:vcgi:esiteid" v="247566"/>
  </node>
  <node id="-314" visible="true" lat="42.75665717" lon="-73.06750883">
    <tag k="addr:city" v="Stamford"/>
    <tag k="addr:housenumber" v="1112"/>
    <tag k="addr:street" v="Main Road"/>
    <tag k="addr:state" v="VT"/>
    <tag k="ref:vcgi:esiteid" v="247567"/>
  </node>
  <node id="-315" visible="true" lat="42.75660873" lon="-73.06805246">
    <tag k="addr:city" v="Stamford"/>
    <tag k="addr:housenumber" v="1107"/>
    <tag k="addr:street" v="Main Road"/>
    <tag k="addr:state" v="VT"/>
    <tag k="ref:vcgi:esiteid" v="247568"/>
  </node>
  <node id="-316" visible="true" lat="42.75662237" lon="-73.07484454">
    <tag k="addr:city" v="Stamford"/>
    <tag k="addr:housenumber" v="347"/>
    <tag k="addr:street" v="Mill Road"/>
    <tag k="addr:state" v="VT"/>
    <tag k="ref:vcgi:esiteid" v="247569"/>
  </node>
  <node id="-317" visible="true" lat="42.75653659" lon="-73.06953627">
    <tag k="addr:city" v="Stamford"/>
    <tag k="addr:housenumber" v="86"/>
    <tag k="addr:street" v="Mill Road"/>
    <tag k="addr:state" v="VT"/>
    <tag k="ref:vcgi:esiteid" v="247570"/>
  </node>
  <node id="-318" visible="true" lat="42.75650415" lon="-73.06923118">
    <tag k="addr:city" v="Stamford"/>
    <tag k="addr:housenumber" v="70"/>
    <tag k="addr:street" v="Mill Road"/>
    <tag k="addr:state" v="VT"/>
    <tag k="ref:vcgi:esiteid" v="247571"/>
  </node>
  <node id="-319" visible="true" lat="42.75636778" lon="-73.06755147">
    <tag k="addr:city" v="Stamford"/>
    <tag k="addr:housenumber" v="1092"/>
    <tag k="addr:street" v="Main Road"/>
    <tag k="addr:state" v="VT"/>
    <tag k="ref:vcgi:esiteid" v="247572"/>
  </node>
  <node id="-320" visible="true" lat="42.75644496" lon="-73.06881189">
    <tag k="addr:city" v="Stamford"/>
    <tag k="addr:housenumber" v="48"/>
    <tag k="addr:street" v="Mill Road"/>
    <tag k="addr:state" v="VT"/>
    <tag k="ref:vcgi:esiteid" v="247573"/>
  </node>
  <node id="-321" visible="true" lat="42.75629803" lon="-73.06811803">
    <tag k="addr:city" v="Stamford"/>
    <tag k="addr:housenumber" v="1085"/>
    <tag k="addr:street" v="Main Road"/>
    <tag k="addr:state" v="VT"/>
    <tag k="ref:vcgi:esiteid" v="247574"/>
  </node>
  <node id="-322" visible="true" lat="42.75619725" lon="-73.06961728">
    <tag k="addr:city" v="Stamford"/>
    <tag k="addr:housenumber" v="87"/>
    <tag k="addr:street" v="Mill Road"/>
    <tag k="addr:state" v="VT"/>
    <tag k="ref:vcgi:esiteid" v="247575"/>
  </node>
  <node id="-323" visible="true" lat="42.75622576" lon="-73.06988228">
    <tag k="addr:city" v="Stamford"/>
    <tag k="addr:housenumber" v="99"/>
    <tag k="addr:street" v="Mill Road"/>
    <tag k="addr:state" v="VT"/>
    <tag k="ref:vcgi:esiteid" v="247576"/>
  </node>
  <node id="-324" visible="true" lat="42.7560922" lon="-73.06932249">
    <tag k="addr:city" v="Stamford"/>
    <tag k="addr:housenumber" v="71"/>
    <tag k="addr:street" v="Mill Road"/>
    <tag k="addr:state" v="VT"/>
    <tag k="ref:vcgi:esiteid" v="247577"/>
  </node>
  <node id="-325" visible="true" lat="42.75591278" lon="-73.06830597">
    <tag k="addr:city" v="Stamford"/>
    <tag k="addr:housenumber" v="1059"/>
    <tag k="addr:street" v="Main Road"/>
    <tag k="addr:state" v="VT"/>
    <tag k="ref:vcgi:esiteid" v="247578"/>
  </node>
  <node id="-326" visible="true" lat="42.75572912" lon="-73.07089612">
    <tag k="addr:city" v="Stamford"/>
    <tag k="addr:housenumber" v="142"/>
    <tag k="addr:street" v="Stebbins Lane"/>
    <tag k="addr:state" v="VT"/>
    <tag k="ref:vcgi:esiteid" v="247579"/>
  </node>
  <node id="-327" visible="true" lat="42.75553138" lon="-73.06778639">
    <tag k="addr:city" v="Stamford"/>
    <tag k="addr:housenumber" v="1036"/>
    <tag k="addr:street" v="Main Road"/>
    <tag k="addr:state" v="VT"/>
    <tag k="ref:vcgi:esiteid" v="247580"/>
  </node>
  <node id="-328" visible="true" lat="42.7553249" lon="-73.05551677">
    <tag k="addr:city" v="Stamford"/>
    <tag k="addr:housenumber" v="1002"/>
    <tag k="addr:street" v="East Road"/>
    <tag k="addr:state" v="VT"/>
    <tag k="ref:vcgi:esiteid" v="247581"/>
  </node>
  <node id="-329" visible="true" lat="42.75518769" lon="-73.07012004">
    <tag k="addr:city" v="Stamford"/>
    <tag k="addr:housenumber" v="97"/>
    <tag k="addr:street" v="Stebbins Lane"/>
    <tag k="addr:state" v="VT"/>
    <tag k="ref:vcgi:esiteid" v="247582"/>
  </node>
  <node id="-330" visible="true" lat="42.7551728" lon="-73.06952919">
    <tag k="addr:city" v="Stamford"/>
    <tag k="addr:housenumber" v="71"/>
    <tag k="addr:street" v="Stebbins Lane"/>
    <tag k="addr:state" v="VT"/>
    <tag k="ref:vcgi:esiteid" v="247583"/>
  </node>
  <node id="-332" visible="true" lat="42.75484169" lon="-73.06867322">
    <tag k="addr:city" v="Stamford"/>
    <tag k="addr:housenumber" v="981"/>
    <tag k="addr:street" v="Main Road"/>
    <tag k="addr:state" v="VT"/>
    <tag k="ref:vcgi:esiteid" v="247585"/>
  </node>
  <node id="-333" visible="true" lat="42.75482527" lon="-73.06741108">
    <tag k="addr:city" v="Stamford"/>
    <tag k="addr:housenumber" v="986"/>
    <tag k="addr:street" v="Main Road"/>
    <tag k="addr:state" v="VT"/>
    <tag k="ref:vcgi:esiteid" v="247586"/>
  </node>
  <node id="-334" visible="true" lat="42.75426751" lon="-73.05608121">
    <tag k="addr:city" v="Stamford"/>
    <tag k="addr:housenumber" v="922"/>
    <tag k="addr:street" v="East Road"/>
    <tag k="addr:state" v="VT"/>
    <tag k="ref:vcgi:esiteid" v="247587"/>
  </node>
  <node id="-335" visible="true" lat="42.75392358" lon="-73.06816534">
    <tag k="addr:city" v="Stamford"/>
    <tag k="addr:housenumber" v="928"/>
    <tag k="addr:street" v="Main Road"/>
    <tag k="addr:state" v="VT"/>
    <tag k="ref:vcgi:esiteid" v="247588"/>
  </node>
  <node id="-336" visible="true" lat="42.75375117" lon="-73.06880658">
    <tag k="addr:city" v="Stamford"/>
    <tag k="addr:housenumber" v="907"/>
    <tag k="addr:street" v="Main Road"/>
    <tag k="addr:state" v="VT"/>
    <tag k="ref:vcgi:esiteid" v="247589"/>
  </node>
  <node id="-337" visible="true" lat="42.75366929" lon="-73.07060651">
    <tag k="addr:city" v="Stamford"/>
    <tag k="addr:housenumber" v="114"/>
    <tag k="addr:street" v="Mountain View Lane"/>
    <tag k="addr:state" v="VT"/>
    <tag k="ref:vcgi:esiteid" v="247590"/>
  </node>
  <node id="-338" visible="true" lat="42.75375492" lon="-73.06974202">
    <tag k="addr:city" v="Stamford"/>
    <tag k="addr:housenumber" v="64"/>
    <tag k="addr:street" v="Mountain View Lane"/>
    <tag k="addr:state" v="VT"/>
    <tag k="ref:vcgi:esiteid" v="247591"/>
  </node>
  <node id="-339" visible="true" lat="42.75349172" lon="-73.06795553">
    <tag k="addr:city" v="Stamford"/>
    <tag k="addr:housenumber" v="900"/>
    <tag k="addr:street" v="Main Road"/>
    <tag k="addr:state" v="VT"/>
    <tag k="ref:vcgi:esiteid" v="247592"/>
  </node>
  <node id="-340" visible="true" lat="42.75363074" lon="-73.05599158">
    <tag k="addr:city" v="Stamford"/>
    <tag k="addr:housenumber" v="864"/>
    <tag k="addr:street" v="East Road"/>
    <tag k="addr:state" v="VT"/>
    <tag k="ref:vcgi:esiteid" v="247593"/>
  </node>
  <node id="-341" visible="true" lat="42.7532147" lon="-73.09227605">
    <tag k="addr:city" v="Stamford"/>
    <tag k="addr:housenumber" v="525"/>
    <tag k="addr:street" v="Lesure Road"/>
    <tag k="addr:state" v="VT"/>
    <tag k="ref:vcgi:esiteid" v="247594"/>
  </node>
  <node id="-342" visible="true" lat="42.75321681" lon="-73.0568456">
    <tag k="addr:city" v="Stamford"/>
    <tag k="addr:housenumber" v="848"/>
    <tag k="addr:street" v="East Road"/>
    <tag k="addr:state" v="VT"/>
    <tag k="ref:vcgi:esiteid" v="247595"/>
  </node>
  <node id="-343" visible="true" lat="42.7531721" lon="-73.06828505">
    <tag k="addr:city" v="Stamford"/>
    <tag k="addr:housenumber" v="870"/>
    <tag k="addr:street" v="Main Road"/>
    <tag k="addr:state" v="VT"/>
    <tag k="ref:vcgi:esiteid" v="247596"/>
  </node>
  <node id="-344" visible="true" lat="42.75392912" lon="-73.07653534">
    <tag k="addr:city" v="Stamford"/>
    <tag k="addr:housenumber" v="402"/>
    <tag k="addr:street" v="Jepson Road"/>
    <tag k="addr:state" v="VT"/>
    <tag k="ref:vcgi:esiteid" v="247597"/>
  </node>
  <node id="-345" visible="true" lat="42.75296936" lon="-73.0753939">
    <tag k="addr:city" v="Stamford"/>
    <tag k="addr:housenumber" v="358"/>
    <tag k="addr:street" v="Jepson Road"/>
    <tag k="addr:state" v="VT"/>
    <tag k="ref:vcgi:esiteid" v="247598"/>
  </node>
  <node id="-346" visible="true" lat="42.75283051" lon="-73.06832123">
    <tag k="addr:city" v="Stamford"/>
    <tag k="addr:housenumber" v="848"/>
    <tag k="addr:street" v="Main Road"/>
    <tag k="addr:state" v="VT"/>
    <tag k="ref:vcgi:esiteid" v="247599"/>
  </node>
  <node id="-347" visible="true" lat="42.75269172" lon="-73.07467366">
    <tag k="addr:city" v="Stamford"/>
    <tag k="addr:housenumber" v="316"/>
    <tag k="addr:street" v="Jepson Road"/>
    <tag k="addr:state" v="VT"/>
    <tag k="ref:vcgi:esiteid" v="247600"/>
  </node>
  <node id="-348" visible="true" lat="42.75273605" lon="-73.07130452">
    <tag k="addr:city" v="Stamford"/>
    <tag k="addr:housenumber" v="140"/>
    <tag k="addr:street" v="Jepson Road"/>
    <tag k="addr:state" v="VT"/>
    <tag k="ref:vcgi:esiteid" v="247601"/>
  </node>
  <node id="-349" visible="true" lat="42.7527144" lon="-73.07075887">
    <tag k="addr:city" v="Stamford"/>
    <tag k="addr:housenumber" v="110"/>
    <tag k="addr:street" v="Jepson Road"/>
    <tag k="addr:state" v="VT"/>
    <tag k="ref:vcgi:esiteid" v="247602"/>
  </node>
  <node id="-350" visible="true" lat="42.75259285" lon="-73.07307473">
    <tag k="addr:city" v="Stamford"/>
    <tag k="addr:housenumber" v="228"/>
    <tag k="addr:street" v="Jepson Road"/>
    <tag k="addr:state" v="VT"/>
    <tag k="ref:vcgi:esiteid" v="247603"/>
  </node>
  <node id="-351" visible="true" lat="42.75264499" lon="-73.07197183">
    <tag k="addr:city" v="Stamford"/>
    <tag k="addr:housenumber" v="170"/>
    <tag k="addr:street" v="Jepson Road"/>
    <tag k="addr:state" v="VT"/>
    <tag k="ref:vcgi:esiteid" v="247604"/>
  </node>
  <node id="-352" visible="true" lat="42.75253435" lon="-73.0761804">
    <tag k="addr:city" v="Stamford"/>
    <tag k="addr:housenumber" v="325"/>
    <tag k="addr:street" v="Jepson Road"/>
    <tag k="addr:state" v="VT"/>
    <tag k="ref:vcgi:esiteid" v="247605"/>
  </node>
  <node id="-353" visible="true" lat="42.75237527" lon="-73.06833109">
    <tag k="addr:city" v="Stamford"/>
    <tag k="addr:housenumber" v="818"/>
    <tag k="addr:street" v="Main Road"/>
    <tag k="addr:state" v="VT"/>
    <tag k="ref:vcgi:esiteid" v="247606"/>
  </node>
  <node id="-354" visible="true" lat="42.75243393" lon="-73.05818853">
    <tag k="addr:city" v="Stamford"/>
    <tag k="addr:housenumber" v="761"/>
    <tag k="addr:street" v="East Road"/>
    <tag k="addr:state" v="VT"/>
    <tag k="ref:vcgi:esiteid" v="247607"/>
  </node>
  <node id="-355" visible="true" lat="42.75209681" lon="-73.07088027">
    <tag k="addr:city" v="Stamford"/>
    <tag k="addr:housenumber" v="117"/>
    <tag k="addr:street" v="Jepson Road"/>
    <tag k="addr:state" v="VT"/>
    <tag k="ref:vcgi:esiteid" v="247608"/>
  </node>
  <node id="-356" visible="true" lat="42.75210911" lon="-73.07133286">
    <tag k="addr:city" v="Stamford"/>
    <tag k="addr:housenumber" v="139"/>
    <tag k="addr:street" v="Jepson Road"/>
    <tag k="addr:state" v="VT"/>
    <tag k="ref:vcgi:esiteid" v="247609"/>
  </node>
  <node id="-357" visible="true" lat="42.75210731" lon="-73.07378053">
    <tag k="addr:city" v="Stamford"/>
    <tag k="addr:housenumber" v="267"/>
    <tag k="addr:street" v="Jepson Road"/>
    <tag k="addr:state" v="VT"/>
    <tag k="ref:vcgi:esiteid" v="247610"/>
  </node>
  <node id="-358" visible="true" lat="42.75215698" lon="-73.07004275">
    <tag k="addr:city" v="Stamford"/>
    <tag k="addr:housenumber" v="77"/>
    <tag k="addr:street" v="Jepson Road"/>
    <tag k="addr:state" v="VT"/>
    <tag k="ref:vcgi:esiteid" v="247611"/>
  </node>
  <node id="-359" visible="true" lat="42.75208816" lon="-73.07453445">
    <tag k="addr:city" v="Stamford"/>
    <tag k="addr:housenumber" v="287"/>
    <tag k="addr:street" v="Jepson Road"/>
    <tag k="addr:state" v="VT"/>
    <tag k="ref:vcgi:esiteid" v="247612"/>
  </node>
  <node id="-360" visible="true" lat="42.75196482" lon="-73.06076298">
    <tag k="addr:city" v="Stamford"/>
    <tag k="addr:housenumber" v="128"/>
    <tag k="addr:street" v="Poplar Drive"/>
    <tag k="addr:state" v="VT"/>
    <tag k="ref:vcgi:esiteid" v="247613"/>
  </node>
  <node id="-361" visible="true" lat="42.75184611" lon="-73.07749987">
    <tag k="addr:city" v="Stamford"/>
    <tag k="addr:housenumber" v="492"/>
    <tag k="addr:street" v="Jepson Road"/>
    <tag k="addr:state" v="VT"/>
    <tag k="ref:vcgi:esiteid" v="247614"/>
  </node>
  <node id="-362" visible="true" lat="42.75163774" lon="-73.07218994">
    <tag k="addr:city" v="Stamford"/>
    <tag k="addr:housenumber" v="171"/>
    <tag k="addr:street" v="Jepson Road"/>
    <tag k="addr:state" v="VT"/>
    <tag k="ref:vcgi:esiteid" v="247615"/>
  </node>
  <node id="-363" visible="true" lat="42.75137213" lon="-73.07721125">
    <tag k="addr:city" v="Stamford"/>
    <tag k="addr:housenumber" v="513"/>
    <tag k="addr:street" v="Jepson Road"/>
    <tag k="addr:state" v="VT"/>
    <tag k="ref:vcgi:esiteid" v="247616"/>
  </node>
  <node id="-364" visible="true" lat="42.75155947" lon="-73.06827078">
    <tag k="addr:city" v="Stamford"/>
    <tag k="addr:housenumber" v="758"/>
    <tag k="addr:street" v="Main Road"/>
    <tag k="addr:state" v="VT"/>
    <tag k="ref:vcgi:esiteid" v="247617"/>
  </node>
  <node id="-365" visible="true" lat="42.75158926" lon="-73.061816">
    <tag k="addr:city" v="Stamford"/>
    <tag k="addr:housenumber" v="87"/>
    <tag k="addr:street" v="Poplar Drive"/>
    <tag k="addr:state" v="VT"/>
    <tag k="ref:vcgi:esiteid" v="247618"/>
  </node>
  <node id="-366" visible="true" lat="42.75151588" lon="-73.06915872">
    <tag k="addr:city" v="Stamford"/>
    <tag k="addr:housenumber" v="751"/>
    <tag k="addr:street" v="Main Road"/>
    <tag k="addr:state" v="VT"/>
    <tag k="ref:vcgi:esiteid" v="247619"/>
  </node>
  <node id="-367" visible="true" lat="42.75135803" lon="-73.07787323">
    <tag k="addr:city" v="Stamford"/>
    <tag k="addr:housenumber" v="540"/>
    <tag k="addr:street" v="Jepson Road"/>
    <tag k="addr:state" v="VT"/>
    <tag k="ref:vcgi:esiteid" v="247620"/>
  </node>
  <node id="-368" visible="true" lat="42.75117619" lon="-73.06838785">
    <tag k="addr:city" v="Stamford"/>
    <tag k="addr:housenumber" v="732"/>
    <tag k="addr:street" v="Main Road"/>
    <tag k="addr:state" v="VT"/>
    <tag k="ref:vcgi:esiteid" v="247621"/>
  </node>
  <node id="-370" visible="true" lat="42.7510975" lon="-73.06361712">
    <tag k="addr:city" v="Stamford"/>
    <tag k="addr:housenumber" v="323"/>
    <tag k="addr:street" v="The Lane"/>
    <tag k="addr:state" v="VT"/>
    <tag k="ref:vcgi:esiteid" v="247623"/>
  </node>
  <node id="-371" visible="true" lat="42.75090027" lon="-73.06850433">
    <tag k="addr:city" v="Stamford"/>
    <tag k="addr:housenumber" v="718"/>
    <tag k="addr:street" v="Main Road"/>
    <tag k="addr:state" v="VT"/>
    <tag k="ref:vcgi:esiteid" v="247624"/>
  </node>
  <node id="-372" visible="true" lat="42.7508707" lon="-73.05824975">
    <tag k="addr:city" v="Stamford"/>
    <tag k="addr:housenumber" v="660"/>
    <tag k="addr:street" v="East Road"/>
    <tag k="addr:state" v="VT"/>
    <tag k="ref:vcgi:esiteid" v="247625"/>
  </node>
  <node id="-373" visible="true" lat="42.75075853" lon="-73.08067313">
    <tag k="addr:city" v="Stamford"/>
    <tag k="addr:housenumber" v="706"/>
    <tag k="addr:street" v="Jepson Road"/>
    <tag k="addr:state" v="VT"/>
    <tag k="ref:vcgi:esiteid" v="247626"/>
  </node>
  <node id="-374" visible="true" lat="42.75083303" lon="-73.06277664">
    <tag k="addr:city" v="Stamford"/>
    <tag k="addr:housenumber" v="395"/>
    <tag k="addr:street" v="The Lane"/>
    <tag k="addr:state" v="VT"/>
    <tag k="ref:vcgi:esiteid" v="247627"/>
  </node>
  <node id="-376" visible="true" lat="42.75051496" lon="-73.06187835">
    <tag k="addr:city" v="Stamford"/>
    <tag k="addr:housenumber" v="427"/>
    <tag k="addr:street" v="The Lane"/>
    <tag k="addr:state" v="VT"/>
    <tag k="ref:vcgi:esiteid" v="247629"/>
  </node>
  <node id="-377" visible="true" lat="42.75048953" lon="-73.06111697">
    <tag k="addr:city" v="Stamford"/>
    <tag k="addr:housenumber" v="469"/>
    <tag k="addr:street" v="The Lane"/>
    <tag k="addr:state" v="VT"/>
    <tag k="ref:vcgi:esiteid" v="247630"/>
  </node>
  <node id="-378" visible="true" lat="42.75032157" lon="-73.06869599">
    <tag k="addr:city" v="Stamford"/>
    <tag k="addr:housenumber" v="25"/>
    <tag k="addr:street" v="The Lane"/>
    <tag k="addr:state" v="VT"/>
    <tag k="ref:vcgi:esiteid" v="247631"/>
  </node>
  <node id="-379" visible="true" lat="42.75028322" lon="-73.05952303">
    <tag k="addr:city" v="Stamford"/>
    <tag k="addr:housenumber" v="545"/>
    <tag k="addr:street" v="The Lane"/>
    <tag k="addr:state" v="VT"/>
    <tag k="ref:vcgi:esiteid" v="247632"/>
  </node>
  <node id="-380" visible="true" lat="42.75003172" lon="-73.07077637">
    <tag k="addr:city" v="Stamford"/>
    <tag k="addr:housenumber" v="595"/>
    <tag k="addr:street" v="Main Road"/>
    <tag k="addr:state" v="VT"/>
    <tag k="ref:vcgi:esiteid" v="247633"/>
  </node>
  <node id="-381" visible="true" lat="42.74992357" lon="-73.08525432">
    <tag k="addr:city" v="Stamford"/>
    <tag k="addr:housenumber" v="952"/>
    <tag k="addr:street" v="Jepson Road"/>
    <tag k="addr:state" v="VT"/>
    <tag k="ref:vcgi:esiteid" v="247634"/>
  </node>
  <node id="-383" visible="true" lat="42.74983999" lon="-73.06790459">
    <tag k="addr:city" v="Stamford"/>
    <tag k="addr:housenumber" v="81"/>
    <tag k="addr:street" v="The Lane"/>
    <tag k="addr:state" v="VT"/>
    <tag k="ref:vcgi:esiteid" v="247636"/>
  </node>
  <node id="-384" visible="true" lat="42.74971821" lon="-73.07014263">
    <tag k="addr:city" v="Stamford"/>
    <tag k="addr:housenumber" v="606"/>
    <tag k="addr:street" v="Main Road"/>
    <tag k="addr:state" v="VT"/>
    <tag k="ref:vcgi:esiteid" v="247637"/>
  </node>
  <node id="-385" visible="true" lat="42.74960195" lon="-73.06720078">
    <tag k="addr:city" v="Stamford"/>
    <tag k="addr:housenumber" v="113"/>
    <tag k="addr:street" v="The Lane"/>
    <tag k="addr:state" v="VT"/>
    <tag k="ref:vcgi:esiteid" v="247638"/>
  </node>
  <node id="-386" visible="true" lat="42.74951057" lon="-73.07662633">
    <tag k="addr:city" v="Stamford"/>
    <tag k="addr:housenumber" v="473"/>
    <tag k="addr:street" v="Main Road"/>
    <tag k="addr:state" v="VT"/>
    <tag k="ref:vcgi:esiteid" v="247639"/>
  </node>
  <node id="-387" visible="true" lat="42.74933587" lon="-73.07090157">
    <tag k="addr:city" v="Stamford"/>
    <tag k="addr:housenumber" v="556"/>
    <tag k="addr:street" v="Main Road"/>
    <tag k="addr:state" v="VT"/>
    <tag k="ref:vcgi:esiteid" v="247640"/>
  </node>
  <node id="-388" visible="true" lat="42.74936295" lon="-73.06776428">
    <tag k="addr:city" v="Stamford"/>
    <tag k="addr:housenumber" v="102"/>
    <tag k="addr:street" v="The Lane"/>
    <tag k="addr:state" v="VT"/>
    <tag k="ref:vcgi:esiteid" v="247641"/>
  </node>
  <node id="-389" visible="true" lat="42.74910508" lon="-73.07101181">
    <tag k="addr:city" v="Stamford"/>
    <tag k="addr:housenumber" v="544"/>
    <tag k="addr:street" v="Main Road"/>
    <tag k="addr:state" v="VT"/>
    <tag k="ref:vcgi:esiteid" v="247642"/>
  </node>
  <node id="-390" visible="true" lat="42.74910881" lon="-73.06567057">
    <tag k="addr:city" v="Stamford"/>
    <tag k="addr:housenumber" v="206"/>
    <tag k="addr:street" v="The Lane"/>
    <tag k="addr:state" v="VT"/>
    <tag k="ref:vcgi:esiteid" v="247644"/>
  </node>
  <node id="-391" visible="true" lat="42.74907946" lon="-73.07228196">
    <tag k="addr:city" v="Stamford"/>
    <tag k="addr:housenumber" v="493"/>
    <tag k="addr:street" v="Main Road"/>
    <tag k="addr:state" v="VT"/>
    <tag k="ref:vcgi:esiteid" v="247645"/>
  </node>
  <node id="-392" visible="true" lat="42.74866012" lon="-73.07147214">
    <tag k="addr:city" v="Stamford"/>
    <tag k="addr:housenumber" v="498"/>
    <tag k="addr:street" v="Main Road"/>
    <tag k="addr:state" v="VT"/>
    <tag k="ref:vcgi:esiteid" v="247646"/>
  </node>
  <node id="-393" visible="true" lat="42.74871547" lon="-73.0658126">
    <tag k="addr:city" v="Stamford"/>
    <tag k="addr:housenumber" v="194"/>
    <tag k="addr:street" v="The Lane"/>
    <tag k="addr:state" v="VT"/>
    <tag k="ref:vcgi:esiteid" v="247647"/>
  </node>
  <node id="-394" visible="true" lat="42.74830682" lon="-73.07184836">
    <tag k="addr:city" v="Stamford"/>
    <tag k="addr:housenumber" v="458"/>
    <tag k="addr:street" v="Main Road"/>
    <tag k="addr:state" v="VT"/>
    <tag k="ref:vcgi:esiteid" v="247648"/>
  </node>
  <node id="-395" visible="true" lat="42.74818802" lon="-73.08508301">
    <tag k="addr:city" v="Stamford"/>
    <tag k="addr:housenumber" v="954"/>
    <tag k="addr:street" v="Jepson Road"/>
    <tag k="addr:state" v="VT"/>
    <tag k="ref:vcgi:esiteid" v="247649"/>
  </node>
  <node id="-398" visible="true" lat="42.74789133" lon="-73.07425154">
    <tag k="addr:city" v="Stamford"/>
    <tag k="addr:housenumber" v="48"/>
    <tag k="addr:street" v="Millard Road"/>
    <tag k="addr:state" v="VT"/>
    <tag k="ref:vcgi:esiteid" v="247652"/>
  </node>
  <node id="-399" visible="true" lat="42.74750545" lon="-73.08455336">
    <tag k="addr:city" v="Stamford"/>
    <tag k="addr:housenumber" v="1003"/>
    <tag k="addr:street" v="Jepson Road"/>
    <tag k="addr:state" v="VT"/>
    <tag k="ref:vcgi:esiteid" v="247653"/>
  </node>
  <node id="-400" visible="true" lat="42.74755264" lon="-73.07252688">
    <tag k="addr:city" v="Stamford"/>
    <tag k="addr:housenumber" v="392"/>
    <tag k="addr:street" v="Main Road"/>
    <tag k="addr:state" v="VT"/>
    <tag k="ref:vcgi:esiteid" v="247654"/>
  </node>
  <node id="-401" visible="true" lat="42.74710846" lon="-73.07324982">
    <tag k="addr:city" v="Stamford"/>
    <tag k="addr:housenumber" v="355"/>
    <tag k="addr:street" v="Main Road"/>
    <tag k="addr:state" v="VT"/>
    <tag k="ref:vcgi:esiteid" v="247655"/>
  </node>
  <node id="-403" visible="true" lat="42.74676784" lon="-73.06062585">
    <tag k="addr:city" v="Stamford"/>
    <tag k="addr:housenumber" v="357"/>
    <tag k="addr:street" v="East Road"/>
    <tag k="addr:state" v="VT"/>
    <tag k="ref:vcgi:esiteid" v="247657"/>
  </node>
  <node id="-404" visible="true" lat="42.74657653" lon="-73.10073057">
    <tag k="addr:city" v="Stamford"/>
    <tag k="addr:housenumber" v="665"/>
    <tag k="addr:street" v="Boulger Road"/>
    <tag k="addr:state" v="VT"/>
    <tag k="ref:vcgi:esiteid" v="247658"/>
  </node>
  <node id="-405" visible="true" lat="42.7465075" lon="-73.07347945">
    <tag k="addr:city" v="Stamford"/>
    <tag k="addr:housenumber" v="315"/>
    <tag k="addr:street" v="Main Road"/>
    <tag k="addr:state" v="VT"/>
    <tag k="ref:vcgi:esiteid" v="247659"/>
  </node>
  <node id="-406" visible="true" lat="42.74609813" lon="-73.07353646">
    <tag k="addr:city" v="Stamford"/>
    <tag k="addr:housenumber" v="289"/>
    <tag k="addr:street" v="Main Road"/>
    <tag k="addr:state" v="VT"/>
    <tag k="ref:vcgi:esiteid" v="247660"/>
  </node>
  <node id="-407" visible="true" lat="42.7458258" lon="-73.08705021">
    <tag k="addr:city" v="Stamford"/>
    <tag k="addr:housenumber" v="1157"/>
    <tag k="addr:street" v="Jepson Road"/>
    <tag k="addr:state" v="VT"/>
    <tag k="ref:vcgi:esiteid" v="247661"/>
  </node>
  <node id="-408" visible="true" lat="42.74609979" lon="-73.08899009">
    <tag k="addr:city" v="Stamford"/>
    <tag k="addr:housenumber" v="61"/>
    <tag k="addr:street" v="Boulger Road"/>
    <tag k="addr:state" v="VT"/>
    <tag k="ref:vcgi:esiteid" v="247662"/>
  </node>
  <node id="-409" visible="true" lat="42.74566336" lon="-73.07352138">
    <tag k="addr:city" v="Stamford"/>
    <tag k="addr:housenumber" v="261"/>
    <tag k="addr:street" v="Main Road"/>
    <tag k="addr:state" v="VT"/>
    <tag k="ref:vcgi:esiteid" v="247663"/>
  </node>
  <node id="-410" visible="true" lat="42.74549152" lon="-73.07236605">
    <tag k="addr:city" v="Stamford"/>
    <tag k="addr:housenumber" v="252"/>
    <tag k="addr:street" v="Main Road"/>
    <tag k="addr:state" v="VT"/>
    <tag k="ref:vcgi:esiteid" v="247664"/>
  </node>
  <node id="-411" visible="true" lat="42.74523529" lon="-73.05963657">
    <tag k="addr:city" v="Stamford"/>
    <tag k="addr:housenumber" v="248"/>
    <tag k="addr:street" v="East Road"/>
    <tag k="addr:state" v="VT"/>
    <tag k="ref:vcgi:esiteid" v="247665"/>
  </node>
  <node id="-413" visible="true" lat="42.74486796" lon="-73.0731725">
    <tag k="addr:city" v="Stamford"/>
    <tag k="addr:housenumber" v="207"/>
    <tag k="addr:street" v="Main Road"/>
    <tag k="addr:state" v="VT"/>
    <tag k="ref:vcgi:esiteid" v="247667"/>
  </node>
  <node id="-414" visible="true" lat="42.74478085" lon="-73.08820132">
    <tag k="addr:city" v="Stamford"/>
    <tag k="addr:housenumber" v="1271"/>
    <tag k="addr:street" v="Jepson Road"/>
    <tag k="addr:state" v="VT"/>
    <tag k="ref:vcgi:esiteid" v="247668"/>
  </node>
  <node id="-415" visible="true" lat="42.74488727" lon="-73.07197115">
    <tag k="addr:city" v="Stamford"/>
    <tag k="addr:housenumber" v="180"/>
    <tag k="addr:street" v="Main Road"/>
    <tag k="addr:state" v="VT"/>
    <tag k="ref:vcgi:esiteid" v="247669"/>
  </node>
  <node id="-416" visible="true" lat="42.74448496" lon="-73.09106932">
    <tag k="addr:city" v="Stamford"/>
    <tag k="addr:housenumber" v="1352"/>
    <tag k="addr:street" v="Jepson Road"/>
    <tag k="addr:state" v="VT"/>
    <tag k="ref:vcgi:esiteid" v="247670"/>
  </node>
  <node id="-417" visible="true" lat="42.74397905" lon="-73.08857239">
    <tag k="addr:city" v="Stamford"/>
    <tag k="addr:housenumber" v="1323"/>
    <tag k="addr:street" v="Jepson Road"/>
    <tag k="addr:state" v="VT"/>
    <tag k="ref:vcgi:esiteid" v="247671"/>
  </node>
  <node id="-418" visible="true" lat="42.74418048" lon="-73.06031929">
    <tag k="addr:city" v="Stamford"/>
    <tag k="addr:housenumber" v="174"/>
    <tag k="addr:street" v="East Road"/>
    <tag k="addr:state" v="VT"/>
    <tag k="ref:vcgi:esiteid" v="247672"/>
  </node>
  <node id="-419" visible="true" lat="42.74371727" lon="-73.06062001">
    <tag k="addr:city" v="Stamford"/>
    <tag k="addr:housenumber" v="142"/>
    <tag k="addr:street" v="East Road"/>
    <tag k="addr:state" v="VT"/>
    <tag k="ref:vcgi:esiteid" v="247673"/>
  </node>
  <node id="-420" visible="true" lat="42.74364231" lon="-73.09124345">
    <tag k="addr:city" v="Stamford"/>
    <tag k="addr:housenumber" v="1394"/>
    <tag k="addr:street" v="Jepson Road"/>
    <tag k="addr:state" v="VT"/>
    <tag k="ref:vcgi:esiteid" v="247674"/>
  </node>
  <node id="-421" visible="true" lat="42.7435826" lon="-73.09038857">
    <tag k="addr:city" v="Stamford"/>
    <tag k="addr:housenumber" v="1392"/>
    <tag k="addr:street" v="Jepson Road"/>
    <tag k="addr:state" v="VT"/>
    <tag k="ref:vcgi:esiteid" v="247675"/>
  </node>
  <node id="-422" visible="true" lat="42.74332191" lon="-73.07162838">
    <tag k="addr:city" v="Stamford"/>
    <tag k="addr:housenumber" v="82"/>
    <tag k="addr:street" v="Main Road"/>
    <tag k="addr:state" v="VT"/>
    <tag k="ref:vcgi:esiteid" v="247676"/>
  </node>
  <node id="-423" visible="true" lat="42.74316502" lon="-73.08904006">
    <tag k="addr:city" v="Stamford"/>
    <tag k="addr:housenumber" v="1385"/>
    <tag k="addr:street" v="Jepson Road"/>
    <tag k="addr:state" v="VT"/>
    <tag k="ref:vcgi:esiteid" v="247677"/>
  </node>
  <node id="-424" visible="true" lat="42.74253819" lon="-73.06144854">
    <tag k="addr:city" v="Stamford"/>
    <tag k="addr:housenumber" v="50"/>
    <tag k="addr:street" v="East Road"/>
    <tag k="addr:state" v="VT"/>
    <tag k="ref:vcgi:esiteid" v="247678"/>
  </node>
  <node id="-425" visible="true" lat="42.74212873" lon="-73.061656">
    <tag k="addr:city" v="Stamford"/>
    <tag k="addr:housenumber" v="18"/>
    <tag k="addr:street" v="East Road"/>
    <tag k="addr:state" v="VT"/>
    <tag k="ref:vcgi:esiteid" v="247679"/>
  </node>
  <node id="-426" visible="true" lat="42.74213407" lon="-73.06243549">
    <tag k="addr:city" v="Stamford"/>
    <tag k="addr:housenumber" v="7"/>
    <tag k="addr:street" v="East Road"/>
    <tag k="addr:state" v="VT"/>
    <tag k="ref:vcgi:esiteid" v="247680"/>
  </node>
  <node id="-427" visible="true" lat="42.76550975" lon="-73.07915082">
    <tag k="addr:city" v="Stamford"/>
    <tag k="addr:housenumber" v="138"/>
    <tag k="addr:street" v="Tatro Road"/>
    <tag k="addr:state" v="VT"/>
    <tag k="ref:vcgi:esiteid" v="247681"/>
  </node>
  <node id="-428" visible="true" lat="42.75885391" lon="-73.07880552">
    <tag k="addr:city" v="Stamford"/>
    <tag k="addr:housenumber" v="172"/>
    <tag k="addr:street" v="Henry Hill"/>
    <tag k="addr:state" v="VT"/>
    <tag k="ref:vcgi:esiteid" v="247682"/>
  </node>
  <node id="-429" visible="true" lat="42.76580114" lon="-73.06392015">
    <tag k="addr:city" v="Stamford"/>
    <tag k="addr:housenumber" v="7"/>
    <tag k="addr:street" v="Sumner Road"/>
    <tag k="addr:state" v="VT"/>
    <tag k="ref:vcgi:esiteid" v="247683"/>
  </node>
  <node id="-430" visible="true" lat="42.76635704" lon="-73.06380156">
    <tag k="addr:city" v="Stamford"/>
    <tag k="addr:housenumber" v="33"/>
    <tag k="addr:street" v="Sumner Road"/>
    <tag k="addr:state" v="VT"/>
    <tag k="ref:vcgi:esiteid" v="247684"/>
  </node>
  <node id="-434" visible="true" lat="42.74737167" lon="-73.05904388">
    <tag k="addr:city" v="Stamford"/>
    <tag k="addr:housenumber" v="394"/>
    <tag k="addr:street" v="East Road"/>
    <tag k="addr:state" v="VT"/>
    <tag k="ref:vcgi:esiteid" v="247689"/>
  </node>
  <node id="-436" visible="true" lat="42.74966774" lon="-73.05879852">
    <tag k="addr:city" v="Stamford"/>
    <tag k="addr:housenumber" v="570"/>
    <tag k="addr:street" v="East Road"/>
    <tag k="addr:state" v="VT"/>
    <tag k="ref:vcgi:esiteid" v="247691"/>
  </node>
  <node id="-437" visible="true" lat="42.74983356" lon="-73.05863284">
    <tag k="addr:city" v="Stamford"/>
    <tag k="addr:housenumber" v="574"/>
    <tag k="addr:street" v="East Road"/>
    <tag k="addr:state" v="VT"/>
    <tag k="ref:vcgi:esiteid" v="247692"/>
  </node>
  <node id="-438" visible="true" lat="42.75028815" lon="-73.05832958">
    <tag k="addr:city" v="Stamford"/>
    <tag k="addr:housenumber" v="612"/>
    <tag k="addr:street" v="East Road"/>
    <tag k="addr:state" v="VT"/>
    <tag k="ref:vcgi:esiteid" v="247693"/>
  </node>
  <node id="-439" visible="true" lat="42.75424151" lon="-73.06875509">
    <tag k="addr:city" v="Stamford"/>
    <tag k="addr:housenumber" v="941"/>
    <tag k="addr:street" v="Main Road"/>
    <tag k="addr:state" v="VT"/>
    <tag k="ref:vcgi:esiteid" v="247694"/>
  </node>
  <node id="-440" visible="true" lat="42.75343083" lon="-73.06886225">
    <tag k="addr:city" v="Stamford"/>
    <tag k="addr:housenumber" v="885"/>
    <tag k="addr:street" v="Main Road"/>
    <tag k="addr:state" v="VT"/>
    <tag k="ref:vcgi:esiteid" v="247695"/>
  </node>
  <node id="-441" visible="true" lat="42.75257492" lon="-73.06903304">
    <tag k="addr:city" v="Stamford"/>
    <tag k="addr:housenumber" v="827"/>
    <tag k="addr:street" v="Main Road"/>
    <tag k="addr:state" v="VT"/>
    <tag k="ref:vcgi:esiteid" v="247696"/>
  </node>
  <node id="-445" visible="true" lat="42.82219511" lon="-73.01908068">
    <tag k="addr:city" v="Stamford"/>
    <tag k="addr:housenumber" v="1178"/>
    <tag k="addr:street" v="Oberdorf Road"/>
    <tag k="addr:state" v="VT"/>
    <tag k="ref:vcgi:esiteid" v="247700"/>
  </node>
  <node id="-450" visible="true" lat="42.75552994" lon="-73.05679422">
    <tag k="addr:city" v="Stamford"/>
    <tag k="addr:housenumber" v="999"/>
    <tag k="addr:street" v="East Road"/>
    <tag k="addr:state" v="VT"/>
    <tag k="ref:vcgi:esiteid" v="247705"/>
  </node>
  <node id="-451" visible="true" lat="42.74212892" lon="-73.07121799">
    <tag k="addr:city" v="Stamford"/>
    <tag k="addr:housenumber" v="2"/>
    <tag k="addr:street" v="Main Road"/>
    <tag k="addr:state" v="VT"/>
    <tag k="ref:vcgi:esiteid" v="247706"/>
  </node>
  <node id="-453" visible="true" lat="42.7744784" lon="-73.08610069">
    <tag k="addr:city" v="Stamford"/>
    <tag k="addr:housenumber" v="28"/>
    <tag k="addr:street" v="Sparrow Drive"/>
    <tag k="addr:state" v="VT"/>
    <tag k="ref:vcgi:esiteid" v="247708"/>
  </node>
  <node id="-454" visible="true" lat="42.76785261" lon="-73.08331679">
    <tag k="addr:city" v="Stamford"/>
    <tag k="addr:housenumber" v="600"/>
    <tag k="addr:street" v="Sparrow Drive"/>
    <tag k="addr:state" v="VT"/>
    <tag k="ref:vcgi:esiteid" v="247709"/>
  </node>
  <node id="-455" visible="true" lat="42.75319073" lon="-73.0688869">
    <tag k="addr:city" v="Stamford"/>
    <tag k="addr:housenumber" v="869"/>
    <tag k="addr:street" v="Main Road"/>
    <tag k="addr:state" v="VT"/>
    <tag k="ref:vcgi:esiteid" v="247710"/>
  </node>
  <node id="-456" visible="true" lat="42.75288613" lon="-73.06894581">
    <tag k="addr:city" v="Stamford"/>
    <tag k="addr:housenumber" v="853"/>
    <tag k="addr:street" v="Main Road"/>
    <tag k="addr:state" v="VT"/>
    <tag k="ref:vcgi:esiteid" v="247711"/>
  </node>
  <node id="-457" visible="true" lat="42.76122021" lon="-73.06560655">
    <tag k="addr:city" v="Stamford"/>
    <tag k="addr:housenumber" v="1458"/>
    <tag k="addr:street" v="Main Road"/>
    <tag k="addr:state" v="VT"/>
    <tag k="ref:vcgi:esiteid" v="247712"/>
  </node>
  <node id="-459" visible="true" lat="42.74478442" lon="-73.07459833">
    <tag k="addr:city" v="Stamford"/>
    <tag k="addr:housenumber" v="89"/>
    <tag k="addr:street" v="Main Road"/>
    <tag k="addr:state" v="VT"/>
    <tag k="ref:vcgi:esiteid" v="247714"/>
  </node>
  <node id="-460" visible="true" lat="42.76132169" lon="-73.05227565">
    <tag k="addr:city" v="Stamford"/>
    <tag k="addr:housenumber" v="153"/>
    <tag k="addr:street" v="Tepeyac Hill"/>
    <tag k="addr:state" v="VT"/>
    <tag k="ref:vcgi:esiteid" v="247715"/>
  </node>
  <node id="-461" visible="true" lat="42.76241064" lon="-73.04820567">
    <tag k="addr:city" v="Stamford"/>
    <tag k="addr:housenumber" v="111"/>
    <tag k="addr:street" v="Allen Hill Drive"/>
    <tag k="addr:state" v="VT"/>
    <tag k="ref:vcgi:esiteid" v="247716"/>
  </node>
  <node id="-462" visible="true" lat="42.7620471" lon="-73.0469951">
    <tag k="addr:city" v="Stamford"/>
    <tag k="addr:housenumber" v="188"/>
    <tag k="addr:street" v="Allen Hill Drive"/>
    <tag k="addr:state" v="VT"/>
    <tag k="ref:vcgi:esiteid" v="247717"/>
  </node>
  <node id="-463" visible="true" lat="42.75119573" lon="-73.06078434">
    <tag k="addr:city" v="Stamford"/>
    <tag k="addr:housenumber" v="68"/>
    <tag k="addr:street" v="Poplar Drive"/>
    <tag k="addr:state" v="VT"/>
    <tag k="ref:vcgi:esiteid" v="247718"/>
  </node>
  <node id="-465" visible="true" lat="42.74320831" lon="-73.06146476">
    <tag k="addr:city" v="Stamford"/>
    <tag k="addr:housenumber" v="89"/>
    <tag k="addr:street" v="East Road"/>
    <tag k="addr:state" v="VT"/>
    <tag k="ref:vcgi:esiteid" v="247720"/>
  </node>
  <node id="-467" visible="true" lat="42.74879257" lon="-73.09117722">
    <tag k="addr:city" v="Stamford"/>
    <tag k="addr:housenumber" v="203"/>
    <tag k="addr:street" v="Lesure Road"/>
    <tag k="addr:state" v="VT"/>
    <tag k="ref:vcgi:esiteid" v="247723"/>
  </node>
  <node id="-468" visible="true" lat="42.76062025" lon="-73.0883">
    <tag k="addr:city" v="Stamford"/>
    <tag k="addr:housenumber" v="1088"/>
    <tag k="addr:street" v="Lesure Road"/>
    <tag k="addr:state" v="VT"/>
    <tag k="ref:vcgi:esiteid" v="247724"/>
  </node>
  <node id="-469" visible="true" lat="42.77344405" lon="-73.09870563">
    <tag k="addr:city" v="Stamford"/>
    <tag k="addr:housenumber" v="819"/>
    <tag k="addr:street" v="County Road"/>
    <tag k="addr:state" v="VT"/>
    <tag k="ref:vcgi:esiteid" v="247725"/>
  </node>
  <node id="-470" visible="true" lat="42.75055557" lon="-73.09192102">
    <tag k="addr:city" v="Stamford"/>
    <tag k="addr:housenumber" v="313"/>
    <tag k="addr:street" v="Lesure Road"/>
    <tag k="addr:state" v="VT"/>
    <tag k="ref:vcgi:esiteid" v="247726"/>
  </node>
  <node id="-472" visible="true" lat="42.74854343" lon="-73.05838275">
    <tag k="addr:city" v="Stamford"/>
    <tag k="addr:housenumber" v="510"/>
    <tag k="addr:street" v="East Road"/>
    <tag k="addr:state" v="VT"/>
    <tag k="ref:vcgi:esiteid" v="247728"/>
  </node>
  <node id="-473" visible="true" lat="42.75960546" lon="-73.05525718">
    <tag k="addr:city" v="Stamford"/>
    <tag k="addr:housenumber" v="1299"/>
    <tag k="addr:street" v="East Road"/>
    <tag k="addr:state" v="VT"/>
    <tag k="ref:vcgi:esiteid" v="247729"/>
  </node>
  <node id="-476" visible="true" lat="42.74235298" lon="-73.07173367">
    <tag k="addr:city" v="Stamford"/>
    <tag k="addr:housenumber" v="1"/>
    <tag k="addr:street" v="Main Road"/>
    <tag k="addr:state" v="VT"/>
    <tag k="ref:vcgi:esiteid" v="247732"/>
  </node>
  <node id="-477" visible="true" lat="42.74428905" lon="-73.09784707">
    <tag k="addr:city" v="Stamford"/>
    <tag k="addr:housenumber" v="511"/>
    <tag k="addr:street" v="Boulger Road"/>
    <tag k="addr:state" v="VT"/>
    <tag k="ref:vcgi:esiteid" v="247733"/>
  </node>
  <node id="-478" visible="true" lat="42.76474672" lon="-73.06158999">
    <tag k="addr:city" v="Stamford"/>
    <tag k="addr:housenumber" v="26"/>
    <tag k="addr:street" v="Clough Road"/>
    <tag k="addr:state" v="VT"/>
    <tag k="ref:vcgi:esiteid" v="247735"/>
  </node>
  <node id="-479" visible="true" lat="42.75927297" lon="-73.09027763">
    <tag k="addr:city" v="Stamford"/>
    <tag k="addr:housenumber" v="977"/>
    <tag k="addr:street" v="Lesure Road"/>
    <tag k="addr:state" v="VT"/>
    <tag k="ref:vcgi:esiteid" v="247736"/>
  </node>
  <node id="-480" visible="true" lat="42.7585984" lon="-73.06707579">
    <tag k="addr:city" v="Stamford"/>
    <tag k="addr:housenumber" v="1254"/>
    <tag k="addr:street" v="Main Road"/>
    <tag k="addr:state" v="VT"/>
    <tag k="ref:vcgi:esiteid" v="247737"/>
  </node>
  <node id="-481" visible="true" lat="42.75693405" lon="-73.08941442">
    <tag k="addr:city" v="Stamford"/>
    <tag k="addr:housenumber" v="769"/>
    <tag k="addr:street" v="Lesure Road"/>
    <tag k="addr:state" v="VT"/>
    <tag k="ref:vcgi:esiteid" v="247738"/>
  </node>
  <node id="-482" visible="true" lat="42.76438678" lon="-73.06374238">
    <tag k="addr:city" v="Stamford"/>
    <tag k="addr:housenumber" v="1720"/>
    <tag k="addr:street" v="Main Road"/>
    <tag k="addr:state" v="VT"/>
    <tag k="ref:vcgi:esiteid" v="247739"/>
  </node>
  <node id="-483" visible="true" lat="42.75938003" lon="-73.0881581">
    <tag k="addr:city" v="Stamford"/>
    <tag k="addr:housenumber" v="946"/>
    <tag k="addr:street" v="Lesure Road"/>
    <tag k="addr:state" v="VT"/>
    <tag k="ref:vcgi:esiteid" v="247740"/>
  </node>
  <node id="-485" visible="true" lat="42.76462771" lon="-73.06336223">
    <tag k="addr:city" v="Stamford"/>
    <tag k="addr:housenumber" v="1750"/>
    <tag k="addr:street" v="Main Road"/>
    <tag k="addr:state" v="VT"/>
    <tag k="ref:vcgi:esiteid" v="247742"/>
  </node>
  <node id="-487" visible="true" lat="42.76477154" lon="-73.0628696">
    <tag k="addr:city" v="Stamford"/>
    <tag k="addr:housenumber" v="1770"/>
    <tag k="addr:street" v="Main Road"/>
    <tag k="addr:state" v="VT"/>
    <tag k="ref:vcgi:esiteid" v="247744"/>
  </node>
  <node id="-488" visible="true" lat="42.76562643" lon="-73.08422381">
    <tag k="addr:city" v="Stamford"/>
    <tag k="addr:housenumber" v="744"/>
    <tag k="addr:street" v="Sparrow Drive"/>
    <tag k="addr:state" v="VT"/>
    <tag k="ref:vcgi:esiteid" v="247745"/>
  </node>
  <node id="-490" visible="true" lat="42.81659151" lon="-73.02453906">
    <tag k="addr:city" v="Stamford"/>
    <tag k="addr:housenumber" v="960"/>
    <tag k="addr:street" v="Bergrucken Lane"/>
    <tag k="addr:state" v="VT"/>
    <tag k="ref:vcgi:esiteid" v="247747"/>
  </node>
  <node id="-491" visible="true" lat="42.75189616" lon="-73.09257566">
    <tag k="addr:city" v="Stamford"/>
    <tag k="addr:housenumber" v="399"/>
    <tag k="addr:street" v="Lesure Road"/>
    <tag k="addr:state" v="VT"/>
    <tag k="ref:vcgi:esiteid" v="247748"/>
  </node>
  <node id="-492" visible="true" lat="42.79028421" lon="-73.0373425">
    <tag k="addr:city" v="Stamford"/>
    <tag k="addr:housenumber" v="270"/>
    <tag k="addr:street" v="Harley Road"/>
    <tag k="addr:state" v="VT"/>
    <tag k="ref:vcgi:esiteid" v="247749"/>
  </node>
  <node id="-493" visible="true" lat="42.76061537" lon="-73.09027129">
    <tag k="addr:city" v="Stamford"/>
    <tag k="addr:housenumber" v="1051"/>
    <tag k="addr:street" v="Lesure Road"/>
    <tag k="addr:state" v="VT"/>
    <tag k="ref:vcgi:esiteid" v="247750"/>
  </node>
  <node id="-496" visible="true" lat="42.74993415" lon="-73.08957757">
    <tag k="addr:city" v="Stamford"/>
    <tag k="addr:housenumber" v="342"/>
    <tag k="addr:street" v="Lesure Road"/>
    <tag k="addr:state" v="VT"/>
    <tag k="ref:vcgi:esiteid" v="247753"/>
  </node>
  <node id="-497" visible="true" lat="42.82206121" lon="-73.01830157">
    <tag k="addr:city" v="Stamford"/>
    <tag k="addr:housenumber" v="229"/>
    <tag k="addr:street" v="Oberhugel Road"/>
    <tag k="addr:state" v="VT"/>
    <tag k="ref:vcgi:esiteid" v="247754"/>
  </node>
  <node id="-498" visible="true" lat="42.75957349" lon="-73.05345589">
    <tag k="addr:city" v="Stamford"/>
    <tag k="addr:housenumber" v="1294"/>
    <tag k="addr:street" v="East Road"/>
    <tag k="addr:state" v="VT"/>
    <tag k="ref:vcgi:esiteid" v="247755"/>
  </node>
  <node id="-499" visible="true" lat="42.81743118" lon="-73.0227633">
    <tag k="addr:city" v="Stamford"/>
    <tag k="addr:housenumber" v="1044"/>
    <tag k="addr:street" v="Bergrucken Lane"/>
    <tag k="addr:state" v="VT"/>
    <tag k="ref:vcgi:esiteid" v="305670"/>
  </node>
  <node id="-501" visible="true" lat="42.77749502" lon="-73.04329781">
    <tag k="addr:city" v="Stamford"/>
    <tag k="addr:housenumber" v="20"/>
    <tag k="addr:street" v="Robillard Road"/>
    <tag k="addr:state" v="VT"/>
    <tag k="ref:vcgi:esiteid" v="306127"/>
  </node>
  <node id="-502" visible="true" lat="42.81799024" lon="-73.02302199">
    <tag k="addr:city" v="Stamford"/>
    <tag k="addr:housenumber" v="43"/>
    <tag k="addr:street" v="Bergblume Circle"/>
    <tag k="addr:state" v="VT"/>
    <tag k="ref:vcgi:esiteid" v="307167"/>
  </node>
  <node id="-503" visible="true" lat="42.79490372" lon="-73.02716695">
    <tag k="addr:city" v="Stamford"/>
    <tag k="addr:housenumber" v="201"/>
    <tag k="addr:street" v="Andrea Drive"/>
    <tag k="addr:state" v="VT"/>
    <tag k="ref:vcgi:esiteid" v="307533"/>
  </node>
  <node id="-504" visible="true" lat="42.81195092" lon="-73.02153758">
    <tag k="addr:city" v="Stamford"/>
    <tag k="addr:housenumber" v="537"/>
    <tag k="addr:street" v="Sportsmen Road"/>
    <tag k="addr:state" v="VT"/>
    <tag k="ref:vcgi:esiteid" v="307592"/>
  </node>
  <node id="-506" visible="true" lat="42.76530712" lon="-73.05629859">
    <tag k="addr:city" v="Stamford"/>
    <tag k="addr:housenumber" v="1720"/>
    <tag k="addr:street" v="East Road"/>
    <tag k="addr:state" v="VT"/>
    <tag k="ref:vcgi:esiteid" v="309259"/>
  </node>
  <node id="-508" visible="true" lat="42.81650403" lon="-73.02029593">
    <tag k="addr:city" v="Stamford"/>
    <tag k="addr:housenumber" v="558"/>
    <tag k="addr:street" v="Bergrucken Lane"/>
    <tag k="addr:state" v="VT"/>
    <tag k="ref:vcgi:esiteid" v="309262"/>
  </node>
  <node id="-509" visible="true" lat="42.81249753" lon="-73.01699562">
    <tag k="addr:city" v="Stamford"/>
    <tag k="addr:housenumber" v="800"/>
    <tag k="addr:street" v="Sportsmen Road"/>
    <tag k="addr:state" v="VT"/>
    <tag k="ref:vcgi:esiteid" v="311750"/>
  </node>
  <node id="-511" visible="true" lat="42.81873871" lon="-73.02366724">
    <tag k="addr:city" v="Stamford"/>
    <tag k="addr:housenumber" v="64"/>
    <tag k="addr:street" v="Bergblume Circle"/>
    <tag k="addr:state" v="VT"/>
    <tag k="ref:vcgi:esiteid" v="311927"/>
  </node>
  <node id="-512" visible="true" lat="42.75265559" lon="-73.06039025">
    <tag k="addr:city" v="Stamford"/>
    <tag k="addr:housenumber" v="178"/>
    <tag k="addr:street" v="Poplar Drive"/>
    <tag k="addr:state" v="VT"/>
    <tag k="ref:vcgi:esiteid" v="311928"/>
  </node>
  <node id="-513" visible="true" lat="42.74429258" lon="-73.09612497">
    <tag k="addr:city" v="Stamford"/>
    <tag k="addr:housenumber" v="469"/>
    <tag k="addr:street" v="Boulger Road"/>
    <tag k="addr:state" v="VT"/>
    <tag k="ref:vcgi:esiteid" v="317218"/>
  </node>
  <node id="-514" visible="true" lat="42.77302176" lon="-73.07742872">
    <tag k="addr:city" v="Stamford"/>
    <tag k="addr:housenumber" v="1066"/>
    <tag k="addr:street" v="Old County Road"/>
    <tag k="addr:state" v="VT"/>
    <tag k="ref:vcgi:esiteid" v="317219"/>
  </node>
  <node id="-515" visible="true" lat="42.75312859" lon="-73.05783327">
    <tag k="addr:city" v="Stamford"/>
    <tag k="addr:housenumber" v="799"/>
    <tag k="addr:street" v="East Road"/>
    <tag k="addr:state" v="VT"/>
    <tag k="ref:vcgi:esiteid" v="318113"/>
  </node>
  <node id="-518" visible="true" lat="42.76555682" lon="-73.09307212">
    <tag k="addr:city" v="Stamford"/>
    <tag k="addr:housenumber" v="65"/>
    <tag k="addr:street" v="Old Farm Lane"/>
    <tag k="addr:state" v="VT"/>
    <tag k="ref:vcgi:esiteid" v="325161"/>
  </node>
  <node id="-519" visible="true" lat="42.75834236" lon="-73.09013694">
    <tag k="addr:city" v="Stamford"/>
    <tag k="addr:housenumber" v="887"/>
    <tag k="addr:street" v="Lesure Road"/>
    <tag k="addr:state" v="VT"/>
    <tag k="ref:vcgi:esiteid" v="325162"/>
  </node>
  <node id="-521" visible="true" lat="42.75498029" lon="-73.08881367">
    <tag k="addr:city" v="Stamford"/>
    <tag k="addr:housenumber" v="696"/>
    <tag k="addr:street" v="Lesure Road"/>
    <tag k="addr:state" v="VT"/>
    <tag k="ref:vcgi:esiteid" v="325164"/>
  </node>
  <node id="-523" visible="true" lat="42.7935179" lon="-73.02737305">
    <tag k="addr:city" v="Stamford"/>
    <tag k="addr:housenumber" v="200"/>
    <tag k="addr:street" v="Andrea Drive"/>
    <tag k="addr:state" v="VT"/>
    <tag k="ref:vcgi:esiteid" v="325177"/>
  </node>
  <node id="-524" visible="true" lat="42.75687883" lon="-73.07112323">
    <tag k="addr:city" v="Stamford"/>
    <tag k="addr:housenumber" v="170"/>
    <tag k="addr:street" v="Mill Road"/>
    <tag k="addr:state" v="VT"/>
    <tag k="ref:vcgi:esiteid" v="326408"/>
  </node>
  <node id="-525" visible="true" lat="42.74755686" lon="-73.10055486">
    <tag k="addr:city" v="Stamford"/>
    <tag k="addr:housenumber" v="749"/>
    <tag k="addr:street" v="Boulger Road"/>
    <tag k="addr:state" v="VT"/>
    <tag k="ref:vcgi:esiteid" v="326644"/>
  </node>
  <node id="-527" visible="true" lat="42.77242049" lon="-73.11302556">
    <tag k="addr:city" v="Stamford"/>
    <tag k="addr:housenumber" v="1588"/>
    <tag k="addr:street" v="County Road"/>
    <tag k="addr:state" v="VT"/>
    <tag k="ref:vcgi:esiteid" v="328769"/>
  </node>
  <node id="-528" visible="true" lat="42.77176969" lon="-73.11663904">
    <tag k="addr:city" v="Stamford"/>
    <tag k="addr:housenumber" v="1818"/>
    <tag k="addr:street" v="County Road"/>
    <tag k="addr:state" v="VT"/>
    <tag k="ref:vcgi:esiteid" v="328770"/>
  </node>
  <node id="-533" visible="true" lat="42.76301467" lon="-73.13506377">
    <tag k="addr:city" v="Stamford"/>
    <tag k="addr:housenumber" v="1401"/>
    <tag k="addr:street" v="Risky Ranch Road"/>
    <tag k="addr:state" v="VT"/>
    <tag k="ref:vcgi:esiteid" v="328775"/>
  </node>
  <node id="-534" visible="true" lat="42.76528606" lon="-73.13362849">
    <tag k="addr:city" v="Stamford"/>
    <tag k="addr:housenumber" v="1550"/>
    <tag k="addr:street" v="Risky Ranch Road"/>
    <tag k="addr:state" v="VT"/>
    <tag k="ref:vcgi:esiteid" v="328776"/>
  </node>
  <node id="-535" visible="true" lat="42.76773485" lon="-73.13494193">
    <tag k="addr:city" v="Stamford"/>
    <tag k="addr:housenumber" v="1751"/>
    <tag k="addr:street" v="Risky Ranch Road"/>
    <tag k="addr:state" v="VT"/>
    <tag k="ref:vcgi:esiteid" v="328777"/>
  </node>
  <node id="-536" visible="true" lat="42.7570814" lon="-73.13020281">
    <tag k="addr:city" v="Stamford"/>
    <tag k="addr:housenumber" v="900"/>
    <tag k="addr:street" v="Risky Ranch Road"/>
    <tag k="addr:state" v="VT"/>
    <tag k="ref:vcgi:esiteid" v="328778"/>
  </node>
  <node id="-541" visible="true" lat="42.74625509" lon="-73.09473998">
    <tag k="addr:city" v="Stamford"/>
    <tag k="addr:housenumber" v="370"/>
    <tag k="addr:street" v="Boulger Road"/>
    <tag k="addr:state" v="VT"/>
    <tag k="ref:vcgi:esiteid" v="334995"/>
  </node>
  <node id="-542" visible="true" lat="42.8180182" lon="-73.02579581">
    <tag k="addr:city" v="Stamford"/>
    <tag k="addr:housenumber" v="78"/>
    <tag k="addr:street" v="Erfreulichblick Circle"/>
    <tag k="addr:state" v="VT"/>
    <tag k="ref:vcgi:esiteid" v="336996"/>
  </node>
  <node id="-544" visible="true" lat="42.77222119" lon="-73.12062895">
    <tag k="addr:city" v="Stamford"/>
    <tag k="addr:housenumber" v="2020"/>
    <tag k="addr:street" v="County Road"/>
    <tag k="addr:state" v="VT"/>
    <tag k="ref:vcgi:esiteid" v="337630"/>
  </node>
  <node id="-545" visible="true" lat="42.79364556" lon="-73.030102">
    <tag k="addr:city" v="Stamford"/>
    <tag k="addr:housenumber" v="16"/>
    <tag k="addr:street" v="Collins Road"/>
    <tag k="addr:state" v="VT"/>
    <tag k="ref:vcgi:esiteid" v="337631"/>
  </node>
  <node id="-547" visible="true" lat="42.76701008" lon="-73.07829736">
    <tag k="addr:city" v="Stamford"/>
    <tag k="addr:housenumber" v="265"/>
    <tag k="addr:street" v="Tatro Road"/>
    <tag k="addr:state" v="VT"/>
    <tag k="ref:vcgi:esiteid" v="338195"/>
  </node>
  <node id="-548" visible="true" lat="42.82008681" lon="-73.02633258">
    <tag k="addr:city" v="Stamford"/>
    <tag k="addr:housenumber" v="32"/>
    <tag k="addr:street" v="Lebensanschauung Circle"/>
    <tag k="addr:state" v="VT"/>
    <tag k="ref:vcgi:esiteid" v="338196"/>
  </node>
  <node id="-549" visible="true" lat="42.74566829" lon="-73.09583308">
    <tag k="addr:city" v="Stamford"/>
    <tag k="addr:housenumber" v="410"/>
    <tag k="addr:street" v="Boulger Road"/>
    <tag k="addr:state" v="VT"/>
    <tag k="ref:vcgi:esiteid" v="338540"/>
  </node>
  <node id="-550" visible="true" lat="42.82035087" lon="-73.02171296">
    <tag k="addr:city" v="Stamford"/>
    <tag k="addr:housenumber" v="241"/>
    <tag k="addr:street" v="Bergabhang Drive"/>
    <tag k="addr:state" v="VT"/>
    <tag k="ref:vcgi:esiteid" v="338918"/>
  </node>
  <node id="-552" visible="true" lat="42.81625279" lon="-73.02247922">
    <tag k="addr:city" v="Stamford"/>
    <tag k="addr:housenumber" v="690"/>
    <tag k="addr:street" v="Bergrucken Lane"/>
    <tag k="addr:state" v="VT"/>
    <tag k="ref:vcgi:esiteid" v="340222"/>
  </node>
  <node id="-554" visible="true" lat="42.75100071" lon="-73.09902409">
    <tag k="addr:city" v="Stamford"/>
    <tag k="addr:housenumber" v="760"/>
    <tag k="addr:street" v="Boulger Road"/>
    <tag k="addr:state" v="VT"/>
    <tag k="ref:vcgi:esiteid" v="340314"/>
  </node>
  <node id="-555" visible="true" lat="42.77334634" lon="-73.12325541">
    <tag k="addr:city" v="Stamford"/>
    <tag k="addr:housenumber" v="2118"/>
    <tag k="addr:street" v="County Road"/>
    <tag k="addr:state" v="VT"/>
    <tag k="ref:vcgi:esiteid" v="340787"/>
  </node>
  <node id="-557" visible="true" lat="42.82090703" lon="-73.02780264">
    <tag k="addr:city" v="Stamford"/>
    <tag k="addr:housenumber" v="814"/>
    <tag k="addr:street" v="Oberhugel Road"/>
    <tag k="addr:state" v="VT"/>
    <tag k="ref:vcgi:esiteid" v="344321"/>
  </node>
  <node id="-558" visible="true" lat="42.74833671" lon="-73.08260117">
    <tag k="addr:city" v="Stamford"/>
    <tag k="addr:housenumber" v="855"/>
    <tag k="addr:street" v="Jepson Road"/>
    <tag k="addr:state" v="VT"/>
    <tag k="ref:vcgi:esiteid" v="344360"/>
  </node>
  <node id="-559" visible="true" lat="42.77233532" lon="-73.11175451">
    <tag k="addr:city" v="Stamford"/>
    <tag k="addr:housenumber" v="1556"/>
    <tag k="addr:street" v="County Road"/>
    <tag k="addr:state" v="VT"/>
    <tag k="ref:vcgi:esiteid" v="345652"/>
  </node>
  <node id="-563" visible="true" lat="42.75402065" lon="-73.08691544">
    <tag k="addr:city" v="Stamford"/>
    <tag k="addr:housenumber" v="590"/>
    <tag k="addr:street" v="Lesure Road"/>
    <tag k="addr:state" v="VT"/>
    <tag k="ref:vcgi:esiteid" v="451576"/>
  </node>
  <node id="-565" visible="true" lat="42.77412411" lon="-73.1305687">
    <tag k="addr:city" v="Stamford"/>
    <tag k="addr:housenumber" v="2500"/>
    <tag k="addr:street" v="County Road"/>
    <tag k="addr:state" v="VT"/>
    <tag k="ref:vcgi:esiteid" v="453205"/>
  </node>
  <node id="-572" visible="true" lat="42.75976258" lon="-73.07776386">
    <tag k="addr:city" v="Stamford"/>
    <tag k="addr:housenumber" v="615"/>
    <tag k="addr:street" v="Mill Road"/>
    <tag k="addr:state" v="VT"/>
    <tag k="ref:vcgi:esiteid" v="453243"/>
  </node>
  <node id="-573" visible="true" lat="42.75648766" lon="-73.0875667">
    <tag k="addr:city" v="Stamford"/>
    <tag k="addr:housenumber" v="774"/>
    <tag k="addr:street" v="Lesure Road"/>
    <tag k="addr:state" v="VT"/>
    <tag k="ref:vcgi:esiteid" v="455386"/>
  </node>
</osm>
