<?xml version="1.0" encoding="UTF-8"?>
<osm version="0.6" generator="JOSM" upload="false">
  <node id="-100" visible="true" lat="44.51847297" lon="-72.14218699">
    <tag k="addr:housenumber" v="501"/>
    <tag k="addr:street" v="Horne Road"/>
    <tag k="addr:state" v="VT"/>
    <tag k="ref:vcgi:esiteid" v="13"/>
  </node>
  <node id="-103" visible="true" lat="44.57071947" lon="-72.2370025">
    <tag k="addr:housenumber" v="8"/>
    <tag k="addr:street" v="Perrin Lane"/>
    <tag k="addr:state" v="VT"/>
    <tag k="ref:vcgi:esiteid" v="247756"/>
  </node>
  <node id="-105" visible="true" lat="44.5698493" lon="-72.2391299">
    <tag k="addr:housenumber" v="256"/>
    <tag k="addr:street" v="Batchelder Road"/>
    <tag k="addr:state" v="VT"/>
    <tag k="ref:vcgi:esiteid" v="247758"/>
  </node>
  <node id="-106" visible="true" lat="44.56374942" lon="-72.24247112">
    <tag k="addr:housenumber" v="159"/>
    <tag k="addr:street" v="Batchelder Road"/>
    <tag k="addr:state" v="VT"/>
    <tag k="ref:vcgi:esiteid" v="247759"/>
  </node>
  <node id="-108" visible="true" lat="44.56062886" lon="-72.24452478">
    <tag k="addr:housenumber" v="108"/>
    <tag k="addr:street" v="Batchelder Road"/>
    <tag k="addr:state" v="VT"/>
    <tag k="ref:vcgi:esiteid" v="247761"/>
  </node>
  <node id="-109" visible="true" lat="44.5586762" lon="-72.24712265">
    <tag k="addr:housenumber" v="69"/>
    <tag k="addr:street" v="Batchelder Road"/>
    <tag k="addr:state" v="VT"/>
    <tag k="ref:vcgi:esiteid" v="247762"/>
  </node>
  <node id="-111" visible="true" lat="44.55687257" lon="-72.24713879">
    <tag k="addr:housenumber" v="46"/>
    <tag k="addr:street" v="Batchelder Road"/>
    <tag k="addr:state" v="VT"/>
    <tag k="ref:vcgi:esiteid" v="247764"/>
  </node>
  <node id="-112" visible="true" lat="44.55619228" lon="-72.24907324">
    <tag k="addr:housenumber" v="29"/>
    <tag k="addr:street" v="Batchelder Road"/>
    <tag k="addr:state" v="VT"/>
    <tag k="ref:vcgi:esiteid" v="247765"/>
  </node>
  <node id="-114" visible="true" lat="44.55336568" lon="-72.24814466">
    <tag k="addr:housenumber" v="12"/>
    <tag k="addr:street" v="Norway Road"/>
    <tag k="addr:state" v="VT"/>
    <tag k="ref:vcgi:esiteid" v="247767"/>
  </node>
  <node id="-121" visible="true" lat="44.54846836" lon="-72.25304384">
    <tag k="addr:housenumber" v="158"/>
    <tag k="addr:street" v="Tousant Hill Road"/>
    <tag k="addr:state" v="VT"/>
    <tag k="ref:vcgi:esiteid" v="247774"/>
  </node>
  <node id="-129" visible="true" lat="44.54814442" lon="-72.2546518">
    <tag k="addr:housenumber" v="137"/>
    <tag k="addr:street" v="Tousant Hill Road"/>
    <tag k="addr:state" v="VT"/>
    <tag k="ref:vcgi:esiteid" v="247782"/>
  </node>
  <node id="-130" visible="true" lat="44.5485952" lon="-72.25389239">
    <tag k="addr:housenumber" v="145"/>
    <tag k="addr:street" v="Tousant Hill Road"/>
    <tag k="addr:state" v="VT"/>
    <tag k="ref:vcgi:esiteid" v="247783"/>
  </node>
  <node id="-132" visible="true" lat="44.54780958" lon="-72.25533997">
    <tag k="addr:housenumber" v="127"/>
    <tag k="addr:street" v="Tousant Hill Road"/>
    <tag k="addr:state" v="VT"/>
    <tag k="ref:vcgi:esiteid" v="247785"/>
  </node>
  <node id="-133" visible="true" lat="44.54521894" lon="-72.25897586">
    <tag k="addr:housenumber" v="65"/>
    <tag k="addr:street" v="Tousant Hill Road"/>
    <tag k="addr:state" v="VT"/>
    <tag k="ref:vcgi:esiteid" v="247786"/>
  </node>
  <node id="-140" visible="true" lat="44.54412675" lon="-72.26045367">
    <tag k="addr:housenumber" v="54"/>
    <tag k="addr:street" v="Tousant Hill Road"/>
    <tag k="addr:state" v="VT"/>
    <tag k="ref:vcgi:esiteid" v="247793"/>
  </node>
  <node id="-141" visible="true" lat="44.54457561" lon="-72.25596531">
    <tag k="addr:housenumber" v="28"/>
    <tag k="addr:street" v="Penny Lane"/>
    <tag k="addr:state" v="VT"/>
    <tag k="ref:vcgi:esiteid" v="247794"/>
  </node>
  <node id="-142" visible="true" lat="44.54444374" lon="-72.25554134">
    <tag k="addr:housenumber" v="34"/>
    <tag k="addr:street" v="Penny Lane"/>
    <tag k="addr:state" v="VT"/>
    <tag k="ref:vcgi:esiteid" v="247795"/>
  </node>
  <node id="-143" visible="true" lat="44.5443534" lon="-72.25505062">
    <tag k="addr:housenumber" v="36"/>
    <tag k="addr:street" v="Penny Lane"/>
    <tag k="addr:state" v="VT"/>
    <tag k="ref:vcgi:esiteid" v="247796"/>
  </node>
  <node id="-144" visible="true" lat="44.54012431" lon="-72.25381156">
    <tag k="addr:housenumber" v="57"/>
    <tag k="addr:street" v="Hutchins Farm Road"/>
    <tag k="addr:state" v="VT"/>
    <tag k="ref:vcgi:esiteid" v="247797"/>
  </node>
  <node id="-146" visible="true" lat="44.56889423" lon="-72.24058312">
    <tag k="addr:housenumber" v="237"/>
    <tag k="addr:street" v="Batchelder Road"/>
    <tag k="addr:state" v="VT"/>
    <tag k="ref:vcgi:esiteid" v="247799"/>
  </node>
  <node id="-147" visible="true" lat="44.57025857" lon="-72.23334049">
    <tag k="addr:housenumber" v="176"/>
    <tag k="addr:street" v="Gonyaw Road"/>
    <tag k="addr:state" v="VT"/>
    <tag k="ref:vcgi:esiteid" v="247800"/>
  </node>
  <node id="-149" visible="true" lat="44.57103758" lon="-72.23300383">
    <tag k="addr:housenumber" v="182"/>
    <tag k="addr:street" v="Gonyaw Road"/>
    <tag k="addr:state" v="VT"/>
    <tag k="ref:vcgi:esiteid" v="247802"/>
  </node>
  <node id="-150" visible="true" lat="44.57025032" lon="-72.23235789">
    <tag k="addr:housenumber" v="190"/>
    <tag k="addr:street" v="Gonyaw Road"/>
    <tag k="addr:state" v="VT"/>
    <tag k="ref:vcgi:esiteid" v="247803"/>
  </node>
  <node id="-151" visible="true" lat="44.5691952" lon="-72.22919835">
    <tag k="addr:housenumber" v="227"/>
    <tag k="addr:street" v="Gonyaw Road"/>
    <tag k="addr:state" v="VT"/>
    <tag k="ref:vcgi:esiteid" v="247804"/>
  </node>
  <node id="-152" visible="true" lat="44.56926933" lon="-72.23033885">
    <tag k="addr:housenumber" v="220"/>
    <tag k="addr:street" v="Gonyaw Road"/>
    <tag k="addr:state" v="VT"/>
    <tag k="ref:vcgi:esiteid" v="247805"/>
  </node>
  <node id="-154" visible="true" lat="44.56809877" lon="-72.22872047">
    <tag k="addr:housenumber" v="244"/>
    <tag k="addr:street" v="Gonyaw Road"/>
    <tag k="addr:state" v="VT"/>
    <tag k="ref:vcgi:esiteid" v="247807"/>
  </node>
  <node id="-155" visible="true" lat="44.56757143" lon="-72.22724902">
    <tag k="addr:housenumber" v="258"/>
    <tag k="addr:street" v="Gonyaw Road"/>
    <tag k="addr:state" v="VT"/>
    <tag k="ref:vcgi:esiteid" v="247808"/>
  </node>
  <node id="-157" visible="true" lat="44.56124929" lon="-72.21490588">
    <tag k="addr:housenumber" v="87"/>
    <tag k="addr:street" v="Flagg Pond Road"/>
    <tag k="addr:state" v="VT"/>
    <tag k="ref:vcgi:esiteid" v="247810"/>
  </node>
  <node id="-158" visible="true" lat="44.55602833" lon="-72.22443068">
    <tag k="addr:housenumber" v="63"/>
    <tag k="addr:street" v="Winchester Road"/>
    <tag k="addr:state" v="VT"/>
    <tag k="ref:vcgi:esiteid" v="247811"/>
  </node>
  <node id="-159" visible="true" lat="44.55603937" lon="-72.22407263">
    <tag k="addr:housenumber" v="64"/>
    <tag k="addr:street" v="Winchester Road"/>
    <tag k="addr:state" v="VT"/>
    <tag k="ref:vcgi:esiteid" v="247812"/>
  </node>
  <node id="-161" visible="true" lat="44.55783077" lon="-72.21662933">
    <tag k="addr:housenumber" v="139"/>
    <tag k="addr:street" v="Flagg Pond Road"/>
    <tag k="addr:state" v="VT"/>
    <tag k="ref:vcgi:esiteid" v="247814"/>
  </node>
  <node id="-163" visible="true" lat="44.55353555" lon="-72.21730786">
    <tag k="addr:housenumber" v="30"/>
    <tag k="addr:street" v="Batten Road"/>
    <tag k="addr:state" v="VT"/>
    <tag k="ref:vcgi:esiteid" v="247816"/>
  </node>
  <node id="-164" visible="true" lat="44.55408562" lon="-72.22221462">
    <tag k="addr:housenumber" v="26"/>
    <tag k="addr:street" v="Winchester Road"/>
    <tag k="addr:state" v="VT"/>
    <tag k="ref:vcgi:esiteid" v="247817"/>
  </node>
  <node id="-174" visible="true" lat="44.54608631" lon="-72.23266393">
    <tag k="addr:housenumber" v="41"/>
    <tag k="addr:street" v="Old Pasture Road"/>
    <tag k="addr:state" v="VT"/>
    <tag k="ref:vcgi:esiteid" v="247827"/>
  </node>
  <node id="-175" visible="true" lat="44.54818156" lon="-72.23135574">
    <tag k="addr:housenumber" v="393"/>
    <tag k="addr:street" v="Stannard Mountain Road"/>
    <tag k="addr:state" v="VT"/>
    <tag k="ref:vcgi:esiteid" v="247828"/>
  </node>
  <node id="-177" visible="true" lat="44.54998768" lon="-72.22487925">
    <tag k="addr:housenumber" v="292"/>
    <tag k="addr:street" v="Flagg Pond Road"/>
    <tag k="addr:state" v="VT"/>
    <tag k="ref:vcgi:esiteid" v="247830"/>
  </node>
  <node id="-181" visible="true" lat="44.54908976" lon="-72.20862608">
    <tag k="addr:housenumber" v="95"/>
    <tag k="addr:street" v="Olney Road"/>
    <tag k="addr:state" v="VT"/>
    <tag k="ref:vcgi:esiteid" v="247834"/>
  </node>
  <node id="-183" visible="true" lat="44.54333654" lon="-72.19312304">
    <tag k="addr:housenumber" v="152"/>
    <tag k="addr:street" v="Sheppard Road"/>
    <tag k="addr:state" v="VT"/>
    <tag k="ref:vcgi:esiteid" v="247836"/>
  </node>
  <node id="-184" visible="true" lat="44.54464192" lon="-72.20284515">
    <tag k="addr:housenumber" v="9"/>
    <tag k="addr:street" v="Willy Road"/>
    <tag k="addr:state" v="VT"/>
    <tag k="ref:vcgi:esiteid" v="247837"/>
  </node>
  <node id="-187" visible="true" lat="44.54710023" lon="-72.20158142">
    <tag k="addr:housenumber" v="50"/>
    <tag k="addr:street" v="Willy Road"/>
    <tag k="addr:state" v="VT"/>
    <tag k="ref:vcgi:esiteid" v="247840"/>
  </node>
  <node id="-189" visible="true" lat="44.54537879" lon="-72.19552208">
    <tag k="addr:housenumber" v="801"/>
    <tag k="addr:street" v="Stannard Mountain Road"/>
    <tag k="addr:state" v="VT"/>
    <tag k="ref:vcgi:esiteid" v="247842"/>
  </node>
  <node id="-191" visible="true" lat="44.54325081" lon="-72.20120155">
    <tag k="addr:housenumber" v="33"/>
    <tag k="addr:street" v="Hall Road"/>
    <tag k="addr:state" v="VT"/>
    <tag k="ref:vcgi:esiteid" v="247844"/>
  </node>
  <node id="-192" visible="true" lat="44.54241504" lon="-72.19578724">
    <tag k="addr:housenumber" v="78"/>
    <tag k="addr:street" v="Sheppard Road"/>
    <tag k="addr:state" v="VT"/>
    <tag k="ref:vcgi:esiteid" v="247845"/>
  </node>
  <node id="-193" visible="true" lat="44.54308279" lon="-72.20296909">
    <tag k="addr:housenumber" v="20"/>
    <tag k="addr:street" v="Hall Road"/>
    <tag k="addr:state" v="VT"/>
    <tag k="ref:vcgi:esiteid" v="247846"/>
  </node>
  <node id="-194" visible="true" lat="44.54356211" lon="-72.20416526">
    <tag k="addr:housenumber" v="4"/>
    <tag k="addr:street" v="Hall Road"/>
    <tag k="addr:state" v="VT"/>
    <tag k="ref:vcgi:esiteid" v="247847"/>
  </node>
  <node id="-195" visible="true" lat="44.54378674" lon="-72.20586215">
    <tag k="addr:housenumber" v="691"/>
    <tag k="addr:street" v="Stannard Mountain Road"/>
    <tag k="addr:state" v="VT"/>
    <tag k="ref:vcgi:esiteid" v="247848"/>
  </node>
  <node id="-196" visible="true" lat="44.54339613" lon="-72.21141598">
    <tag k="addr:housenumber" v="10"/>
    <tag k="addr:street" v="Olney Road"/>
    <tag k="addr:state" v="VT"/>
    <tag k="ref:vcgi:esiteid" v="247849"/>
  </node>
  <node id="-197" visible="true" lat="44.54242813" lon="-72.21232802">
    <tag k="addr:housenumber" v="620"/>
    <tag k="addr:street" v="Stannard Mountain Road"/>
    <tag k="addr:state" v="VT"/>
    <tag k="ref:vcgi:esiteid" v="247850"/>
  </node>
  <node id="-198" visible="true" lat="44.54281099" lon="-72.21307525">
    <tag k="addr:housenumber" v="615"/>
    <tag k="addr:street" v="Stannard Mountain Road"/>
    <tag k="addr:state" v="VT"/>
    <tag k="ref:vcgi:esiteid" v="247851"/>
  </node>
  <node id="-200" visible="true" lat="44.54255718" lon="-72.21393382">
    <tag k="addr:housenumber" v="605"/>
    <tag k="addr:street" v="Stannard Mountain Road"/>
    <tag k="addr:state" v="VT"/>
    <tag k="ref:vcgi:esiteid" v="247853"/>
  </node>
  <node id="-201" visible="true" lat="44.54306603" lon="-72.21270776">
    <tag k="addr:housenumber" v="621"/>
    <tag k="addr:street" v="Stannard Mountain Road"/>
    <tag k="addr:state" v="VT"/>
    <tag k="ref:vcgi:esiteid" v="247854"/>
  </node>
  <node id="-202" visible="true" lat="44.54172083" lon="-72.21512816">
    <tag k="addr:housenumber" v="12"/>
    <tag k="addr:street" v="Lazy Mill Road"/>
    <tag k="addr:state" v="VT"/>
    <tag k="ref:vcgi:esiteid" v="247855"/>
  </node>
  <node id="-204" visible="true" lat="44.54264411" lon="-72.21537337">
    <tag k="addr:housenumber" v="589"/>
    <tag k="addr:street" v="Stannard Mountain Road"/>
    <tag k="addr:state" v="VT"/>
    <tag k="ref:vcgi:esiteid" v="247857"/>
  </node>
  <node id="-208" visible="true" lat="44.54293215" lon="-72.23106188">
    <tag k="addr:housenumber" v="92"/>
    <tag k="addr:street" v="Old Pasture Road"/>
    <tag k="addr:state" v="VT"/>
    <tag k="ref:vcgi:esiteid" v="247862"/>
  </node>
  <node id="-210" visible="true" lat="44.53937131" lon="-72.25434953">
    <tag k="addr:housenumber" v="52"/>
    <tag k="addr:street" v="Hutchins Farm Road"/>
    <tag k="addr:state" v="VT"/>
    <tag k="ref:vcgi:esiteid" v="247864"/>
  </node>
  <node id="-212" visible="true" lat="44.54084605" lon="-72.24817787">
    <tag k="addr:housenumber" v="117"/>
    <tag k="addr:street" v="Hutchins Farm Road"/>
    <tag k="addr:state" v="VT"/>
    <tag k="ref:vcgi:esiteid" v="247866"/>
  </node>
  <node id="-213" visible="true" lat="44.5389535" lon="-72.24568081">
    <tag k="addr:housenumber" v="155"/>
    <tag k="addr:street" v="Hutchins Farm Road"/>
    <tag k="addr:state" v="VT"/>
    <tag k="ref:vcgi:esiteid" v="247867"/>
  </node>
  <node id="-215" visible="true" lat="44.53763186" lon="-72.24561997">
    <tag k="addr:housenumber" v="156"/>
    <tag k="addr:street" v="Hutchins Farm Road"/>
    <tag k="addr:state" v="VT"/>
    <tag k="ref:vcgi:esiteid" v="247869"/>
  </node>
  <node id="-218" visible="true" lat="44.53785723" lon="-72.24258948">
    <tag k="addr:housenumber" v="191"/>
    <tag k="addr:street" v="Hutchins Farm Road"/>
    <tag k="addr:state" v="VT"/>
    <tag k="ref:vcgi:esiteid" v="247872"/>
  </node>
  <node id="-220" visible="true" lat="44.53699219" lon="-72.23913104">
    <tag k="addr:housenumber" v="235"/>
    <tag k="addr:street" v="Hutchins Farm Road"/>
    <tag k="addr:state" v="VT"/>
    <tag k="ref:vcgi:esiteid" v="247874"/>
  </node>
  <node id="-223" visible="true" lat="44.53739534" lon="-72.23327001">
    <tag k="addr:housenumber" v="251"/>
    <tag k="addr:street" v="Hutchins Farm Road"/>
    <tag k="addr:state" v="VT"/>
    <tag k="ref:vcgi:esiteid" v="247877"/>
  </node>
  <node id="-227" visible="true" lat="44.53635462" lon="-72.21687511">
    <tag k="addr:housenumber" v="25"/>
    <tag k="addr:street" v="Silver Road"/>
    <tag k="addr:state" v="VT"/>
    <tag k="ref:vcgi:esiteid" v="247881"/>
  </node>
  <node id="-229" visible="true" lat="44.5348036" lon="-72.21626044">
    <tag k="addr:housenumber" v="48"/>
    <tag k="addr:street" v="Silver Road"/>
    <tag k="addr:state" v="VT"/>
    <tag k="ref:vcgi:esiteid" v="247883"/>
  </node>
  <node id="-230" visible="true" lat="44.5337783" lon="-72.20282082">
    <tag k="addr:housenumber" v="33"/>
    <tag k="addr:street" v="Sabin Road"/>
    <tag k="addr:state" v="VT"/>
    <tag k="ref:vcgi:esiteid" v="247884"/>
  </node>
  <node id="-232" visible="true" lat="44.53357506" lon="-72.20710364">
    <tag k="addr:housenumber" v="169"/>
    <tag k="addr:street" v="Silver Road"/>
    <tag k="addr:state" v="VT"/>
    <tag k="ref:vcgi:esiteid" v="247886"/>
  </node>
  <node id="-235" visible="true" lat="44.53497332" lon="-72.20569846">
    <tag k="addr:housenumber" v="196"/>
    <tag k="addr:street" v="Silver Road"/>
    <tag k="addr:state" v="VT"/>
    <tag k="ref:vcgi:esiteid" v="247889"/>
  </node>
  <node id="-237" visible="true" lat="44.53496779" lon="-72.20356379">
    <tag k="addr:housenumber" v="15"/>
    <tag k="addr:street" v="Sabin Road"/>
    <tag k="addr:state" v="VT"/>
    <tag k="ref:vcgi:esiteid" v="247891"/>
  </node>
  <node id="-238" visible="true" lat="44.53264867" lon="-72.21148986">
    <tag k="addr:housenumber" v="101"/>
    <tag k="addr:street" v="Silver Road"/>
    <tag k="addr:state" v="VT"/>
    <tag k="ref:vcgi:esiteid" v="247892"/>
  </node>
  <node id="-239" visible="true" lat="44.53287363" lon="-72.21217533">
    <tag k="addr:housenumber" v="99"/>
    <tag k="addr:street" v="Silver Road"/>
    <tag k="addr:state" v="VT"/>
    <tag k="ref:vcgi:esiteid" v="247893"/>
  </node>
  <node id="-241" visible="true" lat="44.5308438" lon="-72.22923677">
    <tag k="addr:housenumber" v="231"/>
    <tag k="addr:street" v="Lazy Mill Road"/>
    <tag k="addr:state" v="VT"/>
    <tag k="ref:vcgi:esiteid" v="247895"/>
  </node>
  <node id="-247" visible="true" lat="44.5387017" lon="-72.19368463">
    <tag k="addr:housenumber" v="351"/>
    <tag k="addr:street" v="Sheppard Road"/>
    <tag k="addr:state" v="VT"/>
    <tag k="ref:vcgi:esiteid" v="247902"/>
  </node>
  <node id="-248" visible="true" lat="44.5362624" lon="-72.23922929">
    <tag k="addr:housenumber" v="232"/>
    <tag k="addr:street" v="Hutchins Farm Road"/>
    <tag k="addr:state" v="VT"/>
    <tag k="ref:vcgi:esiteid" v="247904"/>
  </node>
  <node id="-257" visible="true" lat="44.55007854" lon="-72.22343017">
    <tag k="addr:housenumber" v="287"/>
    <tag k="addr:street" v="Flagg Pond Road"/>
    <tag k="addr:state" v="VT"/>
    <tag k="ref:vcgi:esiteid" v="247913"/>
  </node>
  <node id="-259" visible="true" lat="44.55355515" lon="-72.24969893">
    <tag k="addr:housenumber" v="221"/>
    <tag k="addr:street" v="Tousant Hill Road"/>
    <tag k="addr:state" v="VT"/>
    <tag k="ref:vcgi:esiteid" v="247915"/>
  </node>
  <node id="-260" visible="true" lat="44.54474567" lon="-72.25831546">
    <tag k="addr:housenumber" v="66"/>
    <tag k="addr:street" v="Tousant Hill Road"/>
    <tag k="addr:state" v="VT"/>
    <tag k="ref:vcgi:esiteid" v="247916"/>
  </node>
  <node id="-262" visible="true" lat="44.53854174" lon="-72.21806785">
    <tag k="addr:housenumber" v="42"/>
    <tag k="addr:street" v="Lazy Mill Road"/>
    <tag k="addr:state" v="VT"/>
    <tag k="ref:vcgi:esiteid" v="247918"/>
  </node>
  <node id="-263" visible="true" lat="44.54723737" lon="-72.25589009">
    <tag k="addr:housenumber" v="123"/>
    <tag k="addr:street" v="Tousant Hill Road"/>
    <tag k="addr:state" v="VT"/>
    <tag k="ref:vcgi:esiteid" v="247919"/>
  </node>
  <node id="-264" visible="true" lat="44.54677273" lon="-72.25646341">
    <tag k="addr:housenumber" v="119"/>
    <tag k="addr:street" v="Tousant Hill Road"/>
    <tag k="addr:state" v="VT"/>
    <tag k="ref:vcgi:esiteid" v="247920"/>
  </node>
  <node id="-265" visible="true" lat="44.54639905" lon="-72.25731309">
    <tag k="addr:housenumber" v="105"/>
    <tag k="addr:street" v="Tousant Hill Road"/>
    <tag k="addr:state" v="VT"/>
    <tag k="ref:vcgi:esiteid" v="247921"/>
  </node>
  <node id="-266" visible="true" lat="44.53358254" lon="-72.21579508">
    <tag k="addr:housenumber" v="12"/>
    <tag k="addr:street" v="Ransom Road"/>
    <tag k="addr:state" v="VT"/>
    <tag k="ref:vcgi:esiteid" v="247922"/>
  </node>
  <node id="-270" visible="true" lat="44.56583878" lon="-72.24185597">
    <tag k="addr:housenumber" v="185"/>
    <tag k="addr:street" v="Batchelder Road"/>
    <tag k="addr:state" v="VT"/>
    <tag k="ref:vcgi:esiteid" v="247926"/>
  </node>
  <node id="-273" visible="true" lat="44.54484557" lon="-72.26014176">
    <tag k="addr:housenumber" v="55"/>
    <tag k="addr:street" v="Tousant Hill Road"/>
    <tag k="addr:state" v="VT"/>
    <tag k="ref:vcgi:esiteid" v="247929"/>
  </node>
  <node id="-275" visible="true" lat="44.55118943" lon="-72.19444191">
    <tag k="addr:housenumber" v="3098"/>
    <tag k="addr:street" v="Stannard Mountain Road"/>
    <tag k="addr:state" v="VT"/>
    <tag k="ref:vcgi:esiteid" v="285790"/>
  </node>
  <node id="-276" visible="true" lat="44.52289713" lon="-72.14539795">
    <tag k="addr:housenumber" v="478"/>
    <tag k="addr:street" v="Horne Road"/>
    <tag k="addr:state" v="VT"/>
    <tag k="ref:vcgi:esiteid" v="285856"/>
  </node>
  <node id="-277" visible="true" lat="44.52106984" lon="-72.14255456">
    <tag k="addr:housenumber" v="502"/>
    <tag k="addr:street" v="Horne Road"/>
    <tag k="addr:state" v="VT"/>
    <tag k="ref:vcgi:esiteid" v="285858"/>
  </node>
  <node id="-278" visible="true" lat="44.54362067" lon="-72.19207132">
    <tag k="addr:housenumber" v="135"/>
    <tag k="addr:street" v="Sheppard Road"/>
    <tag k="addr:state" v="VT"/>
    <tag k="ref:vcgi:esiteid" v="305551"/>
  </node>
  <node id="-279" visible="true" lat="44.54657093" lon="-72.25542237">
    <tag k="addr:housenumber" v="126"/>
    <tag k="addr:street" v="Tousant Hill Road"/>
    <tag k="addr:state" v="VT"/>
    <tag k="ref:vcgi:esiteid" v="306294"/>
  </node>
  <node id="-280" visible="true" lat="44.55326054" lon="-72.24862483">
    <tag k="addr:housenumber" v="218"/>
    <tag k="addr:street" v="Tousant Hill Road"/>
    <tag k="addr:state" v="VT"/>
    <tag k="ref:vcgi:esiteid" v="309263"/>
  </node>
  <node id="-281" visible="true" lat="44.54716602" lon="-72.22511554">
    <tag k="addr:housenumber" v="443"/>
    <tag k="addr:street" v="Stannard Mountain Road"/>
    <tag k="addr:state" v="VT"/>
    <tag k="ref:vcgi:esiteid" v="310893"/>
  </node>
  <node id="-282" visible="true" lat="44.53623733" lon="-72.21830758">
    <tag k="addr:housenumber" v="26"/>
    <tag k="addr:street" v="Silver Road"/>
    <tag k="addr:state" v="VT"/>
    <tag k="ref:vcgi:esiteid" v="326334"/>
  </node>
  <node id="-284" visible="true" lat="44.56281219" lon="-72.21700925">
    <tag k="addr:housenumber" v="34"/>
    <tag k="addr:street" v="Flagg Pond Road"/>
    <tag k="addr:state" v="VT"/>
    <tag k="ref:vcgi:esiteid" v="335429"/>
  </node>
  <node id="-285" visible="true" lat="44.54830888" lon="-72.22575772">
    <tag k="addr:housenumber" v="391"/>
    <tag k="addr:street" v="Flagg Pond Road"/>
    <tag k="addr:state" v="VT"/>
    <tag k="ref:vcgi:esiteid" v="336230"/>
  </node>
  <node id="-292" visible="true" lat="44.55212358" lon="-72.22023243">
    <tag k="addr:housenumber" v="205"/>
    <tag k="addr:street" v="Flagg Pond Road"/>
    <tag k="addr:state" v="VT"/>
    <tag k="ref:vcgi:esiteid" v="450883"/>
  </node>
  <node id="-294" visible="true" lat="44.53203875" lon="-72.20010175">
    <tag k="addr:housenumber" v="58"/>
    <tag k="addr:street" v="Sabin Road"/>
    <tag k="addr:state" v="VT"/>
    <tag k="ref:vcgi:esiteid" v="451158"/>
  </node>
</osm>
