<?xml version="1.0" encoding="UTF-8"?>
<osm version="0.6" generator="JOSM">
  <node id="-101" visible="true" lat="44.54224925" lon="-72.25983091">
    <tag k="addr:housenumber" v="40"/>
    <tag k="addr:street" v="Pine Woods Drive"/>
    <tag k="addr:state" v="VT"/>
    <tag k="ref:vcgi:esiteid" v="17"/>
  </node>
  <node id="-102" visible="true" lat="44.56194299" lon="-72.2149591">
    <tag k="addr:housenumber" v="77"/>
    <tag k="addr:street" v="Flagg Pond Road"/>
    <tag k="addr:state" v="VT"/>
    <tag k="ref:vcgi:esiteid" v="315"/>
  </node>
  <node id="-115" visible="true" lat="44.55154594" lon="-72.25031695">
    <tag k="addr:housenumber" v="205"/>
    <tag k="addr:street" v="Tousant Hill Road"/>
    <tag k="addr:state" v="VT"/>
    <tag k="ref:vcgi:esiteid" v="247768"/>
  </node>
  <node id="-117" visible="true" lat="44.5495524" lon="-72.25060018">
    <tag k="addr:housenumber" v="178"/>
    <tag k="addr:street" v="Tousant Hill Road"/>
    <tag k="addr:state" v="VT"/>
    <tag k="ref:vcgi:esiteid" v="247770"/>
  </node>
  <node id="-120" visible="true" lat="44.54994108" lon="-72.25201713">
    <tag k="addr:housenumber" v="173"/>
    <tag k="addr:street" v="Tousant Hill Road"/>
    <tag k="addr:state" v="VT"/>
    <tag k="ref:vcgi:esiteid" v="247773"/>
  </node>
  <node id="-134" visible="true" lat="44.54523439" lon="-72.25783543">
    <tag k="addr:housenumber" v="5"/>
    <tag k="addr:street" v="Penny Lane"/>
    <tag k="addr:state" v="VT"/>
    <tag k="ref:vcgi:esiteid" v="247787"/>
  </node>
  <node id="-138" visible="true" lat="44.54520094" lon="-72.2561042">
    <tag k="addr:housenumber" v="23"/>
    <tag k="addr:street" v="Penny Lane"/>
    <tag k="addr:state" v="VT"/>
    <tag k="ref:vcgi:esiteid" v="247791"/>
  </node>
  <node id="-145" visible="true" lat="44.55223895" lon="-72.24338768">
    <tag k="addr:housenumber" v="63"/>
    <tag k="addr:street" v="Norway Road"/>
    <tag k="addr:state" v="VT"/>
    <tag k="ref:vcgi:esiteid" v="247798"/>
  </node>
  <node id="-156" visible="true" lat="44.56688022" lon="-72.22324698">
    <tag k="addr:housenumber" v="302"/>
    <tag k="addr:street" v="Gonyaw Road"/>
    <tag k="addr:state" v="VT"/>
    <tag k="ref:vcgi:esiteid" v="247809"/>
  </node>
  <node id="-167" visible="true" lat="44.55408325" lon="-72.23887118">
    <tag k="addr:housenumber" v="97"/>
    <tag k="addr:street" v="Norway Road"/>
    <tag k="addr:state" v="VT"/>
    <tag k="ref:vcgi:esiteid" v="247820"/>
  </node>
  <node id="-168" visible="true" lat="44.55065015" lon="-72.24088445">
    <tag k="addr:housenumber" v="98"/>
    <tag k="addr:street" v="Norway Road"/>
    <tag k="addr:state" v="VT"/>
    <tag k="ref:vcgi:esiteid" v="247821"/>
  </node>
  <node id="-169" visible="true" lat="44.54997211" lon="-72.23722881">
    <tag k="addr:housenumber" v="139"/>
    <tag k="addr:street" v="Norway Road"/>
    <tag k="addr:state" v="VT"/>
    <tag k="ref:vcgi:esiteid" v="247822"/>
  </node>
  <node id="-170" visible="true" lat="44.54604183" lon="-72.24048037">
    <tag k="addr:housenumber" v="283"/>
    <tag k="addr:street" v="Stannard Mountain Road"/>
    <tag k="addr:state" v="VT"/>
    <tag k="ref:vcgi:esiteid" v="247823"/>
  </node>
  <node id="-171" visible="true" lat="44.54593223" lon="-72.23940706">
    <tag k="addr:housenumber" v="297"/>
    <tag k="addr:street" v="Stannard Mountain Road"/>
    <tag k="addr:state" v="VT"/>
    <tag k="ref:vcgi:esiteid" v="247824"/>
  </node>
  <node id="-172" visible="true" lat="44.54683991" lon="-72.2380545">
    <tag k="addr:housenumber" v="315"/>
    <tag k="addr:street" v="Stannard Mountain Road"/>
    <tag k="addr:state" v="VT"/>
    <tag k="ref:vcgi:esiteid" v="247825"/>
  </node>
  <node id="-179" visible="true" lat="44.5447016" lon="-72.21753757">
    <tag k="addr:housenumber" v="50"/>
    <tag k="addr:street" v="Ayer Lane"/>
    <tag k="addr:state" v="VT"/>
    <tag k="ref:vcgi:esiteid" v="247832"/>
  </node>
  <node id="-180" visible="true" lat="44.54473016" lon="-72.22189495">
    <tag k="addr:housenumber" v="512"/>
    <tag k="addr:street" v="Stannard Mountain Road"/>
    <tag k="addr:state" v="VT"/>
    <tag k="ref:vcgi:esiteid" v="247833"/>
  </node>
  <node id="-205" visible="true" lat="44.54315249" lon="-72.21633643">
    <tag k="addr:housenumber" v="575"/>
    <tag k="addr:street" v="Stannard Mountain Road"/>
    <tag k="addr:state" v="VT"/>
    <tag k="ref:vcgi:esiteid" v="247858"/>
  </node>
  <node id="-207" visible="true" lat="44.54189446" lon="-72.2179323">
    <tag k="addr:housenumber" v="20"/>
    <tag k="addr:street" v="Four Wheel Drive Road"/>
    <tag k="addr:state" v="VT"/>
    <tag k="ref:vcgi:esiteid" v="247860"/>
  </node>
  <node id="-216" visible="true" lat="44.53830269" lon="-72.24399728">
    <tag k="addr:housenumber" v="170"/>
    <tag k="addr:street" v="Hutchins Farm Road"/>
    <tag k="addr:state" v="VT"/>
    <tag k="ref:vcgi:esiteid" v="247870"/>
  </node>
  <node id="-217" visible="true" lat="44.53916958" lon="-72.24381551">
    <tag k="addr:housenumber" v="174"/>
    <tag k="addr:street" v="Hutchins Farm Road"/>
    <tag k="addr:state" v="VT"/>
    <tag k="ref:vcgi:esiteid" v="247871"/>
  </node>
  <node id="-222" visible="true" lat="44.53575454" lon="-72.23676465">
    <tag k="addr:housenumber" v="261"/>
    <tag k="addr:street" v="Hutchins Farm Road"/>
    <tag k="addr:state" v="VT"/>
    <tag k="ref:vcgi:esiteid" v="247876"/>
  </node>
  <node id="-234" visible="true" lat="44.53455679" lon="-72.20621492">
    <tag k="addr:housenumber" v="185"/>
    <tag k="addr:street" v="Silver Road"/>
    <tag k="addr:state" v="VT"/>
    <tag k="ref:vcgi:esiteid" v="247888"/>
  </node>
  <node id="-245" visible="true" lat="44.55208871" lon="-72.24455064">
    <tag k="addr:housenumber" v="56"/>
    <tag k="addr:street" v="Norway Road"/>
    <tag k="addr:state" v="VT"/>
    <tag k="ref:vcgi:esiteid" v="247900"/>
  </node>
  <node id="-249" visible="true" lat="44.53318316" lon="-72.22535192">
    <tag k="addr:housenumber" v="179"/>
    <tag k="addr:street" v="Lazy Mill Road"/>
    <tag k="addr:state" v="VT"/>
    <tag k="ref:vcgi:esiteid" v="247905"/>
  </node>
  <node id="-255" visible="true" lat="44.54447891" lon="-72.19197962">
    <tag k="addr:housenumber" v="111"/>
    <tag k="addr:street" v="Sheppard Road"/>
    <tag k="addr:state" v="VT"/>
    <tag k="ref:vcgi:esiteid" v="247911"/>
  </node>
  <node id="-256" visible="true" lat="44.54442821" lon="-72.19899103">
    <tag k="addr:housenumber" v="764"/>
    <tag k="addr:street" v="Stannard Mountain Road"/>
    <tag k="addr:state" v="VT"/>
    <tag k="ref:vcgi:esiteid" v="247912"/>
  </node>
  <node id="-258" visible="true" lat="44.5370052" lon="-72.20467448">
    <tag k="addr:housenumber" v="1"/>
    <tag k="addr:street" v="Sabin Road"/>
    <tag k="addr:state" v="VT"/>
    <tag k="ref:vcgi:esiteid" v="247914"/>
  </node>
  <node id="-261" visible="true" lat="44.53841012" lon="-72.24434918">
    <tag k="addr:housenumber" v="171"/>
    <tag k="addr:street" v="Hutchins Farm Road"/>
    <tag k="addr:state" v="VT"/>
    <tag k="ref:vcgi:esiteid" v="247917"/>
  </node>
  <node id="-268" visible="true" lat="44.54040706" lon="-72.25338466">
    <tag k="addr:housenumber" v="63"/>
    <tag k="addr:street" v="Hutchins Farm Road"/>
    <tag k="addr:state" v="VT"/>
    <tag k="ref:vcgi:esiteid" v="247924"/>
  </node>
  <node id="-269" visible="true" lat="44.54522096" lon="-72.25778302">
    <tag k="addr:housenumber" v="7"/>
    <tag k="addr:street" v="Penny Lane"/>
    <tag k="addr:state" v="VT"/>
    <tag k="ref:vcgi:esiteid" v="247925"/>
  </node>
  <node id="-283" visible="true" lat="44.54309516" lon="-72.21939071">
    <tag k="addr:housenumber" v="520"/>
    <tag k="addr:street" v="Stannard Mountain Road"/>
    <tag k="addr:state" v="VT"/>
    <tag k="ref:vcgi:esiteid" v="334267"/>
  </node>
  <node id="-286" visible="true" lat="44.54530341" lon="-72.25441969">
    <tag k="addr:housenumber" v="41"/>
    <tag k="addr:street" v="Penny Lane"/>
    <tag k="addr:state" v="VT"/>
    <tag k="ref:vcgi:esiteid" v="340061"/>
  </node>
  <node id="-287" visible="true" lat="44.54436248" lon="-72.25917106">
    <tag k="addr:housenumber" v="64"/>
    <tag k="addr:street" v="Tousant Hill Road"/>
    <tag k="addr:state" v="VT"/>
    <tag k="ref:vcgi:esiteid" v="345863"/>
  </node>
  <node id="-288" visible="true" lat="44.54431768" lon="-72.20217952">
    <tag k="addr:housenumber" v="727"/>
    <tag k="addr:street" v="Stannard Mountain Road"/>
    <tag k="addr:state" v="VT"/>
    <tag k="ref:vcgi:esiteid" v="365251"/>
  </node>
  <node id="-289" visible="true" lat="44.53748808" lon="-72.24092629">
    <tag k="addr:housenumber" v="215"/>
    <tag k="addr:street" v="Hutchins Farm Road"/>
    <tag k="addr:state" v="VT"/>
    <tag k="ref:vcgi:esiteid" v="365609"/>
  </node>
  <node id="-290" visible="true" lat="44.56063922" lon="-72.24554755">
    <tag k="addr:housenumber" v="99"/>
    <tag k="addr:street" v="Batchelder Road"/>
    <tag k="addr:state" v="VT"/>
    <tag k="ref:vcgi:esiteid" v="448655"/>
  </node>
  <node id="-291" visible="true" lat="44.54267295" lon="-72.2542162">
    <tag k="addr:housenumber" v="135"/>
    <tag k="addr:street" v="Stannard Mountain Road"/>
    <tag k="addr:state" v="VT"/>
    <tag k="ref:vcgi:esiteid" v="449575"/>
  </node>
  <node id="-293" visible="true" lat="44.53535967" lon="-72.20044692">
    <tag k="addr:housenumber" v="43"/>
    <tag k="addr:street" v="Sabin Road"/>
    <tag k="addr:state" v="VT"/>
    <tag k="ref:vcgi:esiteid" v="451157"/>
  </node>
  <node id="-295" visible="true" lat="44.53263489" lon="-72.19693282">
    <tag k="addr:housenumber" v="87"/>
    <tag k="addr:street" v="Sabin Road"/>
    <tag k="addr:state" v="VT"/>
    <tag k="ref:vcgi:esiteid" v="451159"/>
  </node>
  <node id="-296" visible="true" lat="44.54008141" lon="-72.2126087">
    <tag k="addr:housenumber" v="21"/>
    <tag k="addr:street" v="Lazy Mill Road"/>
    <tag k="addr:state" v="VT"/>
    <tag k="ref:vcgi:esiteid" v="455387"/>
  </node>
  <node id="-297" visible="true" lat="44.543969" lon="-72.25701894">
    <tag k="addr:housenumber" v="17"/>
    <tag k="addr:street" v="Pine Woods Drive"/>
    <tag k="addr:state" v="VT"/>
    <tag k="ref:vcgi:esiteid" v="613589"/>
  </node>
  <node id="-298" visible="true" lat="44.54271912" lon="-72.25814302">
    <tag k="addr:housenumber" v="34"/>
    <tag k="addr:street" v="Pine Woods Drive"/>
    <tag k="addr:state" v="VT"/>
    <tag k="ref:vcgi:esiteid" v="613590"/>
  </node>
  <node id="-299" visible="true" lat="44.5425295" lon="-72.25713791">
    <tag k="addr:housenumber" v="39"/>
    <tag k="addr:street" v="Pine Woods Drive"/>
    <tag k="addr:state" v="VT"/>
    <tag k="ref:vcgi:esiteid" v="613591"/>
  </node>
  <node id="-300" visible="true" lat="44.53339409" lon="-72.20325195">
    <tag k="addr:housenumber" v="30"/>
    <tag k="addr:street" v="Sabin Road"/>
    <tag k="addr:state" v="VT"/>
    <tag k="ref:vcgi:esiteid" v="618222"/>
  </node>
  <node id="-301" visible="true" lat="44.52641534" lon="-72.20602013">
    <tag k="addr:housenumber" v="154"/>
    <tag k="addr:street" v="Silver Road"/>
    <tag k="addr:state" v="VT"/>
    <tag k="ref:vcgi:esiteid" v="755858"/>
  </node>
  <node id="-302" visible="true" lat="44.53970215" lon="-72.21536637">
    <tag k="addr:housenumber" v="31"/>
    <tag k="addr:street" v="Lazy Mill Road"/>
    <tag k="addr:state" v="VT"/>
    <tag k="ref:vcgi:esiteid" v="756538"/>
  </node>
  <node id="-303" visible="true" lat="44.54090902" lon="-72.24569438">
    <tag k="addr:housenumber" v="141"/>
    <tag k="addr:street" v="Hutchins Farm Road"/>
    <tag k="addr:state" v="VT"/>
    <tag k="ref:vcgi:esiteid" v="757034"/>
  </node>
  <node id="-304" visible="true" lat="44.53458605" lon="-72.2398117">
    <tag k="addr:housenumber" v="240"/>
    <tag k="addr:street" v="Hutchins Farm Road"/>
    <tag k="addr:state" v="VT"/>
    <tag k="ref:vcgi:esiteid" v="757035"/>
  </node>
  <node id="-306" visible="true" lat="44.55926996" lon="-72.21661235">
    <tag k="addr:housenumber" v="114"/>
    <tag k="addr:street" v="Flagg Pond Road"/>
    <tag k="addr:state" v="VT"/>
    <tag k="ref:vcgi:esiteid" v="767522"/>
  </node>
</osm>
