<?xml version="1.0" encoding="UTF-8"?>
<osm version="0.6" generator="JOSM">
  <node id="-100" visible="true" lat="44.21751791" lon="-72.96340833">
    <tag k="addr:city" v="Starksboro"/>
    <tag k="addr:housenumber" v="5409"/>
    <tag k="addr:street" v="Vermont Route 17"/>
    <tag k="addr:state" v="VT"/>
    <tag k="ref:vcgi:esiteid" v="247931"/>
  </node>
  <node id="-232" visible="true" lat="44.27949905" lon="-73.0724411">
    <tag k="addr:city" v="Starksboro"/>
    <tag k="addr:housenumber" v="157"/>
    <tag k="addr:street" v="Tyler Bridge Road"/>
    <tag k="addr:state" v="VT"/>
    <tag k="ref:vcgi:esiteid" v="248064"/>
  </node>
  <node id="-267" visible="true" lat="44.27168241" lon="-73.06682117">
    <tag k="addr:city" v="Starksboro"/>
    <tag k="addr:housenumber" v="17"/>
    <tag k="addr:street" v="Mountain View Drive"/>
    <tag k="addr:state" v="VT"/>
    <tag k="ref:vcgi:esiteid" v="248099"/>
  </node>
  <node id="-269" visible="true" lat="44.27139245" lon="-73.06687384">
    <tag k="addr:city" v="Starksboro"/>
    <tag k="addr:housenumber" v="15"/>
    <tag k="addr:street" v="Mountain View Drive"/>
    <tag k="addr:state" v="VT"/>
    <tag k="ref:vcgi:esiteid" v="248101"/>
  </node>
  <node id="-292" visible="true" lat="44.25564428" lon="-73.0569871">
    <tag k="addr:city" v="Starksboro"/>
    <tag k="addr:housenumber" v="315"/>
    <tag k="addr:street" v="Varney Hill Road"/>
    <tag k="addr:state" v="VT"/>
    <tag k="ref:vcgi:esiteid" v="248125"/>
  </node>
  <node id="-295" visible="true" lat="44.25534848" lon="-73.0618415">
    <tag k="addr:city" v="Starksboro"/>
    <tag k="addr:housenumber" v="75"/>
    <tag k="addr:street" v="Varney Hill Road"/>
    <tag k="addr:state" v="VT"/>
    <tag k="ref:vcgi:esiteid" v="248128"/>
  </node>
  <node id="-296" visible="true" lat="44.25512921" lon="-73.05581087">
    <tag k="addr:city" v="Starksboro"/>
    <tag k="addr:housenumber" v="353"/>
    <tag k="addr:street" v="Varney Hill Road"/>
    <tag k="addr:state" v="VT"/>
    <tag k="ref:vcgi:esiteid" v="248129"/>
  </node>
  <node id="-297" visible="true" lat="44.25510787" lon="-73.05323791">
    <tag k="addr:city" v="Starksboro"/>
    <tag k="addr:housenumber" v="619"/>
    <tag k="addr:street" v="Varney Hill Road"/>
    <tag k="addr:state" v="VT"/>
    <tag k="ref:vcgi:esiteid" v="248130"/>
  </node>
  <node id="-298" visible="true" lat="44.25489923" lon="-73.05769445">
    <tag k="addr:city" v="Starksboro"/>
    <tag k="addr:housenumber" v="274"/>
    <tag k="addr:street" v="Varney Hill Road"/>
    <tag k="addr:state" v="VT"/>
    <tag k="ref:vcgi:esiteid" v="248131"/>
  </node>
  <node id="-299" visible="true" lat="44.2550428" lon="-73.06195231">
    <tag k="addr:city" v="Starksboro"/>
    <tag k="addr:housenumber" v="63"/>
    <tag k="addr:street" v="Varney Hill Road"/>
    <tag k="addr:state" v="VT"/>
    <tag k="ref:vcgi:esiteid" v="248132"/>
  </node>
  <node id="-300" visible="true" lat="44.25467385" lon="-73.05930197">
    <tag k="addr:city" v="Starksboro"/>
    <tag k="addr:housenumber" v="214"/>
    <tag k="addr:street" v="Varney Hill Road"/>
    <tag k="addr:state" v="VT"/>
    <tag k="ref:vcgi:esiteid" v="248133"/>
  </node>
  <node id="-303" visible="true" lat="44.25425577" lon="-73.05874838">
    <tag k="addr:city" v="Starksboro"/>
    <tag k="addr:housenumber" v="220"/>
    <tag k="addr:street" v="Varney Hill Road"/>
    <tag k="addr:state" v="VT"/>
    <tag k="ref:vcgi:esiteid" v="248136"/>
  </node>
  <node id="-304" visible="true" lat="44.25445938" lon="-73.06275177">
    <tag k="addr:city" v="Starksboro"/>
    <tag k="addr:housenumber" v="22"/>
    <tag k="addr:street" v="Varney Hill Road"/>
    <tag k="addr:state" v="VT"/>
    <tag k="ref:vcgi:esiteid" v="248137"/>
  </node>
  <node id="-305" visible="true" lat="44.25458471" lon="-73.05555245">
    <tag k="addr:city" v="Starksboro"/>
    <tag k="addr:housenumber" v="401"/>
    <tag k="addr:street" v="Varney Hill Road"/>
    <tag k="addr:state" v="VT"/>
    <tag k="ref:vcgi:esiteid" v="248138"/>
  </node>
  <node id="-319" visible="true" lat="44.25032143" lon="-73.06381093">
    <tag k="addr:city" v="Starksboro"/>
    <tag k="addr:housenumber" v="353"/>
    <tag k="addr:street" v="Cemetery Road"/>
    <tag k="addr:state" v="VT"/>
    <tag k="ref:vcgi:esiteid" v="248152"/>
  </node>
  <node id="-322" visible="true" lat="44.24934689" lon="-73.06241201">
    <tag k="addr:city" v="Starksboro"/>
    <tag k="addr:housenumber" v="306"/>
    <tag k="addr:street" v="Cemetery Road"/>
    <tag k="addr:state" v="VT"/>
    <tag k="ref:vcgi:esiteid" v="248155"/>
  </node>
  <node id="-330" visible="true" lat="44.24790954" lon="-73.07925415">
    <tag k="addr:city" v="Starksboro"/>
    <tag k="addr:housenumber" v="1368"/>
    <tag k="addr:street" v="States Prison Hollow Road"/>
    <tag k="addr:state" v="VT"/>
    <tag k="ref:vcgi:esiteid" v="248163"/>
  </node>
  <node id="-331" visible="true" lat="44.24776458" lon="-73.07968139">
    <tag k="addr:city" v="Starksboro"/>
    <tag k="addr:housenumber" v="1363"/>
    <tag k="addr:street" v="States Prison Hollow Road"/>
    <tag k="addr:state" v="VT"/>
    <tag k="ref:vcgi:esiteid" v="248164"/>
  </node>
  <node id="-348" visible="true" lat="44.24552154" lon="-73.06401825">
    <tag k="addr:city" v="Starksboro"/>
    <tag k="addr:housenumber" v="274"/>
    <tag k="addr:street" v="States Prison Hollow Road"/>
    <tag k="addr:state" v="VT"/>
    <tag k="ref:vcgi:esiteid" v="248181"/>
  </node>
  <node id="-350" visible="true" lat="44.24520492" lon="-73.06526184">
    <tag k="addr:city" v="Starksboro"/>
    <tag k="addr:housenumber" v="306"/>
    <tag k="addr:street" v="States Prison Hollow Road"/>
    <tag k="addr:state" v="VT"/>
    <tag k="ref:vcgi:esiteid" v="248183"/>
  </node>
  <node id="-351" visible="true" lat="44.24520874" lon="-73.06340026">
    <tag k="addr:city" v="Starksboro"/>
    <tag k="addr:housenumber" v="247"/>
    <tag k="addr:street" v="States Prison Hollow Road"/>
    <tag k="addr:state" v="VT"/>
    <tag k="ref:vcgi:esiteid" v="248184"/>
  </node>
  <node id="-355" visible="true" lat="44.24457931" lon="-73.06653595">
    <tag k="addr:city" v="Starksboro"/>
    <tag k="addr:housenumber" v="394"/>
    <tag k="addr:street" v="States Prison Hollow Road"/>
    <tag k="addr:state" v="VT"/>
    <tag k="ref:vcgi:esiteid" v="248188"/>
  </node>
  <node id="-357" visible="true" lat="44.24445352" lon="-73.07874487">
    <tag k="addr:city" v="Starksboro"/>
    <tag k="addr:housenumber" v="1136"/>
    <tag k="addr:street" v="States Prison Hollow Road"/>
    <tag k="addr:state" v="VT"/>
    <tag k="ref:vcgi:esiteid" v="248190"/>
  </node>
  <node id="-358" visible="true" lat="44.24448776" lon="-73.0668869">
    <tag k="addr:city" v="Starksboro"/>
    <tag k="addr:housenumber" v="396"/>
    <tag k="addr:street" v="States Prison Hollow Road"/>
    <tag k="addr:state" v="VT"/>
    <tag k="ref:vcgi:esiteid" v="248191"/>
  </node>
  <node id="-364" visible="true" lat="44.24413681" lon="-73.06636047">
    <tag k="addr:city" v="Starksboro"/>
    <tag k="addr:housenumber" v="423"/>
    <tag k="addr:street" v="States Prison Hollow Road"/>
    <tag k="addr:state" v="VT"/>
    <tag k="ref:vcgi:esiteid" v="248197"/>
  </node>
  <node id="-366" visible="true" lat="44.24395751" lon="-73.06716918">
    <tag k="addr:city" v="Starksboro"/>
    <tag k="addr:housenumber" v="442"/>
    <tag k="addr:street" v="States Prison Hollow Road"/>
    <tag k="addr:state" v="VT"/>
    <tag k="ref:vcgi:esiteid" v="248199"/>
  </node>
  <node id="-370" visible="true" lat="44.24273614" lon="-73.07178168">
    <tag k="addr:city" v="Starksboro"/>
    <tag k="addr:housenumber" v="719"/>
    <tag k="addr:street" v="States Prison Hollow Road"/>
    <tag k="addr:state" v="VT"/>
    <tag k="ref:vcgi:esiteid" v="248203"/>
  </node>
  <node id="-436" visible="true" lat="44.2274398" lon="-73.05672287">
    <tag k="addr:city" v="Starksboro"/>
    <tag k="addr:housenumber" v="15"/>
    <tag k="addr:street" v="Big Hollow Road"/>
    <tag k="addr:state" v="VT"/>
    <tag k="ref:vcgi:esiteid" v="248270"/>
  </node>
  <node id="-439" visible="true" lat="44.22710249" lon="-73.05669772">
    <tag k="addr:city" v="Starksboro"/>
    <tag k="addr:housenumber" v="12"/>
    <tag k="addr:street" v="Big Hollow Road"/>
    <tag k="addr:state" v="VT"/>
    <tag k="ref:vcgi:esiteid" v="248273"/>
  </node>
  <node id="-460" visible="true" lat="44.2242012" lon="-73.05699157">
    <tag k="addr:city" v="Starksboro"/>
    <tag k="addr:housenumber" v="11"/>
    <tag k="addr:street" v="Parsonage Road"/>
    <tag k="addr:state" v="VT"/>
    <tag k="ref:vcgi:esiteid" v="248294"/>
  </node>
  <node id="-462" visible="true" lat="44.22362365" lon="-73.05748258">
    <tag k="addr:city" v="Starksboro"/>
    <tag k="addr:housenumber" v="41"/>
    <tag k="addr:street" v="Parsonage Road"/>
    <tag k="addr:state" v="VT"/>
    <tag k="ref:vcgi:esiteid" v="248296"/>
  </node>
  <node id="-474" visible="true" lat="44.22034454" lon="-73.05692291">
    <tag k="addr:city" v="Starksboro"/>
    <tag k="addr:housenumber" v="70"/>
    <tag k="addr:street" v="Hidden Acres"/>
    <tag k="addr:state" v="VT"/>
    <tag k="ref:vcgi:esiteid" v="248308"/>
  </node>
  <node id="-479" visible="true" lat="44.21949116" lon="-73.0562193">
    <tag k="addr:city" v="Starksboro"/>
    <tag k="addr:housenumber" v="8"/>
    <tag k="addr:street" v="Hidden Acres"/>
    <tag k="addr:state" v="VT"/>
    <tag k="ref:vcgi:esiteid" v="248313"/>
  </node>
  <node id="-487" visible="true" lat="44.21876448" lon="-73.05665187">
    <tag k="addr:city" v="Starksboro"/>
    <tag k="addr:housenumber" v="45"/>
    <tag k="addr:street" v="Hidden Acres"/>
    <tag k="addr:state" v="VT"/>
    <tag k="ref:vcgi:esiteid" v="248321"/>
  </node>
  <node id="-552" visible="true" lat="44.21532821" lon="-72.96406555">
    <tag k="addr:city" v="Starksboro"/>
    <tag k="addr:housenumber" v="5325"/>
    <tag k="addr:street" v="Vermont Route 17"/>
    <tag k="addr:state" v="VT"/>
    <tag k="ref:vcgi:esiteid" v="248386"/>
  </node>
  <node id="-560" visible="true" lat="44.21284151" lon="-72.96249644">
    <tag k="addr:city" v="Starksboro"/>
    <tag k="addr:housenumber" v="101"/>
    <tag k="addr:street" v="Stave Brook Drive"/>
    <tag k="addr:state" v="VT"/>
    <tag k="ref:vcgi:esiteid" v="248394"/>
  </node>
  <node id="-571" visible="true" lat="44.20988905" lon="-72.96724996">
    <tag k="addr:city" v="Starksboro"/>
    <tag k="addr:housenumber" v="4839"/>
    <tag k="addr:street" v="Vermont Route 17"/>
    <tag k="addr:state" v="VT"/>
    <tag k="ref:vcgi:esiteid" v="248405"/>
  </node>
  <node id="-572" visible="true" lat="44.20945553" lon="-72.96547742">
    <tag k="addr:city" v="Starksboro"/>
    <tag k="addr:housenumber" v="4910"/>
    <tag k="addr:street" v="Vermont Route 17"/>
    <tag k="addr:state" v="VT"/>
    <tag k="ref:vcgi:esiteid" v="248406"/>
  </node>
  <node id="-576" visible="true" lat="44.20889503" lon="-72.96493049">
    <tag k="addr:city" v="Starksboro"/>
    <tag k="addr:housenumber" v="4840"/>
    <tag k="addr:street" v="Vermont Route 17"/>
    <tag k="addr:state" v="VT"/>
    <tag k="ref:vcgi:esiteid" v="248410"/>
  </node>
  <node id="-578" visible="true" lat="44.2062416" lon="-72.96580505">
    <tag k="addr:city" v="Starksboro"/>
    <tag k="addr:housenumber" v="4667"/>
    <tag k="addr:street" v="Vermont Route 17"/>
    <tag k="addr:state" v="VT"/>
    <tag k="ref:vcgi:esiteid" v="248412"/>
  </node>
  <node id="-772" visible="true" lat="44.16864793" lon="-73.01407799">
    <tag k="addr:city" v="Starksboro"/>
    <tag k="addr:housenumber" v="496"/>
    <tag k="addr:street" v="Dan Sargent Road"/>
    <tag k="addr:state" v="VT"/>
    <tag k="ref:vcgi:esiteid" v="248608"/>
  </node>
  <node id="-779" visible="true" lat="44.16765975" lon="-73.01445007">
    <tag k="addr:city" v="Starksboro"/>
    <tag k="addr:housenumber" v="430"/>
    <tag k="addr:street" v="Dan Sargent Road"/>
    <tag k="addr:state" v="VT"/>
    <tag k="ref:vcgi:esiteid" v="248615"/>
  </node>
  <node id="-783" visible="true" lat="44.16638183" lon="-73.01337158">
    <tag k="addr:city" v="Starksboro"/>
    <tag k="addr:housenumber" v="330"/>
    <tag k="addr:street" v="Dan Sargent Road"/>
    <tag k="addr:state" v="VT"/>
    <tag k="ref:vcgi:esiteid" v="248619"/>
  </node>
  <node id="-787" visible="true" lat="44.16480257" lon="-73.01542309">
    <tag k="addr:city" v="Starksboro"/>
    <tag k="addr:housenumber" v="245"/>
    <tag k="addr:street" v="Dan Sargent Road"/>
    <tag k="addr:state" v="VT"/>
    <tag k="ref:vcgi:esiteid" v="248623"/>
  </node>
  <node id="-793" visible="true" lat="44.16390991" lon="-73.01438903">
    <tag k="addr:city" v="Starksboro"/>
    <tag k="addr:housenumber" v="170"/>
    <tag k="addr:street" v="Dan Sargent Road"/>
    <tag k="addr:state" v="VT"/>
    <tag k="ref:vcgi:esiteid" v="248629"/>
  </node>
  <node id="-808" visible="true" lat="44.25471253" lon="-73.0571139">
    <tag k="addr:city" v="Starksboro"/>
    <tag k="addr:housenumber" v="292"/>
    <tag k="addr:street" v="Varney Hill Road"/>
    <tag k="addr:state" v="VT"/>
    <tag k="ref:vcgi:esiteid" v="248645"/>
  </node>
  <node id="-820" visible="true" lat="44.28128773" lon="-73.07405337">
    <tag k="addr:city" v="Starksboro"/>
    <tag k="addr:housenumber" v="329"/>
    <tag k="addr:street" v="Tyler Bridge Road"/>
    <tag k="addr:state" v="VT"/>
    <tag k="ref:vcgi:esiteid" v="248657"/>
  </node>
  <node id="-846" visible="true" lat="44.2244433" lon="-73.05701261">
    <tag k="addr:city" v="Starksboro"/>
    <tag k="addr:housenumber" v="12"/>
    <tag k="addr:street" v="Parsonage Road"/>
    <tag k="addr:state" v="VT"/>
    <tag k="ref:vcgi:esiteid" v="248684"/>
  </node>
  <node id="-881" visible="true" lat="44.16886597" lon="-73.01141202">
    <tag k="addr:city" v="Starksboro"/>
    <tag k="addr:housenumber" v="436"/>
    <tag k="addr:street" v="Dan Sargent Road"/>
    <tag k="addr:state" v="VT"/>
    <tag k="ref:vcgi:esiteid" v="248721"/>
  </node>
  <node id="-917" visible="true" lat="44.16656841" lon="-73.01584909">
    <tag k="addr:city" v="Starksboro"/>
    <tag k="addr:housenumber" v="397"/>
    <tag k="addr:street" v="Dan Sargent Road"/>
    <tag k="addr:state" v="VT"/>
    <tag k="ref:vcgi:esiteid" v="248758"/>
  </node>
  <node id="-920" visible="true" lat="44.25430641" lon="-73.05675917">
    <tag k="addr:city" v="Starksboro"/>
    <tag k="addr:housenumber" v="380"/>
    <tag k="addr:street" v="Varney Hill Road"/>
    <tag k="addr:state" v="VT"/>
    <tag k="ref:vcgi:esiteid" v="248761"/>
  </node>
  <node id="-930" visible="true" lat="44.20280746" lon="-72.96403218">
    <tag k="addr:city" v="Starksboro"/>
    <tag k="addr:housenumber" v="4400"/>
    <tag k="addr:street" v="Vermont Route 17"/>
    <tag k="addr:state" v="VT"/>
    <tag k="ref:vcgi:esiteid" v="248774"/>
  </node>
  <node id="-941" visible="true" lat="44.27123174" lon="-73.06170879">
    <tag k="addr:city" v="Starksboro"/>
    <tag k="addr:housenumber" v="334"/>
    <tag k="addr:street" v="Mountain View Drive"/>
    <tag k="addr:state" v="VT"/>
    <tag k="ref:vcgi:esiteid" v="248787"/>
  </node>
  <node id="-944" visible="true" lat="44.16793043" lon="-73.00425827">
    <tag k="addr:city" v="Starksboro"/>
    <tag k="addr:housenumber" v="94"/>
    <tag k="addr:street" v="Black Bear Way"/>
    <tag k="addr:state" v="VT"/>
    <tag k="ref:vcgi:esiteid" v="248790"/>
  </node>
  <node id="-962" visible="true" lat="44.2550278" lon="-73.06107154">
    <tag k="addr:city" v="Starksboro"/>
    <tag k="addr:housenumber" v="119"/>
    <tag k="addr:street" v="Varney Hill Road"/>
    <tag k="addr:state" v="VT"/>
    <tag k="ref:vcgi:esiteid" v="317553"/>
  </node>
  <node id="-963" visible="true" lat="44.25924373" lon="-73.05942128">
    <tag k="addr:city" v="Starksboro"/>
    <tag k="addr:housenumber" v="200"/>
    <tag k="addr:street" v="Sunny Valley Drive"/>
    <tag k="addr:state" v="VT"/>
    <tag k="ref:vcgi:esiteid" v="325249"/>
  </node>
  <node id="-970" visible="true" lat="44.16757725" lon="-73.00506542">
    <tag k="addr:city" v="Starksboro"/>
    <tag k="addr:housenumber" v="62"/>
    <tag k="addr:street" v="Black Bear Way"/>
    <tag k="addr:state" v="VT"/>
    <tag k="ref:vcgi:esiteid" v="332164"/>
  </node>
  <node id="-976" visible="true" lat="44.26119616" lon="-73.0606172">
    <tag k="addr:city" v="Starksboro"/>
    <tag k="addr:housenumber" v="215"/>
    <tag k="addr:street" v="Sunny Valley Drive"/>
    <tag k="addr:state" v="VT"/>
    <tag k="ref:vcgi:esiteid" v="334691"/>
  </node>
  <node id="-986" visible="true" lat="44.25472865" lon="-73.05818496">
    <tag k="addr:city" v="Starksboro"/>
    <tag k="addr:housenumber" v="260"/>
    <tag k="addr:street" v="Varney Hill Road"/>
    <tag k="addr:state" v="VT"/>
    <tag k="ref:vcgi:esiteid" v="338899"/>
  </node>
  <node id="-990" visible="true" lat="44.22374585" lon="-73.06019091">
    <tag k="addr:city" v="Starksboro"/>
    <tag k="addr:housenumber" v="101"/>
    <tag k="addr:street" v="Parsonage Road"/>
    <tag k="addr:state" v="VT"/>
    <tag k="ref:vcgi:esiteid" v="339969"/>
  </node>
  <node id="-1009" visible="true" lat="44.25475179" lon="-73.05681491">
    <tag k="addr:city" v="Starksboro"/>
    <tag k="addr:housenumber" v="314"/>
    <tag k="addr:street" v="Varney Hill Road"/>
    <tag k="addr:state" v="VT"/>
    <tag k="ref:vcgi:esiteid" v="447792"/>
  </node>
  <node id="-1088" visible="true" lat="44.22341427" lon="-73.05634396">
    <tag k="addr:city" v="Starksboro"/>
    <tag k="addr:housenumber" v="2698"/>
    <tag k="addr:street" v="Vermont Route 116"/>
    <tag k="addr:state" v="VT"/>
    <tag k="ref:vcgi:esiteid" v="1051209"/>
  </node>
</osm>
