<?xml version="1.0" encoding="UTF-8"?>
<osm version="0.6" generator="JOSM">
  <node id="-194" visible="true" lat="44.28348412" lon="-73.07129596">
    <!-- conflict: "135 Tyler Bridge Road, Starksboro, VT" Fuzzy match to "135 Tyler Bridge Road, Hinesburg, VT" -->
    <tag k="addr:city" v="Starksboro"/>
    <tag k="addr:housenumber" v="135"/>
    <tag k="addr:street" v="Tyler Bridge Road"/>
    <tag k="addr:state" v="VT"/>
    <tag k="ref:vcgi:esiteid" v="248026"/>
  </node>
  <node id="-227" visible="true" lat="44.27996091" lon="-73.06795447">
    <!-- conflict: "6686 Vermont Route 116, Starksboro, VT" No match in OSM, but a different address exists <5m away: "6686 Vt Route 116, Starksboro, VT" -->
    <tag k="addr:city" v="Starksboro"/>
    <tag k="addr:housenumber" v="6686"/>
    <tag k="addr:street" v="Vermont Route 116"/>
    <tag k="addr:state" v="VT"/>
    <tag k="ref:vcgi:esiteid" v="248059"/>
  </node>
  <node id="-231" visible="true" lat="44.27961326" lon="-73.06890866">
    <!-- conflict: "6657 Vermont Route 116, Starksboro, VT" No match in OSM, but a different address exists <5m away: "6657 Vt Route 116, Starksboro, VT" -->
    <tag k="addr:city" v="Starksboro"/>
    <tag k="addr:housenumber" v="6657"/>
    <tag k="addr:street" v="Vermont Route 116"/>
    <tag k="addr:state" v="VT"/>
    <tag k="ref:vcgi:esiteid" v="248063"/>
  </node>
  <node id="-239" visible="true" lat="44.27810815" lon="-73.06773451">
    <!-- conflict: "6558 Vermont Route 116, Starksboro, VT" No match in OSM, but a different address exists <5m away: "6558 Vt Route 116, Starksboro, VT" -->
    <tag k="addr:city" v="Starksboro"/>
    <tag k="addr:housenumber" v="6558"/>
    <tag k="addr:street" v="Vermont Route 116"/>
    <tag k="addr:state" v="VT"/>
    <tag k="ref:vcgi:esiteid" v="248071"/>
  </node>
  <node id="-246" visible="true" lat="44.27667477" lon="-73.06738477">
    <!-- conflict: "6456 Vermont Route 116, Starksboro, VT" No match in OSM, but a different address exists <5m away: "6456 Vt Route 116, Starksboro, VT" -->
    <tag k="addr:city" v="Starksboro"/>
    <tag k="addr:housenumber" v="6456"/>
    <tag k="addr:street" v="Vermont Route 116"/>
    <tag k="addr:state" v="VT"/>
    <tag k="ref:vcgi:esiteid" v="248078"/>
  </node>
  <node id="-257" visible="true" lat="44.27426497" lon="-73.06590981">
    <!-- conflict: "6274 Vermont Route 116, Starksboro, VT" No match in OSM, but a different address exists <5m away: "6274 Vt Route 116, Starksboro, VT" -->
    <tag k="addr:city" v="Starksboro"/>
    <tag k="addr:housenumber" v="6274"/>
    <tag k="addr:street" v="Vermont Route 116"/>
    <tag k="addr:state" v="VT"/>
    <tag k="ref:vcgi:esiteid" v="248089"/>
  </node>
  <node id="-272" visible="true" lat="44.26891903" lon="-73.06673283">
    <!-- conflict: "5902 Vermont Route 116, Starksboro, VT" No match in OSM, but a different address exists <5m away: "5902 Vt Route 116, Starksboro, VT" -->
    <tag k="addr:city" v="Starksboro"/>
    <tag k="addr:housenumber" v="5902"/>
    <tag k="addr:street" v="Vermont Route 116"/>
    <tag k="addr:state" v="VT"/>
    <tag k="ref:vcgi:esiteid" v="248104"/>
  </node>
  <node id="-280" visible="true" lat="44.26250584" lon="-73.06593653">
    <!-- conflict: "5461 Vermont Route 116, Starksboro, VT" No match in OSM, but a different address exists <5m away: "5461 Vt Route 116, Starksboro, VT" -->
    <tag k="addr:city" v="Starksboro"/>
    <tag k="addr:housenumber" v="5461"/>
    <tag k="addr:street" v="Vermont Route 116"/>
    <tag k="addr:state" v="VT"/>
    <tag k="ref:vcgi:esiteid" v="248112"/>
  </node>
  <node id="-281" visible="true" lat="44.26268632" lon="-73.06667451">
    <!-- conflict: "5463 Vermont Route 116, Starksboro, VT" No match in OSM, but a different address exists <5m away: "5463 Vt Route 116, Starksboro, VT" -->
    <tag k="addr:city" v="Starksboro"/>
    <tag k="addr:housenumber" v="5463"/>
    <tag k="addr:street" v="Vermont Route 116"/>
    <tag k="addr:state" v="VT"/>
    <tag k="ref:vcgi:esiteid" v="248113"/>
  </node>
  <node id="-288" visible="true" lat="44.25863277" lon="-73.06471364">
    <!-- conflict: "5215 Vermont Route 116, Starksboro, VT" No match in OSM, but a different address exists <5m away: "5215 Vt Route 116, Starksboro, VT" -->
    <tag k="addr:city" v="Starksboro"/>
    <tag k="addr:housenumber" v="5215"/>
    <tag k="addr:street" v="Vermont Route 116"/>
    <tag k="addr:state" v="VT"/>
    <tag k="ref:vcgi:esiteid" v="248120"/>
  </node>
  <node id="-317" visible="true" lat="44.2516215" lon="-73.06210004">
    <!-- conflict: "4696 Vermont Route 116, Starksboro, VT" No match in OSM, but a different address exists <5m away: "4696 Vt Route 116, Starksboro, VT" -->
    <tag k="addr:city" v="Starksboro"/>
    <tag k="addr:housenumber" v="4696"/>
    <tag k="addr:street" v="Vermont Route 116"/>
    <tag k="addr:state" v="VT"/>
    <tag k="ref:vcgi:esiteid" v="248150"/>
  </node>
  <node id="-359" visible="true" lat="44.24433517" lon="-73.07199096">
    <!-- conflict: "233 States Prison Hollow Extension, Starksboro, VT" Fuzzy match to "233 States Prison Hollow, Starksboro, VT" -->
    <tag k="addr:city" v="Starksboro"/>
    <tag k="addr:housenumber" v="233"/>
    <tag k="addr:street" v="States Prison Hollow Extension"/>
    <tag k="addr:state" v="VT"/>
    <tag k="ref:vcgi:esiteid" v="248192"/>
  </node>
  <node id="-363" visible="true" lat="44.24399727" lon="-73.07227681">
    <!-- conflict: "216 States Prison Hollow Extension, Starksboro, VT" Fuzzy match to "216 States Prison Hollow, Starksboro, VT" -->
    <tag k="addr:city" v="Starksboro"/>
    <tag k="addr:housenumber" v="216"/>
    <tag k="addr:street" v="States Prison Hollow Extension"/>
    <tag k="addr:state" v="VT"/>
    <tag k="ref:vcgi:esiteid" v="248196"/>
  </node>
  <node id="-368" visible="true" lat="44.24383174" lon="-73.05864006">
    <!-- conflict: "4118 Vermont Route 116, Starksboro, VT" No match in OSM, but a different address exists <5m away: "4118 Vt Route 116, Starksboro, VT" -->
    <tag k="addr:city" v="Starksboro"/>
    <tag k="addr:housenumber" v="4118"/>
    <tag k="addr:street" v="Vermont Route 116"/>
    <tag k="addr:state" v="VT"/>
    <tag k="ref:vcgi:esiteid" v="248201"/>
  </node>
  <node id="-374" visible="true" lat="44.24121624" lon="-73.05785334">
    <!-- conflict: "3902 Vermont Route 116, Starksboro, VT" No match in OSM, but a different address exists <5m away: "3902 Vt Route 116, Starksboro, VT" -->
    <tag k="addr:city" v="Starksboro"/>
    <tag k="addr:housenumber" v="3902"/>
    <tag k="addr:street" v="Vermont Route 116"/>
    <tag k="addr:state" v="VT"/>
    <tag k="ref:vcgi:esiteid" v="248207"/>
  </node>
  <node id="-378" visible="true" lat="44.2396192" lon="-73.05707659">
    <!-- conflict: "3822 Vermont Route 116, Starksboro, VT" No match in OSM, but a different address exists <5m away: "3822 Vt Route 116, Starksboro, VT" -->
    <tag k="addr:city" v="Starksboro"/>
    <tag k="addr:housenumber" v="3822"/>
    <tag k="addr:street" v="Vermont Route 116"/>
    <tag k="addr:state" v="VT"/>
    <tag k="ref:vcgi:esiteid" v="248211"/>
  </node>
  <node id="-380" visible="true" lat="44.23932864" lon="-73.05716818">
    <!-- conflict: "3820 Vermont Route 116, Starksboro, VT" No match in OSM, but a different address exists <5m away: "3820 State Route 116, Starkboro, VT" -->
    <tag k="addr:city" v="Starksboro"/>
    <tag k="addr:housenumber" v="3820"/>
    <tag k="addr:street" v="Vermont Route 116"/>
    <tag k="addr:state" v="VT"/>
    <tag k="ref:vcgi:esiteid" v="248213"/>
  </node>
  <node id="-389" visible="true" lat="44.23673761" lon="-73.05651168">
    <!-- conflict: "69 Maple Hill Drive, Starksboro, VT" No match in OSM, but a different address exists <5m away: "3568 Vt Route 116, Starksboro, VT" -->
    <tag k="addr:city" v="Starksboro"/>
    <tag k="addr:housenumber" v="69"/>
    <tag k="addr:street" v="Maple Hill Drive"/>
    <tag k="addr:state" v="VT"/>
    <tag k="ref:vcgi:esiteid" v="248222"/>
  </node>
  <node id="-404" visible="true" lat="44.23150253" lon="-73.05703735">
    <!-- conflict: "3263 Vermont Route 116, Starksboro, VT" No match in OSM, but a different address exists <5m away: "3263 Vt Route 116, Starksboro, VT" -->
    <tag k="addr:city" v="Starksboro"/>
    <tag k="addr:housenumber" v="3263"/>
    <tag k="addr:street" v="Vermont Route 116"/>
    <tag k="addr:state" v="VT"/>
    <tag k="ref:vcgi:esiteid" v="248237"/>
  </node>
  <node id="-409" visible="true" lat="44.23045349" lon="-73.05671691">
    <!-- conflict: "3190 Vermont Route 116, Starksboro, VT" No match in OSM, but a different address exists <5m away: "3190 Vt Route 116, Starksboro, VT" -->
    <tag k="addr:city" v="Starksboro"/>
    <tag k="addr:housenumber" v="3190"/>
    <tag k="addr:street" v="Vermont Route 116"/>
    <tag k="addr:state" v="VT"/>
    <tag k="ref:vcgi:esiteid" v="248242"/>
  </node>
  <node id="-410" visible="true" lat="44.23010635" lon="-73.05695343">
    <!-- conflict: "3165 Vermont Route 116, Starksboro, VT" No match in OSM, but a different address exists <5m away: "3165 Vt Route 116, Starksboro, VT" -->
    <tag k="addr:city" v="Starksboro"/>
    <tag k="addr:housenumber" v="3165"/>
    <tag k="addr:street" v="Vermont Route 116"/>
    <tag k="addr:state" v="VT"/>
    <tag k="ref:vcgi:esiteid" v="248243"/>
  </node>
  <node id="-412" visible="true" lat="44.2297923" lon="-73.05650546">
    <!-- conflict: "3112 Vermont Route 116, Starksboro, VT" No match in OSM, but a different address exists <5m away: "3112 Vt Route 116, Starksboro, VT" -->
    <tag k="addr:city" v="Starksboro"/>
    <tag k="addr:housenumber" v="3112"/>
    <tag k="addr:street" v="Vermont Route 116"/>
    <tag k="addr:state" v="VT"/>
    <tag k="ref:vcgi:esiteid" v="248245"/>
  </node>
  <node id="-415" visible="true" lat="44.22911834" lon="-73.05715179">
    <!-- conflict: "3095 Vermont Route 116, Starksboro, VT" No match in OSM, but a different address exists <5m away: "3095 Vt Route 116, Starksboro, VT" -->
    <tag k="addr:city" v="Starksboro"/>
    <tag k="addr:housenumber" v="3095"/>
    <tag k="addr:street" v="Vermont Route 116"/>
    <tag k="addr:state" v="VT"/>
    <tag k="ref:vcgi:esiteid" v="248248"/>
  </node>
  <node id="-417" visible="true" lat="44.22896987" lon="-73.05657438">
    <!-- conflict: "3056 Vermont Route 116, Starksboro, VT" No match in OSM, but a different address exists <5m away: "3056 Vt Route 116, Starksboro, VT" -->
    <tag k="addr:city" v="Starksboro"/>
    <tag k="addr:housenumber" v="3056"/>
    <tag k="addr:street" v="Vermont Route 116"/>
    <tag k="addr:state" v="VT"/>
    <tag k="ref:vcgi:esiteid" v="248250"/>
  </node>
  <node id="-418" visible="true" lat="44.22886208" lon="-73.05718486">
    <!-- conflict: "3071 Vermont Route 116, Starksboro, VT" No match in OSM, but a different address exists <5m away: "3071 Vt Route 116, Starksboro, VT" -->
    <tag k="addr:city" v="Starksboro"/>
    <tag k="addr:housenumber" v="3071"/>
    <tag k="addr:street" v="Vermont Route 116"/>
    <tag k="addr:state" v="VT"/>
    <tag k="ref:vcgi:esiteid" v="248251"/>
  </node>
  <node id="-422" visible="true" lat="44.22848821" lon="-73.05666914">
    <!-- conflict: "3054 Vermont Route 116, Starksboro, VT" No match in OSM, but a different address exists <5m away: "3054 Vt Route 116, Starksboro, VT" -->
    <tag k="addr:city" v="Starksboro"/>
    <tag k="addr:housenumber" v="3054"/>
    <tag k="addr:street" v="Vermont Route 116"/>
    <tag k="addr:state" v="VT"/>
    <tag k="ref:vcgi:esiteid" v="248255"/>
  </node>
  <node id="-423" visible="true" lat="44.22813879" lon="-73.05674478">
    <!-- conflict: "3032 Vermont Route 116, Starksboro, VT" No match in OSM, but a different address exists <5m away: "3032 Vt Route 116, Starksboro, VT" -->
    <tag k="addr:city" v="Starksboro"/>
    <tag k="addr:housenumber" v="3032"/>
    <tag k="addr:street" v="Vermont Route 116"/>
    <tag k="addr:state" v="VT"/>
    <tag k="ref:vcgi:esiteid" v="248256"/>
  </node>
  <node id="-426" visible="true" lat="44.22814261" lon="-73.05718731">
    <!-- conflict: "3025 Vermont Route 116, Starksboro, VT" No match in OSM, but a different address exists <5m away: "3025 Vt Route 116, Starksboro, VT" -->
    <tag k="addr:city" v="Starksboro"/>
    <tag k="addr:housenumber" v="3025"/>
    <tag k="addr:street" v="Vermont Route 116"/>
    <tag k="addr:state" v="VT"/>
    <tag k="ref:vcgi:esiteid" v="248259"/>
  </node>
  <node id="-428" visible="true" lat="44.22789689" lon="-73.05676975">
    <!-- conflict: "2998 Vermont Route 116, Starksboro, VT" No match in OSM, but a different address exists <5m away: "3014 Vt Route 116, Starksboro, VT" -->
    <tag k="addr:city" v="Starksboro"/>
    <tag k="addr:housenumber" v="2998"/>
    <tag k="addr:street" v="Vermont Route 116"/>
    <tag k="addr:state" v="VT"/>
    <tag k="ref:vcgi:esiteid" v="248262"/>
  </node>
  <node id="-429" visible="true" lat="44.22788913" lon="-73.05718782">
    <!-- conflict: "3011 Vermont Route 116, Starksboro, VT" No match in OSM, but a different address exists <5m away: "3011 Vt Route 116, Starksboro, VT" -->
    <tag k="addr:city" v="Starksboro"/>
    <tag k="addr:housenumber" v="3011"/>
    <tag k="addr:street" v="Vermont Route 116"/>
    <tag k="addr:state" v="VT"/>
    <tag k="ref:vcgi:esiteid" v="248263"/>
  </node>
  <node id="-431" visible="true" lat="44.22784784" lon="-73.05780258">
    <!-- conflict: "3009 Vermont Route 116, Starksboro, VT" No match in OSM, but a different address exists <5m away: "3009 Vt Route 116, Starksboro, VT" -->
    <tag k="addr:city" v="Starksboro"/>
    <tag k="addr:housenumber" v="3009"/>
    <tag k="addr:street" v="Vermont Route 116"/>
    <tag k="addr:state" v="VT"/>
    <tag k="ref:vcgi:esiteid" v="248265"/>
  </node>
  <node id="-434" visible="true" lat="44.22768664" lon="-73.05728717">
    <!-- conflict: "2993 Vermont Route 116, Starksboro, VT" No match in OSM, but a different address exists <5m away: "2993 Vt Route 116, Starksboro, VT" -->
    <tag k="addr:city" v="Starksboro"/>
    <tag k="addr:housenumber" v="2993"/>
    <tag k="addr:street" v="Vermont Route 116"/>
    <tag k="addr:state" v="VT"/>
    <tag k="ref:vcgi:esiteid" v="248268"/>
  </node>
  <node id="-435" visible="true" lat="44.22734655" lon="-73.05720001">
    <!-- conflict: "2977 Vermont Route 116, Starksboro, VT" No match in OSM, but a different address exists <5m away: "2977 Vt Route 116, Starksboro, VT" -->
    <tag k="addr:city" v="Starksboro"/>
    <tag k="addr:housenumber" v="2977"/>
    <tag k="addr:street" v="Vermont Route 116"/>
    <tag k="addr:state" v="VT"/>
    <tag k="ref:vcgi:esiteid" v="248269"/>
  </node>
  <node id="-441" visible="true" lat="44.22691646" lon="-73.05726422">
    <!-- conflict: "2949 Vermont Route 116, Starksboro, VT" No match in OSM, but a different address exists <5m away: "2949 Vt Route 116, Starksboro, VT" -->
    <tag k="addr:city" v="Starksboro"/>
    <tag k="addr:housenumber" v="2949"/>
    <tag k="addr:street" v="Vermont Route 116"/>
    <tag k="addr:state" v="VT"/>
    <tag k="ref:vcgi:esiteid" v="248275"/>
  </node>
  <node id="-443" visible="true" lat="44.22688264" lon="-73.05674664">
    <!-- conflict: "2948 Vermont Route 116, Starksboro, VT" No match in OSM, but a different address exists <5m away: "2948 Vt Route 116, Starksboro, VT" -->
    <tag k="addr:city" v="Starksboro"/>
    <tag k="addr:housenumber" v="2948"/>
    <tag k="addr:street" v="Vermont Route 116"/>
    <tag k="addr:state" v="VT"/>
    <tag k="ref:vcgi:esiteid" v="248277"/>
  </node>
  <node id="-444" visible="true" lat="44.22668248" lon="-73.05731606">
    <!-- conflict: "2903 Vermont Route 116, Starksboro, VT" No match in OSM, but a different address exists <5m away: "2903 Vt Route 116, Starksboro, VT" -->
    <tag k="addr:city" v="Starksboro"/>
    <tag k="addr:housenumber" v="2903"/>
    <tag k="addr:street" v="Vermont Route 116"/>
    <tag k="addr:state" v="VT"/>
    <tag k="ref:vcgi:esiteid" v="248278"/>
  </node>
  <node id="-445" visible="true" lat="44.22688186" lon="-73.05785005">
    <!-- conflict: "2905 Vermont Route 116, Starksboro, VT" No match in OSM, but a different address exists <5m away: "2905 Vt Route 116, Starksboro, VT" -->
    <tag k="addr:city" v="Starksboro"/>
    <tag k="addr:housenumber" v="2905"/>
    <tag k="addr:street" v="Vermont Route 116"/>
    <tag k="addr:state" v="VT"/>
    <tag k="ref:vcgi:esiteid" v="248279"/>
  </node>
  <node id="-446" visible="true" lat="44.22642031" lon="-73.05678509">
    <!-- conflict: "2912 Vermont Route 116, Starksboro, VT" No match in OSM, but a different address exists <5m away: "2912 Vt Route 116, Starksboro, VT" -->
    <tag k="addr:city" v="Starksboro"/>
    <tag k="addr:housenumber" v="2912"/>
    <tag k="addr:street" v="Vermont Route 116"/>
    <tag k="addr:state" v="VT"/>
    <tag k="ref:vcgi:esiteid" v="248280"/>
  </node>
  <node id="-447" visible="true" lat="44.22631552" lon="-73.05737106">
    <!-- conflict: "2901 Vermont Route 116, Starksboro, VT" No match in OSM, but a different address exists <5m away: "2901 Vt Route 116, Starksboro, VT" -->
    <tag k="addr:city" v="Starksboro"/>
    <tag k="addr:housenumber" v="2901"/>
    <tag k="addr:street" v="Vermont Route 116"/>
    <tag k="addr:state" v="VT"/>
    <tag k="ref:vcgi:esiteid" v="248281"/>
  </node>
  <node id="-448" visible="true" lat="44.22625381" lon="-73.05679215">
    <!-- conflict: "2886 Vermont Route 116, Starksboro, VT" No match in OSM, but a different address exists <5m away: "2886 Vt Route 116, Starksboro, VT" -->
    <tag k="addr:city" v="Starksboro"/>
    <tag k="addr:housenumber" v="2886"/>
    <tag k="addr:street" v="Vermont Route 116"/>
    <tag k="addr:state" v="VT"/>
    <tag k="ref:vcgi:esiteid" v="248282"/>
  </node>
  <node id="-449" visible="true" lat="44.22610386" lon="-73.05734578">
    <!-- conflict: "2887 Vermont Route 116, Starksboro, VT" No match in OSM, but a different address exists <5m away: "2887 Vt Route 116, Starksboro, VT" -->
    <tag k="addr:city" v="Starksboro"/>
    <tag k="addr:housenumber" v="2887"/>
    <tag k="addr:street" v="Vermont Route 116"/>
    <tag k="addr:state" v="VT"/>
    <tag k="ref:vcgi:esiteid" v="248283"/>
  </node>
  <node id="-450" visible="true" lat="44.22589188" lon="-73.05732661">
    <!-- conflict: "2875 Vermont Route 116, Starksboro, VT" No match in OSM, but a different address exists <5m away: "2875 Vt Route 116, Starksboro, VT" -->
    <tag k="addr:city" v="Starksboro"/>
    <tag k="addr:housenumber" v="2875"/>
    <tag k="addr:street" v="Vermont Route 116"/>
    <tag k="addr:state" v="VT"/>
    <tag k="ref:vcgi:esiteid" v="248284"/>
  </node>
  <node id="-451" visible="true" lat="44.22586441" lon="-73.05679321">
    <!-- conflict: "2858 Vermont Route 116, Starksboro, VT" No match in OSM, but a different address exists <5m away: "2858 Vt Route 116, Starksboro, VT" -->
    <tag k="addr:city" v="Starksboro"/>
    <tag k="addr:housenumber" v="2858"/>
    <tag k="addr:street" v="Vermont Route 116"/>
    <tag k="addr:state" v="VT"/>
    <tag k="ref:vcgi:esiteid" v="248285"/>
  </node>
  <node id="-452" visible="true" lat="44.22555541" lon="-73.05680847">
    <!-- conflict: "2856 Vermont Route 116, Starksboro, VT" No match in OSM, but a different address exists <5m away: "2856 Vt Route 116, Starksboro, VT" -->
    <tag k="addr:city" v="Starksboro"/>
    <tag k="addr:housenumber" v="2856"/>
    <tag k="addr:street" v="Vermont Route 116"/>
    <tag k="addr:state" v="VT"/>
    <tag k="ref:vcgi:esiteid" v="248286"/>
  </node>
  <node id="-453" visible="true" lat="44.22550582" lon="-73.05729675">
    <!-- conflict: "2849 Vermont Route 116, Starksboro, VT" No match in OSM, but a different address exists <5m away: "2849 Vt Route 116, Starksboro, VT" -->
    <tag k="addr:city" v="Starksboro"/>
    <tag k="addr:housenumber" v="2849"/>
    <tag k="addr:street" v="Vermont Route 116"/>
    <tag k="addr:state" v="VT"/>
    <tag k="ref:vcgi:esiteid" v="248287"/>
  </node>
  <node id="-454" visible="true" lat="44.22530364" lon="-73.05679321">
    <!-- conflict: "2832 Vermont Route 116, Starksboro, VT" No match in OSM, but a different address exists <5m away: "2832 Vt Route 116, Starksboro, VT" -->
    <tag k="addr:city" v="Starksboro"/>
    <tag k="addr:housenumber" v="2832"/>
    <tag k="addr:street" v="Vermont Route 116"/>
    <tag k="addr:state" v="VT"/>
    <tag k="ref:vcgi:esiteid" v="248288"/>
  </node>
  <node id="-455" visible="true" lat="44.22518731" lon="-73.0572631">
    <!-- conflict: "2827 Vermont Route 116, Starksboro, VT" No match in OSM, but a different address exists <5m away: "2827 VT-116, Starksboro, VT" -->
    <tag k="addr:city" v="Starksboro"/>
    <tag k="addr:housenumber" v="2827"/>
    <tag k="addr:street" v="Vermont Route 116"/>
    <tag k="addr:state" v="VT"/>
    <tag k="ref:vcgi:esiteid" v="248289"/>
  </node>
  <node id="-456" visible="true" lat="44.22491252" lon="-73.056515">
    <!-- conflict: "2806 Vermont Route 116, Starksboro, VT" No match in OSM, but a different address exists <5m away: "2806 Vt Route 116, Starksboro, VT" -->
    <tag k="addr:city" v="Starksboro"/>
    <tag k="addr:housenumber" v="2806"/>
    <tag k="addr:street" v="Vermont Route 116"/>
    <tag k="addr:state" v="VT"/>
    <tag k="ref:vcgi:esiteid" v="248290"/>
  </node>
  <node id="-458" visible="true" lat="44.22488403" lon="-73.05709075">
    <!-- conflict: "2805 Vermont Route 116, Starksboro, VT" No match in OSM, but a different address exists <5m away: "2805 Vt Route 116, Starksboro, VT" -->
    <tag k="addr:city" v="Starksboro"/>
    <tag k="addr:housenumber" v="2805"/>
    <tag k="addr:street" v="Vermont Route 116"/>
    <tag k="addr:state" v="VT"/>
    <tag k="ref:vcgi:esiteid" v="248292"/>
  </node>
  <node id="-459" visible="true" lat="44.22471618" lon="-73.05709075">
    <!-- conflict: "2795 Vermont Route 116, Starksboro, VT" No match in OSM, but a different address exists <5m away: "2795 Vt Route 116, Starksboro, VT" -->
    <tag k="addr:city" v="Starksboro"/>
    <tag k="addr:housenumber" v="2795"/>
    <tag k="addr:street" v="Vermont Route 116"/>
    <tag k="addr:state" v="VT"/>
    <tag k="ref:vcgi:esiteid" v="248293"/>
  </node>
  <node id="-465" visible="true" lat="44.22278213" lon="-73.05623626">
    <!-- conflict: "2656 Vermont Route 116, Starksboro, VT" No match in OSM, but a different address exists <5m away: "2656 Vt Route 116, Starksboro, VT" -->
    <tag k="addr:city" v="Starksboro"/>
    <tag k="addr:housenumber" v="2656"/>
    <tag k="addr:street" v="Vermont Route 116"/>
    <tag k="addr:state" v="VT"/>
    <tag k="ref:vcgi:esiteid" v="248299"/>
  </node>
  <node id="-466" visible="true" lat="44.22264317" lon="-73.05701685">
    <!-- conflict: "2647 Vermont Route 116, Starksboro, VT" No match in OSM, but a different address exists <5m away: "2647 Vt Route 116, Starksboro, VT" -->
    <tag k="addr:city" v="Starksboro"/>
    <tag k="addr:housenumber" v="2647"/>
    <tag k="addr:street" v="Vermont Route 116"/>
    <tag k="addr:state" v="VT"/>
    <tag k="ref:vcgi:esiteid" v="248300"/>
  </node>
  <node id="-468" visible="true" lat="44.22226955" lon="-73.0560052">
    <!-- conflict: "2618 Vermont Route 116, Starksboro, VT" No match in OSM, but a different address exists <5m away: "2618 Vt Route 116, Starksboro, VT" -->
    <tag k="addr:city" v="Starksboro"/>
    <tag k="addr:housenumber" v="2618"/>
    <tag k="addr:street" v="Vermont Route 116"/>
    <tag k="addr:state" v="VT"/>
    <tag k="ref:vcgi:esiteid" v="248302"/>
  </node>
  <node id="-473" visible="true" lat="44.22125498" lon="-73.05590555">
    <!-- conflict: "2550 Vermont Route 116, Starksboro, VT" No match in OSM, but a different address exists <5m away: "2550 Vt Route 116, Starksboro, VT" -->
    <tag k="addr:city" v="Starksboro"/>
    <tag k="addr:housenumber" v="2550"/>
    <tag k="addr:street" v="Vermont Route 116"/>
    <tag k="addr:state" v="VT"/>
    <tag k="ref:vcgi:esiteid" v="248307"/>
  </node>
  <node id="-477" visible="true" lat="44.21984886" lon="-73.05553878">
    <!-- conflict: "2454 Vermont Route 116, Starksboro, VT" No match in OSM, but a different address exists <5m away: "2454 Vt Route 116, Starksboro, VT" -->
    <tag k="addr:city" v="Starksboro"/>
    <tag k="addr:housenumber" v="2454"/>
    <tag k="addr:street" v="Vermont Route 116"/>
    <tag k="addr:state" v="VT"/>
    <tag k="ref:vcgi:esiteid" v="248311"/>
  </node>
  <node id="-486" visible="true" lat="44.21890764" lon="-73.05552821">
    <!-- conflict: "2400 Vermont Route 116, Starksboro, VT" No match in OSM, but a different address exists <5m away: "2400 Vt Route 116, Starksboro, VT" -->
    <tag k="addr:city" v="Starksboro"/>
    <tag k="addr:housenumber" v="2400"/>
    <tag k="addr:street" v="Vermont Route 116"/>
    <tag k="addr:state" v="VT"/>
    <tag k="ref:vcgi:esiteid" v="248320"/>
  </node>
  <node id="-489" visible="true" lat="44.21869617" lon="-73.05600191">
    <!-- conflict: "2365 Vermont Route 116, Starksboro, VT" No match in OSM, but a different address exists <5m away: "2365 Vt Route 116, Starksboro, VT" -->
    <tag k="addr:city" v="Starksboro"/>
    <tag k="addr:housenumber" v="2365"/>
    <tag k="addr:street" v="Vermont Route 116"/>
    <tag k="addr:state" v="VT"/>
    <tag k="ref:vcgi:esiteid" v="248323"/>
  </node>
  <node id="-807" visible="true" lat="44.27918615" lon="-73.07974651">
    <!-- conflict: "745 Tyler Bridge Road, Starksboro, VT" Fuzzy match to "745 Tyler Bridge Road, Monkton, VT" -->
    <tag k="addr:city" v="Starksboro"/>
    <tag k="addr:housenumber" v="745"/>
    <tag k="addr:street" v="Tyler Bridge Road"/>
    <tag k="addr:state" v="VT"/>
    <tag k="ref:vcgi:esiteid" v="248643"/>
  </node>
  <node id="-817" visible="true" lat="44.15972394" lon="-73.01030984">
    <!-- conflict: "3825 Quaker Street, Starksboro, VT" Fuzzy match to "3825 Quaker Street, Bristol, VT" -->
    <tag k="addr:city" v="Starksboro"/>
    <tag k="addr:housenumber" v="3825"/>
    <tag k="addr:street" v="Quaker Street"/>
    <tag k="addr:state" v="VT"/>
    <tag k="ref:vcgi:esiteid" v="248654"/>
  </node>
  <node id="-847" visible="true" lat="44.22440537" lon="-73.05653503">
    <!-- conflict: "2762 Vermont Route 116, Starksboro, VT" No match in OSM, but a different address exists <5m away: "2762 Vt Route 116, Starksboro, VT" -->
    <tag k="addr:city" v="Starksboro"/>
    <tag k="addr:housenumber" v="2762"/>
    <tag k="addr:street" v="Vermont Route 116"/>
    <tag k="addr:state" v="VT"/>
    <tag k="ref:vcgi:esiteid" v="248685"/>
  </node>
  <node id="-848" visible="true" lat="44.22449626" lon="-73.05656122">
    <!-- conflict: "2764 Vermont Route 116, Starksboro, VT" No match in OSM, but a different address exists <5m away: "2764 Vt Route 116, Starksboro, VT" -->
    <tag k="addr:city" v="Starksboro"/>
    <tag k="addr:housenumber" v="2764"/>
    <tag k="addr:street" v="Vermont Route 116"/>
    <tag k="addr:state" v="VT"/>
    <tag k="ref:vcgi:esiteid" v="248687"/>
  </node>
  <node id="-864" visible="true" lat="44.24796524" lon="-73.06649859">
    <!-- conflict: "205 Cemetery Road, Starksboro, VT" No match in OSM, but a different address exists <5m away: "185 Taryans Way, Starksboro, VT" -->
    <tag k="addr:city" v="Starksboro"/>
    <tag k="addr:housenumber" v="205"/>
    <tag k="addr:street" v="Cemetery Road"/>
    <tag k="addr:state" v="VT"/>
    <tag k="ref:vcgi:esiteid" v="248704"/>
  </node>
  <node id="-882" visible="true" lat="44.16156482" lon="-73.01678591">
    <!-- conflict: "80 Vermont Route 17, Starksboro, VT" No match in OSM, but a different address exists <5m away: "80 Vt Route 17, Starksboro, VT" -->
    <tag k="addr:city" v="Starksboro"/>
    <tag k="addr:housenumber" v="80"/>
    <tag k="addr:street" v="Vermont Route 17"/>
    <tag k="addr:state" v="VT"/>
    <tag k="ref:vcgi:esiteid" v="248722"/>
  </node>
  <node id="-927" visible="true" lat="44.22376597" lon="-73.05473008">
    <!-- conflict: "2734 Vermont Route 116, Starksboro, VT" No match in OSM, but a different address exists <5m away: "2734 Vt Route 116, Starksboro, VT" -->
    <tag k="addr:city" v="Starksboro"/>
    <tag k="addr:housenumber" v="2734"/>
    <tag k="addr:street" v="Vermont Route 116"/>
    <tag k="addr:state" v="VT"/>
    <tag k="ref:vcgi:esiteid" v="248769"/>
  </node>
  <node id="-939" visible="true" lat="44.2757084" lon="-73.06790915">
    <!-- conflict: "6385 Vermont Route 116, Starksboro, VT" No match in OSM, but a different address exists <5m away: "6385 Vt Route 116, Starksboro, VT" -->
    <tag k="addr:city" v="Starksboro"/>
    <tag k="addr:housenumber" v="6385"/>
    <tag k="addr:street" v="Vermont Route 116"/>
    <tag k="addr:state" v="VT"/>
    <tag k="ref:vcgi:esiteid" v="248785"/>
  </node>
  <node id="-940" visible="true" lat="44.27567354" lon="-73.06814528">
    <!-- conflict: "6375 Vermont Route 116, Starksboro, VT" No match in OSM, but a different address exists <5m away: "6375 Vt Route 116, Starksboro, VT" -->
    <tag k="addr:city" v="Starksboro"/>
    <tag k="addr:housenumber" v="6375"/>
    <tag k="addr:street" v="Vermont Route 116"/>
    <tag k="addr:state" v="VT"/>
    <tag k="ref:vcgi:esiteid" v="248786"/>
  </node>
  <node id="-1038" visible="true" lat="44.2110313" lon="-72.96204194">
    <!-- conflict: "164 Stave Brook Drive, Starksboro, VT" Fuzzy match to "164 Stave Brook Drive, Buels Gore, VT" -->
    <tag k="addr:city" v="Starksboro"/>
    <tag k="addr:housenumber" v="164"/>
    <tag k="addr:street" v="Stave Brook Drive"/>
    <tag k="addr:state" v="VT"/>
    <tag k="ref:vcgi:esiteid" v="611665"/>
  </node>
</osm>
