<?xml version="1.0" encoding="UTF-8"?>
<osm version="0.6" generator="JOSM">
  <node id="-139" visible="true" lat="43.79345871" lon="-72.67328815">
    <!-- conflict: "6123 Vermont Route 107, Stockbridge, VT" No match in OSM, but a different address exists <5m away: "6123 Vt Route 107, Stockbridge, VT" -->
    <tag k="addr:city" v="Stockbridge"/>
    <tag k="addr:housenumber" v="6123"/>
    <tag k="addr:street" v="Vermont Route 107"/>
    <tag k="addr:state" v="VT"/>
    <tag k="ref:vcgi:esiteid" v="248831"/>
  </node>
  <node id="-142" visible="true" lat="43.79332521" lon="-72.67003917">
    <!-- conflict: "6281 Vermont Route 107, Stockbridge, VT" No match in OSM, but a different address exists <5m away: "6281 Vt Route 107, Stockbridge, VT" -->
    <tag k="addr:city" v="Stockbridge"/>
    <tag k="addr:housenumber" v="6281"/>
    <tag k="addr:street" v="Vermont Route 107"/>
    <tag k="addr:state" v="VT"/>
    <tag k="ref:vcgi:esiteid" v="248834"/>
  </node>
  <node id="-146" visible="true" lat="43.79285235" lon="-72.67088435">
    <!-- conflict: "6230 Vermont Route 107, Stockbridge, VT" No match in OSM, but a different address exists <5m away: "6230 Vt Route 107, Stockbridge, VT" -->
    <tag k="addr:city" v="Stockbridge"/>
    <tag k="addr:housenumber" v="6230"/>
    <tag k="addr:street" v="Vermont Route 107"/>
    <tag k="addr:state" v="VT"/>
    <tag k="ref:vcgi:esiteid" v="248839"/>
  </node>
  <node id="-147" visible="true" lat="43.79279975" lon="-72.67503638">
    <!-- conflict: "6031 Vermont Route 107, Stockbridge, VT" No match in OSM, but a different address exists <5m away: "6031 Vt Route 107, Stockbridge, VT" -->
    <tag k="addr:city" v="Stockbridge"/>
    <tag k="addr:housenumber" v="6031"/>
    <tag k="addr:street" v="Vermont Route 107"/>
    <tag k="addr:state" v="VT"/>
    <tag k="ref:vcgi:esiteid" v="248840"/>
  </node>
  <node id="-150" visible="true" lat="43.79254097" lon="-72.67591272">
    <!-- conflict: "5993 Vermont Route 107, Stockbridge, VT" No match in OSM, but a different address exists <5m away: "5993 Vt Route 107, Stockbridge, VT" -->
    <tag k="addr:city" v="Stockbridge"/>
    <tag k="addr:housenumber" v="5993"/>
    <tag k="addr:street" v="Vermont Route 107"/>
    <tag k="addr:state" v="VT"/>
    <tag k="ref:vcgi:esiteid" v="248843"/>
  </node>
  <node id="-165" visible="true" lat="43.79106721" lon="-72.76162432">
    <!-- conflict: "3672 Vermont Route 100, Stockbridge, VT" No match in OSM, but a different address exists <5m away: "3672 Vt Route 100, Stockbridge, VT" -->
    <tag k="addr:city" v="Stockbridge"/>
    <tag k="addr:housenumber" v="3672"/>
    <tag k="addr:street" v="Vermont Route 100"/>
    <tag k="addr:state" v="VT"/>
    <tag k="ref:vcgi:esiteid" v="248858"/>
  </node>
  <node id="-195" visible="true" lat="43.78708342" lon="-72.68182868">
    <!-- conflict: "5496 Vermont Route 107, Stockbridge, VT" No match in OSM, but a different address exists <5m away: "5496 Vt Route 107, Stockbridge, VT" -->
    <tag k="addr:city" v="Stockbridge"/>
    <tag k="addr:housenumber" v="5496"/>
    <tag k="addr:street" v="Vermont Route 107"/>
    <tag k="addr:state" v="VT"/>
    <tag k="ref:vcgi:esiteid" v="248888"/>
  </node>
  <node id="-199" visible="true" lat="43.78652784" lon="-72.68351883">
    <!-- conflict: "5410 Vermont Route 107, Stockbridge, VT" No match in OSM, but a different address exists <5m away: "5410 Vt Route 107, Stockbridge, VT" -->
    <tag k="addr:city" v="Stockbridge"/>
    <tag k="addr:housenumber" v="5410"/>
    <tag k="addr:street" v="Vermont Route 107"/>
    <tag k="addr:state" v="VT"/>
    <tag k="ref:vcgi:esiteid" v="248893"/>
  </node>
  <node id="-200" visible="true" lat="43.78648075" lon="-72.6854209">
    <!-- conflict: "5321 Vermont Route 107, Stockbridge, VT" No match in OSM, but a different address exists <5m away: "5321 Vt Route 107, Stockbridge, VT" -->
    <tag k="addr:city" v="Stockbridge"/>
    <tag k="addr:housenumber" v="5321"/>
    <tag k="addr:street" v="Vermont Route 107"/>
    <tag k="addr:state" v="VT"/>
    <tag k="ref:vcgi:esiteid" v="248894"/>
  </node>
  <node id="-215" visible="true" lat="43.78537876" lon="-72.68801276">
    <!-- conflict: "5171 Vermont Route 107, Stockbridge, VT" No match in OSM, but a different address exists <5m away: "5171 Vt Route 107, Stockbridge, VT" -->
    <tag k="addr:city" v="Stockbridge"/>
    <tag k="addr:housenumber" v="5171"/>
    <tag k="addr:street" v="Vermont Route 107"/>
    <tag k="addr:state" v="VT"/>
    <tag k="ref:vcgi:esiteid" v="248910"/>
  </node>
  <node id="-225" visible="true" lat="43.7833786" lon="-72.75464012">
    <!-- conflict: "2893 Vermont Route 100, Stockbridge, VT" No match in OSM, but a different address exists <5m away: "2893 Vt Route 100, Stockbridge, VT" -->
    <tag k="addr:city" v="Stockbridge"/>
    <tag k="addr:housenumber" v="2893"/>
    <tag k="addr:street" v="Vermont Route 100"/>
    <tag k="addr:state" v="VT"/>
    <tag k="ref:vcgi:esiteid" v="248920"/>
  </node>
  <node id="-227" visible="true" lat="43.78317833" lon="-72.75531777">
    <!-- conflict: "2863 Vermont Route 100, Stockbridge, VT" No match in OSM, but a different address exists <5m away: "2863 Vt Route 100, Stockbridge, VT" -->
    <tag k="addr:city" v="Stockbridge"/>
    <tag k="addr:housenumber" v="2863"/>
    <tag k="addr:street" v="Vermont Route 100"/>
    <tag k="addr:state" v="VT"/>
    <tag k="ref:vcgi:esiteid" v="248922"/>
  </node>
  <node id="-228" visible="true" lat="43.78311874" lon="-72.75426175">
    <!-- conflict: "2902 Vermont Route 100, Stockbridge, VT" No match in OSM, but a different address exists <5m away: "2902 Vt Route 100, Stockbridge, VT" -->
    <tag k="addr:city" v="Stockbridge"/>
    <tag k="addr:housenumber" v="2902"/>
    <tag k="addr:street" v="Vermont Route 100"/>
    <tag k="addr:state" v="VT"/>
    <tag k="ref:vcgi:esiteid" v="248923"/>
  </node>
  <node id="-240" visible="true" lat="43.78151636" lon="-72.69340132">
    <!-- conflict: "4790 Vermont Route 107, Stockbridge, VT" No match in OSM, but a different address exists <5m away: "4790 Vt Route 107, Stockbridge, VT" -->
    <tag k="addr:city" v="Stockbridge"/>
    <tag k="addr:housenumber" v="4790"/>
    <tag k="addr:street" v="Vermont Route 107"/>
    <tag k="addr:state" v="VT"/>
    <tag k="ref:vcgi:esiteid" v="248935"/>
  </node>
  <node id="-243" visible="true" lat="43.78112102" lon="-72.69443252">
    <!-- conflict: "4736 Vermont Route 107, Stockbridge, VT" No match in OSM, but a different address exists <5m away: "4736 Vt Route 107, Stockbridge, VT" -->
    <tag k="addr:city" v="Stockbridge"/>
    <tag k="addr:housenumber" v="4736"/>
    <tag k="addr:street" v="Vermont Route 107"/>
    <tag k="addr:state" v="VT"/>
    <tag k="ref:vcgi:esiteid" v="248938"/>
  </node>
  <node id="-248" visible="true" lat="43.78057438" lon="-72.69524691">
    <!-- conflict: "4668 Vermont Route 107, Stockbridge, VT" No match in OSM, but a different address exists <5m away: "4668 Vt Route 107, Stockbridge, VT" -->
    <tag k="addr:city" v="Stockbridge"/>
    <tag k="addr:housenumber" v="4668"/>
    <tag k="addr:street" v="Vermont Route 107"/>
    <tag k="addr:state" v="VT"/>
    <tag k="ref:vcgi:esiteid" v="248945"/>
  </node>
  <node id="-250" visible="true" lat="43.78033132" lon="-72.78706872">
    <!-- conflict: "591 Vermont Route 100, Stockbridge, VT" No match in OSM, but a different address exists <5m away: "591 Vt Route 100, Stockbridge, VT" -->
    <tag k="addr:city" v="Stockbridge"/>
    <tag k="addr:housenumber" v="591"/>
    <tag k="addr:street" v="Vermont Route 100"/>
    <tag k="addr:state" v="VT"/>
    <tag k="ref:vcgi:esiteid" v="248948"/>
  </node>
  <node id="-252" visible="true" lat="43.78032385" lon="-72.78432254">
    <!-- conflict: "667 Vermont Route 100, Stockbridge, VT" No match in OSM, but a different address exists <5m away: "667 Vt Route 100, Stockbridge, VT" -->
    <tag k="addr:city" v="Stockbridge"/>
    <tag k="addr:housenumber" v="667"/>
    <tag k="addr:street" v="Vermont Route 100"/>
    <tag k="addr:state" v="VT"/>
    <tag k="ref:vcgi:esiteid" v="248950"/>
  </node>
  <node id="-258" visible="true" lat="43.78018219" lon="-72.70094005">
    <!-- conflict: "44 Kelly Road, Stockbridge, VT" No match in OSM, but a different address exists <5m away: "121 River Road, Stockbridge, VT" -->
    <tag k="addr:city" v="Stockbridge"/>
    <tag k="addr:housenumber" v="44"/>
    <tag k="addr:street" v="Kelly Road"/>
    <tag k="addr:state" v="VT"/>
    <tag k="ref:vcgi:esiteid" v="248956"/>
  </node>
  <node id="-260" visible="true" lat="43.78007416" lon="-72.69606228">
    <!-- conflict: "4614 Vermont Route 107, Stockbridge, VT" No match in OSM, but a different address exists <5m away: "4614 Vt Route 107, Stockbridge, VT" -->
    <tag k="addr:city" v="Stockbridge"/>
    <tag k="addr:housenumber" v="4614"/>
    <tag k="addr:street" v="Vermont Route 107"/>
    <tag k="addr:state" v="VT"/>
    <tag k="ref:vcgi:esiteid" v="248958"/>
  </node>
  <node id="-265" visible="true" lat="43.77978039" lon="-72.78918466">
    <!-- conflict: "477 Vermont Route 100, Stockbridge, VT" No match in OSM, but a different address exists <5m away: "477 Vt Route 100, Stockbridge, VT" -->
    <tag k="addr:city" v="Stockbridge"/>
    <tag k="addr:housenumber" v="477"/>
    <tag k="addr:street" v="Vermont Route 100"/>
    <tag k="addr:state" v="VT"/>
    <tag k="ref:vcgi:esiteid" v="248963"/>
  </node>
  <node id="-268" visible="true" lat="43.7796555" lon="-72.6962363">
    <!-- conflict: "4584 Vermont Route 107, Stockbridge, VT" No match in OSM, but a different address exists <5m away: "4584 Vt Route 107, Stockbridge, VT" -->
    <tag k="addr:city" v="Stockbridge"/>
    <tag k="addr:housenumber" v="4584"/>
    <tag k="addr:street" v="Vermont Route 107"/>
    <tag k="addr:state" v="VT"/>
    <tag k="ref:vcgi:esiteid" v="248966"/>
  </node>
  <node id="-269" visible="true" lat="43.77944528" lon="-72.78548066">
    <!-- conflict: "662 Vermont Route 100, Stockbridge, VT" No match in OSM, but a different address exists <5m away: "662 Vt Route 100, Stockbridge, VT" -->
    <tag k="addr:city" v="Stockbridge"/>
    <tag k="addr:housenumber" v="662"/>
    <tag k="addr:street" v="Vermont Route 100"/>
    <tag k="addr:state" v="VT"/>
    <tag k="ref:vcgi:esiteid" v="248967"/>
  </node>
  <node id="-270" visible="true" lat="43.77953673" lon="-72.78335564">
    <!-- conflict: "727 Vermont Route 100, Stockbridge, VT" No match in OSM, but a different address exists <5m away: "727 Vt Route 100, Stockbridge, VT" -->
    <tag k="addr:city" v="Stockbridge"/>
    <tag k="addr:housenumber" v="727"/>
    <tag k="addr:street" v="Vermont Route 100"/>
    <tag k="addr:state" v="VT"/>
    <tag k="ref:vcgi:esiteid" v="248968"/>
  </node>
  <node id="-272" visible="true" lat="43.77956831" lon="-72.69662458">
    <!-- conflict: "4564 Vermont Route 107, Stockbridge, VT" No match in OSM, but a different address exists <5m away: "4564 Vt Route 107, Stockbridge, VT" -->
    <tag k="addr:city" v="Stockbridge"/>
    <tag k="addr:housenumber" v="4564"/>
    <tag k="addr:street" v="Vermont Route 107"/>
    <tag k="addr:state" v="VT"/>
    <tag k="ref:vcgi:esiteid" v="248970"/>
  </node>
  <node id="-275" visible="true" lat="43.77929858" lon="-72.78745472">
    <!-- conflict: "554 Vermont Route 100, Stockbridge, VT" No match in OSM, but a different address exists <5m away: "554 Vt Route 100, Stockbridge, VT" -->
    <tag k="addr:city" v="Stockbridge"/>
    <tag k="addr:housenumber" v="554"/>
    <tag k="addr:street" v="Vermont Route 100"/>
    <tag k="addr:state" v="VT"/>
    <tag k="ref:vcgi:esiteid" v="248973"/>
  </node>
  <node id="-276" visible="true" lat="43.77941901" lon="-72.69679336">
    <!-- conflict: "4552 Vermont Route 107, Stockbridge, VT" No match in OSM, but a different address exists <5m away: "4552 Vt Route 107, Stockbridge, VT" -->
    <tag k="addr:city" v="Stockbridge"/>
    <tag k="addr:housenumber" v="4552"/>
    <tag k="addr:street" v="Vermont Route 107"/>
    <tag k="addr:state" v="VT"/>
    <tag k="ref:vcgi:esiteid" v="248974"/>
  </node>
  <node id="-278" visible="true" lat="43.77917516" lon="-72.78788062">
    <!-- conflict: "532 Vermont Route 100, Stockbridge, VT" No match in OSM, but a different address exists <5m away: "532 Vt Route 100, Stockbridge, VT" -->
    <tag k="addr:city" v="Stockbridge"/>
    <tag k="addr:housenumber" v="532"/>
    <tag k="addr:street" v="Vermont Route 100"/>
    <tag k="addr:state" v="VT"/>
    <tag k="ref:vcgi:esiteid" v="248976"/>
  </node>
  <node id="-283" visible="true" lat="43.77911553" lon="-72.69701193">
    <!-- conflict: "4530 Vermont Route 107, Stockbridge, VT" No match in OSM, but a different address exists <5m away: "4530 Vt Route 107, Stockbridge, VT" -->
    <tag k="addr:city" v="Stockbridge"/>
    <tag k="addr:housenumber" v="4530"/>
    <tag k="addr:street" v="Vermont Route 107"/>
    <tag k="addr:state" v="VT"/>
    <tag k="ref:vcgi:esiteid" v="248982"/>
  </node>
  <node id="-287" visible="true" lat="43.77873161" lon="-72.7971629">
    <!-- conflict: "55 Vermont Route 100, Stockbridge, VT" No match in OSM, but a different address exists <5m away: "55 Vt Route 100, Stockbridge, VT" -->
    <tag k="addr:city" v="Stockbridge"/>
    <tag k="addr:housenumber" v="55"/>
    <tag k="addr:street" v="Vermont Route 100"/>
    <tag k="addr:state" v="VT"/>
    <tag k="ref:vcgi:esiteid" v="248987"/>
  </node>
  <node id="-294" visible="true" lat="43.77852378" lon="-72.69778225">
    <!-- conflict: "4472 Vermont Route 107, Stockbridge, VT" No match in OSM, but a different address exists <5m away: "4472 Vt Route 107, Stockbridge, VT" -->
    <tag k="addr:city" v="Stockbridge"/>
    <tag k="addr:housenumber" v="4472"/>
    <tag k="addr:street" v="Vermont Route 107"/>
    <tag k="addr:state" v="VT"/>
    <tag k="ref:vcgi:esiteid" v="248994"/>
  </node>
  <node id="-296" visible="true" lat="43.77807616" lon="-72.79715965">
    <!-- conflict: "74 Vermont Route 100, Stockbridge, VT" No match in OSM, but a different address exists <5m away: "74 Vt Route 100, Stockbridge, VT" -->
    <tag k="addr:city" v="Stockbridge"/>
    <tag k="addr:housenumber" v="74"/>
    <tag k="addr:street" v="Vermont Route 100"/>
    <tag k="addr:state" v="VT"/>
    <tag k="ref:vcgi:esiteid" v="248996"/>
  </node>
  <node id="-299" visible="true" lat="43.77824908" lon="-72.78857451">
    <!-- conflict: "488 Vermont Route 100, Stockbridge, VT" No match in OSM, but a different address exists <5m away: "488 Vt Route 100, Stockbridge, VT" -->
    <tag k="addr:city" v="Stockbridge"/>
    <tag k="addr:housenumber" v="488"/>
    <tag k="addr:street" v="Vermont Route 100"/>
    <tag k="addr:state" v="VT"/>
    <tag k="ref:vcgi:esiteid" v="248999"/>
  </node>
  <node id="-305" visible="true" lat="43.77777301" lon="-72.79447547">
    <!-- conflict: "198 Vermont Route 100, Stockbridge, VT" No match in OSM, but a different address exists <5m away: "198 Vt Route 100, Stockbridge, VT" -->
    <tag k="addr:city" v="Stockbridge"/>
    <tag k="addr:housenumber" v="198"/>
    <tag k="addr:street" v="Vermont Route 100"/>
    <tag k="addr:state" v="VT"/>
    <tag k="ref:vcgi:esiteid" v="249005"/>
  </node>
  <node id="-314" visible="true" lat="43.77765057" lon="-72.78162229">
    <!-- conflict: "902 Vermont Route 100, Stockbridge, VT" No match in OSM, but a different address exists <5m away: "902 Vt Route 100, Stockbridge, VT" -->
    <tag k="addr:city" v="Stockbridge"/>
    <tag k="addr:housenumber" v="902"/>
    <tag k="addr:street" v="Vermont Route 100"/>
    <tag k="addr:state" v="VT"/>
    <tag k="ref:vcgi:esiteid" v="249015"/>
  </node>
  <node id="-336" visible="true" lat="43.77677552" lon="-72.77274176">
    <!-- conflict: "1349 Vermont Route 100, Stockbridge, VT" No match in OSM, but a different address exists <5m away: "1349 Vt Route 100, Stockbridge, VT" -->
    <tag k="addr:city" v="Stockbridge"/>
    <tag k="addr:housenumber" v="1349"/>
    <tag k="addr:street" v="Vermont Route 100"/>
    <tag k="addr:state" v="VT"/>
    <tag k="ref:vcgi:esiteid" v="249037"/>
  </node>
  <node id="-343" visible="true" lat="43.77675571" lon="-72.77816665">
    <!-- conflict: "1072 Vermont Route 100, Stockbridge, VT" No match in OSM, but a different address exists <5m away: "1072 Vt Route 100, Stockbridge, VT" -->
    <tag k="addr:city" v="Stockbridge"/>
    <tag k="addr:housenumber" v="1072"/>
    <tag k="addr:street" v="Vermont Route 100"/>
    <tag k="addr:state" v="VT"/>
    <tag k="ref:vcgi:esiteid" v="249044"/>
  </node>
  <node id="-344" visible="true" lat="43.77671863" lon="-72.76999686">
    <!-- conflict: "1475 Vermont Route 100, Stockbridge, VT" No match in OSM, but a different address exists <5m away: "1475 Vt Route 100, Stockbridge, VT" -->
    <tag k="addr:city" v="Stockbridge"/>
    <tag k="addr:housenumber" v="1475"/>
    <tag k="addr:street" v="Vermont Route 100"/>
    <tag k="addr:state" v="VT"/>
    <tag k="ref:vcgi:esiteid" v="249045"/>
  </node>
  <node id="-360" visible="true" lat="43.77598982" lon="-72.79660768">
    <!-- conflict: "188 Vermont Route 100, Stockbridge, VT" No match in OSM, but a different address exists <5m away: "188 Vt Route 100, Stockbridge, VT" -->
    <tag k="addr:city" v="Stockbridge"/>
    <tag k="addr:housenumber" v="188"/>
    <tag k="addr:street" v="Vermont Route 100"/>
    <tag k="addr:state" v="VT"/>
    <tag k="ref:vcgi:esiteid" v="249064"/>
  </node>
  <node id="-365" visible="true" lat="43.77579256" lon="-72.76524374">
    <!-- conflict: "1731 Vermont Route 100, Stockbridge, VT" No match in OSM, but a different address exists <5m away: "1731 Vt Route 100, Stockbridge, VT" -->
    <tag k="addr:city" v="Stockbridge"/>
    <tag k="addr:housenumber" v="1731"/>
    <tag k="addr:street" v="Vermont Route 100"/>
    <tag k="addr:state" v="VT"/>
    <tag k="ref:vcgi:esiteid" v="249071"/>
  </node>
  <node id="-367" visible="true" lat="43.77558754" lon="-72.77671208">
    <!-- conflict: "1152 Vermont Route 100, Stockbridge, VT" No match in OSM, but a different address exists <5m away: "1152 Vt Route 100, Stockbridge, VT" -->
    <tag k="addr:city" v="Stockbridge"/>
    <tag k="addr:housenumber" v="1152"/>
    <tag k="addr:street" v="Vermont Route 100"/>
    <tag k="addr:state" v="VT"/>
    <tag k="ref:vcgi:esiteid" v="249075"/>
  </node>
  <node id="-369" visible="true" lat="43.77552453" lon="-72.76455996">
    <!-- conflict: "1771 Vermont Route 100, Stockbridge, VT" No match in OSM, but a different address exists <5m away: "1771 Vt Route 100, Stockbridge, VT" -->
    <tag k="addr:city" v="Stockbridge"/>
    <tag k="addr:housenumber" v="1771"/>
    <tag k="addr:street" v="Vermont Route 100"/>
    <tag k="addr:state" v="VT"/>
    <tag k="ref:vcgi:esiteid" v="249080"/>
  </node>
  <node id="-375" visible="true" lat="43.77535348" lon="-72.76587622">
    <!-- conflict: "1720 Vermont Route 100, Stockbridge, VT" No match in OSM, but a different address exists <5m away: "1720 Vt Route 100, Stockbridge, VT" -->
    <tag k="addr:city" v="Stockbridge"/>
    <tag k="addr:housenumber" v="1720"/>
    <tag k="addr:street" v="Vermont Route 100"/>
    <tag k="addr:state" v="VT"/>
    <tag k="ref:vcgi:esiteid" v="249086"/>
  </node>
  <node id="-409" visible="true" lat="43.77017904" lon="-72.70497945">
    <!-- conflict: "3731 Vermont Route 107, Stockbridge, VT" No match in OSM, but a different address exists <5m away: "3731 Vt Route 107, Stockbridge, VT" -->
    <tag k="addr:city" v="Stockbridge"/>
    <tag k="addr:housenumber" v="3731"/>
    <tag k="addr:street" v="Vermont Route 107"/>
    <tag k="addr:state" v="VT"/>
    <tag k="ref:vcgi:esiteid" v="249122"/>
  </node>
  <node id="-412" visible="true" lat="43.76949837" lon="-72.75881127">
    <!-- conflict: "534 Vermont Route 107, Stockbridge, VT" No match in OSM, but a different address exists <5m away: "534 Vt Route 107, Stockbridge, VT" -->
    <tag k="addr:city" v="Stockbridge"/>
    <tag k="addr:housenumber" v="534"/>
    <tag k="addr:street" v="Vermont Route 107"/>
    <tag k="addr:state" v="VT"/>
    <tag k="ref:vcgi:esiteid" v="249125"/>
  </node>
  <node id="-422" visible="true" lat="43.76622088" lon="-72.71036492">
    <!-- conflict: "3326 Vermont Route 107, Stockbridge, VT" No match in OSM, but a different address exists <5m away: "3326 Vt Route 107, Stockbridge, VT" -->
    <tag k="addr:city" v="Stockbridge"/>
    <tag k="addr:housenumber" v="3326"/>
    <tag k="addr:street" v="Vermont Route 107"/>
    <tag k="addr:state" v="VT"/>
    <tag k="ref:vcgi:esiteid" v="249135"/>
  </node>
  <node id="-424" visible="true" lat="43.76471753" lon="-72.71565755">
    <!-- conflict: "3051 Vermont Route 107, Stockbridge, VT" No match in OSM, but a different address exists <5m away: "3051 Vt Route 107, Stockbridge, VT" -->
    <tag k="addr:city" v="Stockbridge"/>
    <tag k="addr:housenumber" v="3051"/>
    <tag k="addr:street" v="Vermont Route 107"/>
    <tag k="addr:state" v="VT"/>
    <tag k="ref:vcgi:esiteid" v="249138"/>
  </node>
  <node id="-428" visible="true" lat="43.76408563" lon="-72.71792992">
    <!-- conflict: "2933 Vermont Route 107, Stockbridge, VT" No match in OSM, but a different address exists <5m away: "2933 Vt Route 107, Stockbridge, VT" -->
    <tag k="addr:city" v="Stockbridge"/>
    <tag k="addr:housenumber" v="2933"/>
    <tag k="addr:street" v="Vermont Route 107"/>
    <tag k="addr:state" v="VT"/>
    <tag k="ref:vcgi:esiteid" v="249142"/>
  </node>
  <node id="-430" visible="true" lat="43.76378662" lon="-72.71843171">
    <!-- conflict: "2903 Vermont Route 107, Stockbridge, VT" No match in OSM, but a different address exists <5m away: "2903 Vt Route 107, Stockbridge, VT" -->
    <tag k="addr:city" v="Stockbridge"/>
    <tag k="addr:housenumber" v="2903"/>
    <tag k="addr:street" v="Vermont Route 107"/>
    <tag k="addr:state" v="VT"/>
    <tag k="ref:vcgi:esiteid" v="249144"/>
  </node>
  <node id="-432" visible="true" lat="43.7635982" lon="-72.71901176">
    <!-- conflict: "2869 Vermont Route 107, Stockbridge, VT" No match in OSM, but a different address exists <5m away: "2869 Vt Route 107, Stockbridge, VT" -->
    <tag k="addr:city" v="Stockbridge"/>
    <tag k="addr:housenumber" v="2869"/>
    <tag k="addr:street" v="Vermont Route 107"/>
    <tag k="addr:state" v="VT"/>
    <tag k="ref:vcgi:esiteid" v="249146"/>
  </node>
  <node id="-434" visible="true" lat="43.76337823" lon="-72.71951967">
    <!-- conflict: "2845 Vermont Route 107, Stockbridge, VT" No match in OSM, but a different address exists <5m away: "2845 Vt Route 107, Stockbridge, VT" -->
    <tag k="addr:city" v="Stockbridge"/>
    <tag k="addr:housenumber" v="2845"/>
    <tag k="addr:street" v="Vermont Route 107"/>
    <tag k="addr:state" v="VT"/>
    <tag k="ref:vcgi:esiteid" v="249148"/>
  </node>
  <node id="-435" visible="true" lat="43.76323058" lon="-72.71970649">
    <!-- conflict: "2829 Vermont Route 107, Stockbridge, VT" No match in OSM, but a different address exists <5m away: "2829 Vt Route 107, Stockbridge, VT" -->
    <tag k="addr:city" v="Stockbridge"/>
    <tag k="addr:housenumber" v="2829"/>
    <tag k="addr:street" v="Vermont Route 107"/>
    <tag k="addr:state" v="VT"/>
    <tag k="ref:vcgi:esiteid" v="249149"/>
  </node>
  <node id="-436" visible="true" lat="43.7631297" lon="-72.71875753">
    <!-- conflict: "2868 Vermont Route 107, Stockbridge, VT" No match in OSM, but a different address exists <5m away: "2868 Vt Route 107, Stockbridge, VT" -->
    <tag k="addr:city" v="Stockbridge"/>
    <tag k="addr:housenumber" v="2868"/>
    <tag k="addr:street" v="Vermont Route 107"/>
    <tag k="addr:state" v="VT"/>
    <tag k="ref:vcgi:esiteid" v="249150"/>
  </node>
  <node id="-437" visible="true" lat="43.76309518" lon="-72.71990803">
    <!-- conflict: "2811 Vermont Route 107, Stockbridge, VT" No match in OSM, but a different address exists <5m away: "2811 Vt Route 107, Stockbridge, VT" -->
    <tag k="addr:city" v="Stockbridge"/>
    <tag k="addr:housenumber" v="2811"/>
    <tag k="addr:street" v="Vermont Route 107"/>
    <tag k="addr:state" v="VT"/>
    <tag k="ref:vcgi:esiteid" v="249151"/>
  </node>
  <node id="-439" visible="true" lat="43.76288892" lon="-72.7193371">
    <!-- conflict: "2822 Vermont Route 107, Stockbridge, VT" No match in OSM, but a different address exists <5m away: "2822 Vt Route 107, Stockbridge, VT" -->
    <tag k="addr:city" v="Stockbridge"/>
    <tag k="addr:housenumber" v="2822"/>
    <tag k="addr:street" v="Vermont Route 107"/>
    <tag k="addr:state" v="VT"/>
    <tag k="ref:vcgi:esiteid" v="249153"/>
  </node>
  <node id="-442" visible="true" lat="43.76154885" lon="-72.72085858">
    <!-- conflict: "2698 Vermont Route 107, Stockbridge, VT" No match in OSM, but a different address exists <5m away: "2698 Vt Route 107, Stockbridge, VT" -->
    <tag k="addr:city" v="Stockbridge"/>
    <tag k="addr:housenumber" v="2698"/>
    <tag k="addr:street" v="Vermont Route 107"/>
    <tag k="addr:state" v="VT"/>
    <tag k="ref:vcgi:esiteid" v="249156"/>
  </node>
  <node id="-448" visible="true" lat="43.76042425" lon="-72.72059212">
    <!-- conflict: "2678 Vermont Route 107, Stockbridge, VT" No match in OSM, but a different address exists <5m away: "2678 Vt Route 107, Stockbridge, VT" -->
    <tag k="addr:city" v="Stockbridge"/>
    <tag k="addr:housenumber" v="2678"/>
    <tag k="addr:street" v="Vermont Route 107"/>
    <tag k="addr:state" v="VT"/>
    <tag k="ref:vcgi:esiteid" v="249162"/>
  </node>
  <node id="-450" visible="true" lat="43.76000638" lon="-72.72079978">
    <!-- conflict: "2656 Vermont Route 107, Stockbridge, VT" No match in OSM, but a different address exists <5m away: "2656 Vt Route 107, Stockbridge, VT" -->
    <tag k="addr:city" v="Stockbridge"/>
    <tag k="addr:housenumber" v="2656"/>
    <tag k="addr:street" v="Vermont Route 107"/>
    <tag k="addr:state" v="VT"/>
    <tag k="ref:vcgi:esiteid" v="249164"/>
  </node>
  <node id="-595" visible="true" lat="43.78017534" lon="-72.78987361">
    <!-- conflict: "429 Vermont Route 100, Stockbridge, VT" No match in OSM, but a different address exists <5m away: "429 Vt Route 100, Stockbridge, VT" -->
    <tag k="addr:city" v="Stockbridge"/>
    <tag k="addr:housenumber" v="429"/>
    <tag k="addr:street" v="Vermont Route 100"/>
    <tag k="addr:state" v="VT"/>
    <tag k="ref:vcgi:esiteid" v="249315"/>
  </node>
  <node id="-604" visible="true" lat="43.77063641" lon="-72.75679227">
    <!-- conflict: "401 Vermont Route 107, Stockbridge, VT" No match in OSM, but a different address exists <5m away: "401 Vt Route 107, Stockbridge, VT" -->
    <tag k="addr:city" v="Stockbridge"/>
    <tag k="addr:housenumber" v="401"/>
    <tag k="addr:street" v="Vermont Route 107"/>
    <tag k="addr:state" v="VT"/>
    <tag k="ref:vcgi:esiteid" v="249325"/>
  </node>
  <node id="-608" visible="true" lat="43.77952642" lon="-72.78998157">
    <!-- conflict: "427 Vermont Route 100, Stockbridge, VT" No match in OSM, but a different address exists <5m away: "427 Vt Route 100, Stockbridge, VT" -->
    <tag k="addr:city" v="Stockbridge"/>
    <tag k="addr:housenumber" v="427"/>
    <tag k="addr:street" v="Vermont Route 100"/>
    <tag k="addr:state" v="VT"/>
    <tag k="ref:vcgi:esiteid" v="249329"/>
  </node>
  <node id="-609" visible="true" lat="43.77960272" lon="-72.79052919">
    <!-- conflict: "425 Vermont Route 100, Stockbridge, VT" No match in OSM, but a different address exists <5m away: "425 Vt Route 100, Stockbridge, VT" -->
    <tag k="addr:city" v="Stockbridge"/>
    <tag k="addr:housenumber" v="425"/>
    <tag k="addr:street" v="Vermont Route 100"/>
    <tag k="addr:state" v="VT"/>
    <tag k="ref:vcgi:esiteid" v="249330"/>
  </node>
  <node id="-621" visible="true" lat="43.77694519" lon="-72.79417527">
    <!-- conflict: "208 Vermont Route 100, Stockbridge, VT" No match in OSM, but a different address exists <5m away: "208 Vt Route 100, Stockbridge, VT" -->
    <tag k="addr:city" v="Stockbridge"/>
    <tag k="addr:housenumber" v="208"/>
    <tag k="addr:street" v="Vermont Route 100"/>
    <tag k="addr:state" v="VT"/>
    <tag k="ref:vcgi:esiteid" v="249343"/>
  </node>
  <node id="-629" visible="true" lat="43.78001041" lon="-72.79108702">
    <!-- conflict: "389 Vermont Route 100, Stockbridge, VT" No match in OSM, but a different address exists <5m away: "389 Vt Route 100, Stockbridge, VT" -->
    <tag k="addr:city" v="Stockbridge"/>
    <tag k="addr:housenumber" v="389"/>
    <tag k="addr:street" v="Vermont Route 100"/>
    <tag k="addr:state" v="VT"/>
    <tag k="ref:vcgi:esiteid" v="307155"/>
  </node>
  <node id="-668" visible="true" lat="43.78002224" lon="-72.79251331">
    <!-- conflict: "277 Vermont Route 100, Stockbridge, VT" No match in OSM, but a different address exists <5m away: "277 Vt Route 100, Stockbridge, VT" -->
    <tag k="addr:city" v="Stockbridge"/>
    <tag k="addr:housenumber" v="277"/>
    <tag k="addr:street" v="Vermont Route 100"/>
    <tag k="addr:state" v="VT"/>
    <tag k="ref:vcgi:esiteid" v="342410"/>
  </node>
  <node id="-672" visible="true" lat="43.78004784" lon="-72.78819235">
    <!-- conflict: "589 Vermont Route 100, Stockbridge, VT" No match in OSM, but a different address exists <5m away: "589 Vt Route 100, Stockbridge, VT" -->
    <tag k="addr:city" v="Stockbridge"/>
    <tag k="addr:housenumber" v="589"/>
    <tag k="addr:street" v="Vermont Route 100"/>
    <tag k="addr:state" v="VT"/>
    <tag k="ref:vcgi:esiteid" v="345653"/>
  </node>
</osm>
