<?xml version="1.0" encoding="UTF-8"?>
<osm version="0.6" generator="JOSM" upload="false">
  <node id="-134" visible="true" lat="43.79429263" lon="-72.67597579">
    <tag k="addr:city" v="Stockbridge"/>
    <tag k="addr:housenumber" v="1785"/>
    <tag k="addr:street" v="River Road"/>
    <tag k="addr:state" v="VT"/>
    <tag k="ref:vcgi:esiteid" v="248827"/>
  </node>
  <node id="-140" visible="true" lat="43.79340197" lon="-72.67924648">
    <tag k="addr:city" v="Stockbridge"/>
    <tag k="addr:housenumber" v="10"/>
    <tag k="addr:street" v="Lilliesville Road"/>
    <tag k="addr:state" v="VT"/>
    <tag k="ref:vcgi:esiteid" v="248833"/>
  </node>
  <node id="-144" visible="true" lat="43.79293235" lon="-72.67899305">
    <tag k="addr:city" v="Stockbridge"/>
    <tag k="addr:housenumber" v="1599"/>
    <tag k="addr:street" v="River Road"/>
    <tag k="addr:state" v="VT"/>
    <tag k="ref:vcgi:esiteid" v="248837"/>
  </node>
  <node id="-147" visible="true" lat="43.79271325" lon="-72.67984309">
    <tag k="addr:city" v="Stockbridge"/>
    <tag k="addr:housenumber" v="7"/>
    <tag k="addr:street" v="Lilliesville Road"/>
    <tag k="addr:state" v="VT"/>
    <tag k="ref:vcgi:esiteid" v="248841"/>
  </node>
  <node id="-151" visible="true" lat="43.79254711" lon="-72.68331801">
    <tag k="addr:city" v="Stockbridge"/>
    <tag k="addr:housenumber" v="158"/>
    <tag k="addr:street" v="Abbott Road"/>
    <tag k="addr:state" v="VT"/>
    <tag k="ref:vcgi:esiteid" v="248845"/>
  </node>
  <node id="-153" visible="true" lat="43.79204535" lon="-72.75510075">
    <tag k="addr:city" v="Stockbridge"/>
    <tag k="addr:housenumber" v="301"/>
    <tag k="addr:street" v="Music Mountain Road"/>
    <tag k="addr:state" v="VT"/>
    <tag k="ref:vcgi:esiteid" v="248847"/>
  </node>
  <node id="-156" visible="true" lat="43.79202402" lon="-72.67135325">
    <tag k="addr:city" v="Stockbridge"/>
    <tag k="addr:housenumber" v="71"/>
    <tag k="addr:street" v="Arnold Mountain Road"/>
    <tag k="addr:state" v="VT"/>
    <tag k="ref:vcgi:esiteid" v="248850"/>
  </node>
  <node id="-159" visible="true" lat="43.79167365" lon="-72.75671841">
    <tag k="addr:city" v="Stockbridge"/>
    <tag k="addr:housenumber" v="207"/>
    <tag k="addr:street" v="Music Mountain Road"/>
    <tag k="addr:state" v="VT"/>
    <tag k="ref:vcgi:esiteid" v="248853"/>
  </node>
  <node id="-161" visible="true" lat="43.79202976" lon="-72.68047221">
    <tag k="addr:city" v="Stockbridge"/>
    <tag k="addr:housenumber" v="1471"/>
    <tag k="addr:street" v="River Road"/>
    <tag k="addr:state" v="VT"/>
    <tag k="ref:vcgi:esiteid" v="248855"/>
  </node>
  <node id="-162" visible="true" lat="43.79140942" lon="-72.75565266">
    <tag k="addr:city" v="Stockbridge"/>
    <tag k="addr:housenumber" v="263"/>
    <tag k="addr:street" v="Music Mountain Road"/>
    <tag k="addr:state" v="VT"/>
    <tag k="ref:vcgi:esiteid" v="248856"/>
  </node>
  <node id="-163" visible="true" lat="43.79147941" lon="-72.67384938">
    <tag k="addr:city" v="Stockbridge"/>
    <tag k="addr:housenumber" v="164"/>
    <tag k="addr:street" v="Arnold Mountain Road"/>
    <tag k="addr:state" v="VT"/>
    <tag k="ref:vcgi:esiteid" v="248857"/>
  </node>
  <node id="-168" visible="true" lat="43.79035927" lon="-72.75630345">
    <tag k="addr:city" v="Stockbridge"/>
    <tag k="addr:housenumber" v="175"/>
    <tag k="addr:street" v="Music Mountain Road"/>
    <tag k="addr:state" v="VT"/>
    <tag k="ref:vcgi:esiteid" v="248862"/>
  </node>
  <node id="-169" visible="true" lat="43.79046697" lon="-72.68482728">
    <tag k="addr:city" v="Stockbridge"/>
    <tag k="addr:housenumber" v="157"/>
    <tag k="addr:street" v="Abbott Road"/>
    <tag k="addr:state" v="VT"/>
    <tag k="ref:vcgi:esiteid" v="248863"/>
  </node>
  <node id="-171" visible="true" lat="43.78998148" lon="-72.7595414">
    <tag k="addr:city" v="Stockbridge"/>
    <tag k="addr:housenumber" v="618"/>
    <tag k="addr:street" v="Stockbridge Common"/>
    <tag k="addr:state" v="VT"/>
    <tag k="ref:vcgi:esiteid" v="248865"/>
  </node>
  <node id="-177" visible="true" lat="43.78933903" lon="-72.75757631">
    <tag k="addr:city" v="Stockbridge"/>
    <tag k="addr:housenumber" v="77"/>
    <tag k="addr:street" v="Music Mountain Road"/>
    <tag k="addr:state" v="VT"/>
    <tag k="ref:vcgi:esiteid" v="248871"/>
  </node>
  <node id="-180" visible="true" lat="43.78891677" lon="-72.75756377">
    <tag k="addr:city" v="Stockbridge"/>
    <tag k="addr:housenumber" v="43"/>
    <tag k="addr:street" v="Music Mountain Road"/>
    <tag k="addr:state" v="VT"/>
    <tag k="ref:vcgi:esiteid" v="248874"/>
  </node>
  <node id="-182" visible="true" lat="43.78898655" lon="-72.68371614">
    <tag k="addr:city" v="Stockbridge"/>
    <tag k="addr:housenumber" v="1231"/>
    <tag k="addr:street" v="River Road"/>
    <tag k="addr:state" v="VT"/>
    <tag k="ref:vcgi:esiteid" v="248876"/>
  </node>
  <node id="-185" visible="true" lat="43.78827428" lon="-72.758126">
    <tag k="addr:city" v="Stockbridge"/>
    <tag k="addr:housenumber" v="3"/>
    <tag k="addr:street" v="Music Mountain Road"/>
    <tag k="addr:state" v="VT"/>
    <tag k="ref:vcgi:esiteid" v="248879"/>
  </node>
  <node id="-191" visible="true" lat="43.78741909" lon="-72.75685534">
    <tag k="addr:city" v="Stockbridge"/>
    <tag k="addr:housenumber" v="379"/>
    <tag k="addr:street" v="Stockbridge Common"/>
    <tag k="addr:state" v="VT"/>
    <tag k="ref:vcgi:esiteid" v="248885"/>
  </node>
  <node id="-193" visible="true" lat="43.78707397" lon="-72.75471478">
    <tag k="addr:city" v="Stockbridge"/>
    <tag k="addr:housenumber" v="278"/>
    <tag k="addr:street" v="Stockbridge Common"/>
    <tag k="addr:state" v="VT"/>
    <tag k="ref:vcgi:esiteid" v="248887"/>
  </node>
  <node id="-196" visible="true" lat="43.78679632" lon="-72.75545223">
    <tag k="addr:city" v="Stockbridge"/>
    <tag k="addr:housenumber" v="97"/>
    <tag k="addr:street" v="Maplewood Drive"/>
    <tag k="addr:state" v="VT"/>
    <tag k="ref:vcgi:esiteid" v="248890"/>
  </node>
  <node id="-197" visible="true" lat="43.7865637" lon="-72.75395713">
    <tag k="addr:city" v="Stockbridge"/>
    <tag k="addr:housenumber" v="230"/>
    <tag k="addr:street" v="Stockbridge Common"/>
    <tag k="addr:state" v="VT"/>
    <tag k="ref:vcgi:esiteid" v="248892"/>
  </node>
  <node id="-201" visible="true" lat="43.7862354" lon="-72.68240111">
    <tag k="addr:city" v="Stockbridge"/>
    <tag k="addr:housenumber" v="139"/>
    <tag k="addr:street" v="Sweet Lane"/>
    <tag k="addr:state" v="VT"/>
    <tag k="ref:vcgi:esiteid" v="248897"/>
  </node>
  <node id="-202" visible="true" lat="43.78616248" lon="-72.75351013">
    <tag k="addr:city" v="Stockbridge"/>
    <tag k="addr:housenumber" v="192"/>
    <tag k="addr:street" v="Stockbridge Common"/>
    <tag k="addr:state" v="VT"/>
    <tag k="ref:vcgi:esiteid" v="248898"/>
  </node>
  <node id="-211" visible="true" lat="43.7856644" lon="-72.75391123">
    <tag k="addr:city" v="Stockbridge"/>
    <tag k="addr:housenumber" v="27"/>
    <tag k="addr:street" v="Maplewood Drive"/>
    <tag k="addr:state" v="VT"/>
    <tag k="ref:vcgi:esiteid" v="248907"/>
  </node>
  <node id="-212" visible="true" lat="43.78565389" lon="-72.75294808">
    <tag k="addr:city" v="Stockbridge"/>
    <tag k="addr:housenumber" v="148"/>
    <tag k="addr:street" v="Stockbridge Common"/>
    <tag k="addr:state" v="VT"/>
    <tag k="ref:vcgi:esiteid" v="248908"/>
  </node>
  <node id="-216" visible="true" lat="43.78476091" lon="-72.75254734">
    <tag k="addr:city" v="Stockbridge"/>
    <tag k="addr:housenumber" v="88"/>
    <tag k="addr:street" v="Stockbridge Common"/>
    <tag k="addr:state" v="VT"/>
    <tag k="ref:vcgi:esiteid" v="248912"/>
  </node>
  <node id="-219" visible="true" lat="43.7839883" lon="-72.75277828">
    <tag k="addr:city" v="Stockbridge"/>
    <tag k="addr:housenumber" v="50"/>
    <tag k="addr:street" v="Stockbridge Common"/>
    <tag k="addr:state" v="VT"/>
    <tag k="ref:vcgi:esiteid" v="248915"/>
  </node>
  <node id="-220" visible="true" lat="43.78387228" lon="-72.75364351">
    <tag k="addr:city" v="Stockbridge"/>
    <tag k="addr:housenumber" v="13"/>
    <tag k="addr:street" v="Stockbridge Common"/>
    <tag k="addr:state" v="VT"/>
    <tag k="ref:vcgi:esiteid" v="248916"/>
  </node>
  <node id="-225" visible="true" lat="43.78346809" lon="-72.75320708">
    <tag k="addr:city" v="Stockbridge"/>
    <tag k="addr:housenumber" v="16"/>
    <tag k="addr:street" v="Stockbridge Common"/>
    <tag k="addr:state" v="VT"/>
    <tag k="ref:vcgi:esiteid" v="248921"/>
  </node>
  <node id="-231" visible="true" lat="43.78294213" lon="-72.75374143">
    <tag k="addr:city" v="Stockbridge"/>
    <tag k="addr:housenumber" v="2621"/>
    <tag k="addr:street" v="Blackmer Boulevard"/>
    <tag k="addr:state" v="VT"/>
    <tag k="ref:vcgi:esiteid" v="248927"/>
  </node>
  <node id="-232" visible="true" lat="43.78282452" lon="-72.75299703">
    <tag k="addr:city" v="Stockbridge"/>
    <tag k="addr:housenumber" v="2608"/>
    <tag k="addr:street" v="Blackmer Boulevard"/>
    <tag k="addr:state" v="VT"/>
    <tag k="ref:vcgi:esiteid" v="248928"/>
  </node>
  <node id="-240" visible="true" lat="43.7811218" lon="-72.75938066">
    <tag k="addr:city" v="Stockbridge"/>
    <tag k="addr:housenumber" v="256"/>
    <tag k="addr:street" v="One Way Road"/>
    <tag k="addr:state" v="VT"/>
    <tag k="ref:vcgi:esiteid" v="248936"/>
  </node>
  <node id="-241" visible="true" lat="43.78116848" lon="-72.70095108">
    <tag k="addr:city" v="Stockbridge"/>
    <tag k="addr:housenumber" v="177"/>
    <tag k="addr:street" v="River Road"/>
    <tag k="addr:state" v="VT"/>
    <tag k="ref:vcgi:esiteid" v="248937"/>
  </node>
  <node id="-244" visible="true" lat="43.78055191" lon="-72.7590332">
    <tag k="addr:city" v="Stockbridge"/>
    <tag k="addr:housenumber" v="226"/>
    <tag k="addr:street" v="One Way Road"/>
    <tag k="addr:state" v="VT"/>
    <tag k="ref:vcgi:esiteid" v="248940"/>
  </node>
  <node id="-245" visible="true" lat="43.78052902" lon="-72.76036071">
    <tag k="addr:city" v="Stockbridge"/>
    <tag k="addr:housenumber" v="242"/>
    <tag k="addr:street" v="Cedarwood Road"/>
    <tag k="addr:state" v="VT"/>
    <tag k="ref:vcgi:esiteid" v="248941"/>
  </node>
  <node id="-250" visible="true" lat="43.78048454" lon="-72.70064892">
    <tag k="addr:city" v="Stockbridge"/>
    <tag k="addr:housenumber" v="127"/>
    <tag k="addr:street" v="River Road"/>
    <tag k="addr:state" v="VT"/>
    <tag k="ref:vcgi:esiteid" v="248949"/>
  </node>
  <node id="-252" visible="true" lat="43.78045171" lon="-72.7598245">
    <tag k="addr:city" v="Stockbridge"/>
    <tag k="addr:housenumber" v="229"/>
    <tag k="addr:street" v="One Way Road"/>
    <tag k="addr:state" v="VT"/>
    <tag k="ref:vcgi:esiteid" v="248951"/>
  </node>
  <node id="-256" visible="true" lat="43.78033281" lon="-72.70169622">
    <tag k="addr:city" v="Stockbridge"/>
    <tag k="addr:housenumber" v="72"/>
    <tag k="addr:street" v="Kelly Road"/>
    <tag k="addr:state" v="VT"/>
    <tag k="ref:vcgi:esiteid" v="248955"/>
  </node>
  <node id="-258" visible="true" lat="43.78009267" lon="-72.70281728">
    <tag k="addr:city" v="Stockbridge"/>
    <tag k="addr:housenumber" v="131"/>
    <tag k="addr:street" v="Kelly Road"/>
    <tag k="addr:state" v="VT"/>
    <tag k="ref:vcgi:esiteid" v="248957"/>
  </node>
  <node id="-262" visible="true" lat="43.77976033" lon="-72.75892807">
    <tag k="addr:city" v="Stockbridge"/>
    <tag k="addr:housenumber" v="172"/>
    <tag k="addr:street" v="One Way Road"/>
    <tag k="addr:state" v="VT"/>
    <tag k="ref:vcgi:esiteid" v="248961"/>
  </node>
  <node id="-263" visible="true" lat="43.7796936" lon="-72.7596054">
    <tag k="addr:city" v="Stockbridge"/>
    <tag k="addr:housenumber" v="127"/>
    <tag k="addr:street" v="One Way Road"/>
    <tag k="addr:state" v="VT"/>
    <tag k="ref:vcgi:esiteid" v="248962"/>
  </node>
  <node id="-266" visible="true" lat="43.7796284" lon="-72.70080907">
    <tag k="addr:city" v="Stockbridge"/>
    <tag k="addr:housenumber" v="21"/>
    <tag k="addr:street" v="Kelly Road"/>
    <tag k="addr:state" v="VT"/>
    <tag k="ref:vcgi:esiteid" v="248965"/>
  </node>
  <node id="-272" visible="true" lat="43.77952649" lon="-72.70280639">
    <tag k="addr:city" v="Stockbridge"/>
    <tag k="addr:housenumber" v="135"/>
    <tag k="addr:street" v="Meadow Lane"/>
    <tag k="addr:state" v="VT"/>
    <tag k="ref:vcgi:esiteid" v="248971"/>
  </node>
  <node id="-279" visible="true" lat="43.77932824" lon="-72.70371742">
    <tag k="addr:city" v="Stockbridge"/>
    <tag k="addr:housenumber" v="113"/>
    <tag k="addr:street" v="Meadow Lane"/>
    <tag k="addr:state" v="VT"/>
    <tag k="ref:vcgi:esiteid" v="248979"/>
  </node>
  <node id="-283" visible="true" lat="43.77901338" lon="-72.70286511">
    <tag k="addr:city" v="Stockbridge"/>
    <tag k="addr:housenumber" v="120"/>
    <tag k="addr:street" v="Meadow Lane"/>
    <tag k="addr:state" v="VT"/>
    <tag k="ref:vcgi:esiteid" v="248983"/>
  </node>
  <node id="-285" visible="true" lat="43.77911968" lon="-72.70136861">
    <tag k="addr:city" v="Stockbridge"/>
    <tag k="addr:housenumber" v="27"/>
    <tag k="addr:street" v="Kelly Road"/>
    <tag k="addr:state" v="VT"/>
    <tag k="ref:vcgi:esiteid" v="248986"/>
  </node>
  <node id="-288" visible="true" lat="43.77877508" lon="-72.7011122">
    <tag k="addr:city" v="Stockbridge"/>
    <tag k="addr:housenumber" v="2"/>
    <tag k="addr:street" v="Laury Road"/>
    <tag k="addr:state" v="VT"/>
    <tag k="ref:vcgi:esiteid" v="248989"/>
  </node>
  <node id="-292" visible="true" lat="43.77839168" lon="-72.70140557">
    <tag k="addr:city" v="Stockbridge"/>
    <tag k="addr:housenumber" v="26"/>
    <tag k="addr:street" v="Laury Road"/>
    <tag k="addr:state" v="VT"/>
    <tag k="ref:vcgi:esiteid" v="248993"/>
  </node>
  <node id="-296" visible="true" lat="43.77814865" lon="-72.75843811">
    <tag k="addr:city" v="Stockbridge"/>
    <tag k="addr:housenumber" v="66"/>
    <tag k="addr:street" v="One Way Road"/>
    <tag k="addr:state" v="VT"/>
    <tag k="ref:vcgi:esiteid" v="248997"/>
  </node>
  <node id="-297" visible="true" lat="43.77832693" lon="-72.70154044">
    <tag k="addr:city" v="Stockbridge"/>
    <tag k="addr:housenumber" v="40"/>
    <tag k="addr:street" v="Laury Road"/>
    <tag k="addr:state" v="VT"/>
    <tag k="ref:vcgi:esiteid" v="248998"/>
  </node>
  <node id="-301" visible="true" lat="43.77803039" lon="-72.75979614">
    <tag k="addr:city" v="Stockbridge"/>
    <tag k="addr:housenumber" v="79"/>
    <tag k="addr:street" v="Cedarwood Road"/>
    <tag k="addr:state" v="VT"/>
    <tag k="ref:vcgi:esiteid" v="249002"/>
  </node>
  <node id="-315" visible="true" lat="43.77761308" lon="-72.75872743">
    <tag k="addr:city" v="Stockbridge"/>
    <tag k="addr:housenumber" v="238"/>
    <tag k="addr:street" v="Timber Hawk Road"/>
    <tag k="addr:state" v="VT"/>
    <tag k="ref:vcgi:esiteid" v="249017"/>
  </node>
  <node id="-324" visible="true" lat="43.77718733" lon="-72.7808319">
    <tag k="addr:city" v="Stockbridge"/>
    <tag k="addr:housenumber" v="31"/>
    <tag k="addr:street" v="Canton Drive"/>
    <tag k="addr:state" v="VT"/>
    <tag k="ref:vcgi:esiteid" v="249026"/>
  </node>
  <node id="-325" visible="true" lat="43.7771191" lon="-72.78039464">
    <tag k="addr:city" v="Stockbridge"/>
    <tag k="addr:housenumber" v="83"/>
    <tag k="addr:street" v="Lucerne Drive"/>
    <tag k="addr:state" v="VT"/>
    <tag k="ref:vcgi:esiteid" v="249027"/>
  </node>
  <node id="-326" visible="true" lat="43.77715057" lon="-72.78154105">
    <tag k="addr:city" v="Stockbridge"/>
    <tag k="addr:housenumber" v="46"/>
    <tag k="addr:street" v="Canton Drive"/>
    <tag k="addr:state" v="VT"/>
    <tag k="ref:vcgi:esiteid" v="249028"/>
  </node>
  <node id="-327" visible="true" lat="43.77702713" lon="-72.75937652">
    <tag k="addr:city" v="Stockbridge"/>
    <tag k="addr:housenumber" v="336"/>
    <tag k="addr:street" v="Timber Hawk Road"/>
    <tag k="addr:state" v="VT"/>
    <tag k="ref:vcgi:esiteid" v="249029"/>
  </node>
  <node id="-332" visible="true" lat="43.77682495" lon="-72.75992584">
    <tag k="addr:city" v="Stockbridge"/>
    <tag k="addr:housenumber" v="340"/>
    <tag k="addr:street" v="Timber Hawk Road"/>
    <tag k="addr:state" v="VT"/>
    <tag k="ref:vcgi:esiteid" v="249034"/>
  </node>
  <node id="-334" visible="true" lat="43.77682164" lon="-72.77993042">
    <tag k="addr:city" v="Stockbridge"/>
    <tag k="addr:housenumber" v="72"/>
    <tag k="addr:street" v="Lucerne Drive"/>
    <tag k="addr:state" v="VT"/>
    <tag k="ref:vcgi:esiteid" v="249036"/>
  </node>
  <node id="-337" visible="true" lat="43.7768623" lon="-72.7810213">
    <tag k="addr:city" v="Stockbridge"/>
    <tag k="addr:housenumber" v="57"/>
    <tag k="addr:street" v="Canton Drive"/>
    <tag k="addr:state" v="VT"/>
    <tag k="ref:vcgi:esiteid" v="249039"/>
  </node>
  <node id="-338" visible="true" lat="43.77679462" lon="-72.78176893">
    <tag k="addr:city" v="Stockbridge"/>
    <tag k="addr:housenumber" v="74"/>
    <tag k="addr:street" v="Canton Drive"/>
    <tag k="addr:state" v="VT"/>
    <tag k="ref:vcgi:esiteid" v="249040"/>
  </node>
  <node id="-344" visible="true" lat="43.77661506" lon="-72.78069832">
    <tag k="addr:city" v="Stockbridge"/>
    <tag k="addr:housenumber" v="43"/>
    <tag k="addr:street" v="Lucerne Drive"/>
    <tag k="addr:state" v="VT"/>
    <tag k="ref:vcgi:esiteid" v="249046"/>
  </node>
  <node id="-348" visible="true" lat="43.77655396" lon="-72.78007244">
    <tag k="addr:city" v="Stockbridge"/>
    <tag k="addr:housenumber" v="50"/>
    <tag k="addr:street" v="Lucerne Drive"/>
    <tag k="addr:state" v="VT"/>
    <tag k="ref:vcgi:esiteid" v="249050"/>
  </node>
  <node id="-350" visible="true" lat="43.77640337" lon="-72.78082286">
    <tag k="addr:city" v="Stockbridge"/>
    <tag k="addr:housenumber" v="25"/>
    <tag k="addr:street" v="Lucerne Drive"/>
    <tag k="addr:state" v="VT"/>
    <tag k="ref:vcgi:esiteid" v="249053"/>
  </node>
  <node id="-354" visible="true" lat="43.77629825" lon="-72.78022853">
    <tag k="addr:city" v="Stockbridge"/>
    <tag k="addr:housenumber" v="26"/>
    <tag k="addr:street" v="Lucerne Drive"/>
    <tag k="addr:state" v="VT"/>
    <tag k="ref:vcgi:esiteid" v="249057"/>
  </node>
  <node id="-355" visible="true" lat="43.77626532" lon="-72.78131907">
    <tag k="addr:city" v="Stockbridge"/>
    <tag k="addr:housenumber" v="95"/>
    <tag k="addr:street" v="Canton Drive"/>
    <tag k="addr:state" v="VT"/>
    <tag k="ref:vcgi:esiteid" v="249058"/>
  </node>
  <node id="-360" visible="true" lat="43.77601862" lon="-72.78043557">
    <tag k="addr:city" v="Stockbridge"/>
    <tag k="addr:housenumber" v="69"/>
    <tag k="addr:street" v="Schaff Haus Drive"/>
    <tag k="addr:state" v="VT"/>
    <tag k="ref:vcgi:esiteid" v="249065"/>
  </node>
  <node id="-361" visible="true" lat="43.77592126" lon="-72.76232852">
    <tag k="addr:city" v="Stockbridge"/>
    <tag k="addr:housenumber" v="467"/>
    <tag k="addr:street" v="Timber Hawk Road"/>
    <tag k="addr:state" v="VT"/>
    <tag k="ref:vcgi:esiteid" v="249066"/>
  </node>
  <node id="-369" visible="true" lat="43.77543077" lon="-72.78020558">
    <tag k="addr:city" v="Stockbridge"/>
    <tag k="addr:housenumber" v="94"/>
    <tag k="addr:street" v="Schaff Haus Drive"/>
    <tag k="addr:state" v="VT"/>
    <tag k="ref:vcgi:esiteid" v="249081"/>
  </node>
  <node id="-372" visible="true" lat="43.7753498" lon="-72.75963403">
    <tag k="addr:city" v="Stockbridge"/>
    <tag k="addr:housenumber" v="397"/>
    <tag k="addr:street" v="Timber Hawk Road"/>
    <tag k="addr:state" v="VT"/>
    <tag k="ref:vcgi:esiteid" v="249084"/>
  </node>
  <node id="-373" visible="true" lat="43.77534095" lon="-72.76108017">
    <tag k="addr:city" v="Stockbridge"/>
    <tag k="addr:housenumber" v="399"/>
    <tag k="addr:street" v="Timber Hawk Road"/>
    <tag k="addr:state" v="VT"/>
    <tag k="ref:vcgi:esiteid" v="249085"/>
  </node>
  <node id="-375" visible="true" lat="43.77530247" lon="-72.77735089">
    <tag k="addr:city" v="Stockbridge"/>
    <tag k="addr:housenumber" v="189"/>
    <tag k="addr:street" v="Schaff Haus Drive"/>
    <tag k="addr:state" v="VT"/>
    <tag k="ref:vcgi:esiteid" v="249087"/>
  </node>
  <node id="-376" visible="true" lat="43.77504812" lon="-72.77883968">
    <tag k="addr:city" v="Stockbridge"/>
    <tag k="addr:housenumber" v="166"/>
    <tag k="addr:street" v="Schaff Haus Drive"/>
    <tag k="addr:state" v="VT"/>
    <tag k="ref:vcgi:esiteid" v="249089"/>
  </node>
  <node id="-377" visible="true" lat="43.77472131" lon="-72.77757995">
    <tag k="addr:city" v="Stockbridge"/>
    <tag k="addr:housenumber" v="190"/>
    <tag k="addr:street" v="Schaff Haus Drive"/>
    <tag k="addr:state" v="VT"/>
    <tag k="ref:vcgi:esiteid" v="249091"/>
  </node>
  <node id="-383" visible="true" lat="43.77421356" lon="-72.70309625">
    <tag k="addr:city" v="Stockbridge"/>
    <tag k="addr:housenumber" v="37"/>
    <tag k="addr:street" v="Mount Hunger Road"/>
    <tag k="addr:state" v="VT"/>
    <tag k="ref:vcgi:esiteid" v="249097"/>
  </node>
  <node id="-386" visible="true" lat="43.77394119" lon="-72.70209815">
    <tag k="addr:city" v="Stockbridge"/>
    <tag k="addr:housenumber" v="102"/>
    <tag k="addr:street" v="Mount Hunger Road"/>
    <tag k="addr:state" v="VT"/>
    <tag k="ref:vcgi:esiteid" v="249102"/>
  </node>
  <node id="-422" visible="true" lat="43.76446444" lon="-72.73853958">
    <tag k="addr:city" v="Stockbridge"/>
    <tag k="addr:housenumber" v="1036"/>
    <tag k="addr:street" v="Blackmer Boulevard"/>
    <tag k="addr:state" v="VT"/>
    <tag k="ref:vcgi:esiteid" v="249139"/>
  </node>
  <node id="-424" visible="true" lat="43.76427045" lon="-72.71198063">
    <tag k="addr:city" v="Stockbridge"/>
    <tag k="addr:housenumber" v="38"/>
    <tag k="addr:street" v="Stony Brook Road"/>
    <tag k="addr:state" v="VT"/>
    <tag k="ref:vcgi:esiteid" v="249141"/>
  </node>
  <node id="-428" visible="true" lat="43.76374034" lon="-72.7363117">
    <tag k="addr:city" v="Stockbridge"/>
    <tag k="addr:housenumber" v="914"/>
    <tag k="addr:street" v="Blackmer Boulevard"/>
    <tag k="addr:state" v="VT"/>
    <tag k="ref:vcgi:esiteid" v="249145"/>
  </node>
  <node id="-430" visible="true" lat="43.76331501" lon="-72.73555147">
    <tag k="addr:city" v="Stockbridge"/>
    <tag k="addr:housenumber" v="876"/>
    <tag k="addr:street" v="Blackmer Boulevard"/>
    <tag k="addr:state" v="VT"/>
    <tag k="ref:vcgi:esiteid" v="249147"/>
  </node>
  <node id="-435" visible="true" lat="43.76298675" lon="-72.73447089">
    <tag k="addr:city" v="Stockbridge"/>
    <tag k="addr:housenumber" v="810"/>
    <tag k="addr:street" v="Blackmer Boulevard"/>
    <tag k="addr:state" v="VT"/>
    <tag k="ref:vcgi:esiteid" v="249152"/>
  </node>
  <node id="-437" visible="true" lat="43.7622659" lon="-72.73456841">
    <tag k="addr:city" v="Stockbridge"/>
    <tag k="addr:housenumber" v="797"/>
    <tag k="addr:street" v="Blackmer Boulevard"/>
    <tag k="addr:state" v="VT"/>
    <tag k="ref:vcgi:esiteid" v="249154"/>
  </node>
  <node id="-438" visible="true" lat="43.76186213" lon="-72.73349394">
    <tag k="addr:city" v="Stockbridge"/>
    <tag k="addr:housenumber" v="31"/>
    <tag k="addr:street" v="Hunt Farm Road"/>
    <tag k="addr:state" v="VT"/>
    <tag k="ref:vcgi:esiteid" v="249155"/>
  </node>
  <node id="-440" visible="true" lat="43.76130177" lon="-72.73212921">
    <tag k="addr:city" v="Stockbridge"/>
    <tag k="addr:housenumber" v="654"/>
    <tag k="addr:street" v="Blackmer Boulevard"/>
    <tag k="addr:state" v="VT"/>
    <tag k="ref:vcgi:esiteid" v="249157"/>
  </node>
  <node id="-441" visible="true" lat="43.76126667" lon="-72.73491681">
    <tag k="addr:city" v="Stockbridge"/>
    <tag k="addr:housenumber" v="72"/>
    <tag k="addr:street" v="Hunt Farm Road"/>
    <tag k="addr:state" v="VT"/>
    <tag k="ref:vcgi:esiteid" v="249158"/>
  </node>
  <node id="-444" visible="true" lat="43.76055348" lon="-72.73389639">
    <tag k="addr:city" v="Stockbridge"/>
    <tag k="addr:housenumber" v="136"/>
    <tag k="addr:street" v="Hunt Farm Road"/>
    <tag k="addr:state" v="VT"/>
    <tag k="ref:vcgi:esiteid" v="249161"/>
  </node>
  <node id="-449" visible="true" lat="43.75877376" lon="-72.72118144">
    <tag k="addr:city" v="Stockbridge"/>
    <tag k="addr:housenumber" v="117"/>
    <tag k="addr:street" v="Ranney Road"/>
    <tag k="addr:state" v="VT"/>
    <tag k="ref:vcgi:esiteid" v="249166"/>
  </node>
  <node id="-450" visible="true" lat="43.75890728" lon="-72.72209277">
    <tag k="addr:city" v="Stockbridge"/>
    <tag k="addr:housenumber" v="55"/>
    <tag k="addr:street" v="Ranney Road"/>
    <tag k="addr:state" v="VT"/>
    <tag k="ref:vcgi:esiteid" v="249167"/>
  </node>
  <node id="-451" visible="true" lat="43.75855401" lon="-72.80925087">
    <tag k="addr:city" v="Stockbridge"/>
    <tag k="addr:housenumber" v="220"/>
    <tag k="addr:street" v="Spring Street"/>
    <tag k="addr:state" v="VT"/>
    <tag k="ref:vcgi:esiteid" v="249168"/>
  </node>
  <node id="-452" visible="true" lat="43.75861883" lon="-72.72246765">
    <tag k="addr:city" v="Stockbridge"/>
    <tag k="addr:housenumber" v="74"/>
    <tag k="addr:street" v="Ranney Road"/>
    <tag k="addr:state" v="VT"/>
    <tag k="ref:vcgi:esiteid" v="249169"/>
  </node>
  <node id="-454" visible="true" lat="43.75790183" lon="-72.80920158">
    <tag k="addr:city" v="Stockbridge"/>
    <tag k="addr:housenumber" v="218"/>
    <tag k="addr:street" v="Spring Street"/>
    <tag k="addr:state" v="VT"/>
    <tag k="ref:vcgi:esiteid" v="249171"/>
  </node>
  <node id="-455" visible="true" lat="43.75801728" lon="-72.80845789">
    <tag k="addr:city" v="Stockbridge"/>
    <tag k="addr:housenumber" v="679"/>
    <tag k="addr:street" v="Tweed River Drive"/>
    <tag k="addr:state" v="VT"/>
    <tag k="ref:vcgi:esiteid" v="249172"/>
  </node>
  <node id="-457" visible="true" lat="43.75772476" lon="-72.81022644">
    <tag k="addr:city" v="Stockbridge"/>
    <tag k="addr:housenumber" v="221"/>
    <tag k="addr:street" v="Spring Street"/>
    <tag k="addr:state" v="VT"/>
    <tag k="ref:vcgi:esiteid" v="249174"/>
  </node>
  <node id="-458" visible="true" lat="43.75767502" lon="-72.81138484">
    <tag k="addr:city" v="Stockbridge"/>
    <tag k="addr:housenumber" v="90"/>
    <tag k="addr:street" v="Heritage Heights"/>
    <tag k="addr:state" v="VT"/>
    <tag k="ref:vcgi:esiteid" v="249175"/>
  </node>
  <node id="-459" visible="true" lat="43.75797395" lon="-72.71988691">
    <tag k="addr:city" v="Stockbridge"/>
    <tag k="addr:housenumber" v="119"/>
    <tag k="addr:street" v="Ranney Road"/>
    <tag k="addr:state" v="VT"/>
    <tag k="ref:vcgi:esiteid" v="249176"/>
  </node>
  <node id="-461" visible="true" lat="43.75755485" lon="-72.808101">
    <tag k="addr:city" v="Stockbridge"/>
    <tag k="addr:housenumber" v="675"/>
    <tag k="addr:street" v="Tweed River Drive"/>
    <tag k="addr:state" v="VT"/>
    <tag k="ref:vcgi:esiteid" v="249179"/>
  </node>
  <node id="-462" visible="true" lat="43.75763003" lon="-72.72304767">
    <tag k="addr:city" v="Stockbridge"/>
    <tag k="addr:housenumber" v="18"/>
    <tag k="addr:street" v="Whitney Road"/>
    <tag k="addr:state" v="VT"/>
    <tag k="ref:vcgi:esiteid" v="249180"/>
  </node>
  <node id="-463" visible="true" lat="43.75741223" lon="-72.80916746">
    <tag k="addr:city" v="Stockbridge"/>
    <tag k="addr:housenumber" v="174"/>
    <tag k="addr:street" v="Spring Street"/>
    <tag k="addr:state" v="VT"/>
    <tag k="ref:vcgi:esiteid" v="249181"/>
  </node>
  <node id="-465" visible="true" lat="43.75721545" lon="-72.81201942">
    <tag k="addr:city" v="Stockbridge"/>
    <tag k="addr:housenumber" v="63"/>
    <tag k="addr:street" v="Heritage Heights"/>
    <tag k="addr:state" v="VT"/>
    <tag k="ref:vcgi:esiteid" v="249183"/>
  </node>
  <node id="-466" visible="true" lat="43.75726487" lon="-72.81012596">
    <tag k="addr:city" v="Stockbridge"/>
    <tag k="addr:housenumber" v="147"/>
    <tag k="addr:street" v="Spring Street"/>
    <tag k="addr:state" v="VT"/>
    <tag k="ref:vcgi:esiteid" v="249184"/>
  </node>
  <node id="-467" visible="true" lat="43.75718328" lon="-72.81092344">
    <tag k="addr:city" v="Stockbridge"/>
    <tag k="addr:housenumber" v="40"/>
    <tag k="addr:street" v="Heritage Heights"/>
    <tag k="addr:state" v="VT"/>
    <tag k="ref:vcgi:esiteid" v="249185"/>
  </node>
  <node id="-468" visible="true" lat="43.75681156" lon="-72.8075608">
    <tag k="addr:city" v="Stockbridge"/>
    <tag k="addr:housenumber" v="677"/>
    <tag k="addr:street" v="Tweed River Drive"/>
    <tag k="addr:state" v="VT"/>
    <tag k="ref:vcgi:esiteid" v="249186"/>
  </node>
  <node id="-469" visible="true" lat="43.75688664" lon="-72.80872077">
    <tag k="addr:city" v="Stockbridge"/>
    <tag k="addr:housenumber" v="138"/>
    <tag k="addr:street" v="Spring Street"/>
    <tag k="addr:state" v="VT"/>
    <tag k="ref:vcgi:esiteid" v="249187"/>
  </node>
  <node id="-470" visible="true" lat="43.75717866" lon="-72.72429461">
    <tag k="addr:city" v="Stockbridge"/>
    <tag k="addr:housenumber" v="45"/>
    <tag k="addr:street" v="Whitney Road"/>
    <tag k="addr:state" v="VT"/>
    <tag k="ref:vcgi:esiteid" v="249188"/>
  </node>
  <node id="-471" visible="true" lat="43.75694966" lon="-72.72218849">
    <tag k="addr:city" v="Stockbridge"/>
    <tag k="addr:housenumber" v="185"/>
    <tag k="addr:street" v="Ranney Road"/>
    <tag k="addr:state" v="VT"/>
    <tag k="ref:vcgi:esiteid" v="249189"/>
  </node>
  <node id="-472" visible="true" lat="43.75670088" lon="-72.80964449">
    <tag k="addr:city" v="Stockbridge"/>
    <tag k="addr:housenumber" v="99"/>
    <tag k="addr:street" v="Spring Street"/>
    <tag k="addr:state" v="VT"/>
    <tag k="ref:vcgi:esiteid" v="249190"/>
  </node>
  <node id="-473" visible="true" lat="43.75692226" lon="-72.71585973">
    <tag k="addr:city" v="Stockbridge"/>
    <tag k="addr:housenumber" v="631"/>
    <tag k="addr:street" v="Ranney Road"/>
    <tag k="addr:state" v="VT"/>
    <tag k="ref:vcgi:esiteid" v="249191"/>
  </node>
  <node id="-474" visible="true" lat="43.756259" lon="-72.72021135">
    <tag k="addr:city" v="Stockbridge"/>
    <tag k="addr:housenumber" v="417"/>
    <tag k="addr:street" v="Ranney Road"/>
    <tag k="addr:state" v="VT"/>
    <tag k="ref:vcgi:esiteid" v="249192"/>
  </node>
  <node id="-476" visible="true" lat="43.75610516" lon="-72.7231176">
    <tag k="addr:city" v="Stockbridge"/>
    <tag k="addr:housenumber" v="256"/>
    <tag k="addr:street" v="Ranney Road"/>
    <tag k="addr:state" v="VT"/>
    <tag k="ref:vcgi:esiteid" v="249194"/>
  </node>
  <node id="-477" visible="true" lat="43.75584371" lon="-72.80971524">
    <tag k="addr:city" v="Stockbridge"/>
    <tag k="addr:housenumber" v="166"/>
    <tag k="addr:street" v="Tweed River Drive"/>
    <tag k="addr:state" v="VT"/>
    <tag k="ref:vcgi:esiteid" v="249195"/>
  </node>
  <node id="-478" visible="true" lat="43.75572462" lon="-72.80584432">
    <tag k="addr:city" v="Stockbridge"/>
    <tag k="addr:housenumber" v="481"/>
    <tag k="addr:street" v="Tweed River Drive"/>
    <tag k="addr:state" v="VT"/>
    <tag k="ref:vcgi:esiteid" v="249196"/>
  </node>
  <node id="-479" visible="true" lat="43.75555231" lon="-72.80691261">
    <tag k="addr:city" v="Stockbridge"/>
    <tag k="addr:housenumber" v="305"/>
    <tag k="addr:street" v="Tweed River Drive"/>
    <tag k="addr:state" v="VT"/>
    <tag k="ref:vcgi:esiteid" v="249197"/>
  </node>
  <node id="-481" visible="true" lat="43.75525135" lon="-72.80604332">
    <tag k="addr:city" v="Stockbridge"/>
    <tag k="addr:housenumber" v="383"/>
    <tag k="addr:street" v="Tweed River Drive"/>
    <tag k="addr:state" v="VT"/>
    <tag k="ref:vcgi:esiteid" v="249199"/>
  </node>
  <node id="-482" visible="true" lat="43.75529656" lon="-72.72183007">
    <tag k="addr:city" v="Stockbridge"/>
    <tag k="addr:housenumber" v="338"/>
    <tag k="addr:street" v="Ranney Road"/>
    <tag k="addr:state" v="VT"/>
    <tag k="ref:vcgi:esiteid" v="249200"/>
  </node>
  <node id="-483" visible="true" lat="43.75508626" lon="-72.71511613">
    <tag k="addr:city" v="Stockbridge"/>
    <tag k="addr:housenumber" v="750"/>
    <tag k="addr:street" v="Ranney Road"/>
    <tag k="addr:state" v="VT"/>
    <tag k="ref:vcgi:esiteid" v="249201"/>
  </node>
  <node id="-485" visible="true" lat="43.75423123" lon="-72.71406501">
    <tag k="addr:city" v="Stockbridge"/>
    <tag k="addr:housenumber" v="814"/>
    <tag k="addr:street" v="Ranney Road"/>
    <tag k="addr:state" v="VT"/>
    <tag k="ref:vcgi:esiteid" v="249203"/>
  </node>
  <node id="-565" visible="true" lat="43.75755918" lon="-72.80723056">
    <tag k="addr:city" v="Stockbridge"/>
    <tag k="addr:housenumber" v="680"/>
    <tag k="addr:street" v="Tweed River Drive"/>
    <tag k="addr:state" v="VT"/>
    <tag k="ref:vcgi:esiteid" v="249284"/>
  </node>
  <node id="-576" visible="true" lat="43.75868714" lon="-72.81105926">
    <tag k="addr:city" v="Stockbridge"/>
    <tag k="addr:housenumber" v="108"/>
    <tag k="addr:street" v="Heritage Heights"/>
    <tag k="addr:state" v="VT"/>
    <tag k="ref:vcgi:esiteid" v="249295"/>
  </node>
  <node id="-577" visible="true" lat="43.75812643" lon="-72.81101711">
    <tag k="addr:city" v="Stockbridge"/>
    <tag k="addr:housenumber" v="106"/>
    <tag k="addr:street" v="Heritage Heights"/>
    <tag k="addr:state" v="VT"/>
    <tag k="ref:vcgi:esiteid" v="249296"/>
  </node>
  <node id="-578" visible="true" lat="43.75671211" lon="-72.81036294">
    <tag k="addr:city" v="Stockbridge"/>
    <tag k="addr:housenumber" v="99"/>
    <tag k="addr:street" v="Tweed River Drive"/>
    <tag k="addr:state" v="VT"/>
    <tag k="ref:vcgi:esiteid" v="249297"/>
  </node>
  <node id="-580" visible="true" lat="43.77385192" lon="-72.74763739">
    <tag k="addr:city" v="Stockbridge"/>
    <tag k="addr:housenumber" v="1874"/>
    <tag k="addr:street" v="Blackmer Boulevard"/>
    <tag k="addr:state" v="VT"/>
    <tag k="ref:vcgi:esiteid" v="249301"/>
  </node>
  <node id="-582" visible="true" lat="43.75754829" lon="-72.72052541">
    <tag k="addr:city" v="Stockbridge"/>
    <tag k="addr:housenumber" v="121"/>
    <tag k="addr:street" v="Ranney Road"/>
    <tag k="addr:state" v="VT"/>
    <tag k="ref:vcgi:esiteid" v="249303"/>
  </node>
  <node id="-589" visible="true" lat="43.77968342" lon="-72.70115739">
    <tag k="addr:city" v="Stockbridge"/>
    <tag k="addr:housenumber" v="45"/>
    <tag k="addr:street" v="Kelly Road"/>
    <tag k="addr:state" v="VT"/>
    <tag k="ref:vcgi:esiteid" v="249311"/>
  </node>
  <node id="-591" visible="true" lat="43.7592964" lon="-72.80883039">
    <tag k="addr:city" v="Stockbridge"/>
    <tag k="addr:housenumber" v="751"/>
    <tag k="addr:street" v="Tweed River Drive"/>
    <tag k="addr:state" v="VT"/>
    <tag k="ref:vcgi:esiteid" v="249313"/>
  </node>
  <node id="-598" visible="true" lat="43.75518731" lon="-72.80788637">
    <tag k="addr:city" v="Stockbridge"/>
    <tag k="addr:housenumber" v="228"/>
    <tag k="addr:street" v="Tweed River Drive"/>
    <tag k="addr:state" v="VT"/>
    <tag k="ref:vcgi:esiteid" v="249322"/>
  </node>
  <node id="-599" visible="true" lat="43.76083598" lon="-72.73442838">
    <tag k="addr:city" v="Stockbridge"/>
    <tag k="addr:housenumber" v="134"/>
    <tag k="addr:street" v="Hunt Farm Road"/>
    <tag k="addr:state" v="VT"/>
    <tag k="ref:vcgi:esiteid" v="249323"/>
  </node>
  <node id="-607" visible="true" lat="43.75627834" lon="-72.8091805">
    <tag k="addr:city" v="Stockbridge"/>
    <tag k="addr:housenumber" v="79"/>
    <tag k="addr:street" v="Spring Street"/>
    <tag k="addr:state" v="VT"/>
    <tag k="ref:vcgi:esiteid" v="249331"/>
  </node>
  <node id="-613" visible="true" lat="43.77314181" lon="-72.70115511">
    <tag k="addr:city" v="Stockbridge"/>
    <tag k="addr:housenumber" v="141"/>
    <tag k="addr:street" v="Town Highway 15"/>
    <tag k="addr:state" v="VT"/>
    <tag k="ref:vcgi:esiteid" v="249338"/>
  </node>
  <node id="-614" visible="true" lat="43.75692845" lon="-72.80661839">
    <tag k="addr:city" v="Stockbridge"/>
    <tag k="addr:housenumber" v="604"/>
    <tag k="addr:street" v="Tweed River Drive"/>
    <tag k="addr:state" v="VT"/>
    <tag k="ref:vcgi:esiteid" v="249339"/>
  </node>
  <node id="-617" visible="true" lat="43.75569139" lon="-72.71752237">
    <tag k="addr:city" v="Stockbridge"/>
    <tag k="addr:housenumber" v="590"/>
    <tag k="addr:street" v="Ranney Road"/>
    <tag k="addr:state" v="VT"/>
    <tag k="ref:vcgi:esiteid" v="249342"/>
  </node>
  <node id="-628" visible="true" lat="43.77452473" lon="-72.70131504">
    <tag k="addr:city" v="Stockbridge"/>
    <tag k="addr:housenumber" v="71"/>
    <tag k="addr:street" v="Mount Hunger Road"/>
    <tag k="addr:state" v="VT"/>
    <tag k="ref:vcgi:esiteid" v="309970"/>
  </node>
  <node id="-632" visible="true" lat="43.7635013" lon="-72.71167677">
    <tag k="addr:city" v="Stockbridge"/>
    <tag k="addr:housenumber" v="48"/>
    <tag k="addr:street" v="Stony Brook Road"/>
    <tag k="addr:state" v="VT"/>
    <tag k="ref:vcgi:esiteid" v="313884"/>
  </node>
  <node id="-634" visible="true" lat="43.75354579" lon="-72.71430847">
    <tag k="addr:city" v="Stockbridge"/>
    <tag k="addr:housenumber" v="840"/>
    <tag k="addr:street" v="Ranney Road"/>
    <tag k="addr:state" v="VT"/>
    <tag k="ref:vcgi:esiteid" v="320711"/>
  </node>
  <node id="-636" visible="true" lat="43.75600817" lon="-72.81041136">
    <tag k="addr:city" v="Stockbridge"/>
    <tag k="addr:housenumber" v="80"/>
    <tag k="addr:street" v="Tweed River Drive"/>
    <tag k="addr:state" v="VT"/>
    <tag k="ref:vcgi:esiteid" v="326517"/>
  </node>
  <node id="-642" visible="true" lat="43.7558442" lon="-72.80623587">
    <tag k="addr:city" v="Stockbridge"/>
    <tag k="addr:housenumber" v="637"/>
    <tag k="addr:street" v="Tweed River Drive"/>
    <tag k="addr:state" v="VT"/>
    <tag k="ref:vcgi:esiteid" v="332662"/>
  </node>
  <node id="-643" visible="true" lat="43.75648908" lon="-72.80726613">
    <tag k="addr:city" v="Stockbridge"/>
    <tag k="addr:housenumber" v="639"/>
    <tag k="addr:street" v="Tweed River Drive"/>
    <tag k="addr:state" v="VT"/>
    <tag k="ref:vcgi:esiteid" v="332663"/>
  </node>
  <node id="-652" visible="true" lat="43.78819413" lon="-72.75737256">
    <tag k="addr:city" v="Stockbridge"/>
    <tag k="addr:housenumber" v="418"/>
    <tag k="addr:street" v="Stockbridge Common"/>
    <tag k="addr:state" v="VT"/>
    <tag k="ref:vcgi:esiteid" v="336656"/>
  </node>
  <node id="-686" visible="true" lat="43.74069254" lon="-72.78856332">
    <tag k="addr:city" v="Stockbridge"/>
    <tag k="addr:housenumber" v="5656"/>
    <tag k="addr:street" v="Fletcher Brook Road"/>
    <tag k="addr:state" v="VT"/>
    <tag k="ref:vcgi:esiteid" v="610074"/>
  </node>
  <node id="-688" visible="true" lat="43.76297268" lon="-72.73380588">
    <tag k="addr:city" v="Stockbridge"/>
    <tag k="addr:housenumber" v="792"/>
    <tag k="addr:street" v="Blackmer Boulevard"/>
    <tag k="addr:state" v="VT"/>
    <tag k="ref:vcgi:esiteid" v="611445"/>
  </node>
  <node id="-739" visible="true" lat="43.75627723" lon="-72.72145729">
    <tag k="addr:city" v="Stockbridge"/>
    <tag k="addr:housenumber" v="339"/>
    <tag k="addr:street" v="Ranney Road"/>
    <tag k="addr:state" v="VT"/>
    <tag k="ref:vcgi:esiteid" v="900305"/>
  </node>
</osm>
