<?xml version="1.0" encoding="UTF-8"?>
<osm version="0.6" generator="JOSM">
  <node id="-100" visible="true" lat="43.77796773" lon="-72.79849388">
    <tag k="addr:city" v="Stockbridge"/>
    <tag k="addr:housenumber" v="4830"/>
    <tag k="addr:street" v="Vermont Route 100"/>
    <tag k="addr:state" v="VT"/>
    <tag k="ref:vcgi:esiteid" v="187387"/>
  </node>
  <node id="-101" visible="true" lat="43.81964969" lon="-72.76526051">
    <tag k="addr:city" v="Stockbridge"/>
    <tag k="addr:housenumber" v="829"/>
    <tag k="addr:street" v="New Boston Road"/>
    <tag k="addr:state" v="VT"/>
    <tag k="ref:vcgi:esiteid" v="248792"/>
  </node>
  <node id="-102" visible="true" lat="43.81670539" lon="-72.77051582">
    <tag k="addr:city" v="Stockbridge"/>
    <tag k="addr:housenumber" v="341"/>
    <tag k="addr:street" v="New Boston Road"/>
    <tag k="addr:state" v="VT"/>
    <tag k="ref:vcgi:esiteid" v="248793"/>
  </node>
  <node id="-103" visible="true" lat="43.81176025" lon="-72.72457764">
    <tag k="addr:city" v="Stockbridge"/>
    <tag k="addr:housenumber" v="2513"/>
    <tag k="addr:street" v="Music Mountain Road"/>
    <tag k="addr:state" v="VT"/>
    <tag k="ref:vcgi:esiteid" v="248794"/>
  </node>
  <node id="-104" visible="true" lat="43.81059051" lon="-72.7248746">
    <tag k="addr:city" v="Stockbridge"/>
    <tag k="addr:housenumber" v="2391"/>
    <tag k="addr:street" v="Music Mountain Road"/>
    <tag k="addr:state" v="VT"/>
    <tag k="ref:vcgi:esiteid" v="248795"/>
  </node>
  <node id="-105" visible="true" lat="43.80999227" lon="-72.72319381">
    <tag k="addr:city" v="Stockbridge"/>
    <tag k="addr:housenumber" v="2498"/>
    <tag k="addr:street" v="Music Mountain Road"/>
    <tag k="addr:state" v="VT"/>
    <tag k="ref:vcgi:esiteid" v="248796"/>
  </node>
  <node id="-106" visible="true" lat="43.80969008" lon="-72.74069052">
    <tag k="addr:city" v="Stockbridge"/>
    <tag k="addr:housenumber" v="1493"/>
    <tag k="addr:street" v="Music Mountain Road"/>
    <tag k="addr:state" v="VT"/>
    <tag k="ref:vcgi:esiteid" v="248797"/>
  </node>
  <node id="-107" visible="true" lat="43.80929017" lon="-72.7263972">
    <tag k="addr:city" v="Stockbridge"/>
    <tag k="addr:housenumber" v="2309"/>
    <tag k="addr:street" v="Music Mountain Road"/>
    <tag k="addr:state" v="VT"/>
    <tag k="ref:vcgi:esiteid" v="248798"/>
  </node>
  <node id="-108" visible="true" lat="43.80872417" lon="-72.72767412">
    <tag k="addr:city" v="Stockbridge"/>
    <tag k="addr:housenumber" v="2195"/>
    <tag k="addr:street" v="Music Mountain Road"/>
    <tag k="addr:state" v="VT"/>
    <tag k="ref:vcgi:esiteid" v="248799"/>
  </node>
  <node id="-109" visible="true" lat="43.80842396" lon="-72.73006826">
    <tag k="addr:city" v="Stockbridge"/>
    <tag k="addr:housenumber" v="2067"/>
    <tag k="addr:street" v="Music Mountain Road"/>
    <tag k="addr:state" v="VT"/>
    <tag k="ref:vcgi:esiteid" v="248800"/>
  </node>
  <node id="-110" visible="true" lat="43.80801256" lon="-72.71416268">
    <tag k="addr:city" v="Stockbridge"/>
    <tag k="addr:housenumber" v="2191"/>
    <tag k="addr:street" v="Whitcomb Hill Road"/>
    <tag k="addr:state" v="VT"/>
    <tag k="ref:vcgi:esiteid" v="248801"/>
  </node>
  <node id="-111" visible="true" lat="43.80690758" lon="-72.73513935">
    <tag k="addr:city" v="Stockbridge"/>
    <tag k="addr:housenumber" v="1795"/>
    <tag k="addr:street" v="Music Mountain Road"/>
    <tag k="addr:state" v="VT"/>
    <tag k="ref:vcgi:esiteid" v="248802"/>
  </node>
  <node id="-112" visible="true" lat="43.80599013" lon="-72.77981167">
    <tag k="addr:city" v="Stockbridge"/>
    <tag k="addr:housenumber" v="5124"/>
    <tag k="addr:street" v="Vermont Route 100"/>
    <tag k="addr:state" v="VT"/>
    <tag k="ref:vcgi:esiteid" v="248803"/>
  </node>
  <node id="-113" visible="true" lat="43.80586414" lon="-72.72947849">
    <tag k="addr:city" v="Stockbridge"/>
    <tag k="addr:housenumber" v="170"/>
    <tag k="addr:street" v="Luce Drive"/>
    <tag k="addr:state" v="VT"/>
    <tag k="ref:vcgi:esiteid" v="248804"/>
  </node>
  <node id="-114" visible="true" lat="43.80518277" lon="-72.77384635">
    <tag k="addr:city" v="Stockbridge"/>
    <tag k="addr:housenumber" v="157"/>
    <tag k="addr:street" v="Olmstead Drive"/>
    <tag k="addr:state" v="VT"/>
    <tag k="ref:vcgi:esiteid" v="248805"/>
  </node>
  <node id="-115" visible="true" lat="43.80532389" lon="-72.74302445">
    <tag k="addr:city" v="Stockbridge"/>
    <tag k="addr:housenumber" v="1417"/>
    <tag k="addr:street" v="Music Mountain Road"/>
    <tag k="addr:state" v="VT"/>
    <tag k="ref:vcgi:esiteid" v="248806"/>
  </node>
  <node id="-116" visible="true" lat="43.80496994" lon="-72.77799357">
    <tag k="addr:city" v="Stockbridge"/>
    <tag k="addr:housenumber" v="5014"/>
    <tag k="addr:street" v="Vermont Route 100"/>
    <tag k="addr:state" v="VT"/>
    <tag k="ref:vcgi:esiteid" v="248807"/>
  </node>
  <node id="-117" visible="true" lat="43.80485642" lon="-72.77600225">
    <tag k="addr:city" v="Stockbridge"/>
    <tag k="addr:housenumber" v="153"/>
    <tag k="addr:street" v="Olmstead Drive"/>
    <tag k="addr:state" v="VT"/>
    <tag k="ref:vcgi:esiteid" v="248808"/>
  </node>
  <node id="-118" visible="true" lat="43.8039001" lon="-72.77328504">
    <tag k="addr:city" v="Stockbridge"/>
    <tag k="addr:housenumber" v="199"/>
    <tag k="addr:street" v="Olmstead Drive"/>
    <tag k="addr:state" v="VT"/>
    <tag k="ref:vcgi:esiteid" v="248810"/>
  </node>
  <node id="-119" visible="true" lat="43.80394921" lon="-72.78176571">
    <tag k="addr:city" v="Stockbridge"/>
    <tag k="addr:housenumber" v="5123"/>
    <tag k="addr:street" v="Vermont Route 100"/>
    <tag k="addr:state" v="VT"/>
    <tag k="ref:vcgi:esiteid" v="248811"/>
  </node>
  <node id="-120" visible="true" lat="43.80324941" lon="-72.74638688">
    <tag k="addr:city" v="Stockbridge"/>
    <tag k="addr:housenumber" v="1141"/>
    <tag k="addr:street" v="Music Mountain Road"/>
    <tag k="addr:state" v="VT"/>
    <tag k="ref:vcgi:esiteid" v="248812"/>
  </node>
  <node id="-121" visible="true" lat="43.80164337" lon="-72.75649141">
    <tag k="addr:city" v="Stockbridge"/>
    <tag k="addr:housenumber" v="424"/>
    <tag k="addr:street" v="Fanny Meadow Road"/>
    <tag k="addr:state" v="VT"/>
    <tag k="ref:vcgi:esiteid" v="248813"/>
  </node>
  <node id="-122" visible="true" lat="43.80118621" lon="-72.75641303">
    <tag k="addr:city" v="Stockbridge"/>
    <tag k="addr:housenumber" v="391"/>
    <tag k="addr:street" v="Fanny Meadow Road"/>
    <tag k="addr:state" v="VT"/>
    <tag k="ref:vcgi:esiteid" v="248814"/>
  </node>
  <node id="-123" visible="true" lat="43.79962434" lon="-72.68402198">
    <tag k="addr:city" v="Stockbridge"/>
    <tag k="addr:housenumber" v="525"/>
    <tag k="addr:street" v="Lilliesville Road"/>
    <tag k="addr:state" v="VT"/>
    <tag k="ref:vcgi:esiteid" v="248815"/>
  </node>
  <node id="-124" visible="true" lat="43.79834043" lon="-72.68347491">
    <tag k="addr:city" v="Stockbridge"/>
    <tag k="addr:housenumber" v="536"/>
    <tag k="addr:street" v="Lilliesville Road"/>
    <tag k="addr:state" v="VT"/>
    <tag k="ref:vcgi:esiteid" v="248816"/>
  </node>
  <node id="-125" visible="true" lat="43.79742861" lon="-72.68449199">
    <tag k="addr:city" v="Stockbridge"/>
    <tag k="addr:housenumber" v="441"/>
    <tag k="addr:street" v="Lilliesville Road"/>
    <tag k="addr:state" v="VT"/>
    <tag k="ref:vcgi:esiteid" v="248817"/>
  </node>
  <node id="-126" visible="true" lat="43.7976677" lon="-72.68746021">
    <tag k="addr:city" v="Stockbridge"/>
    <tag k="addr:housenumber" v="623"/>
    <tag k="addr:street" v="Abbott Road"/>
    <tag k="addr:state" v="VT"/>
    <tag k="ref:vcgi:esiteid" v="248818"/>
  </node>
  <node id="-127" visible="true" lat="43.79696369" lon="-72.68692365">
    <tag k="addr:city" v="Stockbridge"/>
    <tag k="addr:housenumber" v="574"/>
    <tag k="addr:street" v="Abbott Road"/>
    <tag k="addr:state" v="VT"/>
    <tag k="ref:vcgi:esiteid" v="248820"/>
  </node>
  <node id="-128" visible="true" lat="43.79676151" lon="-72.68237334">
    <tag k="addr:city" v="Stockbridge"/>
    <tag k="addr:housenumber" v="342"/>
    <tag k="addr:street" v="Lilliesville Road"/>
    <tag k="addr:state" v="VT"/>
    <tag k="ref:vcgi:esiteid" v="248821"/>
  </node>
  <node id="-129" visible="true" lat="43.79603337" lon="-72.71574319">
    <tag k="addr:city" v="Stockbridge"/>
    <tag k="addr:housenumber" v="306"/>
    <tag k="addr:street" v="Lyon Hill Road North"/>
    <tag k="addr:state" v="VT"/>
    <tag k="ref:vcgi:esiteid" v="248822"/>
  </node>
  <node id="-130" visible="true" lat="43.7962802" lon="-72.68175431">
    <tag k="addr:city" v="Stockbridge"/>
    <tag k="addr:housenumber" v="146"/>
    <tag k="addr:street" v="Lilliesville Road"/>
    <tag k="addr:state" v="VT"/>
    <tag k="ref:vcgi:esiteid" v="248823"/>
  </node>
  <node id="-131" visible="true" lat="43.79550162" lon="-72.71324597">
    <tag k="addr:city" v="Stockbridge"/>
    <tag k="addr:housenumber" v="223"/>
    <tag k="addr:street" v="Lyon Hill Road North"/>
    <tag k="addr:state" v="VT"/>
    <tag k="ref:vcgi:esiteid" v="248824"/>
  </node>
  <node id="-132" visible="true" lat="43.79514369" lon="-72.68211398">
    <tag k="addr:city" v="Stockbridge"/>
    <tag k="addr:housenumber" v="230"/>
    <tag k="addr:street" v="Lilliesville Road"/>
    <tag k="addr:state" v="VT"/>
    <tag k="ref:vcgi:esiteid" v="248825"/>
  </node>
  <node id="-133" visible="true" lat="43.79460648" lon="-72.66724075">
    <tag k="addr:city" v="Stockbridge"/>
    <tag k="addr:housenumber" v="2138"/>
    <tag k="addr:street" v="River Road"/>
    <tag k="addr:state" v="VT"/>
    <tag k="ref:vcgi:esiteid" v="248826"/>
  </node>
  <node id="-135" visible="true" lat="43.79398934" lon="-72.76923184">
    <tag k="addr:city" v="Stockbridge"/>
    <tag k="addr:housenumber" v="1031"/>
    <tag k="addr:street" v="Pit Road"/>
    <tag k="addr:state" v="VT"/>
    <tag k="ref:vcgi:esiteid" v="248828"/>
  </node>
  <node id="-136" visible="true" lat="43.79378689" lon="-72.67895415">
    <tag k="addr:city" v="Stockbridge"/>
    <tag k="addr:housenumber" v="12"/>
    <tag k="addr:street" v="Lilliesville Road"/>
    <tag k="addr:state" v="VT"/>
    <tag k="ref:vcgi:esiteid" v="248829"/>
  </node>
  <node id="-137" visible="true" lat="43.79346101" lon="-72.67098118">
    <tag k="addr:city" v="Stockbridge"/>
    <tag k="addr:housenumber" v="6219"/>
    <tag k="addr:street" v="Vermont Route 107"/>
    <tag k="addr:state" v="VT"/>
    <tag k="ref:vcgi:esiteid" v="248830"/>
  </node>
  <node id="-139" visible="true" lat="43.79339035" lon="-72.70440138">
    <tag k="addr:city" v="Stockbridge"/>
    <tag k="addr:housenumber" v="808"/>
    <tag k="addr:street" v="Whitcomb Hill Road"/>
    <tag k="addr:state" v="VT"/>
    <tag k="ref:vcgi:esiteid" v="248832"/>
  </node>
  <node id="-142" visible="true" lat="43.79284837" lon="-72.74694">
    <tag k="addr:city" v="Stockbridge"/>
    <tag k="addr:housenumber" v="423"/>
    <tag k="addr:street" v="Lyon Hill Road South"/>
    <tag k="addr:state" v="VT"/>
    <tag k="ref:vcgi:esiteid" v="248835"/>
  </node>
  <node id="-143" visible="true" lat="43.79270132" lon="-72.76367767">
    <tag k="addr:city" v="Stockbridge"/>
    <tag k="addr:housenumber" v="3826"/>
    <tag k="addr:street" v="Vermont Route 100"/>
    <tag k="addr:state" v="VT"/>
    <tag k="ref:vcgi:esiteid" v="248836"/>
  </node>
  <node id="-148" visible="true" lat="43.79247453" lon="-72.66612946">
    <tag k="addr:city" v="Stockbridge"/>
    <tag k="addr:housenumber" v="6472"/>
    <tag k="addr:street" v="Vermont Route 107"/>
    <tag k="addr:state" v="VT"/>
    <tag k="ref:vcgi:esiteid" v="248842"/>
  </node>
  <node id="-150" visible="true" lat="43.79234101" lon="-72.66724335">
    <tag k="addr:city" v="Stockbridge"/>
    <tag k="addr:housenumber" v="6418"/>
    <tag k="addr:street" v="Vermont Route 107"/>
    <tag k="addr:state" v="VT"/>
    <tag k="ref:vcgi:esiteid" v="248844"/>
  </node>
  <node id="-152" visible="true" lat="43.79222235" lon="-72.67459803">
    <tag k="addr:city" v="Stockbridge"/>
    <tag k="addr:housenumber" v="6040"/>
    <tag k="addr:street" v="Vermont Route 107"/>
    <tag k="addr:state" v="VT"/>
    <tag k="ref:vcgi:esiteid" v="248846"/>
  </node>
  <node id="-154" visible="true" lat="43.79211361" lon="-72.66978173">
    <tag k="addr:city" v="Stockbridge"/>
    <tag k="addr:housenumber" v="6318"/>
    <tag k="addr:street" v="Vermont Route 107"/>
    <tag k="addr:state" v="VT"/>
    <tag k="ref:vcgi:esiteid" v="248848"/>
  </node>
  <node id="-155" visible="true" lat="43.79240475" lon="-72.67098156">
    <tag k="addr:city" v="Stockbridge"/>
    <tag k="addr:housenumber" v="6180"/>
    <tag k="addr:street" v="Vermont Route 107"/>
    <tag k="addr:state" v="VT"/>
    <tag k="ref:vcgi:esiteid" v="248849"/>
  </node>
  <node id="-157" visible="true" lat="43.79198021" lon="-72.67925864">
    <tag k="addr:city" v="Stockbridge"/>
    <tag k="addr:housenumber" v="1550"/>
    <tag k="addr:street" v="River Road"/>
    <tag k="addr:state" v="VT"/>
    <tag k="ref:vcgi:esiteid" v="248851"/>
  </node>
  <node id="-158" visible="true" lat="43.79176279" lon="-72.73925929">
    <tag k="addr:city" v="Stockbridge"/>
    <tag k="addr:housenumber" v="1332"/>
    <tag k="addr:street" v="Lyon Hill Road South"/>
    <tag k="addr:state" v="VT"/>
    <tag k="ref:vcgi:esiteid" v="248852"/>
  </node>
  <node id="-160" visible="true" lat="43.79168977" lon="-72.67222839">
    <tag k="addr:city" v="Stockbridge"/>
    <tag k="addr:housenumber" v="91"/>
    <tag k="addr:street" v="Arnold Mountain Road"/>
    <tag k="addr:state" v="VT"/>
    <tag k="ref:vcgi:esiteid" v="248854"/>
  </node>
  <node id="-165" visible="true" lat="43.7907808" lon="-72.70017944">
    <tag k="addr:city" v="Stockbridge"/>
    <tag k="addr:housenumber" v="249"/>
    <tag k="addr:street" v="Vulture Mountain Road"/>
    <tag k="addr:state" v="VT"/>
    <tag k="ref:vcgi:esiteid" v="248859"/>
  </node>
  <node id="-166" visible="true" lat="43.79073884" lon="-72.68364655">
    <tag k="addr:city" v="Stockbridge"/>
    <tag k="addr:housenumber" v="60"/>
    <tag k="addr:street" v="Abbott Road"/>
    <tag k="addr:state" v="VT"/>
    <tag k="ref:vcgi:esiteid" v="248860"/>
  </node>
  <node id="-167" visible="true" lat="43.79080708" lon="-72.6739496">
    <tag k="addr:city" v="Stockbridge"/>
    <tag k="addr:housenumber" v="179"/>
    <tag k="addr:street" v="Arnold Mountain Road"/>
    <tag k="addr:state" v="VT"/>
    <tag k="ref:vcgi:esiteid" v="248861"/>
  </node>
  <node id="-170" visible="true" lat="43.79011938" lon="-72.76384434">
    <tag k="addr:city" v="Stockbridge"/>
    <tag k="addr:housenumber" v="642"/>
    <tag k="addr:street" v="Pit Road"/>
    <tag k="addr:state" v="VT"/>
    <tag k="ref:vcgi:esiteid" v="248864"/>
  </node>
  <node id="-172" visible="true" lat="43.7903598" lon="-72.69802182">
    <tag k="addr:city" v="Stockbridge"/>
    <tag k="addr:housenumber" v="403"/>
    <tag k="addr:street" v="Vulture Mountain Road"/>
    <tag k="addr:state" v="VT"/>
    <tag k="ref:vcgi:esiteid" v="248866"/>
  </node>
  <node id="-173" visible="true" lat="43.78980805" lon="-72.68207489">
    <tag k="addr:city" v="Stockbridge"/>
    <tag k="addr:housenumber" v="1340"/>
    <tag k="addr:street" v="River Road"/>
    <tag k="addr:state" v="VT"/>
    <tag k="ref:vcgi:esiteid" v="248867"/>
  </node>
  <node id="-174" visible="true" lat="43.78953437" lon="-72.69164443">
    <tag k="addr:city" v="Stockbridge"/>
    <tag k="addr:housenumber" v="600"/>
    <tag k="addr:street" v="Vulture Mountain Road"/>
    <tag k="addr:state" v="VT"/>
    <tag k="ref:vcgi:esiteid" v="248868"/>
  </node>
  <node id="-175" visible="true" lat="43.78942508" lon="-72.75088762">
    <tag k="addr:city" v="Stockbridge"/>
    <tag k="addr:housenumber" v="270"/>
    <tag k="addr:street" v="Lyon Hill Road South"/>
    <tag k="addr:state" v="VT"/>
    <tag k="ref:vcgi:esiteid" v="248869"/>
  </node>
  <node id="-176" visible="true" lat="43.78949619" lon="-72.69442947">
    <tag k="addr:city" v="Stockbridge"/>
    <tag k="addr:housenumber" v="543"/>
    <tag k="addr:street" v="Vulture Mountain Road"/>
    <tag k="addr:state" v="VT"/>
    <tag k="ref:vcgi:esiteid" v="248870"/>
  </node>
  <node id="-178" visible="true" lat="43.78939296" lon="-72.69318302">
    <tag k="addr:city" v="Stockbridge"/>
    <tag k="addr:housenumber" v="598"/>
    <tag k="addr:street" v="Vulture Mountain Road"/>
    <tag k="addr:state" v="VT"/>
    <tag k="ref:vcgi:esiteid" v="248872"/>
  </node>
  <node id="-179" visible="true" lat="43.78899171" lon="-72.69409882">
    <tag k="addr:city" v="Stockbridge"/>
    <tag k="addr:housenumber" v="544"/>
    <tag k="addr:street" v="Vulture Mountain Road"/>
    <tag k="addr:state" v="VT"/>
    <tag k="ref:vcgi:esiteid" v="248873"/>
  </node>
  <node id="-181" visible="true" lat="43.78891718" lon="-72.70192454">
    <tag k="addr:city" v="Stockbridge"/>
    <tag k="addr:housenumber" v="506"/>
    <tag k="addr:street" v="Whitcomb Hill Road"/>
    <tag k="addr:state" v="VT"/>
    <tag k="ref:vcgi:esiteid" v="248875"/>
  </node>
  <node id="-183" visible="true" lat="43.78883284" lon="-72.69757461">
    <tag k="addr:city" v="Stockbridge"/>
    <tag k="addr:housenumber" v="365"/>
    <tag k="addr:street" v="Vulture Mountain Road"/>
    <tag k="addr:state" v="VT"/>
    <tag k="ref:vcgi:esiteid" v="248877"/>
  </node>
  <node id="-184" visible="true" lat="43.78878097" lon="-72.69914091">
    <tag k="addr:city" v="Stockbridge"/>
    <tag k="addr:housenumber" v="247"/>
    <tag k="addr:street" v="Vulture Mountain Road"/>
    <tag k="addr:state" v="VT"/>
    <tag k="ref:vcgi:esiteid" v="248878"/>
  </node>
  <node id="-186" visible="true" lat="43.78823259" lon="-72.67985474">
    <tag k="addr:city" v="Stockbridge"/>
    <tag k="addr:housenumber" v="5612"/>
    <tag k="addr:street" v="Vermont Route 107"/>
    <tag k="addr:state" v="VT"/>
    <tag k="ref:vcgi:esiteid" v="248880"/>
  </node>
  <node id="-187" visible="true" lat="43.78825321" lon="-72.69771135">
    <tag k="addr:city" v="Stockbridge"/>
    <tag k="addr:housenumber" v="336"/>
    <tag k="addr:street" v="Vulture Mountain Road"/>
    <tag k="addr:state" v="VT"/>
    <tag k="ref:vcgi:esiteid" v="248881"/>
  </node>
  <node id="-188" visible="true" lat="43.78790203" lon="-72.69698501">
    <tag k="addr:city" v="Stockbridge"/>
    <tag k="addr:housenumber" v="338"/>
    <tag k="addr:street" v="Vulture Mountain Road"/>
    <tag k="addr:state" v="VT"/>
    <tag k="ref:vcgi:esiteid" v="248882"/>
  </node>
  <node id="-189" visible="true" lat="43.78765106" lon="-72.69885293">
    <tag k="addr:city" v="Stockbridge"/>
    <tag k="addr:housenumber" v="218"/>
    <tag k="addr:street" v="Vulture Mountain Road"/>
    <tag k="addr:state" v="VT"/>
    <tag k="ref:vcgi:esiteid" v="248883"/>
  </node>
  <node id="-190" visible="true" lat="43.78757095" lon="-72.76405334">
    <tag k="addr:city" v="Stockbridge"/>
    <tag k="addr:housenumber" v="169"/>
    <tag k="addr:street" v="Westwind Road"/>
    <tag k="addr:state" v="VT"/>
    <tag k="ref:vcgi:esiteid" v="248884"/>
  </node>
  <node id="-192" visible="true" lat="43.78744676" lon="-72.68071686">
    <tag k="addr:city" v="Stockbridge"/>
    <tag k="addr:housenumber" v="5592"/>
    <tag k="addr:street" v="Vermont Route 107"/>
    <tag k="addr:state" v="VT"/>
    <tag k="ref:vcgi:esiteid" v="248886"/>
  </node>
  <node id="-195" visible="true" lat="43.78679091" lon="-72.68124809">
    <tag k="addr:city" v="Stockbridge"/>
    <tag k="addr:housenumber" v="5540"/>
    <tag k="addr:street" v="Vermont Route 107"/>
    <tag k="addr:state" v="VT"/>
    <tag k="ref:vcgi:esiteid" v="248889"/>
  </node>
  <node id="-200" visible="true" lat="43.78651907" lon="-72.69362615">
    <tag k="addr:city" v="Stockbridge"/>
    <tag k="addr:housenumber" v="679"/>
    <tag k="addr:street" v="River Road"/>
    <tag k="addr:state" v="VT"/>
    <tag k="ref:vcgi:esiteid" v="248896"/>
  </node>
  <node id="-203" visible="true" lat="43.78612246" lon="-72.69771495">
    <tag k="addr:city" v="Stockbridge"/>
    <tag k="addr:housenumber" v="90"/>
    <tag k="addr:street" v="Vulture Mountain Road"/>
    <tag k="addr:state" v="VT"/>
    <tag k="ref:vcgi:esiteid" v="248899"/>
  </node>
  <node id="-204" visible="true" lat="43.78602628" lon="-72.69882895">
    <tag k="addr:city" v="Stockbridge"/>
    <tag k="addr:housenumber" v="59"/>
    <tag k="addr:street" v="Vulture Mountain Road"/>
    <tag k="addr:state" v="VT"/>
    <tag k="ref:vcgi:esiteid" v="248900"/>
  </node>
  <node id="-205" visible="true" lat="43.7858559" lon="-72.69469437">
    <tag k="addr:city" v="Stockbridge"/>
    <tag k="addr:housenumber" v="621"/>
    <tag k="addr:street" v="River Road"/>
    <tag k="addr:state" v="VT"/>
    <tag k="ref:vcgi:esiteid" v="248901"/>
  </node>
  <node id="-206" visible="true" lat="43.78559875" lon="-72.76233673">
    <tag k="addr:city" v="Stockbridge"/>
    <tag k="addr:housenumber" v="91"/>
    <tag k="addr:street" v="Westwind Road"/>
    <tag k="addr:state" v="VT"/>
    <tag k="ref:vcgi:esiteid" v="248902"/>
  </node>
  <node id="-207" visible="true" lat="43.78567674" lon="-72.69419037">
    <tag k="addr:city" v="Stockbridge"/>
    <tag k="addr:housenumber" v="634"/>
    <tag k="addr:street" v="River Road"/>
    <tag k="addr:state" v="VT"/>
    <tag k="ref:vcgi:esiteid" v="248903"/>
  </node>
  <node id="-208" visible="true" lat="43.78581578" lon="-72.68501743">
    <tag k="addr:city" v="Stockbridge"/>
    <tag k="addr:housenumber" v="5270"/>
    <tag k="addr:street" v="Vermont Route 107"/>
    <tag k="addr:state" v="VT"/>
    <tag k="ref:vcgi:esiteid" v="248904"/>
  </node>
  <node id="-209" visible="true" lat="43.78549194" lon="-72.763237">
    <tag k="addr:city" v="Stockbridge"/>
    <tag k="addr:housenumber" v="93"/>
    <tag k="addr:street" v="Westwind Road"/>
    <tag k="addr:state" v="VT"/>
    <tag k="ref:vcgi:esiteid" v="248905"/>
  </node>
  <node id="-210" visible="true" lat="43.78578806" lon="-72.68428077">
    <tag k="addr:city" v="Stockbridge"/>
    <tag k="addr:housenumber" v="91"/>
    <tag k="addr:street" v="Sweet Lane"/>
    <tag k="addr:state" v="VT"/>
    <tag k="ref:vcgi:esiteid" v="248906"/>
  </node>
  <node id="-213" visible="true" lat="43.7856385" lon="-72.68596728">
    <tag k="addr:city" v="Stockbridge"/>
    <tag k="addr:housenumber" v="5264"/>
    <tag k="addr:street" v="Vermont Route 107"/>
    <tag k="addr:state" v="VT"/>
    <tag k="ref:vcgi:esiteid" v="248909"/>
  </node>
  <node id="-215" visible="true" lat="43.78522385" lon="-72.68395268">
    <tag k="addr:city" v="Stockbridge"/>
    <tag k="addr:housenumber" v="122"/>
    <tag k="addr:street" v="Sweet Lane"/>
    <tag k="addr:state" v="VT"/>
    <tag k="ref:vcgi:esiteid" v="248911"/>
  </node>
  <node id="-217" visible="true" lat="43.78453106" lon="-72.69604324">
    <tag k="addr:city" v="Stockbridge"/>
    <tag k="addr:housenumber" v="510"/>
    <tag k="addr:street" v="River Road"/>
    <tag k="addr:state" v="VT"/>
    <tag k="ref:vcgi:esiteid" v="248913"/>
  </node>
  <node id="-218" visible="true" lat="43.78433191" lon="-72.70567887">
    <tag k="addr:city" v="Stockbridge"/>
    <tag k="addr:housenumber" v="189"/>
    <tag k="addr:street" v="Kelly Road Extension"/>
    <tag k="addr:state" v="VT"/>
    <tag k="ref:vcgi:esiteid" v="248914"/>
  </node>
  <node id="-221" visible="true" lat="43.78374909" lon="-72.75452116">
    <tag k="addr:city" v="Stockbridge"/>
    <tag k="addr:housenumber" v="2973"/>
    <tag k="addr:street" v="Vermont Route 100"/>
    <tag k="addr:state" v="VT"/>
    <tag k="ref:vcgi:esiteid" v="248917"/>
  </node>
  <node id="-222" visible="true" lat="43.78375023" lon="-72.6981548">
    <tag k="addr:city" v="Stockbridge"/>
    <tag k="addr:housenumber" v="42"/>
    <tag k="addr:street" v="Whitcomb Hill Road"/>
    <tag k="addr:state" v="VT"/>
    <tag k="ref:vcgi:esiteid" v="248918"/>
  </node>
  <node id="-223" visible="true" lat="43.78339118" lon="-72.76191358">
    <tag k="addr:city" v="Stockbridge"/>
    <tag k="addr:housenumber" v="455"/>
    <tag k="addr:street" v="Cedarwood Road"/>
    <tag k="addr:state" v="VT"/>
    <tag k="ref:vcgi:esiteid" v="248919"/>
  </node>
  <node id="-228" visible="true" lat="43.78293078" lon="-72.76118495">
    <tag k="addr:city" v="Stockbridge"/>
    <tag k="addr:housenumber" v="485"/>
    <tag k="addr:street" v="Cedarwood Road"/>
    <tag k="addr:state" v="VT"/>
    <tag k="ref:vcgi:esiteid" v="248924"/>
  </node>
  <node id="-229" visible="true" lat="43.78319318" lon="-72.69877502">
    <tag k="addr:city" v="Stockbridge"/>
    <tag k="addr:housenumber" v="331"/>
    <tag k="addr:street" v="River Road"/>
    <tag k="addr:state" v="VT"/>
    <tag k="ref:vcgi:esiteid" v="248925"/>
  </node>
  <node id="-230" visible="true" lat="43.78301185" lon="-72.70500184">
    <tag k="addr:city" v="Stockbridge"/>
    <tag k="addr:housenumber" v="190"/>
    <tag k="addr:street" v="Kelly Road Extension"/>
    <tag k="addr:state" v="VT"/>
    <tag k="ref:vcgi:esiteid" v="248926"/>
  </node>
  <node id="-233" visible="true" lat="43.78245925" lon="-72.7592163">
    <tag k="addr:city" v="Stockbridge"/>
    <tag k="addr:housenumber" v="364"/>
    <tag k="addr:street" v="One Way Road"/>
    <tag k="addr:state" v="VT"/>
    <tag k="ref:vcgi:esiteid" v="248929"/>
  </node>
  <node id="-234" visible="true" lat="43.78237533" lon="-72.7610321">
    <tag k="addr:city" v="Stockbridge"/>
    <tag k="addr:housenumber" v="505"/>
    <tag k="addr:street" v="Cedarwood Road"/>
    <tag k="addr:state" v="VT"/>
    <tag k="ref:vcgi:esiteid" v="248930"/>
  </node>
  <node id="-235" visible="true" lat="43.78215789" lon="-72.76210021">
    <tag k="addr:city" v="Stockbridge"/>
    <tag k="addr:housenumber" v="59"/>
    <tag k="addr:street" v="Timbercrest Road"/>
    <tag k="addr:state" v="VT"/>
    <tag k="ref:vcgi:esiteid" v="248931"/>
  </node>
  <node id="-236" visible="true" lat="43.78166961" lon="-72.76029205">
    <tag k="addr:city" v="Stockbridge"/>
    <tag k="addr:housenumber" v="303"/>
    <tag k="addr:street" v="One Way Road"/>
    <tag k="addr:state" v="VT"/>
    <tag k="ref:vcgi:esiteid" v="248932"/>
  </node>
  <node id="-237" visible="true" lat="43.78161621" lon="-72.75918579">
    <tag k="addr:city" v="Stockbridge"/>
    <tag k="addr:housenumber" v="314"/>
    <tag k="addr:street" v="One Way Road"/>
    <tag k="addr:state" v="VT"/>
    <tag k="ref:vcgi:esiteid" v="248933"/>
  </node>
  <node id="-238" visible="true" lat="43.78192194" lon="-72.70543414">
    <tag k="addr:city" v="Stockbridge"/>
    <tag k="addr:housenumber" v="127"/>
    <tag k="addr:street" v="Morrow Knoll"/>
    <tag k="addr:state" v="VT"/>
    <tag k="ref:vcgi:esiteid" v="248934"/>
  </node>
  <node id="-243" visible="true" lat="43.78073782" lon="-72.76189994">
    <tag k="addr:city" v="Stockbridge"/>
    <tag k="addr:housenumber" v="103"/>
    <tag k="addr:street" v="Timbercrest Road"/>
    <tag k="addr:state" v="VT"/>
    <tag k="ref:vcgi:esiteid" v="248939"/>
  </node>
  <node id="-246" visible="true" lat="43.78069196" lon="-72.70650776">
    <tag k="addr:city" v="Stockbridge"/>
    <tag k="addr:housenumber" v="325"/>
    <tag k="addr:street" v="Kelly Road"/>
    <tag k="addr:state" v="VT"/>
    <tag k="ref:vcgi:esiteid" v="248944"/>
  </node>
  <node id="-248" visible="true" lat="43.7805099" lon="-72.71736659">
    <tag k="addr:city" v="Stockbridge"/>
    <tag k="addr:housenumber" v="1282"/>
    <tag k="addr:street" v="Laury Road"/>
    <tag k="addr:state" v="VT"/>
    <tag k="ref:vcgi:esiteid" v="248947"/>
  </node>
  <node id="-253" visible="true" lat="43.78017425" lon="-72.76124572">
    <tag k="addr:city" v="Stockbridge"/>
    <tag k="addr:housenumber" v="251"/>
    <tag k="addr:street" v="Cedarwood Road"/>
    <tag k="addr:state" v="VT"/>
    <tag k="ref:vcgi:esiteid" v="248952"/>
  </node>
  <node id="-254" visible="true" lat="43.78015518" lon="-72.76203155">
    <tag k="addr:city" v="Stockbridge"/>
    <tag k="addr:housenumber" v="105"/>
    <tag k="addr:street" v="Timbercrest Road"/>
    <tag k="addr:state" v="VT"/>
    <tag k="ref:vcgi:esiteid" v="248953"/>
  </node>
  <node id="-255" visible="true" lat="43.78050168" lon="-72.71003362">
    <tag k="addr:city" v="Stockbridge"/>
    <tag k="addr:housenumber" v="482"/>
    <tag k="addr:street" v="Kelly Road"/>
    <tag k="addr:state" v="VT"/>
    <tag k="ref:vcgi:esiteid" v="248954"/>
  </node>
  <node id="-260" visible="true" lat="43.78009562" lon="-72.72079459">
    <tag k="addr:city" v="Stockbridge"/>
    <tag k="addr:housenumber" v="1345"/>
    <tag k="addr:street" v="Laury Road"/>
    <tag k="addr:state" v="VT"/>
    <tag k="ref:vcgi:esiteid" v="248959"/>
  </node>
  <node id="-261" visible="true" lat="43.7799118" lon="-72.78594753">
    <tag k="addr:city" v="Stockbridge"/>
    <tag k="addr:housenumber" v="627"/>
    <tag k="addr:street" v="Vermont Route 100"/>
    <tag k="addr:state" v="VT"/>
    <tag k="ref:vcgi:esiteid" v="248960"/>
  </node>
  <node id="-265" visible="true" lat="43.77967071" lon="-72.76108551">
    <tag k="addr:city" v="Stockbridge"/>
    <tag k="addr:housenumber" v="253"/>
    <tag k="addr:street" v="Cedarwood Road"/>
    <tag k="addr:state" v="VT"/>
    <tag k="ref:vcgi:esiteid" v="248964"/>
  </node>
  <node id="-270" visible="true" lat="43.7796474" lon="-72.70979194">
    <tag k="addr:city" v="Stockbridge"/>
    <tag k="addr:housenumber" v="547"/>
    <tag k="addr:street" v="Kelly Road"/>
    <tag k="addr:state" v="VT"/>
    <tag k="ref:vcgi:esiteid" v="248969"/>
  </node>
  <node id="-273" visible="true" lat="43.77910613" lon="-72.79096221">
    <tag k="addr:city" v="Stockbridge"/>
    <tag k="addr:housenumber" v="375"/>
    <tag k="addr:street" v="Vermont Route 100"/>
    <tag k="addr:state" v="VT"/>
    <tag k="ref:vcgi:esiteid" v="248972"/>
  </node>
  <node id="-276" visible="true" lat="43.77929634" lon="-72.75100869">
    <tag k="addr:city" v="Stockbridge"/>
    <tag k="addr:housenumber" v="2238"/>
    <tag k="addr:street" v="Blackmer Boulevard"/>
    <tag k="addr:state" v="VT"/>
    <tag k="ref:vcgi:esiteid" v="248975"/>
  </node>
  <node id="-278" visible="true" lat="43.77906799" lon="-72.76068115">
    <tag k="addr:city" v="Stockbridge"/>
    <tag k="addr:housenumber" v="193"/>
    <tag k="addr:street" v="Cedarwood Road"/>
    <tag k="addr:state" v="VT"/>
    <tag k="ref:vcgi:esiteid" v="248977"/>
  </node>
  <node id="-280" visible="true" lat="43.77898025" lon="-72.75936889">
    <tag k="addr:city" v="Stockbridge"/>
    <tag k="addr:housenumber" v="125"/>
    <tag k="addr:street" v="One Way Road"/>
    <tag k="addr:state" v="VT"/>
    <tag k="ref:vcgi:esiteid" v="248980"/>
  </node>
  <node id="-281" visible="true" lat="43.77907887" lon="-72.75660636">
    <tag k="addr:city" v="Stockbridge"/>
    <tag k="addr:housenumber" v="2474"/>
    <tag k="addr:street" v="Vermont Route 100"/>
    <tag k="addr:state" v="VT"/>
    <tag k="ref:vcgi:esiteid" v="248981"/>
  </node>
  <node id="-284" visible="true" lat="43.77898519" lon="-72.70612872">
    <tag k="addr:city" v="Stockbridge"/>
    <tag k="addr:housenumber" v="116"/>
    <tag k="addr:street" v="Pratt Road"/>
    <tag k="addr:state" v="VT"/>
    <tag k="ref:vcgi:esiteid" v="248985"/>
  </node>
  <node id="-287" visible="true" lat="43.77880861" lon="-72.70463395">
    <tag k="addr:city" v="Stockbridge"/>
    <tag k="addr:housenumber" v="54"/>
    <tag k="addr:street" v="Pratt Road"/>
    <tag k="addr:state" v="VT"/>
    <tag k="ref:vcgi:esiteid" v="248988"/>
  </node>
  <node id="-289" visible="true" lat="43.77878649" lon="-72.69741581">
    <tag k="addr:city" v="Stockbridge"/>
    <tag k="addr:housenumber" v="4498"/>
    <tag k="addr:street" v="Vermont Route 107"/>
    <tag k="addr:state" v="VT"/>
    <tag k="ref:vcgi:esiteid" v="248990"/>
  </node>
  <node id="-290" visible="true" lat="43.77838829" lon="-72.71770347">
    <tag k="addr:city" v="Stockbridge"/>
    <tag k="addr:housenumber" v="1262"/>
    <tag k="addr:street" v="Laury Road"/>
    <tag k="addr:state" v="VT"/>
    <tag k="ref:vcgi:esiteid" v="248991"/>
  </node>
  <node id="-291" visible="true" lat="43.77843312" lon="-72.70711825">
    <tag k="addr:city" v="Stockbridge"/>
    <tag k="addr:housenumber" v="169"/>
    <tag k="addr:street" v="Pratt Road"/>
    <tag k="addr:state" v="VT"/>
    <tag k="ref:vcgi:esiteid" v="248992"/>
  </node>
  <node id="-294" visible="true" lat="43.77839564" lon="-72.70250721">
    <tag k="addr:city" v="Stockbridge"/>
    <tag k="addr:housenumber" v="62"/>
    <tag k="addr:street" v="Meadow Lane"/>
    <tag k="addr:state" v="VT"/>
    <tag k="ref:vcgi:esiteid" v="248995"/>
  </node>
  <node id="-299" visible="true" lat="43.77810287" lon="-72.75711059">
    <tag k="addr:city" v="Stockbridge"/>
    <tag k="addr:housenumber" v="2413"/>
    <tag k="addr:street" v="Vermont Route 100"/>
    <tag k="addr:state" v="VT"/>
    <tag k="ref:vcgi:esiteid" v="249000"/>
  </node>
  <node id="-300" visible="true" lat="43.77826157" lon="-72.69955366">
    <tag k="addr:city" v="Stockbridge"/>
    <tag k="addr:housenumber" v="38"/>
    <tag k="addr:street" v="Bridge Street"/>
    <tag k="addr:state" v="VT"/>
    <tag k="ref:vcgi:esiteid" v="249001"/>
  </node>
  <node id="-302" visible="true" lat="43.77836936" lon="-72.6979371">
    <tag k="addr:city" v="Stockbridge"/>
    <tag k="addr:housenumber" v="4452"/>
    <tag k="addr:street" v="Vermont Route 107"/>
    <tag k="addr:state" v="VT"/>
    <tag k="ref:vcgi:esiteid" v="249003"/>
  </node>
  <node id="-303" visible="true" lat="43.77799012" lon="-72.71374451">
    <tag k="addr:city" v="Stockbridge"/>
    <tag k="addr:housenumber" v="760"/>
    <tag k="addr:street" v="Laury Road"/>
    <tag k="addr:state" v="VT"/>
    <tag k="ref:vcgi:esiteid" v="249004"/>
  </node>
  <node id="-305" visible="true" lat="43.77782058" lon="-72.75762176">
    <tag k="addr:city" v="Stockbridge"/>
    <tag k="addr:housenumber" v="157"/>
    <tag k="addr:street" v="Timber Hawk Road"/>
    <tag k="addr:state" v="VT"/>
    <tag k="ref:vcgi:esiteid" v="249006"/>
  </node>
  <node id="-306" visible="true" lat="43.77799359" lon="-72.7205357">
    <tag k="addr:city" v="Stockbridge"/>
    <tag k="addr:housenumber" v="1347"/>
    <tag k="addr:street" v="Laury Road"/>
    <tag k="addr:state" v="VT"/>
    <tag k="ref:vcgi:esiteid" v="249007"/>
  </node>
  <node id="-307" visible="true" lat="43.77803063" lon="-72.7058862">
    <tag k="addr:city" v="Stockbridge"/>
    <tag k="addr:housenumber" v="29"/>
    <tag k="addr:street" v="Pratt Road"/>
    <tag k="addr:state" v="VT"/>
    <tag k="ref:vcgi:esiteid" v="249008"/>
  </node>
  <node id="-308" visible="true" lat="43.77778215" lon="-72.7620944">
    <tag k="addr:city" v="Stockbridge"/>
    <tag k="addr:housenumber" v="357"/>
    <tag k="addr:street" v="Timbercrest Road"/>
    <tag k="addr:state" v="VT"/>
    <tag k="ref:vcgi:esiteid" v="249009"/>
  </node>
  <node id="-309" visible="true" lat="43.77787408" lon="-72.71000996">
    <tag k="addr:city" v="Stockbridge"/>
    <tag k="addr:housenumber" v="546"/>
    <tag k="addr:street" v="Laury Road"/>
    <tag k="addr:state" v="VT"/>
    <tag k="ref:vcgi:esiteid" v="249010"/>
  </node>
  <node id="-310" visible="true" lat="43.77787624" lon="-72.70366462">
    <tag k="addr:city" v="Stockbridge"/>
    <tag k="addr:housenumber" v="186"/>
    <tag k="addr:street" v="Laury Road"/>
    <tag k="addr:state" v="VT"/>
    <tag k="ref:vcgi:esiteid" v="249011"/>
  </node>
  <node id="-311" visible="true" lat="43.77760696" lon="-72.77644348">
    <tag k="addr:city" v="Stockbridge"/>
    <tag k="addr:housenumber" v="1175"/>
    <tag k="addr:street" v="Vermont Route 100"/>
    <tag k="addr:state" v="VT"/>
    <tag k="ref:vcgi:esiteid" v="249013"/>
  </node>
  <node id="-312" visible="true" lat="43.77790146" lon="-72.69990653">
    <tag k="addr:city" v="Stockbridge"/>
    <tag k="addr:housenumber" v="35"/>
    <tag k="addr:street" v="Bridge Street"/>
    <tag k="addr:state" v="VT"/>
    <tag k="ref:vcgi:esiteid" v="249014"/>
  </node>
  <node id="-314" visible="true" lat="43.7778162" lon="-72.70248301">
    <tag k="addr:city" v="Stockbridge"/>
    <tag k="addr:housenumber" v="95"/>
    <tag k="addr:street" v="Laury Road"/>
    <tag k="addr:state" v="VT"/>
    <tag k="ref:vcgi:esiteid" v="249016"/>
  </node>
  <node id="-316" visible="true" lat="43.77740478" lon="-72.75962829">
    <tag k="addr:city" v="Stockbridge"/>
    <tag k="addr:housenumber" v="77"/>
    <tag k="addr:street" v="Cedarwood Road"/>
    <tag k="addr:state" v="VT"/>
    <tag k="ref:vcgi:esiteid" v="249018"/>
  </node>
  <node id="-317" visible="true" lat="43.7776303" lon="-72.69880206">
    <tag k="addr:city" v="Stockbridge"/>
    <tag k="addr:housenumber" v="4394"/>
    <tag k="addr:street" v="Vermont Route 107"/>
    <tag k="addr:state" v="VT"/>
    <tag k="ref:vcgi:esiteid" v="249019"/>
  </node>
  <node id="-318" visible="true" lat="43.77761098" lon="-72.70311967">
    <tag k="addr:city" v="Stockbridge"/>
    <tag k="addr:housenumber" v="142"/>
    <tag k="addr:street" v="Laury Road"/>
    <tag k="addr:state" v="VT"/>
    <tag k="ref:vcgi:esiteid" v="249020"/>
  </node>
  <node id="-319" visible="true" lat="43.77756896" lon="-72.71193441">
    <tag k="addr:city" v="Stockbridge"/>
    <tag k="addr:housenumber" v="662"/>
    <tag k="addr:street" v="Laury Road"/>
    <tag k="addr:state" v="VT"/>
    <tag k="ref:vcgi:esiteid" v="249021"/>
  </node>
  <node id="-320" visible="true" lat="43.77723253" lon="-72.79639046">
    <tag k="addr:city" v="Stockbridge"/>
    <tag k="addr:housenumber" v="88"/>
    <tag k="addr:street" v="Vermont Route 100"/>
    <tag k="addr:state" v="VT"/>
    <tag k="ref:vcgi:esiteid" v="249022"/>
  </node>
  <node id="-321" visible="true" lat="43.77720642" lon="-72.75711822">
    <tag k="addr:city" v="Stockbridge"/>
    <tag k="addr:housenumber" v="2351"/>
    <tag k="addr:street" v="Vermont Route 100"/>
    <tag k="addr:state" v="VT"/>
    <tag k="ref:vcgi:esiteid" v="249023"/>
  </node>
  <node id="-322" visible="true" lat="43.77734954" lon="-72.76424699">
    <tag k="addr:city" v="Stockbridge"/>
    <tag k="addr:housenumber" v="567"/>
    <tag k="addr:street" v="Timber Hawk Road"/>
    <tag k="addr:state" v="VT"/>
    <tag k="ref:vcgi:esiteid" v="249024"/>
  </node>
  <node id="-323" visible="true" lat="43.77747789" lon="-72.70256903">
    <tag k="addr:city" v="Stockbridge"/>
    <tag k="addr:housenumber" v="109"/>
    <tag k="addr:street" v="Laury Road"/>
    <tag k="addr:state" v="VT"/>
    <tag k="ref:vcgi:esiteid" v="249025"/>
  </node>
  <node id="-328" visible="true" lat="43.77693176" lon="-72.77684021">
    <tag k="addr:city" v="Stockbridge"/>
    <tag k="addr:housenumber" v="1137"/>
    <tag k="addr:street" v="Vermont Route 100"/>
    <tag k="addr:state" v="VT"/>
    <tag k="ref:vcgi:esiteid" v="249030"/>
  </node>
  <node id="-329" visible="true" lat="43.77711199" lon="-72.6993139">
    <tag k="addr:city" v="Stockbridge"/>
    <tag k="addr:housenumber" v="4354"/>
    <tag k="addr:street" v="Vermont Route 107"/>
    <tag k="addr:state" v="VT"/>
    <tag k="ref:vcgi:esiteid" v="249031"/>
  </node>
  <node id="-330" visible="true" lat="43.7771478" lon="-72.70643022">
    <tag k="addr:city" v="Stockbridge"/>
    <tag k="addr:housenumber" v="326"/>
    <tag k="addr:street" v="Laury Road"/>
    <tag k="addr:state" v="VT"/>
    <tag k="ref:vcgi:esiteid" v="249032"/>
  </node>
  <node id="-331" visible="true" lat="43.77713225" lon="-72.70930077">
    <tag k="addr:city" v="Stockbridge"/>
    <tag k="addr:housenumber" v="490"/>
    <tag k="addr:street" v="Laury Road"/>
    <tag k="addr:state" v="VT"/>
    <tag k="ref:vcgi:esiteid" v="249033"/>
  </node>
  <node id="-333" visible="true" lat="43.77681732" lon="-72.75795745">
    <tag k="addr:city" v="Stockbridge"/>
    <tag k="addr:housenumber" v="239"/>
    <tag k="addr:street" v="Timber Hawk Road"/>
    <tag k="addr:state" v="VT"/>
    <tag k="ref:vcgi:esiteid" v="249035"/>
  </node>
  <node id="-336" visible="true" lat="43.7767956" lon="-72.78056311">
    <tag k="addr:city" v="Stockbridge"/>
    <tag k="addr:housenumber" v="57"/>
    <tag k="addr:street" v="Lucerne Drive"/>
    <tag k="addr:state" v="VT"/>
    <tag k="ref:vcgi:esiteid" v="249038"/>
  </node>
  <node id="-339" visible="true" lat="43.77681149" lon="-72.71505376">
    <tag k="addr:city" v="Stockbridge"/>
    <tag k="addr:housenumber" v="858"/>
    <tag k="addr:street" v="Laury Road"/>
    <tag k="addr:state" v="VT"/>
    <tag k="ref:vcgi:esiteid" v="249041"/>
  </node>
  <node id="-340" visible="true" lat="43.77679488" lon="-72.76234023">
    <tag k="addr:city" v="Stockbridge"/>
    <tag k="addr:housenumber" v="596"/>
    <tag k="addr:street" v="Timber Hawk Road"/>
    <tag k="addr:state" v="VT"/>
    <tag k="ref:vcgi:esiteid" v="249042"/>
  </node>
  <node id="-341" visible="true" lat="43.77705183" lon="-72.71037804">
    <tag k="addr:city" v="Stockbridge"/>
    <tag k="addr:housenumber" v="643"/>
    <tag k="addr:street" v="Laury Road"/>
    <tag k="addr:state" v="VT"/>
    <tag k="ref:vcgi:esiteid" v="249043"/>
  </node>
  <node id="-345" visible="true" lat="43.7765274" lon="-72.78123473">
    <tag k="addr:city" v="Stockbridge"/>
    <tag k="addr:housenumber" v="75"/>
    <tag k="addr:street" v="Canton Drive"/>
    <tag k="addr:state" v="VT"/>
    <tag k="ref:vcgi:esiteid" v="249047"/>
  </node>
  <node id="-346" visible="true" lat="43.77667081" lon="-72.7084703">
    <tag k="addr:city" v="Stockbridge"/>
    <tag k="addr:housenumber" v="466"/>
    <tag k="addr:street" v="Laury Road"/>
    <tag k="addr:state" v="VT"/>
    <tag k="ref:vcgi:esiteid" v="249048"/>
  </node>
  <node id="-347" visible="true" lat="43.77678152" lon="-72.70425836">
    <tag k="addr:city" v="Stockbridge"/>
    <tag k="addr:housenumber" v="47"/>
    <tag k="addr:street" v="Cobble House Road"/>
    <tag k="addr:state" v="VT"/>
    <tag k="ref:vcgi:esiteid" v="249049"/>
  </node>
  <node id="-349" visible="true" lat="43.77652881" lon="-72.7772039">
    <tag k="addr:city" v="Stockbridge"/>
    <tag k="addr:housenumber" v="1126"/>
    <tag k="addr:street" v="Vermont Route 100"/>
    <tag k="addr:state" v="VT"/>
    <tag k="ref:vcgi:esiteid" v="249051"/>
  </node>
  <node id="-351" visible="true" lat="43.77657638" lon="-72.70704693">
    <tag k="addr:city" v="Stockbridge"/>
    <tag k="addr:housenumber" v="384"/>
    <tag k="addr:street" v="Laury Road"/>
    <tag k="addr:state" v="VT"/>
    <tag k="ref:vcgi:esiteid" v="249054"/>
  </node>
  <node id="-352" visible="true" lat="43.77641987" lon="-72.77256525">
    <tag k="addr:city" v="Stockbridge"/>
    <tag k="addr:housenumber" v="1354"/>
    <tag k="addr:street" v="Vermont Route 100"/>
    <tag k="addr:state" v="VT"/>
    <tag k="ref:vcgi:esiteid" v="249055"/>
  </node>
  <node id="-353" visible="true" lat="43.77656283" lon="-72.70954174">
    <tag k="addr:city" v="Stockbridge"/>
    <tag k="addr:housenumber" v="525"/>
    <tag k="addr:street" v="Laury Road"/>
    <tag k="addr:state" v="VT"/>
    <tag k="ref:vcgi:esiteid" v="249056"/>
  </node>
  <node id="-356" visible="true" lat="43.77622289" lon="-72.75225223">
    <tag k="addr:city" v="Stockbridge"/>
    <tag k="addr:housenumber" v="2156"/>
    <tag k="addr:street" v="Blackmer Boulevard"/>
    <tag k="addr:state" v="VT"/>
    <tag k="ref:vcgi:esiteid" v="249059"/>
  </node>
  <node id="-357" visible="true" lat="43.77599334" lon="-72.75882721">
    <tag k="addr:city" v="Stockbridge"/>
    <tag k="addr:housenumber" v="329"/>
    <tag k="addr:street" v="Timber Hawk Road"/>
    <tag k="addr:state" v="VT"/>
    <tag k="ref:vcgi:esiteid" v="249062"/>
  </node>
  <node id="-358" visible="true" lat="43.77597033" lon="-72.76565435">
    <tag k="addr:city" v="Stockbridge"/>
    <tag k="addr:housenumber" v="1703"/>
    <tag k="addr:street" v="Vermont Route 100"/>
    <tag k="addr:state" v="VT"/>
    <tag k="ref:vcgi:esiteid" v="249063"/>
  </node>
  <node id="-362" visible="true" lat="43.77616574" lon="-72.70852227">
    <tag k="addr:city" v="Stockbridge"/>
    <tag k="addr:housenumber" v="471"/>
    <tag k="addr:street" v="Laury Road"/>
    <tag k="addr:state" v="VT"/>
    <tag k="ref:vcgi:esiteid" v="249067"/>
  </node>
  <node id="-363" visible="true" lat="43.77599007" lon="-72.7171004">
    <tag k="addr:city" v="Stockbridge"/>
    <tag k="addr:housenumber" v="1062"/>
    <tag k="addr:street" v="Laury Road"/>
    <tag k="addr:state" v="VT"/>
    <tag k="ref:vcgi:esiteid" v="249070"/>
  </node>
  <node id="-365" visible="true" lat="43.77587557" lon="-72.71110004">
    <tag k="addr:city" v="Stockbridge"/>
    <tag k="addr:housenumber" v="645"/>
    <tag k="addr:street" v="Laury Road"/>
    <tag k="addr:state" v="VT"/>
    <tag k="ref:vcgi:esiteid" v="249073"/>
  </node>
  <node id="-367" visible="true" lat="43.77545954" lon="-72.77762947">
    <tag k="addr:city" v="Stockbridge"/>
    <tag k="addr:housenumber" v="191"/>
    <tag k="addr:street" v="Schaff Haus Drive"/>
    <tag k="addr:state" v="VT"/>
    <tag k="ref:vcgi:esiteid" v="249079"/>
  </node>
  <node id="-370" visible="true" lat="43.77557641" lon="-72.71223435">
    <tag k="addr:city" v="Stockbridge"/>
    <tag k="addr:housenumber" v="647"/>
    <tag k="addr:street" v="Laury Road"/>
    <tag k="addr:state" v="VT"/>
    <tag k="ref:vcgi:esiteid" v="249082"/>
  </node>
  <node id="-371" visible="true" lat="43.77545683" lon="-72.70250398">
    <tag k="addr:city" v="Stockbridge"/>
    <tag k="addr:housenumber" v="4149"/>
    <tag k="addr:street" v="Vermont Route 107"/>
    <tag k="addr:state" v="VT"/>
    <tag k="ref:vcgi:esiteid" v="249083"/>
  </node>
  <node id="-378" visible="true" lat="43.77482506" lon="-72.75045206">
    <tag k="addr:city" v="Stockbridge"/>
    <tag k="addr:housenumber" v="1996"/>
    <tag k="addr:street" v="Blackmer Boulevard"/>
    <tag k="addr:state" v="VT"/>
    <tag k="ref:vcgi:esiteid" v="249092"/>
  </node>
  <node id="-379" visible="true" lat="43.77480744" lon="-72.74654085">
    <tag k="addr:city" v="Stockbridge"/>
    <tag k="addr:housenumber" v="1876"/>
    <tag k="addr:street" v="Blackmer Boulevard"/>
    <tag k="addr:state" v="VT"/>
    <tag k="ref:vcgi:esiteid" v="249093"/>
  </node>
  <node id="-380" visible="true" lat="43.77427289" lon="-72.75073773">
    <tag k="addr:city" v="Stockbridge"/>
    <tag k="addr:housenumber" v="1943"/>
    <tag k="addr:street" v="Blackmer Boulevard"/>
    <tag k="addr:state" v="VT"/>
    <tag k="ref:vcgi:esiteid" v="249094"/>
  </node>
  <node id="-381" visible="true" lat="43.77431151" lon="-72.76716413">
    <tag k="addr:city" v="Stockbridge"/>
    <tag k="addr:housenumber" v="75"/>
    <tag k="addr:street" v="Tweed Lane"/>
    <tag k="addr:state" v="VT"/>
    <tag k="ref:vcgi:esiteid" v="249095"/>
  </node>
  <node id="-382" visible="true" lat="43.77424825" lon="-72.76794363">
    <tag k="addr:city" v="Stockbridge"/>
    <tag k="addr:housenumber" v="42"/>
    <tag k="addr:street" v="Tweed Lane"/>
    <tag k="addr:state" v="VT"/>
    <tag k="ref:vcgi:esiteid" v="249096"/>
  </node>
  <node id="-384" visible="true" lat="43.77417384" lon="-72.77052415">
    <tag k="addr:city" v="Stockbridge"/>
    <tag k="addr:housenumber" v="235"/>
    <tag k="addr:street" v="South Hill Rd Stockbridge"/>
    <tag k="addr:state" v="VT"/>
    <tag k="ref:vcgi:esiteid" v="249098"/>
  </node>
  <node id="-385" visible="true" lat="43.77387474" lon="-72.74513496">
    <tag k="addr:city" v="Stockbridge"/>
    <tag k="addr:housenumber" v="1782"/>
    <tag k="addr:street" v="Blackmer Boulevard"/>
    <tag k="addr:state" v="VT"/>
    <tag k="ref:vcgi:esiteid" v="249100"/>
  </node>
  <node id="-387" visible="true" lat="43.77350235" lon="-72.75932312">
    <tag k="addr:city" v="Stockbridge"/>
    <tag k="addr:housenumber" v="2056"/>
    <tag k="addr:street" v="Vermont Route 100"/>
    <tag k="addr:state" v="VT"/>
    <tag k="ref:vcgi:esiteid" v="249103"/>
  </node>
  <node id="-388" visible="true" lat="43.77352961" lon="-72.77245595">
    <tag k="addr:city" v="Stockbridge"/>
    <tag k="addr:housenumber" v="368"/>
    <tag k="addr:street" v="South Hill Rd Stockbridge"/>
    <tag k="addr:state" v="VT"/>
    <tag k="ref:vcgi:esiteid" v="249104"/>
  </node>
  <node id="-389" visible="true" lat="43.77350739" lon="-72.74903169">
    <tag k="addr:city" v="Stockbridge"/>
    <tag k="addr:housenumber" v="1941"/>
    <tag k="addr:street" v="Blackmer Boulevard"/>
    <tag k="addr:state" v="VT"/>
    <tag k="ref:vcgi:esiteid" v="249105"/>
  </node>
  <node id="-390" visible="true" lat="43.77343228" lon="-72.71722796">
    <tag k="addr:city" v="Stockbridge"/>
    <tag k="addr:housenumber" v="1047"/>
    <tag k="addr:street" v="Laury Road"/>
    <tag k="addr:state" v="VT"/>
    <tag k="ref:vcgi:esiteid" v="249106"/>
  </node>
  <node id="-391" visible="true" lat="43.77318573" lon="-72.76219177">
    <tag k="addr:city" v="Stockbridge"/>
    <tag k="addr:housenumber" v="106"/>
    <tag k="addr:street" v="Vermont Route 107"/>
    <tag k="addr:state" v="VT"/>
    <tag k="ref:vcgi:esiteid" v="249107"/>
  </node>
  <node id="-392" visible="true" lat="43.77339198" lon="-72.69998721">
    <tag k="addr:city" v="Stockbridge"/>
    <tag k="addr:housenumber" v="200"/>
    <tag k="addr:street" v="Mount Hunger Road"/>
    <tag k="addr:state" v="VT"/>
    <tag k="ref:vcgi:esiteid" v="249108"/>
  </node>
  <node id="-393" visible="true" lat="43.77284618" lon="-72.77223386">
    <tag k="addr:city" v="Stockbridge"/>
    <tag k="addr:housenumber" v="471"/>
    <tag k="addr:street" v="South Hill Rd Stockbridge"/>
    <tag k="addr:state" v="VT"/>
    <tag k="ref:vcgi:esiteid" v="249109"/>
  </node>
  <node id="-394" visible="true" lat="43.77281564" lon="-72.70664473">
    <tag k="addr:city" v="Stockbridge"/>
    <tag k="addr:housenumber" v="333"/>
    <tag k="addr:street" v="Childrens Camp Road"/>
    <tag k="addr:state" v="VT"/>
    <tag k="ref:vcgi:esiteid" v="249110"/>
  </node>
  <node id="-395" visible="true" lat="43.77189902" lon="-72.77195361">
    <tag k="addr:city" v="Stockbridge"/>
    <tag k="addr:housenumber" v="535"/>
    <tag k="addr:street" v="South Hill Rd Stockbridge"/>
    <tag k="addr:state" v="VT"/>
    <tag k="ref:vcgi:esiteid" v="249111"/>
  </node>
  <node id="-396" visible="true" lat="43.77193324" lon="-72.74578287">
    <tag k="addr:city" v="Stockbridge"/>
    <tag k="addr:housenumber" v="1690"/>
    <tag k="addr:street" v="Blackmer Boulevard"/>
    <tag k="addr:state" v="VT"/>
    <tag k="ref:vcgi:esiteid" v="249112"/>
  </node>
  <node id="-397" visible="true" lat="43.77189715" lon="-72.74867309">
    <tag k="addr:city" v="Stockbridge"/>
    <tag k="addr:housenumber" v="1041"/>
    <tag k="addr:street" v="Vermont Route 107"/>
    <tag k="addr:state" v="VT"/>
    <tag k="ref:vcgi:esiteid" v="249113"/>
  </node>
  <node id="-398" visible="true" lat="43.7717422" lon="-72.74334756">
    <tag k="addr:city" v="Stockbridge"/>
    <tag k="addr:housenumber" v="1578"/>
    <tag k="addr:street" v="Blackmer Boulevard"/>
    <tag k="addr:state" v="VT"/>
    <tag k="ref:vcgi:esiteid" v="249114"/>
  </node>
  <node id="-399" visible="true" lat="43.77165976" lon="-72.70905422">
    <tag k="addr:city" v="Stockbridge"/>
    <tag k="addr:housenumber" v="374"/>
    <tag k="addr:street" v="Childrens Camp Road"/>
    <tag k="addr:state" v="VT"/>
    <tag k="ref:vcgi:esiteid" v="249115"/>
  </node>
  <node id="-400" visible="true" lat="43.7712387" lon="-72.76398397">
    <tag k="addr:city" v="Stockbridge"/>
    <tag k="addr:housenumber" v="307"/>
    <tag k="addr:street" v="Joe Manning Road"/>
    <tag k="addr:state" v="VT"/>
    <tag k="ref:vcgi:esiteid" v="249116"/>
  </node>
  <node id="-401" visible="true" lat="43.77127507" lon="-72.74848106">
    <tag k="addr:city" v="Stockbridge"/>
    <tag k="addr:housenumber" v="1039"/>
    <tag k="addr:street" v="Vermont Route 107"/>
    <tag k="addr:state" v="VT"/>
    <tag k="ref:vcgi:esiteid" v="249117"/>
  </node>
  <node id="-402" visible="true" lat="43.7709533" lon="-72.76461653">
    <tag k="addr:city" v="Stockbridge"/>
    <tag k="addr:housenumber" v="348"/>
    <tag k="addr:street" v="Joe Manning Road"/>
    <tag k="addr:state" v="VT"/>
    <tag k="ref:vcgi:esiteid" v="249118"/>
  </node>
  <node id="-403" visible="true" lat="43.77079504" lon="-72.76290323">
    <tag k="addr:city" v="Stockbridge"/>
    <tag k="addr:housenumber" v="221"/>
    <tag k="addr:street" v="Joe Manning Road"/>
    <tag k="addr:state" v="VT"/>
    <tag k="ref:vcgi:esiteid" v="249119"/>
  </node>
  <node id="-404" visible="true" lat="43.77078225" lon="-72.70529083">
    <tag k="addr:city" v="Stockbridge"/>
    <tag k="addr:housenumber" v="3693"/>
    <tag k="addr:street" v="Vermont Route 107"/>
    <tag k="addr:state" v="VT"/>
    <tag k="ref:vcgi:esiteid" v="249120"/>
  </node>
  <node id="-405" visible="true" lat="43.77056122" lon="-72.76383209">
    <tag k="addr:city" v="Stockbridge"/>
    <tag k="addr:housenumber" v="381"/>
    <tag k="addr:street" v="Joe Manning Road"/>
    <tag k="addr:state" v="VT"/>
    <tag k="ref:vcgi:esiteid" v="249121"/>
  </node>
  <node id="-407" visible="true" lat="43.76970618" lon="-72.74385958">
    <tag k="addr:city" v="Stockbridge"/>
    <tag k="addr:housenumber" v="1514"/>
    <tag k="addr:street" v="Blackmer Boulevard"/>
    <tag k="addr:state" v="VT"/>
    <tag k="ref:vcgi:esiteid" v="249123"/>
  </node>
  <node id="-408" visible="true" lat="43.76967369" lon="-72.71038423">
    <tag k="addr:city" v="Stockbridge"/>
    <tag k="addr:housenumber" v="564"/>
    <tag k="addr:street" v="Childrens Camp Road"/>
    <tag k="addr:state" v="VT"/>
    <tag k="ref:vcgi:esiteid" v="249124"/>
  </node>
  <node id="-410" visible="true" lat="43.76951135" lon="-72.70617192">
    <tag k="addr:city" v="Stockbridge"/>
    <tag k="addr:housenumber" v="3657"/>
    <tag k="addr:street" v="Vermont Route 107"/>
    <tag k="addr:state" v="VT"/>
    <tag k="ref:vcgi:esiteid" v="249126"/>
  </node>
  <node id="-411" visible="true" lat="43.76937178" lon="-72.74412061">
    <tag k="addr:city" v="Stockbridge"/>
    <tag k="addr:housenumber" v="1489"/>
    <tag k="addr:street" v="Blackmer Boulevard"/>
    <tag k="addr:state" v="VT"/>
    <tag k="ref:vcgi:esiteid" v="249127"/>
  </node>
  <node id="-412" visible="true" lat="43.7691651" lon="-72.74342674">
    <tag k="addr:city" v="Stockbridge"/>
    <tag k="addr:housenumber" v="1464"/>
    <tag k="addr:street" v="Blackmer Boulevard"/>
    <tag k="addr:state" v="VT"/>
    <tag k="ref:vcgi:esiteid" v="249128"/>
  </node>
  <node id="-413" visible="true" lat="43.76848139" lon="-72.75135944">
    <tag k="addr:city" v="Stockbridge"/>
    <tag k="addr:housenumber" v="761"/>
    <tag k="addr:street" v="Vermont Route 107"/>
    <tag k="addr:state" v="VT"/>
    <tag k="ref:vcgi:esiteid" v="249129"/>
  </node>
  <node id="-414" visible="true" lat="43.76838961" lon="-72.70711139">
    <tag k="addr:city" v="Stockbridge"/>
    <tag k="addr:housenumber" v="3574"/>
    <tag k="addr:street" v="Vermont Route 107"/>
    <tag k="addr:state" v="VT"/>
    <tag k="ref:vcgi:esiteid" v="249130"/>
  </node>
  <node id="-415" visible="true" lat="43.76817854" lon="-72.76542018">
    <tag k="addr:city" v="Stockbridge"/>
    <tag k="addr:housenumber" v="561"/>
    <tag k="addr:street" v="Joe Manning Road"/>
    <tag k="addr:state" v="VT"/>
    <tag k="ref:vcgi:esiteid" v="249131"/>
  </node>
  <node id="-416" visible="true" lat="43.76827683" lon="-72.70743767">
    <tag k="addr:city" v="Stockbridge"/>
    <tag k="addr:housenumber" v="3550"/>
    <tag k="addr:street" v="Vermont Route 107"/>
    <tag k="addr:state" v="VT"/>
    <tag k="ref:vcgi:esiteid" v="249132"/>
  </node>
  <node id="-417" visible="true" lat="43.76699094" lon="-72.74513064">
    <tag k="addr:city" v="Stockbridge"/>
    <tag k="addr:housenumber" v="1117"/>
    <tag k="addr:street" v="Vermont Route 107"/>
    <tag k="addr:state" v="VT"/>
    <tag k="ref:vcgi:esiteid" v="249133"/>
  </node>
  <node id="-418" visible="true" lat="43.76645148" lon="-72.70778756">
    <tag k="addr:city" v="Stockbridge"/>
    <tag k="addr:housenumber" v="3456"/>
    <tag k="addr:street" v="Vermont Route 107"/>
    <tag k="addr:state" v="VT"/>
    <tag k="ref:vcgi:esiteid" v="249134"/>
  </node>
  <node id="-420" visible="true" lat="43.76635016" lon="-72.77226113">
    <tag k="addr:city" v="Stockbridge"/>
    <tag k="addr:housenumber" v="979"/>
    <tag k="addr:street" v="South Hill Rd Stockbridge"/>
    <tag k="addr:state" v="VT"/>
    <tag k="ref:vcgi:esiteid" v="249137"/>
  </node>
  <node id="-423" visible="true" lat="43.76448506" lon="-72.7149874">
    <tag k="addr:city" v="Stockbridge"/>
    <tag k="addr:housenumber" v="3080"/>
    <tag k="addr:street" v="Vermont Route 107"/>
    <tag k="addr:state" v="VT"/>
    <tag k="ref:vcgi:esiteid" v="249140"/>
  </node>
  <node id="-426" visible="true" lat="43.76371918" lon="-72.77739585">
    <tag k="addr:city" v="Stockbridge"/>
    <tag k="addr:housenumber" v="1179"/>
    <tag k="addr:street" v="South Hill Rd Stockbridge"/>
    <tag k="addr:state" v="VT"/>
    <tag k="ref:vcgi:esiteid" v="249143"/>
  </node>
  <node id="-442" visible="true" lat="43.76083753" lon="-72.70884389">
    <tag k="addr:city" v="Stockbridge"/>
    <tag k="addr:housenumber" v="374"/>
    <tag k="addr:street" v="Stony Brook Road"/>
    <tag k="addr:state" v="VT"/>
    <tag k="ref:vcgi:esiteid" v="249159"/>
  </node>
  <node id="-443" visible="true" lat="43.76055523" lon="-72.73117962">
    <tag k="addr:city" v="Stockbridge"/>
    <tag k="addr:housenumber" v="570"/>
    <tag k="addr:street" v="Blackmer Boulevard"/>
    <tag k="addr:state" v="VT"/>
    <tag k="ref:vcgi:esiteid" v="249160"/>
  </node>
  <node id="-446" visible="true" lat="43.76011503" lon="-72.70644853">
    <tag k="addr:city" v="Stockbridge"/>
    <tag k="addr:housenumber" v="459"/>
    <tag k="addr:street" v="Stony Brook Road"/>
    <tag k="addr:state" v="VT"/>
    <tag k="ref:vcgi:esiteid" v="249163"/>
  </node>
  <node id="-448" visible="true" lat="43.75998319" lon="-72.72170368">
    <tag k="addr:city" v="Stockbridge"/>
    <tag k="addr:housenumber" v="2654"/>
    <tag k="addr:street" v="Vermont Route 107"/>
    <tag k="addr:state" v="VT"/>
    <tag k="ref:vcgi:esiteid" v="249165"/>
  </node>
  <node id="-453" visible="true" lat="43.75843039" lon="-72.81032539">
    <tag k="addr:city" v="Stockbridge"/>
    <tag k="addr:housenumber" v="263"/>
    <tag k="addr:street" v="Spring Street"/>
    <tag k="addr:state" v="VT"/>
    <tag k="ref:vcgi:esiteid" v="249170"/>
  </node>
  <node id="-456" visible="true" lat="43.75810195" lon="-72.70722895">
    <tag k="addr:city" v="Stockbridge"/>
    <tag k="addr:housenumber" v="588"/>
    <tag k="addr:street" v="Stony Brook Road"/>
    <tag k="addr:state" v="VT"/>
    <tag k="ref:vcgi:esiteid" v="249173"/>
  </node>
  <node id="-460" visible="true" lat="43.75747421" lon="-72.72613031">
    <tag k="addr:city" v="Stockbridge"/>
    <tag k="addr:housenumber" v="47"/>
    <tag k="addr:street" v="Whitney Road"/>
    <tag k="addr:state" v="VT"/>
    <tag k="ref:vcgi:esiteid" v="249177"/>
  </node>
  <node id="-464" visible="true" lat="43.75757049" lon="-72.70731916">
    <tag k="addr:city" v="Stockbridge"/>
    <tag k="addr:housenumber" v="630"/>
    <tag k="addr:street" v="Stony Brook Road"/>
    <tag k="addr:state" v="VT"/>
    <tag k="ref:vcgi:esiteid" v="249182"/>
  </node>
  <node id="-475" visible="true" lat="43.75615962" lon="-72.70856793">
    <tag k="addr:city" v="Stockbridge"/>
    <tag k="addr:housenumber" v="808"/>
    <tag k="addr:street" v="Stony Brook Road"/>
    <tag k="addr:state" v="VT"/>
    <tag k="ref:vcgi:esiteid" v="249193"/>
  </node>
  <node id="-480" visible="true" lat="43.75599641" lon="-72.7241253">
    <tag k="addr:city" v="Stockbridge"/>
    <tag k="addr:housenumber" v="240"/>
    <tag k="addr:street" v="Taggart Hill Road North"/>
    <tag k="addr:state" v="VT"/>
    <tag k="ref:vcgi:esiteid" v="249198"/>
  </node>
  <node id="-484" visible="true" lat="43.75458819" lon="-72.8053612">
    <tag k="addr:city" v="Stockbridge"/>
    <tag k="addr:housenumber" v="330"/>
    <tag k="addr:street" v="Tweed River Drive"/>
    <tag k="addr:state" v="VT"/>
    <tag k="ref:vcgi:esiteid" v="249202"/>
  </node>
  <node id="-486" visible="true" lat="43.75294215" lon="-72.71133207">
    <tag k="addr:city" v="Stockbridge"/>
    <tag k="addr:housenumber" v="1079"/>
    <tag k="addr:street" v="Stony Brook Road"/>
    <tag k="addr:state" v="VT"/>
    <tag k="ref:vcgi:esiteid" v="249204"/>
  </node>
  <node id="-487" visible="true" lat="43.75299378" lon="-72.71357534">
    <tag k="addr:city" v="Stockbridge"/>
    <tag k="addr:housenumber" v="909"/>
    <tag k="addr:street" v="Ranney Road"/>
    <tag k="addr:state" v="VT"/>
    <tag k="ref:vcgi:esiteid" v="249205"/>
  </node>
  <node id="-488" visible="true" lat="43.75258637" lon="-72.71114349">
    <tag k="addr:city" v="Stockbridge"/>
    <tag k="addr:housenumber" v="1093"/>
    <tag k="addr:street" v="Stony Brook Road"/>
    <tag k="addr:state" v="VT"/>
    <tag k="ref:vcgi:esiteid" v="249206"/>
  </node>
  <node id="-489" visible="true" lat="43.75256214" lon="-72.71464373">
    <tag k="addr:city" v="Stockbridge"/>
    <tag k="addr:housenumber" v="938"/>
    <tag k="addr:street" v="Ranney Road"/>
    <tag k="addr:state" v="VT"/>
    <tag k="ref:vcgi:esiteid" v="249207"/>
  </node>
  <node id="-490" visible="true" lat="43.75231881" lon="-72.79012855">
    <tag k="addr:city" v="Stockbridge"/>
    <tag k="addr:housenumber" v="2238"/>
    <tag k="addr:street" v="South Hill Rd Stockbridge"/>
    <tag k="addr:state" v="VT"/>
    <tag k="ref:vcgi:esiteid" v="249208"/>
  </node>
  <node id="-491" visible="true" lat="43.75030877" lon="-72.72045205">
    <tag k="addr:city" v="Stockbridge"/>
    <tag k="addr:housenumber" v="1607"/>
    <tag k="addr:street" v="Stony Brook Road"/>
    <tag k="addr:state" v="VT"/>
    <tag k="ref:vcgi:esiteid" v="249209"/>
  </node>
  <node id="-492" visible="true" lat="43.75006269" lon="-72.79084458">
    <tag k="addr:city" v="Stockbridge"/>
    <tag k="addr:housenumber" v="2400"/>
    <tag k="addr:street" v="South Hill Rd Stockbridge"/>
    <tag k="addr:state" v="VT"/>
    <tag k="ref:vcgi:esiteid" v="249210"/>
  </node>
  <node id="-493" visible="true" lat="43.74880031" lon="-72.72148434">
    <tag k="addr:city" v="Stockbridge"/>
    <tag k="addr:housenumber" v="1735"/>
    <tag k="addr:street" v="Stony Brook Road"/>
    <tag k="addr:state" v="VT"/>
    <tag k="ref:vcgi:esiteid" v="249211"/>
  </node>
  <node id="-494" visible="true" lat="43.74730261" lon="-72.7212819">
    <tag k="addr:city" v="Stockbridge"/>
    <tag k="addr:housenumber" v="1863"/>
    <tag k="addr:street" v="Stony Brook Road"/>
    <tag k="addr:state" v="VT"/>
    <tag k="ref:vcgi:esiteid" v="249212"/>
  </node>
  <node id="-495" visible="true" lat="43.74666469" lon="-72.73713441">
    <tag k="addr:city" v="Stockbridge"/>
    <tag k="addr:housenumber" v="1406"/>
    <tag k="addr:street" v="Taggart Hill Road South"/>
    <tag k="addr:state" v="VT"/>
    <tag k="ref:vcgi:esiteid" v="249213"/>
  </node>
  <node id="-496" visible="true" lat="43.7461129" lon="-72.72269046">
    <tag k="addr:city" v="Stockbridge"/>
    <tag k="addr:housenumber" v="2034"/>
    <tag k="addr:street" v="Stony Brook Road"/>
    <tag k="addr:state" v="VT"/>
    <tag k="ref:vcgi:esiteid" v="249214"/>
  </node>
  <node id="-497" visible="true" lat="43.74601161" lon="-72.72121578">
    <tag k="addr:city" v="Stockbridge"/>
    <tag k="addr:housenumber" v="1949"/>
    <tag k="addr:street" v="Stony Brook Road"/>
    <tag k="addr:state" v="VT"/>
    <tag k="ref:vcgi:esiteid" v="249215"/>
  </node>
  <node id="-498" visible="true" lat="43.7458223" lon="-72.79039388">
    <tag k="addr:city" v="Stockbridge"/>
    <tag k="addr:housenumber" v="2694"/>
    <tag k="addr:street" v="South Hill Rd Stockbridge"/>
    <tag k="addr:state" v="VT"/>
    <tag k="ref:vcgi:esiteid" v="249216"/>
  </node>
  <node id="-499" visible="true" lat="43.74350055" lon="-72.79629176">
    <tag k="addr:city" v="Stockbridge"/>
    <tag k="addr:housenumber" v="905"/>
    <tag k="addr:street" v="South Hill Rd Ptfld"/>
    <tag k="addr:state" v="VT"/>
    <tag k="ref:vcgi:esiteid" v="249217"/>
  </node>
  <node id="-500" visible="true" lat="43.7442871" lon="-72.72198982">
    <tag k="addr:city" v="Stockbridge"/>
    <tag k="addr:housenumber" v="2074"/>
    <tag k="addr:street" v="Stony Brook Road"/>
    <tag k="addr:state" v="VT"/>
    <tag k="ref:vcgi:esiteid" v="249218"/>
  </node>
  <node id="-501" visible="true" lat="43.74329564" lon="-72.79474733">
    <tag k="addr:city" v="Stockbridge"/>
    <tag k="addr:housenumber" v="971"/>
    <tag k="addr:street" v="South Hill Rd Ptfld"/>
    <tag k="addr:state" v="VT"/>
    <tag k="ref:vcgi:esiteid" v="249219"/>
  </node>
  <node id="-502" visible="true" lat="43.74267429" lon="-72.79706576">
    <tag k="addr:city" v="Stockbridge"/>
    <tag k="addr:housenumber" v="857"/>
    <tag k="addr:street" v="South Hill Rd Ptfld"/>
    <tag k="addr:state" v="VT"/>
    <tag k="ref:vcgi:esiteid" v="249220"/>
  </node>
  <node id="-503" visible="true" lat="43.74246978" lon="-72.8015213">
    <tag k="addr:city" v="Stockbridge"/>
    <tag k="addr:housenumber" v="135"/>
    <tag k="addr:street" v="Old Log Road"/>
    <tag k="addr:state" v="VT"/>
    <tag k="ref:vcgi:esiteid" v="249221"/>
  </node>
  <node id="-504" visible="true" lat="43.74242012" lon="-72.79768302">
    <tag k="addr:city" v="Stockbridge"/>
    <tag k="addr:housenumber" v="819"/>
    <tag k="addr:street" v="South Hill Rd Ptfld"/>
    <tag k="addr:state" v="VT"/>
    <tag k="ref:vcgi:esiteid" v="249222"/>
  </node>
  <node id="-505" visible="true" lat="43.74178654" lon="-72.72499076">
    <tag k="addr:city" v="Stockbridge"/>
    <tag k="addr:housenumber" v="236"/>
    <tag k="addr:street" v="Stockle Drive"/>
    <tag k="addr:state" v="VT"/>
    <tag k="ref:vcgi:esiteid" v="249223"/>
  </node>
  <node id="-506" visible="true" lat="43.74153734" lon="-72.79872537">
    <tag k="addr:city" v="Stockbridge"/>
    <tag k="addr:housenumber" v="738"/>
    <tag k="addr:street" v="South Hill Rd Ptfld"/>
    <tag k="addr:state" v="VT"/>
    <tag k="ref:vcgi:esiteid" v="249224"/>
  </node>
  <node id="-507" visible="true" lat="43.74108505" lon="-72.79940033">
    <tag k="addr:city" v="Stockbridge"/>
    <tag k="addr:housenumber" v="714"/>
    <tag k="addr:street" v="South Hill Rd Ptfld"/>
    <tag k="addr:state" v="VT"/>
    <tag k="ref:vcgi:esiteid" v="249225"/>
  </node>
  <node id="-508" visible="true" lat="43.74095535" lon="-72.80019378">
    <tag k="addr:city" v="Stockbridge"/>
    <tag k="addr:housenumber" v="7"/>
    <tag k="addr:street" v="Old Log Road"/>
    <tag k="addr:state" v="VT"/>
    <tag k="ref:vcgi:esiteid" v="249226"/>
  </node>
  <node id="-509" visible="true" lat="43.74085998" lon="-72.72128296">
    <tag k="addr:city" v="Stockbridge"/>
    <tag k="addr:housenumber" v="2299"/>
    <tag k="addr:street" v="Stony Brook Road"/>
    <tag k="addr:state" v="VT"/>
    <tag k="ref:vcgi:esiteid" v="249227"/>
  </node>
  <node id="-510" visible="true" lat="43.74100463" lon="-72.7457922">
    <tag k="addr:city" v="Stockbridge"/>
    <tag k="addr:housenumber" v="729"/>
    <tag k="addr:street" v="Taggart Hill Road South"/>
    <tag k="addr:state" v="VT"/>
    <tag k="ref:vcgi:esiteid" v="249228"/>
  </node>
  <node id="-511" visible="true" lat="43.74046625" lon="-72.80015765">
    <tag k="addr:city" v="Stockbridge"/>
    <tag k="addr:housenumber" v="635"/>
    <tag k="addr:street" v="South Hill Rd Ptfld"/>
    <tag k="addr:state" v="VT"/>
    <tag k="ref:vcgi:esiteid" v="249229"/>
  </node>
  <node id="-512" visible="true" lat="43.74056613" lon="-72.72483222">
    <tag k="addr:city" v="Stockbridge"/>
    <tag k="addr:housenumber" v="174"/>
    <tag k="addr:street" v="Stockle Drive"/>
    <tag k="addr:state" v="VT"/>
    <tag k="ref:vcgi:esiteid" v="249230"/>
  </node>
  <node id="-513" visible="true" lat="43.74019955" lon="-72.79950359">
    <tag k="addr:city" v="Stockbridge"/>
    <tag k="addr:housenumber" v="622"/>
    <tag k="addr:street" v="South Hill Rd Ptfld"/>
    <tag k="addr:state" v="VT"/>
    <tag k="ref:vcgi:esiteid" v="249231"/>
  </node>
  <node id="-514" visible="true" lat="43.73994922" lon="-72.72554914">
    <tag k="addr:city" v="Stockbridge"/>
    <tag k="addr:housenumber" v="155"/>
    <tag k="addr:street" v="Stockle Drive"/>
    <tag k="addr:state" v="VT"/>
    <tag k="ref:vcgi:esiteid" v="249232"/>
  </node>
  <node id="-515" visible="true" lat="43.73999029" lon="-72.7449419">
    <tag k="addr:city" v="Stockbridge"/>
    <tag k="addr:housenumber" v="684"/>
    <tag k="addr:street" v="Taggart Hill Road South"/>
    <tag k="addr:state" v="VT"/>
    <tag k="ref:vcgi:esiteid" v="249233"/>
  </node>
  <node id="-516" visible="true" lat="43.73999997" lon="-72.72826245">
    <tag k="addr:city" v="Stockbridge"/>
    <tag k="addr:housenumber" v="212"/>
    <tag k="addr:street" v="Fletcher Brook Road"/>
    <tag k="addr:state" v="VT"/>
    <tag k="ref:vcgi:esiteid" v="249234"/>
  </node>
  <node id="-517" visible="true" lat="43.73939209" lon="-72.72526151">
    <tag k="addr:city" v="Stockbridge"/>
    <tag k="addr:housenumber" v="119"/>
    <tag k="addr:street" v="Stockle Drive"/>
    <tag k="addr:state" v="VT"/>
    <tag k="ref:vcgi:esiteid" v="249235"/>
  </node>
  <node id="-518" visible="true" lat="43.73917587" lon="-72.74540214">
    <tag k="addr:city" v="Stockbridge"/>
    <tag k="addr:housenumber" v="2264"/>
    <tag k="addr:street" v="Gilke Road"/>
    <tag k="addr:state" v="VT"/>
    <tag k="ref:vcgi:esiteid" v="249236"/>
  </node>
  <node id="-519" visible="true" lat="43.73913681" lon="-72.74672898">
    <tag k="addr:city" v="Stockbridge"/>
    <tag k="addr:housenumber" v="2243"/>
    <tag k="addr:street" v="Gilke Road"/>
    <tag k="addr:state" v="VT"/>
    <tag k="ref:vcgi:esiteid" v="249237"/>
  </node>
  <node id="-520" visible="true" lat="43.739123" lon="-72.72403611">
    <tag k="addr:city" v="Stockbridge"/>
    <tag k="addr:housenumber" v="62"/>
    <tag k="addr:street" v="Stockle Drive"/>
    <tag k="addr:state" v="VT"/>
    <tag k="ref:vcgi:esiteid" v="249238"/>
  </node>
  <node id="-521" visible="true" lat="43.73857227" lon="-72.80086763">
    <tag k="addr:city" v="Stockbridge"/>
    <tag k="addr:housenumber" v="515"/>
    <tag k="addr:street" v="South Hill Rd Ptfld"/>
    <tag k="addr:state" v="VT"/>
    <tag k="ref:vcgi:esiteid" v="249239"/>
  </node>
  <node id="-522" visible="true" lat="43.73872183" lon="-72.72355209">
    <tag k="addr:city" v="Stockbridge"/>
    <tag k="addr:housenumber" v="20"/>
    <tag k="addr:street" v="Stockle Drive"/>
    <tag k="addr:state" v="VT"/>
    <tag k="ref:vcgi:esiteid" v="249240"/>
  </node>
  <node id="-523" visible="true" lat="43.73892793" lon="-72.76327713">
    <tag k="addr:city" v="Stockbridge"/>
    <tag k="addr:housenumber" v="1741"/>
    <tag k="addr:street" v="Gilke Road"/>
    <tag k="addr:state" v="VT"/>
    <tag k="ref:vcgi:esiteid" v="249241"/>
  </node>
  <node id="-524" visible="true" lat="43.73826297" lon="-72.72520742">
    <tag k="addr:city" v="Stockbridge"/>
    <tag k="addr:housenumber" v="45"/>
    <tag k="addr:street" v="Stockle Drive"/>
    <tag k="addr:state" v="VT"/>
    <tag k="ref:vcgi:esiteid" v="249242"/>
  </node>
  <node id="-525" visible="true" lat="43.73793878" lon="-72.7260451">
    <tag k="addr:city" v="Stockbridge"/>
    <tag k="addr:housenumber" v="168"/>
    <tag k="addr:street" v="Fletcher Brook Road"/>
    <tag k="addr:state" v="VT"/>
    <tag k="ref:vcgi:esiteid" v="249243"/>
  </node>
  <node id="-526" visible="true" lat="43.73763598" lon="-72.7318698">
    <tag k="addr:city" v="Stockbridge"/>
    <tag k="addr:housenumber" v="231"/>
    <tag k="addr:street" v="Blanchard Road"/>
    <tag k="addr:state" v="VT"/>
    <tag k="ref:vcgi:esiteid" v="249244"/>
  </node>
  <node id="-527" visible="true" lat="43.73723622" lon="-72.73291416">
    <tag k="addr:city" v="Stockbridge"/>
    <tag k="addr:housenumber" v="183"/>
    <tag k="addr:street" v="Blanchard Road"/>
    <tag k="addr:state" v="VT"/>
    <tag k="ref:vcgi:esiteid" v="249245"/>
  </node>
  <node id="-528" visible="true" lat="43.7368979" lon="-72.73337343">
    <tag k="addr:city" v="Stockbridge"/>
    <tag k="addr:housenumber" v="168"/>
    <tag k="addr:street" v="Blanchard Road"/>
    <tag k="addr:state" v="VT"/>
    <tag k="ref:vcgi:esiteid" v="249247"/>
  </node>
  <node id="-529" visible="true" lat="43.7368959" lon="-72.72301257">
    <tag k="addr:city" v="Stockbridge"/>
    <tag k="addr:housenumber" v="2613"/>
    <tag k="addr:street" v="Stony Brook Road"/>
    <tag k="addr:state" v="VT"/>
    <tag k="ref:vcgi:esiteid" v="249248"/>
  </node>
  <node id="-530" visible="true" lat="43.73547257" lon="-72.73431425">
    <tag k="addr:city" v="Stockbridge"/>
    <tag k="addr:housenumber" v="56"/>
    <tag k="addr:street" v="Blanchard Road"/>
    <tag k="addr:state" v="VT"/>
    <tag k="ref:vcgi:esiteid" v="249249"/>
  </node>
  <node id="-531" visible="true" lat="43.7355059" lon="-72.72248565">
    <tag k="addr:city" v="Stockbridge"/>
    <tag k="addr:housenumber" v="2735"/>
    <tag k="addr:street" v="Stony Brook Road"/>
    <tag k="addr:state" v="VT"/>
    <tag k="ref:vcgi:esiteid" v="249250"/>
  </node>
  <node id="-532" visible="true" lat="43.73485184" lon="-72.78639221">
    <tag k="addr:city" v="Stockbridge"/>
    <tag k="addr:housenumber" v="5365"/>
    <tag k="addr:street" v="Fletcher Brook Road"/>
    <tag k="addr:state" v="VT"/>
    <tag k="ref:vcgi:esiteid" v="249251"/>
  </node>
  <node id="-533" visible="true" lat="43.73504416" lon="-72.72306367">
    <tag k="addr:city" v="Stockbridge"/>
    <tag k="addr:housenumber" v="2730"/>
    <tag k="addr:street" v="Stony Brook Road"/>
    <tag k="addr:state" v="VT"/>
    <tag k="ref:vcgi:esiteid" v="249252"/>
  </node>
  <node id="-534" visible="true" lat="43.73446965" lon="-72.73945472">
    <tag k="addr:city" v="Stockbridge"/>
    <tag k="addr:housenumber" v="78"/>
    <tag k="addr:street" v="Labadie Road"/>
    <tag k="addr:state" v="VT"/>
    <tag k="ref:vcgi:esiteid" v="249253"/>
  </node>
  <node id="-535" visible="true" lat="43.73337267" lon="-72.73894735">
    <tag k="addr:city" v="Stockbridge"/>
    <tag k="addr:housenumber" v="180"/>
    <tag k="addr:street" v="Labadie Road"/>
    <tag k="addr:state" v="VT"/>
    <tag k="ref:vcgi:esiteid" v="249254"/>
  </node>
  <node id="-536" visible="true" lat="43.73240742" lon="-72.69815007">
    <tag k="addr:city" v="Stockbridge"/>
    <tag k="addr:housenumber" v="1530"/>
    <tag k="addr:street" v="Davis Hill Road"/>
    <tag k="addr:state" v="VT"/>
    <tag k="ref:vcgi:esiteid" v="249255"/>
  </node>
  <node id="-537" visible="true" lat="43.73073371" lon="-72.70101507">
    <tag k="addr:city" v="Stockbridge"/>
    <tag k="addr:housenumber" v="1254"/>
    <tag k="addr:street" v="Davis Hill Road"/>
    <tag k="addr:state" v="VT"/>
    <tag k="ref:vcgi:esiteid" v="249256"/>
  </node>
  <node id="-538" visible="true" lat="43.72963188" lon="-72.7190704">
    <tag k="addr:city" v="Stockbridge"/>
    <tag k="addr:housenumber" v="197"/>
    <tag k="addr:street" v="Ryer Road"/>
    <tag k="addr:state" v="VT"/>
    <tag k="ref:vcgi:esiteid" v="249257"/>
  </node>
  <node id="-539" visible="true" lat="43.72608678" lon="-72.70129703">
    <tag k="addr:city" v="Stockbridge"/>
    <tag k="addr:housenumber" v="87"/>
    <tag k="addr:street" v="Bishop Road"/>
    <tag k="addr:state" v="VT"/>
    <tag k="ref:vcgi:esiteid" v="249258"/>
  </node>
  <node id="-540" visible="true" lat="43.72714301" lon="-72.74050513">
    <tag k="addr:city" v="Stockbridge"/>
    <tag k="addr:housenumber" v="135"/>
    <tag k="addr:street" v="Spiegel Road"/>
    <tag k="addr:state" v="VT"/>
    <tag k="ref:vcgi:esiteid" v="249259"/>
  </node>
  <node id="-541" visible="true" lat="43.72640147" lon="-72.72247779">
    <tag k="addr:city" v="Stockbridge"/>
    <tag k="addr:housenumber" v="3440"/>
    <tag k="addr:street" v="Stony Brook Road"/>
    <tag k="addr:state" v="VT"/>
    <tag k="ref:vcgi:esiteid" v="249260"/>
  </node>
  <node id="-542" visible="true" lat="43.72599467" lon="-72.72037171">
    <tag k="addr:city" v="Stockbridge"/>
    <tag k="addr:housenumber" v="98"/>
    <tag k="addr:street" v="Davis Hill Road"/>
    <tag k="addr:state" v="VT"/>
    <tag k="ref:vcgi:esiteid" v="249261"/>
  </node>
  <node id="-543" visible="true" lat="43.72532418" lon="-72.72280099">
    <tag k="addr:city" v="Stockbridge"/>
    <tag k="addr:housenumber" v="3494"/>
    <tag k="addr:street" v="Stony Brook Road"/>
    <tag k="addr:state" v="VT"/>
    <tag k="ref:vcgi:esiteid" v="249262"/>
  </node>
  <node id="-544" visible="true" lat="43.72525759" lon="-72.7223278">
    <tag k="addr:city" v="Stockbridge"/>
    <tag k="addr:housenumber" v="3481"/>
    <tag k="addr:street" v="Stony Brook Road"/>
    <tag k="addr:state" v="VT"/>
    <tag k="ref:vcgi:esiteid" v="249263"/>
  </node>
  <node id="-545" visible="true" lat="43.7250704" lon="-72.75242762">
    <tag k="addr:city" v="Stockbridge"/>
    <tag k="addr:housenumber" v="2300"/>
    <tag k="addr:street" v="Fletcher Brook Road"/>
    <tag k="addr:state" v="VT"/>
    <tag k="ref:vcgi:esiteid" v="249264"/>
  </node>
  <node id="-546" visible="true" lat="43.72464917" lon="-72.71430301">
    <tag k="addr:city" v="Stockbridge"/>
    <tag k="addr:housenumber" v="374"/>
    <tag k="addr:street" v="Davis Hill Road"/>
    <tag k="addr:state" v="VT"/>
    <tag k="ref:vcgi:esiteid" v="249265"/>
  </node>
  <node id="-547" visible="true" lat="43.72462462" lon="-72.72243172">
    <tag k="addr:city" v="Stockbridge"/>
    <tag k="addr:housenumber" v="3522"/>
    <tag k="addr:street" v="Stony Brook Road"/>
    <tag k="addr:state" v="VT"/>
    <tag k="ref:vcgi:esiteid" v="249266"/>
  </node>
  <node id="-548" visible="true" lat="43.72450892" lon="-72.71800752">
    <tag k="addr:city" v="Stockbridge"/>
    <tag k="addr:housenumber" v="3653"/>
    <tag k="addr:street" v="Stony Brook Road"/>
    <tag k="addr:state" v="VT"/>
    <tag k="ref:vcgi:esiteid" v="249267"/>
  </node>
  <node id="-549" visible="true" lat="43.72375765" lon="-72.7188485">
    <tag k="addr:city" v="Stockbridge"/>
    <tag k="addr:housenumber" v="3657"/>
    <tag k="addr:street" v="Stony Brook Road"/>
    <tag k="addr:state" v="VT"/>
    <tag k="ref:vcgi:esiteid" v="249268"/>
  </node>
  <node id="-550" visible="true" lat="43.72361918" lon="-72.70621459">
    <tag k="addr:city" v="Stockbridge"/>
    <tag k="addr:housenumber" v="776"/>
    <tag k="addr:street" v="Davis Hill Road"/>
    <tag k="addr:state" v="VT"/>
    <tag k="ref:vcgi:esiteid" v="249269"/>
  </node>
  <node id="-551" visible="true" lat="43.72366513" lon="-72.72336061">
    <tag k="addr:city" v="Stockbridge"/>
    <tag k="addr:housenumber" v="127"/>
    <tag k="addr:street" v="Driscoll Road"/>
    <tag k="addr:state" v="VT"/>
    <tag k="ref:vcgi:esiteid" v="249270"/>
  </node>
  <node id="-552" visible="true" lat="43.71969483" lon="-72.72041938">
    <tag k="addr:city" v="Stockbridge"/>
    <tag k="addr:housenumber" v="4001"/>
    <tag k="addr:street" v="Stony Brook Road"/>
    <tag k="addr:state" v="VT"/>
    <tag k="ref:vcgi:esiteid" v="249271"/>
  </node>
  <node id="-553" visible="true" lat="43.71751057" lon="-72.71837959">
    <tag k="addr:city" v="Stockbridge"/>
    <tag k="addr:housenumber" v="4189"/>
    <tag k="addr:street" v="Stony Brook Road"/>
    <tag k="addr:state" v="VT"/>
    <tag k="ref:vcgi:esiteid" v="249272"/>
  </node>
  <node id="-554" visible="true" lat="43.71622037" lon="-72.76765382">
    <tag k="addr:city" v="Stockbridge"/>
    <tag k="addr:housenumber" v="3559"/>
    <tag k="addr:street" v="Fletcher Brook Road"/>
    <tag k="addr:state" v="VT"/>
    <tag k="ref:vcgi:esiteid" v="249273"/>
  </node>
  <node id="-555" visible="true" lat="43.71540566" lon="-72.7296612">
    <tag k="addr:city" v="Stockbridge"/>
    <tag k="addr:housenumber" v="1177"/>
    <tag k="addr:street" v="Driscoll Road"/>
    <tag k="addr:state" v="VT"/>
    <tag k="ref:vcgi:esiteid" v="249274"/>
  </node>
  <node id="-556" visible="true" lat="43.71476037" lon="-72.72072116">
    <tag k="addr:city" v="Stockbridge"/>
    <tag k="addr:housenumber" v="4405"/>
    <tag k="addr:street" v="Stony Brook Road"/>
    <tag k="addr:state" v="VT"/>
    <tag k="ref:vcgi:esiteid" v="249275"/>
  </node>
  <node id="-557" visible="true" lat="43.71454561" lon="-72.76571789">
    <tag k="addr:city" v="Stockbridge"/>
    <tag k="addr:housenumber" v="3374"/>
    <tag k="addr:street" v="Fletcher Brook Road"/>
    <tag k="addr:state" v="VT"/>
    <tag k="ref:vcgi:esiteid" v="249276"/>
  </node>
  <node id="-558" visible="true" lat="43.71370064" lon="-72.76739221">
    <tag k="addr:city" v="Stockbridge"/>
    <tag k="addr:housenumber" v="3385"/>
    <tag k="addr:street" v="Fletcher Brook Road"/>
    <tag k="addr:state" v="VT"/>
    <tag k="ref:vcgi:esiteid" v="249277"/>
  </node>
  <node id="-559" visible="true" lat="43.71332547" lon="-72.72355857">
    <tag k="addr:city" v="Stockbridge"/>
    <tag k="addr:housenumber" v="4624"/>
    <tag k="addr:street" v="Stony Brook Road"/>
    <tag k="addr:state" v="VT"/>
    <tag k="ref:vcgi:esiteid" v="249278"/>
  </node>
  <node id="-560" visible="true" lat="43.71204007" lon="-72.77339745">
    <tag k="addr:city" v="Stockbridge"/>
    <tag k="addr:housenumber" v="5749"/>
    <tag k="addr:street" v="No Town Road"/>
    <tag k="addr:state" v="VT"/>
    <tag k="ref:vcgi:esiteid" v="249279"/>
  </node>
  <node id="-561" visible="true" lat="43.70561663" lon="-72.72002989">
    <tag k="addr:city" v="Stockbridge"/>
    <tag k="addr:housenumber" v="5095"/>
    <tag k="addr:street" v="Stony Brook Road"/>
    <tag k="addr:state" v="VT"/>
    <tag k="ref:vcgi:esiteid" v="249280"/>
  </node>
  <node id="-562" visible="true" lat="43.70093843" lon="-72.71892209">
    <tag k="addr:city" v="Stockbridge"/>
    <tag k="addr:housenumber" v="5450"/>
    <tag k="addr:street" v="Stony Brook Road"/>
    <tag k="addr:state" v="VT"/>
    <tag k="ref:vcgi:esiteid" v="249281"/>
  </node>
  <node id="-563" visible="true" lat="43.69836973" lon="-72.71928218">
    <tag k="addr:city" v="Stockbridge"/>
    <tag k="addr:housenumber" v="5630"/>
    <tag k="addr:street" v="Stony Brook Road"/>
    <tag k="addr:state" v="VT"/>
    <tag k="ref:vcgi:esiteid" v="249282"/>
  </node>
  <node id="-564" visible="true" lat="43.79469641" lon="-72.6685665">
    <tag k="addr:city" v="Stockbridge"/>
    <tag k="addr:housenumber" v="2147"/>
    <tag k="addr:street" v="River Road"/>
    <tag k="addr:state" v="VT"/>
    <tag k="ref:vcgi:esiteid" v="249283"/>
  </node>
  <node id="-566" visible="true" lat="43.76865046" lon="-72.70636987">
    <tag k="addr:city" v="Stockbridge"/>
    <tag k="addr:housenumber" v="3494"/>
    <tag k="addr:street" v="Vermont Route 107"/>
    <tag k="addr:state" v="VT"/>
    <tag k="ref:vcgi:esiteid" v="249285"/>
  </node>
  <node id="-567" visible="true" lat="43.77180091" lon="-72.70483461">
    <tag k="addr:city" v="Stockbridge"/>
    <tag k="addr:housenumber" v="3771"/>
    <tag k="addr:street" v="Vermont Route 107"/>
    <tag k="addr:state" v="VT"/>
    <tag k="ref:vcgi:esiteid" v="249286"/>
  </node>
  <node id="-568" visible="true" lat="43.74105785" lon="-72.74010221">
    <tag k="addr:city" v="Stockbridge"/>
    <tag k="addr:housenumber" v="912"/>
    <tag k="addr:street" v="Taggart Hill Road South"/>
    <tag k="addr:state" v="VT"/>
    <tag k="ref:vcgi:esiteid" v="249287"/>
  </node>
  <node id="-569" visible="true" lat="43.80885135" lon="-72.72893585">
    <tag k="addr:city" v="Stockbridge"/>
    <tag k="addr:housenumber" v="2111"/>
    <tag k="addr:street" v="Music Mountain Road"/>
    <tag k="addr:state" v="VT"/>
    <tag k="ref:vcgi:esiteid" v="249288"/>
  </node>
  <node id="-570" visible="true" lat="43.74305812" lon="-72.80025079">
    <tag k="addr:city" v="Stockbridge"/>
    <tag k="addr:housenumber" v="67"/>
    <tag k="addr:street" v="Old Log Road Extension"/>
    <tag k="addr:state" v="VT"/>
    <tag k="ref:vcgi:esiteid" v="249289"/>
  </node>
  <node id="-571" visible="true" lat="43.75159569" lon="-72.72460113">
    <tag k="addr:city" v="Stockbridge"/>
    <tag k="addr:housenumber" v="253"/>
    <tag k="addr:street" v="Taggart Hill Road North"/>
    <tag k="addr:state" v="VT"/>
    <tag k="ref:vcgi:esiteid" v="249290"/>
  </node>
  <node id="-572" visible="true" lat="43.79757398" lon="-72.7506238">
    <tag k="addr:city" v="Stockbridge"/>
    <tag k="addr:housenumber" v="332"/>
    <tag k="addr:street" v="Music Mountain Road"/>
    <tag k="addr:state" v="VT"/>
    <tag k="ref:vcgi:esiteid" v="249291"/>
  </node>
  <node id="-573" visible="true" lat="43.79869053" lon="-72.75063345">
    <tag k="addr:city" v="Stockbridge"/>
    <tag k="addr:housenumber" v="343"/>
    <tag k="addr:street" v="Music Mountain Road"/>
    <tag k="addr:state" v="VT"/>
    <tag k="ref:vcgi:esiteid" v="249292"/>
  </node>
  <node id="-574" visible="true" lat="43.72502623" lon="-72.70601066">
    <tag k="addr:city" v="Stockbridge"/>
    <tag k="addr:housenumber" v="784"/>
    <tag k="addr:street" v="Davis Hill Road"/>
    <tag k="addr:state" v="VT"/>
    <tag k="ref:vcgi:esiteid" v="249293"/>
  </node>
  <node id="-575" visible="true" lat="43.80271323" lon="-72.69093186">
    <tag k="addr:city" v="Stockbridge"/>
    <tag k="addr:housenumber" v="280"/>
    <tag k="addr:street" v="Chedel Road"/>
    <tag k="addr:state" v="VT"/>
    <tag k="ref:vcgi:esiteid" v="249294"/>
  </node>
  <node id="-579" visible="true" lat="43.75543614" lon="-72.80378209">
    <tag k="addr:city" v="Stockbridge"/>
    <tag k="addr:housenumber" v="432"/>
    <tag k="addr:street" v="Tweed River Drive"/>
    <tag k="addr:state" v="VT"/>
    <tag k="ref:vcgi:esiteid" v="249298"/>
  </node>
  <node id="-581" visible="true" lat="43.7909062" lon="-72.67469838">
    <tag k="addr:city" v="Stockbridge"/>
    <tag k="addr:housenumber" v="218"/>
    <tag k="addr:street" v="Arnold Mountain Road"/>
    <tag k="addr:state" v="VT"/>
    <tag k="ref:vcgi:esiteid" v="249302"/>
  </node>
  <node id="-583" visible="true" lat="43.81104516" lon="-72.72899904">
    <tag k="addr:city" v="Stockbridge"/>
    <tag k="addr:housenumber" v="365"/>
    <tag k="addr:street" v="Billings Hill"/>
    <tag k="addr:state" v="VT"/>
    <tag k="ref:vcgi:esiteid" v="249304"/>
  </node>
  <node id="-584" visible="true" lat="43.81162688" lon="-72.72967151">
    <tag k="addr:city" v="Stockbridge"/>
    <tag k="addr:housenumber" v="449"/>
    <tag k="addr:street" v="Billings Hill"/>
    <tag k="addr:state" v="VT"/>
    <tag k="ref:vcgi:esiteid" v="249305"/>
  </node>
  <node id="-585" visible="true" lat="43.71489274" lon="-72.80721281">
    <tag k="addr:city" v="Stockbridge"/>
    <tag k="addr:housenumber" v="1400"/>
    <tag k="addr:street" v="Doubleday Hill Road"/>
    <tag k="addr:state" v="VT"/>
    <tag k="ref:vcgi:esiteid" v="249306"/>
  </node>
  <node id="-586" visible="true" lat="43.79198856" lon="-72.69987417">
    <tag k="addr:city" v="Stockbridge"/>
    <tag k="addr:housenumber" v="251"/>
    <tag k="addr:street" v="Vulture Mountain Road"/>
    <tag k="addr:state" v="VT"/>
    <tag k="ref:vcgi:esiteid" v="249308"/>
  </node>
  <node id="-587" visible="true" lat="43.73155629" lon="-72.71933829">
    <tag k="addr:city" v="Stockbridge"/>
    <tag k="addr:housenumber" v="2943"/>
    <tag k="addr:street" v="Stony Brook Road"/>
    <tag k="addr:state" v="VT"/>
    <tag k="ref:vcgi:esiteid" v="249309"/>
  </node>
  <node id="-588" visible="true" lat="43.79799493" lon="-72.75328999">
    <tag k="addr:city" v="Stockbridge"/>
    <tag k="addr:housenumber" v="333"/>
    <tag k="addr:street" v="Music Mountain Road"/>
    <tag k="addr:state" v="VT"/>
    <tag k="ref:vcgi:esiteid" v="249310"/>
  </node>
  <node id="-590" visible="true" lat="43.78067473" lon="-72.7042488">
    <tag k="addr:city" v="Stockbridge"/>
    <tag k="addr:housenumber" v="46"/>
    <tag k="addr:street" v="Morrow Knoll"/>
    <tag k="addr:state" v="VT"/>
    <tag k="ref:vcgi:esiteid" v="249312"/>
  </node>
  <node id="-593" visible="true" lat="43.79535461" lon="-72.66808677">
    <tag k="addr:city" v="Stockbridge"/>
    <tag k="addr:housenumber" v="2223"/>
    <tag k="addr:street" v="River Road"/>
    <tag k="addr:state" v="VT"/>
    <tag k="ref:vcgi:esiteid" v="249316"/>
  </node>
  <node id="-594" visible="true" lat="43.7648468" lon="-72.73354053">
    <tag k="addr:city" v="Stockbridge"/>
    <tag k="addr:housenumber" v="200"/>
    <tag k="addr:street" v="Larmie Hill Road"/>
    <tag k="addr:state" v="VT"/>
    <tag k="ref:vcgi:esiteid" v="249317"/>
  </node>
  <node id="-595" visible="true" lat="43.76439829" lon="-72.7286576">
    <tag k="addr:city" v="Stockbridge"/>
    <tag k="addr:housenumber" v="682"/>
    <tag k="addr:street" v="Blackmer Boulevard"/>
    <tag k="addr:state" v="VT"/>
    <tag k="ref:vcgi:esiteid" v="249319"/>
  </node>
  <node id="-596" visible="true" lat="43.74321671" lon="-72.74097564">
    <tag k="addr:city" v="Stockbridge"/>
    <tag k="addr:housenumber" v="926"/>
    <tag k="addr:street" v="Taggart Hill Road South"/>
    <tag k="addr:state" v="VT"/>
    <tag k="ref:vcgi:esiteid" v="249320"/>
  </node>
  <node id="-597" visible="true" lat="43.75396424" lon="-72.80434839">
    <tag k="addr:city" v="Stockbridge"/>
    <tag k="addr:housenumber" v="20"/>
    <tag k="addr:street" v="Madison Brook Lane"/>
    <tag k="addr:state" v="VT"/>
    <tag k="ref:vcgi:esiteid" v="249321"/>
  </node>
  <node id="-600" visible="true" lat="43.79215022" lon="-72.6717263">
    <tag k="addr:city" v="Stockbridge"/>
    <tag k="addr:housenumber" v="69"/>
    <tag k="addr:street" v="Arnold Mountain Road"/>
    <tag k="addr:state" v="VT"/>
    <tag k="ref:vcgi:esiteid" v="249324"/>
  </node>
  <node id="-602" visible="true" lat="43.77312398" lon="-72.77168692">
    <tag k="addr:city" v="Stockbridge"/>
    <tag k="addr:housenumber" v="469"/>
    <tag k="addr:street" v="South Hill Rd Stockbridge"/>
    <tag k="addr:state" v="VT"/>
    <tag k="ref:vcgi:esiteid" v="249326"/>
  </node>
  <node id="-603" visible="true" lat="43.77205363" lon="-72.77118469">
    <tag k="addr:city" v="Stockbridge"/>
    <tag k="addr:housenumber" v="537"/>
    <tag k="addr:street" v="South Hill Rd Stockbridge"/>
    <tag k="addr:state" v="VT"/>
    <tag k="ref:vcgi:esiteid" v="249327"/>
  </node>
  <node id="-604" visible="true" lat="43.77518423" lon="-72.76552082">
    <tag k="addr:city" v="Stockbridge"/>
    <tag k="addr:housenumber" v="1722"/>
    <tag k="addr:street" v="Vermont Route 100"/>
    <tag k="addr:state" v="VT"/>
    <tag k="ref:vcgi:esiteid" v="249328"/>
  </node>
  <node id="-608" visible="true" lat="43.75277398" lon="-72.80305551">
    <tag k="addr:city" v="Stockbridge"/>
    <tag k="addr:housenumber" v="134"/>
    <tag k="addr:street" v="Madison Brook Lane"/>
    <tag k="addr:state" v="VT"/>
    <tag k="ref:vcgi:esiteid" v="249332"/>
  </node>
  <node id="-609" visible="true" lat="43.73616245" lon="-72.73060822">
    <tag k="addr:city" v="Stockbridge"/>
    <tag k="addr:housenumber" v="384"/>
    <tag k="addr:street" v="Blanchard Road"/>
    <tag k="addr:state" v="VT"/>
    <tag k="ref:vcgi:esiteid" v="249333"/>
  </node>
  <node id="-610" visible="true" lat="43.75412377" lon="-72.78642582">
    <tag k="addr:city" v="Stockbridge"/>
    <tag k="addr:housenumber" v="2077"/>
    <tag k="addr:street" v="South Hill Rd Stockbridge"/>
    <tag k="addr:state" v="VT"/>
    <tag k="ref:vcgi:esiteid" v="249334"/>
  </node>
  <node id="-611" visible="true" lat="43.7153783" lon="-72.71992956">
    <tag k="addr:city" v="Stockbridge"/>
    <tag k="addr:housenumber" v="4355"/>
    <tag k="addr:street" v="Stony Brook Road"/>
    <tag k="addr:state" v="VT"/>
    <tag k="ref:vcgi:esiteid" v="249336"/>
  </node>
  <node id="-612" visible="true" lat="43.7721136" lon="-72.7722833">
    <tag k="addr:city" v="Stockbridge"/>
    <tag k="addr:housenumber" v="505"/>
    <tag k="addr:street" v="South Hill Rd Stockbridge"/>
    <tag k="addr:state" v="VT"/>
    <tag k="ref:vcgi:esiteid" v="249337"/>
  </node>
  <node id="-615" visible="true" lat="43.73021071" lon="-72.72320698">
    <tag k="addr:city" v="Stockbridge"/>
    <tag k="addr:housenumber" v="3222"/>
    <tag k="addr:street" v="Stony Brook Road"/>
    <tag k="addr:state" v="VT"/>
    <tag k="ref:vcgi:esiteid" v="249340"/>
  </node>
  <node id="-616" visible="true" lat="43.7551649" lon="-72.7190259">
    <tag k="addr:city" v="Stockbridge"/>
    <tag k="addr:housenumber" v="464"/>
    <tag k="addr:street" v="Ranney Road"/>
    <tag k="addr:state" v="VT"/>
    <tag k="ref:vcgi:esiteid" v="249341"/>
  </node>
  <node id="-619" visible="true" lat="43.75777998" lon="-72.70794426">
    <tag k="addr:city" v="Stockbridge"/>
    <tag k="addr:housenumber" v="620"/>
    <tag k="addr:street" v="Stony Brook Road"/>
    <tag k="addr:state" v="VT"/>
    <tag k="ref:vcgi:esiteid" v="249344"/>
  </node>
  <node id="-620" visible="true" lat="43.74387502" lon="-72.8000001">
    <tag k="addr:city" v="Stockbridge"/>
    <tag k="addr:housenumber" v="149"/>
    <tag k="addr:street" v="Old Log Road Extension"/>
    <tag k="addr:state" v="VT"/>
    <tag k="ref:vcgi:esiteid" v="249345"/>
  </node>
  <node id="-621" visible="true" lat="43.76768095" lon="-72.70912213">
    <tag k="addr:city" v="Stockbridge"/>
    <tag k="addr:housenumber" v="3459"/>
    <tag k="addr:street" v="Vermont Route 107"/>
    <tag k="addr:state" v="VT"/>
    <tag k="ref:vcgi:esiteid" v="249346"/>
  </node>
  <node id="-622" visible="true" lat="43.78181039" lon="-72.70358086">
    <tag k="addr:city" v="Stockbridge"/>
    <tag k="addr:housenumber" v="128"/>
    <tag k="addr:street" v="Morrow Knoll"/>
    <tag k="addr:state" v="VT"/>
    <tag k="ref:vcgi:esiteid" v="305504"/>
  </node>
  <node id="-623" visible="true" lat="43.7779415" lon="-72.77782904">
    <tag k="addr:city" v="Stockbridge"/>
    <tag k="addr:housenumber" v="1071"/>
    <tag k="addr:street" v="Vermont Route 100"/>
    <tag k="addr:state" v="VT"/>
    <tag k="ref:vcgi:esiteid" v="306047"/>
  </node>
  <node id="-624" visible="true" lat="43.76577004" lon="-72.72202965">
    <tag k="addr:city" v="Stockbridge"/>
    <tag k="addr:housenumber" v="270"/>
    <tag k="addr:street" v="Blackmer Boulevard"/>
    <tag k="addr:state" v="VT"/>
    <tag k="ref:vcgi:esiteid" v="306447"/>
  </node>
  <node id="-626" visible="true" lat="43.74481617" lon="-72.7199796">
    <tag k="addr:city" v="Stockbridge"/>
    <tag k="addr:housenumber" v="1955"/>
    <tag k="addr:street" v="Stony Brook Road"/>
    <tag k="addr:state" v="VT"/>
    <tag k="ref:vcgi:esiteid" v="307534"/>
  </node>
  <node id="-627" visible="true" lat="43.79202667" lon="-72.668356">
    <tag k="addr:city" v="Stockbridge"/>
    <tag k="addr:housenumber" v="6416"/>
    <tag k="addr:street" v="Vermont Route 107"/>
    <tag k="addr:state" v="VT"/>
    <tag k="ref:vcgi:esiteid" v="307535"/>
  </node>
  <node id="-629" visible="true" lat="43.77860937" lon="-72.79314865">
    <tag k="addr:city" v="Stockbridge"/>
    <tag k="addr:housenumber" v="275"/>
    <tag k="addr:street" v="Vermont Route 100"/>
    <tag k="addr:state" v="VT"/>
    <tag k="ref:vcgi:esiteid" v="312296"/>
  </node>
  <node id="-630" visible="true" lat="43.77230599" lon="-72.70418792">
    <tag k="addr:city" v="Stockbridge"/>
    <tag k="addr:housenumber" v="3773"/>
    <tag k="addr:street" v="Vermont Route 107"/>
    <tag k="addr:state" v="VT"/>
    <tag k="ref:vcgi:esiteid" v="313310"/>
  </node>
  <node id="-631" visible="true" lat="43.7423009" lon="-72.79940544">
    <tag k="addr:city" v="Stockbridge"/>
    <tag k="addr:housenumber" v="737"/>
    <tag k="addr:street" v="South Hill Rd Ptfld"/>
    <tag k="addr:state" v="VT"/>
    <tag k="ref:vcgi:esiteid" v="313883"/>
  </node>
  <node id="-633" visible="true" lat="43.75981026" lon="-72.79550961">
    <tag k="addr:city" v="Stockbridge"/>
    <tag k="addr:housenumber" v="2076"/>
    <tag k="addr:street" v="South Hill Rd Stockbridge"/>
    <tag k="addr:state" v="VT"/>
    <tag k="ref:vcgi:esiteid" v="315898"/>
  </node>
  <node id="-635" visible="true" lat="43.77841222" lon="-72.6999447">
    <tag k="addr:city" v="Stockbridge"/>
    <tag k="addr:housenumber" v="40"/>
    <tag k="addr:street" v="Bridge Street"/>
    <tag k="addr:state" v="VT"/>
    <tag k="ref:vcgi:esiteid" v="324350"/>
  </node>
  <node id="-637" visible="true" lat="43.76759827" lon="-72.70925165">
    <tag k="addr:city" v="Stockbridge"/>
    <tag k="addr:housenumber" v="3399"/>
    <tag k="addr:street" v="Vermont Route 107"/>
    <tag k="addr:state" v="VT"/>
    <tag k="ref:vcgi:esiteid" v="328165"/>
  </node>
  <node id="-638" visible="true" lat="43.79274561" lon="-72.67262944">
    <tag k="addr:city" v="Stockbridge"/>
    <tag k="addr:housenumber" v="6136"/>
    <tag k="addr:street" v="Vermont Route 107"/>
    <tag k="addr:state" v="VT"/>
    <tag k="ref:vcgi:esiteid" v="328166"/>
  </node>
  <node id="-639" visible="true" lat="43.77719367" lon="-72.71671822">
    <tag k="addr:city" v="Stockbridge"/>
    <tag k="addr:housenumber" v="1100"/>
    <tag k="addr:street" v="Laury Road"/>
    <tag k="addr:state" v="VT"/>
    <tag k="ref:vcgi:esiteid" v="328782"/>
  </node>
  <node id="-640" visible="true" lat="43.76820824" lon="-72.70125061">
    <tag k="addr:city" v="Stockbridge"/>
    <tag k="addr:housenumber" v="3768"/>
    <tag k="addr:street" v="Vermont Route 107"/>
    <tag k="addr:state" v="VT"/>
    <tag k="ref:vcgi:esiteid" v="329867"/>
  </node>
  <node id="-641" visible="true" lat="43.78281959" lon="-72.70722331">
    <tag k="addr:city" v="Stockbridge"/>
    <tag k="addr:housenumber" v="169"/>
    <tag k="addr:street" v="Kelly Road Extension"/>
    <tag k="addr:state" v="VT"/>
    <tag k="ref:vcgi:esiteid" v="331931"/>
  </node>
  <node id="-644" visible="true" lat="43.77638239" lon="-72.71381103">
    <tag k="addr:city" v="Stockbridge"/>
    <tag k="addr:housenumber" v="695"/>
    <tag k="addr:street" v="Laury Road"/>
    <tag k="addr:state" v="VT"/>
    <tag k="ref:vcgi:esiteid" v="332668"/>
  </node>
  <node id="-645" visible="true" lat="43.74268679" lon="-72.75949548">
    <tag k="addr:city" v="Stockbridge"/>
    <tag k="addr:housenumber" v="1911"/>
    <tag k="addr:street" v="Gilke Road"/>
    <tag k="addr:state" v="VT"/>
    <tag k="ref:vcgi:esiteid" v="335601"/>
  </node>
  <node id="-648" visible="true" lat="43.81187041" lon="-72.77566242">
    <tag k="addr:city" v="Stockbridge"/>
    <tag k="addr:housenumber" v="537"/>
    <tag k="addr:street" v="Thompson Road"/>
    <tag k="addr:state" v="VT"/>
    <tag k="ref:vcgi:esiteid" v="336251"/>
  </node>
  <node id="-649" visible="true" lat="43.81281675" lon="-72.77304165">
    <tag k="addr:city" v="Stockbridge"/>
    <tag k="addr:housenumber" v="397"/>
    <tag k="addr:street" v="Thompson Road"/>
    <tag k="addr:state" v="VT"/>
    <tag k="ref:vcgi:esiteid" v="336252"/>
  </node>
  <node id="-650" visible="true" lat="43.81458003" lon="-72.77085037">
    <tag k="addr:city" v="Stockbridge"/>
    <tag k="addr:housenumber" v="243"/>
    <tag k="addr:street" v="Thompson Road"/>
    <tag k="addr:state" v="VT"/>
    <tag k="ref:vcgi:esiteid" v="336253"/>
  </node>
  <node id="-651" visible="true" lat="43.81612237" lon="-72.76936549">
    <tag k="addr:city" v="Stockbridge"/>
    <tag k="addr:housenumber" v="24"/>
    <tag k="addr:street" v="Thompson Road"/>
    <tag k="addr:state" v="VT"/>
    <tag k="ref:vcgi:esiteid" v="336254"/>
  </node>
  <node id="-653" visible="true" lat="43.78155747" lon="-72.71042686">
    <tag k="addr:city" v="Stockbridge"/>
    <tag k="addr:housenumber" v="420"/>
    <tag k="addr:street" v="Kelly Road"/>
    <tag k="addr:state" v="VT"/>
    <tag k="ref:vcgi:esiteid" v="337756"/>
  </node>
  <node id="-654" visible="true" lat="43.75146421" lon="-72.7287055">
    <tag k="addr:city" v="Stockbridge"/>
    <tag k="addr:housenumber" v="549"/>
    <tag k="addr:street" v="Taggart Hill Road North"/>
    <tag k="addr:state" v="VT"/>
    <tag k="ref:vcgi:esiteid" v="338197"/>
  </node>
  <node id="-655" visible="true" lat="43.81480848" lon="-72.76932239">
    <tag k="addr:city" v="Stockbridge"/>
    <tag k="addr:housenumber" v="101"/>
    <tag k="addr:street" v="Thompson Road"/>
    <tag k="addr:state" v="VT"/>
    <tag k="ref:vcgi:esiteid" v="338198"/>
  </node>
  <node id="-656" visible="true" lat="43.75759575" lon="-72.70623665">
    <tag k="addr:city" v="Stockbridge"/>
    <tag k="addr:housenumber" v="585"/>
    <tag k="addr:street" v="Stony Brook Road"/>
    <tag k="addr:state" v="VT"/>
    <tag k="ref:vcgi:esiteid" v="339622"/>
  </node>
  <node id="-658" visible="true" lat="43.71093848" lon="-72.77634071">
    <tag k="addr:city" v="Stockbridge"/>
    <tag k="addr:housenumber" v="5589"/>
    <tag k="addr:street" v="No Town Road"/>
    <tag k="addr:state" v="VT"/>
    <tag k="ref:vcgi:esiteid" v="339628"/>
  </node>
  <node id="-659" visible="true" lat="43.73889234" lon="-72.72099534">
    <tag k="addr:city" v="Stockbridge"/>
    <tag k="addr:housenumber" v="50"/>
    <tag k="addr:street" v="Graywood Hill Road"/>
    <tag k="addr:state" v="VT"/>
    <tag k="ref:vcgi:esiteid" v="340223"/>
  </node>
  <node id="-660" visible="true" lat="43.77574187" lon="-72.77994793">
    <tag k="addr:city" v="Stockbridge"/>
    <tag k="addr:housenumber" v="93"/>
    <tag k="addr:street" v="Schaff Haus Drive"/>
    <tag k="addr:state" v="VT"/>
    <tag k="ref:vcgi:esiteid" v="340700"/>
  </node>
  <node id="-661" visible="true" lat="43.77988739" lon="-72.67331239">
    <tag k="addr:city" v="Stockbridge"/>
    <tag k="addr:housenumber" v="1727"/>
    <tag k="addr:street" v="Town Highway 15"/>
    <tag k="addr:state" v="VT"/>
    <tag k="ref:vcgi:esiteid" v="340963"/>
  </node>
  <node id="-662" visible="true" lat="43.73483106" lon="-72.80786227">
    <tag k="addr:city" v="Stockbridge"/>
    <tag k="addr:housenumber" v="23"/>
    <tag k="addr:street" v="South Hill Rd Ptfld"/>
    <tag k="addr:state" v="VT"/>
    <tag k="ref:vcgi:esiteid" v="341542"/>
  </node>
  <node id="-664" visible="true" lat="43.715246" lon="-72.72036148">
    <tag k="addr:city" v="Stockbridge"/>
    <tag k="addr:housenumber" v="4373"/>
    <tag k="addr:street" v="Stony Brook Road"/>
    <tag k="addr:state" v="VT"/>
    <tag k="ref:vcgi:esiteid" v="344067"/>
  </node>
  <node id="-665" visible="true" lat="43.80391693" lon="-72.77987693">
    <tag k="addr:city" v="Stockbridge"/>
    <tag k="addr:housenumber" v="4941"/>
    <tag k="addr:street" v="Vermont Route 100"/>
    <tag k="addr:state" v="VT"/>
    <tag k="ref:vcgi:esiteid" v="344102"/>
  </node>
  <node id="-666" visible="true" lat="43.73920055" lon="-72.74458073">
    <tag k="addr:city" v="Stockbridge"/>
    <tag k="addr:housenumber" v="574"/>
    <tag k="addr:street" v="Taggart Hill Road South"/>
    <tag k="addr:state" v="VT"/>
    <tag k="ref:vcgi:esiteid" v="344386"/>
  </node>
  <node id="-668" visible="true" lat="43.77650349" lon="-72.69851031">
    <tag k="addr:city" v="Stockbridge"/>
    <tag k="addr:housenumber" v="4284"/>
    <tag k="addr:street" v="Vermont Route 107"/>
    <tag k="addr:state" v="VT"/>
    <tag k="ref:vcgi:esiteid" v="345654"/>
  </node>
  <node id="-669" visible="true" lat="43.76439315" lon="-72.71003103">
    <tag k="addr:city" v="Stockbridge"/>
    <tag k="addr:housenumber" v="3226"/>
    <tag k="addr:street" v="Vermont Route 107"/>
    <tag k="addr:state" v="VT"/>
    <tag k="ref:vcgi:esiteid" v="345655"/>
  </node>
  <node id="-670" visible="true" lat="43.74722907" lon="-72.81747168">
    <tag k="addr:city" v="Stockbridge"/>
    <tag k="addr:housenumber" v="144"/>
    <tag k="addr:street" v="Fifield Drive"/>
    <tag k="addr:state" v="VT"/>
    <tag k="ref:vcgi:esiteid" v="345827"/>
  </node>
  <node id="-671" visible="true" lat="43.73892409" lon="-72.72481691">
    <tag k="addr:city" v="Stockbridge"/>
    <tag k="addr:housenumber" v="77"/>
    <tag k="addr:street" v="Stockle Drive"/>
    <tag k="addr:state" v="VT"/>
    <tag k="ref:vcgi:esiteid" v="446999"/>
  </node>
  <node id="-672" visible="true" lat="43.72383226" lon="-72.75949806">
    <tag k="addr:city" v="Stockbridge"/>
    <tag k="addr:housenumber" v="7"/>
    <tag k="addr:street" v="Brown Road"/>
    <tag k="addr:state" v="VT"/>
    <tag k="ref:vcgi:esiteid" v="447965"/>
  </node>
  <node id="-673" visible="true" lat="43.72249715" lon="-72.72194384">
    <tag k="addr:city" v="Stockbridge"/>
    <tag k="addr:housenumber" v="113"/>
    <tag k="addr:street" v="Driscoll Road"/>
    <tag k="addr:state" v="VT"/>
    <tag k="ref:vcgi:esiteid" v="448546"/>
  </node>
  <node id="-674" visible="true" lat="43.69134114" lon="-72.72052981">
    <tag k="addr:city" v="Stockbridge"/>
    <tag k="addr:housenumber" v="6192"/>
    <tag k="addr:street" v="Stony Brook Road"/>
    <tag k="addr:state" v="VT"/>
    <tag k="ref:vcgi:esiteid" v="450379"/>
  </node>
  <node id="-675" visible="true" lat="43.79802455" lon="-72.75105762">
    <tag k="addr:city" v="Stockbridge"/>
    <tag k="addr:housenumber" v="339"/>
    <tag k="addr:street" v="Music Mountain Road"/>
    <tag k="addr:state" v="VT"/>
    <tag k="ref:vcgi:esiteid" v="450869"/>
  </node>
  <node id="-676" visible="true" lat="43.72526404" lon="-72.74719268">
    <tag k="addr:city" v="Stockbridge"/>
    <tag k="addr:housenumber" v="251"/>
    <tag k="addr:street" v="Town Highway 64"/>
    <tag k="addr:state" v="VT"/>
    <tag k="ref:vcgi:esiteid" v="451376"/>
  </node>
  <node id="-677" visible="true" lat="43.73857335" lon="-72.74539151">
    <tag k="addr:city" v="Stockbridge"/>
    <tag k="addr:housenumber" v="2224"/>
    <tag k="addr:street" v="Gilke Road"/>
    <tag k="addr:state" v="VT"/>
    <tag k="ref:vcgi:esiteid" v="451378"/>
  </node>
  <node id="-678" visible="true" lat="43.75632485" lon="-72.81199247">
    <tag k="addr:city" v="Stockbridge"/>
    <tag k="addr:housenumber" v="10"/>
    <tag k="addr:street" v="Tweed River Drive"/>
    <tag k="addr:state" v="VT"/>
    <tag k="ref:vcgi:esiteid" v="453020"/>
  </node>
  <node id="-679" visible="true" lat="43.77771952" lon="-72.79882536">
    <tag k="addr:city" v="Stockbridge"/>
    <tag k="addr:housenumber" v="4668"/>
    <tag k="addr:street" v="Vermont Route 100"/>
    <tag k="addr:state" v="VT"/>
    <tag k="ref:vcgi:esiteid" v="453624"/>
  </node>
  <node id="-680" visible="true" lat="43.82107641" lon="-72.76406282">
    <tag k="addr:city" v="Stockbridge"/>
    <tag k="addr:housenumber" v="887"/>
    <tag k="addr:street" v="New Boston Road"/>
    <tag k="addr:state" v="VT"/>
    <tag k="ref:vcgi:esiteid" v="454640"/>
  </node>
  <node id="-681" visible="true" lat="43.79532355" lon="-72.66505367">
    <tag k="addr:city" v="Stockbridge"/>
    <tag k="addr:housenumber" v="2280"/>
    <tag k="addr:street" v="River Road"/>
    <tag k="addr:state" v="VT"/>
    <tag k="ref:vcgi:esiteid" v="455397"/>
  </node>
  <node id="-682" visible="true" lat="43.76104882" lon="-72.80393221">
    <tag k="addr:city" v="Stockbridge"/>
    <tag k="addr:housenumber" v="1137"/>
    <tag k="addr:street" v="Tweed River Drive"/>
    <tag k="addr:state" v="VT"/>
    <tag k="ref:vcgi:esiteid" v="455451"/>
  </node>
  <node id="-684" visible="true" lat="43.76768345" lon="-72.70806346">
    <tag k="addr:city" v="Stockbridge"/>
    <tag k="addr:housenumber" v="3494"/>
    <tag k="addr:street" v="Vermont Route 107"/>
    <tag k="addr:state" v="VT"/>
    <tag k="ref:vcgi:esiteid" v="455678"/>
  </node>
  <node id="-687" visible="true" lat="43.77634904" lon="-72.76633289">
    <tag k="addr:city" v="Stockbridge"/>
    <tag k="addr:housenumber" v="1675"/>
    <tag k="addr:street" v="Vermont Route 100"/>
    <tag k="addr:state" v="VT"/>
    <tag k="ref:vcgi:esiteid" v="611120"/>
  </node>
  <node id="-689" visible="true" lat="43.80047668" lon="-72.68351105">
    <tag k="addr:city" v="Stockbridge"/>
    <tag k="addr:housenumber" v="726"/>
    <tag k="addr:street" v="Lilliesville Road"/>
    <tag k="addr:state" v="VT"/>
    <tag k="ref:vcgi:esiteid" v="611487"/>
  </node>
  <node id="-690" visible="true" lat="43.74451974" lon="-72.80205356">
    <tag k="addr:city" v="Stockbridge"/>
    <tag k="addr:housenumber" v="267"/>
    <tag k="addr:street" v="Old Log Road"/>
    <tag k="addr:state" v="VT"/>
    <tag k="ref:vcgi:esiteid" v="611581"/>
  </node>
  <node id="-691" visible="true" lat="43.74351702" lon="-72.80070878">
    <tag k="addr:city" v="Stockbridge"/>
    <tag k="addr:housenumber" v="172"/>
    <tag k="addr:street" v="Old Log Road"/>
    <tag k="addr:state" v="VT"/>
    <tag k="ref:vcgi:esiteid" v="611582"/>
  </node>
  <node id="-692" visible="true" lat="43.75244041" lon="-72.7286982">
    <tag k="addr:city" v="Stockbridge"/>
    <tag k="addr:housenumber" v="588"/>
    <tag k="addr:street" v="Taggart Hill Road North"/>
    <tag k="addr:state" v="VT"/>
    <tag k="ref:vcgi:esiteid" v="612103"/>
  </node>
  <node id="-693" visible="true" lat="43.76342372" lon="-72.71768956">
    <tag k="addr:city" v="Stockbridge"/>
    <tag k="addr:housenumber" v="2906"/>
    <tag k="addr:street" v="Vermont Route 107"/>
    <tag k="addr:state" v="VT"/>
    <tag k="ref:vcgi:esiteid" v="612558"/>
  </node>
  <node id="-694" visible="true" lat="43.77459262" lon="-72.71707971">
    <tag k="addr:city" v="Stockbridge"/>
    <tag k="addr:housenumber" v="1037"/>
    <tag k="addr:street" v="Laury Road"/>
    <tag k="addr:state" v="VT"/>
    <tag k="ref:vcgi:esiteid" v="612918"/>
  </node>
  <node id="-695" visible="true" lat="43.80331341" lon="-72.77547071">
    <tag k="addr:city" v="Stockbridge"/>
    <tag k="addr:housenumber" v="105"/>
    <tag k="addr:street" v="Olmstead Drive"/>
    <tag k="addr:state" v="VT"/>
    <tag k="ref:vcgi:esiteid" v="617041"/>
  </node>
  <node id="-696" visible="true" lat="43.8170865" lon="-72.76618581">
    <tag k="addr:city" v="Stockbridge"/>
    <tag k="addr:housenumber" v="618"/>
    <tag k="addr:street" v="New Boston Road"/>
    <tag k="addr:state" v="VT"/>
    <tag k="ref:vcgi:esiteid" v="617059"/>
  </node>
  <node id="-697" visible="true" lat="43.8136693" lon="-72.77684286">
    <tag k="addr:city" v="Stockbridge"/>
    <tag k="addr:housenumber" v="34"/>
    <tag k="addr:street" v="New Boston Road"/>
    <tag k="addr:state" v="VT"/>
    <tag k="ref:vcgi:esiteid" v="617060"/>
  </node>
  <node id="-702" visible="true" lat="43.72854341" lon="-72.72127182">
    <tag k="addr:city" v="Stockbridge"/>
    <tag k="addr:housenumber" v="3250"/>
    <tag k="addr:street" v="Stony Brook Road"/>
    <tag k="addr:state" v="VT"/>
    <tag k="ref:vcgi:esiteid" v="655172"/>
  </node>
  <node id="-703" visible="true" lat="43.73227805" lon="-72.72155031">
    <tag k="addr:city" v="Stockbridge"/>
    <tag k="addr:housenumber" v="3004"/>
    <tag k="addr:street" v="Stony Brook Road"/>
    <tag k="addr:state" v="VT"/>
    <tag k="ref:vcgi:esiteid" v="655727"/>
  </node>
  <node id="-704" visible="true" lat="43.76311421" lon="-72.73616768">
    <tag k="addr:city" v="Stockbridge"/>
    <tag k="addr:housenumber" v="905"/>
    <tag k="addr:street" v="Blackmer Boulevard"/>
    <tag k="addr:state" v="VT"/>
    <tag k="ref:vcgi:esiteid" v="750974"/>
  </node>
  <node id="-705" visible="true" lat="43.78288396" lon="-72.72810521">
    <tag k="addr:city" v="Stockbridge"/>
    <tag k="addr:housenumber" v="1847"/>
    <tag k="addr:street" v="Laury Road"/>
    <tag k="addr:state" v="VT"/>
    <tag k="ref:vcgi:esiteid" v="753204"/>
  </node>
  <node id="-706" visible="true" lat="43.76425295" lon="-72.74285829">
    <tag k="addr:city" v="Stockbridge"/>
    <tag k="addr:housenumber" v="1299"/>
    <tag k="addr:street" v="Vermont Route 107"/>
    <tag k="addr:state" v="VT"/>
    <tag k="ref:vcgi:esiteid" v="753526"/>
  </node>
  <node id="-708" visible="true" lat="43.76466948" lon="-72.78667051">
    <tag k="addr:city" v="Stockbridge"/>
    <tag k="addr:housenumber" v="1000"/>
    <tag k="addr:street" v="South Hill Rd Stockbridge"/>
    <tag k="addr:state" v="VT"/>
    <tag k="ref:vcgi:esiteid" v="755309"/>
  </node>
  <node id="-709" visible="true" lat="43.8106694" lon="-72.72771697">
    <tag k="addr:city" v="Stockbridge"/>
    <tag k="addr:housenumber" v="327"/>
    <tag k="addr:street" v="Billings Hill"/>
    <tag k="addr:state" v="VT"/>
    <tag k="ref:vcgi:esiteid" v="755654"/>
  </node>
  <node id="-710" visible="true" lat="43.73800355" lon="-72.79314026">
    <tag k="addr:city" v="Stockbridge"/>
    <tag k="addr:housenumber" v="5749"/>
    <tag k="addr:street" v="Fletcher Brook Road"/>
    <tag k="addr:state" v="VT"/>
    <tag k="ref:vcgi:esiteid" v="756378"/>
  </node>
  <node id="-711" visible="true" lat="43.74108952" lon="-72.74404267">
    <tag k="addr:city" v="Stockbridge"/>
    <tag k="addr:housenumber" v="794"/>
    <tag k="addr:street" v="Taggart Hill Road South"/>
    <tag k="addr:state" v="VT"/>
    <tag k="ref:vcgi:esiteid" v="756642"/>
  </node>
  <node id="-712" visible="true" lat="43.76258105" lon="-72.71891804">
    <tag k="addr:city" v="Stockbridge"/>
    <tag k="addr:housenumber" v="2786"/>
    <tag k="addr:street" v="Vermont Route 107"/>
    <tag k="addr:state" v="VT"/>
    <tag k="ref:vcgi:esiteid" v="757548"/>
  </node>
  <node id="-713" visible="true" lat="43.7805968" lon="-72.79106416">
    <tag k="addr:city" v="Stockbridge"/>
    <tag k="addr:housenumber" v="391"/>
    <tag k="addr:street" v="Vermont Route 100"/>
    <tag k="addr:state" v="VT"/>
    <tag k="ref:vcgi:esiteid" v="759005"/>
  </node>
  <node id="-714" visible="true" lat="43.71821438" lon="-72.73061644">
    <tag k="addr:city" v="Stockbridge"/>
    <tag k="addr:housenumber" v="1014"/>
    <tag k="addr:street" v="Driscoll Road"/>
    <tag k="addr:state" v="VT"/>
    <tag k="ref:vcgi:esiteid" v="759234"/>
  </node>
  <node id="-715" visible="true" lat="43.80538317" lon="-72.70627691">
    <tag k="addr:city" v="Stockbridge"/>
    <tag k="addr:housenumber" v="71"/>
    <tag k="addr:street" v="Bix Road"/>
    <tag k="addr:state" v="VT"/>
    <tag k="ref:vcgi:esiteid" v="759471"/>
  </node>
  <node id="-716" visible="true" lat="43.80470967" lon="-72.70628255">
    <tag k="addr:city" v="Stockbridge"/>
    <tag k="addr:housenumber" v="84"/>
    <tag k="addr:street" v="Bix Road"/>
    <tag k="addr:state" v="VT"/>
    <tag k="ref:vcgi:esiteid" v="759503"/>
  </node>
  <node id="-717" visible="true" lat="43.7709544" lon="-72.73214498">
    <tag k="addr:city" v="Stockbridge"/>
    <tag k="addr:housenumber" v="660"/>
    <tag k="addr:street" v="Larmie Hill Road"/>
    <tag k="addr:state" v="VT"/>
    <tag k="ref:vcgi:esiteid" v="760545"/>
  </node>
  <node id="-718" visible="true" lat="43.75220901" lon="-72.79333689">
    <tag k="addr:city" v="Stockbridge"/>
    <tag k="addr:housenumber" v="2272"/>
    <tag k="addr:street" v="South Hill Rd Stockbridge"/>
    <tag k="addr:state" v="VT"/>
    <tag k="ref:vcgi:esiteid" v="760546"/>
  </node>
  <node id="-719" visible="true" lat="43.75489116" lon="-72.71653138">
    <tag k="addr:city" v="Stockbridge"/>
    <tag k="addr:housenumber" v="664"/>
    <tag k="addr:street" v="Ranney Road"/>
    <tag k="addr:state" v="VT"/>
    <tag k="ref:vcgi:esiteid" v="760547"/>
  </node>
  <node id="-720" visible="true" lat="43.77114195" lon="-72.73310212">
    <tag k="addr:city" v="Stockbridge"/>
    <tag k="addr:housenumber" v="679"/>
    <tag k="addr:street" v="Larmie Hill Road"/>
    <tag k="addr:state" v="VT"/>
    <tag k="ref:vcgi:esiteid" v="760743"/>
  </node>
  <node id="-721" visible="true" lat="43.80479938" lon="-72.70767349">
    <tag k="addr:city" v="Stockbridge"/>
    <tag k="addr:housenumber" v="1790"/>
    <tag k="addr:street" v="Whitcomb Hill Road"/>
    <tag k="addr:state" v="VT"/>
    <tag k="ref:vcgi:esiteid" v="761535"/>
  </node>
  <node id="-722" visible="true" lat="43.75701728" lon="-72.71194105">
    <tag k="addr:city" v="Stockbridge"/>
    <tag k="addr:housenumber" v="759"/>
    <tag k="addr:street" v="Ranney Road"/>
    <tag k="addr:state" v="VT"/>
    <tag k="ref:vcgi:esiteid" v="763001"/>
  </node>
  <node id="-723" visible="true" lat="43.80363769" lon="-72.77560486">
    <tag k="addr:city" v="Stockbridge"/>
    <tag k="addr:housenumber" v="107"/>
    <tag k="addr:street" v="Olmstead Drive"/>
    <tag k="addr:state" v="VT"/>
    <tag k="ref:vcgi:esiteid" v="763614"/>
  </node>
  <node id="-724" visible="true" lat="43.7879176" lon="-72.7582695">
    <tag k="addr:city" v="Stockbridge"/>
    <tag k="addr:housenumber" v="463"/>
    <tag k="addr:street" v="Stockbridge Common"/>
    <tag k="addr:state" v="VT"/>
    <tag k="ref:vcgi:esiteid" v="763914"/>
  </node>
  <node id="-725" visible="true" lat="43.73571024" lon="-72.80719386">
    <tag k="addr:city" v="Stockbridge"/>
    <tag k="addr:housenumber" v="69"/>
    <tag k="addr:street" v="South Hill Rd Ptfld"/>
    <tag k="addr:state" v="VT"/>
    <tag k="ref:vcgi:esiteid" v="764373"/>
  </node>
  <node id="-726" visible="true" lat="43.78061606" lon="-72.76460248">
    <tag k="addr:city" v="Stockbridge"/>
    <tag k="addr:housenumber" v="1479"/>
    <tag k="addr:street" v="Vermont Route 100"/>
    <tag k="addr:state" v="VT"/>
    <tag k="ref:vcgi:esiteid" v="764445"/>
  </node>
  <node id="-727" visible="true" lat="43.75313797" lon="-72.72123735">
    <tag k="addr:city" v="Stockbridge"/>
    <tag k="addr:housenumber" v="434"/>
    <tag k="addr:street" v="Ranney Road"/>
    <tag k="addr:state" v="VT"/>
    <tag k="ref:vcgi:esiteid" v="764813"/>
  </node>
  <node id="-728" visible="true" lat="43.73269852" lon="-72.73675468">
    <tag k="addr:city" v="Stockbridge"/>
    <tag k="addr:housenumber" v="976"/>
    <tag k="addr:street" v="Fletcher Brook Road"/>
    <tag k="addr:state" v="VT"/>
    <tag k="ref:vcgi:esiteid" v="764814"/>
  </node>
  <node id="-729" visible="true" lat="43.79513194" lon="-72.6856863">
    <tag k="addr:city" v="Stockbridge"/>
    <tag k="addr:housenumber" v="427"/>
    <tag k="addr:street" v="Abbott Road"/>
    <tag k="addr:state" v="VT"/>
    <tag k="ref:vcgi:esiteid" v="765330"/>
  </node>
  <node id="-730" visible="true" lat="43.76380122" lon="-72.74519193">
    <tag k="addr:city" v="Stockbridge"/>
    <tag k="addr:housenumber" v="1320"/>
    <tag k="addr:street" v="Vermont Route 107"/>
    <tag k="addr:state" v="VT"/>
    <tag k="ref:vcgi:esiteid" v="766201"/>
  </node>
  <node id="-731" visible="true" lat="43.75084586" lon="-72.73221783">
    <tag k="addr:city" v="Stockbridge"/>
    <tag k="addr:housenumber" v="689"/>
    <tag k="addr:street" v="Taggart Hill Road North"/>
    <tag k="addr:state" v="VT"/>
    <tag k="ref:vcgi:esiteid" v="766202"/>
  </node>
  <node id="-732" visible="true" lat="43.75926103" lon="-72.74301752">
    <tag k="addr:city" v="Stockbridge"/>
    <tag k="addr:housenumber" v="1536"/>
    <tag k="addr:street" v="Vermont Route 107"/>
    <tag k="addr:state" v="VT"/>
    <tag k="ref:vcgi:esiteid" v="766753"/>
  </node>
  <node id="-733" visible="true" lat="43.74443221" lon="-72.79869704">
    <tag k="addr:city" v="Stockbridge"/>
    <tag k="addr:housenumber" v="150"/>
    <tag k="addr:street" v="Old Log Road Extension"/>
    <tag k="addr:state" v="VT"/>
    <tag k="ref:vcgi:esiteid" v="768989"/>
  </node>
  <node id="-734" visible="true" lat="43.79494332" lon="-72.67241826">
    <tag k="addr:city" v="Stockbridge"/>
    <tag k="addr:housenumber" v="2025"/>
    <tag k="addr:street" v="River Road"/>
    <tag k="addr:state" v="VT"/>
    <tag k="ref:vcgi:esiteid" v="769715"/>
  </node>
  <node id="-735" visible="true" lat="43.74566675" lon="-72.7414788">
    <tag k="addr:city" v="Stockbridge"/>
    <tag k="addr:housenumber" v="1265"/>
    <tag k="addr:street" v="Taggart Hill Road South"/>
    <tag k="addr:state" v="VT"/>
    <tag k="ref:vcgi:esiteid" v="769959"/>
  </node>
  <node id="-736" visible="true" lat="43.81666068" lon="-72.76720633">
    <tag k="addr:city" v="Stockbridge"/>
    <tag k="addr:housenumber" v="556"/>
    <tag k="addr:street" v="New Boston Road"/>
    <tag k="addr:state" v="VT"/>
    <tag k="ref:vcgi:esiteid" v="770104"/>
  </node>
  <node id="-737" visible="true" lat="43.72546267" lon="-72.72479738">
    <tag k="addr:city" v="Stockbridge"/>
    <tag k="addr:housenumber" v="118"/>
    <tag k="addr:street" v="Driscoll Road"/>
    <tag k="addr:state" v="VT"/>
    <tag k="ref:vcgi:esiteid" v="800043"/>
  </node>
  <node id="-738" visible="true" lat="43.77863529" lon="-72.79120342">
    <tag k="addr:city" v="Stockbridge"/>
    <tag k="addr:housenumber" v="378"/>
    <tag k="addr:street" v="Vermont Route 100"/>
    <tag k="addr:state" v="VT"/>
    <tag k="ref:vcgi:esiteid" v="800044"/>
  </node>
  <node id="-740" visible="true" lat="43.79554458" lon="-72.77215399">
    <tag k="addr:city" v="Stockbridge"/>
    <tag k="addr:housenumber" v="1249"/>
    <tag k="addr:street" v="Pit Road"/>
    <tag k="addr:state" v="VT"/>
    <tag k="ref:vcgi:esiteid" v="1050209"/>
  </node>
  <node id="-741" visible="true" lat="43.76455214" lon="-72.71734092">
    <tag k="addr:city" v="Stockbridge"/>
    <tag k="addr:housenumber" v="2981"/>
    <tag k="addr:street" v="Vermont Route 107"/>
    <tag k="addr:state" v="VT"/>
    <tag k="ref:vcgi:esiteid" v="1050427"/>
  </node>
  <node id="-742" visible="true" lat="43.76709543" lon="-72.74207759">
    <tag k="addr:city" v="Stockbridge"/>
    <tag k="addr:housenumber" v="1320"/>
    <tag k="addr:street" v="Blackmer Boulevard"/>
    <tag k="addr:state" v="VT"/>
    <tag k="ref:vcgi:esiteid" v="1050428"/>
  </node>
  <node id="-743" visible="true" lat="43.77400185" lon="-72.76176599">
    <tag k="addr:city" v="Stockbridge"/>
    <tag k="addr:housenumber" v="1902"/>
    <tag k="addr:street" v="Vermont Route 100"/>
    <tag k="addr:state" v="VT"/>
    <tag k="ref:vcgi:esiteid" v="1050429"/>
  </node>
  <node id="-747" visible="true" lat="43.78499909" lon="-72.69471049">
    <tag k="addr:city" v="Stockbridge"/>
    <tag k="addr:housenumber" v="634"/>
    <tag k="addr:street" v="River Road"/>
    <tag k="addr:state" v="VT"/>
    <tag k="ref:vcgi:esiteid" v="1052532"/>
  </node>
  <node id="-748" visible="true" lat="43.74339075" lon="-72.78522087">
    <tag k="addr:city" v="Stockbridge"/>
    <tag k="addr:housenumber" v="2729"/>
    <tag k="addr:street" v="South Hill Rd Stockbridge"/>
    <tag k="addr:state" v="VT"/>
    <tag k="ref:vcgi:esiteid" v="1052533"/>
  </node>
  <node id="-749" visible="true" lat="43.75594335" lon="-72.72268601">
    <tag k="addr:city" v="Stockbridge"/>
    <tag k="addr:housenumber" v="278"/>
    <tag k="addr:street" v="Ranney Road"/>
    <tag k="addr:state" v="VT"/>
    <tag k="ref:vcgi:esiteid" v="1052535"/>
  </node>
  <node id="-750" visible="true" lat="43.78259926" lon="-72.76935546">
    <tag k="addr:city" v="Stockbridge"/>
    <tag k="addr:housenumber" v="1477"/>
    <tag k="addr:street" v="Vermont Route 100"/>
    <tag k="addr:state" v="VT"/>
    <tag k="ref:vcgi:esiteid" v="1052537"/>
  </node>
  <node id="-751" visible="true" lat="43.78464914" lon="-72.69952418">
    <tag k="addr:city" v="Stockbridge"/>
    <tag k="addr:housenumber" v="115"/>
    <tag k="addr:street" v="Whitcomb Hill Road"/>
    <tag k="addr:state" v="VT"/>
    <tag k="ref:vcgi:esiteid" v="1052538"/>
  </node>
  <node id="-752" visible="true" lat="43.757333" lon="-72.8017686">
    <tag k="addr:city" v="Stockbridge"/>
    <tag k="addr:housenumber" v="1136"/>
    <tag k="addr:street" v="Tweed River Drive"/>
    <tag k="addr:state" v="VT"/>
    <tag k="ref:vcgi:esiteid" v="1052550"/>
  </node>
</osm>
