<?xml version="1.0" encoding="UTF-8"?>
<osm version="0.6" generator="JOSM" upload="false">
  <node id="-100" visible="true" lat="43.11511295" lon="-72.91179985">
    <tag k="addr:city" v="Stratton"/>
    <tag k="addr:housenumber" v="43"/>
    <tag k="addr:street" v="Founders Hill Road"/>
    <tag k="addr:state" v="VT"/>
    <tag k="ref:vcgi:esiteid" v="252783"/>
  </node>
  <node id="-101" visible="true" lat="43.1149007" lon="-72.91024767">
    <tag k="addr:city" v="Stratton"/>
    <tag k="addr:housenumber" v="25"/>
    <tag k="addr:street" v="Flowing Spring Road"/>
    <tag k="addr:state" v="VT"/>
    <tag k="ref:vcgi:esiteid" v="252785"/>
  </node>
  <node id="-102" visible="true" lat="43.11566925" lon="-72.92132568">
    <tag k="addr:city" v="Stratton"/>
    <tag k="addr:housenumber" v="20"/>
    <tag k="addr:street" v="West Ridge Road"/>
    <tag k="addr:state" v="VT"/>
    <tag k="ref:vcgi:esiteid" v="252787"/>
  </node>
  <node id="-103" visible="true" lat="43.1156578" lon="-72.92347717">
    <tag k="addr:city" v="Stratton"/>
    <tag k="addr:housenumber" v="91"/>
    <tag k="addr:street" v="West Ridge Road"/>
    <tag k="addr:state" v="VT"/>
    <tag k="ref:vcgi:esiteid" v="252788"/>
  </node>
  <node id="-104" visible="true" lat="43.11522239" lon="-72.92206943">
    <tag k="addr:city" v="Stratton"/>
    <tag k="addr:housenumber" v="19"/>
    <tag k="addr:street" v="West Ridge Road"/>
    <tag k="addr:state" v="VT"/>
    <tag k="ref:vcgi:esiteid" v="252790"/>
  </node>
  <node id="-106" visible="true" lat="43.1152807" lon="-72.91097099">
    <tag k="addr:city" v="Stratton"/>
    <tag k="addr:housenumber" v="24"/>
    <tag k="addr:street" v="Flowing Spring Road"/>
    <tag k="addr:state" v="VT"/>
    <tag k="ref:vcgi:esiteid" v="252792"/>
  </node>
  <node id="-107" visible="true" lat="43.11520385" lon="-72.92086029">
    <tag k="addr:city" v="Stratton"/>
    <tag k="addr:housenumber" v="8"/>
    <tag k="addr:street" v="West Ridge Road"/>
    <tag k="addr:state" v="VT"/>
    <tag k="ref:vcgi:esiteid" v="252793"/>
  </node>
  <node id="-108" visible="true" lat="43.11520001" lon="-72.91304829">
    <tag k="addr:city" v="Stratton"/>
    <tag k="addr:housenumber" v="40"/>
    <tag k="addr:street" v="Founders Hill Road"/>
    <tag k="addr:state" v="VT"/>
    <tag k="ref:vcgi:esiteid" v="252794"/>
  </node>
  <node id="-109" visible="true" lat="43.11506058" lon="-72.92311231">
    <tag k="addr:city" v="Stratton"/>
    <tag k="addr:housenumber" v="99"/>
    <tag k="addr:street" v="West Ridge Road"/>
    <tag k="addr:state" v="VT"/>
    <tag k="ref:vcgi:esiteid" v="252795"/>
  </node>
  <node id="-112" visible="true" lat="43.1148338" lon="-72.91106464">
    <tag k="addr:city" v="Stratton"/>
    <tag k="addr:housenumber" v="57"/>
    <tag k="addr:street" v="Founders Hill Road"/>
    <tag k="addr:state" v="VT"/>
    <tag k="ref:vcgi:esiteid" v="252799"/>
  </node>
  <node id="-116" visible="true" lat="43.11469268" lon="-72.91239929">
    <tag k="addr:city" v="Stratton"/>
    <tag k="addr:housenumber" v="10"/>
    <tag k="addr:street" v="Sawmill Road"/>
    <tag k="addr:state" v="VT"/>
    <tag k="ref:vcgi:esiteid" v="252803"/>
  </node>
  <node id="-123" visible="true" lat="43.11449614" lon="-72.91336998">
    <tag k="addr:city" v="Stratton"/>
    <tag k="addr:housenumber" v="22"/>
    <tag k="addr:street" v="Sawmill Road"/>
    <tag k="addr:state" v="VT"/>
    <tag k="ref:vcgi:esiteid" v="252810"/>
  </node>
  <node id="-125" visible="true" lat="43.1144638" lon="-72.91284942">
    <tag k="addr:city" v="Stratton"/>
    <tag k="addr:housenumber" v="16"/>
    <tag k="addr:street" v="Sawmill Road"/>
    <tag k="addr:state" v="VT"/>
    <tag k="ref:vcgi:esiteid" v="252812"/>
  </node>
  <node id="-135" visible="true" lat="43.1141777" lon="-72.91183471">
    <tag k="addr:city" v="Stratton"/>
    <tag k="addr:housenumber" v="11"/>
    <tag k="addr:street" v="Sawmill Road"/>
    <tag k="addr:state" v="VT"/>
    <tag k="ref:vcgi:esiteid" v="252822"/>
  </node>
  <node id="-137" visible="true" lat="43.11399624" lon="-72.911427">
    <tag k="addr:city" v="Stratton"/>
    <tag k="addr:housenumber" v="6"/>
    <tag k="addr:street" v="Pond Road"/>
    <tag k="addr:state" v="VT"/>
    <tag k="ref:vcgi:esiteid" v="252824"/>
  </node>
  <node id="-139" visible="true" lat="43.11396789" lon="-72.91405486">
    <tag k="addr:city" v="Stratton"/>
    <tag k="addr:housenumber" v="24"/>
    <tag k="addr:street" v="Sawmill Road"/>
    <tag k="addr:state" v="VT"/>
    <tag k="ref:vcgi:esiteid" v="252826"/>
  </node>
  <node id="-144" visible="true" lat="43.11394753" lon="-72.87261621">
    <tag k="addr:city" v="Stratton"/>
    <tag k="addr:housenumber" v="76"/>
    <tag k="addr:street" v="Stone Cabin Road"/>
    <tag k="addr:state" v="VT"/>
    <tag k="ref:vcgi:esiteid" v="252831"/>
  </node>
  <node id="-147" visible="true" lat="43.11372375" lon="-72.91272735">
    <tag k="addr:city" v="Stratton"/>
    <tag k="addr:housenumber" v="25"/>
    <tag k="addr:street" v="Sawmill Road"/>
    <tag k="addr:state" v="VT"/>
    <tag k="ref:vcgi:esiteid" v="252834"/>
  </node>
  <node id="-163" visible="true" lat="43.11355209" lon="-72.91207885">
    <tag k="addr:city" v="Stratton"/>
    <tag k="addr:housenumber" v="15"/>
    <tag k="addr:street" v="Sawmill Road"/>
    <tag k="addr:state" v="VT"/>
    <tag k="ref:vcgi:esiteid" v="252851"/>
  </node>
  <node id="-168" visible="true" lat="43.11351776" lon="-72.91007232">
    <tag k="addr:city" v="Stratton"/>
    <tag k="addr:housenumber" v="11"/>
    <tag k="addr:street" v="Pond Road"/>
    <tag k="addr:state" v="VT"/>
    <tag k="ref:vcgi:esiteid" v="252856"/>
  </node>
  <node id="-196" visible="true" lat="43.1132431" lon="-72.9143753">
    <tag k="addr:city" v="Stratton"/>
    <tag k="addr:housenumber" v="34"/>
    <tag k="addr:street" v="Sawmill Road"/>
    <tag k="addr:state" v="VT"/>
    <tag k="ref:vcgi:esiteid" v="252884"/>
  </node>
  <node id="-200" visible="true" lat="43.11327362" lon="-72.87358856">
    <tag k="addr:city" v="Stratton"/>
    <tag k="addr:housenumber" v="54"/>
    <tag k="addr:street" v="Stone Cabin Road"/>
    <tag k="addr:state" v="VT"/>
    <tag k="ref:vcgi:esiteid" v="252888"/>
  </node>
  <node id="-205" visible="true" lat="43.11309432" lon="-72.91326141">
    <tag k="addr:city" v="Stratton"/>
    <tag k="addr:housenumber" v="35"/>
    <tag k="addr:street" v="Sawmill Road"/>
    <tag k="addr:state" v="VT"/>
    <tag k="ref:vcgi:esiteid" v="252893"/>
  </node>
  <node id="-216" visible="true" lat="43.11305618" lon="-72.8871231">
    <tag k="addr:city" v="Stratton"/>
    <tag k="addr:housenumber" v="82"/>
    <tag k="addr:street" v="North Road"/>
    <tag k="addr:state" v="VT"/>
    <tag k="ref:vcgi:esiteid" v="252904"/>
  </node>
  <node id="-245" visible="true" lat="43.11261367" lon="-72.91436767">
    <tag k="addr:city" v="Stratton"/>
    <tag k="addr:housenumber" v="38"/>
    <tag k="addr:street" v="Sawmill Road"/>
    <tag k="addr:state" v="VT"/>
    <tag k="ref:vcgi:esiteid" v="252934"/>
  </node>
  <node id="-267" visible="true" lat="43.11191177" lon="-72.9033432">
    <tag k="addr:city" v="Stratton"/>
    <tag k="addr:housenumber" v="792"/>
    <tag k="addr:street" v="Stratton Mountain Access Road"/>
    <tag k="addr:state" v="VT"/>
    <tag k="ref:vcgi:esiteid" v="252956"/>
  </node>
  <node id="-312" visible="true" lat="43.11009216" lon="-72.88037872">
    <tag k="addr:city" v="Stratton"/>
    <tag k="addr:housenumber" v="5"/>
    <tag k="addr:street" v="Dini Lane"/>
    <tag k="addr:state" v="VT"/>
    <tag k="ref:vcgi:esiteid" v="253001"/>
  </node>
  <node id="-313" visible="true" lat="43.11006546" lon="-72.88511657">
    <tag k="addr:city" v="Stratton"/>
    <tag k="addr:housenumber" v="92"/>
    <tag k="addr:street" v="North Road"/>
    <tag k="addr:state" v="VT"/>
    <tag k="ref:vcgi:esiteid" v="253002"/>
  </node>
  <node id="-333" visible="true" lat="43.10875701" lon="-72.88096618">
    <tag k="addr:city" v="Stratton"/>
    <tag k="addr:housenumber" v="19"/>
    <tag k="addr:street" v="Dini Lane"/>
    <tag k="addr:state" v="VT"/>
    <tag k="ref:vcgi:esiteid" v="253022"/>
  </node>
  <node id="-336" visible="true" lat="43.10839483" lon="-72.87697371">
    <tag k="addr:city" v="Stratton"/>
    <tag k="addr:housenumber" v="143"/>
    <tag k="addr:street" v="Brazers Way"/>
    <tag k="addr:state" v="VT"/>
    <tag k="ref:vcgi:esiteid" v="253025"/>
  </node>
  <node id="-342" visible="true" lat="43.10484911" lon="-72.87529318">
    <tag k="addr:city" v="Stratton"/>
    <tag k="addr:housenumber" v="39"/>
    <tag k="addr:street" v="Acer Road"/>
    <tag k="addr:state" v="VT"/>
    <tag k="ref:vcgi:esiteid" v="253031"/>
  </node>
  <node id="-344" visible="true" lat="43.10402198" lon="-72.87386166">
    <tag k="addr:city" v="Stratton"/>
    <tag k="addr:housenumber" v="20"/>
    <tag k="addr:street" v="County Road"/>
    <tag k="addr:state" v="VT"/>
    <tag k="ref:vcgi:esiteid" v="253033"/>
  </node>
  <node id="-346" visible="true" lat="43.10229873" lon="-72.87406921">
    <tag k="addr:city" v="Stratton"/>
    <tag k="addr:housenumber" v="82"/>
    <tag k="addr:street" v="Acer Road"/>
    <tag k="addr:state" v="VT"/>
    <tag k="ref:vcgi:esiteid" v="253035"/>
  </node>
  <node id="-347" visible="true" lat="43.10223226" lon="-72.87287451">
    <tag k="addr:city" v="Stratton"/>
    <tag k="addr:housenumber" v="46"/>
    <tag k="addr:street" v="County Road"/>
    <tag k="addr:state" v="VT"/>
    <tag k="ref:vcgi:esiteid" v="253036"/>
  </node>
  <node id="-348" visible="true" lat="43.10099411" lon="-72.87252807">
    <tag k="addr:city" v="Stratton"/>
    <tag k="addr:housenumber" v="66"/>
    <tag k="addr:street" v="County Road"/>
    <tag k="addr:state" v="VT"/>
    <tag k="ref:vcgi:esiteid" v="253037"/>
  </node>
  <node id="-349" visible="true" lat="43.0980343" lon="-72.88713737">
    <tag k="addr:city" v="Stratton"/>
    <tag k="addr:housenumber" v="41"/>
    <tag k="addr:street" v="Sun Bowl Road"/>
    <tag k="addr:state" v="VT"/>
    <tag k="ref:vcgi:esiteid" v="253038"/>
  </node>
  <node id="-350" visible="true" lat="43.09762573" lon="-72.89003753">
    <tag k="addr:city" v="Stratton"/>
    <tag k="addr:housenumber" v="60"/>
    <tag k="addr:street" v="Sun Bowl Road"/>
    <tag k="addr:state" v="VT"/>
    <tag k="ref:vcgi:esiteid" v="253039"/>
  </node>
  <node id="-351" visible="true" lat="43.09489378" lon="-72.8752633">
    <tag k="addr:city" v="Stratton"/>
    <tag k="addr:housenumber" v="167"/>
    <tag k="addr:street" v="County Road"/>
    <tag k="addr:state" v="VT"/>
    <tag k="ref:vcgi:esiteid" v="253040"/>
  </node>
  <node id="-352" visible="true" lat="43.08139317" lon="-72.87180757">
    <tag k="addr:city" v="Stratton"/>
    <tag k="addr:housenumber" v="31"/>
    <tag k="addr:street" v="Pleasant Valley Road"/>
    <tag k="addr:state" v="VT"/>
    <tag k="ref:vcgi:esiteid" v="253041"/>
  </node>
  <node id="-354" visible="true" lat="43.07614135" lon="-72.87680053">
    <tag k="addr:city" v="Stratton"/>
    <tag k="addr:housenumber" v="507"/>
    <tag k="addr:street" v="Mountain Road"/>
    <tag k="addr:state" v="VT"/>
    <tag k="ref:vcgi:esiteid" v="253044"/>
  </node>
  <node id="-355" visible="true" lat="43.07197208" lon="-72.87207672">
    <tag k="addr:city" v="Stratton"/>
    <tag k="addr:housenumber" v="124"/>
    <tag k="addr:street" v="Forrester Road"/>
    <tag k="addr:state" v="VT"/>
    <tag k="ref:vcgi:esiteid" v="253045"/>
  </node>
  <node id="-356" visible="true" lat="43.06620954" lon="-72.88988859">
    <tag k="addr:city" v="Stratton"/>
    <tag k="addr:housenumber" v="104"/>
    <tag k="addr:street" v="Bear Creek Road"/>
    <tag k="addr:state" v="VT"/>
    <tag k="ref:vcgi:esiteid" v="253046"/>
  </node>
  <node id="-358" visible="true" lat="43.05971592" lon="-72.90149727">
    <tag k="addr:city" v="Stratton"/>
    <tag k="addr:housenumber" v="54"/>
    <tag k="addr:street" v="Shepardson Road"/>
    <tag k="addr:state" v="VT"/>
    <tag k="ref:vcgi:esiteid" v="253049"/>
  </node>
  <node id="-359" visible="true" lat="43.05950142" lon="-72.90243411">
    <tag k="addr:city" v="Stratton"/>
    <tag k="addr:housenumber" v="55"/>
    <tag k="addr:street" v="Shepardson Road"/>
    <tag k="addr:state" v="VT"/>
    <tag k="ref:vcgi:esiteid" v="253050"/>
  </node>
  <node id="-361" visible="true" lat="43.05881293" lon="-72.9014839">
    <tag k="addr:city" v="Stratton"/>
    <tag k="addr:housenumber" v="43"/>
    <tag k="addr:street" v="Shepardson Road"/>
    <tag k="addr:state" v="VT"/>
    <tag k="ref:vcgi:esiteid" v="253052"/>
  </node>
  <node id="-362" visible="true" lat="43.05834579" lon="-72.90095519">
    <tag k="addr:city" v="Stratton"/>
    <tag k="addr:housenumber" v="37"/>
    <tag k="addr:street" v="Shepardson Road"/>
    <tag k="addr:state" v="VT"/>
    <tag k="ref:vcgi:esiteid" v="253053"/>
  </node>
  <node id="-363" visible="true" lat="43.05731064" lon="-72.93630016">
    <tag k="addr:city" v="Stratton"/>
    <tag k="addr:housenumber" v="1004"/>
    <tag k="addr:street" v="Stratton Arlington Road"/>
    <tag k="addr:state" v="VT"/>
    <tag k="ref:vcgi:esiteid" v="253054"/>
  </node>
  <node id="-364" visible="true" lat="43.05780792" lon="-72.90244293">
    <tag k="addr:city" v="Stratton"/>
    <tag k="addr:housenumber" v="21"/>
    <tag k="addr:street" v="Shepardson Road"/>
    <tag k="addr:state" v="VT"/>
    <tag k="ref:vcgi:esiteid" v="253055"/>
  </node>
  <node id="-365" visible="true" lat="43.05734634" lon="-72.89890289">
    <tag k="addr:city" v="Stratton"/>
    <tag k="addr:housenumber" v="14"/>
    <tag k="addr:street" v="Shepardson Road"/>
    <tag k="addr:state" v="VT"/>
    <tag k="ref:vcgi:esiteid" v="253056"/>
  </node>
  <node id="-366" visible="true" lat="43.05723571" lon="-72.8993988">
    <tag k="addr:city" v="Stratton"/>
    <tag k="addr:housenumber" v="17"/>
    <tag k="addr:street" v="Shepardson Road"/>
    <tag k="addr:state" v="VT"/>
    <tag k="ref:vcgi:esiteid" v="253057"/>
  </node>
  <node id="-367" visible="true" lat="43.05706024" lon="-72.90029144">
    <tag k="addr:city" v="Stratton"/>
    <tag k="addr:housenumber" v="19"/>
    <tag k="addr:street" v="Shepardson Road"/>
    <tag k="addr:state" v="VT"/>
    <tag k="ref:vcgi:esiteid" v="253058"/>
  </node>
  <node id="-368" visible="true" lat="43.0567398" lon="-72.89850616">
    <tag k="addr:city" v="Stratton"/>
    <tag k="addr:housenumber" v="247"/>
    <tag k="addr:street" v="West Jamaica Road"/>
    <tag k="addr:state" v="VT"/>
    <tag k="ref:vcgi:esiteid" v="253059"/>
  </node>
  <node id="-369" visible="true" lat="43.05662155" lon="-72.89652252">
    <tag k="addr:city" v="Stratton"/>
    <tag k="addr:housenumber" v="270"/>
    <tag k="addr:street" v="West Jamaica Road"/>
    <tag k="addr:state" v="VT"/>
    <tag k="ref:vcgi:esiteid" v="253060"/>
  </node>
  <node id="-370" visible="true" lat="43.05644009" lon="-72.89798345">
    <tag k="addr:city" v="Stratton"/>
    <tag k="addr:housenumber" v="258"/>
    <tag k="addr:street" v="West Jamaica Road"/>
    <tag k="addr:state" v="VT"/>
    <tag k="ref:vcgi:esiteid" v="253061"/>
  </node>
  <node id="-371" visible="true" lat="43.05624008" lon="-72.89957428">
    <tag k="addr:city" v="Stratton"/>
    <tag k="addr:housenumber" v="227"/>
    <tag k="addr:street" v="West Jamaica Road"/>
    <tag k="addr:state" v="VT"/>
    <tag k="ref:vcgi:esiteid" v="253063"/>
  </node>
  <node id="-372" visible="true" lat="43.0559082" lon="-72.93389892">
    <tag k="addr:city" v="Stratton"/>
    <tag k="addr:housenumber" v="996"/>
    <tag k="addr:street" v="Stratton Arlington Road"/>
    <tag k="addr:state" v="VT"/>
    <tag k="ref:vcgi:esiteid" v="253064"/>
  </node>
  <node id="-373" visible="true" lat="43.05591964" lon="-72.89524841">
    <tag k="addr:city" v="Stratton"/>
    <tag k="addr:housenumber" v="286"/>
    <tag k="addr:street" v="West Jamaica Road"/>
    <tag k="addr:state" v="VT"/>
    <tag k="ref:vcgi:esiteid" v="253065"/>
  </node>
  <node id="-375" visible="true" lat="43.05559286" lon="-72.89409982">
    <tag k="addr:city" v="Stratton"/>
    <tag k="addr:housenumber" v="295"/>
    <tag k="addr:street" v="West Jamaica Road"/>
    <tag k="addr:state" v="VT"/>
    <tag k="ref:vcgi:esiteid" v="253067"/>
  </node>
  <node id="-377" visible="true" lat="43.05466461" lon="-72.89438629">
    <tag k="addr:city" v="Stratton"/>
    <tag k="addr:housenumber" v="304"/>
    <tag k="addr:street" v="West Jamaica Road"/>
    <tag k="addr:state" v="VT"/>
    <tag k="ref:vcgi:esiteid" v="253069"/>
  </node>
  <node id="-378" visible="true" lat="43.05440902" lon="-72.8926773">
    <tag k="addr:city" v="Stratton"/>
    <tag k="addr:housenumber" v="315"/>
    <tag k="addr:street" v="West Jamaica Road"/>
    <tag k="addr:state" v="VT"/>
    <tag k="ref:vcgi:esiteid" v="253070"/>
  </node>
  <node id="-379" visible="true" lat="43.05426788" lon="-72.89344024">
    <tag k="addr:city" v="Stratton"/>
    <tag k="addr:housenumber" v="310"/>
    <tag k="addr:street" v="West Jamaica Road"/>
    <tag k="addr:state" v="VT"/>
    <tag k="ref:vcgi:esiteid" v="253071"/>
  </node>
  <node id="-380" visible="true" lat="43.05377207" lon="-72.89321616">
    <tag k="addr:city" v="Stratton"/>
    <tag k="addr:housenumber" v="312"/>
    <tag k="addr:street" v="West Jamaica Road"/>
    <tag k="addr:state" v="VT"/>
    <tag k="ref:vcgi:esiteid" v="253072"/>
  </node>
  <node id="-381" visible="true" lat="43.05335164" lon="-72.89345984">
    <tag k="addr:city" v="Stratton"/>
    <tag k="addr:housenumber" v="308"/>
    <tag k="addr:street" v="West Jamaica Road"/>
    <tag k="addr:state" v="VT"/>
    <tag k="ref:vcgi:esiteid" v="253074"/>
  </node>
  <node id="-385" visible="true" lat="43.05211639" lon="-72.90270996">
    <tag k="addr:city" v="Stratton"/>
    <tag k="addr:housenumber" v="173"/>
    <tag k="addr:street" v="West Jamaica Road"/>
    <tag k="addr:state" v="VT"/>
    <tag k="ref:vcgi:esiteid" v="253078"/>
  </node>
  <node id="-386" visible="true" lat="43.05184036" lon="-72.89029922">
    <tag k="addr:city" v="Stratton"/>
    <tag k="addr:housenumber" v="20"/>
    <tag k="addr:street" v="Canedy Road"/>
    <tag k="addr:state" v="VT"/>
    <tag k="ref:vcgi:esiteid" v="253079"/>
  </node>
  <node id="-387" visible="true" lat="43.05228481" lon="-72.90579849">
    <tag k="addr:city" v="Stratton"/>
    <tag k="addr:housenumber" v="40"/>
    <tag k="addr:street" v="Old Town Road"/>
    <tag k="addr:state" v="VT"/>
    <tag k="ref:vcgi:esiteid" v="253080"/>
  </node>
  <node id="-388" visible="true" lat="43.05097757" lon="-72.88912488">
    <tag k="addr:city" v="Stratton"/>
    <tag k="addr:housenumber" v="28"/>
    <tag k="addr:street" v="Canedy Road"/>
    <tag k="addr:state" v="VT"/>
    <tag k="ref:vcgi:esiteid" v="253081"/>
  </node>
  <node id="-389" visible="true" lat="43.05018169" lon="-72.89856731">
    <tag k="addr:city" v="Stratton"/>
    <tag k="addr:housenumber" v="36"/>
    <tag k="addr:street" v="Ball Farm Road"/>
    <tag k="addr:state" v="VT"/>
    <tag k="ref:vcgi:esiteid" v="253082"/>
  </node>
  <node id="-390" visible="true" lat="43.04985046" lon="-72.88793945">
    <tag k="addr:city" v="Stratton"/>
    <tag k="addr:housenumber" v="56"/>
    <tag k="addr:street" v="Canedy Road"/>
    <tag k="addr:state" v="VT"/>
    <tag k="ref:vcgi:esiteid" v="253083"/>
  </node>
  <node id="-391" visible="true" lat="43.04938125" lon="-72.92298126">
    <tag k="addr:city" v="Stratton"/>
    <tag k="addr:housenumber" v="848"/>
    <tag k="addr:street" v="Stratton Arlington Road"/>
    <tag k="addr:state" v="VT"/>
    <tag k="ref:vcgi:esiteid" v="253084"/>
  </node>
  <node id="-393" visible="true" lat="43.0489331" lon="-72.90087973">
    <tag k="addr:city" v="Stratton"/>
    <tag k="addr:housenumber" v="130"/>
    <tag k="addr:street" v="West Jamaica Road"/>
    <tag k="addr:state" v="VT"/>
    <tag k="ref:vcgi:esiteid" v="253086"/>
  </node>
  <node id="-394" visible="true" lat="43.04861348" lon="-72.92105808">
    <tag k="addr:city" v="Stratton"/>
    <tag k="addr:housenumber" v="824"/>
    <tag k="addr:street" v="Stratton Arlington Road"/>
    <tag k="addr:state" v="VT"/>
    <tag k="ref:vcgi:esiteid" v="253087"/>
  </node>
  <node id="-395" visible="true" lat="43.0484227" lon="-72.88613928">
    <tag k="addr:city" v="Stratton"/>
    <tag k="addr:housenumber" v="82"/>
    <tag k="addr:street" v="Canedy Road"/>
    <tag k="addr:state" v="VT"/>
    <tag k="ref:vcgi:esiteid" v="253088"/>
  </node>
  <node id="-396" visible="true" lat="43.04817576" lon="-72.88226116">
    <tag k="addr:city" v="Stratton"/>
    <tag k="addr:housenumber" v="107"/>
    <tag k="addr:street" v="Canedy Road"/>
    <tag k="addr:state" v="VT"/>
    <tag k="ref:vcgi:esiteid" v="253089"/>
  </node>
  <node id="-397" visible="true" lat="43.04785156" lon="-72.91944885">
    <tag k="addr:city" v="Stratton"/>
    <tag k="addr:housenumber" v="804"/>
    <tag k="addr:street" v="Stratton Arlington Road"/>
    <tag k="addr:state" v="VT"/>
    <tag k="ref:vcgi:esiteid" v="253090"/>
  </node>
  <node id="-398" visible="true" lat="43.04742431" lon="-72.91883087">
    <tag k="addr:city" v="Stratton"/>
    <tag k="addr:housenumber" v="800"/>
    <tag k="addr:street" v="Stratton Arlington Road"/>
    <tag k="addr:state" v="VT"/>
    <tag k="ref:vcgi:esiteid" v="253091"/>
  </node>
  <node id="-399" visible="true" lat="43.04716873" lon="-72.91665649">
    <tag k="addr:city" v="Stratton"/>
    <tag k="addr:housenumber" v="12"/>
    <tag k="addr:street" v="Plimpton Road"/>
    <tag k="addr:state" v="VT"/>
    <tag k="ref:vcgi:esiteid" v="253092"/>
  </node>
  <node id="-400" visible="true" lat="43.04708862" lon="-72.91768646">
    <tag k="addr:city" v="Stratton"/>
    <tag k="addr:housenumber" v="788"/>
    <tag k="addr:street" v="Stratton Arlington Road"/>
    <tag k="addr:state" v="VT"/>
    <tag k="ref:vcgi:esiteid" v="253093"/>
  </node>
  <node id="-401" visible="true" lat="43.04688262" lon="-72.91721344">
    <tag k="addr:city" v="Stratton"/>
    <tag k="addr:housenumber" v="5"/>
    <tag k="addr:street" v="Plimpton Road"/>
    <tag k="addr:state" v="VT"/>
    <tag k="ref:vcgi:esiteid" v="253094"/>
  </node>
  <node id="-402" visible="true" lat="43.04622846" lon="-72.88366368">
    <tag k="addr:city" v="Stratton"/>
    <tag k="addr:housenumber" v="120"/>
    <tag k="addr:street" v="Canedy Road"/>
    <tag k="addr:state" v="VT"/>
    <tag k="ref:vcgi:esiteid" v="253095"/>
  </node>
  <node id="-403" visible="true" lat="43.04634857" lon="-72.91627502">
    <tag k="addr:city" v="Stratton"/>
    <tag k="addr:housenumber" v="774"/>
    <tag k="addr:street" v="Stratton Arlington Road"/>
    <tag k="addr:state" v="VT"/>
    <tag k="ref:vcgi:esiteid" v="253096"/>
  </node>
  <node id="-404" visible="true" lat="43.04629898" lon="-72.91724395">
    <tag k="addr:city" v="Stratton"/>
    <tag k="addr:housenumber" v="777"/>
    <tag k="addr:street" v="Stratton Arlington Road"/>
    <tag k="addr:state" v="VT"/>
    <tag k="ref:vcgi:esiteid" v="253097"/>
  </node>
  <node id="-405" visible="true" lat="43.04581069" lon="-72.91665649">
    <tag k="addr:city" v="Stratton"/>
    <tag k="addr:housenumber" v="765"/>
    <tag k="addr:street" v="Stratton Arlington Road"/>
    <tag k="addr:state" v="VT"/>
    <tag k="ref:vcgi:esiteid" v="253098"/>
  </node>
  <node id="-406" visible="true" lat="43.04563522" lon="-72.9534912">
    <tag k="addr:city" v="Stratton"/>
    <tag k="addr:housenumber" v="207"/>
    <tag k="addr:street" v="Grout Pond Road"/>
    <tag k="addr:state" v="VT"/>
    <tag k="ref:vcgi:esiteid" v="253099"/>
  </node>
  <node id="-407" visible="true" lat="43.04568862" lon="-72.91519165">
    <tag k="addr:city" v="Stratton"/>
    <tag k="addr:housenumber" v="758"/>
    <tag k="addr:street" v="Stratton Arlington Road"/>
    <tag k="addr:state" v="VT"/>
    <tag k="ref:vcgi:esiteid" v="253100"/>
  </node>
  <node id="-408" visible="true" lat="43.04558563" lon="-72.91609954">
    <tag k="addr:city" v="Stratton"/>
    <tag k="addr:housenumber" v="761"/>
    <tag k="addr:street" v="Stratton Arlington Road"/>
    <tag k="addr:state" v="VT"/>
    <tag k="ref:vcgi:esiteid" v="253101"/>
  </node>
  <node id="-409" visible="true" lat="43.04500961" lon="-72.91509246">
    <tag k="addr:city" v="Stratton"/>
    <tag k="addr:housenumber" v="749"/>
    <tag k="addr:street" v="Stratton Arlington Road"/>
    <tag k="addr:state" v="VT"/>
    <tag k="ref:vcgi:esiteid" v="253102"/>
  </node>
  <node id="-410" visible="true" lat="43.04495842" lon="-72.91273306">
    <tag k="addr:city" v="Stratton"/>
    <tag k="addr:housenumber" v="730"/>
    <tag k="addr:street" v="Stratton Arlington Road"/>
    <tag k="addr:state" v="VT"/>
    <tag k="ref:vcgi:esiteid" v="253103"/>
  </node>
  <node id="-411" visible="true" lat="43.04480108" lon="-72.90290924">
    <tag k="addr:city" v="Stratton"/>
    <tag k="addr:housenumber" v="62"/>
    <tag k="addr:street" v="West Jamaica Road"/>
    <tag k="addr:state" v="VT"/>
    <tag k="ref:vcgi:esiteid" v="253104"/>
  </node>
  <node id="-412" visible="true" lat="43.04475587" lon="-72.91360747">
    <tag k="addr:city" v="Stratton"/>
    <tag k="addr:housenumber" v="733"/>
    <tag k="addr:street" v="Stratton Arlington Road"/>
    <tag k="addr:state" v="VT"/>
    <tag k="ref:vcgi:esiteid" v="253105"/>
  </node>
  <node id="-413" visible="true" lat="43.0442146" lon="-72.87856564">
    <tag k="addr:city" v="Stratton"/>
    <tag k="addr:housenumber" v="183"/>
    <tag k="addr:street" v="Canedy Road"/>
    <tag k="addr:state" v="VT"/>
    <tag k="ref:vcgi:esiteid" v="253107"/>
  </node>
  <node id="-414" visible="true" lat="43.0438712" lon="-72.91196589">
    <tag k="addr:city" v="Stratton"/>
    <tag k="addr:housenumber" v="713"/>
    <tag k="addr:street" v="Stratton Arlington Road"/>
    <tag k="addr:state" v="VT"/>
    <tag k="ref:vcgi:esiteid" v="253108"/>
  </node>
  <node id="-415" visible="true" lat="43.04363772" lon="-72.91057639">
    <tag k="addr:city" v="Stratton"/>
    <tag k="addr:housenumber" v="702"/>
    <tag k="addr:street" v="Stratton Arlington Road"/>
    <tag k="addr:state" v="VT"/>
    <tag k="ref:vcgi:esiteid" v="253109"/>
  </node>
  <node id="-416" visible="true" lat="43.04319" lon="-72.90897369">
    <tag k="addr:city" v="Stratton"/>
    <tag k="addr:housenumber" v="9"/>
    <tag k="addr:street" v="West Jamaica Road"/>
    <tag k="addr:state" v="VT"/>
    <tag k="ref:vcgi:esiteid" v="253110"/>
  </node>
  <node id="-417" visible="true" lat="43.042984" lon="-72.9094696">
    <tag k="addr:city" v="Stratton"/>
    <tag k="addr:housenumber" v="688"/>
    <tag k="addr:street" v="Stratton Arlington Road"/>
    <tag k="addr:state" v="VT"/>
    <tag k="ref:vcgi:esiteid" v="253111"/>
  </node>
  <node id="-418" visible="true" lat="43.04272079" lon="-72.90917968">
    <tag k="addr:city" v="Stratton"/>
    <tag k="addr:housenumber" v="684"/>
    <tag k="addr:street" v="Stratton Arlington Road"/>
    <tag k="addr:state" v="VT"/>
    <tag k="ref:vcgi:esiteid" v="253112"/>
  </node>
  <node id="-419" visible="true" lat="43.04261398" lon="-72.90983581">
    <tag k="addr:city" v="Stratton"/>
    <tag k="addr:housenumber" v="685"/>
    <tag k="addr:street" v="Stratton Arlington Road"/>
    <tag k="addr:state" v="VT"/>
    <tag k="ref:vcgi:esiteid" v="253113"/>
  </node>
  <node id="-420" visible="true" lat="43.04249522" lon="-72.90891548">
    <tag k="addr:city" v="Stratton"/>
    <tag k="addr:housenumber" v="680"/>
    <tag k="addr:street" v="Stratton Arlington Road"/>
    <tag k="addr:state" v="VT"/>
    <tag k="ref:vcgi:esiteid" v="253114"/>
  </node>
  <node id="-421" visible="true" lat="43.04168701" lon="-72.90859222">
    <tag k="addr:city" v="Stratton"/>
    <tag k="addr:housenumber" v="669"/>
    <tag k="addr:street" v="Stratton Arlington Road"/>
    <tag k="addr:state" v="VT"/>
    <tag k="ref:vcgi:esiteid" v="253115"/>
  </node>
  <node id="-422" visible="true" lat="43.0415039" lon="-72.9082489">
    <tag k="addr:city" v="Stratton"/>
    <tag k="addr:housenumber" v="663"/>
    <tag k="addr:street" v="Stratton Arlington Road"/>
    <tag k="addr:state" v="VT"/>
    <tag k="ref:vcgi:esiteid" v="253116"/>
  </node>
  <node id="-424" visible="true" lat="43.04117705" lon="-72.90764551">
    <tag k="addr:city" v="Stratton"/>
    <tag k="addr:housenumber" v="653"/>
    <tag k="addr:street" v="Stratton Arlington Road"/>
    <tag k="addr:state" v="VT"/>
    <tag k="ref:vcgi:esiteid" v="253118"/>
  </node>
  <node id="-425" visible="true" lat="43.04057753" lon="-72.90644134">
    <tag k="addr:city" v="Stratton"/>
    <tag k="addr:housenumber" v="645"/>
    <tag k="addr:street" v="Stratton Arlington Road"/>
    <tag k="addr:state" v="VT"/>
    <tag k="ref:vcgi:esiteid" v="253119"/>
  </node>
  <node id="-427" visible="true" lat="43.04038238" lon="-72.90575408">
    <tag k="addr:city" v="Stratton"/>
    <tag k="addr:housenumber" v="635"/>
    <tag k="addr:street" v="Stratton Arlington Road"/>
    <tag k="addr:state" v="VT"/>
    <tag k="ref:vcgi:esiteid" v="253121"/>
  </node>
  <node id="-428" visible="true" lat="43.03999328" lon="-72.90416717">
    <tag k="addr:city" v="Stratton"/>
    <tag k="addr:housenumber" v="618"/>
    <tag k="addr:street" v="Stratton Arlington Road"/>
    <tag k="addr:state" v="VT"/>
    <tag k="ref:vcgi:esiteid" v="253122"/>
  </node>
  <node id="-429" visible="true" lat="43.03971556" lon="-72.89981823">
    <tag k="addr:city" v="Stratton"/>
    <tag k="addr:housenumber" v="582"/>
    <tag k="addr:street" v="Stratton Arlington Road"/>
    <tag k="addr:state" v="VT"/>
    <tag k="ref:vcgi:esiteid" v="253123"/>
  </node>
  <node id="-430" visible="true" lat="43.03848362" lon="-72.89458346">
    <tag k="addr:city" v="Stratton"/>
    <tag k="addr:housenumber" v="38"/>
    <tag k="addr:street" v="Manicknung Lane"/>
    <tag k="addr:state" v="VT"/>
    <tag k="ref:vcgi:esiteid" v="253125"/>
  </node>
  <node id="-431" visible="true" lat="43.03830279" lon="-72.89821048">
    <tag k="addr:city" v="Stratton"/>
    <tag k="addr:housenumber" v="550"/>
    <tag k="addr:street" v="Stratton Arlington Road"/>
    <tag k="addr:state" v="VT"/>
    <tag k="ref:vcgi:esiteid" v="253126"/>
  </node>
  <node id="-432" visible="true" lat="43.03748252" lon="-72.89382341">
    <tag k="addr:city" v="Stratton"/>
    <tag k="addr:housenumber" v="36"/>
    <tag k="addr:street" v="Manicknung Lane"/>
    <tag k="addr:state" v="VT"/>
    <tag k="ref:vcgi:esiteid" v="253127"/>
  </node>
  <node id="-433" visible="true" lat="43.03757869" lon="-72.89756964">
    <tag k="addr:city" v="Stratton"/>
    <tag k="addr:housenumber" v="540"/>
    <tag k="addr:street" v="Stratton Arlington Road"/>
    <tag k="addr:state" v="VT"/>
    <tag k="ref:vcgi:esiteid" v="253128"/>
  </node>
  <node id="-434" visible="true" lat="43.03797905" lon="-72.89926485">
    <tag k="addr:city" v="Stratton"/>
    <tag k="addr:housenumber" v="556"/>
    <tag k="addr:street" v="Stratton Arlington Road"/>
    <tag k="addr:state" v="VT"/>
    <tag k="ref:vcgi:esiteid" v="253129"/>
  </node>
  <node id="-435" visible="true" lat="43.03739792" lon="-72.87694552">
    <tag k="addr:city" v="Stratton"/>
    <tag k="addr:housenumber" v="115"/>
    <tag k="addr:street" v="Leon Stocker Drive"/>
    <tag k="addr:state" v="VT"/>
    <tag k="ref:vcgi:esiteid" v="253131"/>
  </node>
  <node id="-436" visible="true" lat="43.03696554" lon="-72.89846704">
    <tag k="addr:city" v="Stratton"/>
    <tag k="addr:housenumber" v="543"/>
    <tag k="addr:street" v="Stratton Arlington Road"/>
    <tag k="addr:state" v="VT"/>
    <tag k="ref:vcgi:esiteid" v="253132"/>
  </node>
  <node id="-437" visible="true" lat="43.03615738" lon="-72.87477318">
    <tag k="addr:city" v="Stratton"/>
    <tag k="addr:housenumber" v="127"/>
    <tag k="addr:street" v="Leon Stocker Drive"/>
    <tag k="addr:state" v="VT"/>
    <tag k="ref:vcgi:esiteid" v="253133"/>
  </node>
  <node id="-438" visible="true" lat="43.03520356" lon="-72.89297847">
    <tag k="addr:city" v="Stratton"/>
    <tag k="addr:housenumber" v="24"/>
    <tag k="addr:street" v="Tudo Road"/>
    <tag k="addr:state" v="VT"/>
    <tag k="ref:vcgi:esiteid" v="253134"/>
  </node>
  <node id="-439" visible="true" lat="43.03515782" lon="-72.89644731">
    <tag k="addr:city" v="Stratton"/>
    <tag k="addr:housenumber" v="517"/>
    <tag k="addr:street" v="Stratton Arlington Road"/>
    <tag k="addr:state" v="VT"/>
    <tag k="ref:vcgi:esiteid" v="253135"/>
  </node>
  <node id="-440" visible="true" lat="43.03496524" lon="-72.87412088">
    <tag k="addr:city" v="Stratton"/>
    <tag k="addr:housenumber" v="153"/>
    <tag k="addr:street" v="Leon Stocker Drive"/>
    <tag k="addr:state" v="VT"/>
    <tag k="ref:vcgi:esiteid" v="253136"/>
  </node>
  <node id="-441" visible="true" lat="43.03475952" lon="-72.89974975">
    <tag k="addr:city" v="Stratton"/>
    <tag k="addr:housenumber" v="39"/>
    <tag k="addr:street" v="Old Forrester Road"/>
    <tag k="addr:state" v="VT"/>
    <tag k="ref:vcgi:esiteid" v="253137"/>
  </node>
  <node id="-442" visible="true" lat="43.03460823" lon="-72.89457561">
    <tag k="addr:city" v="Stratton"/>
    <tag k="addr:housenumber" v="498"/>
    <tag k="addr:street" v="Stratton Arlington Road"/>
    <tag k="addr:state" v="VT"/>
    <tag k="ref:vcgi:esiteid" v="253138"/>
  </node>
  <node id="-443" visible="true" lat="43.03431953" lon="-72.89605145">
    <tag k="addr:city" v="Stratton"/>
    <tag k="addr:housenumber" v="505"/>
    <tag k="addr:street" v="Stratton Arlington Road"/>
    <tag k="addr:state" v="VT"/>
    <tag k="ref:vcgi:esiteid" v="253139"/>
  </node>
  <node id="-444" visible="true" lat="43.03403854" lon="-72.8998413">
    <tag k="addr:city" v="Stratton"/>
    <tag k="addr:housenumber" v="49"/>
    <tag k="addr:street" v="Old Forrester Road"/>
    <tag k="addr:state" v="VT"/>
    <tag k="ref:vcgi:esiteid" v="253140"/>
  </node>
  <node id="-445" visible="true" lat="43.03394029" lon="-72.88923599">
    <tag k="addr:city" v="Stratton"/>
    <tag k="addr:housenumber" v="54"/>
    <tag k="addr:street" v="Knowlton Farm Road"/>
    <tag k="addr:state" v="VT"/>
    <tag k="ref:vcgi:esiteid" v="253141"/>
  </node>
  <node id="-446" visible="true" lat="43.03388255" lon="-72.87415395">
    <tag k="addr:city" v="Stratton"/>
    <tag k="addr:housenumber" v="165"/>
    <tag k="addr:street" v="Leon Stocker Drive"/>
    <tag k="addr:state" v="VT"/>
    <tag k="ref:vcgi:esiteid" v="253142"/>
  </node>
  <node id="-447" visible="true" lat="43.03387146" lon="-72.88644028">
    <tag k="addr:city" v="Stratton"/>
    <tag k="addr:housenumber" v="46"/>
    <tag k="addr:street" v="Knowlton Farm Road"/>
    <tag k="addr:state" v="VT"/>
    <tag k="ref:vcgi:esiteid" v="253143"/>
  </node>
  <node id="-448" visible="true" lat="43.033638" lon="-72.90032959">
    <tag k="addr:city" v="Stratton"/>
    <tag k="addr:housenumber" v="57"/>
    <tag k="addr:street" v="Old Forrester Road"/>
    <tag k="addr:state" v="VT"/>
    <tag k="ref:vcgi:esiteid" v="253144"/>
  </node>
  <node id="-449" visible="true" lat="43.03398459" lon="-72.89175795">
    <tag k="addr:city" v="Stratton"/>
    <tag k="addr:housenumber" v="470"/>
    <tag k="addr:street" v="Stratton Arlington Road"/>
    <tag k="addr:state" v="VT"/>
    <tag k="ref:vcgi:esiteid" v="253145"/>
  </node>
  <node id="-450" visible="true" lat="43.03357666" lon="-72.8784224">
    <tag k="addr:city" v="Stratton"/>
    <tag k="addr:housenumber" v="18"/>
    <tag k="addr:street" v="Leon Stocker Drive"/>
    <tag k="addr:state" v="VT"/>
    <tag k="ref:vcgi:esiteid" v="253146"/>
  </node>
  <node id="-451" visible="true" lat="43.03384779" lon="-72.87967025">
    <tag k="addr:city" v="Stratton"/>
    <tag k="addr:housenumber" v="35"/>
    <tag k="addr:street" v="Leon Stocker Drive"/>
    <tag k="addr:state" v="VT"/>
    <tag k="ref:vcgi:esiteid" v="253147"/>
  </node>
  <node id="-452" visible="true" lat="43.03327964" lon="-72.87453981">
    <tag k="addr:city" v="Stratton"/>
    <tag k="addr:housenumber" v="167"/>
    <tag k="addr:street" v="Leon Stocker Drive"/>
    <tag k="addr:state" v="VT"/>
    <tag k="ref:vcgi:esiteid" v="253148"/>
  </node>
  <node id="-454" visible="true" lat="43.03267396" lon="-72.87691506">
    <tag k="addr:city" v="Stratton"/>
    <tag k="addr:housenumber" v="11"/>
    <tag k="addr:street" v="Leon Stocker Drive"/>
    <tag k="addr:state" v="VT"/>
    <tag k="ref:vcgi:esiteid" v="253150"/>
  </node>
  <node id="-455" visible="true" lat="43.03241348" lon="-72.90068054">
    <tag k="addr:city" v="Stratton"/>
    <tag k="addr:housenumber" v="71"/>
    <tag k="addr:street" v="Old Forrester Road"/>
    <tag k="addr:state" v="VT"/>
    <tag k="ref:vcgi:esiteid" v="253151"/>
  </node>
  <node id="-456" visible="true" lat="43.03217508" lon="-72.89104958">
    <tag k="addr:city" v="Stratton"/>
    <tag k="addr:housenumber" v="440"/>
    <tag k="addr:street" v="Stratton Arlington Road"/>
    <tag k="addr:state" v="VT"/>
    <tag k="ref:vcgi:esiteid" v="253152"/>
  </node>
  <node id="-457" visible="true" lat="43.03201831" lon="-72.89260595">
    <tag k="addr:city" v="Stratton"/>
    <tag k="addr:housenumber" v="6"/>
    <tag k="addr:street" v="Bills Road"/>
    <tag k="addr:state" v="VT"/>
    <tag k="ref:vcgi:esiteid" v="253153"/>
  </node>
  <node id="-458" visible="true" lat="43.03185701" lon="-72.87461185">
    <tag k="addr:city" v="Stratton"/>
    <tag k="addr:housenumber" v="150"/>
    <tag k="addr:street" v="Kerri Ann Lane"/>
    <tag k="addr:state" v="VT"/>
    <tag k="ref:vcgi:esiteid" v="253154"/>
  </node>
  <node id="-459" visible="true" lat="43.03160476" lon="-72.87602996">
    <tag k="addr:city" v="Stratton"/>
    <tag k="addr:housenumber" v="4"/>
    <tag k="addr:street" v="Jennifer Drive"/>
    <tag k="addr:state" v="VT"/>
    <tag k="ref:vcgi:esiteid" v="253155"/>
  </node>
  <node id="-460" visible="true" lat="43.03130246" lon="-72.89230246">
    <tag k="addr:city" v="Stratton"/>
    <tag k="addr:housenumber" v="15"/>
    <tag k="addr:street" v="Bills Road"/>
    <tag k="addr:state" v="VT"/>
    <tag k="ref:vcgi:esiteid" v="253156"/>
  </node>
  <node id="-461" visible="true" lat="43.0310522" lon="-72.87454449">
    <tag k="addr:city" v="Stratton"/>
    <tag k="addr:housenumber" v="143"/>
    <tag k="addr:street" v="Kerri Ann Lane"/>
    <tag k="addr:state" v="VT"/>
    <tag k="ref:vcgi:esiteid" v="253157"/>
  </node>
  <node id="-462" visible="true" lat="43.03093685" lon="-72.89412353">
    <tag k="addr:city" v="Stratton"/>
    <tag k="addr:housenumber" v="30"/>
    <tag k="addr:street" v="Bills Road"/>
    <tag k="addr:state" v="VT"/>
    <tag k="ref:vcgi:esiteid" v="253158"/>
  </node>
  <node id="-463" visible="true" lat="43.03075936" lon="-72.88923822">
    <tag k="addr:city" v="Stratton"/>
    <tag k="addr:housenumber" v="417"/>
    <tag k="addr:street" v="Stratton Arlington Road"/>
    <tag k="addr:state" v="VT"/>
    <tag k="ref:vcgi:esiteid" v="253159"/>
  </node>
  <node id="-464" visible="true" lat="43.03077255" lon="-72.87643458">
    <tag k="addr:city" v="Stratton"/>
    <tag k="addr:housenumber" v="16"/>
    <tag k="addr:street" v="Jennifer Drive"/>
    <tag k="addr:state" v="VT"/>
    <tag k="ref:vcgi:esiteid" v="253160"/>
  </node>
  <node id="-465" visible="true" lat="43.0304826" lon="-72.87542198">
    <tag k="addr:city" v="Stratton"/>
    <tag k="addr:housenumber" v="19"/>
    <tag k="addr:street" v="Jennifer Drive"/>
    <tag k="addr:state" v="VT"/>
    <tag k="ref:vcgi:esiteid" v="253161"/>
  </node>
  <node id="-466" visible="true" lat="43.02977371" lon="-72.88814544">
    <tag k="addr:city" v="Stratton"/>
    <tag k="addr:housenumber" v="399"/>
    <tag k="addr:street" v="Stratton Arlington Road"/>
    <tag k="addr:state" v="VT"/>
    <tag k="ref:vcgi:esiteid" v="253162"/>
  </node>
  <node id="-467" visible="true" lat="43.0296173" lon="-72.88584899">
    <tag k="addr:city" v="Stratton"/>
    <tag k="addr:housenumber" v="378"/>
    <tag k="addr:street" v="Stratton Arlington Road"/>
    <tag k="addr:state" v="VT"/>
    <tag k="ref:vcgi:esiteid" v="253163"/>
  </node>
  <node id="-468" visible="true" lat="43.02894936" lon="-72.88831078">
    <tag k="addr:city" v="Stratton"/>
    <tag k="addr:housenumber" v="14"/>
    <tag k="addr:street" v="Willis Cemetery Road"/>
    <tag k="addr:state" v="VT"/>
    <tag k="ref:vcgi:esiteid" v="253164"/>
  </node>
  <node id="-469" visible="true" lat="43.02864314" lon="-72.88740281">
    <tag k="addr:city" v="Stratton"/>
    <tag k="addr:housenumber" v="9"/>
    <tag k="addr:street" v="Willis Cemetery Road"/>
    <tag k="addr:state" v="VT"/>
    <tag k="ref:vcgi:esiteid" v="253165"/>
  </node>
  <node id="-470" visible="true" lat="43.02863751" lon="-72.88381173">
    <tag k="addr:city" v="Stratton"/>
    <tag k="addr:housenumber" v="356"/>
    <tag k="addr:street" v="Stratton Arlington Road"/>
    <tag k="addr:state" v="VT"/>
    <tag k="ref:vcgi:esiteid" v="253166"/>
  </node>
  <node id="-471" visible="true" lat="43.02863608" lon="-72.88583942">
    <tag k="addr:city" v="Stratton"/>
    <tag k="addr:housenumber" v="373"/>
    <tag k="addr:street" v="Stratton Arlington Road"/>
    <tag k="addr:state" v="VT"/>
    <tag k="ref:vcgi:esiteid" v="253167"/>
  </node>
  <node id="-472" visible="true" lat="43.02763748" lon="-72.88109588">
    <tag k="addr:city" v="Stratton"/>
    <tag k="addr:housenumber" v="329"/>
    <tag k="addr:street" v="Stratton Arlington Road"/>
    <tag k="addr:state" v="VT"/>
    <tag k="ref:vcgi:esiteid" v="253168"/>
  </node>
  <node id="-474" visible="true" lat="43.02749633" lon="-72.8800888">
    <tag k="addr:city" v="Stratton"/>
    <tag k="addr:housenumber" v="307"/>
    <tag k="addr:street" v="Stratton Arlington Road"/>
    <tag k="addr:state" v="VT"/>
    <tag k="ref:vcgi:esiteid" v="253170"/>
  </node>
  <node id="-475" visible="true" lat="43.02692177" lon="-72.88915429">
    <tag k="addr:city" v="Stratton"/>
    <tag k="addr:housenumber" v="44"/>
    <tag k="addr:street" v="Willis Cemetery Road"/>
    <tag k="addr:state" v="VT"/>
    <tag k="ref:vcgi:esiteid" v="253171"/>
  </node>
  <node id="-476" visible="true" lat="43.02679061" lon="-72.87919616">
    <tag k="addr:city" v="Stratton"/>
    <tag k="addr:housenumber" v="295"/>
    <tag k="addr:street" v="Stratton Arlington Road"/>
    <tag k="addr:state" v="VT"/>
    <tag k="ref:vcgi:esiteid" v="253172"/>
  </node>
  <node id="-477" visible="true" lat="43.02641683" lon="-72.88783357">
    <tag k="addr:city" v="Stratton"/>
    <tag k="addr:housenumber" v="53"/>
    <tag k="addr:street" v="Willis Cemetery Road"/>
    <tag k="addr:state" v="VT"/>
    <tag k="ref:vcgi:esiteid" v="253173"/>
  </node>
  <node id="-478" visible="true" lat="43.02633633" lon="-72.88945495">
    <tag k="addr:city" v="Stratton"/>
    <tag k="addr:housenumber" v="54"/>
    <tag k="addr:street" v="Willis Cemetery Road"/>
    <tag k="addr:state" v="VT"/>
    <tag k="ref:vcgi:esiteid" v="253174"/>
  </node>
  <node id="-479" visible="true" lat="43.02599334" lon="-72.87633514">
    <tag k="addr:city" v="Stratton"/>
    <tag k="addr:housenumber" v="264"/>
    <tag k="addr:street" v="Stratton Arlington Road"/>
    <tag k="addr:state" v="VT"/>
    <tag k="ref:vcgi:esiteid" v="253175"/>
  </node>
  <node id="-480" visible="true" lat="43.02596282" lon="-72.87787628">
    <tag k="addr:city" v="Stratton"/>
    <tag k="addr:housenumber" v="277"/>
    <tag k="addr:street" v="Stratton Arlington Road"/>
    <tag k="addr:state" v="VT"/>
    <tag k="ref:vcgi:esiteid" v="253176"/>
  </node>
  <node id="-481" visible="true" lat="43.0252037" lon="-72.87813568">
    <tag k="addr:city" v="Stratton"/>
    <tag k="addr:housenumber" v="6"/>
    <tag k="addr:street" v="Pike Hollow Road"/>
    <tag k="addr:state" v="VT"/>
    <tag k="ref:vcgi:esiteid" v="253177"/>
  </node>
  <node id="-482" visible="true" lat="43.02494012" lon="-72.8775886">
    <tag k="addr:city" v="Stratton"/>
    <tag k="addr:housenumber" v="15"/>
    <tag k="addr:street" v="Pike Hollow Road"/>
    <tag k="addr:state" v="VT"/>
    <tag k="ref:vcgi:esiteid" v="253178"/>
  </node>
  <node id="-483" visible="true" lat="43.02463965" lon="-72.89134829">
    <tag k="addr:city" v="Stratton"/>
    <tag k="addr:housenumber" v="122"/>
    <tag k="addr:street" v="Willis Cemetery Road"/>
    <tag k="addr:state" v="VT"/>
    <tag k="ref:vcgi:esiteid" v="253179"/>
  </node>
  <node id="-484" visible="true" lat="43.02465622" lon="-72.87836884">
    <tag k="addr:city" v="Stratton"/>
    <tag k="addr:housenumber" v="20"/>
    <tag k="addr:street" v="Pike Hollow Road"/>
    <tag k="addr:state" v="VT"/>
    <tag k="ref:vcgi:esiteid" v="253180"/>
  </node>
  <node id="-485" visible="true" lat="43.02419243" lon="-72.88970571">
    <tag k="addr:city" v="Stratton"/>
    <tag k="addr:housenumber" v="82"/>
    <tag k="addr:street" v="Willis Cemetery Road"/>
    <tag k="addr:state" v="VT"/>
    <tag k="ref:vcgi:esiteid" v="253181"/>
  </node>
  <node id="-486" visible="true" lat="43.02448968" lon="-72.89270913">
    <tag k="addr:city" v="Stratton"/>
    <tag k="addr:housenumber" v="134"/>
    <tag k="addr:street" v="Willis Cemetery Road"/>
    <tag k="addr:state" v="VT"/>
    <tag k="ref:vcgi:esiteid" v="253182"/>
  </node>
  <node id="-487" visible="true" lat="43.02343037" lon="-72.88992396">
    <tag k="addr:city" v="Stratton"/>
    <tag k="addr:housenumber" v="106"/>
    <tag k="addr:street" v="Willis Cemetery Road"/>
    <tag k="addr:state" v="VT"/>
    <tag k="ref:vcgi:esiteid" v="253183"/>
  </node>
  <node id="-488" visible="true" lat="43.02314608" lon="-72.89279992">
    <tag k="addr:city" v="Stratton"/>
    <tag k="addr:housenumber" v="125"/>
    <tag k="addr:street" v="Willis Cemetery Road"/>
    <tag k="addr:state" v="VT"/>
    <tag k="ref:vcgi:esiteid" v="253184"/>
  </node>
  <node id="-489" visible="true" lat="43.02293014" lon="-72.89084625">
    <tag k="addr:city" v="Stratton"/>
    <tag k="addr:housenumber" v="111"/>
    <tag k="addr:street" v="Willis Cemetery Road"/>
    <tag k="addr:state" v="VT"/>
    <tag k="ref:vcgi:esiteid" v="253185"/>
  </node>
  <node id="-490" visible="true" lat="43.02291348" lon="-72.88890057">
    <tag k="addr:city" v="Stratton"/>
    <tag k="addr:housenumber" v="99"/>
    <tag k="addr:street" v="Willis Cemetery Road"/>
    <tag k="addr:state" v="VT"/>
    <tag k="ref:vcgi:esiteid" v="253186"/>
  </node>
  <node id="-491" visible="true" lat="43.0227412" lon="-72.89010797">
    <tag k="addr:city" v="Stratton"/>
    <tag k="addr:housenumber" v="101"/>
    <tag k="addr:street" v="Willis Cemetery Road"/>
    <tag k="addr:state" v="VT"/>
    <tag k="ref:vcgi:esiteid" v="253187"/>
  </node>
  <node id="-492" visible="true" lat="43.02332445" lon="-72.88117402">
    <tag k="addr:city" v="Stratton"/>
    <tag k="addr:housenumber" v="68"/>
    <tag k="addr:street" v="Pike Hollow Road"/>
    <tag k="addr:state" v="VT"/>
    <tag k="ref:vcgi:esiteid" v="253188"/>
  </node>
  <node id="-494" visible="true" lat="43.02069088" lon="-72.88123825">
    <tag k="addr:city" v="Stratton"/>
    <tag k="addr:housenumber" v="90"/>
    <tag k="addr:street" v="Pike Hollow Road"/>
    <tag k="addr:state" v="VT"/>
    <tag k="ref:vcgi:esiteid" v="253190"/>
  </node>
  <node id="-495" visible="true" lat="43.01990751" lon="-72.88002752">
    <tag k="addr:city" v="Stratton"/>
    <tag k="addr:housenumber" v="218"/>
    <tag k="addr:street" v="Penny Avenue"/>
    <tag k="addr:state" v="VT"/>
    <tag k="ref:vcgi:esiteid" v="253191"/>
  </node>
  <node id="-496" visible="true" lat="43.01916997" lon="-72.88355687">
    <tag k="addr:city" v="Stratton"/>
    <tag k="addr:housenumber" v="122"/>
    <tag k="addr:street" v="Pike Hollow Road"/>
    <tag k="addr:state" v="VT"/>
    <tag k="ref:vcgi:esiteid" v="253192"/>
  </node>
  <node id="-497" visible="true" lat="43.01840228" lon="-72.88510296">
    <tag k="addr:city" v="Stratton"/>
    <tag k="addr:housenumber" v="146"/>
    <tag k="addr:street" v="Pike Hollow Road"/>
    <tag k="addr:state" v="VT"/>
    <tag k="ref:vcgi:esiteid" v="253193"/>
  </node>
  <node id="-498" visible="true" lat="43.01705984" lon="-72.88862106">
    <tag k="addr:city" v="Stratton"/>
    <tag k="addr:housenumber" v="182"/>
    <tag k="addr:street" v="Pike Hollow Road"/>
    <tag k="addr:state" v="VT"/>
    <tag k="ref:vcgi:esiteid" v="253194"/>
  </node>
  <node id="-499" visible="true" lat="43.01682052" lon="-72.88613176">
    <tag k="addr:city" v="Stratton"/>
    <tag k="addr:housenumber" v="171"/>
    <tag k="addr:street" v="Pike Hollow Road"/>
    <tag k="addr:state" v="VT"/>
    <tag k="ref:vcgi:esiteid" v="253195"/>
  </node>
  <node id="-500" visible="true" lat="43.01653401" lon="-72.88963402">
    <tag k="addr:city" v="Stratton"/>
    <tag k="addr:housenumber" v="192"/>
    <tag k="addr:street" v="Pike Hollow Road"/>
    <tag k="addr:state" v="VT"/>
    <tag k="ref:vcgi:esiteid" v="253196"/>
  </node>
  <node id="-501" visible="true" lat="43.01527023" lon="-72.89299011">
    <tag k="addr:city" v="Stratton"/>
    <tag k="addr:housenumber" v="230"/>
    <tag k="addr:street" v="Pike Hollow Road"/>
    <tag k="addr:state" v="VT"/>
    <tag k="ref:vcgi:esiteid" v="253197"/>
  </node>
  <node id="-502" visible="true" lat="43.01455688" lon="-72.89313507">
    <tag k="addr:city" v="Stratton"/>
    <tag k="addr:housenumber" v="241"/>
    <tag k="addr:street" v="Pike Hollow Road"/>
    <tag k="addr:state" v="VT"/>
    <tag k="ref:vcgi:esiteid" v="253198"/>
  </node>
  <node id="-503" visible="true" lat="43.01253128" lon="-72.8812561">
    <tag k="addr:city" v="Stratton"/>
    <tag k="addr:housenumber" v="111"/>
    <tag k="addr:street" v="Penny Avenue"/>
    <tag k="addr:state" v="VT"/>
    <tag k="ref:vcgi:esiteid" v="253199"/>
  </node>
  <node id="-504" visible="true" lat="43.00656508" lon="-72.88372552">
    <tag k="addr:city" v="Stratton"/>
    <tag k="addr:housenumber" v="21"/>
    <tag k="addr:street" v="Penny Avenue"/>
    <tag k="addr:state" v="VT"/>
    <tag k="ref:vcgi:esiteid" v="253200"/>
  </node>
  <node id="-505" visible="true" lat="43.00623702" lon="-72.88330077">
    <tag k="addr:city" v="Stratton"/>
    <tag k="addr:housenumber" v="20"/>
    <tag k="addr:street" v="Penny Avenue"/>
    <tag k="addr:state" v="VT"/>
    <tag k="ref:vcgi:esiteid" v="253201"/>
  </node>
  <node id="-506" visible="true" lat="43.00588606" lon="-72.88240823">
    <tag k="addr:city" v="Stratton"/>
    <tag k="addr:housenumber" v="8"/>
    <tag k="addr:street" v="Penny Avenue"/>
    <tag k="addr:state" v="VT"/>
    <tag k="ref:vcgi:esiteid" v="253202"/>
  </node>
  <node id="-507" visible="true" lat="43.00247388" lon="-72.88566558">
    <tag k="addr:city" v="Stratton"/>
    <tag k="addr:housenumber" v="749"/>
    <tag k="addr:street" v="Vermont Route 100"/>
    <tag k="addr:state" v="VT"/>
    <tag k="ref:vcgi:esiteid" v="253203"/>
  </node>
  <node id="-508" visible="true" lat="43.00224325" lon="-72.88576384">
    <tag k="addr:city" v="Stratton"/>
    <tag k="addr:housenumber" v="743"/>
    <tag k="addr:street" v="Vermont Route 100"/>
    <tag k="addr:state" v="VT"/>
    <tag k="ref:vcgi:esiteid" v="253204"/>
  </node>
  <node id="-509" visible="true" lat="43.00140209" lon="-72.88603094">
    <tag k="addr:city" v="Stratton"/>
    <tag k="addr:housenumber" v="731"/>
    <tag k="addr:street" v="Vermont Route 100"/>
    <tag k="addr:state" v="VT"/>
    <tag k="ref:vcgi:esiteid" v="253205"/>
  </node>
  <node id="-511" visible="true" lat="42.99808518" lon="-72.88634205">
    <tag k="addr:city" v="Stratton"/>
    <tag k="addr:housenumber" v="682"/>
    <tag k="addr:street" v="Vermont Route 100"/>
    <tag k="addr:state" v="VT"/>
    <tag k="ref:vcgi:esiteid" v="253207"/>
  </node>
  <node id="-512" visible="true" lat="42.99680721" lon="-72.88691457">
    <tag k="addr:city" v="Stratton"/>
    <tag k="addr:housenumber" v="664"/>
    <tag k="addr:street" v="Vermont Route 100"/>
    <tag k="addr:state" v="VT"/>
    <tag k="ref:vcgi:esiteid" v="253208"/>
  </node>
  <node id="-513" visible="true" lat="42.99466871" lon="-72.88835622">
    <tag k="addr:city" v="Stratton"/>
    <tag k="addr:housenumber" v="633"/>
    <tag k="addr:street" v="Vermont Route 100"/>
    <tag k="addr:state" v="VT"/>
    <tag k="ref:vcgi:esiteid" v="253210"/>
  </node>
  <node id="-515" visible="true" lat="42.99445023" lon="-72.88883898">
    <tag k="addr:city" v="Stratton"/>
    <tag k="addr:housenumber" v="623"/>
    <tag k="addr:street" v="Vermont Route 100"/>
    <tag k="addr:state" v="VT"/>
    <tag k="ref:vcgi:esiteid" v="253212"/>
  </node>
  <node id="-516" visible="true" lat="42.99395519" lon="-72.88901614">
    <tag k="addr:city" v="Stratton"/>
    <tag k="addr:housenumber" v="617"/>
    <tag k="addr:street" v="Vermont Route 100"/>
    <tag k="addr:state" v="VT"/>
    <tag k="ref:vcgi:esiteid" v="253213"/>
  </node>
  <node id="-517" visible="true" lat="42.99365028" lon="-72.88882639">
    <tag k="addr:city" v="Stratton"/>
    <tag k="addr:housenumber" v="615"/>
    <tag k="addr:street" v="Vermont Route 100"/>
    <tag k="addr:state" v="VT"/>
    <tag k="ref:vcgi:esiteid" v="253214"/>
  </node>
  <node id="-518" visible="true" lat="42.99418548" lon="-72.88386582">
    <tag k="addr:city" v="Stratton"/>
    <tag k="addr:housenumber" v="61"/>
    <tag k="addr:street" v="Forest Heights"/>
    <tag k="addr:state" v="VT"/>
    <tag k="ref:vcgi:esiteid" v="253215"/>
  </node>
  <node id="-519" visible="true" lat="42.9932864" lon="-72.88758743">
    <tag k="addr:city" v="Stratton"/>
    <tag k="addr:housenumber" v="618"/>
    <tag k="addr:street" v="Vermont Route 100"/>
    <tag k="addr:state" v="VT"/>
    <tag k="ref:vcgi:esiteid" v="253216"/>
  </node>
  <node id="-520" visible="true" lat="42.99306591" lon="-72.88895869">
    <tag k="addr:city" v="Stratton"/>
    <tag k="addr:housenumber" v="605"/>
    <tag k="addr:street" v="Vermont Route 100"/>
    <tag k="addr:state" v="VT"/>
    <tag k="ref:vcgi:esiteid" v="253217"/>
  </node>
  <node id="-521" visible="true" lat="42.99295816" lon="-72.89019914">
    <tag k="addr:city" v="Stratton"/>
    <tag k="addr:housenumber" v="589"/>
    <tag k="addr:street" v="Vermont Route 100"/>
    <tag k="addr:state" v="VT"/>
    <tag k="ref:vcgi:esiteid" v="253218"/>
  </node>
  <node id="-522" visible="true" lat="42.99275959" lon="-72.88926">
    <tag k="addr:city" v="Stratton"/>
    <tag k="addr:housenumber" v="597"/>
    <tag k="addr:street" v="Vermont Route 100"/>
    <tag k="addr:state" v="VT"/>
    <tag k="ref:vcgi:esiteid" v="253219"/>
  </node>
  <node id="-523" visible="true" lat="42.99211009" lon="-72.88752834">
    <tag k="addr:city" v="Stratton"/>
    <tag k="addr:housenumber" v="24"/>
    <tag k="addr:street" v="Nutmeg Lane"/>
    <tag k="addr:state" v="VT"/>
    <tag k="ref:vcgi:esiteid" v="253220"/>
  </node>
  <node id="-524" visible="true" lat="42.99205598" lon="-72.88825303">
    <tag k="addr:city" v="Stratton"/>
    <tag k="addr:housenumber" v="592"/>
    <tag k="addr:street" v="Vermont Route 100"/>
    <tag k="addr:state" v="VT"/>
    <tag k="ref:vcgi:esiteid" v="253221"/>
  </node>
  <node id="-525" visible="true" lat="42.99174922" lon="-72.88729179">
    <tag k="addr:city" v="Stratton"/>
    <tag k="addr:housenumber" v="22"/>
    <tag k="addr:street" v="Nutmeg Lane"/>
    <tag k="addr:state" v="VT"/>
    <tag k="ref:vcgi:esiteid" v="253222"/>
  </node>
  <node id="-526" visible="true" lat="42.99142899" lon="-72.88369808">
    <tag k="addr:city" v="Stratton"/>
    <tag k="addr:housenumber" v="24"/>
    <tag k="addr:street" v="Forest Heights"/>
    <tag k="addr:state" v="VT"/>
    <tag k="ref:vcgi:esiteid" v="253223"/>
  </node>
  <node id="-532" visible="true" lat="43.06116867" lon="-72.96746826">
    <tag k="addr:city" v="Stratton"/>
    <tag k="addr:housenumber" v="1376"/>
    <tag k="addr:street" v="Stratton Arlington Road"/>
    <tag k="addr:state" v="VT"/>
    <tag k="ref:vcgi:esiteid" v="253229"/>
  </node>
  <node id="-533" visible="true" lat="42.99398656" lon="-72.88523418">
    <tag k="addr:city" v="Stratton"/>
    <tag k="addr:housenumber" v="47"/>
    <tag k="addr:street" v="Forest Heights"/>
    <tag k="addr:state" v="VT"/>
    <tag k="ref:vcgi:esiteid" v="253230"/>
  </node>
  <node id="-537" visible="true" lat="43.10916275" lon="-72.87862719">
    <tag k="addr:city" v="Stratton"/>
    <tag k="addr:housenumber" v="141"/>
    <tag k="addr:street" v="Brazers Way"/>
    <tag k="addr:state" v="VT"/>
    <tag k="ref:vcgi:esiteid" v="253234"/>
  </node>
  <node id="-541" visible="true" lat="43.08018308" lon="-72.87594423">
    <tag k="addr:city" v="Stratton"/>
    <tag k="addr:housenumber" v="468"/>
    <tag k="addr:street" v="Mountain Road"/>
    <tag k="addr:state" v="VT"/>
    <tag k="ref:vcgi:esiteid" v="253238"/>
  </node>
  <node id="-547" visible="true" lat="43.08678648" lon="-72.8730199">
    <tag k="addr:city" v="Stratton"/>
    <tag k="addr:housenumber" v="354"/>
    <tag k="addr:street" v="Mountain Road"/>
    <tag k="addr:state" v="VT"/>
    <tag k="ref:vcgi:esiteid" v="253245"/>
  </node>
  <node id="-548" visible="true" lat="43.0464258" lon="-72.95182419">
    <tag k="addr:city" v="Stratton"/>
    <tag k="addr:housenumber" v="218"/>
    <tag k="addr:street" v="Grout Pond Road"/>
    <tag k="addr:state" v="VT"/>
    <tag k="ref:vcgi:esiteid" v="253246"/>
  </node>
  <node id="-549" visible="true" lat="43.04299214" lon="-72.87888252">
    <tag k="addr:city" v="Stratton"/>
    <tag k="addr:housenumber" v="186"/>
    <tag k="addr:street" v="Canedy Road"/>
    <tag k="addr:state" v="VT"/>
    <tag k="ref:vcgi:esiteid" v="253247"/>
  </node>
  <node id="-550" visible="true" lat="43.04687997" lon="-72.91421887">
    <tag k="addr:city" v="Stratton"/>
    <tag k="addr:housenumber" v="748"/>
    <tag k="addr:street" v="Stratton Arlington Road"/>
    <tag k="addr:state" v="VT"/>
    <tag k="ref:vcgi:esiteid" v="253248"/>
  </node>
  <node id="-593" visible="true" lat="43.09869915" lon="-72.87313181">
    <tag k="addr:city" v="Stratton"/>
    <tag k="addr:housenumber" v="106"/>
    <tag k="addr:street" v="County Road"/>
    <tag k="addr:state" v="VT"/>
    <tag k="ref:vcgi:esiteid" v="253297"/>
  </node>
  <node id="-594" visible="true" lat="43.11344852" lon="-72.91147315">
    <tag k="addr:city" v="Stratton"/>
    <tag k="addr:housenumber" v="10"/>
    <tag k="addr:street" v="Pond Road"/>
    <tag k="addr:state" v="VT"/>
    <tag k="ref:vcgi:esiteid" v="253298"/>
  </node>
  <node id="-595" visible="true" lat="43.10331347" lon="-72.87377623">
    <tag k="addr:city" v="Stratton"/>
    <tag k="addr:housenumber" v="26"/>
    <tag k="addr:street" v="County Road"/>
    <tag k="addr:state" v="VT"/>
    <tag k="ref:vcgi:esiteid" v="253299"/>
  </node>
  <node id="-596" visible="true" lat="43.10744575" lon="-72.88136004">
    <tag k="addr:city" v="Stratton"/>
    <tag k="addr:housenumber" v="111"/>
    <tag k="addr:street" v="Brazers Way"/>
    <tag k="addr:state" v="VT"/>
    <tag k="ref:vcgi:esiteid" v="253300"/>
  </node>
  <node id="-598" visible="true" lat="43.03386433" lon="-72.90208401">
    <tag k="addr:city" v="Stratton"/>
    <tag k="addr:housenumber" v="14"/>
    <tag k="addr:street" v="Augusta Lane"/>
    <tag k="addr:state" v="VT"/>
    <tag k="ref:vcgi:esiteid" v="253302"/>
  </node>
  <node id="-599" visible="true" lat="43.0963509" lon="-72.87592415">
    <tag k="addr:city" v="Stratton"/>
    <tag k="addr:housenumber" v="178"/>
    <tag k="addr:street" v="County Road"/>
    <tag k="addr:state" v="VT"/>
    <tag k="ref:vcgi:esiteid" v="253303"/>
  </node>
  <node id="-600" visible="true" lat="42.9931222" lon="-72.88281487">
    <tag k="addr:city" v="Stratton"/>
    <tag k="addr:housenumber" v="52"/>
    <tag k="addr:street" v="Forest Heights"/>
    <tag k="addr:state" v="VT"/>
    <tag k="ref:vcgi:esiteid" v="253304"/>
  </node>
  <node id="-602" visible="true" lat="43.03911855" lon="-72.90456946">
    <tag k="addr:city" v="Stratton"/>
    <tag k="addr:housenumber" v="619"/>
    <tag k="addr:street" v="Stratton Arlington Road"/>
    <tag k="addr:state" v="VT"/>
    <tag k="ref:vcgi:esiteid" v="253307"/>
  </node>
  <node id="-603" visible="true" lat="43.11413655" lon="-72.91049466">
    <tag k="addr:city" v="Stratton"/>
    <tag k="addr:housenumber" v="9"/>
    <tag k="addr:street" v="Pond Road"/>
    <tag k="addr:state" v="VT"/>
    <tag k="ref:vcgi:esiteid" v="253308"/>
  </node>
  <node id="-604" visible="true" lat="43.04772069" lon="-72.88894636">
    <tag k="addr:city" v="Stratton"/>
    <tag k="addr:housenumber" v="100"/>
    <tag k="addr:street" v="Canedy Road"/>
    <tag k="addr:state" v="VT"/>
    <tag k="ref:vcgi:esiteid" v="253309"/>
  </node>
  <node id="-605" visible="true" lat="43.02933182" lon="-72.89525995">
    <tag k="addr:city" v="Stratton"/>
    <tag k="addr:housenumber" v="42"/>
    <tag k="addr:street" v="Bills Road"/>
    <tag k="addr:state" v="VT"/>
    <tag k="ref:vcgi:esiteid" v="253310"/>
  </node>
  <node id="-606" visible="true" lat="43.03564328" lon="-72.89698091">
    <tag k="addr:city" v="Stratton"/>
    <tag k="addr:housenumber" v="523"/>
    <tag k="addr:street" v="Stratton Arlington Road"/>
    <tag k="addr:state" v="VT"/>
    <tag k="ref:vcgi:esiteid" v="253311"/>
  </node>
  <node id="-607" visible="true" lat="43.09969177" lon="-72.87212865">
    <tag k="addr:city" v="Stratton"/>
    <tag k="addr:housenumber" v="92"/>
    <tag k="addr:street" v="County Road"/>
    <tag k="addr:state" v="VT"/>
    <tag k="ref:vcgi:esiteid" v="253312"/>
  </node>
  <node id="-609" visible="true" lat="43.08582896" lon="-72.88065373">
    <tag k="addr:city" v="Stratton"/>
    <tag k="addr:housenumber" v="454"/>
    <tag k="addr:street" v="Mountain Road"/>
    <tag k="addr:state" v="VT"/>
    <tag k="ref:vcgi:esiteid" v="253314"/>
  </node>
  <node id="-611" visible="true" lat="43.02939473" lon="-72.87502905">
    <tag k="addr:city" v="Stratton"/>
    <tag k="addr:housenumber" v="34"/>
    <tag k="addr:street" v="Jennifer Drive"/>
    <tag k="addr:state" v="VT"/>
    <tag k="ref:vcgi:esiteid" v="253317"/>
  </node>
  <node id="-612" visible="true" lat="43.03679309" lon="-72.87759986">
    <tag k="addr:city" v="Stratton"/>
    <tag k="addr:housenumber" v="114"/>
    <tag k="addr:street" v="Leon Stocker Drive"/>
    <tag k="addr:state" v="VT"/>
    <tag k="ref:vcgi:esiteid" v="253318"/>
  </node>
  <node id="-613" visible="true" lat="43.0432091" lon="-72.88255604">
    <tag k="addr:city" v="Stratton"/>
    <tag k="addr:housenumber" v="144"/>
    <tag k="addr:street" v="Canedy Road"/>
    <tag k="addr:state" v="VT"/>
    <tag k="ref:vcgi:esiteid" v="253319"/>
  </node>
  <node id="-614" visible="true" lat="43.07860282" lon="-72.87337334">
    <tag k="addr:city" v="Stratton"/>
    <tag k="addr:housenumber" v="25"/>
    <tag k="addr:street" v="Forrester Road"/>
    <tag k="addr:state" v="VT"/>
    <tag k="ref:vcgi:esiteid" v="253320"/>
  </node>
  <node id="-615" visible="true" lat="42.99404394" lon="-72.88873717">
    <tag k="addr:city" v="Stratton"/>
    <tag k="addr:housenumber" v="621"/>
    <tag k="addr:street" v="Vermont Route 100"/>
    <tag k="addr:state" v="VT"/>
    <tag k="ref:vcgi:esiteid" v="253321"/>
  </node>
  <node id="-617" visible="true" lat="43.1102996" lon="-72.88201559">
    <tag k="addr:city" v="Stratton"/>
    <tag k="addr:housenumber" v="67"/>
    <tag k="addr:street" v="North Road"/>
    <tag k="addr:state" v="VT"/>
    <tag k="ref:vcgi:esiteid" v="253324"/>
  </node>
  <node id="-618" visible="true" lat="43.04476619" lon="-72.92380451">
    <tag k="addr:city" v="Stratton"/>
    <tag k="addr:housenumber" v="58"/>
    <tag k="addr:street" v="Red Hawk Rise"/>
    <tag k="addr:state" v="VT"/>
    <tag k="ref:vcgi:esiteid" v="253325"/>
  </node>
  <node id="-619" visible="true" lat="43.03488203" lon="-72.87985936">
    <tag k="addr:city" v="Stratton"/>
    <tag k="addr:housenumber" v="51"/>
    <tag k="addr:street" v="Leon Stocker Drive"/>
    <tag k="addr:state" v="VT"/>
    <tag k="ref:vcgi:esiteid" v="253326"/>
  </node>
  <node id="-620" visible="true" lat="43.03412965" lon="-72.87519101">
    <tag k="addr:city" v="Stratton"/>
    <tag k="addr:housenumber" v="158"/>
    <tag k="addr:street" v="Leon Stocker Drive"/>
    <tag k="addr:state" v="VT"/>
    <tag k="ref:vcgi:esiteid" v="253327"/>
  </node>
  <node id="-621" visible="true" lat="43.03358914" lon="-72.87659479">
    <tag k="addr:city" v="Stratton"/>
    <tag k="addr:housenumber" v="189"/>
    <tag k="addr:street" v="Kerri Ann Lane"/>
    <tag k="addr:state" v="VT"/>
    <tag k="ref:vcgi:esiteid" v="253328"/>
  </node>
  <node id="-622" visible="true" lat="43.03498293" lon="-72.8780036">
    <tag k="addr:city" v="Stratton"/>
    <tag k="addr:housenumber" v="215"/>
    <tag k="addr:street" v="Kerri Ann Lane"/>
    <tag k="addr:state" v="VT"/>
    <tag k="ref:vcgi:esiteid" v="253329"/>
  </node>
  <node id="-624" visible="true" lat="43.04711185" lon="-72.88000924">
    <tag k="addr:city" v="Stratton"/>
    <tag k="addr:housenumber" v="127"/>
    <tag k="addr:street" v="Canedy Road"/>
    <tag k="addr:state" v="VT"/>
    <tag k="ref:vcgi:esiteid" v="253331"/>
  </node>
  <node id="-625" visible="true" lat="43.05615558" lon="-72.9012943">
    <tag k="addr:city" v="Stratton"/>
    <tag k="addr:housenumber" v="225"/>
    <tag k="addr:street" v="West Jamaica Road"/>
    <tag k="addr:state" v="VT"/>
    <tag k="ref:vcgi:esiteid" v="253332"/>
  </node>
  <node id="-626" visible="true" lat="43.09793416" lon="-72.87019826">
    <tag k="addr:city" v="Stratton"/>
    <tag k="addr:housenumber" v="107"/>
    <tag k="addr:street" v="County Road"/>
    <tag k="addr:state" v="VT"/>
    <tag k="ref:vcgi:esiteid" v="253333"/>
  </node>
  <node id="-654" visible="true" lat="43.0493069" lon="-72.92800794">
    <tag k="addr:city" v="Stratton"/>
    <tag k="addr:housenumber" v="873"/>
    <tag k="addr:street" v="Stratton Arlington Road"/>
    <tag k="addr:state" v="VT"/>
    <tag k="ref:vcgi:esiteid" v="253363"/>
  </node>
  <node id="-655" visible="true" lat="43.04826635" lon="-72.92884663">
    <tag k="addr:city" v="Stratton"/>
    <tag k="addr:housenumber" v="871"/>
    <tag k="addr:street" v="Stratton Arlington Road"/>
    <tag k="addr:state" v="VT"/>
    <tag k="ref:vcgi:esiteid" v="253364"/>
  </node>
  <node id="-656" visible="true" lat="43.03402422" lon="-72.90506404">
    <tag k="addr:city" v="Stratton"/>
    <tag k="addr:housenumber" v="43"/>
    <tag k="addr:street" v="Augusta Lane"/>
    <tag k="addr:state" v="VT"/>
    <tag k="ref:vcgi:esiteid" v="253365"/>
  </node>
  <node id="-657" visible="true" lat="43.02921631" lon="-72.89428315">
    <tag k="addr:city" v="Stratton"/>
    <tag k="addr:housenumber" v="48"/>
    <tag k="addr:street" v="Bills Road"/>
    <tag k="addr:state" v="VT"/>
    <tag k="ref:vcgi:esiteid" v="253366"/>
  </node>
  <node id="-658" visible="true" lat="43.02070954" lon="-72.88910479">
    <tag k="addr:city" v="Stratton"/>
    <tag k="addr:housenumber" v="23"/>
    <tag k="addr:street" v="Catey Rose Lane"/>
    <tag k="addr:state" v="VT"/>
    <tag k="ref:vcgi:esiteid" v="253367"/>
  </node>
  <node id="-659" visible="true" lat="43.01792801" lon="-72.88233549">
    <tag k="addr:city" v="Stratton"/>
    <tag k="addr:housenumber" v="193"/>
    <tag k="addr:street" v="Penny Avenue"/>
    <tag k="addr:state" v="VT"/>
    <tag k="ref:vcgi:esiteid" v="253368"/>
  </node>
  <node id="-660" visible="true" lat="42.9937631" lon="-72.88286292">
    <tag k="addr:city" v="Stratton"/>
    <tag k="addr:housenumber" v="60"/>
    <tag k="addr:street" v="Forest Heights"/>
    <tag k="addr:state" v="VT"/>
    <tag k="ref:vcgi:esiteid" v="253369"/>
  </node>
  <node id="-661" visible="true" lat="43.00714214" lon="-72.88107377">
    <tag k="addr:city" v="Stratton"/>
    <tag k="addr:housenumber" v="831"/>
    <tag k="addr:street" v="Vermont Route 100"/>
    <tag k="addr:state" v="VT"/>
    <tag k="ref:vcgi:esiteid" v="253370"/>
  </node>
  <node id="-662" visible="true" lat="42.99972224" lon="-72.88794309">
    <tag k="addr:city" v="Stratton"/>
    <tag k="addr:housenumber" v="695"/>
    <tag k="addr:street" v="Vermont Route 100"/>
    <tag k="addr:state" v="VT"/>
    <tag k="ref:vcgi:esiteid" v="253371"/>
  </node>
  <node id="-663" visible="true" lat="43.03725092" lon="-72.8759582">
    <tag k="addr:city" v="Stratton"/>
    <tag k="addr:housenumber" v="119"/>
    <tag k="addr:street" v="Leon Stocker Drive"/>
    <tag k="addr:state" v="VT"/>
    <tag k="ref:vcgi:esiteid" v="253372"/>
  </node>
  <node id="-665" visible="true" lat="43.03722972" lon="-72.87478914">
    <tag k="addr:city" v="Stratton"/>
    <tag k="addr:housenumber" v="121"/>
    <tag k="addr:street" v="Leon Stocker Drive"/>
    <tag k="addr:state" v="VT"/>
    <tag k="ref:vcgi:esiteid" v="253374"/>
  </node>
  <node id="-668" visible="true" lat="43.03503705" lon="-72.87544141">
    <tag k="addr:city" v="Stratton"/>
    <tag k="addr:housenumber" v="145"/>
    <tag k="addr:street" v="Leon Stocker Drive"/>
    <tag k="addr:state" v="VT"/>
    <tag k="ref:vcgi:esiteid" v="253377"/>
  </node>
  <node id="-672" visible="true" lat="43.00745678" lon="-72.88239395">
    <tag k="addr:city" v="Stratton"/>
    <tag k="addr:housenumber" v="42"/>
    <tag k="addr:street" v="Penny Avenue"/>
    <tag k="addr:state" v="VT"/>
    <tag k="ref:vcgi:esiteid" v="253381"/>
  </node>
  <node id="-673" visible="true" lat="43.0362441" lon="-72.89459676">
    <tag k="addr:city" v="Stratton"/>
    <tag k="addr:housenumber" v="6"/>
    <tag k="addr:street" v="Manicknung Lane"/>
    <tag k="addr:state" v="VT"/>
    <tag k="ref:vcgi:esiteid" v="253382"/>
  </node>
  <node id="-674" visible="true" lat="43.03999388" lon="-72.89643405">
    <tag k="addr:city" v="Stratton"/>
    <tag k="addr:housenumber" v="33"/>
    <tag k="addr:street" v="Manicknung Lane"/>
    <tag k="addr:state" v="VT"/>
    <tag k="ref:vcgi:esiteid" v="253383"/>
  </node>
  <node id="-677" visible="true" lat="43.02444654" lon="-72.89463305">
    <tag k="addr:city" v="Stratton"/>
    <tag k="addr:housenumber" v="152"/>
    <tag k="addr:street" v="Willis Cemetery Road"/>
    <tag k="addr:state" v="VT"/>
    <tag k="ref:vcgi:esiteid" v="253386"/>
  </node>
  <node id="-678" visible="true" lat="43.03299499" lon="-72.87507358">
    <tag k="addr:city" v="Stratton"/>
    <tag k="addr:housenumber" v="177"/>
    <tag k="addr:street" v="Leon Stocker Drive"/>
    <tag k="addr:state" v="VT"/>
    <tag k="ref:vcgi:esiteid" v="253387"/>
  </node>
  <node id="-679" visible="true" lat="43.03444383" lon="-72.87723824">
    <tag k="addr:city" v="Stratton"/>
    <tag k="addr:housenumber" v="195"/>
    <tag k="addr:street" v="Kerri Ann Lane"/>
    <tag k="addr:state" v="VT"/>
    <tag k="ref:vcgi:esiteid" v="305578"/>
  </node>
  <node id="-680" visible="true" lat="43.04617265" lon="-72.87825548">
    <tag k="addr:city" v="Stratton"/>
    <tag k="addr:housenumber" v="161"/>
    <tag k="addr:street" v="Canedy Road"/>
    <tag k="addr:state" v="VT"/>
    <tag k="ref:vcgi:esiteid" v="306539"/>
  </node>
  <node id="-681" visible="true" lat="43.04304399" lon="-72.92384822">
    <tag k="addr:city" v="Stratton"/>
    <tag k="addr:housenumber" v="35"/>
    <tag k="addr:street" v="Eagles Crest"/>
    <tag k="addr:state" v="VT"/>
    <tag k="ref:vcgi:esiteid" v="307073"/>
  </node>
  <node id="-682" visible="true" lat="43.03425881" lon="-72.87877005">
    <tag k="addr:city" v="Stratton"/>
    <tag k="addr:housenumber" v="46"/>
    <tag k="addr:street" v="Leon Stocker Drive"/>
    <tag k="addr:state" v="VT"/>
    <tag k="ref:vcgi:esiteid" v="316007"/>
  </node>
  <node id="-684" visible="true" lat="42.99468947" lon="-72.88874533">
    <tag k="addr:city" v="Stratton"/>
    <tag k="addr:housenumber" v="631"/>
    <tag k="addr:street" v="Vermont Route 100"/>
    <tag k="addr:state" v="VT"/>
    <tag k="ref:vcgi:esiteid" v="316009"/>
  </node>
  <node id="-688" visible="true" lat="43.04596035" lon="-72.9232709">
    <tag k="addr:city" v="Stratton"/>
    <tag k="addr:housenumber" v="14"/>
    <tag k="addr:street" v="Talon Drive"/>
    <tag k="addr:state" v="VT"/>
    <tag k="ref:vcgi:esiteid" v="317643"/>
  </node>
  <node id="-691" visible="true" lat="43.05580056" lon="-72.88997987">
    <tag k="addr:city" v="Stratton"/>
    <tag k="addr:housenumber" v="43"/>
    <tag k="addr:street" v="Snowy Pond"/>
    <tag k="addr:state" v="VT"/>
    <tag k="ref:vcgi:esiteid" v="317646"/>
  </node>
  <node id="-692" visible="true" lat="43.03392556" lon="-72.89498228">
    <tag k="addr:city" v="Stratton"/>
    <tag k="addr:housenumber" v="497"/>
    <tag k="addr:street" v="Stratton Arlington Road"/>
    <tag k="addr:state" v="VT"/>
    <tag k="ref:vcgi:esiteid" v="325284"/>
  </node>
  <node id="-694" visible="true" lat="43.00618116" lon="-72.88038555">
    <tag k="addr:city" v="Stratton"/>
    <tag k="addr:housenumber" v="830"/>
    <tag k="addr:street" v="Vermont Route 100"/>
    <tag k="addr:state" v="VT"/>
    <tag k="ref:vcgi:esiteid" v="328289"/>
  </node>
  <node id="-710" visible="true" lat="43.03555034" lon="-72.89452353">
    <tag k="addr:city" v="Stratton"/>
    <tag k="addr:housenumber" v="9"/>
    <tag k="addr:street" v="Tudo Road"/>
    <tag k="addr:state" v="VT"/>
    <tag k="ref:vcgi:esiteid" v="332371"/>
  </node>
  <node id="-714" visible="true" lat="43.03769556" lon="-72.8999969">
    <tag k="addr:city" v="Stratton"/>
    <tag k="addr:housenumber" v="573"/>
    <tag k="addr:street" v="Stratton Arlington Road"/>
    <tag k="addr:state" v="VT"/>
    <tag k="ref:vcgi:esiteid" v="338031"/>
  </node>
  <node id="-716" visible="true" lat="43.0155117" lon="-72.89251825">
    <tag k="addr:city" v="Stratton"/>
    <tag k="addr:housenumber" v="226"/>
    <tag k="addr:street" v="Pike Hollow Road"/>
    <tag k="addr:state" v="VT"/>
    <tag k="ref:vcgi:esiteid" v="338110"/>
  </node>
  <node id="-719" visible="true" lat="43.05120207" lon="-72.89843439">
    <tag k="addr:city" v="Stratton"/>
    <tag k="addr:housenumber" v="35"/>
    <tag k="addr:street" v="Ball Farm Road"/>
    <tag k="addr:state" v="VT"/>
    <tag k="ref:vcgi:esiteid" v="338114"/>
  </node>
  <node id="-720" visible="true" lat="43.02311566" lon="-72.89775384">
    <tag k="addr:city" v="Stratton"/>
    <tag k="addr:housenumber" v="190"/>
    <tag k="addr:street" v="Willis Cemetery Road"/>
    <tag k="addr:state" v="VT"/>
    <tag k="ref:vcgi:esiteid" v="338115"/>
  </node>
  <node id="-721" visible="true" lat="43.09462633" lon="-72.88621086">
    <tag k="addr:city" v="Stratton"/>
    <tag k="addr:housenumber" v="25"/>
    <tag k="addr:street" v="Stone Chimney Road"/>
    <tag k="addr:state" v="VT"/>
    <tag k="ref:vcgi:esiteid" v="338116"/>
  </node>
  <node id="-723" visible="true" lat="43.03344113" lon="-72.89349568">
    <tag k="addr:city" v="Stratton"/>
    <tag k="addr:housenumber" v="477"/>
    <tag k="addr:street" v="Stratton Arlington Road"/>
    <tag k="addr:state" v="VT"/>
    <tag k="ref:vcgi:esiteid" v="340079"/>
  </node>
  <node id="-726" visible="true" lat="43.10107717" lon="-72.87461727">
    <tag k="addr:city" v="Stratton"/>
    <tag k="addr:housenumber" v="76"/>
    <tag k="addr:street" v="County Road"/>
    <tag k="addr:state" v="VT"/>
    <tag k="ref:vcgi:esiteid" v="345787"/>
  </node>
  <node id="-727" visible="true" lat="43.02400058" lon="-72.87839501">
    <tag k="addr:city" v="Stratton"/>
    <tag k="addr:housenumber" v="44"/>
    <tag k="addr:street" v="Pike Hollow Road"/>
    <tag k="addr:state" v="VT"/>
    <tag k="ref:vcgi:esiteid" v="447926"/>
  </node>
  <node id="-729" visible="true" lat="43.03356385" lon="-72.87577766">
    <tag k="addr:city" v="Stratton"/>
    <tag k="addr:housenumber" v="188"/>
    <tag k="addr:street" v="Kerri Ann Lane"/>
    <tag k="addr:state" v="VT"/>
    <tag k="ref:vcgi:esiteid" v="450432"/>
  </node>
  <node id="-735" visible="true" lat="43.10168343" lon="-72.87498839">
    <tag k="addr:city" v="Stratton"/>
    <tag k="addr:housenumber" v="86"/>
    <tag k="addr:street" v="Acer Road"/>
    <tag k="addr:state" v="VT"/>
    <tag k="ref:vcgi:esiteid" v="610818"/>
  </node>
  <node id="-736" visible="true" lat="43.0523311" lon="-72.90040627">
    <tag k="addr:city" v="Stratton"/>
    <tag k="addr:housenumber" v="17"/>
    <tag k="addr:street" v="Ball Farm Road"/>
    <tag k="addr:state" v="VT"/>
    <tag k="ref:vcgi:esiteid" v="613093"/>
  </node>
  <node id="-737" visible="true" lat="43.05076764" lon="-72.90145745">
    <tag k="addr:city" v="Stratton"/>
    <tag k="addr:housenumber" v="3"/>
    <tag k="addr:street" v="Ball Farm Road"/>
    <tag k="addr:state" v="VT"/>
    <tag k="ref:vcgi:esiteid" v="613144"/>
  </node>
  <node id="-742" visible="true" lat="43.08587735" lon="-72.92480025">
    <tag k="addr:city" v="Stratton"/>
    <tag k="addr:housenumber" v="2150"/>
    <tag k="addr:street" v="Maintenance Road"/>
    <tag k="addr:state" v="VT"/>
    <tag k="ref:vcgi:esiteid" v="620757"/>
  </node>
  <node id="-743" visible="true" lat="43.08619517" lon="-72.92496408">
    <tag k="addr:city" v="Stratton"/>
    <tag k="addr:housenumber" v="2148"/>
    <tag k="addr:street" v="Maintenance Road"/>
    <tag k="addr:state" v="VT"/>
    <tag k="ref:vcgi:esiteid" v="620758"/>
  </node>
  <node id="-757" visible="true" lat="43.04118122" lon="-72.90560248">
    <tag k="addr:city" v="Stratton"/>
    <tag k="addr:housenumber" v="636"/>
    <tag k="addr:street" v="Stratton Arlington Road"/>
    <tag k="addr:state" v="VT"/>
    <tag k="ref:vcgi:esiteid" v="754489"/>
  </node>
  <node id="-758" visible="true" lat="43.05027153" lon="-72.90121938">
    <tag k="addr:city" v="Stratton"/>
    <tag k="addr:housenumber" v="4"/>
    <tag k="addr:street" v="Ball Farm Road"/>
    <tag k="addr:state" v="VT"/>
    <tag k="ref:vcgi:esiteid" v="755387"/>
  </node>
  <node id="-762" visible="true" lat="43.00687225" lon="-72.89714699">
    <tag k="addr:city" v="Stratton"/>
    <tag k="addr:housenumber" v="245"/>
    <tag k="addr:street" v="Pike Hollow Road"/>
    <tag k="addr:state" v="VT"/>
    <tag k="ref:vcgi:esiteid" v="757636"/>
  </node>
  <node id="-765" visible="true" lat="43.0490533" lon="-72.91825756">
    <tag k="addr:city" v="Stratton"/>
    <tag k="addr:housenumber" v="35"/>
    <tag k="addr:street" v="Plimpton Road"/>
    <tag k="addr:state" v="VT"/>
    <tag k="ref:vcgi:esiteid" v="759386"/>
  </node>
  <node id="-793" visible="true" lat="43.0968981" lon="-72.88904672">
    <tag k="addr:city" v="Stratton"/>
    <tag k="addr:housenumber" v="53"/>
    <tag k="addr:street" v="Sun Bowl Road"/>
    <tag k="addr:state" v="VT"/>
    <tag k="ref:vcgi:esiteid" v="1050306"/>
  </node>
</osm>
