<?xml version="1.0" encoding="UTF-8"?>
<osm version="0.6" generator="JOSM" upload="false">
  <node id="-114" visible="true" lat="43.11466978" lon="-72.92181549">
    <!-- conflict: "11 West Ridge Road, Stratton, VT" Fuzzy match to "11 West Branch Road, Winhall, VT" -->
    <tag k="addr:city" v="Stratton"/>
    <tag k="addr:housenumber" v="11"/>
    <tag k="addr:street" v="West Ridge Road"/>
    <tag k="addr:state" v="VT"/>
    <tag k="ref:vcgi:esiteid" v="252801"/>
  </node>
  <node id="-339" visible="true" lat="43.106781" lon="-72.87454223">
    <!-- conflict: "357 Pikes Falls Road, Stratton, VT" No match in OSM, but a different address exists <5m away: "357 Pike Falls Road, Stratton, VT" -->
    <tag k="addr:city" v="Stratton"/>
    <tag k="addr:housenumber" v="357"/>
    <tag k="addr:street" v="Pikes Falls Road"/>
    <tag k="addr:state" v="VT"/>
    <tag k="ref:vcgi:esiteid" v="253028"/>
  </node>
  <node id="-343" visible="true" lat="43.10402802" lon="-72.87223038">
    <!-- conflict: "316 Pikes Falls Road, Stratton, VT" No match in OSM, but a different address exists <5m away: "316 Pike Falls Road, Stratton, VT" -->
    <tag k="addr:city" v="Stratton"/>
    <tag k="addr:housenumber" v="316"/>
    <tag k="addr:street" v="Pikes Falls Road"/>
    <tag k="addr:state" v="VT"/>
    <tag k="ref:vcgi:esiteid" v="253032"/>
  </node>
  <node id="-345" visible="true" lat="43.10245513" lon="-72.87149047">
    <!-- conflict: "291 Pikes Falls Road, Stratton, VT" No match in OSM, but a different address exists <5m away: "291 Pike Falls Road, Stratton, VT" -->
    <tag k="addr:city" v="Stratton"/>
    <tag k="addr:housenumber" v="291"/>
    <tag k="addr:street" v="Pikes Falls Road"/>
    <tag k="addr:state" v="VT"/>
    <tag k="ref:vcgi:esiteid" v="253034"/>
  </node>
  <node id="-493" visible="true" lat="43.02159653" lon="-72.88530581">
    <!-- conflict: "62 Gagners Way, Stratton, VT" No match in OSM, but a different address exists <5m away: "79 Willis Cemetery Road, Stratton, VT" -->
    <tag k="addr:city" v="Stratton"/>
    <tag k="addr:housenumber" v="62"/>
    <tag k="addr:street" v="Gagners Way"/>
    <tag k="addr:state" v="VT"/>
    <tag k="ref:vcgi:esiteid" v="253189"/>
  </node>
  <node id="-540" visible="true" lat="43.10540073" lon="-72.88762054">
    <!-- conflict: "7 World Cup Circle, Stratton, VT" Fuzzy match to "7 World Cup Way, Stratton, VT" -->
    <tag k="addr:city" v="Stratton"/>
    <tag k="addr:housenumber" v="7"/>
    <tag k="addr:street" v="World Cup Circle"/>
    <tag k="addr:state" v="VT"/>
    <tag k="ref:vcgi:esiteid" v="253237"/>
  </node>
  <node id="-628" visible="true" lat="43.10562324" lon="-72.87347368">
    <!-- conflict: "342 Pikes Falls Road, Stratton, VT" No match in OSM, but a different address exists <5m away: "342 Pike Falls Road, Stratton, VT" -->
    <tag k="addr:city" v="Stratton"/>
    <tag k="addr:housenumber" v="342"/>
    <tag k="addr:street" v="Pikes Falls Road"/>
    <tag k="addr:state" v="VT"/>
    <tag k="ref:vcgi:esiteid" v="253336"/>
  </node>
  <node id="-722" visible="true" lat="43.10945764" lon="-72.877003">
    <!-- conflict: "391 Pikes Falls Road, Stratton, VT" No match in OSM, but a different address exists <5m away: "391 Pike Falls Road, Stratton, VT" -->
    <tag k="addr:city" v="Stratton"/>
    <tag k="addr:housenumber" v="391"/>
    <tag k="addr:street" v="Pikes Falls Road"/>
    <tag k="addr:state" v="VT"/>
    <tag k="ref:vcgi:esiteid" v="339157"/>
  </node>
</osm>
