<?xml version="1.0" encoding="UTF-8"?>
<osm version="0.6" generator="JOSM">
  <node id="-100" visible="true" lat="43.82774304" lon="-72.41450315">
    <tag k="addr:city" v="Strafford"/>
    <tag k="addr:housenumber" v="601"/>
    <tag k="addr:street" v="Old Orchard Road"/>
    <tag k="addr:state" v="VT"/>
    <tag k="ref:vcgi:esiteid" v="219704"/>
  </node>
  <node id="-101" visible="true" lat="43.92231528" lon="-72.39167807">
    <tag k="addr:city" v="Strafford"/>
    <tag k="addr:housenumber" v="233"/>
    <tag k="addr:street" v="Taylor Valley Road"/>
    <tag k="addr:state" v="VT"/>
    <tag k="ref:vcgi:esiteid" v="252113"/>
  </node>
  <node id="-102" visible="true" lat="43.92099649" lon="-72.39170363">
    <tag k="addr:city" v="Strafford"/>
    <tag k="addr:housenumber" v="224"/>
    <tag k="addr:street" v="Taylor Valley Road"/>
    <tag k="addr:state" v="VT"/>
    <tag k="ref:vcgi:esiteid" v="252114"/>
  </node>
  <node id="-109" visible="true" lat="43.91280749" lon="-72.33781633">
    <tag k="addr:city" v="Strafford"/>
    <tag k="addr:housenumber" v="375"/>
    <tag k="addr:street" v="Old City Falls Road"/>
    <tag k="addr:state" v="VT"/>
    <tag k="ref:vcgi:esiteid" v="252122"/>
  </node>
  <node id="-119" visible="true" lat="43.9073677" lon="-72.3828125">
    <tag k="addr:city" v="Strafford"/>
    <tag k="addr:housenumber" v="53"/>
    <tag k="addr:street" v="Hemenway Road"/>
    <tag k="addr:state" v="VT"/>
    <tag k="ref:vcgi:esiteid" v="252134"/>
  </node>
  <node id="-123" visible="true" lat="43.90598602" lon="-72.38634201">
    <tag k="addr:city" v="Strafford"/>
    <tag k="addr:housenumber" v="39"/>
    <tag k="addr:street" v="Hemenway Road"/>
    <tag k="addr:state" v="VT"/>
    <tag k="ref:vcgi:esiteid" v="252138"/>
  </node>
  <node id="-127" visible="true" lat="43.90394918" lon="-72.39837317">
    <tag k="addr:city" v="Strafford"/>
    <tag k="addr:housenumber" v="62"/>
    <tag k="addr:street" v="Mundel Road"/>
    <tag k="addr:state" v="VT"/>
    <tag k="ref:vcgi:esiteid" v="252142"/>
  </node>
  <node id="-128" visible="true" lat="43.9038821" lon="-72.3780929">
    <tag k="addr:city" v="Strafford"/>
    <tag k="addr:housenumber" v="52"/>
    <tag k="addr:street" v="Hemenway Road"/>
    <tag k="addr:state" v="VT"/>
    <tag k="ref:vcgi:esiteid" v="252143"/>
  </node>
  <node id="-131" visible="true" lat="43.90318871" lon="-72.40201099">
    <tag k="addr:city" v="Strafford"/>
    <tag k="addr:housenumber" v="83"/>
    <tag k="addr:street" v="Mundel Road"/>
    <tag k="addr:state" v="VT"/>
    <tag k="ref:vcgi:esiteid" v="252147"/>
  </node>
  <node id="-144" visible="true" lat="43.89833559" lon="-72.38288369">
    <tag k="addr:city" v="Strafford"/>
    <tag k="addr:housenumber" v="89"/>
    <tag k="addr:street" v="Jordan Road"/>
    <tag k="addr:state" v="VT"/>
    <tag k="ref:vcgi:esiteid" v="252160"/>
  </node>
  <node id="-145" visible="true" lat="43.8981359" lon="-72.37425809">
    <tag k="addr:city" v="Strafford"/>
    <tag k="addr:housenumber" v="87"/>
    <tag k="addr:street" v="Jordan Road"/>
    <tag k="addr:state" v="VT"/>
    <tag k="ref:vcgi:esiteid" v="252161"/>
  </node>
  <node id="-147" visible="true" lat="43.89616665" lon="-72.37068203">
    <tag k="addr:city" v="Strafford"/>
    <tag k="addr:housenumber" v="60"/>
    <tag k="addr:street" v="Jordan Road"/>
    <tag k="addr:state" v="VT"/>
    <tag k="ref:vcgi:esiteid" v="252164"/>
  </node>
  <node id="-162" visible="true" lat="43.89255905" lon="-72.36753082">
    <tag k="addr:city" v="Strafford"/>
    <tag k="addr:housenumber" v="46"/>
    <tag k="addr:street" v="Jordan Road"/>
    <tag k="addr:state" v="VT"/>
    <tag k="ref:vcgi:esiteid" v="252180"/>
  </node>
  <node id="-164" visible="true" lat="43.8919487" lon="-72.36444854">
    <tag k="addr:city" v="Strafford"/>
    <tag k="addr:housenumber" v="165"/>
    <tag k="addr:street" v="Old City Falls Road"/>
    <tag k="addr:state" v="VT"/>
    <tag k="ref:vcgi:esiteid" v="252183"/>
  </node>
  <node id="-166" visible="true" lat="43.89207111" lon="-72.39922927">
    <tag k="addr:city" v="Strafford"/>
    <tag k="addr:housenumber" v="5"/>
    <tag k="addr:street" v="Old Tunbridge Road"/>
    <tag k="addr:state" v="VT"/>
    <tag k="ref:vcgi:esiteid" v="252185"/>
  </node>
  <node id="-167" visible="true" lat="43.89158748" lon="-72.36201482">
    <tag k="addr:city" v="Strafford"/>
    <tag k="addr:housenumber" v="170"/>
    <tag k="addr:street" v="Old City Falls Road"/>
    <tag k="addr:state" v="VT"/>
    <tag k="ref:vcgi:esiteid" v="252186"/>
  </node>
  <node id="-170" visible="true" lat="43.89068715" lon="-72.36956578">
    <tag k="addr:city" v="Strafford"/>
    <tag k="addr:housenumber" v="26"/>
    <tag k="addr:street" v="Jordan Road"/>
    <tag k="addr:state" v="VT"/>
    <tag k="ref:vcgi:esiteid" v="252189"/>
  </node>
  <node id="-172" visible="true" lat="43.89003372" lon="-72.35337066">
    <tag k="addr:city" v="Strafford"/>
    <tag k="addr:housenumber" v="99"/>
    <tag k="addr:street" v="Pennock Road"/>
    <tag k="addr:state" v="VT"/>
    <tag k="ref:vcgi:esiteid" v="252191"/>
  </node>
  <node id="-177" visible="true" lat="43.88894653" lon="-72.3517456">
    <tag k="addr:city" v="Strafford"/>
    <tag k="addr:housenumber" v="117"/>
    <tag k="addr:street" v="Pennock Road"/>
    <tag k="addr:state" v="VT"/>
    <tag k="ref:vcgi:esiteid" v="252197"/>
  </node>
  <node id="-178" visible="true" lat="43.88880157" lon="-72.34739685">
    <tag k="addr:city" v="Strafford"/>
    <tag k="addr:housenumber" v="129"/>
    <tag k="addr:street" v="Pennock Road"/>
    <tag k="addr:state" v="VT"/>
    <tag k="ref:vcgi:esiteid" v="252198"/>
  </node>
  <node id="-182" visible="true" lat="43.88812637" lon="-72.36789703">
    <tag k="addr:city" v="Strafford"/>
    <tag k="addr:housenumber" v="131"/>
    <tag k="addr:street" v="Old City Falls Road"/>
    <tag k="addr:state" v="VT"/>
    <tag k="ref:vcgi:esiteid" v="252202"/>
  </node>
  <node id="-184" visible="true" lat="43.88752058" lon="-72.36999473">
    <tag k="addr:city" v="Strafford"/>
    <tag k="addr:housenumber" v="119"/>
    <tag k="addr:street" v="Old City Falls Road"/>
    <tag k="addr:state" v="VT"/>
    <tag k="ref:vcgi:esiteid" v="252205"/>
  </node>
  <node id="-186" visible="true" lat="43.88680627" lon="-72.36600304">
    <tag k="addr:city" v="Strafford"/>
    <tag k="addr:housenumber" v="124"/>
    <tag k="addr:street" v="Old City Falls Road"/>
    <tag k="addr:state" v="VT"/>
    <tag k="ref:vcgi:esiteid" v="252207"/>
  </node>
  <node id="-188" visible="true" lat="43.88654687" lon="-72.36830901">
    <tag k="addr:city" v="Strafford"/>
    <tag k="addr:housenumber" v="120"/>
    <tag k="addr:street" v="Old City Falls Road"/>
    <tag k="addr:state" v="VT"/>
    <tag k="ref:vcgi:esiteid" v="252210"/>
  </node>
  <node id="-189" visible="true" lat="43.88625818" lon="-72.35404536">
    <tag k="addr:city" v="Strafford"/>
    <tag k="addr:housenumber" v="94"/>
    <tag k="addr:street" v="Pennock Road"/>
    <tag k="addr:state" v="VT"/>
    <tag k="ref:vcgi:esiteid" v="252211"/>
  </node>
  <node id="-199" visible="true" lat="43.88321442" lon="-72.3167336">
    <tag k="addr:city" v="Strafford"/>
    <tag k="addr:housenumber" v="3884"/>
    <tag k="addr:street" v="Miller Pond Road"/>
    <tag k="addr:state" v="VT"/>
    <tag k="ref:vcgi:esiteid" v="252222"/>
  </node>
  <node id="-204" visible="true" lat="43.88169125" lon="-72.3162443">
    <tag k="addr:city" v="Strafford"/>
    <tag k="addr:housenumber" v="3664"/>
    <tag k="addr:street" v="Miller Pond Road"/>
    <tag k="addr:state" v="VT"/>
    <tag k="ref:vcgi:esiteid" v="252227"/>
  </node>
  <node id="-206" visible="true" lat="43.88143816" lon="-72.36899779">
    <tag k="addr:city" v="Strafford"/>
    <tag k="addr:housenumber" v="84"/>
    <tag k="addr:street" v="Old City Falls Road"/>
    <tag k="addr:state" v="VT"/>
    <tag k="ref:vcgi:esiteid" v="252229"/>
  </node>
  <node id="-210" visible="true" lat="43.88124033" lon="-72.36873482">
    <tag k="addr:city" v="Strafford"/>
    <tag k="addr:housenumber" v="80"/>
    <tag k="addr:street" v="Old City Falls Road"/>
    <tag k="addr:state" v="VT"/>
    <tag k="ref:vcgi:esiteid" v="252233"/>
  </node>
  <node id="-212" visible="true" lat="43.88058638" lon="-72.31793918">
    <tag k="addr:city" v="Strafford"/>
    <tag k="addr:housenumber" v="3632"/>
    <tag k="addr:street" v="Miller Pond Road"/>
    <tag k="addr:state" v="VT"/>
    <tag k="ref:vcgi:esiteid" v="252236"/>
  </node>
  <node id="-213" visible="true" lat="43.88008117" lon="-72.36756896">
    <tag k="addr:city" v="Strafford"/>
    <tag k="addr:housenumber" v="72"/>
    <tag k="addr:street" v="Old City Falls Road"/>
    <tag k="addr:state" v="VT"/>
    <tag k="ref:vcgi:esiteid" v="252238"/>
  </node>
  <node id="-215" visible="true" lat="43.88052372" lon="-72.40267953">
    <tag k="addr:city" v="Strafford"/>
    <tag k="addr:housenumber" v="90"/>
    <tag k="addr:street" v="Wetmore Road"/>
    <tag k="addr:state" v="VT"/>
    <tag k="ref:vcgi:esiteid" v="252240"/>
  </node>
  <node id="-216" visible="true" lat="43.87962734" lon="-72.40585896">
    <tag k="addr:city" v="Strafford"/>
    <tag k="addr:housenumber" v="118"/>
    <tag k="addr:street" v="Wetmore Road"/>
    <tag k="addr:state" v="VT"/>
    <tag k="ref:vcgi:esiteid" v="252241"/>
  </node>
  <node id="-217" visible="true" lat="43.87967686" lon="-72.40216963">
    <tag k="addr:city" v="Strafford"/>
    <tag k="addr:housenumber" v="92"/>
    <tag k="addr:street" v="Wetmore Road"/>
    <tag k="addr:state" v="VT"/>
    <tag k="ref:vcgi:esiteid" v="252242"/>
  </node>
  <node id="-218" visible="true" lat="43.87929637" lon="-72.37223366">
    <tag k="addr:city" v="Strafford"/>
    <tag k="addr:housenumber" v="49"/>
    <tag k="addr:street" v="Old City Falls Road"/>
    <tag k="addr:state" v="VT"/>
    <tag k="ref:vcgi:esiteid" v="252243"/>
  </node>
  <node id="-219" visible="true" lat="43.87930863" lon="-72.37323945">
    <tag k="addr:city" v="Strafford"/>
    <tag k="addr:housenumber" v="45"/>
    <tag k="addr:street" v="Old City Falls Road"/>
    <tag k="addr:state" v="VT"/>
    <tag k="ref:vcgi:esiteid" v="252244"/>
  </node>
  <node id="-220" visible="true" lat="43.87873893" lon="-72.40833037">
    <tag k="addr:city" v="Strafford"/>
    <tag k="addr:housenumber" v="115"/>
    <tag k="addr:street" v="Wetmore Road"/>
    <tag k="addr:state" v="VT"/>
    <tag k="ref:vcgi:esiteid" v="252245"/>
  </node>
  <node id="-221" visible="true" lat="43.88010876" lon="-72.31582214">
    <tag k="addr:city" v="Strafford"/>
    <tag k="addr:housenumber" v="3536"/>
    <tag k="addr:street" v="Miller Pond Road"/>
    <tag k="addr:state" v="VT"/>
    <tag k="ref:vcgi:esiteid" v="252246"/>
  </node>
  <node id="-224" visible="true" lat="43.87853732" lon="-72.40461093">
    <tag k="addr:city" v="Strafford"/>
    <tag k="addr:housenumber" v="97"/>
    <tag k="addr:street" v="Wetmore Road"/>
    <tag k="addr:state" v="VT"/>
    <tag k="ref:vcgi:esiteid" v="252249"/>
  </node>
  <node id="-225" visible="true" lat="43.87861814" lon="-72.3992637">
    <tag k="addr:city" v="Strafford"/>
    <tag k="addr:housenumber" v="70"/>
    <tag k="addr:street" v="Wetmore Road"/>
    <tag k="addr:state" v="VT"/>
    <tag k="ref:vcgi:esiteid" v="252250"/>
  </node>
  <node id="-234" visible="true" lat="43.87759108" lon="-72.3167212">
    <tag k="addr:city" v="Strafford"/>
    <tag k="addr:housenumber" v="3440"/>
    <tag k="addr:street" v="Miller Pond Road"/>
    <tag k="addr:state" v="VT"/>
    <tag k="ref:vcgi:esiteid" v="252260"/>
  </node>
  <node id="-235" visible="true" lat="43.87775481" lon="-72.37783114">
    <tag k="addr:city" v="Strafford"/>
    <tag k="addr:housenumber" v="15"/>
    <tag k="addr:street" v="Old City Falls Road"/>
    <tag k="addr:state" v="VT"/>
    <tag k="ref:vcgi:esiteid" v="252261"/>
  </node>
  <node id="-237" visible="true" lat="43.87751884" lon="-72.37629883">
    <tag k="addr:city" v="Strafford"/>
    <tag k="addr:housenumber" v="24"/>
    <tag k="addr:street" v="Old City Falls Road"/>
    <tag k="addr:state" v="VT"/>
    <tag k="ref:vcgi:esiteid" v="252263"/>
  </node>
  <node id="-241" visible="true" lat="43.87660653" lon="-72.37826013">
    <tag k="addr:city" v="Strafford"/>
    <tag k="addr:housenumber" v="11"/>
    <tag k="addr:street" v="Old City Falls Road"/>
    <tag k="addr:state" v="VT"/>
    <tag k="ref:vcgi:esiteid" v="252269"/>
  </node>
  <node id="-242" visible="true" lat="43.87647253" lon="-72.31690172">
    <tag k="addr:city" v="Strafford"/>
    <tag k="addr:housenumber" v="3328"/>
    <tag k="addr:street" v="Miller Pond Road"/>
    <tag k="addr:state" v="VT"/>
    <tag k="ref:vcgi:esiteid" v="252271"/>
  </node>
  <node id="-245" visible="true" lat="43.87606612" lon="-72.38066307">
    <tag k="addr:city" v="Strafford"/>
    <tag k="addr:housenumber" v="311"/>
    <tag k="addr:street" v="Justin Morrill Memorial Highway"/>
    <tag k="addr:state" v="VT"/>
    <tag k="ref:vcgi:esiteid" v="252274"/>
  </node>
  <node id="-246" visible="true" lat="43.87575085" lon="-72.37977092">
    <tag k="addr:city" v="Strafford"/>
    <tag k="addr:housenumber" v="306"/>
    <tag k="addr:street" v="Justin Morrill Memorial Highway"/>
    <tag k="addr:state" v="VT"/>
    <tag k="ref:vcgi:esiteid" v="252275"/>
  </node>
  <node id="-247" visible="true" lat="43.87524199" lon="-72.31682528">
    <tag k="addr:city" v="Strafford"/>
    <tag k="addr:housenumber" v="3276"/>
    <tag k="addr:street" v="Miller Pond Road"/>
    <tag k="addr:state" v="VT"/>
    <tag k="ref:vcgi:esiteid" v="252277"/>
  </node>
  <node id="-248" visible="true" lat="43.87543895" lon="-72.38021167">
    <tag k="addr:city" v="Strafford"/>
    <tag k="addr:housenumber" v="305"/>
    <tag k="addr:street" v="Justin Morrill Memorial Highway"/>
    <tag k="addr:state" v="VT"/>
    <tag k="ref:vcgi:esiteid" v="252278"/>
  </node>
  <node id="-250" visible="true" lat="43.87492247" lon="-72.37921044">
    <tag k="addr:city" v="Strafford"/>
    <tag k="addr:housenumber" v="300"/>
    <tag k="addr:street" v="Justin Morrill Memorial Highway"/>
    <tag k="addr:state" v="VT"/>
    <tag k="ref:vcgi:esiteid" v="252280"/>
  </node>
  <node id="-251" visible="true" lat="43.87501384" lon="-72.35135551">
    <tag k="addr:city" v="Strafford"/>
    <tag k="addr:housenumber" v="24"/>
    <tag k="addr:street" v="Blue Moon Road"/>
    <tag k="addr:state" v="VT"/>
    <tag k="ref:vcgi:esiteid" v="252281"/>
  </node>
  <node id="-254" visible="true" lat="43.87412363" lon="-72.35212253">
    <tag k="addr:city" v="Strafford"/>
    <tag k="addr:housenumber" v="23"/>
    <tag k="addr:street" v="Blue Moon Road"/>
    <tag k="addr:state" v="VT"/>
    <tag k="ref:vcgi:esiteid" v="252284"/>
  </node>
  <node id="-256" visible="true" lat="43.87434387" lon="-72.35129547">
    <tag k="addr:city" v="Strafford"/>
    <tag k="addr:housenumber" v="22"/>
    <tag k="addr:street" v="Blue Moon Road"/>
    <tag k="addr:state" v="VT"/>
    <tag k="ref:vcgi:esiteid" v="252286"/>
  </node>
  <node id="-258" visible="true" lat="43.87371057" lon="-72.3145902">
    <tag k="addr:city" v="Strafford"/>
    <tag k="addr:housenumber" v="3132"/>
    <tag k="addr:street" v="Miller Pond Road"/>
    <tag k="addr:state" v="VT"/>
    <tag k="ref:vcgi:esiteid" v="252289"/>
  </node>
  <node id="-259" visible="true" lat="43.87324163" lon="-72.43339891">
    <tag k="addr:city" v="Strafford"/>
    <tag k="addr:housenumber" v="198"/>
    <tag k="addr:street" v="Kibling Hill Road"/>
    <tag k="addr:state" v="VT"/>
    <tag k="ref:vcgi:esiteid" v="252290"/>
  </node>
  <node id="-261" visible="true" lat="43.87292156" lon="-72.33884189">
    <tag k="addr:city" v="Strafford"/>
    <tag k="addr:housenumber" v="140"/>
    <tag k="addr:street" v="Maple Hill Road"/>
    <tag k="addr:state" v="VT"/>
    <tag k="ref:vcgi:esiteid" v="252292"/>
  </node>
  <node id="-262" visible="true" lat="43.87264249" lon="-72.31427024">
    <tag k="addr:city" v="Strafford"/>
    <tag k="addr:housenumber" v="3032"/>
    <tag k="addr:street" v="Miller Pond Road"/>
    <tag k="addr:state" v="VT"/>
    <tag k="ref:vcgi:esiteid" v="252293"/>
  </node>
  <node id="-263" visible="true" lat="43.87273975" lon="-72.37722137">
    <tag k="addr:city" v="Strafford"/>
    <tag k="addr:housenumber" v="282"/>
    <tag k="addr:street" v="Justin Morrill Memorial Highway"/>
    <tag k="addr:state" v="VT"/>
    <tag k="ref:vcgi:esiteid" v="252294"/>
  </node>
  <node id="-264" visible="true" lat="43.8726221" lon="-72.34847643">
    <tag k="addr:city" v="Strafford"/>
    <tag k="addr:housenumber" v="181"/>
    <tag k="addr:street" v="Alger Brook Road"/>
    <tag k="addr:state" v="VT"/>
    <tag k="ref:vcgi:esiteid" v="252295"/>
  </node>
  <node id="-267" visible="true" lat="43.87143707" lon="-72.31505584">
    <tag k="addr:city" v="Strafford"/>
    <tag k="addr:housenumber" v="2955"/>
    <tag k="addr:street" v="Miller Pond Road"/>
    <tag k="addr:state" v="VT"/>
    <tag k="ref:vcgi:esiteid" v="252298"/>
  </node>
  <node id="-268" visible="true" lat="43.87186493" lon="-72.43254848">
    <tag k="addr:city" v="Strafford"/>
    <tag k="addr:housenumber" v="191"/>
    <tag k="addr:street" v="Kibling Hill Road"/>
    <tag k="addr:state" v="VT"/>
    <tag k="ref:vcgi:esiteid" v="252299"/>
  </node>
  <node id="-269" visible="true" lat="43.87174379" lon="-72.35094268">
    <tag k="addr:city" v="Strafford"/>
    <tag k="addr:housenumber" v="169"/>
    <tag k="addr:street" v="Alger Brook Road"/>
    <tag k="addr:state" v="VT"/>
    <tag k="ref:vcgi:esiteid" v="252300"/>
  </node>
  <node id="-271" visible="true" lat="43.87118324" lon="-72.38792613">
    <tag k="addr:city" v="Strafford"/>
    <tag k="addr:housenumber" v="74"/>
    <tag k="addr:street" v="Brook Road"/>
    <tag k="addr:state" v="VT"/>
    <tag k="ref:vcgi:esiteid" v="252302"/>
  </node>
  <node id="-272" visible="true" lat="43.87130976" lon="-72.39053941">
    <tag k="addr:city" v="Strafford"/>
    <tag k="addr:housenumber" v="88"/>
    <tag k="addr:street" v="Brook Road"/>
    <tag k="addr:state" v="VT"/>
    <tag k="ref:vcgi:esiteid" v="252303"/>
  </node>
  <node id="-273" visible="true" lat="43.87137957" lon="-72.39401603">
    <tag k="addr:city" v="Strafford"/>
    <tag k="addr:housenumber" v="106"/>
    <tag k="addr:street" v="Brook Road"/>
    <tag k="addr:state" v="VT"/>
    <tag k="ref:vcgi:esiteid" v="252304"/>
  </node>
  <node id="-275" visible="true" lat="43.87096235" lon="-72.39012933">
    <tag k="addr:city" v="Strafford"/>
    <tag k="addr:housenumber" v="85"/>
    <tag k="addr:street" v="Brook Road"/>
    <tag k="addr:state" v="VT"/>
    <tag k="ref:vcgi:esiteid" v="252306"/>
  </node>
  <node id="-276" visible="true" lat="43.87097167" lon="-72.43085479">
    <tag k="addr:city" v="Strafford"/>
    <tag k="addr:housenumber" v="181"/>
    <tag k="addr:street" v="Kibling Hill Road"/>
    <tag k="addr:state" v="VT"/>
    <tag k="ref:vcgi:esiteid" v="252307"/>
  </node>
  <node id="-277" visible="true" lat="43.87084154" lon="-72.41523069">
    <tag k="addr:city" v="Strafford"/>
    <tag k="addr:housenumber" v="86"/>
    <tag k="addr:street" v="Kibling Hill Road"/>
    <tag k="addr:state" v="VT"/>
    <tag k="ref:vcgi:esiteid" v="252308"/>
  </node>
  <node id="-278" visible="true" lat="43.87080168" lon="-72.34403933">
    <tag k="addr:city" v="Strafford"/>
    <tag k="addr:housenumber" v="208"/>
    <tag k="addr:street" v="Alger Brook Road"/>
    <tag k="addr:state" v="VT"/>
    <tag k="ref:vcgi:esiteid" v="252310"/>
  </node>
  <node id="-279" visible="true" lat="43.87101744" lon="-72.42796204">
    <tag k="addr:city" v="Strafford"/>
    <tag k="addr:housenumber" v="156"/>
    <tag k="addr:street" v="Kibling Hill Road"/>
    <tag k="addr:state" v="VT"/>
    <tag k="ref:vcgi:esiteid" v="252311"/>
  </node>
  <node id="-280" visible="true" lat="43.8705162" lon="-72.31522224">
    <tag k="addr:city" v="Strafford"/>
    <tag k="addr:housenumber" v="10"/>
    <tag k="addr:street" v="Willey Road"/>
    <tag k="addr:state" v="VT"/>
    <tag k="ref:vcgi:esiteid" v="252312"/>
  </node>
  <node id="-281" visible="true" lat="43.87066428" lon="-72.39099843">
    <tag k="addr:city" v="Strafford"/>
    <tag k="addr:housenumber" v="91"/>
    <tag k="addr:street" v="Brook Road"/>
    <tag k="addr:state" v="VT"/>
    <tag k="ref:vcgi:esiteid" v="252313"/>
  </node>
  <node id="-282" visible="true" lat="43.87077118" lon="-72.418889">
    <tag k="addr:city" v="Strafford"/>
    <tag k="addr:housenumber" v="112"/>
    <tag k="addr:street" v="Kibling Hill Road"/>
    <tag k="addr:state" v="VT"/>
    <tag k="ref:vcgi:esiteid" v="252314"/>
  </node>
  <node id="-284" visible="true" lat="43.87109829" lon="-72.37604145">
    <tag k="addr:city" v="Strafford"/>
    <tag k="addr:housenumber" v="266"/>
    <tag k="addr:street" v="Justin Morrill Memorial Highway"/>
    <tag k="addr:state" v="VT"/>
    <tag k="ref:vcgi:esiteid" v="252316"/>
  </node>
  <node id="-285" visible="true" lat="43.87017636" lon="-72.429662">
    <tag k="addr:city" v="Strafford"/>
    <tag k="addr:housenumber" v="173"/>
    <tag k="addr:street" v="Kibling Hill Road"/>
    <tag k="addr:state" v="VT"/>
    <tag k="ref:vcgi:esiteid" v="252317"/>
  </node>
  <node id="-286" visible="true" lat="43.87003866" lon="-72.37586439">
    <tag k="addr:city" v="Strafford"/>
    <tag k="addr:housenumber" v="264"/>
    <tag k="addr:street" v="Justin Morrill Memorial Highway"/>
    <tag k="addr:state" v="VT"/>
    <tag k="ref:vcgi:esiteid" v="252318"/>
  </node>
  <node id="-288" visible="true" lat="43.86986213" lon="-72.41223018">
    <tag k="addr:city" v="Strafford"/>
    <tag k="addr:housenumber" v="76"/>
    <tag k="addr:street" v="Kibling Hill Road"/>
    <tag k="addr:state" v="VT"/>
    <tag k="ref:vcgi:esiteid" v="252320"/>
  </node>
  <node id="-289" visible="true" lat="43.86984252" lon="-72.31412505">
    <tag k="addr:city" v="Strafford"/>
    <tag k="addr:housenumber" v="2831"/>
    <tag k="addr:street" v="Miller Pond Road"/>
    <tag k="addr:state" v="VT"/>
    <tag k="ref:vcgi:esiteid" v="252321"/>
  </node>
  <node id="-290" visible="true" lat="43.8700832" lon="-72.39329898">
    <tag k="addr:city" v="Strafford"/>
    <tag k="addr:housenumber" v="108"/>
    <tag k="addr:street" v="Brook Road"/>
    <tag k="addr:state" v="VT"/>
    <tag k="ref:vcgi:esiteid" v="252322"/>
  </node>
  <node id="-291" visible="true" lat="43.86987304" lon="-72.42835235">
    <tag k="addr:city" v="Strafford"/>
    <tag k="addr:housenumber" v="165"/>
    <tag k="addr:street" v="Kibling Hill Road"/>
    <tag k="addr:state" v="VT"/>
    <tag k="ref:vcgi:esiteid" v="252323"/>
  </node>
  <node id="-292" visible="true" lat="43.86970302" lon="-72.3494782">
    <tag k="addr:city" v="Strafford"/>
    <tag k="addr:housenumber" v="166"/>
    <tag k="addr:street" v="Alger Brook Road"/>
    <tag k="addr:state" v="VT"/>
    <tag k="ref:vcgi:esiteid" v="252324"/>
  </node>
  <node id="-293" visible="true" lat="43.86976446" lon="-72.39244538">
    <tag k="addr:city" v="Strafford"/>
    <tag k="addr:housenumber" v="101"/>
    <tag k="addr:street" v="Brook Road"/>
    <tag k="addr:state" v="VT"/>
    <tag k="ref:vcgi:esiteid" v="252325"/>
  </node>
  <node id="-295" visible="true" lat="43.86941707" lon="-72.40938422">
    <tag k="addr:city" v="Strafford"/>
    <tag k="addr:housenumber" v="64"/>
    <tag k="addr:street" v="Kibling Hill Road"/>
    <tag k="addr:state" v="VT"/>
    <tag k="ref:vcgi:esiteid" v="252327"/>
  </node>
  <node id="-296" visible="true" lat="43.86912542" lon="-72.31422884">
    <tag k="addr:city" v="Strafford"/>
    <tag k="addr:housenumber" v="5"/>
    <tag k="addr:street" v="Willey Road"/>
    <tag k="addr:state" v="VT"/>
    <tag k="ref:vcgi:esiteid" v="252328"/>
  </node>
  <node id="-297" visible="true" lat="43.86909968" lon="-72.40341849">
    <tag k="addr:city" v="Strafford"/>
    <tag k="addr:housenumber" v="32"/>
    <tag k="addr:street" v="Kibling Hill Road"/>
    <tag k="addr:state" v="VT"/>
    <tag k="ref:vcgi:esiteid" v="252329"/>
  </node>
  <node id="-298" visible="true" lat="43.86923662" lon="-72.41403788">
    <tag k="addr:city" v="Strafford"/>
    <tag k="addr:housenumber" v="77"/>
    <tag k="addr:street" v="Kibling Hill Road"/>
    <tag k="addr:state" v="VT"/>
    <tag k="ref:vcgi:esiteid" v="252330"/>
  </node>
  <node id="-300" visible="true" lat="43.86891156" lon="-72.40606326">
    <tag k="addr:city" v="Strafford"/>
    <tag k="addr:housenumber" v="42"/>
    <tag k="addr:street" v="Kibling Hill Road"/>
    <tag k="addr:state" v="VT"/>
    <tag k="ref:vcgi:esiteid" v="252332"/>
  </node>
  <node id="-302" visible="true" lat="43.86851887" lon="-72.39438133">
    <tag k="addr:city" v="Strafford"/>
    <tag k="addr:housenumber" v="115"/>
    <tag k="addr:street" v="Brook Road"/>
    <tag k="addr:state" v="VT"/>
    <tag k="ref:vcgi:esiteid" v="252334"/>
  </node>
  <node id="-303" visible="true" lat="43.86848631" lon="-72.40217868">
    <tag k="addr:city" v="Strafford"/>
    <tag k="addr:housenumber" v="30"/>
    <tag k="addr:street" v="Kibling Hill Road"/>
    <tag k="addr:state" v="VT"/>
    <tag k="ref:vcgi:esiteid" v="252335"/>
  </node>
  <node id="-304" visible="true" lat="43.86906479" lon="-72.35354769">
    <tag k="addr:city" v="Strafford"/>
    <tag k="addr:housenumber" v="143"/>
    <tag k="addr:street" v="Alger Brook Road"/>
    <tag k="addr:state" v="VT"/>
    <tag k="ref:vcgi:esiteid" v="252336"/>
  </node>
  <node id="-307" visible="true" lat="43.8676338" lon="-72.35204612">
    <tag k="addr:city" v="Strafford"/>
    <tag k="addr:housenumber" v="148"/>
    <tag k="addr:street" v="Alger Brook Road"/>
    <tag k="addr:state" v="VT"/>
    <tag k="ref:vcgi:esiteid" v="252339"/>
  </node>
  <node id="-308" visible="true" lat="43.86764004" lon="-72.39722594">
    <tag k="addr:city" v="Strafford"/>
    <tag k="addr:housenumber" v="10"/>
    <tag k="addr:street" v="Robert Lane"/>
    <tag k="addr:state" v="VT"/>
    <tag k="ref:vcgi:esiteid" v="252340"/>
  </node>
  <node id="-309" visible="true" lat="43.86742782" lon="-72.39894103">
    <tag k="addr:city" v="Strafford"/>
    <tag k="addr:housenumber" v="4"/>
    <tag k="addr:street" v="Kibling Hill Road"/>
    <tag k="addr:state" v="VT"/>
    <tag k="ref:vcgi:esiteid" v="252341"/>
  </node>
  <node id="-310" visible="true" lat="43.86737148" lon="-72.3821289">
    <tag k="addr:city" v="Strafford"/>
    <tag k="addr:housenumber" v="34"/>
    <tag k="addr:street" v="Brook Road"/>
    <tag k="addr:state" v="VT"/>
    <tag k="ref:vcgi:esiteid" v="252342"/>
  </node>
  <node id="-311" visible="true" lat="43.86718269" lon="-72.3767452">
    <tag k="addr:city" v="Strafford"/>
    <tag k="addr:housenumber" v="244"/>
    <tag k="addr:street" v="Justin Morrill Memorial Highway"/>
    <tag k="addr:state" v="VT"/>
    <tag k="ref:vcgi:esiteid" v="252343"/>
  </node>
  <node id="-312" visible="true" lat="43.86732474" lon="-72.38153603">
    <tag k="addr:city" v="Strafford"/>
    <tag k="addr:housenumber" v="32"/>
    <tag k="addr:street" v="Brook Road"/>
    <tag k="addr:state" v="VT"/>
    <tag k="ref:vcgi:esiteid" v="252344"/>
  </node>
  <node id="-313" visible="true" lat="43.86724305" lon="-72.38075959">
    <tag k="addr:city" v="Strafford"/>
    <tag k="addr:housenumber" v="26"/>
    <tag k="addr:street" v="Brook Road"/>
    <tag k="addr:state" v="VT"/>
    <tag k="ref:vcgi:esiteid" v="252345"/>
  </node>
  <node id="-314" visible="true" lat="43.86728336" lon="-72.38322371">
    <tag k="addr:city" v="Strafford"/>
    <tag k="addr:housenumber" v="4"/>
    <tag k="addr:street" v="Odell Road"/>
    <tag k="addr:state" v="VT"/>
    <tag k="ref:vcgi:esiteid" v="252346"/>
  </node>
  <node id="-315" visible="true" lat="43.86708252" lon="-72.37727292">
    <tag k="addr:city" v="Strafford"/>
    <tag k="addr:housenumber" v="241"/>
    <tag k="addr:street" v="Justin Morrill Memorial Highway"/>
    <tag k="addr:state" v="VT"/>
    <tag k="ref:vcgi:esiteid" v="252347"/>
  </node>
  <node id="-316" visible="true" lat="43.86755472" lon="-72.37927638">
    <tag k="addr:city" v="Strafford"/>
    <tag k="addr:housenumber" v="20"/>
    <tag k="addr:street" v="Brook Road"/>
    <tag k="addr:state" v="VT"/>
    <tag k="ref:vcgi:esiteid" v="252348"/>
  </node>
  <node id="-317" visible="true" lat="43.86695151" lon="-72.31323412">
    <tag k="addr:city" v="Strafford"/>
    <tag k="addr:housenumber" v="15"/>
    <tag k="addr:street" v="Ward Road"/>
    <tag k="addr:state" v="VT"/>
    <tag k="ref:vcgi:esiteid" v="252349"/>
  </node>
  <node id="-321" visible="true" lat="43.86679244" lon="-72.35308016">
    <tag k="addr:city" v="Strafford"/>
    <tag k="addr:housenumber" v="142"/>
    <tag k="addr:street" v="Alger Brook Road"/>
    <tag k="addr:state" v="VT"/>
    <tag k="ref:vcgi:esiteid" v="252353"/>
  </node>
  <node id="-323" visible="true" lat="43.86675519" lon="-72.38159959">
    <tag k="addr:city" v="Strafford"/>
    <tag k="addr:housenumber" v="29"/>
    <tag k="addr:street" v="Brook Road"/>
    <tag k="addr:state" v="VT"/>
    <tag k="ref:vcgi:esiteid" v="252355"/>
  </node>
  <node id="-324" visible="true" lat="43.86648226" lon="-72.37680823">
    <tag k="addr:city" v="Strafford"/>
    <tag k="addr:housenumber" v="238"/>
    <tag k="addr:street" v="Justin Morrill Memorial Highway"/>
    <tag k="addr:state" v="VT"/>
    <tag k="ref:vcgi:esiteid" v="252358"/>
  </node>
  <node id="-325" visible="true" lat="43.86652111" lon="-72.31254309">
    <tag k="addr:city" v="Strafford"/>
    <tag k="addr:housenumber" v="20"/>
    <tag k="addr:street" v="Ward Road"/>
    <tag k="addr:state" v="VT"/>
    <tag k="ref:vcgi:esiteid" v="252359"/>
  </node>
  <node id="-326" visible="true" lat="43.86671396" lon="-72.37764921">
    <tag k="addr:city" v="Strafford"/>
    <tag k="addr:housenumber" v="12"/>
    <tag k="addr:street" v="Brook Road"/>
    <tag k="addr:state" v="VT"/>
    <tag k="ref:vcgi:esiteid" v="252361"/>
  </node>
  <node id="-327" visible="true" lat="43.86616614" lon="-72.3765512">
    <tag k="addr:city" v="Strafford"/>
    <tag k="addr:housenumber" v="236"/>
    <tag k="addr:street" v="Justin Morrill Memorial Highway"/>
    <tag k="addr:state" v="VT"/>
    <tag k="ref:vcgi:esiteid" v="252362"/>
  </node>
  <node id="-328" visible="true" lat="43.86597155" lon="-72.37798612">
    <tag k="addr:city" v="Strafford"/>
    <tag k="addr:housenumber" v="11"/>
    <tag k="addr:street" v="Brook Road"/>
    <tag k="addr:state" v="VT"/>
    <tag k="ref:vcgi:esiteid" v="252363"/>
  </node>
  <node id="-329" visible="true" lat="43.86587143" lon="-72.37670898">
    <tag k="addr:city" v="Strafford"/>
    <tag k="addr:housenumber" v="234"/>
    <tag k="addr:street" v="Justin Morrill Memorial Highway"/>
    <tag k="addr:state" v="VT"/>
    <tag k="ref:vcgi:esiteid" v="252364"/>
  </node>
  <node id="-331" visible="true" lat="43.8655919" lon="-72.37670447">
    <tag k="addr:city" v="Strafford"/>
    <tag k="addr:housenumber" v="232"/>
    <tag k="addr:street" v="Justin Morrill Memorial Highway"/>
    <tag k="addr:state" v="VT"/>
    <tag k="ref:vcgi:esiteid" v="252366"/>
  </node>
  <node id="-332" visible="true" lat="43.865614" lon="-72.37772178">
    <tag k="addr:city" v="Strafford"/>
    <tag k="addr:housenumber" v="7"/>
    <tag k="addr:street" v="Brook Road"/>
    <tag k="addr:state" v="VT"/>
    <tag k="ref:vcgi:esiteid" v="252367"/>
  </node>
  <node id="-334" visible="true" lat="43.86535437" lon="-72.37657327">
    <tag k="addr:city" v="Strafford"/>
    <tag k="addr:housenumber" v="230"/>
    <tag k="addr:street" v="Justin Morrill Memorial Highway"/>
    <tag k="addr:state" v="VT"/>
    <tag k="ref:vcgi:esiteid" v="252369"/>
  </node>
  <node id="-335" visible="true" lat="43.86526395" lon="-72.37757879">
    <tag k="addr:city" v="Strafford"/>
    <tag k="addr:housenumber" v="3"/>
    <tag k="addr:street" v="Brook Road"/>
    <tag k="addr:state" v="VT"/>
    <tag k="ref:vcgi:esiteid" v="252370"/>
  </node>
  <node id="-336" visible="true" lat="43.86495208" lon="-72.37676239">
    <tag k="addr:city" v="Strafford"/>
    <tag k="addr:housenumber" v="228"/>
    <tag k="addr:street" v="Justin Morrill Memorial Highway"/>
    <tag k="addr:state" v="VT"/>
    <tag k="ref:vcgi:esiteid" v="252371"/>
  </node>
  <node id="-338" visible="true" lat="43.86472026" lon="-72.37711871">
    <tag k="addr:city" v="Strafford"/>
    <tag k="addr:housenumber" v="227"/>
    <tag k="addr:street" v="Justin Morrill Memorial Highway"/>
    <tag k="addr:state" v="VT"/>
    <tag k="ref:vcgi:esiteid" v="252373"/>
  </node>
  <node id="-339" visible="true" lat="43.86443481" lon="-72.3762378">
    <tag k="addr:city" v="Strafford"/>
    <tag k="addr:housenumber" v="224"/>
    <tag k="addr:street" v="Justin Morrill Memorial Highway"/>
    <tag k="addr:state" v="VT"/>
    <tag k="ref:vcgi:esiteid" v="252374"/>
  </node>
  <node id="-340" visible="true" lat="43.86404926" lon="-72.37672276">
    <tag k="addr:city" v="Strafford"/>
    <tag k="addr:housenumber" v="223"/>
    <tag k="addr:street" v="Justin Morrill Memorial Highway"/>
    <tag k="addr:state" v="VT"/>
    <tag k="ref:vcgi:esiteid" v="252375"/>
  </node>
  <node id="-341" visible="true" lat="43.86401367" lon="-72.43104553">
    <tag k="addr:city" v="Strafford"/>
    <tag k="addr:housenumber" v="42"/>
    <tag k="addr:street" v="Morse Road"/>
    <tag k="addr:state" v="VT"/>
    <tag k="ref:vcgi:esiteid" v="252376"/>
  </node>
  <node id="-343" visible="true" lat="43.8637838" lon="-72.37652543">
    <tag k="addr:city" v="Strafford"/>
    <tag k="addr:housenumber" v="221"/>
    <tag k="addr:street" v="Justin Morrill Memorial Highway"/>
    <tag k="addr:state" v="VT"/>
    <tag k="ref:vcgi:esiteid" v="252378"/>
  </node>
  <node id="-344" visible="true" lat="43.86340889" lon="-72.37620366">
    <tag k="addr:city" v="Strafford"/>
    <tag k="addr:housenumber" v="219"/>
    <tag k="addr:street" v="Justin Morrill Memorial Highway"/>
    <tag k="addr:state" v="VT"/>
    <tag k="ref:vcgi:esiteid" v="252379"/>
  </node>
  <node id="-345" visible="true" lat="43.86374354" lon="-72.40172251">
    <tag k="addr:city" v="Strafford"/>
    <tag k="addr:housenumber" v="166"/>
    <tag k="addr:street" v="Brook Road"/>
    <tag k="addr:state" v="VT"/>
    <tag k="ref:vcgi:esiteid" v="252381"/>
  </node>
  <node id="-346" visible="true" lat="43.86326558" lon="-72.35531523">
    <tag k="addr:city" v="Strafford"/>
    <tag k="addr:housenumber" v="106"/>
    <tag k="addr:street" v="Alger Brook Road"/>
    <tag k="addr:state" v="VT"/>
    <tag k="ref:vcgi:esiteid" v="252383"/>
  </node>
  <node id="-347" visible="true" lat="43.86322584" lon="-72.37600324">
    <tag k="addr:city" v="Strafford"/>
    <tag k="addr:housenumber" v="217"/>
    <tag k="addr:street" v="Justin Morrill Memorial Highway"/>
    <tag k="addr:state" v="VT"/>
    <tag k="ref:vcgi:esiteid" v="252384"/>
  </node>
  <node id="-348" visible="true" lat="43.86320495" lon="-72.43325805">
    <tag k="addr:city" v="Strafford"/>
    <tag k="addr:housenumber" v="31"/>
    <tag k="addr:street" v="Morse Road"/>
    <tag k="addr:state" v="VT"/>
    <tag k="ref:vcgi:esiteid" v="252385"/>
  </node>
  <node id="-350" visible="true" lat="43.86341936" lon="-72.37512141">
    <tag k="addr:city" v="Strafford"/>
    <tag k="addr:housenumber" v="214"/>
    <tag k="addr:street" v="Justin Morrill Memorial Highway"/>
    <tag k="addr:state" v="VT"/>
    <tag k="ref:vcgi:esiteid" v="252387"/>
  </node>
  <node id="-351" visible="true" lat="43.86297607" lon="-72.37573242">
    <tag k="addr:city" v="Strafford"/>
    <tag k="addr:housenumber" v="215"/>
    <tag k="addr:street" v="Justin Morrill Memorial Highway"/>
    <tag k="addr:state" v="VT"/>
    <tag k="ref:vcgi:esiteid" v="252388"/>
  </node>
  <node id="-353" visible="true" lat="43.86276626" lon="-72.37559509">
    <tag k="addr:city" v="Strafford"/>
    <tag k="addr:housenumber" v="213"/>
    <tag k="addr:street" v="Justin Morrill Memorial Highway"/>
    <tag k="addr:state" v="VT"/>
    <tag k="ref:vcgi:esiteid" v="252390"/>
  </node>
  <node id="-354" visible="true" lat="43.86281788" lon="-72.37467184">
    <tag k="addr:city" v="Strafford"/>
    <tag k="addr:housenumber" v="208"/>
    <tag k="addr:street" v="Justin Morrill Memorial Highway"/>
    <tag k="addr:state" v="VT"/>
    <tag k="ref:vcgi:esiteid" v="252391"/>
  </node>
  <node id="-355" visible="true" lat="43.86256127" lon="-72.37537757">
    <tag k="addr:city" v="Strafford"/>
    <tag k="addr:housenumber" v="207"/>
    <tag k="addr:street" v="Justin Morrill Memorial Highway"/>
    <tag k="addr:state" v="VT"/>
    <tag k="ref:vcgi:esiteid" v="252392"/>
  </node>
  <node id="-356" visible="true" lat="43.86222971" lon="-72.41491091">
    <tag k="addr:city" v="Strafford"/>
    <tag k="addr:housenumber" v="63"/>
    <tag k="addr:street" v="Rock Bottom Road"/>
    <tag k="addr:state" v="VT"/>
    <tag k="ref:vcgi:esiteid" v="252394"/>
  </node>
  <node id="-357" visible="true" lat="43.86184747" lon="-72.37493465">
    <tag k="addr:city" v="Strafford"/>
    <tag k="addr:housenumber" v="201"/>
    <tag k="addr:street" v="Justin Morrill Memorial Highway"/>
    <tag k="addr:state" v="VT"/>
    <tag k="ref:vcgi:esiteid" v="252395"/>
  </node>
  <node id="-358" visible="true" lat="43.86145019" lon="-72.41326141">
    <tag k="addr:city" v="Strafford"/>
    <tag k="addr:housenumber" v="56"/>
    <tag k="addr:street" v="Rock Bottom Road"/>
    <tag k="addr:state" v="VT"/>
    <tag k="ref:vcgi:esiteid" v="252396"/>
  </node>
  <node id="-359" visible="true" lat="43.86120293" lon="-72.37567671">
    <tag k="addr:city" v="Strafford"/>
    <tag k="addr:housenumber" v="2"/>
    <tag k="addr:street" v="Eastburn Road"/>
    <tag k="addr:state" v="VT"/>
    <tag k="ref:vcgi:esiteid" v="252397"/>
  </node>
  <node id="-360" visible="true" lat="43.86106309" lon="-72.41333826">
    <tag k="addr:city" v="Strafford"/>
    <tag k="addr:housenumber" v="53"/>
    <tag k="addr:street" v="Rock Bottom Road"/>
    <tag k="addr:state" v="VT"/>
    <tag k="ref:vcgi:esiteid" v="252398"/>
  </node>
  <node id="-363" visible="true" lat="43.85982894" lon="-72.32530017">
    <tag k="addr:city" v="Strafford"/>
    <tag k="addr:housenumber" v="201"/>
    <tag k="addr:street" v="Tognacci Road"/>
    <tag k="addr:state" v="VT"/>
    <tag k="ref:vcgi:esiteid" v="252403"/>
  </node>
  <node id="-366" visible="true" lat="43.85924153" lon="-72.32301152">
    <tag k="addr:city" v="Strafford"/>
    <tag k="addr:housenumber" v="1885"/>
    <tag k="addr:street" v="Miller Pond Road"/>
    <tag k="addr:state" v="VT"/>
    <tag k="ref:vcgi:esiteid" v="252406"/>
  </node>
  <node id="-368" visible="true" lat="43.85846655" lon="-72.38987845">
    <tag k="addr:city" v="Strafford"/>
    <tag k="addr:housenumber" v="77"/>
    <tag k="addr:street" v="Ames Road"/>
    <tag k="addr:state" v="VT"/>
    <tag k="ref:vcgi:esiteid" v="252408"/>
  </node>
  <node id="-369" visible="true" lat="43.85846724" lon="-72.39059013">
    <tag k="addr:city" v="Strafford"/>
    <tag k="addr:housenumber" v="75"/>
    <tag k="addr:street" v="Ames Road"/>
    <tag k="addr:state" v="VT"/>
    <tag k="ref:vcgi:esiteid" v="252409"/>
  </node>
  <node id="-371" visible="true" lat="43.85774715" lon="-72.39472251">
    <tag k="addr:city" v="Strafford"/>
    <tag k="addr:housenumber" v="53"/>
    <tag k="addr:street" v="Ames Road"/>
    <tag k="addr:state" v="VT"/>
    <tag k="ref:vcgi:esiteid" v="252411"/>
  </node>
  <node id="-374" visible="true" lat="43.8570018" lon="-72.39765944">
    <tag k="addr:city" v="Strafford"/>
    <tag k="addr:housenumber" v="39"/>
    <tag k="addr:street" v="Ames Road"/>
    <tag k="addr:state" v="VT"/>
    <tag k="ref:vcgi:esiteid" v="252414"/>
  </node>
  <node id="-375" visible="true" lat="43.85663751" lon="-72.40264955">
    <tag k="addr:city" v="Strafford"/>
    <tag k="addr:housenumber" v="12"/>
    <tag k="addr:street" v="Ames Road"/>
    <tag k="addr:state" v="VT"/>
    <tag k="ref:vcgi:esiteid" v="252415"/>
  </node>
  <node id="-377" visible="true" lat="43.85690689" lon="-72.39688873">
    <tag k="addr:city" v="Strafford"/>
    <tag k="addr:housenumber" v="40"/>
    <tag k="addr:street" v="Ames Road"/>
    <tag k="addr:state" v="VT"/>
    <tag k="ref:vcgi:esiteid" v="252417"/>
  </node>
  <node id="-379" visible="true" lat="43.8565434" lon="-72.44086227">
    <tag k="addr:city" v="Strafford"/>
    <tag k="addr:housenumber" v="163"/>
    <tag k="addr:street" v="Robinson Road"/>
    <tag k="addr:state" v="VT"/>
    <tag k="ref:vcgi:esiteid" v="252420"/>
  </node>
  <node id="-381" visible="true" lat="43.85536542" lon="-72.43826194">
    <tag k="addr:city" v="Strafford"/>
    <tag k="addr:housenumber" v="150"/>
    <tag k="addr:street" v="Robinson Road"/>
    <tag k="addr:state" v="VT"/>
    <tag k="ref:vcgi:esiteid" v="252422"/>
  </node>
  <node id="-382" visible="true" lat="43.85512144" lon="-72.43766255">
    <tag k="addr:city" v="Strafford"/>
    <tag k="addr:housenumber" v="148"/>
    <tag k="addr:street" v="Robinson Road"/>
    <tag k="addr:state" v="VT"/>
    <tag k="ref:vcgi:esiteid" v="252423"/>
  </node>
  <node id="-383" visible="true" lat="43.85479521" lon="-72.31244601">
    <tag k="addr:city" v="Strafford"/>
    <tag k="addr:housenumber" v="25"/>
    <tag k="addr:street" v="Powell Road"/>
    <tag k="addr:state" v="VT"/>
    <tag k="ref:vcgi:esiteid" v="252424"/>
  </node>
  <node id="-386" visible="true" lat="43.85422301" lon="-72.31284274">
    <tag k="addr:city" v="Strafford"/>
    <tag k="addr:housenumber" v="33"/>
    <tag k="addr:street" v="Powell Road"/>
    <tag k="addr:state" v="VT"/>
    <tag k="ref:vcgi:esiteid" v="252427"/>
  </node>
  <node id="-387" visible="true" lat="43.85423278" lon="-72.43404388">
    <tag k="addr:city" v="Strafford"/>
    <tag k="addr:housenumber" v="21"/>
    <tag k="addr:street" v="Ordway Road"/>
    <tag k="addr:state" v="VT"/>
    <tag k="ref:vcgi:esiteid" v="252428"/>
  </node>
  <node id="-388" visible="true" lat="43.85444968" lon="-72.42691851">
    <tag k="addr:city" v="Strafford"/>
    <tag k="addr:housenumber" v="38"/>
    <tag k="addr:street" v="Ordway Road"/>
    <tag k="addr:state" v="VT"/>
    <tag k="ref:vcgi:esiteid" v="252429"/>
  </node>
  <node id="-392" visible="true" lat="43.85341262" lon="-72.41753387">
    <tag k="addr:city" v="Strafford"/>
    <tag k="addr:housenumber" v="300"/>
    <tag k="addr:street" v="Brook Road"/>
    <tag k="addr:state" v="VT"/>
    <tag k="ref:vcgi:esiteid" v="252434"/>
  </node>
  <node id="-393" visible="true" lat="43.85303453" lon="-72.31581154">
    <tag k="addr:city" v="Strafford"/>
    <tag k="addr:housenumber" v="18"/>
    <tag k="addr:street" v="Powell Road"/>
    <tag k="addr:state" v="VT"/>
    <tag k="ref:vcgi:esiteid" v="252435"/>
  </node>
  <node id="-395" visible="true" lat="43.85259906" lon="-72.33740677">
    <tag k="addr:city" v="Strafford"/>
    <tag k="addr:housenumber" v="139"/>
    <tag k="addr:street" v="Furnace Flats Road"/>
    <tag k="addr:state" v="VT"/>
    <tag k="ref:vcgi:esiteid" v="252437"/>
  </node>
  <node id="-396" visible="true" lat="43.85256188" lon="-72.31616495">
    <tag k="addr:city" v="Strafford"/>
    <tag k="addr:housenumber" v="20"/>
    <tag k="addr:street" v="Powell Road"/>
    <tag k="addr:state" v="VT"/>
    <tag k="ref:vcgi:esiteid" v="252438"/>
  </node>
  <node id="-402" visible="true" lat="43.85033738" lon="-72.38216216">
    <tag k="addr:city" v="Strafford"/>
    <tag k="addr:housenumber" v="60"/>
    <tag k="addr:street" v="Carpenter Hill Road"/>
    <tag k="addr:state" v="VT"/>
    <tag k="ref:vcgi:esiteid" v="252445"/>
  </node>
  <node id="-403" visible="true" lat="43.85014888" lon="-72.38432316">
    <tag k="addr:city" v="Strafford"/>
    <tag k="addr:housenumber" v="69"/>
    <tag k="addr:street" v="Carpenter Hill Road"/>
    <tag k="addr:state" v="VT"/>
    <tag k="ref:vcgi:esiteid" v="252446"/>
  </node>
  <node id="-404" visible="true" lat="43.84991427" lon="-72.38228594">
    <tag k="addr:city" v="Strafford"/>
    <tag k="addr:housenumber" v="57"/>
    <tag k="addr:street" v="Carpenter Hill Road"/>
    <tag k="addr:state" v="VT"/>
    <tag k="ref:vcgi:esiteid" v="252448"/>
  </node>
  <node id="-406" visible="true" lat="43.84988633" lon="-72.38058057">
    <tag k="addr:city" v="Strafford"/>
    <tag k="addr:housenumber" v="52"/>
    <tag k="addr:street" v="Carpenter Hill Road"/>
    <tag k="addr:state" v="VT"/>
    <tag k="ref:vcgi:esiteid" v="252450"/>
  </node>
  <node id="-407" visible="true" lat="43.84975989" lon="-72.41155232">
    <tag k="addr:city" v="Strafford"/>
    <tag k="addr:housenumber" v="276"/>
    <tag k="addr:street" v="Brook Road"/>
    <tag k="addr:state" v="VT"/>
    <tag k="ref:vcgi:esiteid" v="252451"/>
  </node>
  <node id="-408" visible="true" lat="43.8498304" lon="-72.43632447">
    <tag k="addr:city" v="Strafford"/>
    <tag k="addr:housenumber" v="109"/>
    <tag k="addr:street" v="Robinson Road"/>
    <tag k="addr:state" v="VT"/>
    <tag k="ref:vcgi:esiteid" v="252452"/>
  </node>
  <node id="-410" visible="true" lat="43.8493318" lon="-72.434894">
    <tag k="addr:city" v="Strafford"/>
    <tag k="addr:housenumber" v="104"/>
    <tag k="addr:street" v="Robinson Road"/>
    <tag k="addr:state" v="VT"/>
    <tag k="ref:vcgi:esiteid" v="252454"/>
  </node>
  <node id="-413" visible="true" lat="43.84845623" lon="-72.33373413">
    <tag k="addr:city" v="Strafford"/>
    <tag k="addr:housenumber" v="28"/>
    <tag k="addr:street" v="Stocklas Road"/>
    <tag k="addr:state" v="VT"/>
    <tag k="ref:vcgi:esiteid" v="252457"/>
  </node>
  <node id="-414" visible="true" lat="43.84828398" lon="-72.41473457">
    <tag k="addr:city" v="Strafford"/>
    <tag k="addr:housenumber" v="298"/>
    <tag k="addr:street" v="Brook Road"/>
    <tag k="addr:state" v="VT"/>
    <tag k="ref:vcgi:esiteid" v="252458"/>
  </node>
  <node id="-416" visible="true" lat="43.84699192" lon="-72.42067662">
    <tag k="addr:city" v="Strafford"/>
    <tag k="addr:housenumber" v="28"/>
    <tag k="addr:street" v="Durkee Road"/>
    <tag k="addr:state" v="VT"/>
    <tag k="ref:vcgi:esiteid" v="252462"/>
  </node>
  <node id="-418" visible="true" lat="43.84681323" lon="-72.41450978">
    <tag k="addr:city" v="Strafford"/>
    <tag k="addr:housenumber" v="305"/>
    <tag k="addr:street" v="Brook Road"/>
    <tag k="addr:state" v="VT"/>
    <tag k="ref:vcgi:esiteid" v="252464"/>
  </node>
  <node id="-420" visible="true" lat="43.84618759" lon="-72.43889617">
    <tag k="addr:city" v="Strafford"/>
    <tag k="addr:housenumber" v="77"/>
    <tag k="addr:street" v="Robinson Road"/>
    <tag k="addr:state" v="VT"/>
    <tag k="ref:vcgi:esiteid" v="252466"/>
  </node>
  <node id="-424" visible="true" lat="43.84573711" lon="-72.37370652">
    <tag k="addr:city" v="Strafford"/>
    <tag k="addr:housenumber" v="87"/>
    <tag k="addr:street" v="Justin Morrill Memorial Highway"/>
    <tag k="addr:state" v="VT"/>
    <tag k="ref:vcgi:esiteid" v="252470"/>
  </node>
  <node id="-425" visible="true" lat="43.84537517" lon="-72.43923092">
    <tag k="addr:city" v="Strafford"/>
    <tag k="addr:housenumber" v="71"/>
    <tag k="addr:street" v="Robinson Road"/>
    <tag k="addr:state" v="VT"/>
    <tag k="ref:vcgi:esiteid" v="252471"/>
  </node>
  <node id="-426" visible="true" lat="43.84538069" lon="-72.41385598">
    <tag k="addr:city" v="Strafford"/>
    <tag k="addr:housenumber" v="317"/>
    <tag k="addr:street" v="Brook Road"/>
    <tag k="addr:state" v="VT"/>
    <tag k="ref:vcgi:esiteid" v="252472"/>
  </node>
  <node id="-428" visible="true" lat="43.84469222" lon="-72.41404724">
    <tag k="addr:city" v="Strafford"/>
    <tag k="addr:housenumber" v="319"/>
    <tag k="addr:street" v="Brook Road"/>
    <tag k="addr:state" v="VT"/>
    <tag k="ref:vcgi:esiteid" v="252474"/>
  </node>
  <node id="-429" visible="true" lat="43.84484229" lon="-72.4168043">
    <tag k="addr:city" v="Strafford"/>
    <tag k="addr:housenumber" v="6"/>
    <tag k="addr:street" v="Durkee Road"/>
    <tag k="addr:state" v="VT"/>
    <tag k="ref:vcgi:esiteid" v="252475"/>
  </node>
  <node id="-431" visible="true" lat="43.8445749" lon="-72.41599028">
    <tag k="addr:city" v="Strafford"/>
    <tag k="addr:housenumber" v="324"/>
    <tag k="addr:street" v="Brook Road"/>
    <tag k="addr:state" v="VT"/>
    <tag k="ref:vcgi:esiteid" v="252477"/>
  </node>
  <node id="-432" visible="true" lat="43.84431757" lon="-72.37468123">
    <tag k="addr:city" v="Strafford"/>
    <tag k="addr:housenumber" v="75"/>
    <tag k="addr:street" v="Justin Morrill Memorial Highway"/>
    <tag k="addr:state" v="VT"/>
    <tag k="ref:vcgi:esiteid" v="252478"/>
  </node>
  <node id="-434" visible="true" lat="43.84412239" lon="-72.41478207">
    <tag k="addr:city" v="Strafford"/>
    <tag k="addr:housenumber" v="1806"/>
    <tag k="addr:street" v="Cross Road"/>
    <tag k="addr:state" v="VT"/>
    <tag k="ref:vcgi:esiteid" v="252480"/>
  </node>
  <node id="-435" visible="true" lat="43.84398515" lon="-72.37405908">
    <tag k="addr:city" v="Strafford"/>
    <tag k="addr:housenumber" v="74"/>
    <tag k="addr:street" v="Justin Morrill Memorial Highway"/>
    <tag k="addr:state" v="VT"/>
    <tag k="ref:vcgi:esiteid" v="252481"/>
  </node>
  <node id="-436" visible="true" lat="43.84383739" lon="-72.37468623">
    <tag k="addr:city" v="Strafford"/>
    <tag k="addr:housenumber" v="71"/>
    <tag k="addr:street" v="Justin Morrill Memorial Highway"/>
    <tag k="addr:state" v="VT"/>
    <tag k="ref:vcgi:esiteid" v="252482"/>
  </node>
  <node id="-437" visible="true" lat="43.84344589" lon="-72.31781337">
    <tag k="addr:city" v="Strafford"/>
    <tag k="addr:housenumber" v="35"/>
    <tag k="addr:street" v="Skunk Hollow Road"/>
    <tag k="addr:state" v="VT"/>
    <tag k="ref:vcgi:esiteid" v="252483"/>
  </node>
  <node id="-438" visible="true" lat="43.84349966" lon="-72.41387478">
    <tag k="addr:city" v="Strafford"/>
    <tag k="addr:housenumber" v="1735"/>
    <tag k="addr:street" v="Cross Road"/>
    <tag k="addr:state" v="VT"/>
    <tag k="ref:vcgi:esiteid" v="252484"/>
  </node>
  <node id="-439" visible="true" lat="43.8430053" lon="-72.41817805">
    <tag k="addr:city" v="Strafford"/>
    <tag k="addr:housenumber" v="338"/>
    <tag k="addr:street" v="Brook Road"/>
    <tag k="addr:state" v="VT"/>
    <tag k="ref:vcgi:esiteid" v="252485"/>
  </node>
  <node id="-443" visible="true" lat="43.84273156" lon="-72.41501723">
    <tag k="addr:city" v="Strafford"/>
    <tag k="addr:housenumber" v="8"/>
    <tag k="addr:street" v="Lafleur Road"/>
    <tag k="addr:state" v="VT"/>
    <tag k="ref:vcgi:esiteid" v="252489"/>
  </node>
  <node id="-444" visible="true" lat="43.8422296" lon="-72.41765536">
    <tag k="addr:city" v="Strafford"/>
    <tag k="addr:housenumber" v="341"/>
    <tag k="addr:street" v="Brook Road"/>
    <tag k="addr:state" v="VT"/>
    <tag k="ref:vcgi:esiteid" v="252490"/>
  </node>
  <node id="-446" visible="true" lat="43.8422346" lon="-72.41418537">
    <tag k="addr:city" v="Strafford"/>
    <tag k="addr:housenumber" v="15"/>
    <tag k="addr:street" v="Lafleur Road"/>
    <tag k="addr:state" v="VT"/>
    <tag k="ref:vcgi:esiteid" v="252492"/>
  </node>
  <node id="-447" visible="true" lat="43.84196148" lon="-72.41923824">
    <tag k="addr:city" v="Strafford"/>
    <tag k="addr:housenumber" v="348"/>
    <tag k="addr:street" v="Brook Road"/>
    <tag k="addr:state" v="VT"/>
    <tag k="ref:vcgi:esiteid" v="252493"/>
  </node>
  <node id="-448" visible="true" lat="43.84153914" lon="-72.3426813">
    <tag k="addr:city" v="Strafford"/>
    <tag k="addr:housenumber" v="32"/>
    <tag k="addr:street" v="Whitcomb Hill Road"/>
    <tag k="addr:state" v="VT"/>
    <tag k="ref:vcgi:esiteid" v="252494"/>
  </node>
  <node id="-450" visible="true" lat="43.84148891" lon="-72.41527511">
    <tag k="addr:city" v="Strafford"/>
    <tag k="addr:housenumber" v="18"/>
    <tag k="addr:street" v="Lafleur Road"/>
    <tag k="addr:state" v="VT"/>
    <tag k="ref:vcgi:esiteid" v="252496"/>
  </node>
  <node id="-451" visible="true" lat="43.84127142" lon="-72.41272006">
    <tag k="addr:city" v="Strafford"/>
    <tag k="addr:housenumber" v="1575"/>
    <tag k="addr:street" v="Cross Road"/>
    <tag k="addr:state" v="VT"/>
    <tag k="ref:vcgi:esiteid" v="252498"/>
  </node>
  <node id="-455" visible="true" lat="43.84085367" lon="-72.41521562">
    <tag k="addr:city" v="Strafford"/>
    <tag k="addr:housenumber" v="22"/>
    <tag k="addr:street" v="Lafleur Road"/>
    <tag k="addr:state" v="VT"/>
    <tag k="ref:vcgi:esiteid" v="252502"/>
  </node>
  <node id="-456" visible="true" lat="43.8406465" lon="-72.34182681">
    <tag k="addr:city" v="Strafford"/>
    <tag k="addr:housenumber" v="20"/>
    <tag k="addr:street" v="Whitcomb Hill Road"/>
    <tag k="addr:state" v="VT"/>
    <tag k="ref:vcgi:esiteid" v="252503"/>
  </node>
  <node id="-457" visible="true" lat="43.84063633" lon="-72.41566216">
    <tag k="addr:city" v="Strafford"/>
    <tag k="addr:housenumber" v="20"/>
    <tag k="addr:street" v="Lafleur Road"/>
    <tag k="addr:state" v="VT"/>
    <tag k="ref:vcgi:esiteid" v="252504"/>
  </node>
  <node id="-458" visible="true" lat="43.84031285" lon="-72.33771178">
    <tag k="addr:city" v="Strafford"/>
    <tag k="addr:housenumber" v="52"/>
    <tag k="addr:street" v="Furnace Flats Road"/>
    <tag k="addr:state" v="VT"/>
    <tag k="ref:vcgi:esiteid" v="252505"/>
  </node>
  <node id="-459" visible="true" lat="43.84054469" lon="-72.41535342">
    <tag k="addr:city" v="Strafford"/>
    <tag k="addr:housenumber" v="24"/>
    <tag k="addr:street" v="Lafleur Road"/>
    <tag k="addr:state" v="VT"/>
    <tag k="ref:vcgi:esiteid" v="252506"/>
  </node>
  <node id="-461" visible="true" lat="43.84010387" lon="-72.34290176">
    <tag k="addr:city" v="Strafford"/>
    <tag k="addr:housenumber" v="18"/>
    <tag k="addr:street" v="Whitcomb Hill Road"/>
    <tag k="addr:state" v="VT"/>
    <tag k="ref:vcgi:esiteid" v="252508"/>
  </node>
  <node id="-465" visible="true" lat="43.83982253" lon="-72.34511508">
    <tag k="addr:city" v="Strafford"/>
    <tag k="addr:housenumber" v="16"/>
    <tag k="addr:street" v="Whitcomb Hill Road"/>
    <tag k="addr:state" v="VT"/>
    <tag k="ref:vcgi:esiteid" v="252512"/>
  </node>
  <node id="-466" visible="true" lat="43.83974242" lon="-72.33887424">
    <tag k="addr:city" v="Strafford"/>
    <tag k="addr:housenumber" v="47"/>
    <tag k="addr:street" v="Furnace Flats Road"/>
    <tag k="addr:state" v="VT"/>
    <tag k="ref:vcgi:esiteid" v="252513"/>
  </node>
  <node id="-467" visible="true" lat="43.83988437" lon="-72.41152137">
    <tag k="addr:city" v="Strafford"/>
    <tag k="addr:housenumber" v="1466"/>
    <tag k="addr:street" v="Cross Road"/>
    <tag k="addr:state" v="VT"/>
    <tag k="ref:vcgi:esiteid" v="252514"/>
  </node>
  <node id="-469" visible="true" lat="43.83920392" lon="-72.33681474">
    <tag k="addr:city" v="Strafford"/>
    <tag k="addr:housenumber" v="40"/>
    <tag k="addr:street" v="Furnace Flats Road"/>
    <tag k="addr:state" v="VT"/>
    <tag k="ref:vcgi:esiteid" v="252516"/>
  </node>
  <node id="-474" visible="true" lat="43.83889937" lon="-72.34512271">
    <tag k="addr:city" v="Strafford"/>
    <tag k="addr:housenumber" v="10"/>
    <tag k="addr:street" v="Whitcomb Hill Road"/>
    <tag k="addr:state" v="VT"/>
    <tag k="ref:vcgi:esiteid" v="252521"/>
  </node>
  <node id="-475" visible="true" lat="43.83860223" lon="-72.34046224">
    <tag k="addr:city" v="Strafford"/>
    <tag k="addr:housenumber" v="100"/>
    <tag k="addr:street" v="Route 132"/>
    <tag k="addr:state" v="VT"/>
    <tag k="ref:vcgi:esiteid" v="252522"/>
  </node>
  <node id="-476" visible="true" lat="43.83862853" lon="-72.3366846">
    <tag k="addr:city" v="Strafford"/>
    <tag k="addr:housenumber" v="37"/>
    <tag k="addr:street" v="Furnace Flats Road"/>
    <tag k="addr:state" v="VT"/>
    <tag k="ref:vcgi:esiteid" v="252523"/>
  </node>
  <node id="-477" visible="true" lat="43.83822417" lon="-72.34043826">
    <tag k="addr:city" v="Strafford"/>
    <tag k="addr:housenumber" v="101"/>
    <tag k="addr:street" v="Route 132"/>
    <tag k="addr:state" v="VT"/>
    <tag k="ref:vcgi:esiteid" v="252524"/>
  </node>
  <node id="-479" visible="true" lat="43.83813806" lon="-72.35408515">
    <tag k="addr:city" v="Strafford"/>
    <tag k="addr:housenumber" v="170"/>
    <tag k="addr:street" v="Route 132"/>
    <tag k="addr:state" v="VT"/>
    <tag k="ref:vcgi:esiteid" v="252526"/>
  </node>
  <node id="-483" visible="true" lat="43.83762145" lon="-72.35635318">
    <tag k="addr:city" v="Strafford"/>
    <tag k="addr:housenumber" v="6"/>
    <tag k="addr:street" v="Stage Road"/>
    <tag k="addr:state" v="VT"/>
    <tag k="ref:vcgi:esiteid" v="252530"/>
  </node>
  <node id="-487" visible="true" lat="43.83716194" lon="-72.348358">
    <tag k="addr:city" v="Strafford"/>
    <tag k="addr:housenumber" v="12"/>
    <tag k="addr:street" v="Tyson Road"/>
    <tag k="addr:state" v="VT"/>
    <tag k="ref:vcgi:esiteid" v="252535"/>
  </node>
  <node id="-490" visible="true" lat="43.83701395" lon="-72.34792108">
    <tag k="addr:city" v="Strafford"/>
    <tag k="addr:housenumber" v="11"/>
    <tag k="addr:street" v="Tyson Road"/>
    <tag k="addr:state" v="VT"/>
    <tag k="ref:vcgi:esiteid" v="252538"/>
  </node>
  <node id="-496" visible="true" lat="43.83645586" lon="-72.3583795">
    <tag k="addr:city" v="Strafford"/>
    <tag k="addr:housenumber" v="194"/>
    <tag k="addr:street" v="Route 132"/>
    <tag k="addr:state" v="VT"/>
    <tag k="ref:vcgi:esiteid" v="252544"/>
  </node>
  <node id="-497" visible="true" lat="43.83627005" lon="-72.43469093">
    <tag k="addr:city" v="Strafford"/>
    <tag k="addr:housenumber" v="480"/>
    <tag k="addr:street" v="Brook Road"/>
    <tag k="addr:state" v="VT"/>
    <tag k="ref:vcgi:esiteid" v="252545"/>
  </node>
  <node id="-499" visible="true" lat="43.83630166" lon="-72.41155343">
    <tag k="addr:city" v="Strafford"/>
    <tag k="addr:housenumber" v="1176"/>
    <tag k="addr:street" v="Cross Road"/>
    <tag k="addr:state" v="VT"/>
    <tag k="ref:vcgi:esiteid" v="252547"/>
  </node>
  <node id="-503" visible="true" lat="43.83569882" lon="-72.36525836">
    <tag k="addr:city" v="Strafford"/>
    <tag k="addr:housenumber" v="244"/>
    <tag k="addr:street" v="Route 132"/>
    <tag k="addr:state" v="VT"/>
    <tag k="ref:vcgi:esiteid" v="252552"/>
  </node>
  <node id="-504" visible="true" lat="43.83543774" lon="-72.36444303">
    <tag k="addr:city" v="Strafford"/>
    <tag k="addr:housenumber" v="242"/>
    <tag k="addr:street" v="Route 132"/>
    <tag k="addr:state" v="VT"/>
    <tag k="ref:vcgi:esiteid" v="252553"/>
  </node>
  <node id="-505" visible="true" lat="43.83554153" lon="-72.3481481">
    <tag k="addr:city" v="Strafford"/>
    <tag k="addr:housenumber" v="63"/>
    <tag k="addr:street" v="Mine Road"/>
    <tag k="addr:state" v="VT"/>
    <tag k="ref:vcgi:esiteid" v="252554"/>
  </node>
  <node id="-506" visible="true" lat="43.83578213" lon="-72.36673432">
    <tag k="addr:city" v="Strafford"/>
    <tag k="addr:housenumber" v="248"/>
    <tag k="addr:street" v="Route 132"/>
    <tag k="addr:state" v="VT"/>
    <tag k="ref:vcgi:esiteid" v="252555"/>
  </node>
  <node id="-508" visible="true" lat="43.83540646" lon="-72.36405929">
    <tag k="addr:city" v="Strafford"/>
    <tag k="addr:housenumber" v="238"/>
    <tag k="addr:street" v="Route 132"/>
    <tag k="addr:state" v="VT"/>
    <tag k="ref:vcgi:esiteid" v="252557"/>
  </node>
  <node id="-509" visible="true" lat="43.83536695" lon="-72.36623706">
    <tag k="addr:city" v="Strafford"/>
    <tag k="addr:housenumber" v="249"/>
    <tag k="addr:street" v="Route 132"/>
    <tag k="addr:state" v="VT"/>
    <tag k="ref:vcgi:esiteid" v="252560"/>
  </node>
  <node id="-510" visible="true" lat="43.83510756" lon="-72.3635477">
    <tag k="addr:city" v="Strafford"/>
    <tag k="addr:housenumber" v="234"/>
    <tag k="addr:street" v="Route 132"/>
    <tag k="addr:state" v="VT"/>
    <tag k="ref:vcgi:esiteid" v="252561"/>
  </node>
  <node id="-512" visible="true" lat="43.83497238" lon="-72.36714172">
    <tag k="addr:city" v="Strafford"/>
    <tag k="addr:housenumber" v="250"/>
    <tag k="addr:street" v="Route 132"/>
    <tag k="addr:state" v="VT"/>
    <tag k="ref:vcgi:esiteid" v="252563"/>
  </node>
  <node id="-514" visible="true" lat="43.83488631" lon="-72.3628229">
    <tag k="addr:city" v="Strafford"/>
    <tag k="addr:housenumber" v="232"/>
    <tag k="addr:street" v="Route 132"/>
    <tag k="addr:state" v="VT"/>
    <tag k="ref:vcgi:esiteid" v="252566"/>
  </node>
  <node id="-515" visible="true" lat="43.83470316" lon="-72.35513744">
    <tag k="addr:city" v="Strafford"/>
    <tag k="addr:housenumber" v="28"/>
    <tag k="addr:street" v="Mine Road"/>
    <tag k="addr:state" v="VT"/>
    <tag k="ref:vcgi:esiteid" v="252567"/>
  </node>
  <node id="-516" visible="true" lat="43.83487876" lon="-72.34548218">
    <tag k="addr:city" v="Strafford"/>
    <tag k="addr:housenumber" v="78"/>
    <tag k="addr:street" v="Mine Road"/>
    <tag k="addr:state" v="VT"/>
    <tag k="ref:vcgi:esiteid" v="252568"/>
  </node>
  <node id="-517" visible="true" lat="43.83485496" lon="-72.36669775">
    <tag k="addr:city" v="Strafford"/>
    <tag k="addr:housenumber" v="251"/>
    <tag k="addr:street" v="Route 132"/>
    <tag k="addr:state" v="VT"/>
    <tag k="ref:vcgi:esiteid" v="252569"/>
  </node>
  <node id="-518" visible="true" lat="43.83482582" lon="-72.4362072">
    <tag k="addr:city" v="Strafford"/>
    <tag k="addr:housenumber" v="494"/>
    <tag k="addr:street" v="Brook Road"/>
    <tag k="addr:state" v="VT"/>
    <tag k="ref:vcgi:esiteid" v="252570"/>
  </node>
  <node id="-519" visible="true" lat="43.83467941" lon="-72.34562641">
    <tag k="addr:city" v="Strafford"/>
    <tag k="addr:housenumber" v="76"/>
    <tag k="addr:street" v="Mine Road"/>
    <tag k="addr:state" v="VT"/>
    <tag k="ref:vcgi:esiteid" v="252571"/>
  </node>
  <node id="-520" visible="true" lat="43.8348615" lon="-72.36444776">
    <tag k="addr:city" v="Strafford"/>
    <tag k="addr:housenumber" v="237"/>
    <tag k="addr:street" v="Route 132"/>
    <tag k="addr:state" v="VT"/>
    <tag k="ref:vcgi:esiteid" v="252572"/>
  </node>
  <node id="-521" visible="true" lat="43.83462381" lon="-72.36341107">
    <tag k="addr:city" v="Strafford"/>
    <tag k="addr:housenumber" v="235"/>
    <tag k="addr:street" v="Route 132"/>
    <tag k="addr:state" v="VT"/>
    <tag k="ref:vcgi:esiteid" v="252573"/>
  </node>
  <node id="-522" visible="true" lat="43.83472316" lon="-72.42158815">
    <tag k="addr:city" v="Strafford"/>
    <tag k="addr:housenumber" v="397"/>
    <tag k="addr:street" v="Brook Road"/>
    <tag k="addr:state" v="VT"/>
    <tag k="ref:vcgi:esiteid" v="252574"/>
  </node>
  <node id="-524" visible="true" lat="43.83471115" lon="-72.43731065">
    <tag k="addr:city" v="Strafford"/>
    <tag k="addr:housenumber" v="500"/>
    <tag k="addr:street" v="Brook Road"/>
    <tag k="addr:state" v="VT"/>
    <tag k="ref:vcgi:esiteid" v="252576"/>
  </node>
  <node id="-525" visible="true" lat="43.83454299" lon="-72.36187686">
    <tag k="addr:city" v="Strafford"/>
    <tag k="addr:housenumber" v="224"/>
    <tag k="addr:street" v="Route 132"/>
    <tag k="addr:state" v="VT"/>
    <tag k="ref:vcgi:esiteid" v="252578"/>
  </node>
  <node id="-526" visible="true" lat="43.83485669" lon="-72.36407591">
    <tag k="addr:city" v="Strafford"/>
    <tag k="addr:housenumber" v="6"/>
    <tag k="addr:street" v="Downer Forest Road"/>
    <tag k="addr:state" v="VT"/>
    <tag k="ref:vcgi:esiteid" v="252579"/>
  </node>
  <node id="-527" visible="true" lat="43.83449924" lon="-72.35544431">
    <tag k="addr:city" v="Strafford"/>
    <tag k="addr:housenumber" v="5"/>
    <tag k="addr:street" v="Turnpike Road"/>
    <tag k="addr:state" v="VT"/>
    <tag k="ref:vcgi:esiteid" v="252580"/>
  </node>
  <node id="-528" visible="true" lat="43.83434988" lon="-72.36265735">
    <tag k="addr:city" v="Strafford"/>
    <tag k="addr:housenumber" v="229"/>
    <tag k="addr:street" v="Route 132"/>
    <tag k="addr:state" v="VT"/>
    <tag k="ref:vcgi:esiteid" v="252581"/>
  </node>
  <node id="-529" visible="true" lat="43.83445742" lon="-72.3628861">
    <tag k="addr:city" v="Strafford"/>
    <tag k="addr:housenumber" v="231"/>
    <tag k="addr:street" v="Route 132"/>
    <tag k="addr:state" v="VT"/>
    <tag k="ref:vcgi:esiteid" v="252582"/>
  </node>
  <node id="-530" visible="true" lat="43.83444408" lon="-72.36148594">
    <tag k="addr:city" v="Strafford"/>
    <tag k="addr:housenumber" v="222"/>
    <tag k="addr:street" v="Route 132"/>
    <tag k="addr:state" v="VT"/>
    <tag k="ref:vcgi:esiteid" v="252583"/>
  </node>
  <node id="-531" visible="true" lat="43.83429979" lon="-72.35958075">
    <tag k="addr:city" v="Strafford"/>
    <tag k="addr:housenumber" v="209"/>
    <tag k="addr:street" v="Route 132"/>
    <tag k="addr:state" v="VT"/>
    <tag k="ref:vcgi:esiteid" v="252584"/>
  </node>
  <node id="-532" visible="true" lat="43.83426806" lon="-72.34470305">
    <tag k="addr:city" v="Strafford"/>
    <tag k="addr:housenumber" v="8"/>
    <tag k="addr:street" v="Thorp Road"/>
    <tag k="addr:state" v="VT"/>
    <tag k="ref:vcgi:esiteid" v="252585"/>
  </node>
  <node id="-533" visible="true" lat="43.83471881" lon="-72.3637947">
    <tag k="addr:city" v="Strafford"/>
    <tag k="addr:housenumber" v="7"/>
    <tag k="addr:street" v="Downer Forest Road"/>
    <tag k="addr:state" v="VT"/>
    <tag k="ref:vcgi:esiteid" v="252586"/>
  </node>
  <node id="-534" visible="true" lat="43.83457526" lon="-72.41090019">
    <tag k="addr:city" v="Strafford"/>
    <tag k="addr:housenumber" v="1060"/>
    <tag k="addr:street" v="Cross Road"/>
    <tag k="addr:state" v="VT"/>
    <tag k="ref:vcgi:esiteid" v="252587"/>
  </node>
  <node id="-536" visible="true" lat="43.83427977" lon="-72.3609003">
    <tag k="addr:city" v="Strafford"/>
    <tag k="addr:housenumber" v="220"/>
    <tag k="addr:street" v="Route 132"/>
    <tag k="addr:state" v="VT"/>
    <tag k="ref:vcgi:esiteid" v="252589"/>
  </node>
  <node id="-537" visible="true" lat="43.8342514" lon="-72.36244964">
    <tag k="addr:city" v="Strafford"/>
    <tag k="addr:housenumber" v="227"/>
    <tag k="addr:street" v="Route 132"/>
    <tag k="addr:state" v="VT"/>
    <tag k="ref:vcgi:esiteid" v="252590"/>
  </node>
  <node id="-540" visible="true" lat="43.83442988" lon="-72.43644612">
    <tag k="addr:city" v="Strafford"/>
    <tag k="addr:housenumber" v="498"/>
    <tag k="addr:street" v="Brook Road"/>
    <tag k="addr:state" v="VT"/>
    <tag k="ref:vcgi:esiteid" v="252593"/>
  </node>
  <node id="-541" visible="true" lat="43.83492891" lon="-72.34438088">
    <tag k="addr:city" v="Strafford"/>
    <tag k="addr:housenumber" v="4"/>
    <tag k="addr:street" v="Thorp Road"/>
    <tag k="addr:state" v="VT"/>
    <tag k="ref:vcgi:esiteid" v="252594"/>
  </node>
  <node id="-542" visible="true" lat="43.83416366" lon="-72.35709381">
    <tag k="addr:city" v="Strafford"/>
    <tag k="addr:housenumber" v="15"/>
    <tag k="addr:street" v="Mine Road"/>
    <tag k="addr:state" v="VT"/>
    <tag k="ref:vcgi:esiteid" v="252595"/>
  </node>
  <node id="-543" visible="true" lat="43.83419507" lon="-72.35998423">
    <tag k="addr:city" v="Strafford"/>
    <tag k="addr:housenumber" v="210"/>
    <tag k="addr:street" v="Route 132"/>
    <tag k="addr:state" v="VT"/>
    <tag k="ref:vcgi:esiteid" v="252596"/>
  </node>
  <node id="-545" visible="true" lat="43.83409492" lon="-72.41200378">
    <tag k="addr:city" v="Strafford"/>
    <tag k="addr:housenumber" v="1051"/>
    <tag k="addr:street" v="Cross Road"/>
    <tag k="addr:state" v="VT"/>
    <tag k="ref:vcgi:esiteid" v="252600"/>
  </node>
  <node id="-546" visible="true" lat="43.83407592" lon="-72.35958862">
    <tag k="addr:city" v="Strafford"/>
    <tag k="addr:housenumber" v="3"/>
    <tag k="addr:street" v="Mine Road"/>
    <tag k="addr:state" v="VT"/>
    <tag k="ref:vcgi:esiteid" v="252601"/>
  </node>
  <node id="-547" visible="true" lat="43.83395767" lon="-72.34738159">
    <tag k="addr:city" v="Strafford"/>
    <tag k="addr:housenumber" v="66"/>
    <tag k="addr:street" v="Mine Road"/>
    <tag k="addr:state" v="VT"/>
    <tag k="ref:vcgi:esiteid" v="252602"/>
  </node>
  <node id="-548" visible="true" lat="43.83400039" lon="-72.36124995">
    <tag k="addr:city" v="Strafford"/>
    <tag k="addr:housenumber" v="221"/>
    <tag k="addr:street" v="Route 132"/>
    <tag k="addr:state" v="VT"/>
    <tag k="ref:vcgi:esiteid" v="252603"/>
  </node>
  <node id="-549" visible="true" lat="43.8338642" lon="-72.36167617">
    <tag k="addr:city" v="Strafford"/>
    <tag k="addr:housenumber" v="223"/>
    <tag k="addr:street" v="Route 132"/>
    <tag k="addr:state" v="VT"/>
    <tag k="ref:vcgi:esiteid" v="252605"/>
  </node>
  <node id="-550" visible="true" lat="43.83385342" lon="-72.36047454">
    <tag k="addr:city" v="Strafford"/>
    <tag k="addr:housenumber" v="213"/>
    <tag k="addr:street" v="Route 132"/>
    <tag k="addr:state" v="VT"/>
    <tag k="ref:vcgi:esiteid" v="252606"/>
  </node>
  <node id="-551" visible="true" lat="43.83401382" lon="-72.37367045">
    <tag k="addr:city" v="Strafford"/>
    <tag k="addr:housenumber" v="5"/>
    <tag k="addr:street" v="Preston Road"/>
    <tag k="addr:state" v="VT"/>
    <tag k="ref:vcgi:esiteid" v="252607"/>
  </node>
  <node id="-552" visible="true" lat="43.83367538" lon="-72.3429718">
    <tag k="addr:city" v="Strafford"/>
    <tag k="addr:housenumber" v="96"/>
    <tag k="addr:street" v="Mine Road"/>
    <tag k="addr:state" v="VT"/>
    <tag k="ref:vcgi:esiteid" v="252608"/>
  </node>
  <node id="-553" visible="true" lat="43.83367028" lon="-72.35979175">
    <tag k="addr:city" v="Strafford"/>
    <tag k="addr:housenumber" v="4"/>
    <tag k="addr:street" v="Mine Road"/>
    <tag k="addr:state" v="VT"/>
    <tag k="ref:vcgi:esiteid" v="252609"/>
  </node>
  <node id="-555" visible="true" lat="43.83351019" lon="-72.35901017">
    <tag k="addr:city" v="Strafford"/>
    <tag k="addr:housenumber" v="6"/>
    <tag k="addr:street" v="Mine Road"/>
    <tag k="addr:state" v="VT"/>
    <tag k="ref:vcgi:esiteid" v="252611"/>
  </node>
  <node id="-556" visible="true" lat="43.83352327" lon="-72.40891708">
    <tag k="addr:city" v="Strafford"/>
    <tag k="addr:housenumber" v="15"/>
    <tag k="addr:street" v="Beacon Hill Road"/>
    <tag k="addr:state" v="VT"/>
    <tag k="ref:vcgi:esiteid" v="252612"/>
  </node>
  <node id="-557" visible="true" lat="43.83334038" lon="-72.35062778">
    <tag k="addr:city" v="Strafford"/>
    <tag k="addr:housenumber" v="33"/>
    <tag k="addr:street" v="Turnpike Road"/>
    <tag k="addr:state" v="VT"/>
    <tag k="ref:vcgi:esiteid" v="252613"/>
  </node>
  <node id="-558" visible="true" lat="43.83340382" lon="-72.40592611">
    <tag k="addr:city" v="Strafford"/>
    <tag k="addr:housenumber" v="42"/>
    <tag k="addr:street" v="Beacon Hill Road"/>
    <tag k="addr:state" v="VT"/>
    <tag k="ref:vcgi:esiteid" v="252614"/>
  </node>
  <node id="-559" visible="true" lat="43.83325269" lon="-72.35380091">
    <tag k="addr:city" v="Strafford"/>
    <tag k="addr:housenumber" v="18"/>
    <tag k="addr:street" v="Turnpike Road"/>
    <tag k="addr:state" v="VT"/>
    <tag k="ref:vcgi:esiteid" v="252615"/>
  </node>
  <node id="-560" visible="true" lat="43.83344604" lon="-72.36319988">
    <tag k="addr:city" v="Strafford"/>
    <tag k="addr:housenumber" v="15"/>
    <tag k="addr:street" v="Downer Forest Road"/>
    <tag k="addr:state" v="VT"/>
    <tag k="ref:vcgi:esiteid" v="252616"/>
  </node>
  <node id="-561" visible="true" lat="43.83307161" lon="-72.42909281">
    <tag k="addr:city" v="Strafford"/>
    <tag k="addr:housenumber" v="448"/>
    <tag k="addr:street" v="Brook Road"/>
    <tag k="addr:state" v="VT"/>
    <tag k="ref:vcgi:esiteid" v="252617"/>
  </node>
  <node id="-563" visible="true" lat="43.83297729" lon="-72.33887481">
    <tag k="addr:city" v="Strafford"/>
    <tag k="addr:housenumber" v="115"/>
    <tag k="addr:street" v="Mine Road"/>
    <tag k="addr:state" v="VT"/>
    <tag k="ref:vcgi:esiteid" v="252619"/>
  </node>
  <node id="-564" visible="true" lat="43.83313421" lon="-72.3710208">
    <tag k="addr:city" v="Strafford"/>
    <tag k="addr:housenumber" v="6"/>
    <tag k="addr:street" v="Preston Road"/>
    <tag k="addr:state" v="VT"/>
    <tag k="ref:vcgi:esiteid" v="252620"/>
  </node>
  <node id="-565" visible="true" lat="43.83307751" lon="-72.35247397">
    <tag k="addr:city" v="Strafford"/>
    <tag k="addr:housenumber" v="30"/>
    <tag k="addr:street" v="Turnpike Road"/>
    <tag k="addr:state" v="VT"/>
    <tag k="ref:vcgi:esiteid" v="252621"/>
  </node>
  <node id="-566" visible="true" lat="43.83307388" lon="-72.37137622">
    <tag k="addr:city" v="Strafford"/>
    <tag k="addr:housenumber" v="10"/>
    <tag k="addr:street" v="Preston Road"/>
    <tag k="addr:state" v="VT"/>
    <tag k="ref:vcgi:esiteid" v="252622"/>
  </node>
  <node id="-567" visible="true" lat="43.83269793" lon="-72.40598749">
    <tag k="addr:city" v="Strafford"/>
    <tag k="addr:housenumber" v="43"/>
    <tag k="addr:street" v="Beacon Hill Road"/>
    <tag k="addr:state" v="VT"/>
    <tag k="ref:vcgi:esiteid" v="252623"/>
  </node>
  <node id="-568" visible="true" lat="43.83293514" lon="-72.37122029">
    <tag k="addr:city" v="Strafford"/>
    <tag k="addr:housenumber" v="8"/>
    <tag k="addr:street" v="Preston Road"/>
    <tag k="addr:state" v="VT"/>
    <tag k="ref:vcgi:esiteid" v="252624"/>
  </node>
  <node id="-569" visible="true" lat="43.83275222" lon="-72.40729522">
    <tag k="addr:city" v="Strafford"/>
    <tag k="addr:housenumber" v="44"/>
    <tag k="addr:street" v="Beacon Hill Road"/>
    <tag k="addr:state" v="VT"/>
    <tag k="ref:vcgi:esiteid" v="252625"/>
  </node>
  <node id="-570" visible="true" lat="43.83262827" lon="-72.34981381">
    <tag k="addr:city" v="Strafford"/>
    <tag k="addr:housenumber" v="39"/>
    <tag k="addr:street" v="Turnpike Road"/>
    <tag k="addr:state" v="VT"/>
    <tag k="ref:vcgi:esiteid" v="252626"/>
  </node>
  <node id="-571" visible="true" lat="43.83272896" lon="-72.34364893">
    <tag k="addr:city" v="Strafford"/>
    <tag k="addr:housenumber" v="17"/>
    <tag k="addr:street" v="Thorp Road"/>
    <tag k="addr:state" v="VT"/>
    <tag k="ref:vcgi:esiteid" v="252627"/>
  </node>
  <node id="-572" visible="true" lat="43.8325709" lon="-72.3515891">
    <tag k="addr:city" v="Strafford"/>
    <tag k="addr:housenumber" v="32"/>
    <tag k="addr:street" v="Turnpike Road"/>
    <tag k="addr:state" v="VT"/>
    <tag k="ref:vcgi:esiteid" v="252628"/>
  </node>
  <node id="-573" visible="true" lat="43.83259872" lon="-72.38751945">
    <tag k="addr:city" v="Strafford"/>
    <tag k="addr:housenumber" v="372"/>
    <tag k="addr:street" v="Route 132"/>
    <tag k="addr:state" v="VT"/>
    <tag k="ref:vcgi:esiteid" v="252629"/>
  </node>
  <node id="-574" visible="true" lat="43.8325867" lon="-72.3631506">
    <tag k="addr:city" v="Strafford"/>
    <tag k="addr:housenumber" v="19"/>
    <tag k="addr:street" v="Downer Forest Road"/>
    <tag k="addr:state" v="VT"/>
    <tag k="ref:vcgi:esiteid" v="252630"/>
  </node>
  <node id="-575" visible="true" lat="43.83248489" lon="-72.34504926">
    <tag k="addr:city" v="Strafford"/>
    <tag k="addr:housenumber" v="18"/>
    <tag k="addr:street" v="Thorp Road"/>
    <tag k="addr:state" v="VT"/>
    <tag k="ref:vcgi:esiteid" v="252631"/>
  </node>
  <node id="-577" visible="true" lat="43.83227539" lon="-72.34061432">
    <tag k="addr:city" v="Strafford"/>
    <tag k="addr:housenumber" v="108"/>
    <tag k="addr:street" v="Mine Road"/>
    <tag k="addr:state" v="VT"/>
    <tag k="ref:vcgi:esiteid" v="252633"/>
  </node>
  <node id="-578" visible="true" lat="43.83246609" lon="-72.38274157">
    <tag k="addr:city" v="Strafford"/>
    <tag k="addr:housenumber" v="358"/>
    <tag k="addr:street" v="Route 132"/>
    <tag k="addr:state" v="VT"/>
    <tag k="ref:vcgi:esiteid" v="252634"/>
  </node>
  <node id="-580" visible="true" lat="43.83187657" lon="-72.4358777">
    <tag k="addr:city" v="Strafford"/>
    <tag k="addr:housenumber" v="512"/>
    <tag k="addr:street" v="Brook Road"/>
    <tag k="addr:state" v="VT"/>
    <tag k="ref:vcgi:esiteid" v="252637"/>
  </node>
  <node id="-581" visible="true" lat="43.83205233" lon="-72.3787328">
    <tag k="addr:city" v="Strafford"/>
    <tag k="addr:housenumber" v="328"/>
    <tag k="addr:street" v="Route 132"/>
    <tag k="addr:state" v="VT"/>
    <tag k="ref:vcgi:esiteid" v="252638"/>
  </node>
  <node id="-582" visible="true" lat="43.83214548" lon="-72.41943152">
    <tag k="addr:city" v="Strafford"/>
    <tag k="addr:housenumber" v="33"/>
    <tag k="addr:street" v="Fayen Road"/>
    <tag k="addr:state" v="VT"/>
    <tag k="ref:vcgi:esiteid" v="252639"/>
  </node>
  <node id="-584" visible="true" lat="43.83147714" lon="-72.33646228">
    <tag k="addr:city" v="Strafford"/>
    <tag k="addr:housenumber" v="129"/>
    <tag k="addr:street" v="Mine Road"/>
    <tag k="addr:state" v="VT"/>
    <tag k="ref:vcgi:esiteid" v="252641"/>
  </node>
  <node id="-585" visible="true" lat="43.83159666" lon="-72.39358243">
    <tag k="addr:city" v="Strafford"/>
    <tag k="addr:housenumber" v="17"/>
    <tag k="addr:street" v="Blanchard Road"/>
    <tag k="addr:state" v="VT"/>
    <tag k="ref:vcgi:esiteid" v="252642"/>
  </node>
  <node id="-586" visible="true" lat="43.83130479" lon="-72.41165743">
    <tag k="addr:city" v="Strafford"/>
    <tag k="addr:housenumber" v="881"/>
    <tag k="addr:street" v="Cross Road"/>
    <tag k="addr:state" v="VT"/>
    <tag k="ref:vcgi:esiteid" v="252643"/>
  </node>
  <node id="-587" visible="true" lat="43.83143234" lon="-72.38007354">
    <tag k="addr:city" v="Strafford"/>
    <tag k="addr:housenumber" v="330"/>
    <tag k="addr:street" v="Route 132"/>
    <tag k="addr:state" v="VT"/>
    <tag k="ref:vcgi:esiteid" v="252644"/>
  </node>
  <node id="-588" visible="true" lat="43.83121182" lon="-72.36494571">
    <tag k="addr:city" v="Strafford"/>
    <tag k="addr:housenumber" v="32"/>
    <tag k="addr:street" v="Downer Forest Road"/>
    <tag k="addr:state" v="VT"/>
    <tag k="ref:vcgi:esiteid" v="252645"/>
  </node>
  <node id="-590" visible="true" lat="43.8308858" lon="-72.40945515">
    <tag k="addr:city" v="Strafford"/>
    <tag k="addr:housenumber" v="10"/>
    <tag k="addr:street" v="Brokaw Road"/>
    <tag k="addr:state" v="VT"/>
    <tag k="ref:vcgi:esiteid" v="252647"/>
  </node>
  <node id="-591" visible="true" lat="43.83109447" lon="-72.36373177">
    <tag k="addr:city" v="Strafford"/>
    <tag k="addr:housenumber" v="31"/>
    <tag k="addr:street" v="Downer Forest Road"/>
    <tag k="addr:state" v="VT"/>
    <tag k="ref:vcgi:esiteid" v="252648"/>
  </node>
  <node id="-592" visible="true" lat="43.8305397" lon="-72.37940979">
    <tag k="addr:city" v="Strafford"/>
    <tag k="addr:housenumber" v="323"/>
    <tag k="addr:street" v="Route 132"/>
    <tag k="addr:state" v="VT"/>
    <tag k="ref:vcgi:esiteid" v="252649"/>
  </node>
  <node id="-593" visible="true" lat="43.83061923" lon="-72.37468362">
    <tag k="addr:city" v="Strafford"/>
    <tag k="addr:housenumber" v="16"/>
    <tag k="addr:street" v="Old Moses Farm Road"/>
    <tag k="addr:state" v="VT"/>
    <tag k="ref:vcgi:esiteid" v="252650"/>
  </node>
  <node id="-594" visible="true" lat="43.83035917" lon="-72.40584653">
    <tag k="addr:city" v="Strafford"/>
    <tag k="addr:housenumber" v="33"/>
    <tag k="addr:street" v="Brokaw Road"/>
    <tag k="addr:state" v="VT"/>
    <tag k="ref:vcgi:esiteid" v="252651"/>
  </node>
  <node id="-595" visible="true" lat="43.83076506" lon="-72.39701892">
    <tag k="addr:city" v="Strafford"/>
    <tag k="addr:housenumber" v="29"/>
    <tag k="addr:street" v="Judd Lane"/>
    <tag k="addr:state" v="VT"/>
    <tag k="ref:vcgi:esiteid" v="252652"/>
  </node>
  <node id="-596" visible="true" lat="43.83044443" lon="-72.39227125">
    <tag k="addr:city" v="Strafford"/>
    <tag k="addr:housenumber" v="14"/>
    <tag k="addr:street" v="Blanchard Road"/>
    <tag k="addr:state" v="VT"/>
    <tag k="ref:vcgi:esiteid" v="252653"/>
  </node>
  <node id="-599" visible="true" lat="43.82972265" lon="-72.40951976">
    <tag k="addr:city" v="Strafford"/>
    <tag k="addr:housenumber" v="16"/>
    <tag k="addr:street" v="Brokaw Road"/>
    <tag k="addr:state" v="VT"/>
    <tag k="ref:vcgi:esiteid" v="252657"/>
  </node>
  <node id="-600" visible="true" lat="43.8297348" lon="-72.38787841">
    <tag k="addr:city" v="Strafford"/>
    <tag k="addr:housenumber" v="379"/>
    <tag k="addr:street" v="Route 132"/>
    <tag k="addr:state" v="VT"/>
    <tag k="ref:vcgi:esiteid" v="252658"/>
  </node>
  <node id="-601" visible="true" lat="43.82986653" lon="-72.39386919">
    <tag k="addr:city" v="Strafford"/>
    <tag k="addr:housenumber" v="5"/>
    <tag k="addr:street" v="Blanchard Road"/>
    <tag k="addr:state" v="VT"/>
    <tag k="ref:vcgi:esiteid" v="252659"/>
  </node>
  <node id="-602" visible="true" lat="43.82923325" lon="-72.39401214">
    <tag k="addr:city" v="Strafford"/>
    <tag k="addr:housenumber" v="3"/>
    <tag k="addr:street" v="Blanchard Road"/>
    <tag k="addr:state" v="VT"/>
    <tag k="ref:vcgi:esiteid" v="252660"/>
  </node>
  <node id="-603" visible="true" lat="43.82923787" lon="-72.37569425">
    <tag k="addr:city" v="Strafford"/>
    <tag k="addr:housenumber" v="28"/>
    <tag k="addr:street" v="Old Moses Farm Road"/>
    <tag k="addr:state" v="VT"/>
    <tag k="ref:vcgi:esiteid" v="252661"/>
  </node>
  <node id="-604" visible="true" lat="43.82920187" lon="-72.39999332">
    <tag k="addr:city" v="Strafford"/>
    <tag k="addr:housenumber" v="434"/>
    <tag k="addr:street" v="Route 132"/>
    <tag k="addr:state" v="VT"/>
    <tag k="ref:vcgi:esiteid" v="252662"/>
  </node>
  <node id="-606" visible="true" lat="43.82888795" lon="-72.39315098">
    <tag k="addr:city" v="Strafford"/>
    <tag k="addr:housenumber" v="5"/>
    <tag k="addr:street" v="Lent Road"/>
    <tag k="addr:state" v="VT"/>
    <tag k="ref:vcgi:esiteid" v="252664"/>
  </node>
  <node id="-607" visible="true" lat="43.82869338" lon="-72.33667755">
    <tag k="addr:city" v="Strafford"/>
    <tag k="addr:housenumber" v="136"/>
    <tag k="addr:street" v="Mine Road"/>
    <tag k="addr:state" v="VT"/>
    <tag k="ref:vcgi:esiteid" v="252665"/>
  </node>
  <node id="-608" visible="true" lat="43.82841274" lon="-72.33354399">
    <tag k="addr:city" v="Strafford"/>
    <tag k="addr:housenumber" v="146"/>
    <tag k="addr:street" v="Mine Road"/>
    <tag k="addr:state" v="VT"/>
    <tag k="ref:vcgi:esiteid" v="252666"/>
  </node>
  <node id="-609" visible="true" lat="43.82826518" lon="-72.39228475">
    <tag k="addr:city" v="Strafford"/>
    <tag k="addr:housenumber" v="13"/>
    <tag k="addr:street" v="Lent Road"/>
    <tag k="addr:state" v="VT"/>
    <tag k="ref:vcgi:esiteid" v="252667"/>
  </node>
  <node id="-610" visible="true" lat="43.82772313" lon="-72.33258074">
    <tag k="addr:city" v="Strafford"/>
    <tag k="addr:housenumber" v="166"/>
    <tag k="addr:street" v="Mine Road"/>
    <tag k="addr:state" v="VT"/>
    <tag k="ref:vcgi:esiteid" v="252668"/>
  </node>
  <node id="-612" visible="true" lat="43.82785922" lon="-72.37982905">
    <tag k="addr:city" v="Strafford"/>
    <tag k="addr:housenumber" v="38"/>
    <tag k="addr:street" v="Old Moses Farm Road"/>
    <tag k="addr:state" v="VT"/>
    <tag k="ref:vcgi:esiteid" v="252670"/>
  </node>
  <node id="-613" visible="true" lat="43.82772475" lon="-72.33173188">
    <tag k="addr:city" v="Strafford"/>
    <tag k="addr:housenumber" v="165"/>
    <tag k="addr:street" v="Mine Road"/>
    <tag k="addr:state" v="VT"/>
    <tag k="ref:vcgi:esiteid" v="252671"/>
  </node>
  <node id="-614" visible="true" lat="43.82735061" lon="-72.39750671">
    <tag k="addr:city" v="Strafford"/>
    <tag k="addr:housenumber" v="423"/>
    <tag k="addr:street" v="Route 132"/>
    <tag k="addr:state" v="VT"/>
    <tag k="ref:vcgi:esiteid" v="252673"/>
  </node>
  <node id="-615" visible="true" lat="43.82734479" lon="-72.40018336">
    <tag k="addr:city" v="Strafford"/>
    <tag k="addr:housenumber" v="437"/>
    <tag k="addr:street" v="Route 132"/>
    <tag k="addr:state" v="VT"/>
    <tag k="ref:vcgi:esiteid" v="252674"/>
  </node>
  <node id="-616" visible="true" lat="43.82711872" lon="-72.33185469">
    <tag k="addr:city" v="Strafford"/>
    <tag k="addr:housenumber" v="170"/>
    <tag k="addr:street" v="Mine Road"/>
    <tag k="addr:state" v="VT"/>
    <tag k="ref:vcgi:esiteid" v="252675"/>
  </node>
  <node id="-617" visible="true" lat="43.82702583" lon="-72.37777979">
    <tag k="addr:city" v="Strafford"/>
    <tag k="addr:housenumber" v="41"/>
    <tag k="addr:street" v="Old Moses Farm Road"/>
    <tag k="addr:state" v="VT"/>
    <tag k="ref:vcgi:esiteid" v="252676"/>
  </node>
  <node id="-618" visible="true" lat="43.82672989" lon="-72.36423935">
    <tag k="addr:city" v="Strafford"/>
    <tag k="addr:housenumber" v="62"/>
    <tag k="addr:street" v="Downer Forest Road"/>
    <tag k="addr:state" v="VT"/>
    <tag k="ref:vcgi:esiteid" v="252677"/>
  </node>
  <node id="-619" visible="true" lat="43.82644878" lon="-72.33200044">
    <tag k="addr:city" v="Strafford"/>
    <tag k="addr:housenumber" v="172"/>
    <tag k="addr:street" v="Mine Road"/>
    <tag k="addr:state" v="VT"/>
    <tag k="ref:vcgi:esiteid" v="252678"/>
  </node>
  <node id="-625" visible="true" lat="43.82515864" lon="-72.36461109">
    <tag k="addr:city" v="Strafford"/>
    <tag k="addr:housenumber" v="68"/>
    <tag k="addr:street" v="Downer Forest Road"/>
    <tag k="addr:state" v="VT"/>
    <tag k="ref:vcgi:esiteid" v="252684"/>
  </node>
  <node id="-627" visible="true" lat="43.82456676" lon="-72.33298186">
    <tag k="addr:city" v="Strafford"/>
    <tag k="addr:housenumber" v="190"/>
    <tag k="addr:street" v="Mine Road"/>
    <tag k="addr:state" v="VT"/>
    <tag k="ref:vcgi:esiteid" v="252686"/>
  </node>
  <node id="-629" visible="true" lat="43.8242815" lon="-72.36381103">
    <tag k="addr:city" v="Strafford"/>
    <tag k="addr:housenumber" v="81"/>
    <tag k="addr:street" v="Downer Forest Road"/>
    <tag k="addr:state" v="VT"/>
    <tag k="ref:vcgi:esiteid" v="252688"/>
  </node>
  <node id="-630" visible="true" lat="43.8235789" lon="-72.39144515">
    <tag k="addr:city" v="Strafford"/>
    <tag k="addr:housenumber" v="48"/>
    <tag k="addr:street" v="Lent Road"/>
    <tag k="addr:state" v="VT"/>
    <tag k="ref:vcgi:esiteid" v="252689"/>
  </node>
  <node id="-632" visible="true" lat="43.82274797" lon="-72.36504408">
    <tag k="addr:city" v="Strafford"/>
    <tag k="addr:housenumber" v="90"/>
    <tag k="addr:street" v="Downer Forest Road"/>
    <tag k="addr:state" v="VT"/>
    <tag k="ref:vcgi:esiteid" v="252691"/>
  </node>
  <node id="-634" visible="true" lat="43.82241371" lon="-72.39032745">
    <tag k="addr:city" v="Strafford"/>
    <tag k="addr:housenumber" v="54"/>
    <tag k="addr:street" v="Lent Road"/>
    <tag k="addr:state" v="VT"/>
    <tag k="ref:vcgi:esiteid" v="252693"/>
  </node>
  <node id="-635" visible="true" lat="43.82189471" lon="-72.36548924">
    <tag k="addr:city" v="Strafford"/>
    <tag k="addr:housenumber" v="96"/>
    <tag k="addr:street" v="Downer Forest Road"/>
    <tag k="addr:state" v="VT"/>
    <tag k="ref:vcgi:esiteid" v="252694"/>
  </node>
  <node id="-638" visible="true" lat="43.82087506" lon="-72.366685">
    <tag k="addr:city" v="Strafford"/>
    <tag k="addr:housenumber" v="102"/>
    <tag k="addr:street" v="Downer Forest Road"/>
    <tag k="addr:state" v="VT"/>
    <tag k="ref:vcgi:esiteid" v="252697"/>
  </node>
  <node id="-640" visible="true" lat="43.81988494" lon="-72.36667509">
    <tag k="addr:city" v="Strafford"/>
    <tag k="addr:housenumber" v="112"/>
    <tag k="addr:street" v="Downer Forest Road"/>
    <tag k="addr:state" v="VT"/>
    <tag k="ref:vcgi:esiteid" v="252700"/>
  </node>
  <node id="-641" visible="true" lat="43.81919585" lon="-72.36546437">
    <tag k="addr:city" v="Strafford"/>
    <tag k="addr:housenumber" v="109"/>
    <tag k="addr:street" v="Downer Forest Road"/>
    <tag k="addr:state" v="VT"/>
    <tag k="ref:vcgi:esiteid" v="252701"/>
  </node>
  <node id="-643" visible="true" lat="43.81738531" lon="-72.36628532">
    <tag k="addr:city" v="Strafford"/>
    <tag k="addr:housenumber" v="127"/>
    <tag k="addr:street" v="Downer Forest Road"/>
    <tag k="addr:state" v="VT"/>
    <tag k="ref:vcgi:esiteid" v="252704"/>
  </node>
  <node id="-647" visible="true" lat="43.83400703" lon="-72.34563809">
    <tag k="addr:city" v="Strafford"/>
    <tag k="addr:housenumber" v="80"/>
    <tag k="addr:street" v="Mine Road"/>
    <tag k="addr:state" v="VT"/>
    <tag k="ref:vcgi:esiteid" v="252708"/>
  </node>
  <node id="-649" visible="true" lat="43.88954932" lon="-72.36538775">
    <tag k="addr:city" v="Strafford"/>
    <tag k="addr:housenumber" v="149"/>
    <tag k="addr:street" v="Old City Falls Road"/>
    <tag k="addr:state" v="VT"/>
    <tag k="ref:vcgi:esiteid" v="252711"/>
  </node>
  <node id="-650" visible="true" lat="43.86376953" lon="-72.43187713">
    <tag k="addr:city" v="Strafford"/>
    <tag k="addr:housenumber" v="40"/>
    <tag k="addr:street" v="Morse Road"/>
    <tag k="addr:state" v="VT"/>
    <tag k="ref:vcgi:esiteid" v="252712"/>
  </node>
  <node id="-652" visible="true" lat="43.83419879" lon="-72.36908243">
    <tag k="addr:city" v="Strafford"/>
    <tag k="addr:housenumber" v="264"/>
    <tag k="addr:street" v="Route 132"/>
    <tag k="addr:state" v="VT"/>
    <tag k="ref:vcgi:esiteid" v="252715"/>
  </node>
  <node id="-656" visible="true" lat="43.83313019" lon="-72.35094703">
    <tag k="addr:city" v="Strafford"/>
    <tag k="addr:housenumber" v="34"/>
    <tag k="addr:street" v="Turnpike Road"/>
    <tag k="addr:state" v="VT"/>
    <tag k="ref:vcgi:esiteid" v="252719"/>
  </node>
  <node id="-659" visible="true" lat="43.89016623" lon="-72.36247536">
    <tag k="addr:city" v="Strafford"/>
    <tag k="addr:housenumber" v="8"/>
    <tag k="addr:street" v="Watson Road"/>
    <tag k="addr:state" v="VT"/>
    <tag k="ref:vcgi:esiteid" v="252722"/>
  </node>
  <node id="-660" visible="true" lat="43.89014646" lon="-72.36346822">
    <tag k="addr:city" v="Strafford"/>
    <tag k="addr:housenumber" v="2"/>
    <tag k="addr:street" v="Watson Road"/>
    <tag k="addr:state" v="VT"/>
    <tag k="ref:vcgi:esiteid" v="252723"/>
  </node>
  <node id="-662" visible="true" lat="43.86273729" lon="-72.39922865">
    <tag k="addr:city" v="Strafford"/>
    <tag k="addr:housenumber" v="171"/>
    <tag k="addr:street" v="Brook Road"/>
    <tag k="addr:state" v="VT"/>
    <tag k="ref:vcgi:esiteid" v="252726"/>
  </node>
  <node id="-664" visible="true" lat="43.8312536" lon="-72.3733064">
    <tag k="addr:city" v="Strafford"/>
    <tag k="addr:housenumber" v="8"/>
    <tag k="addr:street" v="Old Moses Farm Road"/>
    <tag k="addr:state" v="VT"/>
    <tag k="ref:vcgi:esiteid" v="252728"/>
  </node>
  <node id="-667" visible="true" lat="43.87418915" lon="-72.39047902">
    <tag k="addr:city" v="Strafford"/>
    <tag k="addr:housenumber" v="12"/>
    <tag k="addr:street" v="Wetmore Road"/>
    <tag k="addr:state" v="VT"/>
    <tag k="ref:vcgi:esiteid" v="252734"/>
  </node>
  <node id="-668" visible="true" lat="43.82766221" lon="-72.38263106">
    <tag k="addr:city" v="Strafford"/>
    <tag k="addr:housenumber" v="339"/>
    <tag k="addr:street" v="Route 132"/>
    <tag k="addr:state" v="VT"/>
    <tag k="ref:vcgi:esiteid" v="252735"/>
  </node>
  <node id="-669" visible="true" lat="43.92284555" lon="-72.39417362">
    <tag k="addr:city" v="Strafford"/>
    <tag k="addr:housenumber" v="3"/>
    <tag k="addr:street" v="Dow Road"/>
    <tag k="addr:state" v="VT"/>
    <tag k="ref:vcgi:esiteid" v="252736"/>
  </node>
  <node id="-670" visible="true" lat="43.84480545" lon="-72.39422728">
    <tag k="addr:city" v="Strafford"/>
    <tag k="addr:housenumber" v="121"/>
    <tag k="addr:street" v="Carpenter Hill Road"/>
    <tag k="addr:state" v="VT"/>
    <tag k="ref:vcgi:esiteid" v="252737"/>
  </node>
  <node id="-671" visible="true" lat="43.84373638" lon="-72.41579188">
    <tag k="addr:city" v="Strafford"/>
    <tag k="addr:housenumber" v="1841"/>
    <tag k="addr:street" v="Cross Road"/>
    <tag k="addr:state" v="VT"/>
    <tag k="ref:vcgi:esiteid" v="252740"/>
  </node>
  <node id="-672" visible="true" lat="43.84699145" lon="-72.41570901">
    <tag k="addr:city" v="Strafford"/>
    <tag k="addr:housenumber" v="308"/>
    <tag k="addr:street" v="Brook Road"/>
    <tag k="addr:state" v="VT"/>
    <tag k="ref:vcgi:esiteid" v="252741"/>
  </node>
  <node id="-675" visible="true" lat="43.88848288" lon="-72.36517071">
    <tag k="addr:city" v="Strafford"/>
    <tag k="addr:housenumber" v="148"/>
    <tag k="addr:street" v="Old City Falls Road"/>
    <tag k="addr:state" v="VT"/>
    <tag k="ref:vcgi:esiteid" v="252747"/>
  </node>
  <node id="-679" visible="true" lat="43.87571878" lon="-72.31228926">
    <tag k="addr:city" v="Strafford"/>
    <tag k="addr:housenumber" v="3136"/>
    <tag k="addr:street" v="Miller Pond Road"/>
    <tag k="addr:state" v="VT"/>
    <tag k="ref:vcgi:esiteid" v="252751"/>
  </node>
  <node id="-680" visible="true" lat="43.87167782" lon="-72.43202551">
    <tag k="addr:city" v="Strafford"/>
    <tag k="addr:housenumber" v="185"/>
    <tag k="addr:street" v="Kibling Hill Road"/>
    <tag k="addr:state" v="VT"/>
    <tag k="ref:vcgi:esiteid" v="252753"/>
  </node>
  <node id="-681" visible="true" lat="43.86289382" lon="-72.40266625">
    <tag k="addr:city" v="Strafford"/>
    <tag k="addr:housenumber" v="176"/>
    <tag k="addr:street" v="Brook Road"/>
    <tag k="addr:state" v="VT"/>
    <tag k="ref:vcgi:esiteid" v="252754"/>
  </node>
  <node id="-682" visible="true" lat="43.86684079" lon="-72.35454061">
    <tag k="addr:city" v="Strafford"/>
    <tag k="addr:housenumber" v="139"/>
    <tag k="addr:street" v="Alger Brook Road"/>
    <tag k="addr:state" v="VT"/>
    <tag k="ref:vcgi:esiteid" v="252755"/>
  </node>
  <node id="-685" visible="true" lat="43.86116455" lon="-72.32144518">
    <tag k="addr:city" v="Strafford"/>
    <tag k="addr:housenumber" v="2044"/>
    <tag k="addr:street" v="Miller Pond Road"/>
    <tag k="addr:state" v="VT"/>
    <tag k="ref:vcgi:esiteid" v="252758"/>
  </node>
  <node id="-686" visible="true" lat="43.86139448" lon="-72.32354201">
    <tag k="addr:city" v="Strafford"/>
    <tag k="addr:housenumber" v="45"/>
    <tag k="addr:street" v="Tognacci Road"/>
    <tag k="addr:state" v="VT"/>
    <tag k="ref:vcgi:esiteid" v="252759"/>
  </node>
  <node id="-687" visible="true" lat="43.83444834" lon="-72.42460836">
    <tag k="addr:city" v="Strafford"/>
    <tag k="addr:housenumber" v="398"/>
    <tag k="addr:street" v="Brook Road"/>
    <tag k="addr:state" v="VT"/>
    <tag k="ref:vcgi:esiteid" v="252760"/>
  </node>
  <node id="-688" visible="true" lat="43.83467668" lon="-72.36976161">
    <tag k="addr:city" v="Strafford"/>
    <tag k="addr:housenumber" v="260"/>
    <tag k="addr:street" v="Route 132"/>
    <tag k="addr:state" v="VT"/>
    <tag k="ref:vcgi:esiteid" v="252764"/>
  </node>
  <node id="-690" visible="true" lat="43.82266899" lon="-72.36815218">
    <tag k="addr:city" v="Strafford"/>
    <tag k="addr:housenumber" v="94"/>
    <tag k="addr:street" v="Downer Forest Road"/>
    <tag k="addr:state" v="VT"/>
    <tag k="ref:vcgi:esiteid" v="252768"/>
  </node>
  <node id="-691" visible="true" lat="43.82204752" lon="-72.36435614">
    <tag k="addr:city" v="Strafford"/>
    <tag k="addr:housenumber" v="91"/>
    <tag k="addr:street" v="Downer Forest Road"/>
    <tag k="addr:state" v="VT"/>
    <tag k="ref:vcgi:esiteid" v="252769"/>
  </node>
  <node id="-694" visible="true" lat="43.83643343" lon="-72.3552329">
    <tag k="addr:city" v="Strafford"/>
    <tag k="addr:housenumber" v="7"/>
    <tag k="addr:street" v="Mine Road"/>
    <tag k="addr:state" v="VT"/>
    <tag k="ref:vcgi:esiteid" v="252772"/>
  </node>
  <node id="-695" visible="true" lat="43.87527615" lon="-72.33418806">
    <tag k="addr:city" v="Strafford"/>
    <tag k="addr:housenumber" v="100"/>
    <tag k="addr:street" v="Maple Hill Road"/>
    <tag k="addr:state" v="VT"/>
    <tag k="ref:vcgi:esiteid" v="252773"/>
  </node>
  <node id="-697" visible="true" lat="43.83314082" lon="-72.41225419">
    <tag k="addr:city" v="Strafford"/>
    <tag k="addr:housenumber" v="2"/>
    <tag k="addr:street" v="Hoyt Lane"/>
    <tag k="addr:state" v="VT"/>
    <tag k="ref:vcgi:esiteid" v="252775"/>
  </node>
  <node id="-698" visible="true" lat="43.83326892" lon="-72.41407758">
    <tag k="addr:city" v="Strafford"/>
    <tag k="addr:housenumber" v="15"/>
    <tag k="addr:street" v="Hoyt Lane"/>
    <tag k="addr:state" v="VT"/>
    <tag k="ref:vcgi:esiteid" v="252776"/>
  </node>
  <node id="-700" visible="true" lat="43.83844578" lon="-72.34593495">
    <tag k="addr:city" v="Strafford"/>
    <tag k="addr:housenumber" v="4"/>
    <tag k="addr:street" v="Whitcomb Hill Road"/>
    <tag k="addr:state" v="VT"/>
    <tag k="ref:vcgi:esiteid" v="252778"/>
  </node>
  <node id="-704" visible="true" lat="43.87897838" lon="-72.31757509">
    <tag k="addr:city" v="Strafford"/>
    <tag k="addr:housenumber" v="3534"/>
    <tag k="addr:street" v="Miller Pond Road"/>
    <tag k="addr:state" v="VT"/>
    <tag k="ref:vcgi:esiteid" v="306955"/>
  </node>
  <node id="-705" visible="true" lat="43.83129495" lon="-72.37096154">
    <tag k="addr:city" v="Strafford"/>
    <tag k="addr:housenumber" v="287"/>
    <tag k="addr:street" v="Route 132"/>
    <tag k="addr:state" v="VT"/>
    <tag k="ref:vcgi:esiteid" v="309971"/>
  </node>
  <node id="-706" visible="true" lat="43.84837818" lon="-72.37654435">
    <tag k="addr:city" v="Strafford"/>
    <tag k="addr:housenumber" v="35"/>
    <tag k="addr:street" v="Carpenter Hill Road"/>
    <tag k="addr:state" v="VT"/>
    <tag k="ref:vcgi:esiteid" v="309972"/>
  </node>
  <node id="-707" visible="true" lat="43.89016408" lon="-72.35965615">
    <tag k="addr:city" v="Strafford"/>
    <tag k="addr:housenumber" v="21"/>
    <tag k="addr:street" v="Watson Road"/>
    <tag k="addr:state" v="VT"/>
    <tag k="ref:vcgi:esiteid" v="312302"/>
  </node>
  <node id="-709" visible="true" lat="43.83233182" lon="-72.41166639">
    <tag k="addr:city" v="Strafford"/>
    <tag k="addr:housenumber" v="5"/>
    <tag k="addr:street" v="Hoyt Lane"/>
    <tag k="addr:state" v="VT"/>
    <tag k="ref:vcgi:esiteid" v="312304"/>
  </node>
  <node id="-710" visible="true" lat="43.83418892" lon="-72.34371273">
    <tag k="addr:city" v="Strafford"/>
    <tag k="addr:housenumber" v="11"/>
    <tag k="addr:street" v="Thorp Road"/>
    <tag k="addr:state" v="VT"/>
    <tag k="ref:vcgi:esiteid" v="312305"/>
  </node>
  <node id="-711" visible="true" lat="43.82842053" lon="-72.40199461">
    <tag k="addr:city" v="Strafford"/>
    <tag k="addr:housenumber" v="2"/>
    <tag k="addr:street" v="Oneil Lane"/>
    <tag k="addr:state" v="VT"/>
    <tag k="ref:vcgi:esiteid" v="312306"/>
  </node>
  <node id="-712" visible="true" lat="43.82862258" lon="-72.40340977">
    <tag k="addr:city" v="Strafford"/>
    <tag k="addr:housenumber" v="15"/>
    <tag k="addr:street" v="Oneil Lane"/>
    <tag k="addr:state" v="VT"/>
    <tag k="ref:vcgi:esiteid" v="312307"/>
  </node>
  <node id="-718" visible="true" lat="43.88462127" lon="-72.36110234">
    <tag k="addr:city" v="Strafford"/>
    <tag k="addr:housenumber" v="1"/>
    <tag k="addr:street" v="Eastman Lane"/>
    <tag k="addr:state" v="VT"/>
    <tag k="ref:vcgi:esiteid" v="315569"/>
  </node>
  <node id="-723" visible="true" lat="43.89047453" lon="-72.36059707">
    <tag k="addr:city" v="Strafford"/>
    <tag k="addr:housenumber" v="17"/>
    <tag k="addr:street" v="Watson Road"/>
    <tag k="addr:state" v="VT"/>
    <tag k="ref:vcgi:esiteid" v="327306"/>
  </node>
  <node id="-725" visible="true" lat="43.82935164" lon="-72.3967262">
    <tag k="addr:city" v="Strafford"/>
    <tag k="addr:housenumber" v="2"/>
    <tag k="addr:street" v="Judd Lane"/>
    <tag k="addr:state" v="VT"/>
    <tag k="ref:vcgi:esiteid" v="331287"/>
  </node>
  <node id="-726" visible="true" lat="43.91499435" lon="-72.33780233">
    <tag k="addr:city" v="Strafford"/>
    <tag k="addr:housenumber" v="15"/>
    <tag k="addr:street" v="Moody Swamp Road"/>
    <tag k="addr:state" v="VT"/>
    <tag k="ref:vcgi:esiteid" v="335537"/>
  </node>
  <node id="-727" visible="true" lat="43.88959396" lon="-72.40553451">
    <tag k="addr:city" v="Strafford"/>
    <tag k="addr:housenumber" v="64"/>
    <tag k="addr:street" v="Old Tunbridge Road"/>
    <tag k="addr:state" v="VT"/>
    <tag k="ref:vcgi:esiteid" v="336520"/>
  </node>
  <node id="-728" visible="true" lat="43.86520096" lon="-72.31390656">
    <tag k="addr:city" v="Strafford"/>
    <tag k="addr:housenumber" v="10"/>
    <tag k="addr:street" v="Ward Road"/>
    <tag k="addr:state" v="VT"/>
    <tag k="ref:vcgi:esiteid" v="337189"/>
  </node>
  <node id="-729" visible="true" lat="43.83108842" lon="-72.40301248">
    <tag k="addr:city" v="Strafford"/>
    <tag k="addr:housenumber" v="34"/>
    <tag k="addr:street" v="Oneil Lane"/>
    <tag k="addr:state" v="VT"/>
    <tag k="ref:vcgi:esiteid" v="337190"/>
  </node>
  <node id="-730" visible="true" lat="43.82325282" lon="-72.36408607">
    <tag k="addr:city" v="Strafford"/>
    <tag k="addr:housenumber" v="87"/>
    <tag k="addr:street" v="Downer Forest Road"/>
    <tag k="addr:state" v="VT"/>
    <tag k="ref:vcgi:esiteid" v="337191"/>
  </node>
  <node id="-739" visible="true" lat="43.88562689" lon="-72.34849112">
    <tag k="addr:city" v="Strafford"/>
    <tag k="addr:housenumber" v="130"/>
    <tag k="addr:street" v="Pennock Road"/>
    <tag k="addr:state" v="VT"/>
    <tag k="ref:vcgi:esiteid" v="343801"/>
  </node>
  <node id="-745" visible="true" lat="43.8329245" lon="-72.36290233">
    <tag k="addr:city" v="Strafford"/>
    <tag k="addr:housenumber" v="17"/>
    <tag k="addr:street" v="Downer Forest Road"/>
    <tag k="addr:state" v="VT"/>
    <tag k="ref:vcgi:esiteid" v="345632"/>
  </node>
  <node id="-748" visible="true" lat="43.87164101" lon="-72.34637618">
    <tag k="addr:city" v="Strafford"/>
    <tag k="addr:housenumber" v="201"/>
    <tag k="addr:street" v="Alger Brook Road"/>
    <tag k="addr:state" v="VT"/>
    <tag k="ref:vcgi:esiteid" v="345869"/>
  </node>
  <node id="-753" visible="true" lat="43.82986989" lon="-72.36349149">
    <tag k="addr:city" v="Strafford"/>
    <tag k="addr:housenumber" v="39"/>
    <tag k="addr:street" v="Downer Forest Road"/>
    <tag k="addr:state" v="VT"/>
    <tag k="ref:vcgi:esiteid" v="446078"/>
  </node>
  <node id="-754" visible="true" lat="43.83742253" lon="-72.41110715">
    <tag k="addr:city" v="Strafford"/>
    <tag k="addr:housenumber" v="1280"/>
    <tag k="addr:street" v="Cross Road"/>
    <tag k="addr:state" v="VT"/>
    <tag k="ref:vcgi:esiteid" v="448548"/>
  </node>
  <node id="-757" visible="true" lat="43.82713356" lon="-72.40816761">
    <tag k="addr:city" v="Strafford"/>
    <tag k="addr:housenumber" v="500"/>
    <tag k="addr:street" v="Cross Road"/>
    <tag k="addr:state" v="VT"/>
    <tag k="ref:vcgi:esiteid" v="450155"/>
  </node>
  <node id="-761" visible="true" lat="43.82658855" lon="-72.37724132">
    <tag k="addr:city" v="Strafford"/>
    <tag k="addr:housenumber" v="37"/>
    <tag k="addr:street" v="Old Moses Farm Road"/>
    <tag k="addr:state" v="VT"/>
    <tag k="ref:vcgi:esiteid" v="453112"/>
  </node>
  <node id="-767" visible="true" lat="43.86874125" lon="-72.39679538">
    <tag k="addr:city" v="Strafford"/>
    <tag k="addr:housenumber" v="116"/>
    <tag k="addr:street" v="Robert Lane"/>
    <tag k="addr:state" v="VT"/>
    <tag k="ref:vcgi:esiteid" v="610959"/>
  </node>
  <node id="-769" visible="true" lat="43.8288075" lon="-72.36467677">
    <tag k="addr:city" v="Strafford"/>
    <tag k="addr:housenumber" v="34"/>
    <tag k="addr:street" v="Downer Forest Road"/>
    <tag k="addr:state" v="VT"/>
    <tag k="ref:vcgi:esiteid" v="611757"/>
  </node>
  <node id="-770" visible="true" lat="43.87385851" lon="-72.4158402">
    <tag k="addr:city" v="Strafford"/>
    <tag k="addr:housenumber" v="10"/>
    <tag k="addr:street" v="Havelok Hill Road"/>
    <tag k="addr:state" v="VT"/>
    <tag k="ref:vcgi:esiteid" v="611940"/>
  </node>
  <node id="-781" visible="true" lat="43.84841541" lon="-72.37381847">
    <tag k="addr:city" v="Strafford"/>
    <tag k="addr:housenumber" v="20"/>
    <tag k="addr:street" v="Carpenter Hill Road"/>
    <tag k="addr:state" v="VT"/>
    <tag k="ref:vcgi:esiteid" v="750200"/>
  </node>
  <node id="-782" visible="true" lat="43.87557934" lon="-72.33783145">
    <tag k="addr:city" v="Strafford"/>
    <tag k="addr:housenumber" v="116"/>
    <tag k="addr:street" v="Maple Hill Road"/>
    <tag k="addr:state" v="VT"/>
    <tag k="ref:vcgi:esiteid" v="750290"/>
  </node>
  <node id="-786" visible="true" lat="43.86795698" lon="-72.3830237">
    <tag k="addr:city" v="Strafford"/>
    <tag k="addr:housenumber" v="36"/>
    <tag k="addr:street" v="Brook Road"/>
    <tag k="addr:state" v="VT"/>
    <tag k="ref:vcgi:esiteid" v="752187"/>
  </node>
  <node id="-787" visible="true" lat="43.8338977" lon="-72.35618662">
    <tag k="addr:city" v="Strafford"/>
    <tag k="addr:housenumber" v="4"/>
    <tag k="addr:street" v="Turnpike Road"/>
    <tag k="addr:state" v="VT"/>
    <tag k="ref:vcgi:esiteid" v="752227"/>
  </node>
  <node id="-814" visible="true" lat="43.84685715" lon="-72.39758559">
    <tag k="addr:city" v="Strafford"/>
    <tag k="addr:housenumber" v="144"/>
    <tag k="addr:street" v="Carpenter Hill Road"/>
    <tag k="addr:state" v="VT"/>
    <tag k="ref:vcgi:esiteid" v="764547"/>
  </node>
  <node id="-817" visible="true" lat="43.84454848" lon="-72.41250346">
    <tag k="addr:city" v="Strafford"/>
    <tag k="addr:housenumber" v="224"/>
    <tag k="addr:street" v="Carpenter Hill Road"/>
    <tag k="addr:state" v="VT"/>
    <tag k="ref:vcgi:esiteid" v="764583"/>
  </node>
</osm>
