<?xml version="1.0" encoding="UTF-8"?>
<osm version="0.6" generator="JOSM" upload="false">
  <node id="-103" visible="true" lat="43.92061811" lon="-72.36107681">
    <tag k="addr:housenumber" v="148"/>
    <tag k="addr:street" v="Van Dyke Road"/>
    <tag k="addr:state" v="VT"/>
    <tag k="ref:vcgi:esiteid" v="252115"/>
  </node>
  <node id="-104" visible="true" lat="43.9176559" lon="-72.35913969">
    <tag k="addr:housenumber" v="125"/>
    <tag k="addr:street" v="Van Dyke Road"/>
    <tag k="addr:state" v="VT"/>
    <tag k="ref:vcgi:esiteid" v="252116"/>
  </node>
  <node id="-105" visible="true" lat="43.91695785" lon="-72.3692398">
    <tag k="addr:housenumber" v="159"/>
    <tag k="addr:street" v="Hemenway Road"/>
    <tag k="addr:state" v="VT"/>
    <tag k="ref:vcgi:esiteid" v="252117"/>
  </node>
  <node id="-106" visible="true" lat="43.91696167" lon="-72.37792205">
    <tag k="addr:housenumber" v="95"/>
    <tag k="addr:street" v="Hemenway Road"/>
    <tag k="addr:state" v="VT"/>
    <tag k="ref:vcgi:esiteid" v="252118"/>
  </node>
  <node id="-107" visible="true" lat="43.91396825" lon="-72.35942028">
    <tag k="addr:housenumber" v="103"/>
    <tag k="addr:street" v="Van Dyke Road"/>
    <tag k="addr:state" v="VT"/>
    <tag k="ref:vcgi:esiteid" v="252120"/>
  </node>
  <node id="-108" visible="true" lat="43.91302816" lon="-72.35462011">
    <tag k="addr:housenumber" v="88"/>
    <tag k="addr:street" v="Van Dyke Road"/>
    <tag k="addr:state" v="VT"/>
    <tag k="ref:vcgi:esiteid" v="252121"/>
  </node>
  <node id="-110" visible="true" lat="43.91172723" lon="-72.37319171">
    <tag k="addr:housenumber" v="118"/>
    <tag k="addr:street" v="Hemenway Road"/>
    <tag k="addr:state" v="VT"/>
    <tag k="ref:vcgi:esiteid" v="252123"/>
  </node>
  <node id="-111" visible="true" lat="43.91091291" lon="-72.3413105">
    <tag k="addr:housenumber" v="349"/>
    <tag k="addr:street" v="Old City Falls Road"/>
    <tag k="addr:state" v="VT"/>
    <tag k="ref:vcgi:esiteid" v="252125"/>
  </node>
  <node id="-112" visible="true" lat="43.9097984" lon="-72.3532252">
    <tag k="addr:housenumber" v="19"/>
    <tag k="addr:street" v="Rogers Road"/>
    <tag k="addr:state" v="VT"/>
    <tag k="ref:vcgi:esiteid" v="252126"/>
  </node>
  <node id="-113" visible="true" lat="43.908654" lon="-72.33814087">
    <tag k="addr:housenumber" v="344"/>
    <tag k="addr:street" v="Old City Falls Road"/>
    <tag k="addr:state" v="VT"/>
    <tag k="ref:vcgi:esiteid" v="252128"/>
  </node>
  <node id="-114" visible="true" lat="43.90951219" lon="-72.35389237">
    <tag k="addr:housenumber" v="62"/>
    <tag k="addr:street" v="Van Dyke Road"/>
    <tag k="addr:state" v="VT"/>
    <tag k="ref:vcgi:esiteid" v="252129"/>
  </node>
  <node id="-115" visible="true" lat="43.9089699" lon="-72.35219452">
    <tag k="addr:housenumber" v="36"/>
    <tag k="addr:street" v="Sugar Grove Lane"/>
    <tag k="addr:state" v="VT"/>
    <tag k="ref:vcgi:esiteid" v="252130"/>
  </node>
  <node id="-116" visible="true" lat="43.90821599" lon="-72.35374088">
    <tag k="addr:housenumber" v="9"/>
    <tag k="addr:street" v="Rogers Road"/>
    <tag k="addr:state" v="VT"/>
    <tag k="ref:vcgi:esiteid" v="252131"/>
  </node>
  <node id="-117" visible="true" lat="43.90796554" lon="-72.34084608">
    <tag k="addr:housenumber" v="326"/>
    <tag k="addr:street" v="Old City Falls Road"/>
    <tag k="addr:state" v="VT"/>
    <tag k="ref:vcgi:esiteid" v="252132"/>
  </node>
  <node id="-118" visible="true" lat="43.90766385" lon="-72.35062639">
    <tag k="addr:housenumber" v="124"/>
    <tag k="addr:street" v="Sugar Grove Lane"/>
    <tag k="addr:state" v="VT"/>
    <tag k="ref:vcgi:esiteid" v="252133"/>
  </node>
  <node id="-120" visible="true" lat="43.90729866" lon="-72.33934046">
    <tag k="addr:housenumber" v="328"/>
    <tag k="addr:street" v="Old City Falls Road"/>
    <tag k="addr:state" v="VT"/>
    <tag k="ref:vcgi:esiteid" v="252135"/>
  </node>
  <node id="-121" visible="true" lat="43.90584143" lon="-72.30364331">
    <tag k="addr:housenumber" v="54"/>
    <tag k="addr:street" v="Ayers Road"/>
    <tag k="addr:state" v="VT"/>
    <tag k="ref:vcgi:esiteid" v="252136"/>
  </node>
  <node id="-122" visible="true" lat="43.90565286" lon="-72.3545565">
    <tag k="addr:housenumber" v="29"/>
    <tag k="addr:street" v="Van Dyke Road"/>
    <tag k="addr:state" v="VT"/>
    <tag k="ref:vcgi:esiteid" v="252137"/>
  </node>
  <node id="-124" visible="true" lat="43.90453377" lon="-72.29833606">
    <tag k="addr:housenumber" v="30"/>
    <tag k="addr:street" v="Ayers Road"/>
    <tag k="addr:state" v="VT"/>
    <tag k="ref:vcgi:esiteid" v="252139"/>
  </node>
  <node id="-126" visible="true" lat="43.90400314" lon="-72.30347442">
    <tag k="addr:housenumber" v="43"/>
    <tag k="addr:street" v="Ayers Road"/>
    <tag k="addr:state" v="VT"/>
    <tag k="ref:vcgi:esiteid" v="252141"/>
  </node>
  <node id="-129" visible="true" lat="43.90340339" lon="-72.36848459">
    <tag k="addr:housenumber" v="63"/>
    <tag k="addr:street" v="Kendall Road"/>
    <tag k="addr:state" v="VT"/>
    <tag k="ref:vcgi:esiteid" v="252145"/>
  </node>
  <node id="-130" visible="true" lat="43.90331839" lon="-72.3621712">
    <tag k="addr:housenumber" v="38"/>
    <tag k="addr:street" v="Kendall Road"/>
    <tag k="addr:state" v="VT"/>
    <tag k="ref:vcgi:esiteid" v="252146"/>
  </node>
  <node id="-132" visible="true" lat="43.90238916" lon="-72.29439867">
    <tag k="addr:housenumber" v="5789"/>
    <tag k="addr:street" v="Miller Pond Road"/>
    <tag k="addr:state" v="VT"/>
    <tag k="ref:vcgi:esiteid" v="252148"/>
  </node>
  <node id="-133" visible="true" lat="43.90235609" lon="-72.36445583">
    <tag k="addr:housenumber" v="43"/>
    <tag k="addr:street" v="Kendall Road"/>
    <tag k="addr:state" v="VT"/>
    <tag k="ref:vcgi:esiteid" v="252149"/>
  </node>
  <node id="-134" visible="true" lat="43.90192031" lon="-72.35514831">
    <tag k="addr:housenumber" v="253"/>
    <tag k="addr:street" v="Old City Falls Road"/>
    <tag k="addr:state" v="VT"/>
    <tag k="ref:vcgi:esiteid" v="252150"/>
  </node>
  <node id="-135" visible="true" lat="43.90132866" lon="-72.35280206">
    <tag k="addr:housenumber" v="258"/>
    <tag k="addr:street" v="Old City Falls Road"/>
    <tag k="addr:state" v="VT"/>
    <tag k="ref:vcgi:esiteid" v="252151"/>
  </node>
  <node id="-136" visible="true" lat="43.90082298" lon="-72.35939882">
    <tag k="addr:housenumber" v="14"/>
    <tag k="addr:street" v="Kendall Road"/>
    <tag k="addr:state" v="VT"/>
    <tag k="ref:vcgi:esiteid" v="252152"/>
  </node>
  <node id="-137" visible="true" lat="43.90056326" lon="-72.35580507">
    <tag k="addr:housenumber" v="246"/>
    <tag k="addr:street" v="Old City Falls Road"/>
    <tag k="addr:state" v="VT"/>
    <tag k="ref:vcgi:esiteid" v="252153"/>
  </node>
  <node id="-138" visible="true" lat="43.89982289" lon="-72.29565164">
    <tag k="addr:housenumber" v="5650"/>
    <tag k="addr:street" v="Miller Pond Road"/>
    <tag k="addr:state" v="VT"/>
    <tag k="ref:vcgi:esiteid" v="252154"/>
  </node>
  <node id="-139" visible="true" lat="43.89965254" lon="-72.36173243">
    <tag k="addr:housenumber" v="17"/>
    <tag k="addr:street" v="Kendall Road"/>
    <tag k="addr:state" v="VT"/>
    <tag k="ref:vcgi:esiteid" v="252155"/>
  </node>
  <node id="-140" visible="true" lat="43.89918436" lon="-72.29606599">
    <tag k="addr:housenumber" v="5584"/>
    <tag k="addr:street" v="Miller Pond Road"/>
    <tag k="addr:state" v="VT"/>
    <tag k="ref:vcgi:esiteid" v="252156"/>
  </node>
  <node id="-141" visible="true" lat="43.89939498" lon="-72.4040451">
    <tag k="addr:housenumber" v="522"/>
    <tag k="addr:street" v="Justin Morrill Memorial Highway"/>
    <tag k="addr:state" v="VT"/>
    <tag k="ref:vcgi:esiteid" v="252157"/>
  </node>
  <node id="-142" visible="true" lat="43.89917738" lon="-72.29526314">
    <tag k="addr:housenumber" v="5652"/>
    <tag k="addr:street" v="Miller Pond Road"/>
    <tag k="addr:state" v="VT"/>
    <tag k="ref:vcgi:esiteid" v="252158"/>
  </node>
  <node id="-143" visible="true" lat="43.89881967" lon="-72.35688777">
    <tag k="addr:housenumber" v="238"/>
    <tag k="addr:street" v="Old City Falls Road"/>
    <tag k="addr:state" v="VT"/>
    <tag k="ref:vcgi:esiteid" v="252159"/>
  </node>
  <node id="-146" visible="true" lat="43.89659855" lon="-72.30193025">
    <tag k="addr:housenumber" v="12"/>
    <tag k="addr:street" v="Camp Loop"/>
    <tag k="addr:state" v="VT"/>
    <tag k="ref:vcgi:esiteid" v="252163"/>
  </node>
  <node id="-148" visible="true" lat="43.89592129" lon="-72.34698214">
    <tag k="addr:housenumber" v="70"/>
    <tag k="addr:street" v="Freeman Road"/>
    <tag k="addr:state" v="VT"/>
    <tag k="ref:vcgi:esiteid" v="252166"/>
  </node>
  <node id="-149" visible="true" lat="43.89571575" lon="-72.36173511">
    <tag k="addr:housenumber" v="19"/>
    <tag k="addr:street" v="Kendall Road"/>
    <tag k="addr:state" v="VT"/>
    <tag k="ref:vcgi:esiteid" v="252167"/>
  </node>
  <node id="-150" visible="true" lat="43.89544296" lon="-72.3034439">
    <tag k="addr:housenumber" v="20"/>
    <tag k="addr:street" v="Camp Loop"/>
    <tag k="addr:state" v="VT"/>
    <tag k="ref:vcgi:esiteid" v="252168"/>
  </node>
  <node id="-152" visible="true" lat="43.89510345" lon="-72.35892486">
    <tag k="addr:housenumber" v="201"/>
    <tag k="addr:street" v="Old City Falls Road"/>
    <tag k="addr:state" v="VT"/>
    <tag k="ref:vcgi:esiteid" v="252170"/>
  </node>
  <node id="-153" visible="true" lat="43.8947516" lon="-72.30288495">
    <tag k="addr:housenumber" v="24"/>
    <tag k="addr:street" v="Camp Loop"/>
    <tag k="addr:state" v="VT"/>
    <tag k="ref:vcgi:esiteid" v="252171"/>
  </node>
  <node id="-154" visible="true" lat="43.89432085" lon="-72.29607599">
    <tag k="addr:housenumber" v="4066"/>
    <tag k="addr:street" v="Sawnee Bean Road"/>
    <tag k="addr:state" v="VT"/>
    <tag k="ref:vcgi:esiteid" v="252172"/>
  </node>
  <node id="-155" visible="true" lat="43.89432907" lon="-72.35843658">
    <tag k="addr:housenumber" v="196"/>
    <tag k="addr:street" v="Old City Falls Road"/>
    <tag k="addr:state" v="VT"/>
    <tag k="ref:vcgi:esiteid" v="252173"/>
  </node>
  <node id="-156" visible="true" lat="43.89379736" lon="-72.3003194">
    <tag k="addr:housenumber" v="4232"/>
    <tag k="addr:street" v="Sawnee Bean Road"/>
    <tag k="addr:state" v="VT"/>
    <tag k="ref:vcgi:esiteid" v="252174"/>
  </node>
  <node id="-157" visible="true" lat="43.89376052" lon="-72.36092028">
    <tag k="addr:housenumber" v="175"/>
    <tag k="addr:street" v="Old City Falls Road"/>
    <tag k="addr:state" v="VT"/>
    <tag k="ref:vcgi:esiteid" v="252175"/>
  </node>
  <node id="-158" visible="true" lat="43.89328431" lon="-72.35857183">
    <tag k="addr:housenumber" v="192"/>
    <tag k="addr:street" v="Old City Falls Road"/>
    <tag k="addr:state" v="VT"/>
    <tag k="ref:vcgi:esiteid" v="252176"/>
  </node>
  <node id="-159" visible="true" lat="43.89326637" lon="-72.2984242">
    <tag k="addr:housenumber" v="4132"/>
    <tag k="addr:street" v="Sawnee Bean Road"/>
    <tag k="addr:state" v="VT"/>
    <tag k="ref:vcgi:esiteid" v="252177"/>
  </node>
  <node id="-160" visible="true" lat="43.89302825" lon="-72.35936737">
    <tag k="addr:housenumber" v="188"/>
    <tag k="addr:street" v="Old City Falls Road"/>
    <tag k="addr:state" v="VT"/>
    <tag k="ref:vcgi:esiteid" v="252178"/>
  </node>
  <node id="-161" visible="true" lat="43.89295987" lon="-72.29612297">
    <tag k="addr:housenumber" v="4036"/>
    <tag k="addr:street" v="Sawnee Bean Road"/>
    <tag k="addr:state" v="VT"/>
    <tag k="ref:vcgi:esiteid" v="252179"/>
  </node>
  <node id="-168" visible="true" lat="43.89083273" lon="-72.30143232">
    <tag k="addr:housenumber" v="4904"/>
    <tag k="addr:street" v="Miller Pond Road"/>
    <tag k="addr:state" v="VT"/>
    <tag k="ref:vcgi:esiteid" v="252187"/>
  </node>
  <node id="-169" visible="true" lat="43.890591" lon="-72.29461872">
    <tag k="addr:housenumber" v="3882"/>
    <tag k="addr:street" v="Sawnee Bean Road"/>
    <tag k="addr:state" v="VT"/>
    <tag k="ref:vcgi:esiteid" v="252188"/>
  </node>
  <node id="-174" visible="true" lat="43.88991843" lon="-72.30775623">
    <tag k="addr:housenumber" v="4535"/>
    <tag k="addr:street" v="Miller Pond Road"/>
    <tag k="addr:state" v="VT"/>
    <tag k="ref:vcgi:esiteid" v="252193"/>
  </node>
  <node id="-175" visible="true" lat="43.88971669" lon="-72.29443739">
    <tag k="addr:housenumber" v="3867"/>
    <tag k="addr:street" v="Sawnee Bean Road"/>
    <tag k="addr:state" v="VT"/>
    <tag k="ref:vcgi:esiteid" v="252194"/>
  </node>
  <node id="-176" visible="true" lat="43.8897438" lon="-72.30983734">
    <tag k="addr:housenumber" v="4455"/>
    <tag k="addr:street" v="Miller Pond Road"/>
    <tag k="addr:state" v="VT"/>
    <tag k="ref:vcgi:esiteid" v="252195"/>
  </node>
  <node id="-179" visible="true" lat="43.88864683" lon="-72.28797854">
    <tag k="addr:housenumber" v="3564"/>
    <tag k="addr:street" v="Sawnee Bean Road"/>
    <tag k="addr:state" v="VT"/>
    <tag k="ref:vcgi:esiteid" v="252199"/>
  </node>
  <node id="-180" visible="true" lat="43.88860275" lon="-72.29292904">
    <tag k="addr:housenumber" v="3725"/>
    <tag k="addr:street" v="Sawnee Bean Road"/>
    <tag k="addr:state" v="VT"/>
    <tag k="ref:vcgi:esiteid" v="252200"/>
  </node>
  <node id="-181" visible="true" lat="43.88800842" lon="-72.29169684">
    <tag k="addr:housenumber" v="3649"/>
    <tag k="addr:street" v="Sawnee Bean Road"/>
    <tag k="addr:state" v="VT"/>
    <tag k="ref:vcgi:esiteid" v="252201"/>
  </node>
  <node id="-187" visible="true" lat="43.88656401" lon="-72.30963839">
    <tag k="addr:housenumber" v="4314"/>
    <tag k="addr:street" v="Miller Pond Road"/>
    <tag k="addr:state" v="VT"/>
    <tag k="ref:vcgi:esiteid" v="252209"/>
  </node>
  <node id="-193" visible="true" lat="43.88411305" lon="-72.28985052">
    <tag k="addr:housenumber" v="3319"/>
    <tag k="addr:street" v="Sawnee Bean Road"/>
    <tag k="addr:state" v="VT"/>
    <tag k="ref:vcgi:esiteid" v="252216"/>
  </node>
  <node id="-194" visible="true" lat="43.88403638" lon="-72.28499058">
    <tag k="addr:housenumber" v="3490"/>
    <tag k="addr:street" v="Sawnee Bean Road"/>
    <tag k="addr:state" v="VT"/>
    <tag k="ref:vcgi:esiteid" v="252217"/>
  </node>
  <node id="-196" visible="true" lat="43.88383098" lon="-72.36153563">
    <tag k="addr:housenumber" v="3"/>
    <tag k="addr:street" v="Eastman Lane"/>
    <tag k="addr:state" v="VT"/>
    <tag k="ref:vcgi:esiteid" v="252219"/>
  </node>
  <node id="-197" visible="true" lat="43.88379072" lon="-72.31553591">
    <tag k="addr:housenumber" v="3988"/>
    <tag k="addr:street" v="Miller Pond Road"/>
    <tag k="addr:state" v="VT"/>
    <tag k="ref:vcgi:esiteid" v="252220"/>
  </node>
  <node id="-202" visible="true" lat="43.88202519" lon="-72.29302146">
    <tag k="addr:housenumber" v="3101"/>
    <tag k="addr:street" v="Sawnee Bean Road"/>
    <tag k="addr:state" v="VT"/>
    <tag k="ref:vcgi:esiteid" v="252225"/>
  </node>
  <node id="-205" visible="true" lat="43.88181117" lon="-72.37414201">
    <tag k="addr:housenumber" v="91"/>
    <tag k="addr:street" v="Old City Falls Road"/>
    <tag k="addr:state" v="VT"/>
    <tag k="ref:vcgi:esiteid" v="252228"/>
  </node>
  <node id="-209" visible="true" lat="43.8814152" lon="-72.29050831">
    <tag k="addr:housenumber" v="3119"/>
    <tag k="addr:street" v="Sawnee Bean Road"/>
    <tag k="addr:state" v="VT"/>
    <tag k="ref:vcgi:esiteid" v="252232"/>
  </node>
  <node id="-211" visible="true" lat="43.88068405" lon="-72.29155993">
    <tag k="addr:housenumber" v="3099"/>
    <tag k="addr:street" v="Sawnee Bean Road"/>
    <tag k="addr:state" v="VT"/>
    <tag k="ref:vcgi:esiteid" v="252234"/>
  </node>
  <node id="-222" visible="true" lat="43.87867521" lon="-72.29033603">
    <tag k="addr:housenumber" v="2961"/>
    <tag k="addr:street" v="Sawnee Bean Road"/>
    <tag k="addr:state" v="VT"/>
    <tag k="ref:vcgi:esiteid" v="252247"/>
  </node>
  <node id="-223" visible="true" lat="43.87843368" lon="-72.29136694">
    <tag k="addr:housenumber" v="2927"/>
    <tag k="addr:street" v="Sawnee Bean Road"/>
    <tag k="addr:state" v="VT"/>
    <tag k="ref:vcgi:esiteid" v="252248"/>
  </node>
  <node id="-228" visible="true" lat="43.8784747" lon="-72.28988005">
    <tag k="addr:housenumber" v="2950"/>
    <tag k="addr:street" v="Sawnee Bean Road"/>
    <tag k="addr:state" v="VT"/>
    <tag k="ref:vcgi:esiteid" v="252253"/>
  </node>
  <node id="-249" visible="true" lat="43.87514386" lon="-72.37946213">
    <tag k="addr:housenumber" v="302"/>
    <tag k="addr:street" v="Justin Morrill Memorial Highway"/>
    <tag k="addr:state" v="VT"/>
    <tag k="ref:vcgi:esiteid" v="252279"/>
  </node>
  <node id="-255" visible="true" lat="43.87463368" lon="-72.42300752">
    <tag k="addr:housenumber" v="21"/>
    <tag k="addr:street" v="Havelok Hill Road"/>
    <tag k="addr:state" v="VT"/>
    <tag k="ref:vcgi:esiteid" v="252285"/>
  </node>
  <node id="-265" visible="true" lat="43.87215042" lon="-72.34424591">
    <tag k="addr:housenumber" v="213"/>
    <tag k="addr:street" v="Alger Brook Road"/>
    <tag k="addr:state" v="VT"/>
    <tag k="ref:vcgi:esiteid" v="252296"/>
  </node>
  <node id="-294" visible="true" lat="43.86972427" lon="-72.42333221">
    <tag k="addr:housenumber" v="140"/>
    <tag k="addr:street" v="Kibling Hill Road"/>
    <tag k="addr:state" v="VT"/>
    <tag k="ref:vcgi:esiteid" v="252326"/>
  </node>
  <node id="-299" visible="true" lat="43.86861795" lon="-72.33408278">
    <tag k="addr:housenumber" v="737"/>
    <tag k="addr:street" v="Dodge Road"/>
    <tag k="addr:state" v="VT"/>
    <tag k="ref:vcgi:esiteid" v="252331"/>
  </node>
  <node id="-301" visible="true" lat="43.86867904" lon="-72.41092681">
    <tag k="addr:housenumber" v="65"/>
    <tag k="addr:street" v="Kibling Hill Road"/>
    <tag k="addr:state" v="VT"/>
    <tag k="ref:vcgi:esiteid" v="252333"/>
  </node>
  <node id="-306" visible="true" lat="43.86829843" lon="-72.37611231">
    <tag k="addr:housenumber" v="248"/>
    <tag k="addr:street" v="Justin Morrill Memorial Highway"/>
    <tag k="addr:state" v="VT"/>
    <tag k="ref:vcgi:esiteid" v="252338"/>
  </node>
  <node id="-319" visible="true" lat="43.86694717" lon="-72.42802429">
    <tag k="addr:housenumber" v="139"/>
    <tag k="addr:street" v="Kibling Hill Road"/>
    <tag k="addr:state" v="VT"/>
    <tag k="ref:vcgi:esiteid" v="252351"/>
  </node>
  <node id="-330" visible="true" lat="43.86574554" lon="-72.38378143">
    <tag k="addr:housenumber" v="14"/>
    <tag k="addr:street" v="Odell Road"/>
    <tag k="addr:state" v="VT"/>
    <tag k="ref:vcgi:esiteid" v="252365"/>
  </node>
  <node id="-333" visible="true" lat="43.86544036" lon="-72.37728118">
    <tag k="addr:housenumber" v="231"/>
    <tag k="addr:street" v="Justin Morrill Memorial Highway"/>
    <tag k="addr:state" v="VT"/>
    <tag k="ref:vcgi:esiteid" v="252368"/>
  </node>
  <node id="-349" visible="true" lat="43.86312484" lon="-72.40045166">
    <tag k="addr:housenumber" v="169"/>
    <tag k="addr:street" v="Brook Road"/>
    <tag k="addr:state" v="VT"/>
    <tag k="ref:vcgi:esiteid" v="252386"/>
  </node>
  <node id="-352" visible="true" lat="43.86288833" lon="-72.400177">
    <tag k="addr:housenumber" v="167"/>
    <tag k="addr:street" v="Brook Road"/>
    <tag k="addr:state" v="VT"/>
    <tag k="ref:vcgi:esiteid" v="252389"/>
  </node>
  <node id="-361" visible="true" lat="43.86037701" lon="-72.36029556">
    <tag k="addr:housenumber" v="2"/>
    <tag k="addr:street" v="Prescott Acres"/>
    <tag k="addr:state" v="VT"/>
    <tag k="ref:vcgi:esiteid" v="252399"/>
  </node>
  <node id="-364" visible="true" lat="43.8597892" lon="-72.37602844">
    <tag k="addr:housenumber" v="3"/>
    <tag k="addr:street" v="Eastburn Road"/>
    <tag k="addr:state" v="VT"/>
    <tag k="ref:vcgi:esiteid" v="252404"/>
  </node>
  <node id="-367" visible="true" lat="43.85901751" lon="-72.36077191">
    <tag k="addr:housenumber" v="74"/>
    <tag k="addr:street" v="Alger Brook Road"/>
    <tag k="addr:state" v="VT"/>
    <tag k="ref:vcgi:esiteid" v="252407"/>
  </node>
  <node id="-372" visible="true" lat="43.85762032" lon="-72.36090488">
    <tag k="addr:housenumber" v="64"/>
    <tag k="addr:street" v="Alger Brook Road"/>
    <tag k="addr:state" v="VT"/>
    <tag k="ref:vcgi:esiteid" v="252412"/>
  </node>
  <node id="-378" visible="true" lat="43.85664449" lon="-72.36169678">
    <tag k="addr:housenumber" v="60"/>
    <tag k="addr:street" v="Alger Brook Road"/>
    <tag k="addr:state" v="VT"/>
    <tag k="ref:vcgi:esiteid" v="252419"/>
  </node>
  <node id="-384" visible="true" lat="43.85571084" lon="-72.36711126">
    <tag k="addr:housenumber" v="19"/>
    <tag k="addr:street" v="Alger Brook Road"/>
    <tag k="addr:state" v="VT"/>
    <tag k="ref:vcgi:esiteid" v="252425"/>
  </node>
  <node id="-389" visible="true" lat="43.85388183" lon="-72.3667221">
    <tag k="addr:housenumber" v="26"/>
    <tag k="addr:street" v="Alger Brook Road"/>
    <tag k="addr:state" v="VT"/>
    <tag k="ref:vcgi:esiteid" v="252430"/>
  </node>
  <node id="-390" visible="true" lat="43.85377096" lon="-72.43755501">
    <tag k="addr:housenumber" v="141"/>
    <tag k="addr:street" v="Robinson Road"/>
    <tag k="addr:state" v="VT"/>
    <tag k="ref:vcgi:esiteid" v="252432"/>
  </node>
  <node id="-391" visible="true" lat="43.85404729" lon="-72.36896921">
    <tag k="addr:housenumber" v="15"/>
    <tag k="addr:street" v="Alger Brook Road"/>
    <tag k="addr:state" v="VT"/>
    <tag k="ref:vcgi:esiteid" v="252433"/>
  </node>
  <node id="-400" visible="true" lat="43.85173201" lon="-72.37021578">
    <tag k="addr:housenumber" v="130"/>
    <tag k="addr:street" v="Justin Morrill Memorial Highway"/>
    <tag k="addr:state" v="VT"/>
    <tag k="ref:vcgi:esiteid" v="252442"/>
  </node>
  <node id="-401" visible="true" lat="43.85050749" lon="-72.37098635">
    <tag k="addr:housenumber" v="120"/>
    <tag k="addr:street" v="Justin Morrill Memorial Highway"/>
    <tag k="addr:state" v="VT"/>
    <tag k="ref:vcgi:esiteid" v="252443"/>
  </node>
  <node id="-405" visible="true" lat="43.84955218" lon="-72.32077561">
    <tag k="addr:housenumber" v="90"/>
    <tag k="addr:street" v="Skunk Hollow Road"/>
    <tag k="addr:state" v="VT"/>
    <tag k="ref:vcgi:esiteid" v="252449"/>
  </node>
  <node id="-409" visible="true" lat="43.84928297" lon="-72.32108249">
    <tag k="addr:housenumber" v="88"/>
    <tag k="addr:street" v="Skunk Hollow Road"/>
    <tag k="addr:state" v="VT"/>
    <tag k="ref:vcgi:esiteid" v="252453"/>
  </node>
  <node id="-412" visible="true" lat="43.84874698" lon="-72.37214427">
    <tag k="addr:housenumber" v="109"/>
    <tag k="addr:street" v="Justin Morrill Memorial Highway"/>
    <tag k="addr:state" v="VT"/>
    <tag k="ref:vcgi:esiteid" v="252456"/>
  </node>
  <node id="-415" visible="true" lat="43.84720931" lon="-72.34189588">
    <tag k="addr:housenumber" v="69"/>
    <tag k="addr:street" v="Whitcomb Hill Road"/>
    <tag k="addr:state" v="VT"/>
    <tag k="ref:vcgi:esiteid" v="252460"/>
  </node>
  <node id="-417" visible="true" lat="43.84684477" lon="-72.36390654">
    <tag k="addr:housenumber" v="86"/>
    <tag k="addr:street" v="Stage Road"/>
    <tag k="addr:state" v="VT"/>
    <tag k="ref:vcgi:esiteid" v="252463"/>
  </node>
  <node id="-419" visible="true" lat="43.84649797" lon="-72.43821755">
    <tag k="addr:housenumber" v="80"/>
    <tag k="addr:street" v="Robinson Road"/>
    <tag k="addr:state" v="VT"/>
    <tag k="ref:vcgi:esiteid" v="252465"/>
  </node>
  <node id="-421" visible="true" lat="43.84626596" lon="-72.37916977">
    <tag k="addr:housenumber" v="81"/>
    <tag k="addr:street" v="Justin Morrill Memorial Highway"/>
    <tag k="addr:state" v="VT"/>
    <tag k="ref:vcgi:esiteid" v="252467"/>
  </node>
  <node id="-422" visible="true" lat="43.84608172" lon="-72.36149631">
    <tag k="addr:housenumber" v="70"/>
    <tag k="addr:street" v="Stage Road"/>
    <tag k="addr:state" v="VT"/>
    <tag k="ref:vcgi:esiteid" v="252468"/>
  </node>
  <node id="-423" visible="true" lat="43.84568953" lon="-72.31453647">
    <tag k="addr:housenumber" v="866"/>
    <tag k="addr:street" v="Miller Pond Road"/>
    <tag k="addr:state" v="VT"/>
    <tag k="ref:vcgi:esiteid" v="252469"/>
  </node>
  <node id="-427" visible="true" lat="43.84471893" lon="-72.42188262">
    <tag k="addr:housenumber" v="32"/>
    <tag k="addr:street" v="Durkee Road"/>
    <tag k="addr:state" v="VT"/>
    <tag k="ref:vcgi:esiteid" v="252473"/>
  </node>
  <node id="-430" visible="true" lat="43.84457302" lon="-72.36100645">
    <tag k="addr:housenumber" v="67"/>
    <tag k="addr:street" v="Stage Road"/>
    <tag k="addr:state" v="VT"/>
    <tag k="ref:vcgi:esiteid" v="252476"/>
  </node>
  <node id="-433" visible="true" lat="43.84403395" lon="-72.34451236">
    <tag k="addr:housenumber" v="39"/>
    <tag k="addr:street" v="Whitcomb Hill Road"/>
    <tag k="addr:state" v="VT"/>
    <tag k="ref:vcgi:esiteid" v="252479"/>
  </node>
  <node id="-440" visible="true" lat="43.84303832" lon="-72.35904635">
    <tag k="addr:housenumber" v="59"/>
    <tag k="addr:street" v="Stage Road"/>
    <tag k="addr:state" v="VT"/>
    <tag k="ref:vcgi:esiteid" v="252486"/>
  </node>
  <node id="-441" visible="true" lat="43.84284961" lon="-72.35630067">
    <tag k="addr:housenumber" v="46"/>
    <tag k="addr:street" v="Stage Road"/>
    <tag k="addr:state" v="VT"/>
    <tag k="ref:vcgi:esiteid" v="252487"/>
  </node>
  <node id="-445" visible="true" lat="43.84222639" lon="-72.38046032">
    <tag k="addr:housenumber" v="46"/>
    <tag k="addr:street" v="Coburn Road"/>
    <tag k="addr:state" v="VT"/>
    <tag k="ref:vcgi:esiteid" v="252491"/>
  </node>
  <node id="-449" visible="true" lat="43.84148574" lon="-72.41791476">
    <tag k="addr:housenumber" v="351"/>
    <tag k="addr:street" v="Brook Road"/>
    <tag k="addr:state" v="VT"/>
    <tag k="ref:vcgi:esiteid" v="252495"/>
  </node>
  <node id="-452" visible="true" lat="43.8410356" lon="-72.34646548">
    <tag k="addr:housenumber" v="17"/>
    <tag k="addr:street" v="Whitcomb Hill Road"/>
    <tag k="addr:state" v="VT"/>
    <tag k="ref:vcgi:esiteid" v="252499"/>
  </node>
  <node id="-453" visible="true" lat="43.84118335" lon="-72.37347443">
    <tag k="addr:housenumber" v="51"/>
    <tag k="addr:street" v="Justin Morrill Memorial Highway"/>
    <tag k="addr:state" v="VT"/>
    <tag k="ref:vcgi:esiteid" v="252500"/>
  </node>
  <node id="-454" visible="true" lat="43.84104599" lon="-72.37802404">
    <tag k="addr:housenumber" v="40"/>
    <tag k="addr:street" v="Coburn Road"/>
    <tag k="addr:state" v="VT"/>
    <tag k="ref:vcgi:esiteid" v="252501"/>
  </node>
  <node id="-460" visible="true" lat="43.84054034" lon="-72.37294807">
    <tag k="addr:housenumber" v="47"/>
    <tag k="addr:street" v="Justin Morrill Memorial Highway"/>
    <tag k="addr:state" v="VT"/>
    <tag k="ref:vcgi:esiteid" v="252507"/>
  </node>
  <node id="-462" visible="true" lat="43.84022455" lon="-72.37249061">
    <tag k="addr:housenumber" v="45"/>
    <tag k="addr:street" v="Justin Morrill Memorial Highway"/>
    <tag k="addr:state" v="VT"/>
    <tag k="ref:vcgi:esiteid" v="252509"/>
  </node>
  <node id="-463" visible="true" lat="43.84018855" lon="-72.36535554">
    <tag k="addr:housenumber" v="18"/>
    <tag k="addr:street" v="Justin Morrill Memorial Highway"/>
    <tag k="addr:state" v="VT"/>
    <tag k="ref:vcgi:esiteid" v="252510"/>
  </node>
  <node id="-464" visible="true" lat="43.83991622" lon="-72.37371063">
    <tag k="addr:housenumber" v="2"/>
    <tag k="addr:street" v="Stableford Road"/>
    <tag k="addr:state" v="VT"/>
    <tag k="ref:vcgi:esiteid" v="252511"/>
  </node>
  <node id="-468" visible="true" lat="43.83954424" lon="-72.37177107">
    <tag k="addr:housenumber" v="39"/>
    <tag k="addr:street" v="Justin Morrill Memorial Highway"/>
    <tag k="addr:state" v="VT"/>
    <tag k="ref:vcgi:esiteid" v="252515"/>
  </node>
  <node id="-470" visible="true" lat="43.83932662" lon="-72.34663333">
    <tag k="addr:housenumber" v="15"/>
    <tag k="addr:street" v="Whitcomb Hill Road"/>
    <tag k="addr:state" v="VT"/>
    <tag k="ref:vcgi:esiteid" v="252517"/>
  </node>
  <node id="-471" visible="true" lat="43.83924601" lon="-72.34954589">
    <tag k="addr:housenumber" v="144"/>
    <tag k="addr:street" v="Route 132"/>
    <tag k="addr:state" v="VT"/>
    <tag k="ref:vcgi:esiteid" v="252518"/>
  </node>
  <node id="-472" visible="true" lat="43.83922902" lon="-72.38148551">
    <tag k="addr:housenumber" v="47"/>
    <tag k="addr:street" v="Coburn Road"/>
    <tag k="addr:state" v="VT"/>
    <tag k="ref:vcgi:esiteid" v="252519"/>
  </node>
  <node id="-473" visible="true" lat="43.83898711" lon="-72.35177554">
    <tag k="addr:housenumber" v="158"/>
    <tag k="addr:street" v="Route 132"/>
    <tag k="addr:state" v="VT"/>
    <tag k="ref:vcgi:esiteid" v="252520"/>
  </node>
  <node id="-478" visible="true" lat="43.83819289" lon="-72.36990811">
    <tag k="addr:housenumber" v="23"/>
    <tag k="addr:street" v="Justin Morrill Memorial Highway"/>
    <tag k="addr:state" v="VT"/>
    <tag k="ref:vcgi:esiteid" v="252525"/>
  </node>
  <node id="-480" visible="true" lat="43.83793044" lon="-72.35208835">
    <tag k="addr:housenumber" v="159"/>
    <tag k="addr:street" v="Route 132"/>
    <tag k="addr:state" v="VT"/>
    <tag k="ref:vcgi:esiteid" v="252527"/>
  </node>
  <node id="-481" visible="true" lat="43.83778219" lon="-72.35033948">
    <tag k="addr:housenumber" v="149"/>
    <tag k="addr:street" v="Route 132"/>
    <tag k="addr:state" v="VT"/>
    <tag k="ref:vcgi:esiteid" v="252528"/>
  </node>
  <node id="-482" visible="true" lat="43.83763504" lon="-72.35317993">
    <tag k="addr:housenumber" v="163"/>
    <tag k="addr:street" v="Route 132"/>
    <tag k="addr:state" v="VT"/>
    <tag k="ref:vcgi:esiteid" v="252529"/>
  </node>
  <node id="-484" visible="true" lat="43.83752441" lon="-72.35124206">
    <tag k="addr:housenumber" v="155"/>
    <tag k="addr:street" v="Route 132"/>
    <tag k="addr:state" v="VT"/>
    <tag k="ref:vcgi:esiteid" v="252532"/>
  </node>
  <node id="-485" visible="true" lat="43.83754348" lon="-72.37243652">
    <tag k="addr:housenumber" v="13"/>
    <tag k="addr:street" v="Stableford Road"/>
    <tag k="addr:state" v="VT"/>
    <tag k="ref:vcgi:esiteid" v="252533"/>
  </node>
  <node id="-486" visible="true" lat="43.83768708" lon="-72.36923234">
    <tag k="addr:housenumber" v="19"/>
    <tag k="addr:street" v="Justin Morrill Memorial Highway"/>
    <tag k="addr:state" v="VT"/>
    <tag k="ref:vcgi:esiteid" v="252534"/>
  </node>
  <node id="-488" visible="true" lat="43.83708572" lon="-72.33667755">
    <tag k="addr:housenumber" v="78"/>
    <tag k="addr:street" v="Route 132"/>
    <tag k="addr:state" v="VT"/>
    <tag k="ref:vcgi:esiteid" v="252536"/>
  </node>
  <node id="-489" visible="true" lat="43.8370819" lon="-72.36762237">
    <tag k="addr:housenumber" v="12"/>
    <tag k="addr:street" v="Justin Morrill Memorial Highway"/>
    <tag k="addr:state" v="VT"/>
    <tag k="ref:vcgi:esiteid" v="252537"/>
  </node>
  <node id="-491" visible="true" lat="43.83701741" lon="-72.3330076">
    <tag k="addr:housenumber" v="16"/>
    <tag k="addr:street" v="Furnace Flats Road"/>
    <tag k="addr:state" v="VT"/>
    <tag k="ref:vcgi:esiteid" v="252539"/>
  </node>
  <node id="-492" visible="true" lat="43.83668136" lon="-72.43927764">
    <tag k="addr:housenumber" v="32"/>
    <tag k="addr:street" v="Nutting Road"/>
    <tag k="addr:state" v="VT"/>
    <tag k="ref:vcgi:esiteid" v="252540"/>
  </node>
  <node id="-493" visible="true" lat="43.83669944" lon="-72.36721704">
    <tag k="addr:housenumber" v="8"/>
    <tag k="addr:street" v="Justin Morrill Memorial Highway"/>
    <tag k="addr:state" v="VT"/>
    <tag k="ref:vcgi:esiteid" v="252541"/>
  </node>
  <node id="-494" visible="true" lat="43.83649716" lon="-72.3313203">
    <tag k="addr:housenumber" v="4"/>
    <tag k="addr:street" v="Furnace Flats Road"/>
    <tag k="addr:state" v="VT"/>
    <tag k="ref:vcgi:esiteid" v="252542"/>
  </node>
  <node id="-495" visible="true" lat="43.83649618" lon="-72.37622824">
    <tag k="addr:housenumber" v="49"/>
    <tag k="addr:street" v="Stableford Road"/>
    <tag k="addr:state" v="VT"/>
    <tag k="ref:vcgi:esiteid" v="252543"/>
  </node>
  <node id="-498" visible="true" lat="43.83622838" lon="-72.36732326">
    <tag k="addr:housenumber" v="7"/>
    <tag k="addr:street" v="Justin Morrill Memorial Highway"/>
    <tag k="addr:state" v="VT"/>
    <tag k="ref:vcgi:esiteid" v="252546"/>
  </node>
  <node id="-500" visible="true" lat="43.83611348" lon="-72.36603343">
    <tag k="addr:housenumber" v="2"/>
    <tag k="addr:street" v="Justin Morrill Memorial Highway"/>
    <tag k="addr:state" v="VT"/>
    <tag k="ref:vcgi:esiteid" v="252548"/>
  </node>
  <node id="-501" visible="true" lat="43.83576583" lon="-72.36596679">
    <tag k="addr:housenumber" v="246"/>
    <tag k="addr:street" v="Route 132"/>
    <tag k="addr:state" v="VT"/>
    <tag k="ref:vcgi:esiteid" v="252550"/>
  </node>
  <node id="-502" visible="true" lat="43.83580017" lon="-72.4345169">
    <tag k="addr:housenumber" v="481"/>
    <tag k="addr:street" v="Brook Road"/>
    <tag k="addr:state" v="VT"/>
    <tag k="ref:vcgi:esiteid" v="252551"/>
  </node>
  <node id="-507" visible="true" lat="43.83546419" lon="-72.34370541">
    <tag k="addr:housenumber" v="85"/>
    <tag k="addr:street" v="Mine Road"/>
    <tag k="addr:state" v="VT"/>
    <tag k="ref:vcgi:esiteid" v="252556"/>
  </node>
  <node id="-523" visible="true" lat="43.83453225" lon="-72.36321573">
    <tag k="addr:housenumber" v="233"/>
    <tag k="addr:street" v="Route 132"/>
    <tag k="addr:state" v="VT"/>
    <tag k="ref:vcgi:esiteid" v="252575"/>
  </node>
  <node id="-535" visible="true" lat="43.83472365" lon="-72.37731364">
    <tag k="addr:housenumber" v="64"/>
    <tag k="addr:street" v="Stableford Road"/>
    <tag k="addr:state" v="VT"/>
    <tag k="ref:vcgi:esiteid" v="252588"/>
  </node>
  <node id="-539" visible="true" lat="43.83422255" lon="-72.36067904">
    <tag k="addr:housenumber" v="218"/>
    <tag k="addr:street" v="Route 132"/>
    <tag k="addr:state" v="VT"/>
    <tag k="ref:vcgi:esiteid" v="252592"/>
  </node>
  <node id="-554" visible="true" lat="43.83354568" lon="-72.38041686">
    <tag k="addr:housenumber" v="80"/>
    <tag k="addr:street" v="Stableford Road"/>
    <tag k="addr:state" v="VT"/>
    <tag k="ref:vcgi:esiteid" v="252610"/>
  </node>
  <node id="-562" visible="true" lat="43.8330307" lon="-72.35623931">
    <tag k="addr:housenumber" v="7"/>
    <tag k="addr:street" v="Redden Road"/>
    <tag k="addr:state" v="VT"/>
    <tag k="ref:vcgi:esiteid" v="252618"/>
  </node>
  <node id="-576" visible="true" lat="43.83111227" lon="-72.36962214">
    <tag k="addr:housenumber" v="273"/>
    <tag k="addr:street" v="Route 132"/>
    <tag k="addr:state" v="VT"/>
    <tag k="ref:vcgi:esiteid" v="252632"/>
  </node>
  <node id="-579" visible="true" lat="43.83226309" lon="-72.35760692">
    <tag k="addr:housenumber" v="16"/>
    <tag k="addr:street" v="Redden Road"/>
    <tag k="addr:state" v="VT"/>
    <tag k="ref:vcgi:esiteid" v="252635"/>
  </node>
  <node id="-583" visible="true" lat="43.83183237" lon="-72.35401046">
    <tag k="addr:housenumber" v="29"/>
    <tag k="addr:street" v="Redden Road"/>
    <tag k="addr:state" v="VT"/>
    <tag k="ref:vcgi:esiteid" v="252640"/>
  </node>
  <node id="-589" visible="true" lat="43.8308911" lon="-72.34723307">
    <tag k="addr:housenumber" v="55"/>
    <tag k="addr:street" v="Turnpike Road"/>
    <tag k="addr:state" v="VT"/>
    <tag k="ref:vcgi:esiteid" v="252646"/>
  </node>
  <node id="-597" visible="true" lat="43.83012408" lon="-72.3556354">
    <tag k="addr:housenumber" v="36"/>
    <tag k="addr:street" v="Redden Road"/>
    <tag k="addr:state" v="VT"/>
    <tag k="ref:vcgi:esiteid" v="252655"/>
  </node>
  <node id="-598" visible="true" lat="43.82989326" lon="-72.34661732">
    <tag k="addr:housenumber" v="61"/>
    <tag k="addr:street" v="Turnpike Road"/>
    <tag k="addr:state" v="VT"/>
    <tag k="ref:vcgi:esiteid" v="252656"/>
  </node>
  <node id="-605" visible="true" lat="43.82886547" lon="-72.34698545">
    <tag k="addr:housenumber" v="70"/>
    <tag k="addr:street" v="Turnpike Road"/>
    <tag k="addr:state" v="VT"/>
    <tag k="ref:vcgi:esiteid" v="252663"/>
  </node>
  <node id="-611" visible="true" lat="43.82779197" lon="-72.34516837">
    <tag k="addr:housenumber" v="79"/>
    <tag k="addr:street" v="Turnpike Road"/>
    <tag k="addr:state" v="VT"/>
    <tag k="ref:vcgi:esiteid" v="252669"/>
  </node>
  <node id="-620" visible="true" lat="43.82663706" lon="-72.34653201">
    <tag k="addr:housenumber" v="88"/>
    <tag k="addr:street" v="Turnpike Road"/>
    <tag k="addr:state" v="VT"/>
    <tag k="ref:vcgi:esiteid" v="252679"/>
  </node>
  <node id="-622" visible="true" lat="43.82561111" lon="-72.33203887">
    <tag k="addr:housenumber" v="184"/>
    <tag k="addr:street" v="Mine Road"/>
    <tag k="addr:state" v="VT"/>
    <tag k="ref:vcgi:esiteid" v="252681"/>
  </node>
  <node id="-623" visible="true" lat="43.82559438" lon="-72.33131168">
    <tag k="addr:housenumber" v="179"/>
    <tag k="addr:street" v="Mine Road"/>
    <tag k="addr:state" v="VT"/>
    <tag k="ref:vcgi:esiteid" v="252682"/>
  </node>
  <node id="-624" visible="true" lat="43.82545887" lon="-72.33416039">
    <tag k="addr:housenumber" v="192"/>
    <tag k="addr:street" v="Mine Road"/>
    <tag k="addr:state" v="VT"/>
    <tag k="ref:vcgi:esiteid" v="252683"/>
  </node>
  <node id="-626" visible="true" lat="43.82522215" lon="-72.40281038">
    <tag k="addr:housenumber" v="465"/>
    <tag k="addr:street" v="Route 132"/>
    <tag k="addr:state" v="VT"/>
    <tag k="ref:vcgi:esiteid" v="252685"/>
  </node>
  <node id="-628" visible="true" lat="43.82433944" lon="-72.34497431">
    <tag k="addr:housenumber" v="103"/>
    <tag k="addr:street" v="Turnpike Road"/>
    <tag k="addr:state" v="VT"/>
    <tag k="ref:vcgi:esiteid" v="252687"/>
  </node>
  <node id="-633" visible="true" lat="43.8224744" lon="-72.33552403">
    <tag k="addr:housenumber" v="194"/>
    <tag k="addr:street" v="Mine Road"/>
    <tag k="addr:state" v="VT"/>
    <tag k="ref:vcgi:esiteid" v="252692"/>
  </node>
  <node id="-639" visible="true" lat="43.81852432" lon="-72.34625263">
    <tag k="addr:housenumber" v="142"/>
    <tag k="addr:street" v="Turnpike Road"/>
    <tag k="addr:state" v="VT"/>
    <tag k="ref:vcgi:esiteid" v="252699"/>
  </node>
  <node id="-642" visible="true" lat="43.81817626" lon="-72.34573364">
    <tag k="addr:housenumber" v="147"/>
    <tag k="addr:street" v="Turnpike Road"/>
    <tag k="addr:state" v="VT"/>
    <tag k="ref:vcgi:esiteid" v="252703"/>
  </node>
  <node id="-644" visible="true" lat="43.81647872" lon="-72.34686279">
    <tag k="addr:housenumber" v="162"/>
    <tag k="addr:street" v="Turnpike Road"/>
    <tag k="addr:state" v="VT"/>
    <tag k="ref:vcgi:esiteid" v="252705"/>
  </node>
  <node id="-645" visible="true" lat="43.81289842" lon="-72.3483553">
    <tag k="addr:housenumber" v="188"/>
    <tag k="addr:street" v="Turnpike Road"/>
    <tag k="addr:state" v="VT"/>
    <tag k="ref:vcgi:esiteid" v="252706"/>
  </node>
  <node id="-646" visible="true" lat="43.83817546" lon="-72.35109862">
    <tag k="addr:housenumber" v="154"/>
    <tag k="addr:street" v="Route 132"/>
    <tag k="addr:state" v="VT"/>
    <tag k="ref:vcgi:esiteid" v="252707"/>
  </node>
  <node id="-651" visible="true" lat="43.85997277" lon="-72.3615473">
    <tag k="addr:housenumber" v="73"/>
    <tag k="addr:street" v="Alger Brook Road"/>
    <tag k="addr:state" v="VT"/>
    <tag k="ref:vcgi:esiteid" v="252714"/>
  </node>
  <node id="-654" visible="true" lat="43.83667957" lon="-72.43401031">
    <tag k="addr:housenumber" v="478"/>
    <tag k="addr:street" v="Brook Road"/>
    <tag k="addr:state" v="VT"/>
    <tag k="ref:vcgi:esiteid" v="252717"/>
  </node>
  <node id="-655" visible="true" lat="43.82460848" lon="-72.34628142">
    <tag k="addr:housenumber" v="104"/>
    <tag k="addr:street" v="Turnpike Road"/>
    <tag k="addr:state" v="VT"/>
    <tag k="ref:vcgi:esiteid" v="252718"/>
  </node>
  <node id="-657" visible="true" lat="43.89530936" lon="-72.35599332">
    <tag k="addr:housenumber" v="24"/>
    <tag k="addr:street" v="Freeman Road"/>
    <tag k="addr:state" v="VT"/>
    <tag k="ref:vcgi:esiteid" v="252720"/>
  </node>
  <node id="-658" visible="true" lat="43.90689786" lon="-72.35311201">
    <tag k="addr:housenumber" v="44"/>
    <tag k="addr:street" v="Van Dyke Road"/>
    <tag k="addr:state" v="VT"/>
    <tag k="ref:vcgi:esiteid" v="252721"/>
  </node>
  <node id="-663" visible="true" lat="43.84479747" lon="-72.35812418">
    <tag k="addr:housenumber" v="50"/>
    <tag k="addr:street" v="Stage Road"/>
    <tag k="addr:state" v="VT"/>
    <tag k="ref:vcgi:esiteid" v="252727"/>
  </node>
  <node id="-665" visible="true" lat="43.89610968" lon="-72.29933054">
    <tag k="addr:housenumber" v="5280"/>
    <tag k="addr:street" v="Miller Pond Road"/>
    <tag k="addr:state" v="VT"/>
    <tag k="ref:vcgi:esiteid" v="252730"/>
  </node>
  <node id="-666" visible="true" lat="43.89980446" lon="-72.38859126">
    <tag k="addr:housenumber" v="68"/>
    <tag k="addr:street" v="Taylor Valley Road"/>
    <tag k="addr:state" v="VT"/>
    <tag k="ref:vcgi:esiteid" v="252733"/>
  </node>
  <node id="-673" visible="true" lat="43.89757272" lon="-72.35499134">
    <tag k="addr:housenumber" v="31"/>
    <tag k="addr:street" v="Freeman Road"/>
    <tag k="addr:state" v="VT"/>
    <tag k="ref:vcgi:esiteid" v="252743"/>
  </node>
  <node id="-674" visible="true" lat="43.90584763" lon="-72.35033602">
    <tag k="addr:housenumber" v="271"/>
    <tag k="addr:street" v="Old City Falls Road"/>
    <tag k="addr:state" v="VT"/>
    <tag k="ref:vcgi:esiteid" v="252744"/>
  </node>
  <node id="-676" visible="true" lat="43.87383411" lon="-72.33225239">
    <tag k="addr:housenumber" v="101"/>
    <tag k="addr:street" v="Maple Hill Road"/>
    <tag k="addr:state" v="VT"/>
    <tag k="ref:vcgi:esiteid" v="252748"/>
  </node>
  <node id="-677" visible="true" lat="43.87876609" lon="-72.28959586">
    <tag k="addr:housenumber" v="2980"/>
    <tag k="addr:street" v="Sawnee Bean Road"/>
    <tag k="addr:state" v="VT"/>
    <tag k="ref:vcgi:esiteid" v="252749"/>
  </node>
  <node id="-683" visible="true" lat="43.85455652" lon="-72.36316982">
    <tag k="addr:housenumber" v="28"/>
    <tag k="addr:street" v="Alger Brook Road"/>
    <tag k="addr:state" v="VT"/>
    <tag k="ref:vcgi:esiteid" v="252756"/>
  </node>
  <node id="-684" visible="true" lat="43.85629611" lon="-72.35995279">
    <tag k="addr:housenumber" v="62"/>
    <tag k="addr:street" v="Alger Brook Road"/>
    <tag k="addr:state" v="VT"/>
    <tag k="ref:vcgi:esiteid" v="252757"/>
  </node>
  <node id="-689" visible="true" lat="43.82269195" lon="-72.34613663">
    <tag k="addr:housenumber" v="124"/>
    <tag k="addr:street" v="Turnpike Road"/>
    <tag k="addr:state" v="VT"/>
    <tag k="ref:vcgi:esiteid" v="252767"/>
  </node>
  <node id="-692" visible="true" lat="43.90188634" lon="-72.35929725">
    <tag k="addr:housenumber" v="20"/>
    <tag k="addr:street" v="Kendall Road"/>
    <tag k="addr:state" v="VT"/>
    <tag k="ref:vcgi:esiteid" v="252770"/>
  </node>
  <node id="-693" visible="true" lat="43.86251943" lon="-72.36215126">
    <tag k="addr:housenumber" v="85"/>
    <tag k="addr:street" v="Alger Brook Road"/>
    <tag k="addr:state" v="VT"/>
    <tag k="ref:vcgi:esiteid" v="252771"/>
  </node>
  <node id="-696" visible="true" lat="43.89184895" lon="-72.29523805">
    <tag k="addr:housenumber" v="4034"/>
    <tag k="addr:street" v="Sawnee Bean Road"/>
    <tag k="addr:state" v="VT"/>
    <tag k="ref:vcgi:esiteid" v="252774"/>
  </node>
  <node id="-699" visible="true" lat="43.89342181" lon="-72.39889544">
    <tag k="addr:housenumber" v="476"/>
    <tag k="addr:street" v="Justin Morrill Memorial Highway"/>
    <tag k="addr:state" v="VT"/>
    <tag k="ref:vcgi:esiteid" v="252777"/>
  </node>
  <node id="-701" visible="true" lat="43.86273906" lon="-72.35918166">
    <tag k="addr:housenumber" v="97"/>
    <tag k="addr:street" v="Alger Brook Road"/>
    <tag k="addr:state" v="VT"/>
    <tag k="ref:vcgi:esiteid" v="252779"/>
  </node>
  <node id="-703" visible="true" lat="43.83643818" lon="-72.36774047">
    <tag k="addr:housenumber" v="9"/>
    <tag k="addr:street" v="Justin Morrill Memorial Highway"/>
    <tag k="addr:state" v="VT"/>
    <tag k="ref:vcgi:esiteid" v="252781"/>
  </node>
  <node id="-708" visible="true" lat="43.89177647" lon="-72.35075735">
    <tag k="addr:housenumber" v="119"/>
    <tag k="addr:street" v="Pennock Road"/>
    <tag k="addr:state" v="VT"/>
    <tag k="ref:vcgi:esiteid" v="312303"/>
  </node>
  <node id="-713" visible="true" lat="43.85783725" lon="-72.35788361">
    <tag k="addr:housenumber" v="24"/>
    <tag k="addr:street" v="Prescott Acres"/>
    <tag k="addr:state" v="VT"/>
    <tag k="ref:vcgi:esiteid" v="312309"/>
  </node>
  <node id="-714" visible="true" lat="43.89578104" lon="-72.30167948">
    <tag k="addr:housenumber" v="7"/>
    <tag k="addr:street" v="Camp Loop"/>
    <tag k="addr:state" v="VT"/>
    <tag k="ref:vcgi:esiteid" v="312310"/>
  </node>
  <node id="-715" visible="true" lat="43.85452533" lon="-72.36988948">
    <tag k="addr:housenumber" v="158"/>
    <tag k="addr:street" v="Justin Morrill Memorial Highway"/>
    <tag k="addr:state" v="VT"/>
    <tag k="ref:vcgi:esiteid" v="313728"/>
  </node>
  <node id="-716" visible="true" lat="43.85323339" lon="-72.3729058">
    <tag k="addr:housenumber" v="137"/>
    <tag k="addr:street" v="Justin Morrill Memorial Highway"/>
    <tag k="addr:state" v="VT"/>
    <tag k="ref:vcgi:esiteid" v="313729"/>
  </node>
  <node id="-717" visible="true" lat="43.90431139" lon="-72.40568874">
    <tag k="addr:housenumber" v="101"/>
    <tag k="addr:street" v="Mundel Road"/>
    <tag k="addr:state" v="VT"/>
    <tag k="ref:vcgi:esiteid" v="315453"/>
  </node>
  <node id="-721" visible="true" lat="43.82028392" lon="-72.34611121">
    <tag k="addr:housenumber" v="132"/>
    <tag k="addr:street" v="Turnpike Road"/>
    <tag k="addr:state" v="VT"/>
    <tag k="ref:vcgi:esiteid" v="327268"/>
  </node>
  <node id="-722" visible="true" lat="43.82003119" lon="-72.3458882">
    <tag k="addr:housenumber" v="134"/>
    <tag k="addr:street" v="Turnpike Road"/>
    <tag k="addr:state" v="VT"/>
    <tag k="ref:vcgi:esiteid" v="327269"/>
  </node>
  <node id="-731" visible="true" lat="43.81313848" lon="-72.3460161">
    <tag k="addr:housenumber" v="167"/>
    <tag k="addr:street" v="Turnpike Road"/>
    <tag k="addr:state" v="VT"/>
    <tag k="ref:vcgi:esiteid" v="337192"/>
  </node>
  <node id="-732" visible="true" lat="43.81388995" lon="-72.34922402">
    <tag k="addr:housenumber" v="186"/>
    <tag k="addr:street" v="Turnpike Road"/>
    <tag k="addr:state" v="VT"/>
    <tag k="ref:vcgi:esiteid" v="337193"/>
  </node>
  <node id="-733" visible="true" lat="43.84297609" lon="-72.34390264">
    <tag k="addr:housenumber" v="37"/>
    <tag k="addr:street" v="Whitcomb Hill Road"/>
    <tag k="addr:state" v="VT"/>
    <tag k="ref:vcgi:esiteid" v="340076"/>
  </node>
  <node id="-734" visible="true" lat="43.90561636" lon="-72.36334884">
    <tag k="addr:housenumber" v="40"/>
    <tag k="addr:street" v="Kendall Road"/>
    <tag k="addr:state" v="VT"/>
    <tag k="ref:vcgi:esiteid" v="340077"/>
  </node>
  <node id="-735" visible="true" lat="43.85940761" lon="-72.35874058">
    <tag k="addr:housenumber" v="11"/>
    <tag k="addr:street" v="Prescott Acres"/>
    <tag k="addr:state" v="VT"/>
    <tag k="ref:vcgi:esiteid" v="340078"/>
  </node>
  <node id="-738" visible="true" lat="43.91977103" lon="-72.4004906">
    <tag k="addr:housenumber" v="42"/>
    <tag k="addr:street" v="White Road"/>
    <tag k="addr:state" v="VT"/>
    <tag k="ref:vcgi:esiteid" v="343800"/>
  </node>
  <node id="-740" visible="true" lat="43.92330749" lon="-72.3962915">
    <tag k="addr:housenumber" v="5"/>
    <tag k="addr:street" v="Dow Road"/>
    <tag k="addr:state" v="VT"/>
    <tag k="ref:vcgi:esiteid" v="343802"/>
  </node>
  <node id="-741" visible="true" lat="43.87769381" lon="-72.37544791">
    <tag k="addr:housenumber" v="28"/>
    <tag k="addr:street" v="Old City Falls Road"/>
    <tag k="addr:state" v="VT"/>
    <tag k="ref:vcgi:esiteid" v="343803"/>
  </node>
  <node id="-742" visible="true" lat="43.90940892" lon="-72.35279586">
    <tag k="addr:housenumber" v="18"/>
    <tag k="addr:street" v="Rogers Road"/>
    <tag k="addr:state" v="VT"/>
    <tag k="ref:vcgi:esiteid" v="344091"/>
  </node>
  <node id="-743" visible="true" lat="43.84920893" lon="-72.4356041">
    <tag k="addr:housenumber" v="102"/>
    <tag k="addr:street" v="Robinson Road"/>
    <tag k="addr:state" v="VT"/>
    <tag k="ref:vcgi:esiteid" v="344093"/>
  </node>
  <node id="-744" visible="true" lat="43.90469704" lon="-72.38422059">
    <tag k="addr:housenumber" v="42"/>
    <tag k="addr:street" v="Hemenway Road"/>
    <tag k="addr:state" v="VT"/>
    <tag k="ref:vcgi:esiteid" v="344094"/>
  </node>
  <node id="-746" visible="true" lat="43.85223409" lon="-72.33536568">
    <tag k="addr:housenumber" v="178"/>
    <tag k="addr:street" v="Furnace Flats Road"/>
    <tag k="addr:state" v="VT"/>
    <tag k="ref:vcgi:esiteid" v="345813"/>
  </node>
  <node id="-747" visible="true" lat="43.87448144" lon="-72.37245566">
    <tag k="addr:housenumber" v="32"/>
    <tag k="addr:street" v="Old City Falls Road"/>
    <tag k="addr:state" v="VT"/>
    <tag k="ref:vcgi:esiteid" v="345830"/>
  </node>
  <node id="-749" visible="true" lat="43.87347592" lon="-72.34179185">
    <tag k="addr:housenumber" v="225"/>
    <tag k="addr:street" v="Alger Brook Road"/>
    <tag k="addr:state" v="VT"/>
    <tag k="ref:vcgi:esiteid" v="345871"/>
  </node>
  <node id="-751" visible="true" lat="43.82341395" lon="-72.3450299">
    <tag k="addr:housenumber" v="105"/>
    <tag k="addr:street" v="Turnpike Road"/>
    <tag k="addr:state" v="VT"/>
    <tag k="ref:vcgi:esiteid" v="446056"/>
  </node>
  <node id="-752" visible="true" lat="43.82548673" lon="-72.34621811">
    <tag k="addr:housenumber" v="94"/>
    <tag k="addr:street" v="Turnpike Road"/>
    <tag k="addr:state" v="VT"/>
    <tag k="ref:vcgi:esiteid" v="446076"/>
  </node>
  <node id="-755" visible="true" lat="43.8682358" lon="-72.38460205">
    <tag k="addr:housenumber" v="39"/>
    <tag k="addr:street" v="Brook Road"/>
    <tag k="addr:state" v="VT"/>
    <tag k="ref:vcgi:esiteid" v="448583"/>
  </node>
  <node id="-756" visible="true" lat="43.916251" lon="-72.36177068">
    <tag k="addr:housenumber" v="105"/>
    <tag k="addr:street" v="Van Dyke Road"/>
    <tag k="addr:state" v="VT"/>
    <tag k="ref:vcgi:esiteid" v="449908"/>
  </node>
  <node id="-758" visible="true" lat="43.90198092" lon="-72.36347724">
    <tag k="addr:housenumber" v="41"/>
    <tag k="addr:street" v="Kendall Road"/>
    <tag k="addr:state" v="VT"/>
    <tag k="ref:vcgi:esiteid" v="450156"/>
  </node>
  <node id="-759" visible="true" lat="43.84377497" lon="-72.35879718">
    <tag k="addr:housenumber" v="58"/>
    <tag k="addr:street" v="Stage Road"/>
    <tag k="addr:state" v="VT"/>
    <tag k="ref:vcgi:esiteid" v="450903"/>
  </node>
  <node id="-760" visible="true" lat="43.82818995" lon="-72.38811266">
    <tag k="addr:housenumber" v="383"/>
    <tag k="addr:street" v="Route 132"/>
    <tag k="addr:state" v="VT"/>
    <tag k="ref:vcgi:esiteid" v="452352"/>
  </node>
  <node id="-763" visible="true" lat="43.83471119" lon="-72.39108643">
    <tag k="addr:housenumber" v="20"/>
    <tag k="addr:street" v="Blanchard Road"/>
    <tag k="addr:state" v="VT"/>
    <tag k="ref:vcgi:esiteid" v="453584"/>
  </node>
  <node id="-764" visible="true" lat="43.89621409" lon="-72.35758463">
    <tag k="addr:housenumber" v="7"/>
    <tag k="addr:street" v="Freeman Road"/>
    <tag k="addr:state" v="VT"/>
    <tag k="ref:vcgi:esiteid" v="453585"/>
  </node>
  <node id="-765" visible="true" lat="43.89513841" lon="-72.35720082">
    <tag k="addr:housenumber" v="12"/>
    <tag k="addr:street" v="Freeman Road"/>
    <tag k="addr:state" v="VT"/>
    <tag k="ref:vcgi:esiteid" v="453586"/>
  </node>
  <node id="-766" visible="true" lat="43.91560665" lon="-72.37283385">
    <tag k="addr:housenumber" v="135"/>
    <tag k="addr:street" v="Hemenway Road"/>
    <tag k="addr:state" v="VT"/>
    <tag k="ref:vcgi:esiteid" v="454107"/>
  </node>
  <node id="-768" visible="true" lat="43.82944378" lon="-72.35862659">
    <tag k="addr:housenumber" v="6"/>
    <tag k="addr:street" v="Standish Lane"/>
    <tag k="addr:state" v="VT"/>
    <tag k="ref:vcgi:esiteid" v="611505"/>
  </node>
  <node id="-771" visible="true" lat="43.84033775" lon="-72.35434384">
    <tag k="addr:housenumber" v="30"/>
    <tag k="addr:street" v="Stage Road"/>
    <tag k="addr:state" v="VT"/>
    <tag k="ref:vcgi:esiteid" v="612039"/>
  </node>
  <node id="-773" visible="true" lat="43.83819619" lon="-72.35136683">
    <tag k="addr:housenumber" v="156"/>
    <tag k="addr:street" v="Route 132"/>
    <tag k="addr:state" v="VT"/>
    <tag k="ref:vcgi:esiteid" v="617309"/>
  </node>
  <node id="-774" visible="true" lat="43.83434265" lon="-72.35438628">
    <tag k="addr:housenumber" v="13"/>
    <tag k="addr:street" v="Turnpike Road"/>
    <tag k="addr:state" v="VT"/>
    <tag k="ref:vcgi:esiteid" v="617330"/>
  </node>
  <node id="-775" visible="true" lat="43.89238249" lon="-72.39945984">
    <tag k="addr:housenumber" v="4"/>
    <tag k="addr:street" v="Old Tunbridge Road"/>
    <tag k="addr:state" v="VT"/>
    <tag k="ref:vcgi:esiteid" v="617700"/>
  </node>
  <node id="-777" visible="true" lat="43.82710195" lon="-72.40246334">
    <tag k="addr:housenumber" v="5"/>
    <tag k="addr:street" v="Oneil Lane"/>
    <tag k="addr:state" v="VT"/>
    <tag k="ref:vcgi:esiteid" v="655810"/>
  </node>
  <node id="-778" visible="true" lat="43.85098663" lon="-72.36540652">
    <tag k="addr:housenumber" v="14"/>
    <tag k="addr:street" v="Alger Brook Road"/>
    <tag k="addr:state" v="VT"/>
    <tag k="ref:vcgi:esiteid" v="655891"/>
  </node>
  <node id="-779" visible="true" lat="43.85225354" lon="-72.36662186">
    <tag k="addr:housenumber" v="12"/>
    <tag k="addr:street" v="Alger Brook Road"/>
    <tag k="addr:state" v="VT"/>
    <tag k="ref:vcgi:esiteid" v="655892"/>
  </node>
  <node id="-780" visible="true" lat="43.86522687" lon="-72.3546866">
    <tag k="addr:housenumber" v="124"/>
    <tag k="addr:street" v="Alger Brook Road"/>
    <tag k="addr:state" v="VT"/>
    <tag k="ref:vcgi:esiteid" v="656051"/>
  </node>
  <node id="-783" visible="true" lat="43.87565606" lon="-72.29066537">
    <tag k="addr:housenumber" v="2839"/>
    <tag k="addr:street" v="Sawnee Bean Road"/>
    <tag k="addr:state" v="VT"/>
    <tag k="ref:vcgi:esiteid" v="751339"/>
  </node>
  <node id="-785" visible="true" lat="43.89237545" lon="-72.37070619">
    <tag k="addr:housenumber" v="37"/>
    <tag k="addr:street" v="Jordan Road"/>
    <tag k="addr:state" v="VT"/>
    <tag k="ref:vcgi:esiteid" v="751367"/>
  </node>
  <node id="-788" visible="true" lat="43.82164218" lon="-72.34220475">
    <tag k="addr:housenumber" v="127"/>
    <tag k="addr:street" v="Turnpike Road"/>
    <tag k="addr:state" v="VT"/>
    <tag k="ref:vcgi:esiteid" v="752791"/>
  </node>
  <node id="-789" visible="true" lat="43.88428079" lon="-72.31344221">
    <tag k="addr:housenumber" v="4132"/>
    <tag k="addr:street" v="Miller Pond Road"/>
    <tag k="addr:state" v="VT"/>
    <tag k="ref:vcgi:esiteid" v="753387"/>
  </node>
  <node id="-790" visible="true" lat="43.90941502" lon="-72.3502224">
    <tag k="addr:housenumber" v="291"/>
    <tag k="addr:street" v="Sugar Grove Lane"/>
    <tag k="addr:state" v="VT"/>
    <tag k="ref:vcgi:esiteid" v="753741"/>
  </node>
  <node id="-791" visible="true" lat="43.90975818" lon="-72.35028202">
    <tag k="addr:housenumber" v="319"/>
    <tag k="addr:street" v="Sugar Grove Lane"/>
    <tag k="addr:state" v="VT"/>
    <tag k="ref:vcgi:esiteid" v="753742"/>
  </node>
  <node id="-792" visible="true" lat="43.8773178" lon="-72.29207751">
    <tag k="addr:housenumber" v="2841"/>
    <tag k="addr:street" v="Sawnee Bean Road"/>
    <tag k="addr:state" v="VT"/>
    <tag k="ref:vcgi:esiteid" v="754311"/>
  </node>
  <node id="-794" visible="true" lat="43.86824005" lon="-72.35994775">
    <tag k="addr:housenumber" v="161"/>
    <tag k="addr:street" v="Alger Brook Road"/>
    <tag k="addr:state" v="VT"/>
    <tag k="ref:vcgi:esiteid" v="755113"/>
  </node>
  <node id="-796" visible="true" lat="43.86833226" lon="-72.39779524">
    <tag k="addr:housenumber" v="65"/>
    <tag k="addr:street" v="Robert Lane"/>
    <tag k="addr:state" v="VT"/>
    <tag k="ref:vcgi:esiteid" v="756615"/>
  </node>
  <node id="-798" visible="true" lat="43.89782143" lon="-72.29330782">
    <tag k="addr:housenumber" v="5682"/>
    <tag k="addr:street" v="Miller Pond Road"/>
    <tag k="addr:state" v="VT"/>
    <tag k="ref:vcgi:esiteid" v="756896"/>
  </node>
  <node id="-799" visible="true" lat="43.87000153" lon="-72.30404069">
    <tag k="addr:housenumber" v="2942"/>
    <tag k="addr:street" v="Miller Pond Road"/>
    <tag k="addr:state" v="VT"/>
    <tag k="ref:vcgi:esiteid" v="757171"/>
  </node>
  <node id="-800" visible="true" lat="43.90333483" lon="-72.29266924">
    <tag k="addr:housenumber" v="5866"/>
    <tag k="addr:street" v="Miller Pond Road"/>
    <tag k="addr:state" v="VT"/>
    <tag k="ref:vcgi:esiteid" v="757172"/>
  </node>
  <node id="-802" visible="true" lat="43.88832154" lon="-72.29276003">
    <tag k="addr:housenumber" v="3723"/>
    <tag k="addr:street" v="Sawnee Bean Road"/>
    <tag k="addr:state" v="VT"/>
    <tag k="ref:vcgi:esiteid" v="757174"/>
  </node>
  <node id="-803" visible="true" lat="43.89083989" lon="-72.29610345">
    <tag k="addr:housenumber" v="3945"/>
    <tag k="addr:street" v="Sawnee Bean Road"/>
    <tag k="addr:state" v="VT"/>
    <tag k="ref:vcgi:esiteid" v="757175"/>
  </node>
  <node id="-804" visible="true" lat="43.89294871" lon="-72.29819061">
    <tag k="addr:housenumber" v="4130"/>
    <tag k="addr:street" v="Sawnee Bean Road"/>
    <tag k="addr:state" v="VT"/>
    <tag k="ref:vcgi:esiteid" v="757176"/>
  </node>
  <node id="-805" visible="true" lat="43.91924006" lon="-72.37114972">
    <tag k="addr:housenumber" v="157"/>
    <tag k="addr:street" v="Hemenway Road"/>
    <tag k="addr:state" v="VT"/>
    <tag k="ref:vcgi:esiteid" v="757180"/>
  </node>
  <node id="-806" visible="true" lat="43.91505312" lon="-72.37147039">
    <tag k="addr:housenumber" v="141"/>
    <tag k="addr:street" v="Hemenway Road"/>
    <tag k="addr:state" v="VT"/>
    <tag k="ref:vcgi:esiteid" v="757181"/>
  </node>
  <node id="-807" visible="true" lat="43.88679277" lon="-72.28968407">
    <tag k="addr:housenumber" v="3520"/>
    <tag k="addr:street" v="Sawnee Bean Road"/>
    <tag k="addr:state" v="VT"/>
    <tag k="ref:vcgi:esiteid" v="757252"/>
  </node>
  <node id="-808" visible="true" lat="43.81828707" lon="-72.34675166">
    <tag k="addr:housenumber" v="146"/>
    <tag k="addr:street" v="Turnpike Road"/>
    <tag k="addr:state" v="VT"/>
    <tag k="ref:vcgi:esiteid" v="759479"/>
  </node>
  <node id="-809" visible="true" lat="43.84117677" lon="-72.33503923">
    <tag k="addr:housenumber" v="66"/>
    <tag k="addr:street" v="Furnace Flats Road"/>
    <tag k="addr:state" v="VT"/>
    <tag k="ref:vcgi:esiteid" v="761091"/>
  </node>
  <node id="-810" visible="true" lat="43.83585839" lon="-72.35282491">
    <tag k="addr:housenumber" v="35"/>
    <tag k="addr:street" v="Mine Road"/>
    <tag k="addr:state" v="VT"/>
    <tag k="ref:vcgi:esiteid" v="763067"/>
  </node>
  <node id="-811" visible="true" lat="43.835922" lon="-72.3518345">
    <tag k="addr:housenumber" v="45"/>
    <tag k="addr:street" v="Mine Road"/>
    <tag k="addr:state" v="VT"/>
    <tag k="ref:vcgi:esiteid" v="763068"/>
  </node>
  <node id="-812" visible="true" lat="43.83609948" lon="-72.35096883">
    <tag k="addr:housenumber" v="49"/>
    <tag k="addr:street" v="Mine Road"/>
    <tag k="addr:state" v="VT"/>
    <tag k="ref:vcgi:esiteid" v="763069"/>
  </node>
  <node id="-813" visible="true" lat="43.92283713" lon="-72.39058376">
    <tag k="addr:housenumber" v="240"/>
    <tag k="addr:street" v="Taylor Valley Road"/>
    <tag k="addr:state" v="VT"/>
    <tag k="ref:vcgi:esiteid" v="764117"/>
  </node>
  <node id="-815" visible="true" lat="43.8404251" lon="-72.34892788">
    <tag k="addr:housenumber" v="146"/>
    <tag k="addr:street" v="Route 132"/>
    <tag k="addr:state" v="VT"/>
    <tag k="ref:vcgi:esiteid" v="764564"/>
  </node>
  <node id="-816" visible="true" lat="43.85308763" lon="-72.36986561">
    <tag k="addr:housenumber" v="7"/>
    <tag k="addr:street" v="Alger Brook Road"/>
    <tag k="addr:state" v="VT"/>
    <tag k="ref:vcgi:esiteid" v="764582"/>
  </node>
  <node id="-818" visible="true" lat="43.85732609" lon="-72.36196109">
    <tag k="addr:housenumber" v="58"/>
    <tag k="addr:street" v="Alger Brook Road"/>
    <tag k="addr:state" v="VT"/>
    <tag k="ref:vcgi:esiteid" v="764589"/>
  </node>
  <node id="-820" visible="true" lat="43.81681644" lon="-72.34406556">
    <tag k="addr:housenumber" v="149"/>
    <tag k="addr:street" v="Turnpike Road"/>
    <tag k="addr:state" v="VT"/>
    <tag k="ref:vcgi:esiteid" v="767074"/>
  </node>
  <node id="-821" visible="true" lat="43.81998456" lon="-72.34544123">
    <tag k="addr:housenumber" v="133"/>
    <tag k="addr:street" v="Turnpike Road"/>
    <tag k="addr:state" v="VT"/>
    <tag k="ref:vcgi:esiteid" v="767075"/>
  </node>
  <node id="-822" visible="true" lat="43.81847369" lon="-72.35344875">
    <tag k="addr:housenumber" v="166"/>
    <tag k="addr:street" v="Turnpike Road"/>
    <tag k="addr:state" v="VT"/>
    <tag k="ref:vcgi:esiteid" v="767076"/>
  </node>
  <node id="-823" visible="true" lat="43.81568905" lon="-72.34440289">
    <tag k="addr:housenumber" v="151"/>
    <tag k="addr:street" v="Turnpike Road"/>
    <tag k="addr:state" v="VT"/>
    <tag k="ref:vcgi:esiteid" v="767129"/>
  </node>
  <node id="-824" visible="true" lat="43.83711865" lon="-72.36701037">
    <tag k="addr:housenumber" v="10"/>
    <tag k="addr:street" v="Justin Morrill Memorial Highway"/>
    <tag k="addr:state" v="VT"/>
    <tag k="ref:vcgi:esiteid" v="768075"/>
  </node>
  <node id="-825" visible="true" lat="43.83660875" lon="-72.36626305">
    <tag k="addr:housenumber" v="4"/>
    <tag k="addr:street" v="Justin Morrill Memorial Highway"/>
    <tag k="addr:state" v="VT"/>
    <tag k="ref:vcgi:esiteid" v="768076"/>
  </node>
  <node id="-826" visible="true" lat="43.86138232" lon="-72.41410038">
    <tag k="addr:housenumber" v="57"/>
    <tag k="addr:street" v="Rock Bottom Road"/>
    <tag k="addr:state" v="VT"/>
    <tag k="ref:vcgi:esiteid" v="769774"/>
  </node>
  <node id="-827" visible="true" lat="43.88983532" lon="-72.39001607">
    <tag k="addr:housenumber" v="417"/>
    <tag k="addr:street" v="Justin Morrill Memorial Highway"/>
    <tag k="addr:state" v="VT"/>
    <tag k="ref:vcgi:esiteid" v="900520"/>
  </node>
  <node id="-828" visible="true" lat="43.8719949" lon="-72.31411018">
    <tag k="addr:housenumber" v="2976"/>
    <tag k="addr:street" v="Miller Pond Road"/>
    <tag k="addr:state" v="VT"/>
    <tag k="ref:vcgi:esiteid" v="900521"/>
  </node>
  <node id="-830" visible="true" lat="43.83769638" lon="-72.35217458">
    <tag k="addr:housenumber" v="157"/>
    <tag k="addr:street" v="Route 132"/>
    <tag k="addr:state" v="VT"/>
    <tag k="ref:vcgi:esiteid" v="1050675"/>
  </node>
  <node id="-831" visible="true" lat="43.84917" lon="-72.37133">
    <tag k="addr:housenumber" v="114"/>
    <tag k="addr:street" v="Justin Morrill Memorial Highway"/>
    <tag k="addr:state" v="VT"/>
    <tag k="ref:vcgi:esiteid" v="1050676"/>
  </node>
  <node id="-832" visible="true" lat="43.8355" lon="-72.43367">
    <tag k="addr:housenumber" v="473"/>
    <tag k="addr:street" v="Brook Road"/>
    <tag k="addr:state" v="VT"/>
    <tag k="ref:vcgi:esiteid" v="1050715"/>
  </node>
  <node id="-833" visible="true" lat="43.86585086" lon="-72.37747125">
    <tag k="addr:housenumber" v="8"/>
    <tag k="addr:street" v="Brook Road"/>
    <tag k="addr:state" v="VT"/>
    <tag k="ref:vcgi:esiteid" v="1050718"/>
  </node>
  <node id="-834" visible="true" lat="43.83559169" lon="-72.36742027">
    <tag k="addr:housenumber" v="5"/>
    <tag k="addr:street" v="Justin Morrill Memorial Highway"/>
    <tag k="addr:state" v="VT"/>
    <tag k="ref:vcgi:esiteid" v="1050994"/>
  </node>
</osm>
