<?xml version="1.0" encoding="UTF-8"?>
<osm version="0.6" generator="JOSM">
  <node id="-103" visible="true" lat="43.82919201" lon="-73.20122897">
    <tag k="addr:city" v="Sudbury"/>
    <tag k="addr:housenumber" v="466"/>
    <tag k="addr:street" v="Vail Road"/>
    <tag k="addr:state" v="VT"/>
    <tag k="ref:vcgi:esiteid" v="253392"/>
  </node>
  <node id="-118" visible="true" lat="43.82418858" lon="-73.17940203">
    <tag k="addr:city" v="Sudbury"/>
    <tag k="addr:housenumber" v="135"/>
    <tag k="addr:street" v="Sawyer Needham Road"/>
    <tag k="addr:state" v="VT"/>
    <tag k="ref:vcgi:esiteid" v="253407"/>
  </node>
  <node id="-123" visible="true" lat="43.82330477" lon="-73.18671452">
    <tag k="addr:city" v="Sudbury"/>
    <tag k="addr:housenumber" v="34"/>
    <tag k="addr:street" v="Schoolhouse Road"/>
    <tag k="addr:state" v="VT"/>
    <tag k="ref:vcgi:esiteid" v="253412"/>
  </node>
  <node id="-124" visible="true" lat="43.8232749" lon="-73.17972021">
    <tag k="addr:city" v="Sudbury"/>
    <tag k="addr:housenumber" v="75"/>
    <tag k="addr:street" v="Sawyer Needham Road"/>
    <tag k="addr:state" v="VT"/>
    <tag k="ref:vcgi:esiteid" v="253413"/>
  </node>
  <node id="-126" visible="true" lat="43.82291295" lon="-73.18690749">
    <tag k="addr:city" v="Sudbury"/>
    <tag k="addr:housenumber" v="62"/>
    <tag k="addr:street" v="Schoolhouse Road"/>
    <tag k="addr:state" v="VT"/>
    <tag k="ref:vcgi:esiteid" v="253415"/>
  </node>
  <node id="-129" visible="true" lat="43.822295" lon="-73.18576082">
    <tag k="addr:city" v="Sudbury"/>
    <tag k="addr:housenumber" v="31"/>
    <tag k="addr:street" v="Schoolhouse Road"/>
    <tag k="addr:state" v="VT"/>
    <tag k="ref:vcgi:esiteid" v="253419"/>
  </node>
  <node id="-132" visible="true" lat="43.82128126" lon="-73.18743568">
    <tag k="addr:city" v="Sudbury"/>
    <tag k="addr:housenumber" v="179"/>
    <tag k="addr:street" v="Schoolhouse Road"/>
    <tag k="addr:state" v="VT"/>
    <tag k="ref:vcgi:esiteid" v="253422"/>
  </node>
  <node id="-133" visible="true" lat="43.8214428" lon="-73.173737">
    <tag k="addr:city" v="Sudbury"/>
    <tag k="addr:housenumber" v="5"/>
    <tag k="addr:street" v="Williams Lane"/>
    <tag k="addr:state" v="VT"/>
    <tag k="ref:vcgi:esiteid" v="253423"/>
  </node>
  <node id="-136" visible="true" lat="43.82061646" lon="-73.18704688">
    <tag k="addr:city" v="Sudbury"/>
    <tag k="addr:housenumber" v="235"/>
    <tag k="addr:street" v="Schoolhouse Road"/>
    <tag k="addr:state" v="VT"/>
    <tag k="ref:vcgi:esiteid" v="253426"/>
  </node>
  <node id="-139" visible="true" lat="43.81870804" lon="-73.19016154">
    <tag k="addr:city" v="Sudbury"/>
    <tag k="addr:housenumber" v="353"/>
    <tag k="addr:street" v="Schoolhouse Road"/>
    <tag k="addr:state" v="VT"/>
    <tag k="ref:vcgi:esiteid" v="253429"/>
  </node>
  <node id="-155" visible="true" lat="43.80972437" lon="-73.15733755">
    <tag k="addr:city" v="Sudbury"/>
    <tag k="addr:housenumber" v="226"/>
    <tag k="addr:street" v="Willowbrook Road"/>
    <tag k="addr:state" v="VT"/>
    <tag k="ref:vcgi:esiteid" v="253445"/>
  </node>
  <node id="-156" visible="true" lat="43.8092842" lon="-73.15589141">
    <tag k="addr:city" v="Sudbury"/>
    <tag k="addr:housenumber" v="224"/>
    <tag k="addr:street" v="Willowbrook Road"/>
    <tag k="addr:state" v="VT"/>
    <tag k="ref:vcgi:esiteid" v="253446"/>
  </node>
  <node id="-169" visible="true" lat="43.80555725" lon="-73.15991973">
    <tag k="addr:city" v="Sudbury"/>
    <tag k="addr:housenumber" v="622"/>
    <tag k="addr:street" v="Willowbrook Road"/>
    <tag k="addr:state" v="VT"/>
    <tag k="ref:vcgi:esiteid" v="253459"/>
  </node>
  <node id="-173" visible="true" lat="43.80506515" lon="-73.16051483">
    <tag k="addr:city" v="Sudbury"/>
    <tag k="addr:housenumber" v="660"/>
    <tag k="addr:street" v="Willowbrook Road"/>
    <tag k="addr:state" v="VT"/>
    <tag k="ref:vcgi:esiteid" v="253463"/>
  </node>
  <node id="-175" visible="true" lat="43.80492019" lon="-73.15932464">
    <tag k="addr:city" v="Sudbury"/>
    <tag k="addr:housenumber" v="613"/>
    <tag k="addr:street" v="Willowbrook Road"/>
    <tag k="addr:state" v="VT"/>
    <tag k="ref:vcgi:esiteid" v="253465"/>
  </node>
  <node id="-179" visible="true" lat="43.80371093" lon="-73.1599884">
    <tag k="addr:city" v="Sudbury"/>
    <tag k="addr:housenumber" v="727"/>
    <tag k="addr:street" v="Willowbrook Road"/>
    <tag k="addr:state" v="VT"/>
    <tag k="ref:vcgi:esiteid" v="253469"/>
  </node>
  <node id="-183" visible="true" lat="43.80246734" lon="-73.16003417">
    <tag k="addr:city" v="Sudbury"/>
    <tag k="addr:housenumber" v="809"/>
    <tag k="addr:street" v="Willowbrook Road"/>
    <tag k="addr:state" v="VT"/>
    <tag k="ref:vcgi:esiteid" v="253473"/>
  </node>
  <node id="-186" visible="true" lat="43.80184173" lon="-73.16216278">
    <tag k="addr:city" v="Sudbury"/>
    <tag k="addr:housenumber" v="892"/>
    <tag k="addr:street" v="Willowbrook Road"/>
    <tag k="addr:state" v="VT"/>
    <tag k="ref:vcgi:esiteid" v="253477"/>
  </node>
  <node id="-189" visible="true" lat="43.80116653" lon="-73.16178131">
    <tag k="addr:city" v="Sudbury"/>
    <tag k="addr:housenumber" v="902"/>
    <tag k="addr:street" v="Willowbrook Road"/>
    <tag k="addr:state" v="VT"/>
    <tag k="ref:vcgi:esiteid" v="253480"/>
  </node>
  <node id="-190" visible="true" lat="43.80107498" lon="-73.16119384">
    <tag k="addr:city" v="Sudbury"/>
    <tag k="addr:housenumber" v="901"/>
    <tag k="addr:street" v="Willowbrook Road"/>
    <tag k="addr:state" v="VT"/>
    <tag k="ref:vcgi:esiteid" v="253481"/>
  </node>
  <node id="-192" visible="true" lat="43.7997322" lon="-73.20500183">
    <tag k="addr:city" v="Sudbury"/>
    <tag k="addr:housenumber" v="36"/>
    <tag k="addr:street" v="Blacksmith Lane"/>
    <tag k="addr:state" v="VT"/>
    <tag k="ref:vcgi:esiteid" v="253483"/>
  </node>
  <node id="-194" visible="true" lat="43.79955673" lon="-73.16136169">
    <tag k="addr:city" v="Sudbury"/>
    <tag k="addr:housenumber" v="1045"/>
    <tag k="addr:street" v="Willowbrook Road"/>
    <tag k="addr:state" v="VT"/>
    <tag k="ref:vcgi:esiteid" v="253485"/>
  </node>
  <node id="-195" visible="true" lat="43.7990303" lon="-73.20466613">
    <tag k="addr:city" v="Sudbury"/>
    <tag k="addr:housenumber" v="8"/>
    <tag k="addr:street" v="Huff Pond Road"/>
    <tag k="addr:state" v="VT"/>
    <tag k="ref:vcgi:esiteid" v="253486"/>
  </node>
  <node id="-197" visible="true" lat="43.7990036" lon="-73.20541381">
    <tag k="addr:city" v="Sudbury"/>
    <tag k="addr:housenumber" v="65"/>
    <tag k="addr:street" v="Quarry Road"/>
    <tag k="addr:state" v="VT"/>
    <tag k="ref:vcgi:esiteid" v="253488"/>
  </node>
  <node id="-198" visible="true" lat="43.79902267" lon="-73.16454315">
    <tag k="addr:city" v="Sudbury"/>
    <tag k="addr:housenumber" v="1046"/>
    <tag k="addr:street" v="Willowbrook Road"/>
    <tag k="addr:state" v="VT"/>
    <tag k="ref:vcgi:esiteid" v="253489"/>
  </node>
  <node id="-200" visible="true" lat="43.79753112" lon="-73.2002716">
    <tag k="addr:city" v="Sudbury"/>
    <tag k="addr:housenumber" v="261"/>
    <tag k="addr:street" v="Huff Pond Road"/>
    <tag k="addr:state" v="VT"/>
    <tag k="ref:vcgi:esiteid" v="253491"/>
  </node>
  <node id="-202" visible="true" lat="43.79708862" lon="-73.20243072">
    <tag k="addr:city" v="Sudbury"/>
    <tag k="addr:housenumber" v="206"/>
    <tag k="addr:street" v="Huff Pond Road"/>
    <tag k="addr:state" v="VT"/>
    <tag k="ref:vcgi:esiteid" v="253493"/>
  </node>
  <node id="-203" visible="true" lat="43.79663085" lon="-73.19882965">
    <tag k="addr:city" v="Sudbury"/>
    <tag k="addr:housenumber" v="354"/>
    <tag k="addr:street" v="Huff Pond Road"/>
    <tag k="addr:state" v="VT"/>
    <tag k="ref:vcgi:esiteid" v="253494"/>
  </node>
  <node id="-205" visible="true" lat="43.79603958" lon="-73.19656372">
    <tag k="addr:city" v="Sudbury"/>
    <tag k="addr:housenumber" v="477"/>
    <tag k="addr:street" v="Huff Pond Road"/>
    <tag k="addr:state" v="VT"/>
    <tag k="ref:vcgi:esiteid" v="253496"/>
  </node>
  <node id="-206" visible="true" lat="43.79607391" lon="-73.15787506">
    <tag k="addr:city" v="Sudbury"/>
    <tag k="addr:housenumber" v="1371"/>
    <tag k="addr:street" v="Willowbrook Road"/>
    <tag k="addr:state" v="VT"/>
    <tag k="ref:vcgi:esiteid" v="253497"/>
  </node>
  <node id="-207" visible="true" lat="43.79578781" lon="-73.15772247">
    <tag k="addr:city" v="Sudbury"/>
    <tag k="addr:housenumber" v="1369"/>
    <tag k="addr:street" v="Willowbrook Road"/>
    <tag k="addr:state" v="VT"/>
    <tag k="ref:vcgi:esiteid" v="253498"/>
  </node>
  <node id="-209" visible="true" lat="43.79404449" lon="-73.19304656">
    <tag k="addr:city" v="Sudbury"/>
    <tag k="addr:housenumber" v="687"/>
    <tag k="addr:street" v="Huff Pond Road"/>
    <tag k="addr:state" v="VT"/>
    <tag k="ref:vcgi:esiteid" v="253500"/>
  </node>
  <node id="-215" visible="true" lat="43.78945541" lon="-73.1919403">
    <tag k="addr:city" v="Sudbury"/>
    <tag k="addr:housenumber" v="1026"/>
    <tag k="addr:street" v="Huff Pond Road"/>
    <tag k="addr:state" v="VT"/>
    <tag k="ref:vcgi:esiteid" v="253506"/>
  </node>
  <node id="-216" visible="true" lat="43.78904342" lon="-73.15038299">
    <tag k="addr:city" v="Sudbury"/>
    <tag k="addr:housenumber" v="2015"/>
    <tag k="addr:street" v="Willowbrook Road"/>
    <tag k="addr:state" v="VT"/>
    <tag k="ref:vcgi:esiteid" v="253507"/>
  </node>
  <node id="-219" visible="true" lat="43.78662985" lon="-73.16025751">
    <tag k="addr:city" v="Sudbury"/>
    <tag k="addr:housenumber" v="2741"/>
    <tag k="addr:street" v="Burr Pond Road"/>
    <tag k="addr:state" v="VT"/>
    <tag k="ref:vcgi:esiteid" v="253510"/>
  </node>
  <node id="-220" visible="true" lat="43.78596546" lon="-73.16318164">
    <tag k="addr:city" v="Sudbury"/>
    <tag k="addr:housenumber" v="2613"/>
    <tag k="addr:street" v="Burr Pond Road"/>
    <tag k="addr:state" v="VT"/>
    <tag k="ref:vcgi:esiteid" v="253511"/>
  </node>
  <node id="-223" visible="true" lat="43.78506482" lon="-73.16599412">
    <tag k="addr:city" v="Sudbury"/>
    <tag k="addr:housenumber" v="2485"/>
    <tag k="addr:street" v="Burr Pond Road"/>
    <tag k="addr:state" v="VT"/>
    <tag k="ref:vcgi:esiteid" v="253514"/>
  </node>
  <node id="-225" visible="true" lat="43.78458767" lon="-73.16200925">
    <tag k="addr:city" v="Sudbury"/>
    <tag k="addr:housenumber" v="2648"/>
    <tag k="addr:street" v="Burr Pond Road"/>
    <tag k="addr:state" v="VT"/>
    <tag k="ref:vcgi:esiteid" v="253516"/>
  </node>
  <node id="-226" visible="true" lat="43.78480438" lon="-73.16739746">
    <tag k="addr:city" v="Sudbury"/>
    <tag k="addr:housenumber" v="2399"/>
    <tag k="addr:street" v="Burr Pond Road"/>
    <tag k="addr:state" v="VT"/>
    <tag k="ref:vcgi:esiteid" v="253517"/>
  </node>
  <node id="-227" visible="true" lat="43.78442514" lon="-73.16269293">
    <tag k="addr:city" v="Sudbury"/>
    <tag k="addr:housenumber" v="2612"/>
    <tag k="addr:street" v="Burr Pond Road"/>
    <tag k="addr:state" v="VT"/>
    <tag k="ref:vcgi:esiteid" v="253518"/>
  </node>
  <node id="-228" visible="true" lat="43.7844009" lon="-73.16735099">
    <tag k="addr:city" v="Sudbury"/>
    <tag k="addr:housenumber" v="2395"/>
    <tag k="addr:street" v="Burr Pond Road"/>
    <tag k="addr:state" v="VT"/>
    <tag k="ref:vcgi:esiteid" v="253519"/>
  </node>
  <node id="-232" visible="true" lat="43.78344726" lon="-73.18374633">
    <tag k="addr:city" v="Sudbury"/>
    <tag k="addr:housenumber" v="1636"/>
    <tag k="addr:street" v="Huff Pond Road"/>
    <tag k="addr:state" v="VT"/>
    <tag k="ref:vcgi:esiteid" v="253523"/>
  </node>
  <node id="-233" visible="true" lat="43.78341674" lon="-73.17876434">
    <tag k="addr:city" v="Sudbury"/>
    <tag k="addr:housenumber" v="1877"/>
    <tag k="addr:street" v="Huff Pond Road"/>
    <tag k="addr:state" v="VT"/>
    <tag k="ref:vcgi:esiteid" v="253524"/>
  </node>
  <node id="-234" visible="true" lat="43.78335571" lon="-73.18227386">
    <tag k="addr:city" v="Sudbury"/>
    <tag k="addr:housenumber" v="1699"/>
    <tag k="addr:street" v="Huff Pond Road"/>
    <tag k="addr:state" v="VT"/>
    <tag k="ref:vcgi:esiteid" v="253525"/>
  </node>
  <node id="-235" visible="true" lat="43.78329086" lon="-73.18114471">
    <tag k="addr:city" v="Sudbury"/>
    <tag k="addr:housenumber" v="1769"/>
    <tag k="addr:street" v="Huff Pond Road"/>
    <tag k="addr:state" v="VT"/>
    <tag k="ref:vcgi:esiteid" v="253526"/>
  </node>
  <node id="-236" visible="true" lat="43.78344932" lon="-73.17428218">
    <tag k="addr:city" v="Sudbury"/>
    <tag k="addr:housenumber" v="2095"/>
    <tag k="addr:street" v="Huff Pond Road"/>
    <tag k="addr:state" v="VT"/>
    <tag k="ref:vcgi:esiteid" v="253527"/>
  </node>
  <node id="-239" visible="true" lat="43.78277147" lon="-73.14083304">
    <tag k="addr:city" v="Sudbury"/>
    <tag k="addr:housenumber" v="4108"/>
    <tag k="addr:street" v="Burr Pond Road"/>
    <tag k="addr:state" v="VT"/>
    <tag k="ref:vcgi:esiteid" v="253530"/>
  </node>
  <node id="-240" visible="true" lat="43.78268541" lon="-73.15730809">
    <tag k="addr:city" v="Sudbury"/>
    <tag k="addr:housenumber" v="3017"/>
    <tag k="addr:street" v="Burr Pond Road"/>
    <tag k="addr:state" v="VT"/>
    <tag k="ref:vcgi:esiteid" v="253531"/>
  </node>
  <node id="-241" visible="true" lat="43.78252056" lon="-73.16628869">
    <tag k="addr:city" v="Sudbury"/>
    <tag k="addr:housenumber" v="2338"/>
    <tag k="addr:street" v="Burr Pond Road"/>
    <tag k="addr:state" v="VT"/>
    <tag k="ref:vcgi:esiteid" v="253532"/>
  </node>
  <node id="-242" visible="true" lat="43.78195031" lon="-73.17162147">
    <tag k="addr:city" v="Sudbury"/>
    <tag k="addr:housenumber" v="2098"/>
    <tag k="addr:street" v="Burr Pond Road"/>
    <tag k="addr:state" v="VT"/>
    <tag k="ref:vcgi:esiteid" v="253533"/>
  </node>
  <node id="-243" visible="true" lat="43.78149355" lon="-73.156741">
    <tag k="addr:city" v="Sudbury"/>
    <tag k="addr:housenumber" v="3163"/>
    <tag k="addr:street" v="Burr Pond Road"/>
    <tag k="addr:state" v="VT"/>
    <tag k="ref:vcgi:esiteid" v="253534"/>
  </node>
  <node id="-244" visible="true" lat="43.77998777" lon="-73.17515615">
    <tag k="addr:city" v="Sudbury"/>
    <tag k="addr:housenumber" v="1875"/>
    <tag k="addr:street" v="Burr Pond Road"/>
    <tag k="addr:state" v="VT"/>
    <tag k="ref:vcgi:esiteid" v="253535"/>
  </node>
  <node id="-245" visible="true" lat="43.77977993" lon="-73.13988147">
    <tag k="addr:city" v="Sudbury"/>
    <tag k="addr:housenumber" v="4124"/>
    <tag k="addr:street" v="Burr Pond Road"/>
    <tag k="addr:state" v="VT"/>
    <tag k="ref:vcgi:esiteid" v="253536"/>
  </node>
  <node id="-246" visible="true" lat="43.77951018" lon="-73.15247027">
    <tag k="addr:city" v="Sudbury"/>
    <tag k="addr:housenumber" v="2754"/>
    <tag k="addr:street" v="Willowbrook Road"/>
    <tag k="addr:state" v="VT"/>
    <tag k="ref:vcgi:esiteid" v="253537"/>
  </node>
  <node id="-261" visible="true" lat="43.76975589" lon="-73.14986308">
    <tag k="addr:city" v="Sudbury"/>
    <tag k="addr:housenumber" v="2808"/>
    <tag k="addr:street" v="Willowbrook Road"/>
    <tag k="addr:state" v="VT"/>
    <tag k="ref:vcgi:esiteid" v="253552"/>
  </node>
  <node id="-265" visible="true" lat="43.76877212" lon="-73.19509887">
    <tag k="addr:city" v="Sudbury"/>
    <tag k="addr:housenumber" v="93"/>
    <tag k="addr:street" v="Burr Pond Road"/>
    <tag k="addr:state" v="VT"/>
    <tag k="ref:vcgi:esiteid" v="253556"/>
  </node>
  <node id="-284" visible="true" lat="43.76625442" lon="-73.18797302">
    <tag k="addr:city" v="Sudbury"/>
    <tag k="addr:housenumber" v="596"/>
    <tag k="addr:street" v="Burr Pond Road"/>
    <tag k="addr:state" v="VT"/>
    <tag k="ref:vcgi:esiteid" v="253575"/>
  </node>
  <node id="-285" visible="true" lat="43.76589584" lon="-73.18810272">
    <tag k="addr:city" v="Sudbury"/>
    <tag k="addr:housenumber" v="572"/>
    <tag k="addr:street" v="Burr Pond Road"/>
    <tag k="addr:state" v="VT"/>
    <tag k="ref:vcgi:esiteid" v="253576"/>
  </node>
  <node id="-286" visible="true" lat="43.76586532" lon="-73.18862152">
    <tag k="addr:city" v="Sudbury"/>
    <tag k="addr:housenumber" v="557"/>
    <tag k="addr:street" v="Burr Pond Road"/>
    <tag k="addr:state" v="VT"/>
    <tag k="ref:vcgi:esiteid" v="253577"/>
  </node>
  <node id="-288" visible="true" lat="43.76569747" lon="-73.18810272">
    <tag k="addr:city" v="Sudbury"/>
    <tag k="addr:housenumber" v="558"/>
    <tag k="addr:street" v="Burr Pond Road"/>
    <tag k="addr:state" v="VT"/>
    <tag k="ref:vcgi:esiteid" v="253579"/>
  </node>
  <node id="-289" visible="true" lat="43.76559829" lon="-73.19657898">
    <tag k="addr:city" v="Sudbury"/>
    <tag k="addr:housenumber" v="5"/>
    <tag k="addr:street" v="Burr Pond Road"/>
    <tag k="addr:state" v="VT"/>
    <tag k="ref:vcgi:esiteid" v="253580"/>
  </node>
  <node id="-290" visible="true" lat="43.76535034" lon="-73.18789672">
    <tag k="addr:city" v="Sudbury"/>
    <tag k="addr:housenumber" v="33"/>
    <tag k="addr:street" v="Steele Road"/>
    <tag k="addr:state" v="VT"/>
    <tag k="ref:vcgi:esiteid" v="253581"/>
  </node>
  <node id="-292" visible="true" lat="43.76520919" lon="-73.19001007">
    <tag k="addr:city" v="Sudbury"/>
    <tag k="addr:housenumber" v="462"/>
    <tag k="addr:street" v="Burr Pond Road"/>
    <tag k="addr:state" v="VT"/>
    <tag k="ref:vcgi:esiteid" v="253583"/>
  </node>
  <node id="-293" visible="true" lat="43.76521301" lon="-73.18788909">
    <tag k="addr:city" v="Sudbury"/>
    <tag k="addr:housenumber" v="41"/>
    <tag k="addr:street" v="Steele Road"/>
    <tag k="addr:state" v="VT"/>
    <tag k="ref:vcgi:esiteid" v="253584"/>
  </node>
  <node id="-294" visible="true" lat="43.76507949" lon="-73.18760681">
    <tag k="addr:city" v="Sudbury"/>
    <tag k="addr:housenumber" v="55"/>
    <tag k="addr:street" v="Steele Road"/>
    <tag k="addr:state" v="VT"/>
    <tag k="ref:vcgi:esiteid" v="253585"/>
  </node>
  <node id="-295" visible="true" lat="43.7650299" lon="-73.19224548">
    <tag k="addr:city" v="Sudbury"/>
    <tag k="addr:housenumber" v="363"/>
    <tag k="addr:street" v="Burr Pond Road"/>
    <tag k="addr:state" v="VT"/>
    <tag k="ref:vcgi:esiteid" v="253586"/>
  </node>
  <node id="-296" visible="true" lat="43.7650032" lon="-73.19056701">
    <tag k="addr:city" v="Sudbury"/>
    <tag k="addr:housenumber" v="432"/>
    <tag k="addr:street" v="Burr Pond Road"/>
    <tag k="addr:state" v="VT"/>
    <tag k="ref:vcgi:esiteid" v="253587"/>
  </node>
  <node id="-298" visible="true" lat="43.7647972" lon="-73.18743133">
    <tag k="addr:city" v="Sudbury"/>
    <tag k="addr:housenumber" v="73"/>
    <tag k="addr:street" v="Steele Road"/>
    <tag k="addr:state" v="VT"/>
    <tag k="ref:vcgi:esiteid" v="253589"/>
  </node>
  <node id="-301" visible="true" lat="43.76456832" lon="-73.18731689">
    <tag k="addr:city" v="Sudbury"/>
    <tag k="addr:housenumber" v="89"/>
    <tag k="addr:street" v="Steele Road"/>
    <tag k="addr:state" v="VT"/>
    <tag k="ref:vcgi:esiteid" v="253592"/>
  </node>
  <node id="-306" visible="true" lat="43.76421356" lon="-73.18849944">
    <tag k="addr:city" v="Sudbury"/>
    <tag k="addr:housenumber" v="91"/>
    <tag k="addr:street" v="Saint Johns Road"/>
    <tag k="addr:state" v="VT"/>
    <tag k="ref:vcgi:esiteid" v="253597"/>
  </node>
  <node id="-307" visible="true" lat="43.76412201" lon="-73.19406127">
    <tag k="addr:city" v="Sudbury"/>
    <tag k="addr:housenumber" v="151"/>
    <tag k="addr:street" v="Burr Pond Road"/>
    <tag k="addr:state" v="VT"/>
    <tag k="ref:vcgi:esiteid" v="253598"/>
  </node>
  <node id="-309" visible="true" lat="43.76409912" lon="-73.19493103">
    <tag k="addr:city" v="Sudbury"/>
    <tag k="addr:housenumber" v="158"/>
    <tag k="addr:street" v="Burr Pond Road"/>
    <tag k="addr:state" v="VT"/>
    <tag k="ref:vcgi:esiteid" v="253600"/>
  </node>
  <node id="-313" visible="true" lat="43.76352691" lon="-73.18943023">
    <tag k="addr:city" v="Sudbury"/>
    <tag k="addr:housenumber" v="140"/>
    <tag k="addr:street" v="Saint Johns Road"/>
    <tag k="addr:state" v="VT"/>
    <tag k="ref:vcgi:esiteid" v="253604"/>
  </node>
  <node id="-315" visible="true" lat="43.76331329" lon="-73.19326019">
    <tag k="addr:city" v="Sudbury"/>
    <tag k="addr:housenumber" v="248"/>
    <tag k="addr:street" v="Burr Pond Road"/>
    <tag k="addr:state" v="VT"/>
    <tag k="ref:vcgi:esiteid" v="253606"/>
  </node>
  <node id="-326" visible="true" lat="43.76286697" lon="-73.18022155">
    <tag k="addr:city" v="Sudbury"/>
    <tag k="addr:housenumber" v="534"/>
    <tag k="addr:street" v="East Burr Pond Road"/>
    <tag k="addr:state" v="VT"/>
    <tag k="ref:vcgi:esiteid" v="253617"/>
  </node>
  <node id="-337" visible="true" lat="43.76239013" lon="-73.1819458">
    <tag k="addr:city" v="Sudbury"/>
    <tag k="addr:housenumber" v="632"/>
    <tag k="addr:street" v="East Burr Pond Road"/>
    <tag k="addr:state" v="VT"/>
    <tag k="ref:vcgi:esiteid" v="253628"/>
  </node>
  <node id="-340" visible="true" lat="43.76222428" lon="-73.1843513">
    <tag k="addr:city" v="Sudbury"/>
    <tag k="addr:housenumber" v="275"/>
    <tag k="addr:street" v="Appleseed Road"/>
    <tag k="addr:state" v="VT"/>
    <tag k="ref:vcgi:esiteid" v="253631"/>
  </node>
  <node id="-341" visible="true" lat="43.76202248" lon="-73.18320648">
    <tag k="addr:city" v="Sudbury"/>
    <tag k="addr:housenumber" v="277"/>
    <tag k="addr:street" v="Appleseed Road"/>
    <tag k="addr:state" v="VT"/>
    <tag k="ref:vcgi:esiteid" v="253632"/>
  </node>
  <node id="-353" visible="true" lat="43.76142714" lon="-73.18634427">
    <tag k="addr:city" v="Sudbury"/>
    <tag k="addr:housenumber" v="127"/>
    <tag k="addr:street" v="Appleseed Road"/>
    <tag k="addr:state" v="VT"/>
    <tag k="ref:vcgi:esiteid" v="253644"/>
  </node>
  <node id="-355" visible="true" lat="43.76096114" lon="-73.18809843">
    <tag k="addr:city" v="Sudbury"/>
    <tag k="addr:housenumber" v="34"/>
    <tag k="addr:street" v="Appleseed Road"/>
    <tag k="addr:state" v="VT"/>
    <tag k="ref:vcgi:esiteid" v="253646"/>
  </node>
  <node id="-462" visible="true" lat="43.76102489" lon="-73.18626634">
    <tag k="addr:city" v="Sudbury"/>
    <tag k="addr:housenumber" v="129"/>
    <tag k="addr:street" v="Appleseed Road"/>
    <tag k="addr:state" v="VT"/>
    <tag k="ref:vcgi:esiteid" v="253755"/>
  </node>
  <node id="-469" visible="true" lat="43.79386138" lon="-73.1937561">
    <tag k="addr:city" v="Sudbury"/>
    <tag k="addr:housenumber" v="685"/>
    <tag k="addr:street" v="Huff Pond Road"/>
    <tag k="addr:state" v="VT"/>
    <tag k="ref:vcgi:esiteid" v="253762"/>
  </node>
  <node id="-474" visible="true" lat="43.79598236" lon="-73.19960021">
    <tag k="addr:city" v="Sudbury"/>
    <tag k="addr:housenumber" v="334"/>
    <tag k="addr:street" v="Huff Pond Road"/>
    <tag k="addr:state" v="VT"/>
    <tag k="ref:vcgi:esiteid" v="253767"/>
  </node>
  <node id="-478" visible="true" lat="43.79553604" lon="-73.15827941">
    <tag k="addr:city" v="Sudbury"/>
    <tag k="addr:housenumber" v="1366"/>
    <tag k="addr:street" v="Willowbrook Road"/>
    <tag k="addr:state" v="VT"/>
    <tag k="ref:vcgi:esiteid" v="253771"/>
  </node>
  <node id="-480" visible="true" lat="43.79794311" lon="-73.15956115">
    <tag k="addr:city" v="Sudbury"/>
    <tag k="addr:housenumber" v="1197"/>
    <tag k="addr:street" v="Willowbrook Road"/>
    <tag k="addr:state" v="VT"/>
    <tag k="ref:vcgi:esiteid" v="253773"/>
  </node>
  <node id="-485" visible="true" lat="43.78190891" lon="-73.17867065">
    <tag k="addr:city" v="Sudbury"/>
    <tag k="addr:housenumber" v="1896"/>
    <tag k="addr:street" v="Huff Pond Road"/>
    <tag k="addr:state" v="VT"/>
    <tag k="ref:vcgi:esiteid" v="253778"/>
  </node>
  <node id="-486" visible="true" lat="43.79558622" lon="-73.19462939">
    <tag k="addr:city" v="Sudbury"/>
    <tag k="addr:housenumber" v="567"/>
    <tag k="addr:street" v="Huff Pond Road"/>
    <tag k="addr:state" v="VT"/>
    <tag k="ref:vcgi:esiteid" v="253779"/>
  </node>
  <node id="-491" visible="true" lat="43.78939293" lon="-73.19660097">
    <tag k="addr:city" v="Sudbury"/>
    <tag k="addr:housenumber" v="902"/>
    <tag k="addr:street" v="Huff Pond Road"/>
    <tag k="addr:state" v="VT"/>
    <tag k="ref:vcgi:esiteid" v="253784"/>
  </node>
  <node id="-496" visible="true" lat="43.76200018" lon="-73.18080742">
    <tag k="addr:city" v="Sudbury"/>
    <tag k="addr:housenumber" v="531"/>
    <tag k="addr:street" v="East Burr Pond Road"/>
    <tag k="addr:state" v="VT"/>
    <tag k="ref:vcgi:esiteid" v="253789"/>
  </node>
  <node id="-503" visible="true" lat="43.82242873" lon="-73.18796947">
    <tag k="addr:city" v="Sudbury"/>
    <tag k="addr:housenumber" v="116"/>
    <tag k="addr:street" v="Schoolhouse Road"/>
    <tag k="addr:state" v="VT"/>
    <tag k="ref:vcgi:esiteid" v="253796"/>
  </node>
  <node id="-506" visible="true" lat="43.80662069" lon="-73.15824268">
    <tag k="addr:city" v="Sudbury"/>
    <tag k="addr:housenumber" v="516"/>
    <tag k="addr:street" v="Willowbrook Road"/>
    <tag k="addr:state" v="VT"/>
    <tag k="ref:vcgi:esiteid" v="253800"/>
  </node>
  <node id="-510" visible="true" lat="43.81109162" lon="-73.1581408">
    <tag k="addr:city" v="Sudbury"/>
    <tag k="addr:housenumber" v="214"/>
    <tag k="addr:street" v="Willowbrook Road"/>
    <tag k="addr:state" v="VT"/>
    <tag k="ref:vcgi:esiteid" v="253804"/>
  </node>
  <node id="-513" visible="true" lat="43.76332174" lon="-73.19199515">
    <tag k="addr:city" v="Sudbury"/>
    <tag k="addr:housenumber" v="364"/>
    <tag k="addr:street" v="Burr Pond Road"/>
    <tag k="addr:state" v="VT"/>
    <tag k="ref:vcgi:esiteid" v="253807"/>
  </node>
  <node id="-521" visible="true" lat="43.76733763" lon="-73.14470453">
    <tag k="addr:city" v="Sudbury"/>
    <tag k="addr:housenumber" v="3209"/>
    <tag k="addr:street" v="Willowbrook Road"/>
    <tag k="addr:state" v="VT"/>
    <tag k="ref:vcgi:esiteid" v="313303"/>
  </node>
  <node id="-523" visible="true" lat="43.82329357" lon="-73.17789486">
    <tag k="addr:city" v="Sudbury"/>
    <tag k="addr:housenumber" v="66"/>
    <tag k="addr:street" v="Sawyer Needham Road"/>
    <tag k="addr:state" v="VT"/>
    <tag k="ref:vcgi:esiteid" v="326570"/>
  </node>
  <node id="-528" visible="true" lat="43.77759444" lon="-73.14402152">
    <tag k="addr:city" v="Sudbury"/>
    <tag k="addr:housenumber" v="4130"/>
    <tag k="addr:street" v="Burr Pond Road"/>
    <tag k="addr:state" v="VT"/>
    <tag k="ref:vcgi:esiteid" v="336667"/>
  </node>
  <node id="-532" visible="true" lat="43.80397618" lon="-73.20458285">
    <tag k="addr:city" v="Sudbury"/>
    <tag k="addr:housenumber" v="492"/>
    <tag k="addr:street" v="Quarry Road"/>
    <tag k="addr:state" v="VT"/>
    <tag k="ref:vcgi:esiteid" v="344387"/>
  </node>
  <node id="-537" visible="true" lat="43.82718523" lon="-73.19619651">
    <tag k="addr:city" v="Sudbury"/>
    <tag k="addr:housenumber" v="229"/>
    <tag k="addr:street" v="Vail Road"/>
    <tag k="addr:state" v="VT"/>
    <tag k="ref:vcgi:esiteid" v="452049"/>
  </node>
</osm>
