<?xml version="1.0" encoding="UTF-8"?>
<osm version="0.6" generator="JOSM">
  <node id="-101" visible="true" lat="43.11820314" lon="-73.09366672">
    <tag k="addr:housenumber" v="4639"/>
    <tag k="addr:street" v="Sunderland Hill Road"/>
    <tag k="addr:state" v="VT"/>
    <tag k="ref:vcgi:esiteid" v="253811"/>
  </node>
  <node id="-106" visible="true" lat="43.11725616" lon="-73.1132965">
    <tag k="addr:housenumber" v="42"/>
    <tag k="addr:street" v="Skyline Drive"/>
    <tag k="addr:state" v="VT"/>
    <tag k="ref:vcgi:esiteid" v="253816"/>
  </node>
  <node id="-107" visible="true" lat="43.11730575" lon="-73.09322357">
    <tag k="addr:housenumber" v="4561"/>
    <tag k="addr:street" v="Sunderland Hill Road"/>
    <tag k="addr:state" v="VT"/>
    <tag k="ref:vcgi:esiteid" v="253817"/>
  </node>
  <node id="-120" visible="true" lat="43.11618463" lon="-73.0918625">
    <tag k="addr:housenumber" v="4330"/>
    <tag k="addr:street" v="Sunderland Hill Road"/>
    <tag k="addr:state" v="VT"/>
    <tag k="ref:vcgi:esiteid" v="253831"/>
  </node>
  <node id="-121" visible="true" lat="43.11601638" lon="-73.12097167">
    <tag k="addr:housenumber" v="19"/>
    <tag k="addr:street" v="Bentley Hill Road"/>
    <tag k="addr:state" v="VT"/>
    <tag k="ref:vcgi:esiteid" v="253832"/>
  </node>
  <node id="-124" visible="true" lat="43.11452775" lon="-73.09822001">
    <tag k="addr:housenumber" v="4191"/>
    <tag k="addr:street" v="Sunderland Hill Road"/>
    <tag k="addr:state" v="VT"/>
    <tag k="ref:vcgi:esiteid" v="253835"/>
  </node>
  <node id="-125" visible="true" lat="43.11456298" lon="-73.09902191">
    <tag k="addr:housenumber" v="4155"/>
    <tag k="addr:street" v="Sunderland Hill Road"/>
    <tag k="addr:state" v="VT"/>
    <tag k="ref:vcgi:esiteid" v="253836"/>
  </node>
  <node id="-126" visible="true" lat="43.11443328" lon="-73.09927368">
    <tag k="addr:housenumber" v="4143"/>
    <tag k="addr:street" v="Sunderland Hill Road"/>
    <tag k="addr:state" v="VT"/>
    <tag k="ref:vcgi:esiteid" v="253837"/>
  </node>
  <node id="-127" visible="true" lat="43.1144371" lon="-73.09722137">
    <tag k="addr:housenumber" v="4247"/>
    <tag k="addr:street" v="Sunderland Hill Road"/>
    <tag k="addr:state" v="VT"/>
    <tag k="ref:vcgi:esiteid" v="253838"/>
  </node>
  <node id="-128" visible="true" lat="43.11439132" lon="-73.10004424">
    <tag k="addr:housenumber" v="4103"/>
    <tag k="addr:street" v="Sunderland Hill Road"/>
    <tag k="addr:state" v="VT"/>
    <tag k="ref:vcgi:esiteid" v="253839"/>
  </node>
  <node id="-131" visible="true" lat="43.11396408" lon="-73.09926605">
    <tag k="addr:housenumber" v="4142"/>
    <tag k="addr:street" v="Sunderland Hill Road"/>
    <tag k="addr:state" v="VT"/>
    <tag k="ref:vcgi:esiteid" v="253842"/>
  </node>
  <node id="-133" visible="true" lat="43.11376221" lon="-73.09732816">
    <tag k="addr:housenumber" v="4226"/>
    <tag k="addr:street" v="Sunderland Hill Road"/>
    <tag k="addr:state" v="VT"/>
    <tag k="ref:vcgi:esiteid" v="253844"/>
  </node>
  <node id="-134" visible="true" lat="43.11362838" lon="-73.10201263">
    <tag k="addr:housenumber" v="3994"/>
    <tag k="addr:street" v="Sunderland Hill Road"/>
    <tag k="addr:state" v="VT"/>
    <tag k="ref:vcgi:esiteid" v="253845"/>
  </node>
  <node id="-135" visible="true" lat="43.11351776" lon="-73.10500335">
    <tag k="addr:housenumber" v="3849"/>
    <tag k="addr:street" v="Sunderland Hill Road"/>
    <tag k="addr:state" v="VT"/>
    <tag k="ref:vcgi:esiteid" v="253846"/>
  </node>
  <node id="-137" visible="true" lat="43.11330032" lon="-73.11856079">
    <tag k="addr:housenumber" v="85"/>
    <tag k="addr:street" v="Hill Lane"/>
    <tag k="addr:state" v="VT"/>
    <tag k="ref:vcgi:esiteid" v="253848"/>
  </node>
  <node id="-139" visible="true" lat="43.11334991" lon="-73.10308837">
    <tag k="addr:housenumber" v="11"/>
    <tag k="addr:street" v="Borough Road"/>
    <tag k="addr:state" v="VT"/>
    <tag k="ref:vcgi:esiteid" v="253850"/>
  </node>
  <node id="-140" visible="true" lat="43.11315536" lon="-73.1285324">
    <tag k="addr:housenumber" v="145"/>
    <tag k="addr:street" v="Lost Road"/>
    <tag k="addr:state" v="VT"/>
    <tag k="ref:vcgi:esiteid" v="253851"/>
  </node>
  <node id="-141" visible="true" lat="43.11317825" lon="-73.11921691">
    <tag k="addr:housenumber" v="51"/>
    <tag k="addr:street" v="Hill Lane"/>
    <tag k="addr:state" v="VT"/>
    <tag k="ref:vcgi:esiteid" v="253852"/>
  </node>
  <node id="-142" visible="true" lat="43.11317062" lon="-73.11992645">
    <tag k="addr:housenumber" v="21"/>
    <tag k="addr:street" v="Hill Lane"/>
    <tag k="addr:state" v="VT"/>
    <tag k="ref:vcgi:esiteid" v="253853"/>
  </node>
  <node id="-143" visible="true" lat="43.11317062" lon="-73.11797332">
    <tag k="addr:housenumber" v="105"/>
    <tag k="addr:street" v="Hill Lane"/>
    <tag k="addr:state" v="VT"/>
    <tag k="ref:vcgi:esiteid" v="253854"/>
  </node>
  <node id="-144" visible="true" lat="43.11318588" lon="-73.10353851">
    <tag k="addr:housenumber" v="14"/>
    <tag k="addr:street" v="Borough Road"/>
    <tag k="addr:state" v="VT"/>
    <tag k="ref:vcgi:esiteid" v="253855"/>
  </node>
  <node id="-145" visible="true" lat="43.11328551" lon="-73.10024656">
    <tag k="addr:housenumber" v="4124"/>
    <tag k="addr:street" v="Sunderland Hill Road"/>
    <tag k="addr:state" v="VT"/>
    <tag k="ref:vcgi:esiteid" v="253856"/>
  </node>
  <node id="-146" visible="true" lat="43.11297988" lon="-73.1167984">
    <tag k="addr:housenumber" v="98"/>
    <tag k="addr:street" v="Hill Lane"/>
    <tag k="addr:state" v="VT"/>
    <tag k="ref:vcgi:esiteid" v="253857"/>
  </node>
  <node id="-147" visible="true" lat="43.11304473" lon="-73.10292053">
    <tag k="addr:housenumber" v="35"/>
    <tag k="addr:street" v="Borough Road"/>
    <tag k="addr:state" v="VT"/>
    <tag k="ref:vcgi:esiteid" v="253858"/>
  </node>
  <node id="-148" visible="true" lat="43.11304092" lon="-73.10341644">
    <tag k="addr:housenumber" v="24"/>
    <tag k="addr:street" v="Borough Road"/>
    <tag k="addr:state" v="VT"/>
    <tag k="ref:vcgi:esiteid" v="253859"/>
  </node>
  <node id="-149" visible="true" lat="43.11298751" lon="-73.10410308">
    <tag k="addr:housenumber" v="3880"/>
    <tag k="addr:street" v="Sunderland Hill Road"/>
    <tag k="addr:state" v="VT"/>
    <tag k="ref:vcgi:esiteid" v="253860"/>
  </node>
  <node id="-150" visible="true" lat="43.11293792" lon="-73.10462951">
    <tag k="addr:housenumber" v="3854"/>
    <tag k="addr:street" v="Sunderland Hill Road"/>
    <tag k="addr:state" v="VT"/>
    <tag k="ref:vcgi:esiteid" v="253861"/>
  </node>
  <node id="-152" visible="true" lat="43.11272329" lon="-73.10330551">
    <tag k="addr:housenumber" v="42"/>
    <tag k="addr:street" v="Borough Road"/>
    <tag k="addr:state" v="VT"/>
    <tag k="ref:vcgi:esiteid" v="253863"/>
  </node>
  <node id="-153" visible="true" lat="43.11268615" lon="-73.10274505">
    <tag k="addr:housenumber" v="61"/>
    <tag k="addr:street" v="Borough Road"/>
    <tag k="addr:state" v="VT"/>
    <tag k="ref:vcgi:esiteid" v="253864"/>
  </node>
  <node id="-155" visible="true" lat="43.1122361" lon="-73.11375712">
    <tag k="addr:housenumber" v="375"/>
    <tag k="addr:street" v="Ondawa Road"/>
    <tag k="addr:state" v="VT"/>
    <tag k="ref:vcgi:esiteid" v="253866"/>
  </node>
  <node id="-156" visible="true" lat="43.11236953" lon="-73.10248565">
    <tag k="addr:housenumber" v="85"/>
    <tag k="addr:street" v="Borough Road"/>
    <tag k="addr:state" v="VT"/>
    <tag k="ref:vcgi:esiteid" v="253867"/>
  </node>
  <node id="-157" visible="true" lat="43.11239213" lon="-73.10647823">
    <tag k="addr:housenumber" v="3744"/>
    <tag k="addr:street" v="Sunderland Hill Road"/>
    <tag k="addr:state" v="VT"/>
    <tag k="ref:vcgi:esiteid" v="253868"/>
  </node>
  <node id="-159" visible="true" lat="43.11213599" lon="-73.12762314">
    <tag k="addr:housenumber" v="71"/>
    <tag k="addr:street" v="Lost Road"/>
    <tag k="addr:state" v="VT"/>
    <tag k="ref:vcgi:esiteid" v="253870"/>
  </node>
  <node id="-161" visible="true" lat="43.1121025" lon="-73.10753631">
    <tag k="addr:housenumber" v="3696"/>
    <tag k="addr:street" v="Sunderland Hill Road"/>
    <tag k="addr:state" v="VT"/>
    <tag k="ref:vcgi:esiteid" v="253872"/>
  </node>
  <node id="-162" visible="true" lat="43.11168887" lon="-73.11409083">
    <tag k="addr:housenumber" v="373"/>
    <tag k="addr:street" v="Ondawa Road"/>
    <tag k="addr:state" v="VT"/>
    <tag k="ref:vcgi:esiteid" v="253873"/>
  </node>
  <node id="-163" visible="true" lat="43.11203933" lon="-73.10047035">
    <tag k="addr:housenumber" v="4084"/>
    <tag k="addr:street" v="North Road"/>
    <tag k="addr:state" v="VT"/>
    <tag k="ref:vcgi:esiteid" v="253874"/>
  </node>
  <node id="-164" visible="true" lat="43.11183547" lon="-73.10227203">
    <tag k="addr:housenumber" v="123"/>
    <tag k="addr:street" v="Borough Road"/>
    <tag k="addr:state" v="VT"/>
    <tag k="ref:vcgi:esiteid" v="253875"/>
  </node>
  <node id="-165" visible="true" lat="43.11148324" lon="-73.11550662">
    <tag k="addr:housenumber" v="345"/>
    <tag k="addr:street" v="Ondawa Road"/>
    <tag k="addr:state" v="VT"/>
    <tag k="ref:vcgi:esiteid" v="253876"/>
  </node>
  <node id="-167" visible="true" lat="43.11176299" lon="-73.10435485">
    <tag k="addr:housenumber" v="3921"/>
    <tag k="addr:street" v="North Road"/>
    <tag k="addr:state" v="VT"/>
    <tag k="ref:vcgi:esiteid" v="253878"/>
  </node>
  <node id="-168" visible="true" lat="43.11177062" lon="-73.10134887">
    <tag k="addr:housenumber" v="4046"/>
    <tag k="addr:street" v="North Road"/>
    <tag k="addr:state" v="VT"/>
    <tag k="ref:vcgi:esiteid" v="253879"/>
  </node>
  <node id="-169" visible="true" lat="43.11180693" lon="-73.10325514">
    <tag k="addr:housenumber" v="3975"/>
    <tag k="addr:street" v="North Road"/>
    <tag k="addr:state" v="VT"/>
    <tag k="ref:vcgi:esiteid" v="253880"/>
  </node>
  <node id="-170" visible="true" lat="43.11161422" lon="-73.1116333">
    <tag k="addr:housenumber" v="449"/>
    <tag k="addr:street" v="Ondawa Road"/>
    <tag k="addr:state" v="VT"/>
    <tag k="ref:vcgi:esiteid" v="253881"/>
  </node>
  <node id="-172" visible="true" lat="43.11213754" lon="-73.11278859">
    <tag k="addr:housenumber" v="393"/>
    <tag k="addr:street" v="Ondawa Road"/>
    <tag k="addr:state" v="VT"/>
    <tag k="ref:vcgi:esiteid" v="253883"/>
  </node>
  <node id="-173" visible="true" lat="43.1115256" lon="-73.11282349">
    <tag k="addr:housenumber" v="381"/>
    <tag k="addr:street" v="Ondawa Road"/>
    <tag k="addr:state" v="VT"/>
    <tag k="ref:vcgi:esiteid" v="253884"/>
  </node>
  <node id="-174" visible="true" lat="43.11134169" lon="-73.10208396">
    <tag k="addr:housenumber" v="145"/>
    <tag k="addr:street" v="Borough Road"/>
    <tag k="addr:state" v="VT"/>
    <tag k="ref:vcgi:esiteid" v="253885"/>
  </node>
  <node id="-176" visible="true" lat="43.11132049" lon="-73.10490417">
    <tag k="addr:housenumber" v="3861"/>
    <tag k="addr:street" v="North Road"/>
    <tag k="addr:state" v="VT"/>
    <tag k="ref:vcgi:esiteid" v="253887"/>
  </node>
  <node id="-177" visible="true" lat="43.11127853" lon="-73.10844421">
    <tag k="addr:housenumber" v="3628"/>
    <tag k="addr:street" v="Sunderland Hill Road"/>
    <tag k="addr:state" v="VT"/>
    <tag k="ref:vcgi:esiteid" v="253888"/>
  </node>
  <node id="-178" visible="true" lat="43.11127471" lon="-73.10300445">
    <tag k="addr:housenumber" v="3936"/>
    <tag k="addr:street" v="North Road"/>
    <tag k="addr:state" v="VT"/>
    <tag k="ref:vcgi:esiteid" v="253889"/>
  </node>
  <node id="-179" visible="true" lat="43.11116328" lon="-73.11651108">
    <tag k="addr:housenumber" v="72"/>
    <tag k="addr:street" v="Hill Lane"/>
    <tag k="addr:state" v="VT"/>
    <tag k="ref:vcgi:esiteid" v="253890"/>
  </node>
  <node id="-180" visible="true" lat="43.11104965" lon="-73.10347747">
    <tag k="addr:housenumber" v="3916"/>
    <tag k="addr:street" v="North Road"/>
    <tag k="addr:state" v="VT"/>
    <tag k="ref:vcgi:esiteid" v="253891"/>
  </node>
  <node id="-181" visible="true" lat="43.11095943" lon="-73.10224205">
    <tag k="addr:housenumber" v="173"/>
    <tag k="addr:street" v="Borough Road"/>
    <tag k="addr:state" v="VT"/>
    <tag k="ref:vcgi:esiteid" v="253892"/>
  </node>
  <node id="-184" visible="true" lat="43.11027526" lon="-73.10964202">
    <tag k="addr:housenumber" v="3564"/>
    <tag k="addr:street" v="Sunderland Hill Road"/>
    <tag k="addr:state" v="VT"/>
    <tag k="ref:vcgi:esiteid" v="253895"/>
  </node>
  <node id="-185" visible="true" lat="43.1100502" lon="-73.12015533">
    <tag k="addr:housenumber" v="406"/>
    <tag k="addr:street" v="Hill Farm Road"/>
    <tag k="addr:state" v="VT"/>
    <tag k="ref:vcgi:esiteid" v="253896"/>
  </node>
  <node id="-186" visible="true" lat="43.11004327" lon="-73.11780768">
    <tag k="addr:housenumber" v="111"/>
    <tag k="addr:street" v="Ondawa Road"/>
    <tag k="addr:state" v="VT"/>
    <tag k="ref:vcgi:esiteid" v="253897"/>
  </node>
  <node id="-187" visible="true" lat="43.1100502" lon="-73.11105346">
    <tag k="addr:housenumber" v="3462"/>
    <tag k="addr:street" v="Sunderland Hill Road"/>
    <tag k="addr:state" v="VT"/>
    <tag k="ref:vcgi:esiteid" v="253898"/>
  </node>
  <node id="-188" visible="true" lat="43.11018308" lon="-73.10423495">
    <tag k="addr:housenumber" v="3826"/>
    <tag k="addr:street" v="North Road"/>
    <tag k="addr:state" v="VT"/>
    <tag k="ref:vcgi:esiteid" v="253899"/>
  </node>
  <node id="-189" visible="true" lat="43.10995456" lon="-73.11838136">
    <tag k="addr:housenumber" v="91"/>
    <tag k="addr:street" v="Ondawa Road"/>
    <tag k="addr:state" v="VT"/>
    <tag k="ref:vcgi:esiteid" v="253900"/>
  </node>
  <node id="-190" visible="true" lat="43.10993194" lon="-73.1168518">
    <tag k="addr:housenumber" v="112"/>
    <tag k="addr:street" v="Ondawa Road"/>
    <tag k="addr:state" v="VT"/>
    <tag k="ref:vcgi:esiteid" v="253901"/>
  </node>
  <node id="-191" visible="true" lat="43.10977586" lon="-73.11874002">
    <tag k="addr:housenumber" v="63"/>
    <tag k="addr:street" v="Ondawa Road"/>
    <tag k="addr:state" v="VT"/>
    <tag k="ref:vcgi:esiteid" v="253902"/>
  </node>
  <node id="-192" visible="true" lat="43.10970248" lon="-73.10286268">
    <tag k="addr:housenumber" v="278"/>
    <tag k="addr:street" v="Borough Road"/>
    <tag k="addr:state" v="VT"/>
    <tag k="ref:vcgi:esiteid" v="253903"/>
  </node>
  <node id="-193" visible="true" lat="43.1097008" lon="-73.11181836">
    <tag k="addr:housenumber" v="3460"/>
    <tag k="addr:street" v="Sunderland Hill Road"/>
    <tag k="addr:state" v="VT"/>
    <tag k="ref:vcgi:esiteid" v="253904"/>
  </node>
  <node id="-194" visible="true" lat="43.10948133" lon="-73.10344614">
    <tag k="addr:housenumber" v="116"/>
    <tag k="addr:street" v="Mattison Road"/>
    <tag k="addr:state" v="VT"/>
    <tag k="ref:vcgi:esiteid" v="253905"/>
  </node>
  <node id="-195" visible="true" lat="43.10938722" lon="-73.10191573">
    <tag k="addr:housenumber" v="54"/>
    <tag k="addr:street" v="Millbrook Road"/>
    <tag k="addr:state" v="VT"/>
    <tag k="ref:vcgi:esiteid" v="253906"/>
  </node>
  <node id="-196" visible="true" lat="43.10937004" lon="-73.10490248">
    <tag k="addr:housenumber" v="3774"/>
    <tag k="addr:street" v="North Road"/>
    <tag k="addr:state" v="VT"/>
    <tag k="ref:vcgi:esiteid" v="253907"/>
  </node>
  <node id="-197" visible="true" lat="43.10927963" lon="-73.11618042">
    <tag k="addr:housenumber" v="3216"/>
    <tag k="addr:street" v="Sunderland Hill Road"/>
    <tag k="addr:state" v="VT"/>
    <tag k="ref:vcgi:esiteid" v="253908"/>
  </node>
  <node id="-198" visible="true" lat="43.10929473" lon="-73.12022748">
    <tag k="addr:housenumber" v="458"/>
    <tag k="addr:street" v="Hill Farm Road"/>
    <tag k="addr:state" v="VT"/>
    <tag k="ref:vcgi:esiteid" v="253909"/>
  </node>
  <node id="-201" visible="true" lat="43.10921859" lon="-73.10524749">
    <tag k="addr:housenumber" v="3740"/>
    <tag k="addr:street" v="North Road"/>
    <tag k="addr:state" v="VT"/>
    <tag k="ref:vcgi:esiteid" v="253912"/>
  </node>
  <node id="-202" visible="true" lat="43.10917282" lon="-73.11283874">
    <tag k="addr:housenumber" v="3334"/>
    <tag k="addr:street" v="Sunderland Hill Road"/>
    <tag k="addr:state" v="VT"/>
    <tag k="ref:vcgi:esiteid" v="253913"/>
  </node>
  <node id="-203" visible="true" lat="43.10895156" lon="-73.11416625">
    <tag k="addr:housenumber" v="3336"/>
    <tag k="addr:street" v="Sunderland Hill Road"/>
    <tag k="addr:state" v="VT"/>
    <tag k="ref:vcgi:esiteid" v="253914"/>
  </node>
  <node id="-204" visible="true" lat="43.10887527" lon="-73.12006378">
    <tag k="addr:housenumber" v="482"/>
    <tag k="addr:street" v="Hill Farm Road"/>
    <tag k="addr:state" v="VT"/>
    <tag k="ref:vcgi:esiteid" v="253916"/>
  </node>
  <node id="-205" visible="true" lat="43.10886001" lon="-73.11681366">
    <tag k="addr:housenumber" v="3172"/>
    <tag k="addr:street" v="Sunderland Hill Road"/>
    <tag k="addr:state" v="VT"/>
    <tag k="ref:vcgi:esiteid" v="253917"/>
  </node>
  <node id="-206" visible="true" lat="43.10880279" lon="-73.11540985">
    <tag k="addr:housenumber" v="3292"/>
    <tag k="addr:street" v="Sunderland Hill Road"/>
    <tag k="addr:state" v="VT"/>
    <tag k="ref:vcgi:esiteid" v="253918"/>
  </node>
  <node id="-208" visible="true" lat="43.10876846" lon="-73.10203552">
    <tag k="addr:housenumber" v="106"/>
    <tag k="addr:street" v="Millbrook Road"/>
    <tag k="addr:state" v="VT"/>
    <tag k="ref:vcgi:esiteid" v="253920"/>
  </node>
  <node id="-209" visible="true" lat="43.10860911" lon="-73.10693792">
    <tag k="addr:housenumber" v="3665"/>
    <tag k="addr:street" v="North Road"/>
    <tag k="addr:state" v="VT"/>
    <tag k="ref:vcgi:esiteid" v="253921"/>
  </node>
  <node id="-211" visible="true" lat="43.10836391" lon="-73.11945185">
    <tag k="addr:housenumber" v="3039"/>
    <tag k="addr:street" v="Sunderland Hill Road"/>
    <tag k="addr:state" v="VT"/>
    <tag k="ref:vcgi:esiteid" v="253923"/>
  </node>
  <node id="-213" visible="true" lat="43.10835413" lon="-73.10539693">
    <tag k="addr:housenumber" v="3672"/>
    <tag k="addr:street" v="North Road"/>
    <tag k="addr:state" v="VT"/>
    <tag k="ref:vcgi:esiteid" v="253925"/>
  </node>
  <node id="-214" visible="true" lat="43.10795675" lon="-73.10100862">
    <tag k="addr:housenumber" v="145"/>
    <tag k="addr:street" v="Millbrook Road"/>
    <tag k="addr:state" v="VT"/>
    <tag k="ref:vcgi:esiteid" v="253926"/>
  </node>
  <node id="-215" visible="true" lat="43.10767745" lon="-73.10192871">
    <tag k="addr:housenumber" v="189"/>
    <tag k="addr:street" v="Millbrook Road"/>
    <tag k="addr:state" v="VT"/>
    <tag k="ref:vcgi:esiteid" v="253927"/>
  </node>
  <node id="-216" visible="true" lat="43.10741127" lon="-73.11913102">
    <tag k="addr:housenumber" v="2998"/>
    <tag k="addr:street" v="Sunderland Hill Road"/>
    <tag k="addr:state" v="VT"/>
    <tag k="ref:vcgi:esiteid" v="253928"/>
  </node>
  <node id="-217" visible="true" lat="43.10743974" lon="-73.10207498">
    <tag k="addr:housenumber" v="191"/>
    <tag k="addr:street" v="Millbrook Road"/>
    <tag k="addr:state" v="VT"/>
    <tag k="ref:vcgi:esiteid" v="253929"/>
  </node>
  <node id="-218" visible="true" lat="43.10660171" lon="-73.11981964">
    <tag k="addr:housenumber" v="2926"/>
    <tag k="addr:street" v="Sunderland Hill Road"/>
    <tag k="addr:state" v="VT"/>
    <tag k="ref:vcgi:esiteid" v="253930"/>
  </node>
  <node id="-220" visible="true" lat="43.10612486" lon="-73.1196517">
    <tag k="addr:housenumber" v="2894"/>
    <tag k="addr:street" v="Sunderland Hill Road"/>
    <tag k="addr:state" v="VT"/>
    <tag k="ref:vcgi:esiteid" v="253932"/>
  </node>
  <node id="-221" visible="true" lat="43.10427474" lon="-73.12365722">
    <tag k="addr:housenumber" v="2635"/>
    <tag k="addr:street" v="Sunderland Hill Road"/>
    <tag k="addr:state" v="VT"/>
    <tag k="ref:vcgi:esiteid" v="253934"/>
  </node>
  <node id="-222" visible="true" lat="43.10420989" lon="-73.12289428">
    <tag k="addr:housenumber" v="2669"/>
    <tag k="addr:street" v="Sunderland Hill Road"/>
    <tag k="addr:state" v="VT"/>
    <tag k="ref:vcgi:esiteid" v="253935"/>
  </node>
  <node id="-223" visible="true" lat="43.10345077" lon="-73.12540435">
    <tag k="addr:housenumber" v="52"/>
    <tag k="addr:street" v="McKee Road"/>
    <tag k="addr:state" v="VT"/>
    <tag k="ref:vcgi:esiteid" v="253936"/>
  </node>
  <node id="-224" visible="true" lat="43.10338592" lon="-73.12439727">
    <tag k="addr:housenumber" v="38"/>
    <tag k="addr:street" v="McKee Road"/>
    <tag k="addr:state" v="VT"/>
    <tag k="ref:vcgi:esiteid" v="253937"/>
  </node>
  <node id="-225" visible="true" lat="43.10307311" lon="-73.12624359">
    <tag k="addr:housenumber" v="72"/>
    <tag k="addr:street" v="McKee Road"/>
    <tag k="addr:state" v="VT"/>
    <tag k="ref:vcgi:esiteid" v="253938"/>
  </node>
  <node id="-226" visible="true" lat="43.10263824" lon="-73.12429046">
    <tag k="addr:housenumber" v="43"/>
    <tag k="addr:street" v="McKee Road"/>
    <tag k="addr:state" v="VT"/>
    <tag k="ref:vcgi:esiteid" v="253939"/>
  </node>
  <node id="-227" visible="true" lat="43.10253906" lon="-73.12689208">
    <tag k="addr:housenumber" v="114"/>
    <tag k="addr:street" v="McKee Road"/>
    <tag k="addr:state" v="VT"/>
    <tag k="ref:vcgi:esiteid" v="253940"/>
  </node>
  <node id="-229" visible="true" lat="43.10197203" lon="-73.12302498">
    <tag k="addr:housenumber" v="2546"/>
    <tag k="addr:street" v="Sunderland Hill Road"/>
    <tag k="addr:state" v="VT"/>
    <tag k="ref:vcgi:esiteid" v="253942"/>
  </node>
  <node id="-230" visible="true" lat="43.10200119" lon="-73.1255722">
    <tag k="addr:housenumber" v="131"/>
    <tag k="addr:street" v="McKee Road"/>
    <tag k="addr:state" v="VT"/>
    <tag k="ref:vcgi:esiteid" v="253943"/>
  </node>
  <node id="-231" visible="true" lat="43.1019783" lon="-73.12373352">
    <tag k="addr:housenumber" v="2539"/>
    <tag k="addr:street" v="Sunderland Hill Road"/>
    <tag k="addr:state" v="VT"/>
    <tag k="ref:vcgi:esiteid" v="253944"/>
  </node>
  <node id="-232" visible="true" lat="43.10187912" lon="-73.12704467">
    <tag k="addr:housenumber" v="130"/>
    <tag k="addr:street" v="McKee Road"/>
    <tag k="addr:state" v="VT"/>
    <tag k="ref:vcgi:esiteid" v="253945"/>
  </node>
  <node id="-234" visible="true" lat="43.10141372" lon="-73.12284088">
    <tag k="addr:housenumber" v="2502"/>
    <tag k="addr:street" v="Sunderland Hill Road"/>
    <tag k="addr:state" v="VT"/>
    <tag k="ref:vcgi:esiteid" v="253947"/>
  </node>
  <node id="-235" visible="true" lat="43.10139083" lon="-73.12581634">
    <tag k="addr:housenumber" v="153"/>
    <tag k="addr:street" v="McKee Road"/>
    <tag k="addr:state" v="VT"/>
    <tag k="ref:vcgi:esiteid" v="253948"/>
  </node>
  <node id="-236" visible="true" lat="43.10122116" lon="-73.13058229">
    <tag k="addr:housenumber" v="880"/>
    <tag k="addr:street" v="Dunham Road"/>
    <tag k="addr:state" v="VT"/>
    <tag k="ref:vcgi:esiteid" v="253949"/>
  </node>
  <node id="-237" visible="true" lat="43.10098648" lon="-73.12285613">
    <tag k="addr:housenumber" v="2474"/>
    <tag k="addr:street" v="Sunderland Hill Road"/>
    <tag k="addr:state" v="VT"/>
    <tag k="ref:vcgi:esiteid" v="253950"/>
  </node>
  <node id="-238" visible="true" lat="43.10066986" lon="-73.12648773">
    <tag k="addr:housenumber" v="181"/>
    <tag k="addr:street" v="McKee Road"/>
    <tag k="addr:state" v="VT"/>
    <tag k="ref:vcgi:esiteid" v="253951"/>
  </node>
  <node id="-240" visible="true" lat="43.09958648" lon="-73.1241455">
    <tag k="addr:housenumber" v="2395"/>
    <tag k="addr:street" v="Sunderland Hill Road"/>
    <tag k="addr:state" v="VT"/>
    <tag k="ref:vcgi:esiteid" v="253953"/>
  </node>
  <node id="-242" visible="true" lat="43.09907531" lon="-73.1219635">
    <tag k="addr:housenumber" v="2298"/>
    <tag k="addr:street" v="Sunderland Hill Road"/>
    <tag k="addr:state" v="VT"/>
    <tag k="ref:vcgi:esiteid" v="253955"/>
  </node>
  <node id="-243" visible="true" lat="43.09889602" lon="-73.12219238">
    <tag k="addr:housenumber" v="2296"/>
    <tag k="addr:street" v="Sunderland Hill Road"/>
    <tag k="addr:state" v="VT"/>
    <tag k="ref:vcgi:esiteid" v="253956"/>
  </node>
  <node id="-245" visible="true" lat="43.09840774" lon="-73.12810516">
    <tag k="addr:housenumber" v="252"/>
    <tag k="addr:street" v="Maggies Run"/>
    <tag k="addr:state" v="VT"/>
    <tag k="ref:vcgi:esiteid" v="253958"/>
  </node>
  <node id="-246" visible="true" lat="43.09832763" lon="-73.12313079">
    <tag k="addr:housenumber" v="2290"/>
    <tag k="addr:street" v="Sunderland Hill Road"/>
    <tag k="addr:state" v="VT"/>
    <tag k="ref:vcgi:esiteid" v="253959"/>
  </node>
  <node id="-247" visible="true" lat="43.09817203" lon="-73.12986882">
    <tag k="addr:housenumber" v="58"/>
    <tag k="addr:street" v="Wildflower Lane"/>
    <tag k="addr:state" v="VT"/>
    <tag k="ref:vcgi:esiteid" v="253960"/>
  </node>
  <node id="-248" visible="true" lat="43.09774133" lon="-73.12696347">
    <tag k="addr:housenumber" v="207"/>
    <tag k="addr:street" v="Maggies Run"/>
    <tag k="addr:state" v="VT"/>
    <tag k="ref:vcgi:esiteid" v="253961"/>
  </node>
  <node id="-250" visible="true" lat="43.09754562" lon="-73.13282775">
    <tag k="addr:housenumber" v="545"/>
    <tag k="addr:street" v="Maggies Run"/>
    <tag k="addr:state" v="VT"/>
    <tag k="ref:vcgi:esiteid" v="253963"/>
  </node>
  <node id="-251" visible="true" lat="43.09699249" lon="-73.12776184">
    <tag k="addr:housenumber" v="287"/>
    <tag k="addr:street" v="Maggies Run"/>
    <tag k="addr:state" v="VT"/>
    <tag k="ref:vcgi:esiteid" v="253964"/>
  </node>
  <node id="-253" visible="true" lat="43.09657388" lon="-73.13028227">
    <tag k="addr:housenumber" v="437"/>
    <tag k="addr:street" v="Maggies Run"/>
    <tag k="addr:state" v="VT"/>
    <tag k="ref:vcgi:esiteid" v="253966"/>
  </node>
  <node id="-254" visible="true" lat="43.0965265" lon="-73.12591807">
    <tag k="addr:housenumber" v="97"/>
    <tag k="addr:street" v="Maggies Run"/>
    <tag k="addr:state" v="VT"/>
    <tag k="ref:vcgi:esiteid" v="253967"/>
  </node>
  <node id="-255" visible="true" lat="43.09646987" lon="-73.12844085">
    <tag k="addr:housenumber" v="351"/>
    <tag k="addr:street" v="Maggies Run"/>
    <tag k="addr:state" v="VT"/>
    <tag k="ref:vcgi:esiteid" v="253968"/>
  </node>
  <node id="-256" visible="true" lat="43.09605407" lon="-73.12291717">
    <tag k="addr:housenumber" v="2142"/>
    <tag k="addr:street" v="Sunderland Hill Road"/>
    <tag k="addr:state" v="VT"/>
    <tag k="ref:vcgi:esiteid" v="253969"/>
  </node>
  <node id="-258" visible="true" lat="43.09552383" lon="-73.12301635">
    <tag k="addr:housenumber" v="2092"/>
    <tag k="addr:street" v="Sunderland Hill Road"/>
    <tag k="addr:state" v="VT"/>
    <tag k="ref:vcgi:esiteid" v="253971"/>
  </node>
  <node id="-398" visible="true" lat="43.07621706" lon="-73.11030039">
    <tag k="addr:housenumber" v="1377"/>
    <tag k="addr:street" v="North Road"/>
    <tag k="addr:state" v="VT"/>
    <tag k="ref:vcgi:esiteid" v="254115"/>
  </node>
  <node id="-400" visible="true" lat="43.07592468" lon="-73.1096886">
    <tag k="addr:housenumber" v="1368"/>
    <tag k="addr:street" v="North Road"/>
    <tag k="addr:state" v="VT"/>
    <tag k="ref:vcgi:esiteid" v="254117"/>
  </node>
  <node id="-414" visible="true" lat="43.07294354" lon="-73.11147375">
    <tag k="addr:housenumber" v="1156"/>
    <tag k="addr:street" v="North Road"/>
    <tag k="addr:state" v="VT"/>
    <tag k="ref:vcgi:esiteid" v="254134"/>
  </node>
  <node id="-421" visible="true" lat="43.07196422" lon="-73.11203052">
    <tag k="addr:housenumber" v="75"/>
    <tag k="addr:street" v="Colebrook Road"/>
    <tag k="addr:state" v="VT"/>
    <tag k="ref:vcgi:esiteid" v="254142"/>
  </node>
  <node id="-429" visible="true" lat="43.07126613" lon="-73.11484577">
    <tag k="addr:housenumber" v="955"/>
    <tag k="addr:street" v="North Road"/>
    <tag k="addr:state" v="VT"/>
    <tag k="ref:vcgi:esiteid" v="254151"/>
  </node>
  <node id="-430" visible="true" lat="43.0713147" lon="-73.11423823">
    <tag k="addr:housenumber" v="975"/>
    <tag k="addr:street" v="North Road"/>
    <tag k="addr:state" v="VT"/>
    <tag k="ref:vcgi:esiteid" v="254152"/>
  </node>
  <node id="-431" visible="true" lat="43.07084796" lon="-73.11510484">
    <tag k="addr:housenumber" v="935"/>
    <tag k="addr:street" v="North Road"/>
    <tag k="addr:state" v="VT"/>
    <tag k="ref:vcgi:esiteid" v="254153"/>
  </node>
  <node id="-432" visible="true" lat="43.07077026" lon="-73.13565063">
    <tag k="addr:housenumber" v="193"/>
    <tag k="addr:street" v="Sunderland Hill Road"/>
    <tag k="addr:state" v="VT"/>
    <tag k="ref:vcgi:esiteid" v="254154"/>
  </node>
  <node id="-433" visible="true" lat="43.07073974" lon="-73.13609313">
    <tag k="addr:housenumber" v="181"/>
    <tag k="addr:street" v="Sunderland Hill Road"/>
    <tag k="addr:state" v="VT"/>
    <tag k="ref:vcgi:esiteid" v="254155"/>
  </node>
  <node id="-435" visible="true" lat="43.07037638" lon="-73.11387705">
    <tag k="addr:housenumber" v="936"/>
    <tag k="addr:street" v="North Road"/>
    <tag k="addr:state" v="VT"/>
    <tag k="ref:vcgi:esiteid" v="254157"/>
  </node>
  <node id="-444" visible="true" lat="43.06877238" lon="-73.1149892">
    <tag k="addr:housenumber" v="808"/>
    <tag k="addr:street" v="North Road"/>
    <tag k="addr:state" v="VT"/>
    <tag k="ref:vcgi:esiteid" v="254166"/>
  </node>
  <node id="-446" visible="true" lat="43.06860613" lon="-73.11636799">
    <tag k="addr:housenumber" v="785"/>
    <tag k="addr:street" v="North Road"/>
    <tag k="addr:state" v="VT"/>
    <tag k="ref:vcgi:esiteid" v="254168"/>
  </node>
  <node id="-447" visible="true" lat="43.06814371" lon="-73.11506997">
    <tag k="addr:housenumber" v="764"/>
    <tag k="addr:street" v="North Road"/>
    <tag k="addr:state" v="VT"/>
    <tag k="ref:vcgi:esiteid" v="254169"/>
  </node>
  <node id="-450" visible="true" lat="43.06772525" lon="-73.11529073">
    <tag k="addr:housenumber" v="716"/>
    <tag k="addr:street" v="North Road"/>
    <tag k="addr:state" v="VT"/>
    <tag k="ref:vcgi:esiteid" v="254172"/>
  </node>
  <node id="-452" visible="true" lat="43.06690044" lon="-73.11560921">
    <tag k="addr:housenumber" v="664"/>
    <tag k="addr:street" v="North Road"/>
    <tag k="addr:state" v="VT"/>
    <tag k="ref:vcgi:esiteid" v="254174"/>
  </node>
  <node id="-456" visible="true" lat="43.0657043" lon="-73.11576129">
    <tag k="addr:housenumber" v="4"/>
    <tag k="addr:street" v="Barney Orchard Road"/>
    <tag k="addr:state" v="VT"/>
    <tag k="ref:vcgi:esiteid" v="254178"/>
  </node>
  <node id="-463" visible="true" lat="43.06424331" lon="-73.11666869">
    <tag k="addr:housenumber" v="452"/>
    <tag k="addr:street" v="North Road"/>
    <tag k="addr:state" v="VT"/>
    <tag k="ref:vcgi:esiteid" v="254185"/>
  </node>
  <node id="-465" visible="true" lat="43.06406402" lon="-73.11791992">
    <tag k="addr:housenumber" v="441"/>
    <tag k="addr:street" v="North Road"/>
    <tag k="addr:state" v="VT"/>
    <tag k="ref:vcgi:esiteid" v="254187"/>
  </node>
  <node id="-466" visible="true" lat="43.06362533" lon="-73.11660766">
    <tag k="addr:housenumber" v="49"/>
    <tag k="addr:street" v="Hemlock Hill"/>
    <tag k="addr:state" v="VT"/>
    <tag k="ref:vcgi:esiteid" v="254188"/>
  </node>
  <node id="-467" visible="true" lat="43.06352417" lon="-73.11883812">
    <tag k="addr:housenumber" v="75"/>
    <tag k="addr:street" v="Benjamin Road"/>
    <tag k="addr:state" v="VT"/>
    <tag k="ref:vcgi:esiteid" v="254189"/>
  </node>
  <node id="-468" visible="true" lat="43.06329128" lon="-73.11587279">
    <tag k="addr:housenumber" v="95"/>
    <tag k="addr:street" v="Hemlock Hill"/>
    <tag k="addr:state" v="VT"/>
    <tag k="ref:vcgi:esiteid" v="254190"/>
  </node>
  <node id="-470" visible="true" lat="43.06330104" lon="-73.11825611">
    <tag k="addr:housenumber" v="389"/>
    <tag k="addr:street" v="North Road"/>
    <tag k="addr:state" v="VT"/>
    <tag k="ref:vcgi:esiteid" v="254192"/>
  </node>
  <node id="-472" visible="true" lat="43.0630455" lon="-73.11817169">
    <tag k="addr:housenumber" v="349"/>
    <tag k="addr:street" v="North Road"/>
    <tag k="addr:state" v="VT"/>
    <tag k="ref:vcgi:esiteid" v="254194"/>
  </node>
  <node id="-474" visible="true" lat="43.06264877" lon="-73.12014007">
    <tag k="addr:housenumber" v="66"/>
    <tag k="addr:street" v="Pike Road"/>
    <tag k="addr:state" v="VT"/>
    <tag k="ref:vcgi:esiteid" v="254196"/>
  </node>
  <node id="-475" visible="true" lat="43.06255503" lon="-73.12155277">
    <tag k="addr:housenumber" v="178"/>
    <tag k="addr:street" v="Pike Road"/>
    <tag k="addr:state" v="VT"/>
    <tag k="ref:vcgi:esiteid" v="254197"/>
  </node>
  <node id="-476" visible="true" lat="43.06249618" lon="-73.11824798">
    <tag k="addr:housenumber" v="335"/>
    <tag k="addr:street" v="North Road"/>
    <tag k="addr:state" v="VT"/>
    <tag k="ref:vcgi:esiteid" v="254198"/>
  </node>
  <node id="-477" visible="true" lat="43.06246562" lon="-73.11760761">
    <tag k="addr:housenumber" v="332"/>
    <tag k="addr:street" v="North Road"/>
    <tag k="addr:state" v="VT"/>
    <tag k="ref:vcgi:esiteid" v="254199"/>
  </node>
  <node id="-478" visible="true" lat="43.06201167" lon="-73.11825611">
    <tag k="addr:housenumber" v="303"/>
    <tag k="addr:street" v="North Road"/>
    <tag k="addr:state" v="VT"/>
    <tag k="ref:vcgi:esiteid" v="254200"/>
  </node>
  <node id="-479" visible="true" lat="43.06151923" lon="-73.11856067">
    <tag k="addr:housenumber" v="265"/>
    <tag k="addr:street" v="North Road"/>
    <tag k="addr:state" v="VT"/>
    <tag k="ref:vcgi:esiteid" v="254201"/>
  </node>
  <node id="-480" visible="true" lat="43.06114196" lon="-73.11782073">
    <tag k="addr:housenumber" v="242"/>
    <tag k="addr:street" v="North Road"/>
    <tag k="addr:state" v="VT"/>
    <tag k="ref:vcgi:esiteid" v="254202"/>
  </node>
  <node id="-481" visible="true" lat="43.06111904" lon="-73.11891986">
    <tag k="addr:housenumber" v="247"/>
    <tag k="addr:street" v="North Road"/>
    <tag k="addr:state" v="VT"/>
    <tag k="ref:vcgi:esiteid" v="254203"/>
  </node>
  <node id="-482" visible="true" lat="43.0605125" lon="-73.11869861">
    <tag k="addr:housenumber" v="189"/>
    <tag k="addr:street" v="North Road"/>
    <tag k="addr:state" v="VT"/>
    <tag k="ref:vcgi:esiteid" v="254205"/>
  </node>
  <node id="-483" visible="true" lat="43.06036349" lon="-73.11774465">
    <tag k="addr:housenumber" v="180"/>
    <tag k="addr:street" v="North Road"/>
    <tag k="addr:state" v="VT"/>
    <tag k="ref:vcgi:esiteid" v="254206"/>
  </node>
  <node id="-486" visible="true" lat="43.05997463" lon="-73.11787464">
    <tag k="addr:housenumber" v="162"/>
    <tag k="addr:street" v="North Road"/>
    <tag k="addr:state" v="VT"/>
    <tag k="ref:vcgi:esiteid" v="254209"/>
  </node>
  <node id="-487" visible="true" lat="43.0594749" lon="-73.11754657">
    <tag k="addr:housenumber" v="122"/>
    <tag k="addr:street" v="North Road"/>
    <tag k="addr:state" v="VT"/>
    <tag k="ref:vcgi:esiteid" v="254210"/>
  </node>
  <node id="-489" visible="true" lat="43.0592155" lon="-73.11816455">
    <tag k="addr:housenumber" v="108"/>
    <tag k="addr:street" v="North Road"/>
    <tag k="addr:state" v="VT"/>
    <tag k="ref:vcgi:esiteid" v="254212"/>
  </node>
  <node id="-490" visible="true" lat="43.05919261" lon="-73.11747028">
    <tag k="addr:housenumber" v="112"/>
    <tag k="addr:street" v="North Road"/>
    <tag k="addr:state" v="VT"/>
    <tag k="ref:vcgi:esiteid" v="254213"/>
  </node>
  <node id="-492" visible="true" lat="43.05876922" lon="-73.11769103">
    <tag k="addr:housenumber" v="86"/>
    <tag k="addr:street" v="North Road"/>
    <tag k="addr:state" v="VT"/>
    <tag k="ref:vcgi:esiteid" v="254215"/>
  </node>
  <node id="-494" visible="true" lat="43.0587861" lon="-73.11882757">
    <tag k="addr:housenumber" v="43"/>
    <tag k="addr:street" v="North Road"/>
    <tag k="addr:state" v="VT"/>
    <tag k="ref:vcgi:esiteid" v="254217"/>
  </node>
  <node id="-496" visible="true" lat="43.05839153" lon="-73.11773731">
    <tag k="addr:housenumber" v="76"/>
    <tag k="addr:street" v="North Road"/>
    <tag k="addr:state" v="VT"/>
    <tag k="ref:vcgi:esiteid" v="254220"/>
  </node>
  <node id="-502" visible="true" lat="43.05815124" lon="-73.12189483">
    <tag k="addr:housenumber" v="859"/>
    <tag k="addr:street" v="Kansas Road"/>
    <tag k="addr:state" v="VT"/>
    <tag k="ref:vcgi:esiteid" v="254226"/>
  </node>
  <node id="-503" visible="true" lat="43.05811691" lon="-73.11923217">
    <tag k="addr:housenumber" v="3"/>
    <tag k="addr:street" v="North Road"/>
    <tag k="addr:state" v="VT"/>
    <tag k="ref:vcgi:esiteid" v="254227"/>
  </node>
  <node id="-505" visible="true" lat="43.05800247" lon="-73.12104797">
    <tag k="addr:housenumber" v="883"/>
    <tag k="addr:street" v="Kansas Road"/>
    <tag k="addr:state" v="VT"/>
    <tag k="ref:vcgi:esiteid" v="254229"/>
  </node>
  <node id="-507" visible="true" lat="43.0579338" lon="-73.12078857">
    <tag k="addr:housenumber" v="935"/>
    <tag k="addr:street" v="Kansas Road"/>
    <tag k="addr:state" v="VT"/>
    <tag k="ref:vcgi:esiteid" v="254231"/>
  </node>
  <node id="-515" visible="true" lat="43.05772396" lon="-73.12013294">
    <tag k="addr:housenumber" v="957"/>
    <tag k="addr:street" v="Kansas Road"/>
    <tag k="addr:state" v="VT"/>
    <tag k="ref:vcgi:esiteid" v="254239"/>
  </node>
  <node id="-520" visible="true" lat="43.05738067" lon="-73.12339782">
    <tag k="addr:housenumber" v="836"/>
    <tag k="addr:street" v="Kansas Road"/>
    <tag k="addr:state" v="VT"/>
    <tag k="ref:vcgi:esiteid" v="254245"/>
  </node>
  <node id="-521" visible="true" lat="43.05731201" lon="-73.11808776">
    <tag k="addr:housenumber" v="37"/>
    <tag k="addr:street" v="Kelley Stand Road"/>
    <tag k="addr:state" v="VT"/>
    <tag k="ref:vcgi:esiteid" v="254246"/>
  </node>
  <node id="-522" visible="true" lat="43.05728145" lon="-73.12032367">
    <tag k="addr:housenumber" v="954"/>
    <tag k="addr:street" v="Kansas Road"/>
    <tag k="addr:state" v="VT"/>
    <tag k="ref:vcgi:esiteid" v="254247"/>
  </node>
  <node id="-523" visible="true" lat="43.05723462" lon="-73.11946568">
    <tag k="addr:housenumber" v="1004"/>
    <tag k="addr:street" v="Kansas Road"/>
    <tag k="addr:state" v="VT"/>
    <tag k="ref:vcgi:esiteid" v="254248"/>
  </node>
  <node id="-588" visible="true" lat="43.05108993" lon="-73.12474624">
    <tag k="addr:housenumber" v="178"/>
    <tag k="addr:street" v="Conservation Way"/>
    <tag k="addr:state" v="VT"/>
    <tag k="ref:vcgi:esiteid" v="254315"/>
  </node>
  <node id="-589" visible="true" lat="43.11235447" lon="-73.11503096">
    <tag k="addr:housenumber" v="355"/>
    <tag k="addr:street" v="Ondawa Road"/>
    <tag k="addr:state" v="VT"/>
    <tag k="ref:vcgi:esiteid" v="254316"/>
  </node>
  <node id="-590" visible="true" lat="43.0959811" lon="-73.12913879">
    <tag k="addr:housenumber" v="377"/>
    <tag k="addr:street" v="Maggies Run"/>
    <tag k="addr:state" v="VT"/>
    <tag k="ref:vcgi:esiteid" v="254317"/>
  </node>
  <node id="-592" visible="true" lat="43.1126507" lon="-73.12813426">
    <tag k="addr:housenumber" v="95"/>
    <tag k="addr:street" v="Lost Road"/>
    <tag k="addr:state" v="VT"/>
    <tag k="ref:vcgi:esiteid" v="254319"/>
  </node>
  <node id="-593" visible="true" lat="43.11731338" lon="-73.11373901">
    <tag k="addr:housenumber" v="47"/>
    <tag k="addr:street" v="Skyline Drive"/>
    <tag k="addr:state" v="VT"/>
    <tag k="ref:vcgi:esiteid" v="254321"/>
  </node>
  <node id="-595" visible="true" lat="43.10495421" lon="-73.13554296">
    <tag k="addr:housenumber" v="103"/>
    <tag k="addr:street" v="Private Hill Road"/>
    <tag k="addr:state" v="VT"/>
    <tag k="ref:vcgi:esiteid" v="313306"/>
  </node>
  <node id="-600" visible="true" lat="43.09660482" lon="-73.13216034">
    <tag k="addr:housenumber" v="503"/>
    <tag k="addr:street" v="Maggies Run"/>
    <tag k="addr:state" v="VT"/>
    <tag k="ref:vcgi:esiteid" v="331053"/>
  </node>
  <node id="-601" visible="true" lat="43.09886713" lon="-73.13021217">
    <tag k="addr:housenumber" v="568"/>
    <tag k="addr:street" v="Maggies Run"/>
    <tag k="addr:state" v="VT"/>
    <tag k="ref:vcgi:esiteid" v="331054"/>
  </node>
  <node id="-602" visible="true" lat="43.09927278" lon="-73.1313609">
    <tag k="addr:housenumber" v="570"/>
    <tag k="addr:street" v="Maggies Run"/>
    <tag k="addr:state" v="VT"/>
    <tag k="ref:vcgi:esiteid" v="331055"/>
  </node>
  <node id="-603" visible="true" lat="43.09750632" lon="-73.13119498">
    <tag k="addr:housenumber" v="55"/>
    <tag k="addr:street" v="Wildflower Lane"/>
    <tag k="addr:state" v="VT"/>
    <tag k="ref:vcgi:esiteid" v="331056"/>
  </node>
  <node id="-604" visible="true" lat="43.09814659" lon="-73.13041713">
    <tag k="addr:housenumber" v="60"/>
    <tag k="addr:street" v="Wildflower Lane"/>
    <tag k="addr:state" v="VT"/>
    <tag k="ref:vcgi:esiteid" v="331057"/>
  </node>
  <node id="-605" visible="true" lat="43.1100304" lon="-73.1063183">
    <tag k="addr:housenumber" v="3749"/>
    <tag k="addr:street" v="North Road"/>
    <tag k="addr:state" v="VT"/>
    <tag k="ref:vcgi:esiteid" v="333276"/>
  </node>
  <node id="-606" visible="true" lat="43.1034668" lon="-73.13483548">
    <tag k="addr:housenumber" v="20"/>
    <tag k="addr:street" v="Red Mountain Road"/>
    <tag k="addr:state" v="VT"/>
    <tag k="ref:vcgi:esiteid" v="333327"/>
  </node>
  <node id="-619" visible="true" lat="43.10492047" lon="-73.10781932">
    <tag k="addr:housenumber" v="3447"/>
    <tag k="addr:street" v="North Road"/>
    <tag k="addr:state" v="VT"/>
    <tag k="ref:vcgi:esiteid" v="338085"/>
  </node>
  <node id="-620" visible="true" lat="43.1058161" lon="-73.10872496">
    <tag k="addr:housenumber" v="76"/>
    <tag k="addr:street" v="Randall Road"/>
    <tag k="addr:state" v="VT"/>
    <tag k="ref:vcgi:esiteid" v="338086"/>
  </node>
  <node id="-622" visible="true" lat="43.10759801" lon="-73.10584564">
    <tag k="addr:housenumber" v="3600"/>
    <tag k="addr:street" v="North Road"/>
    <tag k="addr:state" v="VT"/>
    <tag k="ref:vcgi:esiteid" v="338088"/>
  </node>
  <node id="-623" visible="true" lat="43.10759002" lon="-73.12045476">
    <tag k="addr:housenumber" v="1120"/>
    <tag k="addr:street" v="Dunham Road"/>
    <tag k="addr:state" v="VT"/>
    <tag k="ref:vcgi:esiteid" v="338089"/>
  </node>
  <node id="-624" visible="true" lat="43.10717304" lon="-73.1210611">
    <tag k="addr:housenumber" v="1072"/>
    <tag k="addr:street" v="Dunham Road"/>
    <tag k="addr:state" v="VT"/>
    <tag k="ref:vcgi:esiteid" v="338090"/>
  </node>
  <node id="-625" visible="true" lat="43.10537159" lon="-73.12116405">
    <tag k="addr:housenumber" v="2815"/>
    <tag k="addr:street" v="Sunderland Hill Road"/>
    <tag k="addr:state" v="VT"/>
    <tag k="ref:vcgi:esiteid" v="338091"/>
  </node>
  <node id="-626" visible="true" lat="43.10939253" lon="-73.10643905">
    <tag k="addr:housenumber" v="3731"/>
    <tag k="addr:street" v="North Road"/>
    <tag k="addr:state" v="VT"/>
    <tag k="ref:vcgi:esiteid" v="338623"/>
  </node>
  <node id="-627" visible="true" lat="43.10596793" lon="-73.10623647">
    <tag k="addr:housenumber" v="3506"/>
    <tag k="addr:street" v="North Road"/>
    <tag k="addr:state" v="VT"/>
    <tag k="ref:vcgi:esiteid" v="338624"/>
  </node>
  <node id="-638" visible="true" lat="43.1008156" lon="-73.12585117">
    <tag k="addr:housenumber" v="193"/>
    <tag k="addr:street" v="McKee Road"/>
    <tag k="addr:state" v="VT"/>
    <tag k="ref:vcgi:esiteid" v="340821"/>
  </node>
  <node id="-639" visible="true" lat="43.09680718" lon="-73.12228281">
    <tag k="addr:housenumber" v="2216"/>
    <tag k="addr:street" v="Sunderland Hill Road"/>
    <tag k="addr:state" v="VT"/>
    <tag k="ref:vcgi:esiteid" v="340822"/>
  </node>
  <node id="-657" visible="true" lat="43.07187602" lon="-73.11111879">
    <tag k="addr:housenumber" v="114"/>
    <tag k="addr:street" v="Colebrook Road"/>
    <tag k="addr:state" v="VT"/>
    <tag k="ref:vcgi:esiteid" v="450920"/>
  </node>
  <node id="-658" visible="true" lat="43.0731581" lon="-73.11053701">
    <tag k="addr:housenumber" v="1180"/>
    <tag k="addr:street" v="North Road"/>
    <tag k="addr:state" v="VT"/>
    <tag k="ref:vcgi:esiteid" v="450921"/>
  </node>
  <node id="-659" visible="true" lat="43.07287721" lon="-73.1082731">
    <tag k="addr:housenumber" v="286"/>
    <tag k="addr:street" v="Colebrook Road"/>
    <tag k="addr:state" v="VT"/>
    <tag k="ref:vcgi:esiteid" v="450922"/>
  </node>
  <node id="-662" visible="true" lat="43.0739792" lon="-73.10796236">
    <tag k="addr:housenumber" v="289"/>
    <tag k="addr:street" v="Colebrook Road"/>
    <tag k="addr:state" v="VT"/>
    <tag k="ref:vcgi:esiteid" v="450928"/>
  </node>
  <node id="-663" visible="true" lat="43.07386938" lon="-73.11025005">
    <tag k="addr:housenumber" v="1238"/>
    <tag k="addr:street" v="North Road"/>
    <tag k="addr:state" v="VT"/>
    <tag k="ref:vcgi:esiteid" v="450930"/>
  </node>
  <node id="-664" visible="true" lat="43.11977095" lon="-73.11841059">
    <tag k="addr:housenumber" v="317"/>
    <tag k="addr:street" v="Akwanok Drive"/>
    <tag k="addr:state" v="VT"/>
    <tag k="ref:vcgi:esiteid" v="451179"/>
  </node>
  <node id="-680" visible="true" lat="43.0976099" lon="-73.13464256">
    <tag k="addr:housenumber" v="354"/>
    <tag k="addr:street" v="Dunham Road"/>
    <tag k="addr:state" v="VT"/>
    <tag k="ref:vcgi:esiteid" v="451196"/>
  </node>
  <node id="-682" visible="true" lat="43.10912618" lon="-73.10087727">
    <tag k="addr:housenumber" v="103"/>
    <tag k="addr:street" v="Millbrook Road"/>
    <tag k="addr:state" v="VT"/>
    <tag k="ref:vcgi:esiteid" v="452781"/>
  </node>
  <node id="-685" visible="true" lat="43.10644201" lon="-73.12308315">
    <tag k="addr:housenumber" v="990"/>
    <tag k="addr:street" v="Dunham Road"/>
    <tag k="addr:state" v="VT"/>
    <tag k="ref:vcgi:esiteid" v="610157"/>
  </node>
  <node id="-687" visible="true" lat="43.10468138" lon="-73.11909225">
    <tag k="addr:housenumber" v="104"/>
    <tag k="addr:street" v="Mountain View Road"/>
    <tag k="addr:state" v="VT"/>
    <tag k="ref:vcgi:esiteid" v="610331"/>
  </node>
</osm>
