<?xml version="1.0" encoding="UTF-8"?>
<osm version="0.6" generator="JOSM">
  <node id="-104" visible="true" lat="44.69801712" lon="-72.09098052">
    <tag k="addr:housenumber" v="7079"/>
    <tag k="addr:street" v="U.S. Route 5"/>
    <tag k="addr:state" v="VT"/>
    <tag k="ref:vcgi:esiteid" v="254327"/>
  </node>
  <node id="-105" visible="true" lat="44.69787597" lon="-72.09075927">
    <tag k="addr:housenumber" v="7065"/>
    <tag k="addr:street" v="U.S. Route 5"/>
    <tag k="addr:state" v="VT"/>
    <tag k="ref:vcgi:esiteid" v="254328"/>
  </node>
  <node id="-106" visible="true" lat="44.69768905" lon="-72.0905838">
    <tag k="addr:housenumber" v="7051"/>
    <tag k="addr:street" v="U.S. Route 5"/>
    <tag k="addr:state" v="VT"/>
    <tag k="ref:vcgi:esiteid" v="254329"/>
  </node>
  <node id="-107" visible="true" lat="44.69694206" lon="-72.08958892">
    <tag k="addr:housenumber" v="6991"/>
    <tag k="addr:street" v="U.S. Route 5"/>
    <tag k="addr:state" v="VT"/>
    <tag k="ref:vcgi:esiteid" v="254330"/>
  </node>
  <node id="-108" visible="true" lat="44.69662475" lon="-72.08866882">
    <tag k="addr:housenumber" v="6931"/>
    <tag k="addr:street" v="U.S. Route 5"/>
    <tag k="addr:state" v="VT"/>
    <tag k="ref:vcgi:esiteid" v="254331"/>
  </node>
  <node id="-109" visible="true" lat="44.69626914" lon="-72.08732067">
    <tag k="addr:housenumber" v="6871"/>
    <tag k="addr:street" v="U.S. Route 5"/>
    <tag k="addr:state" v="VT"/>
    <tag k="ref:vcgi:esiteid" v="254332"/>
  </node>
  <node id="-110" visible="true" lat="44.69611162" lon="-72.08657642">
    <tag k="addr:housenumber" v="6827"/>
    <tag k="addr:street" v="U.S. Route 5"/>
    <tag k="addr:state" v="VT"/>
    <tag k="ref:vcgi:esiteid" v="254333"/>
  </node>
  <node id="-113" visible="true" lat="44.69493779" lon="-72.07812031">
    <tag k="addr:housenumber" v="5301"/>
    <tag k="addr:street" v="Underpass Road"/>
    <tag k="addr:state" v="VT"/>
    <tag k="ref:vcgi:esiteid" v="254337"/>
  </node>
  <node id="-116" visible="true" lat="44.69219694" lon="-72.06103171">
    <tag k="addr:housenumber" v="5491"/>
    <tag k="addr:street" v="U.S. Route 5"/>
    <tag k="addr:state" v="VT"/>
    <tag k="ref:vcgi:esiteid" v="254341"/>
  </node>
  <node id="-117" visible="true" lat="44.69205093" lon="-72.05664062">
    <tag k="addr:housenumber" v="102"/>
    <tag k="addr:street" v="Marl Pond Road"/>
    <tag k="addr:state" v="VT"/>
    <tag k="ref:vcgi:esiteid" v="254342"/>
  </node>
  <node id="-119" visible="true" lat="44.69155037" lon="-72.0603603">
    <tag k="addr:housenumber" v="5443"/>
    <tag k="addr:street" v="U.S. Route 5"/>
    <tag k="addr:state" v="VT"/>
    <tag k="ref:vcgi:esiteid" v="254344"/>
  </node>
  <node id="-120" visible="true" lat="44.69113159" lon="-72.06419372">
    <tag k="addr:housenumber" v="4758"/>
    <tag k="addr:street" v="Underpass Road"/>
    <tag k="addr:state" v="VT"/>
    <tag k="ref:vcgi:esiteid" v="254345"/>
  </node>
  <node id="-121" visible="true" lat="44.69106674" lon="-72.0565567">
    <tag k="addr:housenumber" v="64"/>
    <tag k="addr:street" v="Marl Pond Road"/>
    <tag k="addr:state" v="VT"/>
    <tag k="ref:vcgi:esiteid" v="254346"/>
  </node>
  <node id="-126" visible="true" lat="44.68959361" lon="-72.05454047">
    <tag k="addr:housenumber" v="5118"/>
    <tag k="addr:street" v="U.S. Route 5"/>
    <tag k="addr:state" v="VT"/>
    <tag k="ref:vcgi:esiteid" v="254351"/>
  </node>
  <node id="-127" visible="true" lat="44.68930816" lon="-72.02635955">
    <tag k="addr:housenumber" v="1090"/>
    <tag k="addr:street" v="Dolloff Pond Road"/>
    <tag k="addr:state" v="VT"/>
    <tag k="ref:vcgi:esiteid" v="254352"/>
  </node>
  <node id="-128" visible="true" lat="44.68911006" lon="-72.05504658">
    <tag k="addr:housenumber" v="5121"/>
    <tag k="addr:street" v="U.S. Route 5"/>
    <tag k="addr:state" v="VT"/>
    <tag k="ref:vcgi:esiteid" v="254353"/>
  </node>
  <node id="-129" visible="true" lat="44.6890682" lon="-72.04578023">
    <tag k="addr:housenumber" v="2108"/>
    <tag k="addr:street" v="Dolloff Pond Road"/>
    <tag k="addr:state" v="VT"/>
    <tag k="ref:vcgi:esiteid" v="254354"/>
  </node>
  <node id="-130" visible="true" lat="44.68885803" lon="-72.05287933">
    <tag k="addr:housenumber" v="5020"/>
    <tag k="addr:street" v="U.S. Route 5"/>
    <tag k="addr:state" v="VT"/>
    <tag k="ref:vcgi:esiteid" v="254355"/>
  </node>
  <node id="-131" visible="true" lat="44.68855897" lon="-72.04723346">
    <tag k="addr:housenumber" v="4716"/>
    <tag k="addr:street" v="U.S. Route 5"/>
    <tag k="addr:state" v="VT"/>
    <tag k="ref:vcgi:esiteid" v="254356"/>
  </node>
  <node id="-132" visible="true" lat="44.68843476" lon="-72.0513366">
    <tag k="addr:housenumber" v="4932"/>
    <tag k="addr:street" v="U.S. Route 5"/>
    <tag k="addr:state" v="VT"/>
    <tag k="ref:vcgi:esiteid" v="254357"/>
  </node>
  <node id="-133" visible="true" lat="44.68842875" lon="-72.04813205">
    <tag k="addr:housenumber" v="4806"/>
    <tag k="addr:street" v="U.S. Route 5"/>
    <tag k="addr:state" v="VT"/>
    <tag k="ref:vcgi:esiteid" v="254358"/>
  </node>
  <node id="-135" visible="true" lat="44.68816375" lon="-72.05801391">
    <tag k="addr:housenumber" v="4220"/>
    <tag k="addr:street" v="Underpass Road"/>
    <tag k="addr:state" v="VT"/>
    <tag k="ref:vcgi:esiteid" v="254360"/>
  </node>
  <node id="-136" visible="true" lat="44.6878275" lon="-72.04684712">
    <tag k="addr:housenumber" v="4705"/>
    <tag k="addr:street" v="U.S. Route 5"/>
    <tag k="addr:state" v="VT"/>
    <tag k="ref:vcgi:esiteid" v="254361"/>
  </node>
  <node id="-140" visible="true" lat="44.68784242" lon="-72.04819606">
    <tag k="addr:housenumber" v="4805"/>
    <tag k="addr:street" v="U.S. Route 5"/>
    <tag k="addr:state" v="VT"/>
    <tag k="ref:vcgi:esiteid" v="254365"/>
  </node>
  <node id="-141" visible="true" lat="44.68785417" lon="-72.04610565">
    <tag k="addr:housenumber" v="31"/>
    <tag k="addr:street" v="Pumping Station Drive"/>
    <tag k="addr:state" v="VT"/>
    <tag k="ref:vcgi:esiteid" v="254366"/>
  </node>
  <node id="-142" visible="true" lat="44.68785213" lon="-72.04584046">
    <tag k="addr:housenumber" v="43"/>
    <tag k="addr:street" v="Pumping Station Drive"/>
    <tag k="addr:state" v="VT"/>
    <tag k="ref:vcgi:esiteid" v="254367"/>
  </node>
  <node id="-143" visible="true" lat="44.68781536" lon="-72.04558078">
    <tag k="addr:housenumber" v="57"/>
    <tag k="addr:street" v="Pumping Station Drive"/>
    <tag k="addr:state" v="VT"/>
    <tag k="ref:vcgi:esiteid" v="254368"/>
  </node>
  <node id="-144" visible="true" lat="44.68772558" lon="-72.04530984">
    <tag k="addr:housenumber" v="69"/>
    <tag k="addr:street" v="Pumping Station Drive"/>
    <tag k="addr:state" v="VT"/>
    <tag k="ref:vcgi:esiteid" v="254369"/>
  </node>
  <node id="-145" visible="true" lat="44.68766073" lon="-72.04504281">
    <tag k="addr:housenumber" v="81"/>
    <tag k="addr:street" v="Pumping Station Drive"/>
    <tag k="addr:state" v="VT"/>
    <tag k="ref:vcgi:esiteid" v="254370"/>
  </node>
  <node id="-146" visible="true" lat="44.68762206" lon="-72.0433197">
    <tag k="addr:housenumber" v="4454"/>
    <tag k="addr:street" v="U.S. Route 5"/>
    <tag k="addr:state" v="VT"/>
    <tag k="ref:vcgi:esiteid" v="254371"/>
  </node>
  <node id="-147" visible="true" lat="44.68754945" lon="-72.04480821">
    <tag k="addr:housenumber" v="97"/>
    <tag k="addr:street" v="Pumping Station Drive"/>
    <tag k="addr:state" v="VT"/>
    <tag k="ref:vcgi:esiteid" v="254372"/>
  </node>
  <node id="-148" visible="true" lat="44.68736316" lon="-72.04429078">
    <tag k="addr:housenumber" v="119"/>
    <tag k="addr:street" v="Pumping Station Drive"/>
    <tag k="addr:state" v="VT"/>
    <tag k="ref:vcgi:esiteid" v="254373"/>
  </node>
  <node id="-149" visible="true" lat="44.68744461" lon="-72.04453756">
    <tag k="addr:housenumber" v="111"/>
    <tag k="addr:street" v="Pumping Station Drive"/>
    <tag k="addr:state" v="VT"/>
    <tag k="ref:vcgi:esiteid" v="254374"/>
  </node>
  <node id="-150" visible="true" lat="44.68701207" lon="-72.04053248">
    <tag k="addr:housenumber" v="4426"/>
    <tag k="addr:street" v="U.S. Route 5"/>
    <tag k="addr:state" v="VT"/>
    <tag k="ref:vcgi:esiteid" v="254375"/>
  </node>
  <node id="-153" visible="true" lat="44.6864035" lon="-72.04166228">
    <tag k="addr:housenumber" v="4435"/>
    <tag k="addr:street" v="U.S. Route 5"/>
    <tag k="addr:state" v="VT"/>
    <tag k="ref:vcgi:esiteid" v="254378"/>
  </node>
  <node id="-159" visible="true" lat="44.68537139" lon="-72.03799438">
    <tag k="addr:housenumber" v="4236"/>
    <tag k="addr:street" v="U.S. Route 5"/>
    <tag k="addr:state" v="VT"/>
    <tag k="ref:vcgi:esiteid" v="254385"/>
  </node>
  <node id="-162" visible="true" lat="44.68485641" lon="-72.03717803">
    <tag k="addr:housenumber" v="4180"/>
    <tag k="addr:street" v="U.S. Route 5"/>
    <tag k="addr:state" v="VT"/>
    <tag k="ref:vcgi:esiteid" v="254388"/>
  </node>
  <node id="-167" visible="true" lat="44.68384551" lon="-72.03849029">
    <tag k="addr:housenumber" v="4181"/>
    <tag k="addr:street" v="U.S. Route 5"/>
    <tag k="addr:state" v="VT"/>
    <tag k="ref:vcgi:esiteid" v="254393"/>
  </node>
  <node id="-194" visible="true" lat="44.67593002" lon="-72.01657867">
    <tag k="addr:housenumber" v="533"/>
    <tag k="addr:street" v="Cross Road"/>
    <tag k="addr:state" v="VT"/>
    <tag k="ref:vcgi:esiteid" v="254420"/>
  </node>
  <node id="-211" visible="true" lat="44.67356872" lon="-72.01734924">
    <tag k="addr:housenumber" v="868"/>
    <tag k="addr:street" v="Pierce Hill Road"/>
    <tag k="addr:state" v="VT"/>
    <tag k="ref:vcgi:esiteid" v="254437"/>
  </node>
  <node id="-225" visible="true" lat="44.67042541" lon="-72.01705932">
    <tag k="addr:housenumber" v="651"/>
    <tag k="addr:street" v="Pierce Hill Road"/>
    <tag k="addr:state" v="VT"/>
    <tag k="ref:vcgi:esiteid" v="254451"/>
  </node>
  <node id="-229" visible="true" lat="44.669026" lon="-72.02513455">
    <tag k="addr:housenumber" v="2904"/>
    <tag k="addr:street" v="U.S. Route 5"/>
    <tag k="addr:state" v="VT"/>
    <tag k="ref:vcgi:esiteid" v="254455"/>
  </node>
  <node id="-230" visible="true" lat="44.66827216" lon="-72.02670888">
    <tag k="addr:housenumber" v="2987"/>
    <tag k="addr:street" v="U.S. Route 5"/>
    <tag k="addr:state" v="VT"/>
    <tag k="ref:vcgi:esiteid" v="254456"/>
  </node>
  <node id="-231" visible="true" lat="44.66782249" lon="-72.02463167">
    <tag k="addr:housenumber" v="2902"/>
    <tag k="addr:street" v="U.S. Route 5"/>
    <tag k="addr:state" v="VT"/>
    <tag k="ref:vcgi:esiteid" v="254457"/>
  </node>
  <node id="-235" visible="true" lat="44.66640472" lon="-72.01617431">
    <tag k="addr:housenumber" v="386"/>
    <tag k="addr:street" v="Pierce Hill Road"/>
    <tag k="addr:state" v="VT"/>
    <tag k="ref:vcgi:esiteid" v="254461"/>
  </node>
  <node id="-237" visible="true" lat="44.66572129" lon="-72.02441324">
    <tag k="addr:housenumber" v="2725"/>
    <tag k="addr:street" v="U.S. Route 5"/>
    <tag k="addr:state" v="VT"/>
    <tag k="ref:vcgi:esiteid" v="254463"/>
  </node>
  <node id="-238" visible="true" lat="44.66505059" lon="-72.0240174">
    <tag k="addr:housenumber" v="2671"/>
    <tag k="addr:street" v="U.S. Route 5"/>
    <tag k="addr:state" v="VT"/>
    <tag k="ref:vcgi:esiteid" v="254464"/>
  </node>
  <node id="-239" visible="true" lat="44.66492772" lon="-72.02312344">
    <tag k="addr:housenumber" v="2626"/>
    <tag k="addr:street" v="U.S. Route 5"/>
    <tag k="addr:state" v="VT"/>
    <tag k="ref:vcgi:esiteid" v="254465"/>
  </node>
  <node id="-240" visible="true" lat="44.66475712" lon="-72.02300231">
    <tag k="addr:housenumber" v="2624"/>
    <tag k="addr:street" v="U.S. Route 5"/>
    <tag k="addr:state" v="VT"/>
    <tag k="ref:vcgi:esiteid" v="254466"/>
  </node>
  <node id="-241" visible="true" lat="44.66465205" lon="-72.02283194">
    <tag k="addr:housenumber" v="2612"/>
    <tag k="addr:street" v="U.S. Route 5"/>
    <tag k="addr:state" v="VT"/>
    <tag k="ref:vcgi:esiteid" v="254467"/>
  </node>
  <node id="-245" visible="true" lat="44.66391219" lon="-72.02238558">
    <tag k="addr:housenumber" v="2566"/>
    <tag k="addr:street" v="U.S. Route 5"/>
    <tag k="addr:state" v="VT"/>
    <tag k="ref:vcgi:esiteid" v="254471"/>
  </node>
  <node id="-252" visible="true" lat="44.66104135" lon="-72.01594411">
    <tag k="addr:housenumber" v="119"/>
    <tag k="addr:street" v="Michaud Drive"/>
    <tag k="addr:state" v="VT"/>
    <tag k="ref:vcgi:esiteid" v="254479"/>
  </node>
  <node id="-256" visible="true" lat="44.66063099" lon="-72.07364295">
    <tag k="addr:housenumber" v="2684"/>
    <tag k="addr:street" v="King George Farm Road"/>
    <tag k="addr:state" v="VT"/>
    <tag k="ref:vcgi:esiteid" v="254483"/>
  </node>
  <node id="-258" visible="true" lat="44.66016201" lon="-72.00997495">
    <tag k="addr:housenumber" v="453"/>
    <tag k="addr:street" v="Michaud Drive"/>
    <tag k="addr:state" v="VT"/>
    <tag k="ref:vcgi:esiteid" v="254485"/>
  </node>
  <node id="-260" visible="true" lat="44.6603233" lon="-72.07407108">
    <tag k="addr:housenumber" v="2706"/>
    <tag k="addr:street" v="King George Farm Road"/>
    <tag k="addr:state" v="VT"/>
    <tag k="ref:vcgi:esiteid" v="254487"/>
  </node>
  <node id="-261" visible="true" lat="44.66003348" lon="-72.07357261">
    <tag k="addr:housenumber" v="2709"/>
    <tag k="addr:street" v="King George Farm Road"/>
    <tag k="addr:state" v="VT"/>
    <tag k="ref:vcgi:esiteid" v="254488"/>
  </node>
  <node id="-265" visible="true" lat="44.65952682" lon="-72.01934051">
    <tag k="addr:housenumber" v="2218"/>
    <tag k="addr:street" v="U.S. Route 5"/>
    <tag k="addr:state" v="VT"/>
    <tag k="ref:vcgi:esiteid" v="254492"/>
  </node>
  <node id="-267" visible="true" lat="44.65925216" lon="-72.01494598">
    <tag k="addr:housenumber" v="257"/>
    <tag k="addr:street" v="Michaud Drive"/>
    <tag k="addr:state" v="VT"/>
    <tag k="ref:vcgi:esiteid" v="254494"/>
  </node>
  <node id="-270" visible="true" lat="44.65871047" lon="-72.01821899">
    <tag k="addr:housenumber" v="29"/>
    <tag k="addr:street" v="Michaud Drive"/>
    <tag k="addr:state" v="VT"/>
    <tag k="ref:vcgi:esiteid" v="254498"/>
  </node>
  <node id="-272" visible="true" lat="44.6581459" lon="-72.05242919">
    <tag k="addr:housenumber" v="1460"/>
    <tag k="addr:street" v="King George Farm Road"/>
    <tag k="addr:state" v="VT"/>
    <tag k="ref:vcgi:esiteid" v="254500"/>
  </node>
  <node id="-276" visible="true" lat="44.65739059" lon="-72.0557022">
    <tag k="addr:housenumber" v="1624"/>
    <tag k="addr:street" v="King George Farm Road"/>
    <tag k="addr:state" v="VT"/>
    <tag k="ref:vcgi:esiteid" v="254504"/>
  </node>
  <node id="-279" visible="true" lat="44.65667343" lon="-72.0150299">
    <tag k="addr:housenumber" v="1922"/>
    <tag k="addr:street" v="U.S. Route 5"/>
    <tag k="addr:state" v="VT"/>
    <tag k="ref:vcgi:esiteid" v="254507"/>
  </node>
  <node id="-282" visible="true" lat="44.65602874" lon="-72.01318359">
    <tag k="addr:housenumber" v="1832"/>
    <tag k="addr:street" v="U.S. Route 5"/>
    <tag k="addr:state" v="VT"/>
    <tag k="ref:vcgi:esiteid" v="254510"/>
  </node>
  <node id="-283" visible="true" lat="44.65606689" lon="-72.0518341">
    <tag k="addr:housenumber" v="1389"/>
    <tag k="addr:street" v="King George Farm Road"/>
    <tag k="addr:state" v="VT"/>
    <tag k="ref:vcgi:esiteid" v="254511"/>
  </node>
  <node id="-284" visible="true" lat="44.65589523" lon="-72.05014038">
    <tag k="addr:housenumber" v="1324"/>
    <tag k="addr:street" v="King George Farm Road"/>
    <tag k="addr:state" v="VT"/>
    <tag k="ref:vcgi:esiteid" v="254512"/>
  </node>
  <node id="-292" visible="true" lat="44.65329218" lon="-72.01199595">
    <tag k="addr:housenumber" v="1655"/>
    <tag k="addr:street" v="U.S. Route 5"/>
    <tag k="addr:state" v="VT"/>
    <tag k="ref:vcgi:esiteid" v="254520"/>
  </node>
  <node id="-293" visible="true" lat="44.65332794" lon="-72.01136016">
    <tag k="addr:housenumber" v="1630"/>
    <tag k="addr:street" v="U.S. Route 5"/>
    <tag k="addr:state" v="VT"/>
    <tag k="ref:vcgi:esiteid" v="254521"/>
  </node>
  <node id="-297" visible="true" lat="44.65268325" lon="-72.01058197">
    <tag k="addr:housenumber" v="1550"/>
    <tag k="addr:street" v="U.S. Route 5"/>
    <tag k="addr:state" v="VT"/>
    <tag k="ref:vcgi:esiteid" v="254525"/>
  </node>
  <node id="-299" visible="true" lat="44.65224621" lon="-72.01040299">
    <tag k="addr:housenumber" v="1520"/>
    <tag k="addr:street" v="U.S. Route 5"/>
    <tag k="addr:state" v="VT"/>
    <tag k="ref:vcgi:esiteid" v="254527"/>
  </node>
  <node id="-301" visible="true" lat="44.6519772" lon="-72.00926153">
    <tag k="addr:housenumber" v="1480"/>
    <tag k="addr:street" v="U.S. Route 5"/>
    <tag k="addr:state" v="VT"/>
    <tag k="ref:vcgi:esiteid" v="254529"/>
  </node>
  <node id="-304" visible="true" lat="44.65091534" lon="-72.00855003">
    <tag k="addr:housenumber" v="1382"/>
    <tag k="addr:street" v="U.S. Route 5"/>
    <tag k="addr:state" v="VT"/>
    <tag k="ref:vcgi:esiteid" v="254532"/>
  </node>
  <node id="-307" visible="true" lat="44.65061291" lon="-72.04501567">
    <tag k="addr:housenumber" v="822"/>
    <tag k="addr:street" v="King George Farm Road"/>
    <tag k="addr:state" v="VT"/>
    <tag k="ref:vcgi:esiteid" v="254535"/>
  </node>
  <node id="-309" visible="true" lat="44.65027685" lon="-72.0073457">
    <tag k="addr:housenumber" v="1334"/>
    <tag k="addr:street" v="U.S. Route 5"/>
    <tag k="addr:state" v="VT"/>
    <tag k="ref:vcgi:esiteid" v="254537"/>
  </node>
  <node id="-311" visible="true" lat="44.64980222" lon="-72.00702111">
    <tag k="addr:housenumber" v="1262"/>
    <tag k="addr:street" v="U.S. Route 5"/>
    <tag k="addr:state" v="VT"/>
    <tag k="ref:vcgi:esiteid" v="254539"/>
  </node>
  <node id="-312" visible="true" lat="44.64910888" lon="-72.04506683">
    <tag k="addr:housenumber" v="770"/>
    <tag k="addr:street" v="King George Farm Road"/>
    <tag k="addr:state" v="VT"/>
    <tag k="ref:vcgi:esiteid" v="254540"/>
  </node>
  <node id="-313" visible="true" lat="44.64877797" lon="-72.00604054">
    <tag k="addr:housenumber" v="1180"/>
    <tag k="addr:street" v="U.S. Route 5"/>
    <tag k="addr:state" v="VT"/>
    <tag k="ref:vcgi:esiteid" v="254541"/>
  </node>
  <node id="-314" visible="true" lat="44.64804911" lon="-72.00501697">
    <tag k="addr:housenumber" v="1144"/>
    <tag k="addr:street" v="U.S. Route 5"/>
    <tag k="addr:state" v="VT"/>
    <tag k="ref:vcgi:esiteid" v="254542"/>
  </node>
  <node id="-315" visible="true" lat="44.64767837" lon="-72.04250335">
    <tag k="addr:housenumber" v="612"/>
    <tag k="addr:street" v="King George Farm Road"/>
    <tag k="addr:state" v="VT"/>
    <tag k="ref:vcgi:esiteid" v="254543"/>
  </node>
  <node id="-317" visible="true" lat="44.64728546" lon="-72.04161071">
    <tag k="addr:housenumber" v="558"/>
    <tag k="addr:street" v="King George Farm Road"/>
    <tag k="addr:state" v="VT"/>
    <tag k="ref:vcgi:esiteid" v="254545"/>
  </node>
  <node id="-318" visible="true" lat="44.64696694" lon="-72.00654074">
    <tag k="addr:housenumber" v="937"/>
    <tag k="addr:street" v="U.S. Route 5"/>
    <tag k="addr:state" v="VT"/>
    <tag k="ref:vcgi:esiteid" v="254546"/>
  </node>
  <node id="-322" visible="true" lat="44.64689254" lon="-72.04294586">
    <tag k="addr:housenumber" v="581"/>
    <tag k="addr:street" v="King George Farm Road"/>
    <tag k="addr:state" v="VT"/>
    <tag k="ref:vcgi:esiteid" v="254550"/>
  </node>
  <node id="-325" visible="true" lat="44.64622879" lon="-72.04075622">
    <tag k="addr:housenumber" v="484"/>
    <tag k="addr:street" v="King George Farm Road"/>
    <tag k="addr:state" v="VT"/>
    <tag k="ref:vcgi:esiteid" v="254553"/>
  </node>
  <node id="-326" visible="true" lat="44.64538617" lon="-71.99918065">
    <tag k="addr:housenumber" v="792"/>
    <tag k="addr:street" v="U.S. Route 5"/>
    <tag k="addr:state" v="VT"/>
    <tag k="ref:vcgi:esiteid" v="254555"/>
  </node>
  <node id="-327" visible="true" lat="44.64522552" lon="-72.04138946">
    <tag k="addr:housenumber" v="443"/>
    <tag k="addr:street" v="King George Farm Road"/>
    <tag k="addr:state" v="VT"/>
    <tag k="ref:vcgi:esiteid" v="254557"/>
  </node>
  <node id="-328" visible="true" lat="44.6450119" lon="-71.99863433">
    <tag k="addr:housenumber" v="734"/>
    <tag k="addr:street" v="U.S. Route 5"/>
    <tag k="addr:state" v="VT"/>
    <tag k="ref:vcgi:esiteid" v="254558"/>
  </node>
  <node id="-329" visible="true" lat="44.64487766" lon="-72.00275664">
    <tag k="addr:housenumber" v="935"/>
    <tag k="addr:street" v="U.S. Route 5"/>
    <tag k="addr:state" v="VT"/>
    <tag k="ref:vcgi:esiteid" v="254559"/>
  </node>
  <node id="-330" visible="true" lat="44.64516098" lon="-71.99693791">
    <tag k="addr:housenumber" v="694"/>
    <tag k="addr:street" v="U.S. Route 5"/>
    <tag k="addr:state" v="VT"/>
    <tag k="ref:vcgi:esiteid" v="254560"/>
  </node>
  <node id="-331" visible="true" lat="44.64467733" lon="-71.99809668">
    <tag k="addr:housenumber" v="714"/>
    <tag k="addr:street" v="U.S. Route 5"/>
    <tag k="addr:state" v="VT"/>
    <tag k="ref:vcgi:esiteid" v="254561"/>
  </node>
  <node id="-333" visible="true" lat="44.6443634" lon="-72.0387268">
    <tag k="addr:housenumber" v="306"/>
    <tag k="addr:street" v="King George Farm Road"/>
    <tag k="addr:state" v="VT"/>
    <tag k="ref:vcgi:esiteid" v="254563"/>
  </node>
  <node id="-334" visible="true" lat="44.64409296" lon="-71.99279941">
    <tag k="addr:housenumber" v="416"/>
    <tag k="addr:street" v="U.S. Route 5"/>
    <tag k="addr:state" v="VT"/>
    <tag k="ref:vcgi:esiteid" v="254564"/>
  </node>
  <node id="-335" visible="true" lat="44.64409255" lon="-72.0398941">
    <tag k="addr:housenumber" v="20"/>
    <tag k="addr:street" v="Craig Pond Road"/>
    <tag k="addr:state" v="VT"/>
    <tag k="ref:vcgi:esiteid" v="254565"/>
  </node>
  <node id="-336" visible="true" lat="44.64387303" lon="-71.99172824">
    <tag k="addr:housenumber" v="392"/>
    <tag k="addr:street" v="U.S. Route 5"/>
    <tag k="addr:state" v="VT"/>
    <tag k="ref:vcgi:esiteid" v="254566"/>
  </node>
  <node id="-337" visible="true" lat="44.64399464" lon="-71.99381891">
    <tag k="addr:housenumber" v="452"/>
    <tag k="addr:street" v="U.S. Route 5"/>
    <tag k="addr:state" v="VT"/>
    <tag k="ref:vcgi:esiteid" v="254567"/>
  </node>
  <node id="-338" visible="true" lat="44.64392012" lon="-71.99274334">
    <tag k="addr:housenumber" v="432"/>
    <tag k="addr:street" v="U.S. Route 5"/>
    <tag k="addr:state" v="VT"/>
    <tag k="ref:vcgi:esiteid" v="254568"/>
  </node>
  <node id="-339" visible="true" lat="44.64383429" lon="-71.98944971">
    <tag k="addr:housenumber" v="270"/>
    <tag k="addr:street" v="U.S. Route 5"/>
    <tag k="addr:state" v="VT"/>
    <tag k="ref:vcgi:esiteid" v="254569"/>
  </node>
  <node id="-340" visible="true" lat="44.64382439" lon="-71.98875345">
    <tag k="addr:housenumber" v="264"/>
    <tag k="addr:street" v="U.S. Route 5"/>
    <tag k="addr:state" v="VT"/>
    <tag k="ref:vcgi:esiteid" v="254570"/>
  </node>
  <node id="-341" visible="true" lat="44.64357798" lon="-71.99050592">
    <tag k="addr:housenumber" v="320"/>
    <tag k="addr:street" v="U.S. Route 5"/>
    <tag k="addr:state" v="VT"/>
    <tag k="ref:vcgi:esiteid" v="254571"/>
  </node>
  <node id="-344" visible="true" lat="44.64328429" lon="-71.98901784">
    <tag k="addr:housenumber" v="254"/>
    <tag k="addr:street" v="U.S. Route 5"/>
    <tag k="addr:state" v="VT"/>
    <tag k="ref:vcgi:esiteid" v="254574"/>
  </node>
  <node id="-345" visible="true" lat="44.64337285" lon="-71.99421514">
    <tag k="addr:housenumber" v="495"/>
    <tag k="addr:street" v="U.S. Route 5"/>
    <tag k="addr:state" v="VT"/>
    <tag k="ref:vcgi:esiteid" v="254575"/>
  </node>
  <node id="-346" visible="true" lat="44.64298629" lon="-71.9885559">
    <tag k="addr:housenumber" v="222"/>
    <tag k="addr:street" v="U.S. Route 5"/>
    <tag k="addr:state" v="VT"/>
    <tag k="ref:vcgi:esiteid" v="254576"/>
  </node>
  <node id="-348" visible="true" lat="44.64229452" lon="-71.98797835">
    <tag k="addr:housenumber" v="129"/>
    <tag k="addr:street" v="U.S. Route 5"/>
    <tag k="addr:state" v="VT"/>
    <tag k="ref:vcgi:esiteid" v="254578"/>
  </node>
  <node id="-351" visible="true" lat="44.64164343" lon="-72.04037968">
    <tag k="addr:housenumber" v="183"/>
    <tag k="addr:street" v="Craig Pond Road"/>
    <tag k="addr:state" v="VT"/>
    <tag k="ref:vcgi:esiteid" v="254581"/>
  </node>
  <node id="-352" visible="true" lat="44.64136886" lon="-72.04152679">
    <tag k="addr:housenumber" v="230"/>
    <tag k="addr:street" v="Craig Pond Road"/>
    <tag k="addr:state" v="VT"/>
    <tag k="ref:vcgi:esiteid" v="254582"/>
  </node>
  <node id="-354" visible="true" lat="44.64052581" lon="-72.03231811">
    <tag k="addr:housenumber" v="620"/>
    <tag k="addr:street" v="Underpass Road"/>
    <tag k="addr:state" v="VT"/>
    <tag k="ref:vcgi:esiteid" v="254584"/>
  </node>
  <node id="-356" visible="true" lat="44.63985443" lon="-72.03228759">
    <tag k="addr:housenumber" v="579"/>
    <tag k="addr:street" v="Underpass Road"/>
    <tag k="addr:state" v="VT"/>
    <tag k="ref:vcgi:esiteid" v="254586"/>
  </node>
  <node id="-359" visible="true" lat="44.63667943" lon="-72.0300285">
    <tag k="addr:housenumber" v="335"/>
    <tag k="addr:street" v="Underpass Road"/>
    <tag k="addr:state" v="VT"/>
    <tag k="ref:vcgi:esiteid" v="254590"/>
  </node>
  <node id="-360" visible="true" lat="44.63665265" lon="-72.05572377">
    <tag k="addr:housenumber" v="26"/>
    <tag k="addr:street" v="Wood Hill Road"/>
    <tag k="addr:state" v="VT"/>
    <tag k="ref:vcgi:esiteid" v="254591"/>
  </node>
  <node id="-361" visible="true" lat="44.63593292" lon="-72.05771637">
    <tag k="addr:housenumber" v="144"/>
    <tag k="addr:street" v="Wood Hill Road"/>
    <tag k="addr:state" v="VT"/>
    <tag k="ref:vcgi:esiteid" v="254592"/>
  </node>
  <node id="-362" visible="true" lat="44.63526362" lon="-72.04338657">
    <tag k="addr:housenumber" v="852"/>
    <tag k="addr:street" v="Sheffield Road"/>
    <tag k="addr:state" v="VT"/>
    <tag k="ref:vcgi:esiteid" v="254593"/>
  </node>
  <node id="-363" visible="true" lat="44.63470966" lon="-72.02854717">
    <tag k="addr:housenumber" v="167"/>
    <tag k="addr:street" v="Underpass Road"/>
    <tag k="addr:state" v="VT"/>
    <tag k="ref:vcgi:esiteid" v="254594"/>
  </node>
  <node id="-364" visible="true" lat="44.63378365" lon="-72.04264151">
    <tag k="addr:housenumber" v="799"/>
    <tag k="addr:street" v="Sheffield Road"/>
    <tag k="addr:state" v="VT"/>
    <tag k="ref:vcgi:esiteid" v="254595"/>
  </node>
  <node id="-366" visible="true" lat="44.63369619" lon="-72.0404647">
    <tag k="addr:housenumber" v="694"/>
    <tag k="addr:street" v="Sheffield Road"/>
    <tag k="addr:state" v="VT"/>
    <tag k="ref:vcgi:esiteid" v="254597"/>
  </node>
  <node id="-369" visible="true" lat="44.63328933" lon="-72.0257492">
    <tag k="addr:housenumber" v="27"/>
    <tag k="addr:street" v="Burke Road"/>
    <tag k="addr:state" v="VT"/>
    <tag k="ref:vcgi:esiteid" v="254600"/>
  </node>
  <node id="-370" visible="true" lat="44.63313944" lon="-72.04150271">
    <tag k="addr:housenumber" v="723"/>
    <tag k="addr:street" v="Sheffield Road"/>
    <tag k="addr:state" v="VT"/>
    <tag k="ref:vcgi:esiteid" v="254601"/>
  </node>
  <node id="-371" visible="true" lat="44.63327524" lon="-72.02540508">
    <tag k="addr:housenumber" v="41"/>
    <tag k="addr:street" v="Burke Road"/>
    <tag k="addr:state" v="VT"/>
    <tag k="ref:vcgi:esiteid" v="254602"/>
  </node>
  <node id="-372" visible="true" lat="44.63320328" lon="-72.02461614">
    <tag k="addr:housenumber" v="75"/>
    <tag k="addr:street" v="Burke Road"/>
    <tag k="addr:state" v="VT"/>
    <tag k="ref:vcgi:esiteid" v="254603"/>
  </node>
  <node id="-373" visible="true" lat="44.63296809" lon="-72.02579743">
    <tag k="addr:housenumber" v="34"/>
    <tag k="addr:street" v="Burke Road"/>
    <tag k="addr:state" v="VT"/>
    <tag k="ref:vcgi:esiteid" v="254604"/>
  </node>
  <node id="-374" visible="true" lat="44.63295306" lon="-72.01989907">
    <tag k="addr:housenumber" v="301"/>
    <tag k="addr:street" v="Burke Road"/>
    <tag k="addr:state" v="VT"/>
    <tag k="ref:vcgi:esiteid" v="254605"/>
  </node>
  <node id="-375" visible="true" lat="44.63284355" lon="-72.02516655">
    <tag k="addr:housenumber" v="64"/>
    <tag k="addr:street" v="Burke Road"/>
    <tag k="addr:state" v="VT"/>
    <tag k="ref:vcgi:esiteid" v="254606"/>
  </node>
  <node id="-376" visible="true" lat="44.63284059" lon="-72.02469898">
    <tag k="addr:housenumber" v="88"/>
    <tag k="addr:street" v="Burke Road"/>
    <tag k="addr:state" v="VT"/>
    <tag k="ref:vcgi:esiteid" v="254607"/>
  </node>
  <node id="-377" visible="true" lat="44.63285899" lon="-72.02627398">
    <tag k="addr:housenumber" v="4546"/>
    <tag k="addr:street" v="Calendar Brook Road"/>
    <tag k="addr:state" v="VT"/>
    <tag k="ref:vcgi:esiteid" v="254608"/>
  </node>
  <node id="-378" visible="true" lat="44.6327095" lon="-72.03806304">
    <tag k="addr:housenumber" v="559"/>
    <tag k="addr:street" v="Sheffield Road"/>
    <tag k="addr:state" v="VT"/>
    <tag k="ref:vcgi:esiteid" v="254611"/>
  </node>
  <node id="-379" visible="true" lat="44.63274383" lon="-72.06127166">
    <tag k="addr:housenumber" v="415"/>
    <tag k="addr:street" v="Wood Hill Road"/>
    <tag k="addr:state" v="VT"/>
    <tag k="ref:vcgi:esiteid" v="254612"/>
  </node>
  <node id="-380" visible="true" lat="44.63257444" lon="-72.02622876">
    <tag k="addr:housenumber" v="4522"/>
    <tag k="addr:street" v="Calendar Brook Road"/>
    <tag k="addr:state" v="VT"/>
    <tag k="ref:vcgi:esiteid" v="254613"/>
  </node>
  <node id="-381" visible="true" lat="44.63242247" lon="-72.01942446">
    <tag k="addr:housenumber" v="349"/>
    <tag k="addr:street" v="Burke Road"/>
    <tag k="addr:state" v="VT"/>
    <tag k="ref:vcgi:esiteid" v="254614"/>
  </node>
  <node id="-382" visible="true" lat="44.63254213" lon="-72.03556274">
    <tag k="addr:housenumber" v="434"/>
    <tag k="addr:street" v="Sheffield Road"/>
    <tag k="addr:state" v="VT"/>
    <tag k="ref:vcgi:esiteid" v="254615"/>
  </node>
  <node id="-383" visible="true" lat="44.63241436" lon="-72.02686662">
    <tag k="addr:housenumber" v="16"/>
    <tag k="addr:street" v="Center Street"/>
    <tag k="addr:state" v="VT"/>
    <tag k="ref:vcgi:esiteid" v="254616"/>
  </node>
  <node id="-385" visible="true" lat="44.63231192" lon="-72.02364695">
    <tag k="addr:housenumber" v="146"/>
    <tag k="addr:street" v="Burke Road"/>
    <tag k="addr:state" v="VT"/>
    <tag k="ref:vcgi:esiteid" v="254618"/>
  </node>
  <node id="-386" visible="true" lat="44.632224" lon="-72.01817295">
    <tag k="addr:housenumber" v="411"/>
    <tag k="addr:street" v="Burke Road"/>
    <tag k="addr:state" v="VT"/>
    <tag k="ref:vcgi:esiteid" v="254619"/>
  </node>
  <node id="-387" visible="true" lat="44.63171111" lon="-72.01836558">
    <tag k="addr:housenumber" v="394"/>
    <tag k="addr:street" v="Burke Road"/>
    <tag k="addr:state" v="VT"/>
    <tag k="ref:vcgi:esiteid" v="254620"/>
  </node>
  <node id="-388" visible="true" lat="44.63201522" lon="-72.02657318">
    <tag k="addr:housenumber" v="45"/>
    <tag k="addr:street" v="Center Street"/>
    <tag k="addr:state" v="VT"/>
    <tag k="ref:vcgi:esiteid" v="254621"/>
  </node>
  <node id="-389" visible="true" lat="44.63192825" lon="-72.02704">
    <tag k="addr:housenumber" v="50"/>
    <tag k="addr:street" v="Center Street"/>
    <tag k="addr:state" v="VT"/>
    <tag k="ref:vcgi:esiteid" v="254622"/>
  </node>
  <node id="-390" visible="true" lat="44.63154229" lon="-72.03521488">
    <tag k="addr:housenumber" v="407"/>
    <tag k="addr:street" v="Sheffield Road"/>
    <tag k="addr:state" v="VT"/>
    <tag k="ref:vcgi:esiteid" v="254623"/>
  </node>
  <node id="-391" visible="true" lat="44.63157272" lon="-72.00845336">
    <tag k="addr:housenumber" v="885"/>
    <tag k="addr:street" v="Burke Road"/>
    <tag k="addr:state" v="VT"/>
    <tag k="ref:vcgi:esiteid" v="254624"/>
  </node>
  <node id="-392" visible="true" lat="44.63169008" lon="-72.02619404">
    <tag k="addr:housenumber" v="4459"/>
    <tag k="addr:street" v="Calendar Brook Road"/>
    <tag k="addr:state" v="VT"/>
    <tag k="ref:vcgi:esiteid" v="254625"/>
  </node>
  <node id="-393" visible="true" lat="44.63120844" lon="-72.03255519">
    <tag k="addr:housenumber" v="277"/>
    <tag k="addr:street" v="Sheffield Road"/>
    <tag k="addr:state" v="VT"/>
    <tag k="ref:vcgi:esiteid" v="254626"/>
  </node>
  <node id="-395" visible="true" lat="44.63134002" lon="-72.02607727">
    <tag k="addr:housenumber" v="4439"/>
    <tag k="addr:street" v="Calendar Brook Road"/>
    <tag k="addr:state" v="VT"/>
    <tag k="ref:vcgi:esiteid" v="254628"/>
  </node>
  <node id="-396" visible="true" lat="44.6311597" lon="-72.02671774">
    <tag k="addr:housenumber" v="105"/>
    <tag k="addr:street" v="Center Street"/>
    <tag k="addr:state" v="VT"/>
    <tag k="ref:vcgi:esiteid" v="254629"/>
  </node>
  <node id="-397" visible="true" lat="44.63100339" lon="-72.03019481">
    <tag k="addr:housenumber" v="135"/>
    <tag k="addr:street" v="Sheffield Road"/>
    <tag k="addr:state" v="VT"/>
    <tag k="ref:vcgi:esiteid" v="254630"/>
  </node>
  <node id="-398" visible="true" lat="44.63079483" lon="-72.02685042">
    <tag k="addr:housenumber" v="125"/>
    <tag k="addr:street" v="Center Street"/>
    <tag k="addr:state" v="VT"/>
    <tag k="ref:vcgi:esiteid" v="254631"/>
  </node>
  <node id="-399" visible="true" lat="44.63061109" lon="-72.02584894">
    <tag k="addr:housenumber" v="36"/>
    <tag k="addr:street" v="Church Street"/>
    <tag k="addr:state" v="VT"/>
    <tag k="ref:vcgi:esiteid" v="254632"/>
  </node>
  <node id="-400" visible="true" lat="44.63031249" lon="-72.02760804">
    <tag k="addr:housenumber" v="22"/>
    <tag k="addr:street" v="Wheelock Road"/>
    <tag k="addr:state" v="VT"/>
    <tag k="ref:vcgi:esiteid" v="254633"/>
  </node>
  <node id="-401" visible="true" lat="44.63019089" lon="-72.02673393">
    <tag k="addr:housenumber" v="77"/>
    <tag k="addr:street" v="Church Street"/>
    <tag k="addr:state" v="VT"/>
    <tag k="ref:vcgi:esiteid" v="254634"/>
  </node>
  <node id="-403" visible="true" lat="44.63005762" lon="-72.06467823">
    <tag k="addr:housenumber" v="694"/>
    <tag k="addr:street" v="Wood Hill Road"/>
    <tag k="addr:state" v="VT"/>
    <tag k="ref:vcgi:esiteid" v="254636"/>
  </node>
  <node id="-404" visible="true" lat="44.62968826" lon="-72.02525329">
    <tag k="addr:housenumber" v="4317"/>
    <tag k="addr:street" v="Calendar Brook Road"/>
    <tag k="addr:state" v="VT"/>
    <tag k="ref:vcgi:esiteid" v="254637"/>
  </node>
  <node id="-406" visible="true" lat="44.62945261" lon="-72.02685871">
    <tag k="addr:housenumber" v="79"/>
    <tag k="addr:street" v="Wheelock Road"/>
    <tag k="addr:state" v="VT"/>
    <tag k="ref:vcgi:esiteid" v="254639"/>
  </node>
  <node id="-408" visible="true" lat="44.62919912" lon="-72.02887856">
    <tag k="addr:housenumber" v="126"/>
    <tag k="addr:street" v="Wheelock Road"/>
    <tag k="addr:state" v="VT"/>
    <tag k="ref:vcgi:esiteid" v="254641"/>
  </node>
  <node id="-409" visible="true" lat="44.62889838" lon="-72.0249766">
    <tag k="addr:housenumber" v="4253"/>
    <tag k="addr:street" v="Calendar Brook Road"/>
    <tag k="addr:state" v="VT"/>
    <tag k="ref:vcgi:esiteid" v="254642"/>
  </node>
  <node id="-410" visible="true" lat="44.62894976" lon="-72.06375165">
    <tag k="addr:housenumber" v="779"/>
    <tag k="addr:street" v="Wood Hill Road"/>
    <tag k="addr:state" v="VT"/>
    <tag k="ref:vcgi:esiteid" v="254643"/>
  </node>
  <node id="-414" visible="true" lat="44.62846374" lon="-72.02404022">
    <tag k="addr:housenumber" v="4216"/>
    <tag k="addr:street" v="Calendar Brook Road"/>
    <tag k="addr:state" v="VT"/>
    <tag k="ref:vcgi:esiteid" v="254647"/>
  </node>
  <node id="-415" visible="true" lat="44.62815562" lon="-72.02457369">
    <tag k="addr:housenumber" v="4211"/>
    <tag k="addr:street" v="Calendar Brook Road"/>
    <tag k="addr:state" v="VT"/>
    <tag k="ref:vcgi:esiteid" v="254648"/>
  </node>
  <node id="-418" visible="true" lat="44.62717056" lon="-72.02236175">
    <tag k="addr:housenumber" v="4062"/>
    <tag k="addr:street" v="Calendar Brook Road"/>
    <tag k="addr:state" v="VT"/>
    <tag k="ref:vcgi:esiteid" v="254651"/>
  </node>
  <node id="-419" visible="true" lat="44.62697982" lon="-72.02359008">
    <tag k="addr:housenumber" v="4113"/>
    <tag k="addr:street" v="Calendar Brook Road"/>
    <tag k="addr:state" v="VT"/>
    <tag k="ref:vcgi:esiteid" v="254652"/>
  </node>
  <node id="-420" visible="true" lat="44.62615348" lon="-72.02188108">
    <tag k="addr:housenumber" v="4054"/>
    <tag k="addr:street" v="Calendar Brook Road"/>
    <tag k="addr:state" v="VT"/>
    <tag k="ref:vcgi:esiteid" v="254653"/>
  </node>
  <node id="-424" visible="true" lat="44.62488937" lon="-72.02508544">
    <tag k="addr:housenumber" v="3903"/>
    <tag k="addr:street" v="Calendar Brook Road"/>
    <tag k="addr:state" v="VT"/>
    <tag k="ref:vcgi:esiteid" v="254657"/>
  </node>
  <node id="-425" visible="true" lat="44.62478787" lon="-72.02240192">
    <tag k="addr:housenumber" v="3948"/>
    <tag k="addr:street" v="Calendar Brook Road"/>
    <tag k="addr:state" v="VT"/>
    <tag k="ref:vcgi:esiteid" v="254658"/>
  </node>
  <node id="-428" visible="true" lat="44.62365059" lon="-72.02199435">
    <tag k="addr:housenumber" v="3860"/>
    <tag k="addr:street" v="Calendar Brook Road"/>
    <tag k="addr:state" v="VT"/>
    <tag k="ref:vcgi:esiteid" v="254661"/>
  </node>
  <node id="-430" visible="true" lat="44.62294942" lon="-72.02131138">
    <tag k="addr:housenumber" v="3792"/>
    <tag k="addr:street" v="Calendar Brook Road"/>
    <tag k="addr:state" v="VT"/>
    <tag k="ref:vcgi:esiteid" v="254663"/>
  </node>
  <node id="-431" visible="true" lat="44.62269074" lon="-72.02074371">
    <tag k="addr:housenumber" v="3766"/>
    <tag k="addr:street" v="Calendar Brook Road"/>
    <tag k="addr:state" v="VT"/>
    <tag k="ref:vcgi:esiteid" v="254664"/>
  </node>
  <node id="-433" visible="true" lat="44.62211637" lon="-72.02093466">
    <tag k="addr:housenumber" v="3745"/>
    <tag k="addr:street" v="Calendar Brook Road"/>
    <tag k="addr:state" v="VT"/>
    <tag k="ref:vcgi:esiteid" v="254666"/>
  </node>
  <node id="-436" visible="true" lat="44.62117129" lon="-72.01789995">
    <tag k="addr:housenumber" v="3588"/>
    <tag k="addr:street" v="Calendar Brook Road"/>
    <tag k="addr:state" v="VT"/>
    <tag k="ref:vcgi:esiteid" v="254669"/>
  </node>
  <node id="-438" visible="true" lat="44.62076376" lon="-72.01830895">
    <tag k="addr:housenumber" v="3577"/>
    <tag k="addr:street" v="Calendar Brook Road"/>
    <tag k="addr:state" v="VT"/>
    <tag k="ref:vcgi:esiteid" v="254671"/>
  </node>
  <node id="-439" visible="true" lat="44.62068356" lon="-72.01678827">
    <tag k="addr:housenumber" v="3530"/>
    <tag k="addr:street" v="Calendar Brook Road"/>
    <tag k="addr:state" v="VT"/>
    <tag k="ref:vcgi:esiteid" v="254672"/>
  </node>
  <node id="-447" visible="true" lat="44.61883496" lon="-72.01628551">
    <tag k="addr:housenumber" v="5463"/>
    <tag k="addr:street" v="Pudding Hill Road"/>
    <tag k="addr:state" v="VT"/>
    <tag k="ref:vcgi:esiteid" v="254680"/>
  </node>
  <node id="-451" visible="true" lat="44.61755196" lon="-72.01107606">
    <tag k="addr:housenumber" v="3172"/>
    <tag k="addr:street" v="Calendar Brook Road"/>
    <tag k="addr:state" v="VT"/>
    <tag k="ref:vcgi:esiteid" v="254684"/>
  </node>
  <node id="-454" visible="true" lat="44.61648681" lon="-72.01084924">
    <tag k="addr:housenumber" v="3098"/>
    <tag k="addr:street" v="Calendar Brook Road"/>
    <tag k="addr:state" v="VT"/>
    <tag k="ref:vcgi:esiteid" v="254687"/>
  </node>
  <node id="-465" visible="true" lat="44.61222066" lon="-72.00598045">
    <tag k="addr:housenumber" v="2720"/>
    <tag k="addr:street" v="Calendar Brook Road"/>
    <tag k="addr:state" v="VT"/>
    <tag k="ref:vcgi:esiteid" v="254698"/>
  </node>
  <node id="-469" visible="true" lat="44.61065744" lon="-72.00304968">
    <tag k="addr:housenumber" v="2506"/>
    <tag k="addr:street" v="Calendar Brook Road"/>
    <tag k="addr:state" v="VT"/>
    <tag k="ref:vcgi:esiteid" v="254702"/>
  </node>
  <node id="-473" visible="true" lat="44.60963199" lon="-72.00247087">
    <tag k="addr:housenumber" v="2460"/>
    <tag k="addr:street" v="Calendar Brook Road"/>
    <tag k="addr:state" v="VT"/>
    <tag k="ref:vcgi:esiteid" v="254706"/>
  </node>
  <node id="-476" visible="true" lat="44.60949202" lon="-72.00495524">
    <tag k="addr:housenumber" v="2543"/>
    <tag k="addr:street" v="Calendar Brook Road"/>
    <tag k="addr:state" v="VT"/>
    <tag k="ref:vcgi:esiteid" v="254709"/>
  </node>
  <node id="-477" visible="true" lat="44.60943794" lon="-72.00189778">
    <tag k="addr:housenumber" v="2426"/>
    <tag k="addr:street" v="Calendar Brook Road"/>
    <tag k="addr:state" v="VT"/>
    <tag k="ref:vcgi:esiteid" v="254710"/>
  </node>
  <node id="-478" visible="true" lat="44.60898" lon="-71.99960524">
    <tag k="addr:housenumber" v="2296"/>
    <tag k="addr:street" v="Calendar Brook Road"/>
    <tag k="addr:state" v="VT"/>
    <tag k="ref:vcgi:esiteid" v="254711"/>
  </node>
  <node id="-479" visible="true" lat="44.60805892" lon="-71.9967041">
    <tag k="addr:housenumber" v="1489"/>
    <tag k="addr:street" v="Simpson Hill"/>
    <tag k="addr:state" v="VT"/>
    <tag k="ref:vcgi:esiteid" v="254712"/>
  </node>
  <node id="-481" visible="true" lat="44.60771013" lon="-71.99860635">
    <tag k="addr:housenumber" v="2214"/>
    <tag k="addr:street" v="Calendar Brook Road"/>
    <tag k="addr:state" v="VT"/>
    <tag k="ref:vcgi:esiteid" v="254714"/>
  </node>
  <node id="-482" visible="true" lat="44.60727567" lon="-72.00075972">
    <tag k="addr:housenumber" v="92"/>
    <tag k="addr:street" v="Fiddlehead Lane"/>
    <tag k="addr:state" v="VT"/>
    <tag k="ref:vcgi:esiteid" v="254715"/>
  </node>
  <node id="-483" visible="true" lat="44.60712094" lon="-72.00008059">
    <tag k="addr:housenumber" v="46"/>
    <tag k="addr:street" v="Fiddlehead Lane"/>
    <tag k="addr:state" v="VT"/>
    <tag k="ref:vcgi:esiteid" v="254716"/>
  </node>
  <node id="-484" visible="true" lat="44.60670197" lon="-72.00104927">
    <tag k="addr:housenumber" v="110"/>
    <tag k="addr:street" v="Fiddlehead Lane"/>
    <tag k="addr:state" v="VT"/>
    <tag k="ref:vcgi:esiteid" v="254717"/>
  </node>
  <node id="-485" visible="true" lat="44.60672575" lon="-71.99905001">
    <tag k="addr:housenumber" v="25"/>
    <tag k="addr:street" v="Fiddlehead Lane"/>
    <tag k="addr:state" v="VT"/>
    <tag k="ref:vcgi:esiteid" v="254718"/>
  </node>
  <node id="-517" visible="true" lat="44.6345463" lon="-72.02646132">
    <tag k="addr:housenumber" v="99"/>
    <tag k="addr:street" v="Station Road"/>
    <tag k="addr:state" v="VT"/>
    <tag k="ref:vcgi:esiteid" v="254750"/>
  </node>
  <node id="-519" visible="true" lat="44.67929762" lon="-72.03058699">
    <tag k="addr:housenumber" v="3736"/>
    <tag k="addr:street" v="U.S. Route 5"/>
    <tag k="addr:state" v="VT"/>
    <tag k="ref:vcgi:esiteid" v="254752"/>
  </node>
  <node id="-521" visible="true" lat="44.69553851" lon="-72.08452878">
    <tag k="addr:housenumber" v="6717"/>
    <tag k="addr:street" v="U.S. Route 5"/>
    <tag k="addr:state" v="VT"/>
    <tag k="ref:vcgi:esiteid" v="254754"/>
  </node>
  <node id="-523" visible="true" lat="44.61707526" lon="-72.01338375">
    <tag k="addr:housenumber" v="132"/>
    <tag k="addr:street" v="Dexter Road"/>
    <tag k="addr:state" v="VT"/>
    <tag k="ref:vcgi:esiteid" v="254756"/>
  </node>
  <node id="-524" visible="true" lat="44.694315" lon="-72.07737194">
    <tag k="addr:housenumber" v="5181"/>
    <tag k="addr:street" v="Underpass Road"/>
    <tag k="addr:state" v="VT"/>
    <tag k="ref:vcgi:esiteid" v="254757"/>
  </node>
  <node id="-525" visible="true" lat="44.69312728" lon="-72.07141405">
    <tag k="addr:housenumber" v="4948"/>
    <tag k="addr:street" v="Underpass Road"/>
    <tag k="addr:state" v="VT"/>
    <tag k="ref:vcgi:esiteid" v="254758"/>
  </node>
  <node id="-526" visible="true" lat="44.60559312" lon="-71.99992427">
    <tag k="addr:housenumber" v="111"/>
    <tag k="addr:street" v="Fiddlehead Lane"/>
    <tag k="addr:state" v="VT"/>
    <tag k="ref:vcgi:esiteid" v="254759"/>
  </node>
  <node id="-531" visible="true" lat="44.67812636" lon="-72.03075529">
    <tag k="addr:housenumber" v="3624"/>
    <tag k="addr:street" v="U.S. Route 5"/>
    <tag k="addr:state" v="VT"/>
    <tag k="ref:vcgi:esiteid" v="254765"/>
  </node>
  <node id="-532" visible="true" lat="44.62542679" lon="-72.02354414">
    <tag k="addr:housenumber" v="25"/>
    <tag k="addr:street" v="Sutton Hollow"/>
    <tag k="addr:state" v="VT"/>
    <tag k="ref:vcgi:esiteid" v="254766"/>
  </node>
  <node id="-545" visible="true" lat="44.63411216" lon="-72.04562552">
    <tag k="addr:housenumber" v="935"/>
    <tag k="addr:street" v="Sheffield Road"/>
    <tag k="addr:state" v="VT"/>
    <tag k="ref:vcgi:esiteid" v="254780"/>
  </node>
  <node id="-547" visible="true" lat="44.60050155" lon="-72.05807209">
    <tag k="addr:housenumber" v="1640"/>
    <tag k="addr:street" v="Sutton Road"/>
    <tag k="addr:state" v="VT"/>
    <tag k="ref:vcgi:esiteid" v="285634"/>
  </node>
  <node id="-548" visible="true" lat="44.65387689" lon="-72.01051342">
    <tag k="addr:housenumber" v="1648"/>
    <tag k="addr:street" v="U.S. Route 5"/>
    <tag k="addr:state" v="VT"/>
    <tag k="ref:vcgi:esiteid" v="316703"/>
  </node>
  <node id="-549" visible="true" lat="44.65650836" lon="-72.00866833">
    <tag k="addr:housenumber" v="1678"/>
    <tag k="addr:street" v="U.S. Route 5"/>
    <tag k="addr:state" v="VT"/>
    <tag k="ref:vcgi:esiteid" v="326726"/>
  </node>
  <node id="-595" visible="true" lat="44.63152032" lon="-72.0124688">
    <tag k="addr:housenumber" v="691"/>
    <tag k="addr:street" v="Burke Road"/>
    <tag k="addr:state" v="VT"/>
    <tag k="ref:vcgi:esiteid" v="750453"/>
  </node>
</osm>
