<?xml version="1.0" encoding="UTF-8"?>
<osm version="0.6" generator="JOSM" upload="false">
  <node id="-100" visible="true" lat="44.59168574" lon="-72.00272876">
    <tag k="addr:housenumber" v="420"/>
    <tag k="addr:street" v="Steendom Lane"/>
    <tag k="addr:state" v="VT"/>
    <tag k="ref:vcgi:esiteid" v="254323"/>
  </node>
  <node id="-101" visible="true" lat="44.72677817" lon="-72.09738539">
    <tag k="addr:housenumber" v="752"/>
    <tag k="addr:street" v="Wheeler Mountain Road"/>
    <tag k="addr:state" v="VT"/>
    <tag k="ref:vcgi:esiteid" v="254324"/>
  </node>
  <node id="-102" visible="true" lat="44.7261407" lon="-72.09840751">
    <tag k="addr:housenumber" v="684"/>
    <tag k="addr:street" v="Wheeler Mountain Road"/>
    <tag k="addr:state" v="VT"/>
    <tag k="ref:vcgi:esiteid" v="254325"/>
  </node>
  <node id="-103" visible="true" lat="44.69929121" lon="-72.08383959">
    <tag k="addr:housenumber" v="7008"/>
    <tag k="addr:street" v="U.S. Route 5"/>
    <tag k="addr:state" v="VT"/>
    <tag k="ref:vcgi:esiteid" v="254326"/>
  </node>
  <node id="-111" visible="true" lat="44.69584274" lon="-72.02056121">
    <tag k="addr:housenumber" v="912"/>
    <tag k="addr:street" v="Dolloff Pond Road"/>
    <tag k="addr:state" v="VT"/>
    <tag k="ref:vcgi:esiteid" v="254334"/>
  </node>
  <node id="-112" visible="true" lat="44.69466018" lon="-72.02398681">
    <tag k="addr:housenumber" v="910"/>
    <tag k="addr:street" v="Dolloff Pond Road"/>
    <tag k="addr:state" v="VT"/>
    <tag k="ref:vcgi:esiteid" v="254336"/>
  </node>
  <node id="-114" visible="true" lat="44.69385147" lon="-72.05895233">
    <tag k="addr:housenumber" v="359"/>
    <tag k="addr:street" v="Marl Pond Road"/>
    <tag k="addr:state" v="VT"/>
    <tag k="ref:vcgi:esiteid" v="254338"/>
  </node>
  <node id="-115" visible="true" lat="44.69223403" lon="-72.05750274">
    <tag k="addr:housenumber" v="106"/>
    <tag k="addr:street" v="Marl Pond Road"/>
    <tag k="addr:state" v="VT"/>
    <tag k="ref:vcgi:esiteid" v="254340"/>
  </node>
  <node id="-118" visible="true" lat="44.69162369" lon="-71.99902344">
    <tag k="addr:housenumber" v="3815"/>
    <tag k="addr:street" v="Vermont Route 5A"/>
    <tag k="addr:state" v="VT"/>
    <tag k="ref:vcgi:esiteid" v="254343"/>
  </node>
  <node id="-122" visible="true" lat="44.69035347" lon="-71.99595761">
    <tag k="addr:housenumber" v="147"/>
    <tag k="addr:street" v="Newark Pond Road"/>
    <tag k="addr:state" v="VT"/>
    <tag k="ref:vcgi:esiteid" v="254347"/>
  </node>
  <node id="-123" visible="true" lat="44.68992057" lon="-71.99599158">
    <tag k="addr:housenumber" v="103"/>
    <tag k="addr:street" v="Newark Pond Road"/>
    <tag k="addr:state" v="VT"/>
    <tag k="ref:vcgi:esiteid" v="254348"/>
  </node>
  <node id="-125" visible="true" lat="44.68961716" lon="-71.99472046">
    <tag k="addr:housenumber" v="94"/>
    <tag k="addr:street" v="Rocky Road"/>
    <tag k="addr:state" v="VT"/>
    <tag k="ref:vcgi:esiteid" v="254350"/>
  </node>
  <node id="-134" visible="true" lat="44.68811035" lon="-72.01213073">
    <tag k="addr:housenumber" v="581"/>
    <tag k="addr:street" v="Nygrens Road"/>
    <tag k="addr:state" v="VT"/>
    <tag k="ref:vcgi:esiteid" v="254359"/>
  </node>
  <node id="-137" visible="true" lat="44.68779511" lon="-71.99524464">
    <tag k="addr:housenumber" v="3480"/>
    <tag k="addr:street" v="Vermont Route 5A"/>
    <tag k="addr:state" v="VT"/>
    <tag k="ref:vcgi:esiteid" v="254362"/>
  </node>
  <node id="-138" visible="true" lat="44.68778243" lon="-71.99620787">
    <tag k="addr:housenumber" v="3521"/>
    <tag k="addr:street" v="Vermont Route 5A"/>
    <tag k="addr:state" v="VT"/>
    <tag k="ref:vcgi:esiteid" v="254363"/>
  </node>
  <node id="-139" visible="true" lat="44.68770253" lon="-72.01015929">
    <tag k="addr:housenumber" v="566"/>
    <tag k="addr:street" v="Nygrens Road"/>
    <tag k="addr:state" v="VT"/>
    <tag k="ref:vcgi:esiteid" v="254364"/>
  </node>
  <node id="-151" visible="true" lat="44.68681024" lon="-71.99492065">
    <tag k="addr:housenumber" v="3372"/>
    <tag k="addr:street" v="Vermont Route 5A"/>
    <tag k="addr:state" v="VT"/>
    <tag k="ref:vcgi:esiteid" v="254376"/>
  </node>
  <node id="-152" visible="true" lat="44.68675336" lon="-72.02277093">
    <tag k="addr:housenumber" v="787"/>
    <tag k="addr:street" v="Dolloff Pond Road"/>
    <tag k="addr:state" v="VT"/>
    <tag k="ref:vcgi:esiteid" v="254377"/>
  </node>
  <node id="-154" visible="true" lat="44.68597793" lon="-72.05474853">
    <tag k="addr:housenumber" v="3980"/>
    <tag k="addr:street" v="Underpass Road"/>
    <tag k="addr:state" v="VT"/>
    <tag k="ref:vcgi:esiteid" v="254380"/>
  </node>
  <node id="-155" visible="true" lat="44.68600085" lon="-72.04021871">
    <tag k="addr:housenumber" v="4373"/>
    <tag k="addr:street" v="U.S. Route 5"/>
    <tag k="addr:state" v="VT"/>
    <tag k="ref:vcgi:esiteid" v="254381"/>
  </node>
  <node id="-156" visible="true" lat="44.68538232" lon="-71.99196407">
    <tag k="addr:housenumber" v="358"/>
    <tag k="addr:street" v="Rocky Road"/>
    <tag k="addr:state" v="VT"/>
    <tag k="ref:vcgi:esiteid" v="254382"/>
  </node>
  <node id="-157" visible="true" lat="44.68536107" lon="-71.99516781">
    <tag k="addr:housenumber" v="3308"/>
    <tag k="addr:street" v="Vermont Route 5A"/>
    <tag k="addr:state" v="VT"/>
    <tag k="ref:vcgi:esiteid" v="254383"/>
  </node>
  <node id="-158" visible="true" lat="44.68528366" lon="-72.01165771">
    <tag k="addr:housenumber" v="383"/>
    <tag k="addr:street" v="Nygrens Road"/>
    <tag k="addr:state" v="VT"/>
    <tag k="ref:vcgi:esiteid" v="254384"/>
  </node>
  <node id="-160" visible="true" lat="44.68473816" lon="-71.99501038">
    <tag k="addr:housenumber" v="3264"/>
    <tag k="addr:street" v="Vermont Route 5A"/>
    <tag k="addr:state" v="VT"/>
    <tag k="ref:vcgi:esiteid" v="254386"/>
  </node>
  <node id="-161" visible="true" lat="44.68764188" lon="-72.06040565">
    <tag k="addr:housenumber" v="3911"/>
    <tag k="addr:street" v="Underpass Road"/>
    <tag k="addr:state" v="VT"/>
    <tag k="ref:vcgi:esiteid" v="254387"/>
  </node>
  <node id="-163" visible="true" lat="44.68418812" lon="-71.9860286">
    <tag k="addr:housenumber" v="2354"/>
    <tag k="addr:street" v="East Ridge Road"/>
    <tag k="addr:state" v="VT"/>
    <tag k="ref:vcgi:esiteid" v="254389"/>
  </node>
  <node id="-164" visible="true" lat="44.68455123" lon="-72.05595397">
    <tag k="addr:housenumber" v="3767"/>
    <tag k="addr:street" v="Underpass Road"/>
    <tag k="addr:state" v="VT"/>
    <tag k="ref:vcgi:esiteid" v="254390"/>
  </node>
  <node id="-165" visible="true" lat="44.68407478" lon="-72.01061085">
    <tag k="addr:housenumber" v="358"/>
    <tag k="addr:street" v="Nygrens Road"/>
    <tag k="addr:state" v="VT"/>
    <tag k="ref:vcgi:esiteid" v="254391"/>
  </node>
  <node id="-166" visible="true" lat="44.68435978" lon="-71.99583588">
    <tag k="addr:housenumber" v="3197"/>
    <tag k="addr:street" v="Vermont Route 5A"/>
    <tag k="addr:state" v="VT"/>
    <tag k="ref:vcgi:esiteid" v="254392"/>
  </node>
  <node id="-168" visible="true" lat="44.68324661" lon="-72.0566864">
    <tag k="addr:housenumber" v="3769"/>
    <tag k="addr:street" v="Underpass Road"/>
    <tag k="addr:state" v="VT"/>
    <tag k="ref:vcgi:esiteid" v="254394"/>
  </node>
  <node id="-169" visible="true" lat="44.68248624" lon="-71.98741856">
    <tag k="addr:housenumber" v="2144"/>
    <tag k="addr:street" v="East Ridge Road"/>
    <tag k="addr:state" v="VT"/>
    <tag k="ref:vcgi:esiteid" v="254395"/>
  </node>
  <node id="-170" visible="true" lat="44.68238067" lon="-72.02003478">
    <tag k="addr:housenumber" v="457"/>
    <tag k="addr:street" v="Dolloff Pond Road"/>
    <tag k="addr:state" v="VT"/>
    <tag k="ref:vcgi:esiteid" v="254396"/>
  </node>
  <node id="-171" visible="true" lat="44.68219757" lon="-72.01255798">
    <tag k="addr:housenumber" v="165"/>
    <tag k="addr:street" v="Nygrens Road"/>
    <tag k="addr:state" v="VT"/>
    <tag k="ref:vcgi:esiteid" v="254397"/>
  </node>
  <node id="-172" visible="true" lat="44.68165969" lon="-72.05373382">
    <tag k="addr:housenumber" v="3639"/>
    <tag k="addr:street" v="Underpass Road"/>
    <tag k="addr:state" v="VT"/>
    <tag k="ref:vcgi:esiteid" v="254398"/>
  </node>
  <node id="-173" visible="true" lat="44.68141174" lon="-72.01932525">
    <tag k="addr:housenumber" v="388"/>
    <tag k="addr:street" v="Dolloff Pond Road"/>
    <tag k="addr:state" v="VT"/>
    <tag k="ref:vcgi:esiteid" v="254399"/>
  </node>
  <node id="-174" visible="true" lat="44.68088977" lon="-72.05894336">
    <tag k="addr:housenumber" v="425"/>
    <tag k="addr:street" v="Ernie Evans Road"/>
    <tag k="addr:state" v="VT"/>
    <tag k="ref:vcgi:esiteid" v="254400"/>
  </node>
  <node id="-175" visible="true" lat="44.68059921" lon="-72.01308441">
    <tag k="addr:housenumber" v="51"/>
    <tag k="addr:street" v="Nygrens Road"/>
    <tag k="addr:state" v="VT"/>
    <tag k="ref:vcgi:esiteid" v="254401"/>
  </node>
  <node id="-176" visible="true" lat="44.6797852" lon="-71.99460039">
    <tag k="addr:housenumber" v="2920"/>
    <tag k="addr:street" v="Vermont Route 5A"/>
    <tag k="addr:state" v="VT"/>
    <tag k="ref:vcgi:esiteid" v="254402"/>
  </node>
  <node id="-177" visible="true" lat="44.68033966" lon="-71.99577284">
    <tag k="addr:housenumber" v="2929"/>
    <tag k="addr:street" v="Vermont Route 5A"/>
    <tag k="addr:state" v="VT"/>
    <tag k="ref:vcgi:esiteid" v="254403"/>
  </node>
  <node id="-178" visible="true" lat="44.67965316" lon="-72.01959991">
    <tag k="addr:housenumber" v="266"/>
    <tag k="addr:street" v="Dolloff Pond Road"/>
    <tag k="addr:state" v="VT"/>
    <tag k="ref:vcgi:esiteid" v="254404"/>
  </node>
  <node id="-179" visible="true" lat="44.67941284" lon="-72.05967712">
    <tag k="addr:housenumber" v="351"/>
    <tag k="addr:street" v="Ernie Evans Road"/>
    <tag k="addr:state" v="VT"/>
    <tag k="ref:vcgi:esiteid" v="254405"/>
  </node>
  <node id="-180" visible="true" lat="44.67907714" lon="-72.00904846">
    <tag k="addr:housenumber" v="3038"/>
    <tag k="addr:street" v="North Ridge Road"/>
    <tag k="addr:state" v="VT"/>
    <tag k="ref:vcgi:esiteid" v="254406"/>
  </node>
  <node id="-181" visible="true" lat="44.67904628" lon="-71.99497015">
    <tag k="addr:housenumber" v="2870"/>
    <tag k="addr:street" v="Vermont Route 5A"/>
    <tag k="addr:state" v="VT"/>
    <tag k="ref:vcgi:esiteid" v="254407"/>
  </node>
  <node id="-182" visible="true" lat="44.67908859" lon="-72.05270385">
    <tag k="addr:housenumber" v="3491"/>
    <tag k="addr:street" v="Underpass Road"/>
    <tag k="addr:state" v="VT"/>
    <tag k="ref:vcgi:esiteid" v="254408"/>
  </node>
  <node id="-183" visible="true" lat="44.67858505" lon="-71.98653412">
    <tag k="addr:housenumber" v="1895"/>
    <tag k="addr:street" v="East Ridge Road"/>
    <tag k="addr:state" v="VT"/>
    <tag k="ref:vcgi:esiteid" v="254409"/>
  </node>
  <node id="-184" visible="true" lat="44.67859268" lon="-71.9936676">
    <tag k="addr:housenumber" v="2794"/>
    <tag k="addr:street" v="Vermont Route 5A"/>
    <tag k="addr:state" v="VT"/>
    <tag k="ref:vcgi:esiteid" v="254410"/>
  </node>
  <node id="-185" visible="true" lat="44.67812181" lon="-72.00411043">
    <tag k="addr:housenumber" v="526"/>
    <tag k="addr:street" v="Sargents Road"/>
    <tag k="addr:state" v="VT"/>
    <tag k="ref:vcgi:esiteid" v="254411"/>
  </node>
  <node id="-186" visible="true" lat="44.67744446" lon="-71.98620605">
    <tag k="addr:housenumber" v="1821"/>
    <tag k="addr:street" v="East Ridge Road"/>
    <tag k="addr:state" v="VT"/>
    <tag k="ref:vcgi:esiteid" v="254412"/>
  </node>
  <node id="-187" visible="true" lat="44.67751693" lon="-72.00622558">
    <tag k="addr:housenumber" v="2855"/>
    <tag k="addr:street" v="North Ridge Road"/>
    <tag k="addr:state" v="VT"/>
    <tag k="ref:vcgi:esiteid" v="254413"/>
  </node>
  <node id="-188" visible="true" lat="44.67677257" lon="-71.99576813">
    <tag k="addr:housenumber" v="2715"/>
    <tag k="addr:street" v="Vermont Route 5A"/>
    <tag k="addr:state" v="VT"/>
    <tag k="ref:vcgi:esiteid" v="254414"/>
  </node>
  <node id="-189" visible="true" lat="44.6767311" lon="-72.0547409">
    <tag k="addr:housenumber" v="3391"/>
    <tag k="addr:street" v="Underpass Road"/>
    <tag k="addr:state" v="VT"/>
    <tag k="ref:vcgi:esiteid" v="254415"/>
  </node>
  <node id="-190" visible="true" lat="44.67661285" lon="-72.05130767">
    <tag k="addr:housenumber" v="3310"/>
    <tag k="addr:street" v="Underpass Road"/>
    <tag k="addr:state" v="VT"/>
    <tag k="ref:vcgi:esiteid" v="254416"/>
  </node>
  <node id="-191" visible="true" lat="44.67626363" lon="-71.99579887">
    <tag k="addr:housenumber" v="2705"/>
    <tag k="addr:street" v="Vermont Route 5A"/>
    <tag k="addr:state" v="VT"/>
    <tag k="ref:vcgi:esiteid" v="254417"/>
  </node>
  <node id="-192" visible="true" lat="44.67634531" lon="-72.00156611">
    <tag k="addr:housenumber" v="364"/>
    <tag k="addr:street" v="Sargents Road"/>
    <tag k="addr:state" v="VT"/>
    <tag k="ref:vcgi:esiteid" v="254418"/>
  </node>
  <node id="-193" visible="true" lat="44.67593765" lon="-71.98384857">
    <tag k="addr:housenumber" v="1641"/>
    <tag k="addr:street" v="East Ridge Road"/>
    <tag k="addr:state" v="VT"/>
    <tag k="ref:vcgi:esiteid" v="254419"/>
  </node>
  <node id="-195" visible="true" lat="44.67543411" lon="-72.0017395">
    <tag k="addr:housenumber" v="350"/>
    <tag k="addr:street" v="Sargents Road"/>
    <tag k="addr:state" v="VT"/>
    <tag k="ref:vcgi:esiteid" v="254421"/>
  </node>
  <node id="-196" visible="true" lat="44.6754971" lon="-71.9967188">
    <tag k="addr:housenumber" v="60"/>
    <tag k="addr:street" v="Sargents Road"/>
    <tag k="addr:state" v="VT"/>
    <tag k="ref:vcgi:esiteid" v="254422"/>
  </node>
  <node id="-197" visible="true" lat="44.67530555" lon="-72.00068089">
    <tag k="addr:housenumber" v="274"/>
    <tag k="addr:street" v="Sargents Road"/>
    <tag k="addr:state" v="VT"/>
    <tag k="ref:vcgi:esiteid" v="254423"/>
  </node>
  <node id="-198" visible="true" lat="44.6752725" lon="-71.99974396">
    <tag k="addr:housenumber" v="212"/>
    <tag k="addr:street" v="Sargents Road"/>
    <tag k="addr:state" v="VT"/>
    <tag k="ref:vcgi:esiteid" v="254424"/>
  </node>
  <node id="-199" visible="true" lat="44.67505646" lon="-71.99394226">
    <tag k="addr:housenumber" v="2650"/>
    <tag k="addr:street" v="Vermont Route 5A"/>
    <tag k="addr:state" v="VT"/>
    <tag k="ref:vcgi:esiteid" v="254425"/>
  </node>
  <node id="-200" visible="true" lat="44.67506876" lon="-71.99835473">
    <tag k="addr:housenumber" v="146"/>
    <tag k="addr:street" v="Sargents Road"/>
    <tag k="addr:state" v="VT"/>
    <tag k="ref:vcgi:esiteid" v="254426"/>
  </node>
  <node id="-201" visible="true" lat="44.67503738" lon="-72.01192474">
    <tag k="addr:housenumber" v="296"/>
    <tag k="addr:street" v="Cross Road"/>
    <tag k="addr:state" v="VT"/>
    <tag k="ref:vcgi:esiteid" v="254427"/>
  </node>
  <node id="-202" visible="true" lat="44.67508326" lon="-71.99886107">
    <tag k="addr:housenumber" v="172"/>
    <tag k="addr:street" v="Sargents Road"/>
    <tag k="addr:state" v="VT"/>
    <tag k="ref:vcgi:esiteid" v="254428"/>
  </node>
  <node id="-203" visible="true" lat="44.67486882" lon="-72.05463187">
    <tag k="addr:housenumber" v="1533"/>
    <tag k="addr:street" v="Morey Road"/>
    <tag k="addr:state" v="VT"/>
    <tag k="ref:vcgi:esiteid" v="254429"/>
  </node>
  <node id="-204" visible="true" lat="44.67483478" lon="-71.99559894">
    <tag k="addr:housenumber" v="2575"/>
    <tag k="addr:street" v="Vermont Route 5A"/>
    <tag k="addr:state" v="VT"/>
    <tag k="ref:vcgi:esiteid" v="254430"/>
  </node>
  <node id="-205" visible="true" lat="44.6747307" lon="-72.00075937">
    <tag k="addr:housenumber" v="273"/>
    <tag k="addr:street" v="Sargents Road"/>
    <tag k="addr:state" v="VT"/>
    <tag k="ref:vcgi:esiteid" v="254431"/>
  </node>
  <node id="-206" visible="true" lat="44.67459034" lon="-71.99864699">
    <tag k="addr:housenumber" v="167"/>
    <tag k="addr:street" v="Sargents Road"/>
    <tag k="addr:state" v="VT"/>
    <tag k="ref:vcgi:esiteid" v="254432"/>
  </node>
  <node id="-207" visible="true" lat="44.67442969" lon="-71.97944192">
    <tag k="addr:housenumber" v="98"/>
    <tag k="addr:street" v="Camp Road"/>
    <tag k="addr:state" v="VT"/>
    <tag k="ref:vcgi:esiteid" v="254433"/>
  </node>
  <node id="-208" visible="true" lat="44.67464684" lon="-72.04932918">
    <tag k="addr:housenumber" v="3140"/>
    <tag k="addr:street" v="Underpass Road"/>
    <tag k="addr:state" v="VT"/>
    <tag k="ref:vcgi:esiteid" v="254434"/>
  </node>
  <node id="-209" visible="true" lat="44.67434692" lon="-71.98995209">
    <tag k="addr:housenumber" v="168"/>
    <tag k="addr:street" v="Benton Drive"/>
    <tag k="addr:state" v="VT"/>
    <tag k="ref:vcgi:esiteid" v="254435"/>
  </node>
  <node id="-210" visible="true" lat="44.6737031" lon="-72.05893444">
    <tag k="addr:housenumber" v="185"/>
    <tag k="addr:street" v="Hopeful Acres Drive"/>
    <tag k="addr:state" v="VT"/>
    <tag k="ref:vcgi:esiteid" v="254436"/>
  </node>
  <node id="-212" visible="true" lat="44.67325616" lon="-71.97560458">
    <tag k="addr:housenumber" v="270"/>
    <tag k="addr:street" v="Camp Road"/>
    <tag k="addr:state" v="VT"/>
    <tag k="ref:vcgi:esiteid" v="254438"/>
  </node>
  <node id="-213" visible="true" lat="44.67295455" lon="-72.00644683">
    <tag k="addr:housenumber" v="2529"/>
    <tag k="addr:street" v="North Ridge Road"/>
    <tag k="addr:state" v="VT"/>
    <tag k="ref:vcgi:esiteid" v="254439"/>
  </node>
  <node id="-214" visible="true" lat="44.67293167" lon="-72.0502243">
    <tag k="addr:housenumber" v="3051"/>
    <tag k="addr:street" v="Underpass Road"/>
    <tag k="addr:state" v="VT"/>
    <tag k="ref:vcgi:esiteid" v="254440"/>
  </node>
  <node id="-215" visible="true" lat="44.67280313" lon="-72.04719311">
    <tag k="addr:housenumber" v="3014"/>
    <tag k="addr:street" v="Underpass Road"/>
    <tag k="addr:state" v="VT"/>
    <tag k="ref:vcgi:esiteid" v="254441"/>
  </node>
  <node id="-216" visible="true" lat="44.67205571" lon="-71.99509561">
    <tag k="addr:housenumber" v="2385"/>
    <tag k="addr:street" v="Vermont Route 5A"/>
    <tag k="addr:state" v="VT"/>
    <tag k="ref:vcgi:esiteid" v="254442"/>
  </node>
  <node id="-217" visible="true" lat="44.67183399" lon="-72.05050303">
    <tag k="addr:housenumber" v="2973"/>
    <tag k="addr:street" v="Underpass Road"/>
    <tag k="addr:state" v="VT"/>
    <tag k="ref:vcgi:esiteid" v="254443"/>
  </node>
  <node id="-218" visible="true" lat="44.67117831" lon="-72.05022198">
    <tag k="addr:housenumber" v="2941"/>
    <tag k="addr:street" v="Underpass Road"/>
    <tag k="addr:state" v="VT"/>
    <tag k="ref:vcgi:esiteid" v="254444"/>
  </node>
  <node id="-219" visible="true" lat="44.67061125" lon="-71.99307937">
    <tag k="addr:housenumber" v="2240"/>
    <tag k="addr:street" v="Vermont Route 5A"/>
    <tag k="addr:state" v="VT"/>
    <tag k="ref:vcgi:esiteid" v="254445"/>
  </node>
  <node id="-220" visible="true" lat="44.67074957" lon="-71.995743">
    <tag k="addr:housenumber" v="2327"/>
    <tag k="addr:street" v="Vermont Route 5A"/>
    <tag k="addr:state" v="VT"/>
    <tag k="ref:vcgi:esiteid" v="254446"/>
  </node>
  <node id="-221" visible="true" lat="44.67071914" lon="-72.00634002">
    <tag k="addr:housenumber" v="2375"/>
    <tag k="addr:street" v="North Ridge Road"/>
    <tag k="addr:state" v="VT"/>
    <tag k="ref:vcgi:esiteid" v="254447"/>
  </node>
  <node id="-222" visible="true" lat="44.67089215" lon="-72.04814732">
    <tag k="addr:housenumber" v="2924"/>
    <tag k="addr:street" v="Underpass Road"/>
    <tag k="addr:state" v="VT"/>
    <tag k="ref:vcgi:esiteid" v="254448"/>
  </node>
  <node id="-223" visible="true" lat="44.67045092" lon="-71.97653489">
    <tag k="addr:housenumber" v="3787"/>
    <tag k="addr:street" v="Sugarhouse Road"/>
    <tag k="addr:state" v="VT"/>
    <tag k="ref:vcgi:esiteid" v="254449"/>
  </node>
  <node id="-224" visible="true" lat="44.67038345" lon="-71.9925003">
    <tag k="addr:housenumber" v="2238"/>
    <tag k="addr:street" v="Vermont Route 5A"/>
    <tag k="addr:state" v="VT"/>
    <tag k="ref:vcgi:esiteid" v="254450"/>
  </node>
  <node id="-226" visible="true" lat="44.67055129" lon="-72.05549621">
    <tag k="addr:housenumber" v="1172"/>
    <tag k="addr:street" v="Morey Road"/>
    <tag k="addr:state" v="VT"/>
    <tag k="ref:vcgi:esiteid" v="254452"/>
  </node>
  <node id="-227" visible="true" lat="44.66967769" lon="-72.04765116">
    <tag k="addr:housenumber" v="2789"/>
    <tag k="addr:street" v="Underpass Road"/>
    <tag k="addr:state" v="VT"/>
    <tag k="ref:vcgi:esiteid" v="254453"/>
  </node>
  <node id="-228" visible="true" lat="44.66958886" lon="-72.05812852">
    <tag k="addr:housenumber" v="1133"/>
    <tag k="addr:street" v="Morey Road"/>
    <tag k="addr:state" v="VT"/>
    <tag k="ref:vcgi:esiteid" v="254454"/>
  </node>
  <node id="-232" visible="true" lat="44.66808824" lon="-72.04519766">
    <tag k="addr:housenumber" v="2630"/>
    <tag k="addr:street" v="Underpass Road"/>
    <tag k="addr:state" v="VT"/>
    <tag k="ref:vcgi:esiteid" v="254458"/>
  </node>
  <node id="-233" visible="true" lat="44.66683433" lon="-72.05533196">
    <tag k="addr:housenumber" v="905"/>
    <tag k="addr:street" v="Morey Road"/>
    <tag k="addr:state" v="VT"/>
    <tag k="ref:vcgi:esiteid" v="254459"/>
  </node>
  <node id="-234" visible="true" lat="44.6664238" lon="-71.98403931">
    <tag k="addr:housenumber" v="839"/>
    <tag k="addr:street" v="East Ridge Road"/>
    <tag k="addr:state" v="VT"/>
    <tag k="ref:vcgi:esiteid" v="254460"/>
  </node>
  <node id="-236" visible="true" lat="44.66614913" lon="-72.0534439">
    <tag k="addr:housenumber" v="842"/>
    <tag k="addr:street" v="Morey Road"/>
    <tag k="addr:state" v="VT"/>
    <tag k="ref:vcgi:esiteid" v="254462"/>
  </node>
  <node id="-242" visible="true" lat="44.66358639" lon="-72.03760447">
    <tag k="addr:housenumber" v="51"/>
    <tag k="addr:street" v="Four Corners Trail"/>
    <tag k="addr:state" v="VT"/>
    <tag k="ref:vcgi:esiteid" v="254468"/>
  </node>
  <node id="-243" visible="true" lat="44.66411766" lon="-72.04484153">
    <tag k="addr:housenumber" v="2383"/>
    <tag k="addr:street" v="Underpass Road"/>
    <tag k="addr:state" v="VT"/>
    <tag k="ref:vcgi:esiteid" v="254469"/>
  </node>
  <node id="-244" visible="true" lat="44.66411474" lon="-72.05432449">
    <tag k="addr:housenumber" v="721"/>
    <tag k="addr:street" v="Morey Road"/>
    <tag k="addr:state" v="VT"/>
    <tag k="ref:vcgi:esiteid" v="254470"/>
  </node>
  <node id="-246" visible="true" lat="44.66314316" lon="-71.98334503">
    <tag k="addr:housenumber" v="612"/>
    <tag k="addr:street" v="East Ridge Road"/>
    <tag k="addr:state" v="VT"/>
    <tag k="ref:vcgi:esiteid" v="254472"/>
  </node>
  <node id="-249" visible="true" lat="44.66275787" lon="-72.06156158">
    <tag k="addr:housenumber" v="2116"/>
    <tag k="addr:street" v="King George Farm Road"/>
    <tag k="addr:state" v="VT"/>
    <tag k="ref:vcgi:esiteid" v="254475"/>
  </node>
  <node id="-250" visible="true" lat="44.66197205" lon="-71.9919281">
    <tag k="addr:housenumber" v="1665"/>
    <tag k="addr:street" v="Vermont Route 5A"/>
    <tag k="addr:state" v="VT"/>
    <tag k="ref:vcgi:esiteid" v="254477"/>
  </node>
  <node id="-251" visible="true" lat="44.66172159" lon="-72.05164858">
    <tag k="addr:housenumber" v="513"/>
    <tag k="addr:street" v="Morey Road"/>
    <tag k="addr:state" v="VT"/>
    <tag k="ref:vcgi:esiteid" v="254478"/>
  </node>
  <node id="-253" visible="true" lat="44.66064071" lon="-72.00765228">
    <tag k="addr:housenumber" v="581"/>
    <tag k="addr:street" v="Michaud Drive"/>
    <tag k="addr:state" v="VT"/>
    <tag k="ref:vcgi:esiteid" v="254480"/>
  </node>
  <node id="-254" visible="true" lat="44.66054153" lon="-72.00496673">
    <tag k="addr:housenumber" v="1596"/>
    <tag k="addr:street" v="North Ridge Road"/>
    <tag k="addr:state" v="VT"/>
    <tag k="ref:vcgi:esiteid" v="254481"/>
  </node>
  <node id="-255" visible="true" lat="44.66044235" lon="-72.00355529">
    <tag k="addr:housenumber" v="1526"/>
    <tag k="addr:street" v="North Ridge Road"/>
    <tag k="addr:state" v="VT"/>
    <tag k="ref:vcgi:esiteid" v="254482"/>
  </node>
  <node id="-257" visible="true" lat="44.66037826" lon="-72.03816205">
    <tag k="addr:housenumber" v="49"/>
    <tag k="addr:street" v="Four Corners Trail"/>
    <tag k="addr:state" v="VT"/>
    <tag k="ref:vcgi:esiteid" v="254484"/>
  </node>
  <node id="-259" visible="true" lat="44.6601875" lon="-72.04781321">
    <tag k="addr:housenumber" v="318"/>
    <tag k="addr:street" v="Morey Road"/>
    <tag k="addr:state" v="VT"/>
    <tag k="ref:vcgi:esiteid" v="254486"/>
  </node>
  <node id="-262" visible="true" lat="44.6597023" lon="-71.989151">
    <tag k="addr:housenumber" v="1455"/>
    <tag k="addr:street" v="Vermont Route 5A"/>
    <tag k="addr:state" v="VT"/>
    <tag k="ref:vcgi:esiteid" v="254489"/>
  </node>
  <node id="-263" visible="true" lat="44.65948486" lon="-71.99795532">
    <tag k="addr:housenumber" v="1246"/>
    <tag k="addr:street" v="North Ridge Road"/>
    <tag k="addr:state" v="VT"/>
    <tag k="ref:vcgi:esiteid" v="254490"/>
  </node>
  <node id="-264" visible="true" lat="44.65907836" lon="-72.04160271">
    <tag k="addr:housenumber" v="2021"/>
    <tag k="addr:street" v="Underpass Road"/>
    <tag k="addr:state" v="VT"/>
    <tag k="ref:vcgi:esiteid" v="254491"/>
  </node>
  <node id="-266" visible="true" lat="44.65957641" lon="-72.06079864">
    <tag k="addr:housenumber" v="1932"/>
    <tag k="addr:street" v="King George Farm Road"/>
    <tag k="addr:state" v="VT"/>
    <tag k="ref:vcgi:esiteid" v="254493"/>
  </node>
  <node id="-268" visible="true" lat="44.65913309" lon="-71.99877813">
    <tag k="addr:housenumber" v="1285"/>
    <tag k="addr:street" v="North Ridge Road"/>
    <tag k="addr:state" v="VT"/>
    <tag k="ref:vcgi:esiteid" v="254495"/>
  </node>
  <node id="-269" visible="true" lat="44.65900421" lon="-72.05690765">
    <tag k="addr:housenumber" v="1708"/>
    <tag k="addr:street" v="King George Farm Road"/>
    <tag k="addr:state" v="VT"/>
    <tag k="ref:vcgi:esiteid" v="254497"/>
  </node>
  <node id="-271" visible="true" lat="44.65815711" lon="-72.0497604">
    <tag k="addr:housenumber" v="163"/>
    <tag k="addr:street" v="Morey Road"/>
    <tag k="addr:state" v="VT"/>
    <tag k="ref:vcgi:esiteid" v="254499"/>
  </node>
  <node id="-273" visible="true" lat="44.65783309" lon="-71.99534606">
    <tag k="addr:housenumber" v="1086"/>
    <tag k="addr:street" v="North Ridge Road"/>
    <tag k="addr:state" v="VT"/>
    <tag k="ref:vcgi:esiteid" v="254501"/>
  </node>
  <node id="-274" visible="true" lat="44.65779876" lon="-71.99648285">
    <tag k="addr:housenumber" v="1119"/>
    <tag k="addr:street" v="North Ridge Road"/>
    <tag k="addr:state" v="VT"/>
    <tag k="ref:vcgi:esiteid" v="254502"/>
  </node>
  <node id="-275" visible="true" lat="44.65707779" lon="-71.98171997">
    <tag k="addr:housenumber" v="172"/>
    <tag k="addr:street" v="East Ridge Road"/>
    <tag k="addr:state" v="VT"/>
    <tag k="ref:vcgi:esiteid" v="254503"/>
  </node>
  <node id="-277" visible="true" lat="44.65676117" lon="-71.9848938">
    <tag k="addr:housenumber" v="1106"/>
    <tag k="addr:street" v="Vermont Route 5A"/>
    <tag k="addr:state" v="VT"/>
    <tag k="ref:vcgi:esiteid" v="254505"/>
  </node>
  <node id="-278" visible="true" lat="44.65664291" lon="-71.98252869">
    <tag k="addr:housenumber" v="135"/>
    <tag k="addr:street" v="East Ridge Road"/>
    <tag k="addr:state" v="VT"/>
    <tag k="ref:vcgi:esiteid" v="254506"/>
  </node>
  <node id="-280" visible="true" lat="44.65627289" lon="-71.98612976">
    <tag k="addr:housenumber" v="1103"/>
    <tag k="addr:street" v="Vermont Route 5A"/>
    <tag k="addr:state" v="VT"/>
    <tag k="ref:vcgi:esiteid" v="254508"/>
  </node>
  <node id="-281" visible="true" lat="44.65618134" lon="-71.98268127">
    <tag k="addr:housenumber" v="101"/>
    <tag k="addr:street" v="East Ridge Road"/>
    <tag k="addr:state" v="VT"/>
    <tag k="ref:vcgi:esiteid" v="254509"/>
  </node>
  <node id="-285" visible="true" lat="44.65518951" lon="-71.99264526">
    <tag k="addr:housenumber" v="862"/>
    <tag k="addr:street" v="North Ridge Road"/>
    <tag k="addr:state" v="VT"/>
    <tag k="ref:vcgi:esiteid" v="254513"/>
  </node>
  <node id="-286" visible="true" lat="44.65502711" lon="-71.98217969">
    <tag k="addr:housenumber" v="20"/>
    <tag k="addr:street" v="East Ridge Road"/>
    <tag k="addr:state" v="VT"/>
    <tag k="ref:vcgi:esiteid" v="254514"/>
  </node>
  <node id="-287" visible="true" lat="44.65522236" lon="-72.07749379">
    <tag k="addr:housenumber" v="3095"/>
    <tag k="addr:street" v="King George Farm Road"/>
    <tag k="addr:state" v="VT"/>
    <tag k="ref:vcgi:esiteid" v="254515"/>
  </node>
  <node id="-288" visible="true" lat="44.65477752" lon="-72.0001831">
    <tag k="addr:housenumber" v="1229"/>
    <tag k="addr:street" v="North Ridge Road"/>
    <tag k="addr:state" v="VT"/>
    <tag k="ref:vcgi:esiteid" v="254516"/>
  </node>
  <node id="-289" visible="true" lat="44.65457837" lon="-71.98266014">
    <tag k="addr:housenumber" v="965"/>
    <tag k="addr:street" v="Vermont Route 5A"/>
    <tag k="addr:state" v="VT"/>
    <tag k="ref:vcgi:esiteid" v="254517"/>
  </node>
  <node id="-290" visible="true" lat="44.65483326" lon="-72.07744039">
    <tag k="addr:housenumber" v="3097"/>
    <tag k="addr:street" v="King George Farm Road"/>
    <tag k="addr:state" v="VT"/>
    <tag k="ref:vcgi:esiteid" v="254518"/>
  </node>
  <node id="-291" visible="true" lat="44.65357054" lon="-71.98134542">
    <tag k="addr:housenumber" v="868"/>
    <tag k="addr:street" v="Vermont Route 5A"/>
    <tag k="addr:state" v="VT"/>
    <tag k="ref:vcgi:esiteid" v="254519"/>
  </node>
  <node id="-294" visible="true" lat="44.65290428" lon="-72.01080367">
    <tag k="addr:housenumber" v="1594"/>
    <tag k="addr:street" v="U.S. Route 5"/>
    <tag k="addr:state" v="VT"/>
    <tag k="ref:vcgi:esiteid" v="254522"/>
  </node>
  <node id="-295" visible="true" lat="44.65283203" lon="-71.99147796">
    <tag k="addr:housenumber" v="696"/>
    <tag k="addr:street" v="North Ridge Road"/>
    <tag k="addr:state" v="VT"/>
    <tag k="ref:vcgi:esiteid" v="254523"/>
  </node>
  <node id="-296" visible="true" lat="44.65297861" lon="-72.03721376">
    <tag k="addr:housenumber" v="1522"/>
    <tag k="addr:street" v="Underpass Road"/>
    <tag k="addr:state" v="VT"/>
    <tag k="ref:vcgi:esiteid" v="254524"/>
  </node>
  <node id="-298" visible="true" lat="44.65242596" lon="-72.02005584">
    <tag k="addr:housenumber" v="1384"/>
    <tag k="addr:street" v="Station Road"/>
    <tag k="addr:state" v="VT"/>
    <tag k="ref:vcgi:esiteid" v="254526"/>
  </node>
  <node id="-300" visible="true" lat="44.65197111" lon="-71.98162749">
    <tag k="addr:housenumber" v="763"/>
    <tag k="addr:street" v="Vermont Route 5A"/>
    <tag k="addr:state" v="VT"/>
    <tag k="ref:vcgi:esiteid" v="254528"/>
  </node>
  <node id="-302" visible="true" lat="44.65129042" lon="-71.99150724">
    <tag k="addr:housenumber" v="657"/>
    <tag k="addr:street" v="North Ridge Road"/>
    <tag k="addr:state" v="VT"/>
    <tag k="ref:vcgi:esiteid" v="254530"/>
  </node>
  <node id="-303" visible="true" lat="44.65153627" lon="-72.01811456">
    <tag k="addr:housenumber" v="1380"/>
    <tag k="addr:street" v="Station Road"/>
    <tag k="addr:state" v="VT"/>
    <tag k="ref:vcgi:esiteid" v="254531"/>
  </node>
  <node id="-305" visible="true" lat="44.65070268" lon="-71.98199472">
    <tag k="addr:housenumber" v="669"/>
    <tag k="addr:street" v="Vermont Route 5A"/>
    <tag k="addr:state" v="VT"/>
    <tag k="ref:vcgi:esiteid" v="254533"/>
  </node>
  <node id="-306" visible="true" lat="44.65061187" lon="-72.00795745">
    <tag k="addr:housenumber" v="1374"/>
    <tag k="addr:street" v="U.S. Route 5"/>
    <tag k="addr:state" v="VT"/>
    <tag k="ref:vcgi:esiteid" v="254534"/>
  </node>
  <node id="-308" visible="true" lat="44.65037155" lon="-72.03600311">
    <tag k="addr:housenumber" v="1360"/>
    <tag k="addr:street" v="Underpass Road"/>
    <tag k="addr:state" v="VT"/>
    <tag k="ref:vcgi:esiteid" v="254536"/>
  </node>
  <node id="-310" visible="true" lat="44.64952835" lon="-71.99219626">
    <tag k="addr:housenumber" v="509"/>
    <tag k="addr:street" v="North Ridge Road"/>
    <tag k="addr:state" v="VT"/>
    <tag k="ref:vcgi:esiteid" v="254538"/>
  </node>
  <node id="-316" visible="true" lat="44.64734268" lon="-71.98651123">
    <tag k="addr:housenumber" v="180"/>
    <tag k="addr:street" v="North Ridge Road"/>
    <tag k="addr:state" v="VT"/>
    <tag k="ref:vcgi:esiteid" v="254544"/>
  </node>
  <node id="-319" visible="true" lat="44.64708709" lon="-72.03559112">
    <tag k="addr:housenumber" v="1105"/>
    <tag k="addr:street" v="Underpass Road"/>
    <tag k="addr:state" v="VT"/>
    <tag k="ref:vcgi:esiteid" v="254547"/>
  </node>
  <node id="-320" visible="true" lat="44.64702734" lon="-71.98291755">
    <tag k="addr:housenumber" v="4"/>
    <tag k="addr:street" v="North Ridge Road"/>
    <tag k="addr:state" v="VT"/>
    <tag k="ref:vcgi:esiteid" v="254548"/>
  </node>
  <node id="-321" visible="true" lat="44.64685051" lon="-72.07445243">
    <tag k="addr:housenumber" v="474"/>
    <tag k="addr:street" v="Union House Road"/>
    <tag k="addr:state" v="VT"/>
    <tag k="ref:vcgi:esiteid" v="254549"/>
  </node>
  <node id="-323" visible="true" lat="44.6465144" lon="-71.98378959">
    <tag k="addr:housenumber" v="39"/>
    <tag k="addr:street" v="North Ridge Road"/>
    <tag k="addr:state" v="VT"/>
    <tag k="ref:vcgi:esiteid" v="254551"/>
  </node>
  <node id="-324" visible="true" lat="44.64637923" lon="-72.03459141">
    <tag k="addr:housenumber" v="1040"/>
    <tag k="addr:street" v="Underpass Road"/>
    <tag k="addr:state" v="VT"/>
    <tag k="ref:vcgi:esiteid" v="254552"/>
  </node>
  <node id="-332" visible="true" lat="44.64451506" lon="-71.99656731">
    <tag k="addr:housenumber" v="690"/>
    <tag k="addr:street" v="U.S. Route 5"/>
    <tag k="addr:state" v="VT"/>
    <tag k="ref:vcgi:esiteid" v="254562"/>
  </node>
  <node id="-342" visible="true" lat="44.64347085" lon="-71.98993957">
    <tag k="addr:housenumber" v="296"/>
    <tag k="addr:street" v="U.S. Route 5"/>
    <tag k="addr:state" v="VT"/>
    <tag k="ref:vcgi:esiteid" v="254572"/>
  </node>
  <node id="-343" visible="true" lat="44.64340841" lon="-71.9894966">
    <tag k="addr:housenumber" v="280"/>
    <tag k="addr:street" v="U.S. Route 5"/>
    <tag k="addr:state" v="VT"/>
    <tag k="ref:vcgi:esiteid" v="254573"/>
  </node>
  <node id="-347" visible="true" lat="44.64310623" lon="-72.02184958">
    <tag k="addr:housenumber" v="754"/>
    <tag k="addr:street" v="Station Road"/>
    <tag k="addr:state" v="VT"/>
    <tag k="ref:vcgi:esiteid" v="254577"/>
  </node>
  <node id="-349" visible="true" lat="44.64161722" lon="-71.98567214">
    <tag k="addr:housenumber" v="61"/>
    <tag k="addr:street" v="U.S. Route 5"/>
    <tag k="addr:state" v="VT"/>
    <tag k="ref:vcgi:esiteid" v="254579"/>
  </node>
  <node id="-350" visible="true" lat="44.64183425" lon="-72.03310394">
    <tag k="addr:housenumber" v="722"/>
    <tag k="addr:street" v="Underpass Road"/>
    <tag k="addr:state" v="VT"/>
    <tag k="ref:vcgi:esiteid" v="254580"/>
  </node>
  <node id="-353" visible="true" lat="44.64090728" lon="-72.01769256">
    <tag k="addr:housenumber" v="287"/>
    <tag k="addr:street" v="Burke Road"/>
    <tag k="addr:state" v="VT"/>
    <tag k="ref:vcgi:esiteid" v="254583"/>
  </node>
  <node id="-355" visible="true" lat="44.63960172" lon="-71.98626559">
    <tag k="addr:housenumber" v="152"/>
    <tag k="addr:street" v="Mill Road"/>
    <tag k="addr:state" v="VT"/>
    <tag k="ref:vcgi:esiteid" v="254585"/>
  </node>
  <node id="-357" visible="true" lat="44.63736343" lon="-72.0517044">
    <tag k="addr:housenumber" v="1320"/>
    <tag k="addr:street" v="Sheffield Road"/>
    <tag k="addr:state" v="VT"/>
    <tag k="ref:vcgi:esiteid" v="254587"/>
  </node>
  <node id="-358" visible="true" lat="44.63709108" lon="-72.06162098">
    <tag k="addr:housenumber" v="1815"/>
    <tag k="addr:street" v="Sheffield Road"/>
    <tag k="addr:state" v="VT"/>
    <tag k="ref:vcgi:esiteid" v="254588"/>
  </node>
  <node id="-368" visible="true" lat="44.63346216" lon="-72.02649428">
    <tag k="addr:housenumber" v="31"/>
    <tag k="addr:street" v="Station Road"/>
    <tag k="addr:state" v="VT"/>
    <tag k="ref:vcgi:esiteid" v="254599"/>
  </node>
  <node id="-384" visible="true" lat="44.63240196" lon="-72.0261307">
    <tag k="addr:housenumber" v="4510"/>
    <tag k="addr:street" v="Calendar Brook Road"/>
    <tag k="addr:state" v="VT"/>
    <tag k="ref:vcgi:esiteid" v="254617"/>
  </node>
  <node id="-394" visible="true" lat="44.63209561" lon="-72.06563495">
    <tag k="addr:housenumber" v="66"/>
    <tag k="addr:street" v="Gold Mine Road"/>
    <tag k="addr:state" v="VT"/>
    <tag k="ref:vcgi:esiteid" v="254627"/>
  </node>
  <node id="-402" visible="true" lat="44.63011452" lon="-72.00389843">
    <tag k="addr:housenumber" v="1121"/>
    <tag k="addr:street" v="Burke Road"/>
    <tag k="addr:state" v="VT"/>
    <tag k="ref:vcgi:esiteid" v="254635"/>
  </node>
  <node id="-405" visible="true" lat="44.62965392" lon="-72.03131103">
    <tag k="addr:housenumber" v="179"/>
    <tag k="addr:street" v="Sheffield Road"/>
    <tag k="addr:state" v="VT"/>
    <tag k="ref:vcgi:esiteid" v="254638"/>
  </node>
  <node id="-407" visible="true" lat="44.62914311" lon="-72.00197926">
    <tag k="addr:housenumber" v="1234"/>
    <tag k="addr:street" v="Burke Road"/>
    <tag k="addr:state" v="VT"/>
    <tag k="ref:vcgi:esiteid" v="254640"/>
  </node>
  <node id="-411" visible="true" lat="44.62874339" lon="-71.99497991">
    <tag k="addr:housenumber" v="1585"/>
    <tag k="addr:street" v="Burke Road"/>
    <tag k="addr:state" v="VT"/>
    <tag k="ref:vcgi:esiteid" v="254644"/>
  </node>
  <node id="-412" visible="true" lat="44.62916789" lon="-71.99360297">
    <tag k="addr:housenumber" v="1641"/>
    <tag k="addr:street" v="Burke Road"/>
    <tag k="addr:state" v="VT"/>
    <tag k="ref:vcgi:esiteid" v="254645"/>
  </node>
  <node id="-413" visible="true" lat="44.62854753" lon="-71.99981775">
    <tag k="addr:housenumber" v="8"/>
    <tag k="addr:street" v="Simpson Hill"/>
    <tag k="addr:state" v="VT"/>
    <tag k="ref:vcgi:esiteid" v="254646"/>
  </node>
  <node id="-416" visible="true" lat="44.62814331" lon="-72.02811431">
    <tag k="addr:housenumber" v="184"/>
    <tag k="addr:street" v="Wheelock Road"/>
    <tag k="addr:state" v="VT"/>
    <tag k="ref:vcgi:esiteid" v="254649"/>
  </node>
  <node id="-417" visible="true" lat="44.6273244" lon="-72.03080117">
    <tag k="addr:housenumber" v="368"/>
    <tag k="addr:street" v="Wheelock Road"/>
    <tag k="addr:state" v="VT"/>
    <tag k="ref:vcgi:esiteid" v="254650"/>
  </node>
  <node id="-421" visible="true" lat="44.62585449" lon="-72.02748107">
    <tag k="addr:housenumber" v="219"/>
    <tag k="addr:street" v="Sutton Hollow"/>
    <tag k="addr:state" v="VT"/>
    <tag k="ref:vcgi:esiteid" v="254654"/>
  </node>
  <node id="-422" visible="true" lat="44.62666187" lon="-72.06415917">
    <tag k="addr:housenumber" v="912"/>
    <tag k="addr:street" v="Wood Hill Road"/>
    <tag k="addr:state" v="VT"/>
    <tag k="ref:vcgi:esiteid" v="254655"/>
  </node>
  <node id="-423" visible="true" lat="44.62489423" lon="-72.03325933">
    <tag k="addr:housenumber" v="123"/>
    <tag k="addr:street" v="Sylvester Drive"/>
    <tag k="addr:state" v="VT"/>
    <tag k="ref:vcgi:esiteid" v="254656"/>
  </node>
  <node id="-426" visible="true" lat="44.62404115" lon="-72.03012347">
    <tag k="addr:housenumber" v="617"/>
    <tag k="addr:street" v="Wheelock Road"/>
    <tag k="addr:state" v="VT"/>
    <tag k="ref:vcgi:esiteid" v="254659"/>
  </node>
  <node id="-427" visible="true" lat="44.62340545" lon="-71.99617004">
    <tag k="addr:housenumber" v="429"/>
    <tag k="addr:street" v="Simpson Hill"/>
    <tag k="addr:state" v="VT"/>
    <tag k="ref:vcgi:esiteid" v="254660"/>
  </node>
  <node id="-429" visible="true" lat="44.6233834" lon="-72.0304949">
    <tag k="addr:housenumber" v="685"/>
    <tag k="addr:street" v="Wheelock Road"/>
    <tag k="addr:state" v="VT"/>
    <tag k="ref:vcgi:esiteid" v="254662"/>
  </node>
  <node id="-432" visible="true" lat="44.62212877" lon="-72.03088236">
    <tag k="addr:housenumber" v="775"/>
    <tag k="addr:street" v="Wheelock Road"/>
    <tag k="addr:state" v="VT"/>
    <tag k="ref:vcgi:esiteid" v="254665"/>
  </node>
  <node id="-434" visible="true" lat="44.62626081" lon="-72.04219411">
    <tag k="addr:housenumber" v="1250"/>
    <tag k="addr:street" v="Wheelock Road"/>
    <tag k="addr:state" v="VT"/>
    <tag k="ref:vcgi:esiteid" v="254667"/>
  </node>
  <node id="-435" visible="true" lat="44.62137603" lon="-72.04380035">
    <tag k="addr:housenumber" v="1498"/>
    <tag k="addr:street" v="Wheelock Road"/>
    <tag k="addr:state" v="VT"/>
    <tag k="ref:vcgi:esiteid" v="254668"/>
  </node>
  <node id="-437" visible="true" lat="44.62081318" lon="-72.03100494">
    <tag k="addr:housenumber" v="1800"/>
    <tag k="addr:street" v="South Ridge Road"/>
    <tag k="addr:state" v="VT"/>
    <tag k="ref:vcgi:esiteid" v="254670"/>
  </node>
  <node id="-440" visible="true" lat="44.6204166" lon="-72.03726598">
    <tag k="addr:housenumber" v="1148"/>
    <tag k="addr:street" v="Wheelock Road"/>
    <tag k="addr:state" v="VT"/>
    <tag k="ref:vcgi:esiteid" v="254673"/>
  </node>
  <node id="-441" visible="true" lat="44.6198761" lon="-72.0133689">
    <tag k="addr:housenumber" v="3328"/>
    <tag k="addr:street" v="Calendar Brook Road"/>
    <tag k="addr:state" v="VT"/>
    <tag k="ref:vcgi:esiteid" v="254674"/>
  </node>
  <node id="-442" visible="true" lat="44.61946868" lon="-71.99690246">
    <tag k="addr:housenumber" v="700"/>
    <tag k="addr:street" v="Simpson Hill"/>
    <tag k="addr:state" v="VT"/>
    <tag k="ref:vcgi:esiteid" v="254675"/>
  </node>
  <node id="-443" visible="true" lat="44.61953667" lon="-72.03654715">
    <tag k="addr:housenumber" v="1121"/>
    <tag k="addr:street" v="Wheelock Road"/>
    <tag k="addr:state" v="VT"/>
    <tag k="ref:vcgi:esiteid" v="254676"/>
  </node>
  <node id="-444" visible="true" lat="44.61891174" lon="-71.9963684">
    <tag k="addr:housenumber" v="743"/>
    <tag k="addr:street" v="Simpson Hill"/>
    <tag k="addr:state" v="VT"/>
    <tag k="ref:vcgi:esiteid" v="254677"/>
  </node>
  <node id="-445" visible="true" lat="44.61908164" lon="-72.038456">
    <tag k="addr:housenumber" v="1214"/>
    <tag k="addr:street" v="Wheelock Road"/>
    <tag k="addr:state" v="VT"/>
    <tag k="ref:vcgi:esiteid" v="254678"/>
  </node>
  <node id="-446" visible="true" lat="44.61893712" lon="-72.03110405">
    <tag k="addr:housenumber" v="1673"/>
    <tag k="addr:street" v="South Ridge Road"/>
    <tag k="addr:state" v="VT"/>
    <tag k="ref:vcgi:esiteid" v="254679"/>
  </node>
  <node id="-448" visible="true" lat="44.61825678" lon="-72.03012152">
    <tag k="addr:housenumber" v="1610"/>
    <tag k="addr:street" v="South Ridge Road"/>
    <tag k="addr:state" v="VT"/>
    <tag k="ref:vcgi:esiteid" v="254681"/>
  </node>
  <node id="-449" visible="true" lat="44.61783599" lon="-71.99661254">
    <tag k="addr:housenumber" v="814"/>
    <tag k="addr:street" v="Simpson Hill"/>
    <tag k="addr:state" v="VT"/>
    <tag k="ref:vcgi:esiteid" v="254682"/>
  </node>
  <node id="-450" visible="true" lat="44.61781692" lon="-71.99628448">
    <tag k="addr:housenumber" v="817"/>
    <tag k="addr:street" v="Simpson Hill"/>
    <tag k="addr:state" v="VT"/>
    <tag k="ref:vcgi:esiteid" v="254683"/>
  </node>
  <node id="-452" visible="true" lat="44.61709594" lon="-71.99608611">
    <tag k="addr:housenumber" v="869"/>
    <tag k="addr:street" v="Simpson Hill"/>
    <tag k="addr:state" v="VT"/>
    <tag k="ref:vcgi:esiteid" v="254685"/>
  </node>
  <node id="-453" visible="true" lat="44.61704254" lon="-72.04662322">
    <tag k="addr:housenumber" v="144"/>
    <tag k="addr:street" v="Freedom Road"/>
    <tag k="addr:state" v="VT"/>
    <tag k="ref:vcgi:esiteid" v="254686"/>
  </node>
  <node id="-455" visible="true" lat="44.6166622" lon="-72.04729534">
    <tag k="addr:housenumber" v="163"/>
    <tag k="addr:street" v="Freedom Road"/>
    <tag k="addr:state" v="VT"/>
    <tag k="ref:vcgi:esiteid" v="254688"/>
  </node>
  <node id="-456" visible="true" lat="44.61638259" lon="-71.99595641">
    <tag k="addr:housenumber" v="917"/>
    <tag k="addr:street" v="Simpson Hill"/>
    <tag k="addr:state" v="VT"/>
    <tag k="ref:vcgi:esiteid" v="254689"/>
  </node>
  <node id="-457" visible="true" lat="44.61638117" lon="-72.043841">
    <tag k="addr:housenumber" v="1536"/>
    <tag k="addr:street" v="Wheelock Road"/>
    <tag k="addr:state" v="VT"/>
    <tag k="ref:vcgi:esiteid" v="254690"/>
  </node>
  <node id="-458" visible="true" lat="44.61618983" lon="-72.01624728">
    <tag k="addr:housenumber" v="5269"/>
    <tag k="addr:street" v="Pudding Hill Road"/>
    <tag k="addr:state" v="VT"/>
    <tag k="ref:vcgi:esiteid" v="254691"/>
  </node>
  <node id="-459" visible="true" lat="44.61528778" lon="-72.0168991">
    <tag k="addr:housenumber" v="5211"/>
    <tag k="addr:street" v="Pudding Hill Road"/>
    <tag k="addr:state" v="VT"/>
    <tag k="ref:vcgi:esiteid" v="254692"/>
  </node>
  <node id="-460" visible="true" lat="44.61369374" lon="-72.04604888">
    <tag k="addr:housenumber" v="1752"/>
    <tag k="addr:street" v="Wheelock Road"/>
    <tag k="addr:state" v="VT"/>
    <tag k="ref:vcgi:esiteid" v="254693"/>
  </node>
  <node id="-461" visible="true" lat="44.61329216" lon="-72.04670323">
    <tag k="addr:housenumber" v="1760"/>
    <tag k="addr:street" v="Wheelock Road"/>
    <tag k="addr:state" v="VT"/>
    <tag k="ref:vcgi:esiteid" v="254694"/>
  </node>
  <node id="-462" visible="true" lat="44.6129837" lon="-72.01633453">
    <tag k="addr:housenumber" v="5059"/>
    <tag k="addr:street" v="Pudding Hill Road"/>
    <tag k="addr:state" v="VT"/>
    <tag k="ref:vcgi:esiteid" v="254695"/>
  </node>
  <node id="-463" visible="true" lat="44.61243994" lon="-72.02981415">
    <tag k="addr:housenumber" v="1215"/>
    <tag k="addr:street" v="South Ridge Road"/>
    <tag k="addr:state" v="VT"/>
    <tag k="ref:vcgi:esiteid" v="254696"/>
  </node>
  <node id="-464" visible="true" lat="44.61261031" lon="-72.04610479">
    <tag k="addr:housenumber" v="1826"/>
    <tag k="addr:street" v="Wheelock Road"/>
    <tag k="addr:state" v="VT"/>
    <tag k="ref:vcgi:esiteid" v="254697"/>
  </node>
  <node id="-466" visible="true" lat="44.61232101" lon="-72.04796411">
    <tag k="addr:housenumber" v="1860"/>
    <tag k="addr:street" v="Wheelock Road"/>
    <tag k="addr:state" v="VT"/>
    <tag k="ref:vcgi:esiteid" v="254699"/>
  </node>
  <node id="-467" visible="true" lat="44.61150314" lon="-72.04617727">
    <tag k="addr:housenumber" v="1914"/>
    <tag k="addr:street" v="Wheelock Road"/>
    <tag k="addr:state" v="VT"/>
    <tag k="ref:vcgi:esiteid" v="254700"/>
  </node>
  <node id="-468" visible="true" lat="44.61071656" lon="-72.02838358">
    <tag k="addr:housenumber" v="1079"/>
    <tag k="addr:street" v="South Ridge Road"/>
    <tag k="addr:state" v="VT"/>
    <tag k="ref:vcgi:esiteid" v="254701"/>
  </node>
  <node id="-470" visible="true" lat="44.6104393" lon="-71.99612426">
    <tag k="addr:housenumber" v="1288"/>
    <tag k="addr:street" v="Simpson Hill"/>
    <tag k="addr:state" v="VT"/>
    <tag k="ref:vcgi:esiteid" v="254703"/>
  </node>
  <node id="-471" visible="true" lat="44.61051178" lon="-72.01509857">
    <tag k="addr:housenumber" v="4877"/>
    <tag k="addr:street" v="Pudding Hill Road"/>
    <tag k="addr:state" v="VT"/>
    <tag k="ref:vcgi:esiteid" v="254704"/>
  </node>
  <node id="-472" visible="true" lat="44.61023712" lon="-71.99599456">
    <tag k="addr:housenumber" v="1286"/>
    <tag k="addr:street" v="Simpson Hill"/>
    <tag k="addr:state" v="VT"/>
    <tag k="ref:vcgi:esiteid" v="254705"/>
  </node>
  <node id="-474" visible="true" lat="44.60935211" lon="-71.99473571">
    <tag k="addr:housenumber" v="1463"/>
    <tag k="addr:street" v="Simpson Hill"/>
    <tag k="addr:state" v="VT"/>
    <tag k="ref:vcgi:esiteid" v="254707"/>
  </node>
  <node id="-475" visible="true" lat="44.60937954" lon="-72.02795657">
    <tag k="addr:housenumber" v="985"/>
    <tag k="addr:street" v="South Ridge Road"/>
    <tag k="addr:state" v="VT"/>
    <tag k="ref:vcgi:esiteid" v="254708"/>
  </node>
  <node id="-480" visible="true" lat="44.60788726" lon="-72.0278244">
    <tag k="addr:housenumber" v="883"/>
    <tag k="addr:street" v="South Ridge Road"/>
    <tag k="addr:state" v="VT"/>
    <tag k="ref:vcgi:esiteid" v="254713"/>
  </node>
  <node id="-486" visible="true" lat="44.60673141" lon="-72.04799652">
    <tag k="addr:housenumber" v="2276"/>
    <tag k="addr:street" v="Wheelock Road"/>
    <tag k="addr:state" v="VT"/>
    <tag k="ref:vcgi:esiteid" v="254719"/>
  </node>
  <node id="-487" visible="true" lat="44.60622406" lon="-72.05119323">
    <tag k="addr:housenumber" v="2455"/>
    <tag k="addr:street" v="Wheelock Road"/>
    <tag k="addr:state" v="VT"/>
    <tag k="ref:vcgi:esiteid" v="254720"/>
  </node>
  <node id="-488" visible="true" lat="44.6050942" lon="-72.01148081">
    <tag k="addr:housenumber" v="4460"/>
    <tag k="addr:street" v="Pudding Hill Road"/>
    <tag k="addr:state" v="VT"/>
    <tag k="ref:vcgi:esiteid" v="254721"/>
  </node>
  <node id="-489" visible="true" lat="44.60468778" lon="-72.00568038">
    <tag k="addr:housenumber" v="293"/>
    <tag k="addr:street" v="Chapman Road"/>
    <tag k="addr:state" v="VT"/>
    <tag k="ref:vcgi:esiteid" v="254722"/>
  </node>
  <node id="-490" visible="true" lat="44.60457992" lon="-72.01666259">
    <tag k="addr:housenumber" v="238"/>
    <tag k="addr:street" v="South Ridge Road"/>
    <tag k="addr:state" v="VT"/>
    <tag k="ref:vcgi:esiteid" v="254723"/>
  </node>
  <node id="-491" visible="true" lat="44.60465221" lon="-72.0146615">
    <tag k="addr:housenumber" v="142"/>
    <tag k="addr:street" v="South Ridge Road"/>
    <tag k="addr:state" v="VT"/>
    <tag k="ref:vcgi:esiteid" v="254724"/>
  </node>
  <node id="-492" visible="true" lat="44.60421371" lon="-72.01333618">
    <tag k="addr:housenumber" v="74"/>
    <tag k="addr:street" v="South Ridge Road"/>
    <tag k="addr:state" v="VT"/>
    <tag k="ref:vcgi:esiteid" v="254725"/>
  </node>
  <node id="-493" visible="true" lat="44.60415498" lon="-72.023849">
    <tag k="addr:housenumber" v="571"/>
    <tag k="addr:street" v="South Ridge Road"/>
    <tag k="addr:state" v="VT"/>
    <tag k="ref:vcgi:esiteid" v="254726"/>
  </node>
  <node id="-494" visible="true" lat="44.60405731" lon="-72.02145385">
    <tag k="addr:housenumber" v="477"/>
    <tag k="addr:street" v="South Ridge Road"/>
    <tag k="addr:state" v="VT"/>
    <tag k="ref:vcgi:esiteid" v="254727"/>
  </node>
  <node id="-495" visible="true" lat="44.60391789" lon="-72.00976441">
    <tag k="addr:housenumber" v="103"/>
    <tag k="addr:street" v="Chapman Road"/>
    <tag k="addr:state" v="VT"/>
    <tag k="ref:vcgi:esiteid" v="254728"/>
  </node>
  <node id="-496" visible="true" lat="44.60395812" lon="-72.02262878">
    <tag k="addr:housenumber" v="553"/>
    <tag k="addr:street" v="South Ridge Road"/>
    <tag k="addr:state" v="VT"/>
    <tag k="ref:vcgi:esiteid" v="254729"/>
  </node>
  <node id="-497" visible="true" lat="44.60392641" lon="-72.04539464">
    <tag k="addr:housenumber" v="213"/>
    <tag k="addr:street" v="Riendeau Road"/>
    <tag k="addr:state" v="VT"/>
    <tag k="ref:vcgi:esiteid" v="254730"/>
  </node>
  <node id="-498" visible="true" lat="44.60333425" lon="-72.00449956">
    <tag k="addr:housenumber" v="304"/>
    <tag k="addr:street" v="Chapman Road"/>
    <tag k="addr:state" v="VT"/>
    <tag k="ref:vcgi:esiteid" v="254731"/>
  </node>
  <node id="-499" visible="true" lat="44.6034851" lon="-72.05458068">
    <tag k="addr:housenumber" v="2649"/>
    <tag k="addr:street" v="Wheelock Road"/>
    <tag k="addr:state" v="VT"/>
    <tag k="ref:vcgi:esiteid" v="254732"/>
  </node>
  <node id="-500" visible="true" lat="44.60300757" lon="-72.04670729">
    <tag k="addr:housenumber" v="284"/>
    <tag k="addr:street" v="Riendeau Road"/>
    <tag k="addr:state" v="VT"/>
    <tag k="ref:vcgi:esiteid" v="254733"/>
  </node>
  <node id="-501" visible="true" lat="44.60250918" lon="-72.0121809">
    <tag k="addr:housenumber" v="4307"/>
    <tag k="addr:street" v="Pudding Hill Road"/>
    <tag k="addr:state" v="VT"/>
    <tag k="ref:vcgi:esiteid" v="254734"/>
  </node>
  <node id="-502" visible="true" lat="44.60274602" lon="-72.01140911">
    <tag k="addr:housenumber" v="4304"/>
    <tag k="addr:street" v="Pudding Hill Road"/>
    <tag k="addr:state" v="VT"/>
    <tag k="ref:vcgi:esiteid" v="254735"/>
  </node>
  <node id="-503" visible="true" lat="44.60251834" lon="-72.04523674">
    <tag k="addr:housenumber" v="305"/>
    <tag k="addr:street" v="Riendeau Road"/>
    <tag k="addr:state" v="VT"/>
    <tag k="ref:vcgi:esiteid" v="254736"/>
  </node>
  <node id="-504" visible="true" lat="44.60187149" lon="-72.01194">
    <tag k="addr:housenumber" v="4251"/>
    <tag k="addr:street" v="Pudding Hill Road"/>
    <tag k="addr:state" v="VT"/>
    <tag k="ref:vcgi:esiteid" v="254737"/>
  </node>
  <node id="-505" visible="true" lat="44.60202832" lon="-72.04502106">
    <tag k="addr:housenumber" v="377"/>
    <tag k="addr:street" v="Riendeau Road"/>
    <tag k="addr:state" v="VT"/>
    <tag k="ref:vcgi:esiteid" v="254738"/>
  </node>
  <node id="-506" visible="true" lat="44.60100945" lon="-72.04605731">
    <tag k="addr:housenumber" v="392"/>
    <tag k="addr:street" v="Riendeau Road"/>
    <tag k="addr:state" v="VT"/>
    <tag k="ref:vcgi:esiteid" v="254739"/>
  </node>
  <node id="-507" visible="true" lat="44.59967823" lon="-72.01220472">
    <tag k="addr:housenumber" v="4089"/>
    <tag k="addr:street" v="Pudding Hill Road"/>
    <tag k="addr:state" v="VT"/>
    <tag k="ref:vcgi:esiteid" v="254740"/>
  </node>
  <node id="-508" visible="true" lat="44.59725234" lon="-72.0120863">
    <tag k="addr:housenumber" v="3949"/>
    <tag k="addr:street" v="Pudding Hill Road"/>
    <tag k="addr:state" v="VT"/>
    <tag k="ref:vcgi:esiteid" v="254741"/>
  </node>
  <node id="-509" visible="true" lat="44.59917762" lon="-72.00389518">
    <tag k="addr:housenumber" v="298"/>
    <tag k="addr:street" v="Chapman Road"/>
    <tag k="addr:state" v="VT"/>
    <tag k="ref:vcgi:esiteid" v="254742"/>
  </node>
  <node id="-510" visible="true" lat="44.59633072" lon="-72.01224397">
    <tag k="addr:housenumber" v="3899"/>
    <tag k="addr:street" v="Pudding Hill Road"/>
    <tag k="addr:state" v="VT"/>
    <tag k="ref:vcgi:esiteid" v="254743"/>
  </node>
  <node id="-511" visible="true" lat="44.594841" lon="-72.00917053">
    <tag k="addr:housenumber" v="3700"/>
    <tag k="addr:street" v="Pudding Hill Road"/>
    <tag k="addr:state" v="VT"/>
    <tag k="ref:vcgi:esiteid" v="254744"/>
  </node>
  <node id="-512" visible="true" lat="44.59479351" lon="-72.02849813">
    <tag k="addr:housenumber" v="299"/>
    <tag k="addr:street" v="Robert Hazen Drive"/>
    <tag k="addr:state" v="VT"/>
    <tag k="ref:vcgi:esiteid" v="254745"/>
  </node>
  <node id="-513" visible="true" lat="44.5945578" lon="-72.01066934">
    <tag k="addr:housenumber" v="3729"/>
    <tag k="addr:street" v="Pudding Hill Road"/>
    <tag k="addr:state" v="VT"/>
    <tag k="ref:vcgi:esiteid" v="254746"/>
  </node>
  <node id="-514" visible="true" lat="44.59460119" lon="-72.00996183">
    <tag k="addr:housenumber" v="3716"/>
    <tag k="addr:street" v="Pudding Hill Road"/>
    <tag k="addr:state" v="VT"/>
    <tag k="ref:vcgi:esiteid" v="254747"/>
  </node>
  <node id="-515" visible="true" lat="44.59427761" lon="-72.02395057">
    <tag k="addr:housenumber" v="56"/>
    <tag k="addr:street" v="Robert Hazen Drive"/>
    <tag k="addr:state" v="VT"/>
    <tag k="ref:vcgi:esiteid" v="254748"/>
  </node>
  <node id="-516" visible="true" lat="44.59399393" lon="-72.01251303">
    <tag k="addr:housenumber" v="99"/>
    <tag k="addr:street" v="Lanes Way"/>
    <tag k="addr:state" v="VT"/>
    <tag k="ref:vcgi:esiteid" v="254749"/>
  </node>
  <node id="-518" visible="true" lat="44.61328998" lon="-71.99617147">
    <tag k="addr:housenumber" v="1116"/>
    <tag k="addr:street" v="Simpson Hill"/>
    <tag k="addr:state" v="VT"/>
    <tag k="ref:vcgi:esiteid" v="254751"/>
  </node>
  <node id="-520" visible="true" lat="44.69443782" lon="-72.06391558">
    <tag k="addr:housenumber" v="5666"/>
    <tag k="addr:street" v="U.S. Route 5"/>
    <tag k="addr:state" v="VT"/>
    <tag k="ref:vcgi:esiteid" v="254753"/>
  </node>
  <node id="-522" visible="true" lat="44.66039678" lon="-72.04224681">
    <tag k="addr:housenumber" v="2061"/>
    <tag k="addr:street" v="Underpass Road"/>
    <tag k="addr:state" v="VT"/>
    <tag k="ref:vcgi:esiteid" v="254755"/>
  </node>
  <node id="-527" visible="true" lat="44.66811303" lon="-72.0061166">
    <tag k="addr:housenumber" v="2197"/>
    <tag k="addr:street" v="North Ridge Road"/>
    <tag k="addr:state" v="VT"/>
    <tag k="ref:vcgi:esiteid" v="254760"/>
  </node>
  <node id="-528" visible="true" lat="44.62653857" lon="-72.06594658">
    <tag k="addr:housenumber" v="850"/>
    <tag k="addr:street" v="Wood Hill Road"/>
    <tag k="addr:state" v="VT"/>
    <tag k="ref:vcgi:esiteid" v="254761"/>
  </node>
  <node id="-529" visible="true" lat="44.65827015" lon="-72.04253258">
    <tag k="addr:housenumber" v="121"/>
    <tag k="addr:street" v="Four Corners Road"/>
    <tag k="addr:state" v="VT"/>
    <tag k="ref:vcgi:esiteid" v="254762"/>
  </node>
  <node id="-530" visible="true" lat="44.62265967" lon="-72.03060315">
    <tag k="addr:housenumber" v="733"/>
    <tag k="addr:street" v="Wheelock Road"/>
    <tag k="addr:state" v="VT"/>
    <tag k="ref:vcgi:esiteid" v="254764"/>
  </node>
  <node id="-533" visible="true" lat="44.62290609" lon="-72.03202508">
    <tag k="addr:housenumber" v="710"/>
    <tag k="addr:street" v="Wheelock Road"/>
    <tag k="addr:state" v="VT"/>
    <tag k="ref:vcgi:esiteid" v="254767"/>
  </node>
  <node id="-537" visible="true" lat="44.65828388" lon="-72.00245054">
    <tag k="addr:housenumber" v="1501"/>
    <tag k="addr:street" v="North Ridge Road"/>
    <tag k="addr:state" v="VT"/>
    <tag k="ref:vcgi:esiteid" v="254772"/>
  </node>
  <node id="-538" visible="true" lat="44.63820586" lon="-72.07126725">
    <tag k="addr:housenumber" v="2269"/>
    <tag k="addr:street" v="Sheffield Road"/>
    <tag k="addr:state" v="VT"/>
    <tag k="ref:vcgi:esiteid" v="254773"/>
  </node>
  <node id="-539" visible="true" lat="44.65575998" lon="-72.02232765">
    <tag k="addr:housenumber" v="1561"/>
    <tag k="addr:street" v="Station Road"/>
    <tag k="addr:state" v="VT"/>
    <tag k="ref:vcgi:esiteid" v="254774"/>
  </node>
  <node id="-540" visible="true" lat="44.66515274" lon="-72.04584548">
    <tag k="addr:housenumber" v="2457"/>
    <tag k="addr:street" v="Underpass Road"/>
    <tag k="addr:state" v="VT"/>
    <tag k="ref:vcgi:esiteid" v="254775"/>
  </node>
  <node id="-541" visible="true" lat="44.6684703" lon="-71.99413662">
    <tag k="addr:housenumber" v="2095"/>
    <tag k="addr:street" v="Vermont Route 5A"/>
    <tag k="addr:state" v="VT"/>
    <tag k="ref:vcgi:esiteid" v="254776"/>
  </node>
  <node id="-542" visible="true" lat="44.64926182" lon="-71.98291306">
    <tag k="addr:housenumber" v="535"/>
    <tag k="addr:street" v="Vermont Route 5A"/>
    <tag k="addr:state" v="VT"/>
    <tag k="ref:vcgi:esiteid" v="254777"/>
  </node>
  <node id="-543" visible="true" lat="44.64847234" lon="-71.98277399">
    <tag k="addr:housenumber" v="501"/>
    <tag k="addr:street" v="Vermont Route 5A"/>
    <tag k="addr:state" v="VT"/>
    <tag k="ref:vcgi:esiteid" v="254778"/>
  </node>
  <node id="-544" visible="true" lat="44.72789124" lon="-72.09805847">
    <tag k="addr:housenumber" v="825"/>
    <tag k="addr:street" v="Wheeler Mountain Road"/>
    <tag k="addr:state" v="VT"/>
    <tag k="ref:vcgi:esiteid" v="254779"/>
  </node>
  <node id="-546" visible="true" lat="44.60112168" lon="-72.04527621">
    <tag k="addr:housenumber" v="391"/>
    <tag k="addr:street" v="Riendeau Road"/>
    <tag k="addr:state" v="VT"/>
    <tag k="ref:vcgi:esiteid" v="254781"/>
  </node>
  <node id="-550" visible="true" lat="44.67404296" lon="-72.05712224">
    <tag k="addr:housenumber" v="90"/>
    <tag k="addr:street" v="Hopeful Acres Drive"/>
    <tag k="addr:state" v="VT"/>
    <tag k="ref:vcgi:esiteid" v="328848"/>
  </node>
  <node id="-551" visible="true" lat="44.67272649" lon="-72.05844577">
    <tag k="addr:housenumber" v="93"/>
    <tag k="addr:street" v="Hopeful Acres Drive"/>
    <tag k="addr:state" v="VT"/>
    <tag k="ref:vcgi:esiteid" v="328849"/>
  </node>
  <node id="-552" visible="true" lat="44.61704281" lon="-72.04405763">
    <tag k="addr:housenumber" v="46"/>
    <tag k="addr:street" v="Freedom Road"/>
    <tag k="addr:state" v="VT"/>
    <tag k="ref:vcgi:esiteid" v="331169"/>
  </node>
  <node id="-553" visible="true" lat="44.67679946" lon="-71.98213631">
    <tag k="addr:housenumber" v="1586"/>
    <tag k="addr:street" v="East Ridge Road"/>
    <tag k="addr:state" v="VT"/>
    <tag k="ref:vcgi:esiteid" v="336934"/>
  </node>
  <node id="-554" visible="true" lat="44.62800137" lon="-72.0635376">
    <tag k="addr:housenumber" v="798"/>
    <tag k="addr:street" v="Wood Hill Road"/>
    <tag k="addr:state" v="VT"/>
    <tag k="ref:vcgi:esiteid" v="342887"/>
  </node>
  <node id="-555" visible="true" lat="44.6197448" lon="-72.01542655">
    <tag k="addr:housenumber" v="3402"/>
    <tag k="addr:street" v="Calendar Brook Road"/>
    <tag k="addr:state" v="VT"/>
    <tag k="ref:vcgi:esiteid" v="365611"/>
  </node>
  <node id="-556" visible="true" lat="44.67529095" lon="-72.03045353">
    <tag k="addr:housenumber" v="3443"/>
    <tag k="addr:street" v="U.S. Route 5"/>
    <tag k="addr:state" v="VT"/>
    <tag k="ref:vcgi:esiteid" v="365649"/>
  </node>
  <node id="-557" visible="true" lat="44.62494024" lon="-72.03735078">
    <tag k="addr:housenumber" v="334"/>
    <tag k="addr:street" v="Sylvester Drive"/>
    <tag k="addr:state" v="VT"/>
    <tag k="ref:vcgi:esiteid" v="449126"/>
  </node>
  <node id="-558" visible="true" lat="44.62433038" lon="-72.03527926">
    <tag k="addr:housenumber" v="243"/>
    <tag k="addr:street" v="Sylvester Drive"/>
    <tag k="addr:state" v="VT"/>
    <tag k="ref:vcgi:esiteid" v="449127"/>
  </node>
  <node id="-559" visible="true" lat="44.62910879" lon="-72.00296317">
    <tag k="addr:housenumber" v="1184"/>
    <tag k="addr:street" v="Burke Road"/>
    <tag k="addr:state" v="VT"/>
    <tag k="ref:vcgi:esiteid" v="452839"/>
  </node>
  <node id="-560" visible="true" lat="44.67852486" lon="-72.05344148">
    <tag k="addr:housenumber" v="43"/>
    <tag k="addr:street" v="Ernie Evans Road"/>
    <tag k="addr:state" v="VT"/>
    <tag k="ref:vcgi:esiteid" v="452841"/>
  </node>
  <node id="-561" visible="true" lat="44.66571238" lon="-72.05488135">
    <tag k="addr:housenumber" v="835"/>
    <tag k="addr:street" v="Morey Road"/>
    <tag k="addr:state" v="VT"/>
    <tag k="ref:vcgi:esiteid" v="452842"/>
  </node>
  <node id="-562" visible="true" lat="44.66408282" lon="-72.05687753">
    <tag k="addr:housenumber" v="775"/>
    <tag k="addr:street" v="Morey Road"/>
    <tag k="addr:state" v="VT"/>
    <tag k="ref:vcgi:esiteid" v="452843"/>
  </node>
  <node id="-563" visible="true" lat="44.66253402" lon="-72.05058483">
    <tag k="addr:housenumber" v="510"/>
    <tag k="addr:street" v="Morey Road"/>
    <tag k="addr:state" v="VT"/>
    <tag k="ref:vcgi:esiteid" v="452844"/>
  </node>
  <node id="-564" visible="true" lat="44.6406169" lon="-72.07089492">
    <tag k="addr:housenumber" v="46"/>
    <tag k="addr:street" v="Union House Road"/>
    <tag k="addr:state" v="VT"/>
    <tag k="ref:vcgi:esiteid" v="452845"/>
  </node>
  <node id="-565" visible="true" lat="44.69096256" lon="-71.99640505">
    <tag k="addr:housenumber" v="165"/>
    <tag k="addr:street" v="Newark Pond Road"/>
    <tag k="addr:state" v="VT"/>
    <tag k="ref:vcgi:esiteid" v="452846"/>
  </node>
  <node id="-566" visible="true" lat="44.68602144" lon="-72.01673284">
    <tag k="addr:housenumber" v="347"/>
    <tag k="addr:street" v="Nygrens Road"/>
    <tag k="addr:state" v="VT"/>
    <tag k="ref:vcgi:esiteid" v="452847"/>
  </node>
  <node id="-567" visible="true" lat="44.67396805" lon="-72.01957861">
    <tag k="addr:housenumber" v="809"/>
    <tag k="addr:street" v="Pierce Hill Road"/>
    <tag k="addr:state" v="VT"/>
    <tag k="ref:vcgi:esiteid" v="452848"/>
  </node>
  <node id="-568" visible="true" lat="44.64536597" lon="-71.992542">
    <tag k="addr:housenumber" v="414"/>
    <tag k="addr:street" v="U.S. Route 5"/>
    <tag k="addr:state" v="VT"/>
    <tag k="ref:vcgi:esiteid" v="452851"/>
  </node>
  <node id="-569" visible="true" lat="44.64318092" lon="-71.98627241">
    <tag k="addr:housenumber" v="144"/>
    <tag k="addr:street" v="U.S. Route 5"/>
    <tag k="addr:state" v="VT"/>
    <tag k="ref:vcgi:esiteid" v="452852"/>
  </node>
  <node id="-570" visible="true" lat="44.69126893" lon="-71.99783156">
    <tag k="addr:housenumber" v="3756"/>
    <tag k="addr:street" v="Vermont Route 5A"/>
    <tag k="addr:state" v="VT"/>
    <tag k="ref:vcgi:esiteid" v="454224"/>
  </node>
  <node id="-571" visible="true" lat="44.68686819" lon="-71.99151591">
    <tag k="addr:housenumber" v="359"/>
    <tag k="addr:street" v="Rocky Road"/>
    <tag k="addr:state" v="VT"/>
    <tag k="ref:vcgi:esiteid" v="455541"/>
  </node>
  <node id="-572" visible="true" lat="44.6884404" lon="-72.05346341">
    <tag k="addr:housenumber" v="5005"/>
    <tag k="addr:street" v="U.S. Route 5"/>
    <tag k="addr:state" v="VT"/>
    <tag k="ref:vcgi:esiteid" v="455542"/>
  </node>
  <node id="-573" visible="true" lat="44.61172064" lon="-72.04485653">
    <tag k="addr:housenumber" v="1847"/>
    <tag k="addr:street" v="Wheelock Road"/>
    <tag k="addr:state" v="VT"/>
    <tag k="ref:vcgi:esiteid" v="455543"/>
  </node>
  <node id="-574" visible="true" lat="44.66850415" lon="-71.99054946">
    <tag k="addr:housenumber" v="1676"/>
    <tag k="addr:street" v="Vermont Route 5A"/>
    <tag k="addr:state" v="VT"/>
    <tag k="ref:vcgi:esiteid" v="610894"/>
  </node>
  <node id="-575" visible="true" lat="44.6603843" lon="-71.99028258">
    <tag k="addr:housenumber" v="1521"/>
    <tag k="addr:street" v="Vermont Route 5A"/>
    <tag k="addr:state" v="VT"/>
    <tag k="ref:vcgi:esiteid" v="610895"/>
  </node>
  <node id="-576" visible="true" lat="44.67878305" lon="-71.99579356">
    <tag k="addr:housenumber" v="2777"/>
    <tag k="addr:street" v="Vermont Route 5A"/>
    <tag k="addr:state" v="VT"/>
    <tag k="ref:vcgi:esiteid" v="611886"/>
  </node>
  <node id="-577" visible="true" lat="44.68075739" lon="-71.99577077">
    <tag k="addr:housenumber" v="2931"/>
    <tag k="addr:street" v="Vermont Route 5A"/>
    <tag k="addr:state" v="VT"/>
    <tag k="ref:vcgi:esiteid" v="611887"/>
  </node>
  <node id="-578" visible="true" lat="44.68161271" lon="-71.99481738">
    <tag k="addr:housenumber" v="3024"/>
    <tag k="addr:street" v="Vermont Route 5A"/>
    <tag k="addr:state" v="VT"/>
    <tag k="ref:vcgi:esiteid" v="611888"/>
  </node>
  <node id="-579" visible="true" lat="44.65430613" lon="-72.04039041">
    <tag k="addr:housenumber" v="1549"/>
    <tag k="addr:street" v="Underpass Road"/>
    <tag k="addr:state" v="VT"/>
    <tag k="ref:vcgi:esiteid" v="611913"/>
  </node>
  <node id="-580" visible="true" lat="44.65490202" lon="-72.03700985">
    <tag k="addr:housenumber" v="1690"/>
    <tag k="addr:street" v="Underpass Road"/>
    <tag k="addr:state" v="VT"/>
    <tag k="ref:vcgi:esiteid" v="611914"/>
  </node>
  <node id="-581" visible="true" lat="44.65720385" lon="-72.04098134">
    <tag k="addr:housenumber" v="1875"/>
    <tag k="addr:street" v="Underpass Road"/>
    <tag k="addr:state" v="VT"/>
    <tag k="ref:vcgi:esiteid" v="611915"/>
  </node>
  <node id="-582" visible="true" lat="44.66767104" lon="-72.04268062">
    <tag k="addr:housenumber" v="2604"/>
    <tag k="addr:street" v="Underpass Road"/>
    <tag k="addr:state" v="VT"/>
    <tag k="ref:vcgi:esiteid" v="611916"/>
  </node>
  <node id="-583" visible="true" lat="44.66318778" lon="-72.04396186">
    <tag k="addr:housenumber" v="2267"/>
    <tag k="addr:street" v="Underpass Road"/>
    <tag k="addr:state" v="VT"/>
    <tag k="ref:vcgi:esiteid" v="611917"/>
  </node>
  <node id="-584" visible="true" lat="44.6897784" lon="-72.02164118">
    <tag k="addr:housenumber" v="890"/>
    <tag k="addr:street" v="Dolloff Pond Road"/>
    <tag k="addr:state" v="VT"/>
    <tag k="ref:vcgi:esiteid" v="617621"/>
  </node>
  <node id="-585" visible="true" lat="44.6776571" lon="-72.03122566">
    <tag k="addr:housenumber" v="3610"/>
    <tag k="addr:street" v="U.S. Route 5"/>
    <tag k="addr:state" v="VT"/>
    <tag k="ref:vcgi:esiteid" v="617658"/>
  </node>
  <node id="-586" visible="true" lat="44.62772234" lon="-72.0008345">
    <tag k="addr:housenumber" v="84"/>
    <tag k="addr:street" v="Simpson Hill"/>
    <tag k="addr:state" v="VT"/>
    <tag k="ref:vcgi:esiteid" v="618029"/>
  </node>
  <node id="-587" visible="true" lat="44.65146749" lon="-72.01997556">
    <tag k="addr:housenumber" v="1328"/>
    <tag k="addr:street" v="Station Road"/>
    <tag k="addr:state" v="VT"/>
    <tag k="ref:vcgi:esiteid" v="618030"/>
  </node>
  <node id="-588" visible="true" lat="44.67997269" lon="-72.05677018">
    <tag k="addr:housenumber" v="224"/>
    <tag k="addr:street" v="Ernie Evans Road"/>
    <tag k="addr:state" v="VT"/>
    <tag k="ref:vcgi:esiteid" v="618375"/>
  </node>
  <node id="-590" visible="true" lat="44.67475505" lon="-72.05144026">
    <tag k="addr:housenumber" v="3185"/>
    <tag k="addr:street" v="Underpass Road"/>
    <tag k="addr:state" v="VT"/>
    <tag k="ref:vcgi:esiteid" v="620316"/>
  </node>
  <node id="-591" visible="true" lat="44.67354036" lon="-72.04923226">
    <tag k="addr:housenumber" v="3086"/>
    <tag k="addr:street" v="Underpass Road"/>
    <tag k="addr:state" v="VT"/>
    <tag k="ref:vcgi:esiteid" v="620317"/>
  </node>
  <node id="-593" visible="true" lat="44.65748987" lon="-72.01812687">
    <tag k="addr:housenumber" v="2093"/>
    <tag k="addr:street" v="U.S. Route 5"/>
    <tag k="addr:state" v="VT"/>
    <tag k="ref:vcgi:esiteid" v="654873"/>
  </node>
  <node id="-594" visible="true" lat="44.66147614" lon="-72.04849101">
    <tag k="addr:housenumber" v="388"/>
    <tag k="addr:street" v="Morey Road"/>
    <tag k="addr:state" v="VT"/>
    <tag k="ref:vcgi:esiteid" v="700189"/>
  </node>
  <node id="-596" visible="true" lat="44.64458348" lon="-72.03492605">
    <tag k="addr:housenumber" v="925"/>
    <tag k="addr:street" v="Underpass Road"/>
    <tag k="addr:state" v="VT"/>
    <tag k="ref:vcgi:esiteid" v="750824"/>
  </node>
  <node id="-597" visible="true" lat="44.64323306" lon="-72.04072">
    <tag k="addr:housenumber" v="62"/>
    <tag k="addr:street" v="Craig Pond Road"/>
    <tag k="addr:state" v="VT"/>
    <tag k="ref:vcgi:esiteid" v="750825"/>
  </node>
  <node id="-599" visible="true" lat="44.66876655" lon="-72.02686576">
    <tag k="addr:housenumber" v="2989"/>
    <tag k="addr:street" v="U.S. Route 5"/>
    <tag k="addr:state" v="VT"/>
    <tag k="ref:vcgi:esiteid" v="751786"/>
  </node>
  <node id="-600" visible="true" lat="44.66748278" lon="-72.02218934">
    <tag k="addr:housenumber" v="2800"/>
    <tag k="addr:street" v="U.S. Route 5"/>
    <tag k="addr:state" v="VT"/>
    <tag k="ref:vcgi:esiteid" v="751787"/>
  </node>
  <node id="-601" visible="true" lat="44.67036757" lon="-72.03084609">
    <tag k="addr:housenumber" v="3247"/>
    <tag k="addr:street" v="U.S. Route 5"/>
    <tag k="addr:state" v="VT"/>
    <tag k="ref:vcgi:esiteid" v="751788"/>
  </node>
  <node id="-602" visible="true" lat="44.69374065" lon="-72.08803772">
    <tag k="addr:housenumber" v="6791"/>
    <tag k="addr:street" v="U.S. Route 5"/>
    <tag k="addr:state" v="VT"/>
    <tag k="ref:vcgi:esiteid" v="751834"/>
  </node>
  <node id="-603" visible="true" lat="44.69584098" lon="-72.08271071">
    <tag k="addr:housenumber" v="6640"/>
    <tag k="addr:street" v="U.S. Route 5"/>
    <tag k="addr:state" v="VT"/>
    <tag k="ref:vcgi:esiteid" v="751835"/>
  </node>
  <node id="-604" visible="true" lat="44.63480917" lon="-72.00880621">
    <tag k="addr:housenumber" v="839"/>
    <tag k="addr:street" v="Burke Road"/>
    <tag k="addr:state" v="VT"/>
    <tag k="ref:vcgi:esiteid" v="751987"/>
  </node>
  <node id="-605" visible="true" lat="44.61036796" lon="-72.00108261">
    <tag k="addr:housenumber" v="2504"/>
    <tag k="addr:street" v="Calendar Brook Road"/>
    <tag k="addr:state" v="VT"/>
    <tag k="ref:vcgi:esiteid" v="751988"/>
  </node>
  <node id="-606" visible="true" lat="44.6175747" lon="-72.0151718">
    <tag k="addr:housenumber" v="56"/>
    <tag k="addr:street" v="Dexter Road"/>
    <tag k="addr:state" v="VT"/>
    <tag k="ref:vcgi:esiteid" v="751989"/>
  </node>
  <node id="-607" visible="true" lat="44.61748879" lon="-72.04979069">
    <tag k="addr:housenumber" v="313"/>
    <tag k="addr:street" v="Freedom Road"/>
    <tag k="addr:state" v="VT"/>
    <tag k="ref:vcgi:esiteid" v="751990"/>
  </node>
  <node id="-608" visible="true" lat="44.61688863" lon="-72.04794682">
    <tag k="addr:housenumber" v="223"/>
    <tag k="addr:street" v="Freedom Road"/>
    <tag k="addr:state" v="VT"/>
    <tag k="ref:vcgi:esiteid" v="751991"/>
  </node>
  <node id="-609" visible="true" lat="44.62015218" lon="-72.05256164">
    <tag k="addr:housenumber" v="604"/>
    <tag k="addr:street" v="Freedom Road"/>
    <tag k="addr:state" v="VT"/>
    <tag k="ref:vcgi:esiteid" v="751992"/>
  </node>
  <node id="-610" visible="true" lat="44.65958766" lon="-72.01140581">
    <tag k="addr:housenumber" v="339"/>
    <tag k="addr:street" v="Michaud Drive"/>
    <tag k="addr:state" v="VT"/>
    <tag k="ref:vcgi:esiteid" v="751993"/>
  </node>
  <node id="-611" visible="true" lat="44.60500664" lon="-72.02320776">
    <tag k="addr:housenumber" v="632"/>
    <tag k="addr:street" v="South Ridge Road"/>
    <tag k="addr:state" v="VT"/>
    <tag k="ref:vcgi:esiteid" v="751994"/>
  </node>
  <node id="-612" visible="true" lat="44.60252364" lon="-72.02646424">
    <tag k="addr:housenumber" v="653"/>
    <tag k="addr:street" v="South Ridge Road"/>
    <tag k="addr:state" v="VT"/>
    <tag k="ref:vcgi:esiteid" v="751995"/>
  </node>
  <node id="-613" visible="true" lat="44.60625759" lon="-72.02772046">
    <tag k="addr:housenumber" v="781"/>
    <tag k="addr:street" v="South Ridge Road"/>
    <tag k="addr:state" v="VT"/>
    <tag k="ref:vcgi:esiteid" v="751996"/>
  </node>
  <node id="-614" visible="true" lat="44.60599706" lon="-72.03094727">
    <tag k="addr:housenumber" v="789"/>
    <tag k="addr:street" v="South Ridge Road"/>
    <tag k="addr:state" v="VT"/>
    <tag k="ref:vcgi:esiteid" v="751997"/>
  </node>
  <node id="-615" visible="true" lat="44.63955431" lon="-72.02571975">
    <tag k="addr:housenumber" v="469"/>
    <tag k="addr:street" v="Station Road"/>
    <tag k="addr:state" v="VT"/>
    <tag k="ref:vcgi:esiteid" v="752589"/>
  </node>
  <node id="-616" visible="true" lat="44.63882374" lon="-72.02520124">
    <tag k="addr:housenumber" v="517"/>
    <tag k="addr:street" v="Station Road"/>
    <tag k="addr:state" v="VT"/>
    <tag k="ref:vcgi:esiteid" v="752590"/>
  </node>
  <node id="-617" visible="true" lat="44.65480308" lon="-72.02577864">
    <tag k="addr:housenumber" v="1329"/>
    <tag k="addr:street" v="Station Road"/>
    <tag k="addr:state" v="VT"/>
    <tag k="ref:vcgi:esiteid" v="752728"/>
  </node>
  <node id="-618" visible="true" lat="44.6453832" lon="-72.02372944">
    <tag k="addr:housenumber" v="809"/>
    <tag k="addr:street" v="Station Road"/>
    <tag k="addr:state" v="VT"/>
    <tag k="ref:vcgi:esiteid" v="752729"/>
  </node>
  <node id="-619" visible="true" lat="44.69210324" lon="-72.01224995">
    <tag k="addr:housenumber" v="1101"/>
    <tag k="addr:street" v="Nygrens Road"/>
    <tag k="addr:state" v="VT"/>
    <tag k="ref:vcgi:esiteid" v="753296"/>
  </node>
  <node id="-620" visible="true" lat="44.66960941" lon="-71.99448998">
    <tag k="addr:housenumber" v="2305"/>
    <tag k="addr:street" v="Vermont Route 5A"/>
    <tag k="addr:state" v="VT"/>
    <tag k="ref:vcgi:esiteid" v="753498"/>
  </node>
  <node id="-621" visible="true" lat="44.63767405" lon="-72.05766725">
    <tag k="addr:housenumber" v="1612"/>
    <tag k="addr:street" v="Sheffield Road"/>
    <tag k="addr:state" v="VT"/>
    <tag k="ref:vcgi:esiteid" v="754968"/>
  </node>
  <node id="-622" visible="true" lat="44.65773713" lon="-72.0393979">
    <tag k="addr:housenumber" v="50"/>
    <tag k="addr:street" v="Four Corners Trail"/>
    <tag k="addr:state" v="VT"/>
    <tag k="ref:vcgi:esiteid" v="757201"/>
  </node>
  <node id="-623" visible="true" lat="44.61288983" lon="-72.02811094">
    <tag k="addr:housenumber" v="1226"/>
    <tag k="addr:street" v="South Ridge Road"/>
    <tag k="addr:state" v="VT"/>
    <tag k="ref:vcgi:esiteid" v="758113"/>
  </node>
  <node id="-624" visible="true" lat="44.67032611" lon="-72.04671139">
    <tag k="addr:housenumber" v="2810"/>
    <tag k="addr:street" v="Underpass Road"/>
    <tag k="addr:state" v="VT"/>
    <tag k="ref:vcgi:esiteid" v="758116"/>
  </node>
  <node id="-625" visible="true" lat="44.6690496" lon="-72.04544508">
    <tag k="addr:housenumber" v="2700"/>
    <tag k="addr:street" v="Underpass Road"/>
    <tag k="addr:state" v="VT"/>
    <tag k="ref:vcgi:esiteid" v="758117"/>
  </node>
  <node id="-626" visible="true" lat="44.67048796" lon="-72.04073757">
    <tag k="addr:housenumber" v="2606"/>
    <tag k="addr:street" v="Underpass Road"/>
    <tag k="addr:state" v="VT"/>
    <tag k="ref:vcgi:esiteid" v="758118"/>
  </node>
  <node id="-627" visible="true" lat="44.68623669" lon="-72.04122308">
    <tag k="addr:housenumber" v="4425"/>
    <tag k="addr:street" v="U.S. Route 5"/>
    <tag k="addr:state" v="VT"/>
    <tag k="ref:vcgi:esiteid" v="758310"/>
  </node>
  <node id="-628" visible="true" lat="44.74107869" lon="-72.09856268">
    <tag k="addr:housenumber" v="319"/>
    <tag k="addr:street" v="Stevens Lane"/>
    <tag k="addr:state" v="VT"/>
    <tag k="ref:vcgi:esiteid" v="758785"/>
  </node>
  <node id="-629" visible="true" lat="44.68283178" lon="-71.9884317">
    <tag k="addr:housenumber" v="2191"/>
    <tag k="addr:street" v="East Ridge Road"/>
    <tag k="addr:state" v="VT"/>
    <tag k="ref:vcgi:esiteid" v="759415"/>
  </node>
  <node id="-633" visible="true" lat="44.65921138" lon="-72.01107875">
    <tag k="addr:housenumber" v="348"/>
    <tag k="addr:street" v="Michaud Drive"/>
    <tag k="addr:state" v="VT"/>
    <tag k="ref:vcgi:esiteid" v="759665"/>
  </node>
  <node id="-634" visible="true" lat="44.628652" lon="-71.99773712">
    <tag k="addr:housenumber" v="1416"/>
    <tag k="addr:street" v="Burke Road"/>
    <tag k="addr:state" v="VT"/>
    <tag k="ref:vcgi:esiteid" v="760214"/>
  </node>
  <node id="-635" visible="true" lat="44.65081871" lon="-72.03870256">
    <tag k="addr:housenumber" v="1445"/>
    <tag k="addr:street" v="Underpass Road"/>
    <tag k="addr:state" v="VT"/>
    <tag k="ref:vcgi:esiteid" v="760564"/>
  </node>
  <node id="-636" visible="true" lat="44.650958" lon="-72.0440192">
    <tag k="addr:housenumber" v="820"/>
    <tag k="addr:street" v="King George Farm Road"/>
    <tag k="addr:state" v="VT"/>
    <tag k="ref:vcgi:esiteid" v="760565"/>
  </node>
  <node id="-637" visible="true" lat="44.63744314" lon="-72.06511005">
    <tag k="addr:housenumber" v="2005"/>
    <tag k="addr:street" v="Sheffield Road"/>
    <tag k="addr:state" v="VT"/>
    <tag k="ref:vcgi:esiteid" v="760974"/>
  </node>
  <node id="-638" visible="true" lat="44.63476027" lon="-72.02569011">
    <tag k="addr:housenumber" v="96"/>
    <tag k="addr:street" v="Station Road"/>
    <tag k="addr:state" v="VT"/>
    <tag k="ref:vcgi:esiteid" v="760988"/>
  </node>
  <node id="-639" visible="true" lat="44.6367304" lon="-72.02927033">
    <tag k="addr:housenumber" v="320"/>
    <tag k="addr:street" v="Underpass Road"/>
    <tag k="addr:state" v="VT"/>
    <tag k="ref:vcgi:esiteid" v="760989"/>
  </node>
  <node id="-640" visible="true" lat="44.6320123" lon="-72.06402228">
    <tag k="addr:housenumber" v="588"/>
    <tag k="addr:street" v="Wood Hill Road"/>
    <tag k="addr:state" v="VT"/>
    <tag k="ref:vcgi:esiteid" v="761126"/>
  </node>
  <node id="-641" visible="true" lat="44.66186877" lon="-72.04349367">
    <tag k="addr:housenumber" v="2209"/>
    <tag k="addr:street" v="Underpass Road"/>
    <tag k="addr:state" v="VT"/>
    <tag k="ref:vcgi:esiteid" v="761127"/>
  </node>
  <node id="-642" visible="true" lat="44.66923817" lon="-71.99611643">
    <tag k="addr:housenumber" v="2307"/>
    <tag k="addr:street" v="Vermont Route 5A"/>
    <tag k="addr:state" v="VT"/>
    <tag k="ref:vcgi:esiteid" v="761946"/>
  </node>
  <node id="-643" visible="true" lat="44.67613484" lon="-72.03095935">
    <tag k="addr:housenumber" v="3455"/>
    <tag k="addr:street" v="U.S. Route 5"/>
    <tag k="addr:state" v="VT"/>
    <tag k="ref:vcgi:esiteid" v="762161"/>
  </node>
  <node id="-644" visible="true" lat="44.69290131" lon="-72.07415588">
    <tag k="addr:housenumber" v="5069"/>
    <tag k="addr:street" v="Underpass Road"/>
    <tag k="addr:state" v="VT"/>
    <tag k="ref:vcgi:esiteid" v="762165"/>
  </node>
  <node id="-648" visible="true" lat="44.65671012" lon="-72.03317149">
    <tag k="addr:housenumber" v="366"/>
    <tag k="addr:street" v="Four Corners Trail"/>
    <tag k="addr:state" v="VT"/>
    <tag k="ref:vcgi:esiteid" v="762169"/>
  </node>
  <node id="-649" visible="true" lat="44.61714647" lon="-72.05130013">
    <tag k="addr:housenumber" v="375"/>
    <tag k="addr:street" v="Freedom Road"/>
    <tag k="addr:state" v="VT"/>
    <tag k="ref:vcgi:esiteid" v="762170"/>
  </node>
  <node id="-651" visible="true" lat="44.66447316" lon="-72.03676925">
    <tag k="addr:housenumber" v="53"/>
    <tag k="addr:street" v="Four Corners Trail"/>
    <tag k="addr:state" v="VT"/>
    <tag k="ref:vcgi:esiteid" v="762810"/>
  </node>
  <node id="-652" visible="true" lat="44.60075216" lon="-72.01210072">
    <tag k="addr:housenumber" v="4133"/>
    <tag k="addr:street" v="Pudding Hill Road"/>
    <tag k="addr:state" v="VT"/>
    <tag k="ref:vcgi:esiteid" v="763895"/>
  </node>
  <node id="-653" visible="true" lat="44.65039501" lon="-72.07562237">
    <tag k="addr:housenumber" v="722"/>
    <tag k="addr:street" v="Union House Road"/>
    <tag k="addr:state" v="VT"/>
    <tag k="ref:vcgi:esiteid" v="764040"/>
  </node>
  <node id="-654" visible="true" lat="44.69025553" lon="-71.99777971">
    <tag k="addr:housenumber" v="3743"/>
    <tag k="addr:street" v="Vermont Route 5A"/>
    <tag k="addr:state" v="VT"/>
    <tag k="ref:vcgi:esiteid" v="764062"/>
  </node>
  <node id="-655" visible="true" lat="44.65899634" lon="-72.04665599">
    <tag k="addr:housenumber" v="301"/>
    <tag k="addr:street" v="Four Corners Road"/>
    <tag k="addr:state" v="VT"/>
    <tag k="ref:vcgi:esiteid" v="764302"/>
  </node>
  <node id="-656" visible="true" lat="44.6889957" lon="-71.99707419">
    <tag k="addr:housenumber" v="3631"/>
    <tag k="addr:street" v="Vermont Route 5A"/>
    <tag k="addr:state" v="VT"/>
    <tag k="ref:vcgi:esiteid" v="764345"/>
  </node>
  <node id="-657" visible="true" lat="44.67682999" lon="-72.03829188">
    <tag k="addr:housenumber" v="3705"/>
    <tag k="addr:street" v="U.S. Route 5"/>
    <tag k="addr:state" v="VT"/>
    <tag k="ref:vcgi:esiteid" v="765297"/>
  </node>
  <node id="-658" visible="true" lat="44.67689243" lon="-72.03607556">
    <tag k="addr:housenumber" v="3703"/>
    <tag k="addr:street" v="U.S. Route 5"/>
    <tag k="addr:state" v="VT"/>
    <tag k="ref:vcgi:esiteid" v="765298"/>
  </node>
  <node id="-659" visible="true" lat="44.63493215" lon="-72.05788447">
    <tag k="addr:housenumber" v="183"/>
    <tag k="addr:street" v="Wood Hill Road"/>
    <tag k="addr:state" v="VT"/>
    <tag k="ref:vcgi:esiteid" v="765857"/>
  </node>
  <node id="-660" visible="true" lat="44.63571927" lon="-72.05302355">
    <tag k="addr:housenumber" v="51"/>
    <tag k="addr:street" v="Mabels Trail"/>
    <tag k="addr:state" v="VT"/>
    <tag k="ref:vcgi:esiteid" v="765858"/>
  </node>
  <node id="-661" visible="true" lat="44.63526154" lon="-72.05517961">
    <tag k="addr:housenumber" v="90"/>
    <tag k="addr:street" v="Mabels Trail"/>
    <tag k="addr:state" v="VT"/>
    <tag k="ref:vcgi:esiteid" v="765859"/>
  </node>
  <node id="-662" visible="true" lat="44.63220479" lon="-72.055313">
    <tag k="addr:housenumber" v="311"/>
    <tag k="addr:street" v="Mabels Trail"/>
    <tag k="addr:state" v="VT"/>
    <tag k="ref:vcgi:esiteid" v="765860"/>
  </node>
  <node id="-663" visible="true" lat="44.68780458" lon="-72.05077347">
    <tag k="addr:housenumber" v="4855"/>
    <tag k="addr:street" v="U.S. Route 5"/>
    <tag k="addr:state" v="VT"/>
    <tag k="ref:vcgi:esiteid" v="766402"/>
  </node>
  <node id="-664" visible="true" lat="44.66739715" lon="-72.04569672">
    <tag k="addr:housenumber" v="2623"/>
    <tag k="addr:street" v="Underpass Road"/>
    <tag k="addr:state" v="VT"/>
    <tag k="ref:vcgi:esiteid" v="766404"/>
  </node>
  <node id="-665" visible="true" lat="44.604901" lon="-72.02448246">
    <tag k="addr:housenumber" v="655"/>
    <tag k="addr:street" v="South Ridge Road"/>
    <tag k="addr:state" v="VT"/>
    <tag k="ref:vcgi:esiteid" v="766483"/>
  </node>
  <node id="-666" visible="true" lat="44.65310818" lon="-71.98744631">
    <tag k="addr:housenumber" v="510"/>
    <tag k="addr:street" v="North Ridge Road"/>
    <tag k="addr:state" v="VT"/>
    <tag k="ref:vcgi:esiteid" v="766712"/>
  </node>
  <node id="-667" visible="true" lat="44.65169171" lon="-71.98882963">
    <tag k="addr:housenumber" v="508"/>
    <tag k="addr:street" v="North Ridge Road"/>
    <tag k="addr:state" v="VT"/>
    <tag k="ref:vcgi:esiteid" v="767059"/>
  </node>
  <node id="-668" visible="true" lat="44.64270865" lon="-72.07272359">
    <tag k="addr:housenumber" v="169"/>
    <tag k="addr:street" v="Union House Road"/>
    <tag k="addr:state" v="VT"/>
    <tag k="ref:vcgi:esiteid" v="767643"/>
  </node>
  <node id="-669" visible="true" lat="44.67679113" lon="-72.00312729">
    <tag k="addr:housenumber" v="456"/>
    <tag k="addr:street" v="Sargents Road"/>
    <tag k="addr:state" v="VT"/>
    <tag k="ref:vcgi:esiteid" v="767997"/>
  </node>
  <node id="-670" visible="true" lat="44.62386492" lon="-72.03216434">
    <tag k="addr:housenumber" v="602"/>
    <tag k="addr:street" v="Wheelock Road"/>
    <tag k="addr:state" v="VT"/>
    <tag k="ref:vcgi:esiteid" v="768223"/>
  </node>
  <node id="-671" visible="true" lat="44.67840033" lon="-72.03280222">
    <tag k="addr:housenumber" v="3685"/>
    <tag k="addr:street" v="U.S. Route 5"/>
    <tag k="addr:state" v="VT"/>
    <tag k="ref:vcgi:esiteid" v="768266"/>
  </node>
  <node id="-675" visible="true" lat="44.63272298" lon="-72.02663101">
    <tag k="addr:housenumber" v="4"/>
    <tag k="addr:street" v="Center Street"/>
    <tag k="addr:state" v="VT"/>
    <tag k="ref:vcgi:esiteid" v="768436"/>
  </node>
  <node id="-676" visible="true" lat="44.60420437" lon="-72.00711182">
    <tag k="addr:housenumber" v="277"/>
    <tag k="addr:street" v="Chapman Road"/>
    <tag k="addr:state" v="VT"/>
    <tag k="ref:vcgi:esiteid" v="769667"/>
  </node>
  <node id="-677" visible="true" lat="44.63760066" lon="-72.05408187">
    <tag k="addr:housenumber" v="1364"/>
    <tag k="addr:street" v="Sheffield Road"/>
    <tag k="addr:state" v="VT"/>
    <tag k="ref:vcgi:esiteid" v="769879"/>
  </node>
  <node id="-678" visible="true" lat="44.69534236" lon="-72.08318122">
    <tag k="addr:housenumber" v="6655"/>
    <tag k="addr:street" v="U.S. Route 5"/>
    <tag k="addr:state" v="VT"/>
    <tag k="ref:vcgi:esiteid" v="769952"/>
  </node>
  <node id="-679" visible="true" lat="44.64572672" lon="-72.00018797">
    <tag k="addr:housenumber" v="824"/>
    <tag k="addr:street" v="U.S. Route 5"/>
    <tag k="addr:state" v="VT"/>
    <tag k="ref:vcgi:esiteid" v="770096"/>
  </node>
  <node id="-680" visible="true" lat="44.64834114" lon="-72.00012789">
    <tag k="addr:housenumber" v="914"/>
    <tag k="addr:street" v="U.S. Route 5"/>
    <tag k="addr:state" v="VT"/>
    <tag k="ref:vcgi:esiteid" v="770097"/>
  </node>
  <node id="-681" visible="true" lat="44.67226263" lon="-72.0309766">
    <tag k="addr:housenumber" v="3273"/>
    <tag k="addr:street" v="U.S. Route 5"/>
    <tag k="addr:state" v="VT"/>
    <tag k="ref:vcgi:esiteid" v="770736"/>
  </node>
  <node id="-682" visible="true" lat="44.70886516" lon="-72.04711055">
    <tag k="addr:housenumber" v="1730"/>
    <tag k="addr:street" v="Ccc Road"/>
    <tag k="addr:state" v="VT"/>
    <tag k="ref:vcgi:esiteid" v="800146"/>
  </node>
  <node id="-683" visible="true" lat="44.72049933" lon="-72.09992948">
    <tag k="addr:housenumber" v="286"/>
    <tag k="addr:street" v="Wheeler Mountain Road"/>
    <tag k="addr:state" v="VT"/>
    <tag k="ref:vcgi:esiteid" v="800147"/>
  </node>
  <node id="-684" visible="true" lat="44.62188127" lon="-72.0335496">
    <tag k="addr:housenumber" v="790"/>
    <tag k="addr:street" v="Wheelock Road"/>
    <tag k="addr:state" v="VT"/>
    <tag k="ref:vcgi:esiteid" v="900336"/>
  </node>
  <node id="-685" visible="true" lat="44.63313965" lon="-72.0285862">
    <tag k="addr:housenumber" v="91"/>
    <tag k="addr:street" v="Underpass Road"/>
    <tag k="addr:state" v="VT"/>
    <tag k="ref:vcgi:esiteid" v="1050761"/>
  </node>
</osm>
