<?xml version="1.0" encoding="UTF-8"?>
<osm version="0.6" generator="JOSM" upload="false">
  <node id="-276" visible="true" lat="44.96918546" lon="-73.21261924">
    <!-- conflict: "24 Lakewood Drive, , VT" No match in OSM, but a different address exists <5m away: "26 Lakewood Drive, Swanton, VT" -->
    <tag k="addr:housenumber" v="24"/>
    <tag k="addr:street" v="Lakewood Drive"/>
    <tag k="addr:state" v="VT"/>
    <tag k="ref:vcgi:esiteid" v="254967"/>
  </node>
  <node id="-1915" visible="true" lat="44.91320492" lon="-73.11464252">
    <!-- conflict: "116 Grand Avenue, , VT" No match in OSM, but a different address exists <5m away: "116 Grand Ave., , " -->
    <tag k="addr:housenumber" v="116"/>
    <tag k="addr:street" v="Grand Avenue"/>
    <tag k="addr:state" v="VT"/>
    <tag k="ref:vcgi:esiteid" v="256629"/>
  </node>
  <node id="-2431" visible="true" lat="44.85781335" lon="-73.02213613">
    <!-- conflict: "55 Pond Road, , VT" No match in OSM, but a different address exists <5m away: "53 Pond Road, Swanton, VT" -->
    <tag k="addr:housenumber" v="55"/>
    <tag k="addr:street" v="Pond Road"/>
    <tag k="addr:state" v="VT"/>
    <tag k="ref:vcgi:esiteid" v="257157"/>
  </node>
  <node id="-2598" visible="true" lat="44.90308902" lon="-73.09844365">
    <!-- conflict: "82 Saint Albans Road, , VT" No match in OSM, but a different address exists <5m away: "82 St Albans Road, Swanton, VT" -->
    <tag k="addr:housenumber" v="82"/>
    <tag k="addr:street" v="Saint Albans Road"/>
    <tag k="addr:state" v="VT"/>
    <tag k="ref:vcgi:esiteid" v="257330"/>
  </node>
  <node id="-3317" visible="true" lat="44.91740356" lon="-73.11562067">
    <!-- conflict: "32A Platt Street, , VT" Fuzzy match to "32 A Platt Street, Swanton, VT" -->
    <tag k="addr:housenumber" v="32A"/>
    <tag k="addr:street" v="Platt Street"/>
    <tag k="addr:state" v="VT"/>
    <tag k="ref:vcgi:esiteid" v="258127"/>
  </node>
  <node id="-3920" visible="true" lat="44.97484859" lon="-73.18482625">
    <!-- conflict: "109 Church Road, , VT" No match in OSM, but a different address exists <5m away: "109 Campbell Bay Road, Swanton, VT" -->
    <tag k="addr:housenumber" v="109"/>
    <tag k="addr:street" v="Church Road"/>
    <tag k="addr:state" v="VT"/>
    <tag k="ref:vcgi:esiteid" v="448553"/>
  </node>
</osm>
