<?xml version="1.0" encoding="UTF-8"?>
<osm version="0.6" generator="JOSM" upload="false">
  <node id="-101" visible="true" lat="44.97328397" lon="-73.19825325">
    <tag k="addr:housenumber" v="26"/>
    <tag k="addr:street" v="Church Road"/>
    <tag k="addr:state" v="VT"/>
    <tag k="ref:vcgi:esiteid" v="254782"/>
  </node>
  <node id="-103" visible="true" lat="44.93582927" lon="-73.22664076">
    <tag k="addr:housenumber" v="470"/>
    <tag k="addr:street" v="Lakewood Drive"/>
    <tag k="addr:state" v="VT"/>
    <tag k="ref:vcgi:esiteid" v="254784"/>
  </node>
  <node id="-104" visible="true" lat="44.93152056" lon="-73.22245195">
    <tag k="addr:housenumber" v="568"/>
    <tag k="addr:street" v="Lakewood Drive"/>
    <tag k="addr:state" v="VT"/>
    <tag k="ref:vcgi:esiteid" v="254785"/>
  </node>
  <node id="-105" visible="true" lat="44.92870506" lon="-73.20972206">
    <tag k="addr:housenumber" v="23"/>
    <tag k="addr:street" v="Tilley Drive"/>
    <tag k="addr:state" v="VT"/>
    <tag k="ref:vcgi:esiteid" v="254786"/>
  </node>
  <node id="-142" visible="true" lat="44.9899302" lon="-73.17268135">
    <tag k="addr:housenumber" v="198"/>
    <tag k="addr:street" v="Campbell Bay Road"/>
    <tag k="addr:state" v="VT"/>
    <tag k="ref:vcgi:esiteid" v="254828"/>
  </node>
  <node id="-184" visible="true" lat="44.98833392" lon="-73.17161145">
    <tag k="addr:housenumber" v="170"/>
    <tag k="addr:street" v="Campbell Bay Road"/>
    <tag k="addr:state" v="VT"/>
    <tag k="ref:vcgi:esiteid" v="254870"/>
  </node>
  <node id="-185" visible="true" lat="44.98780121" lon="-73.17157237">
    <tag k="addr:housenumber" v="166"/>
    <tag k="addr:street" v="Campbell Bay Road"/>
    <tag k="addr:state" v="VT"/>
    <tag k="ref:vcgi:esiteid" v="254871"/>
  </node>
  <node id="-187" visible="true" lat="44.98671888" lon="-73.17270531">
    <tag k="addr:housenumber" v="154"/>
    <tag k="addr:street" v="Campbell Bay Road"/>
    <tag k="addr:state" v="VT"/>
    <tag k="ref:vcgi:esiteid" v="254873"/>
  </node>
  <node id="-201" visible="true" lat="44.98444931" lon="-73.18043583">
    <tag k="addr:housenumber" v="103"/>
    <tag k="addr:street" v="Campbell Bay Road"/>
    <tag k="addr:state" v="VT"/>
    <tag k="ref:vcgi:esiteid" v="254888"/>
  </node>
  <node id="-203" visible="true" lat="44.98233796" lon="-73.18015086">
    <tag k="addr:housenumber" v="93"/>
    <tag k="addr:street" v="Campbell Bay Road"/>
    <tag k="addr:state" v="VT"/>
    <tag k="ref:vcgi:esiteid" v="254890"/>
  </node>
  <node id="-204" visible="true" lat="44.98401735" lon="-73.17297456">
    <tag k="addr:housenumber" v="138"/>
    <tag k="addr:street" v="Campbell Bay Road"/>
    <tag k="addr:state" v="VT"/>
    <tag k="ref:vcgi:esiteid" v="254891"/>
  </node>
  <node id="-206" visible="true" lat="44.98371558" lon="-73.17970586">
    <tag k="addr:housenumber" v="101"/>
    <tag k="addr:street" v="Campbell Bay Road"/>
    <tag k="addr:state" v="VT"/>
    <tag k="ref:vcgi:esiteid" v="254893"/>
  </node>
  <node id="-210" visible="true" lat="44.98143151" lon="-73.18083625">
    <tag k="addr:housenumber" v="91"/>
    <tag k="addr:street" v="Campbell Bay Road"/>
    <tag k="addr:state" v="VT"/>
    <tag k="ref:vcgi:esiteid" v="254897"/>
  </node>
  <node id="-212" visible="true" lat="44.98060631" lon="-73.18047424">
    <tag k="addr:housenumber" v="94"/>
    <tag k="addr:street" v="Campbell Bay Road"/>
    <tag k="addr:state" v="VT"/>
    <tag k="ref:vcgi:esiteid" v="254899"/>
  </node>
  <node id="-232" visible="true" lat="44.97490218" lon="-73.19599306">
    <tag k="addr:housenumber" v="42"/>
    <tag k="addr:street" v="Church Road"/>
    <tag k="addr:state" v="VT"/>
    <tag k="ref:vcgi:esiteid" v="254920"/>
  </node>
  <node id="-233" visible="true" lat="44.97482985" lon="-73.19711588">
    <tag k="addr:housenumber" v="41"/>
    <tag k="addr:street" v="Church Road"/>
    <tag k="addr:state" v="VT"/>
    <tag k="ref:vcgi:esiteid" v="254921"/>
  </node>
  <node id="-234" visible="true" lat="44.97556571" lon="-73.18169643">
    <tag k="addr:housenumber" v="42"/>
    <tag k="addr:street" v="Campbell Bay Road"/>
    <tag k="addr:state" v="VT"/>
    <tag k="ref:vcgi:esiteid" v="254922"/>
  </node>
  <node id="-235" visible="true" lat="44.9764886" lon="-73.18265706">
    <tag k="addr:housenumber" v="45"/>
    <tag k="addr:street" v="Campbell Bay Road"/>
    <tag k="addr:state" v="VT"/>
    <tag k="ref:vcgi:esiteid" v="254923"/>
  </node>
  <node id="-236" visible="true" lat="44.9775471" lon="-73.18381853">
    <tag k="addr:housenumber" v="11"/>
    <tag k="addr:street" v="Fadden Road"/>
    <tag k="addr:state" v="VT"/>
    <tag k="ref:vcgi:esiteid" v="254924"/>
  </node>
  <node id="-237" visible="true" lat="44.97840377" lon="-73.1838958">
    <tag k="addr:housenumber" v="14"/>
    <tag k="addr:street" v="Fadden Road"/>
    <tag k="addr:state" v="VT"/>
    <tag k="ref:vcgi:esiteid" v="254925"/>
  </node>
  <node id="-238" visible="true" lat="44.97852848" lon="-73.18294963">
    <tag k="addr:housenumber" v="10"/>
    <tag k="addr:street" v="Fadden Road"/>
    <tag k="addr:state" v="VT"/>
    <tag k="ref:vcgi:esiteid" v="254926"/>
  </node>
  <node id="-240" visible="true" lat="44.97854884" lon="-73.18253056">
    <tag k="addr:housenumber" v="47"/>
    <tag k="addr:street" v="Campbell Bay Road"/>
    <tag k="addr:state" v="VT"/>
    <tag k="ref:vcgi:esiteid" v="254928"/>
  </node>
  <node id="-241" visible="true" lat="44.9762172" lon="-73.18025922">
    <tag k="addr:housenumber" v="40"/>
    <tag k="addr:street" v="Campbell Bay Road"/>
    <tag k="addr:state" v="VT"/>
    <tag k="ref:vcgi:esiteid" v="254929"/>
  </node>
  <node id="-242" visible="true" lat="44.97308376" lon="-73.18108589">
    <tag k="addr:housenumber" v="22"/>
    <tag k="addr:street" v="Campbell Bay Road"/>
    <tag k="addr:state" v="VT"/>
    <tag k="ref:vcgi:esiteid" v="254931"/>
  </node>
  <node id="-243" visible="true" lat="44.97212616" lon="-73.18096554">
    <tag k="addr:housenumber" v="16"/>
    <tag k="addr:street" v="Campbell Bay Road"/>
    <tag k="addr:state" v="VT"/>
    <tag k="ref:vcgi:esiteid" v="254932"/>
  </node>
  <node id="-245" visible="true" lat="44.971631" lon="-73.18015469">
    <tag k="addr:housenumber" v="14"/>
    <tag k="addr:street" v="Campbell Bay Road"/>
    <tag k="addr:state" v="VT"/>
    <tag k="ref:vcgi:esiteid" v="254934"/>
  </node>
  <node id="-246" visible="true" lat="44.97408767" lon="-73.18142481">
    <tag k="addr:housenumber" v="30"/>
    <tag k="addr:street" v="Campbell Bay Road"/>
    <tag k="addr:state" v="VT"/>
    <tag k="ref:vcgi:esiteid" v="254935"/>
  </node>
  <node id="-248" visible="true" lat="44.97480428" lon="-73.19192477">
    <tag k="addr:housenumber" v="73"/>
    <tag k="addr:street" v="Church Road"/>
    <tag k="addr:state" v="VT"/>
    <tag k="ref:vcgi:esiteid" v="254937"/>
  </node>
  <node id="-249" visible="true" lat="44.97373987" lon="-73.19175264">
    <tag k="addr:housenumber" v="74"/>
    <tag k="addr:street" v="Church Road"/>
    <tag k="addr:state" v="VT"/>
    <tag k="ref:vcgi:esiteid" v="254938"/>
  </node>
  <node id="-251" visible="true" lat="44.97323961" lon="-73.19277805">
    <tag k="addr:housenumber" v="72"/>
    <tag k="addr:street" v="Church Road"/>
    <tag k="addr:state" v="VT"/>
    <tag k="ref:vcgi:esiteid" v="254940"/>
  </node>
  <node id="-252" visible="true" lat="44.97404896" lon="-73.19280456">
    <tag k="addr:housenumber" v="70"/>
    <tag k="addr:street" v="Church Road"/>
    <tag k="addr:state" v="VT"/>
    <tag k="ref:vcgi:esiteid" v="254941"/>
  </node>
  <node id="-254" visible="true" lat="44.97454693" lon="-73.19411874">
    <tag k="addr:housenumber" v="58"/>
    <tag k="addr:street" v="Church Road"/>
    <tag k="addr:state" v="VT"/>
    <tag k="ref:vcgi:esiteid" v="254943"/>
  </node>
  <node id="-255" visible="true" lat="44.97465969" lon="-73.19515155">
    <tag k="addr:housenumber" v="54"/>
    <tag k="addr:street" v="Church Road"/>
    <tag k="addr:state" v="VT"/>
    <tag k="ref:vcgi:esiteid" v="254944"/>
  </node>
  <node id="-257" visible="true" lat="44.9743392" lon="-73.19695061">
    <tag k="addr:housenumber" v="36"/>
    <tag k="addr:street" v="Church Road"/>
    <tag k="addr:state" v="VT"/>
    <tag k="ref:vcgi:esiteid" v="254946"/>
  </node>
  <node id="-258" visible="true" lat="44.97466379" lon="-73.19740737">
    <tag k="addr:housenumber" v="35"/>
    <tag k="addr:street" v="Church Road"/>
    <tag k="addr:state" v="VT"/>
    <tag k="ref:vcgi:esiteid" v="254947"/>
  </node>
  <node id="-259" visible="true" lat="44.97397897" lon="-73.19745777">
    <tag k="addr:housenumber" v="34"/>
    <tag k="addr:street" v="Church Road"/>
    <tag k="addr:state" v="VT"/>
    <tag k="ref:vcgi:esiteid" v="254948"/>
  </node>
  <node id="-262" visible="true" lat="44.97261781" lon="-73.1981205">
    <tag k="addr:housenumber" v="20"/>
    <tag k="addr:street" v="Church Road"/>
    <tag k="addr:state" v="VT"/>
    <tag k="ref:vcgi:esiteid" v="254951"/>
  </node>
  <node id="-267" visible="true" lat="44.97412407" lon="-73.20618766">
    <tag k="addr:housenumber" v="35"/>
    <tag k="addr:street" v="Sandy Point Road"/>
    <tag k="addr:state" v="VT"/>
    <tag k="ref:vcgi:esiteid" v="254956"/>
  </node>
  <node id="-268" visible="true" lat="44.9742606" lon="-73.20576413">
    <tag k="addr:housenumber" v="43"/>
    <tag k="addr:street" v="Sandy Point Road"/>
    <tag k="addr:state" v="VT"/>
    <tag k="ref:vcgi:esiteid" v="254957"/>
  </node>
  <node id="-269" visible="true" lat="44.97408415" lon="-73.20640686">
    <tag k="addr:housenumber" v="27"/>
    <tag k="addr:street" v="Sandy Point Road"/>
    <tag k="addr:state" v="VT"/>
    <tag k="ref:vcgi:esiteid" v="254959"/>
  </node>
  <node id="-270" visible="true" lat="44.9741385" lon="-73.20715638">
    <tag k="addr:housenumber" v="15"/>
    <tag k="addr:street" v="Sandy Point Road"/>
    <tag k="addr:state" v="VT"/>
    <tag k="ref:vcgi:esiteid" v="254960"/>
  </node>
  <node id="-271" visible="true" lat="44.97406356" lon="-73.20852723">
    <tag k="addr:housenumber" v="5"/>
    <tag k="addr:street" v="Sandy Point Road"/>
    <tag k="addr:state" v="VT"/>
    <tag k="ref:vcgi:esiteid" v="254962"/>
  </node>
  <node id="-277" visible="true" lat="44.96873129" lon="-73.2129071">
    <tag k="addr:housenumber" v="30"/>
    <tag k="addr:street" v="Lakewood Drive"/>
    <tag k="addr:state" v="VT"/>
    <tag k="ref:vcgi:esiteid" v="254968"/>
  </node>
  <node id="-283" visible="true" lat="44.97031174" lon="-73.1969773">
    <tag k="addr:housenumber" v="752"/>
    <tag k="addr:street" v="North River Street"/>
    <tag k="addr:state" v="VT"/>
    <tag k="ref:vcgi:esiteid" v="254976"/>
  </node>
  <node id="-284" visible="true" lat="44.97055371" lon="-73.19731563">
    <tag k="addr:housenumber" v="752"/>
    <tag k="addr:street" v="North River Street"/>
    <tag k="addr:state" v="VT"/>
    <tag k="ref:vcgi:esiteid" v="254977"/>
  </node>
  <node id="-286" visible="true" lat="44.97106682" lon="-73.19124255">
    <tag k="addr:housenumber" v="690"/>
    <tag k="addr:street" v="North River Street"/>
    <tag k="addr:state" v="VT"/>
    <tag k="ref:vcgi:esiteid" v="254979"/>
  </node>
  <node id="-290" visible="true" lat="44.97092192" lon="-73.18068296">
    <tag k="addr:housenumber" v="6"/>
    <tag k="addr:street" v="Campbell Bay Road"/>
    <tag k="addr:state" v="VT"/>
    <tag k="ref:vcgi:esiteid" v="254983"/>
  </node>
  <node id="-292" visible="true" lat="44.96603986" lon="-73.21439974">
    <tag k="addr:housenumber" v="44"/>
    <tag k="addr:street" v="Lakewood Drive"/>
    <tag k="addr:state" v="VT"/>
    <tag k="ref:vcgi:esiteid" v="254985"/>
  </node>
  <node id="-294" visible="true" lat="44.96562793" lon="-73.21459585">
    <tag k="addr:housenumber" v="50"/>
    <tag k="addr:street" v="Lakewood Drive"/>
    <tag k="addr:state" v="VT"/>
    <tag k="ref:vcgi:esiteid" v="254987"/>
  </node>
  <node id="-296" visible="true" lat="44.96525724" lon="-73.21485955">
    <tag k="addr:housenumber" v="52"/>
    <tag k="addr:street" v="Lakewood Drive"/>
    <tag k="addr:state" v="VT"/>
    <tag k="ref:vcgi:esiteid" v="254989"/>
  </node>
  <node id="-298" visible="true" lat="44.9639626" lon="-73.21533814">
    <tag k="addr:housenumber" v="68"/>
    <tag k="addr:street" v="Lakewood Drive"/>
    <tag k="addr:state" v="VT"/>
    <tag k="ref:vcgi:esiteid" v="254991"/>
  </node>
  <node id="-299" visible="true" lat="44.96382571" lon="-73.21533644">
    <tag k="addr:housenumber" v="72"/>
    <tag k="addr:street" v="Lakewood Drive"/>
    <tag k="addr:state" v="VT"/>
    <tag k="ref:vcgi:esiteid" v="254992"/>
  </node>
  <node id="-300" visible="true" lat="44.96361718" lon="-73.21536738">
    <tag k="addr:housenumber" v="74"/>
    <tag k="addr:street" v="Lakewood Drive"/>
    <tag k="addr:state" v="VT"/>
    <tag k="ref:vcgi:esiteid" v="254993"/>
  </node>
  <node id="-301" visible="true" lat="44.9629297" lon="-73.21527123">
    <tag k="addr:housenumber" v="81"/>
    <tag k="addr:street" v="Lakewood Drive"/>
    <tag k="addr:state" v="VT"/>
    <tag k="ref:vcgi:esiteid" v="254994"/>
  </node>
  <node id="-302" visible="true" lat="44.96235253" lon="-73.21536617">
    <tag k="addr:housenumber" v="89"/>
    <tag k="addr:street" v="Lakewood Drive"/>
    <tag k="addr:state" v="VT"/>
    <tag k="ref:vcgi:esiteid" v="254995"/>
  </node>
  <node id="-303" visible="true" lat="44.96187987" lon="-73.21562707">
    <tag k="addr:housenumber" v="93"/>
    <tag k="addr:street" v="Lakewood Drive"/>
    <tag k="addr:state" v="VT"/>
    <tag k="ref:vcgi:esiteid" v="254996"/>
  </node>
  <node id="-306" visible="true" lat="44.96150996" lon="-73.215765">
    <tag k="addr:housenumber" v="97"/>
    <tag k="addr:street" v="Lakewood Drive"/>
    <tag k="addr:state" v="VT"/>
    <tag k="ref:vcgi:esiteid" v="254999"/>
  </node>
  <node id="-307" visible="true" lat="44.96100838" lon="-73.21601866">
    <tag k="addr:housenumber" v="103"/>
    <tag k="addr:street" v="Lakewood Drive"/>
    <tag k="addr:state" v="VT"/>
    <tag k="ref:vcgi:esiteid" v="255000"/>
  </node>
  <node id="-311" visible="true" lat="44.957234" lon="-73.20502237">
    <tag k="addr:housenumber" v="94"/>
    <tag k="addr:street" v="Tabor Road"/>
    <tag k="addr:state" v="VT"/>
    <tag k="ref:vcgi:esiteid" v="255004"/>
  </node>
  <node id="-312" visible="true" lat="44.95697275" lon="-73.22018254">
    <tag k="addr:housenumber" v="124"/>
    <tag k="addr:street" v="Lakewood Drive"/>
    <tag k="addr:state" v="VT"/>
    <tag k="ref:vcgi:esiteid" v="255005"/>
  </node>
  <node id="-314" visible="true" lat="44.95522426" lon="-73.22126721">
    <tag k="addr:housenumber" v="150"/>
    <tag k="addr:street" v="Lakewood Drive"/>
    <tag k="addr:state" v="VT"/>
    <tag k="ref:vcgi:esiteid" v="255007"/>
  </node>
  <node id="-315" visible="true" lat="44.95459242" lon="-73.22141019">
    <tag k="addr:housenumber" v="156"/>
    <tag k="addr:street" v="Lakewood Drive"/>
    <tag k="addr:state" v="VT"/>
    <tag k="ref:vcgi:esiteid" v="255008"/>
  </node>
  <node id="-316" visible="true" lat="44.95441981" lon="-73.22140803">
    <tag k="addr:housenumber" v="158"/>
    <tag k="addr:street" v="Lakewood Drive"/>
    <tag k="addr:state" v="VT"/>
    <tag k="ref:vcgi:esiteid" v="255009"/>
  </node>
  <node id="-317" visible="true" lat="44.95419375" lon="-73.22138843">
    <tag k="addr:housenumber" v="160"/>
    <tag k="addr:street" v="Lakewood Drive"/>
    <tag k="addr:state" v="VT"/>
    <tag k="ref:vcgi:esiteid" v="255010"/>
  </node>
  <node id="-318" visible="true" lat="44.95385386" lon="-73.22148476">
    <tag k="addr:housenumber" v="162"/>
    <tag k="addr:street" v="Lakewood Drive"/>
    <tag k="addr:state" v="VT"/>
    <tag k="ref:vcgi:esiteid" v="255011"/>
  </node>
  <node id="-320" visible="true" lat="44.95343012" lon="-73.22166388">
    <tag k="addr:housenumber" v="166"/>
    <tag k="addr:street" v="Lakewood Drive"/>
    <tag k="addr:state" v="VT"/>
    <tag k="ref:vcgi:esiteid" v="255013"/>
  </node>
  <node id="-321" visible="true" lat="44.9532842" lon="-73.22182337">
    <tag k="addr:housenumber" v="170"/>
    <tag k="addr:street" v="Lakewood Drive"/>
    <tag k="addr:state" v="VT"/>
    <tag k="ref:vcgi:esiteid" v="255014"/>
  </node>
  <node id="-322" visible="true" lat="44.95300076" lon="-73.22187883">
    <tag k="addr:housenumber" v="172"/>
    <tag k="addr:street" v="Lakewood Drive"/>
    <tag k="addr:state" v="VT"/>
    <tag k="ref:vcgi:esiteid" v="255015"/>
  </node>
  <node id="-323" visible="true" lat="44.95283157" lon="-73.22224051">
    <tag k="addr:housenumber" v="176"/>
    <tag k="addr:street" v="Lakewood Drive"/>
    <tag k="addr:state" v="VT"/>
    <tag k="ref:vcgi:esiteid" v="255016"/>
  </node>
  <node id="-324" visible="true" lat="44.9525237" lon="-73.22254312">
    <tag k="addr:housenumber" v="180"/>
    <tag k="addr:street" v="Lakewood Drive"/>
    <tag k="addr:state" v="VT"/>
    <tag k="ref:vcgi:esiteid" v="255018"/>
  </node>
  <node id="-326" visible="true" lat="44.95236496" lon="-73.22260819">
    <tag k="addr:housenumber" v="182"/>
    <tag k="addr:street" v="Lakewood Drive"/>
    <tag k="addr:state" v="VT"/>
    <tag k="ref:vcgi:esiteid" v="255020"/>
  </node>
  <node id="-327" visible="true" lat="44.95215011" lon="-73.2226977">
    <tag k="addr:housenumber" v="184"/>
    <tag k="addr:street" v="Lakewood Drive"/>
    <tag k="addr:state" v="VT"/>
    <tag k="ref:vcgi:esiteid" v="255021"/>
  </node>
  <node id="-328" visible="true" lat="44.95203076" lon="-73.22274649">
    <tag k="addr:housenumber" v="190"/>
    <tag k="addr:street" v="Lakewood Drive"/>
    <tag k="addr:state" v="VT"/>
    <tag k="ref:vcgi:esiteid" v="255022"/>
  </node>
  <node id="-329" visible="true" lat="44.95187564" lon="-73.22280322">
    <tag k="addr:housenumber" v="192"/>
    <tag k="addr:street" v="Lakewood Drive"/>
    <tag k="addr:state" v="VT"/>
    <tag k="ref:vcgi:esiteid" v="255023"/>
  </node>
  <node id="-330" visible="true" lat="44.95162503" lon="-73.22290067">
    <tag k="addr:housenumber" v="194"/>
    <tag k="addr:street" v="Lakewood Drive"/>
    <tag k="addr:state" v="VT"/>
    <tag k="ref:vcgi:esiteid" v="255024"/>
  </node>
  <node id="-331" visible="true" lat="44.95154515" lon="-73.22235481">
    <tag k="addr:housenumber" v="189"/>
    <tag k="addr:street" v="Lakewood Drive"/>
    <tag k="addr:state" v="VT"/>
    <tag k="ref:vcgi:esiteid" v="255025"/>
  </node>
  <node id="-332" visible="true" lat="44.95131271" lon="-73.22240219">
    <tag k="addr:housenumber" v="193"/>
    <tag k="addr:street" v="Lakewood Drive"/>
    <tag k="addr:state" v="VT"/>
    <tag k="ref:vcgi:esiteid" v="255026"/>
  </node>
  <node id="-333" visible="true" lat="44.95141023" lon="-73.2229818">
    <tag k="addr:housenumber" v="206"/>
    <tag k="addr:street" v="Lakewood Drive"/>
    <tag k="addr:state" v="VT"/>
    <tag k="ref:vcgi:esiteid" v="255027"/>
  </node>
  <node id="-334" visible="true" lat="44.95121945" lon="-73.22302969">
    <tag k="addr:housenumber" v="210"/>
    <tag k="addr:street" v="Lakewood Drive"/>
    <tag k="addr:state" v="VT"/>
    <tag k="ref:vcgi:esiteid" v="255028"/>
  </node>
  <node id="-335" visible="true" lat="44.95113368" lon="-73.22247538">
    <tag k="addr:housenumber" v="199"/>
    <tag k="addr:street" v="Lakewood Drive"/>
    <tag k="addr:state" v="VT"/>
    <tag k="ref:vcgi:esiteid" v="255029"/>
  </node>
  <node id="-337" visible="true" lat="44.95068054" lon="-73.22259543">
    <tag k="addr:housenumber" v="217"/>
    <tag k="addr:street" v="Lakewood Drive"/>
    <tag k="addr:state" v="VT"/>
    <tag k="ref:vcgi:esiteid" v="255031"/>
  </node>
  <node id="-338" visible="true" lat="44.95094864" lon="-73.22255688">
    <tag k="addr:housenumber" v="211"/>
    <tag k="addr:street" v="Lakewood Drive"/>
    <tag k="addr:state" v="VT"/>
    <tag k="ref:vcgi:esiteid" v="255032"/>
  </node>
  <node id="-339" visible="true" lat="44.95080756" lon="-73.22321731">
    <tag k="addr:housenumber" v="220"/>
    <tag k="addr:street" v="Lakewood Drive"/>
    <tag k="addr:state" v="VT"/>
    <tag k="ref:vcgi:esiteid" v="255033"/>
  </node>
  <node id="-340" visible="true" lat="44.95048568" lon="-73.22328871">
    <tag k="addr:housenumber" v="226"/>
    <tag k="addr:street" v="Lakewood Drive"/>
    <tag k="addr:state" v="VT"/>
    <tag k="ref:vcgi:esiteid" v="255034"/>
  </node>
  <node id="-341" visible="true" lat="44.95025717" lon="-73.22271585">
    <tag k="addr:housenumber" v="225"/>
    <tag k="addr:street" v="Lakewood Drive"/>
    <tag k="addr:state" v="VT"/>
    <tag k="ref:vcgi:esiteid" v="255035"/>
  </node>
  <node id="-342" visible="true" lat="44.94974031" lon="-73.22255849">
    <tag k="addr:housenumber" v="231"/>
    <tag k="addr:street" v="Lakewood Drive"/>
    <tag k="addr:state" v="VT"/>
    <tag k="ref:vcgi:esiteid" v="255036"/>
  </node>
  <node id="-343" visible="true" lat="44.94980516" lon="-73.22359869">
    <tag k="addr:housenumber" v="236"/>
    <tag k="addr:street" v="Lakewood Drive"/>
    <tag k="addr:state" v="VT"/>
    <tag k="ref:vcgi:esiteid" v="255037"/>
  </node>
  <node id="-344" visible="true" lat="44.94945953" lon="-73.2236614">
    <tag k="addr:housenumber" v="250"/>
    <tag k="addr:street" v="Lakewood Drive"/>
    <tag k="addr:state" v="VT"/>
    <tag k="ref:vcgi:esiteid" v="255038"/>
  </node>
  <node id="-345" visible="true" lat="44.94918489" lon="-73.22379206">
    <tag k="addr:housenumber" v="256"/>
    <tag k="addr:street" v="Lakewood Drive"/>
    <tag k="addr:state" v="VT"/>
    <tag k="ref:vcgi:esiteid" v="255039"/>
  </node>
  <node id="-346" visible="true" lat="44.94928575" lon="-73.22290483">
    <tag k="addr:housenumber" v="237"/>
    <tag k="addr:street" v="Lakewood Drive"/>
    <tag k="addr:state" v="VT"/>
    <tag k="ref:vcgi:esiteid" v="255040"/>
  </node>
  <node id="-347" visible="true" lat="44.94843148" lon="-73.22245254">
    <tag k="addr:housenumber" v="263"/>
    <tag k="addr:street" v="Lakewood Drive"/>
    <tag k="addr:state" v="VT"/>
    <tag k="ref:vcgi:esiteid" v="255041"/>
  </node>
  <node id="-351" visible="true" lat="44.94665678" lon="-73.20776985">
    <tag k="addr:housenumber" v="174"/>
    <tag k="addr:street" v="Tabor Road"/>
    <tag k="addr:state" v="VT"/>
    <tag k="ref:vcgi:esiteid" v="255045"/>
  </node>
  <node id="-353" visible="true" lat="44.94810287" lon="-73.22302409">
    <tag k="addr:housenumber" v="267"/>
    <tag k="addr:street" v="Lakewood Drive"/>
    <tag k="addr:state" v="VT"/>
    <tag k="ref:vcgi:esiteid" v="255047"/>
  </node>
  <node id="-357" visible="true" lat="44.94898969" lon="-73.22397401">
    <tag k="addr:housenumber" v="260"/>
    <tag k="addr:street" v="Lakewood Drive"/>
    <tag k="addr:state" v="VT"/>
    <tag k="ref:vcgi:esiteid" v="255051"/>
  </node>
  <node id="-358" visible="true" lat="44.94865017" lon="-73.22401166">
    <tag k="addr:housenumber" v="262"/>
    <tag k="addr:street" v="Lakewood Drive"/>
    <tag k="addr:state" v="VT"/>
    <tag k="ref:vcgi:esiteid" v="255052"/>
  </node>
  <node id="-359" visible="true" lat="44.94839419" lon="-73.22401682">
    <tag k="addr:housenumber" v="266"/>
    <tag k="addr:street" v="Lakewood Drive"/>
    <tag k="addr:state" v="VT"/>
    <tag k="ref:vcgi:esiteid" v="255053"/>
  </node>
  <node id="-360" visible="true" lat="44.94757141" lon="-73.22423279">
    <tag k="addr:housenumber" v="272"/>
    <tag k="addr:street" v="Lakewood Drive"/>
    <tag k="addr:state" v="VT"/>
    <tag k="ref:vcgi:esiteid" v="255054"/>
  </node>
  <node id="-363" visible="true" lat="44.94725298" lon="-73.22469816">
    <tag k="addr:housenumber" v="278"/>
    <tag k="addr:street" v="Lakewood Drive"/>
    <tag k="addr:state" v="VT"/>
    <tag k="ref:vcgi:esiteid" v="255057"/>
  </node>
  <node id="-364" visible="true" lat="44.94663213" lon="-73.22498371">
    <tag k="addr:housenumber" v="286"/>
    <tag k="addr:street" v="Lakewood Drive"/>
    <tag k="addr:state" v="VT"/>
    <tag k="ref:vcgi:esiteid" v="255058"/>
  </node>
  <node id="-365" visible="true" lat="44.94638558" lon="-73.22537915">
    <tag k="addr:housenumber" v="292"/>
    <tag k="addr:street" v="Lakewood Drive"/>
    <tag k="addr:state" v="VT"/>
    <tag k="ref:vcgi:esiteid" v="255059"/>
  </node>
  <node id="-367" visible="true" lat="44.94485992" lon="-73.22604722">
    <tag k="addr:housenumber" v="312"/>
    <tag k="addr:street" v="Lakewood Drive"/>
    <tag k="addr:state" v="VT"/>
    <tag k="ref:vcgi:esiteid" v="255061"/>
  </node>
  <node id="-368" visible="true" lat="44.94457918" lon="-73.22620292">
    <tag k="addr:housenumber" v="316"/>
    <tag k="addr:street" v="Lakewood Drive"/>
    <tag k="addr:state" v="VT"/>
    <tag k="ref:vcgi:esiteid" v="255062"/>
  </node>
  <node id="-369" visible="true" lat="44.94404267" lon="-73.22539155">
    <tag k="addr:housenumber" v="319"/>
    <tag k="addr:street" v="Lakewood Drive"/>
    <tag k="addr:state" v="VT"/>
    <tag k="ref:vcgi:esiteid" v="255063"/>
  </node>
  <node id="-370" visible="true" lat="44.94466416" lon="-73.22500545">
    <tag k="addr:housenumber" v="313"/>
    <tag k="addr:street" v="Lakewood Drive"/>
    <tag k="addr:state" v="VT"/>
    <tag k="ref:vcgi:esiteid" v="255064"/>
  </node>
  <node id="-371" visible="true" lat="44.94377989" lon="-73.22553073">
    <tag k="addr:housenumber" v="323"/>
    <tag k="addr:street" v="Lakewood Drive"/>
    <tag k="addr:state" v="VT"/>
    <tag k="ref:vcgi:esiteid" v="255065"/>
  </node>
  <node id="-372" visible="true" lat="44.94547255" lon="-73.22518326">
    <tag k="addr:housenumber" v="300"/>
    <tag k="addr:street" v="Lakewood Drive"/>
    <tag k="addr:state" v="VT"/>
    <tag k="ref:vcgi:esiteid" v="255066"/>
  </node>
  <node id="-373" visible="true" lat="44.94302797" lon="-73.22677005">
    <tag k="addr:housenumber" v="352"/>
    <tag k="addr:street" v="Lakewood Drive"/>
    <tag k="addr:state" v="VT"/>
    <tag k="ref:vcgi:esiteid" v="255067"/>
  </node>
  <node id="-374" visible="true" lat="44.94274655" lon="-73.22609601">
    <tag k="addr:housenumber" v="331"/>
    <tag k="addr:street" v="Lakewood Drive"/>
    <tag k="addr:state" v="VT"/>
    <tag k="ref:vcgi:esiteid" v="255068"/>
  </node>
  <node id="-375" visible="true" lat="44.94245947" lon="-73.2263103">
    <tag k="addr:housenumber" v="351"/>
    <tag k="addr:street" v="Lakewood Drive"/>
    <tag k="addr:state" v="VT"/>
    <tag k="ref:vcgi:esiteid" v="255069"/>
  </node>
  <node id="-376" visible="true" lat="44.94259901" lon="-73.22683168">
    <tag k="addr:housenumber" v="360"/>
    <tag k="addr:street" v="Lakewood Drive"/>
    <tag k="addr:state" v="VT"/>
    <tag k="ref:vcgi:esiteid" v="255070"/>
  </node>
  <node id="-386" visible="true" lat="44.94020207" lon="-73.20796711">
    <tag k="addr:housenumber" v="225"/>
    <tag k="addr:street" v="Tabor Road"/>
    <tag k="addr:state" v="VT"/>
    <tag k="ref:vcgi:esiteid" v="255080"/>
  </node>
  <node id="-387" visible="true" lat="44.93990955" lon="-73.20810599">
    <tag k="addr:housenumber" v="229"/>
    <tag k="addr:street" v="Tabor Road"/>
    <tag k="addr:state" v="VT"/>
    <tag k="ref:vcgi:esiteid" v="255081"/>
  </node>
  <node id="-388" visible="true" lat="44.94224885" lon="-73.22704517">
    <tag k="addr:housenumber" v="366"/>
    <tag k="addr:street" v="Lakewood Drive"/>
    <tag k="addr:state" v="VT"/>
    <tag k="ref:vcgi:esiteid" v="255082"/>
  </node>
  <node id="-389" visible="true" lat="44.94199861" lon="-73.22708392">
    <tag k="addr:housenumber" v="372"/>
    <tag k="addr:street" v="Lakewood Drive"/>
    <tag k="addr:state" v="VT"/>
    <tag k="ref:vcgi:esiteid" v="255083"/>
  </node>
  <node id="-390" visible="true" lat="44.94171276" lon="-73.22710545">
    <tag k="addr:housenumber" v="380"/>
    <tag k="addr:street" v="Lakewood Drive"/>
    <tag k="addr:state" v="VT"/>
    <tag k="ref:vcgi:esiteid" v="255084"/>
  </node>
  <node id="-391" visible="true" lat="44.94148648" lon="-73.22711936">
    <tag k="addr:housenumber" v="386"/>
    <tag k="addr:street" v="Lakewood Drive"/>
    <tag k="addr:state" v="VT"/>
    <tag k="ref:vcgi:esiteid" v="255085"/>
  </node>
  <node id="-392" visible="true" lat="44.94118878" lon="-73.22713236">
    <tag k="addr:housenumber" v="392"/>
    <tag k="addr:street" v="Lakewood Drive"/>
    <tag k="addr:state" v="VT"/>
    <tag k="ref:vcgi:esiteid" v="255086"/>
  </node>
  <node id="-393" visible="true" lat="44.94039735" lon="-73.22616126">
    <tag k="addr:housenumber" v="1"/>
    <tag k="addr:street" v="Champlain Street"/>
    <tag k="addr:state" v="VT"/>
    <tag k="ref:vcgi:esiteid" v="255087"/>
  </node>
  <node id="-396" visible="true" lat="44.93942491" lon="-73.22744533">
    <tag k="addr:housenumber" v="408"/>
    <tag k="addr:street" v="Lakewood Drive"/>
    <tag k="addr:state" v="VT"/>
    <tag k="ref:vcgi:esiteid" v="255090"/>
  </node>
  <node id="-397" visible="true" lat="44.94029469" lon="-73.22545598">
    <tag k="addr:housenumber" v="3"/>
    <tag k="addr:street" v="Champlain Street"/>
    <tag k="addr:state" v="VT"/>
    <tag k="ref:vcgi:esiteid" v="255091"/>
  </node>
  <node id="-408" visible="true" lat="44.93886317" lon="-73.22756965">
    <tag k="addr:housenumber" v="416"/>
    <tag k="addr:street" v="Lakewood Drive"/>
    <tag k="addr:state" v="VT"/>
    <tag k="ref:vcgi:esiteid" v="255102"/>
  </node>
  <node id="-409" visible="true" lat="44.93827584" lon="-73.22752551">
    <tag k="addr:housenumber" v="424"/>
    <tag k="addr:street" v="Lakewood Drive"/>
    <tag k="addr:state" v="VT"/>
    <tag k="ref:vcgi:esiteid" v="255103"/>
  </node>
  <node id="-410" visible="true" lat="44.93799222" lon="-73.22739061">
    <tag k="addr:housenumber" v="432"/>
    <tag k="addr:street" v="Lakewood Drive"/>
    <tag k="addr:state" v="VT"/>
    <tag k="ref:vcgi:esiteid" v="255104"/>
  </node>
  <node id="-411" visible="true" lat="44.93784797" lon="-73.22660744">
    <tag k="addr:housenumber" v="441"/>
    <tag k="addr:street" v="Lakewood Drive"/>
    <tag k="addr:state" v="VT"/>
    <tag k="ref:vcgi:esiteid" v="255105"/>
  </node>
  <node id="-412" visible="true" lat="44.93706193" lon="-73.22627579">
    <tag k="addr:housenumber" v="451"/>
    <tag k="addr:street" v="Lakewood Drive"/>
    <tag k="addr:state" v="VT"/>
    <tag k="ref:vcgi:esiteid" v="255106"/>
  </node>
  <node id="-413" visible="true" lat="44.93692142" lon="-73.22710521">
    <tag k="addr:housenumber" v="456"/>
    <tag k="addr:street" v="Lakewood Drive"/>
    <tag k="addr:state" v="VT"/>
    <tag k="ref:vcgi:esiteid" v="255107"/>
  </node>
  <node id="-414" visible="true" lat="44.93725671" lon="-73.22718167">
    <tag k="addr:housenumber" v="450"/>
    <tag k="addr:street" v="Lakewood Drive"/>
    <tag k="addr:state" v="VT"/>
    <tag k="ref:vcgi:esiteid" v="255108"/>
  </node>
  <node id="-415" visible="true" lat="44.93755889" lon="-73.22732993">
    <tag k="addr:housenumber" v="444"/>
    <tag k="addr:street" v="Lakewood Drive"/>
    <tag k="addr:state" v="VT"/>
    <tag k="ref:vcgi:esiteid" v="255109"/>
  </node>
  <node id="-416" visible="true" lat="44.93669585" lon="-73.22700716">
    <tag k="addr:housenumber" v="458"/>
    <tag k="addr:street" v="Lakewood Drive"/>
    <tag k="addr:state" v="VT"/>
    <tag k="ref:vcgi:esiteid" v="255110"/>
  </node>
  <node id="-417" visible="true" lat="44.93619373" lon="-73.22676446">
    <tag k="addr:housenumber" v="464"/>
    <tag k="addr:street" v="Lakewood Drive"/>
    <tag k="addr:state" v="VT"/>
    <tag k="ref:vcgi:esiteid" v="255111"/>
  </node>
  <node id="-418" visible="true" lat="44.93560562" lon="-73.22574263">
    <tag k="addr:housenumber" v="479"/>
    <tag k="addr:street" v="Lakewood Drive"/>
    <tag k="addr:state" v="VT"/>
    <tag k="ref:vcgi:esiteid" v="255112"/>
  </node>
  <node id="-420" visible="true" lat="44.93516546" lon="-73.22498091">
    <tag k="addr:housenumber" v="489"/>
    <tag k="addr:street" v="Lakewood Drive"/>
    <tag k="addr:state" v="VT"/>
    <tag k="ref:vcgi:esiteid" v="255114"/>
  </node>
  <node id="-421" visible="true" lat="44.93498657" lon="-73.22596749">
    <tag k="addr:housenumber" v="482"/>
    <tag k="addr:street" v="Lakewood Drive"/>
    <tag k="addr:state" v="VT"/>
    <tag k="ref:vcgi:esiteid" v="255115"/>
  </node>
  <node id="-422" visible="true" lat="44.93438977" lon="-73.22490243">
    <tag k="addr:housenumber" v="506"/>
    <tag k="addr:street" v="Lakewood Drive"/>
    <tag k="addr:state" v="VT"/>
    <tag k="ref:vcgi:esiteid" v="255116"/>
  </node>
  <node id="-423" visible="true" lat="44.93464845" lon="-73.22541116">
    <tag k="addr:housenumber" v="494"/>
    <tag k="addr:street" v="Lakewood Drive"/>
    <tag k="addr:state" v="VT"/>
    <tag k="ref:vcgi:esiteid" v="255117"/>
  </node>
  <node id="-424" visible="true" lat="44.93408011" lon="-73.22417451">
    <tag k="addr:housenumber" v="512"/>
    <tag k="addr:street" v="Lakewood Drive"/>
    <tag k="addr:state" v="VT"/>
    <tag k="ref:vcgi:esiteid" v="255118"/>
  </node>
  <node id="-425" visible="true" lat="44.9339931" lon="-73.22287554">
    <tag k="addr:housenumber" v="529"/>
    <tag k="addr:street" v="Lakewood Drive"/>
    <tag k="addr:state" v="VT"/>
    <tag k="ref:vcgi:esiteid" v="255119"/>
  </node>
  <node id="-426" visible="true" lat="44.93552324" lon="-73.22637818">
    <tag k="addr:housenumber" v="474"/>
    <tag k="addr:street" v="Lakewood Drive"/>
    <tag k="addr:state" v="VT"/>
    <tag k="ref:vcgi:esiteid" v="255120"/>
  </node>
  <node id="-427" visible="true" lat="44.93530012" lon="-73.22627078">
    <tag k="addr:housenumber" v="478"/>
    <tag k="addr:street" v="Lakewood Drive"/>
    <tag k="addr:state" v="VT"/>
    <tag k="ref:vcgi:esiteid" v="255121"/>
  </node>
  <node id="-428" visible="true" lat="44.93365536" lon="-73.22357253">
    <tag k="addr:housenumber" v="526"/>
    <tag k="addr:street" v="Lakewood Drive"/>
    <tag k="addr:state" v="VT"/>
    <tag k="ref:vcgi:esiteid" v="255122"/>
  </node>
  <node id="-429" visible="true" lat="44.93265892" lon="-73.2222595">
    <tag k="addr:housenumber" v="556"/>
    <tag k="addr:street" v="Lakewood Drive"/>
    <tag k="addr:state" v="VT"/>
    <tag k="ref:vcgi:esiteid" v="255123"/>
  </node>
  <node id="-430" visible="true" lat="44.93220207" lon="-73.22221355">
    <tag k="addr:housenumber" v="562"/>
    <tag k="addr:street" v="Lakewood Drive"/>
    <tag k="addr:state" v="VT"/>
    <tag k="ref:vcgi:esiteid" v="255124"/>
  </node>
  <node id="-431" visible="true" lat="44.93020911" lon="-73.22261089">
    <tag k="addr:housenumber" v="590"/>
    <tag k="addr:street" v="Lakewood Drive"/>
    <tag k="addr:state" v="VT"/>
    <tag k="ref:vcgi:esiteid" v="255125"/>
  </node>
  <node id="-441" visible="true" lat="44.93528233" lon="-73.2110105">
    <tag k="addr:housenumber" v="301"/>
    <tag k="addr:street" v="Tabor Road"/>
    <tag k="addr:state" v="VT"/>
    <tag k="ref:vcgi:esiteid" v="255136"/>
  </node>
  <node id="-442" visible="true" lat="44.93343443" lon="-73.20607044">
    <tag k="addr:housenumber" v="217"/>
    <tag k="addr:street" v="Champlain Street"/>
    <tag k="addr:state" v="VT"/>
    <tag k="ref:vcgi:esiteid" v="255137"/>
  </node>
  <node id="-443" visible="true" lat="44.93419303" lon="-73.20814119">
    <tag k="addr:housenumber" v="181"/>
    <tag k="addr:street" v="Champlain Street"/>
    <tag k="addr:state" v="VT"/>
    <tag k="ref:vcgi:esiteid" v="255138"/>
  </node>
  <node id="-444" visible="true" lat="44.93438175" lon="-73.2088072">
    <tag k="addr:housenumber" v="167"/>
    <tag k="addr:street" v="Champlain Street"/>
    <tag k="addr:state" v="VT"/>
    <tag k="ref:vcgi:esiteid" v="255139"/>
  </node>
  <node id="-445" visible="true" lat="44.93341684" lon="-73.20775959">
    <tag k="addr:housenumber" v="11"/>
    <tag k="addr:street" v="Hog Island Road"/>
    <tag k="addr:state" v="VT"/>
    <tag k="ref:vcgi:esiteid" v="255140"/>
  </node>
  <node id="-446" visible="true" lat="44.93287924" lon="-73.20806471">
    <tag k="addr:housenumber" v="17"/>
    <tag k="addr:street" v="Hog Island Road"/>
    <tag k="addr:state" v="VT"/>
    <tag k="ref:vcgi:esiteid" v="255141"/>
  </node>
  <node id="-447" visible="true" lat="44.93321438" lon="-73.20700293">
    <tag k="addr:housenumber" v="212"/>
    <tag k="addr:street" v="Champlain Street"/>
    <tag k="addr:state" v="VT"/>
    <tag k="ref:vcgi:esiteid" v="255142"/>
  </node>
  <node id="-448" visible="true" lat="44.93261136" lon="-73.20741121">
    <tag k="addr:housenumber" v="9"/>
    <tag k="addr:street" v="Homestead Road"/>
    <tag k="addr:state" v="VT"/>
    <tag k="ref:vcgi:esiteid" v="255143"/>
  </node>
  <node id="-449" visible="true" lat="44.93266717" lon="-73.20539737">
    <tag k="addr:housenumber" v="242"/>
    <tag k="addr:street" v="Champlain Street"/>
    <tag k="addr:state" v="VT"/>
    <tag k="ref:vcgi:esiteid" v="255144"/>
  </node>
  <node id="-450" visible="true" lat="44.93162062" lon="-73.20484157">
    <tag k="addr:housenumber" v="58"/>
    <tag k="addr:street" v="Homestead Road"/>
    <tag k="addr:state" v="VT"/>
    <tag k="ref:vcgi:esiteid" v="255145"/>
  </node>
  <node id="-451" visible="true" lat="44.93172098" lon="-73.20593884">
    <tag k="addr:housenumber" v="50"/>
    <tag k="addr:street" v="Homestead Road"/>
    <tag k="addr:state" v="VT"/>
    <tag k="ref:vcgi:esiteid" v="255146"/>
  </node>
  <node id="-452" visible="true" lat="44.93036955" lon="-73.20617366">
    <tag k="addr:housenumber" v="19"/>
    <tag k="addr:street" v="Turkey Terrace"/>
    <tag k="addr:state" v="VT"/>
    <tag k="ref:vcgi:esiteid" v="255147"/>
  </node>
  <node id="-453" visible="true" lat="44.93006094" lon="-73.20525486">
    <tag k="addr:housenumber" v="25"/>
    <tag k="addr:street" v="Turkey Terrace"/>
    <tag k="addr:state" v="VT"/>
    <tag k="ref:vcgi:esiteid" v="255148"/>
  </node>
  <node id="-454" visible="true" lat="44.93206895" lon="-73.20742126">
    <tag k="addr:housenumber" v="12"/>
    <tag k="addr:street" v="Homestead Road"/>
    <tag k="addr:state" v="VT"/>
    <tag k="ref:vcgi:esiteid" v="255149"/>
  </node>
  <node id="-455" visible="true" lat="44.93224083" lon="-73.20849931">
    <tag k="addr:housenumber" v="41"/>
    <tag k="addr:street" v="Hog Island Road"/>
    <tag k="addr:state" v="VT"/>
    <tag k="ref:vcgi:esiteid" v="255150"/>
  </node>
  <node id="-456" visible="true" lat="44.93140188" lon="-73.20902193">
    <tag k="addr:housenumber" v="67"/>
    <tag k="addr:street" v="Hog Island Road"/>
    <tag k="addr:state" v="VT"/>
    <tag k="ref:vcgi:esiteid" v="255151"/>
  </node>
  <node id="-458" visible="true" lat="44.9318012" lon="-73.20798108">
    <tag k="addr:housenumber" v="8"/>
    <tag k="addr:street" v="Homestead Road"/>
    <tag k="addr:state" v="VT"/>
    <tag k="ref:vcgi:esiteid" v="255153"/>
  </node>
  <node id="-459" visible="true" lat="44.9305036" lon="-73.20893881">
    <tag k="addr:housenumber" v="6"/>
    <tag k="addr:street" v="Turkey Terrace"/>
    <tag k="addr:state" v="VT"/>
    <tag k="ref:vcgi:esiteid" v="255154"/>
  </node>
  <node id="-460" visible="true" lat="44.93000808" lon="-73.20725686">
    <tag k="addr:housenumber" v="16"/>
    <tag k="addr:street" v="Turkey Terrace"/>
    <tag k="addr:state" v="VT"/>
    <tag k="ref:vcgi:esiteid" v="255155"/>
  </node>
  <node id="-461" visible="true" lat="44.92990391" lon="-73.20677797">
    <tag k="addr:housenumber" v="18"/>
    <tag k="addr:street" v="Turkey Terrace"/>
    <tag k="addr:state" v="VT"/>
    <tag k="ref:vcgi:esiteid" v="255156"/>
  </node>
  <node id="-462" visible="true" lat="44.92977509" lon="-73.20643284">
    <tag k="addr:housenumber" v="20"/>
    <tag k="addr:street" v="Turkey Terrace"/>
    <tag k="addr:state" v="VT"/>
    <tag k="ref:vcgi:esiteid" v="255157"/>
  </node>
  <node id="-463" visible="true" lat="44.92965034" lon="-73.20543151">
    <tag k="addr:housenumber" v="27"/>
    <tag k="addr:street" v="Turkey Terrace"/>
    <tag k="addr:state" v="VT"/>
    <tag k="ref:vcgi:esiteid" v="255158"/>
  </node>
  <node id="-464" visible="true" lat="44.92938154" lon="-73.2055834">
    <tag k="addr:housenumber" v="24"/>
    <tag k="addr:street" v="Turkey Terrace"/>
    <tag k="addr:state" v="VT"/>
    <tag k="ref:vcgi:esiteid" v="255159"/>
  </node>
  <node id="-465" visible="true" lat="44.92888534" lon="-73.20593327">
    <tag k="addr:housenumber" v="93"/>
    <tag k="addr:street" v="Jayview Road"/>
    <tag k="addr:state" v="VT"/>
    <tag k="ref:vcgi:esiteid" v="255160"/>
  </node>
  <node id="-466" visible="true" lat="44.92902419" lon="-73.20658016">
    <tag k="addr:housenumber" v="77"/>
    <tag k="addr:street" v="Jayview Road"/>
    <tag k="addr:state" v="VT"/>
    <tag k="ref:vcgi:esiteid" v="255161"/>
  </node>
  <node id="-467" visible="true" lat="44.92918145" lon="-73.20713779">
    <tag k="addr:housenumber" v="71"/>
    <tag k="addr:street" v="Jayview Road"/>
    <tag k="addr:state" v="VT"/>
    <tag k="ref:vcgi:esiteid" v="255162"/>
  </node>
  <node id="-468" visible="true" lat="44.92940963" lon="-73.20777741">
    <tag k="addr:housenumber" v="51"/>
    <tag k="addr:street" v="Jayview Road"/>
    <tag k="addr:state" v="VT"/>
    <tag k="ref:vcgi:esiteid" v="255163"/>
  </node>
  <node id="-469" visible="true" lat="44.92940081" lon="-73.21015699">
    <tag k="addr:housenumber" v="93"/>
    <tag k="addr:street" v="Hog Island Road"/>
    <tag k="addr:state" v="VT"/>
    <tag k="ref:vcgi:esiteid" v="255164"/>
  </node>
  <node id="-470" visible="true" lat="44.92844205" lon="-73.20638868">
    <tag k="addr:housenumber" v="66"/>
    <tag k="addr:street" v="Jayview Road"/>
    <tag k="addr:state" v="VT"/>
    <tag k="ref:vcgi:esiteid" v="255165"/>
  </node>
  <node id="-471" visible="true" lat="44.92826831" lon="-73.20657089">
    <tag k="addr:housenumber" v="72"/>
    <tag k="addr:street" v="Jayview Road"/>
    <tag k="addr:state" v="VT"/>
    <tag k="ref:vcgi:esiteid" v="255166"/>
  </node>
  <node id="-472" visible="true" lat="44.92913713" lon="-73.20564308">
    <tag k="addr:housenumber" v="87"/>
    <tag k="addr:street" v="Jayview Road"/>
    <tag k="addr:state" v="VT"/>
    <tag k="ref:vcgi:esiteid" v="255167"/>
  </node>
  <node id="-473" visible="true" lat="44.9291241" lon="-73.21068863">
    <tag k="addr:housenumber" v="101"/>
    <tag k="addr:street" v="Hog Island Road"/>
    <tag k="addr:state" v="VT"/>
    <tag k="ref:vcgi:esiteid" v="255168"/>
  </node>
  <node id="-475" visible="true" lat="44.92833365" lon="-73.20853527">
    <tag k="addr:housenumber" v="45"/>
    <tag k="addr:street" v="Tilley Drive"/>
    <tag k="addr:state" v="VT"/>
    <tag k="ref:vcgi:esiteid" v="255170"/>
  </node>
  <node id="-476" visible="true" lat="44.92813808" lon="-73.20786954">
    <tag k="addr:housenumber" v="57"/>
    <tag k="addr:street" v="Tilley Drive"/>
    <tag k="addr:state" v="VT"/>
    <tag k="ref:vcgi:esiteid" v="255171"/>
  </node>
  <node id="-477" visible="true" lat="44.92798389" lon="-73.20696804">
    <tag k="addr:housenumber" v="71"/>
    <tag k="addr:street" v="Tilley Drive"/>
    <tag k="addr:state" v="VT"/>
    <tag k="ref:vcgi:esiteid" v="255172"/>
  </node>
  <node id="-478" visible="true" lat="44.92749541" lon="-73.20764377">
    <tag k="addr:housenumber" v="77"/>
    <tag k="addr:street" v="Tilley Drive"/>
    <tag k="addr:state" v="VT"/>
    <tag k="ref:vcgi:esiteid" v="255173"/>
  </node>
  <node id="-479" visible="true" lat="44.92786657" lon="-73.20897933">
    <tag k="addr:housenumber" v="42"/>
    <tag k="addr:street" v="Tilley Drive"/>
    <tag k="addr:state" v="VT"/>
    <tag k="ref:vcgi:esiteid" v="255174"/>
  </node>
  <node id="-480" visible="true" lat="44.92805713" lon="-73.20964936">
    <tag k="addr:housenumber" v="34"/>
    <tag k="addr:street" v="Tilley Drive"/>
    <tag k="addr:state" v="VT"/>
    <tag k="ref:vcgi:esiteid" v="255175"/>
  </node>
  <node id="-481" visible="true" lat="44.92814923" lon="-73.21009327">
    <tag k="addr:housenumber" v="28"/>
    <tag k="addr:street" v="Tilley Drive"/>
    <tag k="addr:state" v="VT"/>
    <tag k="ref:vcgi:esiteid" v="255176"/>
  </node>
  <node id="-482" visible="true" lat="44.92832169" lon="-73.21046086">
    <tag k="addr:housenumber" v="109"/>
    <tag k="addr:street" v="Hog Island Road"/>
    <tag k="addr:state" v="VT"/>
    <tag k="ref:vcgi:esiteid" v="255177"/>
  </node>
  <node id="-484" visible="true" lat="44.92728425" lon="-73.20788014">
    <tag k="addr:housenumber" v="81"/>
    <tag k="addr:street" v="Maple Street"/>
    <tag k="addr:state" v="VT"/>
    <tag k="ref:vcgi:esiteid" v="255179"/>
  </node>
  <node id="-485" visible="true" lat="44.92705859" lon="-73.20803901">
    <tag k="addr:housenumber" v="61"/>
    <tag k="addr:street" v="Maple Street"/>
    <tag k="addr:state" v="VT"/>
    <tag k="ref:vcgi:esiteid" v="255180"/>
  </node>
  <node id="-486" visible="true" lat="44.9268131" lon="-73.20817656">
    <tag k="addr:housenumber" v="51"/>
    <tag k="addr:street" v="Maple Street"/>
    <tag k="addr:state" v="VT"/>
    <tag k="ref:vcgi:esiteid" v="255181"/>
  </node>
  <node id="-488" visible="true" lat="44.92742844" lon="-73.21004747">
    <tag k="addr:housenumber" v="33"/>
    <tag k="addr:street" v="Maple Street"/>
    <tag k="addr:state" v="VT"/>
    <tag k="ref:vcgi:esiteid" v="255183"/>
  </node>
  <node id="-489" visible="true" lat="44.92668096" lon="-73.21006267">
    <tag k="addr:housenumber" v="48"/>
    <tag k="addr:street" v="Maple Street"/>
    <tag k="addr:state" v="VT"/>
    <tag k="ref:vcgi:esiteid" v="255184"/>
  </node>
  <node id="-490" visible="true" lat="44.92690104" lon="-73.21046509">
    <tag k="addr:housenumber" v="34"/>
    <tag k="addr:street" v="Maple Street"/>
    <tag k="addr:state" v="VT"/>
    <tag k="ref:vcgi:esiteid" v="255185"/>
  </node>
  <node id="-491" visible="true" lat="44.92715134" lon="-73.21159202">
    <tag k="addr:housenumber" v="14"/>
    <tag k="addr:street" v="Maple Street"/>
    <tag k="addr:state" v="VT"/>
    <tag k="ref:vcgi:esiteid" v="255186"/>
  </node>
  <node id="-492" visible="true" lat="44.92746393" lon="-73.21190511">
    <tag k="addr:housenumber" v="121"/>
    <tag k="addr:street" v="Hog Island Road"/>
    <tag k="addr:state" v="VT"/>
    <tag k="ref:vcgi:esiteid" v="255187"/>
  </node>
  <node id="-493" visible="true" lat="44.92633708" lon="-73.20845183">
    <tag k="addr:housenumber" v="60"/>
    <tag k="addr:street" v="Maple Street"/>
    <tag k="addr:state" v="VT"/>
    <tag k="ref:vcgi:esiteid" v="255188"/>
  </node>
  <node id="-494" visible="true" lat="44.92606115" lon="-73.2086663">
    <tag k="addr:housenumber" v="68"/>
    <tag k="addr:street" v="Maple Street"/>
    <tag k="addr:state" v="VT"/>
    <tag k="ref:vcgi:esiteid" v="255189"/>
  </node>
  <node id="-495" visible="true" lat="44.92583553" lon="-73.20881814">
    <tag k="addr:housenumber" v="91"/>
    <tag k="addr:street" v="Nokes Road"/>
    <tag k="addr:state" v="VT"/>
    <tag k="ref:vcgi:esiteid" v="255190"/>
  </node>
  <node id="-497" visible="true" lat="44.92599491" lon="-73.21000194">
    <tag k="addr:housenumber" v="71"/>
    <tag k="addr:street" v="Nokes Road"/>
    <tag k="addr:state" v="VT"/>
    <tag k="ref:vcgi:esiteid" v="255192"/>
  </node>
  <node id="-498" visible="true" lat="44.92559502" lon="-73.20895574">
    <tag k="addr:housenumber" v="85"/>
    <tag k="addr:street" v="Nokes Road"/>
    <tag k="addr:state" v="VT"/>
    <tag k="ref:vcgi:esiteid" v="255193"/>
  </node>
  <node id="-500" visible="true" lat="44.92510455" lon="-73.20914649">
    <tag k="addr:housenumber" v="80"/>
    <tag k="addr:street" v="Nokes Road"/>
    <tag k="addr:state" v="VT"/>
    <tag k="ref:vcgi:esiteid" v="255195"/>
  </node>
  <node id="-502" visible="true" lat="44.92485879" lon="-73.20932619">
    <tag k="addr:housenumber" v="74"/>
    <tag k="addr:street" v="Nokes Road"/>
    <tag k="addr:state" v="VT"/>
    <tag k="ref:vcgi:esiteid" v="255197"/>
  </node>
  <node id="-503" visible="true" lat="44.92635083" lon="-73.21043389">
    <tag k="addr:housenumber" v="47"/>
    <tag k="addr:street" v="Nokes Road"/>
    <tag k="addr:state" v="VT"/>
    <tag k="ref:vcgi:esiteid" v="255198"/>
  </node>
  <node id="-504" visible="true" lat="44.92507765" lon="-73.21186593">
    <tag k="addr:housenumber" v="23"/>
    <tag k="addr:street" v="Arrowhead Drive"/>
    <tag k="addr:state" v="VT"/>
    <tag k="ref:vcgi:esiteid" v="255199"/>
  </node>
  <node id="-505" visible="true" lat="44.92547897" lon="-73.21315967">
    <tag k="addr:housenumber" v="159"/>
    <tag k="addr:street" v="Hog Island Road"/>
    <tag k="addr:state" v="VT"/>
    <tag k="ref:vcgi:esiteid" v="255200"/>
  </node>
  <node id="-507" visible="true" lat="44.9247249" lon="-73.21078632">
    <tag k="addr:housenumber" v="37"/>
    <tag k="addr:street" v="Arrowhead Drive"/>
    <tag k="addr:state" v="VT"/>
    <tag k="ref:vcgi:esiteid" v="255202"/>
  </node>
  <node id="-509" visible="true" lat="44.92459255" lon="-73.21039114">
    <tag k="addr:housenumber" v="47"/>
    <tag k="addr:street" v="Arrowhead Drive"/>
    <tag k="addr:state" v="VT"/>
    <tag k="ref:vcgi:esiteid" v="255204"/>
  </node>
  <node id="-511" visible="true" lat="44.92429567" lon="-73.20995878">
    <tag k="addr:housenumber" v="250"/>
    <tag k="addr:street" v="Hog Island Road"/>
    <tag k="addr:state" v="VT"/>
    <tag k="ref:vcgi:esiteid" v="255206"/>
  </node>
  <node id="-512" visible="true" lat="44.92412423" lon="-73.21023075">
    <tag k="addr:housenumber" v="246"/>
    <tag k="addr:street" v="Hog Island Road"/>
    <tag k="addr:state" v="VT"/>
    <tag k="ref:vcgi:esiteid" v="255207"/>
  </node>
  <node id="-513" visible="true" lat="44.92394114" lon="-73.21076963">
    <tag k="addr:housenumber" v="242"/>
    <tag k="addr:street" v="Hog Island Road"/>
    <tag k="addr:state" v="VT"/>
    <tag k="ref:vcgi:esiteid" v="255208"/>
  </node>
  <node id="-514" visible="true" lat="44.92389419" lon="-73.21109233">
    <tag k="addr:housenumber" v="236"/>
    <tag k="addr:street" v="Hog Island Road"/>
    <tag k="addr:state" v="VT"/>
    <tag k="ref:vcgi:esiteid" v="255209"/>
  </node>
  <node id="-515" visible="true" lat="44.92377679" lon="-73.21150551">
    <tag k="addr:housenumber" v="232"/>
    <tag k="addr:street" v="Hog Island Road"/>
    <tag k="addr:state" v="VT"/>
    <tag k="ref:vcgi:esiteid" v="255210"/>
  </node>
  <node id="-516" visible="true" lat="44.92364458" lon="-73.2118904">
    <tag k="addr:housenumber" v="228"/>
    <tag k="addr:street" v="Hog Island Road"/>
    <tag k="addr:state" v="VT"/>
    <tag k="ref:vcgi:esiteid" v="255211"/>
  </node>
  <node id="-517" visible="true" lat="44.92354534" lon="-73.21259194">
    <tag k="addr:housenumber" v="218"/>
    <tag k="addr:street" v="Hog Island Road"/>
    <tag k="addr:state" v="VT"/>
    <tag k="ref:vcgi:esiteid" v="255212"/>
  </node>
  <node id="-518" visible="true" lat="44.92352813" lon="-73.21295014">
    <tag k="addr:housenumber" v="214"/>
    <tag k="addr:street" v="Hog Island Road"/>
    <tag k="addr:state" v="VT"/>
    <tag k="ref:vcgi:esiteid" v="255213"/>
  </node>
  <node id="-519" visible="true" lat="44.92354909" lon="-73.21358991">
    <tag k="addr:housenumber" v="198"/>
    <tag k="addr:street" v="Hog Island Road"/>
    <tag k="addr:state" v="VT"/>
    <tag k="ref:vcgi:esiteid" v="255214"/>
  </node>
  <node id="-520" visible="true" lat="44.92397541" lon="-73.21408011">
    <tag k="addr:housenumber" v="194"/>
    <tag k="addr:street" v="Hog Island Road"/>
    <tag k="addr:state" v="VT"/>
    <tag k="ref:vcgi:esiteid" v="255215"/>
  </node>
  <node id="-521" visible="true" lat="44.92413305" lon="-73.21441939">
    <tag k="addr:housenumber" v="192"/>
    <tag k="addr:street" v="Hog Island Road"/>
    <tag k="addr:state" v="VT"/>
    <tag k="ref:vcgi:esiteid" v="255216"/>
  </node>
  <node id="-522" visible="true" lat="44.92431645" lon="-73.21463249">
    <tag k="addr:housenumber" v="188"/>
    <tag k="addr:street" v="Hog Island Road"/>
    <tag k="addr:state" v="VT"/>
    <tag k="ref:vcgi:esiteid" v="255217"/>
  </node>
  <node id="-523" visible="true" lat="44.92447519" lon="-73.2147961">
    <tag k="addr:housenumber" v="184"/>
    <tag k="addr:street" v="Hog Island Road"/>
    <tag k="addr:state" v="VT"/>
    <tag k="ref:vcgi:esiteid" v="255218"/>
  </node>
  <node id="-524" visible="true" lat="44.92471474" lon="-73.21481313">
    <tag k="addr:housenumber" v="180"/>
    <tag k="addr:street" v="Hog Island Road"/>
    <tag k="addr:state" v="VT"/>
    <tag k="ref:vcgi:esiteid" v="255219"/>
  </node>
  <node id="-525" visible="true" lat="44.9248995" lon="-73.21480839">
    <tag k="addr:housenumber" v="176"/>
    <tag k="addr:street" v="Hog Island Road"/>
    <tag k="addr:state" v="VT"/>
    <tag k="ref:vcgi:esiteid" v="255220"/>
  </node>
  <node id="-527" visible="true" lat="44.92450706" lon="-73.2096873">
    <tag k="addr:housenumber" v="254"/>
    <tag k="addr:street" v="Hog Island Road"/>
    <tag k="addr:state" v="VT"/>
    <tag k="ref:vcgi:esiteid" v="255223"/>
  </node>
  <node id="-528" visible="true" lat="44.92559429" lon="-73.21085035">
    <tag k="addr:housenumber" v="46"/>
    <tag k="addr:street" v="Nokes Road"/>
    <tag k="addr:state" v="VT"/>
    <tag k="ref:vcgi:esiteid" v="255224"/>
  </node>
  <node id="-530" visible="true" lat="44.9298308" lon="-73.20934964">
    <tag k="addr:housenumber" v="21"/>
    <tag k="addr:street" v="Jayview Road"/>
    <tag k="addr:state" v="VT"/>
    <tag k="ref:vcgi:esiteid" v="255228"/>
  </node>
  <node id="-531" visible="true" lat="44.92813237" lon="-73.212313">
    <tag k="addr:housenumber" v="128"/>
    <tag k="addr:street" v="Hog Island Road"/>
    <tag k="addr:state" v="VT"/>
    <tag k="ref:vcgi:esiteid" v="255229"/>
  </node>
  <node id="-532" visible="true" lat="44.92862611" lon="-73.21194104">
    <tag k="addr:housenumber" v="112"/>
    <tag k="addr:street" v="Hog Island Road"/>
    <tag k="addr:state" v="VT"/>
    <tag k="ref:vcgi:esiteid" v="255230"/>
  </node>
  <node id="-533" visible="true" lat="44.92914176" lon="-73.21172218">
    <tag k="addr:housenumber" v="104"/>
    <tag k="addr:street" v="Hog Island Road"/>
    <tag k="addr:state" v="VT"/>
    <tag k="ref:vcgi:esiteid" v="255231"/>
  </node>
  <node id="-535" visible="true" lat="44.92960066" lon="-73.21143826">
    <tag k="addr:housenumber" v="92"/>
    <tag k="addr:street" v="Hog Island Road"/>
    <tag k="addr:state" v="VT"/>
    <tag k="ref:vcgi:esiteid" v="255233"/>
  </node>
  <node id="-565" visible="true" lat="44.93036546" lon="-73.21399236">
    <tag k="addr:housenumber" v="122"/>
    <tag k="addr:street" v="Champlain Street"/>
    <tag k="addr:state" v="VT"/>
    <tag k="ref:vcgi:esiteid" v="255263"/>
  </node>
  <node id="-866" visible="true" lat="44.92008801" lon="-73.12415651">
    <tag k="addr:housenumber" v="19"/>
    <tag k="addr:street" v="Canada Street"/>
    <tag k="addr:state" v="VT"/>
    <tag k="ref:vcgi:esiteid" v="255565"/>
  </node>
  <node id="-867" visible="true" lat="44.91998154" lon="-73.1245394">
    <tag k="addr:housenumber" v="15"/>
    <tag k="addr:street" v="Canada Street"/>
    <tag k="addr:state" v="VT"/>
    <tag k="ref:vcgi:esiteid" v="255566"/>
  </node>
  <node id="-869" visible="true" lat="44.91976017" lon="-73.12490027">
    <tag k="addr:housenumber" v="7"/>
    <tag k="addr:street" v="Canada Street"/>
    <tag k="addr:state" v="VT"/>
    <tag k="ref:vcgi:esiteid" v="255568"/>
  </node>
  <node id="-873" visible="true" lat="44.92008995" lon="-73.12630555">
    <tag k="addr:housenumber" v="5"/>
    <tag k="addr:street" v="Merchants Row"/>
    <tag k="addr:state" v="VT"/>
    <tag k="ref:vcgi:esiteid" v="255573"/>
  </node>
  <node id="-874" visible="true" lat="44.91987596" lon="-73.1261488">
    <tag k="addr:housenumber" v="21"/>
    <tag k="addr:street" v="Merchants Row"/>
    <tag k="addr:state" v="VT"/>
    <tag k="ref:vcgi:esiteid" v="255574"/>
  </node>
  <node id="-907" visible="true" lat="44.92479947" lon="-73.12727065">
    <tag k="addr:housenumber" v="6"/>
    <tag k="addr:street" v="Brooklyn Street"/>
    <tag k="addr:state" v="VT"/>
    <tag k="ref:vcgi:esiteid" v="255609"/>
  </node>
  <node id="-1356" visible="true" lat="44.92158389" lon="-73.11225506">
    <tag k="addr:housenumber" v="129"/>
    <tag k="addr:street" v="First Street"/>
    <tag k="addr:state" v="VT"/>
    <tag k="ref:vcgi:esiteid" v="256060"/>
  </node>
  <node id="-1419" visible="true" lat="44.92067689" lon="-73.12057364">
    <tag k="addr:housenumber" v="50"/>
    <tag k="addr:street" v="Canada Street"/>
    <tag k="addr:state" v="VT"/>
    <tag k="ref:vcgi:esiteid" v="256124"/>
  </node>
  <node id="-1430" visible="true" lat="44.92009915" lon="-73.11910633">
    <tag k="addr:housenumber" v="63"/>
    <tag k="addr:street" v="First Street"/>
    <tag k="addr:state" v="VT"/>
    <tag k="ref:vcgi:esiteid" v="256135"/>
  </node>
  <node id="-1431" visible="true" lat="44.91994498" lon="-73.11961404">
    <tag k="addr:housenumber" v="59"/>
    <tag k="addr:street" v="First Street"/>
    <tag k="addr:state" v="VT"/>
    <tag k="ref:vcgi:esiteid" v="256136"/>
  </node>
  <node id="-1434" visible="true" lat="44.92002224" lon="-73.12011754">
    <tag k="addr:housenumber" v="9"/>
    <tag k="addr:street" v="Greenwich Street"/>
    <tag k="addr:state" v="VT"/>
    <tag k="ref:vcgi:esiteid" v="256139"/>
  </node>
  <node id="-1435" visible="true" lat="44.9203305" lon="-73.12034873">
    <tag k="addr:housenumber" v="5"/>
    <tag k="addr:street" v="Greenwich Street"/>
    <tag k="addr:state" v="VT"/>
    <tag k="ref:vcgi:esiteid" v="256140"/>
  </node>
  <node id="-1437" visible="true" lat="44.92015007" lon="-73.12025296">
    <tag k="addr:housenumber" v="7"/>
    <tag k="addr:street" v="Greenwich Street"/>
    <tag k="addr:state" v="VT"/>
    <tag k="ref:vcgi:esiteid" v="256142"/>
  </node>
  <node id="-1438" visible="true" lat="44.92019795" lon="-73.12195586">
    <tag k="addr:housenumber" v="32"/>
    <tag k="addr:street" v="Canada Street"/>
    <tag k="addr:state" v="VT"/>
    <tag k="ref:vcgi:esiteid" v="256143"/>
  </node>
  <node id="-1439" visible="true" lat="44.92025633" lon="-73.12172861">
    <tag k="addr:housenumber" v="34"/>
    <tag k="addr:street" v="Canada Street"/>
    <tag k="addr:state" v="VT"/>
    <tag k="ref:vcgi:esiteid" v="256144"/>
  </node>
  <node id="-1440" visible="true" lat="44.92031936" lon="-73.12152152">
    <tag k="addr:housenumber" v="36"/>
    <tag k="addr:street" v="Canada Street"/>
    <tag k="addr:state" v="VT"/>
    <tag k="ref:vcgi:esiteid" v="256145"/>
  </node>
  <node id="-1441" visible="true" lat="44.92043953" lon="-73.12131672">
    <tag k="addr:housenumber" v="40"/>
    <tag k="addr:street" v="Canada Street"/>
    <tag k="addr:state" v="VT"/>
    <tag k="ref:vcgi:esiteid" v="256146"/>
  </node>
  <node id="-1442" visible="true" lat="44.92047491" lon="-73.12094009">
    <tag k="addr:housenumber" v="44"/>
    <tag k="addr:street" v="Canada Street"/>
    <tag k="addr:state" v="VT"/>
    <tag k="ref:vcgi:esiteid" v="256147"/>
  </node>
  <node id="-1444" visible="true" lat="44.92018597" lon="-73.12087096">
    <tag k="addr:housenumber" v="6"/>
    <tag k="addr:street" v="Greenwich Street"/>
    <tag k="addr:state" v="VT"/>
    <tag k="ref:vcgi:esiteid" v="256149"/>
  </node>
  <node id="-1445" visible="true" lat="44.91998138" lon="-73.12062647">
    <tag k="addr:housenumber" v="8"/>
    <tag k="addr:street" v="Greenwich Street"/>
    <tag k="addr:state" v="VT"/>
    <tag k="ref:vcgi:esiteid" v="256150"/>
  </node>
  <node id="-1446" visible="true" lat="44.91984845" lon="-73.12055132">
    <tag k="addr:housenumber" v="10"/>
    <tag k="addr:street" v="Greenwich Street"/>
    <tag k="addr:state" v="VT"/>
    <tag k="ref:vcgi:esiteid" v="256151"/>
  </node>
  <node id="-1448" visible="true" lat="44.91965385" lon="-73.12043528">
    <tag k="addr:housenumber" v="47"/>
    <tag k="addr:street" v="First Street"/>
    <tag k="addr:state" v="VT"/>
    <tag k="ref:vcgi:esiteid" v="256153"/>
  </node>
  <node id="-1450" visible="true" lat="44.91954233" lon="-73.1208027">
    <tag k="addr:housenumber" v="45"/>
    <tag k="addr:street" v="First Street"/>
    <tag k="addr:state" v="VT"/>
    <tag k="ref:vcgi:esiteid" v="256155"/>
  </node>
  <node id="-1451" visible="true" lat="44.91953142" lon="-73.12105727">
    <tag k="addr:housenumber" v="43"/>
    <tag k="addr:street" v="First Street"/>
    <tag k="addr:state" v="VT"/>
    <tag k="ref:vcgi:esiteid" v="256156"/>
  </node>
  <node id="-1452" visible="true" lat="44.91937283" lon="-73.12132365">
    <tag k="addr:housenumber" v="41"/>
    <tag k="addr:street" v="First Street"/>
    <tag k="addr:state" v="VT"/>
    <tag k="ref:vcgi:esiteid" v="256157"/>
  </node>
  <node id="-1453" visible="true" lat="44.91958157" lon="-73.12146665">
    <tag k="addr:housenumber" v="9"/>
    <tag k="addr:street" v="Broadway Street"/>
    <tag k="addr:state" v="VT"/>
    <tag k="ref:vcgi:esiteid" v="256158"/>
  </node>
  <node id="-1455" visible="true" lat="44.91995159" lon="-73.12172532">
    <tag k="addr:housenumber" v="5"/>
    <tag k="addr:street" v="Broadway Street"/>
    <tag k="addr:state" v="VT"/>
    <tag k="ref:vcgi:esiteid" v="256160"/>
  </node>
  <node id="-1457" visible="true" lat="44.91967615" lon="-73.12158831">
    <tag k="addr:housenumber" v="7"/>
    <tag k="addr:street" v="Broadway Street"/>
    <tag k="addr:state" v="VT"/>
    <tag k="ref:vcgi:esiteid" v="256162"/>
  </node>
  <node id="-1459" visible="true" lat="44.9191648" lon="-73.1219246">
    <tag k="addr:housenumber" v="12"/>
    <tag k="addr:street" v="Broadway Street"/>
    <tag k="addr:state" v="VT"/>
    <tag k="ref:vcgi:esiteid" v="256164"/>
  </node>
  <node id="-1460" visible="true" lat="44.91917268" lon="-73.12222629">
    <tag k="addr:housenumber" v="35"/>
    <tag k="addr:street" v="First Street"/>
    <tag k="addr:state" v="VT"/>
    <tag k="ref:vcgi:esiteid" v="256165"/>
  </node>
  <node id="-1461" visible="true" lat="44.9193501" lon="-73.12200033">
    <tag k="addr:housenumber" v="10"/>
    <tag k="addr:street" v="Broadway Street"/>
    <tag k="addr:state" v="VT"/>
    <tag k="ref:vcgi:esiteid" v="256166"/>
  </node>
  <node id="-1462" visible="true" lat="44.91950145" lon="-73.12218962">
    <tag k="addr:housenumber" v="8"/>
    <tag k="addr:street" v="Broadway Street"/>
    <tag k="addr:state" v="VT"/>
    <tag k="ref:vcgi:esiteid" v="256167"/>
  </node>
  <node id="-1463" visible="true" lat="44.91929425" lon="-73.12263643">
    <tag k="addr:housenumber" v="33"/>
    <tag k="addr:street" v="First Street"/>
    <tag k="addr:state" v="VT"/>
    <tag k="ref:vcgi:esiteid" v="256168"/>
  </node>
  <node id="-1464" visible="true" lat="44.91907779" lon="-73.12292647">
    <tag k="addr:housenumber" v="13"/>
    <tag k="addr:street" v="York Street"/>
    <tag k="addr:state" v="VT"/>
    <tag k="ref:vcgi:esiteid" v="256169"/>
  </node>
  <node id="-1465" visible="true" lat="44.91973064" lon="-73.12294944">
    <tag k="addr:housenumber" v="26"/>
    <tag k="addr:street" v="Canada Street"/>
    <tag k="addr:state" v="VT"/>
    <tag k="ref:vcgi:esiteid" v="256170"/>
  </node>
  <node id="-1466" visible="true" lat="44.91991707" lon="-73.12281741">
    <tag k="addr:housenumber" v="28"/>
    <tag k="addr:street" v="Canada Street"/>
    <tag k="addr:state" v="VT"/>
    <tag k="ref:vcgi:esiteid" v="256171"/>
  </node>
  <node id="-1467" visible="true" lat="44.92006661" lon="-73.12246381">
    <tag k="addr:housenumber" v="30"/>
    <tag k="addr:street" v="Canada Street"/>
    <tag k="addr:state" v="VT"/>
    <tag k="ref:vcgi:esiteid" v="256172"/>
  </node>
  <node id="-1469" visible="true" lat="44.91877191" lon="-73.12324068">
    <tag k="addr:housenumber" v="23"/>
    <tag k="addr:street" v="First Street"/>
    <tag k="addr:state" v="VT"/>
    <tag k="ref:vcgi:esiteid" v="256174"/>
  </node>
  <node id="-1471" visible="true" lat="44.91896989" lon="-73.12344573">
    <tag k="addr:housenumber" v="12"/>
    <tag k="addr:street" v="York Street"/>
    <tag k="addr:state" v="VT"/>
    <tag k="ref:vcgi:esiteid" v="256176"/>
  </node>
  <node id="-1473" visible="true" lat="44.91915144" lon="-73.12351954">
    <tag k="addr:housenumber" v="8"/>
    <tag k="addr:street" v="York Street"/>
    <tag k="addr:state" v="VT"/>
    <tag k="ref:vcgi:esiteid" v="256178"/>
  </node>
  <node id="-1475" visible="true" lat="44.91932192" lon="-73.12367556">
    <tag k="addr:housenumber" v="4"/>
    <tag k="addr:street" v="York Street"/>
    <tag k="addr:state" v="VT"/>
    <tag k="ref:vcgi:esiteid" v="256180"/>
  </node>
  <node id="-1476" visible="true" lat="44.9195252" lon="-73.12394585">
    <tag k="addr:housenumber" v="20"/>
    <tag k="addr:street" v="Canada Street"/>
    <tag k="addr:state" v="VT"/>
    <tag k="ref:vcgi:esiteid" v="256181"/>
  </node>
  <node id="-1477" visible="true" lat="44.91951461" lon="-73.1241401">
    <tag k="addr:housenumber" v="12"/>
    <tag k="addr:street" v="Canada Street"/>
    <tag k="addr:state" v="VT"/>
    <tag k="ref:vcgi:esiteid" v="256182"/>
  </node>
  <node id="-1478" visible="true" lat="44.91938521" lon="-73.12429285">
    <tag k="addr:housenumber" v="10"/>
    <tag k="addr:street" v="Canada Street"/>
    <tag k="addr:state" v="VT"/>
    <tag k="ref:vcgi:esiteid" v="256183"/>
  </node>
  <node id="-1479" visible="true" lat="44.91926881" lon="-73.12468032">
    <tag k="addr:housenumber" v="2"/>
    <tag k="addr:street" v="Canada Street"/>
    <tag k="addr:state" v="VT"/>
    <tag k="ref:vcgi:esiteid" v="256184"/>
  </node>
  <node id="-1480" visible="true" lat="44.91910156" lon="-73.12478574">
    <tag k="addr:housenumber" v="9"/>
    <tag k="addr:street" v="Grand Avenue"/>
    <tag k="addr:state" v="VT"/>
    <tag k="ref:vcgi:esiteid" v="256185"/>
  </node>
  <node id="-1481" visible="true" lat="44.91886997" lon="-73.12446823">
    <tag k="addr:housenumber" v="21"/>
    <tag k="addr:street" v="Grand Avenue"/>
    <tag k="addr:state" v="VT"/>
    <tag k="ref:vcgi:esiteid" v="256186"/>
  </node>
  <node id="-1482" visible="true" lat="44.91867082" lon="-73.12431192">
    <tag k="addr:housenumber" v="23"/>
    <tag k="addr:street" v="Grand Avenue"/>
    <tag k="addr:state" v="VT"/>
    <tag k="ref:vcgi:esiteid" v="256187"/>
  </node>
  <node id="-1484" visible="true" lat="44.91994122" lon="-73.12682512">
    <tag k="addr:housenumber" v="8"/>
    <tag k="addr:street" v="Merchants Row"/>
    <tag k="addr:state" v="VT"/>
    <tag k="ref:vcgi:esiteid" v="256189"/>
  </node>
  <node id="-1485" visible="true" lat="44.91969455" lon="-73.12723323">
    <tag k="addr:housenumber" v="7"/>
    <tag k="addr:street" v="River Lane"/>
    <tag k="addr:state" v="VT"/>
    <tag k="ref:vcgi:esiteid" v="256190"/>
  </node>
  <node id="-1486" visible="true" lat="44.9193729" lon="-73.12734269">
    <tag k="addr:housenumber" v="13"/>
    <tag k="addr:street" v="River Lane"/>
    <tag k="addr:state" v="VT"/>
    <tag k="ref:vcgi:esiteid" v="256191"/>
  </node>
  <node id="-1487" visible="true" lat="44.91937799" lon="-73.12708087">
    <tag k="addr:housenumber" v="11"/>
    <tag k="addr:street" v="River Lane"/>
    <tag k="addr:state" v="VT"/>
    <tag k="ref:vcgi:esiteid" v="256192"/>
  </node>
  <node id="-1488" visible="true" lat="44.91958409" lon="-73.12741688">
    <tag k="addr:housenumber" v="9"/>
    <tag k="addr:street" v="River Lane"/>
    <tag k="addr:state" v="VT"/>
    <tag k="ref:vcgi:esiteid" v="256193"/>
  </node>
  <node id="-1489" visible="true" lat="44.9191497" lon="-73.12739464">
    <tag k="addr:housenumber" v="17"/>
    <tag k="addr:street" v="River Lane"/>
    <tag k="addr:state" v="VT"/>
    <tag k="ref:vcgi:esiteid" v="256194"/>
  </node>
  <node id="-1490" visible="true" lat="44.91894151" lon="-73.12750744">
    <tag k="addr:housenumber" v="19"/>
    <tag k="addr:street" v="River Lane"/>
    <tag k="addr:state" v="VT"/>
    <tag k="ref:vcgi:esiteid" v="256195"/>
  </node>
  <node id="-1493" visible="true" lat="44.91881408" lon="-73.12745984">
    <tag k="addr:housenumber" v="21"/>
    <tag k="addr:street" v="River Lane"/>
    <tag k="addr:state" v="VT"/>
    <tag k="ref:vcgi:esiteid" v="256198"/>
  </node>
  <node id="-1494" visible="true" lat="44.91867939" lon="-73.12740703">
    <tag k="addr:housenumber" v="23"/>
    <tag k="addr:street" v="River Lane"/>
    <tag k="addr:state" v="VT"/>
    <tag k="ref:vcgi:esiteid" v="256199"/>
  </node>
  <node id="-1495" visible="true" lat="44.9185047" lon="-73.12732811">
    <tag k="addr:housenumber" v="25"/>
    <tag k="addr:street" v="River Lane"/>
    <tag k="addr:state" v="VT"/>
    <tag k="ref:vcgi:esiteid" v="256200"/>
  </node>
  <node id="-1533" visible="true" lat="44.91867054" lon="-73.11523799">
    <tag k="addr:housenumber" v="41"/>
    <tag k="addr:street" v="Liberty Street"/>
    <tag k="addr:state" v="VT"/>
    <tag k="ref:vcgi:esiteid" v="256242"/>
  </node>
  <node id="-1534" visible="true" lat="44.91838647" lon="-73.11493336">
    <tag k="addr:housenumber" v="47"/>
    <tag k="addr:street" v="Liberty Street"/>
    <tag k="addr:state" v="VT"/>
    <tag k="ref:vcgi:esiteid" v="256243"/>
  </node>
  <node id="-1538" visible="true" lat="44.91797645" lon="-73.11466762">
    <tag k="addr:housenumber" v="53"/>
    <tag k="addr:street" v="Liberty Street"/>
    <tag k="addr:state" v="VT"/>
    <tag k="ref:vcgi:esiteid" v="256247"/>
  </node>
  <node id="-1584" visible="true" lat="44.91952573" lon="-73.11974672">
    <tag k="addr:housenumber" v="52"/>
    <tag k="addr:street" v="First Street"/>
    <tag k="addr:state" v="VT"/>
    <tag k="ref:vcgi:esiteid" v="256294"/>
  </node>
  <node id="-1598" visible="true" lat="44.91964158" lon="-73.11941142">
    <tag k="addr:housenumber" v="56"/>
    <tag k="addr:street" v="First Street"/>
    <tag k="addr:state" v="VT"/>
    <tag k="ref:vcgi:esiteid" v="256309"/>
  </node>
  <node id="-1599" visible="true" lat="44.91847462" lon="-73.11969641">
    <tag k="addr:housenumber" v="28"/>
    <tag k="addr:street" v="Greenwich Street"/>
    <tag k="addr:state" v="VT"/>
    <tag k="ref:vcgi:esiteid" v="256310"/>
  </node>
  <node id="-1600" visible="true" lat="44.91868506" lon="-73.11987414">
    <tag k="addr:housenumber" v="24"/>
    <tag k="addr:street" v="Greenwich Street"/>
    <tag k="addr:state" v="VT"/>
    <tag k="ref:vcgi:esiteid" v="256311"/>
  </node>
  <node id="-1601" visible="true" lat="44.9188638" lon="-73.11989895">
    <tag k="addr:housenumber" v="20"/>
    <tag k="addr:street" v="Greenwich Street"/>
    <tag k="addr:state" v="VT"/>
    <tag k="ref:vcgi:esiteid" v="256312"/>
  </node>
  <node id="-1602" visible="true" lat="44.91903112" lon="-73.12003045">
    <tag k="addr:housenumber" v="18"/>
    <tag k="addr:street" v="Greenwich Street"/>
    <tag k="addr:state" v="VT"/>
    <tag k="ref:vcgi:esiteid" v="256313"/>
  </node>
  <node id="-1603" visible="true" lat="44.91928525" lon="-73.12014762">
    <tag k="addr:housenumber" v="50"/>
    <tag k="addr:street" v="First Street"/>
    <tag k="addr:state" v="VT"/>
    <tag k="ref:vcgi:esiteid" v="256314"/>
  </node>
  <node id="-1604" visible="true" lat="44.91922356" lon="-73.12052841">
    <tag k="addr:housenumber" v="46"/>
    <tag k="addr:street" v="First Street"/>
    <tag k="addr:state" v="VT"/>
    <tag k="ref:vcgi:esiteid" v="256315"/>
  </node>
  <node id="-1606" visible="true" lat="44.91916828" lon="-73.12072618">
    <tag k="addr:housenumber" v="44"/>
    <tag k="addr:street" v="First Street"/>
    <tag k="addr:state" v="VT"/>
    <tag k="ref:vcgi:esiteid" v="256317"/>
  </node>
  <node id="-1607" visible="true" lat="44.91902582" lon="-73.12100692">
    <tag k="addr:housenumber" v="40"/>
    <tag k="addr:street" v="First Street"/>
    <tag k="addr:state" v="VT"/>
    <tag k="ref:vcgi:esiteid" v="256318"/>
  </node>
  <node id="-1609" visible="true" lat="44.91876118" lon="-73.1208286">
    <tag k="addr:housenumber" v="15"/>
    <tag k="addr:street" v="Broadway Street"/>
    <tag k="addr:state" v="VT"/>
    <tag k="ref:vcgi:esiteid" v="256320"/>
  </node>
  <node id="-1610" visible="true" lat="44.91856618" lon="-73.12080361">
    <tag k="addr:housenumber" v="17"/>
    <tag k="addr:street" v="Broadway Street"/>
    <tag k="addr:state" v="VT"/>
    <tag k="ref:vcgi:esiteid" v="256321"/>
  </node>
  <node id="-1611" visible="true" lat="44.91836063" lon="-73.12072511">
    <tag k="addr:housenumber" v="19"/>
    <tag k="addr:street" v="Broadway Street"/>
    <tag k="addr:state" v="VT"/>
    <tag k="ref:vcgi:esiteid" v="256322"/>
  </node>
  <node id="-1612" visible="true" lat="44.91817163" lon="-73.12059338">
    <tag k="addr:housenumber" v="23"/>
    <tag k="addr:street" v="Broadway Street"/>
    <tag k="addr:state" v="VT"/>
    <tag k="ref:vcgi:esiteid" v="256323"/>
  </node>
  <node id="-1614" visible="true" lat="44.91887528" lon="-73.12177584">
    <tag k="addr:housenumber" v="14"/>
    <tag k="addr:street" v="Broadway Street"/>
    <tag k="addr:state" v="VT"/>
    <tag k="ref:vcgi:esiteid" v="256325"/>
  </node>
  <node id="-1615" visible="true" lat="44.91856245" lon="-73.12149019">
    <tag k="addr:housenumber" v="18"/>
    <tag k="addr:street" v="Broadway Street"/>
    <tag k="addr:state" v="VT"/>
    <tag k="ref:vcgi:esiteid" v="256326"/>
  </node>
  <node id="-1616" visible="true" lat="44.91841664" lon="-73.12138944">
    <tag k="addr:housenumber" v="20"/>
    <tag k="addr:street" v="Broadway Street"/>
    <tag k="addr:state" v="VT"/>
    <tag k="ref:vcgi:esiteid" v="256327"/>
  </node>
  <node id="-1617" visible="true" lat="44.91821105" lon="-73.12131856">
    <tag k="addr:housenumber" v="22"/>
    <tag k="addr:street" v="Broadway Street"/>
    <tag k="addr:state" v="VT"/>
    <tag k="ref:vcgi:esiteid" v="256328"/>
  </node>
  <node id="-1618" visible="true" lat="44.9180117" lon="-73.12109517">
    <tag k="addr:housenumber" v="15"/>
    <tag k="addr:street" v="Second Street"/>
    <tag k="addr:state" v="VT"/>
    <tag k="ref:vcgi:esiteid" v="256329"/>
  </node>
  <node id="-1619" visible="true" lat="44.91790073" lon="-73.12156698">
    <tag k="addr:housenumber" v="9"/>
    <tag k="addr:street" v="Second Street"/>
    <tag k="addr:state" v="VT"/>
    <tag k="ref:vcgi:esiteid" v="256330"/>
  </node>
  <node id="-1620" visible="true" lat="44.91768668" lon="-73.12205293">
    <tag k="addr:housenumber" v="29"/>
    <tag k="addr:street" v="York Street"/>
    <tag k="addr:state" v="VT"/>
    <tag k="ref:vcgi:esiteid" v="256331"/>
  </node>
  <node id="-1621" visible="true" lat="44.91788635" lon="-73.12221529">
    <tag k="addr:housenumber" v="25"/>
    <tag k="addr:street" v="York Street"/>
    <tag k="addr:state" v="VT"/>
    <tag k="ref:vcgi:esiteid" v="256332"/>
  </node>
  <node id="-1622" visible="true" lat="44.9182109" lon="-73.12234086">
    <tag k="addr:housenumber" v="23"/>
    <tag k="addr:street" v="York Street"/>
    <tag k="addr:state" v="VT"/>
    <tag k="ref:vcgi:esiteid" v="256333"/>
  </node>
  <node id="-1623" visible="true" lat="44.91843184" lon="-73.12257974">
    <tag k="addr:housenumber" v="19"/>
    <tag k="addr:street" v="York Street"/>
    <tag k="addr:state" v="VT"/>
    <tag k="ref:vcgi:esiteid" v="256334"/>
  </node>
  <node id="-1626" visible="true" lat="44.91869396" lon="-73.122224">
    <tag k="addr:housenumber" v="32"/>
    <tag k="addr:street" v="First Street"/>
    <tag k="addr:state" v="VT"/>
    <tag k="ref:vcgi:esiteid" v="256337"/>
  </node>
  <node id="-1627" visible="true" lat="44.91874949" lon="-73.12198047">
    <tag k="addr:housenumber" v="34"/>
    <tag k="addr:street" v="First Street"/>
    <tag k="addr:state" v="VT"/>
    <tag k="ref:vcgi:esiteid" v="256338"/>
  </node>
  <node id="-1629" visible="true" lat="44.91830135" lon="-73.1236464">
    <tag k="addr:housenumber" v="12"/>
    <tag k="addr:street" v="First Street"/>
    <tag k="addr:state" v="VT"/>
    <tag k="ref:vcgi:esiteid" v="256340"/>
  </node>
  <node id="-1630" visible="true" lat="44.91831377" lon="-73.12335663">
    <tag k="addr:housenumber" v="14"/>
    <tag k="addr:street" v="First Street"/>
    <tag k="addr:state" v="VT"/>
    <tag k="ref:vcgi:esiteid" v="256341"/>
  </node>
  <node id="-1631" visible="true" lat="44.91829421" lon="-73.12296734">
    <tag k="addr:housenumber" v="18"/>
    <tag k="addr:street" v="York Street"/>
    <tag k="addr:state" v="VT"/>
    <tag k="ref:vcgi:esiteid" v="256342"/>
  </node>
  <node id="-1632" visible="true" lat="44.91817047" lon="-73.12293684">
    <tag k="addr:housenumber" v="20"/>
    <tag k="addr:street" v="York Street"/>
    <tag k="addr:state" v="VT"/>
    <tag k="ref:vcgi:esiteid" v="256343"/>
  </node>
  <node id="-1634" visible="true" lat="44.91793627" lon="-73.12300162">
    <tag k="addr:housenumber" v="24"/>
    <tag k="addr:street" v="York Street"/>
    <tag k="addr:state" v="VT"/>
    <tag k="ref:vcgi:esiteid" v="256345"/>
  </node>
  <node id="-1636" visible="true" lat="44.91741276" lon="-73.122584">
    <tag k="addr:housenumber" v="43"/>
    <tag k="addr:street" v="Grand Avenue"/>
    <tag k="addr:state" v="VT"/>
    <tag k="ref:vcgi:esiteid" v="256347"/>
  </node>
  <node id="-1638" visible="true" lat="44.91787256" lon="-73.1227568">
    <tag k="addr:housenumber" v="26"/>
    <tag k="addr:street" v="York Street"/>
    <tag k="addr:state" v="VT"/>
    <tag k="ref:vcgi:esiteid" v="256349"/>
  </node>
  <node id="-1640" visible="true" lat="44.91829875" lon="-73.12732226">
    <tag k="addr:housenumber" v="17"/>
    <tag k="addr:street" v="Ferry Street"/>
    <tag k="addr:state" v="VT"/>
    <tag k="ref:vcgi:esiteid" v="256351"/>
  </node>
  <node id="-1641" visible="true" lat="44.91832553" lon="-73.1271484">
    <tag k="addr:housenumber" v="15"/>
    <tag k="addr:street" v="Ferry Street"/>
    <tag k="addr:state" v="VT"/>
    <tag k="ref:vcgi:esiteid" v="256352"/>
  </node>
  <node id="-1642" visible="true" lat="44.91836994" lon="-73.12695816">
    <tag k="addr:housenumber" v="13"/>
    <tag k="addr:street" v="Ferry Street"/>
    <tag k="addr:state" v="VT"/>
    <tag k="ref:vcgi:esiteid" v="256353"/>
  </node>
  <node id="-1643" visible="true" lat="44.91838154" lon="-73.12682096">
    <tag k="addr:housenumber" v="11"/>
    <tag k="addr:street" v="Ferry Street"/>
    <tag k="addr:state" v="VT"/>
    <tag k="ref:vcgi:esiteid" v="256354"/>
  </node>
  <node id="-1644" visible="true" lat="44.91839901" lon="-73.12659991">
    <tag k="addr:housenumber" v="9"/>
    <tag k="addr:street" v="Ferry Street"/>
    <tag k="addr:state" v="VT"/>
    <tag k="ref:vcgi:esiteid" v="256355"/>
  </node>
  <node id="-1645" visible="true" lat="44.91842577" lon="-73.12632688">
    <tag k="addr:housenumber" v="7"/>
    <tag k="addr:street" v="Ferry Street"/>
    <tag k="addr:state" v="VT"/>
    <tag k="ref:vcgi:esiteid" v="256356"/>
  </node>
  <node id="-1647" visible="true" lat="44.91811543" lon="-73.1257862">
    <tag k="addr:housenumber" v="6"/>
    <tag k="addr:street" v="Church Street"/>
    <tag k="addr:state" v="VT"/>
    <tag k="ref:vcgi:esiteid" v="256358"/>
  </node>
  <node id="-1648" visible="true" lat="44.91735548" lon="-73.12513144">
    <tag k="addr:housenumber" v="16"/>
    <tag k="addr:street" v="Church Street"/>
    <tag k="addr:state" v="VT"/>
    <tag k="ref:vcgi:esiteid" v="256359"/>
  </node>
  <node id="-1649" visible="true" lat="44.91718291" lon="-73.12496936">
    <tag k="addr:housenumber" v="18"/>
    <tag k="addr:street" v="Church Street"/>
    <tag k="addr:state" v="VT"/>
    <tag k="ref:vcgi:esiteid" v="256360"/>
  </node>
  <node id="-1650" visible="true" lat="44.91774491" lon="-73.12528319">
    <tag k="addr:housenumber" v="12"/>
    <tag k="addr:street" v="Church Street"/>
    <tag k="addr:state" v="VT"/>
    <tag k="ref:vcgi:esiteid" v="256361"/>
  </node>
  <node id="-1651" visible="true" lat="44.91713598" lon="-73.12437494">
    <tag k="addr:housenumber" v="1"/>
    <tag k="addr:street" v="Academy Street"/>
    <tag k="addr:state" v="VT"/>
    <tag k="ref:vcgi:esiteid" v="256362"/>
  </node>
  <node id="-1652" visible="true" lat="44.91722776" lon="-73.12413466">
    <tag k="addr:housenumber" v="7"/>
    <tag k="addr:street" v="Academy Street"/>
    <tag k="addr:state" v="VT"/>
    <tag k="ref:vcgi:esiteid" v="256363"/>
  </node>
  <node id="-1653" visible="true" lat="44.91729153" lon="-73.12379355">
    <tag k="addr:housenumber" v="38"/>
    <tag k="addr:street" v="Grand Avenue"/>
    <tag k="addr:state" v="VT"/>
    <tag k="ref:vcgi:esiteid" v="256364"/>
  </node>
  <node id="-1654" visible="true" lat="44.91714117" lon="-73.12342332">
    <tag k="addr:housenumber" v="40"/>
    <tag k="addr:street" v="Grand Avenue"/>
    <tag k="addr:state" v="VT"/>
    <tag k="ref:vcgi:esiteid" v="256365"/>
  </node>
  <node id="-1655" visible="true" lat="44.91691968" lon="-73.12299871">
    <tag k="addr:housenumber" v="44"/>
    <tag k="addr:street" v="Grand Avenue"/>
    <tag k="addr:state" v="VT"/>
    <tag k="ref:vcgi:esiteid" v="256366"/>
  </node>
  <node id="-1657" visible="true" lat="44.91680687" lon="-73.12272941">
    <tag k="addr:housenumber" v="46"/>
    <tag k="addr:street" v="Grand Avenue"/>
    <tag k="addr:state" v="VT"/>
    <tag k="ref:vcgi:esiteid" v="256368"/>
  </node>
  <node id="-1658" visible="true" lat="44.91667947" lon="-73.12251358">
    <tag k="addr:housenumber" v="50"/>
    <tag k="addr:street" v="Grand Avenue"/>
    <tag k="addr:state" v="VT"/>
    <tag k="ref:vcgi:esiteid" v="256369"/>
  </node>
  <node id="-1660" visible="true" lat="44.91656124" lon="-73.12236486">
    <tag k="addr:housenumber" v="52"/>
    <tag k="addr:street" v="Grand Avenue"/>
    <tag k="addr:state" v="VT"/>
    <tag k="ref:vcgi:esiteid" v="256371"/>
  </node>
  <node id="-1661" visible="true" lat="44.9163895" lon="-73.12239805">
    <tag k="addr:housenumber" v="6"/>
    <tag k="addr:street" v="Farrar Street"/>
    <tag k="addr:state" v="VT"/>
    <tag k="ref:vcgi:esiteid" v="256372"/>
  </node>
  <node id="-1663" visible="true" lat="44.915801" lon="-73.12293301">
    <tag k="addr:housenumber" v="16"/>
    <tag k="addr:street" v="Farrar Street"/>
    <tag k="addr:state" v="VT"/>
    <tag k="ref:vcgi:esiteid" v="256374"/>
  </node>
  <node id="-1664" visible="true" lat="44.91628074" lon="-73.12359162">
    <tag k="addr:housenumber" v="31"/>
    <tag k="addr:street" v="Church Street"/>
    <tag k="addr:state" v="VT"/>
    <tag k="ref:vcgi:esiteid" v="256375"/>
  </node>
  <node id="-1666" visible="true" lat="44.91587207" lon="-73.12474325">
    <tag k="addr:housenumber" v="28"/>
    <tag k="addr:street" v="Church Street"/>
    <tag k="addr:state" v="VT"/>
    <tag k="ref:vcgi:esiteid" v="256377"/>
  </node>
  <node id="-1670" visible="true" lat="44.9161793" lon="-73.12429086">
    <tag k="addr:housenumber" v="26"/>
    <tag k="addr:street" v="Church Street"/>
    <tag k="addr:state" v="VT"/>
    <tag k="ref:vcgi:esiteid" v="256381"/>
  </node>
  <node id="-1673" visible="true" lat="44.91550256" lon="-73.12303475">
    <tag k="addr:housenumber" v="40"/>
    <tag k="addr:street" v="Church Street"/>
    <tag k="addr:state" v="VT"/>
    <tag k="ref:vcgi:esiteid" v="256384"/>
  </node>
  <node id="-1675" visible="true" lat="44.91560823" lon="-73.1224819">
    <tag k="addr:housenumber" v="15"/>
    <tag k="addr:street" v="Farrar Street"/>
    <tag k="addr:state" v="VT"/>
    <tag k="ref:vcgi:esiteid" v="256386"/>
  </node>
  <node id="-1676" visible="true" lat="44.91601515" lon="-73.12208419">
    <tag k="addr:housenumber" v="9"/>
    <tag k="addr:street" v="Farrar Street"/>
    <tag k="addr:state" v="VT"/>
    <tag k="ref:vcgi:esiteid" v="256387"/>
  </node>
  <node id="-1677" visible="true" lat="44.9158904" lon="-73.12225709">
    <tag k="addr:housenumber" v="11"/>
    <tag k="addr:street" v="Farrar Street"/>
    <tag k="addr:state" v="VT"/>
    <tag k="ref:vcgi:esiteid" v="256388"/>
  </node>
  <node id="-1678" visible="true" lat="44.91621359" lon="-73.12149657">
    <tag k="addr:housenumber" v="58"/>
    <tag k="addr:street" v="Grand Avenue"/>
    <tag k="addr:state" v="VT"/>
    <tag k="ref:vcgi:esiteid" v="256389"/>
  </node>
  <node id="-1679" visible="true" lat="44.91629278" lon="-73.12181911">
    <tag k="addr:housenumber" v="54"/>
    <tag k="addr:street" v="Grand Avenue"/>
    <tag k="addr:state" v="VT"/>
    <tag k="ref:vcgi:esiteid" v="256390"/>
  </node>
  <node id="-1680" visible="true" lat="44.91742633" lon="-73.12177772">
    <tag k="addr:housenumber" v="31"/>
    <tag k="addr:street" v="York Street"/>
    <tag k="addr:state" v="VT"/>
    <tag k="ref:vcgi:esiteid" v="256391"/>
  </node>
  <node id="-1681" visible="true" lat="44.91711825" lon="-73.12151303">
    <tag k="addr:housenumber" v="35"/>
    <tag k="addr:street" v="York Street"/>
    <tag k="addr:state" v="VT"/>
    <tag k="ref:vcgi:esiteid" v="256392"/>
  </node>
  <node id="-1682" visible="true" lat="44.91691449" lon="-73.12132988">
    <tag k="addr:housenumber" v="39"/>
    <tag k="addr:street" v="York Street"/>
    <tag k="addr:state" v="VT"/>
    <tag k="ref:vcgi:esiteid" v="256393"/>
  </node>
  <node id="-1685" visible="true" lat="44.91790491" lon="-73.12046259">
    <tag k="addr:housenumber" v="18"/>
    <tag k="addr:street" v="Second Street"/>
    <tag k="addr:state" v="VT"/>
    <tag k="ref:vcgi:esiteid" v="256396"/>
  </node>
  <node id="-1686" visible="true" lat="44.91798255" lon="-73.12019534">
    <tag k="addr:housenumber" v="20"/>
    <tag k="addr:street" v="Second Street"/>
    <tag k="addr:state" v="VT"/>
    <tag k="ref:vcgi:esiteid" v="256397"/>
  </node>
  <node id="-1687" visible="true" lat="44.91806525" lon="-73.11987454">
    <tag k="addr:housenumber" v="22"/>
    <tag k="addr:street" v="Second Street"/>
    <tag k="addr:state" v="VT"/>
    <tag k="ref:vcgi:esiteid" v="256398"/>
  </node>
  <node id="-1688" visible="true" lat="44.91815474" lon="-73.11963693">
    <tag k="addr:housenumber" v="26"/>
    <tag k="addr:street" v="Second Street"/>
    <tag k="addr:state" v="VT"/>
    <tag k="ref:vcgi:esiteid" v="256399"/>
  </node>
  <node id="-1689" visible="true" lat="44.91820082" lon="-73.11946047">
    <tag k="addr:housenumber" v="28"/>
    <tag k="addr:street" v="Second Street"/>
    <tag k="addr:state" v="VT"/>
    <tag k="ref:vcgi:esiteid" v="256400"/>
  </node>
  <node id="-1690" visible="true" lat="44.91785933" lon="-73.11920882">
    <tag k="addr:housenumber" v="34"/>
    <tag k="addr:street" v="Greenwich Street"/>
    <tag k="addr:state" v="VT"/>
    <tag k="ref:vcgi:esiteid" v="256401"/>
  </node>
  <node id="-1694" visible="true" lat="44.91761484" lon="-73.1212637">
    <tag k="addr:housenumber" v="10"/>
    <tag k="addr:street" v="Second Street"/>
    <tag k="addr:state" v="VT"/>
    <tag k="ref:vcgi:esiteid" v="256405"/>
  </node>
  <node id="-1695" visible="true" lat="44.91687194" lon="-73.11951991">
    <tag k="addr:housenumber" v="9"/>
    <tag k="addr:street" v="Furman Place"/>
    <tag k="addr:state" v="VT"/>
    <tag k="ref:vcgi:esiteid" v="256406"/>
  </node>
  <node id="-1696" visible="true" lat="44.916233" lon="-73.12011621">
    <tag k="addr:housenumber" v="65"/>
    <tag k="addr:street" v="Grand Avenue"/>
    <tag k="addr:state" v="VT"/>
    <tag k="ref:vcgi:esiteid" v="256407"/>
  </node>
  <node id="-1697" visible="true" lat="44.9163317" lon="-73.11991621">
    <tag k="addr:housenumber" v="3"/>
    <tag k="addr:street" v="Furman Place"/>
    <tag k="addr:state" v="VT"/>
    <tag k="ref:vcgi:esiteid" v="256408"/>
  </node>
  <node id="-1698" visible="true" lat="44.91594738" lon="-73.11966077">
    <tag k="addr:housenumber" v="69"/>
    <tag k="addr:street" v="Grand Avenue"/>
    <tag k="addr:state" v="VT"/>
    <tag k="ref:vcgi:esiteid" v="256409"/>
  </node>
  <node id="-1699" visible="true" lat="44.91618199" lon="-73.11942537">
    <tag k="addr:housenumber" v="2"/>
    <tag k="addr:street" v="Furman Place"/>
    <tag k="addr:state" v="VT"/>
    <tag k="ref:vcgi:esiteid" v="256410"/>
  </node>
  <node id="-1702" visible="true" lat="44.91689622" lon="-73.1185551">
    <tag k="addr:housenumber" v="42"/>
    <tag k="addr:street" v="Greenwich Street"/>
    <tag k="addr:state" v="VT"/>
    <tag k="ref:vcgi:esiteid" v="256413"/>
  </node>
  <node id="-1704" visible="true" lat="44.91659209" lon="-73.1184379">
    <tag k="addr:housenumber" v="48"/>
    <tag k="addr:street" v="Greenwich Street"/>
    <tag k="addr:state" v="VT"/>
    <tag k="ref:vcgi:esiteid" v="256415"/>
  </node>
  <node id="-1705" visible="true" lat="44.91574534" lon="-73.11915932">
    <tag k="addr:housenumber" v="75"/>
    <tag k="addr:street" v="Grand Avenue"/>
    <tag k="addr:state" v="VT"/>
    <tag k="ref:vcgi:esiteid" v="256416"/>
  </node>
  <node id="-1706" visible="true" lat="44.91561841" lon="-73.11885637">
    <tag k="addr:housenumber" v="77"/>
    <tag k="addr:street" v="Grand Avenue"/>
    <tag k="addr:state" v="VT"/>
    <tag k="ref:vcgi:esiteid" v="256417"/>
  </node>
  <node id="-1707" visible="true" lat="44.91542735" lon="-73.1184932">
    <tag k="addr:housenumber" v="79"/>
    <tag k="addr:street" v="Grand Avenue"/>
    <tag k="addr:state" v="VT"/>
    <tag k="ref:vcgi:esiteid" v="256418"/>
  </node>
  <node id="-1708" visible="true" lat="44.91590286" lon="-73.11808747">
    <tag k="addr:housenumber" v="7"/>
    <tag k="addr:street" v="Platt Street"/>
    <tag k="addr:state" v="VT"/>
    <tag k="ref:vcgi:esiteid" v="256419"/>
  </node>
  <node id="-1709" visible="true" lat="44.91617889" lon="-73.11823912">
    <tag k="addr:housenumber" v="50"/>
    <tag k="addr:street" v="Greenwich Street"/>
    <tag k="addr:state" v="VT"/>
    <tag k="ref:vcgi:esiteid" v="256421"/>
  </node>
  <node id="-1710" visible="true" lat="44.91657391" lon="-73.12091069">
    <tag k="addr:housenumber" v="59"/>
    <tag k="addr:street" v="Grand Avenue"/>
    <tag k="addr:state" v="VT"/>
    <tag k="ref:vcgi:esiteid" v="256422"/>
  </node>
  <node id="-1712" visible="true" lat="44.91837006" lon="-73.11898644">
    <tag k="addr:housenumber" v="29"/>
    <tag k="addr:street" v="Greenwich Street"/>
    <tag k="addr:state" v="VT"/>
    <tag k="ref:vcgi:esiteid" v="256424"/>
  </node>
  <node id="-1714" visible="true" lat="44.9184674" lon="-73.11859876">
    <tag k="addr:housenumber" v="34"/>
    <tag k="addr:street" v="Second Street"/>
    <tag k="addr:state" v="VT"/>
    <tag k="ref:vcgi:esiteid" v="256426"/>
  </node>
  <node id="-1715" visible="true" lat="44.91850164" lon="-73.11843158">
    <tag k="addr:housenumber" v="36"/>
    <tag k="addr:street" v="Second Street"/>
    <tag k="addr:state" v="VT"/>
    <tag k="ref:vcgi:esiteid" v="256427"/>
  </node>
  <node id="-1716" visible="true" lat="44.91867021" lon="-73.11807818">
    <tag k="addr:housenumber" v="40"/>
    <tag k="addr:street" v="Second Street"/>
    <tag k="addr:state" v="VT"/>
    <tag k="ref:vcgi:esiteid" v="256428"/>
  </node>
  <node id="-1717" visible="true" lat="44.91847092" lon="-73.1179487">
    <tag k="addr:housenumber" v="32"/>
    <tag k="addr:street" v="New Street"/>
    <tag k="addr:state" v="VT"/>
    <tag k="ref:vcgi:esiteid" v="256429"/>
  </node>
  <node id="-1718" visible="true" lat="44.91804375" lon="-73.11768944">
    <tag k="addr:housenumber" v="36"/>
    <tag k="addr:street" v="New Street"/>
    <tag k="addr:state" v="VT"/>
    <tag k="ref:vcgi:esiteid" v="256430"/>
  </node>
  <node id="-1720" visible="true" lat="44.9177432" lon="-73.11758162">
    <tag k="addr:housenumber" v="38"/>
    <tag k="addr:street" v="New Street"/>
    <tag k="addr:state" v="VT"/>
    <tag k="ref:vcgi:esiteid" v="256432"/>
  </node>
  <node id="-1721" visible="true" lat="44.91749373" lon="-73.11733893">
    <tag k="addr:housenumber" v="40"/>
    <tag k="addr:street" v="New Street"/>
    <tag k="addr:state" v="VT"/>
    <tag k="ref:vcgi:esiteid" v="256433"/>
  </node>
  <node id="-1722" visible="true" lat="44.91731755" lon="-73.11833825">
    <tag k="addr:housenumber" v="39"/>
    <tag k="addr:street" v="Greenwich Street"/>
    <tag k="addr:state" v="VT"/>
    <tag k="ref:vcgi:esiteid" v="256434"/>
  </node>
  <node id="-1724" visible="true" lat="44.91719308" lon="-73.11821106">
    <tag k="addr:housenumber" v="41"/>
    <tag k="addr:street" v="Greenwich Street"/>
    <tag k="addr:state" v="VT"/>
    <tag k="ref:vcgi:esiteid" v="256436"/>
  </node>
  <node id="-1725" visible="true" lat="44.91688323" lon="-73.11800302">
    <tag k="addr:housenumber" v="45"/>
    <tag k="addr:street" v="Greenwich Street"/>
    <tag k="addr:state" v="VT"/>
    <tag k="ref:vcgi:esiteid" v="256437"/>
  </node>
  <node id="-1726" visible="true" lat="44.9164782" lon="-73.11777278">
    <tag k="addr:housenumber" v="49"/>
    <tag k="addr:street" v="Greenwich Street"/>
    <tag k="addr:state" v="VT"/>
    <tag k="ref:vcgi:esiteid" v="256438"/>
  </node>
  <node id="-1728" visible="true" lat="44.91626593" lon="-73.11767949">
    <tag k="addr:housenumber" v="11"/>
    <tag k="addr:street" v="Platt Street"/>
    <tag k="addr:state" v="VT"/>
    <tag k="ref:vcgi:esiteid" v="256440"/>
  </node>
  <node id="-1729" visible="true" lat="44.91638478" lon="-73.11742589">
    <tag k="addr:housenumber" v="13"/>
    <tag k="addr:street" v="Platt Street"/>
    <tag k="addr:state" v="VT"/>
    <tag k="ref:vcgi:esiteid" v="256441"/>
  </node>
  <node id="-1730" visible="true" lat="44.91712897" lon="-73.1170809">
    <tag k="addr:housenumber" v="46"/>
    <tag k="addr:street" v="New Street"/>
    <tag k="addr:state" v="VT"/>
    <tag k="ref:vcgi:esiteid" v="256442"/>
  </node>
  <node id="-1741" visible="true" lat="44.91707632" lon="-73.11661442">
    <tag k="addr:housenumber" v="27"/>
    <tag k="addr:street" v="Platt Street"/>
    <tag k="addr:state" v="VT"/>
    <tag k="ref:vcgi:esiteid" v="256453"/>
  </node>
  <node id="-1744" visible="true" lat="44.9177168" lon="-73.1157664">
    <tag k="addr:housenumber" v="37"/>
    <tag k="addr:street" v="Platt Street"/>
    <tag k="addr:state" v="VT"/>
    <tag k="ref:vcgi:esiteid" v="256456"/>
  </node>
  <node id="-1745" visible="true" lat="44.91810514" lon="-73.11557359">
    <tag k="addr:housenumber" v="39"/>
    <tag k="addr:street" v="Platt Street"/>
    <tag k="addr:state" v="VT"/>
    <tag k="ref:vcgi:esiteid" v="256457"/>
  </node>
  <node id="-1750" visible="true" lat="44.91883584" lon="-73.11587083">
    <tag k="addr:housenumber" v="38"/>
    <tag k="addr:street" v="Liberty Street"/>
    <tag k="addr:state" v="VT"/>
    <tag k="ref:vcgi:esiteid" v="256462"/>
  </node>
  <node id="-1751" visible="true" lat="44.918741" lon="-73.1157851">
    <tag k="addr:housenumber" v="40"/>
    <tag k="addr:street" v="Liberty Street"/>
    <tag k="addr:state" v="VT"/>
    <tag k="ref:vcgi:esiteid" v="256463"/>
  </node>
  <node id="-1752" visible="true" lat="44.91862124" lon="-73.11567087">
    <tag k="addr:housenumber" v="42"/>
    <tag k="addr:street" v="Liberty Street"/>
    <tag k="addr:state" v="VT"/>
    <tag k="ref:vcgi:esiteid" v="256464"/>
  </node>
  <node id="-1753" visible="true" lat="44.91848115" lon="-73.11560584">
    <tag k="addr:housenumber" v="44"/>
    <tag k="addr:street" v="Liberty Street"/>
    <tag k="addr:state" v="VT"/>
    <tag k="ref:vcgi:esiteid" v="256465"/>
  </node>
  <node id="-1754" visible="true" lat="44.91839638" lon="-73.11551316">
    <tag k="addr:housenumber" v="46"/>
    <tag k="addr:street" v="Liberty Street"/>
    <tag k="addr:state" v="VT"/>
    <tag k="ref:vcgi:esiteid" v="256466"/>
  </node>
  <node id="-1757" visible="true" lat="44.9226452" lon="-73.11139939">
    <tag k="addr:housenumber" v="139"/>
    <tag k="addr:street" v="First Street"/>
    <tag k="addr:state" v="VT"/>
    <tag k="ref:vcgi:esiteid" v="256469"/>
  </node>
  <node id="-1758" visible="true" lat="44.92194953" lon="-73.11090508">
    <!-- match: "153 First Street, , VT"  ignoring missing state when matching to "153 First Street, Swanton, " -->
    <tag k="addr:housenumber" v="153"/>
    <tag k="addr:street" v="First Street"/>
    <tag k="addr:state" v="VT"/>
    <tag k="ref:vcgi:esiteid" v="256470"/>
  </node>
  <node id="-1761" visible="true" lat="44.91531191" lon="-73.11812901">
    <tag k="addr:housenumber" v="81"/>
    <tag k="addr:street" v="Grand Avenue"/>
    <tag k="addr:state" v="VT"/>
    <tag k="ref:vcgi:esiteid" v="256473"/>
  </node>
  <node id="-1763" visible="true" lat="44.91556104" lon="-73.11770203">
    <tag k="addr:housenumber" v="8"/>
    <tag k="addr:street" v="Platt Street"/>
    <tag k="addr:state" v="VT"/>
    <tag k="ref:vcgi:esiteid" v="256475"/>
  </node>
  <node id="-1779" visible="true" lat="44.91753359" lon="-73.11485162">
    <tag k="addr:housenumber" v="56"/>
    <tag k="addr:street" v="Liberty Street"/>
    <tag k="addr:state" v="VT"/>
    <tag k="ref:vcgi:esiteid" v="256491"/>
  </node>
  <node id="-1780" visible="true" lat="44.9178399" lon="-73.11507417">
    <tag k="addr:housenumber" v="52"/>
    <tag k="addr:street" v="Liberty Street"/>
    <tag k="addr:state" v="VT"/>
    <tag k="ref:vcgi:esiteid" v="256492"/>
  </node>
  <node id="-1781" visible="true" lat="44.91765753" lon="-73.11541531">
    <tag k="addr:housenumber" v="36"/>
    <tag k="addr:street" v="Platt Street"/>
    <tag k="addr:state" v="VT"/>
    <tag k="ref:vcgi:esiteid" v="256493"/>
  </node>
  <node id="-1782" visible="true" lat="44.91750535" lon="-73.11552649">
    <tag k="addr:housenumber" v="34"/>
    <tag k="addr:street" v="Platt Street"/>
    <tag k="addr:state" v="VT"/>
    <tag k="ref:vcgi:esiteid" v="256494"/>
  </node>
  <node id="-1783" visible="true" lat="44.91698218" lon="-73.1161701">
    <tag k="addr:housenumber" v="28"/>
    <tag k="addr:street" v="Platt Street"/>
    <tag k="addr:state" v="VT"/>
    <tag k="ref:vcgi:esiteid" v="256495"/>
  </node>
  <node id="-1784" visible="true" lat="44.91676609" lon="-73.1163236">
    <tag k="addr:housenumber" v="26"/>
    <tag k="addr:street" v="Platt Street"/>
    <tag k="addr:state" v="VT"/>
    <tag k="ref:vcgi:esiteid" v="256496"/>
  </node>
  <node id="-1785" visible="true" lat="44.91653034" lon="-73.11670194">
    <tag k="addr:housenumber" v="20"/>
    <tag k="addr:street" v="Platt Street"/>
    <tag k="addr:state" v="VT"/>
    <tag k="ref:vcgi:esiteid" v="256497"/>
  </node>
  <node id="-1786" visible="true" lat="44.91640645" lon="-73.11686508">
    <tag k="addr:housenumber" v="18"/>
    <tag k="addr:street" v="Platt Street"/>
    <tag k="addr:state" v="VT"/>
    <tag k="ref:vcgi:esiteid" v="256498"/>
  </node>
  <node id="-1787" visible="true" lat="44.91627627" lon="-73.11705412">
    <tag k="addr:housenumber" v="16"/>
    <tag k="addr:street" v="Platt Street"/>
    <tag k="addr:state" v="VT"/>
    <tag k="ref:vcgi:esiteid" v="256499"/>
  </node>
  <node id="-1788" visible="true" lat="44.91714465" lon="-73.11455316">
    <tag k="addr:housenumber" v="62"/>
    <tag k="addr:street" v="Liberty Street"/>
    <tag k="addr:state" v="VT"/>
    <tag k="ref:vcgi:esiteid" v="256500"/>
  </node>
  <node id="-1789" visible="true" lat="44.91599714" lon="-73.11749258">
    <tag k="addr:housenumber" v="12"/>
    <tag k="addr:street" v="Platt Street"/>
    <tag k="addr:state" v="VT"/>
    <tag k="ref:vcgi:esiteid" v="256501"/>
  </node>
  <node id="-1806" visible="true" lat="44.91536948" lon="-73.11302011">
    <tag k="addr:housenumber" v="24"/>
    <tag k="addr:street" v="Fourth Street"/>
    <tag k="addr:state" v="VT"/>
    <tag k="ref:vcgi:esiteid" v="256518"/>
  </node>
  <node id="-2426" visible="true" lat="44.85718415" lon="-73.0112235">
    <tag k="addr:housenumber" v="92"/>
    <tag k="addr:street" v="Pond Road"/>
    <tag k="addr:state" v="VT"/>
    <tag k="ref:vcgi:esiteid" v="257152"/>
  </node>
  <node id="-2427" visible="true" lat="44.85716789" lon="-73.01219413">
    <tag k="addr:housenumber" v="86"/>
    <tag k="addr:street" v="Pond Road"/>
    <tag k="addr:state" v="VT"/>
    <tag k="ref:vcgi:esiteid" v="257153"/>
  </node>
  <node id="-2428" visible="true" lat="44.85800401" lon="-73.01024323">
    <tag k="addr:housenumber" v="73"/>
    <tag k="addr:street" v="Pond Road"/>
    <tag k="addr:state" v="VT"/>
    <tag k="ref:vcgi:esiteid" v="257154"/>
  </node>
  <node id="-2430" visible="true" lat="44.8558442" lon="-73.01004005">
    <tag k="addr:housenumber" v="98"/>
    <tag k="addr:street" v="Pond Road"/>
    <tag k="addr:state" v="VT"/>
    <tag k="ref:vcgi:esiteid" v="257156"/>
  </node>
  <node id="-2436" visible="true" lat="44.85683748" lon="-73.024663">
    <tag k="addr:housenumber" v="18"/>
    <tag k="addr:street" v="Pond Road"/>
    <tag k="addr:state" v="VT"/>
    <tag k="ref:vcgi:esiteid" v="257162"/>
  </node>
  <node id="-2437" visible="true" lat="44.85662311" lon="-73.03137688">
    <tag k="addr:housenumber" v="3"/>
    <tag k="addr:street" v="Pond Road"/>
    <tag k="addr:state" v="VT"/>
    <tag k="ref:vcgi:esiteid" v="257163"/>
  </node>
  <node id="-2890" visible="true" lat="44.86018754" lon="-73.09233245">
    <tag k="addr:housenumber" v="30"/>
    <tag k="addr:street" v="Sugar Maple Drive"/>
    <tag k="addr:state" v="VT"/>
    <tag k="ref:vcgi:esiteid" v="257624"/>
  </node>
  <node id="-2976" visible="true" lat="44.85442826" lon="-73.09138995">
    <!-- match: "581 Saint Albans Road, , VT"  ignoring missing state when matching to "581 Saint Albans Road, Swanton, " -->
    <tag k="addr:housenumber" v="581"/>
    <tag k="addr:street" v="Saint Albans Road"/>
    <tag k="addr:state" v="VT"/>
    <tag k="ref:vcgi:esiteid" v="257710"/>
  </node>
  <node id="-3015" visible="true" lat="44.97415152" lon="-73.20794144">
    <tag k="addr:housenumber" v="9"/>
    <tag k="addr:street" v="Sandy Point Road"/>
    <tag k="addr:state" v="VT"/>
    <tag k="ref:vcgi:esiteid" v="257749"/>
  </node>
  <node id="-3016" visible="true" lat="44.97415873" lon="-73.20677858">
    <tag k="addr:housenumber" v="21"/>
    <tag k="addr:street" v="Sandy Point Road"/>
    <tag k="addr:state" v="VT"/>
    <tag k="ref:vcgi:esiteid" v="257750"/>
  </node>
  <node id="-3024" visible="true" lat="44.96971655" lon="-73.21274792">
    <tag k="addr:housenumber" v="18"/>
    <tag k="addr:street" v="Lakewood Drive"/>
    <tag k="addr:state" v="VT"/>
    <tag k="ref:vcgi:esiteid" v="257760"/>
  </node>
  <node id="-3027" visible="true" lat="44.96001958" lon="-73.21808049">
    <tag k="addr:housenumber" v="110"/>
    <tag k="addr:street" v="Lakewood Drive"/>
    <tag k="addr:state" v="VT"/>
    <tag k="ref:vcgi:esiteid" v="257763"/>
  </node>
  <node id="-3028" visible="true" lat="44.95959974" lon="-73.21847232">
    <tag k="addr:housenumber" v="116"/>
    <tag k="addr:street" v="Lakewood Drive"/>
    <tag k="addr:state" v="VT"/>
    <tag k="ref:vcgi:esiteid" v="257764"/>
  </node>
  <node id="-3030" visible="true" lat="44.9510874" lon="-73.22309406">
    <tag k="addr:housenumber" v="216"/>
    <tag k="addr:street" v="Lakewood Drive"/>
    <tag k="addr:state" v="VT"/>
    <tag k="ref:vcgi:esiteid" v="257766"/>
  </node>
  <node id="-3031" visible="true" lat="44.95055872" lon="-73.22274713">
    <tag k="addr:housenumber" v="221"/>
    <tag k="addr:street" v="Lakewood Drive"/>
    <tag k="addr:state" v="VT"/>
    <tag k="ref:vcgi:esiteid" v="257767"/>
  </node>
  <node id="-3032" visible="true" lat="44.95028559" lon="-73.22347068">
    <tag k="addr:housenumber" v="228"/>
    <tag k="addr:street" v="Lakewood Drive"/>
    <tag k="addr:state" v="VT"/>
    <tag k="ref:vcgi:esiteid" v="257768"/>
  </node>
  <node id="-3033" visible="true" lat="44.95016501" lon="-73.22343307">
    <tag k="addr:housenumber" v="232"/>
    <tag k="addr:street" v="Lakewood Drive"/>
    <tag k="addr:state" v="VT"/>
    <tag k="ref:vcgi:esiteid" v="257769"/>
  </node>
  <node id="-3034" visible="true" lat="44.95006947" lon="-73.22348858">
    <tag k="addr:housenumber" v="230"/>
    <tag k="addr:street" v="Lakewood Drive"/>
    <tag k="addr:state" v="VT"/>
    <tag k="ref:vcgi:esiteid" v="257770"/>
  </node>
  <node id="-3036" visible="true" lat="44.94821243" lon="-73.22456856">
    <tag k="addr:housenumber" v="270"/>
    <tag k="addr:street" v="Lakewood Drive"/>
    <tag k="addr:state" v="VT"/>
    <tag k="ref:vcgi:esiteid" v="257772"/>
  </node>
  <node id="-3037" visible="true" lat="44.94428057" lon="-73.22605537">
    <tag k="addr:housenumber" v="322"/>
    <tag k="addr:street" v="Lakewood Drive"/>
    <tag k="addr:state" v="VT"/>
    <tag k="ref:vcgi:esiteid" v="257773"/>
  </node>
  <node id="-3047" visible="true" lat="44.91523894" lon="-73.11928627">
    <tag k="addr:housenumber" v="76"/>
    <tag k="addr:street" v="Grand Avenue"/>
    <tag k="addr:state" v="VT"/>
    <tag k="ref:vcgi:esiteid" v="257783"/>
  </node>
  <node id="-3048" visible="true" lat="44.91575612" lon="-73.12050652">
    <tag k="addr:housenumber" v="64"/>
    <tag k="addr:street" v="Grand Avenue"/>
    <tag k="addr:state" v="VT"/>
    <tag k="ref:vcgi:esiteid" v="257784"/>
  </node>
  <node id="-3049" visible="true" lat="44.91559142" lon="-73.12014452">
    <tag k="addr:housenumber" v="66"/>
    <tag k="addr:street" v="Grand Avenue"/>
    <tag k="addr:state" v="VT"/>
    <tag k="ref:vcgi:esiteid" v="257785"/>
  </node>
  <node id="-3053" visible="true" lat="44.91586784" lon="-73.12075903">
    <tag k="addr:housenumber" v="62"/>
    <tag k="addr:street" v="Grand Avenue"/>
    <tag k="addr:state" v="VT"/>
    <tag k="ref:vcgi:esiteid" v="257789"/>
  </node>
  <node id="-3054" visible="true" lat="44.915515" lon="-73.11996778">
    <tag k="addr:housenumber" v="70"/>
    <tag k="addr:street" v="Grand Avenue"/>
    <tag k="addr:state" v="VT"/>
    <tag k="ref:vcgi:esiteid" v="257790"/>
  </node>
  <node id="-3055" visible="true" lat="44.915409" lon="-73.11975721">
    <tag k="addr:housenumber" v="72"/>
    <tag k="addr:street" v="Grand Avenue"/>
    <tag k="addr:state" v="VT"/>
    <tag k="ref:vcgi:esiteid" v="257791"/>
  </node>
  <node id="-3057" visible="true" lat="44.91535679" lon="-73.11950534">
    <tag k="addr:housenumber" v="74"/>
    <tag k="addr:street" v="Grand Avenue"/>
    <tag k="addr:state" v="VT"/>
    <tag k="ref:vcgi:esiteid" v="257793"/>
  </node>
  <node id="-3058" visible="true" lat="44.91677599" lon="-73.12122956">
    <tag k="addr:housenumber" v="55"/>
    <tag k="addr:street" v="Grand Avenue"/>
    <tag k="addr:state" v="VT"/>
    <tag k="ref:vcgi:esiteid" v="257794"/>
  </node>
  <node id="-3083" visible="true" lat="44.97954761" lon="-73.18313169">
    <tag k="addr:housenumber" v="51"/>
    <tag k="addr:street" v="Campbell Bay Road"/>
    <tag k="addr:state" v="VT"/>
    <tag k="ref:vcgi:esiteid" v="257825"/>
  </node>
  <node id="-3084" visible="true" lat="44.9798051" lon="-73.18122476">
    <tag k="addr:housenumber" v="84"/>
    <tag k="addr:street" v="Campbell Bay Road"/>
    <tag k="addr:state" v="VT"/>
    <tag k="ref:vcgi:esiteid" v="257826"/>
  </node>
  <node id="-3085" visible="true" lat="44.98049226" lon="-73.18257475">
    <tag k="addr:housenumber" v="61"/>
    <tag k="addr:street" v="Campbell Bay Road"/>
    <tag k="addr:state" v="VT"/>
    <tag k="ref:vcgi:esiteid" v="257827"/>
  </node>
  <node id="-3086" visible="true" lat="44.9907927" lon="-73.17294921">
    <tag k="addr:housenumber" v="205"/>
    <tag k="addr:street" v="Campbell Bay Road"/>
    <tag k="addr:state" v="VT"/>
    <tag k="ref:vcgi:esiteid" v="257828"/>
  </node>
  <node id="-3090" visible="true" lat="44.96673629" lon="-73.21420962">
    <tag k="addr:housenumber" v="32"/>
    <tag k="addr:street" v="Lakewood Drive"/>
    <tag k="addr:state" v="VT"/>
    <tag k="ref:vcgi:esiteid" v="257832"/>
  </node>
  <node id="-3091" visible="true" lat="44.96484721" lon="-73.21505711">
    <tag k="addr:housenumber" v="58"/>
    <tag k="addr:street" v="Lakewood Drive"/>
    <tag k="addr:state" v="VT"/>
    <tag k="ref:vcgi:esiteid" v="257833"/>
  </node>
  <node id="-3092" visible="true" lat="44.96447257" lon="-73.21520439">
    <tag k="addr:housenumber" v="62"/>
    <tag k="addr:street" v="Lakewood Drive"/>
    <tag k="addr:state" v="VT"/>
    <tag k="ref:vcgi:esiteid" v="257834"/>
  </node>
  <node id="-3093" visible="true" lat="44.96422614" lon="-73.21525696">
    <tag k="addr:housenumber" v="66"/>
    <tag k="addr:street" v="Lakewood Drive"/>
    <tag k="addr:state" v="VT"/>
    <tag k="ref:vcgi:esiteid" v="257835"/>
  </node>
  <node id="-3094" visible="true" lat="44.96317808" lon="-73.21488642">
    <tag k="addr:housenumber" v="75"/>
    <tag k="addr:street" v="Lakewood Drive"/>
    <tag k="addr:state" v="VT"/>
    <tag k="ref:vcgi:esiteid" v="257836"/>
  </node>
  <node id="-3095" visible="true" lat="44.9555644" lon="-73.22123731">
    <tag k="addr:housenumber" v="144"/>
    <tag k="addr:street" v="Lakewood Drive"/>
    <tag k="addr:state" v="VT"/>
    <tag k="ref:vcgi:esiteid" v="257837"/>
  </node>
  <node id="-3096" visible="true" lat="44.95478116" lon="-73.22140835">
    <tag k="addr:housenumber" v="154"/>
    <tag k="addr:street" v="Lakewood Drive"/>
    <tag k="addr:state" v="VT"/>
    <tag k="ref:vcgi:esiteid" v="257838"/>
  </node>
  <node id="-3097" visible="true" lat="44.95460021" lon="-73.22015203">
    <tag k="addr:housenumber" v="155"/>
    <tag k="addr:street" v="Lakewood Drive"/>
    <tag k="addr:state" v="VT"/>
    <tag k="ref:vcgi:esiteid" v="257839"/>
  </node>
  <node id="-3098" visible="true" lat="44.95315722" lon="-73.22217318">
    <tag k="addr:housenumber" v="14"/>
    <tag k="addr:street" v="Gingras Drive"/>
    <tag k="addr:state" v="VT"/>
    <tag k="ref:vcgi:esiteid" v="257840"/>
  </node>
  <node id="-3099" visible="true" lat="44.95267416" lon="-73.22250898">
    <tag k="addr:housenumber" v="178"/>
    <tag k="addr:street" v="Lakewood Drive"/>
    <tag k="addr:state" v="VT"/>
    <tag k="ref:vcgi:esiteid" v="257841"/>
  </node>
  <node id="-3100" visible="true" lat="44.9508105" lon="-73.22256556">
    <tag k="addr:housenumber" v="215"/>
    <tag k="addr:street" v="Lakewood Drive"/>
    <tag k="addr:state" v="VT"/>
    <tag k="ref:vcgi:esiteid" v="257842"/>
  </node>
  <node id="-3101" visible="true" lat="44.95070962" lon="-73.22321741">
    <tag k="addr:housenumber" v="224"/>
    <tag k="addr:street" v="Lakewood Drive"/>
    <tag k="addr:state" v="VT"/>
    <tag k="ref:vcgi:esiteid" v="257843"/>
  </node>
  <node id="-3102" visible="true" lat="44.94693703" lon="-73.2249185">
    <tag k="addr:housenumber" v="282"/>
    <tag k="addr:street" v="Lakewood Drive"/>
    <tag k="addr:state" v="VT"/>
    <tag k="ref:vcgi:esiteid" v="257844"/>
  </node>
  <node id="-3104" visible="true" lat="44.94329637" lon="-73.22661132">
    <tag k="addr:housenumber" v="348"/>
    <tag k="addr:street" v="Lakewood Drive"/>
    <tag k="addr:state" v="VT"/>
    <tag k="ref:vcgi:esiteid" v="257846"/>
  </node>
  <node id="-3105" visible="true" lat="44.9404222" lon="-73.22589708">
    <tag k="addr:housenumber" v="5"/>
    <tag k="addr:street" v="Champlain Street"/>
    <tag k="addr:state" v="VT"/>
    <tag k="ref:vcgi:esiteid" v="257847"/>
  </node>
  <node id="-3106" visible="true" lat="44.9391375" lon="-73.22753317">
    <tag k="addr:housenumber" v="412"/>
    <tag k="addr:street" v="Lakewood Drive"/>
    <tag k="addr:state" v="VT"/>
    <tag k="ref:vcgi:esiteid" v="257848"/>
  </node>
  <node id="-3107" visible="true" lat="44.93497232" lon="-73.22469888">
    <tag k="addr:housenumber" v="497"/>
    <tag k="addr:street" v="Lakewood Drive"/>
    <tag k="addr:state" v="VT"/>
    <tag k="ref:vcgi:esiteid" v="257849"/>
  </node>
  <node id="-3108" visible="true" lat="44.93426634" lon="-73.22453683">
    <tag k="addr:housenumber" v="508"/>
    <tag k="addr:street" v="Lakewood Drive"/>
    <tag k="addr:state" v="VT"/>
    <tag k="ref:vcgi:esiteid" v="257850"/>
  </node>
  <node id="-3109" visible="true" lat="44.93383974" lon="-73.22394181">
    <tag k="addr:housenumber" v="518"/>
    <tag k="addr:street" v="Lakewood Drive"/>
    <tag k="addr:state" v="VT"/>
    <tag k="ref:vcgi:esiteid" v="257851"/>
  </node>
  <node id="-3110" visible="true" lat="44.93347028" lon="-73.22330657">
    <tag k="addr:housenumber" v="530"/>
    <tag k="addr:street" v="Lakewood Drive"/>
    <tag k="addr:state" v="VT"/>
    <tag k="ref:vcgi:esiteid" v="257852"/>
  </node>
  <node id="-3111" visible="true" lat="44.93304868" lon="-73.22280639">
    <tag k="addr:housenumber" v="536"/>
    <tag k="addr:street" v="Lakewood Drive"/>
    <tag k="addr:state" v="VT"/>
    <tag k="ref:vcgi:esiteid" v="257853"/>
  </node>
  <node id="-3112" visible="true" lat="44.93282751" lon="-73.22245823">
    <tag k="addr:housenumber" v="542"/>
    <tag k="addr:street" v="Lakewood Drive"/>
    <tag k="addr:state" v="VT"/>
    <tag k="ref:vcgi:esiteid" v="257854"/>
  </node>
  <node id="-3113" visible="true" lat="44.93191256" lon="-73.2069042">
    <tag k="addr:housenumber" v="46"/>
    <tag k="addr:street" v="Homestead Road"/>
    <tag k="addr:state" v="VT"/>
    <tag k="ref:vcgi:esiteid" v="257855"/>
  </node>
  <node id="-3114" visible="true" lat="44.93081132" lon="-73.2076675">
    <tag k="addr:housenumber" v="11"/>
    <tag k="addr:street" v="Turkey Terrace"/>
    <tag k="addr:state" v="VT"/>
    <tag k="ref:vcgi:esiteid" v="257856"/>
  </node>
  <node id="-3115" visible="true" lat="44.92842715" lon="-73.20911432">
    <tag k="addr:housenumber" v="39"/>
    <tag k="addr:street" v="Tilley Drive"/>
    <tag k="addr:state" v="VT"/>
    <tag k="ref:vcgi:esiteid" v="257857"/>
  </node>
  <node id="-3116" visible="true" lat="44.92701866" lon="-73.21093987">
    <tag k="addr:housenumber" v="24"/>
    <tag k="addr:street" v="Maple Street"/>
    <tag k="addr:state" v="VT"/>
    <tag k="ref:vcgi:esiteid" v="257858"/>
  </node>
  <node id="-3117" visible="true" lat="44.92660204" lon="-73.20941653">
    <tag k="addr:housenumber" v="52"/>
    <tag k="addr:street" v="Maple Street"/>
    <tag k="addr:state" v="VT"/>
    <tag k="ref:vcgi:esiteid" v="257859"/>
  </node>
  <node id="-3118" visible="true" lat="44.92450639" lon="-73.21346674">
    <tag k="addr:housenumber" v="195"/>
    <tag k="addr:street" v="Hog Island Road"/>
    <tag k="addr:state" v="VT"/>
    <tag k="ref:vcgi:esiteid" v="257860"/>
  </node>
  <node id="-3119" visible="true" lat="44.92455744" lon="-73.21247819">
    <tag k="addr:housenumber" v="46"/>
    <tag k="addr:street" v="Arrowhead Drive"/>
    <tag k="addr:state" v="VT"/>
    <tag k="ref:vcgi:esiteid" v="257861"/>
  </node>
  <node id="-3120" visible="true" lat="44.92467185" lon="-73.21288076">
    <tag k="addr:housenumber" v="44"/>
    <tag k="addr:street" v="Arrowhead Drive"/>
    <tag k="addr:state" v="VT"/>
    <tag k="ref:vcgi:esiteid" v="257862"/>
  </node>
  <node id="-3230" visible="true" lat="44.91758281" lon="-73.12335531">
    <tag k="addr:housenumber" v="37"/>
    <tag k="addr:street" v="Grand Avenue"/>
    <tag k="addr:state" v="VT"/>
    <tag k="ref:vcgi:esiteid" v="257973"/>
  </node>
  <node id="-3231" visible="true" lat="44.91779493" lon="-73.12354276">
    <tag k="addr:housenumber" v="35"/>
    <tag k="addr:street" v="Grand Avenue"/>
    <tag k="addr:state" v="VT"/>
    <tag k="ref:vcgi:esiteid" v="257974"/>
  </node>
  <node id="-3232" visible="true" lat="44.91633793" lon="-73.12243964">
    <tag k="addr:housenumber" v="8"/>
    <tag k="addr:street" v="Farrar Street"/>
    <tag k="addr:state" v="VT"/>
    <tag k="ref:vcgi:esiteid" v="257975"/>
  </node>
  <node id="-3233" visible="true" lat="44.91621607" lon="-73.12255674">
    <tag k="addr:housenumber" v="10"/>
    <tag k="addr:street" v="Farrar Street"/>
    <tag k="addr:state" v="VT"/>
    <tag k="ref:vcgi:esiteid" v="257976"/>
  </node>
  <node id="-3234" visible="true" lat="44.91607005" lon="-73.12265953">
    <tag k="addr:housenumber" v="12"/>
    <tag k="addr:street" v="Farrar Street"/>
    <tag k="addr:state" v="VT"/>
    <tag k="ref:vcgi:esiteid" v="257977"/>
  </node>
  <node id="-3235" visible="true" lat="44.91593356" lon="-73.12284472">
    <tag k="addr:housenumber" v="14"/>
    <tag k="addr:street" v="Farrar Street"/>
    <tag k="addr:state" v="VT"/>
    <tag k="ref:vcgi:esiteid" v="257978"/>
  </node>
  <node id="-3236" visible="true" lat="44.91536226" lon="-73.12247928">
    <tag k="addr:housenumber" v="17"/>
    <tag k="addr:street" v="Farrar Street"/>
    <tag k="addr:state" v="VT"/>
    <tag k="ref:vcgi:esiteid" v="257979"/>
  </node>
  <node id="-3237" visible="true" lat="44.91540898" lon="-73.12280493">
    <tag k="addr:housenumber" v="42"/>
    <tag k="addr:street" v="Church Street"/>
    <tag k="addr:state" v="VT"/>
    <tag k="ref:vcgi:esiteid" v="257980"/>
  </node>
  <node id="-3238" visible="true" lat="44.9155509" lon="-73.12319182">
    <tag k="addr:housenumber" v="38"/>
    <tag k="addr:street" v="Church Street"/>
    <tag k="addr:state" v="VT"/>
    <tag k="ref:vcgi:esiteid" v="257981"/>
  </node>
  <node id="-3239" visible="true" lat="44.91788179" lon="-73.12383102">
    <tag k="addr:housenumber" v="33"/>
    <tag k="addr:street" v="Grand Avenue"/>
    <tag k="addr:state" v="VT"/>
    <tag k="ref:vcgi:esiteid" v="257982"/>
  </node>
  <node id="-3275" visible="true" lat="44.91895784" lon="-73.12465811">
    <tag k="addr:housenumber" v="17"/>
    <tag k="addr:street" v="Grand Avenue"/>
    <tag k="addr:state" v="VT"/>
    <tag k="ref:vcgi:esiteid" v="258073"/>
  </node>
  <node id="-3280" visible="true" lat="44.91906044" lon="-73.12346012">
    <tag k="addr:housenumber" v="10"/>
    <tag k="addr:street" v="York Street"/>
    <tag k="addr:state" v="VT"/>
    <tag k="ref:vcgi:esiteid" v="258081"/>
  </node>
  <node id="-3281" visible="true" lat="44.91849662" lon="-73.1230684">
    <tag k="addr:housenumber" v="16"/>
    <tag k="addr:street" v="York Street"/>
    <tag k="addr:state" v="VT"/>
    <tag k="ref:vcgi:esiteid" v="258082"/>
  </node>
  <node id="-3283" visible="true" lat="44.91791352" lon="-73.12178223">
    <tag k="addr:housenumber" v="7"/>
    <tag k="addr:street" v="Second Street"/>
    <tag k="addr:state" v="VT"/>
    <tag k="ref:vcgi:esiteid" v="258085"/>
  </node>
  <node id="-3285" visible="true" lat="44.91806291" lon="-73.12112812">
    <tag k="addr:housenumber" v="24"/>
    <tag k="addr:street" v="Broadway Street"/>
    <tag k="addr:state" v="VT"/>
    <tag k="ref:vcgi:esiteid" v="258088"/>
  </node>
  <node id="-3286" visible="true" lat="44.91813086" lon="-73.11973818">
    <tag k="addr:housenumber" v="24"/>
    <tag k="addr:street" v="Second Street"/>
    <tag k="addr:state" v="VT"/>
    <tag k="ref:vcgi:esiteid" v="258090"/>
  </node>
  <node id="-3287" visible="true" lat="44.91794082" lon="-73.11879573">
    <tag k="addr:housenumber" v="35"/>
    <tag k="addr:street" v="Greenwich Street"/>
    <tag k="addr:state" v="VT"/>
    <tag k="ref:vcgi:esiteid" v="258092"/>
  </node>
  <node id="-3291" visible="true" lat="44.91711428" lon="-73.11866446">
    <tag k="addr:housenumber" v="40"/>
    <tag k="addr:street" v="Greenwich Street"/>
    <tag k="addr:state" v="VT"/>
    <tag k="ref:vcgi:esiteid" v="258096"/>
  </node>
  <node id="-3292" visible="true" lat="44.91699638" lon="-73.11810792">
    <tag k="addr:housenumber" v="43"/>
    <tag k="addr:street" v="Greenwich Street"/>
    <tag k="addr:state" v="VT"/>
    <tag k="ref:vcgi:esiteid" v="258097"/>
  </node>
  <node id="-3293" visible="true" lat="44.91678631" lon="-73.11851466">
    <tag k="addr:housenumber" v="44"/>
    <tag k="addr:street" v="Greenwich Street"/>
    <tag k="addr:state" v="VT"/>
    <tag k="ref:vcgi:esiteid" v="258098"/>
  </node>
  <node id="-3294" visible="true" lat="44.91664307" lon="-73.11793695">
    <tag k="addr:housenumber" v="47"/>
    <tag k="addr:street" v="Greenwich Street"/>
    <tag k="addr:state" v="VT"/>
    <tag k="ref:vcgi:esiteid" v="258099"/>
  </node>
  <node id="-3295" visible="true" lat="44.91636304" lon="-73.11836003">
    <tag k="addr:housenumber" v="48 1/2"/>
    <tag k="addr:street" v="Greenwich Street"/>
    <tag k="addr:state" v="VT"/>
    <tag k="ref:vcgi:esiteid" v="258100"/>
  </node>
  <node id="-3296" visible="true" lat="44.91586111" lon="-73.11766656">
    <tag k="addr:housenumber" v="10"/>
    <tag k="addr:street" v="Platt Street"/>
    <tag k="addr:state" v="VT"/>
    <tag k="ref:vcgi:esiteid" v="258102"/>
  </node>
  <node id="-3297" visible="true" lat="44.9157497" lon="-73.11814548">
    <tag k="addr:housenumber" v="5"/>
    <tag k="addr:street" v="Platt Street"/>
    <tag k="addr:state" v="VT"/>
    <tag k="ref:vcgi:esiteid" v="258103"/>
  </node>
  <node id="-3298" visible="true" lat="44.91650289" lon="-73.11732468">
    <tag k="addr:housenumber" v="15"/>
    <tag k="addr:street" v="Platt Street"/>
    <tag k="addr:state" v="VT"/>
    <tag k="ref:vcgi:esiteid" v="258105"/>
  </node>
  <node id="-3299" visible="true" lat="44.91664652" lon="-73.11714219">
    <tag k="addr:housenumber" v="17"/>
    <tag k="addr:street" v="Platt Street"/>
    <tag k="addr:state" v="VT"/>
    <tag k="ref:vcgi:esiteid" v="258106"/>
  </node>
  <node id="-3300" visible="true" lat="44.916683" lon="-73.11662398">
    <tag k="addr:housenumber" v="22"/>
    <tag k="addr:street" v="Platt Street"/>
    <tag k="addr:state" v="VT"/>
    <tag k="ref:vcgi:esiteid" v="258107"/>
  </node>
  <node id="-3301" visible="true" lat="44.91685186" lon="-73.1169046">
    <tag k="addr:housenumber" v="23"/>
    <tag k="addr:street" v="Platt Street"/>
    <tag k="addr:state" v="VT"/>
    <tag k="ref:vcgi:esiteid" v="258108"/>
  </node>
  <node id="-3302" visible="true" lat="44.91699847" lon="-73.11695126">
    <tag k="addr:housenumber" v="48"/>
    <tag k="addr:street" v="New Street"/>
    <tag k="addr:state" v="VT"/>
    <tag k="ref:vcgi:esiteid" v="258110"/>
  </node>
  <node id="-3303" visible="true" lat="44.91727003" lon="-73.11713683">
    <tag k="addr:housenumber" v="44"/>
    <tag k="addr:street" v="New Street"/>
    <tag k="addr:state" v="VT"/>
    <tag k="ref:vcgi:esiteid" v="258111"/>
  </node>
  <node id="-3305" visible="true" lat="44.91739285" lon="-73.11722644">
    <tag k="addr:housenumber" v="42"/>
    <tag k="addr:street" v="New Street"/>
    <tag k="addr:state" v="VT"/>
    <tag k="ref:vcgi:esiteid" v="258113"/>
  </node>
  <node id="-3313" visible="true" lat="44.91886147" lon="-73.11544714">
    <tag k="addr:housenumber" v="37"/>
    <tag k="addr:street" v="Liberty Street"/>
    <tag k="addr:state" v="VT"/>
    <tag k="ref:vcgi:esiteid" v="258122"/>
  </node>
  <node id="-3314" visible="true" lat="44.9185578" lon="-73.11513446">
    <tag k="addr:housenumber" v="43"/>
    <tag k="addr:street" v="Liberty Street"/>
    <tag k="addr:state" v="VT"/>
    <tag k="ref:vcgi:esiteid" v="258123"/>
  </node>
  <node id="-3315" visible="true" lat="44.91850046" lon="-73.11508965">
    <tag k="addr:housenumber" v="45"/>
    <tag k="addr:street" v="Liberty Street"/>
    <tag k="addr:state" v="VT"/>
    <tag k="ref:vcgi:esiteid" v="258124"/>
  </node>
  <node id="-3316" visible="true" lat="44.91822077" lon="-73.11486073">
    <tag k="addr:housenumber" v="49"/>
    <tag k="addr:street" v="Liberty Street"/>
    <tag k="addr:state" v="VT"/>
    <tag k="ref:vcgi:esiteid" v="258125"/>
  </node>
  <node id="-3318" visible="true" lat="44.91733514" lon="-73.11573507">
    <tag k="addr:housenumber" v="32"/>
    <tag k="addr:street" v="Platt Street"/>
    <tag k="addr:state" v="VT"/>
    <tag k="ref:vcgi:esiteid" v="258128"/>
  </node>
  <node id="-3319" visible="true" lat="44.91742243" lon="-73.11614307">
    <tag k="addr:housenumber" v="31"/>
    <tag k="addr:street" v="Platt Street"/>
    <tag k="addr:state" v="VT"/>
    <tag k="ref:vcgi:esiteid" v="258129"/>
  </node>
  <node id="-3320" visible="true" lat="44.91718768" lon="-73.11599321">
    <tag k="addr:housenumber" v="30"/>
    <tag k="addr:street" v="Platt Street"/>
    <tag k="addr:state" v="VT"/>
    <tag k="ref:vcgi:esiteid" v="258130"/>
  </node>
  <node id="-3321" visible="true" lat="44.91723466" lon="-73.11633998">
    <tag k="addr:housenumber" v="29"/>
    <tag k="addr:street" v="Platt Street"/>
    <tag k="addr:state" v="VT"/>
    <tag k="ref:vcgi:esiteid" v="258131"/>
  </node>
  <node id="-3322" visible="true" lat="44.9173916" lon="-73.11469388">
    <tag k="addr:housenumber" v="60"/>
    <tag k="addr:street" v="Liberty Street"/>
    <tag k="addr:state" v="VT"/>
    <tag k="ref:vcgi:esiteid" v="258132"/>
  </node>
  <node id="-3334" visible="true" lat="44.91639323" lon="-73.12031698">
    <tag k="addr:housenumber" v="63"/>
    <tag k="addr:street" v="Grand Avenue"/>
    <tag k="addr:state" v="VT"/>
    <tag k="ref:vcgi:esiteid" v="258148"/>
  </node>
  <node id="-3335" visible="true" lat="44.9158162" lon="-73.11931793">
    <tag k="addr:housenumber" v="73"/>
    <tag k="addr:street" v="Grand Avenue"/>
    <tag k="addr:state" v="VT"/>
    <tag k="ref:vcgi:esiteid" v="258149"/>
  </node>
  <node id="-3336" visible="true" lat="44.91652505" lon="-73.11926766">
    <tag k="addr:housenumber" v="8"/>
    <tag k="addr:street" v="Furman Place"/>
    <tag k="addr:state" v="VT"/>
    <tag k="ref:vcgi:esiteid" v="258150"/>
  </node>
  <node id="-3356" visible="true" lat="44.91844974" lon="-73.12324681">
    <tag k="addr:housenumber" v="22"/>
    <tag k="addr:street" v="First Street"/>
    <tag k="addr:state" v="VT"/>
    <tag k="ref:vcgi:esiteid" v="258182"/>
  </node>
  <node id="-3549" visible="true" lat="44.91605314" lon="-73.11732471">
    <tag k="addr:housenumber" v="14"/>
    <tag k="addr:street" v="Platt Street"/>
    <tag k="addr:state" v="VT"/>
    <tag k="ref:vcgi:esiteid" v="258404"/>
  </node>
  <node id="-3552" visible="true" lat="44.91847775" lon="-73.11974427">
    <tag k="addr:housenumber" v="28 1/2"/>
    <tag k="addr:street" v="Greenwich Street"/>
    <tag k="addr:state" v="VT"/>
    <tag k="ref:vcgi:esiteid" v="258407"/>
  </node>
  <node id="-3641" visible="true" lat="44.97295831" lon="-73.18488168">
    <tag k="addr:housenumber" v="108"/>
    <tag k="addr:street" v="Church Road"/>
    <tag k="addr:state" v="VT"/>
    <tag k="ref:vcgi:esiteid" v="326734"/>
  </node>
  <node id="-3658" visible="true" lat="44.92598667" lon="-73.21239085">
    <tag k="addr:housenumber" v="2"/>
    <tag k="addr:street" v="Nokes Road"/>
    <tag k="addr:state" v="VT"/>
    <tag k="ref:vcgi:esiteid" v="326998"/>
  </node>
  <node id="-3661" visible="true" lat="44.97444619" lon="-73.20510277">
    <tag k="addr:housenumber" v="63"/>
    <tag k="addr:street" v="Sandy Point Road"/>
    <tag k="addr:state" v="VT"/>
    <tag k="ref:vcgi:esiteid" v="327142"/>
  </node>
  <node id="-3662" visible="true" lat="44.97455736" lon="-73.20483578">
    <tag k="addr:housenumber" v="73"/>
    <tag k="addr:street" v="Sandy Point Road"/>
    <tag k="addr:state" v="VT"/>
    <tag k="ref:vcgi:esiteid" v="327143"/>
  </node>
  <node id="-3663" visible="true" lat="44.97434022" lon="-73.20544377">
    <tag k="addr:housenumber" v="57"/>
    <tag k="addr:street" v="Sandy Point Road"/>
    <tag k="addr:state" v="VT"/>
    <tag k="ref:vcgi:esiteid" v="327144"/>
  </node>
  <node id="-3674" visible="true" lat="44.85673632" lon="-73.02246658">
    <tag k="addr:housenumber" v="30"/>
    <tag k="addr:street" v="Pond Road"/>
    <tag k="addr:state" v="VT"/>
    <tag k="ref:vcgi:esiteid" v="334898"/>
  </node>
  <node id="-3684" visible="true" lat="44.97497097" lon="-73.18134484">
    <tag k="addr:housenumber" v="36"/>
    <tag k="addr:street" v="Campbell Bay Road"/>
    <tag k="addr:state" v="VT"/>
    <tag k="ref:vcgi:esiteid" v="336598"/>
  </node>
  <node id="-3689" visible="true" lat="44.96786383" lon="-73.20940344">
    <tag k="addr:housenumber" v="4"/>
    <tag k="addr:street" v="Tylers Way"/>
    <tag k="addr:state" v="VT"/>
    <tag k="ref:vcgi:esiteid" v="336603"/>
  </node>
  <node id="-3695" visible="true" lat="44.93430549" lon="-73.2062816">
    <tag k="addr:housenumber" v="215"/>
    <tag k="addr:street" v="Champlain Street"/>
    <tag k="addr:state" v="VT"/>
    <tag k="ref:vcgi:esiteid" v="336772"/>
  </node>
  <node id="-3696" visible="true" lat="44.92678599" lon="-73.2122882">
    <tag k="addr:housenumber" v="127"/>
    <tag k="addr:street" v="Hog Island Road"/>
    <tag k="addr:state" v="VT"/>
    <tag k="ref:vcgi:esiteid" v="336773"/>
  </node>
  <node id="-3697" visible="true" lat="44.9260881" lon="-73.21276865">
    <tag k="addr:housenumber" v="133"/>
    <tag k="addr:street" v="Hog Island Road"/>
    <tag k="addr:state" v="VT"/>
    <tag k="ref:vcgi:esiteid" v="336774"/>
  </node>
  <node id="-3698" visible="true" lat="44.92957787" lon="-73.20823777">
    <tag k="addr:housenumber" v="45"/>
    <tag k="addr:street" v="Jayview Road"/>
    <tag k="addr:state" v="VT"/>
    <tag k="ref:vcgi:esiteid" v="336775"/>
  </node>
  <node id="-3699" visible="true" lat="44.93338389" lon="-73.20456167">
    <tag k="addr:housenumber" v="251"/>
    <tag k="addr:street" v="Champlain Street"/>
    <tag k="addr:state" v="VT"/>
    <tag k="ref:vcgi:esiteid" v="336776"/>
  </node>
  <node id="-3700" visible="true" lat="44.93513022" lon="-73.20880876">
    <tag k="addr:housenumber" v="163"/>
    <tag k="addr:street" v="Champlain Street"/>
    <tag k="addr:state" v="VT"/>
    <tag k="ref:vcgi:esiteid" v="336777"/>
  </node>
  <node id="-3797" visible="true" lat="44.93254718" lon="-73.20636615">
    <tag k="addr:housenumber" v="23"/>
    <tag k="addr:street" v="Homestead Road"/>
    <tag k="addr:state" v="VT"/>
    <tag k="ref:vcgi:esiteid" v="336888"/>
  </node>
  <node id="-3798" visible="true" lat="44.93237009" lon="-73.20581903">
    <tag k="addr:housenumber" v="29"/>
    <tag k="addr:street" v="Homestead Road"/>
    <tag k="addr:state" v="VT"/>
    <tag k="ref:vcgi:esiteid" v="336889"/>
  </node>
  <node id="-3800" visible="true" lat="44.94371355" lon="-73.22652234">
    <tag k="addr:housenumber" v="334"/>
    <tag k="addr:street" v="Lakewood Drive"/>
    <tag k="addr:state" v="VT"/>
    <tag k="ref:vcgi:esiteid" v="336891"/>
  </node>
  <node id="-3801" visible="true" lat="44.93652811" lon="-73.22611227">
    <tag k="addr:housenumber" v="465"/>
    <tag k="addr:street" v="Lakewood Drive"/>
    <tag k="addr:state" v="VT"/>
    <tag k="ref:vcgi:esiteid" v="336892"/>
  </node>
  <node id="-3802" visible="true" lat="44.93275136" lon="-73.2215049">
    <tag k="addr:housenumber" v="549"/>
    <tag k="addr:street" v="Lakewood Drive"/>
    <tag k="addr:state" v="VT"/>
    <tag k="ref:vcgi:esiteid" v="336893"/>
  </node>
  <node id="-3811" visible="true" lat="44.91768114" lon="-73.1160477">
    <tag k="addr:housenumber" v="35"/>
    <tag k="addr:street" v="Platt Street"/>
    <tag k="addr:state" v="VT"/>
    <tag k="ref:vcgi:esiteid" v="336902"/>
  </node>
  <node id="-3819" visible="true" lat="44.91735762" lon="-73.12143292">
    <tag k="addr:housenumber" v="33"/>
    <tag k="addr:street" v="York Street"/>
    <tag k="addr:state" v="VT"/>
    <tag k="ref:vcgi:esiteid" v="336912"/>
  </node>
  <node id="-3873" visible="true" lat="44.92527277" lon="-73.21040559">
    <tag k="addr:housenumber" v="68"/>
    <tag k="addr:street" v="Nokes Road"/>
    <tag k="addr:state" v="VT"/>
    <tag k="ref:vcgi:esiteid" v="339645"/>
  </node>
  <node id="-3914" visible="true" lat="44.97525325" lon="-73.18058568">
    <tag k="addr:housenumber" v="38"/>
    <tag k="addr:street" v="Campbell Bay Road"/>
    <tag k="addr:state" v="VT"/>
    <tag k="ref:vcgi:esiteid" v="447794"/>
  </node>
  <node id="-3915" visible="true" lat="44.91919072" lon="-73.1271087">
    <tag k="addr:housenumber" v="15"/>
    <tag k="addr:street" v="River Lane"/>
    <tag k="addr:state" v="VT"/>
    <tag k="ref:vcgi:esiteid" v="447795"/>
  </node>
  <node id="-3919" visible="true" lat="44.97386872" lon="-73.18504603">
    <tag k="addr:housenumber" v="107"/>
    <tag k="addr:street" v="Church Road"/>
    <tag k="addr:state" v="VT"/>
    <tag k="ref:vcgi:esiteid" v="448551"/>
  </node>
  <node id="-3921" visible="true" lat="44.9737603" lon="-73.18406865">
    <tag k="addr:housenumber" v="113"/>
    <tag k="addr:street" v="Church Road"/>
    <tag k="addr:state" v="VT"/>
    <tag k="ref:vcgi:esiteid" v="448554"/>
  </node>
  <node id="-3971" visible="true" lat="44.9260001" lon="-73.21365808">
    <tag k="addr:housenumber" v="156"/>
    <tag k="addr:street" v="Hog Island Road"/>
    <tag k="addr:state" v="VT"/>
    <tag k="ref:vcgi:esiteid" v="455041"/>
  </node>
  <node id="-3972" visible="true" lat="44.92508439" lon="-73.21478257">
    <tag k="addr:housenumber" v="172"/>
    <tag k="addr:street" v="Hog Island Road"/>
    <tag k="addr:state" v="VT"/>
    <tag k="ref:vcgi:esiteid" v="455042"/>
  </node>
  <node id="-3973" visible="true" lat="44.91969388" lon="-73.12516115">
    <tag k="addr:housenumber" v="3"/>
    <tag k="addr:street" v="Canada Street"/>
    <tag k="addr:state" v="VT"/>
    <tag k="ref:vcgi:esiteid" v="455249"/>
  </node>
  <node id="-3974" visible="true" lat="44.91794562" lon="-73.12568055">
    <tag k="addr:housenumber" v="8"/>
    <tag k="addr:street" v="Church Street"/>
    <tag k="addr:state" v="VT"/>
    <tag k="ref:vcgi:esiteid" v="455250"/>
  </node>
  <node id="-3977" visible="true" lat="44.91934937" lon="-73.12140794">
    <tag k="addr:housenumber" v="39"/>
    <tag k="addr:street" v="First Street"/>
    <tag k="addr:state" v="VT"/>
    <tag k="ref:vcgi:esiteid" v="455253"/>
  </node>
  <node id="-3996" visible="true" lat="44.91636032" lon="-73.12172052">
    <tag k="addr:housenumber" v="56"/>
    <tag k="addr:street" v="Grand Avenue"/>
    <tag k="addr:state" v="VT"/>
    <tag k="ref:vcgi:esiteid" v="455277"/>
  </node>
  <node id="-4001" visible="true" lat="44.91893564" lon="-73.12341428">
    <tag k="addr:housenumber" v="14"/>
    <tag k="addr:street" v="York Street"/>
    <tag k="addr:state" v="VT"/>
    <tag k="ref:vcgi:esiteid" v="455282"/>
  </node>
  <node id="-4004" visible="true" lat="44.9300409" lon="-73.21000053">
    <tag k="addr:housenumber" v="91"/>
    <tag k="addr:street" v="Hog Island Road"/>
    <tag k="addr:state" v="VT"/>
    <tag k="ref:vcgi:esiteid" v="455285"/>
  </node>
  <node id="-4005" visible="true" lat="44.92778809" lon="-73.21086459">
    <tag k="addr:housenumber" v="115"/>
    <tag k="addr:street" v="Hog Island Road"/>
    <tag k="addr:state" v="VT"/>
    <tag k="ref:vcgi:esiteid" v="455286"/>
  </node>
  <node id="-4025" visible="true" lat="44.93061582" lon="-73.20520076">
    <tag k="addr:housenumber" v="54"/>
    <tag k="addr:street" v="Homestead Road"/>
    <tag k="addr:state" v="VT"/>
    <tag k="ref:vcgi:esiteid" v="611145"/>
  </node>
  <node id="-4038" visible="true" lat="44.97260522" lon="-73.18640088">
    <tag k="addr:housenumber" v="100"/>
    <tag k="addr:street" v="Church Road"/>
    <tag k="addr:state" v="VT"/>
    <tag k="ref:vcgi:esiteid" v="611631"/>
  </node>
</osm>
