<?xml version="1.0" encoding="UTF-8"?>
<osm version="0.6" generator="JOSM">
  <node id="-412" visible="true" lat="43.85794817" lon="-72.27168346">
    <!-- multiple: "1100 Sawnee Bean Road, Thetford, VT" Multiple exact matches in OSM. -->
    <tag k="addr:city" v="Thetford"/>
    <tag k="addr:housenumber" v="1100"/>
    <tag k="addr:street" v="Sawnee Bean Road"/>
    <tag k="addr:state" v="VT"/>
    <tag k="ref:vcgi:esiteid" v="258790"/>
  </node>
  <node id="-519" visible="true" lat="43.84373162" lon="-72.18459">
    <!-- multiple: "5378 U.S. Route 5, Thetford, VT" Multiple exact matches in OSM. -->
    <tag k="addr:city" v="Thetford"/>
    <tag k="addr:housenumber" v="5378"/>
    <tag k="addr:street" v="U.S. Route 5"/>
    <tag k="addr:state" v="VT"/>
    <tag k="ref:vcgi:esiteid" v="258899"/>
  </node>
  <node id="-601" visible="true" lat="43.83689047" lon="-72.19659993">
    <!-- multiple: "2042 Latham Road, Thetford, VT" Multiple exact matches in OSM. -->
    <tag k="addr:city" v="Thetford"/>
    <tag k="addr:housenumber" v="2042"/>
    <tag k="addr:street" v="Latham Road"/>
    <tag k="addr:state" v="VT"/>
    <tag k="ref:vcgi:esiteid" v="258989"/>
  </node>
  <node id="-620" visible="true" lat="43.83564273" lon="-72.2584819">
    <!-- multiple: "349 Whippoorwill Road, Thetford, VT" Multiple exact matches in OSM. -->
    <tag k="addr:city" v="Thetford"/>
    <tag k="addr:housenumber" v="349"/>
    <tag k="addr:street" v="Whippoorwill Road"/>
    <tag k="addr:state" v="VT"/>
    <tag k="ref:vcgi:esiteid" v="259009"/>
  </node>
  <node id="-667" visible="true" lat="43.83254241" lon="-72.25234985">
    <!-- multiple: "226 Tucker Hill Road, Thetford, VT" Multiple exact matches in OSM. -->
    <tag k="addr:city" v="Thetford"/>
    <tag k="addr:housenumber" v="226"/>
    <tag k="addr:street" v="Tucker Hill Road"/>
    <tag k="addr:state" v="VT"/>
    <tag k="ref:vcgi:esiteid" v="259056"/>
  </node>
  <node id="-695" visible="true" lat="43.83148748" lon="-72.25844822">
    <!-- multiple: "41 Whippoorwill Road, Thetford, VT" Multiple exact matches in OSM. -->
    <tag k="addr:city" v="Thetford"/>
    <tag k="addr:housenumber" v="41"/>
    <tag k="addr:street" v="Whippoorwill Road"/>
    <tag k="addr:state" v="VT"/>
    <tag k="ref:vcgi:esiteid" v="259084"/>
  </node>
  <node id="-716" visible="true" lat="43.82996722" lon="-72.22542641">
    <!-- multiple: "765 Houghton Hill Road, Thetford, VT" Multiple exact matches in OSM. -->
    <tag k="addr:city" v="Thetford"/>
    <tag k="addr:housenumber" v="765"/>
    <tag k="addr:street" v="Houghton Hill Road"/>
    <tag k="addr:state" v="VT"/>
    <tag k="ref:vcgi:esiteid" v="259105"/>
  </node>
  <node id="-831" visible="true" lat="43.82116642" lon="-72.22777434">
    <!-- multiple: "142 Houghton Hill Road, Thetford, VT" Multiple exact matches in OSM. -->
    <tag k="addr:city" v="Thetford"/>
    <tag k="addr:housenumber" v="142"/>
    <tag k="addr:street" v="Houghton Hill Road"/>
    <tag k="addr:state" v="VT"/>
    <tag k="ref:vcgi:esiteid" v="259221"/>
  </node>
  <node id="-953" visible="true" lat="43.81451014" lon="-72.23061296">
    <!-- multiple: "304 Academy Road, Thetford, VT" Multiple exact matches in OSM. -->
    <tag k="addr:city" v="Thetford"/>
    <tag k="addr:housenumber" v="304"/>
    <tag k="addr:street" v="Academy Road"/>
    <tag k="addr:state" v="VT"/>
    <tag k="ref:vcgi:esiteid" v="259349"/>
  </node>
  <node id="-1042" visible="true" lat="43.8108405" lon="-72.20756772">
    <!-- multiple: "100 Evans Road, Thetford, VT" Multiple exact matches in OSM. -->
    <tag k="addr:city" v="Thetford"/>
    <tag k="addr:housenumber" v="100"/>
    <tag k="addr:street" v="Evans Road"/>
    <tag k="addr:state" v="VT"/>
    <tag k="ref:vcgi:esiteid" v="259442"/>
  </node>
  <node id="-1206" visible="true" lat="43.79379653" lon="-72.25720214">
    <!-- multiple: "2 Main Street, Thetford, VT" Multiple exact matches in OSM. -->
    <tag k="addr:city" v="Thetford"/>
    <tag k="addr:housenumber" v="2"/>
    <tag k="addr:street" v="Main Street"/>
    <tag k="addr:state" v="VT"/>
    <tag k="ref:vcgi:esiteid" v="259607"/>
  </node>
  <node id="-1248" visible="true" lat="43.78935159" lon="-72.25461399">
    <!-- multiple: "61 Main Street, Thetford, VT" Multiple exact matches in OSM. -->
    <tag k="addr:city" v="Thetford"/>
    <tag k="addr:housenumber" v="61"/>
    <tag k="addr:street" v="Main Street"/>
    <tag k="addr:state" v="VT"/>
    <tag k="ref:vcgi:esiteid" v="259650"/>
  </node>
  <node id="-1261" visible="true" lat="43.78813822" lon="-72.25279933">
    <!-- multiple: "35 Campbell Flats Road, Thetford, VT" Multiple exact matches in OSM. -->
    <tag k="addr:city" v="Thetford"/>
    <tag k="addr:housenumber" v="35"/>
    <tag k="addr:street" v="Campbell Flats Road"/>
    <tag k="addr:state" v="VT"/>
    <tag k="ref:vcgi:esiteid" v="259663"/>
  </node>
  <node id="-1262" visible="true" lat="43.78808246" lon="-72.25509867">
    <!-- multiple: "144 Main Street, Thetford, VT" Multiple exact matches in OSM. -->
    <tag k="addr:city" v="Thetford"/>
    <tag k="addr:housenumber" v="144"/>
    <tag k="addr:street" v="Main Street"/>
    <tag k="addr:state" v="VT"/>
    <tag k="ref:vcgi:esiteid" v="259664"/>
  </node>
  <node id="-1263" visible="true" lat="43.78782391" lon="-72.25513243">
    <!-- multiple: "146 Main Street, Thetford, VT" Multiple exact matches in OSM. -->
    <tag k="addr:city" v="Thetford"/>
    <tag k="addr:housenumber" v="146"/>
    <tag k="addr:street" v="Main Street"/>
    <tag k="addr:state" v="VT"/>
    <tag k="ref:vcgi:esiteid" v="259665"/>
  </node>
  <node id="-1270" visible="true" lat="43.7870131" lon="-72.25473386">
    <!-- multiple: "185 Main Street, Thetford, VT" Multiple exact matches in OSM. -->
    <tag k="addr:city" v="Thetford"/>
    <tag k="addr:housenumber" v="185"/>
    <tag k="addr:street" v="Main Street"/>
    <tag k="addr:state" v="VT"/>
    <tag k="ref:vcgi:esiteid" v="259672"/>
  </node>
  <node id="-1572" visible="true" lat="43.83626688" lon="-72.19819694">
    <!-- multiple: "1950 Latham Road, Thetford, VT" Multiple exact matches in OSM. -->
    <tag k="addr:city" v="Thetford"/>
    <tag k="addr:housenumber" v="1950"/>
    <tag k="addr:street" v="Latham Road"/>
    <tag k="addr:state" v="VT"/>
    <tag k="ref:vcgi:esiteid" v="448968"/>
  </node>
  <node id="-1573" visible="true" lat="43.81750783" lon="-72.32719312">
    <!-- multiple: "738 New Boston Road, Thetford, VT" Multiple exact matches in OSM. -->
    <tag k="addr:city" v="Thetford"/>
    <tag k="addr:housenumber" v="738"/>
    <tag k="addr:street" v="New Boston Road"/>
    <tag k="addr:state" v="VT"/>
    <tag k="ref:vcgi:esiteid" v="448969"/>
  </node>
</osm>
