<?xml version="1.0" encoding="UTF-8"?>
<osm version="0.6" generator="JOSM">
  <node id="-100" visible="true" lat="43.82189189" lon="-72.23173817">
    <tag k="addr:city" v="Thetford"/>
    <tag k="addr:housenumber" v="2774"/>
    <tag k="addr:street" v="Vermont Route 113"/>
    <tag k="addr:state" v="VT"/>
    <tag k="ref:vcgi:esiteid" v="353"/>
  </node>
  <node id="-133" visible="true" lat="43.8896096" lon="-72.24211782">
    <tag k="addr:city" v="Thetford"/>
    <tag k="addr:housenumber" v="203"/>
    <tag k="addr:street" v="West Fairlee Road"/>
    <tag k="addr:state" v="VT"/>
    <tag k="ref:vcgi:esiteid" v="258504"/>
  </node>
  <node id="-135" visible="true" lat="43.89002111" lon="-72.24724011">
    <tag k="addr:city" v="Thetford"/>
    <tag k="addr:housenumber" v="178"/>
    <tag k="addr:street" v="Cross Street"/>
    <tag k="addr:state" v="VT"/>
    <tag k="ref:vcgi:esiteid" v="258506"/>
  </node>
  <node id="-138" visible="true" lat="43.88917922" lon="-72.25899505">
    <tag k="addr:city" v="Thetford"/>
    <tag k="addr:housenumber" v="8206"/>
    <tag k="addr:street" v="Vermont Route 113"/>
    <tag k="addr:state" v="VT"/>
    <tag k="ref:vcgi:esiteid" v="258509"/>
  </node>
  <node id="-142" visible="true" lat="43.8890053" lon="-72.23980505">
    <tag k="addr:city" v="Thetford"/>
    <tag k="addr:housenumber" v="130"/>
    <tag k="addr:street" v="West Fairlee Road"/>
    <tag k="addr:state" v="VT"/>
    <tag k="ref:vcgi:esiteid" v="258514"/>
  </node>
  <node id="-146" visible="true" lat="43.88881695" lon="-72.23400568">
    <tag k="addr:city" v="Thetford"/>
    <tag k="addr:housenumber" v="1403"/>
    <tag k="addr:street" v="Vermont Route 244"/>
    <tag k="addr:state" v="VT"/>
    <tag k="ref:vcgi:esiteid" v="258518"/>
  </node>
  <node id="-148" visible="true" lat="43.88858413" lon="-72.25927734">
    <tag k="addr:city" v="Thetford"/>
    <tag k="addr:housenumber" v="8162"/>
    <tag k="addr:street" v="Vermont Route 113"/>
    <tag k="addr:state" v="VT"/>
    <tag k="ref:vcgi:esiteid" v="258520"/>
  </node>
  <node id="-153" visible="true" lat="43.88855791" lon="-72.23975335">
    <tag k="addr:city" v="Thetford"/>
    <tag k="addr:housenumber" v="76"/>
    <tag k="addr:street" v="West Fairlee Road"/>
    <tag k="addr:state" v="VT"/>
    <tag k="ref:vcgi:esiteid" v="258525"/>
  </node>
  <node id="-154" visible="true" lat="43.88820529" lon="-72.24337608">
    <tag k="addr:city" v="Thetford"/>
    <tag k="addr:housenumber" v="881"/>
    <tag k="addr:street" v="Vermont Route 244"/>
    <tag k="addr:state" v="VT"/>
    <tag k="ref:vcgi:esiteid" v="258528"/>
  </node>
  <node id="-159" visible="true" lat="43.88779421" lon="-72.24828421">
    <tag k="addr:city" v="Thetford"/>
    <tag k="addr:housenumber" v="639"/>
    <tag k="addr:street" v="Vermont Route 244"/>
    <tag k="addr:state" v="VT"/>
    <tag k="ref:vcgi:esiteid" v="258533"/>
  </node>
  <node id="-169" visible="true" lat="43.88775466" lon="-72.24996889">
    <tag k="addr:city" v="Thetford"/>
    <tag k="addr:housenumber" v="537"/>
    <tag k="addr:street" v="Vermont Route 244"/>
    <tag k="addr:state" v="VT"/>
    <tag k="ref:vcgi:esiteid" v="258543"/>
  </node>
  <node id="-170" visible="true" lat="43.88751308" lon="-72.24652916">
    <tag k="addr:city" v="Thetford"/>
    <tag k="addr:housenumber" v="724"/>
    <tag k="addr:street" v="Vermont Route 244"/>
    <tag k="addr:state" v="VT"/>
    <tag k="ref:vcgi:esiteid" v="258544"/>
  </node>
  <node id="-175" visible="true" lat="43.88727259" lon="-72.25480428">
    <tag k="addr:city" v="Thetford"/>
    <tag k="addr:housenumber" v="341"/>
    <tag k="addr:street" v="Vermont Route 244"/>
    <tag k="addr:state" v="VT"/>
    <tag k="ref:vcgi:esiteid" v="258549"/>
  </node>
  <node id="-176" visible="true" lat="43.88759031" lon="-72.23661246">
    <tag k="addr:city" v="Thetford"/>
    <tag k="addr:housenumber" v="1251"/>
    <tag k="addr:street" v="Vermont Route 244"/>
    <tag k="addr:state" v="VT"/>
    <tag k="ref:vcgi:esiteid" v="258550"/>
  </node>
  <node id="-178" visible="true" lat="43.88738451" lon="-72.2367879">
    <tag k="addr:city" v="Thetford"/>
    <tag k="addr:housenumber" v="1237"/>
    <tag k="addr:street" v="Vermont Route 244"/>
    <tag k="addr:state" v="VT"/>
    <tag k="ref:vcgi:esiteid" v="258552"/>
  </node>
  <node id="-188" visible="true" lat="43.88689652" lon="-72.25394794">
    <tag k="addr:city" v="Thetford"/>
    <tag k="addr:housenumber" v="362"/>
    <tag k="addr:street" v="Vermont Route 244"/>
    <tag k="addr:state" v="VT"/>
    <tag k="ref:vcgi:esiteid" v="258562"/>
  </node>
  <node id="-191" visible="true" lat="43.88678404" lon="-72.24302354">
    <tag k="addr:city" v="Thetford"/>
    <tag k="addr:housenumber" v="209"/>
    <tag k="addr:street" v="Lakeshore Road"/>
    <tag k="addr:state" v="VT"/>
    <tag k="ref:vcgi:esiteid" v="258565"/>
  </node>
  <node id="-194" visible="true" lat="43.8866365" lon="-72.255575">
    <tag k="addr:city" v="Thetford"/>
    <tag k="addr:housenumber" v="272"/>
    <tag k="addr:street" v="Vermont Route 244"/>
    <tag k="addr:state" v="VT"/>
    <tag k="ref:vcgi:esiteid" v="258568"/>
  </node>
  <node id="-196" visible="true" lat="43.88661292" lon="-72.25597676">
    <tag k="addr:city" v="Thetford"/>
    <tag k="addr:housenumber" v="250"/>
    <tag k="addr:street" v="Vermont Route 244"/>
    <tag k="addr:state" v="VT"/>
    <tag k="ref:vcgi:esiteid" v="258570"/>
  </node>
  <node id="-202" visible="true" lat="43.88645748" lon="-72.25690649">
    <tag k="addr:city" v="Thetford"/>
    <tag k="addr:housenumber" v="202"/>
    <tag k="addr:street" v="Vermont Route 244"/>
    <tag k="addr:state" v="VT"/>
    <tag k="ref:vcgi:esiteid" v="258576"/>
  </node>
  <node id="-203" visible="true" lat="43.88643407" lon="-72.26012916">
    <tag k="addr:city" v="Thetford"/>
    <tag k="addr:housenumber" v="7998"/>
    <tag k="addr:street" v="Vermont Route 113"/>
    <tag k="addr:state" v="VT"/>
    <tag k="ref:vcgi:esiteid" v="258577"/>
  </node>
  <node id="-216" visible="true" lat="43.88578229" lon="-72.25957172">
    <tag k="addr:city" v="Thetford"/>
    <tag k="addr:housenumber" v="56"/>
    <tag k="addr:street" v="Vermont Route 244"/>
    <tag k="addr:state" v="VT"/>
    <tag k="ref:vcgi:esiteid" v="258590"/>
  </node>
  <node id="-230" visible="true" lat="43.88508224" lon="-72.22357177">
    <tag k="addr:city" v="Thetford"/>
    <tag k="addr:housenumber" v="444"/>
    <tag k="addr:street" v="Bragg Road"/>
    <tag k="addr:state" v="VT"/>
    <tag k="ref:vcgi:esiteid" v="258604"/>
  </node>
  <node id="-252" visible="true" lat="43.88358688" lon="-72.25081634">
    <tag k="addr:city" v="Thetford"/>
    <tag k="addr:housenumber" v="214"/>
    <tag k="addr:street" v="Hangar Bay Lane"/>
    <tag k="addr:state" v="VT"/>
    <tag k="ref:vcgi:esiteid" v="258626"/>
  </node>
  <node id="-253" visible="true" lat="43.88324269" lon="-72.24481418">
    <tag k="addr:city" v="Thetford"/>
    <tag k="addr:housenumber" v="496"/>
    <tag k="addr:street" v="Robinson Hill Road"/>
    <tag k="addr:state" v="VT"/>
    <tag k="ref:vcgi:esiteid" v="258627"/>
  </node>
  <node id="-256" visible="true" lat="43.88345503" lon="-72.261207">
    <tag k="addr:city" v="Thetford"/>
    <tag k="addr:housenumber" v="7796"/>
    <tag k="addr:street" v="Vermont Route 113"/>
    <tag k="addr:state" v="VT"/>
    <tag k="ref:vcgi:esiteid" v="258630"/>
  </node>
  <node id="-262" visible="true" lat="43.88301849" lon="-72.25155639">
    <tag k="addr:city" v="Thetford"/>
    <tag k="addr:housenumber" v="270"/>
    <tag k="addr:street" v="Hangar Bay Lane"/>
    <tag k="addr:state" v="VT"/>
    <tag k="ref:vcgi:esiteid" v="258636"/>
  </node>
  <node id="-265" visible="true" lat="43.88257217" lon="-72.24008941">
    <tag k="addr:city" v="Thetford"/>
    <tag k="addr:housenumber" v="257"/>
    <tag k="addr:street" v="Birch Point Lane"/>
    <tag k="addr:state" v="VT"/>
    <tag k="ref:vcgi:esiteid" v="258639"/>
  </node>
  <node id="-266" visible="true" lat="43.88262406" lon="-72.26262061">
    <tag k="addr:city" v="Thetford"/>
    <tag k="addr:housenumber" v="7705"/>
    <tag k="addr:street" v="Vermont Route 113"/>
    <tag k="addr:state" v="VT"/>
    <tag k="ref:vcgi:esiteid" v="258640"/>
  </node>
  <node id="-270" visible="true" lat="43.88183593" lon="-72.240242">
    <tag k="addr:city" v="Thetford"/>
    <tag k="addr:housenumber" v="211"/>
    <tag k="addr:street" v="Birch Point Lane"/>
    <tag k="addr:state" v="VT"/>
    <tag k="ref:vcgi:esiteid" v="258644"/>
  </node>
  <node id="-273" visible="true" lat="43.88131946" lon="-72.26211851">
    <tag k="addr:city" v="Thetford"/>
    <tag k="addr:housenumber" v="7631"/>
    <tag k="addr:street" v="Vermont Route 113"/>
    <tag k="addr:state" v="VT"/>
    <tag k="ref:vcgi:esiteid" v="258647"/>
  </node>
  <node id="-277" visible="true" lat="43.88090383" lon="-72.26078782">
    <tag k="addr:city" v="Thetford"/>
    <tag k="addr:housenumber" v="7558"/>
    <tag k="addr:street" v="Vermont Route 113"/>
    <tag k="addr:state" v="VT"/>
    <tag k="ref:vcgi:esiteid" v="258651"/>
  </node>
  <node id="-279" visible="true" lat="43.8805443" lon="-72.26055708">
    <tag k="addr:city" v="Thetford"/>
    <tag k="addr:housenumber" v="7534"/>
    <tag k="addr:street" v="Vermont Route 113"/>
    <tag k="addr:state" v="VT"/>
    <tag k="ref:vcgi:esiteid" v="258653"/>
  </node>
  <node id="-287" visible="true" lat="43.87959076" lon="-72.26020922">
    <tag k="addr:city" v="Thetford"/>
    <tag k="addr:housenumber" v="7412"/>
    <tag k="addr:street" v="Vermont Route 113"/>
    <tag k="addr:state" v="VT"/>
    <tag k="ref:vcgi:esiteid" v="258661"/>
  </node>
  <node id="-288" visible="true" lat="43.87853707" lon="-72.26169316">
    <tag k="addr:city" v="Thetford"/>
    <tag k="addr:housenumber" v="7395"/>
    <tag k="addr:street" v="Vermont Route 113"/>
    <tag k="addr:state" v="VT"/>
    <tag k="ref:vcgi:esiteid" v="258662"/>
  </node>
  <node id="-289" visible="true" lat="43.87821713" lon="-72.26078993">
    <tag k="addr:city" v="Thetford"/>
    <tag k="addr:housenumber" v="7386"/>
    <tag k="addr:street" v="Vermont Route 113"/>
    <tag k="addr:state" v="VT"/>
    <tag k="ref:vcgi:esiteid" v="258663"/>
  </node>
  <node id="-299" visible="true" lat="43.87561798" lon="-72.28616333">
    <tag k="addr:city" v="Thetford"/>
    <tag k="addr:housenumber" v="2606"/>
    <tag k="addr:street" v="Sawnee Bean Road"/>
    <tag k="addr:state" v="VT"/>
    <tag k="ref:vcgi:esiteid" v="258674"/>
  </node>
  <node id="-300" visible="true" lat="43.87568505" lon="-72.28661462">
    <tag k="addr:city" v="Thetford"/>
    <tag k="addr:housenumber" v="2604"/>
    <tag k="addr:street" v="Sawnee Bean Road"/>
    <tag k="addr:state" v="VT"/>
    <tag k="ref:vcgi:esiteid" v="258675"/>
  </node>
  <node id="-329" visible="true" lat="43.87136535" lon="-72.27935242">
    <tag k="addr:city" v="Thetford"/>
    <tag k="addr:housenumber" v="2032"/>
    <tag k="addr:street" v="Sawnee Bean Road"/>
    <tag k="addr:state" v="VT"/>
    <tag k="ref:vcgi:esiteid" v="258704"/>
  </node>
  <node id="-331" visible="true" lat="43.87112276" lon="-72.28234802">
    <tag k="addr:city" v="Thetford"/>
    <tag k="addr:housenumber" v="2209"/>
    <tag k="addr:street" v="Sawnee Bean Road"/>
    <tag k="addr:state" v="VT"/>
    <tag k="ref:vcgi:esiteid" v="258706"/>
  </node>
  <node id="-372" visible="true" lat="43.8636663" lon="-72.26046562">
    <tag k="addr:city" v="Thetford"/>
    <tag k="addr:housenumber" v="6362"/>
    <tag k="addr:street" v="Vermont Route 113"/>
    <tag k="addr:state" v="VT"/>
    <tag k="ref:vcgi:esiteid" v="258748"/>
  </node>
  <node id="-373" visible="true" lat="43.86390239" lon="-72.26250835">
    <tag k="addr:city" v="Thetford"/>
    <tag k="addr:housenumber" v="6365"/>
    <tag k="addr:street" v="Vermont Route 113"/>
    <tag k="addr:state" v="VT"/>
    <tag k="ref:vcgi:esiteid" v="258749"/>
  </node>
  <node id="-378" visible="true" lat="43.86254106" lon="-72.2743984">
    <tag k="addr:city" v="Thetford"/>
    <tag k="addr:housenumber" v="1490"/>
    <tag k="addr:street" v="Sawnee Bean Road"/>
    <tag k="addr:state" v="VT"/>
    <tag k="ref:vcgi:esiteid" v="258754"/>
  </node>
  <node id="-381" visible="true" lat="43.86135294" lon="-72.26124004">
    <tag k="addr:city" v="Thetford"/>
    <tag k="addr:housenumber" v="6211"/>
    <tag k="addr:street" v="Vermont Route 113"/>
    <tag k="addr:state" v="VT"/>
    <tag k="ref:vcgi:esiteid" v="258757"/>
  </node>
  <node id="-388" visible="true" lat="43.86044107" lon="-72.26024597">
    <tag k="addr:city" v="Thetford"/>
    <tag k="addr:housenumber" v="6137"/>
    <tag k="addr:street" v="Vermont Route 113"/>
    <tag k="addr:state" v="VT"/>
    <tag k="ref:vcgi:esiteid" v="258764"/>
  </node>
  <node id="-396" visible="true" lat="43.85953306" lon="-72.25949802">
    <tag k="addr:city" v="Thetford"/>
    <tag k="addr:housenumber" v="6072"/>
    <tag k="addr:street" v="Vermont Route 113"/>
    <tag k="addr:state" v="VT"/>
    <tag k="ref:vcgi:esiteid" v="258773"/>
  </node>
  <node id="-406" visible="true" lat="43.85871109" lon="-72.26137276">
    <tag k="addr:city" v="Thetford"/>
    <tag k="addr:housenumber" v="5975"/>
    <tag k="addr:street" v="Vermont Route 113"/>
    <tag k="addr:state" v="VT"/>
    <tag k="ref:vcgi:esiteid" v="258784"/>
  </node>
  <node id="-420" visible="true" lat="43.85659193" lon="-72.25955906">
    <tag k="addr:city" v="Thetford"/>
    <tag k="addr:housenumber" v="5870"/>
    <tag k="addr:street" v="Vermont Route 113"/>
    <tag k="addr:state" v="VT"/>
    <tag k="ref:vcgi:esiteid" v="258798"/>
  </node>
  <node id="-442" visible="true" lat="43.8512268" lon="-72.18911743">
    <tag k="addr:city" v="Thetford"/>
    <tag k="addr:housenumber" v="5977"/>
    <tag k="addr:street" v="U.S. Route 5"/>
    <tag k="addr:state" v="VT"/>
    <tag k="ref:vcgi:esiteid" v="258822"/>
  </node>
  <node id="-446" visible="true" lat="43.85047149" lon="-72.20098113">
    <tag k="addr:city" v="Thetford"/>
    <tag k="addr:housenumber" v="814"/>
    <tag k="addr:street" v="Potato Hill Road South"/>
    <tag k="addr:state" v="VT"/>
    <tag k="ref:vcgi:esiteid" v="258826"/>
  </node>
  <node id="-450" visible="true" lat="43.85083161" lon="-72.25808004">
    <tag k="addr:city" v="Thetford"/>
    <tag k="addr:housenumber" v="5343"/>
    <tag k="addr:street" v="Vermont Route 113"/>
    <tag k="addr:state" v="VT"/>
    <tag k="ref:vcgi:esiteid" v="258830"/>
  </node>
  <node id="-452" visible="true" lat="43.8502927" lon="-72.25542025">
    <tag k="addr:city" v="Thetford"/>
    <tag k="addr:housenumber" v="5366"/>
    <tag k="addr:street" v="Vermont Route 113"/>
    <tag k="addr:state" v="VT"/>
    <tag k="ref:vcgi:esiteid" v="258832"/>
  </node>
  <node id="-454" visible="true" lat="43.85010983" lon="-72.25538414">
    <tag k="addr:city" v="Thetford"/>
    <tag k="addr:housenumber" v="5368"/>
    <tag k="addr:street" v="Vermont Route 113"/>
    <tag k="addr:state" v="VT"/>
    <tag k="ref:vcgi:esiteid" v="258834"/>
  </node>
  <node id="-468" visible="true" lat="43.84880576" lon="-72.25575673">
    <tag k="addr:city" v="Thetford"/>
    <tag k="addr:housenumber" v="5235"/>
    <tag k="addr:street" v="Vermont Route 113"/>
    <tag k="addr:state" v="VT"/>
    <tag k="ref:vcgi:esiteid" v="258848"/>
  </node>
  <node id="-494" visible="true" lat="43.84590633" lon="-72.25087574">
    <tag k="addr:city" v="Thetford"/>
    <tag k="addr:housenumber" v="4960"/>
    <tag k="addr:street" v="Vermont Route 113"/>
    <tag k="addr:state" v="VT"/>
    <tag k="ref:vcgi:esiteid" v="258874"/>
  </node>
  <node id="-499" visible="true" lat="43.84612343" lon="-72.25269603">
    <tag k="addr:city" v="Thetford"/>
    <tag k="addr:housenumber" v="4997"/>
    <tag k="addr:street" v="Vermont Route 113"/>
    <tag k="addr:state" v="VT"/>
    <tag k="ref:vcgi:esiteid" v="258879"/>
  </node>
  <node id="-537" visible="true" lat="43.84243023" lon="-72.2474573">
    <tag k="addr:city" v="Thetford"/>
    <tag k="addr:housenumber" v="4706"/>
    <tag k="addr:street" v="Vermont Route 113"/>
    <tag k="addr:state" v="VT"/>
    <tag k="ref:vcgi:esiteid" v="258917"/>
  </node>
  <node id="-550" visible="true" lat="43.84132385" lon="-72.18341064">
    <tag k="addr:city" v="Thetford"/>
    <tag k="addr:housenumber" v="82"/>
    <tag k="addr:street" v="Bridge Road"/>
    <tag k="addr:state" v="VT"/>
    <tag k="ref:vcgi:esiteid" v="258931"/>
  </node>
  <node id="-562" visible="true" lat="43.84044969" lon="-72.24684098">
    <tag k="addr:city" v="Thetford"/>
    <tag k="addr:housenumber" v="4580"/>
    <tag k="addr:street" v="Vermont Route 113"/>
    <tag k="addr:state" v="VT"/>
    <tag k="ref:vcgi:esiteid" v="258943"/>
  </node>
  <node id="-610" visible="true" lat="43.83668752" lon="-72.25924558">
    <tag k="addr:city" v="Thetford"/>
    <tag k="addr:housenumber" v="445"/>
    <tag k="addr:street" v="Whippoorwill Road"/>
    <tag k="addr:state" v="VT"/>
    <tag k="ref:vcgi:esiteid" v="258999"/>
  </node>
  <node id="-613" visible="true" lat="43.83613704" lon="-72.220383">
    <tag k="addr:city" v="Thetford"/>
    <tag k="addr:housenumber" v="1252"/>
    <tag k="addr:street" v="Houghton Hill Road"/>
    <tag k="addr:state" v="VT"/>
    <tag k="ref:vcgi:esiteid" v="259002"/>
  </node>
  <node id="-646" visible="true" lat="43.83383243" lon="-72.24865971">
    <tag k="addr:city" v="Thetford"/>
    <tag k="addr:housenumber" v="4053"/>
    <tag k="addr:street" v="Vermont Route 113"/>
    <tag k="addr:state" v="VT"/>
    <tag k="ref:vcgi:esiteid" v="259035"/>
  </node>
  <node id="-657" visible="true" lat="43.83280563" lon="-72.22221374">
    <tag k="addr:city" v="Thetford"/>
    <tag k="addr:housenumber" v="1027"/>
    <tag k="addr:street" v="Houghton Hill Road"/>
    <tag k="addr:state" v="VT"/>
    <tag k="ref:vcgi:esiteid" v="259046"/>
  </node>
  <node id="-665" visible="true" lat="43.83307073" lon="-72.24753136">
    <tag k="addr:city" v="Thetford"/>
    <tag k="addr:housenumber" v="3998"/>
    <tag k="addr:street" v="Vermont Route 113"/>
    <tag k="addr:state" v="VT"/>
    <tag k="ref:vcgi:esiteid" v="259054"/>
  </node>
  <node id="-687" visible="true" lat="43.83154777" lon="-72.24680496">
    <tag k="addr:city" v="Thetford"/>
    <tag k="addr:housenumber" v="3910"/>
    <tag k="addr:street" v="Vermont Route 113"/>
    <tag k="addr:state" v="VT"/>
    <tag k="ref:vcgi:esiteid" v="259076"/>
  </node>
  <node id="-696" visible="true" lat="43.83103942" lon="-72.29192352">
    <tag k="addr:city" v="Thetford"/>
    <tag k="addr:housenumber" v="2930"/>
    <tag k="addr:street" v="Route 132"/>
    <tag k="addr:state" v="VT"/>
    <tag k="ref:vcgi:esiteid" v="259085"/>
  </node>
  <node id="-709" visible="true" lat="43.83048849" lon="-72.2461086">
    <tag k="addr:city" v="Thetford"/>
    <tag k="addr:housenumber" v="3842"/>
    <tag k="addr:street" v="Vermont Route 113"/>
    <tag k="addr:state" v="VT"/>
    <tag k="ref:vcgi:esiteid" v="259098"/>
  </node>
  <node id="-711" visible="true" lat="43.83048495" lon="-72.24707262">
    <tag k="addr:city" v="Thetford"/>
    <tag k="addr:housenumber" v="3843"/>
    <tag k="addr:street" v="Vermont Route 113"/>
    <tag k="addr:state" v="VT"/>
    <tag k="ref:vcgi:esiteid" v="259100"/>
  </node>
  <node id="-721" visible="true" lat="43.83003031" lon="-72.24696655">
    <tag k="addr:city" v="Thetford"/>
    <tag k="addr:housenumber" v="3815"/>
    <tag k="addr:street" v="Vermont Route 113"/>
    <tag k="addr:state" v="VT"/>
    <tag k="ref:vcgi:esiteid" v="259110"/>
  </node>
  <node id="-727" visible="true" lat="43.82983475" lon="-72.26104914">
    <tag k="addr:city" v="Thetford"/>
    <tag k="addr:housenumber" v="712"/>
    <tag k="addr:street" v="Tucker Hill Road"/>
    <tag k="addr:state" v="VT"/>
    <tag k="ref:vcgi:esiteid" v="259116"/>
  </node>
  <node id="-728" visible="true" lat="43.8296972" lon="-72.24612206">
    <tag k="addr:city" v="Thetford"/>
    <tag k="addr:housenumber" v="3782"/>
    <tag k="addr:street" v="Vermont Route 113"/>
    <tag k="addr:state" v="VT"/>
    <tag k="ref:vcgi:esiteid" v="259117"/>
  </node>
  <node id="-733" visible="true" lat="43.82925415" lon="-72.26084137">
    <tag k="addr:city" v="Thetford"/>
    <tag k="addr:housenumber" v="722"/>
    <tag k="addr:street" v="Tucker Hill Road"/>
    <tag k="addr:state" v="VT"/>
    <tag k="ref:vcgi:esiteid" v="259122"/>
  </node>
  <node id="-742" visible="true" lat="43.82889688" lon="-72.24582283">
    <tag k="addr:city" v="Thetford"/>
    <tag k="addr:housenumber" v="3720"/>
    <tag k="addr:street" v="Vermont Route 113"/>
    <tag k="addr:state" v="VT"/>
    <tag k="ref:vcgi:esiteid" v="259131"/>
  </node>
  <node id="-752" visible="true" lat="43.82794834" lon="-72.24409238">
    <tag k="addr:city" v="Thetford"/>
    <tag k="addr:housenumber" v="3524"/>
    <tag k="addr:street" v="Vermont Route 113"/>
    <tag k="addr:state" v="VT"/>
    <tag k="ref:vcgi:esiteid" v="259141"/>
  </node>
  <node id="-754" visible="true" lat="43.82763043" lon="-72.24322246">
    <tag k="addr:city" v="Thetford"/>
    <tag k="addr:housenumber" v="3522"/>
    <tag k="addr:street" v="Vermont Route 113"/>
    <tag k="addr:state" v="VT"/>
    <tag k="ref:vcgi:esiteid" v="259143"/>
  </node>
  <node id="-780" visible="true" lat="43.82592533" lon="-72.2834132">
    <tag k="addr:city" v="Thetford"/>
    <tag k="addr:housenumber" v="194"/>
    <tag k="addr:street" v="Bathsheba Drive"/>
    <tag k="addr:state" v="VT"/>
    <tag k="ref:vcgi:esiteid" v="259169"/>
  </node>
  <node id="-809" visible="true" lat="43.82509172" lon="-72.2812503">
    <tag k="addr:city" v="Thetford"/>
    <tag k="addr:housenumber" v="2086"/>
    <tag k="addr:street" v="Tucker Hill Road"/>
    <tag k="addr:state" v="VT"/>
    <tag k="ref:vcgi:esiteid" v="259199"/>
  </node>
  <node id="-822" visible="true" lat="43.82106305" lon="-72.2065856">
    <tag k="addr:city" v="Thetford"/>
    <tag k="addr:housenumber" v="843"/>
    <tag k="addr:street" v="Sanborn Road"/>
    <tag k="addr:state" v="VT"/>
    <tag k="ref:vcgi:esiteid" v="259212"/>
  </node>
  <node id="-825" visible="true" lat="43.82135815" lon="-72.20815772">
    <tag k="addr:city" v="Thetford"/>
    <tag k="addr:housenumber" v="38"/>
    <tag k="addr:street" v="Odonnell Drive"/>
    <tag k="addr:state" v="VT"/>
    <tag k="ref:vcgi:esiteid" v="259215"/>
  </node>
  <node id="-847" visible="true" lat="43.82008611" lon="-72.22622653">
    <tag k="addr:city" v="Thetford"/>
    <tag k="addr:housenumber" v="2448"/>
    <tag k="addr:street" v="Vermont Route 113"/>
    <tag k="addr:state" v="VT"/>
    <tag k="ref:vcgi:esiteid" v="259237"/>
  </node>
  <node id="-856" visible="true" lat="43.81954574" lon="-72.2314682">
    <tag k="addr:city" v="Thetford"/>
    <tag k="addr:housenumber" v="2687"/>
    <tag k="addr:street" v="Vermont Route 113"/>
    <tag k="addr:state" v="VT"/>
    <tag k="ref:vcgi:esiteid" v="259247"/>
  </node>
  <node id="-871" visible="true" lat="43.81892013" lon="-72.27342224">
    <tag k="addr:city" v="Thetford"/>
    <tag k="addr:housenumber" v="1637"/>
    <tag k="addr:street" v="Tucker Hill Road"/>
    <tag k="addr:state" v="VT"/>
    <tag k="ref:vcgi:esiteid" v="259263"/>
  </node>
  <node id="-913" visible="true" lat="43.8173027" lon="-72.32027435">
    <tag k="addr:city" v="Thetford"/>
    <tag k="addr:housenumber" v="2263"/>
    <tag k="addr:street" v="Gove Hill Road"/>
    <tag k="addr:state" v="VT"/>
    <tag k="ref:vcgi:esiteid" v="259305"/>
  </node>
  <node id="-940" visible="true" lat="43.8155561" lon="-72.23029996">
    <tag k="addr:city" v="Thetford"/>
    <tag k="addr:housenumber" v="250"/>
    <tag k="addr:street" v="Academy Road"/>
    <tag k="addr:state" v="VT"/>
    <tag k="ref:vcgi:esiteid" v="259333"/>
  </node>
  <node id="-983" visible="true" lat="43.81311035" lon="-72.19033813">
    <tag k="addr:city" v="Thetford"/>
    <tag k="addr:housenumber" v="3111"/>
    <tag k="addr:street" v="U.S. Route 5"/>
    <tag k="addr:state" v="VT"/>
    <tag k="ref:vcgi:esiteid" v="259381"/>
  </node>
  <node id="-984" visible="true" lat="43.8134512" lon="-72.18908565">
    <tag k="addr:city" v="Thetford"/>
    <tag k="addr:housenumber" v="3088"/>
    <tag k="addr:street" v="U.S. Route 5"/>
    <tag k="addr:state" v="VT"/>
    <tag k="ref:vcgi:esiteid" v="259382"/>
  </node>
  <node id="-1018" visible="true" lat="43.81188517" lon="-72.18680035">
    <tag k="addr:city" v="Thetford"/>
    <tag k="addr:housenumber" v="138"/>
    <tag k="addr:street" v="Vermont Route 113"/>
    <tag k="addr:state" v="VT"/>
    <tag k="ref:vcgi:esiteid" v="259418"/>
  </node>
  <node id="-1022" visible="true" lat="43.81174779" lon="-72.18731528">
    <tag k="addr:city" v="Thetford"/>
    <tag k="addr:housenumber" v="172"/>
    <tag k="addr:street" v="Vermont Route 113"/>
    <tag k="addr:state" v="VT"/>
    <tag k="ref:vcgi:esiteid" v="259422"/>
  </node>
  <node id="-1033" visible="true" lat="43.81132165" lon="-72.18845309">
    <tag k="addr:city" v="Thetford"/>
    <tag k="addr:housenumber" v="217"/>
    <tag k="addr:street" v="Vermont Route 113"/>
    <tag k="addr:state" v="VT"/>
    <tag k="ref:vcgi:esiteid" v="259433"/>
  </node>
  <node id="-1037" visible="true" lat="43.81277546" lon="-72.23537487">
    <tag k="addr:city" v="Thetford"/>
    <tag k="addr:housenumber" v="622"/>
    <tag k="addr:street" v="Academy Road"/>
    <tag k="addr:state" v="VT"/>
    <tag k="ref:vcgi:esiteid" v="259437"/>
  </node>
  <node id="-1040" visible="true" lat="43.81094505" lon="-72.18867434">
    <tag k="addr:city" v="Thetford"/>
    <tag k="addr:housenumber" v="2942"/>
    <tag k="addr:street" v="U.S. Route 5"/>
    <tag k="addr:state" v="VT"/>
    <tag k="ref:vcgi:esiteid" v="259440"/>
  </node>
  <node id="-1085" visible="true" lat="43.80709457" lon="-72.23625946">
    <tag k="addr:city" v="Thetford"/>
    <tag k="addr:housenumber" v="946"/>
    <tag k="addr:street" v="Academy Road"/>
    <tag k="addr:state" v="VT"/>
    <tag k="ref:vcgi:esiteid" v="259486"/>
  </node>
  <node id="-1107" visible="true" lat="43.80395507" lon="-72.27526855">
    <tag k="addr:city" v="Thetford"/>
    <tag k="addr:housenumber" v="93"/>
    <tag k="addr:street" v="Cream Street"/>
    <tag k="addr:state" v="VT"/>
    <tag k="ref:vcgi:esiteid" v="259508"/>
  </node>
  <node id="-1131" visible="true" lat="43.80156364" lon="-72.26680728">
    <tag k="addr:city" v="Thetford"/>
    <tag k="addr:housenumber" v="88"/>
    <tag k="addr:street" v="Lower Cream Street"/>
    <tag k="addr:state" v="VT"/>
    <tag k="ref:vcgi:esiteid" v="259532"/>
  </node>
  <node id="-1135" visible="true" lat="43.80074484" lon="-72.26665928">
    <tag k="addr:city" v="Thetford"/>
    <tag k="addr:housenumber" v="67"/>
    <tag k="addr:street" v="Lower Cream Street"/>
    <tag k="addr:state" v="VT"/>
    <tag k="ref:vcgi:esiteid" v="259536"/>
  </node>
  <node id="-1183" visible="true" lat="43.79517698" lon="-72.22445675">
    <tag k="addr:city" v="Thetford"/>
    <tag k="addr:housenumber" v="1445"/>
    <tag k="addr:street" v="Godfrey Road"/>
    <tag k="addr:state" v="VT"/>
    <tag k="ref:vcgi:esiteid" v="259584"/>
  </node>
  <node id="-1223" visible="true" lat="43.79270146" lon="-72.25077424">
    <tag k="addr:city" v="Thetford"/>
    <tag k="addr:housenumber" v="2322"/>
    <tag k="addr:street" v="Academy Road"/>
    <tag k="addr:state" v="VT"/>
    <tag k="ref:vcgi:esiteid" v="259624"/>
  </node>
  <node id="-1254" visible="true" lat="43.78872554" lon="-72.25309286">
    <tag k="addr:city" v="Thetford"/>
    <tag k="addr:housenumber" v="2651"/>
    <tag k="addr:street" v="Academy Road"/>
    <tag k="addr:state" v="VT"/>
    <tag k="ref:vcgi:esiteid" v="259656"/>
  </node>
  <node id="-1265" visible="true" lat="43.78746172" lon="-72.25473202">
    <tag k="addr:city" v="Thetford"/>
    <tag k="addr:housenumber" v="165"/>
    <tag k="addr:street" v="Main Street"/>
    <tag k="addr:state" v="VT"/>
    <tag k="ref:vcgi:esiteid" v="259667"/>
  </node>
  <node id="-1284" visible="true" lat="43.78467945" lon="-72.23198344">
    <tag k="addr:city" v="Thetford"/>
    <tag k="addr:housenumber" v="2274"/>
    <tag k="addr:street" v="Godfrey Road"/>
    <tag k="addr:state" v="VT"/>
    <tag k="ref:vcgi:esiteid" v="259686"/>
  </node>
  <node id="-1289" visible="true" lat="43.78244683" lon="-72.20834103">
    <tag k="addr:city" v="Thetford"/>
    <tag k="addr:housenumber" v="98"/>
    <tag k="addr:street" v="Rabbit Road"/>
    <tag k="addr:state" v="VT"/>
    <tag k="ref:vcgi:esiteid" v="259691"/>
  </node>
  <node id="-1301" visible="true" lat="43.77623968" lon="-72.20885452">
    <tag k="addr:city" v="Thetford"/>
    <tag k="addr:housenumber" v="1397"/>
    <tag k="addr:street" v="Stevens Road"/>
    <tag k="addr:state" v="VT"/>
    <tag k="ref:vcgi:esiteid" v="259704"/>
  </node>
  <node id="-1302" visible="true" lat="43.77452838" lon="-72.20830305">
    <tag k="addr:city" v="Thetford"/>
    <tag k="addr:housenumber" v="1509"/>
    <tag k="addr:street" v="Stevens Road"/>
    <tag k="addr:state" v="VT"/>
    <tag k="ref:vcgi:esiteid" v="259705"/>
  </node>
  <node id="-1307" visible="true" lat="43.88284467" lon="-72.24396457">
    <tag k="addr:city" v="Thetford"/>
    <tag k="addr:housenumber" v="448"/>
    <tag k="addr:street" v="Norway Lane"/>
    <tag k="addr:state" v="VT"/>
    <tag k="ref:vcgi:esiteid" v="259710"/>
  </node>
  <node id="-1309" visible="true" lat="43.88249211" lon="-72.24442393">
    <tag k="addr:city" v="Thetford"/>
    <tag k="addr:housenumber" v="530"/>
    <tag k="addr:street" v="Robinson Hill Road"/>
    <tag k="addr:state" v="VT"/>
    <tag k="ref:vcgi:esiteid" v="259712"/>
  </node>
  <node id="-1315" visible="true" lat="43.87200546" lon="-72.22093963">
    <tag k="addr:city" v="Thetford"/>
    <tag k="addr:housenumber" v="412"/>
    <tag k="addr:street" v="Potato Hill Road North"/>
    <tag k="addr:state" v="VT"/>
    <tag k="ref:vcgi:esiteid" v="259719"/>
  </node>
  <node id="-1323" visible="true" lat="43.82057609" lon="-72.27093823">
    <tag k="addr:city" v="Thetford"/>
    <tag k="addr:housenumber" v="1441"/>
    <tag k="addr:street" v="Tucker Hill Road"/>
    <tag k="addr:state" v="VT"/>
    <tag k="ref:vcgi:esiteid" v="259727"/>
  </node>
  <node id="-1325" visible="true" lat="43.82989451" lon="-72.2395297">
    <tag k="addr:city" v="Thetford"/>
    <tag k="addr:housenumber" v="247"/>
    <tag k="addr:street" v="Camp Farnsworth Road"/>
    <tag k="addr:state" v="VT"/>
    <tag k="ref:vcgi:esiteid" v="259729"/>
  </node>
  <node id="-1328" visible="true" lat="43.8289566" lon="-72.23851013">
    <tag k="addr:city" v="Thetford"/>
    <tag k="addr:housenumber" v="245"/>
    <tag k="addr:street" v="Camp Farnsworth Road"/>
    <tag k="addr:state" v="VT"/>
    <tag k="ref:vcgi:esiteid" v="259733"/>
  </node>
  <node id="-1329" visible="true" lat="43.82914067" lon="-72.24069453">
    <tag k="addr:city" v="Thetford"/>
    <tag k="addr:housenumber" v="195"/>
    <tag k="addr:street" v="Camp Farnsworth Road"/>
    <tag k="addr:state" v="VT"/>
    <tag k="ref:vcgi:esiteid" v="259734"/>
  </node>
  <node id="-1331" visible="true" lat="43.8347435" lon="-72.23268127">
    <tag k="addr:city" v="Thetford"/>
    <tag k="addr:housenumber" v="723"/>
    <tag k="addr:street" v="Mud Pond Road"/>
    <tag k="addr:state" v="VT"/>
    <tag k="ref:vcgi:esiteid" v="259736"/>
  </node>
  <node id="-1338" visible="true" lat="43.7874149" lon="-72.25791578">
    <tag k="addr:city" v="Thetford"/>
    <tag k="addr:housenumber" v="2"/>
    <tag k="addr:street" v="Route 132"/>
    <tag k="addr:state" v="VT"/>
    <tag k="ref:vcgi:esiteid" v="259743"/>
  </node>
  <node id="-1349" visible="true" lat="43.8806076" lon="-72.21543121">
    <tag k="addr:city" v="Thetford"/>
    <tag k="addr:housenumber" v="153"/>
    <tag k="addr:street" v="Denison Lane"/>
    <tag k="addr:state" v="VT"/>
    <tag k="ref:vcgi:esiteid" v="259755"/>
  </node>
  <node id="-1360" visible="true" lat="43.85779679" lon="-72.28258574">
    <tag k="addr:city" v="Thetford"/>
    <tag k="addr:housenumber" v="397"/>
    <tag k="addr:street" v="Pero Hill Road"/>
    <tag k="addr:state" v="VT"/>
    <tag k="ref:vcgi:esiteid" v="259766"/>
  </node>
  <node id="-1364" visible="true" lat="43.80486716" lon="-72.27077724">
    <tag k="addr:city" v="Thetford"/>
    <tag k="addr:housenumber" v="647"/>
    <tag k="addr:street" v="Route 132"/>
    <tag k="addr:state" v="VT"/>
    <tag k="ref:vcgi:esiteid" v="259770"/>
  </node>
  <node id="-1374" visible="true" lat="43.85268306" lon="-72.2634442">
    <tag k="addr:city" v="Thetford"/>
    <tag k="addr:housenumber" v="569"/>
    <tag k="addr:street" v="Sawnee Bean Road"/>
    <tag k="addr:state" v="VT"/>
    <tag k="ref:vcgi:esiteid" v="259780"/>
  </node>
  <node id="-1384" visible="true" lat="43.80940757" lon="-72.27315125">
    <tag k="addr:city" v="Thetford"/>
    <tag k="addr:housenumber" v="1021"/>
    <tag k="addr:street" v="Route 132"/>
    <tag k="addr:state" v="VT"/>
    <tag k="ref:vcgi:esiteid" v="259790"/>
  </node>
  <node id="-1386" visible="true" lat="43.82122141" lon="-72.21318529">
    <tag k="addr:city" v="Thetford"/>
    <tag k="addr:housenumber" v="610"/>
    <tag k="addr:street" v="Garey Road"/>
    <tag k="addr:state" v="VT"/>
    <tag k="ref:vcgi:esiteid" v="259793"/>
  </node>
  <node id="-1391" visible="true" lat="43.81593264" lon="-72.21028451">
    <tag k="addr:city" v="Thetford"/>
    <tag k="addr:housenumber" v="300"/>
    <tag k="addr:street" v="Rest N Nest Drive North"/>
    <tag k="addr:state" v="VT"/>
    <tag k="ref:vcgi:esiteid" v="259798"/>
  </node>
  <node id="-1393" visible="true" lat="43.78859906" lon="-72.25447905">
    <tag k="addr:city" v="Thetford"/>
    <tag k="addr:housenumber" v="81"/>
    <tag k="addr:street" v="Main Street"/>
    <tag k="addr:state" v="VT"/>
    <tag k="ref:vcgi:esiteid" v="259800"/>
  </node>
  <node id="-1395" visible="true" lat="43.83782891" lon="-72.24559828">
    <tag k="addr:city" v="Thetford"/>
    <tag k="addr:housenumber" v="4376"/>
    <tag k="addr:street" v="Vermont Route 113"/>
    <tag k="addr:state" v="VT"/>
    <tag k="ref:vcgi:esiteid" v="259802"/>
  </node>
  <node id="-1396" visible="true" lat="43.83362712" lon="-72.31811022">
    <tag k="addr:city" v="Thetford"/>
    <tag k="addr:housenumber" v="4322"/>
    <tag k="addr:street" v="Route 132"/>
    <tag k="addr:state" v="VT"/>
    <tag k="ref:vcgi:esiteid" v="259803"/>
  </node>
  <node id="-1403" visible="true" lat="43.8289173" lon="-72.2240312">
    <tag k="addr:city" v="Thetford"/>
    <tag k="addr:housenumber" v="744"/>
    <tag k="addr:street" v="Houghton Hill Road"/>
    <tag k="addr:state" v="VT"/>
    <tag k="ref:vcgi:esiteid" v="259811"/>
  </node>
  <node id="-1404" visible="true" lat="43.82812805" lon="-72.22470711">
    <tag k="addr:city" v="Thetford"/>
    <tag k="addr:housenumber" v="726"/>
    <tag k="addr:street" v="Houghton Hill Road"/>
    <tag k="addr:state" v="VT"/>
    <tag k="ref:vcgi:esiteid" v="259812"/>
  </node>
  <node id="-1412" visible="true" lat="43.80565162" lon="-72.268059">
    <tag k="addr:city" v="Thetford"/>
    <tag k="addr:housenumber" v="638"/>
    <tag k="addr:street" v="Route 132"/>
    <tag k="addr:state" v="VT"/>
    <tag k="ref:vcgi:esiteid" v="259822"/>
  </node>
  <node id="-1417" visible="true" lat="43.81002353" lon="-72.20494036">
    <tag k="addr:city" v="Thetford"/>
    <tag k="addr:housenumber" v="423"/>
    <tag k="addr:street" v="Asa Burton Road"/>
    <tag k="addr:state" v="VT"/>
    <tag k="ref:vcgi:esiteid" v="259827"/>
  </node>
  <node id="-1426" visible="true" lat="43.85853277" lon="-72.25813267">
    <tag k="addr:city" v="Thetford"/>
    <tag k="addr:housenumber" v="5980"/>
    <tag k="addr:street" v="Vermont Route 113"/>
    <tag k="addr:state" v="VT"/>
    <tag k="ref:vcgi:esiteid" v="259840"/>
  </node>
  <node id="-1444" visible="true" lat="43.84428414" lon="-72.31262324">
    <tag k="addr:city" v="Thetford"/>
    <tag k="addr:housenumber" v="710"/>
    <tag k="addr:street" v="Miller Pond Road"/>
    <tag k="addr:state" v="VT"/>
    <tag k="ref:vcgi:esiteid" v="259858"/>
  </node>
  <node id="-1445" visible="true" lat="43.851521" lon="-72.26402088">
    <tag k="addr:city" v="Thetford"/>
    <tag k="addr:housenumber" v="567"/>
    <tag k="addr:street" v="Sawnee Bean Road"/>
    <tag k="addr:state" v="VT"/>
    <tag k="ref:vcgi:esiteid" v="259859"/>
  </node>
  <node id="-1480" visible="true" lat="43.86319713" lon="-72.27589703">
    <tag k="addr:city" v="Thetford"/>
    <tag k="addr:housenumber" v="1605"/>
    <tag k="addr:street" v="Sawnee Bean Road"/>
    <tag k="addr:state" v="VT"/>
    <tag k="ref:vcgi:esiteid" v="259894"/>
  </node>
  <node id="-1525" visible="true" lat="43.88182282" lon="-72.23761659">
    <tag k="addr:city" v="Thetford"/>
    <tag k="addr:housenumber" v="116"/>
    <tag k="addr:street" v="Birch Point Lane"/>
    <tag k="addr:state" v="VT"/>
    <tag k="ref:vcgi:esiteid" v="327303"/>
  </node>
  <node id="-1528" visible="true" lat="43.84189443" lon="-72.18766445">
    <tag k="addr:city" v="Thetford"/>
    <tag k="addr:housenumber" v="5148"/>
    <tag k="addr:street" v="U.S. Route 5"/>
    <tag k="addr:state" v="VT"/>
    <tag k="ref:vcgi:esiteid" v="329174"/>
  </node>
  <node id="-1535" visible="true" lat="43.79472916" lon="-72.22548358">
    <tag k="addr:city" v="Thetford"/>
    <tag k="addr:housenumber" v="4"/>
    <tag k="addr:street" v="Burnham Road"/>
    <tag k="addr:state" v="VT"/>
    <tag k="ref:vcgi:esiteid" v="336089"/>
  </node>
  <node id="-1539" visible="true" lat="43.82698201" lon="-72.25506464">
    <tag k="addr:city" v="Thetford"/>
    <tag k="addr:housenumber" v="489"/>
    <tag k="addr:street" v="Tucker Hill Road"/>
    <tag k="addr:state" v="VT"/>
    <tag k="ref:vcgi:esiteid" v="337917"/>
  </node>
  <node id="-1540" visible="true" lat="43.83058229" lon="-72.27091191">
    <tag k="addr:city" v="Thetford"/>
    <tag k="addr:housenumber" v="565A"/>
    <tag k="addr:street" v="Poor Farm Road South"/>
    <tag k="addr:state" v="VT"/>
    <tag k="ref:vcgi:esiteid" v="337918"/>
  </node>
  <node id="-1557" visible="true" lat="43.81039763" lon="-72.23508465">
    <tag k="addr:city" v="Thetford"/>
    <tag k="addr:housenumber" v="622"/>
    <tag k="addr:street" v="Academy Road"/>
    <tag k="addr:state" v="VT"/>
    <tag k="ref:vcgi:esiteid" v="445366"/>
  </node>
  <node id="-1560" visible="true" lat="43.89389813" lon="-72.25836149">
    <tag k="addr:city" v="Thetford"/>
    <tag k="addr:housenumber" v="8516"/>
    <tag k="addr:street" v="Vermont Route 113"/>
    <tag k="addr:state" v="VT"/>
    <tag k="ref:vcgi:esiteid" v="448563"/>
  </node>
  <node id="-1561" visible="true" lat="43.88637389" lon="-72.26055467">
    <tag k="addr:city" v="Thetford"/>
    <tag k="addr:housenumber" v="7983"/>
    <tag k="addr:street" v="Vermont Route 113"/>
    <tag k="addr:state" v="VT"/>
    <tag k="ref:vcgi:esiteid" v="448568"/>
  </node>
  <node id="-1562" visible="true" lat="43.87863845" lon="-72.26133472">
    <tag k="addr:city" v="Thetford"/>
    <tag k="addr:housenumber" v="7398"/>
    <tag k="addr:street" v="Vermont Route 113"/>
    <tag k="addr:state" v="VT"/>
    <tag k="ref:vcgi:esiteid" v="448570"/>
  </node>
  <node id="-1563" visible="true" lat="43.87100254" lon="-72.26111103">
    <tag k="addr:city" v="Thetford"/>
    <tag k="addr:housenumber" v="6845"/>
    <tag k="addr:street" v="Vermont Route 113"/>
    <tag k="addr:state" v="VT"/>
    <tag k="ref:vcgi:esiteid" v="448576"/>
  </node>
  <node id="-1564" visible="true" lat="43.86042937" lon="-72.25968538">
    <tag k="addr:city" v="Thetford"/>
    <tag k="addr:housenumber" v="6136"/>
    <tag k="addr:street" v="Vermont Route 113"/>
    <tag k="addr:state" v="VT"/>
    <tag k="ref:vcgi:esiteid" v="448577"/>
  </node>
  <node id="-1565" visible="true" lat="43.85150183" lon="-72.2571962">
    <tag k="addr:city" v="Thetford"/>
    <tag k="addr:housenumber" v="5466"/>
    <tag k="addr:street" v="Vermont Route 113"/>
    <tag k="addr:state" v="VT"/>
    <tag k="ref:vcgi:esiteid" v="448578"/>
  </node>
  <node id="-1566" visible="true" lat="43.84222335" lon="-72.24802859">
    <tag k="addr:city" v="Thetford"/>
    <tag k="addr:housenumber" v="4705"/>
    <tag k="addr:street" v="Vermont Route 113"/>
    <tag k="addr:state" v="VT"/>
    <tag k="ref:vcgi:esiteid" v="448590"/>
  </node>
  <node id="-1567" visible="true" lat="43.83205005" lon="-72.24762695">
    <tag k="addr:city" v="Thetford"/>
    <tag k="addr:housenumber" v="3955"/>
    <tag k="addr:street" v="Vermont Route 113"/>
    <tag k="addr:state" v="VT"/>
    <tag k="ref:vcgi:esiteid" v="448591"/>
  </node>
  <node id="-1568" visible="true" lat="43.82895116" lon="-72.23885876">
    <tag k="addr:city" v="Thetford"/>
    <tag k="addr:housenumber" v="243"/>
    <tag k="addr:street" v="Camp Farnsworth Road"/>
    <tag k="addr:state" v="VT"/>
    <tag k="ref:vcgi:esiteid" v="448592"/>
  </node>
  <node id="-1569" visible="true" lat="43.82334778" lon="-72.23478422">
    <tag k="addr:city" v="Thetford"/>
    <tag k="addr:housenumber" v="2987"/>
    <tag k="addr:street" v="Vermont Route 113"/>
    <tag k="addr:state" v="VT"/>
    <tag k="ref:vcgi:esiteid" v="448593"/>
  </node>
  <node id="-1570" visible="true" lat="43.81865306" lon="-72.22691635">
    <tag k="addr:city" v="Thetford"/>
    <tag k="addr:housenumber" v="2455"/>
    <tag k="addr:street" v="Vermont Route 113"/>
    <tag k="addr:state" v="VT"/>
    <tag k="ref:vcgi:esiteid" v="448602"/>
  </node>
  <node id="-1581" visible="true" lat="43.83337485" lon="-72.32032254">
    <tag k="addr:city" v="Thetford"/>
    <tag k="addr:housenumber" v="4400"/>
    <tag k="addr:street" v="Route 132"/>
    <tag k="addr:state" v="VT"/>
    <tag k="ref:vcgi:esiteid" v="452373"/>
  </node>
  <node id="-1582" visible="true" lat="43.83338719" lon="-72.31091734">
    <tag k="addr:city" v="Thetford"/>
    <tag k="addr:housenumber" v="3900"/>
    <tag k="addr:street" v="Route 132"/>
    <tag k="addr:state" v="VT"/>
    <tag k="ref:vcgi:esiteid" v="452374"/>
  </node>
  <node id="-1583" visible="true" lat="43.83286487" lon="-72.3004554">
    <tag k="addr:city" v="Thetford"/>
    <tag k="addr:housenumber" v="3353"/>
    <tag k="addr:street" v="Route 132"/>
    <tag k="addr:state" v="VT"/>
    <tag k="ref:vcgi:esiteid" v="452375"/>
  </node>
  <node id="-1584" visible="true" lat="43.82828803" lon="-72.28791382">
    <tag k="addr:city" v="Thetford"/>
    <tag k="addr:housenumber" v="2626"/>
    <tag k="addr:street" v="Route 132"/>
    <tag k="addr:state" v="VT"/>
    <tag k="ref:vcgi:esiteid" v="452376"/>
  </node>
  <node id="-1585" visible="true" lat="43.8205532" lon="-72.28258872">
    <tag k="addr:city" v="Thetford"/>
    <tag k="addr:housenumber" v="1995"/>
    <tag k="addr:street" v="Route 132"/>
    <tag k="addr:state" v="VT"/>
    <tag k="ref:vcgi:esiteid" v="452377"/>
  </node>
  <node id="-1586" visible="true" lat="43.81185935" lon="-72.27358646">
    <tag k="addr:city" v="Thetford"/>
    <tag k="addr:housenumber" v="1230"/>
    <tag k="addr:street" v="Route 132"/>
    <tag k="addr:state" v="VT"/>
    <tag k="ref:vcgi:esiteid" v="452378"/>
  </node>
  <node id="-1587" visible="true" lat="43.82320238" lon="-72.2691479">
    <tag k="addr:city" v="Thetford"/>
    <tag k="addr:housenumber" v="1337"/>
    <tag k="addr:street" v="Tucker Hill Road"/>
    <tag k="addr:state" v="VT"/>
    <tag k="ref:vcgi:esiteid" v="452379"/>
  </node>
  <node id="-1588" visible="true" lat="43.82680013" lon="-72.26280357">
    <tag k="addr:city" v="Thetford"/>
    <tag k="addr:housenumber" v="921"/>
    <tag k="addr:street" v="Tucker Hill Road"/>
    <tag k="addr:state" v="VT"/>
    <tag k="ref:vcgi:esiteid" v="452380"/>
  </node>
  <node id="-1589" visible="true" lat="43.88833371" lon="-72.23229163">
    <tag k="addr:city" v="Thetford"/>
    <tag k="addr:housenumber" v="1460"/>
    <tag k="addr:street" v="Vermont Route 244"/>
    <tag k="addr:state" v="VT"/>
    <tag k="ref:vcgi:esiteid" v="452534"/>
  </node>
  <node id="-1590" visible="true" lat="43.88835505" lon="-72.23155435">
    <tag k="addr:city" v="Thetford"/>
    <tag k="addr:housenumber" v="1462"/>
    <tag k="addr:street" v="Vermont Route 244"/>
    <tag k="addr:state" v="VT"/>
    <tag k="ref:vcgi:esiteid" v="452535"/>
  </node>
  <node id="-1595" visible="true" lat="43.88794385" lon="-72.232106">
    <tag k="addr:city" v="Thetford"/>
    <tag k="addr:housenumber" v="1456"/>
    <tag k="addr:street" v="Vermont Route 244"/>
    <tag k="addr:state" v="VT"/>
    <tag k="ref:vcgi:esiteid" v="452540"/>
  </node>
  <node id="-1597" visible="true" lat="43.81024548" lon="-72.19221096">
    <tag k="addr:city" v="Thetford"/>
    <tag k="addr:housenumber" v="141"/>
    <tag k="addr:street" v="High Ridge Lane"/>
    <tag k="addr:state" v="VT"/>
    <tag k="ref:vcgi:esiteid" v="453034"/>
  </node>
  <node id="-1600" visible="true" lat="43.88712279" lon="-72.25133541">
    <tag k="addr:city" v="Thetford"/>
    <tag k="addr:housenumber" v="484"/>
    <tag k="addr:street" v="Vermont Route 244"/>
    <tag k="addr:state" v="VT"/>
    <tag k="ref:vcgi:esiteid" v="454625"/>
  </node>
  <node id="-1608" visible="true" lat="43.87912442" lon="-72.22289427">
    <tag k="addr:city" v="Thetford"/>
    <tag k="addr:housenumber" v="587"/>
    <tag k="addr:street" v="Quinibeck Road"/>
    <tag k="addr:state" v="VT"/>
    <tag k="ref:vcgi:esiteid" v="610548"/>
  </node>
  <node id="-1609" visible="true" lat="43.88768668" lon="-72.25060147">
    <tag k="addr:city" v="Thetford"/>
    <tag k="addr:housenumber" v="473"/>
    <tag k="addr:street" v="Vermont Route 244"/>
    <tag k="addr:state" v="VT"/>
    <tag k="ref:vcgi:esiteid" v="610963"/>
  </node>
  <node id="-1610" visible="true" lat="43.81924375" lon="-72.21403215">
    <tag k="addr:city" v="Thetford"/>
    <tag k="addr:housenumber" v="470"/>
    <tag k="addr:street" v="Garey Road"/>
    <tag k="addr:state" v="VT"/>
    <tag k="ref:vcgi:esiteid" v="611068"/>
  </node>
  <node id="-1615" visible="true" lat="43.85550485" lon="-72.25883253">
    <tag k="addr:city" v="Thetford"/>
    <tag k="addr:housenumber" v="5792"/>
    <tag k="addr:street" v="Vermont Route 113"/>
    <tag k="addr:state" v="VT"/>
    <tag k="ref:vcgi:esiteid" v="612263"/>
  </node>
  <node id="-1623" visible="true" lat="43.87378279" lon="-72.28747639">
    <tag k="addr:city" v="Thetford"/>
    <tag k="addr:housenumber" v="141"/>
    <tag k="addr:street" v="Colby Road North"/>
    <tag k="addr:state" v="VT"/>
    <tag k="ref:vcgi:esiteid" v="613110"/>
  </node>
  <node id="-1624" visible="true" lat="43.80970588" lon="-72.18902173">
    <tag k="addr:city" v="Thetford"/>
    <tag k="addr:housenumber" v="2859"/>
    <tag k="addr:street" v="U.S. Route 5"/>
    <tag k="addr:state" v="VT"/>
    <tag k="ref:vcgi:esiteid" v="617343"/>
  </node>
  <node id="-1625" visible="true" lat="43.82128949" lon="-72.3074875">
    <tag k="addr:city" v="Thetford"/>
    <tag k="addr:housenumber" v="1536"/>
    <tag k="addr:street" v="Gove Hill Road"/>
    <tag k="addr:state" v="VT"/>
    <tag k="ref:vcgi:esiteid" v="617364"/>
  </node>
  <node id="-1627" visible="true" lat="43.83213136" lon="-72.25283177">
    <tag k="addr:city" v="Thetford"/>
    <tag k="addr:housenumber" v="270"/>
    <tag k="addr:street" v="Tucker Hill Road"/>
    <tag k="addr:state" v="VT"/>
    <tag k="ref:vcgi:esiteid" v="618451"/>
  </node>
  <node id="-1630" visible="true" lat="43.77756743" lon="-72.20956506">
    <tag k="addr:city" v="Thetford"/>
    <tag k="addr:housenumber" v="1315"/>
    <tag k="addr:street" v="Stevens Road"/>
    <tag k="addr:state" v="VT"/>
    <tag k="ref:vcgi:esiteid" v="620712"/>
  </node>
  <node id="-1634" visible="true" lat="43.81621676" lon="-72.2346301">
    <tag k="addr:city" v="Thetford"/>
    <tag k="addr:housenumber" v="163"/>
    <tag k="addr:street" v="Panther Way"/>
    <tag k="addr:state" v="VT"/>
    <tag k="ref:vcgi:esiteid" v="750802"/>
  </node>
  <node id="-1635" visible="true" lat="43.81504095" lon="-72.23335107">
    <tag k="addr:city" v="Thetford"/>
    <tag k="addr:housenumber" v="159"/>
    <tag k="addr:street" v="Panther Way"/>
    <tag k="addr:state" v="VT"/>
    <tag k="ref:vcgi:esiteid" v="750803"/>
  </node>
  <node id="-1636" visible="true" lat="43.81456547" lon="-72.23165622">
    <tag k="addr:city" v="Thetford"/>
    <tag k="addr:housenumber" v="160"/>
    <tag k="addr:street" v="Panther Way"/>
    <tag k="addr:state" v="VT"/>
    <tag k="ref:vcgi:esiteid" v="750804"/>
  </node>
  <node id="-1637" visible="true" lat="43.81610264" lon="-72.23266721">
    <tag k="addr:city" v="Thetford"/>
    <tag k="addr:housenumber" v="201"/>
    <tag k="addr:street" v="Panther Way"/>
    <tag k="addr:state" v="VT"/>
    <tag k="ref:vcgi:esiteid" v="750806"/>
  </node>
  <node id="-1643" visible="true" lat="43.88431679" lon="-72.2457191">
    <tag k="addr:city" v="Thetford"/>
    <tag k="addr:housenumber" v="418"/>
    <tag k="addr:street" v="Robinson Hill Road"/>
    <tag k="addr:state" v="VT"/>
    <tag k="ref:vcgi:esiteid" v="751423"/>
  </node>
  <node id="-1644" visible="true" lat="43.8112011" lon="-72.18797932">
    <tag k="addr:city" v="Thetford"/>
    <tag k="addr:housenumber" v="215"/>
    <tag k="addr:street" v="Vermont Route 113"/>
    <tag k="addr:state" v="VT"/>
    <tag k="ref:vcgi:esiteid" v="752047"/>
  </node>
  <node id="-1646" visible="true" lat="43.88513422" lon="-72.21975061">
    <tag k="addr:city" v="Thetford"/>
    <tag k="addr:housenumber" v="262"/>
    <tag k="addr:street" v="Bragg Road"/>
    <tag k="addr:state" v="VT"/>
    <tag k="ref:vcgi:esiteid" v="753496"/>
  </node>
  <node id="-1647" visible="true" lat="43.84097955" lon="-72.20432166">
    <tag k="addr:city" v="Thetford"/>
    <tag k="addr:housenumber" v="428"/>
    <tag k="addr:street" v="Turnpike Road South"/>
    <tag k="addr:state" v="VT"/>
    <tag k="ref:vcgi:esiteid" v="753677"/>
  </node>
  <node id="-1649" visible="true" lat="43.84399036" lon="-72.25005098">
    <tag k="addr:city" v="Thetford"/>
    <tag k="addr:housenumber" v="4863"/>
    <tag k="addr:street" v="Vermont Route 113"/>
    <tag k="addr:state" v="VT"/>
    <tag k="ref:vcgi:esiteid" v="754191"/>
  </node>
  <node id="-1653" visible="true" lat="43.82826385" lon="-72.23709157">
    <tag k="addr:city" v="Thetford"/>
    <tag k="addr:housenumber" v="341"/>
    <tag k="addr:street" v="Camp Farnsworth Road"/>
    <tag k="addr:state" v="VT"/>
    <tag k="ref:vcgi:esiteid" v="755832"/>
  </node>
  <node id="-1656" visible="true" lat="43.83140323" lon="-72.2366293">
    <tag k="addr:city" v="Thetford"/>
    <tag k="addr:housenumber" v="249"/>
    <tag k="addr:street" v="Camp Farnsworth Road"/>
    <tag k="addr:state" v="VT"/>
    <tag k="ref:vcgi:esiteid" v="755876"/>
  </node>
  <node id="-1661" visible="true" lat="43.82750387" lon="-72.23747737">
    <tag k="addr:city" v="Thetford"/>
    <tag k="addr:housenumber" v="385"/>
    <tag k="addr:street" v="Camp Farnsworth Road"/>
    <tag k="addr:state" v="VT"/>
    <tag k="ref:vcgi:esiteid" v="755881"/>
  </node>
  <node id="-1662" visible="true" lat="43.8275234" lon="-72.23804199">
    <tag k="addr:city" v="Thetford"/>
    <tag k="addr:housenumber" v="400"/>
    <tag k="addr:street" v="Camp Farnsworth Road"/>
    <tag k="addr:state" v="VT"/>
    <tag k="ref:vcgi:esiteid" v="755882"/>
  </node>
  <node id="-1664" visible="true" lat="43.82698687" lon="-72.23799398">
    <tag k="addr:city" v="Thetford"/>
    <tag k="addr:housenumber" v="431"/>
    <tag k="addr:street" v="Camp Farnsworth Road"/>
    <tag k="addr:state" v="VT"/>
    <tag k="ref:vcgi:esiteid" v="755884"/>
  </node>
  <node id="-1665" visible="true" lat="43.82744884" lon="-72.23628167">
    <tag k="addr:city" v="Thetford"/>
    <tag k="addr:housenumber" v="345"/>
    <tag k="addr:street" v="Camp Farnsworth Road"/>
    <tag k="addr:state" v="VT"/>
    <tag k="ref:vcgi:esiteid" v="755885"/>
  </node>
  <node id="-1666" visible="true" lat="43.84429804" lon="-72.24875737">
    <tag k="addr:city" v="Thetford"/>
    <tag k="addr:housenumber" v="24"/>
    <tag k="addr:street" v="Five Corners Road"/>
    <tag k="addr:state" v="VT"/>
    <tag k="ref:vcgi:esiteid" v="755970"/>
  </node>
  <node id="-1667" visible="true" lat="43.82077882" lon="-72.27241265">
    <tag k="addr:city" v="Thetford"/>
    <tag k="addr:housenumber" v="1569"/>
    <tag k="addr:street" v="Tucker Hill Road"/>
    <tag k="addr:state" v="VT"/>
    <tag k="ref:vcgi:esiteid" v="756414"/>
  </node>
  <node id="-1668" visible="true" lat="43.82722392" lon="-72.30038882">
    <tag k="addr:city" v="Thetford"/>
    <tag k="addr:housenumber" v="132"/>
    <tag k="addr:street" v="Upper Bailey Road"/>
    <tag k="addr:state" v="VT"/>
    <tag k="ref:vcgi:esiteid" v="756415"/>
  </node>
  <node id="-1669" visible="true" lat="43.79263409" lon="-72.2422574">
    <tag k="addr:city" v="Thetford"/>
    <tag k="addr:housenumber" v="839"/>
    <tag k="addr:street" v="Burnham Road"/>
    <tag k="addr:state" v="VT"/>
    <tag k="ref:vcgi:esiteid" v="756482"/>
  </node>
  <node id="-1670" visible="true" lat="43.89072648" lon="-72.24999868">
    <tag k="addr:city" v="Thetford"/>
    <tag k="addr:housenumber" v="150"/>
    <tag k="addr:street" v="Macs Way"/>
    <tag k="addr:state" v="VT"/>
    <tag k="ref:vcgi:esiteid" v="756613"/>
  </node>
  <node id="-1671" visible="true" lat="43.78462411" lon="-72.20707486">
    <tag k="addr:city" v="Thetford"/>
    <tag k="addr:housenumber" v="50"/>
    <tag k="addr:street" v="Rabbit Road"/>
    <tag k="addr:state" v="VT"/>
    <tag k="ref:vcgi:esiteid" v="757169"/>
  </node>
  <node id="-1672" visible="true" lat="43.86997258" lon="-72.23465393">
    <tag k="addr:city" v="Thetford"/>
    <tag k="addr:housenumber" v="2140"/>
    <tag k="addr:street" v="Five Corners Road"/>
    <tag k="addr:state" v="VT"/>
    <tag k="ref:vcgi:esiteid" v="757695"/>
  </node>
  <node id="-1673" visible="true" lat="43.84324521" lon="-72.1870847">
    <tag k="addr:city" v="Thetford"/>
    <tag k="addr:housenumber" v="10"/>
    <tag k="addr:street" v="Cider Mill Road"/>
    <tag k="addr:state" v="VT"/>
    <tag k="ref:vcgi:esiteid" v="757976"/>
  </node>
  <node id="-1674" visible="true" lat="43.8320363" lon="-72.31790025">
    <tag k="addr:city" v="Thetford"/>
    <tag k="addr:housenumber" v="4295"/>
    <tag k="addr:street" v="Route 132"/>
    <tag k="addr:state" v="VT"/>
    <tag k="ref:vcgi:esiteid" v="758324"/>
  </node>
  <node id="-1677" visible="true" lat="43.83642951" lon="-72.19766724">
    <tag k="addr:city" v="Thetford"/>
    <tag k="addr:housenumber" v="1976"/>
    <tag k="addr:street" v="Latham Road"/>
    <tag k="addr:state" v="VT"/>
    <tag k="ref:vcgi:esiteid" v="759875"/>
  </node>
  <node id="-1678" visible="true" lat="43.80435573" lon="-72.22247676">
    <tag k="addr:city" v="Thetford"/>
    <tag k="addr:housenumber" v="795"/>
    <tag k="addr:street" v="Godfrey Road"/>
    <tag k="addr:state" v="VT"/>
    <tag k="ref:vcgi:esiteid" v="759876"/>
  </node>
  <node id="-1680" visible="true" lat="43.81183911" lon="-72.2079915">
    <tag k="addr:city" v="Thetford"/>
    <tag k="addr:housenumber" v="1333"/>
    <tag k="addr:street" v="Vermont Route 113"/>
    <tag k="addr:state" v="VT"/>
    <tag k="ref:vcgi:esiteid" v="760440"/>
  </node>
  <node id="-1681" visible="true" lat="43.86838273" lon="-72.18559507">
    <tag k="addr:city" v="Thetford"/>
    <tag k="addr:housenumber" v="7337"/>
    <tag k="addr:street" v="U.S. Route 5"/>
    <tag k="addr:state" v="VT"/>
    <tag k="ref:vcgi:esiteid" v="760744"/>
  </node>
  <node id="-1682" visible="true" lat="43.86675316" lon="-72.18401068">
    <tag k="addr:city" v="Thetford"/>
    <tag k="addr:housenumber" v="7205"/>
    <tag k="addr:street" v="U.S. Route 5"/>
    <tag k="addr:state" v="VT"/>
    <tag k="ref:vcgi:esiteid" v="760754"/>
  </node>
  <node id="-1683" visible="true" lat="43.85583929" lon="-72.27647628">
    <tag k="addr:city" v="Thetford"/>
    <tag k="addr:housenumber" v="203"/>
    <tag k="addr:street" v="Pero Hill Road"/>
    <tag k="addr:state" v="VT"/>
    <tag k="ref:vcgi:esiteid" v="761002"/>
  </node>
  <node id="-1684" visible="true" lat="43.85847638" lon="-72.2771038">
    <tag k="addr:city" v="Thetford"/>
    <tag k="addr:housenumber" v="12"/>
    <tag k="addr:street" v="Snapper Lane"/>
    <tag k="addr:state" v="VT"/>
    <tag k="ref:vcgi:esiteid" v="761003"/>
  </node>
  <node id="-1685" visible="true" lat="43.85925724" lon="-72.27576798">
    <tag k="addr:city" v="Thetford"/>
    <tag k="addr:housenumber" v="21"/>
    <tag k="addr:street" v="Snapper Lane"/>
    <tag k="addr:state" v="VT"/>
    <tag k="ref:vcgi:esiteid" v="761004"/>
  </node>
  <node id="-1686" visible="true" lat="43.85816873" lon="-72.27505131">
    <tag k="addr:city" v="Thetford"/>
    <tag k="addr:housenumber" v="116"/>
    <tag k="addr:street" v="Snapper Lane"/>
    <tag k="addr:state" v="VT"/>
    <tag k="ref:vcgi:esiteid" v="761005"/>
  </node>
  <node id="-1687" visible="true" lat="43.86300786" lon="-72.18538966">
    <tag k="addr:city" v="Thetford"/>
    <tag k="addr:housenumber" v="6766"/>
    <tag k="addr:street" v="U.S. Route 5"/>
    <tag k="addr:state" v="VT"/>
    <tag k="ref:vcgi:esiteid" v="761128"/>
  </node>
  <node id="-1688" visible="true" lat="43.81930814" lon="-72.2814047">
    <tag k="addr:city" v="Thetford"/>
    <tag k="addr:housenumber" v="73"/>
    <tag k="addr:street" v="Patsy Lane"/>
    <tag k="addr:state" v="VT"/>
    <tag k="ref:vcgi:esiteid" v="762334"/>
  </node>
  <node id="-1689" visible="true" lat="43.81198165" lon="-72.19223225">
    <tag k="addr:city" v="Thetford"/>
    <tag k="addr:housenumber" v="214"/>
    <tag k="addr:street" v="High Ridge Lane"/>
    <tag k="addr:state" v="VT"/>
    <tag k="ref:vcgi:esiteid" v="762845"/>
  </node>
  <node id="-1690" visible="true" lat="43.81929025" lon="-72.22578644">
    <tag k="addr:city" v="Thetford"/>
    <tag k="addr:housenumber" v="2362"/>
    <tag k="addr:street" v="Vermont Route 113"/>
    <tag k="addr:state" v="VT"/>
    <tag k="ref:vcgi:esiteid" v="762848"/>
  </node>
  <node id="-1691" visible="true" lat="43.80897523" lon="-72.27150719">
    <tag k="addr:city" v="Thetford"/>
    <tag k="addr:housenumber" v="898"/>
    <tag k="addr:street" v="Route 132"/>
    <tag k="addr:state" v="VT"/>
    <tag k="ref:vcgi:esiteid" v="763000"/>
  </node>
  <node id="-1692" visible="true" lat="43.85611867" lon="-72.23819086">
    <tag k="addr:city" v="Thetford"/>
    <tag k="addr:housenumber" v="1044"/>
    <tag k="addr:street" v="Five Corners Road"/>
    <tag k="addr:state" v="VT"/>
    <tag k="ref:vcgi:esiteid" v="763844"/>
  </node>
  <node id="-1693" visible="true" lat="43.80202002" lon="-72.22143566">
    <tag k="addr:city" v="Thetford"/>
    <tag k="addr:housenumber" v="905"/>
    <tag k="addr:street" v="Godfrey Road"/>
    <tag k="addr:state" v="VT"/>
    <tag k="ref:vcgi:esiteid" v="764042"/>
  </node>
  <node id="-1694" visible="true" lat="43.81573388" lon="-72.33321847">
    <tag k="addr:city" v="Thetford"/>
    <tag k="addr:housenumber" v="100"/>
    <tag k="addr:street" v="Judd Road"/>
    <tag k="addr:state" v="VT"/>
    <tag k="ref:vcgi:esiteid" v="764043"/>
  </node>
  <node id="-1695" visible="true" lat="43.86532869" lon="-72.28344233">
    <tag k="addr:city" v="Thetford"/>
    <tag k="addr:housenumber" v="865"/>
    <tag k="addr:street" v="Colby Road South"/>
    <tag k="addr:state" v="VT"/>
    <tag k="ref:vcgi:esiteid" v="764311"/>
  </node>
  <node id="-1696" visible="true" lat="43.82549007" lon="-72.23436709">
    <tag k="addr:city" v="Thetford"/>
    <tag k="addr:housenumber" v="70"/>
    <tag k="addr:street" v="Mud Pond Road"/>
    <tag k="addr:state" v="VT"/>
    <tag k="ref:vcgi:esiteid" v="764312"/>
  </node>
  <node id="-1697" visible="true" lat="43.83421479" lon="-72.20193448">
    <tag k="addr:city" v="Thetford"/>
    <tag k="addr:housenumber" v="46"/>
    <tag k="addr:street" v="Makalas Way"/>
    <tag k="addr:state" v="VT"/>
    <tag k="ref:vcgi:esiteid" v="764344"/>
  </node>
  <node id="-1699" visible="true" lat="43.7817292" lon="-72.21953575">
    <tag k="addr:city" v="Thetford"/>
    <tag k="addr:housenumber" v="409"/>
    <tag k="addr:street" v="Interstate 91 North"/>
    <tag k="addr:state" v="VT"/>
    <tag k="ref:vcgi:esiteid" v="1050653"/>
  </node>
  <node id="-1700" visible="true" lat="43.79498904" lon="-72.21554912">
    <tag k="addr:city" v="Thetford"/>
    <tag k="addr:housenumber" v="1404"/>
    <tag k="addr:street" v="Interstate 91 North"/>
    <tag k="addr:state" v="VT"/>
    <tag k="ref:vcgi:esiteid" v="1050654"/>
  </node>
  <node id="-1701" visible="true" lat="43.80956742" lon="-72.21751539">
    <tag k="addr:city" v="Thetford"/>
    <tag k="addr:housenumber" v="2464"/>
    <tag k="addr:street" v="Interstate 91 North"/>
    <tag k="addr:state" v="VT"/>
    <tag k="ref:vcgi:esiteid" v="1050655"/>
  </node>
  <node id="-1702" visible="true" lat="43.82667" lon="-72.20833">
    <tag k="addr:city" v="Thetford"/>
    <tag k="addr:housenumber" v="3736"/>
    <tag k="addr:street" v="Interstate 91 North"/>
    <tag k="addr:state" v="VT"/>
    <tag k="ref:vcgi:esiteid" v="1050656"/>
  </node>
  <node id="-1703" visible="true" lat="43.83597186" lon="-72.20423566">
    <tag k="addr:city" v="Thetford"/>
    <tag k="addr:housenumber" v="4407"/>
    <tag k="addr:street" v="Interstate 91 North"/>
    <tag k="addr:state" v="VT"/>
    <tag k="ref:vcgi:esiteid" v="1050657"/>
  </node>
  <node id="-1704" visible="true" lat="43.8502606" lon="-72.19646659">
    <tag k="addr:city" v="Thetford"/>
    <tag k="addr:housenumber" v="1902"/>
    <tag k="addr:street" v="Interstate 91 South"/>
    <tag k="addr:state" v="VT"/>
    <tag k="ref:vcgi:esiteid" v="1050658"/>
  </node>
  <node id="-1705" visible="true" lat="43.86329062" lon="-72.18859228">
    <tag k="addr:city" v="Thetford"/>
    <tag k="addr:housenumber" v="910"/>
    <tag k="addr:street" v="Interstate 91 South"/>
    <tag k="addr:state" v="VT"/>
    <tag k="ref:vcgi:esiteid" v="1050659"/>
  </node>
  <node id="-1706" visible="true" lat="43.87511366" lon="-72.1821047">
    <tag k="addr:city" v="Thetford"/>
    <tag k="addr:housenumber" v="7360"/>
    <tag k="addr:street" v="Interstate 91 North"/>
    <tag k="addr:state" v="VT"/>
    <tag k="ref:vcgi:esiteid" v="1050660"/>
  </node>
  <node id="-1707" visible="true" lat="43.88502595" lon="-72.25123206">
    <tag k="addr:city" v="Thetford"/>
    <tag k="addr:housenumber" v="126"/>
    <tag k="addr:street" v="Hangar Bay Lane"/>
    <tag k="addr:state" v="VT"/>
    <tag k="ref:vcgi:esiteid" v="1050844"/>
  </node>
  <node id="-1708" visible="true" lat="43.88680938" lon="-72.25278042">
    <tag k="addr:city" v="Thetford"/>
    <tag k="addr:housenumber" v="396"/>
    <tag k="addr:street" v="Vermont Route 244"/>
    <tag k="addr:state" v="VT"/>
    <tag k="ref:vcgi:esiteid" v="1050845"/>
  </node>
  <node id="-1709" visible="true" lat="43.87923296" lon="-72.22183554">
    <tag k="addr:city" v="Thetford"/>
    <tag k="addr:housenumber" v="626"/>
    <tag k="addr:street" v="Quinibeck Road"/>
    <tag k="addr:state" v="VT"/>
    <tag k="ref:vcgi:esiteid" v="1050937"/>
  </node>
</osm>
