<?xml version="1.0" encoding="UTF-8"?>
<osm version="0.6" generator="JOSM">
  <node id="-467" visible="true" lat="43.84874065" lon="-72.18993979">
    <!-- offset: "473 Clay Road, Thetford, VT" Significant offset - 677.4m -->
    <tag k="addr:city" v="Thetford"/>
    <tag k="addr:housenumber" v="473"/>
    <tag k="addr:street" v="Clay Road"/>
    <tag k="addr:state" v="VT"/>
    <tag k="ref:vcgi:esiteid" v="258847"/>
  </node>
  <node id="-787" visible="true" lat="43.82500457" lon="-72.3055191">
    <!-- offset: "361 Upper Bailey Road, Thetford, VT" Significant offset - 125.5m -->
    <tag k="addr:city" v="Thetford"/>
    <tag k="addr:housenumber" v="361"/>
    <tag k="addr:street" v="Upper Bailey Road"/>
    <tag k="addr:state" v="VT"/>
    <tag k="ref:vcgi:esiteid" v="259176"/>
  </node>
  <node id="-931" visible="true" lat="43.81591414" lon="-72.21265576">
    <!-- offset: "300 Latham Road, Thetford, VT" Significant offset - 178.9m -->
    <tag k="addr:city" v="Thetford"/>
    <tag k="addr:housenumber" v="300"/>
    <tag k="addr:street" v="Latham Road"/>
    <tag k="addr:state" v="VT"/>
    <tag k="ref:vcgi:esiteid" v="259323"/>
  </node>
  <node id="-1400" visible="true" lat="43.81815383" lon="-72.28143385">
    <!-- offset: "95 Patsy Lane, Thetford, VT" Significant offset - 129.2m -->
    <tag k="addr:city" v="Thetford"/>
    <tag k="addr:housenumber" v="95"/>
    <tag k="addr:street" v="Patsy Lane"/>
    <tag k="addr:state" v="VT"/>
    <tag k="ref:vcgi:esiteid" v="259808"/>
  </node>
</osm>
