<?xml version="1.0" encoding="UTF-8"?>
<osm version="0.6" generator="JOSM" upload="false">
  <node id="-105" visible="true" lat="43.49050903" lon="-73.02010345">
    <tag k="addr:city" v="Tinmouth"/>
    <tag k="addr:housenumber" v="537"/>
    <tag k="addr:street" v="North End Road"/>
    <tag k="addr:state" v="VT"/>
    <tag k="ref:vcgi:esiteid" v="259922"/>
  </node>
  <node id="-106" visible="true" lat="43.49008178" lon="-73.01425933">
    <tag k="addr:city" v="Tinmouth"/>
    <tag k="addr:housenumber" v="595"/>
    <tag k="addr:street" v="North East Road"/>
    <tag k="addr:state" v="VT"/>
    <tag k="ref:vcgi:esiteid" v="259923"/>
  </node>
  <node id="-107" visible="true" lat="43.48978424" lon="-73.02328491">
    <tag k="addr:city" v="Tinmouth"/>
    <tag k="addr:housenumber" v="515"/>
    <tag k="addr:street" v="North End Road"/>
    <tag k="addr:state" v="VT"/>
    <tag k="ref:vcgi:esiteid" v="259924"/>
  </node>
  <node id="-111" visible="true" lat="43.48831176" lon="-73.02215576">
    <tag k="addr:city" v="Tinmouth"/>
    <tag k="addr:housenumber" v="535"/>
    <tag k="addr:street" v="North End Road"/>
    <tag k="addr:state" v="VT"/>
    <tag k="ref:vcgi:esiteid" v="259928"/>
  </node>
  <node id="-113" visible="true" lat="43.48788452" lon="-73.02470398">
    <tag k="addr:city" v="Tinmouth"/>
    <tag k="addr:housenumber" v="516"/>
    <tag k="addr:street" v="North End Road"/>
    <tag k="addr:state" v="VT"/>
    <tag k="ref:vcgi:esiteid" v="259930"/>
  </node>
  <node id="-118" visible="true" lat="43.48392868" lon="-73.01525116">
    <tag k="addr:city" v="Tinmouth"/>
    <tag k="addr:housenumber" v="510"/>
    <tag k="addr:street" v="North East Road"/>
    <tag k="addr:state" v="VT"/>
    <tag k="ref:vcgi:esiteid" v="259935"/>
  </node>
  <node id="-121" visible="true" lat="43.48199081" lon="-73.07811737">
    <tag k="addr:city" v="Tinmouth"/>
    <tag k="addr:housenumber" v="26"/>
    <tag k="addr:street" v="Maplebrook Lane"/>
    <tag k="addr:state" v="VT"/>
    <tag k="ref:vcgi:esiteid" v="259938"/>
  </node>
  <node id="-122" visible="true" lat="43.48183059" lon="-73.07768249">
    <tag k="addr:city" v="Tinmouth"/>
    <tag k="addr:housenumber" v="21"/>
    <tag k="addr:street" v="Maplebrook Lane"/>
    <tag k="addr:state" v="VT"/>
    <tag k="ref:vcgi:esiteid" v="259939"/>
  </node>
  <node id="-124" visible="true" lat="43.48149871" lon="-73.07625579">
    <tag k="addr:city" v="Tinmouth"/>
    <tag k="addr:housenumber" v="7"/>
    <tag k="addr:street" v="Maplebrook Lane"/>
    <tag k="addr:state" v="VT"/>
    <tag k="ref:vcgi:esiteid" v="259941"/>
  </node>
  <node id="-125" visible="true" lat="43.48140716" lon="-73.07570648">
    <tag k="addr:city" v="Tinmouth"/>
    <tag k="addr:housenumber" v="1"/>
    <tag k="addr:street" v="Maplebrook Lane"/>
    <tag k="addr:state" v="VT"/>
    <tag k="ref:vcgi:esiteid" v="259942"/>
  </node>
  <node id="-126" visible="true" lat="43.48088836" lon="-73.07607269">
    <tag k="addr:city" v="Tinmouth"/>
    <tag k="addr:housenumber" v="12"/>
    <tag k="addr:street" v="McNamara Road"/>
    <tag k="addr:state" v="VT"/>
    <tag k="ref:vcgi:esiteid" v="259943"/>
  </node>
  <node id="-133" visible="true" lat="43.47771835" lon="-73.07027435">
    <tag k="addr:city" v="Tinmouth"/>
    <tag k="addr:housenumber" v="1161"/>
    <tag k="addr:street" v="Vermont Route 140"/>
    <tag k="addr:state" v="VT"/>
    <tag k="ref:vcgi:esiteid" v="259950"/>
  </node>
  <node id="-134" visible="true" lat="43.47669669" lon="-73.04648499">
    <tag k="addr:city" v="Tinmouth"/>
    <tag k="addr:housenumber" v="109"/>
    <tag k="addr:street" v="Harrington Cross Road"/>
    <tag k="addr:state" v="VT"/>
    <tag k="ref:vcgi:esiteid" v="259951"/>
  </node>
  <node id="-135" visible="true" lat="43.47671127" lon="-73.01889038">
    <tag k="addr:city" v="Tinmouth"/>
    <tag k="addr:housenumber" v="403"/>
    <tag k="addr:street" v="North East Road"/>
    <tag k="addr:state" v="VT"/>
    <tag k="ref:vcgi:esiteid" v="259952"/>
  </node>
  <node id="-136" visible="true" lat="43.47597122" lon="-73.04403686">
    <tag k="addr:city" v="Tinmouth"/>
    <tag k="addr:housenumber" v="133"/>
    <tag k="addr:street" v="North End Road"/>
    <tag k="addr:state" v="VT"/>
    <tag k="ref:vcgi:esiteid" v="259953"/>
  </node>
  <node id="-137" visible="true" lat="43.47575759" lon="-73.04611969">
    <tag k="addr:city" v="Tinmouth"/>
    <tag k="addr:housenumber" v="106"/>
    <tag k="addr:street" v="Harrington Cross Road"/>
    <tag k="addr:state" v="VT"/>
    <tag k="ref:vcgi:esiteid" v="259954"/>
  </node>
  <node id="-138" visible="true" lat="43.47568511" lon="-73.04349517">
    <tag k="addr:city" v="Tinmouth"/>
    <tag k="addr:housenumber" v="128"/>
    <tag k="addr:street" v="North End Road"/>
    <tag k="addr:state" v="VT"/>
    <tag k="ref:vcgi:esiteid" v="259955"/>
  </node>
  <node id="-139" visible="true" lat="43.47563171" lon="-73.05078887">
    <tag k="addr:city" v="Tinmouth"/>
    <tag k="addr:housenumber" v="50"/>
    <tag k="addr:street" v="Harrington Cross Road"/>
    <tag k="addr:state" v="VT"/>
    <tag k="ref:vcgi:esiteid" v="259956"/>
  </node>
  <node id="-140" visible="true" lat="43.47515869" lon="-73.04257202">
    <tag k="addr:city" v="Tinmouth"/>
    <tag k="addr:housenumber" v="122"/>
    <tag k="addr:street" v="North End Road"/>
    <tag k="addr:state" v="VT"/>
    <tag k="ref:vcgi:esiteid" v="259957"/>
  </node>
  <node id="-141" visible="true" lat="43.47388839" lon="-73.05387115">
    <tag k="addr:city" v="Tinmouth"/>
    <tag k="addr:housenumber" v="6"/>
    <tag k="addr:street" v="Harrington Cross Road"/>
    <tag k="addr:state" v="VT"/>
    <tag k="ref:vcgi:esiteid" v="259958"/>
  </node>
  <node id="-142" visible="true" lat="43.47305297" lon="-73.04438018">
    <tag k="addr:city" v="Tinmouth"/>
    <tag k="addr:housenumber" v="96"/>
    <tag k="addr:street" v="North End Road"/>
    <tag k="addr:state" v="VT"/>
    <tag k="ref:vcgi:esiteid" v="259959"/>
  </node>
  <node id="-144" visible="true" lat="43.47050857" lon="-73.06013488">
    <tag k="addr:city" v="Tinmouth"/>
    <tag k="addr:housenumber" v="51"/>
    <tag k="addr:street" v="Gulf Road"/>
    <tag k="addr:state" v="VT"/>
    <tag k="ref:vcgi:esiteid" v="259961"/>
  </node>
  <node id="-157" visible="true" lat="43.46117019" lon="-73.02547454">
    <tag k="addr:city" v="Tinmouth"/>
    <tag k="addr:housenumber" v="158"/>
    <tag k="addr:street" v="North East Road"/>
    <tag k="addr:state" v="VT"/>
    <tag k="ref:vcgi:esiteid" v="259974"/>
  </node>
  <node id="-164" visible="true" lat="43.45653533" lon="-73.0273056">
    <tag k="addr:city" v="Tinmouth"/>
    <tag k="addr:housenumber" v="87"/>
    <tag k="addr:street" v="North East Road"/>
    <tag k="addr:state" v="VT"/>
    <tag k="ref:vcgi:esiteid" v="259981"/>
  </node>
  <node id="-174" visible="true" lat="43.4511795" lon="-73.02870178">
    <tag k="addr:city" v="Tinmouth"/>
    <tag k="addr:housenumber" v="3"/>
    <tag k="addr:street" v="North East Road"/>
    <tag k="addr:state" v="VT"/>
    <tag k="ref:vcgi:esiteid" v="259992"/>
  </node>
  <node id="-186" visible="true" lat="43.44947433" lon="-73.05179595">
    <tag k="addr:city" v="Tinmouth"/>
    <tag k="addr:housenumber" v="20"/>
    <tag k="addr:street" v="Bliss Road"/>
    <tag k="addr:state" v="VT"/>
    <tag k="ref:vcgi:esiteid" v="260004"/>
  </node>
  <node id="-187" visible="true" lat="43.44892501" lon="-73.05142211">
    <tag k="addr:city" v="Tinmouth"/>
    <tag k="addr:housenumber" v="6"/>
    <tag k="addr:street" v="Bliss Road"/>
    <tag k="addr:state" v="VT"/>
    <tag k="ref:vcgi:esiteid" v="260005"/>
  </node>
  <node id="-192" visible="true" lat="43.44844055" lon="-73.05017852">
    <tag k="addr:city" v="Tinmouth"/>
    <tag k="addr:housenumber" v="5"/>
    <tag k="addr:street" v="Mountain View Road"/>
    <tag k="addr:state" v="VT"/>
    <tag k="ref:vcgi:esiteid" v="260011"/>
  </node>
  <node id="-194" visible="true" lat="43.44835281" lon="-73.05177307">
    <tag k="addr:city" v="Tinmouth"/>
    <tag k="addr:housenumber" v="13"/>
    <tag k="addr:street" v="Bliss Road"/>
    <tag k="addr:state" v="VT"/>
    <tag k="ref:vcgi:esiteid" v="260013"/>
  </node>
  <node id="-195" visible="true" lat="43.4481697" lon="-73.0502243">
    <tag k="addr:city" v="Tinmouth"/>
    <tag k="addr:housenumber" v="9"/>
    <tag k="addr:street" v="Mountain View Road"/>
    <tag k="addr:state" v="VT"/>
    <tag k="ref:vcgi:esiteid" v="260014"/>
  </node>
  <node id="-200" visible="true" lat="43.44543457" lon="-73.0296173">
    <tag k="addr:city" v="Tinmouth"/>
    <tag k="addr:housenumber" v="59"/>
    <tag k="addr:street" v="East Road"/>
    <tag k="addr:state" v="VT"/>
    <tag k="ref:vcgi:esiteid" v="260019"/>
  </node>
  <node id="-201" visible="true" lat="43.44492721" lon="-73.02971649">
    <tag k="addr:city" v="Tinmouth"/>
    <tag k="addr:housenumber" v="61"/>
    <tag k="addr:street" v="East Road"/>
    <tag k="addr:state" v="VT"/>
    <tag k="ref:vcgi:esiteid" v="260020"/>
  </node>
  <node id="-207" visible="true" lat="43.44102478" lon="-73.0307312">
    <tag k="addr:city" v="Tinmouth"/>
    <tag k="addr:housenumber" v="119"/>
    <tag k="addr:street" v="East Road"/>
    <tag k="addr:state" v="VT"/>
    <tag k="ref:vcgi:esiteid" v="260026"/>
  </node>
  <node id="-209" visible="true" lat="43.4402275" lon="-73.03002929">
    <tag k="addr:city" v="Tinmouth"/>
    <tag k="addr:housenumber" v="139"/>
    <tag k="addr:street" v="East Road"/>
    <tag k="addr:state" v="VT"/>
    <tag k="ref:vcgi:esiteid" v="260028"/>
  </node>
  <node id="-212" visible="true" lat="43.43868637" lon="-73.03149414">
    <tag k="addr:city" v="Tinmouth"/>
    <tag k="addr:housenumber" v="141"/>
    <tag k="addr:street" v="East Road"/>
    <tag k="addr:state" v="VT"/>
    <tag k="ref:vcgi:esiteid" v="260031"/>
  </node>
  <node id="-214" visible="true" lat="43.43599673" lon="-73.03054906">
    <tag k="addr:city" v="Tinmouth"/>
    <tag k="addr:housenumber" v="44"/>
    <tag k="addr:street" v="Crow Hill Road"/>
    <tag k="addr:state" v="VT"/>
    <tag k="ref:vcgi:esiteid" v="260033"/>
  </node>
  <node id="-233" visible="true" lat="43.42856979" lon="-73.02409362">
    <tag k="addr:city" v="Tinmouth"/>
    <tag k="addr:housenumber" v="180"/>
    <tag k="addr:street" v="Crow Hill Road"/>
    <tag k="addr:state" v="VT"/>
    <tag k="ref:vcgi:esiteid" v="260054"/>
  </node>
  <node id="-237" visible="true" lat="43.42567825" lon="-73.03778076">
    <tag k="addr:city" v="Tinmouth"/>
    <tag k="addr:housenumber" v="372"/>
    <tag k="addr:street" v="East Road"/>
    <tag k="addr:state" v="VT"/>
    <tag k="ref:vcgi:esiteid" v="260058"/>
  </node>
  <node id="-238" visible="true" lat="43.42523193" lon="-73.03747558">
    <tag k="addr:city" v="Tinmouth"/>
    <tag k="addr:housenumber" v="374"/>
    <tag k="addr:street" v="East Road"/>
    <tag k="addr:state" v="VT"/>
    <tag k="ref:vcgi:esiteid" v="260059"/>
  </node>
  <node id="-239" visible="true" lat="43.42440033" lon="-73.03549194">
    <tag k="addr:city" v="Tinmouth"/>
    <tag k="addr:housenumber" v="367"/>
    <tag k="addr:street" v="East Road"/>
    <tag k="addr:state" v="VT"/>
    <tag k="ref:vcgi:esiteid" v="260060"/>
  </node>
  <node id="-242" visible="true" lat="43.42334821" lon="-73.03576096">
    <tag k="addr:city" v="Tinmouth"/>
    <tag k="addr:housenumber" v="387"/>
    <tag k="addr:street" v="East Road"/>
    <tag k="addr:state" v="VT"/>
    <tag k="ref:vcgi:esiteid" v="260063"/>
  </node>
  <node id="-244" visible="true" lat="43.4221878" lon="-73.0363388">
    <tag k="addr:city" v="Tinmouth"/>
    <tag k="addr:housenumber" v="412"/>
    <tag k="addr:street" v="East Road"/>
    <tag k="addr:state" v="VT"/>
    <tag k="ref:vcgi:esiteid" v="260065"/>
  </node>
  <node id="-245" visible="true" lat="43.42139434" lon="-73.03648376">
    <tag k="addr:city" v="Tinmouth"/>
    <tag k="addr:housenumber" v="418"/>
    <tag k="addr:street" v="East Road"/>
    <tag k="addr:state" v="VT"/>
    <tag k="ref:vcgi:esiteid" v="260066"/>
  </node>
  <node id="-246" visible="true" lat="43.42107772" lon="-73.0376358">
    <tag k="addr:city" v="Tinmouth"/>
    <tag k="addr:housenumber" v="424"/>
    <tag k="addr:street" v="East Road"/>
    <tag k="addr:state" v="VT"/>
    <tag k="ref:vcgi:esiteid" v="260067"/>
  </node>
  <node id="-248" visible="true" lat="43.42067336" lon="-73.03662872">
    <tag k="addr:city" v="Tinmouth"/>
    <tag k="addr:housenumber" v="426"/>
    <tag k="addr:street" v="East Road"/>
    <tag k="addr:state" v="VT"/>
    <tag k="ref:vcgi:esiteid" v="260069"/>
  </node>
  <node id="-251" visible="true" lat="43.42025375" lon="-73.03745269">
    <tag k="addr:city" v="Tinmouth"/>
    <tag k="addr:housenumber" v="438"/>
    <tag k="addr:street" v="East Road"/>
    <tag k="addr:state" v="VT"/>
    <tag k="ref:vcgi:esiteid" v="260072"/>
  </node>
  <node id="-253" visible="true" lat="43.41886901" lon="-73.03575134">
    <tag k="addr:city" v="Tinmouth"/>
    <tag k="addr:housenumber" v="457"/>
    <tag k="addr:street" v="East Road"/>
    <tag k="addr:state" v="VT"/>
    <tag k="ref:vcgi:esiteid" v="260074"/>
  </node>
  <node id="-257" visible="true" lat="43.41814422" lon="-73.03626251">
    <tag k="addr:city" v="Tinmouth"/>
    <tag k="addr:housenumber" v="464"/>
    <tag k="addr:street" v="East Road"/>
    <tag k="addr:state" v="VT"/>
    <tag k="ref:vcgi:esiteid" v="260078"/>
  </node>
  <node id="-259" visible="true" lat="43.41775651" lon="-73.03631411">
    <tag k="addr:city" v="Tinmouth"/>
    <tag k="addr:housenumber" v="466"/>
    <tag k="addr:street" v="East Road"/>
    <tag k="addr:state" v="VT"/>
    <tag k="ref:vcgi:esiteid" v="260080"/>
  </node>
  <node id="-263" visible="true" lat="43.41694641" lon="-73.03649902">
    <tag k="addr:city" v="Tinmouth"/>
    <tag k="addr:housenumber" v="488"/>
    <tag k="addr:street" v="East Road"/>
    <tag k="addr:state" v="VT"/>
    <tag k="ref:vcgi:esiteid" v="260084"/>
  </node>
  <node id="-264" visible="true" lat="43.41651534" lon="-73.03541564">
    <tag k="addr:city" v="Tinmouth"/>
    <tag k="addr:housenumber" v="493"/>
    <tag k="addr:street" v="East Road"/>
    <tag k="addr:state" v="VT"/>
    <tag k="ref:vcgi:esiteid" v="260085"/>
  </node>
  <node id="-265" visible="true" lat="43.41650772" lon="-73.03309631">
    <tag k="addr:city" v="Tinmouth"/>
    <tag k="addr:housenumber" v="523"/>
    <tag k="addr:street" v="East Road"/>
    <tag k="addr:state" v="VT"/>
    <tag k="ref:vcgi:esiteid" v="260086"/>
  </node>
  <node id="-266" visible="true" lat="43.41640853" lon="-73.03251647">
    <tag k="addr:city" v="Tinmouth"/>
    <tag k="addr:housenumber" v="525"/>
    <tag k="addr:street" v="East Road"/>
    <tag k="addr:state" v="VT"/>
    <tag k="ref:vcgi:esiteid" v="260087"/>
  </node>
  <node id="-269" visible="true" lat="43.41582107" lon="-73.03651428">
    <tag k="addr:city" v="Tinmouth"/>
    <tag k="addr:housenumber" v="494"/>
    <tag k="addr:street" v="East Road"/>
    <tag k="addr:state" v="VT"/>
    <tag k="ref:vcgi:esiteid" v="260090"/>
  </node>
  <node id="-272" visible="true" lat="43.41440582" lon="-73.03675079">
    <tag k="addr:city" v="Tinmouth"/>
    <tag k="addr:housenumber" v="522"/>
    <tag k="addr:street" v="East Road"/>
    <tag k="addr:state" v="VT"/>
    <tag k="ref:vcgi:esiteid" v="260093"/>
  </node>
  <node id="-274" visible="true" lat="43.41395365" lon="-73.03548254">
    <tag k="addr:city" v="Tinmouth"/>
    <tag k="addr:housenumber" v="527"/>
    <tag k="addr:street" v="East Road"/>
    <tag k="addr:state" v="VT"/>
    <tag k="ref:vcgi:esiteid" v="260095"/>
  </node>
  <node id="-282" visible="true" lat="43.41205215" lon="-73.03077697">
    <tag k="addr:city" v="Tinmouth"/>
    <tag k="addr:housenumber" v="92"/>
    <tag k="addr:street" v="White Birch Drive"/>
    <tag k="addr:state" v="VT"/>
    <tag k="ref:vcgi:esiteid" v="260103"/>
  </node>
  <node id="-283" visible="true" lat="43.41200637" lon="-73.03193664">
    <tag k="addr:city" v="Tinmouth"/>
    <tag k="addr:housenumber" v="74"/>
    <tag k="addr:street" v="White Birch Drive"/>
    <tag k="addr:state" v="VT"/>
    <tag k="ref:vcgi:esiteid" v="260104"/>
  </node>
  <node id="-284" visible="true" lat="43.41199111" lon="-73.03122711">
    <tag k="addr:city" v="Tinmouth"/>
    <tag k="addr:housenumber" v="86"/>
    <tag k="addr:street" v="White Birch Drive"/>
    <tag k="addr:state" v="VT"/>
    <tag k="ref:vcgi:esiteid" v="260105"/>
  </node>
  <node id="-285" visible="true" lat="43.41177749" lon="-73.03224945">
    <tag k="addr:city" v="Tinmouth"/>
    <tag k="addr:housenumber" v="70"/>
    <tag k="addr:street" v="White Birch Drive"/>
    <tag k="addr:state" v="VT"/>
    <tag k="ref:vcgi:esiteid" v="260106"/>
  </node>
  <node id="-286" visible="true" lat="43.41175842" lon="-73.03064727">
    <tag k="addr:city" v="Tinmouth"/>
    <tag k="addr:housenumber" v="106"/>
    <tag k="addr:street" v="White Birch Drive"/>
    <tag k="addr:state" v="VT"/>
    <tag k="ref:vcgi:esiteid" v="260107"/>
  </node>
  <node id="-287" visible="true" lat="43.41179353" lon="-73.02994726">
    <tag k="addr:city" v="Tinmouth"/>
    <tag k="addr:housenumber" v="105"/>
    <tag k="addr:street" v="White Birch Drive"/>
    <tag k="addr:state" v="VT"/>
    <tag k="ref:vcgi:esiteid" v="260108"/>
  </node>
  <node id="-288" visible="true" lat="43.41153635" lon="-73.03240561">
    <tag k="addr:city" v="Tinmouth"/>
    <tag k="addr:housenumber" v="66"/>
    <tag k="addr:street" v="White Birch Drive"/>
    <tag k="addr:state" v="VT"/>
    <tag k="ref:vcgi:esiteid" v="260109"/>
  </node>
  <node id="-289" visible="true" lat="43.41141128" lon="-73.02978515">
    <tag k="addr:city" v="Tinmouth"/>
    <tag k="addr:housenumber" v="109"/>
    <tag k="addr:street" v="White Birch Drive"/>
    <tag k="addr:state" v="VT"/>
    <tag k="ref:vcgi:esiteid" v="260110"/>
  </node>
  <node id="-290" visible="true" lat="43.4112837" lon="-73.03036405">
    <tag k="addr:city" v="Tinmouth"/>
    <tag k="addr:housenumber" v="108"/>
    <tag k="addr:street" v="White Birch Drive"/>
    <tag k="addr:state" v="VT"/>
    <tag k="ref:vcgi:esiteid" v="260111"/>
  </node>
  <node id="-292" visible="true" lat="43.41102798" lon="-73.0301434">
    <tag k="addr:city" v="Tinmouth"/>
    <tag k="addr:housenumber" v="112"/>
    <tag k="addr:street" v="White Birch Drive"/>
    <tag k="addr:state" v="VT"/>
    <tag k="ref:vcgi:esiteid" v="260114"/>
  </node>
  <node id="-293" visible="true" lat="43.41098785" lon="-73.03245544">
    <tag k="addr:city" v="Tinmouth"/>
    <tag k="addr:housenumber" v="58"/>
    <tag k="addr:street" v="White Birch Drive"/>
    <tag k="addr:state" v="VT"/>
    <tag k="ref:vcgi:esiteid" v="260115"/>
  </node>
  <node id="-294" visible="true" lat="43.41081237" lon="-73.02996826">
    <tag k="addr:city" v="Tinmouth"/>
    <tag k="addr:housenumber" v="118"/>
    <tag k="addr:street" v="White Birch Drive"/>
    <tag k="addr:state" v="VT"/>
    <tag k="ref:vcgi:esiteid" v="260116"/>
  </node>
  <node id="-295" visible="true" lat="43.41067886" lon="-73.03241729">
    <tag k="addr:city" v="Tinmouth"/>
    <tag k="addr:housenumber" v="54"/>
    <tag k="addr:street" v="White Birch Drive"/>
    <tag k="addr:state" v="VT"/>
    <tag k="ref:vcgi:esiteid" v="260117"/>
  </node>
  <node id="-297" visible="true" lat="43.41044616" lon="-73.03245544">
    <tag k="addr:city" v="Tinmouth"/>
    <tag k="addr:housenumber" v="50"/>
    <tag k="addr:street" v="White Birch Drive"/>
    <tag k="addr:state" v="VT"/>
    <tag k="ref:vcgi:esiteid" v="260119"/>
  </node>
  <node id="-298" visible="true" lat="43.41054014" lon="-73.02988058">
    <tag k="addr:city" v="Tinmouth"/>
    <tag k="addr:housenumber" v="122"/>
    <tag k="addr:street" v="White Birch Drive"/>
    <tag k="addr:state" v="VT"/>
    <tag k="ref:vcgi:esiteid" v="260120"/>
  </node>
  <node id="-299" visible="true" lat="43.41033119" lon="-73.02981493">
    <tag k="addr:city" v="Tinmouth"/>
    <tag k="addr:housenumber" v="124"/>
    <tag k="addr:street" v="White Birch Drive"/>
    <tag k="addr:state" v="VT"/>
    <tag k="ref:vcgi:esiteid" v="260121"/>
  </node>
  <node id="-300" visible="true" lat="43.41012191" lon="-73.03261566">
    <tag k="addr:city" v="Tinmouth"/>
    <tag k="addr:housenumber" v="42"/>
    <tag k="addr:street" v="White Birch Drive"/>
    <tag k="addr:state" v="VT"/>
    <tag k="ref:vcgi:esiteid" v="260122"/>
  </node>
  <node id="-301" visible="true" lat="43.41007995" lon="-73.02971649">
    <tag k="addr:city" v="Tinmouth"/>
    <tag k="addr:housenumber" v="126"/>
    <tag k="addr:street" v="White Birch Drive"/>
    <tag k="addr:state" v="VT"/>
    <tag k="ref:vcgi:esiteid" v="260123"/>
  </node>
  <node id="-302" visible="true" lat="43.40977131" lon="-73.02849366">
    <tag k="addr:city" v="Tinmouth"/>
    <tag k="addr:housenumber" v="134"/>
    <tag k="addr:street" v="White Birch Drive"/>
    <tag k="addr:state" v="VT"/>
    <tag k="ref:vcgi:esiteid" v="260124"/>
  </node>
  <node id="-305" visible="true" lat="43.40942382" lon="-73.02827453">
    <tag k="addr:city" v="Tinmouth"/>
    <tag k="addr:housenumber" v="148"/>
    <tag k="addr:street" v="White Birch Drive"/>
    <tag k="addr:state" v="VT"/>
    <tag k="ref:vcgi:esiteid" v="260127"/>
  </node>
  <node id="-306" visible="true" lat="43.40932845" lon="-73.03352355">
    <tag k="addr:city" v="Tinmouth"/>
    <tag k="addr:housenumber" v="64"/>
    <tag k="addr:street" v="Chipmunk Crossing Drive"/>
    <tag k="addr:state" v="VT"/>
    <tag k="ref:vcgi:esiteid" v="260128"/>
  </node>
  <node id="-307" visible="true" lat="43.40905761" lon="-73.02799224">
    <tag k="addr:city" v="Tinmouth"/>
    <tag k="addr:housenumber" v="154"/>
    <tag k="addr:street" v="White Birch Drive"/>
    <tag k="addr:state" v="VT"/>
    <tag k="ref:vcgi:esiteid" v="260129"/>
  </node>
  <node id="-308" visible="true" lat="43.4088534" lon="-73.03439736">
    <tag k="addr:city" v="Tinmouth"/>
    <tag k="addr:housenumber" v="48"/>
    <tag k="addr:street" v="Chipmunk Crossing Drive"/>
    <tag k="addr:state" v="VT"/>
    <tag k="ref:vcgi:esiteid" v="260130"/>
  </node>
  <node id="-309" visible="true" lat="43.40890543" lon="-73.02726872">
    <tag k="addr:city" v="Tinmouth"/>
    <tag k="addr:housenumber" v="156"/>
    <tag k="addr:street" v="White Birch Drive"/>
    <tag k="addr:state" v="VT"/>
    <tag k="ref:vcgi:esiteid" v="260131"/>
  </node>
  <node id="-310" visible="true" lat="43.4086563" lon="-73.02696572">
    <tag k="addr:city" v="Tinmouth"/>
    <tag k="addr:housenumber" v="162"/>
    <tag k="addr:street" v="White Birch Drive"/>
    <tag k="addr:state" v="VT"/>
    <tag k="ref:vcgi:esiteid" v="260132"/>
  </node>
  <node id="-312" visible="true" lat="43.40831375" lon="-73.0346527">
    <tag k="addr:city" v="Tinmouth"/>
    <tag k="addr:housenumber" v="32"/>
    <tag k="addr:street" v="Chipmunk Crossing Drive"/>
    <tag k="addr:state" v="VT"/>
    <tag k="ref:vcgi:esiteid" v="260134"/>
  </node>
  <node id="-315" visible="true" lat="43.4080745" lon="-73.02676843">
    <tag k="addr:city" v="Tinmouth"/>
    <tag k="addr:housenumber" v="172"/>
    <tag k="addr:street" v="White Birch Drive"/>
    <tag k="addr:state" v="VT"/>
    <tag k="ref:vcgi:esiteid" v="260137"/>
  </node>
  <node id="-318" visible="true" lat="43.40738296" lon="-73.0349121">
    <tag k="addr:city" v="Tinmouth"/>
    <tag k="addr:housenumber" v="100"/>
    <tag k="addr:street" v="West Shore Drive"/>
    <tag k="addr:state" v="VT"/>
    <tag k="ref:vcgi:esiteid" v="260140"/>
  </node>
  <node id="-319" visible="true" lat="43.40731048" lon="-73.03462219">
    <tag k="addr:city" v="Tinmouth"/>
    <tag k="addr:housenumber" v="98"/>
    <tag k="addr:street" v="West Shore Drive"/>
    <tag k="addr:state" v="VT"/>
    <tag k="ref:vcgi:esiteid" v="260141"/>
  </node>
  <node id="-322" visible="true" lat="43.40716552" lon="-73.03462219">
    <tag k="addr:city" v="Tinmouth"/>
    <tag k="addr:housenumber" v="96"/>
    <tag k="addr:street" v="West Shore Drive"/>
    <tag k="addr:state" v="VT"/>
    <tag k="ref:vcgi:esiteid" v="260144"/>
  </node>
  <node id="-323" visible="true" lat="43.40697479" lon="-73.03446197">
    <tag k="addr:city" v="Tinmouth"/>
    <tag k="addr:housenumber" v="92"/>
    <tag k="addr:street" v="West Shore Drive"/>
    <tag k="addr:state" v="VT"/>
    <tag k="ref:vcgi:esiteid" v="260145"/>
  </node>
  <node id="-324" visible="true" lat="43.4078075" lon="-73.02685959">
    <tag k="addr:city" v="Tinmouth"/>
    <tag k="addr:housenumber" v="176"/>
    <tag k="addr:street" v="White Birch Drive"/>
    <tag k="addr:state" v="VT"/>
    <tag k="ref:vcgi:esiteid" v="260146"/>
  </node>
  <node id="-325" visible="true" lat="43.40667724" lon="-73.02683258">
    <tag k="addr:city" v="Tinmouth"/>
    <tag k="addr:housenumber" v="47"/>
    <tag k="addr:street" v="East Shore Drive"/>
    <tag k="addr:state" v="VT"/>
    <tag k="ref:vcgi:esiteid" v="260147"/>
  </node>
  <node id="-326" visible="true" lat="43.40662002" lon="-73.03409576">
    <tag k="addr:city" v="Tinmouth"/>
    <tag k="addr:housenumber" v="86"/>
    <tag k="addr:street" v="West Shore Drive"/>
    <tag k="addr:state" v="VT"/>
    <tag k="ref:vcgi:esiteid" v="260148"/>
  </node>
  <node id="-327" visible="true" lat="43.40660858" lon="-73.03477477">
    <tag k="addr:city" v="Tinmouth"/>
    <tag k="addr:housenumber" v="91"/>
    <tag k="addr:street" v="West Shore Drive"/>
    <tag k="addr:state" v="VT"/>
    <tag k="ref:vcgi:esiteid" v="260149"/>
  </node>
  <node id="-331" visible="true" lat="43.40615463" lon="-73.03337859">
    <tag k="addr:city" v="Tinmouth"/>
    <tag k="addr:housenumber" v="74"/>
    <tag k="addr:street" v="West Shore Drive"/>
    <tag k="addr:state" v="VT"/>
    <tag k="ref:vcgi:esiteid" v="260153"/>
  </node>
  <node id="-333" visible="true" lat="43.40602111" lon="-73.03300475">
    <tag k="addr:city" v="Tinmouth"/>
    <tag k="addr:housenumber" v="70"/>
    <tag k="addr:street" v="West Shore Drive"/>
    <tag k="addr:state" v="VT"/>
    <tag k="ref:vcgi:esiteid" v="260155"/>
  </node>
  <node id="-334" visible="true" lat="43.40589904" lon="-73.03285217">
    <tag k="addr:city" v="Tinmouth"/>
    <tag k="addr:housenumber" v="64"/>
    <tag k="addr:street" v="West Shore Drive"/>
    <tag k="addr:state" v="VT"/>
    <tag k="ref:vcgi:esiteid" v="260156"/>
  </node>
  <node id="-335" visible="true" lat="43.40586471" lon="-73.03144073">
    <tag k="addr:city" v="Tinmouth"/>
    <tag k="addr:housenumber" v="60"/>
    <tag k="addr:street" v="West Shore Drive"/>
    <tag k="addr:state" v="VT"/>
    <tag k="ref:vcgi:esiteid" v="260157"/>
  </node>
  <node id="-336" visible="true" lat="43.40604946" lon="-73.03187874">
    <tag k="addr:city" v="Tinmouth"/>
    <tag k="addr:housenumber" v="62"/>
    <tag k="addr:street" v="West Shore Drive"/>
    <tag k="addr:state" v="VT"/>
    <tag k="ref:vcgi:esiteid" v="260158"/>
  </node>
  <node id="-338" visible="true" lat="43.40554046" lon="-73.02648925">
    <tag k="addr:city" v="Tinmouth"/>
    <tag k="addr:housenumber" v="31"/>
    <tag k="addr:street" v="East Shore Drive"/>
    <tag k="addr:state" v="VT"/>
    <tag k="ref:vcgi:esiteid" v="260160"/>
  </node>
  <node id="-339" visible="true" lat="43.40540538" lon="-73.0313978">
    <tag k="addr:city" v="Tinmouth"/>
    <tag k="addr:housenumber" v="52"/>
    <tag k="addr:street" v="West Shore Drive"/>
    <tag k="addr:state" v="VT"/>
    <tag k="ref:vcgi:esiteid" v="260161"/>
  </node>
  <node id="-340" visible="true" lat="43.4052391" lon="-73.03135681">
    <tag k="addr:city" v="Tinmouth"/>
    <tag k="addr:housenumber" v="50"/>
    <tag k="addr:street" v="West Shore Drive"/>
    <tag k="addr:state" v="VT"/>
    <tag k="ref:vcgi:esiteid" v="260162"/>
  </node>
  <node id="-342" visible="true" lat="43.40521621" lon="-73.02650451">
    <tag k="addr:city" v="Tinmouth"/>
    <tag k="addr:housenumber" v="20"/>
    <tag k="addr:street" v="Chipman Drive"/>
    <tag k="addr:state" v="VT"/>
    <tag k="ref:vcgi:esiteid" v="260164"/>
  </node>
  <node id="-343" visible="true" lat="43.40494971" lon="-73.03096877">
    <tag k="addr:city" v="Tinmouth"/>
    <tag k="addr:housenumber" v="44"/>
    <tag k="addr:street" v="West Shore Drive"/>
    <tag k="addr:state" v="VT"/>
    <tag k="ref:vcgi:esiteid" v="260165"/>
  </node>
  <node id="-345" visible="true" lat="43.40500691" lon="-73.03141851">
    <tag k="addr:city" v="Tinmouth"/>
    <tag k="addr:housenumber" v="48"/>
    <tag k="addr:street" v="West Shore Drive"/>
    <tag k="addr:state" v="VT"/>
    <tag k="ref:vcgi:esiteid" v="260167"/>
  </node>
  <node id="-346" visible="true" lat="43.40493392" lon="-73.02637481">
    <tag k="addr:city" v="Tinmouth"/>
    <tag k="addr:housenumber" v="16"/>
    <tag k="addr:street" v="Chipman Drive"/>
    <tag k="addr:state" v="VT"/>
    <tag k="ref:vcgi:esiteid" v="260168"/>
  </node>
  <node id="-347" visible="true" lat="43.40485382" lon="-73.03059387">
    <tag k="addr:city" v="Tinmouth"/>
    <tag k="addr:housenumber" v="38"/>
    <tag k="addr:street" v="West Shore Drive"/>
    <tag k="addr:state" v="VT"/>
    <tag k="ref:vcgi:esiteid" v="260169"/>
  </node>
  <node id="-348" visible="true" lat="43.4046936" lon="-73.02246857">
    <tag k="addr:city" v="Tinmouth"/>
    <tag k="addr:housenumber" v="176"/>
    <tag k="addr:street" v="Tinmouth Pond Road"/>
    <tag k="addr:state" v="VT"/>
    <tag k="ref:vcgi:esiteid" v="260170"/>
  </node>
  <node id="-350" visible="true" lat="43.40447616" lon="-73.03010559">
    <tag k="addr:city" v="Tinmouth"/>
    <tag k="addr:housenumber" v="36"/>
    <tag k="addr:street" v="West Shore Drive"/>
    <tag k="addr:state" v="VT"/>
    <tag k="ref:vcgi:esiteid" v="260172"/>
  </node>
  <node id="-351" visible="true" lat="43.40449142" lon="-73.02640533">
    <tag k="addr:city" v="Tinmouth"/>
    <tag k="addr:housenumber" v="4"/>
    <tag k="addr:street" v="Chipman Drive"/>
    <tag k="addr:state" v="VT"/>
    <tag k="ref:vcgi:esiteid" v="260173"/>
  </node>
  <node id="-352" visible="true" lat="43.40428924" lon="-73.02666473">
    <tag k="addr:city" v="Tinmouth"/>
    <tag k="addr:housenumber" v="2"/>
    <tag k="addr:street" v="Chipman Drive"/>
    <tag k="addr:state" v="VT"/>
    <tag k="ref:vcgi:esiteid" v="260174"/>
  </node>
  <node id="-354" visible="true" lat="43.40406608" lon="-73.02725065">
    <tag k="addr:city" v="Tinmouth"/>
    <tag k="addr:housenumber" v="115"/>
    <tag k="addr:street" v="Tinmouth Pond Road"/>
    <tag k="addr:state" v="VT"/>
    <tag k="ref:vcgi:esiteid" v="260176"/>
  </node>
  <node id="-355" visible="true" lat="43.40415027" lon="-73.02977483">
    <tag k="addr:city" v="Tinmouth"/>
    <tag k="addr:housenumber" v="30"/>
    <tag k="addr:street" v="West Shore Drive"/>
    <tag k="addr:state" v="VT"/>
    <tag k="ref:vcgi:esiteid" v="260177"/>
  </node>
  <node id="-356" visible="true" lat="43.40396499" lon="-73.02942657">
    <tag k="addr:city" v="Tinmouth"/>
    <tag k="addr:housenumber" v="26"/>
    <tag k="addr:street" v="West Shore Drive"/>
    <tag k="addr:state" v="VT"/>
    <tag k="ref:vcgi:esiteid" v="260178"/>
  </node>
  <node id="-358" visible="true" lat="43.40372085" lon="-73.02922058">
    <tag k="addr:city" v="Tinmouth"/>
    <tag k="addr:housenumber" v="24"/>
    <tag k="addr:street" v="West Shore Drive"/>
    <tag k="addr:state" v="VT"/>
    <tag k="ref:vcgi:esiteid" v="260180"/>
  </node>
  <node id="-359" visible="true" lat="43.40373993" lon="-73.02391815">
    <tag k="addr:city" v="Tinmouth"/>
    <tag k="addr:housenumber" v="7"/>
    <tag k="addr:street" v="Ezra Stone Road"/>
    <tag k="addr:state" v="VT"/>
    <tag k="ref:vcgi:esiteid" v="260181"/>
  </node>
  <node id="-360" visible="true" lat="43.40370924" lon="-73.03037895">
    <tag k="addr:city" v="Tinmouth"/>
    <tag k="addr:housenumber" v="25"/>
    <tag k="addr:street" v="West Shore Drive"/>
    <tag k="addr:state" v="VT"/>
    <tag k="ref:vcgi:esiteid" v="260182"/>
  </node>
  <node id="-361" visible="true" lat="43.40356064" lon="-73.02493286">
    <tag k="addr:city" v="Tinmouth"/>
    <tag k="addr:housenumber" v="146"/>
    <tag k="addr:street" v="Tinmouth Pond Road"/>
    <tag k="addr:state" v="VT"/>
    <tag k="ref:vcgi:esiteid" v="260183"/>
  </node>
  <node id="-362" visible="true" lat="43.4034775" lon="-73.02818836">
    <tag k="addr:city" v="Tinmouth"/>
    <tag k="addr:housenumber" v="113"/>
    <tag k="addr:street" v="Tinmouth Pond Road"/>
    <tag k="addr:state" v="VT"/>
    <tag k="ref:vcgi:esiteid" v="260184"/>
  </node>
  <node id="-363" visible="true" lat="43.40335845" lon="-73.0292282">
    <tag k="addr:city" v="Tinmouth"/>
    <tag k="addr:housenumber" v="16"/>
    <tag k="addr:street" v="West Shore Drive"/>
    <tag k="addr:state" v="VT"/>
    <tag k="ref:vcgi:esiteid" v="260185"/>
  </node>
  <node id="-364" visible="true" lat="43.40333557" lon="-73.02822113">
    <tag k="addr:city" v="Tinmouth"/>
    <tag k="addr:housenumber" v="111"/>
    <tag k="addr:street" v="Tinmouth Pond Road"/>
    <tag k="addr:state" v="VT"/>
    <tag k="ref:vcgi:esiteid" v="260186"/>
  </node>
  <node id="-366" visible="true" lat="43.40307976" lon="-73.02831266">
    <tag k="addr:city" v="Tinmouth"/>
    <tag k="addr:housenumber" v="107"/>
    <tag k="addr:street" v="Tinmouth Pond Road"/>
    <tag k="addr:state" v="VT"/>
    <tag k="ref:vcgi:esiteid" v="260188"/>
  </node>
  <node id="-367" visible="true" lat="43.40322494" lon="-73.02909851">
    <tag k="addr:city" v="Tinmouth"/>
    <tag k="addr:housenumber" v="12"/>
    <tag k="addr:street" v="West Shore Drive"/>
    <tag k="addr:state" v="VT"/>
    <tag k="ref:vcgi:esiteid" v="260189"/>
  </node>
  <node id="-368" visible="true" lat="43.40317375" lon="-73.02588687">
    <tag k="addr:city" v="Tinmouth"/>
    <tag k="addr:housenumber" v="126"/>
    <tag k="addr:street" v="Tinmouth Pond Road"/>
    <tag k="addr:state" v="VT"/>
    <tag k="ref:vcgi:esiteid" v="260190"/>
  </node>
  <node id="-369" visible="true" lat="43.40271405" lon="-73.02492687">
    <tag k="addr:city" v="Tinmouth"/>
    <tag k="addr:housenumber" v="12"/>
    <tag k="addr:street" v="Ezra Stone Road"/>
    <tag k="addr:state" v="VT"/>
    <tag k="ref:vcgi:esiteid" v="260191"/>
  </node>
  <node id="-371" visible="true" lat="43.40296561" lon="-73.02986914">
    <tag k="addr:city" v="Tinmouth"/>
    <tag k="addr:housenumber" v="79"/>
    <tag k="addr:street" v="Tinmouth Pond Road"/>
    <tag k="addr:state" v="VT"/>
    <tag k="ref:vcgi:esiteid" v="260193"/>
  </node>
  <node id="-373" visible="true" lat="43.40280386" lon="-73.02905335">
    <tag k="addr:city" v="Tinmouth"/>
    <tag k="addr:housenumber" v="9"/>
    <tag k="addr:street" v="West Shore Drive"/>
    <tag k="addr:state" v="VT"/>
    <tag k="ref:vcgi:esiteid" v="260195"/>
  </node>
  <node id="-377" visible="true" lat="43.4021723" lon="-73.02801737">
    <tag k="addr:city" v="Tinmouth"/>
    <tag k="addr:housenumber" v="96"/>
    <tag k="addr:street" v="Tinmouth Pond Road"/>
    <tag k="addr:state" v="VT"/>
    <tag k="ref:vcgi:esiteid" v="260199"/>
  </node>
  <node id="-381" visible="true" lat="43.40227541" lon="-73.02943143">
    <tag k="addr:city" v="Tinmouth"/>
    <tag k="addr:housenumber" v="87"/>
    <tag k="addr:street" v="Tinmouth Pond Road"/>
    <tag k="addr:state" v="VT"/>
    <tag k="ref:vcgi:esiteid" v="260203"/>
  </node>
  <node id="-402" visible="true" lat="43.40940161" lon="-73.03482089">
    <tag k="addr:city" v="Tinmouth"/>
    <tag k="addr:housenumber" v="43"/>
    <tag k="addr:street" v="Chipmunk Crossing Drive"/>
    <tag k="addr:state" v="VT"/>
    <tag k="ref:vcgi:esiteid" v="260229"/>
  </node>
  <node id="-409" visible="true" lat="43.44143849" lon="-73.02978409">
    <tag k="addr:city" v="Tinmouth"/>
    <tag k="addr:housenumber" v="117"/>
    <tag k="addr:street" v="East Road"/>
    <tag k="addr:state" v="VT"/>
    <tag k="ref:vcgi:esiteid" v="260236"/>
  </node>
  <node id="-414" visible="true" lat="43.41100409" lon="-73.03498191">
    <tag k="addr:city" v="Tinmouth"/>
    <tag k="addr:housenumber" v="25"/>
    <tag k="addr:street" v="White Birch Drive"/>
    <tag k="addr:state" v="VT"/>
    <tag k="ref:vcgi:esiteid" v="260241"/>
  </node>
  <node id="-416" visible="true" lat="43.47150699" lon="-73.05847872">
    <tag k="addr:city" v="Tinmouth"/>
    <tag k="addr:housenumber" v="39"/>
    <tag k="addr:street" v="Gulf Road"/>
    <tag k="addr:state" v="VT"/>
    <tag k="ref:vcgi:esiteid" v="260243"/>
  </node>
  <node id="-419" visible="true" lat="43.41031473" lon="-73.03267213">
    <tag k="addr:city" v="Tinmouth"/>
    <tag k="addr:housenumber" v="48"/>
    <tag k="addr:street" v="White Birch Drive"/>
    <tag k="addr:state" v="VT"/>
    <tag k="ref:vcgi:esiteid" v="260246"/>
  </node>
  <node id="-441" visible="true" lat="43.47203438" lon="-73.04727362">
    <tag k="addr:city" v="Tinmouth"/>
    <tag k="addr:housenumber" v="49"/>
    <tag k="addr:street" v="North End Road"/>
    <tag k="addr:state" v="VT"/>
    <tag k="ref:vcgi:esiteid" v="454516"/>
  </node>
  <node id="-442" visible="true" lat="43.42289329" lon="-73.03729728">
    <tag k="addr:city" v="Tinmouth"/>
    <tag k="addr:housenumber" v="18"/>
    <tag k="addr:street" v="Sugar House Lane"/>
    <tag k="addr:state" v="VT"/>
    <tag k="ref:vcgi:esiteid" v="454984"/>
  </node>
  <node id="-443" visible="true" lat="43.42143643" lon="-73.03837654">
    <tag k="addr:city" v="Tinmouth"/>
    <tag k="addr:housenumber" v="36"/>
    <tag k="addr:street" v="Sugar House Lane"/>
    <tag k="addr:state" v="VT"/>
    <tag k="ref:vcgi:esiteid" v="454985"/>
  </node>
  <node id="-444" visible="true" lat="43.42037777" lon="-73.03876343">
    <tag k="addr:city" v="Tinmouth"/>
    <tag k="addr:housenumber" v="52"/>
    <tag k="addr:street" v="Sugar House Lane"/>
    <tag k="addr:state" v="VT"/>
    <tag k="ref:vcgi:esiteid" v="454986"/>
  </node>
  <node id="-452" visible="true" lat="43.43584146" lon="-73.03186859">
    <tag k="addr:city" v="Tinmouth"/>
    <tag k="addr:housenumber" v="22"/>
    <tag k="addr:street" v="Crow Hill Road"/>
    <tag k="addr:state" v="VT"/>
    <tag k="ref:vcgi:esiteid" v="454994"/>
  </node>
  <node id="-453" visible="true" lat="43.43652257" lon="-73.03330305">
    <tag k="addr:city" v="Tinmouth"/>
    <tag k="addr:housenumber" v="2"/>
    <tag k="addr:street" v="Crow Hill Road"/>
    <tag k="addr:state" v="VT"/>
    <tag k="ref:vcgi:esiteid" v="454995"/>
  </node>
  <node id="-455" visible="true" lat="43.48969465" lon="-73.02469311">
    <tag k="addr:city" v="Tinmouth"/>
    <tag k="addr:housenumber" v="513"/>
    <tag k="addr:street" v="North End Road"/>
    <tag k="addr:state" v="VT"/>
    <tag k="ref:vcgi:esiteid" v="454997"/>
  </node>
  <node id="-456" visible="true" lat="43.48671415" lon="-73.01675576">
    <tag k="addr:city" v="Tinmouth"/>
    <tag k="addr:housenumber" v="608"/>
    <tag k="addr:street" v="North End Road"/>
    <tag k="addr:state" v="VT"/>
    <tag k="ref:vcgi:esiteid" v="454998"/>
  </node>
  <node id="-457" visible="true" lat="43.49120273" lon="-73.06611524">
    <tag k="addr:city" v="Tinmouth"/>
    <tag k="addr:housenumber" v="200"/>
    <tag k="addr:street" v="Northrup Road"/>
    <tag k="addr:state" v="VT"/>
    <tag k="ref:vcgi:esiteid" v="454999"/>
  </node>
  <node id="-464" visible="true" lat="43.40694162" lon="-73.0268274">
    <tag k="addr:city" v="Tinmouth"/>
    <tag k="addr:housenumber" v="188"/>
    <tag k="addr:street" v="White Birch Drive"/>
    <tag k="addr:state" v="VT"/>
    <tag k="ref:vcgi:esiteid" v="455006"/>
  </node>
  <node id="-465" visible="true" lat="43.40834227" lon="-73.02685006">
    <tag k="addr:city" v="Tinmouth"/>
    <tag k="addr:housenumber" v="168"/>
    <tag k="addr:street" v="White Birch Drive"/>
    <tag k="addr:state" v="VT"/>
    <tag k="ref:vcgi:esiteid" v="455007"/>
  </node>
  <node id="-466" visible="true" lat="43.4074295" lon="-73.02689004">
    <tag k="addr:city" v="Tinmouth"/>
    <tag k="addr:housenumber" v="182"/>
    <tag k="addr:street" v="White Birch Drive"/>
    <tag k="addr:state" v="VT"/>
    <tag k="ref:vcgi:esiteid" v="455043"/>
  </node>
</osm>
