<?xml version="1.0" encoding="UTF-8"?>
<osm version="0.6" generator="JOSM" upload="false">
  <node id="-235" visible="true" lat="44.13576126" lon="-72.31754303">
    <!-- conflict: "648 Vermont Route 25, , VT" No match in OSM, but a different address exists <5m away: "648 Vt Route 25, Topsham, VT" -->
    <tag k="addr:housenumber" v="648"/>
    <tag k="addr:street" v="Vermont Route 25"/>
    <tag k="addr:state" v="VT"/>
    <tag k="ref:vcgi:esiteid" v="260390"/>
  </node>
  <node id="-324" visible="true" lat="44.12154016" lon="-72.23706664">
    <!-- conflict: "31 Old County Road, , VT" No match in OSM, but a different address exists <5m away: "19 Powder Spring Road, Topsham, VT" -->
    <tag k="addr:housenumber" v="31"/>
    <tag k="addr:street" v="Old County Road"/>
    <tag k="addr:state" v="VT"/>
    <tag k="ref:vcgi:esiteid" v="260481"/>
  </node>
  <node id="-375" visible="true" lat="44.1169152" lon="-72.3086419">
    <!-- conflict: "493 Vermont Route 25, , VT" No match in OSM, but a different address exists <5m away: "493 Vt Route 25, Topsham, VT" -->
    <tag k="addr:housenumber" v="493"/>
    <tag k="addr:street" v="Vermont Route 25"/>
    <tag k="addr:state" v="VT"/>
    <tag k="ref:vcgi:esiteid" v="260534"/>
  </node>
  <node id="-382" visible="true" lat="44.11619949" lon="-72.30899047">
    <!-- conflict: "490 Vermont Route 25, , VT" No match in OSM, but a different address exists <5m away: "490 Vt Route 25, Topsham, VT" -->
    <tag k="addr:housenumber" v="490"/>
    <tag k="addr:street" v="Vermont Route 25"/>
    <tag k="addr:state" v="VT"/>
    <tag k="ref:vcgi:esiteid" v="260541"/>
  </node>
  <node id="-383" visible="true" lat="44.11619186" lon="-72.31184387">
    <!-- conflict: "475 Vermont Route 25, , VT" No match in OSM, but a different address exists <5m away: "475 Vt Route 25, Topsham, VT" -->
    <tag k="addr:housenumber" v="475"/>
    <tag k="addr:street" v="Vermont Route 25"/>
    <tag k="addr:state" v="VT"/>
    <tag k="ref:vcgi:esiteid" v="260542"/>
  </node>
  <node id="-384" visible="true" lat="44.11606867" lon="-72.30929689">
    <!-- conflict: "488 Vermont Route 25, , VT" No match in OSM, but a different address exists <5m away: "488 Vt Route 25, Topsham, VT" -->
    <tag k="addr:housenumber" v="488"/>
    <tag k="addr:street" v="Vermont Route 25"/>
    <tag k="addr:state" v="VT"/>
    <tag k="ref:vcgi:esiteid" v="260543"/>
  </node>
  <node id="-386" visible="true" lat="44.11602529" lon="-72.30954226">
    <!-- conflict: "486 Vermont Route 25, , VT" No match in OSM, but a different address exists <5m away: "486 Vt Route 25, Topsham, VT" -->
    <tag k="addr:housenumber" v="486"/>
    <tag k="addr:street" v="Vermont Route 25"/>
    <tag k="addr:state" v="VT"/>
    <tag k="ref:vcgi:esiteid" v="260545"/>
  </node>
  <node id="-389" visible="true" lat="44.11594137" lon="-72.30953463">
    <!-- conflict: "484 Vermont Route 25, , VT" No match in OSM, but a different address exists <5m away: "484 Vt Route 25, Topsham, VT" -->
    <tag k="addr:housenumber" v="484"/>
    <tag k="addr:street" v="Vermont Route 25"/>
    <tag k="addr:state" v="VT"/>
    <tag k="ref:vcgi:esiteid" v="260548"/>
  </node>
  <node id="-390" visible="true" lat="44.11576189" lon="-72.31024397">
    <!-- conflict: "482 Vermont Route 25, , VT" No match in OSM, but a different address exists <5m away: "482 Vt Route 25, Topsham, VT" -->
    <tag k="addr:housenumber" v="482"/>
    <tag k="addr:street" v="Vermont Route 25"/>
    <tag k="addr:state" v="VT"/>
    <tag k="ref:vcgi:esiteid" v="260550"/>
  </node>
  <node id="-392" visible="true" lat="44.11559386" lon="-72.31118591">
    <!-- conflict: "476 Vermont Route 25, , VT" No match in OSM, but a different address exists <5m away: "476 Vt Route 25, Topsham, VT" -->
    <tag k="addr:housenumber" v="476"/>
    <tag k="addr:street" v="Vermont Route 25"/>
    <tag k="addr:state" v="VT"/>
    <tag k="ref:vcgi:esiteid" v="260552"/>
  </node>
  <node id="-393" visible="true" lat="44.11570358" lon="-72.31149291">
    <!-- conflict: "474 Vermont Route 25, , VT" No match in OSM, but a different address exists <5m away: "474 Vt Route 25, Topsham, VT" -->
    <tag k="addr:housenumber" v="474"/>
    <tag k="addr:street" v="Vermont Route 25"/>
    <tag k="addr:state" v="VT"/>
    <tag k="ref:vcgi:esiteid" v="260553"/>
  </node>
  <node id="-396" visible="true" lat="44.11544414" lon="-72.31051142">
    <!-- conflict: "480 Vermont Route 25, , VT" No match in OSM, but a different address exists <5m away: "480 Vt Route 25, Topsham, VT" -->
    <tag k="addr:housenumber" v="480"/>
    <tag k="addr:street" v="Vermont Route 25"/>
    <tag k="addr:state" v="VT"/>
    <tag k="ref:vcgi:esiteid" v="260556"/>
  </node>
  <node id="-400" visible="true" lat="44.115091" lon="-72.31236705">
    <!-- conflict: "468 Vermont Route 25, , VT" No match in OSM, but a different address exists <5m away: "468 Vt Route 25, Topsham, VT" -->
    <tag k="addr:housenumber" v="468"/>
    <tag k="addr:street" v="Vermont Route 25"/>
    <tag k="addr:state" v="VT"/>
    <tag k="ref:vcgi:esiteid" v="260560"/>
  </node>
  <node id="-401" visible="true" lat="44.11481501" lon="-72.31282756">
    <!-- conflict: "466 Vermont Route 25, , VT" No match in OSM, but a different address exists <5m away: "466 Vt Route 25, Topsham, VT" -->
    <tag k="addr:housenumber" v="466"/>
    <tag k="addr:street" v="Vermont Route 25"/>
    <tag k="addr:state" v="VT"/>
    <tag k="ref:vcgi:esiteid" v="260561"/>
  </node>
  <node id="-403" visible="true" lat="44.11480087" lon="-72.31390613">
    <!-- conflict: "461 Vermont Route 25, , VT" No match in OSM, but a different address exists <5m away: "461 Vt Route 25, Topsham, VT" -->
    <tag k="addr:housenumber" v="461"/>
    <tag k="addr:street" v="Vermont Route 25"/>
    <tag k="addr:state" v="VT"/>
    <tag k="ref:vcgi:esiteid" v="260563"/>
  </node>
  <node id="-405" visible="true" lat="44.11443153" lon="-72.31377945">
    <!-- conflict: "460 Vermont Route 25, , VT" No match in OSM, but a different address exists <5m away: "460 Vt Route 25, Topsham, VT" -->
    <tag k="addr:housenumber" v="460"/>
    <tag k="addr:street" v="Vermont Route 25"/>
    <tag k="addr:state" v="VT"/>
    <tag k="ref:vcgi:esiteid" v="260565"/>
  </node>
  <node id="-406" visible="true" lat="44.11427566" lon="-72.31412387">
    <!-- conflict: "456 Vermont Route 25, , VT" No match in OSM, but a different address exists <5m away: "456 Vt Route 25, Topsham, VT" -->
    <tag k="addr:housenumber" v="456"/>
    <tag k="addr:street" v="Vermont Route 25"/>
    <tag k="addr:state" v="VT"/>
    <tag k="ref:vcgi:esiteid" v="260566"/>
  </node>
  <node id="-657" visible="true" lat="44.11550503" lon="-72.31200912">
    <!-- conflict: "470 Vermont Route 25, , VT" No match in OSM, but a different address exists <5m away: "470 Vt Route 25, Topsham, VT" -->
    <tag k="addr:housenumber" v="470"/>
    <tag k="addr:street" v="Vermont Route 25"/>
    <tag k="addr:state" v="VT"/>
    <tag k="ref:vcgi:esiteid" v="260821"/>
  </node>
  <node id="-764" visible="true" lat="44.11900926" lon="-72.28857562">
    <!-- conflict: "116 Zion Hill Road, , VT" No match in OSM, but a different address exists <5m away: "107 Zion Hill Road, Topsham, VT" -->
    <tag k="addr:housenumber" v="116"/>
    <tag k="addr:street" v="Zion Hill Road"/>
    <tag k="addr:state" v="VT"/>
    <tag k="ref:vcgi:esiteid" v="260937"/>
  </node>
  <node id="-772" visible="true" lat="44.11444331" lon="-72.31310827">
    <!-- conflict: "464 Vermont Route 25, , VT" No match in OSM, but a different address exists <5m away: "464 Vt Route 25, Topsham, VT" -->
    <tag k="addr:housenumber" v="464"/>
    <tag k="addr:street" v="Vermont Route 25"/>
    <tag k="addr:state" v="VT"/>
    <tag k="ref:vcgi:esiteid" v="260946"/>
  </node>
  <node id="-851" visible="true" lat="44.11777148" lon="-72.30836869">
    <!-- conflict: "499 Vermont Route 25, , VT" No match in OSM, but a different address exists <5m away: "497 Vt Route 25, Topsham, VT" -->
    <tag k="addr:housenumber" v="499"/>
    <tag k="addr:street" v="Vermont Route 25"/>
    <tag k="addr:state" v="VT"/>
    <tag k="ref:vcgi:esiteid" v="618176"/>
  </node>
</osm>
