<?xml version="1.0" encoding="UTF-8"?>
<osm version="0.6" generator="JOSM">
  <node id="-100" visible="true" lat="44.18982267" lon="-72.2098312">
    <tag k="addr:city" v="Topsham"/>
    <tag k="addr:housenumber" v="529"/>
    <tag k="addr:street" v="Galusha Hill Road"/>
    <tag k="addr:state" v="VT"/>
    <tag k="ref:vcgi:esiteid" v="260249"/>
  </node>
  <node id="-101" visible="true" lat="44.1882066" lon="-72.22158373">
    <tag k="addr:city" v="Topsham"/>
    <tag k="addr:housenumber" v="534"/>
    <tag k="addr:street" v="Powder Spring Road"/>
    <tag k="addr:state" v="VT"/>
    <tag k="ref:vcgi:esiteid" v="260250"/>
  </node>
  <node id="-102" visible="true" lat="44.18666649" lon="-72.22219622">
    <tag k="addr:city" v="Topsham"/>
    <tag k="addr:housenumber" v="520"/>
    <tag k="addr:street" v="Powder Spring Road"/>
    <tag k="addr:state" v="VT"/>
    <tag k="ref:vcgi:esiteid" v="260253"/>
  </node>
  <node id="-103" visible="true" lat="44.18664884" lon="-72.22377011">
    <tag k="addr:city" v="Topsham"/>
    <tag k="addr:housenumber" v="519"/>
    <tag k="addr:street" v="Powder Spring Road"/>
    <tag k="addr:state" v="VT"/>
    <tag k="ref:vcgi:esiteid" v="260254"/>
  </node>
  <node id="-104" visible="true" lat="44.18630725" lon="-72.22234389">
    <tag k="addr:city" v="Topsham"/>
    <tag k="addr:housenumber" v="518"/>
    <tag k="addr:street" v="Powder Spring Road"/>
    <tag k="addr:state" v="VT"/>
    <tag k="ref:vcgi:esiteid" v="260255"/>
  </node>
  <node id="-105" visible="true" lat="44.18296598" lon="-72.20672546">
    <tag k="addr:city" v="Topsham"/>
    <tag k="addr:housenumber" v="480"/>
    <tag k="addr:street" v="Galusha Hill Road"/>
    <tag k="addr:state" v="VT"/>
    <tag k="ref:vcgi:esiteid" v="260256"/>
  </node>
  <node id="-106" visible="true" lat="44.18253659" lon="-72.22502133">
    <tag k="addr:city" v="Topsham"/>
    <tag k="addr:housenumber" v="486"/>
    <tag k="addr:street" v="Powder Spring Road"/>
    <tag k="addr:state" v="VT"/>
    <tag k="ref:vcgi:esiteid" v="260257"/>
  </node>
  <node id="-107" visible="true" lat="44.18274806" lon="-72.2964672">
    <tag k="addr:city" v="Topsham"/>
    <tag k="addr:housenumber" v="324"/>
    <tag k="addr:street" v="U.S. Route 302"/>
    <tag k="addr:state" v="VT"/>
    <tag k="ref:vcgi:esiteid" v="260258"/>
  </node>
  <node id="-108" visible="true" lat="44.18064204" lon="-72.2069728">
    <tag k="addr:city" v="Topsham"/>
    <tag k="addr:housenumber" v="463"/>
    <tag k="addr:street" v="Galusha Hill Road"/>
    <tag k="addr:state" v="VT"/>
    <tag k="ref:vcgi:esiteid" v="260259"/>
  </node>
  <node id="-109" visible="true" lat="44.18015241" lon="-72.22881314">
    <tag k="addr:city" v="Topsham"/>
    <tag k="addr:housenumber" v="16"/>
    <tag k="addr:street" v="Keenan Pond Road"/>
    <tag k="addr:state" v="VT"/>
    <tag k="ref:vcgi:esiteid" v="260260"/>
  </node>
  <node id="-110" visible="true" lat="44.17980146" lon="-72.22842404">
    <tag k="addr:city" v="Topsham"/>
    <tag k="addr:housenumber" v="12"/>
    <tag k="addr:street" v="Keenan Pond Road"/>
    <tag k="addr:state" v="VT"/>
    <tag k="ref:vcgi:esiteid" v="260262"/>
  </node>
  <node id="-111" visible="true" lat="44.17910469" lon="-72.2948908">
    <tag k="addr:city" v="Topsham"/>
    <tag k="addr:housenumber" v="322"/>
    <tag k="addr:street" v="U.S. Route 302"/>
    <tag k="addr:state" v="VT"/>
    <tag k="ref:vcgi:esiteid" v="260263"/>
  </node>
  <node id="-112" visible="true" lat="44.17901987" lon="-72.22621711">
    <tag k="addr:city" v="Topsham"/>
    <tag k="addr:housenumber" v="458"/>
    <tag k="addr:street" v="Powder Spring Road"/>
    <tag k="addr:state" v="VT"/>
    <tag k="ref:vcgi:esiteid" v="260264"/>
  </node>
  <node id="-113" visible="true" lat="44.17880159" lon="-72.22817612">
    <tag k="addr:city" v="Topsham"/>
    <tag k="addr:housenumber" v="7"/>
    <tag k="addr:street" v="Keenan Pond Road"/>
    <tag k="addr:state" v="VT"/>
    <tag k="ref:vcgi:esiteid" v="260265"/>
  </node>
  <node id="-114" visible="true" lat="44.17804288" lon="-72.2255859">
    <tag k="addr:city" v="Topsham"/>
    <tag k="addr:housenumber" v="456"/>
    <tag k="addr:street" v="Powder Spring Road"/>
    <tag k="addr:state" v="VT"/>
    <tag k="ref:vcgi:esiteid" v="260266"/>
  </node>
  <node id="-115" visible="true" lat="44.17770414" lon="-72.2990928">
    <tag k="addr:city" v="Topsham"/>
    <tag k="addr:housenumber" v="298"/>
    <tag k="addr:street" v="U.S. Route 302"/>
    <tag k="addr:state" v="VT"/>
    <tag k="ref:vcgi:esiteid" v="260267"/>
  </node>
  <node id="-116" visible="true" lat="44.17751174" lon="-72.29803614">
    <tag k="addr:city" v="Topsham"/>
    <tag k="addr:housenumber" v="300"/>
    <tag k="addr:street" v="U.S. Route 302"/>
    <tag k="addr:state" v="VT"/>
    <tag k="ref:vcgi:esiteid" v="260268"/>
  </node>
  <node id="-117" visible="true" lat="44.1755157" lon="-72.29557581">
    <tag k="addr:city" v="Topsham"/>
    <tag k="addr:housenumber" v="276"/>
    <tag k="addr:street" v="U.S. Route 302"/>
    <tag k="addr:state" v="VT"/>
    <tag k="ref:vcgi:esiteid" v="260269"/>
  </node>
  <node id="-118" visible="true" lat="44.17591094" lon="-72.30050659">
    <tag k="addr:city" v="Topsham"/>
    <tag k="addr:housenumber" v="284"/>
    <tag k="addr:street" v="U.S. Route 302"/>
    <tag k="addr:state" v="VT"/>
    <tag k="ref:vcgi:esiteid" v="260270"/>
  </node>
  <node id="-119" visible="true" lat="44.1754527" lon="-72.22587582">
    <tag k="addr:city" v="Topsham"/>
    <tag k="addr:housenumber" v="435"/>
    <tag k="addr:street" v="Powder Spring Road"/>
    <tag k="addr:state" v="VT"/>
    <tag k="ref:vcgi:esiteid" v="260271"/>
  </node>
  <node id="-120" visible="true" lat="44.16972351" lon="-72.30212402">
    <tag k="addr:city" v="Topsham"/>
    <tag k="addr:housenumber" v="234"/>
    <tag k="addr:street" v="U.S. Route 302"/>
    <tag k="addr:state" v="VT"/>
    <tag k="ref:vcgi:esiteid" v="260272"/>
  </node>
  <node id="-121" visible="true" lat="44.16942167" lon="-72.21063229">
    <tag k="addr:city" v="Topsham"/>
    <tag k="addr:housenumber" v="375"/>
    <tag k="addr:street" v="Galusha Hill Road"/>
    <tag k="addr:state" v="VT"/>
    <tag k="ref:vcgi:esiteid" v="260273"/>
  </node>
  <node id="-122" visible="true" lat="44.16869735" lon="-72.3030014">
    <tag k="addr:city" v="Topsham"/>
    <tag k="addr:housenumber" v="230"/>
    <tag k="addr:street" v="U.S. Route 302"/>
    <tag k="addr:state" v="VT"/>
    <tag k="ref:vcgi:esiteid" v="260274"/>
  </node>
  <node id="-123" visible="true" lat="44.16841125" lon="-72.30366516">
    <tag k="addr:city" v="Topsham"/>
    <tag k="addr:housenumber" v="226"/>
    <tag k="addr:street" v="U.S. Route 302"/>
    <tag k="addr:state" v="VT"/>
    <tag k="ref:vcgi:esiteid" v="260275"/>
  </node>
  <node id="-124" visible="true" lat="44.16810989" lon="-72.30347442">
    <tag k="addr:city" v="Topsham"/>
    <tag k="addr:housenumber" v="228"/>
    <tag k="addr:street" v="U.S. Route 302"/>
    <tag k="addr:state" v="VT"/>
    <tag k="ref:vcgi:esiteid" v="260276"/>
  </node>
  <node id="-125" visible="true" lat="44.16766047" lon="-72.26852551">
    <tag k="addr:city" v="Topsham"/>
    <tag k="addr:housenumber" v="19"/>
    <tag k="addr:street" v="Fuller Hill Road"/>
    <tag k="addr:state" v="VT"/>
    <tag k="ref:vcgi:esiteid" v="260277"/>
  </node>
  <node id="-126" visible="true" lat="44.16671323" lon="-72.2282333">
    <tag k="addr:city" v="Topsham"/>
    <tag k="addr:housenumber" v="343"/>
    <tag k="addr:street" v="Powder Spring Road"/>
    <tag k="addr:state" v="VT"/>
    <tag k="ref:vcgi:esiteid" v="260278"/>
  </node>
  <node id="-127" visible="true" lat="44.16659116" lon="-72.24684903">
    <tag k="addr:city" v="Topsham"/>
    <tag k="addr:housenumber" v="138"/>
    <tag k="addr:street" v="Frost Road"/>
    <tag k="addr:state" v="VT"/>
    <tag k="ref:vcgi:esiteid" v="260279"/>
  </node>
  <node id="-128" visible="true" lat="44.16195891" lon="-72.19317175">
    <tag k="addr:city" v="Topsham"/>
    <tag k="addr:housenumber" v="336"/>
    <tag k="addr:street" v="Galusha Hill Road"/>
    <tag k="addr:state" v="VT"/>
    <tag k="ref:vcgi:esiteid" v="260280"/>
  </node>
  <node id="-129" visible="true" lat="44.16461051" lon="-72.21280716">
    <tag k="addr:city" v="Topsham"/>
    <tag k="addr:housenumber" v="47"/>
    <tag k="addr:street" v="Clarks Crossroad"/>
    <tag k="addr:state" v="VT"/>
    <tag k="ref:vcgi:esiteid" v="260281"/>
  </node>
  <node id="-130" visible="true" lat="44.1647067" lon="-72.24327084">
    <tag k="addr:city" v="Topsham"/>
    <tag k="addr:housenumber" v="117"/>
    <tag k="addr:street" v="Frost Road"/>
    <tag k="addr:state" v="VT"/>
    <tag k="ref:vcgi:esiteid" v="260282"/>
  </node>
  <node id="-131" visible="true" lat="44.16450214" lon="-72.30475973">
    <tag k="addr:city" v="Topsham"/>
    <tag k="addr:housenumber" v="198"/>
    <tag k="addr:street" v="U.S. Route 302"/>
    <tag k="addr:state" v="VT"/>
    <tag k="ref:vcgi:esiteid" v="260283"/>
  </node>
  <node id="-132" visible="true" lat="44.16381855" lon="-72.30553036">
    <tag k="addr:city" v="Topsham"/>
    <tag k="addr:housenumber" v="190"/>
    <tag k="addr:street" v="U.S. Route 302"/>
    <tag k="addr:state" v="VT"/>
    <tag k="ref:vcgi:esiteid" v="260284"/>
  </node>
  <node id="-133" visible="true" lat="44.16301297" lon="-72.24711606">
    <tag k="addr:city" v="Topsham"/>
    <tag k="addr:housenumber" v="165"/>
    <tag k="addr:street" v="Frost Road"/>
    <tag k="addr:state" v="VT"/>
    <tag k="ref:vcgi:esiteid" v="260285"/>
  </node>
  <node id="-134" visible="true" lat="44.16280047" lon="-72.2137427">
    <tag k="addr:city" v="Topsham"/>
    <tag k="addr:housenumber" v="53"/>
    <tag k="addr:street" v="Clarks Crossroad"/>
    <tag k="addr:state" v="VT"/>
    <tag k="ref:vcgi:esiteid" v="260286"/>
  </node>
  <node id="-135" visible="true" lat="44.16269254" lon="-72.24060056">
    <tag k="addr:city" v="Topsham"/>
    <tag k="addr:housenumber" v="93"/>
    <tag k="addr:street" v="Frost Road"/>
    <tag k="addr:state" v="VT"/>
    <tag k="ref:vcgi:esiteid" v="260287"/>
  </node>
  <node id="-136" visible="true" lat="44.1624036" lon="-72.22696996">
    <tag k="addr:city" v="Topsham"/>
    <tag k="addr:housenumber" v="341"/>
    <tag k="addr:street" v="Powder Spring Road"/>
    <tag k="addr:state" v="VT"/>
    <tag k="ref:vcgi:esiteid" v="260288"/>
  </node>
  <node id="-137" visible="true" lat="44.16277403" lon="-72.30747087">
    <tag k="addr:city" v="Topsham"/>
    <tag k="addr:housenumber" v="185"/>
    <tag k="addr:street" v="U.S. Route 302"/>
    <tag k="addr:state" v="VT"/>
    <tag k="ref:vcgi:esiteid" v="260289"/>
  </node>
  <node id="-138" visible="true" lat="44.16104328" lon="-72.21352978">
    <tag k="addr:city" v="Topsham"/>
    <tag k="addr:housenumber" v="10"/>
    <tag k="addr:street" v="Clarks Road"/>
    <tag k="addr:state" v="VT"/>
    <tag k="ref:vcgi:esiteid" v="260290"/>
  </node>
  <node id="-139" visible="true" lat="44.16093691" lon="-72.30836827">
    <tag k="addr:city" v="Topsham"/>
    <tag k="addr:housenumber" v="169"/>
    <tag k="addr:street" v="U.S. Route 302"/>
    <tag k="addr:state" v="VT"/>
    <tag k="ref:vcgi:esiteid" v="260291"/>
  </node>
  <node id="-140" visible="true" lat="44.15945005" lon="-72.26637265">
    <tag k="addr:city" v="Topsham"/>
    <tag k="addr:housenumber" v="225"/>
    <tag k="addr:street" v="Downing Road"/>
    <tag k="addr:state" v="VT"/>
    <tag k="ref:vcgi:esiteid" v="260292"/>
  </node>
  <node id="-141" visible="true" lat="44.16089461" lon="-72.29956376">
    <tag k="addr:city" v="Topsham"/>
    <tag k="addr:housenumber" v="170"/>
    <tag k="addr:street" v="U.S. Route 302"/>
    <tag k="addr:state" v="VT"/>
    <tag k="ref:vcgi:esiteid" v="260293"/>
  </node>
  <node id="-142" visible="true" lat="44.15903806" lon="-72.2654495">
    <tag k="addr:city" v="Topsham"/>
    <tag k="addr:housenumber" v="223"/>
    <tag k="addr:street" v="Downing Road"/>
    <tag k="addr:state" v="VT"/>
    <tag k="ref:vcgi:esiteid" v="260294"/>
  </node>
  <node id="-143" visible="true" lat="44.15905031" lon="-72.30977772">
    <tag k="addr:city" v="Topsham"/>
    <tag k="addr:housenumber" v="157"/>
    <tag k="addr:street" v="U.S. Route 302"/>
    <tag k="addr:state" v="VT"/>
    <tag k="ref:vcgi:esiteid" v="260295"/>
  </node>
  <node id="-144" visible="true" lat="44.1584773" lon="-72.26119229">
    <tag k="addr:city" v="Topsham"/>
    <tag k="addr:housenumber" v="18"/>
    <tag k="addr:street" v="Kasson Road"/>
    <tag k="addr:state" v="VT"/>
    <tag k="ref:vcgi:esiteid" v="260296"/>
  </node>
  <node id="-145" visible="true" lat="44.15794705" lon="-72.23650357">
    <tag k="addr:city" v="Topsham"/>
    <tag k="addr:housenumber" v="55"/>
    <tag k="addr:street" v="Frost Road"/>
    <tag k="addr:state" v="VT"/>
    <tag k="ref:vcgi:esiteid" v="260297"/>
  </node>
  <node id="-146" visible="true" lat="44.15755058" lon="-72.22683804">
    <tag k="addr:city" v="Topsham"/>
    <tag k="addr:housenumber" v="306"/>
    <tag k="addr:street" v="Powder Spring Road"/>
    <tag k="addr:state" v="VT"/>
    <tag k="ref:vcgi:esiteid" v="260298"/>
  </node>
  <node id="-147" visible="true" lat="44.15692686" lon="-72.20281158">
    <tag k="addr:city" v="Topsham"/>
    <tag k="addr:housenumber" v="57"/>
    <tag k="addr:street" v="Fiske Road"/>
    <tag k="addr:state" v="VT"/>
    <tag k="ref:vcgi:esiteid" v="260299"/>
  </node>
  <node id="-148" visible="true" lat="44.15649961" lon="-72.20311676">
    <tag k="addr:city" v="Topsham"/>
    <tag k="addr:housenumber" v="55"/>
    <tag k="addr:street" v="Fiske Road"/>
    <tag k="addr:state" v="VT"/>
    <tag k="ref:vcgi:esiteid" v="260301"/>
  </node>
  <node id="-149" visible="true" lat="44.15617936" lon="-72.31163494">
    <tag k="addr:city" v="Topsham"/>
    <tag k="addr:housenumber" v="134"/>
    <tag k="addr:street" v="U.S. Route 302"/>
    <tag k="addr:state" v="VT"/>
    <tag k="ref:vcgi:esiteid" v="260302"/>
  </node>
  <node id="-150" visible="true" lat="44.15602353" lon="-72.20755292">
    <tag k="addr:city" v="Topsham"/>
    <tag k="addr:housenumber" v="29"/>
    <tag k="addr:street" v="Fiske Road"/>
    <tag k="addr:state" v="VT"/>
    <tag k="ref:vcgi:esiteid" v="260303"/>
  </node>
  <node id="-151" visible="true" lat="44.15544675" lon="-72.2010492">
    <tag k="addr:city" v="Topsham"/>
    <tag k="addr:housenumber" v="63"/>
    <tag k="addr:street" v="Fiske Road"/>
    <tag k="addr:state" v="VT"/>
    <tag k="ref:vcgi:esiteid" v="260304"/>
  </node>
  <node id="-152" visible="true" lat="44.15537453" lon="-72.20302196">
    <tag k="addr:city" v="Topsham"/>
    <tag k="addr:housenumber" v="52"/>
    <tag k="addr:street" v="Fiske Road"/>
    <tag k="addr:state" v="VT"/>
    <tag k="ref:vcgi:esiteid" v="260305"/>
  </node>
  <node id="-153" visible="true" lat="44.15533399" lon="-72.22996518">
    <tag k="addr:city" v="Topsham"/>
    <tag k="addr:housenumber" v="279"/>
    <tag k="addr:street" v="Powder Spring Road"/>
    <tag k="addr:state" v="VT"/>
    <tag k="ref:vcgi:esiteid" v="260306"/>
  </node>
  <node id="-154" visible="true" lat="44.15529384" lon="-72.30984177">
    <tag k="addr:city" v="Topsham"/>
    <tag k="addr:housenumber" v="128"/>
    <tag k="addr:street" v="U.S. Route 302"/>
    <tag k="addr:state" v="VT"/>
    <tag k="ref:vcgi:esiteid" v="260307"/>
  </node>
  <node id="-155" visible="true" lat="44.15425507" lon="-72.2640388">
    <tag k="addr:city" v="Topsham"/>
    <tag k="addr:housenumber" v="189"/>
    <tag k="addr:street" v="Downing Road"/>
    <tag k="addr:state" v="VT"/>
    <tag k="ref:vcgi:esiteid" v="260308"/>
  </node>
  <node id="-156" visible="true" lat="44.1547903" lon="-72.31071178">
    <tag k="addr:city" v="Topsham"/>
    <tag k="addr:housenumber" v="122"/>
    <tag k="addr:street" v="U.S. Route 302"/>
    <tag k="addr:state" v="VT"/>
    <tag k="ref:vcgi:esiteid" v="260309"/>
  </node>
  <node id="-157" visible="true" lat="44.15439939" lon="-72.27787015">
    <tag k="addr:city" v="Topsham"/>
    <tag k="addr:housenumber" v="91"/>
    <tag k="addr:street" v="Territory Road"/>
    <tag k="addr:state" v="VT"/>
    <tag k="ref:vcgi:esiteid" v="260310"/>
  </node>
  <node id="-158" visible="true" lat="44.15367507" lon="-72.31222534">
    <tag k="addr:city" v="Topsham"/>
    <tag k="addr:housenumber" v="113"/>
    <tag k="addr:street" v="U.S. Route 302"/>
    <tag k="addr:state" v="VT"/>
    <tag k="ref:vcgi:esiteid" v="260311"/>
  </node>
  <node id="-159" visible="true" lat="44.15359423" lon="-72.31153043">
    <tag k="addr:city" v="Topsham"/>
    <tag k="addr:housenumber" v="114"/>
    <tag k="addr:street" v="U.S. Route 302"/>
    <tag k="addr:state" v="VT"/>
    <tag k="ref:vcgi:esiteid" v="260312"/>
  </node>
  <node id="-160" visible="true" lat="44.15317916" lon="-72.31302642">
    <tag k="addr:city" v="Topsham"/>
    <tag k="addr:housenumber" v="111"/>
    <tag k="addr:street" v="U.S. Route 302"/>
    <tag k="addr:state" v="VT"/>
    <tag k="ref:vcgi:esiteid" v="260313"/>
  </node>
  <node id="-161" visible="true" lat="44.15260525" lon="-72.20783977">
    <tag k="addr:city" v="Topsham"/>
    <tag k="addr:housenumber" v="23"/>
    <tag k="addr:street" v="John White Road"/>
    <tag k="addr:state" v="VT"/>
    <tag k="ref:vcgi:esiteid" v="260314"/>
  </node>
  <node id="-162" visible="true" lat="44.15270185" lon="-72.27785489">
    <tag k="addr:city" v="Topsham"/>
    <tag k="addr:housenumber" v="84"/>
    <tag k="addr:street" v="Territory Road"/>
    <tag k="addr:state" v="VT"/>
    <tag k="ref:vcgi:esiteid" v="260315"/>
  </node>
  <node id="-163" visible="true" lat="44.15249418" lon="-72.20941101">
    <tag k="addr:city" v="Topsham"/>
    <tag k="addr:housenumber" v="15"/>
    <tag k="addr:street" v="John White Road"/>
    <tag k="addr:state" v="VT"/>
    <tag k="ref:vcgi:esiteid" v="260316"/>
  </node>
  <node id="-164" visible="true" lat="44.15241788" lon="-72.20640503">
    <tag k="addr:city" v="Topsham"/>
    <tag k="addr:housenumber" v="25"/>
    <tag k="addr:street" v="John White Road"/>
    <tag k="addr:state" v="VT"/>
    <tag k="ref:vcgi:esiteid" v="260317"/>
  </node>
  <node id="-165" visible="true" lat="44.15251643" lon="-72.21217846">
    <tag k="addr:city" v="Topsham"/>
    <tag k="addr:housenumber" v="248"/>
    <tag k="addr:street" v="Galusha Hill Road"/>
    <tag k="addr:state" v="VT"/>
    <tag k="ref:vcgi:esiteid" v="260318"/>
  </node>
  <node id="-166" visible="true" lat="44.15226697" lon="-72.23722073">
    <tag k="addr:city" v="Topsham"/>
    <tag k="addr:housenumber" v="18"/>
    <tag k="addr:street" v="Sanborn Road"/>
    <tag k="addr:state" v="VT"/>
    <tag k="ref:vcgi:esiteid" v="260319"/>
  </node>
  <node id="-167" visible="true" lat="44.15235137" lon="-72.31298828">
    <tag k="addr:city" v="Topsham"/>
    <tag k="addr:housenumber" v="107"/>
    <tag k="addr:street" v="U.S. Route 302"/>
    <tag k="addr:state" v="VT"/>
    <tag k="ref:vcgi:esiteid" v="260320"/>
  </node>
  <node id="-168" visible="true" lat="44.15204953" lon="-72.2986984">
    <tag k="addr:city" v="Topsham"/>
    <tag k="addr:housenumber" v="73"/>
    <tag k="addr:street" v="Willey Hill Road"/>
    <tag k="addr:state" v="VT"/>
    <tag k="ref:vcgi:esiteid" v="260321"/>
  </node>
  <node id="-169" visible="true" lat="44.15226229" lon="-72.27169189">
    <tag k="addr:city" v="Topsham"/>
    <tag k="addr:housenumber" v="13"/>
    <tag k="addr:street" v="Downing Road Extension"/>
    <tag k="addr:state" v="VT"/>
    <tag k="ref:vcgi:esiteid" v="260322"/>
  </node>
  <node id="-170" visible="true" lat="44.15178632" lon="-72.26304624">
    <tag k="addr:city" v="Topsham"/>
    <tag k="addr:housenumber" v="161"/>
    <tag k="addr:street" v="Downing Road"/>
    <tag k="addr:state" v="VT"/>
    <tag k="ref:vcgi:esiteid" v="260323"/>
  </node>
  <node id="-171" visible="true" lat="44.15160703" lon="-72.3086395">
    <tag k="addr:city" v="Topsham"/>
    <tag k="addr:housenumber" v="17"/>
    <tag k="addr:street" v="Willey Hill Road"/>
    <tag k="addr:state" v="VT"/>
    <tag k="ref:vcgi:esiteid" v="260324"/>
  </node>
  <node id="-172" visible="true" lat="44.1514697" lon="-72.3001251">
    <tag k="addr:city" v="Topsham"/>
    <tag k="addr:housenumber" v="65"/>
    <tag k="addr:street" v="Willey Hill Road"/>
    <tag k="addr:state" v="VT"/>
    <tag k="ref:vcgi:esiteid" v="260325"/>
  </node>
  <node id="-173" visible="true" lat="44.15129089" lon="-72.31231689">
    <tag k="addr:city" v="Topsham"/>
    <tag k="addr:housenumber" v="99"/>
    <tag k="addr:street" v="U.S. Route 302"/>
    <tag k="addr:state" v="VT"/>
    <tag k="ref:vcgi:esiteid" v="260326"/>
  </node>
  <node id="-174" visible="true" lat="44.15065717" lon="-72.30496214">
    <tag k="addr:city" v="Topsham"/>
    <tag k="addr:housenumber" v="39"/>
    <tag k="addr:street" v="Willey Hill Road"/>
    <tag k="addr:state" v="VT"/>
    <tag k="ref:vcgi:esiteid" v="260327"/>
  </node>
  <node id="-175" visible="true" lat="44.15064572" lon="-72.30339811">
    <tag k="addr:city" v="Topsham"/>
    <tag k="addr:housenumber" v="45"/>
    <tag k="addr:street" v="Willey Hill Road"/>
    <tag k="addr:state" v="VT"/>
    <tag k="ref:vcgi:esiteid" v="260328"/>
  </node>
  <node id="-176" visible="true" lat="44.15055799" lon="-72.26161191">
    <tag k="addr:city" v="Topsham"/>
    <tag k="addr:housenumber" v="159"/>
    <tag k="addr:street" v="Downing Road"/>
    <tag k="addr:state" v="VT"/>
    <tag k="ref:vcgi:esiteid" v="260329"/>
  </node>
  <node id="-177" visible="true" lat="44.15049695" lon="-72.27834317">
    <tag k="addr:city" v="Topsham"/>
    <tag k="addr:housenumber" v="63"/>
    <tag k="addr:street" v="Territory Road"/>
    <tag k="addr:state" v="VT"/>
    <tag k="ref:vcgi:esiteid" v="260330"/>
  </node>
  <node id="-178" visible="true" lat="44.15037918" lon="-72.26082372">
    <tag k="addr:city" v="Topsham"/>
    <tag k="addr:housenumber" v="158"/>
    <tag k="addr:street" v="Downing Road"/>
    <tag k="addr:state" v="VT"/>
    <tag k="ref:vcgi:esiteid" v="260331"/>
  </node>
  <node id="-179" visible="true" lat="44.15031766" lon="-72.23319241">
    <tag k="addr:city" v="Topsham"/>
    <tag k="addr:housenumber" v="242"/>
    <tag k="addr:street" v="Powder Spring Road"/>
    <tag k="addr:state" v="VT"/>
    <tag k="ref:vcgi:esiteid" v="260332"/>
  </node>
  <node id="-180" visible="true" lat="44.1504054" lon="-72.27713773">
    <tag k="addr:city" v="Topsham"/>
    <tag k="addr:housenumber" v="62"/>
    <tag k="addr:street" v="Territory Road"/>
    <tag k="addr:state" v="VT"/>
    <tag k="ref:vcgi:esiteid" v="260333"/>
  </node>
  <node id="-181" visible="true" lat="44.150146" lon="-72.28994749">
    <tag k="addr:city" v="Topsham"/>
    <tag k="addr:housenumber" v="14"/>
    <tag k="addr:street" v="Solomon Willey Road"/>
    <tag k="addr:state" v="VT"/>
    <tag k="ref:vcgi:esiteid" v="260334"/>
  </node>
  <node id="-182" visible="true" lat="44.14982255" lon="-72.23434689">
    <tag k="addr:city" v="Topsham"/>
    <tag k="addr:housenumber" v="235"/>
    <tag k="addr:street" v="Powder Spring Road"/>
    <tag k="addr:state" v="VT"/>
    <tag k="ref:vcgi:esiteid" v="260335"/>
  </node>
  <node id="-183" visible="true" lat="44.14930944" lon="-72.23471497">
    <tag k="addr:city" v="Topsham"/>
    <tag k="addr:housenumber" v="231"/>
    <tag k="addr:street" v="Powder Spring Road"/>
    <tag k="addr:state" v="VT"/>
    <tag k="ref:vcgi:esiteid" v="260336"/>
  </node>
  <node id="-184" visible="true" lat="44.1486337" lon="-72.19625031">
    <tag k="addr:city" v="Topsham"/>
    <tag k="addr:housenumber" v="111"/>
    <tag k="addr:street" v="Emerson Road"/>
    <tag k="addr:state" v="VT"/>
    <tag k="ref:vcgi:esiteid" v="260337"/>
  </node>
  <node id="-185" visible="true" lat="44.14863156" lon="-72.21353146">
    <tag k="addr:city" v="Topsham"/>
    <tag k="addr:housenumber" v="223"/>
    <tag k="addr:street" v="Galusha Hill Road"/>
    <tag k="addr:state" v="VT"/>
    <tag k="ref:vcgi:esiteid" v="260338"/>
  </node>
  <node id="-186" visible="true" lat="44.14821768" lon="-72.19838576">
    <tag k="addr:city" v="Topsham"/>
    <tag k="addr:housenumber" v="123"/>
    <tag k="addr:street" v="Emerson Road"/>
    <tag k="addr:state" v="VT"/>
    <tag k="ref:vcgi:esiteid" v="260339"/>
  </node>
  <node id="-187" visible="true" lat="44.14842008" lon="-72.19586884">
    <tag k="addr:city" v="Topsham"/>
    <tag k="addr:housenumber" v="107"/>
    <tag k="addr:street" v="Emerson Road"/>
    <tag k="addr:state" v="VT"/>
    <tag k="ref:vcgi:esiteid" v="260340"/>
  </node>
  <node id="-188" visible="true" lat="44.14850997" lon="-72.29211425">
    <tag k="addr:city" v="Topsham"/>
    <tag k="addr:housenumber" v="118"/>
    <tag k="addr:street" v="Willey Hill Road"/>
    <tag k="addr:state" v="VT"/>
    <tag k="ref:vcgi:esiteid" v="260341"/>
  </node>
  <node id="-189" visible="true" lat="44.14817202" lon="-72.23468836">
    <tag k="addr:city" v="Topsham"/>
    <tag k="addr:housenumber" v="226"/>
    <tag k="addr:street" v="Powder Spring Road"/>
    <tag k="addr:state" v="VT"/>
    <tag k="ref:vcgi:esiteid" v="260342"/>
  </node>
  <node id="-190" visible="true" lat="44.14786695" lon="-72.2127298">
    <tag k="addr:city" v="Topsham"/>
    <tag k="addr:housenumber" v="218"/>
    <tag k="addr:street" v="Galusha Hill Road"/>
    <tag k="addr:state" v="VT"/>
    <tag k="ref:vcgi:esiteid" v="260343"/>
  </node>
  <node id="-191" visible="true" lat="44.14740079" lon="-72.19937038">
    <tag k="addr:city" v="Topsham"/>
    <tag k="addr:housenumber" v="133"/>
    <tag k="addr:street" v="Emerson Road"/>
    <tag k="addr:state" v="VT"/>
    <tag k="ref:vcgi:esiteid" v="260344"/>
  </node>
  <node id="-192" visible="true" lat="44.14731636" lon="-72.26105135">
    <tag k="addr:city" v="Topsham"/>
    <tag k="addr:housenumber" v="135"/>
    <tag k="addr:street" v="Downing Road"/>
    <tag k="addr:state" v="VT"/>
    <tag k="ref:vcgi:esiteid" v="260345"/>
  </node>
  <node id="-193" visible="true" lat="44.14699124" lon="-72.2844238">
    <tag k="addr:city" v="Topsham"/>
    <tag k="addr:housenumber" v="149"/>
    <tag k="addr:street" v="Willey Hill Road"/>
    <tag k="addr:state" v="VT"/>
    <tag k="ref:vcgi:esiteid" v="260346"/>
  </node>
  <node id="-194" visible="true" lat="44.14645767" lon="-72.31056976">
    <tag k="addr:city" v="Topsham"/>
    <tag k="addr:housenumber" v="63"/>
    <tag k="addr:street" v="U.S. Route 302"/>
    <tag k="addr:state" v="VT"/>
    <tag k="ref:vcgi:esiteid" v="260347"/>
  </node>
  <node id="-195" visible="true" lat="44.14604037" lon="-72.24533607">
    <tag k="addr:city" v="Topsham"/>
    <tag k="addr:housenumber" v="103"/>
    <tag k="addr:street" v="Currier Road"/>
    <tag k="addr:state" v="VT"/>
    <tag k="ref:vcgi:esiteid" v="260348"/>
  </node>
  <node id="-196" visible="true" lat="44.14488117" lon="-72.26059434">
    <tag k="addr:city" v="Topsham"/>
    <tag k="addr:housenumber" v="119"/>
    <tag k="addr:street" v="Downing Road"/>
    <tag k="addr:state" v="VT"/>
    <tag k="ref:vcgi:esiteid" v="260349"/>
  </node>
  <node id="-197" visible="true" lat="44.14449094" lon="-72.19571625">
    <tag k="addr:city" v="Topsham"/>
    <tag k="addr:housenumber" v="59"/>
    <tag k="addr:street" v="Emerson Road"/>
    <tag k="addr:state" v="VT"/>
    <tag k="ref:vcgi:esiteid" v="260350"/>
  </node>
  <node id="-198" visible="true" lat="44.14471816" lon="-72.30929565">
    <tag k="addr:city" v="Topsham"/>
    <tag k="addr:housenumber" v="52"/>
    <tag k="addr:street" v="U.S. Route 302"/>
    <tag k="addr:state" v="VT"/>
    <tag k="ref:vcgi:esiteid" v="260351"/>
  </node>
  <node id="-199" visible="true" lat="44.14401245" lon="-72.29591369">
    <tag k="addr:city" v="Topsham"/>
    <tag k="addr:housenumber" v="39"/>
    <tag k="addr:street" v="Allen Hill Road"/>
    <tag k="addr:state" v="VT"/>
    <tag k="ref:vcgi:esiteid" v="260352"/>
  </node>
  <node id="-200" visible="true" lat="44.14361738" lon="-72.1959375">
    <tag k="addr:city" v="Topsham"/>
    <tag k="addr:housenumber" v="55"/>
    <tag k="addr:street" v="Emerson Road"/>
    <tag k="addr:state" v="VT"/>
    <tag k="ref:vcgi:esiteid" v="260353"/>
  </node>
  <node id="-201" visible="true" lat="44.14361947" lon="-72.30949039">
    <tag k="addr:city" v="Topsham"/>
    <tag k="addr:housenumber" v="5"/>
    <tag k="addr:street" v="Crossroad"/>
    <tag k="addr:state" v="VT"/>
    <tag k="ref:vcgi:esiteid" v="260354"/>
  </node>
  <node id="-202" visible="true" lat="44.14325498" lon="-72.21255432">
    <tag k="addr:city" v="Topsham"/>
    <tag k="addr:housenumber" v="180"/>
    <tag k="addr:street" v="Galusha Hill Road"/>
    <tag k="addr:state" v="VT"/>
    <tag k="ref:vcgi:esiteid" v="260355"/>
  </node>
  <node id="-204" visible="true" lat="44.14307616" lon="-72.25920985">
    <tag k="addr:city" v="Topsham"/>
    <tag k="addr:housenumber" v="104"/>
    <tag k="addr:street" v="Downing Road"/>
    <tag k="addr:state" v="VT"/>
    <tag k="ref:vcgi:esiteid" v="260357"/>
  </node>
  <node id="-207" visible="true" lat="44.1423503" lon="-72.30806728">
    <tag k="addr:city" v="Topsham"/>
    <tag k="addr:housenumber" v="7"/>
    <tag k="addr:street" v="Crossroad"/>
    <tag k="addr:state" v="VT"/>
    <tag k="ref:vcgi:esiteid" v="260360"/>
  </node>
  <node id="-208" visible="true" lat="44.14235315" lon="-72.25923066">
    <tag k="addr:city" v="Topsham"/>
    <tag k="addr:housenumber" v="100"/>
    <tag k="addr:street" v="Downing Road"/>
    <tag k="addr:state" v="VT"/>
    <tag k="ref:vcgi:esiteid" v="260361"/>
  </node>
  <node id="-209" visible="true" lat="44.14228173" lon="-72.19288435">
    <tag k="addr:city" v="Topsham"/>
    <tag k="addr:housenumber" v="44"/>
    <tag k="addr:street" v="Emerson Road"/>
    <tag k="addr:state" v="VT"/>
    <tag k="ref:vcgi:esiteid" v="260362"/>
  </node>
  <node id="-210" visible="true" lat="44.14159033" lon="-72.2588892">
    <tag k="addr:city" v="Topsham"/>
    <tag k="addr:housenumber" v="16"/>
    <tag k="addr:street" v="Dusty Trail"/>
    <tag k="addr:state" v="VT"/>
    <tag k="ref:vcgi:esiteid" v="260363"/>
  </node>
  <node id="-211" visible="true" lat="44.14145962" lon="-72.19187161">
    <tag k="addr:city" v="Topsham"/>
    <tag k="addr:housenumber" v="42"/>
    <tag k="addr:street" v="Emerson Road"/>
    <tag k="addr:state" v="VT"/>
    <tag k="ref:vcgi:esiteid" v="260364"/>
  </node>
  <node id="-212" visible="true" lat="44.14151071" lon="-72.25852389">
    <tag k="addr:city" v="Topsham"/>
    <tag k="addr:housenumber" v="14"/>
    <tag k="addr:street" v="Dusty Trail"/>
    <tag k="addr:state" v="VT"/>
    <tag k="ref:vcgi:esiteid" v="260365"/>
  </node>
  <node id="-213" visible="true" lat="44.14154836" lon="-72.25821095">
    <tag k="addr:city" v="Topsham"/>
    <tag k="addr:housenumber" v="10"/>
    <tag k="addr:street" v="Dusty Trail"/>
    <tag k="addr:state" v="VT"/>
    <tag k="ref:vcgi:esiteid" v="260366"/>
  </node>
  <node id="-215" visible="true" lat="44.14093229" lon="-72.25921655">
    <tag k="addr:city" v="Topsham"/>
    <tag k="addr:housenumber" v="90"/>
    <tag k="addr:street" v="Downing Road"/>
    <tag k="addr:state" v="VT"/>
    <tag k="ref:vcgi:esiteid" v="260368"/>
  </node>
  <node id="-217" visible="true" lat="44.14073441" lon="-72.30902253">
    <tag k="addr:city" v="Topsham"/>
    <tag k="addr:housenumber" v="15"/>
    <tag k="addr:street" v="Crossroad"/>
    <tag k="addr:state" v="VT"/>
    <tag k="ref:vcgi:esiteid" v="260372"/>
  </node>
  <node id="-218" visible="true" lat="44.140594" lon="-72.26096341">
    <tag k="addr:city" v="Topsham"/>
    <tag k="addr:housenumber" v="89"/>
    <tag k="addr:street" v="Downing Road"/>
    <tag k="addr:state" v="VT"/>
    <tag k="ref:vcgi:esiteid" v="260373"/>
  </node>
  <node id="-222" visible="true" lat="44.13996034" lon="-72.27542077">
    <tag k="addr:city" v="Topsham"/>
    <tag k="addr:housenumber" v="230"/>
    <tag k="addr:street" v="Willey Hill Road"/>
    <tag k="addr:state" v="VT"/>
    <tag k="ref:vcgi:esiteid" v="260377"/>
  </node>
  <node id="-223" visible="true" lat="44.13957316" lon="-72.31034356">
    <tag k="addr:city" v="Topsham"/>
    <tag k="addr:housenumber" v="27"/>
    <tag k="addr:street" v="Crossroad"/>
    <tag k="addr:state" v="VT"/>
    <tag k="ref:vcgi:esiteid" v="260378"/>
  </node>
  <node id="-224" visible="true" lat="44.13949928" lon="-72.31379817">
    <tag k="addr:city" v="Topsham"/>
    <tag k="addr:housenumber" v="15"/>
    <tag k="addr:street" v="Dana Thurston Road"/>
    <tag k="addr:state" v="VT"/>
    <tag k="ref:vcgi:esiteid" v="260379"/>
  </node>
  <node id="-225" visible="true" lat="44.13911819" lon="-72.27376556">
    <tag k="addr:city" v="Topsham"/>
    <tag k="addr:housenumber" v="232"/>
    <tag k="addr:street" v="Willey Hill Road"/>
    <tag k="addr:state" v="VT"/>
    <tag k="ref:vcgi:esiteid" v="260380"/>
  </node>
  <node id="-227" visible="true" lat="44.13840392" lon="-72.31010836">
    <tag k="addr:city" v="Topsham"/>
    <tag k="addr:housenumber" v="31"/>
    <tag k="addr:street" v="Crossroad"/>
    <tag k="addr:state" v="VT"/>
    <tag k="ref:vcgi:esiteid" v="260382"/>
  </node>
  <node id="-228" visible="true" lat="44.13772201" lon="-72.31178283">
    <tag k="addr:city" v="Topsham"/>
    <tag k="addr:housenumber" v="44"/>
    <tag k="addr:street" v="Crossroad"/>
    <tag k="addr:state" v="VT"/>
    <tag k="ref:vcgi:esiteid" v="260383"/>
  </node>
  <node id="-229" visible="true" lat="44.13726425" lon="-72.31121063">
    <tag k="addr:city" v="Topsham"/>
    <tag k="addr:housenumber" v="41"/>
    <tag k="addr:street" v="Crossroad"/>
    <tag k="addr:state" v="VT"/>
    <tag k="ref:vcgi:esiteid" v="260384"/>
  </node>
  <node id="-230" visible="true" lat="44.1368823" lon="-72.25717923">
    <tag k="addr:city" v="Topsham"/>
    <tag k="addr:housenumber" v="60"/>
    <tag k="addr:street" v="Downing Road"/>
    <tag k="addr:state" v="VT"/>
    <tag k="ref:vcgi:esiteid" v="260385"/>
  </node>
  <node id="-231" visible="true" lat="44.13643264" lon="-72.29335021">
    <tag k="addr:city" v="Topsham"/>
    <tag k="addr:housenumber" v="111"/>
    <tag k="addr:street" v="Kimball Hill Road"/>
    <tag k="addr:state" v="VT"/>
    <tag k="ref:vcgi:esiteid" v="260386"/>
  </node>
  <node id="-232" visible="true" lat="44.13615417" lon="-72.27134704">
    <tag k="addr:city" v="Topsham"/>
    <tag k="addr:housenumber" v="34"/>
    <tag k="addr:street" v="Emma Jane Road"/>
    <tag k="addr:state" v="VT"/>
    <tag k="ref:vcgi:esiteid" v="260387"/>
  </node>
  <node id="-233" visible="true" lat="44.13615035" lon="-72.31189727">
    <tag k="addr:city" v="Topsham"/>
    <tag k="addr:housenumber" v="52"/>
    <tag k="addr:street" v="Crossroad"/>
    <tag k="addr:state" v="VT"/>
    <tag k="ref:vcgi:esiteid" v="260388"/>
  </node>
  <node id="-234" visible="true" lat="44.13579177" lon="-72.29012298">
    <tag k="addr:city" v="Topsham"/>
    <tag k="addr:housenumber" v="130"/>
    <tag k="addr:street" v="Kimball Hill Road"/>
    <tag k="addr:state" v="VT"/>
    <tag k="ref:vcgi:esiteid" v="260389"/>
  </node>
  <node id="-236" visible="true" lat="44.13532539" lon="-72.2666942">
    <tag k="addr:city" v="Topsham"/>
    <tag k="addr:housenumber" v="7"/>
    <tag k="addr:street" v="Emma Jane Road"/>
    <tag k="addr:state" v="VT"/>
    <tag k="ref:vcgi:esiteid" v="260391"/>
  </node>
  <node id="-237" visible="true" lat="44.13484019" lon="-72.1989983">
    <tag k="addr:city" v="Topsham"/>
    <tag k="addr:housenumber" v="287"/>
    <tag k="addr:street" v="Lime Kiln Road"/>
    <tag k="addr:state" v="VT"/>
    <tag k="ref:vcgi:esiteid" v="260392"/>
  </node>
  <node id="-238" visible="true" lat="44.13729024" lon="-72.19846169">
    <tag k="addr:city" v="Topsham"/>
    <tag k="addr:housenumber" v="50"/>
    <tag k="addr:street" v="Meadow Lane"/>
    <tag k="addr:state" v="VT"/>
    <tag k="ref:vcgi:esiteid" v="260393"/>
  </node>
  <node id="-239" visible="true" lat="44.13482348" lon="-72.31645893">
    <tag k="addr:city" v="Topsham"/>
    <tag k="addr:housenumber" v="638"/>
    <tag k="addr:street" v="Vermont Route 25"/>
    <tag k="addr:state" v="VT"/>
    <tag k="ref:vcgi:esiteid" v="260394"/>
  </node>
  <node id="-240" visible="true" lat="44.13461214" lon="-72.31730732">
    <tag k="addr:city" v="Topsham"/>
    <tag k="addr:housenumber" v="639"/>
    <tag k="addr:street" v="Vermont Route 25"/>
    <tag k="addr:state" v="VT"/>
    <tag k="ref:vcgi:esiteid" v="260395"/>
  </node>
  <node id="-241" visible="true" lat="44.13414167" lon="-72.19100129">
    <tag k="addr:city" v="Topsham"/>
    <tag k="addr:housenumber" v="20"/>
    <tag k="addr:street" v="James Downing Road"/>
    <tag k="addr:state" v="VT"/>
    <tag k="ref:vcgi:esiteid" v="260396"/>
  </node>
  <node id="-242" visible="true" lat="44.13431167" lon="-72.26615905">
    <tag k="addr:city" v="Topsham"/>
    <tag k="addr:housenumber" v="11"/>
    <tag k="addr:street" v="Emma Jane Road"/>
    <tag k="addr:state" v="VT"/>
    <tag k="ref:vcgi:esiteid" v="260397"/>
  </node>
  <node id="-243" visible="true" lat="44.13390842" lon="-72.2650643">
    <tag k="addr:city" v="Topsham"/>
    <tag k="addr:housenumber" v="290"/>
    <tag k="addr:street" v="Willey Hill Road"/>
    <tag k="addr:state" v="VT"/>
    <tag k="ref:vcgi:esiteid" v="260398"/>
  </node>
  <node id="-244" visible="true" lat="44.13422307" lon="-72.31672484">
    <tag k="addr:city" v="Topsham"/>
    <tag k="addr:housenumber" v="637"/>
    <tag k="addr:street" v="Vermont Route 25"/>
    <tag k="addr:state" v="VT"/>
    <tag k="ref:vcgi:esiteid" v="260399"/>
  </node>
  <node id="-245" visible="true" lat="44.13374876" lon="-72.18935334">
    <tag k="addr:city" v="Topsham"/>
    <tag k="addr:housenumber" v="30"/>
    <tag k="addr:street" v="James Downing Road"/>
    <tag k="addr:state" v="VT"/>
    <tag k="ref:vcgi:esiteid" v="260400"/>
  </node>
  <node id="-246" visible="true" lat="44.13370548" lon="-72.19019282">
    <tag k="addr:city" v="Topsham"/>
    <tag k="addr:housenumber" v="32"/>
    <tag k="addr:street" v="James Downing Road"/>
    <tag k="addr:state" v="VT"/>
    <tag k="ref:vcgi:esiteid" v="260401"/>
  </node>
  <node id="-247" visible="true" lat="44.13321692" lon="-72.26421203">
    <tag k="addr:city" v="Topsham"/>
    <tag k="addr:housenumber" v="296"/>
    <tag k="addr:street" v="Willey Hill Road"/>
    <tag k="addr:state" v="VT"/>
    <tag k="ref:vcgi:esiteid" v="260402"/>
  </node>
  <node id="-248" visible="true" lat="44.13314819" lon="-72.31579589">
    <tag k="addr:city" v="Topsham"/>
    <tag k="addr:housenumber" v="623"/>
    <tag k="addr:street" v="Vermont Route 25"/>
    <tag k="addr:state" v="VT"/>
    <tag k="ref:vcgi:esiteid" v="260403"/>
  </node>
  <node id="-249" visible="true" lat="44.13277219" lon="-72.19872223">
    <tag k="addr:city" v="Topsham"/>
    <tag k="addr:housenumber" v="207"/>
    <tag k="addr:street" v="Harts Road"/>
    <tag k="addr:state" v="VT"/>
    <tag k="ref:vcgi:esiteid" v="260404"/>
  </node>
  <node id="-251" visible="true" lat="44.13235044" lon="-72.26235959">
    <tag k="addr:city" v="Topsham"/>
    <tag k="addr:housenumber" v="309"/>
    <tag k="addr:street" v="Willey Hill Road"/>
    <tag k="addr:state" v="VT"/>
    <tag k="ref:vcgi:esiteid" v="260406"/>
  </node>
  <node id="-252" visible="true" lat="44.13218473" lon="-72.20263611">
    <tag k="addr:city" v="Topsham"/>
    <tag k="addr:housenumber" v="177"/>
    <tag k="addr:street" v="Harts Road"/>
    <tag k="addr:state" v="VT"/>
    <tag k="ref:vcgi:esiteid" v="260407"/>
  </node>
  <node id="-254" visible="true" lat="44.13188999" lon="-72.26119374">
    <tag k="addr:city" v="Topsham"/>
    <tag k="addr:housenumber" v="317"/>
    <tag k="addr:street" v="Willey Hill Road"/>
    <tag k="addr:state" v="VT"/>
    <tag k="ref:vcgi:esiteid" v="260409"/>
  </node>
  <node id="-255" visible="true" lat="44.13271791" lon="-72.20529965">
    <tag k="addr:city" v="Topsham"/>
    <tag k="addr:housenumber" v="146"/>
    <tag k="addr:street" v="Skyline Drive"/>
    <tag k="addr:state" v="VT"/>
    <tag k="ref:vcgi:esiteid" v="260410"/>
  </node>
  <node id="-256" visible="true" lat="44.13173675" lon="-72.31418609">
    <tag k="addr:city" v="Topsham"/>
    <tag k="addr:housenumber" v="611"/>
    <tag k="addr:street" v="Vermont Route 25"/>
    <tag k="addr:state" v="VT"/>
    <tag k="ref:vcgi:esiteid" v="260411"/>
  </node>
  <node id="-257" visible="true" lat="44.13143491" lon="-72.22660824">
    <tag k="addr:city" v="Topsham"/>
    <tag k="addr:housenumber" v="82"/>
    <tag k="addr:street" v="Galusha Hill Road"/>
    <tag k="addr:state" v="VT"/>
    <tag k="ref:vcgi:esiteid" v="260412"/>
  </node>
  <node id="-258" visible="true" lat="44.13128883" lon="-72.26175954">
    <tag k="addr:city" v="Topsham"/>
    <tag k="addr:housenumber" v="316"/>
    <tag k="addr:street" v="Willey Hill Road"/>
    <tag k="addr:state" v="VT"/>
    <tag k="ref:vcgi:esiteid" v="260413"/>
  </node>
  <node id="-259" visible="true" lat="44.13129972" lon="-72.20082795">
    <tag k="addr:city" v="Topsham"/>
    <tag k="addr:housenumber" v="203"/>
    <tag k="addr:street" v="Harts Road"/>
    <tag k="addr:state" v="VT"/>
    <tag k="ref:vcgi:esiteid" v="260414"/>
  </node>
  <node id="-260" visible="true" lat="44.13090946" lon="-72.20591769">
    <tag k="addr:city" v="Topsham"/>
    <tag k="addr:housenumber" v="167"/>
    <tag k="addr:street" v="Harts Road"/>
    <tag k="addr:state" v="VT"/>
    <tag k="ref:vcgi:esiteid" v="260416"/>
  </node>
  <node id="-261" visible="true" lat="44.13078689" lon="-72.3139801">
    <tag k="addr:city" v="Topsham"/>
    <tag k="addr:housenumber" v="605"/>
    <tag k="addr:street" v="Vermont Route 25"/>
    <tag k="addr:state" v="VT"/>
    <tag k="ref:vcgi:esiteid" v="260417"/>
  </node>
  <node id="-262" visible="true" lat="44.13041454" lon="-72.20455708">
    <tag k="addr:city" v="Topsham"/>
    <tag k="addr:housenumber" v="174"/>
    <tag k="addr:street" v="Harts Road"/>
    <tag k="addr:state" v="VT"/>
    <tag k="ref:vcgi:esiteid" v="260418"/>
  </node>
  <node id="-263" visible="true" lat="44.13027954" lon="-72.30939483">
    <tag k="addr:city" v="Topsham"/>
    <tag k="addr:housenumber" v="100"/>
    <tag k="addr:street" v="Crossroad"/>
    <tag k="addr:state" v="VT"/>
    <tag k="ref:vcgi:esiteid" v="260419"/>
  </node>
  <node id="-264" visible="true" lat="44.13032989" lon="-72.25668822">
    <tag k="addr:city" v="Topsham"/>
    <tag k="addr:housenumber" v="13"/>
    <tag k="addr:street" v="Downing Road"/>
    <tag k="addr:state" v="VT"/>
    <tag k="ref:vcgi:esiteid" v="260420"/>
  </node>
  <node id="-265" visible="true" lat="44.12983655" lon="-72.24356839">
    <tag k="addr:city" v="Topsham"/>
    <tag k="addr:housenumber" v="87"/>
    <tag k="addr:street" v="Powder Spring Road"/>
    <tag k="addr:state" v="VT"/>
    <tag k="ref:vcgi:esiteid" v="260421"/>
  </node>
  <node id="-266" visible="true" lat="44.12981796" lon="-72.30211639">
    <tag k="addr:city" v="Topsham"/>
    <tag k="addr:housenumber" v="47"/>
    <tag k="addr:street" v="Kimball Hill Road"/>
    <tag k="addr:state" v="VT"/>
    <tag k="ref:vcgi:esiteid" v="260422"/>
  </node>
  <node id="-267" visible="true" lat="44.1296589" lon="-72.20789057">
    <tag k="addr:city" v="Topsham"/>
    <tag k="addr:housenumber" v="153"/>
    <tag k="addr:street" v="Harts Road"/>
    <tag k="addr:state" v="VT"/>
    <tag k="ref:vcgi:esiteid" v="260423"/>
  </node>
  <node id="-268" visible="true" lat="44.12918638" lon="-72.19930207">
    <tag k="addr:city" v="Topsham"/>
    <tag k="addr:housenumber" v="240"/>
    <tag k="addr:street" v="Lime Kiln Road"/>
    <tag k="addr:state" v="VT"/>
    <tag k="ref:vcgi:esiteid" v="260424"/>
  </node>
  <node id="-269" visible="true" lat="44.12939633" lon="-72.21050408">
    <tag k="addr:city" v="Topsham"/>
    <tag k="addr:housenumber" v="141"/>
    <tag k="addr:street" v="Harts Road"/>
    <tag k="addr:state" v="VT"/>
    <tag k="ref:vcgi:esiteid" v="260425"/>
  </node>
  <node id="-270" visible="true" lat="44.12922238" lon="-72.22794339">
    <tag k="addr:city" v="Topsham"/>
    <tag k="addr:housenumber" v="67"/>
    <tag k="addr:street" v="Galusha Hill Road"/>
    <tag k="addr:state" v="VT"/>
    <tag k="ref:vcgi:esiteid" v="260426"/>
  </node>
  <node id="-271" visible="true" lat="44.12907791" lon="-72.25843048">
    <tag k="addr:city" v="Topsham"/>
    <tag k="addr:housenumber" v="340"/>
    <tag k="addr:street" v="Willey Hill Road"/>
    <tag k="addr:state" v="VT"/>
    <tag k="ref:vcgi:esiteid" v="260427"/>
  </node>
  <node id="-272" visible="true" lat="44.12882017" lon="-72.200271">
    <tag k="addr:city" v="Topsham"/>
    <tag k="addr:housenumber" v="233"/>
    <tag k="addr:street" v="Lime Kiln Road"/>
    <tag k="addr:state" v="VT"/>
    <tag k="ref:vcgi:esiteid" v="260428"/>
  </node>
  <node id="-273" visible="true" lat="44.12879987" lon="-72.25679215">
    <tag k="addr:city" v="Topsham"/>
    <tag k="addr:housenumber" v="349"/>
    <tag k="addr:street" v="Willey Hill Road"/>
    <tag k="addr:state" v="VT"/>
    <tag k="ref:vcgi:esiteid" v="260429"/>
  </node>
  <node id="-274" visible="true" lat="44.12852478" lon="-72.25706481">
    <tag k="addr:city" v="Topsham"/>
    <tag k="addr:housenumber" v="348"/>
    <tag k="addr:street" v="Willey Hill Road"/>
    <tag k="addr:state" v="VT"/>
    <tag k="ref:vcgi:esiteid" v="260430"/>
  </node>
  <node id="-275" visible="true" lat="44.12839889" lon="-72.31140136">
    <tag k="addr:city" v="Topsham"/>
    <tag k="addr:housenumber" v="8"/>
    <tag k="addr:street" v="Charles Cilley Road"/>
    <tag k="addr:state" v="VT"/>
    <tag k="ref:vcgi:esiteid" v="260431"/>
  </node>
  <node id="-276" visible="true" lat="44.12821197" lon="-72.29821777">
    <tag k="addr:city" v="Topsham"/>
    <tag k="addr:housenumber" v="19"/>
    <tag k="addr:street" v="C Thurston Road"/>
    <tag k="addr:state" v="VT"/>
    <tag k="ref:vcgi:esiteid" v="260432"/>
  </node>
  <node id="-278" visible="true" lat="44.12781143" lon="-72.25499725">
    <tag k="addr:city" v="Topsham"/>
    <tag k="addr:housenumber" v="214"/>
    <tag k="addr:street" v="Ben Dexter Road"/>
    <tag k="addr:state" v="VT"/>
    <tag k="ref:vcgi:esiteid" v="260435"/>
  </node>
  <node id="-279" visible="true" lat="44.12756132" lon="-72.20786225">
    <tag k="addr:city" v="Topsham"/>
    <tag k="addr:housenumber" v="148"/>
    <tag k="addr:street" v="Harts Road"/>
    <tag k="addr:state" v="VT"/>
    <tag k="ref:vcgi:esiteid" v="260436"/>
  </node>
  <node id="-282" visible="true" lat="44.12704086" lon="-72.3061676">
    <tag k="addr:city" v="Topsham"/>
    <tag k="addr:housenumber" v="13"/>
    <tag k="addr:street" v="Kimball Hill Road"/>
    <tag k="addr:state" v="VT"/>
    <tag k="ref:vcgi:esiteid" v="260439"/>
  </node>
  <node id="-284" visible="true" lat="44.12674331" lon="-72.30278015">
    <tag k="addr:city" v="Topsham"/>
    <tag k="addr:housenumber" v="34"/>
    <tag k="addr:street" v="Kimball Hill Road"/>
    <tag k="addr:state" v="VT"/>
    <tag k="ref:vcgi:esiteid" v="260441"/>
  </node>
  <node id="-285" visible="true" lat="44.12652372" lon="-72.2096399">
    <tag k="addr:city" v="Topsham"/>
    <tag k="addr:housenumber" v="19"/>
    <tag k="addr:street" v="Clayton Mickels Drive"/>
    <tag k="addr:state" v="VT"/>
    <tag k="ref:vcgi:esiteid" v="260442"/>
  </node>
  <node id="-286" visible="true" lat="44.1264491" lon="-72.23675534">
    <tag k="addr:city" v="Topsham"/>
    <tag k="addr:housenumber" v="28"/>
    <tag k="addr:street" v="Walter Sweet Road"/>
    <tag k="addr:state" v="VT"/>
    <tag k="ref:vcgi:esiteid" v="260443"/>
  </node>
  <node id="-287" visible="true" lat="44.12621854" lon="-72.20981537">
    <tag k="addr:city" v="Topsham"/>
    <tag k="addr:housenumber" v="21"/>
    <tag k="addr:street" v="Clayton Mickels Drive"/>
    <tag k="addr:state" v="VT"/>
    <tag k="ref:vcgi:esiteid" v="260444"/>
  </node>
  <node id="-288" visible="true" lat="44.12606214" lon="-72.21725403">
    <tag k="addr:city" v="Topsham"/>
    <tag k="addr:housenumber" v="94"/>
    <tag k="addr:street" v="Harts Road"/>
    <tag k="addr:state" v="VT"/>
    <tag k="ref:vcgi:esiteid" v="260445"/>
  </node>
  <node id="-290" visible="true" lat="44.12591171" lon="-72.30684661">
    <tag k="addr:city" v="Topsham"/>
    <tag k="addr:housenumber" v="9"/>
    <tag k="addr:street" v="Kimball Hill Road"/>
    <tag k="addr:state" v="VT"/>
    <tag k="ref:vcgi:esiteid" v="260447"/>
  </node>
  <node id="-291" visible="true" lat="44.12554334" lon="-72.22724091">
    <tag k="addr:city" v="Topsham"/>
    <tag k="addr:housenumber" v="42"/>
    <tag k="addr:street" v="Galusha Hill Road"/>
    <tag k="addr:state" v="VT"/>
    <tag k="ref:vcgi:esiteid" v="260448"/>
  </node>
  <node id="-293" visible="true" lat="44.12551999" lon="-72.24884318">
    <tag k="addr:city" v="Topsham"/>
    <tag k="addr:housenumber" v="389"/>
    <tag k="addr:street" v="Willey Hill Road"/>
    <tag k="addr:state" v="VT"/>
    <tag k="ref:vcgi:esiteid" v="260450"/>
  </node>
  <node id="-294" visible="true" lat="44.12536024" lon="-72.21917664">
    <tag k="addr:city" v="Topsham"/>
    <tag k="addr:housenumber" v="84"/>
    <tag k="addr:street" v="Harts Road"/>
    <tag k="addr:state" v="VT"/>
    <tag k="ref:vcgi:esiteid" v="260451"/>
  </node>
  <node id="-295" visible="true" lat="44.1254692" lon="-72.30808258">
    <tag k="addr:city" v="Topsham"/>
    <tag k="addr:housenumber" v="558"/>
    <tag k="addr:street" v="Vermont Route 25"/>
    <tag k="addr:state" v="VT"/>
    <tag k="ref:vcgi:esiteid" v="260452"/>
  </node>
  <node id="-296" visible="true" lat="44.12512656" lon="-72.24472313">
    <tag k="addr:city" v="Topsham"/>
    <tag k="addr:housenumber" v="407"/>
    <tag k="addr:street" v="Willey Hill Road"/>
    <tag k="addr:state" v="VT"/>
    <tag k="ref:vcgi:esiteid" v="260453"/>
  </node>
  <node id="-297" visible="true" lat="44.12506866" lon="-72.30752563">
    <tag k="addr:city" v="Topsham"/>
    <tag k="addr:housenumber" v="552"/>
    <tag k="addr:street" v="Vermont Route 25"/>
    <tag k="addr:state" v="VT"/>
    <tag k="ref:vcgi:esiteid" v="260454"/>
  </node>
  <node id="-300" visible="true" lat="44.12433884" lon="-72.23907003">
    <tag k="addr:city" v="Topsham"/>
    <tag k="addr:housenumber" v="43"/>
    <tag k="addr:street" v="Powder Spring Road"/>
    <tag k="addr:state" v="VT"/>
    <tag k="ref:vcgi:esiteid" v="260457"/>
  </node>
  <node id="-303" visible="true" lat="44.12422943" lon="-72.24812317">
    <tag k="addr:city" v="Topsham"/>
    <tag k="addr:housenumber" v="402"/>
    <tag k="addr:street" v="Willey Hill Road"/>
    <tag k="addr:state" v="VT"/>
    <tag k="ref:vcgi:esiteid" v="260460"/>
  </node>
  <node id="-304" visible="true" lat="44.1241319" lon="-72.21053254">
    <tag k="addr:city" v="Topsham"/>
    <tag k="addr:housenumber" v="33"/>
    <tag k="addr:street" v="Clayton Mickels Drive"/>
    <tag k="addr:state" v="VT"/>
    <tag k="ref:vcgi:esiteid" v="260461"/>
  </node>
  <node id="-326" visible="true" lat="44.12142728" lon="-72.22792755">
    <tag k="addr:city" v="Topsham"/>
    <tag k="addr:housenumber" v="28"/>
    <tag k="addr:street" v="Harts Road"/>
    <tag k="addr:state" v="VT"/>
    <tag k="ref:vcgi:esiteid" v="260483"/>
  </node>
  <node id="-336" visible="true" lat="44.12116023" lon="-72.23260927">
    <tag k="addr:city" v="Topsham"/>
    <tag k="addr:housenumber" v="374"/>
    <tag k="addr:street" v="Topsham Corinth Road"/>
    <tag k="addr:state" v="VT"/>
    <tag k="ref:vcgi:esiteid" v="260494"/>
  </node>
  <node id="-342" visible="true" lat="44.12086486" lon="-72.25365447">
    <tag k="addr:city" v="Topsham"/>
    <tag k="addr:housenumber" v="168"/>
    <tag k="addr:street" v="Ben Dexter Road"/>
    <tag k="addr:state" v="VT"/>
    <tag k="ref:vcgi:esiteid" v="260500"/>
  </node>
  <node id="-350" visible="true" lat="44.11997985" lon="-72.25230407">
    <tag k="addr:city" v="Topsham"/>
    <tag k="addr:housenumber" v="170"/>
    <tag k="addr:street" v="Ben Dexter Road"/>
    <tag k="addr:state" v="VT"/>
    <tag k="ref:vcgi:esiteid" v="260509"/>
  </node>
  <node id="-359" visible="true" lat="44.11877822" lon="-72.30776214">
    <tag k="addr:city" v="Topsham"/>
    <tag k="addr:housenumber" v="507"/>
    <tag k="addr:street" v="Vermont Route 25"/>
    <tag k="addr:state" v="VT"/>
    <tag k="ref:vcgi:esiteid" v="260518"/>
  </node>
  <node id="-362" visible="true" lat="44.11816188" lon="-72.23241948">
    <tag k="addr:city" v="Topsham"/>
    <tag k="addr:housenumber" v="356"/>
    <tag k="addr:street" v="Topsham Corinth Road"/>
    <tag k="addr:state" v="VT"/>
    <tag k="ref:vcgi:esiteid" v="260521"/>
  </node>
  <node id="-363" visible="true" lat="44.11825942" lon="-72.31923675">
    <tag k="addr:city" v="Topsham"/>
    <tag k="addr:housenumber" v="42"/>
    <tag k="addr:street" v="Batten Road"/>
    <tag k="addr:state" v="VT"/>
    <tag k="ref:vcgi:esiteid" v="260522"/>
  </node>
  <node id="-365" visible="true" lat="44.1182078" lon="-72.32129648">
    <tag k="addr:city" v="Topsham"/>
    <tag k="addr:housenumber" v="51"/>
    <tag k="addr:street" v="Batten Road"/>
    <tag k="addr:state" v="VT"/>
    <tag k="ref:vcgi:esiteid" v="260524"/>
  </node>
  <node id="-366" visible="true" lat="44.11794971" lon="-72.3065791">
    <tag k="addr:city" v="Topsham"/>
    <tag k="addr:housenumber" v="16"/>
    <tag k="addr:street" v="Guy Allen Road"/>
    <tag k="addr:state" v="VT"/>
    <tag k="ref:vcgi:esiteid" v="260525"/>
  </node>
  <node id="-369" visible="true" lat="44.11757274" lon="-72.30833372">
    <tag k="addr:city" v="Topsham"/>
    <tag k="addr:housenumber" v="497"/>
    <tag k="addr:street" v="Vermont Route 25"/>
    <tag k="addr:state" v="VT"/>
    <tag k="ref:vcgi:esiteid" v="260528"/>
  </node>
  <node id="-370" visible="true" lat="44.11728295" lon="-72.30812199">
    <tag k="addr:city" v="Topsham"/>
    <tag k="addr:housenumber" v="496"/>
    <tag k="addr:street" v="Vermont Route 25"/>
    <tag k="addr:state" v="VT"/>
    <tag k="ref:vcgi:esiteid" v="260529"/>
  </node>
  <node id="-371" visible="true" lat="44.11715713" lon="-72.23683677">
    <tag k="addr:city" v="Topsham"/>
    <tag k="addr:housenumber" v="32"/>
    <tag k="addr:street" v="Welch Road"/>
    <tag k="addr:state" v="VT"/>
    <tag k="ref:vcgi:esiteid" v="260530"/>
  </node>
  <node id="-373" visible="true" lat="44.11692399" lon="-72.23261025">
    <tag k="addr:city" v="Topsham"/>
    <tag k="addr:housenumber" v="346"/>
    <tag k="addr:street" v="Topsham Corinth Road"/>
    <tag k="addr:state" v="VT"/>
    <tag k="ref:vcgi:esiteid" v="260532"/>
  </node>
  <node id="-376" visible="true" lat="44.11669625" lon="-72.26751549">
    <tag k="addr:city" v="Topsham"/>
    <tag k="addr:housenumber" v="107"/>
    <tag k="addr:street" v="Ben Dexter Road"/>
    <tag k="addr:state" v="VT"/>
    <tag k="ref:vcgi:esiteid" v="260535"/>
  </node>
  <node id="-377" visible="true" lat="44.1166088" lon="-72.30853271">
    <tag k="addr:city" v="Topsham"/>
    <tag k="addr:housenumber" v="492"/>
    <tag k="addr:street" v="Vermont Route 25"/>
    <tag k="addr:state" v="VT"/>
    <tag k="ref:vcgi:esiteid" v="260536"/>
  </node>
  <node id="-378" visible="true" lat="44.11657073" lon="-72.31535212">
    <tag k="addr:city" v="Topsham"/>
    <tag k="addr:housenumber" v="20"/>
    <tag k="addr:street" v="Batten Road"/>
    <tag k="addr:state" v="VT"/>
    <tag k="ref:vcgi:esiteid" v="260537"/>
  </node>
  <node id="-380" visible="true" lat="44.11637115" lon="-72.31505584">
    <tag k="addr:city" v="Topsham"/>
    <tag k="addr:housenumber" v="18"/>
    <tag k="addr:street" v="Batten Road"/>
    <tag k="addr:state" v="VT"/>
    <tag k="ref:vcgi:esiteid" v="260539"/>
  </node>
  <node id="-388" visible="true" lat="44.11606195" lon="-72.31082638">
    <tag k="addr:city" v="Topsham"/>
    <tag k="addr:housenumber" v="477"/>
    <tag k="addr:street" v="Vermont Route 25"/>
    <tag k="addr:state" v="VT"/>
    <tag k="ref:vcgi:esiteid" v="260547"/>
  </node>
  <node id="-391" visible="true" lat="44.11574935" lon="-72.31457519">
    <tag k="addr:city" v="Topsham"/>
    <tag k="addr:housenumber" v="15"/>
    <tag k="addr:street" v="Batten Road"/>
    <tag k="addr:state" v="VT"/>
    <tag k="ref:vcgi:esiteid" v="260551"/>
  </node>
  <node id="-395" visible="true" lat="44.1156766" lon="-72.31422125">
    <tag k="addr:city" v="Topsham"/>
    <tag k="addr:housenumber" v="11"/>
    <tag k="addr:street" v="Batten Road"/>
    <tag k="addr:state" v="VT"/>
    <tag k="ref:vcgi:esiteid" v="260555"/>
  </node>
  <node id="-397" visible="true" lat="44.11502439" lon="-72.22528824">
    <tag k="addr:city" v="Topsham"/>
    <tag k="addr:housenumber" v="46"/>
    <tag k="addr:street" v="Lime Kiln Road"/>
    <tag k="addr:state" v="VT"/>
    <tag k="ref:vcgi:esiteid" v="260557"/>
  </node>
  <node id="-399" visible="true" lat="44.11533822" lon="-72.23814305">
    <tag k="addr:city" v="Topsham"/>
    <tag k="addr:housenumber" v="48"/>
    <tag k="addr:street" v="Welch Road"/>
    <tag k="addr:state" v="VT"/>
    <tag k="ref:vcgi:esiteid" v="260559"/>
  </node>
  <node id="-402" visible="true" lat="44.1148485" lon="-72.26102418">
    <tag k="addr:city" v="Topsham"/>
    <tag k="addr:housenumber" v="103"/>
    <tag k="addr:street" v="Ben Dexter Road"/>
    <tag k="addr:state" v="VT"/>
    <tag k="ref:vcgi:esiteid" v="260562"/>
  </node>
  <node id="-408" visible="true" lat="44.11408745" lon="-72.26598817">
    <tag k="addr:city" v="Topsham"/>
    <tag k="addr:housenumber" v="105"/>
    <tag k="addr:street" v="Ben Dexter Road"/>
    <tag k="addr:state" v="VT"/>
    <tag k="ref:vcgi:esiteid" v="260568"/>
  </node>
  <node id="-409" visible="true" lat="44.11429326" lon="-72.31480095">
    <tag k="addr:city" v="Topsham"/>
    <tag k="addr:housenumber" v="455"/>
    <tag k="addr:street" v="Vermont Route 25"/>
    <tag k="addr:state" v="VT"/>
    <tag k="ref:vcgi:esiteid" v="260569"/>
  </node>
  <node id="-411" visible="true" lat="44.11384876" lon="-72.26026391">
    <tag k="addr:city" v="Topsham"/>
    <tag k="addr:housenumber" v="102"/>
    <tag k="addr:street" v="Ben Dexter Road"/>
    <tag k="addr:state" v="VT"/>
    <tag k="ref:vcgi:esiteid" v="260571"/>
  </node>
  <node id="-414" visible="true" lat="44.11340639" lon="-72.31470251">
    <tag k="addr:city" v="Topsham"/>
    <tag k="addr:housenumber" v="450"/>
    <tag k="addr:street" v="Vermont Route 25"/>
    <tag k="addr:state" v="VT"/>
    <tag k="ref:vcgi:esiteid" v="260574"/>
  </node>
  <node id="-416" visible="true" lat="44.11371701" lon="-72.28534959">
    <tag k="addr:city" v="Topsham"/>
    <tag k="addr:housenumber" v="5"/>
    <tag k="addr:street" v="Robie Road"/>
    <tag k="addr:state" v="VT"/>
    <tag k="ref:vcgi:esiteid" v="260576"/>
  </node>
  <node id="-419" visible="true" lat="44.11268997" lon="-72.28381347">
    <tag k="addr:city" v="Topsham"/>
    <tag k="addr:housenumber" v="1"/>
    <tag k="addr:street" v="Robie Road"/>
    <tag k="addr:state" v="VT"/>
    <tag k="ref:vcgi:esiteid" v="260580"/>
  </node>
  <node id="-420" visible="true" lat="44.11186218" lon="-72.31751251">
    <tag k="addr:city" v="Topsham"/>
    <tag k="addr:housenumber" v="431"/>
    <tag k="addr:street" v="Vermont Route 25"/>
    <tag k="addr:state" v="VT"/>
    <tag k="ref:vcgi:esiteid" v="260581"/>
  </node>
  <node id="-421" visible="true" lat="44.11163267" lon="-72.24149032">
    <tag k="addr:city" v="Topsham"/>
    <tag k="addr:housenumber" v="84"/>
    <tag k="addr:street" v="Welch Road"/>
    <tag k="addr:state" v="VT"/>
    <tag k="ref:vcgi:esiteid" v="260582"/>
  </node>
  <node id="-422" visible="true" lat="44.11130481" lon="-72.24616754">
    <tag k="addr:city" v="Topsham"/>
    <tag k="addr:housenumber" v="114"/>
    <tag k="addr:street" v="Welch Road"/>
    <tag k="addr:state" v="VT"/>
    <tag k="ref:vcgi:esiteid" v="260583"/>
  </node>
  <node id="-423" visible="true" lat="44.11088536" lon="-72.31776738">
    <tag k="addr:city" v="Topsham"/>
    <tag k="addr:housenumber" v="429"/>
    <tag k="addr:street" v="Vermont Route 25"/>
    <tag k="addr:state" v="VT"/>
    <tag k="ref:vcgi:esiteid" v="260584"/>
  </node>
  <node id="-424" visible="true" lat="44.1108903" lon="-72.24509572">
    <tag k="addr:city" v="Topsham"/>
    <tag k="addr:housenumber" v="108"/>
    <tag k="addr:street" v="Welch Road"/>
    <tag k="addr:state" v="VT"/>
    <tag k="ref:vcgi:esiteid" v="260585"/>
  </node>
  <node id="-425" visible="true" lat="44.11083437" lon="-72.24240598">
    <tag k="addr:city" v="Topsham"/>
    <tag k="addr:housenumber" v="92"/>
    <tag k="addr:street" v="Welch Road"/>
    <tag k="addr:state" v="VT"/>
    <tag k="ref:vcgi:esiteid" v="260586"/>
  </node>
  <node id="-426" visible="true" lat="44.10988401" lon="-72.20241486">
    <tag k="addr:city" v="Topsham"/>
    <tag k="addr:housenumber" v="140"/>
    <tag k="addr:street" v="Swamp Road"/>
    <tag k="addr:state" v="VT"/>
    <tag k="ref:vcgi:esiteid" v="260587"/>
  </node>
  <node id="-427" visible="true" lat="44.10993957" lon="-72.26353454">
    <tag k="addr:city" v="Topsham"/>
    <tag k="addr:housenumber" v="65"/>
    <tag k="addr:street" v="Ben Dexter Road"/>
    <tag k="addr:state" v="VT"/>
    <tag k="ref:vcgi:esiteid" v="260588"/>
  </node>
  <node id="-429" visible="true" lat="44.10944914" lon="-72.20962464">
    <tag k="addr:city" v="Topsham"/>
    <tag k="addr:housenumber" v="51"/>
    <tag k="addr:street" v="Karl Nye Road"/>
    <tag k="addr:state" v="VT"/>
    <tag k="ref:vcgi:esiteid" v="260590"/>
  </node>
  <node id="-430" visible="true" lat="44.10948944" lon="-72.26174926">
    <tag k="addr:city" v="Topsham"/>
    <tag k="addr:housenumber" v="66"/>
    <tag k="addr:street" v="Ben Dexter Road"/>
    <tag k="addr:state" v="VT"/>
    <tag k="ref:vcgi:esiteid" v="260591"/>
  </node>
  <node id="-431" visible="true" lat="44.10931014" lon="-72.27997589">
    <tag k="addr:city" v="Topsham"/>
    <tag k="addr:housenumber" v="94"/>
    <tag k="addr:street" v="Phelps Road"/>
    <tag k="addr:state" v="VT"/>
    <tag k="ref:vcgi:esiteid" v="260592"/>
  </node>
  <node id="-432" visible="true" lat="44.10878753" lon="-72.2614212">
    <tag k="addr:city" v="Topsham"/>
    <tag k="addr:housenumber" v="64"/>
    <tag k="addr:street" v="Ben Dexter Road"/>
    <tag k="addr:state" v="VT"/>
    <tag k="ref:vcgi:esiteid" v="260593"/>
  </node>
  <node id="-433" visible="true" lat="44.10841917" lon="-72.19923341">
    <tag k="addr:city" v="Topsham"/>
    <tag k="addr:housenumber" v="29"/>
    <tag k="addr:street" v="Harris Drive"/>
    <tag k="addr:state" v="VT"/>
    <tag k="ref:vcgi:esiteid" v="260594"/>
  </node>
  <node id="-434" visible="true" lat="44.10858154" lon="-72.27970123">
    <tag k="addr:city" v="Topsham"/>
    <tag k="addr:housenumber" v="89"/>
    <tag k="addr:street" v="Phelps Road"/>
    <tag k="addr:state" v="VT"/>
    <tag k="ref:vcgi:esiteid" v="260595"/>
  </node>
  <node id="-435" visible="true" lat="44.10848999" lon="-72.28951263">
    <tag k="addr:city" v="Topsham"/>
    <tag k="addr:housenumber" v="105"/>
    <tag k="addr:street" v="Honey Corners Road"/>
    <tag k="addr:state" v="VT"/>
    <tag k="ref:vcgi:esiteid" v="260596"/>
  </node>
  <node id="-436" visible="true" lat="44.10789274" lon="-72.20336091">
    <tag k="addr:city" v="Topsham"/>
    <tag k="addr:housenumber" v="9"/>
    <tag k="addr:street" v="Harris Drive"/>
    <tag k="addr:state" v="VT"/>
    <tag k="ref:vcgi:esiteid" v="260597"/>
  </node>
  <node id="-437" visible="true" lat="44.10719787" lon="-72.22394541">
    <tag k="addr:city" v="Topsham"/>
    <tag k="addr:housenumber" v="70"/>
    <tag k="addr:street" v="Macdonald Road"/>
    <tag k="addr:state" v="VT"/>
    <tag k="ref:vcgi:esiteid" v="260598"/>
  </node>
  <node id="-438" visible="true" lat="44.10746168" lon="-72.20385682">
    <tag k="addr:city" v="Topsham"/>
    <tag k="addr:housenumber" v="4"/>
    <tag k="addr:street" v="Harris Drive"/>
    <tag k="addr:state" v="VT"/>
    <tag k="ref:vcgi:esiteid" v="260599"/>
  </node>
  <node id="-439" visible="true" lat="44.10769017" lon="-72.26128086">
    <tag k="addr:city" v="Topsham"/>
    <tag k="addr:housenumber" v="54"/>
    <tag k="addr:street" v="Ben Dexter Road"/>
    <tag k="addr:state" v="VT"/>
    <tag k="ref:vcgi:esiteid" v="260600"/>
  </node>
  <node id="-440" visible="true" lat="44.10744857" lon="-72.26322174">
    <tag k="addr:city" v="Topsham"/>
    <tag k="addr:housenumber" v="51"/>
    <tag k="addr:street" v="Ben Dexter Road"/>
    <tag k="addr:state" v="VT"/>
    <tag k="ref:vcgi:esiteid" v="260601"/>
  </node>
  <node id="-441" visible="true" lat="44.10751342" lon="-72.30941772">
    <tag k="addr:city" v="Topsham"/>
    <tag k="addr:housenumber" v="81"/>
    <tag k="addr:street" v="Moses Hood Road"/>
    <tag k="addr:state" v="VT"/>
    <tag k="ref:vcgi:esiteid" v="260602"/>
  </node>
  <node id="-442" visible="true" lat="44.10707639" lon="-72.22244202">
    <tag k="addr:city" v="Topsham"/>
    <tag k="addr:housenumber" v="65"/>
    <tag k="addr:street" v="Macdonald Road"/>
    <tag k="addr:state" v="VT"/>
    <tag k="ref:vcgi:esiteid" v="260603"/>
  </node>
  <node id="-443" visible="true" lat="44.10707788" lon="-72.26247206">
    <tag k="addr:city" v="Topsham"/>
    <tag k="addr:housenumber" v="52"/>
    <tag k="addr:street" v="Ben Dexter Road"/>
    <tag k="addr:state" v="VT"/>
    <tag k="ref:vcgi:esiteid" v="260604"/>
  </node>
  <node id="-444" visible="true" lat="44.1070404" lon="-72.31853484">
    <tag k="addr:city" v="Topsham"/>
    <tag k="addr:housenumber" v="400"/>
    <tag k="addr:street" v="Vermont Route 25"/>
    <tag k="addr:state" v="VT"/>
    <tag k="ref:vcgi:esiteid" v="260605"/>
  </node>
  <node id="-445" visible="true" lat="44.10694885" lon="-72.31977844">
    <tag k="addr:city" v="Topsham"/>
    <tag k="addr:housenumber" v="401"/>
    <tag k="addr:street" v="Vermont Route 25"/>
    <tag k="addr:state" v="VT"/>
    <tag k="ref:vcgi:esiteid" v="260606"/>
  </node>
  <node id="-446" visible="true" lat="44.10675048" lon="-72.28981781">
    <tag k="addr:city" v="Topsham"/>
    <tag k="addr:housenumber" v="87"/>
    <tag k="addr:street" v="Honey Corners Road"/>
    <tag k="addr:state" v="VT"/>
    <tag k="ref:vcgi:esiteid" v="260607"/>
  </node>
  <node id="-447" visible="true" lat="44.10622405" lon="-72.26356506">
    <tag k="addr:city" v="Topsham"/>
    <tag k="addr:housenumber" v="43"/>
    <tag k="addr:street" v="Ben Dexter Road"/>
    <tag k="addr:state" v="VT"/>
    <tag k="ref:vcgi:esiteid" v="260608"/>
  </node>
  <node id="-451" visible="true" lat="44.1056137" lon="-72.31832122">
    <tag k="addr:city" v="Topsham"/>
    <tag k="addr:housenumber" v="390"/>
    <tag k="addr:street" v="Vermont Route 25"/>
    <tag k="addr:state" v="VT"/>
    <tag k="ref:vcgi:esiteid" v="260612"/>
  </node>
  <node id="-452" visible="true" lat="44.10517501" lon="-72.2625885">
    <tag k="addr:city" v="Topsham"/>
    <tag k="addr:housenumber" v="40"/>
    <tag k="addr:street" v="Ben Dexter Road"/>
    <tag k="addr:state" v="VT"/>
    <tag k="ref:vcgi:esiteid" v="260613"/>
  </node>
  <node id="-454" visible="true" lat="44.10319685" lon="-72.22058808">
    <tag k="addr:city" v="Topsham"/>
    <tag k="addr:housenumber" v="21"/>
    <tag k="addr:street" v="Benjamin Road"/>
    <tag k="addr:state" v="VT"/>
    <tag k="ref:vcgi:esiteid" v="260615"/>
  </node>
  <node id="-455" visible="true" lat="44.10321044" lon="-72.27532958">
    <tag k="addr:city" v="Topsham"/>
    <tag k="addr:housenumber" v="45"/>
    <tag k="addr:street" v="Phelps Road"/>
    <tag k="addr:state" v="VT"/>
    <tag k="ref:vcgi:esiteid" v="260616"/>
  </node>
  <node id="-456" visible="true" lat="44.10310745" lon="-72.27432251">
    <tag k="addr:city" v="Topsham"/>
    <tag k="addr:housenumber" v="42"/>
    <tag k="addr:street" v="Phelps Road"/>
    <tag k="addr:state" v="VT"/>
    <tag k="ref:vcgi:esiteid" v="260617"/>
  </node>
  <node id="-457" visible="true" lat="44.10388986" lon="-72.26345033">
    <tag k="addr:city" v="Topsham"/>
    <tag k="addr:housenumber" v="21"/>
    <tag k="addr:street" v="Ben Dexter Road"/>
    <tag k="addr:state" v="VT"/>
    <tag k="ref:vcgi:esiteid" v="260618"/>
  </node>
  <node id="-458" visible="true" lat="44.10262298" lon="-72.26409912">
    <tag k="addr:city" v="Topsham"/>
    <tag k="addr:housenumber" v="19"/>
    <tag k="addr:street" v="Ben Dexter Road"/>
    <tag k="addr:state" v="VT"/>
    <tag k="ref:vcgi:esiteid" v="260619"/>
  </node>
  <node id="-460" visible="true" lat="44.10255291" lon="-72.26241995">
    <tag k="addr:city" v="Topsham"/>
    <tag k="addr:housenumber" v="16"/>
    <tag k="addr:street" v="Ben Dexter Road"/>
    <tag k="addr:state" v="VT"/>
    <tag k="ref:vcgi:esiteid" v="260621"/>
  </node>
  <node id="-461" visible="true" lat="44.1020181" lon="-72.21910798">
    <tag k="addr:city" v="Topsham"/>
    <tag k="addr:housenumber" v="22"/>
    <tag k="addr:street" v="Benjamin Road"/>
    <tag k="addr:state" v="VT"/>
    <tag k="ref:vcgi:esiteid" v="260622"/>
  </node>
  <node id="-464" visible="true" lat="44.10179903" lon="-72.27297262">
    <tag k="addr:city" v="Topsham"/>
    <tag k="addr:housenumber" v="31"/>
    <tag k="addr:street" v="Phelps Road"/>
    <tag k="addr:state" v="VT"/>
    <tag k="ref:vcgi:esiteid" v="260625"/>
  </node>
  <node id="-465" visible="true" lat="44.10150456" lon="-72.26269076">
    <tag k="addr:city" v="Topsham"/>
    <tag k="addr:housenumber" v="14"/>
    <tag k="addr:street" v="Ben Dexter Road"/>
    <tag k="addr:state" v="VT"/>
    <tag k="ref:vcgi:esiteid" v="260626"/>
  </node>
  <node id="-467" visible="true" lat="44.10145159" lon="-72.26415676">
    <tag k="addr:city" v="Topsham"/>
    <tag k="addr:housenumber" v="141"/>
    <tag k="addr:street" v="Watson Hill Road"/>
    <tag k="addr:state" v="VT"/>
    <tag k="ref:vcgi:esiteid" v="260628"/>
  </node>
  <node id="-468" visible="true" lat="44.10106918" lon="-72.30487312">
    <tag k="addr:city" v="Topsham"/>
    <tag k="addr:housenumber" v="6"/>
    <tag k="addr:street" v="Perry Road"/>
    <tag k="addr:state" v="VT"/>
    <tag k="ref:vcgi:esiteid" v="260629"/>
  </node>
  <node id="-470" visible="true" lat="44.10087783" lon="-72.26230734">
    <tag k="addr:city" v="Topsham"/>
    <tag k="addr:housenumber" v="9"/>
    <tag k="addr:street" v="Spooner Road"/>
    <tag k="addr:state" v="VT"/>
    <tag k="ref:vcgi:esiteid" v="260631"/>
  </node>
  <node id="-471" visible="true" lat="44.10081982" lon="-72.27085655">
    <tag k="addr:city" v="Topsham"/>
    <tag k="addr:housenumber" v="14"/>
    <tag k="addr:street" v="Phelps Road"/>
    <tag k="addr:state" v="VT"/>
    <tag k="ref:vcgi:esiteid" v="260632"/>
  </node>
  <node id="-473" visible="true" lat="44.10046552" lon="-72.21442353">
    <tag k="addr:city" v="Topsham"/>
    <tag k="addr:housenumber" v="54"/>
    <tag k="addr:street" v="Swamp Road"/>
    <tag k="addr:state" v="VT"/>
    <tag k="ref:vcgi:esiteid" v="260634"/>
  </node>
  <node id="-474" visible="true" lat="44.10059473" lon="-72.26237058">
    <tag k="addr:city" v="Topsham"/>
    <tag k="addr:housenumber" v="11"/>
    <tag k="addr:street" v="Spooner Road"/>
    <tag k="addr:state" v="VT"/>
    <tag k="ref:vcgi:esiteid" v="260635"/>
  </node>
  <node id="-475" visible="true" lat="44.10072789" lon="-72.30673864">
    <tag k="addr:city" v="Topsham"/>
    <tag k="addr:housenumber" v="9"/>
    <tag k="addr:street" v="Perry Road"/>
    <tag k="addr:state" v="VT"/>
    <tag k="ref:vcgi:esiteid" v="260636"/>
  </node>
  <node id="-476" visible="true" lat="44.10053253" lon="-72.26080322">
    <tag k="addr:city" v="Topsham"/>
    <tag k="addr:housenumber" v="15"/>
    <tag k="addr:street" v="Spooner Road"/>
    <tag k="addr:state" v="VT"/>
    <tag k="ref:vcgi:esiteid" v="260637"/>
  </node>
  <node id="-477" visible="true" lat="44.10051333" lon="-72.30593316">
    <tag k="addr:city" v="Topsham"/>
    <tag k="addr:housenumber" v="7"/>
    <tag k="addr:street" v="Perry Road"/>
    <tag k="addr:state" v="VT"/>
    <tag k="ref:vcgi:esiteid" v="260638"/>
  </node>
  <node id="-478" visible="true" lat="44.10044711" lon="-72.30294773">
    <tag k="addr:city" v="Topsham"/>
    <tag k="addr:housenumber" v="15"/>
    <tag k="addr:street" v="Perry Waterman Road"/>
    <tag k="addr:state" v="VT"/>
    <tag k="ref:vcgi:esiteid" v="260639"/>
  </node>
  <node id="-479" visible="true" lat="44.10005162" lon="-72.26788252">
    <tag k="addr:city" v="Topsham"/>
    <tag k="addr:housenumber" v="121"/>
    <tag k="addr:street" v="Watson Hill Road"/>
    <tag k="addr:state" v="VT"/>
    <tag k="ref:vcgi:esiteid" v="260640"/>
  </node>
  <node id="-480" visible="true" lat="44.09996414" lon="-72.31854247">
    <tag k="addr:city" v="Topsham"/>
    <tag k="addr:housenumber" v="349"/>
    <tag k="addr:street" v="Vermont Route 25"/>
    <tag k="addr:state" v="VT"/>
    <tag k="ref:vcgi:esiteid" v="260641"/>
  </node>
  <node id="-481" visible="true" lat="44.09980336" lon="-72.3077677">
    <tag k="addr:city" v="Topsham"/>
    <tag k="addr:housenumber" v="290"/>
    <tag k="addr:street" v="Vermont Route 25"/>
    <tag k="addr:state" v="VT"/>
    <tag k="ref:vcgi:esiteid" v="260642"/>
  </node>
  <node id="-483" visible="true" lat="44.09978485" lon="-72.31761932">
    <tag k="addr:city" v="Topsham"/>
    <tag k="addr:housenumber" v="346"/>
    <tag k="addr:street" v="Vermont Route 25"/>
    <tag k="addr:state" v="VT"/>
    <tag k="ref:vcgi:esiteid" v="260644"/>
  </node>
  <node id="-484" visible="true" lat="44.09957348" lon="-72.26087354">
    <tag k="addr:city" v="Topsham"/>
    <tag k="addr:housenumber" v="20"/>
    <tag k="addr:street" v="Spooner Road"/>
    <tag k="addr:state" v="VT"/>
    <tag k="ref:vcgi:esiteid" v="260645"/>
  </node>
  <node id="-486" visible="true" lat="44.09954436" lon="-72.27067214">
    <tag k="addr:city" v="Topsham"/>
    <tag k="addr:housenumber" v="11"/>
    <tag k="addr:street" v="Phelps Road"/>
    <tag k="addr:state" v="VT"/>
    <tag k="ref:vcgi:esiteid" v="260647"/>
  </node>
  <node id="-487" visible="true" lat="44.09953898" lon="-72.30878497">
    <tag k="addr:city" v="Topsham"/>
    <tag k="addr:housenumber" v="296"/>
    <tag k="addr:street" v="Vermont Route 25"/>
    <tag k="addr:state" v="VT"/>
    <tag k="ref:vcgi:esiteid" v="260648"/>
  </node>
  <node id="-488" visible="true" lat="44.09957885" lon="-72.3091278">
    <tag k="addr:city" v="Topsham"/>
    <tag k="addr:housenumber" v="298"/>
    <tag k="addr:street" v="Vermont Route 25"/>
    <tag k="addr:state" v="VT"/>
    <tag k="ref:vcgi:esiteid" v="260649"/>
  </node>
  <node id="-489" visible="true" lat="44.09950256" lon="-72.30528259">
    <tag k="addr:city" v="Topsham"/>
    <tag k="addr:housenumber" v="278"/>
    <tag k="addr:street" v="Vermont Route 25"/>
    <tag k="addr:state" v="VT"/>
    <tag k="ref:vcgi:esiteid" v="260650"/>
  </node>
  <node id="-490" visible="true" lat="44.09938049" lon="-72.25865173">
    <tag k="addr:city" v="Topsham"/>
    <tag k="addr:housenumber" v="21"/>
    <tag k="addr:street" v="Spooner Road"/>
    <tag k="addr:state" v="VT"/>
    <tag k="ref:vcgi:esiteid" v="260651"/>
  </node>
  <node id="-491" visible="true" lat="44.09928744" lon="-72.3062323">
    <tag k="addr:city" v="Topsham"/>
    <tag k="addr:housenumber" v="285"/>
    <tag k="addr:street" v="Vermont Route 25"/>
    <tag k="addr:state" v="VT"/>
    <tag k="ref:vcgi:esiteid" v="260652"/>
  </node>
  <node id="-492" visible="true" lat="44.09972285" lon="-72.29131748">
    <tag k="addr:city" v="Topsham"/>
    <tag k="addr:housenumber" v="4"/>
    <tag k="addr:street" v="Barberry Road"/>
    <tag k="addr:state" v="VT"/>
    <tag k="ref:vcgi:esiteid" v="260653"/>
  </node>
  <node id="-493" visible="true" lat="44.09943389" lon="-72.31816864">
    <tag k="addr:city" v="Topsham"/>
    <tag k="addr:housenumber" v="345"/>
    <tag k="addr:street" v="Vermont Route 25"/>
    <tag k="addr:state" v="VT"/>
    <tag k="ref:vcgi:esiteid" v="260654"/>
  </node>
  <node id="-496" visible="true" lat="44.09926881" lon="-72.29348118">
    <tag k="addr:city" v="Topsham"/>
    <tag k="addr:housenumber" v="16"/>
    <tag k="addr:street" v="Barberry Road"/>
    <tag k="addr:state" v="VT"/>
    <tag k="ref:vcgi:esiteid" v="260657"/>
  </node>
  <node id="-497" visible="true" lat="44.09900874" lon="-72.25972777">
    <tag k="addr:city" v="Topsham"/>
    <tag k="addr:housenumber" v="25"/>
    <tag k="addr:street" v="Spooner Road"/>
    <tag k="addr:state" v="VT"/>
    <tag k="ref:vcgi:esiteid" v="260658"/>
  </node>
  <node id="-499" visible="true" lat="44.09859613" lon="-72.29165094">
    <tag k="addr:city" v="Topsham"/>
    <tag k="addr:housenumber" v="7"/>
    <tag k="addr:street" v="Barberry Road"/>
    <tag k="addr:state" v="VT"/>
    <tag k="ref:vcgi:esiteid" v="260660"/>
  </node>
  <node id="-500" visible="true" lat="44.09860229" lon="-72.26013183">
    <tag k="addr:city" v="Topsham"/>
    <tag k="addr:housenumber" v="28"/>
    <tag k="addr:street" v="Spooner Road"/>
    <tag k="addr:state" v="VT"/>
    <tag k="ref:vcgi:esiteid" v="260661"/>
  </node>
  <node id="-501" visible="true" lat="44.09850496" lon="-72.30185973">
    <tag k="addr:city" v="Topsham"/>
    <tag k="addr:housenumber" v="261"/>
    <tag k="addr:street" v="Vermont Route 25"/>
    <tag k="addr:state" v="VT"/>
    <tag k="ref:vcgi:esiteid" v="260662"/>
  </node>
  <node id="-502" visible="true" lat="44.09849166" lon="-72.31526947">
    <tag k="addr:city" v="Topsham"/>
    <tag k="addr:housenumber" v="330"/>
    <tag k="addr:street" v="Vermont Route 25"/>
    <tag k="addr:state" v="VT"/>
    <tag k="ref:vcgi:esiteid" v="260663"/>
  </node>
  <node id="-504" visible="true" lat="44.09835114" lon="-72.27234048">
    <tag k="addr:city" v="Topsham"/>
    <tag k="addr:housenumber" v="15"/>
    <tag k="addr:street" v="Phelps Road"/>
    <tag k="addr:state" v="VT"/>
    <tag k="ref:vcgi:esiteid" v="260665"/>
  </node>
  <node id="-505" visible="true" lat="44.09813457" lon="-72.21000031">
    <tag k="addr:city" v="Topsham"/>
    <tag k="addr:housenumber" v="38"/>
    <tag k="addr:street" v="Powers Road"/>
    <tag k="addr:state" v="VT"/>
    <tag k="ref:vcgi:esiteid" v="260666"/>
  </node>
  <node id="-506" visible="true" lat="44.09819875" lon="-72.25453781">
    <tag k="addr:city" v="Topsham"/>
    <tag k="addr:housenumber" v="15"/>
    <tag k="addr:street" v="Dunnack Drive"/>
    <tag k="addr:state" v="VT"/>
    <tag k="ref:vcgi:esiteid" v="260667"/>
  </node>
  <node id="-508" visible="true" lat="44.09816741" lon="-72.31717681">
    <tag k="addr:city" v="Topsham"/>
    <tag k="addr:housenumber" v="337"/>
    <tag k="addr:street" v="Vermont Route 25"/>
    <tag k="addr:state" v="VT"/>
    <tag k="ref:vcgi:esiteid" v="260669"/>
  </node>
  <node id="-509" visible="true" lat="44.09793472" lon="-72.31328582">
    <tag k="addr:city" v="Topsham"/>
    <tag k="addr:housenumber" v="319"/>
    <tag k="addr:street" v="Vermont Route 25"/>
    <tag k="addr:state" v="VT"/>
    <tag k="ref:vcgi:esiteid" v="260670"/>
  </node>
  <node id="-510" visible="true" lat="44.09782856" lon="-72.29781285">
    <tag k="addr:city" v="Topsham"/>
    <tag k="addr:housenumber" v="240"/>
    <tag k="addr:street" v="Vermont Route 25"/>
    <tag k="addr:state" v="VT"/>
    <tag k="ref:vcgi:esiteid" v="260671"/>
  </node>
  <node id="-511" visible="true" lat="44.09783172" lon="-72.31145477">
    <tag k="addr:city" v="Topsham"/>
    <tag k="addr:housenumber" v="311"/>
    <tag k="addr:street" v="Vermont Route 25"/>
    <tag k="addr:state" v="VT"/>
    <tag k="ref:vcgi:esiteid" v="260672"/>
  </node>
  <node id="-513" visible="true" lat="44.09767532" lon="-72.31575775">
    <tag k="addr:city" v="Topsham"/>
    <tag k="addr:housenumber" v="12"/>
    <tag k="addr:street" v="East Orange Road"/>
    <tag k="addr:state" v="VT"/>
    <tag k="ref:vcgi:esiteid" v="260674"/>
  </node>
  <node id="-514" visible="true" lat="44.09743993" lon="-72.29289583">
    <tag k="addr:city" v="Topsham"/>
    <tag k="addr:housenumber" v="21"/>
    <tag k="addr:street" v="Barberry Road"/>
    <tag k="addr:state" v="VT"/>
    <tag k="ref:vcgi:esiteid" v="260675"/>
  </node>
  <node id="-515" visible="true" lat="44.09760665" lon="-72.31504821">
    <tag k="addr:city" v="Topsham"/>
    <tag k="addr:housenumber" v="7"/>
    <tag k="addr:street" v="East Orange Road"/>
    <tag k="addr:state" v="VT"/>
    <tag k="ref:vcgi:esiteid" v="260676"/>
  </node>
  <node id="-516" visible="true" lat="44.09753417" lon="-72.31415557">
    <tag k="addr:city" v="Topsham"/>
    <tag k="addr:housenumber" v="1"/>
    <tag k="addr:street" v="Branch Road"/>
    <tag k="addr:state" v="VT"/>
    <tag k="ref:vcgi:esiteid" v="260677"/>
  </node>
  <node id="-518" visible="true" lat="44.09709477" lon="-72.29803208">
    <tag k="addr:city" v="Topsham"/>
    <tag k="addr:housenumber" v="239"/>
    <tag k="addr:street" v="Vermont Route 25"/>
    <tag k="addr:state" v="VT"/>
    <tag k="ref:vcgi:esiteid" v="260679"/>
  </node>
  <node id="-519" visible="true" lat="44.09705352" lon="-72.31658172">
    <tag k="addr:city" v="Topsham"/>
    <tag k="addr:housenumber" v="26"/>
    <tag k="addr:street" v="East Orange Road"/>
    <tag k="addr:state" v="VT"/>
    <tag k="ref:vcgi:esiteid" v="260680"/>
  </node>
  <node id="-521" visible="true" lat="44.09701141" lon="-72.29625493">
    <tag k="addr:city" v="Topsham"/>
    <tag k="addr:housenumber" v="230"/>
    <tag k="addr:street" v="Vermont Route 25"/>
    <tag k="addr:state" v="VT"/>
    <tag k="ref:vcgi:esiteid" v="260682"/>
  </node>
  <node id="-522" visible="true" lat="44.09681596" lon="-72.25669383">
    <tag k="addr:city" v="Topsham"/>
    <tag k="addr:housenumber" v="8"/>
    <tag k="addr:street" v="Dunnack Drive"/>
    <tag k="addr:state" v="VT"/>
    <tag k="ref:vcgi:esiteid" v="260683"/>
  </node>
  <node id="-523" visible="true" lat="44.0966432" lon="-72.22368561">
    <tag k="addr:city" v="Topsham"/>
    <tag k="addr:housenumber" v="187"/>
    <tag k="addr:street" v="Topsham Corinth Road"/>
    <tag k="addr:state" v="VT"/>
    <tag k="ref:vcgi:esiteid" v="260684"/>
  </node>
  <node id="-524" visible="true" lat="44.09665373" lon="-72.25155541">
    <tag k="addr:city" v="Topsham"/>
    <tag k="addr:housenumber" v="14"/>
    <tag k="addr:street" v="Dunnack Drive"/>
    <tag k="addr:state" v="VT"/>
    <tag k="ref:vcgi:esiteid" v="260685"/>
  </node>
  <node id="-525" visible="true" lat="44.09671878" lon="-72.29520799">
    <tag k="addr:city" v="Topsham"/>
    <tag k="addr:housenumber" v="226"/>
    <tag k="addr:street" v="Vermont Route 25"/>
    <tag k="addr:state" v="VT"/>
    <tag k="ref:vcgi:esiteid" v="260686"/>
  </node>
  <node id="-526" visible="true" lat="44.0965456" lon="-72.25926947">
    <tag k="addr:city" v="Topsham"/>
    <tag k="addr:housenumber" v="46"/>
    <tag k="addr:street" v="Spooner Road"/>
    <tag k="addr:state" v="VT"/>
    <tag k="ref:vcgi:esiteid" v="260687"/>
  </node>
  <node id="-527" visible="true" lat="44.0964464" lon="-72.29331844">
    <tag k="addr:city" v="Topsham"/>
    <tag k="addr:housenumber" v="218"/>
    <tag k="addr:street" v="Vermont Route 25"/>
    <tag k="addr:state" v="VT"/>
    <tag k="ref:vcgi:esiteid" v="260688"/>
  </node>
  <node id="-528" visible="true" lat="44.09644317" lon="-72.3277893">
    <tag k="addr:city" v="Topsham"/>
    <tag k="addr:housenumber" v="76"/>
    <tag k="addr:street" v="East Orange Road"/>
    <tag k="addr:state" v="VT"/>
    <tag k="ref:vcgi:esiteid" v="260689"/>
  </node>
  <node id="-529" visible="true" lat="44.09629821" lon="-72.26944732">
    <tag k="addr:city" v="Topsham"/>
    <tag k="addr:housenumber" v="93"/>
    <tag k="addr:street" v="Watson Hill Road"/>
    <tag k="addr:state" v="VT"/>
    <tag k="ref:vcgi:esiteid" v="260690"/>
  </node>
  <node id="-530" visible="true" lat="44.09624433" lon="-72.24184415">
    <tag k="addr:city" v="Topsham"/>
    <tag k="addr:housenumber" v="142"/>
    <tag k="addr:street" v="Colby Road"/>
    <tag k="addr:state" v="VT"/>
    <tag k="ref:vcgi:esiteid" v="260691"/>
  </node>
  <node id="-531" visible="true" lat="44.09574508" lon="-72.23349761">
    <tag k="addr:city" v="Topsham"/>
    <tag k="addr:housenumber" v="73"/>
    <tag k="addr:street" v="Colby Road"/>
    <tag k="addr:state" v="VT"/>
    <tag k="ref:vcgi:esiteid" v="260692"/>
  </node>
  <node id="-532" visible="true" lat="44.09588241" lon="-72.33013153">
    <tag k="addr:city" v="Topsham"/>
    <tag k="addr:housenumber" v="88"/>
    <tag k="addr:street" v="East Orange Road"/>
    <tag k="addr:state" v="VT"/>
    <tag k="ref:vcgi:esiteid" v="260693"/>
  </node>
  <node id="-533" visible="true" lat="44.09576299" lon="-72.29409948">
    <tag k="addr:city" v="Topsham"/>
    <tag k="addr:housenumber" v="217"/>
    <tag k="addr:street" v="Vermont Route 25"/>
    <tag k="addr:state" v="VT"/>
    <tag k="ref:vcgi:esiteid" v="260694"/>
  </node>
  <node id="-534" visible="true" lat="44.09563445" lon="-72.3221817">
    <tag k="addr:city" v="Topsham"/>
    <tag k="addr:housenumber" v="47"/>
    <tag k="addr:street" v="East Orange Road"/>
    <tag k="addr:state" v="VT"/>
    <tag k="ref:vcgi:esiteid" v="260696"/>
  </node>
  <node id="-535" visible="true" lat="44.09545445" lon="-72.25756289">
    <tag k="addr:city" v="Topsham"/>
    <tag k="addr:housenumber" v="52"/>
    <tag k="addr:street" v="Spooner Road"/>
    <tag k="addr:state" v="VT"/>
    <tag k="ref:vcgi:esiteid" v="260697"/>
  </node>
  <node id="-536" visible="true" lat="44.0953288" lon="-72.22821805">
    <tag k="addr:city" v="Topsham"/>
    <tag k="addr:housenumber" v="42"/>
    <tag k="addr:street" v="Colby Road"/>
    <tag k="addr:state" v="VT"/>
    <tag k="ref:vcgi:esiteid" v="260698"/>
  </node>
  <node id="-537" visible="true" lat="44.09524536" lon="-72.23641967">
    <tag k="addr:city" v="Topsham"/>
    <tag k="addr:housenumber" v="91"/>
    <tag k="addr:street" v="Colby Road"/>
    <tag k="addr:state" v="VT"/>
    <tag k="ref:vcgi:esiteid" v="260699"/>
  </node>
  <node id="-538" visible="true" lat="44.09531429" lon="-72.29153381">
    <tag k="addr:city" v="Topsham"/>
    <tag k="addr:housenumber" v="202"/>
    <tag k="addr:street" v="Vermont Route 25"/>
    <tag k="addr:state" v="VT"/>
    <tag k="ref:vcgi:esiteid" v="260700"/>
  </node>
  <node id="-539" visible="true" lat="44.09521817" lon="-72.24827573">
    <tag k="addr:city" v="Topsham"/>
    <tag k="addr:housenumber" v="152"/>
    <tag k="addr:street" v="Colby Road"/>
    <tag k="addr:state" v="VT"/>
    <tag k="ref:vcgi:esiteid" v="260701"/>
  </node>
  <node id="-540" visible="true" lat="44.09524776" lon="-72.28999686">
    <tag k="addr:city" v="Topsham"/>
    <tag k="addr:housenumber" v="4"/>
    <tag k="addr:street" v="Honey Corners Road"/>
    <tag k="addr:state" v="VT"/>
    <tag k="ref:vcgi:esiteid" v="260702"/>
  </node>
  <node id="-541" visible="true" lat="44.09517935" lon="-72.24550912">
    <tag k="addr:city" v="Topsham"/>
    <tag k="addr:housenumber" v="140"/>
    <tag k="addr:street" v="Colby Road"/>
    <tag k="addr:state" v="VT"/>
    <tag k="ref:vcgi:esiteid" v="260703"/>
  </node>
  <node id="-542" visible="true" lat="44.09509277" lon="-72.29039001">
    <tag k="addr:city" v="Topsham"/>
    <tag k="addr:housenumber" v="3"/>
    <tag k="addr:street" v="Honey Corners Road"/>
    <tag k="addr:state" v="VT"/>
    <tag k="ref:vcgi:esiteid" v="260704"/>
  </node>
  <node id="-543" visible="true" lat="44.09470367" lon="-72.23753356">
    <tag k="addr:city" v="Topsham"/>
    <tag k="addr:housenumber" v="97"/>
    <tag k="addr:street" v="Colby Road"/>
    <tag k="addr:state" v="VT"/>
    <tag k="ref:vcgi:esiteid" v="260705"/>
  </node>
  <node id="-544" visible="true" lat="44.09462356" lon="-72.29115295">
    <tag k="addr:city" v="Topsham"/>
    <tag k="addr:housenumber" v="201"/>
    <tag k="addr:street" v="Vermont Route 25"/>
    <tag k="addr:state" v="VT"/>
    <tag k="ref:vcgi:esiteid" v="260706"/>
  </node>
  <node id="-545" visible="true" lat="44.09445738" lon="-72.222175">
    <tag k="addr:city" v="Topsham"/>
    <tag k="addr:housenumber" v="170"/>
    <tag k="addr:street" v="Topsham Corinth Road"/>
    <tag k="addr:state" v="VT"/>
    <tag k="ref:vcgi:esiteid" v="260707"/>
  </node>
  <node id="-546" visible="true" lat="44.09449768" lon="-72.28942871">
    <tag k="addr:city" v="Topsham"/>
    <tag k="addr:housenumber" v="192"/>
    <tag k="addr:street" v="Vermont Route 25"/>
    <tag k="addr:state" v="VT"/>
    <tag k="ref:vcgi:esiteid" v="260708"/>
  </node>
  <node id="-547" visible="true" lat="44.0943489" lon="-72.23012542">
    <tag k="addr:city" v="Topsham"/>
    <tag k="addr:housenumber" v="47"/>
    <tag k="addr:street" v="Colby Road"/>
    <tag k="addr:state" v="VT"/>
    <tag k="ref:vcgi:esiteid" v="260709"/>
  </node>
  <node id="-548" visible="true" lat="44.09425687" lon="-72.22899624">
    <tag k="addr:city" v="Topsham"/>
    <tag k="addr:housenumber" v="44"/>
    <tag k="addr:street" v="Colby Road"/>
    <tag k="addr:state" v="VT"/>
    <tag k="ref:vcgi:esiteid" v="260710"/>
  </node>
  <node id="-549" visible="true" lat="44.09407806" lon="-72.24127197">
    <tag k="addr:city" v="Topsham"/>
    <tag k="addr:housenumber" v="117"/>
    <tag k="addr:street" v="Colby Road"/>
    <tag k="addr:state" v="VT"/>
    <tag k="ref:vcgi:esiteid" v="260711"/>
  </node>
  <node id="-550" visible="true" lat="44.09395217" lon="-72.22773742">
    <tag k="addr:city" v="Topsham"/>
    <tag k="addr:housenumber" v="41"/>
    <tag k="addr:street" v="Colby Road"/>
    <tag k="addr:state" v="VT"/>
    <tag k="ref:vcgi:esiteid" v="260712"/>
  </node>
  <node id="-551" visible="true" lat="44.09398602" lon="-72.25000877">
    <tag k="addr:city" v="Topsham"/>
    <tag k="addr:housenumber" v="84"/>
    <tag k="addr:street" v="Spooner Road"/>
    <tag k="addr:state" v="VT"/>
    <tag k="ref:vcgi:esiteid" v="260713"/>
  </node>
  <node id="-552" visible="true" lat="44.09332324" lon="-72.28781707">
    <tag k="addr:city" v="Topsham"/>
    <tag k="addr:housenumber" v="180"/>
    <tag k="addr:street" v="Vermont Route 25"/>
    <tag k="addr:state" v="VT"/>
    <tag k="ref:vcgi:esiteid" v="260714"/>
  </node>
  <node id="-553" visible="true" lat="44.09274092" lon="-72.28810269">
    <tag k="addr:city" v="Topsham"/>
    <tag k="addr:housenumber" v="179"/>
    <tag k="addr:street" v="Vermont Route 25"/>
    <tag k="addr:state" v="VT"/>
    <tag k="ref:vcgi:esiteid" v="260715"/>
  </node>
  <node id="-554" visible="true" lat="44.09260344" lon="-72.28716687">
    <tag k="addr:city" v="Topsham"/>
    <tag k="addr:housenumber" v="176"/>
    <tag k="addr:street" v="Vermont Route 25"/>
    <tag k="addr:state" v="VT"/>
    <tag k="ref:vcgi:esiteid" v="260716"/>
  </node>
  <node id="-555" visible="true" lat="44.0921173" lon="-72.25788879">
    <tag k="addr:city" v="Topsham"/>
    <tag k="addr:housenumber" v="54"/>
    <tag k="addr:street" v="Spooner Road"/>
    <tag k="addr:state" v="VT"/>
    <tag k="ref:vcgi:esiteid" v="260717"/>
  </node>
  <node id="-556" visible="true" lat="44.0915923" lon="-72.28547069">
    <tag k="addr:city" v="Topsham"/>
    <tag k="addr:housenumber" v="164"/>
    <tag k="addr:street" v="Vermont Route 25"/>
    <tag k="addr:state" v="VT"/>
    <tag k="ref:vcgi:esiteid" v="260718"/>
  </node>
  <node id="-557" visible="true" lat="44.09096898" lon="-72.28482402">
    <tag k="addr:city" v="Topsham"/>
    <tag k="addr:housenumber" v="160"/>
    <tag k="addr:street" v="Vermont Route 25"/>
    <tag k="addr:state" v="VT"/>
    <tag k="ref:vcgi:esiteid" v="260719"/>
  </node>
  <node id="-558" visible="true" lat="44.09073257" lon="-72.2850418">
    <tag k="addr:city" v="Topsham"/>
    <tag k="addr:housenumber" v="159"/>
    <tag k="addr:street" v="Vermont Route 25"/>
    <tag k="addr:state" v="VT"/>
    <tag k="ref:vcgi:esiteid" v="260720"/>
  </node>
  <node id="-559" visible="true" lat="44.09049606" lon="-72.28462219">
    <tag k="addr:city" v="Topsham"/>
    <tag k="addr:housenumber" v="157"/>
    <tag k="addr:street" v="Vermont Route 25"/>
    <tag k="addr:state" v="VT"/>
    <tag k="ref:vcgi:esiteid" v="260721"/>
  </node>
  <node id="-560" visible="true" lat="44.09029006" lon="-72.28224945">
    <tag k="addr:city" v="Topsham"/>
    <tag k="addr:housenumber" v="4"/>
    <tag k="addr:street" v="Gendron Road"/>
    <tag k="addr:state" v="VT"/>
    <tag k="ref:vcgi:esiteid" v="260722"/>
  </node>
  <node id="-561" visible="true" lat="44.08996934" lon="-72.22560067">
    <tag k="addr:city" v="Topsham"/>
    <tag k="addr:housenumber" v="27"/>
    <tag k="addr:street" v="Colby Road"/>
    <tag k="addr:state" v="VT"/>
    <tag k="ref:vcgi:esiteid" v="260723"/>
  </node>
  <node id="-562" visible="true" lat="44.08994129" lon="-72.28368102">
    <tag k="addr:city" v="Topsham"/>
    <tag k="addr:housenumber" v="149"/>
    <tag k="addr:street" v="Vermont Route 25"/>
    <tag k="addr:state" v="VT"/>
    <tag k="ref:vcgi:esiteid" v="260724"/>
  </node>
  <node id="-563" visible="true" lat="44.08989715" lon="-72.28257751">
    <tag k="addr:city" v="Topsham"/>
    <tag k="addr:housenumber" v="1"/>
    <tag k="addr:street" v="Gendron Road"/>
    <tag k="addr:state" v="VT"/>
    <tag k="ref:vcgi:esiteid" v="260725"/>
  </node>
  <node id="-564" visible="true" lat="44.08977855" lon="-72.28329527">
    <tag k="addr:city" v="Topsham"/>
    <tag k="addr:housenumber" v="147"/>
    <tag k="addr:street" v="Vermont Route 25"/>
    <tag k="addr:state" v="VT"/>
    <tag k="ref:vcgi:esiteid" v="260726"/>
  </node>
  <node id="-565" visible="true" lat="44.09059145" lon="-72.30007576">
    <tag k="addr:city" v="Topsham"/>
    <tag k="addr:housenumber" v="52"/>
    <tag k="addr:street" v="Pike Hill Road West"/>
    <tag k="addr:state" v="VT"/>
    <tag k="ref:vcgi:esiteid" v="260727"/>
  </node>
  <node id="-566" visible="true" lat="44.08929836" lon="-72.22215316">
    <tag k="addr:city" v="Topsham"/>
    <tag k="addr:housenumber" v="136"/>
    <tag k="addr:street" v="Topsham Corinth Road"/>
    <tag k="addr:state" v="VT"/>
    <tag k="ref:vcgi:esiteid" v="260728"/>
  </node>
  <node id="-567" visible="true" lat="44.08957536" lon="-72.281996">
    <tag k="addr:city" v="Topsham"/>
    <tag k="addr:housenumber" v="142"/>
    <tag k="addr:street" v="Vermont Route 25"/>
    <tag k="addr:state" v="VT"/>
    <tag k="ref:vcgi:esiteid" v="260729"/>
  </node>
  <node id="-568" visible="true" lat="44.08944922" lon="-72.29967339">
    <tag k="addr:city" v="Topsham"/>
    <tag k="addr:housenumber" v="50"/>
    <tag k="addr:street" v="Pike Hill Road West"/>
    <tag k="addr:state" v="VT"/>
    <tag k="ref:vcgi:esiteid" v="260730"/>
  </node>
  <node id="-569" visible="true" lat="44.0893829" lon="-72.28238336">
    <tag k="addr:city" v="Topsham"/>
    <tag k="addr:housenumber" v="143"/>
    <tag k="addr:street" v="Vermont Route 25"/>
    <tag k="addr:state" v="VT"/>
    <tag k="ref:vcgi:esiteid" v="260731"/>
  </node>
  <node id="-570" visible="true" lat="44.08934592" lon="-72.28333855">
    <tag k="addr:city" v="Topsham"/>
    <tag k="addr:housenumber" v="6"/>
    <tag k="addr:street" v="Pike Hill Road"/>
    <tag k="addr:state" v="VT"/>
    <tag k="ref:vcgi:esiteid" v="260732"/>
  </node>
  <node id="-571" visible="true" lat="44.08925812" lon="-72.28507711">
    <tag k="addr:city" v="Topsham"/>
    <tag k="addr:housenumber" v="16"/>
    <tag k="addr:street" v="Pike Hill Road"/>
    <tag k="addr:state" v="VT"/>
    <tag k="ref:vcgi:esiteid" v="260733"/>
  </node>
  <node id="-572" visible="true" lat="44.08917497" lon="-72.28112492">
    <tag k="addr:city" v="Topsham"/>
    <tag k="addr:housenumber" v="136"/>
    <tag k="addr:street" v="Vermont Route 25"/>
    <tag k="addr:state" v="VT"/>
    <tag k="ref:vcgi:esiteid" v="260734"/>
  </node>
  <node id="-573" visible="true" lat="44.08896826" lon="-72.2817751">
    <tag k="addr:city" v="Topsham"/>
    <tag k="addr:housenumber" v="139"/>
    <tag k="addr:street" v="Vermont Route 25"/>
    <tag k="addr:state" v="VT"/>
    <tag k="ref:vcgi:esiteid" v="260735"/>
  </node>
  <node id="-574" visible="true" lat="44.08880659" lon="-72.28055699">
    <tag k="addr:city" v="Topsham"/>
    <tag k="addr:housenumber" v="134"/>
    <tag k="addr:street" v="Vermont Route 25"/>
    <tag k="addr:state" v="VT"/>
    <tag k="ref:vcgi:esiteid" v="260736"/>
  </node>
  <node id="-575" visible="true" lat="44.08902699" lon="-72.28455646">
    <tag k="addr:city" v="Topsham"/>
    <tag k="addr:housenumber" v="14"/>
    <tag k="addr:street" v="Pike Hill Road"/>
    <tag k="addr:state" v="VT"/>
    <tag k="ref:vcgi:esiteid" v="260737"/>
  </node>
  <node id="-576" visible="true" lat="44.08884046" lon="-72.2855406">
    <tag k="addr:city" v="Topsham"/>
    <tag k="addr:housenumber" v="18"/>
    <tag k="addr:street" v="Pike Hill Road"/>
    <tag k="addr:state" v="VT"/>
    <tag k="ref:vcgi:esiteid" v="260738"/>
  </node>
  <node id="-577" visible="true" lat="44.08878611" lon="-72.29941634">
    <tag k="addr:city" v="Topsham"/>
    <tag k="addr:housenumber" v="48"/>
    <tag k="addr:street" v="Pike Hill Road West"/>
    <tag k="addr:state" v="VT"/>
    <tag k="ref:vcgi:esiteid" v="260739"/>
  </node>
  <node id="-578" visible="true" lat="44.0888191" lon="-72.27222856">
    <tag k="addr:city" v="Topsham"/>
    <tag k="addr:housenumber" v="200"/>
    <tag k="addr:street" v="Jungles Way"/>
    <tag k="addr:state" v="VT"/>
    <tag k="ref:vcgi:esiteid" v="260740"/>
  </node>
  <node id="-579" visible="true" lat="44.08774129" lon="-72.23177028">
    <tag k="addr:city" v="Topsham"/>
    <tag k="addr:housenumber" v="98"/>
    <tag k="addr:street" v="Stryker Road"/>
    <tag k="addr:state" v="VT"/>
    <tag k="ref:vcgi:esiteid" v="260741"/>
  </node>
  <node id="-580" visible="true" lat="44.08852649" lon="-72.23355399">
    <tag k="addr:city" v="Topsham"/>
    <tag k="addr:housenumber" v="100"/>
    <tag k="addr:street" v="Stryker Road"/>
    <tag k="addr:state" v="VT"/>
    <tag k="ref:vcgi:esiteid" v="260742"/>
  </node>
  <node id="-581" visible="true" lat="44.08866882" lon="-72.30484008">
    <tag k="addr:city" v="Topsham"/>
    <tag k="addr:housenumber" v="72"/>
    <tag k="addr:street" v="Pike Hill Road West"/>
    <tag k="addr:state" v="VT"/>
    <tag k="ref:vcgi:esiteid" v="260743"/>
  </node>
  <node id="-582" visible="true" lat="44.08855273" lon="-72.27777451">
    <tag k="addr:city" v="Topsham"/>
    <tag k="addr:housenumber" v="114"/>
    <tag k="addr:street" v="Vermont Route 25"/>
    <tag k="addr:state" v="VT"/>
    <tag k="ref:vcgi:esiteid" v="260744"/>
  </node>
  <node id="-583" visible="true" lat="44.08848571" lon="-72.30104828">
    <tag k="addr:city" v="Topsham"/>
    <tag k="addr:housenumber" v="53"/>
    <tag k="addr:street" v="Pike Hill Road West"/>
    <tag k="addr:state" v="VT"/>
    <tag k="ref:vcgi:esiteid" v="260746"/>
  </node>
  <node id="-584" visible="true" lat="44.08858305" lon="-72.28479735">
    <tag k="addr:city" v="Topsham"/>
    <tag k="addr:housenumber" v="4"/>
    <tag k="addr:street" v="Richardson Road"/>
    <tag k="addr:state" v="VT"/>
    <tag k="ref:vcgi:esiteid" v="260747"/>
  </node>
  <node id="-585" visible="true" lat="44.08797454" lon="-72.29421234">
    <tag k="addr:city" v="Topsham"/>
    <tag k="addr:housenumber" v="20"/>
    <tag k="addr:street" v="Pike Hill Road West"/>
    <tag k="addr:state" v="VT"/>
    <tag k="ref:vcgi:esiteid" v="260748"/>
  </node>
  <node id="-586" visible="true" lat="44.08769435" lon="-72.28369306">
    <tag k="addr:city" v="Topsham"/>
    <tag k="addr:housenumber" v="9"/>
    <tag k="addr:street" v="Richardson Road"/>
    <tag k="addr:state" v="VT"/>
    <tag k="ref:vcgi:esiteid" v="260749"/>
  </node>
  <node id="-587" visible="true" lat="44.08755277" lon="-72.21157014">
    <tag k="addr:city" v="Topsham"/>
    <tag k="addr:housenumber" v="77"/>
    <tag k="addr:street" v="Currier Hill Road"/>
    <tag k="addr:state" v="VT"/>
    <tag k="ref:vcgi:esiteid" v="260750"/>
  </node>
  <node id="-588" visible="true" lat="44.08763819" lon="-72.26762085">
    <tag k="addr:city" v="Topsham"/>
    <tag k="addr:housenumber" v="9"/>
    <tag k="addr:street" v="Felch Road"/>
    <tag k="addr:state" v="VT"/>
    <tag k="ref:vcgi:esiteid" v="260751"/>
  </node>
  <node id="-589" visible="true" lat="44.08733035" lon="-72.22177262">
    <tag k="addr:city" v="Topsham"/>
    <tag k="addr:housenumber" v="120"/>
    <tag k="addr:street" v="Topsham Corinth Road"/>
    <tag k="addr:state" v="VT"/>
    <tag k="ref:vcgi:esiteid" v="260752"/>
  </node>
  <node id="-590" visible="true" lat="44.08780857" lon="-72.26897386">
    <tag k="addr:city" v="Topsham"/>
    <tag k="addr:housenumber" v="3"/>
    <tag k="addr:street" v="Felch Road"/>
    <tag k="addr:state" v="VT"/>
    <tag k="ref:vcgi:esiteid" v="260753"/>
  </node>
  <node id="-591" visible="true" lat="44.08720016" lon="-72.29177856">
    <tag k="addr:city" v="Topsham"/>
    <tag k="addr:housenumber" v="5"/>
    <tag k="addr:street" v="Pike Hill Road West"/>
    <tag k="addr:state" v="VT"/>
    <tag k="ref:vcgi:esiteid" v="260754"/>
  </node>
  <node id="-592" visible="true" lat="44.08691406" lon="-72.29121398">
    <tag k="addr:city" v="Topsham"/>
    <tag k="addr:housenumber" v="50"/>
    <tag k="addr:street" v="Pike Hill Road"/>
    <tag k="addr:state" v="VT"/>
    <tag k="ref:vcgi:esiteid" v="260755"/>
  </node>
  <node id="-593" visible="true" lat="44.08609516" lon="-72.27555893">
    <tag k="addr:city" v="Topsham"/>
    <tag k="addr:housenumber" v="102"/>
    <tag k="addr:street" v="Vermont Route 25"/>
    <tag k="addr:state" v="VT"/>
    <tag k="ref:vcgi:esiteid" v="260756"/>
  </node>
  <node id="-594" visible="true" lat="44.0858078" lon="-72.2301712">
    <tag k="addr:city" v="Topsham"/>
    <tag k="addr:housenumber" v="80"/>
    <tag k="addr:street" v="Stryker Road"/>
    <tag k="addr:state" v="VT"/>
    <tag k="ref:vcgi:esiteid" v="260757"/>
  </node>
  <node id="-595" visible="true" lat="44.08514951" lon="-72.22247254">
    <tag k="addr:city" v="Topsham"/>
    <tag k="addr:housenumber" v="107"/>
    <tag k="addr:street" v="Topsham Corinth Road"/>
    <tag k="addr:state" v="VT"/>
    <tag k="ref:vcgi:esiteid" v="260758"/>
  </node>
  <node id="-596" visible="true" lat="44.08504285" lon="-72.2218885">
    <tag k="addr:city" v="Topsham"/>
    <tag k="addr:housenumber" v="106"/>
    <tag k="addr:street" v="Topsham Corinth Road"/>
    <tag k="addr:state" v="VT"/>
    <tag k="ref:vcgi:esiteid" v="260759"/>
  </node>
  <node id="-597" visible="true" lat="44.08431536" lon="-72.27352093">
    <tag k="addr:city" v="Topsham"/>
    <tag k="addr:housenumber" v="84"/>
    <tag k="addr:street" v="Vermont Route 25"/>
    <tag k="addr:state" v="VT"/>
    <tag k="ref:vcgi:esiteid" v="260760"/>
  </node>
  <node id="-598" visible="true" lat="44.08404647" lon="-72.27386721">
    <tag k="addr:city" v="Topsham"/>
    <tag k="addr:housenumber" v="85"/>
    <tag k="addr:street" v="Vermont Route 25"/>
    <tag k="addr:state" v="VT"/>
    <tag k="ref:vcgi:esiteid" v="260761"/>
  </node>
  <node id="-599" visible="true" lat="44.08398222" lon="-72.2092508">
    <tag k="addr:city" v="Topsham"/>
    <tag k="addr:housenumber" v="70"/>
    <tag k="addr:street" v="Currier Hill Road"/>
    <tag k="addr:state" v="VT"/>
    <tag k="ref:vcgi:esiteid" v="260762"/>
  </node>
  <node id="-600" visible="true" lat="44.08418737" lon="-72.28882608">
    <tag k="addr:city" v="Topsham"/>
    <tag k="addr:housenumber" v="21"/>
    <tag k="addr:street" v="Pike Hill Road East"/>
    <tag k="addr:state" v="VT"/>
    <tag k="ref:vcgi:esiteid" v="260763"/>
  </node>
  <node id="-601" visible="true" lat="44.08371121" lon="-72.22205534">
    <tag k="addr:city" v="Topsham"/>
    <tag k="addr:housenumber" v="98"/>
    <tag k="addr:street" v="Topsham Corinth Road"/>
    <tag k="addr:state" v="VT"/>
    <tag k="ref:vcgi:esiteid" v="260764"/>
  </node>
  <node id="-602" visible="true" lat="44.08383941" lon="-72.22899627">
    <tag k="addr:city" v="Topsham"/>
    <tag k="addr:housenumber" v="62"/>
    <tag k="addr:street" v="Stryker Road"/>
    <tag k="addr:state" v="VT"/>
    <tag k="ref:vcgi:esiteid" v="260765"/>
  </node>
  <node id="-603" visible="true" lat="44.0834126" lon="-72.22217318">
    <tag k="addr:city" v="Topsham"/>
    <tag k="addr:housenumber" v="96"/>
    <tag k="addr:street" v="Topsham Corinth Road"/>
    <tag k="addr:state" v="VT"/>
    <tag k="ref:vcgi:esiteid" v="260766"/>
  </node>
  <node id="-604" visible="true" lat="44.08350776" lon="-72.27130356">
    <tag k="addr:city" v="Topsham"/>
    <tag k="addr:housenumber" v="72"/>
    <tag k="addr:street" v="Vermont Route 25"/>
    <tag k="addr:state" v="VT"/>
    <tag k="ref:vcgi:esiteid" v="260767"/>
  </node>
  <node id="-605" visible="true" lat="44.08325576" lon="-72.22785186">
    <tag k="addr:city" v="Topsham"/>
    <tag k="addr:housenumber" v="52"/>
    <tag k="addr:street" v="Stryker Road"/>
    <tag k="addr:state" v="VT"/>
    <tag k="ref:vcgi:esiteid" v="260768"/>
  </node>
  <node id="-606" visible="true" lat="44.08310317" lon="-72.22993469">
    <tag k="addr:city" v="Topsham"/>
    <tag k="addr:housenumber" v="61"/>
    <tag k="addr:street" v="Stryker Road"/>
    <tag k="addr:state" v="VT"/>
    <tag k="ref:vcgi:esiteid" v="260769"/>
  </node>
  <node id="-607" visible="true" lat="44.08262016" lon="-72.27085757">
    <tag k="addr:city" v="Topsham"/>
    <tag k="addr:housenumber" v="69"/>
    <tag k="addr:street" v="Vermont Route 25"/>
    <tag k="addr:state" v="VT"/>
    <tag k="ref:vcgi:esiteid" v="260770"/>
  </node>
  <node id="-608" visible="true" lat="44.0820825" lon="-72.22216737">
    <tag k="addr:city" v="Topsham"/>
    <tag k="addr:housenumber" v="86"/>
    <tag k="addr:street" v="Topsham Corinth Road"/>
    <tag k="addr:state" v="VT"/>
    <tag k="ref:vcgi:esiteid" v="260771"/>
  </node>
  <node id="-609" visible="true" lat="44.08187103" lon="-72.22876739">
    <tag k="addr:city" v="Topsham"/>
    <tag k="addr:housenumber" v="53"/>
    <tag k="addr:street" v="Stryker Road"/>
    <tag k="addr:state" v="VT"/>
    <tag k="ref:vcgi:esiteid" v="260772"/>
  </node>
  <node id="-610" visible="true" lat="44.08186516" lon="-72.26867975">
    <tag k="addr:city" v="Topsham"/>
    <tag k="addr:housenumber" v="57"/>
    <tag k="addr:street" v="Vermont Route 25"/>
    <tag k="addr:state" v="VT"/>
    <tag k="ref:vcgi:esiteid" v="260773"/>
  </node>
  <node id="-611" visible="true" lat="44.08138822" lon="-72.21664369">
    <tag k="addr:city" v="Topsham"/>
    <tag k="addr:housenumber" v="52"/>
    <tag k="addr:street" v="Ordway Road"/>
    <tag k="addr:state" v="VT"/>
    <tag k="ref:vcgi:esiteid" v="260774"/>
  </node>
  <node id="-612" visible="true" lat="44.08086561" lon="-72.20986879">
    <tag k="addr:city" v="Topsham"/>
    <tag k="addr:housenumber" v="46"/>
    <tag k="addr:street" v="Currier Hill Road"/>
    <tag k="addr:state" v="VT"/>
    <tag k="ref:vcgi:esiteid" v="260775"/>
  </node>
  <node id="-613" visible="true" lat="44.08044599" lon="-72.21063935">
    <tag k="addr:city" v="Topsham"/>
    <tag k="addr:housenumber" v="43"/>
    <tag k="addr:street" v="Currier Hill Road"/>
    <tag k="addr:state" v="VT"/>
    <tag k="ref:vcgi:esiteid" v="260776"/>
  </node>
  <node id="-614" visible="true" lat="44.08050201" lon="-72.26411111">
    <tag k="addr:city" v="Topsham"/>
    <tag k="addr:housenumber" v="32"/>
    <tag k="addr:street" v="Vermont Route 25"/>
    <tag k="addr:state" v="VT"/>
    <tag k="ref:vcgi:esiteid" v="260777"/>
  </node>
  <node id="-615" visible="true" lat="44.08034133" lon="-72.2275772">
    <tag k="addr:city" v="Topsham"/>
    <tag k="addr:housenumber" v="43"/>
    <tag k="addr:street" v="Stryker Road"/>
    <tag k="addr:state" v="VT"/>
    <tag k="ref:vcgi:esiteid" v="260778"/>
  </node>
  <node id="-616" visible="true" lat="44.08008758" lon="-72.25616949">
    <tag k="addr:city" v="Topsham"/>
    <tag k="addr:housenumber" v="21"/>
    <tag k="addr:street" v="Bruleigh Road"/>
    <tag k="addr:state" v="VT"/>
    <tag k="ref:vcgi:esiteid" v="260779"/>
  </node>
  <node id="-617" visible="true" lat="44.07849502" lon="-72.2232666">
    <tag k="addr:city" v="Topsham"/>
    <tag k="addr:housenumber" v="61"/>
    <tag k="addr:street" v="Topsham Corinth Road"/>
    <tag k="addr:state" v="VT"/>
    <tag k="ref:vcgi:esiteid" v="260780"/>
  </node>
  <node id="-618" visible="true" lat="44.07858164" lon="-72.20985497">
    <tag k="addr:city" v="Topsham"/>
    <tag k="addr:housenumber" v="30"/>
    <tag k="addr:street" v="Currier Hill Road"/>
    <tag k="addr:state" v="VT"/>
    <tag k="ref:vcgi:esiteid" v="260781"/>
  </node>
  <node id="-619" visible="true" lat="44.07835769" lon="-72.22335815">
    <tag k="addr:city" v="Topsham"/>
    <tag k="addr:housenumber" v="59"/>
    <tag k="addr:street" v="Topsham Corinth Road"/>
    <tag k="addr:state" v="VT"/>
    <tag k="ref:vcgi:esiteid" v="260782"/>
  </node>
  <node id="-622" visible="true" lat="44.07772827" lon="-72.25022125">
    <tag k="addr:city" v="Topsham"/>
    <tag k="addr:housenumber" v="45"/>
    <tag k="addr:street" v="Brunet Farms Road"/>
    <tag k="addr:state" v="VT"/>
    <tag k="ref:vcgi:esiteid" v="260785"/>
  </node>
  <node id="-623" visible="true" lat="44.07749509" lon="-72.22298428">
    <tag k="addr:city" v="Topsham"/>
    <tag k="addr:housenumber" v="56"/>
    <tag k="addr:street" v="Topsham Corinth Road"/>
    <tag k="addr:state" v="VT"/>
    <tag k="ref:vcgi:esiteid" v="260786"/>
  </node>
  <node id="-624" visible="true" lat="44.07670476" lon="-72.2122887">
    <tag k="addr:city" v="Topsham"/>
    <tag k="addr:housenumber" v="15"/>
    <tag k="addr:street" v="Currier Hill Road"/>
    <tag k="addr:state" v="VT"/>
    <tag k="ref:vcgi:esiteid" v="260787"/>
  </node>
  <node id="-625" visible="true" lat="44.07630109" lon="-72.22302243">
    <tag k="addr:city" v="Topsham"/>
    <tag k="addr:housenumber" v="44"/>
    <tag k="addr:street" v="Topsham Corinth Road"/>
    <tag k="addr:state" v="VT"/>
    <tag k="ref:vcgi:esiteid" v="260788"/>
  </node>
  <node id="-626" visible="true" lat="44.07605146" lon="-72.21222627">
    <tag k="addr:city" v="Topsham"/>
    <tag k="addr:housenumber" v="13"/>
    <tag k="addr:street" v="Currier Hill Road"/>
    <tag k="addr:state" v="VT"/>
    <tag k="ref:vcgi:esiteid" v="260789"/>
  </node>
  <node id="-627" visible="true" lat="44.07545505" lon="-72.21266965">
    <tag k="addr:city" v="Topsham"/>
    <tag k="addr:housenumber" v="5"/>
    <tag k="addr:street" v="Currier Hill Road"/>
    <tag k="addr:state" v="VT"/>
    <tag k="ref:vcgi:esiteid" v="260790"/>
  </node>
  <node id="-628" visible="true" lat="44.0754013" lon="-72.23250579">
    <tag k="addr:city" v="Topsham"/>
    <tag k="addr:housenumber" v="117"/>
    <tag k="addr:street" v="Mansigian Drive"/>
    <tag k="addr:state" v="VT"/>
    <tag k="ref:vcgi:esiteid" v="260791"/>
  </node>
  <node id="-629" visible="true" lat="44.07514142" lon="-72.22255703">
    <tag k="addr:city" v="Topsham"/>
    <tag k="addr:housenumber" v="34"/>
    <tag k="addr:street" v="Topsham Corinth Road"/>
    <tag k="addr:state" v="VT"/>
    <tag k="ref:vcgi:esiteid" v="260792"/>
  </node>
  <node id="-630" visible="true" lat="44.07488798" lon="-72.21378266">
    <tag k="addr:city" v="Topsham"/>
    <tag k="addr:housenumber" v="53"/>
    <tag k="addr:street" v="Thompson Road"/>
    <tag k="addr:state" v="VT"/>
    <tag k="ref:vcgi:esiteid" v="260793"/>
  </node>
  <node id="-631" visible="true" lat="44.07483457" lon="-72.21472871">
    <tag k="addr:city" v="Topsham"/>
    <tag k="addr:housenumber" v="47"/>
    <tag k="addr:street" v="Thompson Road"/>
    <tag k="addr:state" v="VT"/>
    <tag k="ref:vcgi:esiteid" v="260794"/>
  </node>
  <node id="-632" visible="true" lat="44.07431411" lon="-72.22496795">
    <tag k="addr:city" v="Topsham"/>
    <tag k="addr:housenumber" v="24"/>
    <tag k="addr:street" v="Worthley Road"/>
    <tag k="addr:state" v="VT"/>
    <tag k="ref:vcgi:esiteid" v="260795"/>
  </node>
  <node id="-633" visible="true" lat="44.07461074" lon="-72.21618299">
    <tag k="addr:city" v="Topsham"/>
    <tag k="addr:housenumber" v="43"/>
    <tag k="addr:street" v="Thompson Road"/>
    <tag k="addr:state" v="VT"/>
    <tag k="ref:vcgi:esiteid" v="260796"/>
  </node>
  <node id="-634" visible="true" lat="44.07406234" lon="-72.21056365">
    <tag k="addr:city" v="Topsham"/>
    <tag k="addr:housenumber" v="70"/>
    <tag k="addr:street" v="Thompson Road"/>
    <tag k="addr:state" v="VT"/>
    <tag k="ref:vcgi:esiteid" v="260797"/>
  </node>
  <node id="-635" visible="true" lat="44.07399152" lon="-72.21662843">
    <tag k="addr:city" v="Topsham"/>
    <tag k="addr:housenumber" v="41"/>
    <tag k="addr:street" v="Thompson Road"/>
    <tag k="addr:state" v="VT"/>
    <tag k="ref:vcgi:esiteid" v="260798"/>
  </node>
  <node id="-636" visible="true" lat="44.07387161" lon="-72.21401214">
    <tag k="addr:city" v="Topsham"/>
    <tag k="addr:housenumber" v="50"/>
    <tag k="addr:street" v="Thompson Road"/>
    <tag k="addr:state" v="VT"/>
    <tag k="ref:vcgi:esiteid" v="260799"/>
  </node>
  <node id="-637" visible="true" lat="44.0735948" lon="-72.22213685">
    <tag k="addr:city" v="Topsham"/>
    <tag k="addr:housenumber" v="24"/>
    <tag k="addr:street" v="Topsham Corinth Road"/>
    <tag k="addr:state" v="VT"/>
    <tag k="ref:vcgi:esiteid" v="260800"/>
  </node>
  <node id="-638" visible="true" lat="44.07331632" lon="-72.21655213">
    <tag k="addr:city" v="Topsham"/>
    <tag k="addr:housenumber" v="37"/>
    <tag k="addr:street" v="Thompson Road"/>
    <tag k="addr:state" v="VT"/>
    <tag k="ref:vcgi:esiteid" v="260801"/>
  </node>
  <node id="-639" visible="true" lat="44.07282423" lon="-72.21826112">
    <tag k="addr:city" v="Topsham"/>
    <tag k="addr:housenumber" v="23"/>
    <tag k="addr:street" v="Thompson Road"/>
    <tag k="addr:state" v="VT"/>
    <tag k="ref:vcgi:esiteid" v="260802"/>
  </node>
  <node id="-640" visible="true" lat="44.07259535" lon="-72.22195375">
    <tag k="addr:city" v="Topsham"/>
    <tag k="addr:housenumber" v="18"/>
    <tag k="addr:street" v="Topsham Corinth Road"/>
    <tag k="addr:state" v="VT"/>
    <tag k="ref:vcgi:esiteid" v="260803"/>
  </node>
  <node id="-641" visible="true" lat="44.07212448" lon="-72.22463226">
    <tag k="addr:city" v="Topsham"/>
    <tag k="addr:housenumber" v="13"/>
    <tag k="addr:street" v="Worthley Road"/>
    <tag k="addr:state" v="VT"/>
    <tag k="ref:vcgi:esiteid" v="260804"/>
  </node>
  <node id="-642" visible="true" lat="44.07181549" lon="-72.21925354">
    <tag k="addr:city" v="Topsham"/>
    <tag k="addr:housenumber" v="19"/>
    <tag k="addr:street" v="Thompson Road"/>
    <tag k="addr:state" v="VT"/>
    <tag k="ref:vcgi:esiteid" v="260805"/>
  </node>
  <node id="-643" visible="true" lat="44.07182478" lon="-72.22935426">
    <tag k="addr:city" v="Topsham"/>
    <tag k="addr:housenumber" v="79"/>
    <tag k="addr:street" v="Mansigian Drive"/>
    <tag k="addr:state" v="VT"/>
    <tag k="ref:vcgi:esiteid" v="260806"/>
  </node>
  <node id="-644" visible="true" lat="44.07156156" lon="-72.22182405">
    <tag k="addr:city" v="Topsham"/>
    <tag k="addr:housenumber" v="10"/>
    <tag k="addr:street" v="Topsham Corinth Road"/>
    <tag k="addr:state" v="VT"/>
    <tag k="ref:vcgi:esiteid" v="260807"/>
  </node>
  <node id="-645" visible="true" lat="44.07146072" lon="-72.2201004">
    <tag k="addr:city" v="Topsham"/>
    <tag k="addr:housenumber" v="13"/>
    <tag k="addr:street" v="Thompson Road"/>
    <tag k="addr:state" v="VT"/>
    <tag k="ref:vcgi:esiteid" v="260808"/>
  </node>
  <node id="-646" visible="true" lat="44.07107162" lon="-72.22098541">
    <tag k="addr:city" v="Topsham"/>
    <tag k="addr:housenumber" v="9"/>
    <tag k="addr:street" v="Thompson Road"/>
    <tag k="addr:state" v="VT"/>
    <tag k="ref:vcgi:esiteid" v="260809"/>
  </node>
  <node id="-647" visible="true" lat="44.07101821" lon="-72.2213211">
    <tag k="addr:city" v="Topsham"/>
    <tag k="addr:housenumber" v="7"/>
    <tag k="addr:street" v="Thompson Road"/>
    <tag k="addr:state" v="VT"/>
    <tag k="ref:vcgi:esiteid" v="260810"/>
  </node>
  <node id="-648" visible="true" lat="44.07074737" lon="-72.22167968">
    <tag k="addr:city" v="Topsham"/>
    <tag k="addr:housenumber" v="5"/>
    <tag k="addr:street" v="Thompson Road"/>
    <tag k="addr:state" v="VT"/>
    <tag k="ref:vcgi:esiteid" v="260811"/>
  </node>
  <node id="-649" visible="true" lat="44.07019593" lon="-72.22246569">
    <tag k="addr:city" v="Topsham"/>
    <tag k="addr:housenumber" v="1"/>
    <tag k="addr:street" v="Topsham Corinth Road"/>
    <tag k="addr:state" v="VT"/>
    <tag k="ref:vcgi:esiteid" v="260812"/>
  </node>
  <node id="-650" visible="true" lat="44.18197583" lon="-72.24303433">
    <tag k="addr:city" v="Topsham"/>
    <tag k="addr:housenumber" v="100"/>
    <tag k="addr:street" v="Keenan Pond Road"/>
    <tag k="addr:state" v="VT"/>
    <tag k="ref:vcgi:esiteid" v="260813"/>
  </node>
  <node id="-652" visible="true" lat="44.14707565" lon="-72.28895568">
    <tag k="addr:city" v="Topsham"/>
    <tag k="addr:housenumber" v="138"/>
    <tag k="addr:street" v="Willey Hill Road"/>
    <tag k="addr:state" v="VT"/>
    <tag k="ref:vcgi:esiteid" v="260815"/>
  </node>
  <node id="-653" visible="true" lat="44.13541607" lon="-72.26639972">
    <tag k="addr:city" v="Topsham"/>
    <tag k="addr:housenumber" v="5"/>
    <tag k="addr:street" v="Emma Jane Road"/>
    <tag k="addr:state" v="VT"/>
    <tag k="ref:vcgi:esiteid" v="260816"/>
  </node>
  <node id="-654" visible="true" lat="44.13787244" lon="-72.19605957">
    <tag k="addr:city" v="Topsham"/>
    <tag k="addr:housenumber" v="37"/>
    <tag k="addr:street" v="Meadow Lane"/>
    <tag k="addr:state" v="VT"/>
    <tag k="ref:vcgi:esiteid" v="260817"/>
  </node>
  <node id="-655" visible="true" lat="44.11873091" lon="-72.30430053">
    <tag k="addr:city" v="Topsham"/>
    <tag k="addr:housenumber" v="25"/>
    <tag k="addr:street" v="Zion Hill Road"/>
    <tag k="addr:state" v="VT"/>
    <tag k="ref:vcgi:esiteid" v="260819"/>
  </node>
  <node id="-659" visible="true" lat="44.12859677" lon="-72.25544736">
    <tag k="addr:city" v="Topsham"/>
    <tag k="addr:housenumber" v="355"/>
    <tag k="addr:street" v="Willey Hill Road"/>
    <tag k="addr:state" v="VT"/>
    <tag k="ref:vcgi:esiteid" v="260823"/>
  </node>
  <node id="-660" visible="true" lat="44.11129486" lon="-72.1943497">
    <tag k="addr:city" v="Topsham"/>
    <tag k="addr:housenumber" v="192"/>
    <tag k="addr:street" v="Swamp Road"/>
    <tag k="addr:state" v="VT"/>
    <tag k="ref:vcgi:esiteid" v="260824"/>
  </node>
  <node id="-663" visible="true" lat="44.10226058" lon="-72.2898941">
    <tag k="addr:city" v="Topsham"/>
    <tag k="addr:housenumber" v="54"/>
    <tag k="addr:street" v="Honey Corners Road"/>
    <tag k="addr:state" v="VT"/>
    <tag k="ref:vcgi:esiteid" v="260827"/>
  </node>
  <node id="-664" visible="true" lat="44.0960083" lon="-72.28894042">
    <tag k="addr:city" v="Topsham"/>
    <tag k="addr:housenumber" v="14"/>
    <tag k="addr:street" v="Honey Corners Road"/>
    <tag k="addr:state" v="VT"/>
    <tag k="ref:vcgi:esiteid" v="260828"/>
  </node>
  <node id="-665" visible="true" lat="44.10030379" lon="-72.30538211">
    <tag k="addr:city" v="Topsham"/>
    <tag k="addr:housenumber" v="3"/>
    <tag k="addr:street" v="Perry Road"/>
    <tag k="addr:state" v="VT"/>
    <tag k="ref:vcgi:esiteid" v="260829"/>
  </node>
  <node id="-666" visible="true" lat="44.08593003" lon="-72.27590809">
    <tag k="addr:city" v="Topsham"/>
    <tag k="addr:housenumber" v="101"/>
    <tag k="addr:street" v="Vermont Route 25"/>
    <tag k="addr:state" v="VT"/>
    <tag k="ref:vcgi:esiteid" v="260830"/>
  </node>
  <node id="-667" visible="true" lat="44.08100583" lon="-72.26556873">
    <tag k="addr:city" v="Topsham"/>
    <tag k="addr:housenumber" v="38"/>
    <tag k="addr:street" v="Vermont Route 25"/>
    <tag k="addr:state" v="VT"/>
    <tag k="ref:vcgi:esiteid" v="260831"/>
  </node>
  <node id="-669" visible="true" lat="44.07705392" lon="-72.21369984">
    <tag k="addr:city" v="Topsham"/>
    <tag k="addr:housenumber" v="24"/>
    <tag k="addr:street" v="Ordway Road"/>
    <tag k="addr:state" v="VT"/>
    <tag k="ref:vcgi:esiteid" v="260833"/>
  </node>
  <node id="-670" visible="true" lat="44.07734668" lon="-72.21505767">
    <tag k="addr:city" v="Topsham"/>
    <tag k="addr:housenumber" v="33"/>
    <tag k="addr:street" v="Ordway Road"/>
    <tag k="addr:state" v="VT"/>
    <tag k="ref:vcgi:esiteid" v="260834"/>
  </node>
  <node id="-672" visible="true" lat="44.14684295" lon="-72.29120636">
    <tag k="addr:city" v="Topsham"/>
    <tag k="addr:housenumber" v="120"/>
    <tag k="addr:street" v="Willey Hill Road"/>
    <tag k="addr:state" v="VT"/>
    <tag k="ref:vcgi:esiteid" v="260838"/>
  </node>
  <node id="-673" visible="true" lat="44.12202835" lon="-72.3052597">
    <tag k="addr:city" v="Topsham"/>
    <tag k="addr:housenumber" v="534"/>
    <tag k="addr:street" v="Vermont Route 25"/>
    <tag k="addr:state" v="VT"/>
    <tag k="ref:vcgi:esiteid" v="260839"/>
  </node>
  <node id="-678" visible="true" lat="44.11005401" lon="-72.31645202">
    <tag k="addr:city" v="Topsham"/>
    <tag k="addr:housenumber" v="424"/>
    <tag k="addr:street" v="Vermont Route 25"/>
    <tag k="addr:state" v="VT"/>
    <tag k="ref:vcgi:esiteid" v="260844"/>
  </node>
  <node id="-679" visible="true" lat="44.10955761" lon="-72.31866535">
    <tag k="addr:city" v="Topsham"/>
    <tag k="addr:housenumber" v="417"/>
    <tag k="addr:street" v="Vermont Route 25"/>
    <tag k="addr:state" v="VT"/>
    <tag k="ref:vcgi:esiteid" v="260845"/>
  </node>
  <node id="-680" visible="true" lat="44.11867141" lon="-72.32151794">
    <tag k="addr:city" v="Topsham"/>
    <tag k="addr:housenumber" v="54"/>
    <tag k="addr:street" v="Batten Road"/>
    <tag k="addr:state" v="VT"/>
    <tag k="ref:vcgi:esiteid" v="260846"/>
  </node>
  <node id="-681" visible="true" lat="44.11927135" lon="-72.28330681">
    <tag k="addr:city" v="Topsham"/>
    <tag k="addr:housenumber" v="117"/>
    <tag k="addr:street" v="Zion Hill Road"/>
    <tag k="addr:state" v="VT"/>
    <tag k="ref:vcgi:esiteid" v="260847"/>
  </node>
  <node id="-682" visible="true" lat="44.18399963" lon="-72.27080683">
    <tag k="addr:city" v="Topsham"/>
    <tag k="addr:housenumber" v="142"/>
    <tag k="addr:street" v="Fuller Hill Road"/>
    <tag k="addr:state" v="VT"/>
    <tag k="ref:vcgi:esiteid" v="260848"/>
  </node>
  <node id="-683" visible="true" lat="44.18108493" lon="-72.27181901">
    <tag k="addr:city" v="Topsham"/>
    <tag k="addr:housenumber" v="133"/>
    <tag k="addr:street" v="Fuller Hill Road"/>
    <tag k="addr:state" v="VT"/>
    <tag k="ref:vcgi:esiteid" v="260849"/>
  </node>
  <node id="-684" visible="true" lat="44.18798612" lon="-72.20676361">
    <tag k="addr:city" v="Topsham"/>
    <tag k="addr:housenumber" v="510"/>
    <tag k="addr:street" v="Galusha Hill Road"/>
    <tag k="addr:state" v="VT"/>
    <tag k="ref:vcgi:esiteid" v="260850"/>
  </node>
  <node id="-685" visible="true" lat="44.1794412" lon="-72.20496307">
    <tag k="addr:city" v="Topsham"/>
    <tag k="addr:housenumber" v="454"/>
    <tag k="addr:street" v="Galusha Hill Road"/>
    <tag k="addr:state" v="VT"/>
    <tag k="ref:vcgi:esiteid" v="260851"/>
  </node>
  <node id="-686" visible="true" lat="44.15700121" lon="-72.31106965">
    <tag k="addr:city" v="Topsham"/>
    <tag k="addr:housenumber" v="138"/>
    <tag k="addr:street" v="U.S. Route 302"/>
    <tag k="addr:state" v="VT"/>
    <tag k="ref:vcgi:esiteid" v="260853"/>
  </node>
  <node id="-687" visible="true" lat="44.18629026" lon="-72.20922085">
    <tag k="addr:city" v="Topsham"/>
    <tag k="addr:housenumber" v="505"/>
    <tag k="addr:street" v="Galusha Hill Road"/>
    <tag k="addr:state" v="VT"/>
    <tag k="ref:vcgi:esiteid" v="260854"/>
  </node>
  <node id="-688" visible="true" lat="44.16964292" lon="-72.23524472">
    <tag k="addr:city" v="Topsham"/>
    <tag k="addr:housenumber" v="48"/>
    <tag k="addr:street" v="Caldwell Road"/>
    <tag k="addr:state" v="VT"/>
    <tag k="ref:vcgi:esiteid" v="260855"/>
  </node>
  <node id="-689" visible="true" lat="44.15555143" lon="-72.21536251">
    <tag k="addr:city" v="Topsham"/>
    <tag k="addr:housenumber" v="138"/>
    <tag k="addr:street" v="Grow Place Road"/>
    <tag k="addr:state" v="VT"/>
    <tag k="ref:vcgi:esiteid" v="260856"/>
  </node>
  <node id="-690" visible="true" lat="44.15069913" lon="-72.29248044">
    <tag k="addr:city" v="Topsham"/>
    <tag k="addr:housenumber" v="19"/>
    <tag k="addr:street" v="Solomon Willey Road"/>
    <tag k="addr:state" v="VT"/>
    <tag k="ref:vcgi:esiteid" v="260857"/>
  </node>
  <node id="-691" visible="true" lat="44.15063816" lon="-72.21002289">
    <tag k="addr:city" v="Topsham"/>
    <tag k="addr:housenumber" v="20"/>
    <tag k="addr:street" v="John White Road"/>
    <tag k="addr:state" v="VT"/>
    <tag k="ref:vcgi:esiteid" v="260858"/>
  </node>
  <node id="-692" visible="true" lat="44.1357409" lon="-72.18840861">
    <tag k="addr:city" v="Topsham"/>
    <tag k="addr:housenumber" v="29"/>
    <tag k="addr:street" v="James Downing Road"/>
    <tag k="addr:state" v="VT"/>
    <tag k="ref:vcgi:esiteid" v="260859"/>
  </node>
  <node id="-693" visible="true" lat="44.12424126" lon="-72.28722823">
    <tag k="addr:city" v="Topsham"/>
    <tag k="addr:housenumber" v="260"/>
    <tag k="addr:street" v="Kirby Road"/>
    <tag k="addr:state" v="VT"/>
    <tag k="ref:vcgi:esiteid" v="260860"/>
  </node>
  <node id="-694" visible="true" lat="44.11878842" lon="-72.25762111">
    <tag k="addr:city" v="Topsham"/>
    <tag k="addr:housenumber" v="133"/>
    <tag k="addr:street" v="Ben Dexter Road"/>
    <tag k="addr:state" v="VT"/>
    <tag k="ref:vcgi:esiteid" v="260861"/>
  </node>
  <node id="-696" visible="true" lat="44.12339948" lon="-72.22299134">
    <tag k="addr:city" v="Topsham"/>
    <tag k="addr:housenumber" v="64"/>
    <tag k="addr:street" v="Harts Road"/>
    <tag k="addr:state" v="VT"/>
    <tag k="ref:vcgi:esiteid" v="260863"/>
  </node>
  <node id="-697" visible="true" lat="44.12393354" lon="-72.22071778">
    <tag k="addr:city" v="Topsham"/>
    <tag k="addr:housenumber" v="72"/>
    <tag k="addr:street" v="Harts Road"/>
    <tag k="addr:state" v="VT"/>
    <tag k="ref:vcgi:esiteid" v="260864"/>
  </node>
  <node id="-699" visible="true" lat="44.10896682" lon="-72.27955627">
    <tag k="addr:city" v="Topsham"/>
    <tag k="addr:housenumber" v="90"/>
    <tag k="addr:street" v="Phelps Road"/>
    <tag k="addr:state" v="VT"/>
    <tag k="ref:vcgi:esiteid" v="260867"/>
  </node>
  <node id="-701" visible="true" lat="44.10247205" lon="-72.21248566">
    <tag k="addr:city" v="Topsham"/>
    <tag k="addr:housenumber" v="65"/>
    <tag k="addr:street" v="Swamp Road"/>
    <tag k="addr:state" v="VT"/>
    <tag k="ref:vcgi:esiteid" v="260869"/>
  </node>
  <node id="-702" visible="true" lat="44.08882522" lon="-72.29180908">
    <tag k="addr:city" v="Topsham"/>
    <tag k="addr:housenumber" v="8"/>
    <tag k="addr:street" v="Pike Hill Road West"/>
    <tag k="addr:state" v="VT"/>
    <tag k="ref:vcgi:esiteid" v="260870"/>
  </node>
  <node id="-703" visible="true" lat="44.08982467" lon="-72.2679085">
    <tag k="addr:city" v="Topsham"/>
    <tag k="addr:housenumber" v="30"/>
    <tag k="addr:street" v="Watson Hill Road"/>
    <tag k="addr:state" v="VT"/>
    <tag k="ref:vcgi:esiteid" v="260871"/>
  </node>
  <node id="-704" visible="true" lat="44.14266901" lon="-72.28298522">
    <tag k="addr:city" v="Topsham"/>
    <tag k="addr:housenumber" v="182"/>
    <tag k="addr:street" v="Willey Hill Road"/>
    <tag k="addr:state" v="VT"/>
    <tag k="ref:vcgi:esiteid" v="260872"/>
  </node>
  <node id="-705" visible="true" lat="44.14232387" lon="-72.2815737">
    <tag k="addr:city" v="Topsham"/>
    <tag k="addr:housenumber" v="186"/>
    <tag k="addr:street" v="Willey Hill Road"/>
    <tag k="addr:state" v="VT"/>
    <tag k="ref:vcgi:esiteid" v="260873"/>
  </node>
  <node id="-706" visible="true" lat="44.14083375" lon="-72.2797162">
    <tag k="addr:city" v="Topsham"/>
    <tag k="addr:housenumber" v="192"/>
    <tag k="addr:street" v="Willey Hill Road"/>
    <tag k="addr:state" v="VT"/>
    <tag k="ref:vcgi:esiteid" v="260874"/>
  </node>
  <node id="-707" visible="true" lat="44.14661025" lon="-72.29074859">
    <tag k="addr:city" v="Topsham"/>
    <tag k="addr:housenumber" v="122"/>
    <tag k="addr:street" v="Willey Hill Road"/>
    <tag k="addr:state" v="VT"/>
    <tag k="ref:vcgi:esiteid" v="260875"/>
  </node>
  <node id="-708" visible="true" lat="44.08982061" lon="-72.28231491">
    <tag k="addr:city" v="Topsham"/>
    <tag k="addr:housenumber" v="2"/>
    <tag k="addr:street" v="Gendron Road"/>
    <tag k="addr:state" v="VT"/>
    <tag k="ref:vcgi:esiteid" v="260878"/>
  </node>
  <node id="-709" visible="true" lat="44.1525874" lon="-72.23704526">
    <tag k="addr:city" v="Topsham"/>
    <tag k="addr:housenumber" v="16"/>
    <tag k="addr:street" v="Sanborn Road"/>
    <tag k="addr:state" v="VT"/>
    <tag k="ref:vcgi:esiteid" v="260879"/>
  </node>
  <node id="-710" visible="true" lat="44.16143505" lon="-72.20476898">
    <tag k="addr:city" v="Topsham"/>
    <tag k="addr:housenumber" v="306"/>
    <tag k="addr:street" v="Galusha Hill Road"/>
    <tag k="addr:state" v="VT"/>
    <tag k="ref:vcgi:esiteid" v="260880"/>
  </node>
  <node id="-711" visible="true" lat="44.14326119" lon="-72.30962996">
    <tag k="addr:city" v="Topsham"/>
    <tag k="addr:housenumber" v="3"/>
    <tag k="addr:street" v="Crossroad"/>
    <tag k="addr:state" v="VT"/>
    <tag k="ref:vcgi:esiteid" v="260881"/>
  </node>
  <node id="-712" visible="true" lat="44.14031092" lon="-72.27371578">
    <tag k="addr:city" v="Topsham"/>
    <tag k="addr:housenumber" v="4"/>
    <tag k="addr:street" v="Sugarhouse Road"/>
    <tag k="addr:state" v="VT"/>
    <tag k="ref:vcgi:esiteid" v="260882"/>
  </node>
  <node id="-713" visible="true" lat="44.1420741" lon="-72.2742233">
    <tag k="addr:city" v="Topsham"/>
    <tag k="addr:housenumber" v="16"/>
    <tag k="addr:street" v="Sugarhouse Road"/>
    <tag k="addr:state" v="VT"/>
    <tag k="ref:vcgi:esiteid" v="260883"/>
  </node>
  <node id="-714" visible="true" lat="44.14267498" lon="-72.27431226">
    <tag k="addr:city" v="Topsham"/>
    <tag k="addr:housenumber" v="20"/>
    <tag k="addr:street" v="Sugarhouse Road"/>
    <tag k="addr:state" v="VT"/>
    <tag k="ref:vcgi:esiteid" v="260884"/>
  </node>
  <node id="-715" visible="true" lat="44.14897107" lon="-72.26119992">
    <tag k="addr:city" v="Topsham"/>
    <tag k="addr:housenumber" v="143"/>
    <tag k="addr:street" v="Downing Road"/>
    <tag k="addr:state" v="VT"/>
    <tag k="ref:vcgi:esiteid" v="260885"/>
  </node>
  <node id="-716" visible="true" lat="44.14707349" lon="-72.19320618">
    <tag k="addr:city" v="Topsham"/>
    <tag k="addr:housenumber" v="85"/>
    <tag k="addr:street" v="Emerson Road"/>
    <tag k="addr:state" v="VT"/>
    <tag k="ref:vcgi:esiteid" v="260886"/>
  </node>
  <node id="-717" visible="true" lat="44.13365022" lon="-72.19079882">
    <tag k="addr:city" v="Topsham"/>
    <tag k="addr:housenumber" v="24"/>
    <tag k="addr:street" v="James Downing Road"/>
    <tag k="addr:state" v="VT"/>
    <tag k="ref:vcgi:esiteid" v="260887"/>
  </node>
  <node id="-719" visible="true" lat="44.12454223" lon="-72.29813385">
    <tag k="addr:city" v="Topsham"/>
    <tag k="addr:housenumber" v="33"/>
    <tag k="addr:street" v="Zion Hill Road"/>
    <tag k="addr:state" v="VT"/>
    <tag k="ref:vcgi:esiteid" v="260889"/>
  </node>
  <node id="-723" visible="true" lat="44.12523651" lon="-72.25937652">
    <tag k="addr:city" v="Topsham"/>
    <tag k="addr:housenumber" v="35"/>
    <tag k="addr:street" v="Peterson Road"/>
    <tag k="addr:state" v="VT"/>
    <tag k="ref:vcgi:esiteid" v="260893"/>
  </node>
  <node id="-725" visible="true" lat="44.12073925" lon="-72.20663861">
    <tag k="addr:city" v="Topsham"/>
    <tag k="addr:housenumber" v="177"/>
    <tag k="addr:street" v="Lime Kiln Road"/>
    <tag k="addr:state" v="VT"/>
    <tag k="ref:vcgi:esiteid" v="260895"/>
  </node>
  <node id="-727" visible="true" lat="44.09783935" lon="-72.31305694">
    <tag k="addr:city" v="Topsham"/>
    <tag k="addr:housenumber" v="317"/>
    <tag k="addr:street" v="Vermont Route 25"/>
    <tag k="addr:state" v="VT"/>
    <tag k="ref:vcgi:esiteid" v="260897"/>
  </node>
  <node id="-728" visible="true" lat="44.083889" lon="-72.28849792">
    <tag k="addr:city" v="Topsham"/>
    <tag k="addr:housenumber" v="23"/>
    <tag k="addr:street" v="Pike Hill Road East"/>
    <tag k="addr:state" v="VT"/>
    <tag k="ref:vcgi:esiteid" v="260898"/>
  </node>
  <node id="-730" visible="true" lat="44.12668036" lon="-72.24057433">
    <tag k="addr:city" v="Topsham"/>
    <tag k="addr:housenumber" v="50"/>
    <tag k="addr:street" v="Powder Spring Road"/>
    <tag k="addr:state" v="VT"/>
    <tag k="ref:vcgi:esiteid" v="260901"/>
  </node>
  <node id="-731" visible="true" lat="44.14755664" lon="-72.28999466">
    <tag k="addr:city" v="Topsham"/>
    <tag k="addr:housenumber" v="130"/>
    <tag k="addr:street" v="Willey Hill Road"/>
    <tag k="addr:state" v="VT"/>
    <tag k="ref:vcgi:esiteid" v="260902"/>
  </node>
  <node id="-732" visible="true" lat="44.14421717" lon="-72.2874427">
    <tag k="addr:city" v="Topsham"/>
    <tag k="addr:housenumber" v="170"/>
    <tag k="addr:street" v="Willey Hill Road"/>
    <tag k="addr:state" v="VT"/>
    <tag k="ref:vcgi:esiteid" v="260903"/>
  </node>
  <node id="-733" visible="true" lat="44.14514977" lon="-72.28849246">
    <tag k="addr:city" v="Topsham"/>
    <tag k="addr:housenumber" v="168"/>
    <tag k="addr:street" v="Willey Hill Road"/>
    <tag k="addr:state" v="VT"/>
    <tag k="ref:vcgi:esiteid" v="260904"/>
  </node>
  <node id="-734" visible="true" lat="44.11375026" lon="-72.23791609">
    <tag k="addr:city" v="Topsham"/>
    <tag k="addr:housenumber" v="65"/>
    <tag k="addr:street" v="Welch Road"/>
    <tag k="addr:state" v="VT"/>
    <tag k="ref:vcgi:esiteid" v="260905"/>
  </node>
  <node id="-735" visible="true" lat="44.11345523" lon="-72.23961964">
    <tag k="addr:city" v="Topsham"/>
    <tag k="addr:housenumber" v="68"/>
    <tag k="addr:street" v="Welch Road"/>
    <tag k="addr:state" v="VT"/>
    <tag k="ref:vcgi:esiteid" v="260906"/>
  </node>
  <node id="-736" visible="true" lat="44.14269896" lon="-72.25902857">
    <tag k="addr:city" v="Topsham"/>
    <tag k="addr:housenumber" v="102"/>
    <tag k="addr:street" v="Downing Road"/>
    <tag k="addr:state" v="VT"/>
    <tag k="ref:vcgi:esiteid" v="260907"/>
  </node>
  <node id="-737" visible="true" lat="44.13284902" lon="-72.1879114">
    <tag k="addr:city" v="Topsham"/>
    <tag k="addr:housenumber" v="44"/>
    <tag k="addr:street" v="James Downing Road"/>
    <tag k="addr:state" v="VT"/>
    <tag k="ref:vcgi:esiteid" v="260908"/>
  </node>
  <node id="-738" visible="true" lat="44.13041439" lon="-72.20229981">
    <tag k="addr:city" v="Topsham"/>
    <tag k="addr:housenumber" v="182"/>
    <tag k="addr:street" v="Harts Road"/>
    <tag k="addr:state" v="VT"/>
    <tag k="ref:vcgi:esiteid" v="260909"/>
  </node>
  <node id="-739" visible="true" lat="44.11018319" lon="-72.2011224">
    <tag k="addr:city" v="Topsham"/>
    <tag k="addr:housenumber" v="142"/>
    <tag k="addr:street" v="Swamp Road"/>
    <tag k="addr:state" v="VT"/>
    <tag k="ref:vcgi:esiteid" v="260910"/>
  </node>
  <node id="-740" visible="true" lat="44.12931263" lon="-72.25807989">
    <tag k="addr:city" v="Topsham"/>
    <tag k="addr:housenumber" v="341"/>
    <tag k="addr:street" v="Willey Hill Road"/>
    <tag k="addr:state" v="VT"/>
    <tag k="ref:vcgi:esiteid" v="260911"/>
  </node>
  <node id="-741" visible="true" lat="44.08573663" lon="-72.27396332">
    <tag k="addr:city" v="Topsham"/>
    <tag k="addr:housenumber" v="7"/>
    <tag k="addr:street" v="Watson Hill Road"/>
    <tag k="addr:state" v="VT"/>
    <tag k="ref:vcgi:esiteid" v="260912"/>
  </node>
  <node id="-742" visible="true" lat="44.08613966" lon="-72.27161797">
    <tag k="addr:city" v="Topsham"/>
    <tag k="addr:housenumber" v="11"/>
    <tag k="addr:street" v="Watson Hill Road"/>
    <tag k="addr:state" v="VT"/>
    <tag k="ref:vcgi:esiteid" v="260913"/>
  </node>
  <node id="-744" visible="true" lat="44.16739075" lon="-72.30423765">
    <tag k="addr:city" v="Topsham"/>
    <tag k="addr:housenumber" v="220"/>
    <tag k="addr:street" v="U.S. Route 302"/>
    <tag k="addr:state" v="VT"/>
    <tag k="ref:vcgi:esiteid" v="260915"/>
  </node>
  <node id="-746" visible="true" lat="44.11496056" lon="-72.26019173">
    <tag k="addr:city" v="Topsham"/>
    <tag k="addr:housenumber" v="106"/>
    <tag k="addr:street" v="Ben Dexter Road"/>
    <tag k="addr:state" v="VT"/>
    <tag k="ref:vcgi:esiteid" v="260917"/>
  </node>
  <node id="-747" visible="true" lat="44.11619296" lon="-72.26091093">
    <tag k="addr:city" v="Topsham"/>
    <tag k="addr:housenumber" v="109"/>
    <tag k="addr:street" v="Ben Dexter Road"/>
    <tag k="addr:state" v="VT"/>
    <tag k="ref:vcgi:esiteid" v="260918"/>
  </node>
  <node id="-748" visible="true" lat="44.08635811" lon="-72.29135148">
    <tag k="addr:city" v="Topsham"/>
    <tag k="addr:housenumber" v="3"/>
    <tag k="addr:street" v="Pike Hill Road East"/>
    <tag k="addr:state" v="VT"/>
    <tag k="ref:vcgi:esiteid" v="260919"/>
  </node>
  <node id="-749" visible="true" lat="44.09045238" lon="-72.26790241">
    <tag k="addr:city" v="Topsham"/>
    <tag k="addr:housenumber" v="32"/>
    <tag k="addr:street" v="Watson Hill Road"/>
    <tag k="addr:state" v="VT"/>
    <tag k="ref:vcgi:esiteid" v="260920"/>
  </node>
  <node id="-750" visible="true" lat="44.13325938" lon="-72.18946507">
    <tag k="addr:city" v="Topsham"/>
    <tag k="addr:housenumber" v="34"/>
    <tag k="addr:street" v="James Downing Road"/>
    <tag k="addr:state" v="VT"/>
    <tag k="ref:vcgi:esiteid" v="260921"/>
  </node>
  <node id="-751" visible="true" lat="44.13443956" lon="-72.29780202">
    <tag k="addr:city" v="Topsham"/>
    <tag k="addr:housenumber" v="105"/>
    <tag k="addr:street" v="Kimball Hill Road"/>
    <tag k="addr:state" v="VT"/>
    <tag k="ref:vcgi:esiteid" v="260923"/>
  </node>
  <node id="-752" visible="true" lat="44.12350928" lon="-72.24650281">
    <tag k="addr:city" v="Topsham"/>
    <tag k="addr:housenumber" v="408"/>
    <tag k="addr:street" v="Willey Hill Road"/>
    <tag k="addr:state" v="VT"/>
    <tag k="ref:vcgi:esiteid" v="260924"/>
  </node>
  <node id="-755" visible="true" lat="44.09035319" lon="-72.28444265">
    <tag k="addr:city" v="Topsham"/>
    <tag k="addr:housenumber" v="155"/>
    <tag k="addr:street" v="Vermont Route 25"/>
    <tag k="addr:state" v="VT"/>
    <tag k="ref:vcgi:esiteid" v="260928"/>
  </node>
  <node id="-756" visible="true" lat="44.12968207" lon="-72.25668679">
    <tag k="addr:city" v="Topsham"/>
    <tag k="addr:housenumber" v="9"/>
    <tag k="addr:street" v="Downing Road"/>
    <tag k="addr:state" v="VT"/>
    <tag k="ref:vcgi:esiteid" v="260929"/>
  </node>
  <node id="-757" visible="true" lat="44.10229551" lon="-72.27349094">
    <tag k="addr:city" v="Topsham"/>
    <tag k="addr:housenumber" v="30"/>
    <tag k="addr:street" v="Phelps Road"/>
    <tag k="addr:state" v="VT"/>
    <tag k="ref:vcgi:esiteid" v="260930"/>
  </node>
  <node id="-759" visible="true" lat="44.09151409" lon="-72.26779228">
    <tag k="addr:city" v="Topsham"/>
    <tag k="addr:housenumber" v="38"/>
    <tag k="addr:street" v="Watson Hill Road"/>
    <tag k="addr:state" v="VT"/>
    <tag k="ref:vcgi:esiteid" v="260932"/>
  </node>
  <node id="-760" visible="true" lat="44.10102187" lon="-72.26513362">
    <tag k="addr:city" v="Topsham"/>
    <tag k="addr:housenumber" v="139"/>
    <tag k="addr:street" v="Watson Hill Road"/>
    <tag k="addr:state" v="VT"/>
    <tag k="ref:vcgi:esiteid" v="260933"/>
  </node>
  <node id="-761" visible="true" lat="44.11666224" lon="-72.31368146">
    <tag k="addr:city" v="Topsham"/>
    <tag k="addr:housenumber" v="14"/>
    <tag k="addr:street" v="Batten Road"/>
    <tag k="addr:state" v="VT"/>
    <tag k="ref:vcgi:esiteid" v="260934"/>
  </node>
  <node id="-762" visible="true" lat="44.09998018" lon="-72.22017984">
    <tag k="addr:city" v="Topsham"/>
    <tag k="addr:housenumber" v="3"/>
    <tag k="addr:street" v="Benjamin Road"/>
    <tag k="addr:state" v="VT"/>
    <tag k="ref:vcgi:esiteid" v="260935"/>
  </node>
  <node id="-763" visible="true" lat="44.09579133" lon="-72.31573638">
    <tag k="addr:city" v="Topsham"/>
    <tag k="addr:housenumber" v="11"/>
    <tag k="addr:street" v="Branch Road"/>
    <tag k="addr:state" v="VT"/>
    <tag k="ref:vcgi:esiteid" v="260936"/>
  </node>
  <node id="-765" visible="true" lat="44.11394706" lon="-72.28312283">
    <tag k="addr:city" v="Topsham"/>
    <tag k="addr:housenumber" v="6"/>
    <tag k="addr:street" v="Robie Road"/>
    <tag k="addr:state" v="VT"/>
    <tag k="ref:vcgi:esiteid" v="260938"/>
  </node>
  <node id="-766" visible="true" lat="44.10640113" lon="-72.25958906">
    <tag k="addr:city" v="Topsham"/>
    <tag k="addr:housenumber" v="50"/>
    <tag k="addr:street" v="Ben Dexter Road"/>
    <tag k="addr:state" v="VT"/>
    <tag k="ref:vcgi:esiteid" v="260940"/>
  </node>
  <node id="-769" visible="true" lat="44.14003501" lon="-72.24437207">
    <tag k="addr:city" v="Topsham"/>
    <tag k="addr:housenumber" v="51"/>
    <tag k="addr:street" v="Currier Road"/>
    <tag k="addr:state" v="VT"/>
    <tag k="ref:vcgi:esiteid" v="260943"/>
  </node>
  <node id="-770" visible="true" lat="44.17992374" lon="-72.22546986">
    <tag k="addr:city" v="Topsham"/>
    <tag k="addr:housenumber" v="470"/>
    <tag k="addr:street" v="Powder Spring Road"/>
    <tag k="addr:state" v="VT"/>
    <tag k="ref:vcgi:esiteid" v="260944"/>
  </node>
  <node id="-773" visible="true" lat="44.15132317" lon="-72.307455">
    <tag k="addr:city" v="Topsham"/>
    <tag k="addr:housenumber" v="25"/>
    <tag k="addr:street" v="Willey Hill Road"/>
    <tag k="addr:state" v="VT"/>
    <tag k="ref:vcgi:esiteid" v="260947"/>
  </node>
  <node id="-774" visible="true" lat="44.09675295" lon="-72.32325863">
    <tag k="addr:city" v="Topsham"/>
    <tag k="addr:housenumber" v="44"/>
    <tag k="addr:street" v="East Orange Road"/>
    <tag k="addr:state" v="VT"/>
    <tag k="ref:vcgi:esiteid" v="260948"/>
  </node>
  <node id="-775" visible="true" lat="44.08752138" lon="-72.29310221">
    <tag k="addr:city" v="Topsham"/>
    <tag k="addr:housenumber" v="9"/>
    <tag k="addr:street" v="Pike Hill Road West"/>
    <tag k="addr:state" v="VT"/>
    <tag k="ref:vcgi:esiteid" v="260949"/>
  </node>
  <node id="-776" visible="true" lat="44.11100636" lon="-72.26143238">
    <tag k="addr:city" v="Topsham"/>
    <tag k="addr:housenumber" v="80"/>
    <tag k="addr:street" v="Ben Dexter Road"/>
    <tag k="addr:state" v="VT"/>
    <tag k="ref:vcgi:esiteid" v="260950"/>
  </node>
  <node id="-777" visible="true" lat="44.1600089" lon="-72.30640462">
    <tag k="addr:city" v="Topsham"/>
    <tag k="addr:housenumber" v="160"/>
    <tag k="addr:street" v="U.S. Route 302"/>
    <tag k="addr:state" v="VT"/>
    <tag k="ref:vcgi:esiteid" v="260951"/>
  </node>
  <node id="-778" visible="true" lat="44.10539454" lon="-72.26389098">
    <tag k="addr:city" v="Topsham"/>
    <tag k="addr:housenumber" v="39"/>
    <tag k="addr:street" v="Ben Dexter Road"/>
    <tag k="addr:state" v="VT"/>
    <tag k="ref:vcgi:esiteid" v="260952"/>
  </node>
  <node id="-779" visible="true" lat="44.09788019" lon="-72.25608292">
    <tag k="addr:city" v="Topsham"/>
    <tag k="addr:housenumber" v="7"/>
    <tag k="addr:street" v="Dunnack Drive"/>
    <tag k="addr:state" v="VT"/>
    <tag k="ref:vcgi:esiteid" v="260953"/>
  </node>
  <node id="-780" visible="true" lat="44.08616529" lon="-72.27025458">
    <tag k="addr:city" v="Topsham"/>
    <tag k="addr:housenumber" v="20"/>
    <tag k="addr:street" v="Watson Hill Road"/>
    <tag k="addr:state" v="VT"/>
    <tag k="ref:vcgi:esiteid" v="260954"/>
  </node>
  <node id="-781" visible="true" lat="44.11196088" lon="-72.25210499">
    <tag k="addr:city" v="Topsham"/>
    <tag k="addr:housenumber" v="148"/>
    <tag k="addr:street" v="Welch Road"/>
    <tag k="addr:state" v="VT"/>
    <tag k="ref:vcgi:esiteid" v="260955"/>
  </node>
  <node id="-783" visible="true" lat="44.09801059" lon="-72.29437446">
    <tag k="addr:city" v="Topsham"/>
    <tag k="addr:housenumber" v="22"/>
    <tag k="addr:street" v="Barberry Road"/>
    <tag k="addr:state" v="VT"/>
    <tag k="ref:vcgi:esiteid" v="260957"/>
  </node>
  <node id="-784" visible="true" lat="44.09490985" lon="-72.31970216">
    <tag k="addr:city" v="Topsham"/>
    <tag k="addr:housenumber" v="40"/>
    <tag k="addr:street" v="Branch Road"/>
    <tag k="addr:state" v="VT"/>
    <tag k="ref:vcgi:esiteid" v="260958"/>
  </node>
  <node id="-785" visible="true" lat="44.09380366" lon="-72.22135041">
    <tag k="addr:city" v="Topsham"/>
    <tag k="addr:housenumber" v="152"/>
    <tag k="addr:street" v="Topsham Corinth Road"/>
    <tag k="addr:state" v="VT"/>
    <tag k="ref:vcgi:esiteid" v="305505"/>
  </node>
  <node id="-786" visible="true" lat="44.13573259" lon="-72.22640928">
    <tag k="addr:city" v="Topsham"/>
    <tag k="addr:housenumber" v="131"/>
    <tag k="addr:street" v="Galusha Hill Road"/>
    <tag k="addr:state" v="VT"/>
    <tag k="ref:vcgi:esiteid" v="305915"/>
  </node>
  <node id="-787" visible="true" lat="44.127489" lon="-72.25318914">
    <tag k="addr:city" v="Topsham"/>
    <tag k="addr:housenumber" v="363"/>
    <tag k="addr:street" v="Willey Hill Road"/>
    <tag k="addr:state" v="VT"/>
    <tag k="ref:vcgi:esiteid" v="306225"/>
  </node>
  <node id="-788" visible="true" lat="44.12528648" lon="-72.24767581">
    <tag k="addr:city" v="Topsham"/>
    <tag k="addr:housenumber" v="391"/>
    <tag k="addr:street" v="Willey Hill Road"/>
    <tag k="addr:state" v="VT"/>
    <tag k="ref:vcgi:esiteid" v="306504"/>
  </node>
  <node id="-789" visible="true" lat="44.14066462" lon="-72.19413853">
    <tag k="addr:city" v="Topsham"/>
    <tag k="addr:housenumber" v="6"/>
    <tag k="addr:street" v="Meadow Lane"/>
    <tag k="addr:state" v="VT"/>
    <tag k="ref:vcgi:esiteid" v="307048"/>
  </node>
  <node id="-790" visible="true" lat="44.13397697" lon="-72.26365653">
    <tag k="addr:city" v="Topsham"/>
    <tag k="addr:housenumber" v="297"/>
    <tag k="addr:street" v="Willey Hill Road"/>
    <tag k="addr:state" v="VT"/>
    <tag k="ref:vcgi:esiteid" v="309127"/>
  </node>
  <node id="-791" visible="true" lat="44.09181566" lon="-72.22202336">
    <tag k="addr:city" v="Topsham"/>
    <tag k="addr:housenumber" v="142"/>
    <tag k="addr:street" v="Topsham Corinth Road"/>
    <tag k="addr:state" v="VT"/>
    <tag k="ref:vcgi:esiteid" v="309128"/>
  </node>
  <node id="-793" visible="true" lat="44.11135943" lon="-72.25392218">
    <tag k="addr:city" v="Topsham"/>
    <tag k="addr:housenumber" v="174"/>
    <tag k="addr:street" v="Welch Road"/>
    <tag k="addr:state" v="VT"/>
    <tag k="ref:vcgi:esiteid" v="311760"/>
  </node>
  <node id="-794" visible="true" lat="44.11238006" lon="-72.25883393">
    <tag k="addr:city" v="Topsham"/>
    <tag k="addr:housenumber" v="96"/>
    <tag k="addr:street" v="Ben Dexter Road"/>
    <tag k="addr:state" v="VT"/>
    <tag k="ref:vcgi:esiteid" v="312517"/>
  </node>
  <node id="-795" visible="true" lat="44.11551767" lon="-72.23602953">
    <tag k="addr:city" v="Topsham"/>
    <tag k="addr:housenumber" v="39"/>
    <tag k="addr:street" v="Welch Road"/>
    <tag k="addr:state" v="VT"/>
    <tag k="ref:vcgi:esiteid" v="313885"/>
  </node>
  <node id="-796" visible="true" lat="44.15131622" lon="-72.26042545">
    <tag k="addr:city" v="Topsham"/>
    <tag k="addr:housenumber" v="160"/>
    <tag k="addr:street" v="Downing Road"/>
    <tag k="addr:state" v="VT"/>
    <tag k="ref:vcgi:esiteid" v="316739"/>
  </node>
  <node id="-797" visible="true" lat="44.11023393" lon="-72.24187501">
    <tag k="addr:city" v="Topsham"/>
    <tag k="addr:housenumber" v="95"/>
    <tag k="addr:street" v="Welch Road"/>
    <tag k="addr:state" v="VT"/>
    <tag k="ref:vcgi:esiteid" v="317487"/>
  </node>
  <node id="-798" visible="true" lat="44.15962331" lon="-72.30909541">
    <tag k="addr:city" v="Topsham"/>
    <tag k="addr:housenumber" v="161"/>
    <tag k="addr:street" v="U.S. Route 302"/>
    <tag k="addr:state" v="VT"/>
    <tag k="ref:vcgi:esiteid" v="323936"/>
  </node>
  <node id="-799" visible="true" lat="44.15133214" lon="-72.28940298">
    <tag k="addr:city" v="Topsham"/>
    <tag k="addr:housenumber" v="20"/>
    <tag k="addr:street" v="Solomon Willey Road"/>
    <tag k="addr:state" v="VT"/>
    <tag k="ref:vcgi:esiteid" v="325245"/>
  </node>
  <node id="-800" visible="true" lat="44.12177145" lon="-72.30758671">
    <tag k="addr:city" v="Topsham"/>
    <tag k="addr:housenumber" v="515"/>
    <tag k="addr:street" v="Vermont Route 25"/>
    <tag k="addr:state" v="VT"/>
    <tag k="ref:vcgi:esiteid" v="326480"/>
  </node>
  <node id="-801" visible="true" lat="44.0684768" lon="-72.20980673">
    <tag k="addr:city" v="Topsham"/>
    <tag k="addr:housenumber" v="290"/>
    <tag k="addr:street" v="Tyler Lane"/>
    <tag k="addr:state" v="VT"/>
    <tag k="ref:vcgi:esiteid" v="326645"/>
  </node>
  <node id="-802" visible="true" lat="44.08897355" lon="-72.27891468">
    <tag k="addr:city" v="Topsham"/>
    <tag k="addr:housenumber" v="116"/>
    <tag k="addr:street" v="Vermont Route 25"/>
    <tag k="addr:state" v="VT"/>
    <tag k="ref:vcgi:esiteid" v="328335"/>
  </node>
  <node id="-803" visible="true" lat="44.09445977" lon="-72.31730468">
    <tag k="addr:city" v="Topsham"/>
    <tag k="addr:housenumber" v="23"/>
    <tag k="addr:street" v="Branch Road"/>
    <tag k="addr:state" v="VT"/>
    <tag k="ref:vcgi:esiteid" v="329680"/>
  </node>
  <node id="-804" visible="true" lat="44.10837093" lon="-72.24551473">
    <tag k="addr:city" v="Topsham"/>
    <tag k="addr:housenumber" v="121"/>
    <tag k="addr:street" v="Welch Road"/>
    <tag k="addr:state" v="VT"/>
    <tag k="ref:vcgi:esiteid" v="330016"/>
  </node>
  <node id="-805" visible="true" lat="44.09655853" lon="-72.32044176">
    <tag k="addr:city" v="Topsham"/>
    <tag k="addr:housenumber" v="42"/>
    <tag k="addr:street" v="East Orange Road"/>
    <tag k="addr:state" v="VT"/>
    <tag k="ref:vcgi:esiteid" v="332051"/>
  </node>
  <node id="-806" visible="true" lat="44.11780672" lon="-72.32291662">
    <tag k="addr:city" v="Topsham"/>
    <tag k="addr:housenumber" v="3"/>
    <tag k="addr:street" v="Warsley Road"/>
    <tag k="addr:state" v="VT"/>
    <tag k="ref:vcgi:esiteid" v="332421"/>
  </node>
  <node id="-807" visible="true" lat="44.12993126" lon="-72.19726841">
    <tag k="addr:city" v="Topsham"/>
    <tag k="addr:housenumber" v="260"/>
    <tag k="addr:street" v="Lime Kiln Road"/>
    <tag k="addr:state" v="VT"/>
    <tag k="ref:vcgi:esiteid" v="336471"/>
  </node>
  <node id="-808" visible="true" lat="44.1397251" lon="-72.19851755">
    <tag k="addr:city" v="Topsham"/>
    <tag k="addr:housenumber" v="30"/>
    <tag k="addr:street" v="Meadow Lane"/>
    <tag k="addr:state" v="VT"/>
    <tag k="ref:vcgi:esiteid" v="337008"/>
  </node>
  <node id="-809" visible="true" lat="44.09985105" lon="-72.2625221">
    <tag k="addr:city" v="Topsham"/>
    <tag k="addr:housenumber" v="10"/>
    <tag k="addr:street" v="Spooner Road"/>
    <tag k="addr:state" v="VT"/>
    <tag k="ref:vcgi:esiteid" v="337309"/>
  </node>
  <node id="-810" visible="true" lat="44.11166058" lon="-72.28588464">
    <tag k="addr:city" v="Topsham"/>
    <tag k="addr:housenumber" v="127"/>
    <tag k="addr:street" v="Honey Corners Road"/>
    <tag k="addr:state" v="VT"/>
    <tag k="ref:vcgi:esiteid" v="337310"/>
  </node>
  <node id="-811" visible="true" lat="44.14873027" lon="-72.23518279">
    <tag k="addr:city" v="Topsham"/>
    <tag k="addr:housenumber" v="229"/>
    <tag k="addr:street" v="Powder Spring Road"/>
    <tag k="addr:state" v="VT"/>
    <tag k="ref:vcgi:esiteid" v="337734"/>
  </node>
  <node id="-812" visible="true" lat="44.12948244" lon="-72.20859103">
    <tag k="addr:city" v="Topsham"/>
    <tag k="addr:housenumber" v="147"/>
    <tag k="addr:street" v="Harts Road"/>
    <tag k="addr:state" v="VT"/>
    <tag k="ref:vcgi:esiteid" v="338226"/>
  </node>
  <node id="-813" visible="true" lat="44.11340502" lon="-72.31695676">
    <tag k="addr:city" v="Topsham"/>
    <tag k="addr:housenumber" v="437"/>
    <tag k="addr:street" v="Vermont Route 25"/>
    <tag k="addr:state" v="VT"/>
    <tag k="ref:vcgi:esiteid" v="338693"/>
  </node>
  <node id="-814" visible="true" lat="44.0984856" lon="-72.27090867">
    <tag k="addr:city" v="Topsham"/>
    <tag k="addr:housenumber" v="13"/>
    <tag k="addr:street" v="Phelps Road"/>
    <tag k="addr:state" v="VT"/>
    <tag k="ref:vcgi:esiteid" v="339691"/>
  </node>
  <node id="-815" visible="true" lat="44.17648655" lon="-72.29943499">
    <tag k="addr:city" v="Topsham"/>
    <tag k="addr:housenumber" v="288"/>
    <tag k="addr:street" v="U.S. Route 302"/>
    <tag k="addr:state" v="VT"/>
    <tag k="ref:vcgi:esiteid" v="339692"/>
  </node>
  <node id="-816" visible="true" lat="44.11416063" lon="-72.26141406">
    <tag k="addr:city" v="Topsham"/>
    <tag k="addr:housenumber" v="101"/>
    <tag k="addr:street" v="Ben Dexter Road"/>
    <tag k="addr:state" v="VT"/>
    <tag k="ref:vcgi:esiteid" v="340224"/>
  </node>
  <node id="-817" visible="true" lat="44.09825119" lon="-72.29902664">
    <tag k="addr:city" v="Topsham"/>
    <tag k="addr:housenumber" v="246"/>
    <tag k="addr:street" v="Vermont Route 25"/>
    <tag k="addr:state" v="VT"/>
    <tag k="ref:vcgi:esiteid" v="340790"/>
  </node>
  <node id="-818" visible="true" lat="44.153742" lon="-72.23244986">
    <tag k="addr:city" v="Topsham"/>
    <tag k="addr:housenumber" v="263"/>
    <tag k="addr:street" v="Powder Spring Road"/>
    <tag k="addr:state" v="VT"/>
    <tag k="ref:vcgi:esiteid" v="340964"/>
  </node>
  <node id="-819" visible="true" lat="44.12499932" lon="-72.28857678">
    <tag k="addr:city" v="Topsham"/>
    <tag k="addr:housenumber" v="341"/>
    <tag k="addr:street" v="Kirby Road"/>
    <tag k="addr:state" v="VT"/>
    <tag k="ref:vcgi:esiteid" v="341247"/>
  </node>
  <node id="-820" visible="true" lat="44.11766975" lon="-72.25581505">
    <tag k="addr:city" v="Topsham"/>
    <tag k="addr:housenumber" v="134"/>
    <tag k="addr:street" v="Ben Dexter Road"/>
    <tag k="addr:state" v="VT"/>
    <tag k="ref:vcgi:esiteid" v="341363"/>
  </node>
  <node id="-822" visible="true" lat="44.09616654" lon="-72.21134008">
    <tag k="addr:city" v="Topsham"/>
    <tag k="addr:housenumber" v="44"/>
    <tag k="addr:street" v="Powers Road"/>
    <tag k="addr:state" v="VT"/>
    <tag k="ref:vcgi:esiteid" v="342824"/>
  </node>
  <node id="-825" visible="true" lat="44.12718542" lon="-72.22793128">
    <tag k="addr:city" v="Topsham"/>
    <tag k="addr:housenumber" v="51"/>
    <tag k="addr:street" v="Galusha Hill Road"/>
    <tag k="addr:state" v="VT"/>
    <tag k="ref:vcgi:esiteid" v="345323"/>
  </node>
  <node id="-826" visible="true" lat="44.13982364" lon="-72.25813517">
    <tag k="addr:city" v="Topsham"/>
    <tag k="addr:housenumber" v="86"/>
    <tag k="addr:street" v="Downing Road"/>
    <tag k="addr:state" v="VT"/>
    <tag k="ref:vcgi:esiteid" v="345324"/>
  </node>
  <node id="-827" visible="true" lat="44.10229592" lon="-72.28917725">
    <tag k="addr:city" v="Topsham"/>
    <tag k="addr:housenumber" v="52"/>
    <tag k="addr:street" v="Honey Corners Road"/>
    <tag k="addr:state" v="VT"/>
    <tag k="ref:vcgi:esiteid" v="345325"/>
  </node>
  <node id="-828" visible="true" lat="44.12543548" lon="-72.21378715">
    <tag k="addr:city" v="Topsham"/>
    <tag k="addr:housenumber" v="124"/>
    <tag k="addr:street" v="Harts Road"/>
    <tag k="addr:state" v="VT"/>
    <tag k="ref:vcgi:esiteid" v="345326"/>
  </node>
  <node id="-829" visible="true" lat="44.1219402" lon="-72.2385113">
    <tag k="addr:city" v="Topsham"/>
    <tag k="addr:housenumber" v="125"/>
    <tag k="addr:street" v="Old County Road"/>
    <tag k="addr:state" v="VT"/>
    <tag k="ref:vcgi:esiteid" v="365212"/>
  </node>
  <node id="-830" visible="true" lat="44.12765437" lon="-72.27134119">
    <tag k="addr:city" v="Topsham"/>
    <tag k="addr:housenumber" v="84"/>
    <tag k="addr:street" v="Peterson Road"/>
    <tag k="addr:state" v="VT"/>
    <tag k="ref:vcgi:esiteid" v="446565"/>
  </node>
  <node id="-832" visible="true" lat="44.12727124" lon="-72.21787323">
    <tag k="addr:city" v="Topsham"/>
    <tag k="addr:housenumber" v="93"/>
    <tag k="addr:street" v="Harts Road"/>
    <tag k="addr:state" v="VT"/>
    <tag k="ref:vcgi:esiteid" v="446567"/>
  </node>
  <node id="-833" visible="true" lat="44.14489727" lon="-72.31438419">
    <tag k="addr:city" v="Topsham"/>
    <tag k="addr:housenumber" v="19"/>
    <tag k="addr:street" v="U.S. Route 302"/>
    <tag k="addr:state" v="VT"/>
    <tag k="ref:vcgi:esiteid" v="446568"/>
  </node>
  <node id="-834" visible="true" lat="44.14445531" lon="-72.25846052">
    <tag k="addr:city" v="Topsham"/>
    <tag k="addr:housenumber" v="120"/>
    <tag k="addr:street" v="Downing Road"/>
    <tag k="addr:state" v="VT"/>
    <tag k="ref:vcgi:esiteid" v="449148"/>
  </node>
  <node id="-835" visible="true" lat="44.13861948" lon="-72.28670875">
    <tag k="addr:city" v="Topsham"/>
    <tag k="addr:housenumber" v="157"/>
    <tag k="addr:street" v="Kimball Hill Road"/>
    <tag k="addr:state" v="VT"/>
    <tag k="ref:vcgi:esiteid" v="450871"/>
  </node>
  <node id="-836" visible="true" lat="44.1305041" lon="-72.2572648">
    <tag k="addr:city" v="Topsham"/>
    <tag k="addr:housenumber" v="23"/>
    <tag k="addr:street" v="Downing Road"/>
    <tag k="addr:state" v="VT"/>
    <tag k="ref:vcgi:esiteid" v="452114"/>
  </node>
  <node id="-837" visible="true" lat="44.07618934" lon="-72.21314657">
    <tag k="addr:city" v="Topsham"/>
    <tag k="addr:housenumber" v="6"/>
    <tag k="addr:street" v="Ordway Road"/>
    <tag k="addr:state" v="VT"/>
    <tag k="ref:vcgi:esiteid" v="453618"/>
  </node>
  <node id="-838" visible="true" lat="44.1349697" lon="-72.31746238">
    <tag k="addr:city" v="Topsham"/>
    <tag k="addr:housenumber" v="641"/>
    <tag k="addr:street" v="Vermont Route 25"/>
    <tag k="addr:state" v="VT"/>
    <tag k="ref:vcgi:esiteid" v="453619"/>
  </node>
  <node id="-840" visible="true" lat="44.13816275" lon="-72.31134698">
    <tag k="addr:city" v="Topsham"/>
    <tag k="addr:housenumber" v="38"/>
    <tag k="addr:street" v="Crossroad"/>
    <tag k="addr:state" v="VT"/>
    <tag k="ref:vcgi:esiteid" v="454926"/>
  </node>
  <node id="-841" visible="true" lat="44.08289254" lon="-72.20874761">
    <tag k="addr:city" v="Topsham"/>
    <tag k="addr:housenumber" v="60"/>
    <tag k="addr:street" v="Currier Hill Road"/>
    <tag k="addr:state" v="VT"/>
    <tag k="ref:vcgi:esiteid" v="454927"/>
  </node>
  <node id="-842" visible="true" lat="44.11334571" lon="-72.23292252">
    <tag k="addr:city" v="Topsham"/>
    <tag k="addr:housenumber" v="2"/>
    <tag k="addr:street" v="Lime Kiln Road"/>
    <tag k="addr:state" v="VT"/>
    <tag k="ref:vcgi:esiteid" v="610273"/>
  </node>
  <node id="-843" visible="true" lat="44.08478964" lon="-72.28936903">
    <tag k="addr:city" v="Topsham"/>
    <tag k="addr:housenumber" v="17"/>
    <tag k="addr:street" v="Pike Hill Road East"/>
    <tag k="addr:state" v="VT"/>
    <tag k="ref:vcgi:esiteid" v="610274"/>
  </node>
  <node id="-844" visible="true" lat="44.18088737" lon="-72.28835728">
    <tag k="addr:city" v="Topsham"/>
    <tag k="addr:housenumber" v="326"/>
    <tag k="addr:street" v="U.S. Route 302"/>
    <tag k="addr:state" v="VT"/>
    <tag k="ref:vcgi:esiteid" v="610976"/>
  </node>
  <node id="-846" visible="true" lat="44.14133348" lon="-72.19791524">
    <tag k="addr:city" v="Topsham"/>
    <tag k="addr:housenumber" v="26"/>
    <tag k="addr:street" v="Meadow Lane"/>
    <tag k="addr:state" v="VT"/>
    <tag k="ref:vcgi:esiteid" v="611284"/>
  </node>
  <node id="-847" visible="true" lat="44.08249059" lon="-72.20893953">
    <tag k="addr:city" v="Topsham"/>
    <tag k="addr:housenumber" v="58"/>
    <tag k="addr:street" v="Currier Hill Road"/>
    <tag k="addr:state" v="VT"/>
    <tag k="ref:vcgi:esiteid" v="611466"/>
  </node>
  <node id="-848" visible="true" lat="44.10145085" lon="-72.30582253">
    <tag k="addr:city" v="Topsham"/>
    <tag k="addr:housenumber" v="8"/>
    <tag k="addr:street" v="Perry Road"/>
    <tag k="addr:state" v="VT"/>
    <tag k="ref:vcgi:esiteid" v="611503"/>
  </node>
  <node id="-849" visible="true" lat="44.14513031" lon="-72.25866908">
    <tag k="addr:city" v="Topsham"/>
    <tag k="addr:housenumber" v="126"/>
    <tag k="addr:street" v="Downing Road"/>
    <tag k="addr:state" v="VT"/>
    <tag k="ref:vcgi:esiteid" v="613426"/>
  </node>
  <node id="-850" visible="true" lat="44.15959028" lon="-72.31152849">
    <tag k="addr:city" v="Topsham"/>
    <tag k="addr:housenumber" v="159"/>
    <tag k="addr:street" v="U.S. Route 302"/>
    <tag k="addr:state" v="VT"/>
    <tag k="ref:vcgi:esiteid" v="617825"/>
  </node>
  <node id="-852" visible="true" lat="44.11766328" lon="-72.30774513">
    <tag k="addr:city" v="Topsham"/>
    <tag k="addr:housenumber" v="500"/>
    <tag k="addr:street" v="Vermont Route 25"/>
    <tag k="addr:state" v="VT"/>
    <tag k="ref:vcgi:esiteid" v="618177"/>
  </node>
  <node id="-853" visible="true" lat="44.08527808" lon="-72.22187502">
    <tag k="addr:city" v="Topsham"/>
    <tag k="addr:housenumber" v="108"/>
    <tag k="addr:street" v="Topsham Corinth Road"/>
    <tag k="addr:state" v="VT"/>
    <tag k="ref:vcgi:esiteid" v="620674"/>
  </node>
  <node id="-854" visible="true" lat="44.11124682" lon="-72.24817325">
    <tag k="addr:city" v="Topsham"/>
    <tag k="addr:housenumber" v="125"/>
    <tag k="addr:street" v="Welch Road"/>
    <tag k="addr:state" v="VT"/>
    <tag k="ref:vcgi:esiteid" v="654898"/>
  </node>
  <node id="-855" visible="true" lat="44.13376491" lon="-72.20446486">
    <tag k="addr:city" v="Topsham"/>
    <tag k="addr:housenumber" v="232"/>
    <tag k="addr:street" v="Skyline Drive"/>
    <tag k="addr:state" v="VT"/>
    <tag k="ref:vcgi:esiteid" v="655936"/>
  </node>
  <node id="-856" visible="true" lat="44.13676926" lon="-72.30937001">
    <tag k="addr:city" v="Topsham"/>
    <tag k="addr:housenumber" v="57"/>
    <tag k="addr:street" v="Crossroad"/>
    <tag k="addr:state" v="VT"/>
    <tag k="ref:vcgi:esiteid" v="750134"/>
  </node>
  <node id="-857" visible="true" lat="44.16520733" lon="-72.22227712">
    <tag k="addr:city" v="Topsham"/>
    <tag k="addr:housenumber" v="2"/>
    <tag k="addr:street" v="Clarks Crossroad"/>
    <tag k="addr:state" v="VT"/>
    <tag k="ref:vcgi:esiteid" v="753439"/>
  </node>
  <node id="-859" visible="true" lat="44.12445668" lon="-72.30494536">
    <tag k="addr:city" v="Topsham"/>
    <tag k="addr:housenumber" v="8"/>
    <tag k="addr:street" v="Kimball Hill Road"/>
    <tag k="addr:state" v="VT"/>
    <tag k="ref:vcgi:esiteid" v="756639"/>
  </node>
  <node id="-860" visible="true" lat="44.10690453" lon="-72.24617907">
    <tag k="addr:city" v="Topsham"/>
    <tag k="addr:housenumber" v="123"/>
    <tag k="addr:street" v="Welch Road"/>
    <tag k="addr:state" v="VT"/>
    <tag k="ref:vcgi:esiteid" v="756640"/>
  </node>
  <node id="-861" visible="true" lat="44.0872435" lon="-72.27183262">
    <tag k="addr:city" v="Topsham"/>
    <tag k="addr:housenumber" v="49"/>
    <tag k="addr:street" v="Jungles Way"/>
    <tag k="addr:state" v="VT"/>
    <tag k="ref:vcgi:esiteid" v="758261"/>
  </node>
  <node id="-862" visible="true" lat="44.13121055" lon="-72.257493">
    <tag k="addr:city" v="Topsham"/>
    <tag k="addr:housenumber" v="25"/>
    <tag k="addr:street" v="Downing Road"/>
    <tag k="addr:state" v="VT"/>
    <tag k="ref:vcgi:esiteid" v="758325"/>
  </node>
  <node id="-863" visible="true" lat="44.07142744" lon="-72.21908468">
    <tag k="addr:city" v="Topsham"/>
    <tag k="addr:housenumber" v="14"/>
    <tag k="addr:street" v="Thompson Road"/>
    <tag k="addr:state" v="VT"/>
    <tag k="ref:vcgi:esiteid" v="758605"/>
  </node>
  <node id="-864" visible="true" lat="44.13009966" lon="-72.20614857">
    <tag k="addr:city" v="Topsham"/>
    <tag k="addr:housenumber" v="162"/>
    <tag k="addr:street" v="Harts Road"/>
    <tag k="addr:state" v="VT"/>
    <tag k="ref:vcgi:esiteid" v="759225"/>
  </node>
  <node id="-865" visible="true" lat="44.15782877" lon="-72.20137836">
    <tag k="addr:city" v="Topsham"/>
    <tag k="addr:housenumber" v="59"/>
    <tag k="addr:street" v="Fiske Road"/>
    <tag k="addr:state" v="VT"/>
    <tag k="ref:vcgi:esiteid" v="759262"/>
  </node>
  <node id="-866" visible="true" lat="44.14884345" lon="-72.26233416">
    <tag k="addr:city" v="Topsham"/>
    <tag k="addr:housenumber" v="9"/>
    <tag k="addr:street" v="Downing Road Extension"/>
    <tag k="addr:state" v="VT"/>
    <tag k="ref:vcgi:esiteid" v="759263"/>
  </node>
  <node id="-867" visible="true" lat="44.14825836" lon="-72.2354445">
    <tag k="addr:city" v="Topsham"/>
    <tag k="addr:housenumber" v="225"/>
    <tag k="addr:street" v="Powder Spring Road"/>
    <tag k="addr:state" v="VT"/>
    <tag k="ref:vcgi:esiteid" v="759349"/>
  </node>
  <node id="-868" visible="true" lat="44.1310782" lon="-72.20474073">
    <tag k="addr:city" v="Topsham"/>
    <tag k="addr:housenumber" v="4"/>
    <tag k="addr:street" v="Skyline Drive"/>
    <tag k="addr:state" v="VT"/>
    <tag k="ref:vcgi:esiteid" v="759350"/>
  </node>
  <node id="-869" visible="true" lat="44.1241212" lon="-72.28096901">
    <tag k="addr:city" v="Topsham"/>
    <tag k="addr:housenumber" v="115"/>
    <tag k="addr:street" v="Zion Hill Road"/>
    <tag k="addr:state" v="VT"/>
    <tag k="ref:vcgi:esiteid" v="759645"/>
  </node>
  <node id="-870" visible="true" lat="44.17661185" lon="-72.2253495">
    <tag k="addr:city" v="Topsham"/>
    <tag k="addr:housenumber" v="442"/>
    <tag k="addr:street" v="Powder Spring Road"/>
    <tag k="addr:state" v="VT"/>
    <tag k="ref:vcgi:esiteid" v="760663"/>
  </node>
  <node id="-871" visible="true" lat="44.10266794" lon="-72.28953865">
    <tag k="addr:city" v="Topsham"/>
    <tag k="addr:housenumber" v="58"/>
    <tag k="addr:street" v="Honey Corners Road"/>
    <tag k="addr:state" v="VT"/>
    <tag k="ref:vcgi:esiteid" v="760809"/>
  </node>
  <node id="-872" visible="true" lat="44.10108997" lon="-72.28998045">
    <tag k="addr:city" v="Topsham"/>
    <tag k="addr:housenumber" v="48"/>
    <tag k="addr:street" v="Honey Corners Road"/>
    <tag k="addr:state" v="VT"/>
    <tag k="ref:vcgi:esiteid" v="760810"/>
  </node>
  <node id="-873" visible="true" lat="44.090499" lon="-72.28368126">
    <tag k="addr:city" v="Topsham"/>
    <tag k="addr:housenumber" v="150"/>
    <tag k="addr:street" v="Vermont Route 25"/>
    <tag k="addr:state" v="VT"/>
    <tag k="ref:vcgi:esiteid" v="760985"/>
  </node>
  <node id="-874" visible="true" lat="44.12365353" lon="-72.26657693">
    <tag k="addr:city" v="Topsham"/>
    <tag k="addr:housenumber" v="61"/>
    <tag k="addr:street" v="Peterson Road"/>
    <tag k="addr:state" v="VT"/>
    <tag k="ref:vcgi:esiteid" v="760986"/>
  </node>
  <node id="-875" visible="true" lat="44.09947993" lon="-72.32822984">
    <tag k="addr:city" v="Topsham"/>
    <tag k="addr:housenumber" v="82"/>
    <tag k="addr:street" v="East Orange Road"/>
    <tag k="addr:state" v="VT"/>
    <tag k="ref:vcgi:esiteid" v="761064"/>
  </node>
  <node id="-876" visible="true" lat="44.17207465" lon="-72.2258086">
    <tag k="addr:city" v="Topsham"/>
    <tag k="addr:housenumber" v="411"/>
    <tag k="addr:street" v="Powder Spring Road"/>
    <tag k="addr:state" v="VT"/>
    <tag k="ref:vcgi:esiteid" v="761065"/>
  </node>
  <node id="-877" visible="true" lat="44.14914765" lon="-72.20006387">
    <tag k="addr:city" v="Topsham"/>
    <tag k="addr:housenumber" v="128"/>
    <tag k="addr:street" v="Emerson Road"/>
    <tag k="addr:state" v="VT"/>
    <tag k="ref:vcgi:esiteid" v="762069"/>
  </node>
  <node id="-878" visible="true" lat="44.08814567" lon="-72.26656178">
    <tag k="addr:city" v="Topsham"/>
    <tag k="addr:housenumber" v="11"/>
    <tag k="addr:street" v="Felch Road"/>
    <tag k="addr:state" v="VT"/>
    <tag k="ref:vcgi:esiteid" v="762072"/>
  </node>
  <node id="-879" visible="true" lat="44.16489426" lon="-72.24058372">
    <tag k="addr:city" v="Topsham"/>
    <tag k="addr:housenumber" v="112"/>
    <tag k="addr:street" v="Frost Road"/>
    <tag k="addr:state" v="VT"/>
    <tag k="ref:vcgi:esiteid" v="762277"/>
  </node>
  <node id="-880" visible="true" lat="44.13768101" lon="-72.28200097">
    <tag k="addr:city" v="Topsham"/>
    <tag k="addr:housenumber" v="174"/>
    <tag k="addr:street" v="Kimball Hill Road"/>
    <tag k="addr:state" v="VT"/>
    <tag k="ref:vcgi:esiteid" v="763397"/>
  </node>
  <node id="-881" visible="true" lat="44.12998064" lon="-72.204272">
    <tag k="addr:city" v="Topsham"/>
    <tag k="addr:housenumber" v="176"/>
    <tag k="addr:street" v="Harts Road"/>
    <tag k="addr:state" v="VT"/>
    <tag k="ref:vcgi:esiteid" v="763398"/>
  </node>
  <node id="-882" visible="true" lat="44.14236209" lon="-72.19443478">
    <tag k="addr:city" v="Topsham"/>
    <tag k="addr:housenumber" v="45"/>
    <tag k="addr:street" v="Emerson Road"/>
    <tag k="addr:state" v="VT"/>
    <tag k="ref:vcgi:esiteid" v="763399"/>
  </node>
  <node id="-883" visible="true" lat="44.11350434" lon="-72.24822706">
    <tag k="addr:city" v="Topsham"/>
    <tag k="addr:housenumber" v="130"/>
    <tag k="addr:street" v="Welch Road"/>
    <tag k="addr:state" v="VT"/>
    <tag k="ref:vcgi:esiteid" v="763400"/>
  </node>
  <node id="-884" visible="true" lat="44.12276556" lon="-72.24187106">
    <tag k="addr:city" v="Topsham"/>
    <tag k="addr:housenumber" v="275"/>
    <tag k="addr:street" v="Old County Road"/>
    <tag k="addr:state" v="VT"/>
    <tag k="ref:vcgi:esiteid" v="765389"/>
  </node>
  <node id="-885" visible="true" lat="44.09298407" lon="-72.28916601">
    <tag k="addr:city" v="Topsham"/>
    <tag k="addr:housenumber" v="189"/>
    <tag k="addr:street" v="Vermont Route 25"/>
    <tag k="addr:state" v="VT"/>
    <tag k="ref:vcgi:esiteid" v="765721"/>
  </node>
  <node id="-886" visible="true" lat="44.10012745" lon="-72.27157957">
    <tag k="addr:city" v="Topsham"/>
    <tag k="addr:housenumber" v="21"/>
    <tag k="addr:street" v="Phelps Road"/>
    <tag k="addr:state" v="VT"/>
    <tag k="ref:vcgi:esiteid" v="768302"/>
  </node>
  <node id="-887" visible="true" lat="44.17092987" lon="-72.26928388">
    <tag k="addr:city" v="Topsham"/>
    <tag k="addr:housenumber" v="54"/>
    <tag k="addr:street" v="Fuller Hill Road"/>
    <tag k="addr:state" v="VT"/>
    <tag k="ref:vcgi:esiteid" v="768304"/>
  </node>
  <node id="-888" visible="true" lat="44.17604614" lon="-72.26773078">
    <tag k="addr:city" v="Topsham"/>
    <tag k="addr:housenumber" v="86"/>
    <tag k="addr:street" v="Fuller Hill Road"/>
    <tag k="addr:state" v="VT"/>
    <tag k="ref:vcgi:esiteid" v="768305"/>
  </node>
  <node id="-889" visible="true" lat="44.16949626" lon="-72.27031022">
    <tag k="addr:city" v="Topsham"/>
    <tag k="addr:housenumber" v="41"/>
    <tag k="addr:street" v="Fuller Hill Road"/>
    <tag k="addr:state" v="VT"/>
    <tag k="ref:vcgi:esiteid" v="768306"/>
  </node>
  <node id="-890" visible="true" lat="44.1828416" lon="-72.26964144">
    <tag k="addr:city" v="Topsham"/>
    <tag k="addr:housenumber" v="132"/>
    <tag k="addr:street" v="Fuller Hill Road"/>
    <tag k="addr:state" v="VT"/>
    <tag k="ref:vcgi:esiteid" v="768307"/>
  </node>
  <node id="-891" visible="true" lat="44.10285845" lon="-72.26780835">
    <tag k="addr:city" v="Topsham"/>
    <tag k="addr:housenumber" v="123"/>
    <tag k="addr:street" v="Watson Hill Road"/>
    <tag k="addr:state" v="VT"/>
    <tag k="ref:vcgi:esiteid" v="768308"/>
  </node>
  <node id="-892" visible="true" lat="44.1052132" lon="-72.30911815">
    <tag k="addr:city" v="Topsham"/>
    <tag k="addr:housenumber" v="10"/>
    <tag k="addr:street" v="Perry Road"/>
    <tag k="addr:state" v="VT"/>
    <tag k="ref:vcgi:esiteid" v="768819"/>
  </node>
  <node id="-893" visible="true" lat="44.11335719" lon="-72.19798869">
    <tag k="addr:city" v="Topsham"/>
    <tag k="addr:housenumber" v="175"/>
    <tag k="addr:street" v="Swamp Road"/>
    <tag k="addr:state" v="VT"/>
    <tag k="ref:vcgi:esiteid" v="769939"/>
  </node>
  <node id="-894" visible="true" lat="44.17749109" lon="-72.22697885">
    <tag k="addr:city" v="Topsham"/>
    <tag k="addr:housenumber" v="449"/>
    <tag k="addr:street" v="Powder Spring Road"/>
    <tag k="addr:state" v="VT"/>
    <tag k="ref:vcgi:esiteid" v="769941"/>
  </node>
  <node id="-895" visible="true" lat="44.12096144" lon="-72.29410899">
    <tag k="addr:city" v="Topsham"/>
    <tag k="addr:housenumber" v="84"/>
    <tag k="addr:street" v="Zion Hill Road"/>
    <tag k="addr:state" v="VT"/>
    <tag k="ref:vcgi:esiteid" v="770690"/>
  </node>
  <node id="-896" visible="true" lat="44.08062361" lon="-72.2618304">
    <tag k="addr:city" v="Topsham"/>
    <tag k="addr:housenumber" v="5"/>
    <tag k="addr:street" v="Waits River Valley School Road"/>
    <tag k="addr:state" v="VT"/>
    <tag k="ref:vcgi:esiteid" v="1050850"/>
  </node>
  <node id="-898" visible="true" lat="44.13194286" lon="-72.31359779">
    <tag k="addr:city" v="Topsham"/>
    <tag k="addr:housenumber" v="612"/>
    <tag k="addr:street" v="Vermont Route 25"/>
    <tag k="addr:state" v="VT"/>
    <tag k="ref:vcgi:esiteid" v="1050852"/>
  </node>
  <node id="-899" visible="true" lat="44.11802766" lon="-72.23320926">
    <tag k="addr:city" v="Topsham"/>
    <tag k="addr:housenumber" v="349"/>
    <tag k="addr:street" v="Topsham Corinth Road"/>
    <tag k="addr:state" v="VT"/>
    <tag k="ref:vcgi:esiteid" v="1050853"/>
  </node>
</osm>
