<?xml version="1.0" encoding="UTF-8"?>
<osm version="0.6" generator="JOSM">
  <node id="-203" visible="true" lat="44.14314206" lon="-72.31161579">
    <tag k="addr:housenumber" v="39"/>
    <tag k="addr:street" v="U.S. Route 302"/>
    <tag k="addr:state" v="VT"/>
    <tag k="ref:vcgi:esiteid" v="260356"/>
  </node>
  <node id="-205" visible="true" lat="44.14342108" lon="-72.31174189">
    <tag k="addr:housenumber" v="37"/>
    <tag k="addr:street" v="U.S. Route 302"/>
    <tag k="addr:state" v="VT"/>
    <tag k="ref:vcgi:esiteid" v="260358"/>
  </node>
  <node id="-206" visible="true" lat="44.14247973" lon="-72.31061094">
    <tag k="addr:housenumber" v="4"/>
    <tag k="addr:street" v="Crossroad"/>
    <tag k="addr:state" v="VT"/>
    <tag k="ref:vcgi:esiteid" v="260359"/>
  </node>
  <node id="-214" visible="true" lat="44.14134902" lon="-72.31336158">
    <tag k="addr:housenumber" v="22"/>
    <tag k="addr:street" v="U.S. Route 302"/>
    <tag k="addr:state" v="VT"/>
    <tag k="ref:vcgi:esiteid" v="260367"/>
  </node>
  <node id="-216" visible="true" lat="44.14101656" lon="-72.31671568">
    <tag k="addr:housenumber" v="5"/>
    <tag k="addr:street" v="U.S. Route 302"/>
    <tag k="addr:state" v="VT"/>
    <tag k="ref:vcgi:esiteid" v="260370"/>
  </node>
  <node id="-219" visible="true" lat="44.14063956" lon="-72.3131911">
    <tag k="addr:housenumber" v="20"/>
    <tag k="addr:street" v="U.S. Route 302"/>
    <tag k="addr:state" v="VT"/>
    <tag k="ref:vcgi:esiteid" v="260374"/>
  </node>
  <node id="-220" visible="true" lat="44.14023165" lon="-72.31144254">
    <tag k="addr:housenumber" v="24"/>
    <tag k="addr:street" v="Crossroad"/>
    <tag k="addr:state" v="VT"/>
    <tag k="ref:vcgi:esiteid" v="260375"/>
  </node>
  <node id="-221" visible="true" lat="44.14016494" lon="-72.3139451">
    <tag k="addr:housenumber" v="11"/>
    <tag k="addr:street" v="Dana Thurston Road"/>
    <tag k="addr:state" v="VT"/>
    <tag k="ref:vcgi:esiteid" v="260376"/>
  </node>
  <node id="-226" visible="true" lat="44.13874435" lon="-72.31444549">
    <tag k="addr:housenumber" v="20"/>
    <tag k="addr:street" v="Dana Thurston Road"/>
    <tag k="addr:state" v="VT"/>
    <tag k="ref:vcgi:esiteid" v="260381"/>
  </node>
  <node id="-250" visible="true" lat="44.13248227" lon="-72.19242798">
    <tag k="addr:housenumber" v="2"/>
    <tag k="addr:street" v="James Downing Road"/>
    <tag k="addr:state" v="VT"/>
    <tag k="ref:vcgi:esiteid" v="260405"/>
  </node>
  <node id="-253" visible="true" lat="44.13181089" lon="-72.19821106">
    <tag k="addr:housenumber" v="8"/>
    <tag k="addr:street" v="Harts Crossroad"/>
    <tag k="addr:state" v="VT"/>
    <tag k="ref:vcgi:esiteid" v="260408"/>
  </node>
  <node id="-277" visible="true" lat="44.12775587" lon="-72.20184266">
    <tag k="addr:housenumber" v="223"/>
    <tag k="addr:street" v="Lime Kiln Road"/>
    <tag k="addr:state" v="VT"/>
    <tag k="ref:vcgi:esiteid" v="260434"/>
  </node>
  <node id="-280" visible="true" lat="44.12706159" lon="-72.20250641">
    <tag k="addr:housenumber" v="217"/>
    <tag k="addr:street" v="Lime Kiln Road"/>
    <tag k="addr:state" v="VT"/>
    <tag k="ref:vcgi:esiteid" v="260437"/>
  </node>
  <node id="-281" visible="true" lat="44.12715296" lon="-72.24237766">
    <tag k="addr:housenumber" v="68"/>
    <tag k="addr:street" v="Powder Spring Road"/>
    <tag k="addr:state" v="VT"/>
    <tag k="ref:vcgi:esiteid" v="260438"/>
  </node>
  <node id="-283" visible="true" lat="44.12618195" lon="-72.24266658">
    <tag k="addr:housenumber" v="3"/>
    <tag k="addr:street" v="McTaggart Road"/>
    <tag k="addr:state" v="VT"/>
    <tag k="ref:vcgi:esiteid" v="260440"/>
  </node>
  <node id="-289" visible="true" lat="44.12568449" lon="-72.20275818">
    <tag k="addr:housenumber" v="207"/>
    <tag k="addr:street" v="Lime Kiln Road"/>
    <tag k="addr:state" v="VT"/>
    <tag k="ref:vcgi:esiteid" v="260446"/>
  </node>
  <node id="-292" visible="true" lat="44.12532972" lon="-72.20179688">
    <tag k="addr:housenumber" v="206"/>
    <tag k="addr:street" v="Lime Kiln Road"/>
    <tag k="addr:state" v="VT"/>
    <tag k="ref:vcgi:esiteid" v="260449"/>
  </node>
  <node id="-298" visible="true" lat="44.12459945" lon="-72.24060821">
    <tag k="addr:housenumber" v="439"/>
    <tag k="addr:street" v="Willey Hill Road"/>
    <tag k="addr:state" v="VT"/>
    <tag k="ref:vcgi:esiteid" v="260455"/>
  </node>
  <node id="-299" visible="true" lat="44.12449645" lon="-72.23982238">
    <tag k="addr:housenumber" v="443"/>
    <tag k="addr:street" v="Willey Hill Road"/>
    <tag k="addr:state" v="VT"/>
    <tag k="ref:vcgi:esiteid" v="260456"/>
  </node>
  <node id="-301" visible="true" lat="44.1245158" lon="-72.2363688">
    <tag k="addr:housenumber" v="17"/>
    <tag k="addr:street" v="Walter Sweet Road"/>
    <tag k="addr:state" v="VT"/>
    <tag k="ref:vcgi:esiteid" v="260458"/>
  </node>
  <node id="-302" visible="true" lat="44.1242442" lon="-72.23574826">
    <tag k="addr:housenumber" v="16"/>
    <tag k="addr:street" v="Walter Sweet Road"/>
    <tag k="addr:state" v="VT"/>
    <tag k="ref:vcgi:esiteid" v="260459"/>
  </node>
  <node id="-305" visible="true" lat="44.12408613" lon="-72.20310914">
    <tag k="addr:housenumber" v="199"/>
    <tag k="addr:street" v="Lime Kiln Road"/>
    <tag k="addr:state" v="VT"/>
    <tag k="ref:vcgi:esiteid" v="260462"/>
  </node>
  <node id="-306" visible="true" lat="44.12366437" lon="-72.23062131">
    <tag k="addr:housenumber" v="13"/>
    <tag k="addr:street" v="Galusha Hill Road"/>
    <tag k="addr:state" v="VT"/>
    <tag k="ref:vcgi:esiteid" v="260463"/>
  </node>
  <node id="-307" visible="true" lat="44.12357282" lon="-72.23805997">
    <tag k="addr:housenumber" v="36"/>
    <tag k="addr:street" v="Powder Spring Road"/>
    <tag k="addr:state" v="VT"/>
    <tag k="ref:vcgi:esiteid" v="260464"/>
  </node>
  <node id="-308" visible="true" lat="44.12303144" lon="-72.23824028">
    <tag k="addr:housenumber" v="31"/>
    <tag k="addr:street" v="Powder Spring Road"/>
    <tag k="addr:state" v="VT"/>
    <tag k="ref:vcgi:esiteid" v="260465"/>
  </node>
  <node id="-309" visible="true" lat="44.12265671" lon="-72.19277733">
    <tag k="addr:housenumber" v="61"/>
    <tag k="addr:street" v="Crosby Road"/>
    <tag k="addr:state" v="VT"/>
    <tag k="ref:vcgi:esiteid" v="260466"/>
  </node>
  <node id="-310" visible="true" lat="44.12279391" lon="-72.2372775">
    <tag k="addr:housenumber" v="28"/>
    <tag k="addr:street" v="Powder Spring Road"/>
    <tag k="addr:state" v="VT"/>
    <tag k="ref:vcgi:esiteid" v="260467"/>
  </node>
  <node id="-311" visible="true" lat="44.12247466" lon="-72.23749542">
    <tag k="addr:housenumber" v="27"/>
    <tag k="addr:street" v="Powder Spring Road"/>
    <tag k="addr:state" v="VT"/>
    <tag k="ref:vcgi:esiteid" v="260468"/>
  </node>
  <node id="-312" visible="true" lat="44.12238087" lon="-72.23665675">
    <tag k="addr:housenumber" v="24"/>
    <tag k="addr:street" v="Powder Spring Road"/>
    <tag k="addr:state" v="VT"/>
    <tag k="ref:vcgi:esiteid" v="260469"/>
  </node>
  <node id="-313" visible="true" lat="44.12227033" lon="-72.21152436">
    <tag k="addr:housenumber" v="131"/>
    <tag k="addr:street" v="Lime Kiln Road"/>
    <tag k="addr:state" v="VT"/>
    <tag k="ref:vcgi:esiteid" v="260470"/>
  </node>
  <node id="-314" visible="true" lat="44.12222547" lon="-72.23149519">
    <tag k="addr:housenumber" v="10"/>
    <tag k="addr:street" v="Galusha Hill Road"/>
    <tag k="addr:state" v="VT"/>
    <tag k="ref:vcgi:esiteid" v="260471"/>
  </node>
  <node id="-315" visible="true" lat="44.12213829" lon="-72.2322892">
    <tag k="addr:housenumber" v="7"/>
    <tag k="addr:street" v="Galusha Hill Road"/>
    <tag k="addr:state" v="VT"/>
    <tag k="ref:vcgi:esiteid" v="260472"/>
  </node>
  <node id="-316" visible="true" lat="44.12186216" lon="-72.20107972">
    <tag k="addr:housenumber" v="9"/>
    <tag k="addr:street" v="Crosby Road"/>
    <tag k="addr:state" v="VT"/>
    <tag k="ref:vcgi:esiteid" v="260473"/>
  </node>
  <node id="-317" visible="true" lat="44.1219851" lon="-72.23190488">
    <tag k="addr:housenumber" v="6"/>
    <tag k="addr:street" v="Galusha Hill Road"/>
    <tag k="addr:state" v="VT"/>
    <tag k="ref:vcgi:esiteid" v="260474"/>
  </node>
  <node id="-318" visible="true" lat="44.12197671" lon="-72.23405299">
    <tag k="addr:housenumber" v="5"/>
    <tag k="addr:street" v="Schoolhouse Road"/>
    <tag k="addr:state" v="VT"/>
    <tag k="ref:vcgi:esiteid" v="260475"/>
  </node>
  <node id="-319" visible="true" lat="44.12184208" lon="-72.23366308">
    <tag k="addr:housenumber" v="4"/>
    <tag k="addr:street" v="Schoolhouse Road"/>
    <tag k="addr:state" v="VT"/>
    <tag k="ref:vcgi:esiteid" v="260476"/>
  </node>
  <node id="-320" visible="true" lat="44.1215635" lon="-72.23203421">
    <tag k="addr:housenumber" v="5"/>
    <tag k="addr:street" v="Harts Road"/>
    <tag k="addr:state" v="VT"/>
    <tag k="ref:vcgi:esiteid" v="260477"/>
  </node>
  <node id="-321" visible="true" lat="44.12154721" lon="-72.23380276">
    <tag k="addr:housenumber" v="3"/>
    <tag k="addr:street" v="Schoolhouse Road"/>
    <tag k="addr:state" v="VT"/>
    <tag k="ref:vcgi:esiteid" v="260478"/>
  </node>
  <node id="-322" visible="true" lat="44.1215434" lon="-72.23472592">
    <tag k="addr:housenumber" v="10"/>
    <tag k="addr:street" v="Powder Spring Road"/>
    <tag k="addr:state" v="VT"/>
    <tag k="ref:vcgi:esiteid" v="260479"/>
  </node>
  <node id="-323" visible="true" lat="44.12143614" lon="-72.23327969">
    <tag k="addr:housenumber" v="2"/>
    <tag k="addr:street" v="Schoolhouse Road"/>
    <tag k="addr:state" v="VT"/>
    <tag k="ref:vcgi:esiteid" v="260480"/>
  </node>
  <node id="-325" visible="true" lat="44.12159312" lon="-72.2354471">
    <tag k="addr:housenumber" v="16"/>
    <tag k="addr:street" v="Powder Spring Road"/>
    <tag k="addr:state" v="VT"/>
    <tag k="ref:vcgi:esiteid" v="260482"/>
  </node>
  <node id="-327" visible="true" lat="44.12138583" lon="-72.2336187">
    <tag k="addr:housenumber" v="1"/>
    <tag k="addr:street" v="Schoolhouse Road"/>
    <tag k="addr:state" v="VT"/>
    <tag k="ref:vcgi:esiteid" v="260484"/>
  </node>
  <node id="-328" visible="true" lat="44.12144165" lon="-72.23113172">
    <tag k="addr:housenumber" v="9"/>
    <tag k="addr:street" v="Harts Road"/>
    <tag k="addr:state" v="VT"/>
    <tag k="ref:vcgi:esiteid" v="260485"/>
  </node>
  <node id="-329" visible="true" lat="44.12146806" lon="-72.23510962">
    <tag k="addr:housenumber" v="14"/>
    <tag k="addr:street" v="Powder Spring Road"/>
    <tag k="addr:state" v="VT"/>
    <tag k="ref:vcgi:esiteid" v="260486"/>
  </node>
  <node id="-330" visible="true" lat="44.12125181" lon="-72.20954071">
    <tag k="addr:housenumber" v="140"/>
    <tag k="addr:street" v="Lime Kiln Road"/>
    <tag k="addr:state" v="VT"/>
    <tag k="ref:vcgi:esiteid" v="260487"/>
  </node>
  <node id="-331" visible="true" lat="44.12124204" lon="-72.23183438">
    <tag k="addr:housenumber" v="6"/>
    <tag k="addr:street" v="Harts Road"/>
    <tag k="addr:state" v="VT"/>
    <tag k="ref:vcgi:esiteid" v="260489"/>
  </node>
  <node id="-332" visible="true" lat="44.12113483" lon="-72.23076217">
    <tag k="addr:housenumber" v="12"/>
    <tag k="addr:street" v="Harts Road"/>
    <tag k="addr:state" v="VT"/>
    <tag k="ref:vcgi:esiteid" v="260490"/>
  </node>
  <node id="-333" visible="true" lat="44.1211543" lon="-72.23529813">
    <tag k="addr:housenumber" v="13"/>
    <tag k="addr:street" v="Powder Spring Road"/>
    <tag k="addr:state" v="VT"/>
    <tag k="ref:vcgi:esiteid" v="260491"/>
  </node>
  <node id="-334" visible="true" lat="44.1211276" lon="-72.23306271">
    <tag k="addr:housenumber" v="375"/>
    <tag k="addr:street" v="Topsham Corinth Road"/>
    <tag k="addr:state" v="VT"/>
    <tag k="ref:vcgi:esiteid" v="260492"/>
  </node>
  <node id="-335" visible="true" lat="44.12110852" lon="-72.2303085">
    <tag k="addr:housenumber" v="14"/>
    <tag k="addr:street" v="Harts Road"/>
    <tag k="addr:state" v="VT"/>
    <tag k="ref:vcgi:esiteid" v="260493"/>
  </node>
  <node id="-337" visible="true" lat="44.12107038" lon="-72.23594662">
    <tag k="addr:housenumber" v="17"/>
    <tag k="addr:street" v="Powder Spring Road"/>
    <tag k="addr:state" v="VT"/>
    <tag k="ref:vcgi:esiteid" v="260495"/>
  </node>
  <node id="-338" visible="true" lat="44.12098967" lon="-72.23422853">
    <tag k="addr:housenumber" v="3"/>
    <tag k="addr:street" v="Welch Road"/>
    <tag k="addr:state" v="VT"/>
    <tag k="ref:vcgi:esiteid" v="260496"/>
  </node>
  <node id="-339" visible="true" lat="44.12097168" lon="-72.2956314">
    <tag k="addr:housenumber" v="76"/>
    <tag k="addr:street" v="Zion Hill Road"/>
    <tag k="addr:state" v="VT"/>
    <tag k="ref:vcgi:esiteid" v="260497"/>
  </node>
  <node id="-340" visible="true" lat="44.12105414" lon="-72.23459636">
    <tag k="addr:housenumber" v="4"/>
    <tag k="addr:street" v="Welch Road"/>
    <tag k="addr:state" v="VT"/>
    <tag k="ref:vcgi:esiteid" v="260498"/>
  </node>
  <node id="-341" visible="true" lat="44.12079495" lon="-72.23251202">
    <tag k="addr:housenumber" v="372"/>
    <tag k="addr:street" v="Topsham Corinth Road"/>
    <tag k="addr:state" v="VT"/>
    <tag k="ref:vcgi:esiteid" v="260499"/>
  </node>
  <node id="-343" visible="true" lat="44.12079692" lon="-72.23298117">
    <tag k="addr:housenumber" v="371"/>
    <tag k="addr:street" v="Topsham Corinth Road"/>
    <tag k="addr:state" v="VT"/>
    <tag k="ref:vcgi:esiteid" v="260502"/>
  </node>
  <node id="-345" visible="true" lat="44.12057447" lon="-72.2329559">
    <tag k="addr:housenumber" v="369"/>
    <tag k="addr:street" v="Topsham Corinth Road"/>
    <tag k="addr:state" v="VT"/>
    <tag k="ref:vcgi:esiteid" v="260504"/>
  </node>
  <node id="-346" visible="true" lat="44.1205499" lon="-72.22956787">
    <tag k="addr:housenumber" v="20"/>
    <tag k="addr:street" v="Harts Road"/>
    <tag k="addr:state" v="VT"/>
    <tag k="ref:vcgi:esiteid" v="260505"/>
  </node>
  <node id="-347" visible="true" lat="44.12018937" lon="-72.23254685">
    <tag k="addr:housenumber" v="368"/>
    <tag k="addr:street" v="Topsham Corinth Road"/>
    <tag k="addr:state" v="VT"/>
    <tag k="ref:vcgi:esiteid" v="260506"/>
  </node>
  <node id="-348" visible="true" lat="44.12019729" lon="-72.29814147">
    <tag k="addr:housenumber" v="63"/>
    <tag k="addr:street" v="Zion Hill Road"/>
    <tag k="addr:state" v="VT"/>
    <tag k="ref:vcgi:esiteid" v="260507"/>
  </node>
  <node id="-349" visible="true" lat="44.12013244" lon="-72.2991867">
    <tag k="addr:housenumber" v="59"/>
    <tag k="addr:street" v="Zion Hill Road"/>
    <tag k="addr:state" v="VT"/>
    <tag k="ref:vcgi:esiteid" v="260508"/>
  </node>
  <node id="-351" visible="true" lat="44.12006378" lon="-72.29694366">
    <tag k="addr:housenumber" v="68"/>
    <tag k="addr:street" v="Zion Hill Road"/>
    <tag k="addr:state" v="VT"/>
    <tag k="ref:vcgi:esiteid" v="260510"/>
  </node>
  <node id="-352" visible="true" lat="44.11974089" lon="-72.20268309">
    <tag k="addr:housenumber" v="10"/>
    <tag k="addr:street" v="Crosby Road"/>
    <tag k="addr:state" v="VT"/>
    <tag k="ref:vcgi:esiteid" v="260511"/>
  </node>
  <node id="-354" visible="true" lat="44.11966657" lon="-72.23254391">
    <tag k="addr:housenumber" v="366"/>
    <tag k="addr:street" v="Topsham Corinth Road"/>
    <tag k="addr:state" v="VT"/>
    <tag k="ref:vcgi:esiteid" v="260513"/>
  </node>
  <node id="-355" visible="true" lat="44.11978095" lon="-72.20842243">
    <tag k="addr:housenumber" v="154"/>
    <tag k="addr:street" v="Lime Kiln Road"/>
    <tag k="addr:state" v="VT"/>
    <tag k="ref:vcgi:esiteid" v="260514"/>
  </node>
  <node id="-356" visible="true" lat="44.11938227" lon="-72.29837825">
    <tag k="addr:housenumber" v="58"/>
    <tag k="addr:street" v="Zion Hill Road"/>
    <tag k="addr:state" v="VT"/>
    <tag k="ref:vcgi:esiteid" v="260515"/>
  </node>
  <node id="-358" visible="true" lat="44.11893537" lon="-72.2332249">
    <tag k="addr:housenumber" v="363"/>
    <tag k="addr:street" v="Topsham Corinth Road"/>
    <tag k="addr:state" v="VT"/>
    <tag k="ref:vcgi:esiteid" v="260517"/>
  </node>
  <node id="-360" visible="true" lat="44.11856801" lon="-72.3095638">
    <tag k="addr:housenumber" v="21"/>
    <tag k="addr:street" v="Halls Hill"/>
    <tag k="addr:state" v="VT"/>
    <tag k="ref:vcgi:esiteid" v="260519"/>
  </node>
  <node id="-364" visible="true" lat="44.11813377" lon="-72.307298">
    <tag k="addr:housenumber" v="13"/>
    <tag k="addr:street" v="Mill Road"/>
    <tag k="addr:state" v="VT"/>
    <tag k="ref:vcgi:esiteid" v="260523"/>
  </node>
  <node id="-367" visible="true" lat="44.11789243" lon="-72.31022016">
    <tag k="addr:housenumber" v="17"/>
    <tag k="addr:street" v="Halls Hill"/>
    <tag k="addr:state" v="VT"/>
    <tag k="ref:vcgi:esiteid" v="260526"/>
  </node>
  <node id="-368" visible="true" lat="44.11745723" lon="-72.30955784">
    <tag k="addr:housenumber" v="14"/>
    <tag k="addr:street" v="Halls Hill"/>
    <tag k="addr:state" v="VT"/>
    <tag k="ref:vcgi:esiteid" v="260527"/>
  </node>
  <node id="-372" visible="true" lat="44.11688528" lon="-72.30999915">
    <tag k="addr:housenumber" v="13"/>
    <tag k="addr:street" v="Halls Hill"/>
    <tag k="addr:state" v="VT"/>
    <tag k="ref:vcgi:esiteid" v="260531"/>
  </node>
  <node id="-374" visible="true" lat="44.11678235" lon="-72.3110948">
    <tag k="addr:housenumber" v="7"/>
    <tag k="addr:street" v="Firehouse Drive"/>
    <tag k="addr:state" v="VT"/>
    <tag k="ref:vcgi:esiteid" v="260533"/>
  </node>
  <node id="-379" visible="true" lat="44.1164819" lon="-72.31045429">
    <tag k="addr:housenumber" v="6"/>
    <tag k="addr:street" v="Firehouse Drive"/>
    <tag k="addr:state" v="VT"/>
    <tag k="ref:vcgi:esiteid" v="260538"/>
  </node>
  <node id="-381" visible="true" lat="44.11630306" lon="-72.31033088">
    <tag k="addr:housenumber" v="4"/>
    <tag k="addr:street" v="Firehouse Drive"/>
    <tag k="addr:state" v="VT"/>
    <tag k="ref:vcgi:esiteid" v="260540"/>
  </node>
  <node id="-385" visible="true" lat="44.11604483" lon="-72.31265871">
    <tag k="addr:housenumber" v="4"/>
    <tag k="addr:street" v="Batten Road"/>
    <tag k="addr:state" v="VT"/>
    <tag k="ref:vcgi:esiteid" v="260544"/>
  </node>
  <node id="-394" visible="true" lat="44.11564866" lon="-72.3129045">
    <tag k="addr:housenumber" v="7"/>
    <tag k="addr:street" v="Batten Road"/>
    <tag k="addr:state" v="VT"/>
    <tag k="ref:vcgi:esiteid" v="260554"/>
  </node>
  <node id="-398" visible="true" lat="44.1155009" lon="-72.22597996">
    <tag k="addr:housenumber" v="45"/>
    <tag k="addr:street" v="Lime Kiln Road"/>
    <tag k="addr:state" v="VT"/>
    <tag k="ref:vcgi:esiteid" v="260558"/>
  </node>
  <node id="-404" visible="true" lat="44.11459408" lon="-72.2326633">
    <tag k="addr:housenumber" v="330"/>
    <tag k="addr:street" v="Topsham Corinth Road"/>
    <tag k="addr:state" v="VT"/>
    <tag k="ref:vcgi:esiteid" v="260564"/>
  </node>
  <node id="-407" visible="true" lat="44.11410688" lon="-72.22892701">
    <tag k="addr:housenumber" v="23"/>
    <tag k="addr:street" v="Lime Kiln Road"/>
    <tag k="addr:state" v="VT"/>
    <tag k="ref:vcgi:esiteid" v="260567"/>
  </node>
  <node id="-410" visible="true" lat="44.113775" lon="-72.22621857">
    <tag k="addr:housenumber" v="52"/>
    <tag k="addr:street" v="Miller Drive"/>
    <tag k="addr:state" v="VT"/>
    <tag k="ref:vcgi:esiteid" v="260570"/>
  </node>
  <node id="-412" visible="true" lat="44.11371931" lon="-72.232721">
    <tag k="addr:housenumber" v="3"/>
    <tag k="addr:street" v="Lime Kiln Road"/>
    <tag k="addr:state" v="VT"/>
    <tag k="ref:vcgi:esiteid" v="260572"/>
  </node>
  <node id="-413" visible="true" lat="44.11357866" lon="-72.23191308">
    <tag k="addr:housenumber" v="7"/>
    <tag k="addr:street" v="Lime Kiln Road"/>
    <tag k="addr:state" v="VT"/>
    <tag k="ref:vcgi:esiteid" v="260573"/>
  </node>
  <node id="-415" visible="true" lat="44.11312269" lon="-72.22321259">
    <tag k="addr:housenumber" v="41"/>
    <tag k="addr:street" v="Miller Drive"/>
    <tag k="addr:state" v="VT"/>
    <tag k="ref:vcgi:esiteid" v="260575"/>
  </node>
  <node id="-417" visible="true" lat="44.11303121" lon="-72.23461953">
    <tag k="addr:housenumber" v="315"/>
    <tag k="addr:street" v="Topsham Corinth Road"/>
    <tag k="addr:state" v="VT"/>
    <tag k="ref:vcgi:esiteid" v="260577"/>
  </node>
  <node id="-418" visible="true" lat="44.11290907" lon="-72.23155152">
    <tag k="addr:housenumber" v="12"/>
    <tag k="addr:street" v="Lime Kiln Road"/>
    <tag k="addr:state" v="VT"/>
    <tag k="ref:vcgi:esiteid" v="260578"/>
  </node>
  <node id="-428" visible="true" lat="44.10969495" lon="-72.2337875">
    <tag k="addr:housenumber" v="297"/>
    <tag k="addr:street" v="Topsham Corinth Road"/>
    <tag k="addr:state" v="VT"/>
    <tag k="ref:vcgi:esiteid" v="260589"/>
  </node>
  <node id="-448" visible="true" lat="44.10610913" lon="-72.23539731">
    <tag k="addr:housenumber" v="16"/>
    <tag k="addr:street" v="Harold White Road"/>
    <tag k="addr:state" v="VT"/>
    <tag k="ref:vcgi:esiteid" v="260609"/>
  </node>
  <node id="-449" visible="true" lat="44.1058421" lon="-72.23227688">
    <tag k="addr:housenumber" v="268"/>
    <tag k="addr:street" v="Topsham Corinth Road"/>
    <tag k="addr:state" v="VT"/>
    <tag k="ref:vcgi:esiteid" v="260610"/>
  </node>
  <node id="-450" visible="true" lat="44.10523203" lon="-72.20692463">
    <tag k="addr:housenumber" v="102"/>
    <tag k="addr:street" v="Swamp Road"/>
    <tag k="addr:state" v="VT"/>
    <tag k="ref:vcgi:esiteid" v="260611"/>
  </node>
  <node id="-453" visible="true" lat="44.10496854" lon="-72.2317886">
    <tag k="addr:housenumber" v="262"/>
    <tag k="addr:street" v="Topsham Corinth Road"/>
    <tag k="addr:state" v="VT"/>
    <tag k="ref:vcgi:esiteid" v="260614"/>
  </node>
  <node id="-459" visible="true" lat="44.10255754" lon="-72.23002692">
    <tag k="addr:housenumber" v="242"/>
    <tag k="addr:street" v="Topsham Corinth Road"/>
    <tag k="addr:state" v="VT"/>
    <tag k="ref:vcgi:esiteid" v="260620"/>
  </node>
  <node id="-462" visible="true" lat="44.10160612" lon="-72.21257722">
    <tag k="addr:housenumber" v="3"/>
    <tag k="addr:street" v="Powers Road"/>
    <tag k="addr:state" v="VT"/>
    <tag k="ref:vcgi:esiteid" v="260623"/>
  </node>
  <node id="-463" visible="true" lat="44.10159268" lon="-72.22933473">
    <tag k="addr:housenumber" v="235"/>
    <tag k="addr:street" v="Topsham Corinth Road"/>
    <tag k="addr:state" v="VT"/>
    <tag k="ref:vcgi:esiteid" v="260624"/>
  </node>
  <node id="-466" visible="true" lat="44.10147687" lon="-72.22916938">
    <tag k="addr:housenumber" v="233"/>
    <tag k="addr:street" v="Topsham Corinth Road"/>
    <tag k="addr:state" v="VT"/>
    <tag k="ref:vcgi:esiteid" v="260627"/>
  </node>
  <node id="-469" visible="true" lat="44.10066007" lon="-72.2115091">
    <tag k="addr:housenumber" v="13"/>
    <tag k="addr:street" v="Powers Road"/>
    <tag k="addr:state" v="VT"/>
    <tag k="ref:vcgi:esiteid" v="260630"/>
  </node>
  <node id="-472" visible="true" lat="44.10046552" lon="-72.21233308">
    <tag k="addr:housenumber" v="10"/>
    <tag k="addr:street" v="Powers Road"/>
    <tag k="addr:state" v="VT"/>
    <tag k="ref:vcgi:esiteid" v="260633"/>
  </node>
  <node id="-482" visible="true" lat="44.09963392" lon="-72.21797883">
    <tag k="addr:housenumber" v="35"/>
    <tag k="addr:street" v="Swamp Road"/>
    <tag k="addr:state" v="VT"/>
    <tag k="ref:vcgi:esiteid" v="260643"/>
  </node>
  <node id="-485" visible="true" lat="44.09951185" lon="-72.21926057">
    <tag k="addr:housenumber" v="25"/>
    <tag k="addr:street" v="Swamp Road"/>
    <tag k="addr:state" v="VT"/>
    <tag k="ref:vcgi:esiteid" v="260646"/>
  </node>
  <node id="-494" visible="true" lat="44.09922575" lon="-72.2213205">
    <tag k="addr:housenumber" v="17"/>
    <tag k="addr:street" v="Swamp Road"/>
    <tag k="addr:state" v="VT"/>
    <tag k="ref:vcgi:esiteid" v="260655"/>
  </node>
  <node id="-495" visible="true" lat="44.09906171" lon="-72.2188028">
    <tag k="addr:housenumber" v="30"/>
    <tag k="addr:street" v="Swamp Road"/>
    <tag k="addr:state" v="VT"/>
    <tag k="ref:vcgi:esiteid" v="260656"/>
  </node>
  <node id="-498" visible="true" lat="44.09886717" lon="-72.22383057">
    <tag k="addr:housenumber" v="4"/>
    <tag k="addr:street" v="Swamp Road"/>
    <tag k="addr:state" v="VT"/>
    <tag k="ref:vcgi:esiteid" v="260659"/>
  </node>
  <node id="-503" visible="true" lat="44.09828901" lon="-72.22549435">
    <tag k="addr:housenumber" v="8"/>
    <tag k="addr:street" v="Colby Road"/>
    <tag k="addr:state" v="VT"/>
    <tag k="ref:vcgi:esiteid" v="260664"/>
  </node>
  <node id="-507" visible="true" lat="44.09800504" lon="-72.20032441">
    <tag k="addr:housenumber" v="83"/>
    <tag k="addr:street" v="Powers Road"/>
    <tag k="addr:state" v="VT"/>
    <tag k="ref:vcgi:esiteid" v="260668"/>
  </node>
  <node id="-512" visible="true" lat="44.09762954" lon="-72.22530365">
    <tag k="addr:housenumber" v="13"/>
    <tag k="addr:street" v="Colby Road"/>
    <tag k="addr:state" v="VT"/>
    <tag k="ref:vcgi:esiteid" v="260673"/>
  </node>
  <node id="-517" visible="true" lat="44.09720182" lon="-72.22594449">
    <tag k="addr:housenumber" v="16"/>
    <tag k="addr:street" v="Colby Road"/>
    <tag k="addr:state" v="VT"/>
    <tag k="ref:vcgi:esiteid" v="260678"/>
  </node>
  <node id="-520" visible="true" lat="44.09677671" lon="-72.20313966">
    <tag k="addr:housenumber" v="72"/>
    <tag k="addr:street" v="Powers Road"/>
    <tag k="addr:state" v="VT"/>
    <tag k="ref:vcgi:esiteid" v="260681"/>
  </node>
  <node id="-620" visible="true" lat="44.07826415" lon="-72.25567057">
    <tag k="addr:housenumber" v="19"/>
    <tag k="addr:street" v="Bruleigh Road"/>
    <tag k="addr:state" v="VT"/>
    <tag k="ref:vcgi:esiteid" v="260783"/>
  </node>
  <node id="-621" visible="true" lat="44.07786461" lon="-72.25546473">
    <tag k="addr:housenumber" v="22"/>
    <tag k="addr:street" v="Bruleigh Road"/>
    <tag k="addr:state" v="VT"/>
    <tag k="ref:vcgi:esiteid" v="260784"/>
  </node>
  <node id="-651" visible="true" lat="44.13980945" lon="-72.31453967">
    <tag k="addr:housenumber" v="12"/>
    <tag k="addr:street" v="Dana Thurston Road"/>
    <tag k="addr:state" v="VT"/>
    <tag k="ref:vcgi:esiteid" v="260814"/>
  </node>
  <node id="-656" visible="true" lat="44.1181737" lon="-72.30511243">
    <tag k="addr:housenumber" v="23"/>
    <tag k="addr:street" v="Zion Hill Road"/>
    <tag k="addr:state" v="VT"/>
    <tag k="ref:vcgi:esiteid" v="260820"/>
  </node>
  <node id="-658" visible="true" lat="44.11657714" lon="-72.30934142">
    <tag k="addr:housenumber" v="7"/>
    <tag k="addr:street" v="Halls Hill"/>
    <tag k="addr:state" v="VT"/>
    <tag k="ref:vcgi:esiteid" v="260822"/>
  </node>
  <node id="-661" visible="true" lat="44.1215638" lon="-72.23282476">
    <tag k="addr:housenumber" v="1"/>
    <tag k="addr:street" v="Galusha Hill Road"/>
    <tag k="addr:state" v="VT"/>
    <tag k="ref:vcgi:esiteid" v="260825"/>
  </node>
  <node id="-662" visible="true" lat="44.12430143" lon="-72.23836514">
    <tag k="addr:housenumber" v="42"/>
    <tag k="addr:street" v="Powder Spring Road"/>
    <tag k="addr:state" v="VT"/>
    <tag k="ref:vcgi:esiteid" v="260826"/>
  </node>
  <node id="-668" visible="true" lat="44.07963668" lon="-72.26127101">
    <tag k="addr:housenumber" v="6"/>
    <tag k="addr:street" v="Waits River Valley School Road"/>
    <tag k="addr:state" v="VT"/>
    <tag k="ref:vcgi:esiteid" v="260832"/>
  </node>
  <node id="-671" visible="true" lat="44.14048926" lon="-72.31603033">
    <tag k="addr:housenumber" v="12"/>
    <tag k="addr:street" v="U.S. Route 302"/>
    <tag k="addr:state" v="VT"/>
    <tag k="ref:vcgi:esiteid" v="260835"/>
  </node>
  <node id="-674" visible="true" lat="44.1193428" lon="-72.30122375">
    <tag k="addr:housenumber" v="45"/>
    <tag k="addr:street" v="Zion Hill Road"/>
    <tag k="addr:state" v="VT"/>
    <tag k="ref:vcgi:esiteid" v="260840"/>
  </node>
  <node id="-675" visible="true" lat="44.11932373" lon="-72.30220031">
    <tag k="addr:housenumber" v="37"/>
    <tag k="addr:street" v="Zion Hill Road"/>
    <tag k="addr:state" v="VT"/>
    <tag k="ref:vcgi:esiteid" v="260841"/>
  </node>
  <node id="-676" visible="true" lat="44.11910629" lon="-72.30020904">
    <tag k="addr:housenumber" v="50"/>
    <tag k="addr:street" v="Zion Hill Road"/>
    <tag k="addr:state" v="VT"/>
    <tag k="ref:vcgi:esiteid" v="260842"/>
  </node>
  <node id="-677" visible="true" lat="44.11864852" lon="-72.29958343">
    <tag k="addr:housenumber" v="52"/>
    <tag k="addr:street" v="Zion Hill Road"/>
    <tag k="addr:state" v="VT"/>
    <tag k="ref:vcgi:esiteid" v="260843"/>
  </node>
  <node id="-695" visible="true" lat="44.11925887" lon="-72.233078">
    <tag k="addr:housenumber" v="365"/>
    <tag k="addr:street" v="Topsham Corinth Road"/>
    <tag k="addr:state" v="VT"/>
    <tag k="ref:vcgi:esiteid" v="260862"/>
  </node>
  <node id="-698" visible="true" lat="44.12009193" lon="-72.21396279">
    <tag k="addr:housenumber" v="4"/>
    <tag k="addr:street" v="Bagley Road"/>
    <tag k="addr:state" v="VT"/>
    <tag k="ref:vcgi:esiteid" v="260865"/>
  </node>
  <node id="-700" visible="true" lat="44.10193418" lon="-72.21308076">
    <tag k="addr:housenumber" v="63"/>
    <tag k="addr:street" v="Swamp Road"/>
    <tag k="addr:state" v="VT"/>
    <tag k="ref:vcgi:esiteid" v="260868"/>
  </node>
  <node id="-718" visible="true" lat="44.12171725" lon="-72.29694711">
    <tag k="addr:housenumber" v="10"/>
    <tag k="addr:street" v="Old Cemetery Road"/>
    <tag k="addr:state" v="VT"/>
    <tag k="ref:vcgi:esiteid" v="260888"/>
  </node>
  <node id="-720" visible="true" lat="44.12267382" lon="-72.29854146">
    <tag k="addr:housenumber" v="15"/>
    <tag k="addr:street" v="Old Cemetery Road"/>
    <tag k="addr:state" v="VT"/>
    <tag k="ref:vcgi:esiteid" v="260890"/>
  </node>
  <node id="-721" visible="true" lat="44.12213429" lon="-72.29846568">
    <tag k="addr:housenumber" v="11"/>
    <tag k="addr:street" v="Old Cemetery Road"/>
    <tag k="addr:state" v="VT"/>
    <tag k="ref:vcgi:esiteid" v="260891"/>
  </node>
  <node id="-722" visible="true" lat="44.12215176" lon="-72.29673296">
    <tag k="addr:housenumber" v="14"/>
    <tag k="addr:street" v="Old Cemetery Road"/>
    <tag k="addr:state" v="VT"/>
    <tag k="ref:vcgi:esiteid" v="260892"/>
  </node>
  <node id="-724" visible="true" lat="44.1190431" lon="-72.22088562">
    <tag k="addr:housenumber" v="77"/>
    <tag k="addr:street" v="Lime Kiln Road"/>
    <tag k="addr:state" v="VT"/>
    <tag k="ref:vcgi:esiteid" v="260894"/>
  </node>
  <node id="-726" visible="true" lat="44.12102873" lon="-72.2320483">
    <tag k="addr:housenumber" v="4"/>
    <tag k="addr:street" v="Harts Road"/>
    <tag k="addr:state" v="VT"/>
    <tag k="ref:vcgi:esiteid" v="260896"/>
  </node>
  <node id="-729" visible="true" lat="44.12334104" lon="-72.23758885">
    <tag k="addr:housenumber" v="34"/>
    <tag k="addr:street" v="Powder Spring Road"/>
    <tag k="addr:state" v="VT"/>
    <tag k="ref:vcgi:esiteid" v="260900"/>
  </node>
  <node id="-743" visible="true" lat="44.11685626" lon="-72.30955875">
    <tag k="addr:housenumber" v="9"/>
    <tag k="addr:street" v="Halls Hill"/>
    <tag k="addr:state" v="VT"/>
    <tag k="ref:vcgi:esiteid" v="260914"/>
  </node>
  <node id="-745" visible="true" lat="44.14247561" lon="-72.31607351">
    <tag k="addr:housenumber" v="9"/>
    <tag k="addr:street" v="U.S. Route 302"/>
    <tag k="addr:state" v="VT"/>
    <tag k="ref:vcgi:esiteid" v="260916"/>
  </node>
  <node id="-753" visible="true" lat="44.13846068" lon="-72.3168901">
    <tag k="addr:housenumber" v="2"/>
    <tag k="addr:street" v="U.S. Route 302"/>
    <tag k="addr:state" v="VT"/>
    <tag k="ref:vcgi:esiteid" v="260926"/>
  </node>
  <node id="-754" visible="true" lat="44.14263345" lon="-72.31485684">
    <tag k="addr:housenumber" v="11"/>
    <tag k="addr:street" v="U.S. Route 302"/>
    <tag k="addr:state" v="VT"/>
    <tag k="ref:vcgi:esiteid" v="260927"/>
  </node>
  <node id="-758" visible="true" lat="44.10383731" lon="-72.23907738">
    <tag k="addr:housenumber" v="44"/>
    <tag k="addr:street" v="Harold White Road"/>
    <tag k="addr:state" v="VT"/>
    <tag k="ref:vcgi:esiteid" v="260931"/>
  </node>
  <node id="-767" visible="true" lat="44.14088963" lon="-72.31107503">
    <tag k="addr:housenumber" v="18"/>
    <tag k="addr:street" v="Crossroad"/>
    <tag k="addr:state" v="VT"/>
    <tag k="ref:vcgi:esiteid" v="260941"/>
  </node>
  <node id="-768" visible="true" lat="44.12215848" lon="-72.19752064">
    <tag k="addr:housenumber" v="37"/>
    <tag k="addr:street" v="Crosby Road"/>
    <tag k="addr:state" v="VT"/>
    <tag k="ref:vcgi:esiteid" v="260942"/>
  </node>
  <node id="-771" visible="true" lat="44.12486218" lon="-72.23875255">
    <tag k="addr:housenumber" v="44"/>
    <tag k="addr:street" v="Powder Spring Road"/>
    <tag k="addr:state" v="VT"/>
    <tag k="ref:vcgi:esiteid" v="260945"/>
  </node>
  <node id="-782" visible="true" lat="44.09837402" lon="-72.22053253">
    <tag k="addr:housenumber" v="18"/>
    <tag k="addr:street" v="Swamp Road"/>
    <tag k="addr:state" v="VT"/>
    <tag k="ref:vcgi:esiteid" v="260956"/>
  </node>
  <node id="-792" visible="true" lat="44.12034937" lon="-72.29613948">
    <tag k="addr:housenumber" v="74"/>
    <tag k="addr:street" v="Zion Hill Road"/>
    <tag k="addr:state" v="VT"/>
    <tag k="ref:vcgi:esiteid" v="309129"/>
  </node>
  <node id="-823" visible="true" lat="44.13961924" lon="-72.31620817">
    <tag k="addr:housenumber" v="4"/>
    <tag k="addr:street" v="U.S. Route 302"/>
    <tag k="addr:state" v="VT"/>
    <tag k="ref:vcgi:esiteid" v="342825"/>
  </node>
  <node id="-824" visible="true" lat="44.14174438" lon="-72.31053237">
    <tag k="addr:housenumber" v="10"/>
    <tag k="addr:street" v="Crossroad"/>
    <tag k="addr:state" v="VT"/>
    <tag k="ref:vcgi:esiteid" v="345322"/>
  </node>
  <node id="-831" visible="true" lat="44.09793357" lon="-72.22134221">
    <tag k="addr:housenumber" v="12"/>
    <tag k="addr:street" v="Swamp Road"/>
    <tag k="addr:state" v="VT"/>
    <tag k="ref:vcgi:esiteid" v="446566"/>
  </node>
  <node id="-839" visible="true" lat="44.1155849" lon="-72.22546616">
    <tag k="addr:housenumber" v="47"/>
    <tag k="addr:street" v="Lime Kiln Road"/>
    <tag k="addr:state" v="VT"/>
    <tag k="ref:vcgi:esiteid" v="454305"/>
  </node>
</osm>
