<?xml version="1.0" encoding="UTF-8"?>
<osm version="0.6" generator="JOSM">
  <node id="-209" visible="true" lat="43.08828599" lon="-72.64335709">
    <tag k="addr:housenumber" v="3585"/>
    <tag k="addr:street" v="Grafton Road"/>
    <tag k="addr:state" v="VT"/>
    <tag k="ref:vcgi:esiteid" v="261068"/>
  </node>
  <node id="-210" visible="true" lat="43.08813095" lon="-72.64311981">
    <tag k="addr:housenumber" v="3533"/>
    <tag k="addr:street" v="Grafton Road"/>
    <tag k="addr:state" v="VT"/>
    <tag k="ref:vcgi:esiteid" v="261069"/>
  </node>
  <node id="-235" visible="true" lat="43.08488191" lon="-72.63906618">
    <tag k="addr:housenumber" v="3222"/>
    <tag k="addr:street" v="Grafton Road"/>
    <tag k="addr:state" v="VT"/>
    <tag k="ref:vcgi:esiteid" v="261094"/>
  </node>
  <node id="-259" visible="true" lat="43.08413314" lon="-72.71979522">
    <tag k="addr:housenumber" v="7017"/>
    <tag k="addr:street" v="Vermont Route 30"/>
    <tag k="addr:state" v="VT"/>
    <tag k="ref:vcgi:esiteid" v="261118"/>
  </node>
  <node id="-261" visible="true" lat="43.08433663" lon="-72.63848489">
    <tag k="addr:housenumber" v="3188"/>
    <tag k="addr:street" v="Grafton Road"/>
    <tag k="addr:state" v="VT"/>
    <tag k="ref:vcgi:esiteid" v="261120"/>
  </node>
  <node id="-271" visible="true" lat="43.08414793" lon="-72.64005045">
    <tag k="addr:housenumber" v="3175"/>
    <tag k="addr:street" v="Grafton Road"/>
    <tag k="addr:state" v="VT"/>
    <tag k="ref:vcgi:esiteid" v="261131"/>
  </node>
  <node id="-277" visible="true" lat="43.08376455" lon="-72.63931992">
    <tag k="addr:housenumber" v="3156"/>
    <tag k="addr:street" v="Grafton Road"/>
    <tag k="addr:state" v="VT"/>
    <tag k="ref:vcgi:esiteid" v="261137"/>
  </node>
  <node id="-284" visible="true" lat="43.08288955" lon="-72.63977813">
    <tag k="addr:housenumber" v="3105"/>
    <tag k="addr:street" v="Grafton Road"/>
    <tag k="addr:state" v="VT"/>
    <tag k="ref:vcgi:esiteid" v="261144"/>
  </node>
  <node id="-294" visible="true" lat="43.08156998" lon="-72.64272127">
    <tag k="addr:housenumber" v="59"/>
    <tag k="addr:street" v="Greenwood Road"/>
    <tag k="addr:state" v="VT"/>
    <tag k="ref:vcgi:esiteid" v="261155"/>
  </node>
  <node id="-301" visible="true" lat="43.08108443" lon="-72.6417749">
    <tag k="addr:housenumber" v="2919"/>
    <tag k="addr:street" v="Grafton Road"/>
    <tag k="addr:state" v="VT"/>
    <tag k="ref:vcgi:esiteid" v="261162"/>
  </node>
  <node id="-304" visible="true" lat="43.08023374" lon="-72.64196332">
    <tag k="addr:housenumber" v="2870"/>
    <tag k="addr:street" v="Grafton Road"/>
    <tag k="addr:state" v="VT"/>
    <tag k="ref:vcgi:esiteid" v="261165"/>
  </node>
  <node id="-305" visible="true" lat="43.079923" lon="-72.64235733">
    <tag k="addr:housenumber" v="2850"/>
    <tag k="addr:street" v="Grafton Road"/>
    <tag k="addr:state" v="VT"/>
    <tag k="ref:vcgi:esiteid" v="261166"/>
  </node>
  <node id="-310" visible="true" lat="43.07942431" lon="-72.64307678">
    <tag k="addr:housenumber" v="2800"/>
    <tag k="addr:street" v="Grafton Road"/>
    <tag k="addr:state" v="VT"/>
    <tag k="ref:vcgi:esiteid" v="261171"/>
  </node>
  <node id="-314" visible="true" lat="43.07896648" lon="-72.6435228">
    <tag k="addr:housenumber" v="2776"/>
    <tag k="addr:street" v="Grafton Road"/>
    <tag k="addr:state" v="VT"/>
    <tag k="ref:vcgi:esiteid" v="261175"/>
  </node>
  <node id="-318" visible="true" lat="43.07848411" lon="-72.64557568">
    <tag k="addr:housenumber" v="2643"/>
    <tag k="addr:street" v="Grafton Road"/>
    <tag k="addr:state" v="VT"/>
    <tag k="ref:vcgi:esiteid" v="261179"/>
  </node>
  <node id="-319" visible="true" lat="43.07837295" lon="-72.64424133">
    <tag k="addr:housenumber" v="2710"/>
    <tag k="addr:street" v="Grafton Road"/>
    <tag k="addr:state" v="VT"/>
    <tag k="ref:vcgi:esiteid" v="261180"/>
  </node>
  <node id="-322" visible="true" lat="43.07801818" lon="-72.64714813">
    <tag k="addr:housenumber" v="2607"/>
    <tag k="addr:street" v="Grafton Road"/>
    <tag k="addr:state" v="VT"/>
    <tag k="ref:vcgi:esiteid" v="261183"/>
  </node>
  <node id="-328" visible="true" lat="43.07738979" lon="-72.64693634">
    <tag k="addr:housenumber" v="2557"/>
    <tag k="addr:street" v="Grafton Road"/>
    <tag k="addr:state" v="VT"/>
    <tag k="ref:vcgi:esiteid" v="261190"/>
  </node>
  <node id="-330" visible="true" lat="43.07709884" lon="-72.64533233">
    <tag k="addr:housenumber" v="2604"/>
    <tag k="addr:street" v="Grafton Road"/>
    <tag k="addr:state" v="VT"/>
    <tag k="ref:vcgi:esiteid" v="261192"/>
  </node>
  <node id="-336" visible="true" lat="43.07678011" lon="-72.64697209">
    <tag k="addr:housenumber" v="2528"/>
    <tag k="addr:street" v="Grafton Road"/>
    <tag k="addr:state" v="VT"/>
    <tag k="ref:vcgi:esiteid" v="261198"/>
  </node>
  <node id="-338" visible="true" lat="43.07621765" lon="-72.64818573">
    <tag k="addr:housenumber" v="2447"/>
    <tag k="addr:street" v="Grafton Road"/>
    <tag k="addr:state" v="VT"/>
    <tag k="ref:vcgi:esiteid" v="261200"/>
  </node>
  <node id="-344" visible="true" lat="43.07575219" lon="-72.64878696">
    <tag k="addr:housenumber" v="2405"/>
    <tag k="addr:street" v="Grafton Road"/>
    <tag k="addr:state" v="VT"/>
    <tag k="ref:vcgi:esiteid" v="261206"/>
  </node>
  <node id="-351" visible="true" lat="43.07364563" lon="-72.6510995">
    <tag k="addr:housenumber" v="2361"/>
    <tag k="addr:street" v="Grafton Road"/>
    <tag k="addr:state" v="VT"/>
    <tag k="ref:vcgi:esiteid" v="261213"/>
  </node>
  <node id="-355" visible="true" lat="43.07299423" lon="-72.6500473">
    <tag k="addr:housenumber" v="2220"/>
    <tag k="addr:street" v="Grafton Road"/>
    <tag k="addr:state" v="VT"/>
    <tag k="ref:vcgi:esiteid" v="261217"/>
  </node>
  <node id="-358" visible="true" lat="43.07217668" lon="-72.6495488">
    <tag k="addr:housenumber" v="69"/>
    <tag k="addr:street" v="East Hill Road"/>
    <tag k="addr:state" v="VT"/>
    <tag k="ref:vcgi:esiteid" v="261220"/>
  </node>
  <node id="-360" visible="true" lat="43.07191938" lon="-72.65145134">
    <tag k="addr:housenumber" v="2113"/>
    <tag k="addr:street" v="Grafton Road"/>
    <tag k="addr:state" v="VT"/>
    <tag k="ref:vcgi:esiteid" v="261222"/>
  </node>
  <node id="-361" visible="true" lat="43.07152176" lon="-72.65270996">
    <tag k="addr:housenumber" v="2045"/>
    <tag k="addr:street" v="Grafton Road"/>
    <tag k="addr:state" v="VT"/>
    <tag k="ref:vcgi:esiteid" v="261223"/>
  </node>
  <node id="-366" visible="true" lat="43.07084673" lon="-72.65309143">
    <tag k="addr:housenumber" v="2002"/>
    <tag k="addr:street" v="Grafton Road"/>
    <tag k="addr:state" v="VT"/>
    <tag k="ref:vcgi:esiteid" v="261228"/>
  </node>
  <node id="-367" visible="true" lat="43.07067108" lon="-72.65549468">
    <tag k="addr:housenumber" v="1895"/>
    <tag k="addr:street" v="Grafton Road"/>
    <tag k="addr:state" v="VT"/>
    <tag k="ref:vcgi:esiteid" v="261229"/>
  </node>
  <node id="-368" visible="true" lat="43.07083782" lon="-72.65790666">
    <tag k="addr:housenumber" v="99"/>
    <tag k="addr:street" v="Simpson Brook Road"/>
    <tag k="addr:state" v="VT"/>
    <tag k="ref:vcgi:esiteid" v="261230"/>
  </node>
  <node id="-369" visible="true" lat="43.07015992" lon="-72.65680053">
    <tag k="addr:housenumber" v="1835"/>
    <tag k="addr:street" v="Grafton Road"/>
    <tag k="addr:state" v="VT"/>
    <tag k="ref:vcgi:esiteid" v="261232"/>
  </node>
  <node id="-370" visible="true" lat="43.07031951" lon="-72.65829554">
    <tag k="addr:housenumber" v="1737"/>
    <tag k="addr:street" v="Grafton Road"/>
    <tag k="addr:state" v="VT"/>
    <tag k="ref:vcgi:esiteid" v="261233"/>
  </node>
  <node id="-372" visible="true" lat="43.07007463" lon="-72.65622871">
    <tag k="addr:housenumber" v="1836"/>
    <tag k="addr:street" v="Grafton Road"/>
    <tag k="addr:state" v="VT"/>
    <tag k="ref:vcgi:esiteid" v="261235"/>
  </node>
  <node id="-373" visible="true" lat="43.0699101" lon="-72.66235891">
    <tag k="addr:housenumber" v="320"/>
    <tag k="addr:street" v="Deer Ridge Road"/>
    <tag k="addr:state" v="VT"/>
    <tag k="ref:vcgi:esiteid" v="261236"/>
  </node>
  <node id="-374" visible="true" lat="43.07010126" lon="-72.65926689">
    <tag k="addr:housenumber" v="1669"/>
    <tag k="addr:street" v="Grafton Road"/>
    <tag k="addr:state" v="VT"/>
    <tag k="ref:vcgi:esiteid" v="261237"/>
  </node>
  <node id="-375" visible="true" lat="43.069729" lon="-72.65693545">
    <tag k="addr:housenumber" v="1796"/>
    <tag k="addr:street" v="Grafton Road"/>
    <tag k="addr:state" v="VT"/>
    <tag k="ref:vcgi:esiteid" v="261238"/>
  </node>
  <node id="-380" visible="true" lat="43.06784057" lon="-72.66394042">
    <tag k="addr:housenumber" v="229"/>
    <tag k="addr:street" v="Deer Ridge Road"/>
    <tag k="addr:state" v="VT"/>
    <tag k="ref:vcgi:esiteid" v="261243"/>
  </node>
  <node id="-382" visible="true" lat="43.06657299" lon="-72.66146045">
    <tag k="addr:housenumber" v="1463"/>
    <tag k="addr:street" v="Grafton Road"/>
    <tag k="addr:state" v="VT"/>
    <tag k="ref:vcgi:esiteid" v="261245"/>
  </node>
  <node id="-386" visible="true" lat="43.06277765" lon="-72.65997479">
    <tag k="addr:housenumber" v="89"/>
    <tag k="addr:street" v="Phoenix Way"/>
    <tag k="addr:state" v="VT"/>
    <tag k="ref:vcgi:esiteid" v="261249"/>
  </node>
  <node id="-387" visible="true" lat="43.06240933" lon="-72.65933106">
    <tag k="addr:housenumber" v="110"/>
    <tag k="addr:street" v="Phoenix Way"/>
    <tag k="addr:state" v="VT"/>
    <tag k="ref:vcgi:esiteid" v="261250"/>
  </node>
  <node id="-388" visible="true" lat="43.06226348" lon="-72.66176605">
    <tag k="addr:housenumber" v="1169"/>
    <tag k="addr:street" v="Grafton Road"/>
    <tag k="addr:state" v="VT"/>
    <tag k="ref:vcgi:esiteid" v="261251"/>
  </node>
  <node id="-389" visible="true" lat="43.06217556" lon="-72.65964832">
    <tag k="addr:housenumber" v="60"/>
    <tag k="addr:street" v="Phoenix Way"/>
    <tag k="addr:state" v="VT"/>
    <tag k="ref:vcgi:esiteid" v="261253"/>
  </node>
  <node id="-393" visible="true" lat="43.06142679" lon="-72.66143445">
    <tag k="addr:housenumber" v="1102"/>
    <tag k="addr:street" v="Grafton Road"/>
    <tag k="addr:state" v="VT"/>
    <tag k="ref:vcgi:esiteid" v="261257"/>
  </node>
  <node id="-398" visible="true" lat="43.06075799" lon="-72.6611323">
    <tag k="addr:housenumber" v="1068"/>
    <tag k="addr:street" v="Grafton Road"/>
    <tag k="addr:state" v="VT"/>
    <tag k="ref:vcgi:esiteid" v="261262"/>
  </node>
  <node id="-400" visible="true" lat="43.06008148" lon="-72.66175842">
    <tag k="addr:housenumber" v="1022"/>
    <tag k="addr:street" v="Grafton Road"/>
    <tag k="addr:state" v="VT"/>
    <tag k="ref:vcgi:esiteid" v="261264"/>
  </node>
  <node id="-401" visible="true" lat="43.05968322" lon="-72.66180215">
    <tag k="addr:housenumber" v="984"/>
    <tag k="addr:street" v="Grafton Road"/>
    <tag k="addr:state" v="VT"/>
    <tag k="ref:vcgi:esiteid" v="261265"/>
  </node>
  <node id="-402" visible="true" lat="43.05936431" lon="-72.66194152">
    <tag k="addr:housenumber" v="970"/>
    <tag k="addr:street" v="Grafton Road"/>
    <tag k="addr:state" v="VT"/>
    <tag k="ref:vcgi:esiteid" v="261266"/>
  </node>
  <node id="-403" visible="true" lat="43.05940778" lon="-72.66264827">
    <tag k="addr:housenumber" v="961"/>
    <tag k="addr:street" v="Grafton Road"/>
    <tag k="addr:state" v="VT"/>
    <tag k="ref:vcgi:esiteid" v="261267"/>
  </node>
  <node id="-405" visible="true" lat="43.05903243" lon="-72.66204834">
    <tag k="addr:housenumber" v="948"/>
    <tag k="addr:street" v="Grafton Road"/>
    <tag k="addr:state" v="VT"/>
    <tag k="ref:vcgi:esiteid" v="261269"/>
  </node>
  <node id="-406" visible="true" lat="43.05851745" lon="-72.66226196">
    <tag k="addr:housenumber" v="910"/>
    <tag k="addr:street" v="Grafton Road"/>
    <tag k="addr:state" v="VT"/>
    <tag k="ref:vcgi:esiteid" v="261270"/>
  </node>
  <node id="-407" visible="true" lat="43.05828412" lon="-72.66305826">
    <tag k="addr:housenumber" v="895"/>
    <tag k="addr:street" v="Grafton Road"/>
    <tag k="addr:state" v="VT"/>
    <tag k="ref:vcgi:esiteid" v="261272"/>
  </node>
  <node id="-409" visible="true" lat="43.05744552" lon="-72.66629028">
    <tag k="addr:housenumber" v="749"/>
    <tag k="addr:street" v="Grafton Road"/>
    <tag k="addr:state" v="VT"/>
    <tag k="ref:vcgi:esiteid" v="261274"/>
  </node>
  <node id="-412" visible="true" lat="43.05699539" lon="-72.66342925">
    <tag k="addr:housenumber" v="791"/>
    <tag k="addr:street" v="Grafton Road"/>
    <tag k="addr:state" v="VT"/>
    <tag k="ref:vcgi:esiteid" v="261277"/>
  </node>
  <node id="-415" visible="true" lat="43.05679299" lon="-72.66311446">
    <tag k="addr:housenumber" v="786"/>
    <tag k="addr:street" v="Grafton Road"/>
    <tag k="addr:state" v="VT"/>
    <tag k="ref:vcgi:esiteid" v="261280"/>
  </node>
  <node id="-418" visible="true" lat="43.05612182" lon="-72.66405486">
    <tag k="addr:housenumber" v="723"/>
    <tag k="addr:street" v="Grafton Road"/>
    <tag k="addr:state" v="VT"/>
    <tag k="ref:vcgi:esiteid" v="261283"/>
  </node>
  <node id="-421" visible="true" lat="43.0556755" lon="-72.66366577">
    <tag k="addr:housenumber" v="704"/>
    <tag k="addr:street" v="Grafton Road"/>
    <tag k="addr:state" v="VT"/>
    <tag k="ref:vcgi:esiteid" v="261286"/>
  </node>
  <node id="-423" visible="true" lat="43.05559921" lon="-72.66453552">
    <tag k="addr:housenumber" v="679"/>
    <tag k="addr:street" v="Grafton Road"/>
    <tag k="addr:state" v="VT"/>
    <tag k="ref:vcgi:esiteid" v="261288"/>
  </node>
  <node id="-425" visible="true" lat="43.05501937" lon="-72.66480255">
    <tag k="addr:housenumber" v="639"/>
    <tag k="addr:street" v="Grafton Road"/>
    <tag k="addr:state" v="VT"/>
    <tag k="ref:vcgi:esiteid" v="261290"/>
  </node>
  <node id="-428" visible="true" lat="43.05472785" lon="-72.66543257">
    <tag k="addr:housenumber" v="609"/>
    <tag k="addr:street" v="Grafton Road"/>
    <tag k="addr:state" v="VT"/>
    <tag k="ref:vcgi:esiteid" v="261293"/>
  </node>
  <node id="-432" visible="true" lat="43.05435185" lon="-72.66542152">
    <tag k="addr:housenumber" v="575"/>
    <tag k="addr:street" v="Grafton Road"/>
    <tag k="addr:state" v="VT"/>
    <tag k="ref:vcgi:esiteid" v="261297"/>
  </node>
  <node id="-434" visible="true" lat="43.05370144" lon="-72.66582887">
    <tag k="addr:housenumber" v="533"/>
    <tag k="addr:street" v="Grafton Road"/>
    <tag k="addr:state" v="VT"/>
    <tag k="ref:vcgi:esiteid" v="261299"/>
  </node>
  <node id="-439" visible="true" lat="43.0525591" lon="-72.66614031">
    <tag k="addr:housenumber" v="457"/>
    <tag k="addr:street" v="Grafton Road"/>
    <tag k="addr:state" v="VT"/>
    <tag k="ref:vcgi:esiteid" v="261304"/>
  </node>
  <node id="-440" visible="true" lat="43.0524691" lon="-72.665687">
    <tag k="addr:housenumber" v="456"/>
    <tag k="addr:street" v="Grafton Road"/>
    <tag k="addr:state" v="VT"/>
    <tag k="ref:vcgi:esiteid" v="261305"/>
  </node>
  <node id="-443" visible="true" lat="43.05202662" lon="-72.66582958">
    <tag k="addr:housenumber" v="428"/>
    <tag k="addr:street" v="Grafton Road"/>
    <tag k="addr:state" v="VT"/>
    <tag k="ref:vcgi:esiteid" v="261308"/>
  </node>
  <node id="-444" visible="true" lat="43.05182848" lon="-72.66652382">
    <tag k="addr:housenumber" v="409"/>
    <tag k="addr:street" v="Grafton Road"/>
    <tag k="addr:state" v="VT"/>
    <tag k="ref:vcgi:esiteid" v="261309"/>
  </node>
  <node id="-448" visible="true" lat="43.05144095" lon="-72.66601066">
    <tag k="addr:housenumber" v="382"/>
    <tag k="addr:street" v="Grafton Road"/>
    <tag k="addr:state" v="VT"/>
    <tag k="ref:vcgi:esiteid" v="261313"/>
  </node>
  <node id="-449" visible="true" lat="43.05119329" lon="-72.66617998">
    <tag k="addr:housenumber" v="366"/>
    <tag k="addr:street" v="Grafton Road"/>
    <tag k="addr:state" v="VT"/>
    <tag k="ref:vcgi:esiteid" v="261314"/>
  </node>
  <node id="-451" visible="true" lat="43.05107385" lon="-72.66623707">
    <tag k="addr:housenumber" v="360"/>
    <tag k="addr:street" v="Grafton Road"/>
    <tag k="addr:state" v="VT"/>
    <tag k="ref:vcgi:esiteid" v="261316"/>
  </node>
  <node id="-453" visible="true" lat="43.05072746" lon="-72.666927">
    <tag k="addr:housenumber" v="325"/>
    <tag k="addr:street" v="Grafton Road"/>
    <tag k="addr:state" v="VT"/>
    <tag k="ref:vcgi:esiteid" v="261318"/>
  </node>
  <node id="-454" visible="true" lat="43.05077699" lon="-72.66638625">
    <tag k="addr:housenumber" v="332"/>
    <tag k="addr:street" v="Grafton Road"/>
    <tag k="addr:state" v="VT"/>
    <tag k="ref:vcgi:esiteid" v="261319"/>
  </node>
  <node id="-458" visible="true" lat="43.0504121" lon="-72.66707297">
    <tag k="addr:housenumber" v="297"/>
    <tag k="addr:street" v="Grafton Road"/>
    <tag k="addr:state" v="VT"/>
    <tag k="ref:vcgi:esiteid" v="261323"/>
  </node>
  <node id="-460" visible="true" lat="43.05036172" lon="-72.66663375">
    <tag k="addr:housenumber" v="298"/>
    <tag k="addr:street" v="Grafton Road"/>
    <tag k="addr:state" v="VT"/>
    <tag k="ref:vcgi:esiteid" v="261325"/>
  </node>
  <node id="-462" visible="true" lat="43.05000686" lon="-72.66666412">
    <tag k="addr:housenumber" v="282"/>
    <tag k="addr:street" v="Grafton Road"/>
    <tag k="addr:state" v="VT"/>
    <tag k="ref:vcgi:esiteid" v="261327"/>
  </node>
  <node id="-465" visible="true" lat="43.04966735" lon="-72.66686248">
    <tag k="addr:housenumber" v="254"/>
    <tag k="addr:street" v="Grafton Road"/>
    <tag k="addr:state" v="VT"/>
    <tag k="ref:vcgi:esiteid" v="261330"/>
  </node>
  <node id="-467" visible="true" lat="43.04910489" lon="-72.66722011">
    <tag k="addr:housenumber" v="208"/>
    <tag k="addr:street" v="Grafton Road"/>
    <tag k="addr:state" v="VT"/>
    <tag k="ref:vcgi:esiteid" v="261332"/>
  </node>
  <node id="-470" visible="true" lat="43.04883918" lon="-72.66800407">
    <tag k="addr:housenumber" v="185"/>
    <tag k="addr:street" v="Grafton Road"/>
    <tag k="addr:state" v="VT"/>
    <tag k="ref:vcgi:esiteid" v="261336"/>
  </node>
  <node id="-471" visible="true" lat="43.04870605" lon="-72.66638183">
    <tag k="addr:housenumber" v="59"/>
    <tag k="addr:street" v="Peaked Mountain Road"/>
    <tag k="addr:state" v="VT"/>
    <tag k="ref:vcgi:esiteid" v="261337"/>
  </node>
  <node id="-472" visible="true" lat="43.04880338" lon="-72.66697285">
    <tag k="addr:housenumber" v="33"/>
    <tag k="addr:street" v="Peaked Mountain Road"/>
    <tag k="addr:state" v="VT"/>
    <tag k="ref:vcgi:esiteid" v="261338"/>
  </node>
  <node id="-474" visible="true" lat="43.04853073" lon="-72.66793718">
    <tag k="addr:housenumber" v="163"/>
    <tag k="addr:street" v="Grafton Road"/>
    <tag k="addr:state" v="VT"/>
    <tag k="ref:vcgi:esiteid" v="261341"/>
  </node>
  <node id="-475" visible="true" lat="43.04856872" lon="-72.66728907">
    <tag k="addr:housenumber" v="170"/>
    <tag k="addr:street" v="Grafton Road"/>
    <tag k="addr:state" v="VT"/>
    <tag k="ref:vcgi:esiteid" v="261342"/>
  </node>
  <node id="-476" visible="true" lat="43.0487728" lon="-72.66403457">
    <tag k="addr:housenumber" v="187"/>
    <tag k="addr:street" v="Peaked Mountain Road"/>
    <tag k="addr:state" v="VT"/>
    <tag k="ref:vcgi:esiteid" v="261343"/>
  </node>
  <node id="-479" visible="true" lat="43.04848228" lon="-72.66556984">
    <tag k="addr:housenumber" v="111"/>
    <tag k="addr:street" v="Peaked Mountain Road"/>
    <tag k="addr:state" v="VT"/>
    <tag k="ref:vcgi:esiteid" v="261346"/>
  </node>
  <node id="-480" visible="true" lat="43.04829025" lon="-72.66741943">
    <tag k="addr:housenumber" v="154"/>
    <tag k="addr:street" v="Grafton Road"/>
    <tag k="addr:state" v="VT"/>
    <tag k="ref:vcgi:esiteid" v="261347"/>
  </node>
  <node id="-481" visible="true" lat="43.0482788" lon="-72.66745758">
    <tag k="addr:housenumber" v="152"/>
    <tag k="addr:street" v="Grafton Road"/>
    <tag k="addr:state" v="VT"/>
    <tag k="ref:vcgi:esiteid" v="261348"/>
  </node>
  <node id="-483" visible="true" lat="43.04826417" lon="-72.66815176">
    <tag k="addr:housenumber" v="133"/>
    <tag k="addr:street" v="Grafton Road"/>
    <tag k="addr:state" v="VT"/>
    <tag k="ref:vcgi:esiteid" v="261350"/>
  </node>
  <node id="-485" visible="true" lat="43.04802322" lon="-72.66751098">
    <tag k="addr:housenumber" v="136"/>
    <tag k="addr:street" v="Grafton Road"/>
    <tag k="addr:state" v="VT"/>
    <tag k="ref:vcgi:esiteid" v="261352"/>
  </node>
  <node id="-487" visible="true" lat="43.04795455" lon="-72.66875457">
    <tag k="addr:housenumber" v="109"/>
    <tag k="addr:street" v="Grafton Road"/>
    <tag k="addr:state" v="VT"/>
    <tag k="ref:vcgi:esiteid" v="261354"/>
  </node>
  <node id="-488" visible="true" lat="43.04788589" lon="-72.66757965">
    <tag k="addr:housenumber" v="126"/>
    <tag k="addr:street" v="Grafton Road"/>
    <tag k="addr:state" v="VT"/>
    <tag k="ref:vcgi:esiteid" v="261355"/>
  </node>
  <node id="-489" visible="true" lat="43.047863" lon="-72.66606903">
    <tag k="addr:housenumber" v="92"/>
    <tag k="addr:street" v="Peaked Mountain Road"/>
    <tag k="addr:state" v="VT"/>
    <tag k="ref:vcgi:esiteid" v="261356"/>
  </node>
  <node id="-490" visible="true" lat="43.04785156" lon="-72.66818237">
    <tag k="addr:housenumber" v="115"/>
    <tag k="addr:street" v="Grafton Road"/>
    <tag k="addr:state" v="VT"/>
    <tag k="ref:vcgi:esiteid" v="261357"/>
  </node>
  <node id="-492" visible="true" lat="43.04786201" lon="-72.66378532">
    <tag k="addr:housenumber" v="219"/>
    <tag k="addr:street" v="Peaked Mountain Road"/>
    <tag k="addr:state" v="VT"/>
    <tag k="ref:vcgi:esiteid" v="261359"/>
  </node>
  <node id="-493" visible="true" lat="43.04769012" lon="-72.66767136">
    <tag k="addr:housenumber" v="108"/>
    <tag k="addr:street" v="Grafton Road"/>
    <tag k="addr:state" v="VT"/>
    <tag k="ref:vcgi:esiteid" v="261360"/>
  </node>
  <node id="-499" visible="true" lat="43.04742178" lon="-72.66853945">
    <tag k="addr:housenumber" v="10"/>
    <tag k="addr:street" v="Common Road"/>
    <tag k="addr:state" v="VT"/>
    <tag k="ref:vcgi:esiteid" v="261367"/>
  </node>
  <node id="-500" visible="true" lat="43.04740315" lon="-72.66828749">
    <tag k="addr:housenumber" v="85"/>
    <tag k="addr:street" v="Grafton Road"/>
    <tag k="addr:state" v="VT"/>
    <tag k="ref:vcgi:esiteid" v="261368"/>
  </node>
  <node id="-502" visible="true" lat="43.04744774" lon="-72.66754">
    <tag k="addr:housenumber" v="92"/>
    <tag k="addr:street" v="Grafton Road"/>
    <tag k="addr:state" v="VT"/>
    <tag k="ref:vcgi:esiteid" v="261370"/>
  </node>
  <node id="-506" visible="true" lat="43.04728792" lon="-72.66785809">
    <tag k="addr:housenumber" v="74"/>
    <tag k="addr:street" v="Grafton Road"/>
    <tag k="addr:state" v="VT"/>
    <tag k="ref:vcgi:esiteid" v="261375"/>
  </node>
  <node id="-507" visible="true" lat="43.04726972" lon="-72.66408038">
    <tag k="addr:housenumber" v="208"/>
    <tag k="addr:street" v="Peaked Mountain Road"/>
    <tag k="addr:state" v="VT"/>
    <tag k="ref:vcgi:esiteid" v="261376"/>
  </node>
  <node id="-512" visible="true" lat="43.04706384" lon="-72.66890166">
    <tag k="addr:housenumber" v="34"/>
    <tag k="addr:street" v="Common Road"/>
    <tag k="addr:state" v="VT"/>
    <tag k="ref:vcgi:esiteid" v="261381"/>
  </node>
  <node id="-517" visible="true" lat="43.04696821" lon="-72.66934844">
    <tag k="addr:housenumber" v="46"/>
    <tag k="addr:street" v="Common Road"/>
    <tag k="addr:state" v="VT"/>
    <tag k="ref:vcgi:esiteid" v="261386"/>
  </node>
  <node id="-518" visible="true" lat="43.04680786" lon="-72.66400227">
    <tag k="addr:housenumber" v="42"/>
    <tag k="addr:street" v="Bellstrom Lane"/>
    <tag k="addr:state" v="VT"/>
    <tag k="ref:vcgi:esiteid" v="261387"/>
  </node>
  <node id="-524" visible="true" lat="43.04665963" lon="-72.66958992">
    <tag k="addr:housenumber" v="66"/>
    <tag k="addr:street" v="Common Road"/>
    <tag k="addr:state" v="VT"/>
    <tag k="ref:vcgi:esiteid" v="261393"/>
  </node>
  <node id="-527" visible="true" lat="43.0464096" lon="-72.66950988">
    <tag k="addr:housenumber" v="70"/>
    <tag k="addr:street" v="Common Road"/>
    <tag k="addr:state" v="VT"/>
    <tag k="ref:vcgi:esiteid" v="261396"/>
  </node>
  <node id="-529" visible="true" lat="43.04642154" lon="-72.66362037">
    <tag k="addr:housenumber" v="72"/>
    <tag k="addr:street" v="Bellstrom Lane"/>
    <tag k="addr:state" v="VT"/>
    <tag k="ref:vcgi:esiteid" v="261398"/>
  </node>
  <node id="-530" visible="true" lat="43.04625879" lon="-72.66939734">
    <tag k="addr:housenumber" v="82"/>
    <tag k="addr:street" v="Common Road"/>
    <tag k="addr:state" v="VT"/>
    <tag k="ref:vcgi:esiteid" v="261399"/>
  </node>
  <node id="-603" visible="true" lat="43.03819105" lon="-72.66589417">
    <tag k="addr:housenumber" v="80"/>
    <tag k="addr:street" v="Depot Road"/>
    <tag k="addr:state" v="VT"/>
    <tag k="ref:vcgi:esiteid" v="261474"/>
  </node>
  <node id="-605" visible="true" lat="43.03799233" lon="-72.66839174">
    <tag k="addr:housenumber" v="254"/>
    <tag k="addr:street" v="Depot Road"/>
    <tag k="addr:state" v="VT"/>
    <tag k="ref:vcgi:esiteid" v="261476"/>
  </node>
  <node id="-607" visible="true" lat="43.03789981" lon="-72.66452898">
    <tag k="addr:housenumber" v="38"/>
    <tag k="addr:street" v="Depot Road"/>
    <tag k="addr:state" v="VT"/>
    <tag k="ref:vcgi:esiteid" v="261478"/>
  </node>
  <node id="-609" visible="true" lat="43.03770477" lon="-72.66769683">
    <tag k="addr:housenumber" v="229"/>
    <tag k="addr:street" v="Depot Road"/>
    <tag k="addr:state" v="VT"/>
    <tag k="ref:vcgi:esiteid" v="261480"/>
  </node>
  <node id="-613" visible="true" lat="43.03763145" lon="-72.66451778">
    <tag k="addr:housenumber" v="45"/>
    <tag k="addr:street" v="Depot Road"/>
    <tag k="addr:state" v="VT"/>
    <tag k="ref:vcgi:esiteid" v="261484"/>
  </node>
  <node id="-616" visible="true" lat="43.03731702" lon="-72.6649694">
    <tag k="addr:housenumber" v="59"/>
    <tag k="addr:street" v="Depot Road"/>
    <tag k="addr:state" v="VT"/>
    <tag k="ref:vcgi:esiteid" v="261487"/>
  </node>
  <node id="-617" visible="true" lat="43.0373788" lon="-72.66259424">
    <tag k="addr:housenumber" v="3733"/>
    <tag k="addr:street" v="East Hill Road"/>
    <tag k="addr:state" v="VT"/>
    <tag k="ref:vcgi:esiteid" v="261488"/>
  </node>
  <node id="-620" visible="true" lat="43.0369433" lon="-72.66539793">
    <tag k="addr:housenumber" v="73"/>
    <tag k="addr:street" v="Depot Road"/>
    <tag k="addr:state" v="VT"/>
    <tag k="ref:vcgi:esiteid" v="261491"/>
  </node>
  <node id="-731" visible="true" lat="43.01944743" lon="-72.65690254">
    <tag k="addr:housenumber" v="1"/>
    <tag k="addr:street" v="Vermont Route 30"/>
    <tag k="addr:state" v="VT"/>
    <tag k="ref:vcgi:esiteid" v="261602"/>
  </node>
  <node id="-736" visible="true" lat="43.07099381" lon="-72.65246268">
    <tag k="addr:housenumber" v="2044"/>
    <tag k="addr:street" v="Grafton Road"/>
    <tag k="addr:state" v="VT"/>
    <tag k="ref:vcgi:esiteid" v="261608"/>
  </node>
  <node id="-772" visible="true" lat="43.0653264" lon="-72.66202671">
    <tag k="addr:housenumber" v="1417"/>
    <tag k="addr:street" v="Grafton Road"/>
    <tag k="addr:state" v="VT"/>
    <tag k="ref:vcgi:esiteid" v="261650"/>
  </node>
  <node id="-799" visible="true" lat="43.07055881" lon="-72.65602077">
    <tag k="addr:housenumber" v="9"/>
    <tag k="addr:street" v="Simpson Brook Road"/>
    <tag k="addr:state" v="VT"/>
    <tag k="ref:vcgi:esiteid" v="261678"/>
  </node>
  <node id="-813" visible="true" lat="43.06428236" lon="-72.66015165">
    <tag k="addr:housenumber" v="1350"/>
    <tag k="addr:street" v="Grafton Road"/>
    <tag k="addr:state" v="VT"/>
    <tag k="ref:vcgi:esiteid" v="261695"/>
  </node>
  <node id="-814" visible="true" lat="43.05795966" lon="-72.66555727">
    <tag k="addr:housenumber" v="235"/>
    <tag k="addr:street" v="Sleeper Lane"/>
    <tag k="addr:state" v="VT"/>
    <tag k="ref:vcgi:esiteid" v="261696"/>
  </node>
  <node id="-823" visible="true" lat="43.05755247" lon="-72.66441617">
    <tag k="addr:housenumber" v="159"/>
    <tag k="addr:street" v="Sleeper Lane"/>
    <tag k="addr:state" v="VT"/>
    <tag k="ref:vcgi:esiteid" v="261707"/>
  </node>
  <node id="-831" visible="true" lat="43.04841205" lon="-72.66456233">
    <tag k="addr:housenumber" v="141"/>
    <tag k="addr:street" v="Peaked Mountain Road"/>
    <tag k="addr:state" v="VT"/>
    <tag k="ref:vcgi:esiteid" v="309976"/>
  </node>
  <node id="-840" visible="true" lat="43.0696505" lon="-72.65705993">
    <tag k="addr:housenumber" v="1794"/>
    <tag k="addr:street" v="Grafton Road"/>
    <tag k="addr:state" v="VT"/>
    <tag k="ref:vcgi:esiteid" v="311152"/>
  </node>
  <node id="-849" visible="true" lat="43.05220685" lon="-72.66660504">
    <tag k="addr:housenumber" v="451"/>
    <tag k="addr:street" v="Grafton Road"/>
    <tag k="addr:state" v="VT"/>
    <tag k="ref:vcgi:esiteid" v="317491"/>
  </node>
  <node id="-850" visible="true" lat="43.05306019" lon="-72.66632986">
    <tag k="addr:housenumber" v="461"/>
    <tag k="addr:street" v="Grafton Road"/>
    <tag k="addr:state" v="VT"/>
    <tag k="ref:vcgi:esiteid" v="317492"/>
  </node>
  <node id="-855" visible="true" lat="43.08798221" lon="-72.64156346">
    <tag k="addr:housenumber" v="3520"/>
    <tag k="addr:street" v="Grafton Road"/>
    <tag k="addr:state" v="VT"/>
    <tag k="ref:vcgi:esiteid" v="318258"/>
  </node>
  <node id="-856" visible="true" lat="43.0874736" lon="-72.6410581">
    <tag k="addr:housenumber" v="3500"/>
    <tag k="addr:street" v="Grafton Road"/>
    <tag k="addr:state" v="VT"/>
    <tag k="ref:vcgi:esiteid" v="318259"/>
  </node>
  <node id="-906" visible="true" lat="43.08021767" lon="-72.64619569">
    <tag k="addr:housenumber" v="2619"/>
    <tag k="addr:street" v="Grafton Road"/>
    <tag k="addr:state" v="VT"/>
    <tag k="ref:vcgi:esiteid" v="344334"/>
  </node>
  <node id="-925" visible="true" lat="43.08701591" lon="-72.64189567">
    <tag k="addr:housenumber" v="3519"/>
    <tag k="addr:street" v="Grafton Road"/>
    <tag k="addr:state" v="VT"/>
    <tag k="ref:vcgi:esiteid" v="454667"/>
  </node>
  <node id="-930" visible="true" lat="43.05973019" lon="-72.66154856">
    <tag k="addr:housenumber" v="986"/>
    <tag k="addr:street" v="Grafton Road"/>
    <tag k="addr:state" v="VT"/>
    <tag k="ref:vcgi:esiteid" v="610646"/>
  </node>
</osm>
