<?xml version="1.0" encoding="UTF-8"?>
<osm version="0.6" generator="JOSM">
  <node id="-148" visible="true" lat="44.9980278" lon="-72.39325714">
    <tag k="addr:city" v="Troy"/>
    <tag k="addr:housenumber" v="9"/>
    <tag k="addr:street" v="Geraldine Avenue"/>
    <tag k="addr:state" v="VT"/>
    <tag k="ref:vcgi:esiteid" v="261767"/>
  </node>
  <node id="-149" visible="true" lat="44.99788666" lon="-72.39355469">
    <tag k="addr:city" v="Troy"/>
    <tag k="addr:housenumber" v="246"/>
    <tag k="addr:street" v="Pine Street"/>
    <tag k="addr:state" v="VT"/>
    <tag k="ref:vcgi:esiteid" v="261768"/>
  </node>
  <node id="-152" visible="true" lat="44.99777984" lon="-72.39268494">
    <tag k="addr:city" v="Troy"/>
    <tag k="addr:housenumber" v="43"/>
    <tag k="addr:street" v="Geraldine Avenue"/>
    <tag k="addr:state" v="VT"/>
    <tag k="ref:vcgi:esiteid" v="261771"/>
  </node>
  <node id="-153" visible="true" lat="44.99777222" lon="-72.39318848">
    <tag k="addr:city" v="Troy"/>
    <tag k="addr:housenumber" v="24"/>
    <tag k="addr:street" v="Geraldine Avenue"/>
    <tag k="addr:state" v="VT"/>
    <tag k="ref:vcgi:esiteid" v="261772"/>
  </node>
  <node id="-156" visible="true" lat="44.99770355" lon="-72.39239502">
    <tag k="addr:city" v="Troy"/>
    <tag k="addr:housenumber" v="59"/>
    <tag k="addr:street" v="Geraldine Avenue"/>
    <tag k="addr:state" v="VT"/>
    <tag k="ref:vcgi:esiteid" v="261775"/>
  </node>
  <node id="-157" visible="true" lat="44.99753357" lon="-72.39362395">
    <tag k="addr:city" v="Troy"/>
    <tag k="addr:housenumber" v="226"/>
    <tag k="addr:street" v="Pine Street"/>
    <tag k="addr:state" v="VT"/>
    <tag k="ref:vcgi:esiteid" v="261776"/>
  </node>
  <node id="-159" visible="true" lat="44.99764237" lon="-72.40532181">
    <tag k="addr:city" v="Troy"/>
    <tag k="addr:housenumber" v="160"/>
    <tag k="addr:street" v="Railroad Street"/>
    <tag k="addr:state" v="VT"/>
    <tag k="ref:vcgi:esiteid" v="261780"/>
  </node>
  <node id="-160" visible="true" lat="44.99753571" lon="-72.39201355">
    <tag k="addr:city" v="Troy"/>
    <tag k="addr:housenumber" v="81"/>
    <tag k="addr:street" v="Geraldine Avenue"/>
    <tag k="addr:state" v="VT"/>
    <tag k="ref:vcgi:esiteid" v="261781"/>
  </node>
  <node id="-164" visible="true" lat="44.99723848" lon="-72.40655482">
    <tag k="addr:city" v="Troy"/>
    <tag k="addr:housenumber" v="179"/>
    <tag k="addr:street" v="Elm Street"/>
    <tag k="addr:state" v="VT"/>
    <tag k="ref:vcgi:esiteid" v="261785"/>
  </node>
  <node id="-165" visible="true" lat="44.99733734" lon="-72.40470123">
    <tag k="addr:city" v="Troy"/>
    <tag k="addr:housenumber" v="126"/>
    <tag k="addr:street" v="Railroad Street"/>
    <tag k="addr:state" v="VT"/>
    <tag k="ref:vcgi:esiteid" v="261786"/>
  </node>
  <node id="-166" visible="true" lat="44.99721548" lon="-72.40549424">
    <tag k="addr:city" v="Troy"/>
    <tag k="addr:housenumber" v="159"/>
    <tag k="addr:street" v="Railroad Street"/>
    <tag k="addr:state" v="VT"/>
    <tag k="ref:vcgi:esiteid" v="261787"/>
  </node>
  <node id="-167" visible="true" lat="44.99723053" lon="-72.40436554">
    <tag k="addr:city" v="Troy"/>
    <tag k="addr:housenumber" v="108"/>
    <tag k="addr:street" v="Railroad Street"/>
    <tag k="addr:state" v="VT"/>
    <tag k="ref:vcgi:esiteid" v="261789"/>
  </node>
  <node id="-169" visible="true" lat="44.99715805" lon="-72.39183807">
    <tag k="addr:city" v="Troy"/>
    <tag k="addr:housenumber" v="100"/>
    <tag k="addr:street" v="Geraldine Avenue"/>
    <tag k="addr:state" v="VT"/>
    <tag k="ref:vcgi:esiteid" v="261792"/>
  </node>
  <node id="-172" visible="true" lat="44.99711621" lon="-72.39086404">
    <tag k="addr:city" v="Troy"/>
    <tag k="addr:housenumber" v="141"/>
    <tag k="addr:street" v="Geraldine Avenue"/>
    <tag k="addr:state" v="VT"/>
    <tag k="ref:vcgi:esiteid" v="261796"/>
  </node>
  <node id="-173" visible="true" lat="44.99707413" lon="-72.403862">
    <tag k="addr:city" v="Troy"/>
    <tag k="addr:housenumber" v="82"/>
    <tag k="addr:street" v="Railroad Street"/>
    <tag k="addr:state" v="VT"/>
    <tag k="ref:vcgi:esiteid" v="261797"/>
  </node>
  <node id="-174" visible="true" lat="44.99695339" lon="-72.39266776">
    <tag k="addr:city" v="Troy"/>
    <tag k="addr:housenumber" v="90"/>
    <tag k="addr:street" v="Pine Grove Drive"/>
    <tag k="addr:state" v="VT"/>
    <tag k="ref:vcgi:esiteid" v="261798"/>
  </node>
  <node id="-175" visible="true" lat="44.99701691" lon="-72.4036026">
    <tag k="addr:city" v="Troy"/>
    <tag k="addr:housenumber" v="68"/>
    <tag k="addr:street" v="Railroad Street"/>
    <tag k="addr:state" v="VT"/>
    <tag k="ref:vcgi:esiteid" v="261799"/>
  </node>
  <node id="-177" visible="true" lat="44.99686143" lon="-72.39234793">
    <tag k="addr:city" v="Troy"/>
    <tag k="addr:housenumber" v="92"/>
    <tag k="addr:street" v="Pine Grove Drive"/>
    <tag k="addr:state" v="VT"/>
    <tag k="ref:vcgi:esiteid" v="261801"/>
  </node>
  <node id="-178" visible="true" lat="44.99691772" lon="-72.40332031">
    <tag k="addr:city" v="Troy"/>
    <tag k="addr:housenumber" v="54"/>
    <tag k="addr:street" v="Railroad Street"/>
    <tag k="addr:state" v="VT"/>
    <tag k="ref:vcgi:esiteid" v="261802"/>
  </node>
  <node id="-179" visible="true" lat="44.99682881" lon="-72.40457944">
    <tag k="addr:city" v="Troy"/>
    <tag k="addr:housenumber" v="87"/>
    <tag k="addr:street" v="School Street"/>
    <tag k="addr:state" v="VT"/>
    <tag k="ref:vcgi:esiteid" v="261803"/>
  </node>
  <node id="-180" visible="true" lat="44.99684906" lon="-72.40313721">
    <tag k="addr:city" v="Troy"/>
    <tag k="addr:housenumber" v="44"/>
    <tag k="addr:street" v="Railroad Street"/>
    <tag k="addr:state" v="VT"/>
    <tag k="ref:vcgi:esiteid" v="261804"/>
  </node>
  <node id="-182" visible="true" lat="44.99681091" lon="-72.40302277">
    <tag k="addr:city" v="Troy"/>
    <tag k="addr:housenumber" v="38"/>
    <tag k="addr:street" v="Railroad Street"/>
    <tag k="addr:state" v="VT"/>
    <tag k="ref:vcgi:esiteid" v="261806"/>
  </node>
  <node id="-183" visible="true" lat="44.99681091" lon="-72.403862">
    <tag k="addr:city" v="Troy"/>
    <tag k="addr:housenumber" v="75"/>
    <tag k="addr:street" v="Railroad Street"/>
    <tag k="addr:state" v="VT"/>
    <tag k="ref:vcgi:esiteid" v="261807"/>
  </node>
  <node id="-185" visible="true" lat="44.9967161" lon="-72.40405278">
    <tag k="addr:city" v="Troy"/>
    <tag k="addr:housenumber" v="80"/>
    <tag k="addr:street" v="School Street"/>
    <tag k="addr:state" v="VT"/>
    <tag k="ref:vcgi:esiteid" v="261810"/>
  </node>
  <node id="-186" visible="true" lat="44.99661681" lon="-72.39286835">
    <tag k="addr:city" v="Troy"/>
    <tag k="addr:housenumber" v="72"/>
    <tag k="addr:street" v="Pine Grove Drive"/>
    <tag k="addr:state" v="VT"/>
    <tag k="ref:vcgi:esiteid" v="261811"/>
  </node>
  <node id="-189" visible="true" lat="44.99668524" lon="-72.40459216">
    <tag k="addr:city" v="Troy"/>
    <tag k="addr:housenumber" v="79"/>
    <tag k="addr:street" v="School Street"/>
    <tag k="addr:state" v="VT"/>
    <tag k="ref:vcgi:esiteid" v="261814"/>
  </node>
  <node id="-190" visible="true" lat="44.99674225" lon="-72.4026947">
    <tag k="addr:city" v="Troy"/>
    <tag k="addr:housenumber" v="20"/>
    <tag k="addr:street" v="Railroad Street"/>
    <tag k="addr:state" v="VT"/>
    <tag k="ref:vcgi:esiteid" v="261815"/>
  </node>
  <node id="-191" visible="true" lat="44.99660379" lon="-72.39257787">
    <tag k="addr:city" v="Troy"/>
    <tag k="addr:housenumber" v="74"/>
    <tag k="addr:street" v="Pine Grove Drive"/>
    <tag k="addr:state" v="VT"/>
    <tag k="ref:vcgi:esiteid" v="261816"/>
  </node>
  <node id="-196" visible="true" lat="44.99664454" lon="-72.40347046">
    <tag k="addr:city" v="Troy"/>
    <tag k="addr:housenumber" v="51"/>
    <tag k="addr:street" v="Railroad Street"/>
    <tag k="addr:state" v="VT"/>
    <tag k="ref:vcgi:esiteid" v="261822"/>
  </node>
  <node id="-199" visible="true" lat="44.9965656" lon="-72.40462522">
    <tag k="addr:city" v="Troy"/>
    <tag k="addr:housenumber" v="69"/>
    <tag k="addr:street" v="School Street"/>
    <tag k="addr:state" v="VT"/>
    <tag k="ref:vcgi:esiteid" v="261826"/>
  </node>
  <node id="-204" visible="true" lat="44.99649811" lon="-72.40301514">
    <tag k="addr:city" v="Troy"/>
    <tag k="addr:housenumber" v="27"/>
    <tag k="addr:street" v="Railroad Street"/>
    <tag k="addr:state" v="VT"/>
    <tag k="ref:vcgi:esiteid" v="261831"/>
  </node>
  <node id="-209" visible="true" lat="44.99618011" lon="-72.40652234">
    <tag k="addr:city" v="Troy"/>
    <tag k="addr:housenumber" v="108"/>
    <tag k="addr:street" v="Elm Street"/>
    <tag k="addr:state" v="VT"/>
    <tag k="ref:vcgi:esiteid" v="261837"/>
  </node>
  <node id="-212" visible="true" lat="44.99628067" lon="-72.40328217">
    <tag k="addr:city" v="Troy"/>
    <tag k="addr:housenumber" v="32"/>
    <tag k="addr:street" v="Main Street"/>
    <tag k="addr:state" v="VT"/>
    <tag k="ref:vcgi:esiteid" v="261842"/>
  </node>
  <node id="-216" visible="true" lat="44.99601108" lon="-72.40659403">
    <tag k="addr:city" v="Troy"/>
    <tag k="addr:housenumber" v="92"/>
    <tag k="addr:street" v="Elm Street"/>
    <tag k="addr:state" v="VT"/>
    <tag k="ref:vcgi:esiteid" v="261847"/>
  </node>
  <node id="-217" visible="true" lat="44.99601297" lon="-72.40445719">
    <tag k="addr:city" v="Troy"/>
    <tag k="addr:housenumber" v="35"/>
    <tag k="addr:street" v="School Street"/>
    <tag k="addr:state" v="VT"/>
    <tag k="ref:vcgi:esiteid" v="261848"/>
  </node>
  <node id="-221" visible="true" lat="44.99577346" lon="-72.3986678">
    <tag k="addr:city" v="Troy"/>
    <tag k="addr:housenumber" v="53"/>
    <tag k="addr:street" v="East Main Street"/>
    <tag k="addr:state" v="VT"/>
    <tag k="ref:vcgi:esiteid" v="261852"/>
  </node>
  <node id="-222" visible="true" lat="44.99600989" lon="-72.40710189">
    <tag k="addr:city" v="Troy"/>
    <tag k="addr:housenumber" v="81"/>
    <tag k="addr:street" v="Elm Street"/>
    <tag k="addr:state" v="VT"/>
    <tag k="ref:vcgi:esiteid" v="261853"/>
  </node>
  <node id="-223" visible="true" lat="44.99606425" lon="-72.40342708">
    <tag k="addr:city" v="Troy"/>
    <tag k="addr:housenumber" v="46"/>
    <tag k="addr:street" v="Main Street"/>
    <tag k="addr:state" v="VT"/>
    <tag k="ref:vcgi:esiteid" v="261854"/>
  </node>
  <node id="-227" visible="true" lat="44.99600364" lon="-72.40363311">
    <tag k="addr:city" v="Troy"/>
    <tag k="addr:housenumber" v="56"/>
    <tag k="addr:street" v="Main Street"/>
    <tag k="addr:state" v="VT"/>
    <tag k="ref:vcgi:esiteid" v="261858"/>
  </node>
  <node id="-231" visible="true" lat="44.99581645" lon="-72.40271905">
    <tag k="addr:city" v="Troy"/>
    <tag k="addr:housenumber" v="25"/>
    <tag k="addr:street" v="Main Street"/>
    <tag k="addr:state" v="VT"/>
    <tag k="ref:vcgi:esiteid" v="261863"/>
  </node>
  <node id="-232" visible="true" lat="44.99587465" lon="-72.40665686">
    <tag k="addr:city" v="Troy"/>
    <tag k="addr:housenumber" v="74"/>
    <tag k="addr:street" v="Elm Street"/>
    <tag k="addr:state" v="VT"/>
    <tag k="ref:vcgi:esiteid" v="261864"/>
  </node>
  <node id="-233" visible="true" lat="44.99577183" lon="-72.40289699">
    <tag k="addr:city" v="Troy"/>
    <tag k="addr:housenumber" v="31"/>
    <tag k="addr:street" v="Main Street"/>
    <tag k="addr:state" v="VT"/>
    <tag k="ref:vcgi:esiteid" v="261866"/>
  </node>
  <node id="-234" visible="true" lat="44.99581449" lon="-72.40718818">
    <tag k="addr:city" v="Troy"/>
    <tag k="addr:housenumber" v="67"/>
    <tag k="addr:street" v="Elm Street"/>
    <tag k="addr:state" v="VT"/>
    <tag k="ref:vcgi:esiteid" v="261868"/>
  </node>
  <node id="-235" visible="true" lat="44.99567435" lon="-72.40316969">
    <tag k="addr:city" v="Troy"/>
    <tag k="addr:housenumber" v="47"/>
    <tag k="addr:street" v="Main Street"/>
    <tag k="addr:state" v="VT"/>
    <tag k="ref:vcgi:esiteid" v="261869"/>
  </node>
  <node id="-236" visible="true" lat="44.99567892" lon="-72.4045591">
    <tag k="addr:city" v="Troy"/>
    <tag k="addr:housenumber" v="120"/>
    <tag k="addr:street" v="Main Street"/>
    <tag k="addr:state" v="VT"/>
    <tag k="ref:vcgi:esiteid" v="261870"/>
  </node>
  <node id="-237" visible="true" lat="44.99571755" lon="-72.40302539">
    <tag k="addr:city" v="Troy"/>
    <tag k="addr:housenumber" v="37"/>
    <tag k="addr:street" v="Main Street"/>
    <tag k="addr:state" v="VT"/>
    <tag k="ref:vcgi:esiteid" v="261871"/>
  </node>
  <node id="-238" visible="true" lat="44.99566333" lon="-72.40675681">
    <tag k="addr:city" v="Troy"/>
    <tag k="addr:housenumber" v="62"/>
    <tag k="addr:street" v="Elm Street"/>
    <tag k="addr:state" v="VT"/>
    <tag k="ref:vcgi:esiteid" v="261872"/>
  </node>
  <node id="-240" visible="true" lat="44.99564046" lon="-72.40732122">
    <tag k="addr:city" v="Troy"/>
    <tag k="addr:housenumber" v="53"/>
    <tag k="addr:street" v="Elm Street"/>
    <tag k="addr:state" v="VT"/>
    <tag k="ref:vcgi:esiteid" v="261874"/>
  </node>
  <node id="-241" visible="true" lat="44.99562243" lon="-72.40342451">
    <tag k="addr:city" v="Troy"/>
    <tag k="addr:housenumber" v="67"/>
    <tag k="addr:street" v="Main Street"/>
    <tag k="addr:state" v="VT"/>
    <tag k="ref:vcgi:esiteid" v="261875"/>
  </node>
  <node id="-243" visible="true" lat="44.99574651" lon="-72.39216753">
    <tag k="addr:city" v="Troy"/>
    <tag k="addr:housenumber" v="105"/>
    <tag k="addr:street" v="Industrial Park Drive"/>
    <tag k="addr:state" v="VT"/>
    <tag k="ref:vcgi:esiteid" v="261877"/>
  </node>
  <node id="-245" visible="true" lat="44.99540715" lon="-72.40379862">
    <tag k="addr:city" v="Troy"/>
    <tag k="addr:housenumber" v="81"/>
    <tag k="addr:street" v="Main Street"/>
    <tag k="addr:state" v="VT"/>
    <tag k="ref:vcgi:esiteid" v="261880"/>
  </node>
  <node id="-247" visible="true" lat="44.9954985" lon="-72.40685123">
    <tag k="addr:city" v="Troy"/>
    <tag k="addr:housenumber" v="48"/>
    <tag k="addr:street" v="Elm Street"/>
    <tag k="addr:state" v="VT"/>
    <tag k="ref:vcgi:esiteid" v="261882"/>
  </node>
  <node id="-251" visible="true" lat="44.99536932" lon="-72.39882468">
    <tag k="addr:city" v="Troy"/>
    <tag k="addr:housenumber" v="86"/>
    <tag k="addr:street" v="East Main Street"/>
    <tag k="addr:state" v="VT"/>
    <tag k="ref:vcgi:esiteid" v="261888"/>
  </node>
  <node id="-252" visible="true" lat="44.99538863" lon="-72.40228659">
    <tag k="addr:city" v="Troy"/>
    <tag k="addr:housenumber" v="31"/>
    <tag k="addr:street" v="South Street"/>
    <tag k="addr:state" v="VT"/>
    <tag k="ref:vcgi:esiteid" v="261889"/>
  </node>
  <node id="-253" visible="true" lat="44.99541725" lon="-72.40741373">
    <tag k="addr:city" v="Troy"/>
    <tag k="addr:housenumber" v="35"/>
    <tag k="addr:street" v="Elm Street"/>
    <tag k="addr:state" v="VT"/>
    <tag k="ref:vcgi:esiteid" v="261890"/>
  </node>
  <node id="-254" visible="true" lat="44.99534616" lon="-72.40342443">
    <tag k="addr:city" v="Troy"/>
    <tag k="addr:housenumber" v="46"/>
    <tag k="addr:street" v="High Street"/>
    <tag k="addr:state" v="VT"/>
    <tag k="ref:vcgi:esiteid" v="261891"/>
  </node>
  <node id="-255" visible="true" lat="44.99551887" lon="-72.40510794">
    <tag k="addr:city" v="Troy"/>
    <tag k="addr:housenumber" v="142"/>
    <tag k="addr:street" v="Main Street"/>
    <tag k="addr:state" v="VT"/>
    <tag k="ref:vcgi:esiteid" v="261892"/>
  </node>
  <node id="-256" visible="true" lat="44.99531716" lon="-72.39854609">
    <tag k="addr:city" v="Troy"/>
    <tag k="addr:housenumber" v="100"/>
    <tag k="addr:street" v="East Main Street"/>
    <tag k="addr:state" v="VT"/>
    <tag k="ref:vcgi:esiteid" v="261893"/>
  </node>
  <node id="-258" visible="true" lat="44.99538422" lon="-72.40418243">
    <tag k="addr:city" v="Troy"/>
    <tag k="addr:housenumber" v="101"/>
    <tag k="addr:street" v="Main Street"/>
    <tag k="addr:state" v="VT"/>
    <tag k="ref:vcgi:esiteid" v="261895"/>
  </node>
  <node id="-260" visible="true" lat="44.99535751" lon="-72.39694214">
    <tag k="addr:city" v="Troy"/>
    <tag k="addr:housenumber" v="193"/>
    <tag k="addr:street" v="East Main Street"/>
    <tag k="addr:state" v="VT"/>
    <tag k="ref:vcgi:esiteid" v="261897"/>
  </node>
  <node id="-263" visible="true" lat="44.99521611" lon="-72.40325167">
    <tag k="addr:city" v="Troy"/>
    <tag k="addr:housenumber" v="34"/>
    <tag k="addr:street" v="High Street"/>
    <tag k="addr:state" v="VT"/>
    <tag k="ref:vcgi:esiteid" v="261901"/>
  </node>
  <node id="-264" visible="true" lat="44.99527359" lon="-72.40438843">
    <tag k="addr:city" v="Troy"/>
    <tag k="addr:housenumber" v="113"/>
    <tag k="addr:street" v="Main Street"/>
    <tag k="addr:state" v="VT"/>
    <tag k="ref:vcgi:esiteid" v="261902"/>
  </node>
  <node id="-265" visible="true" lat="44.99526596" lon="-72.40471649">
    <tag k="addr:city" v="Troy"/>
    <tag k="addr:housenumber" v="129"/>
    <tag k="addr:street" v="Main Street"/>
    <tag k="addr:state" v="VT"/>
    <tag k="ref:vcgi:esiteid" v="261903"/>
  </node>
  <node id="-266" visible="true" lat="44.99525842" lon="-72.40786337">
    <tag k="addr:city" v="Troy"/>
    <tag k="addr:housenumber" v="20"/>
    <tag k="addr:street" v="North Jay Road"/>
    <tag k="addr:state" v="VT"/>
    <tag k="ref:vcgi:esiteid" v="261904"/>
  </node>
  <node id="-267" visible="true" lat="44.99519471" lon="-72.39795915">
    <tag k="addr:city" v="Troy"/>
    <tag k="addr:housenumber" v="138"/>
    <tag k="addr:street" v="East Main Street"/>
    <tag k="addr:state" v="VT"/>
    <tag k="ref:vcgi:esiteid" v="261905"/>
  </node>
  <node id="-268" visible="true" lat="44.99540749" lon="-72.4059518">
    <tag k="addr:city" v="Troy"/>
    <tag k="addr:housenumber" v="178"/>
    <tag k="addr:street" v="Main Street"/>
    <tag k="addr:state" v="VT"/>
    <tag k="ref:vcgi:esiteid" v="261906"/>
  </node>
  <node id="-270" visible="true" lat="44.99518573" lon="-72.40068904">
    <tag k="addr:city" v="Troy"/>
    <tag k="addr:housenumber" v="364"/>
    <tag k="addr:street" v="North Pleasant Street"/>
    <tag k="addr:state" v="VT"/>
    <tag k="ref:vcgi:esiteid" v="261909"/>
  </node>
  <node id="-271" visible="true" lat="44.99518204" lon="-72.40493774">
    <tag k="addr:city" v="Troy"/>
    <tag k="addr:housenumber" v="141"/>
    <tag k="addr:street" v="Main Street"/>
    <tag k="addr:state" v="VT"/>
    <tag k="ref:vcgi:esiteid" v="261910"/>
  </node>
  <node id="-272" visible="true" lat="44.99516678" lon="-72.39633942">
    <tag k="addr:city" v="Troy"/>
    <tag k="addr:housenumber" v="209"/>
    <tag k="addr:street" v="East Main Street"/>
    <tag k="addr:state" v="VT"/>
    <tag k="ref:vcgi:esiteid" v="261911"/>
  </node>
  <node id="-274" visible="true" lat="44.99508747" lon="-72.40099362">
    <tag k="addr:city" v="Troy"/>
    <tag k="addr:housenumber" v="352"/>
    <tag k="addr:street" v="North Pleasant Street"/>
    <tag k="addr:state" v="VT"/>
    <tag k="ref:vcgi:esiteid" v="261913"/>
  </node>
  <node id="-276" visible="true" lat="44.99511811" lon="-72.40703229">
    <tag k="addr:city" v="Troy"/>
    <tag k="addr:housenumber" v="20"/>
    <tag k="addr:street" v="Elm Street"/>
    <tag k="addr:state" v="VT"/>
    <tag k="ref:vcgi:esiteid" v="261916"/>
  </node>
  <node id="-277" visible="true" lat="44.995121" lon="-72.3960495">
    <tag k="addr:city" v="Troy"/>
    <tag k="addr:housenumber" v="227"/>
    <tag k="addr:street" v="East Main Street"/>
    <tag k="addr:state" v="VT"/>
    <tag k="ref:vcgi:esiteid" v="261918"/>
  </node>
  <node id="-278" visible="true" lat="44.99511595" lon="-72.40218274">
    <tag k="addr:city" v="Troy"/>
    <tag k="addr:housenumber" v="293"/>
    <tag k="addr:street" v="North Pleasant Street"/>
    <tag k="addr:state" v="VT"/>
    <tag k="ref:vcgi:esiteid" v="261919"/>
  </node>
  <node id="-281" visible="true" lat="44.99494716" lon="-72.40524963">
    <tag k="addr:city" v="Troy"/>
    <tag k="addr:housenumber" v="155"/>
    <tag k="addr:street" v="Main Street"/>
    <tag k="addr:state" v="VT"/>
    <tag k="ref:vcgi:esiteid" v="261922"/>
  </node>
  <node id="-282" visible="true" lat="44.99507141" lon="-72.40123749">
    <tag k="addr:city" v="Troy"/>
    <tag k="addr:housenumber" v="336"/>
    <tag k="addr:street" v="North Pleasant Street"/>
    <tag k="addr:state" v="VT"/>
    <tag k="ref:vcgi:esiteid" v="261923"/>
  </node>
  <node id="-283" visible="true" lat="44.9950676" lon="-72.40044403">
    <tag k="addr:city" v="Troy"/>
    <tag k="addr:housenumber" v="137"/>
    <tag k="addr:street" v="Nason Terrace"/>
    <tag k="addr:state" v="VT"/>
    <tag k="ref:vcgi:esiteid" v="261924"/>
  </node>
  <node id="-286" visible="true" lat="44.99495718" lon="-72.40267712">
    <tag k="addr:city" v="Troy"/>
    <tag k="addr:housenumber" v="265"/>
    <tag k="addr:street" v="North Pleasant Street"/>
    <tag k="addr:state" v="VT"/>
    <tag k="ref:vcgi:esiteid" v="261928"/>
  </node>
  <node id="-287" visible="true" lat="44.99513016" lon="-72.40640494">
    <tag k="addr:city" v="Troy"/>
    <tag k="addr:housenumber" v="212"/>
    <tag k="addr:street" v="Main Street"/>
    <tag k="addr:state" v="VT"/>
    <tag k="ref:vcgi:esiteid" v="261930"/>
  </node>
  <node id="-288" visible="true" lat="44.9949545" lon="-72.40163325">
    <tag k="addr:city" v="Troy"/>
    <tag k="addr:housenumber" v="316"/>
    <tag k="addr:street" v="North Pleasant Street"/>
    <tag k="addr:state" v="VT"/>
    <tag k="ref:vcgi:esiteid" v="261931"/>
  </node>
  <node id="-289" visible="true" lat="44.99492841" lon="-72.39701175">
    <tag k="addr:city" v="Troy"/>
    <tag k="addr:housenumber" v="182"/>
    <tag k="addr:street" v="East Main Street"/>
    <tag k="addr:state" v="VT"/>
    <tag k="ref:vcgi:esiteid" v="261932"/>
  </node>
  <node id="-291" visible="true" lat="44.99500653" lon="-72.40706012">
    <tag k="addr:city" v="Troy"/>
    <tag k="addr:housenumber" v="10"/>
    <tag k="addr:street" v="Elm Street"/>
    <tag k="addr:state" v="VT"/>
    <tag k="ref:vcgi:esiteid" v="261934"/>
  </node>
  <node id="-292" visible="true" lat="44.99485907" lon="-72.40191742">
    <tag k="addr:city" v="Troy"/>
    <tag k="addr:housenumber" v="306"/>
    <tag k="addr:street" v="North Pleasant Street"/>
    <tag k="addr:state" v="VT"/>
    <tag k="ref:vcgi:esiteid" v="261935"/>
  </node>
  <node id="-293" visible="true" lat="44.99498749" lon="-72.40666199">
    <tag k="addr:city" v="Troy"/>
    <tag k="addr:housenumber" v="224"/>
    <tag k="addr:street" v="Main Street"/>
    <tag k="addr:state" v="VT"/>
    <tag k="ref:vcgi:esiteid" v="261936"/>
  </node>
  <node id="-294" visible="true" lat="44.99495532" lon="-72.40303969">
    <tag k="addr:city" v="Troy"/>
    <tag k="addr:housenumber" v="12"/>
    <tag k="addr:street" v="High Street"/>
    <tag k="addr:state" v="VT"/>
    <tag k="ref:vcgi:esiteid" v="261937"/>
  </node>
  <node id="-295" visible="true" lat="44.99496841" lon="-72.39316559">
    <tag k="addr:city" v="Troy"/>
    <tag k="addr:housenumber" v="51"/>
    <tag k="addr:street" v="Industrial Park Drive"/>
    <tag k="addr:state" v="VT"/>
    <tag k="ref:vcgi:esiteid" v="261938"/>
  </node>
  <node id="-296" visible="true" lat="44.99492501" lon="-72.39675713">
    <tag k="addr:city" v="Troy"/>
    <tag k="addr:housenumber" v="196"/>
    <tag k="addr:street" v="East Main Street"/>
    <tag k="addr:state" v="VT"/>
    <tag k="ref:vcgi:esiteid" v="261939"/>
  </node>
  <node id="-297" visible="true" lat="44.99493549" lon="-72.40280814">
    <tag k="addr:city" v="Troy"/>
    <tag k="addr:housenumber" v="259"/>
    <tag k="addr:street" v="North Pleasant Street"/>
    <tag k="addr:state" v="VT"/>
    <tag k="ref:vcgi:esiteid" v="261940"/>
  </node>
  <node id="-298" visible="true" lat="44.99493408" lon="-72.40019989">
    <tag k="addr:city" v="Troy"/>
    <tag k="addr:housenumber" v="128"/>
    <tag k="addr:street" v="Nason Terrace"/>
    <tag k="addr:state" v="VT"/>
    <tag k="ref:vcgi:esiteid" v="261941"/>
  </node>
  <node id="-299" visible="true" lat="44.99486099" lon="-72.40579483">
    <tag k="addr:city" v="Troy"/>
    <tag k="addr:housenumber" v="189"/>
    <tag k="addr:street" v="Main Street"/>
    <tag k="addr:state" v="VT"/>
    <tag k="ref:vcgi:esiteid" v="261942"/>
  </node>
  <node id="-300" visible="true" lat="44.99482519" lon="-72.39661729">
    <tag k="addr:city" v="Troy"/>
    <tag k="addr:housenumber" v="204"/>
    <tag k="addr:street" v="East Main Street"/>
    <tag k="addr:state" v="VT"/>
    <tag k="ref:vcgi:esiteid" v="261943"/>
  </node>
  <node id="-301" visible="true" lat="44.99482269" lon="-72.40221583">
    <tag k="addr:city" v="Troy"/>
    <tag k="addr:housenumber" v="294"/>
    <tag k="addr:street" v="North Pleasant Street"/>
    <tag k="addr:state" v="VT"/>
    <tag k="ref:vcgi:esiteid" v="261944"/>
  </node>
  <node id="-302" visible="true" lat="44.99489659" lon="-72.40557359">
    <tag k="addr:city" v="Troy"/>
    <tag k="addr:housenumber" v="49"/>
    <tag k="addr:street" v="Robinson Avenue"/>
    <tag k="addr:state" v="VT"/>
    <tag k="ref:vcgi:esiteid" v="261945"/>
  </node>
  <node id="-303" visible="true" lat="44.99484295" lon="-72.40349192">
    <tag k="addr:city" v="Troy"/>
    <tag k="addr:housenumber" v="217"/>
    <tag k="addr:street" v="North Pleasant Street"/>
    <tag k="addr:state" v="VT"/>
    <tag k="ref:vcgi:esiteid" v="261946"/>
  </node>
  <node id="-304" visible="true" lat="44.99485397" lon="-72.39990997">
    <tag k="addr:city" v="Troy"/>
    <tag k="addr:housenumber" v="148"/>
    <tag k="addr:street" v="Nason Terrace"/>
    <tag k="addr:state" v="VT"/>
    <tag k="ref:vcgi:esiteid" v="261947"/>
  </node>
  <node id="-305" visible="true" lat="44.99482346" lon="-72.39536286">
    <tag k="addr:city" v="Troy"/>
    <tag k="addr:housenumber" v="265"/>
    <tag k="addr:street" v="East Main Street"/>
    <tag k="addr:state" v="VT"/>
    <tag k="ref:vcgi:esiteid" v="261948"/>
  </node>
  <node id="-306" visible="true" lat="44.99471078" lon="-72.3962532">
    <tag k="addr:city" v="Troy"/>
    <tag k="addr:housenumber" v="224"/>
    <tag k="addr:street" v="East Main Street"/>
    <tag k="addr:state" v="VT"/>
    <tag k="ref:vcgi:esiteid" v="261949"/>
  </node>
  <node id="-307" visible="true" lat="44.99472797" lon="-72.4061942">
    <tag k="addr:city" v="Troy"/>
    <tag k="addr:housenumber" v="205"/>
    <tag k="addr:street" v="Main Street"/>
    <tag k="addr:state" v="VT"/>
    <tag k="ref:vcgi:esiteid" v="261950"/>
  </node>
  <node id="-308" visible="true" lat="44.99472653" lon="-72.40085865">
    <tag k="addr:city" v="Troy"/>
    <tag k="addr:housenumber" v="34"/>
    <tag k="addr:street" v="Nason Terrace"/>
    <tag k="addr:state" v="VT"/>
    <tag k="ref:vcgi:esiteid" v="261952"/>
  </node>
  <node id="-309" visible="true" lat="44.99478928" lon="-72.39472262">
    <tag k="addr:city" v="Troy"/>
    <tag k="addr:housenumber" v="289"/>
    <tag k="addr:street" v="East Main Street"/>
    <tag k="addr:state" v="VT"/>
    <tag k="ref:vcgi:esiteid" v="261953"/>
  </node>
  <node id="-310" visible="true" lat="44.99468558" lon="-72.4026575">
    <tag k="addr:city" v="Troy"/>
    <tag k="addr:housenumber" v="252"/>
    <tag k="addr:street" v="North Pleasant Street"/>
    <tag k="addr:state" v="VT"/>
    <tag k="ref:vcgi:esiteid" v="261954"/>
  </node>
  <node id="-311" visible="true" lat="44.99461214" lon="-72.39607207">
    <tag k="addr:city" v="Troy"/>
    <tag k="addr:housenumber" v="238"/>
    <tag k="addr:street" v="East Main Street"/>
    <tag k="addr:state" v="VT"/>
    <tag k="ref:vcgi:esiteid" v="261955"/>
  </node>
  <node id="-312" visible="true" lat="44.99460514" lon="-72.39464421">
    <tag k="addr:city" v="Troy"/>
    <tag k="addr:housenumber" v="293"/>
    <tag k="addr:street" v="East Main Street"/>
    <tag k="addr:state" v="VT"/>
    <tag k="ref:vcgi:esiteid" v="261956"/>
  </node>
  <node id="-313" visible="true" lat="44.99468994" lon="-72.40389252">
    <tag k="addr:city" v="Troy"/>
    <tag k="addr:housenumber" v="203"/>
    <tag k="addr:street" v="North Pleasant Street"/>
    <tag k="addr:state" v="VT"/>
    <tag k="ref:vcgi:esiteid" v="261957"/>
  </node>
  <node id="-314" visible="true" lat="44.99443808" lon="-72.4078858">
    <tag k="addr:city" v="Troy"/>
    <tag k="addr:housenumber" v="18"/>
    <tag k="addr:street" v="Highland Avenue"/>
    <tag k="addr:state" v="VT"/>
    <tag k="ref:vcgi:esiteid" v="261959"/>
  </node>
  <node id="-315" visible="true" lat="44.9945984" lon="-72.40665445">
    <tag k="addr:city" v="Troy"/>
    <tag k="addr:housenumber" v="233"/>
    <tag k="addr:street" v="Main Street"/>
    <tag k="addr:state" v="VT"/>
    <tag k="ref:vcgi:esiteid" v="261960"/>
  </node>
  <node id="-316" visible="true" lat="44.99448535" lon="-72.40348439">
    <tag k="addr:city" v="Troy"/>
    <tag k="addr:housenumber" v="224"/>
    <tag k="addr:street" v="North Pleasant Street"/>
    <tag k="addr:state" v="VT"/>
    <tag k="ref:vcgi:esiteid" v="261961"/>
  </node>
  <node id="-317" visible="true" lat="44.99460438" lon="-72.39578009">
    <tag k="addr:city" v="Troy"/>
    <tag k="addr:housenumber" v="250"/>
    <tag k="addr:street" v="East Main Street"/>
    <tag k="addr:state" v="VT"/>
    <tag k="ref:vcgi:esiteid" v="261962"/>
  </node>
  <node id="-318" visible="true" lat="44.99462509" lon="-72.40013122">
    <tag k="addr:city" v="Troy"/>
    <tag k="addr:housenumber" v="110"/>
    <tag k="addr:street" v="Nason Terrace"/>
    <tag k="addr:state" v="VT"/>
    <tag k="ref:vcgi:esiteid" v="261963"/>
  </node>
  <node id="-319" visible="true" lat="44.99462509" lon="-72.40437317">
    <tag k="addr:city" v="Troy"/>
    <tag k="addr:housenumber" v="179"/>
    <tag k="addr:street" v="North Pleasant Street"/>
    <tag k="addr:state" v="VT"/>
    <tag k="ref:vcgi:esiteid" v="261964"/>
  </node>
  <node id="-320" visible="true" lat="44.9947178" lon="-72.404945">
    <tag k="addr:city" v="Troy"/>
    <tag k="addr:housenumber" v="24"/>
    <tag k="addr:street" v="Robinson Avenue"/>
    <tag k="addr:state" v="VT"/>
    <tag k="ref:vcgi:esiteid" v="261965"/>
  </node>
  <node id="-321" visible="true" lat="44.99455849" lon="-72.40306648">
    <tag k="addr:city" v="Troy"/>
    <tag k="addr:housenumber" v="230"/>
    <tag k="addr:street" v="North Pleasant Street"/>
    <tag k="addr:state" v="VT"/>
    <tag k="ref:vcgi:esiteid" v="261967"/>
  </node>
  <node id="-322" visible="true" lat="44.99450112" lon="-72.40697239">
    <tag k="addr:city" v="Troy"/>
    <tag k="addr:housenumber" v="245"/>
    <tag k="addr:street" v="Main Street"/>
    <tag k="addr:state" v="VT"/>
    <tag k="ref:vcgi:esiteid" v="261969"/>
  </node>
  <node id="-323" visible="true" lat="44.99451111" lon="-72.40460211">
    <tag k="addr:city" v="Troy"/>
    <tag k="addr:housenumber" v="169"/>
    <tag k="addr:street" v="North Pleasant Street"/>
    <tag k="addr:state" v="VT"/>
    <tag k="ref:vcgi:esiteid" v="261970"/>
  </node>
  <node id="-324" visible="true" lat="44.99449158" lon="-72.40037537">
    <tag k="addr:city" v="Troy"/>
    <tag k="addr:housenumber" v="95"/>
    <tag k="addr:street" v="Nason Terrace"/>
    <tag k="addr:state" v="VT"/>
    <tag k="ref:vcgi:esiteid" v="261971"/>
  </node>
  <node id="-325" visible="true" lat="44.99433878" lon="-72.40743797">
    <tag k="addr:city" v="Troy"/>
    <tag k="addr:housenumber" v="267"/>
    <tag k="addr:street" v="Main Street"/>
    <tag k="addr:state" v="VT"/>
    <tag k="ref:vcgi:esiteid" v="261972"/>
  </node>
  <node id="-327" visible="true" lat="44.99439929" lon="-72.40526593">
    <tag k="addr:city" v="Troy"/>
    <tag k="addr:housenumber" v="15"/>
    <tag k="addr:street" v="Robinson Avenue"/>
    <tag k="addr:state" v="VT"/>
    <tag k="ref:vcgi:esiteid" v="261974"/>
  </node>
  <node id="-328" visible="true" lat="44.99443817" lon="-72.40483093">
    <tag k="addr:city" v="Troy"/>
    <tag k="addr:housenumber" v="155"/>
    <tag k="addr:street" v="North Pleasant Street"/>
    <tag k="addr:state" v="VT"/>
    <tag k="ref:vcgi:esiteid" v="261975"/>
  </node>
  <node id="-329" visible="true" lat="44.99443054" lon="-72.39383698">
    <tag k="addr:city" v="Troy"/>
    <tag k="addr:housenumber" v="345"/>
    <tag k="addr:street" v="East Main Street"/>
    <tag k="addr:state" v="VT"/>
    <tag k="ref:vcgi:esiteid" v="261976"/>
  </node>
  <node id="-330" visible="true" lat="44.99436951" lon="-72.39370728">
    <tag k="addr:city" v="Troy"/>
    <tag k="addr:housenumber" v="353"/>
    <tag k="addr:street" v="East Main Street"/>
    <tag k="addr:state" v="VT"/>
    <tag k="ref:vcgi:esiteid" v="261978"/>
  </node>
  <node id="-331" visible="true" lat="44.9942242" lon="-72.39493985">
    <tag k="addr:city" v="Troy"/>
    <tag k="addr:housenumber" v="294"/>
    <tag k="addr:street" v="East Main Street"/>
    <tag k="addr:state" v="VT"/>
    <tag k="ref:vcgi:esiteid" v="261979"/>
  </node>
  <node id="-332" visible="true" lat="44.9944305" lon="-72.40714761">
    <tag k="addr:city" v="Troy"/>
    <tag k="addr:housenumber" v="263"/>
    <tag k="addr:street" v="Main Street"/>
    <tag k="addr:state" v="VT"/>
    <tag k="ref:vcgi:esiteid" v="261980"/>
  </node>
  <node id="-334" visible="true" lat="44.99429321" lon="-72.39320373">
    <tag k="addr:city" v="Troy"/>
    <tag k="addr:housenumber" v="2"/>
    <tag k="addr:street" v="Industrial Park Drive"/>
    <tag k="addr:state" v="VT"/>
    <tag k="ref:vcgi:esiteid" v="261982"/>
  </node>
  <node id="-335" visible="true" lat="44.99439377" lon="-72.40371506">
    <tag k="addr:city" v="Troy"/>
    <tag k="addr:housenumber" v="17"/>
    <tag k="addr:street" v="Blair Road"/>
    <tag k="addr:state" v="VT"/>
    <tag k="ref:vcgi:esiteid" v="261983"/>
  </node>
  <node id="-336" visible="true" lat="44.99422231" lon="-72.40437119">
    <tag k="addr:city" v="Troy"/>
    <tag k="addr:housenumber" v="172"/>
    <tag k="addr:street" v="North Pleasant Street"/>
    <tag k="addr:state" v="VT"/>
    <tag k="ref:vcgi:esiteid" v="261986"/>
  </node>
  <node id="-337" visible="true" lat="44.99420079" lon="-72.3945801">
    <tag k="addr:city" v="Troy"/>
    <tag k="addr:housenumber" v="322"/>
    <tag k="addr:street" v="East Main Street"/>
    <tag k="addr:state" v="VT"/>
    <tag k="ref:vcgi:esiteid" v="261987"/>
  </node>
  <node id="-339" visible="true" lat="44.9942749" lon="-72.4058608">
    <tag k="addr:city" v="Troy"/>
    <tag k="addr:housenumber" v="101"/>
    <tag k="addr:street" v="North Pleasant Street"/>
    <tag k="addr:state" v="VT"/>
    <tag k="ref:vcgi:esiteid" v="261989"/>
  </node>
  <node id="-340" visible="true" lat="44.99421692" lon="-72.40461731">
    <tag k="addr:city" v="Troy"/>
    <tag k="addr:housenumber" v="160"/>
    <tag k="addr:street" v="North Pleasant Street"/>
    <tag k="addr:state" v="VT"/>
    <tag k="ref:vcgi:esiteid" v="261990"/>
  </node>
  <node id="-341" visible="true" lat="44.99420547" lon="-72.40058899">
    <tag k="addr:city" v="Troy"/>
    <tag k="addr:housenumber" v="72"/>
    <tag k="addr:street" v="Nason Terrace"/>
    <tag k="addr:state" v="VT"/>
    <tag k="ref:vcgi:esiteid" v="261991"/>
  </node>
  <node id="-342" visible="true" lat="44.99422266" lon="-72.40616361">
    <tag k="addr:city" v="Troy"/>
    <tag k="addr:housenumber" v="95"/>
    <tag k="addr:street" v="North Pleasant Street"/>
    <tag k="addr:state" v="VT"/>
    <tag k="ref:vcgi:esiteid" v="261992"/>
  </node>
  <node id="-343" visible="true" lat="44.99410569" lon="-72.3942087">
    <tag k="addr:city" v="Troy"/>
    <tag k="addr:housenumber" v="330"/>
    <tag k="addr:street" v="East Main Street"/>
    <tag k="addr:state" v="VT"/>
    <tag k="ref:vcgi:esiteid" v="261993"/>
  </node>
  <node id="-344" visible="true" lat="44.99413144" lon="-72.40482085">
    <tag k="addr:city" v="Troy"/>
    <tag k="addr:housenumber" v="150"/>
    <tag k="addr:street" v="North Pleasant Street"/>
    <tag k="addr:state" v="VT"/>
    <tag k="ref:vcgi:esiteid" v="261994"/>
  </node>
  <node id="-345" visible="true" lat="44.99407349" lon="-72.39401278">
    <tag k="addr:city" v="Troy"/>
    <tag k="addr:housenumber" v="340"/>
    <tag k="addr:street" v="East Main Street"/>
    <tag k="addr:state" v="VT"/>
    <tag k="ref:vcgi:esiteid" v="261995"/>
  </node>
  <node id="-346" visible="true" lat="44.99416579" lon="-72.4064484">
    <tag k="addr:city" v="Troy"/>
    <tag k="addr:housenumber" v="77"/>
    <tag k="addr:street" v="North Pleasant Street"/>
    <tag k="addr:state" v="VT"/>
    <tag k="ref:vcgi:esiteid" v="261996"/>
  </node>
  <node id="-347" visible="true" lat="44.99403439" lon="-72.40750637">
    <tag k="addr:city" v="Troy"/>
    <tag k="addr:housenumber" v="53"/>
    <tag k="addr:street" v="Highland Avenue"/>
    <tag k="addr:state" v="VT"/>
    <tag k="ref:vcgi:esiteid" v="261997"/>
  </node>
  <node id="-348" visible="true" lat="44.99402587" lon="-72.39381146">
    <tag k="addr:city" v="Troy"/>
    <tag k="addr:housenumber" v="352"/>
    <tag k="addr:street" v="East Main Street"/>
    <tag k="addr:state" v="VT"/>
    <tag k="ref:vcgi:esiteid" v="261998"/>
  </node>
  <node id="-350" visible="true" lat="44.99404144" lon="-72.40523529">
    <tag k="addr:city" v="Troy"/>
    <tag k="addr:housenumber" v="126"/>
    <tag k="addr:street" v="North Pleasant Street"/>
    <tag k="addr:state" v="VT"/>
    <tag k="ref:vcgi:esiteid" v="262000"/>
  </node>
  <node id="-353" visible="true" lat="44.99380781" lon="-72.39260746">
    <tag k="addr:city" v="Troy"/>
    <tag k="addr:housenumber" v="408"/>
    <tag k="addr:street" v="East Main Street"/>
    <tag k="addr:state" v="VT"/>
    <tag k="ref:vcgi:esiteid" v="262003"/>
  </node>
  <node id="-354" visible="true" lat="44.99398086" lon="-72.40549729">
    <tag k="addr:city" v="Troy"/>
    <tag k="addr:housenumber" v="116"/>
    <tag k="addr:street" v="North Pleasant Street"/>
    <tag k="addr:state" v="VT"/>
    <tag k="ref:vcgi:esiteid" v="262004"/>
  </node>
  <node id="-355" visible="true" lat="44.99391466" lon="-72.40396566">
    <tag k="addr:city" v="Troy"/>
    <tag k="addr:housenumber" v="40"/>
    <tag k="addr:street" v="Blair Road"/>
    <tag k="addr:state" v="VT"/>
    <tag k="ref:vcgi:esiteid" v="262006"/>
  </node>
  <node id="-356" visible="true" lat="44.99401475" lon="-72.40694675">
    <tag k="addr:city" v="Troy"/>
    <tag k="addr:housenumber" v="47"/>
    <tag k="addr:street" v="North Pleasant Street"/>
    <tag k="addr:state" v="VT"/>
    <tag k="ref:vcgi:esiteid" v="262008"/>
  </node>
  <node id="-357" visible="true" lat="44.99386616" lon="-72.39308028">
    <tag k="addr:city" v="Troy"/>
    <tag k="addr:housenumber" v="386"/>
    <tag k="addr:street" v="East Main Street"/>
    <tag k="addr:state" v="VT"/>
    <tag k="ref:vcgi:esiteid" v="262009"/>
  </node>
  <node id="-358" visible="true" lat="44.99390879" lon="-72.40579231">
    <tag k="addr:city" v="Troy"/>
    <tag k="addr:housenumber" v="100"/>
    <tag k="addr:street" v="North Pleasant Street"/>
    <tag k="addr:state" v="VT"/>
    <tag k="ref:vcgi:esiteid" v="262010"/>
  </node>
  <node id="-359" visible="true" lat="44.99384095" lon="-72.3928946">
    <tag k="addr:city" v="Troy"/>
    <tag k="addr:housenumber" v="400"/>
    <tag k="addr:street" v="East Main Street"/>
    <tag k="addr:state" v="VT"/>
    <tag k="ref:vcgi:esiteid" v="262011"/>
  </node>
  <node id="-360" visible="true" lat="44.99383996" lon="-72.40608225">
    <tag k="addr:city" v="Troy"/>
    <tag k="addr:housenumber" v="90"/>
    <tag k="addr:street" v="North Pleasant Street"/>
    <tag k="addr:state" v="VT"/>
    <tag k="ref:vcgi:esiteid" v="262012"/>
  </node>
  <node id="-361" visible="true" lat="44.99396235" lon="-72.40719592">
    <tag k="addr:city" v="Troy"/>
    <tag k="addr:housenumber" v="35"/>
    <tag k="addr:street" v="North Pleasant Street"/>
    <tag k="addr:state" v="VT"/>
    <tag k="ref:vcgi:esiteid" v="262013"/>
  </node>
  <node id="-362" visible="true" lat="44.9939307" lon="-72.4032344">
    <tag k="addr:city" v="Troy"/>
    <tag k="addr:housenumber" v="55"/>
    <tag k="addr:street" v="Blair Road"/>
    <tag k="addr:state" v="VT"/>
    <tag k="ref:vcgi:esiteid" v="262014"/>
  </node>
  <node id="-363" visible="true" lat="44.99369934" lon="-72.40645611">
    <tag k="addr:city" v="Troy"/>
    <tag k="addr:housenumber" v="62"/>
    <tag k="addr:street" v="North Pleasant Street"/>
    <tag k="addr:state" v="VT"/>
    <tag k="ref:vcgi:esiteid" v="262015"/>
  </node>
  <node id="-364" visible="true" lat="44.99376763" lon="-72.40629075">
    <tag k="addr:city" v="Troy"/>
    <tag k="addr:housenumber" v="74"/>
    <tag k="addr:street" v="North Pleasant Street"/>
    <tag k="addr:state" v="VT"/>
    <tag k="ref:vcgi:esiteid" v="262016"/>
  </node>
  <node id="-365" visible="true" lat="44.99348752" lon="-72.39106552">
    <tag k="addr:city" v="Troy"/>
    <tag k="addr:housenumber" v="496"/>
    <tag k="addr:street" v="East Main Street"/>
    <tag k="addr:state" v="VT"/>
    <tag k="ref:vcgi:esiteid" v="262017"/>
  </node>
  <node id="-366" visible="true" lat="44.99337609" lon="-72.40706312">
    <tag k="addr:city" v="Troy"/>
    <tag k="addr:housenumber" v="30"/>
    <tag k="addr:street" v="North Pleasant Street"/>
    <tag k="addr:state" v="VT"/>
    <tag k="ref:vcgi:esiteid" v="262018"/>
  </node>
  <node id="-367" visible="true" lat="44.99340495" lon="-72.39065341">
    <tag k="addr:city" v="Troy"/>
    <tag k="addr:housenumber" v="514"/>
    <tag k="addr:street" v="East Main Street"/>
    <tag k="addr:state" v="VT"/>
    <tag k="ref:vcgi:esiteid" v="262019"/>
  </node>
  <node id="-369" visible="true" lat="44.99335534" lon="-72.39033388">
    <tag k="addr:city" v="Troy"/>
    <tag k="addr:housenumber" v="532"/>
    <tag k="addr:street" v="East Main Street"/>
    <tag k="addr:state" v="VT"/>
    <tag k="ref:vcgi:esiteid" v="262022"/>
  </node>
  <node id="-370" visible="true" lat="44.993414" lon="-72.40748686">
    <tag k="addr:city" v="Troy"/>
    <tag k="addr:housenumber" v="18"/>
    <tag k="addr:street" v="North Pleasant Street"/>
    <tag k="addr:state" v="VT"/>
    <tag k="ref:vcgi:esiteid" v="262024"/>
  </node>
  <node id="-372" visible="true" lat="44.99299558" lon="-72.38993679">
    <tag k="addr:city" v="Troy"/>
    <tag k="addr:housenumber" v="562"/>
    <tag k="addr:street" v="East Main Street"/>
    <tag k="addr:state" v="VT"/>
    <tag k="ref:vcgi:esiteid" v="262026"/>
  </node>
  <node id="-375" visible="true" lat="44.99300003" lon="-72.38893127">
    <tag k="addr:city" v="Troy"/>
    <tag k="addr:housenumber" v="606"/>
    <tag k="addr:street" v="East Main Street"/>
    <tag k="addr:state" v="VT"/>
    <tag k="ref:vcgi:esiteid" v="262029"/>
  </node>
  <node id="-376" visible="true" lat="44.99303356" lon="-72.40295427">
    <tag k="addr:city" v="Troy"/>
    <tag k="addr:housenumber" v="119"/>
    <tag k="addr:street" v="Blair Road"/>
    <tag k="addr:state" v="VT"/>
    <tag k="ref:vcgi:esiteid" v="262030"/>
  </node>
  <node id="-377" visible="true" lat="44.99266434" lon="-72.38477325">
    <tag k="addr:city" v="Troy"/>
    <tag k="addr:housenumber" v="115"/>
    <tag k="addr:street" v="Cemetery Road"/>
    <tag k="addr:state" v="VT"/>
    <tag k="ref:vcgi:esiteid" v="262031"/>
  </node>
  <node id="-378" visible="true" lat="44.99246791" lon="-72.38535478">
    <tag k="addr:city" v="Troy"/>
    <tag k="addr:housenumber" v="86"/>
    <tag k="addr:street" v="Cemetery Road"/>
    <tag k="addr:state" v="VT"/>
    <tag k="ref:vcgi:esiteid" v="262033"/>
  </node>
  <node id="-380" visible="true" lat="44.99218191" lon="-72.38419155">
    <tag k="addr:city" v="Troy"/>
    <tag k="addr:housenumber" v="146"/>
    <tag k="addr:street" v="Cemetery Road"/>
    <tag k="addr:state" v="VT"/>
    <tag k="ref:vcgi:esiteid" v="262035"/>
  </node>
  <node id="-381" visible="true" lat="44.99233798" lon="-72.38149863">
    <tag k="addr:city" v="Troy"/>
    <tag k="addr:housenumber" v="275"/>
    <tag k="addr:street" v="Cemetery Road"/>
    <tag k="addr:state" v="VT"/>
    <tag k="ref:vcgi:esiteid" v="262036"/>
  </node>
  <node id="-383" visible="true" lat="44.99220276" lon="-72.38694">
    <tag k="addr:city" v="Troy"/>
    <tag k="addr:housenumber" v="2"/>
    <tag k="addr:street" v="River Road"/>
    <tag k="addr:state" v="VT"/>
    <tag k="ref:vcgi:esiteid" v="262038"/>
  </node>
  <node id="-384" visible="true" lat="44.9921322" lon="-72.38265581">
    <tag k="addr:city" v="Troy"/>
    <tag k="addr:housenumber" v="218"/>
    <tag k="addr:street" v="Cemetery Road"/>
    <tag k="addr:state" v="VT"/>
    <tag k="ref:vcgi:esiteid" v="262039"/>
  </node>
  <node id="-391" visible="true" lat="44.99167649" lon="-72.38573011">
    <tag k="addr:city" v="Troy"/>
    <tag k="addr:housenumber" v="71"/>
    <tag k="addr:street" v="River Road"/>
    <tag k="addr:state" v="VT"/>
    <tag k="ref:vcgi:esiteid" v="262047"/>
  </node>
  <node id="-398" visible="true" lat="44.99038759" lon="-72.37498459">
    <tag k="addr:city" v="Troy"/>
    <tag k="addr:housenumber" v="18"/>
    <tag k="addr:street" v="East Hill"/>
    <tag k="addr:state" v="VT"/>
    <tag k="ref:vcgi:esiteid" v="262056"/>
  </node>
  <node id="-400" visible="true" lat="44.99027067" lon="-72.37398466">
    <tag k="addr:city" v="Troy"/>
    <tag k="addr:housenumber" v="37"/>
    <tag k="addr:street" v="East Hill"/>
    <tag k="addr:state" v="VT"/>
    <tag k="ref:vcgi:esiteid" v="262058"/>
  </node>
  <node id="-407" visible="true" lat="44.98863404" lon="-72.37429799">
    <tag k="addr:city" v="Troy"/>
    <tag k="addr:housenumber" v="201"/>
    <tag k="addr:street" v="East Hill"/>
    <tag k="addr:state" v="VT"/>
    <tag k="ref:vcgi:esiteid" v="262066"/>
  </node>
  <node id="-469" visible="true" lat="44.96362877" lon="-72.41494736">
    <tag k="addr:city" v="Troy"/>
    <tag k="addr:housenumber" v="62"/>
    <tag k="addr:street" v="Vermont Route 101"/>
    <tag k="addr:state" v="VT"/>
    <tag k="ref:vcgi:esiteid" v="262134"/>
  </node>
  <node id="-481" visible="true" lat="44.96012878" lon="-72.41262817">
    <tag k="addr:city" v="Troy"/>
    <tag k="addr:housenumber" v="333"/>
    <tag k="addr:street" v="Vermont Route 101"/>
    <tag k="addr:state" v="VT"/>
    <tag k="ref:vcgi:esiteid" v="262146"/>
  </node>
  <node id="-484" visible="true" lat="44.95951462" lon="-72.41307831">
    <tag k="addr:city" v="Troy"/>
    <tag k="addr:housenumber" v="368"/>
    <tag k="addr:street" v="Vermont Route 101"/>
    <tag k="addr:state" v="VT"/>
    <tag k="ref:vcgi:esiteid" v="262149"/>
  </node>
  <node id="-494" visible="true" lat="44.95654297" lon="-72.41487122">
    <tag k="addr:city" v="Troy"/>
    <tag k="addr:housenumber" v="606"/>
    <tag k="addr:street" v="Vermont Route 101"/>
    <tag k="addr:state" v="VT"/>
    <tag k="ref:vcgi:esiteid" v="262159"/>
  </node>
  <node id="-495" visible="true" lat="44.955136" lon="-72.41484138">
    <tag k="addr:city" v="Troy"/>
    <tag k="addr:housenumber" v="646"/>
    <tag k="addr:street" v="Vermont Route 101"/>
    <tag k="addr:state" v="VT"/>
    <tag k="ref:vcgi:esiteid" v="262160"/>
  </node>
  <node id="-499" visible="true" lat="44.95344232" lon="-72.41243708">
    <tag k="addr:city" v="Troy"/>
    <tag k="addr:housenumber" v="780"/>
    <tag k="addr:street" v="Vermont Route 101"/>
    <tag k="addr:state" v="VT"/>
    <tag k="ref:vcgi:esiteid" v="262164"/>
  </node>
  <node id="-514" visible="true" lat="44.94547647" lon="-72.40982175">
    <tag k="addr:city" v="Troy"/>
    <tag k="addr:housenumber" v="1387"/>
    <tag k="addr:street" v="Vermont Route 101"/>
    <tag k="addr:state" v="VT"/>
    <tag k="ref:vcgi:esiteid" v="262179"/>
  </node>
  <node id="-516" visible="true" lat="44.94460381" lon="-72.411391">
    <tag k="addr:city" v="Troy"/>
    <tag k="addr:housenumber" v="1430"/>
    <tag k="addr:street" v="Vermont Route 101"/>
    <tag k="addr:state" v="VT"/>
    <tag k="ref:vcgi:esiteid" v="262181"/>
  </node>
  <node id="-517" visible="true" lat="44.94447224" lon="-72.41055047">
    <tag k="addr:city" v="Troy"/>
    <tag k="addr:housenumber" v="1423"/>
    <tag k="addr:street" v="Vermont Route 101"/>
    <tag k="addr:state" v="VT"/>
    <tag k="ref:vcgi:esiteid" v="262182"/>
  </node>
  <node id="-519" visible="true" lat="44.94340048" lon="-72.41154737">
    <tag k="addr:city" v="Troy"/>
    <tag k="addr:housenumber" v="1498"/>
    <tag k="addr:street" v="Vermont Route 101"/>
    <tag k="addr:state" v="VT"/>
    <tag k="ref:vcgi:esiteid" v="262184"/>
  </node>
  <node id="-520" visible="true" lat="44.94218794" lon="-72.41078001">
    <tag k="addr:city" v="Troy"/>
    <tag k="addr:housenumber" v="1577"/>
    <tag k="addr:street" v="Vermont Route 101"/>
    <tag k="addr:state" v="VT"/>
    <tag k="ref:vcgi:esiteid" v="262185"/>
  </node>
  <node id="-521" visible="true" lat="44.9415708" lon="-72.41179559">
    <tag k="addr:city" v="Troy"/>
    <tag k="addr:housenumber" v="1612"/>
    <tag k="addr:street" v="Vermont Route 101"/>
    <tag k="addr:state" v="VT"/>
    <tag k="ref:vcgi:esiteid" v="262186"/>
  </node>
  <node id="-525" visible="true" lat="44.93654273" lon="-72.41046003">
    <tag k="addr:city" v="Troy"/>
    <tag k="addr:housenumber" v="1993"/>
    <tag k="addr:street" v="Vermont Route 101"/>
    <tag k="addr:state" v="VT"/>
    <tag k="ref:vcgi:esiteid" v="262191"/>
  </node>
  <node id="-528" visible="true" lat="44.93417544" lon="-72.41160605">
    <tag k="addr:city" v="Troy"/>
    <tag k="addr:housenumber" v="2136"/>
    <tag k="addr:street" v="Vermont Route 101"/>
    <tag k="addr:state" v="VT"/>
    <tag k="ref:vcgi:esiteid" v="262194"/>
  </node>
  <node id="-533" visible="true" lat="44.93134333" lon="-72.40999813">
    <tag k="addr:city" v="Troy"/>
    <tag k="addr:housenumber" v="2346"/>
    <tag k="addr:street" v="Vermont Route 101"/>
    <tag k="addr:state" v="VT"/>
    <tag k="ref:vcgi:esiteid" v="262199"/>
  </node>
  <node id="-536" visible="true" lat="44.92994949" lon="-72.41069171">
    <tag k="addr:city" v="Troy"/>
    <tag k="addr:housenumber" v="2446"/>
    <tag k="addr:street" v="Vermont Route 101"/>
    <tag k="addr:state" v="VT"/>
    <tag k="ref:vcgi:esiteid" v="262202"/>
  </node>
  <node id="-539" visible="true" lat="44.92771559" lon="-72.40909874">
    <tag k="addr:city" v="Troy"/>
    <tag k="addr:housenumber" v="2620"/>
    <tag k="addr:street" v="Vermont Route 101"/>
    <tag k="addr:state" v="VT"/>
    <tag k="ref:vcgi:esiteid" v="262205"/>
  </node>
  <node id="-542" visible="true" lat="44.92648697" lon="-72.40888214">
    <tag k="addr:city" v="Troy"/>
    <tag k="addr:housenumber" v="2690"/>
    <tag k="addr:street" v="Vermont Route 101"/>
    <tag k="addr:state" v="VT"/>
    <tag k="ref:vcgi:esiteid" v="262208"/>
  </node>
  <node id="-544" visible="true" lat="44.92609238" lon="-72.4117279">
    <tag k="addr:city" v="Troy"/>
    <tag k="addr:housenumber" v="169"/>
    <tag k="addr:street" v="Maplecroft"/>
    <tag k="addr:state" v="VT"/>
    <tag k="ref:vcgi:esiteid" v="262210"/>
  </node>
  <node id="-550" visible="true" lat="44.92323252" lon="-72.40935096">
    <tag k="addr:city" v="Troy"/>
    <tag k="addr:housenumber" v="2946"/>
    <tag k="addr:street" v="Vermont Route 101"/>
    <tag k="addr:state" v="VT"/>
    <tag k="ref:vcgi:esiteid" v="262216"/>
  </node>
  <node id="-552" visible="true" lat="44.9226624" lon="-72.4090605">
    <tag k="addr:city" v="Troy"/>
    <tag k="addr:housenumber" v="2968"/>
    <tag k="addr:street" v="Vermont Route 101"/>
    <tag k="addr:state" v="VT"/>
    <tag k="ref:vcgi:esiteid" v="262218"/>
  </node>
  <node id="-555" visible="true" lat="44.92171478" lon="-72.40956879">
    <tag k="addr:city" v="Troy"/>
    <tag k="addr:housenumber" v="3006"/>
    <tag k="addr:street" v="Vermont Route 101"/>
    <tag k="addr:state" v="VT"/>
    <tag k="ref:vcgi:esiteid" v="262221"/>
  </node>
  <node id="-562" visible="true" lat="44.91994231" lon="-72.41062353">
    <tag k="addr:city" v="Troy"/>
    <tag k="addr:housenumber" v="3186"/>
    <tag k="addr:street" v="Vermont Route 101"/>
    <tag k="addr:state" v="VT"/>
    <tag k="ref:vcgi:esiteid" v="262229"/>
  </node>
  <node id="-565" visible="true" lat="44.91702283" lon="-72.40953005">
    <tag k="addr:city" v="Troy"/>
    <tag k="addr:housenumber" v="3364"/>
    <tag k="addr:street" v="Vermont Route 101"/>
    <tag k="addr:state" v="VT"/>
    <tag k="ref:vcgi:esiteid" v="262232"/>
  </node>
  <node id="-569" visible="true" lat="44.91390823" lon="-72.40812516">
    <tag k="addr:city" v="Troy"/>
    <tag k="addr:housenumber" v="3544"/>
    <tag k="addr:street" v="Vermont Route 101"/>
    <tag k="addr:state" v="VT"/>
    <tag k="ref:vcgi:esiteid" v="262238"/>
  </node>
  <node id="-573" visible="true" lat="44.91310643" lon="-72.40521123">
    <tag k="addr:city" v="Troy"/>
    <tag k="addr:housenumber" v="3705"/>
    <tag k="addr:street" v="Vermont Route 101"/>
    <tag k="addr:state" v="VT"/>
    <tag k="ref:vcgi:esiteid" v="262242"/>
  </node>
  <node id="-577" visible="true" lat="44.91097903" lon="-72.40594124">
    <tag k="addr:city" v="Troy"/>
    <tag k="addr:housenumber" v="22"/>
    <tag k="addr:street" v="Woodland Drive"/>
    <tag k="addr:state" v="VT"/>
    <tag k="ref:vcgi:esiteid" v="262246"/>
  </node>
  <node id="-578" visible="true" lat="44.91073237" lon="-72.40342686">
    <tag k="addr:city" v="Troy"/>
    <tag k="addr:housenumber" v="91"/>
    <tag k="addr:street" v="Meadow Lane Circle"/>
    <tag k="addr:state" v="VT"/>
    <tag k="ref:vcgi:esiteid" v="262247"/>
  </node>
  <node id="-579" visible="true" lat="44.9106998" lon="-72.40257723">
    <tag k="addr:city" v="Troy"/>
    <tag k="addr:housenumber" v="123"/>
    <tag k="addr:street" v="Meadow Lane Circle"/>
    <tag k="addr:state" v="VT"/>
    <tag k="ref:vcgi:esiteid" v="262248"/>
  </node>
  <node id="-580" visible="true" lat="44.9107098" lon="-72.4041452">
    <tag k="addr:city" v="Troy"/>
    <tag k="addr:housenumber" v="49"/>
    <tag k="addr:street" v="Meadow Lane Circle"/>
    <tag k="addr:state" v="VT"/>
    <tag k="ref:vcgi:esiteid" v="262249"/>
  </node>
  <node id="-581" visible="true" lat="44.91070175" lon="-72.40478516">
    <tag k="addr:city" v="Troy"/>
    <tag k="addr:housenumber" v="23"/>
    <tag k="addr:street" v="Meadow Lane Circle"/>
    <tag k="addr:state" v="VT"/>
    <tag k="ref:vcgi:esiteid" v="262250"/>
  </node>
  <node id="-582" visible="true" lat="44.91061401" lon="-72.40215301">
    <tag k="addr:city" v="Troy"/>
    <tag k="addr:housenumber" v="141"/>
    <tag k="addr:street" v="Meadow Lane Circle"/>
    <tag k="addr:state" v="VT"/>
    <tag k="ref:vcgi:esiteid" v="262251"/>
  </node>
  <node id="-583" visible="true" lat="44.91055893" lon="-72.4057051">
    <tag k="addr:city" v="Troy"/>
    <tag k="addr:housenumber" v="3842"/>
    <tag k="addr:street" v="Vermont Route 101"/>
    <tag k="addr:state" v="VT"/>
    <tag k="ref:vcgi:esiteid" v="262252"/>
  </node>
  <node id="-586" visible="true" lat="44.91004562" lon="-72.40206146">
    <tag k="addr:city" v="Troy"/>
    <tag k="addr:housenumber" v="140"/>
    <tag k="addr:street" v="Meadow Lane Circle"/>
    <tag k="addr:state" v="VT"/>
    <tag k="ref:vcgi:esiteid" v="262257"/>
  </node>
  <node id="-587" visible="true" lat="44.90988941" lon="-72.40267391">
    <tag k="addr:city" v="Troy"/>
    <tag k="addr:housenumber" v="122"/>
    <tag k="addr:street" v="Meadow Lane Circle"/>
    <tag k="addr:state" v="VT"/>
    <tag k="ref:vcgi:esiteid" v="262258"/>
  </node>
  <node id="-589" visible="true" lat="44.90997124" lon="-72.40564367">
    <tag k="addr:city" v="Troy"/>
    <tag k="addr:housenumber" v="3884"/>
    <tag k="addr:street" v="Vermont Route 101"/>
    <tag k="addr:state" v="VT"/>
    <tag k="ref:vcgi:esiteid" v="262260"/>
  </node>
  <node id="-590" visible="true" lat="44.90980143" lon="-72.40335534">
    <tag k="addr:city" v="Troy"/>
    <tag k="addr:housenumber" v="80"/>
    <tag k="addr:street" v="Meadow Lane Circle"/>
    <tag k="addr:state" v="VT"/>
    <tag k="ref:vcgi:esiteid" v="262261"/>
  </node>
  <node id="-591" visible="true" lat="44.90972495" lon="-72.40467257">
    <tag k="addr:city" v="Troy"/>
    <tag k="addr:housenumber" v="24"/>
    <tag k="addr:street" v="Meadow Lane Circle"/>
    <tag k="addr:state" v="VT"/>
    <tag k="ref:vcgi:esiteid" v="262262"/>
  </node>
  <node id="-592" visible="true" lat="44.90917206" lon="-72.40615082">
    <tag k="addr:city" v="Troy"/>
    <tag k="addr:housenumber" v="3928"/>
    <tag k="addr:street" v="Vermont Route 101"/>
    <tag k="addr:state" v="VT"/>
    <tag k="ref:vcgi:esiteid" v="262263"/>
  </node>
  <node id="-593" visible="true" lat="44.90873338" lon="-72.40455895">
    <tag k="addr:city" v="Troy"/>
    <tag k="addr:housenumber" v="3965"/>
    <tag k="addr:street" v="Vermont Route 101"/>
    <tag k="addr:state" v="VT"/>
    <tag k="ref:vcgi:esiteid" v="262265"/>
  </node>
  <node id="-594" visible="true" lat="44.90843034" lon="-72.40642045">
    <tag k="addr:city" v="Troy"/>
    <tag k="addr:housenumber" v="4050"/>
    <tag k="addr:street" v="Vermont Route 101"/>
    <tag k="addr:state" v="VT"/>
    <tag k="ref:vcgi:esiteid" v="262266"/>
  </node>
  <node id="-596" visible="true" lat="44.90778514" lon="-72.39898963">
    <tag k="addr:city" v="Troy"/>
    <tag k="addr:housenumber" v="6300"/>
    <tag k="addr:street" v="River Road"/>
    <tag k="addr:state" v="VT"/>
    <tag k="ref:vcgi:esiteid" v="262268"/>
  </node>
  <node id="-598" visible="true" lat="44.90731763" lon="-72.40551396">
    <tag k="addr:city" v="Troy"/>
    <tag k="addr:housenumber" v="4080"/>
    <tag k="addr:street" v="Vermont Route 101"/>
    <tag k="addr:state" v="VT"/>
    <tag k="ref:vcgi:esiteid" v="262270"/>
  </node>
  <node id="-599" visible="true" lat="44.90722826" lon="-72.39889923">
    <tag k="addr:city" v="Troy"/>
    <tag k="addr:housenumber" v="6348"/>
    <tag k="addr:street" v="River Road"/>
    <tag k="addr:state" v="VT"/>
    <tag k="ref:vcgi:esiteid" v="262271"/>
  </node>
  <node id="-600" visible="true" lat="44.90686638" lon="-72.40655278">
    <tag k="addr:city" v="Troy"/>
    <tag k="addr:housenumber" v="4104"/>
    <tag k="addr:street" v="Vermont Route 101"/>
    <tag k="addr:state" v="VT"/>
    <tag k="ref:vcgi:esiteid" v="262273"/>
  </node>
  <node id="-602" visible="true" lat="44.90679169" lon="-72.40839386">
    <tag k="addr:city" v="Troy"/>
    <tag k="addr:housenumber" v="85"/>
    <tag k="addr:street" v="Cheney Road"/>
    <tag k="addr:state" v="VT"/>
    <tag k="ref:vcgi:esiteid" v="262275"/>
  </node>
  <node id="-603" visible="true" lat="44.90668744" lon="-72.40452296">
    <tag k="addr:city" v="Troy"/>
    <tag k="addr:housenumber" v="4079"/>
    <tag k="addr:street" v="Vermont Route 101"/>
    <tag k="addr:state" v="VT"/>
    <tag k="ref:vcgi:esiteid" v="262276"/>
  </node>
  <node id="-604" visible="true" lat="44.90656846" lon="-72.40541311">
    <tag k="addr:city" v="Troy"/>
    <tag k="addr:housenumber" v="4118"/>
    <tag k="addr:street" v="Vermont Route 101"/>
    <tag k="addr:state" v="VT"/>
    <tag k="ref:vcgi:esiteid" v="262277"/>
  </node>
  <node id="-605" visible="true" lat="44.90645023" lon="-72.40941215">
    <tag k="addr:city" v="Troy"/>
    <tag k="addr:housenumber" v="218"/>
    <tag k="addr:street" v="South Pleasant Street"/>
    <tag k="addr:state" v="VT"/>
    <tag k="ref:vcgi:esiteid" v="262278"/>
  </node>
  <node id="-606" visible="true" lat="44.90634747" lon="-72.4054642">
    <tag k="addr:city" v="Troy"/>
    <tag k="addr:housenumber" v="4132"/>
    <tag k="addr:street" v="Vermont Route 101"/>
    <tag k="addr:state" v="VT"/>
    <tag k="ref:vcgi:esiteid" v="262279"/>
  </node>
  <node id="-608" visible="true" lat="44.9061644" lon="-72.40421222">
    <tag k="addr:city" v="Troy"/>
    <tag k="addr:housenumber" v="4185"/>
    <tag k="addr:street" v="Vermont Route 101"/>
    <tag k="addr:state" v="VT"/>
    <tag k="ref:vcgi:esiteid" v="262281"/>
  </node>
  <node id="-609" visible="true" lat="44.90602844" lon="-72.40475985">
    <tag k="addr:city" v="Troy"/>
    <tag k="addr:housenumber" v="4155"/>
    <tag k="addr:street" v="Vermont Route 101"/>
    <tag k="addr:state" v="VT"/>
    <tag k="ref:vcgi:esiteid" v="262282"/>
  </node>
  <node id="-610" visible="true" lat="44.90580582" lon="-72.41041564">
    <tag k="addr:city" v="Troy"/>
    <tag k="addr:housenumber" v="254"/>
    <tag k="addr:street" v="South Pleasant Street"/>
    <tag k="addr:state" v="VT"/>
    <tag k="ref:vcgi:esiteid" v="262283"/>
  </node>
  <node id="-611" visible="true" lat="44.90575948" lon="-72.40546465">
    <tag k="addr:city" v="Troy"/>
    <tag k="addr:housenumber" v="4180"/>
    <tag k="addr:street" v="Vermont Route 101"/>
    <tag k="addr:state" v="VT"/>
    <tag k="ref:vcgi:esiteid" v="262284"/>
  </node>
  <node id="-612" visible="true" lat="44.90582269" lon="-72.39903026">
    <tag k="addr:city" v="Troy"/>
    <tag k="addr:housenumber" v="6460"/>
    <tag k="addr:street" v="River Road"/>
    <tag k="addr:state" v="VT"/>
    <tag k="ref:vcgi:esiteid" v="262285"/>
  </node>
  <node id="-613" visible="true" lat="44.9055873" lon="-72.41072381">
    <tag k="addr:city" v="Troy"/>
    <tag k="addr:housenumber" v="259"/>
    <tag k="addr:street" v="South Pleasant Street"/>
    <tag k="addr:state" v="VT"/>
    <tag k="ref:vcgi:esiteid" v="262286"/>
  </node>
  <node id="-614" visible="true" lat="44.90542424" lon="-72.40909969">
    <tag k="addr:city" v="Troy"/>
    <tag k="addr:housenumber" v="11"/>
    <tag k="addr:street" v="Cheney Road"/>
    <tag k="addr:state" v="VT"/>
    <tag k="ref:vcgi:esiteid" v="262288"/>
  </node>
  <node id="-615" visible="true" lat="44.90540057" lon="-72.40558086">
    <tag k="addr:city" v="Troy"/>
    <tag k="addr:housenumber" v="4204"/>
    <tag k="addr:street" v="Vermont Route 101"/>
    <tag k="addr:state" v="VT"/>
    <tag k="ref:vcgi:esiteid" v="262290"/>
  </node>
  <node id="-616" visible="true" lat="44.90509899" lon="-72.40504754">
    <tag k="addr:city" v="Troy"/>
    <tag k="addr:housenumber" v="4207"/>
    <tag k="addr:street" v="Vermont Route 101"/>
    <tag k="addr:state" v="VT"/>
    <tag k="ref:vcgi:esiteid" v="262292"/>
  </node>
  <node id="-617" visible="true" lat="44.90521443" lon="-72.40973464">
    <tag k="addr:city" v="Troy"/>
    <tag k="addr:housenumber" v="205"/>
    <tag k="addr:street" v="South Pleasant Street"/>
    <tag k="addr:state" v="VT"/>
    <tag k="ref:vcgi:esiteid" v="262293"/>
  </node>
  <node id="-618" visible="true" lat="44.90529812" lon="-72.40863144">
    <tag k="addr:city" v="Troy"/>
    <tag k="addr:housenumber" v="156"/>
    <tag k="addr:street" v="South Pleasant Street"/>
    <tag k="addr:state" v="VT"/>
    <tag k="ref:vcgi:esiteid" v="262294"/>
  </node>
  <node id="-619" visible="true" lat="44.90528552" lon="-72.40779641">
    <tag k="addr:city" v="Troy"/>
    <tag k="addr:housenumber" v="118"/>
    <tag k="addr:street" v="South Pleasant Street"/>
    <tag k="addr:state" v="VT"/>
    <tag k="ref:vcgi:esiteid" v="262295"/>
  </node>
  <node id="-620" visible="true" lat="44.90508699" lon="-72.40565603">
    <tag k="addr:city" v="Troy"/>
    <tag k="addr:housenumber" v="4224"/>
    <tag k="addr:street" v="Vermont Route 101"/>
    <tag k="addr:state" v="VT"/>
    <tag k="ref:vcgi:esiteid" v="262296"/>
  </node>
  <node id="-622" visible="true" lat="44.9049332" lon="-72.4088205">
    <tag k="addr:city" v="Troy"/>
    <tag k="addr:housenumber" v="153"/>
    <tag k="addr:street" v="South Pleasant Street"/>
    <tag k="addr:state" v="VT"/>
    <tag k="ref:vcgi:esiteid" v="262299"/>
  </node>
  <node id="-623" visible="true" lat="44.90490494" lon="-72.40568888">
    <tag k="addr:city" v="Troy"/>
    <tag k="addr:housenumber" v="4238"/>
    <tag k="addr:street" v="Vermont Route 101"/>
    <tag k="addr:state" v="VT"/>
    <tag k="ref:vcgi:esiteid" v="262300"/>
  </node>
  <node id="-624" visible="true" lat="44.90503873" lon="-72.40759714">
    <tag k="addr:city" v="Troy"/>
    <tag k="addr:housenumber" v="102"/>
    <tag k="addr:street" v="South Pleasant Street"/>
    <tag k="addr:state" v="VT"/>
    <tag k="ref:vcgi:esiteid" v="262301"/>
  </node>
  <node id="-625" visible="true" lat="44.90484624" lon="-72.40844211">
    <tag k="addr:city" v="Troy"/>
    <tag k="addr:housenumber" v="137"/>
    <tag k="addr:street" v="South Pleasant Street"/>
    <tag k="addr:state" v="VT"/>
    <tag k="ref:vcgi:esiteid" v="262302"/>
  </node>
  <node id="-626" visible="true" lat="44.9047486" lon="-72.4081179">
    <tag k="addr:city" v="Troy"/>
    <tag k="addr:housenumber" v="117"/>
    <tag k="addr:street" v="South Pleasant Street"/>
    <tag k="addr:state" v="VT"/>
    <tag k="ref:vcgi:esiteid" v="262303"/>
  </node>
  <node id="-628" visible="true" lat="44.90470855" lon="-72.40696056">
    <tag k="addr:city" v="Troy"/>
    <tag k="addr:housenumber" v="76"/>
    <tag k="addr:street" v="South Pleasant Street"/>
    <tag k="addr:state" v="VT"/>
    <tag k="ref:vcgi:esiteid" v="262305"/>
  </node>
  <node id="-629" visible="true" lat="44.9047355" lon="-72.40581967">
    <tag k="addr:city" v="Troy"/>
    <tag k="addr:housenumber" v="4254"/>
    <tag k="addr:street" v="Vermont Route 101"/>
    <tag k="addr:state" v="VT"/>
    <tag k="ref:vcgi:esiteid" v="262306"/>
  </node>
  <node id="-630" visible="true" lat="44.90455808" lon="-72.40660209">
    <tag k="addr:city" v="Troy"/>
    <tag k="addr:housenumber" v="48"/>
    <tag k="addr:street" v="South Pleasant Street"/>
    <tag k="addr:state" v="VT"/>
    <tag k="ref:vcgi:esiteid" v="262308"/>
  </node>
  <node id="-631" visible="true" lat="44.90448857" lon="-72.40643645">
    <tag k="addr:city" v="Troy"/>
    <tag k="addr:housenumber" v="38"/>
    <tag k="addr:street" v="South Pleasant Street"/>
    <tag k="addr:state" v="VT"/>
    <tag k="ref:vcgi:esiteid" v="262309"/>
  </node>
  <node id="-632" visible="true" lat="44.90438164" lon="-72.40599329">
    <tag k="addr:city" v="Troy"/>
    <tag k="addr:housenumber" v="18"/>
    <tag k="addr:street" v="South Pleasant Street"/>
    <tag k="addr:state" v="VT"/>
    <tag k="ref:vcgi:esiteid" v="262310"/>
  </node>
  <node id="-633" visible="true" lat="44.90444297" lon="-72.40622483">
    <tag k="addr:city" v="Troy"/>
    <tag k="addr:housenumber" v="26"/>
    <tag k="addr:street" v="South Pleasant Street"/>
    <tag k="addr:state" v="VT"/>
    <tag k="ref:vcgi:esiteid" v="262311"/>
  </node>
  <node id="-634" visible="true" lat="44.90428069" lon="-72.41010577">
    <tag k="addr:city" v="Troy"/>
    <tag k="addr:housenumber" v="207"/>
    <tag k="addr:street" v="Mill Street"/>
    <tag k="addr:state" v="VT"/>
    <tag k="ref:vcgi:esiteid" v="262314"/>
  </node>
  <node id="-635" visible="true" lat="44.90422058" lon="-72.40879058">
    <tag k="addr:city" v="Troy"/>
    <tag k="addr:housenumber" v="146"/>
    <tag k="addr:street" v="Mill Street"/>
    <tag k="addr:state" v="VT"/>
    <tag k="ref:vcgi:esiteid" v="262317"/>
  </node>
  <node id="-636" visible="true" lat="44.90413404" lon="-72.40988932">
    <tag k="addr:city" v="Troy"/>
    <tag k="addr:housenumber" v="201"/>
    <tag k="addr:street" v="Mill Street"/>
    <tag k="addr:state" v="VT"/>
    <tag k="ref:vcgi:esiteid" v="262318"/>
  </node>
  <node id="-637" visible="true" lat="44.90399096" lon="-72.40943504">
    <tag k="addr:city" v="Troy"/>
    <tag k="addr:housenumber" v="185"/>
    <tag k="addr:street" v="Mill Street"/>
    <tag k="addr:state" v="VT"/>
    <tag k="ref:vcgi:esiteid" v="262320"/>
  </node>
  <node id="-638" visible="true" lat="44.90397193" lon="-72.40777008">
    <tag k="addr:city" v="Troy"/>
    <tag k="addr:housenumber" v="59"/>
    <tag k="addr:street" v="South Pleasant Street"/>
    <tag k="addr:state" v="VT"/>
    <tag k="ref:vcgi:esiteid" v="262321"/>
  </node>
  <node id="-640" visible="true" lat="44.90364837" lon="-72.40885162">
    <tag k="addr:city" v="Troy"/>
    <tag k="addr:housenumber" v="147"/>
    <tag k="addr:street" v="Mill Street"/>
    <tag k="addr:state" v="VT"/>
    <tag k="ref:vcgi:esiteid" v="262323"/>
  </node>
  <node id="-641" visible="true" lat="44.9035807" lon="-72.40651945">
    <tag k="addr:city" v="Troy"/>
    <tag k="addr:housenumber" v="20"/>
    <tag k="addr:street" v="Mill Street"/>
    <tag k="addr:state" v="VT"/>
    <tag k="ref:vcgi:esiteid" v="262324"/>
  </node>
  <node id="-644" visible="true" lat="44.90352423" lon="-72.40818855">
    <tag k="addr:city" v="Troy"/>
    <tag k="addr:housenumber" v="99"/>
    <tag k="addr:street" v="Mill Street"/>
    <tag k="addr:state" v="VT"/>
    <tag k="ref:vcgi:esiteid" v="262327"/>
  </node>
  <node id="-645" visible="true" lat="44.90025606" lon="-72.39472458">
    <tag k="addr:city" v="Troy"/>
    <tag k="addr:housenumber" v="414"/>
    <tag k="addr:street" v="Loop Road"/>
    <tag k="addr:state" v="VT"/>
    <tag k="ref:vcgi:esiteid" v="262328"/>
  </node>
  <node id="-646" visible="true" lat="44.90031531" lon="-72.39310427">
    <tag k="addr:city" v="Troy"/>
    <tag k="addr:housenumber" v="473"/>
    <tag k="addr:street" v="Loop Road"/>
    <tag k="addr:state" v="VT"/>
    <tag k="ref:vcgi:esiteid" v="262329"/>
  </node>
  <node id="-647" visible="true" lat="44.89970221" lon="-72.38339186">
    <tag k="addr:city" v="Troy"/>
    <tag k="addr:housenumber" v="155"/>
    <tag k="addr:street" v="Sarault Drive"/>
    <tag k="addr:state" v="VT"/>
    <tag k="ref:vcgi:esiteid" v="262330"/>
  </node>
  <node id="-648" visible="true" lat="44.89806475" lon="-72.38633854">
    <tag k="addr:city" v="Troy"/>
    <tag k="addr:housenumber" v="109"/>
    <tag k="addr:street" v="Sarault Drive"/>
    <tag k="addr:state" v="VT"/>
    <tag k="ref:vcgi:esiteid" v="262331"/>
  </node>
  <node id="-649" visible="true" lat="44.89739894" lon="-72.38405679">
    <tag k="addr:city" v="Troy"/>
    <tag k="addr:housenumber" v="230"/>
    <tag k="addr:street" v="Sarault Drive"/>
    <tag k="addr:state" v="VT"/>
    <tag k="ref:vcgi:esiteid" v="262332"/>
  </node>
  <node id="-650" visible="true" lat="44.89755855" lon="-72.38713975">
    <tag k="addr:city" v="Troy"/>
    <tag k="addr:housenumber" v="47"/>
    <tag k="addr:street" v="Sarault Drive"/>
    <tag k="addr:state" v="VT"/>
    <tag k="ref:vcgi:esiteid" v="262333"/>
  </node>
  <node id="-651" visible="true" lat="44.89727629" lon="-72.39120963">
    <tag k="addr:city" v="Troy"/>
    <tag k="addr:housenumber" v="661"/>
    <tag k="addr:street" v="Loop Road"/>
    <tag k="addr:state" v="VT"/>
    <tag k="ref:vcgi:esiteid" v="262334"/>
  </node>
  <node id="-652" visible="true" lat="44.89703478" lon="-72.39028916">
    <tag k="addr:city" v="Troy"/>
    <tag k="addr:housenumber" v="71"/>
    <tag k="addr:street" v="Morey Road"/>
    <tag k="addr:state" v="VT"/>
    <tag k="ref:vcgi:esiteid" v="262335"/>
  </node>
  <node id="-671" visible="true" lat="44.86016221" lon="-72.40532265">
    <tag k="addr:city" v="Troy"/>
    <tag k="addr:housenumber" v="5718"/>
    <tag k="addr:street" v="Loop Road"/>
    <tag k="addr:state" v="VT"/>
    <tag k="ref:vcgi:esiteid" v="262355"/>
  </node>
  <node id="-672" visible="true" lat="44.86001382" lon="-72.40137539">
    <tag k="addr:city" v="Troy"/>
    <tag k="addr:housenumber" v="5684"/>
    <tag k="addr:street" v="Loop Road"/>
    <tag k="addr:state" v="VT"/>
    <tag k="ref:vcgi:esiteid" v="262356"/>
  </node>
  <node id="-676" visible="true" lat="44.85908508" lon="-72.40628814">
    <tag k="addr:city" v="Troy"/>
    <tag k="addr:housenumber" v="5749"/>
    <tag k="addr:street" v="Loop Road"/>
    <tag k="addr:state" v="VT"/>
    <tag k="ref:vcgi:esiteid" v="262360"/>
  </node>
  <node id="-677" visible="true" lat="44.85811914" lon="-72.40057493">
    <tag k="addr:city" v="Troy"/>
    <tag k="addr:housenumber" v="5532"/>
    <tag k="addr:street" v="Loop Road"/>
    <tag k="addr:state" v="VT"/>
    <tag k="ref:vcgi:esiteid" v="262361"/>
  </node>
  <node id="-679" visible="true" lat="44.85665893" lon="-72.40322875">
    <tag k="addr:city" v="Troy"/>
    <tag k="addr:housenumber" v="5391"/>
    <tag k="addr:street" v="Loop Road"/>
    <tag k="addr:state" v="VT"/>
    <tag k="ref:vcgi:esiteid" v="262363"/>
  </node>
  <node id="-680" visible="true" lat="44.85465622" lon="-72.40206909">
    <tag k="addr:city" v="Troy"/>
    <tag k="addr:housenumber" v="5261"/>
    <tag k="addr:street" v="Loop Road"/>
    <tag k="addr:state" v="VT"/>
    <tag k="ref:vcgi:esiteid" v="262364"/>
  </node>
  <node id="-687" visible="true" lat="44.84553469" lon="-72.39934779">
    <tag k="addr:city" v="Troy"/>
    <tag k="addr:housenumber" v="210"/>
    <tag k="addr:street" v="Carter Road"/>
    <tag k="addr:state" v="VT"/>
    <tag k="ref:vcgi:esiteid" v="262371"/>
  </node>
  <node id="-688" visible="true" lat="44.8454847" lon="-72.40259047">
    <tag k="addr:city" v="Troy"/>
    <tag k="addr:housenumber" v="130"/>
    <tag k="addr:street" v="Carter Road"/>
    <tag k="addr:state" v="VT"/>
    <tag k="ref:vcgi:esiteid" v="262372"/>
  </node>
  <node id="-689" visible="true" lat="44.84420013" lon="-72.39840698">
    <tag k="addr:city" v="Troy"/>
    <tag k="addr:housenumber" v="246"/>
    <tag k="addr:street" v="Carter Road"/>
    <tag k="addr:state" v="VT"/>
    <tag k="ref:vcgi:esiteid" v="262373"/>
  </node>
  <node id="-690" visible="true" lat="44.84235609" lon="-72.39600274">
    <tag k="addr:city" v="Troy"/>
    <tag k="addr:housenumber" v="475"/>
    <tag k="addr:street" v="Carter Road"/>
    <tag k="addr:state" v="VT"/>
    <tag k="ref:vcgi:esiteid" v="262374"/>
  </node>
  <node id="-715" visible="true" lat="44.9949646" lon="-72.39553833">
    <tag k="addr:city" v="Troy"/>
    <tag k="addr:housenumber" v="6"/>
    <tag k="addr:street" v="Pine Street"/>
    <tag k="addr:state" v="VT"/>
    <tag k="ref:vcgi:esiteid" v="262401"/>
  </node>
  <node id="-716" visible="true" lat="44.99326706" lon="-72.38758087">
    <tag k="addr:city" v="Troy"/>
    <tag k="addr:housenumber" v="48"/>
    <tag k="addr:street" v="Beaudry Drive"/>
    <tag k="addr:state" v="VT"/>
    <tag k="ref:vcgi:esiteid" v="262402"/>
  </node>
  <node id="-717" visible="true" lat="44.99330139" lon="-72.38828278">
    <tag k="addr:city" v="Troy"/>
    <tag k="addr:housenumber" v="124"/>
    <tag k="addr:street" v="Beaudry Drive"/>
    <tag k="addr:state" v="VT"/>
    <tag k="ref:vcgi:esiteid" v="262403"/>
  </node>
  <node id="-719" visible="true" lat="44.90458822" lon="-72.40952923">
    <tag k="addr:city" v="Troy"/>
    <tag k="addr:housenumber" v="232"/>
    <tag k="addr:street" v="Mill Street"/>
    <tag k="addr:state" v="VT"/>
    <tag k="ref:vcgi:esiteid" v="262405"/>
  </node>
  <node id="-784" visible="true" lat="44.95678711" lon="-72.41152954">
    <tag k="addr:city" v="Troy"/>
    <tag k="addr:housenumber" v="551"/>
    <tag k="addr:street" v="Vermont Route 101"/>
    <tag k="addr:state" v="VT"/>
    <tag k="ref:vcgi:esiteid" v="262480"/>
  </node>
  <node id="-790" visible="true" lat="44.90436947" lon="-72.39273723">
    <tag k="addr:city" v="Troy"/>
    <tag k="addr:housenumber" v="139"/>
    <tag k="addr:street" v="Loop Road"/>
    <tag k="addr:state" v="VT"/>
    <tag k="ref:vcgi:esiteid" v="262487"/>
  </node>
  <node id="-799" visible="true" lat="44.91743086" lon="-72.40929712">
    <tag k="addr:city" v="Troy"/>
    <tag k="addr:housenumber" v="3344"/>
    <tag k="addr:street" v="Vermont Route 101"/>
    <tag k="addr:state" v="VT"/>
    <tag k="ref:vcgi:esiteid" v="262497"/>
  </node>
  <node id="-800" visible="true" lat="44.92681784" lon="-72.40879479">
    <tag k="addr:city" v="Troy"/>
    <tag k="addr:housenumber" v="2688"/>
    <tag k="addr:street" v="Vermont Route 101"/>
    <tag k="addr:state" v="VT"/>
    <tag k="ref:vcgi:esiteid" v="262498"/>
  </node>
  <node id="-802" visible="true" lat="44.84224642" lon="-72.39768943">
    <tag k="addr:city" v="Troy"/>
    <tag k="addr:housenumber" v="34"/>
    <tag k="addr:street" v="Foster Road"/>
    <tag k="addr:state" v="VT"/>
    <tag k="ref:vcgi:esiteid" v="262500"/>
  </node>
  <node id="-818" visible="true" lat="44.9974685" lon="-72.39269934">
    <tag k="addr:city" v="Troy"/>
    <tag k="addr:housenumber" v="56"/>
    <tag k="addr:street" v="Geraldine Avenue"/>
    <tag k="addr:state" v="VT"/>
    <tag k="ref:vcgi:esiteid" v="262516"/>
  </node>
  <node id="-819" visible="true" lat="44.99628032" lon="-72.40402147">
    <tag k="addr:city" v="Troy"/>
    <tag k="addr:housenumber" v="60"/>
    <tag k="addr:street" v="School Street"/>
    <tag k="addr:state" v="VT"/>
    <tag k="ref:vcgi:esiteid" v="262517"/>
  </node>
  <node id="-820" visible="true" lat="44.9245517" lon="-72.40972702">
    <tag k="addr:city" v="Troy"/>
    <tag k="addr:housenumber" v="2802"/>
    <tag k="addr:street" v="Vermont Route 101"/>
    <tag k="addr:state" v="VT"/>
    <tag k="ref:vcgi:esiteid" v="262519"/>
  </node>
  <node id="-821" visible="true" lat="44.91261343" lon="-72.40491247">
    <tag k="addr:city" v="Troy"/>
    <tag k="addr:housenumber" v="46"/>
    <tag k="addr:street" v="Windy Lane"/>
    <tag k="addr:state" v="VT"/>
    <tag k="ref:vcgi:esiteid" v="262520"/>
  </node>
  <node id="-823" visible="true" lat="44.91078082" lon="-72.40735271">
    <tag k="addr:city" v="Troy"/>
    <tag k="addr:housenumber" v="96"/>
    <tag k="addr:street" v="Woodland Drive"/>
    <tag k="addr:state" v="VT"/>
    <tag k="ref:vcgi:esiteid" v="262522"/>
  </node>
  <node id="-834" visible="true" lat="44.95760804" lon="-72.41484179">
    <tag k="addr:city" v="Troy"/>
    <tag k="addr:housenumber" v="564"/>
    <tag k="addr:street" v="Vermont Route 101"/>
    <tag k="addr:state" v="VT"/>
    <tag k="ref:vcgi:esiteid" v="262533"/>
  </node>
  <node id="-840" visible="true" lat="44.93867228" lon="-72.41380299">
    <tag k="addr:city" v="Troy"/>
    <tag k="addr:housenumber" v="1816"/>
    <tag k="addr:street" v="Vermont Route 101"/>
    <tag k="addr:state" v="VT"/>
    <tag k="ref:vcgi:esiteid" v="262539"/>
  </node>
  <node id="-841" visible="true" lat="44.93956899" lon="-72.41336448">
    <tag k="addr:city" v="Troy"/>
    <tag k="addr:housenumber" v="1758"/>
    <tag k="addr:street" v="Vermont Route 101"/>
    <tag k="addr:state" v="VT"/>
    <tag k="ref:vcgi:esiteid" v="262540"/>
  </node>
  <node id="-844" visible="true" lat="44.85913533" lon="-72.40064891">
    <tag k="addr:city" v="Troy"/>
    <tag k="addr:housenumber" v="5544"/>
    <tag k="addr:street" v="Loop Road"/>
    <tag k="addr:state" v="VT"/>
    <tag k="ref:vcgi:esiteid" v="262543"/>
  </node>
  <node id="-847" visible="true" lat="44.99430367" lon="-72.39276029">
    <tag k="addr:city" v="Troy"/>
    <tag k="addr:housenumber" v="395"/>
    <tag k="addr:street" v="East Main Street"/>
    <tag k="addr:state" v="VT"/>
    <tag k="ref:vcgi:esiteid" v="262547"/>
  </node>
  <node id="-851" visible="true" lat="44.99795416" lon="-72.39304789">
    <tag k="addr:city" v="Troy"/>
    <tag k="addr:housenumber" v="23"/>
    <tag k="addr:street" v="Geraldine Avenue"/>
    <tag k="addr:state" v="VT"/>
    <tag k="ref:vcgi:esiteid" v="262551"/>
  </node>
  <node id="-867" visible="true" lat="44.91073037" lon="-72.41009414">
    <tag k="addr:city" v="Troy"/>
    <tag k="addr:housenumber" v="168"/>
    <tag k="addr:street" v="Woodland Drive"/>
    <tag k="addr:state" v="VT"/>
    <tag k="ref:vcgi:esiteid" v="262567"/>
  </node>
  <node id="-869" visible="true" lat="44.90976" lon="-72.40408946">
    <tag k="addr:city" v="Troy"/>
    <tag k="addr:housenumber" v="42"/>
    <tag k="addr:street" v="Meadow Lane Circle"/>
    <tag k="addr:state" v="VT"/>
    <tag k="ref:vcgi:esiteid" v="262569"/>
  </node>
  <node id="-885" visible="true" lat="44.85127402" lon="-72.39999779">
    <tag k="addr:city" v="Troy"/>
    <tag k="addr:housenumber" v="5010"/>
    <tag k="addr:street" v="Loop Road"/>
    <tag k="addr:state" v="VT"/>
    <tag k="ref:vcgi:esiteid" v="262585"/>
  </node>
  <node id="-897" visible="true" lat="44.91029806" lon="-72.40701649">
    <tag k="addr:city" v="Troy"/>
    <tag k="addr:housenumber" v="81"/>
    <tag k="addr:street" v="Woodland Drive"/>
    <tag k="addr:state" v="VT"/>
    <tag k="ref:vcgi:esiteid" v="262597"/>
  </node>
  <node id="-900" visible="true" lat="44.84451536" lon="-72.39954905">
    <tag k="addr:city" v="Troy"/>
    <tag k="addr:housenumber" v="234"/>
    <tag k="addr:street" v="Carter Road"/>
    <tag k="addr:state" v="VT"/>
    <tag k="ref:vcgi:esiteid" v="262600"/>
  </node>
  <node id="-907" visible="true" lat="44.9410935" lon="-72.41047097">
    <tag k="addr:city" v="Troy"/>
    <tag k="addr:housenumber" v="1673"/>
    <tag k="addr:street" v="Vermont Route 101"/>
    <tag k="addr:state" v="VT"/>
    <tag k="ref:vcgi:esiteid" v="262608"/>
  </node>
  <node id="-908" visible="true" lat="44.91140727" lon="-72.40681063">
    <tag k="addr:city" v="Troy"/>
    <tag k="addr:housenumber" v="3784"/>
    <tag k="addr:street" v="Vermont Route 101"/>
    <tag k="addr:state" v="VT"/>
    <tag k="ref:vcgi:esiteid" v="262609"/>
  </node>
  <node id="-911" visible="true" lat="44.99516997" lon="-72.40212654">
    <tag k="addr:city" v="Troy"/>
    <tag k="addr:housenumber" v="15"/>
    <tag k="addr:street" v="South Street"/>
    <tag k="addr:state" v="VT"/>
    <tag k="ref:vcgi:esiteid" v="262614"/>
  </node>
  <node id="-926" visible="true" lat="44.99682267" lon="-72.39118991">
    <tag k="addr:city" v="Troy"/>
    <tag k="addr:housenumber" v="132"/>
    <tag k="addr:street" v="Geraldine Avenue"/>
    <tag k="addr:state" v="VT"/>
    <tag k="ref:vcgi:esiteid" v="311143"/>
  </node>
  <node id="-929" visible="true" lat="44.8607162" lon="-72.39916467">
    <tag k="addr:city" v="Troy"/>
    <tag k="addr:housenumber" v="5504"/>
    <tag k="addr:street" v="Loop Road"/>
    <tag k="addr:state" v="VT"/>
    <tag k="ref:vcgi:esiteid" v="315899"/>
  </node>
  <node id="-934" visible="true" lat="44.86269646" lon="-72.40302379">
    <tag k="addr:city" v="Troy"/>
    <tag k="addr:housenumber" v="202"/>
    <tag k="addr:street" v="Fox Run"/>
    <tag k="addr:state" v="VT"/>
    <tag k="ref:vcgi:esiteid" v="328639"/>
  </node>
  <node id="-938" visible="true" lat="44.90568655" lon="-72.40598568">
    <tag k="addr:city" v="Troy"/>
    <tag k="addr:housenumber" v="50"/>
    <tag k="addr:street" v="South Pleasant Street"/>
    <tag k="addr:state" v="VT"/>
    <tag k="ref:vcgi:esiteid" v="331960"/>
  </node>
  <node id="-941" visible="true" lat="44.92857581" lon="-72.40899598">
    <tag k="addr:city" v="Troy"/>
    <tag k="addr:housenumber" v="2542"/>
    <tag k="addr:street" v="Vermont Route 101"/>
    <tag k="addr:state" v="VT"/>
    <tag k="ref:vcgi:esiteid" v="334973"/>
  </node>
  <node id="-944" visible="true" lat="44.92656978" lon="-72.41159043">
    <tag k="addr:city" v="Troy"/>
    <tag k="addr:housenumber" v="168"/>
    <tag k="addr:street" v="Maplecroft"/>
    <tag k="addr:state" v="VT"/>
    <tag k="ref:vcgi:esiteid" v="336515"/>
  </node>
  <node id="-945" visible="true" lat="44.92596488" lon="-72.41234403">
    <tag k="addr:city" v="Troy"/>
    <tag k="addr:housenumber" v="207"/>
    <tag k="addr:street" v="Maplecroft"/>
    <tag k="addr:state" v="VT"/>
    <tag k="ref:vcgi:esiteid" v="336516"/>
  </node>
  <node id="-948" visible="true" lat="44.94277994" lon="-72.41164949">
    <tag k="addr:city" v="Troy"/>
    <tag k="addr:housenumber" v="1530"/>
    <tag k="addr:street" v="Vermont Route 101"/>
    <tag k="addr:state" v="VT"/>
    <tag k="ref:vcgi:esiteid" v="336762"/>
  </node>
  <node id="-950" visible="true" lat="44.9061984" lon="-72.40125731">
    <tag k="addr:city" v="Troy"/>
    <tag k="addr:housenumber" v="99"/>
    <tag k="addr:street" v="Autumn Ridge"/>
    <tag k="addr:state" v="VT"/>
    <tag k="ref:vcgi:esiteid" v="339015"/>
  </node>
  <node id="-952" visible="true" lat="44.90731736" lon="-72.40106494">
    <tag k="addr:city" v="Troy"/>
    <tag k="addr:housenumber" v="165"/>
    <tag k="addr:street" v="Autumn Ridge"/>
    <tag k="addr:state" v="VT"/>
    <tag k="ref:vcgi:esiteid" v="339919"/>
  </node>
  <node id="-954" visible="true" lat="44.91000645" lon="-72.40644505">
    <tag k="addr:city" v="Troy"/>
    <tag k="addr:housenumber" v="59"/>
    <tag k="addr:street" v="Woodland Drive"/>
    <tag k="addr:state" v="VT"/>
    <tag k="ref:vcgi:esiteid" v="339921"/>
  </node>
  <node id="-959" visible="true" lat="44.90677893" lon="-72.4009741">
    <tag k="addr:city" v="Troy"/>
    <tag k="addr:housenumber" v="149"/>
    <tag k="addr:street" v="Autumn Ridge"/>
    <tag k="addr:state" v="VT"/>
    <tag k="ref:vcgi:esiteid" v="345330"/>
  </node>
  <node id="-960" visible="true" lat="44.90114002" lon="-72.3929837">
    <tag k="addr:city" v="Troy"/>
    <tag k="addr:housenumber" v="331"/>
    <tag k="addr:street" v="Loop Road"/>
    <tag k="addr:state" v="VT"/>
    <tag k="ref:vcgi:esiteid" v="346010"/>
  </node>
  <node id="-961" visible="true" lat="44.90668377" lon="-72.3995993">
    <tag k="addr:city" v="Troy"/>
    <tag k="addr:housenumber" v="6374"/>
    <tag k="addr:street" v="River Road"/>
    <tag k="addr:state" v="VT"/>
    <tag k="ref:vcgi:esiteid" v="346011"/>
  </node>
  <node id="-963" visible="true" lat="44.99572561" lon="-72.39812096">
    <tag k="addr:city" v="Troy"/>
    <tag k="addr:housenumber" v="159"/>
    <tag k="addr:street" v="East Main Street"/>
    <tag k="addr:state" v="VT"/>
    <tag k="ref:vcgi:esiteid" v="446447"/>
  </node>
  <node id="-967" visible="true" lat="44.9052815" lon="-72.4031426">
    <tag k="addr:city" v="Troy"/>
    <tag k="addr:housenumber" v="6626"/>
    <tag k="addr:street" v="Vermont Route 100"/>
    <tag k="addr:state" v="VT"/>
    <tag k="ref:vcgi:esiteid" v="447797"/>
  </node>
  <node id="-968" visible="true" lat="44.85627609" lon="-72.40201883">
    <tag k="addr:city" v="Troy"/>
    <tag k="addr:housenumber" v="5349"/>
    <tag k="addr:street" v="Loop Road"/>
    <tag k="addr:state" v="VT"/>
    <tag k="ref:vcgi:esiteid" v="447798"/>
  </node>
  <node id="-971" visible="true" lat="44.9112605" lon="-72.40527665">
    <tag k="addr:city" v="Troy"/>
    <tag k="addr:housenumber" v="3785"/>
    <tag k="addr:street" v="Vermont Route 101"/>
    <tag k="addr:state" v="VT"/>
    <tag k="ref:vcgi:esiteid" v="448279"/>
  </node>
  <node id="-974" visible="true" lat="44.92436259" lon="-72.41062601">
    <tag k="addr:city" v="Troy"/>
    <tag k="addr:housenumber" v="2922"/>
    <tag k="addr:street" v="Vermont Route 101"/>
    <tag k="addr:state" v="VT"/>
    <tag k="ref:vcgi:esiteid" v="449145"/>
  </node>
  <node id="-977" visible="true" lat="44.93086961" lon="-72.41007869">
    <tag k="addr:city" v="Troy"/>
    <tag k="addr:housenumber" v="56"/>
    <tag k="addr:street" v="Nordic Valley Way"/>
    <tag k="addr:state" v="VT"/>
    <tag k="ref:vcgi:esiteid" v="450167"/>
  </node>
  <node id="-978" visible="true" lat="44.9317345" lon="-72.41119678">
    <tag k="addr:city" v="Troy"/>
    <tag k="addr:housenumber" v="158"/>
    <tag k="addr:street" v="Nordic Valley Way"/>
    <tag k="addr:state" v="VT"/>
    <tag k="ref:vcgi:esiteid" v="450168"/>
  </node>
  <node id="-992" visible="true" lat="44.99541891" lon="-72.39079269">
    <tag k="addr:city" v="Troy"/>
    <tag k="addr:housenumber" v="98"/>
    <tag k="addr:street" v="Industrial Park Drive"/>
    <tag k="addr:state" v="VT"/>
    <tag k="ref:vcgi:esiteid" v="611912"/>
  </node>
</osm>
