<?xml version="1.0" encoding="UTF-8"?>
<osm version="0.6" generator="JOSM">
  <node id="-100" visible="true" lat="44.8720815" lon="-72.38593113">
    <tag k="addr:city" v="Troy"/>
    <tag k="addr:housenumber" v="2765"/>
    <tag k="addr:street" v="Loop Road"/>
    <tag k="addr:state" v="VT"/>
    <tag k="ref:vcgi:esiteid" v="2875"/>
  </node>
  <node id="-101" visible="true" lat="45.00559998" lon="-72.4151535">
    <tag k="addr:city" v="Troy"/>
    <tag k="addr:housenumber" v="743"/>
    <tag k="addr:street" v="Vermont Route 243"/>
    <tag k="addr:state" v="VT"/>
    <tag k="ref:vcgi:esiteid" v="261714"/>
  </node>
  <node id="-102" visible="true" lat="45.00509644" lon="-72.34825897">
    <tag k="addr:city" v="Troy"/>
    <tag k="addr:housenumber" v="469"/>
    <tag k="addr:street" v="Guay Farm Road"/>
    <tag k="addr:state" v="VT"/>
    <tag k="ref:vcgi:esiteid" v="261715"/>
  </node>
  <node id="-103" visible="true" lat="45.00489044" lon="-72.41526031">
    <tag k="addr:city" v="Troy"/>
    <tag k="addr:housenumber" v="693"/>
    <tag k="addr:street" v="Vermont Route 243"/>
    <tag k="addr:state" v="VT"/>
    <tag k="ref:vcgi:esiteid" v="261716"/>
  </node>
  <node id="-104" visible="true" lat="45.00392532" lon="-72.40561676">
    <tag k="addr:city" v="Troy"/>
    <tag k="addr:housenumber" v="435"/>
    <tag k="addr:street" v="Dominion Avenue"/>
    <tag k="addr:state" v="VT"/>
    <tag k="ref:vcgi:esiteid" v="261717"/>
  </node>
  <node id="-105" visible="true" lat="45.00379944" lon="-72.34771728">
    <tag k="addr:city" v="Troy"/>
    <tag k="addr:housenumber" v="321"/>
    <tag k="addr:street" v="Guay Farm Road"/>
    <tag k="addr:state" v="VT"/>
    <tag k="ref:vcgi:esiteid" v="261718"/>
  </node>
  <node id="-106" visible="true" lat="45.00312805" lon="-72.40594482">
    <tag k="addr:city" v="Troy"/>
    <tag k="addr:housenumber" v="383"/>
    <tag k="addr:street" v="Dominion Avenue"/>
    <tag k="addr:state" v="VT"/>
    <tag k="ref:vcgi:esiteid" v="261719"/>
  </node>
  <node id="-107" visible="true" lat="45.00248561" lon="-72.40521181">
    <tag k="addr:city" v="Troy"/>
    <tag k="addr:housenumber" v="346"/>
    <tag k="addr:street" v="Dominion Avenue"/>
    <tag k="addr:state" v="VT"/>
    <tag k="ref:vcgi:esiteid" v="261721"/>
  </node>
  <node id="-108" visible="true" lat="45.00257873" lon="-72.40582275">
    <tag k="addr:city" v="Troy"/>
    <tag k="addr:housenumber" v="345"/>
    <tag k="addr:street" v="Dominion Avenue"/>
    <tag k="addr:state" v="VT"/>
    <tag k="ref:vcgi:esiteid" v="261722"/>
  </node>
  <node id="-109" visible="true" lat="45.00236893" lon="-72.40310669">
    <tag k="addr:city" v="Troy"/>
    <tag k="addr:housenumber" v="316"/>
    <tag k="addr:street" v="Dominion Avenue"/>
    <tag k="addr:state" v="VT"/>
    <tag k="ref:vcgi:esiteid" v="261723"/>
  </node>
  <node id="-110" visible="true" lat="45.0012848" lon="-72.3787243">
    <tag k="addr:city" v="Troy"/>
    <tag k="addr:housenumber" v="71"/>
    <tag k="addr:street" v="Douglas Road"/>
    <tag k="addr:state" v="VT"/>
    <tag k="ref:vcgi:esiteid" v="261724"/>
  </node>
  <node id="-111" visible="true" lat="45.00143051" lon="-72.40422058">
    <tag k="addr:city" v="Troy"/>
    <tag k="addr:housenumber" v="252"/>
    <tag k="addr:street" v="Dominion Avenue"/>
    <tag k="addr:state" v="VT"/>
    <tag k="ref:vcgi:esiteid" v="261725"/>
  </node>
  <node id="-112" visible="true" lat="45.00137711" lon="-72.39083862">
    <tag k="addr:city" v="Troy"/>
    <tag k="addr:housenumber" v="78"/>
    <tag k="addr:street" v="Maurice Titus Road"/>
    <tag k="addr:state" v="VT"/>
    <tag k="ref:vcgi:esiteid" v="261726"/>
  </node>
  <node id="-113" visible="true" lat="45.00125122" lon="-72.37805176">
    <tag k="addr:city" v="Troy"/>
    <tag k="addr:housenumber" v="46"/>
    <tag k="addr:street" v="Douglas Road"/>
    <tag k="addr:state" v="VT"/>
    <tag k="ref:vcgi:esiteid" v="261728"/>
  </node>
  <node id="-114" visible="true" lat="45.0010643" lon="-72.40471649">
    <tag k="addr:city" v="Troy"/>
    <tag k="addr:housenumber" v="254"/>
    <tag k="addr:street" v="Dominion Avenue"/>
    <tag k="addr:state" v="VT"/>
    <tag k="ref:vcgi:esiteid" v="261729"/>
  </node>
  <node id="-115" visible="true" lat="45.00082397" lon="-72.34275055">
    <tag k="addr:city" v="Troy"/>
    <tag k="addr:housenumber" v="36"/>
    <tag k="addr:street" v="Guay Farm Road"/>
    <tag k="addr:state" v="VT"/>
    <tag k="ref:vcgi:esiteid" v="261730"/>
  </node>
  <node id="-116" visible="true" lat="45.00076675" lon="-72.35532379">
    <tag k="addr:city" v="Troy"/>
    <tag k="addr:housenumber" v="1863"/>
    <tag k="addr:street" v="Bear Mountain Road"/>
    <tag k="addr:state" v="VT"/>
    <tag k="ref:vcgi:esiteid" v="261731"/>
  </node>
  <node id="-117" visible="true" lat="45.00068664" lon="-72.41259002">
    <tag k="addr:city" v="Troy"/>
    <tag k="addr:housenumber" v="367"/>
    <tag k="addr:street" v="Vermont Route 243"/>
    <tag k="addr:state" v="VT"/>
    <tag k="ref:vcgi:esiteid" v="261732"/>
  </node>
  <node id="-118" visible="true" lat="45.00057983" lon="-72.40544891">
    <tag k="addr:city" v="Troy"/>
    <tag k="addr:housenumber" v="208"/>
    <tag k="addr:street" v="Dominion Avenue"/>
    <tag k="addr:state" v="VT"/>
    <tag k="ref:vcgi:esiteid" v="261733"/>
  </node>
  <node id="-119" visible="true" lat="45.00042737" lon="-72.40622195">
    <tag k="addr:city" v="Troy"/>
    <tag k="addr:housenumber" v="203"/>
    <tag k="addr:street" v="Dominion Avenue"/>
    <tag k="addr:state" v="VT"/>
    <tag k="ref:vcgi:esiteid" v="261734"/>
  </node>
  <node id="-120" visible="true" lat="45.00051879" lon="-72.42866516">
    <tag k="addr:city" v="Troy"/>
    <tag k="addr:housenumber" v="1098"/>
    <tag k="addr:street" v="North Jay Road"/>
    <tag k="addr:state" v="VT"/>
    <tag k="ref:vcgi:esiteid" v="261735"/>
  </node>
  <node id="-121" visible="true" lat="45.00027084" lon="-72.34897614">
    <tag k="addr:city" v="Troy"/>
    <tag k="addr:housenumber" v="2237"/>
    <tag k="addr:street" v="Bear Mountain Road"/>
    <tag k="addr:state" v="VT"/>
    <tag k="ref:vcgi:esiteid" v="261736"/>
  </node>
  <node id="-123" visible="true" lat="45.00010008" lon="-72.33744692">
    <tag k="addr:city" v="Troy"/>
    <tag k="addr:housenumber" v="2577"/>
    <tag k="addr:street" v="Bear Mountain Road"/>
    <tag k="addr:state" v="VT"/>
    <tag k="ref:vcgi:esiteid" v="261738"/>
  </node>
  <node id="-124" visible="true" lat="44.99993515" lon="-72.40602875">
    <tag k="addr:city" v="Troy"/>
    <tag k="addr:housenumber" v="159"/>
    <tag k="addr:street" v="Dominion Avenue"/>
    <tag k="addr:state" v="VT"/>
    <tag k="ref:vcgi:esiteid" v="261739"/>
  </node>
  <node id="-125" visible="true" lat="44.99990421" lon="-72.42757188">
    <tag k="addr:city" v="Troy"/>
    <tag k="addr:housenumber" v="1060"/>
    <tag k="addr:street" v="North Jay Road"/>
    <tag k="addr:state" v="VT"/>
    <tag k="ref:vcgi:esiteid" v="261741"/>
  </node>
  <node id="-126" visible="true" lat="44.99979019" lon="-72.39146423">
    <tag k="addr:city" v="Troy"/>
    <tag k="addr:housenumber" v="415"/>
    <tag k="addr:street" v="Pine Street"/>
    <tag k="addr:state" v="VT"/>
    <tag k="ref:vcgi:esiteid" v="261742"/>
  </node>
  <node id="-127" visible="true" lat="44.99968338" lon="-72.41940307">
    <tag k="addr:city" v="Troy"/>
    <tag k="addr:housenumber" v="624"/>
    <tag k="addr:street" v="North Jay Road"/>
    <tag k="addr:state" v="VT"/>
    <tag k="ref:vcgi:esiteid" v="261743"/>
  </node>
  <node id="-128" visible="true" lat="44.9996643" lon="-72.42626953">
    <tag k="addr:city" v="Troy"/>
    <tag k="addr:housenumber" v="962"/>
    <tag k="addr:street" v="North Jay Road"/>
    <tag k="addr:state" v="VT"/>
    <tag k="ref:vcgi:esiteid" v="261744"/>
  </node>
  <node id="-129" visible="true" lat="44.99954605" lon="-72.41088104">
    <tag k="addr:city" v="Troy"/>
    <tag k="addr:housenumber" v="262"/>
    <tag k="addr:street" v="Vermont Route 243"/>
    <tag k="addr:state" v="VT"/>
    <tag k="ref:vcgi:esiteid" v="261745"/>
  </node>
  <node id="-130" visible="true" lat="44.9993871" lon="-72.39076019">
    <tag k="addr:city" v="Troy"/>
    <tag k="addr:housenumber" v="119"/>
    <tag k="addr:street" v="Geraldine Avenue"/>
    <tag k="addr:state" v="VT"/>
    <tag k="ref:vcgi:esiteid" v="261746"/>
  </node>
  <node id="-131" visible="true" lat="44.99930572" lon="-72.40575409">
    <tag k="addr:city" v="Troy"/>
    <tag k="addr:housenumber" v="120"/>
    <tag k="addr:street" v="Dominion Avenue"/>
    <tag k="addr:state" v="VT"/>
    <tag k="ref:vcgi:esiteid" v="261747"/>
  </node>
  <node id="-132" visible="true" lat="44.99918747" lon="-72.4111557">
    <tag k="addr:city" v="Troy"/>
    <tag k="addr:housenumber" v="261"/>
    <tag k="addr:street" v="Vermont Route 243"/>
    <tag k="addr:state" v="VT"/>
    <tag k="ref:vcgi:esiteid" v="261748"/>
  </node>
  <node id="-133" visible="true" lat="44.99907692" lon="-72.40665236">
    <tag k="addr:city" v="Troy"/>
    <tag k="addr:housenumber" v="99"/>
    <tag k="addr:street" v="Dominion Avenue"/>
    <tag k="addr:state" v="VT"/>
    <tag k="ref:vcgi:esiteid" v="261749"/>
  </node>
  <node id="-134" visible="true" lat="44.99911118" lon="-72.40569305">
    <tag k="addr:city" v="Troy"/>
    <tag k="addr:housenumber" v="118"/>
    <tag k="addr:street" v="Dominion Avenue"/>
    <tag k="addr:state" v="VT"/>
    <tag k="ref:vcgi:esiteid" v="261750"/>
  </node>
  <node id="-135" visible="true" lat="44.99900054" lon="-72.4255371">
    <tag k="addr:city" v="Troy"/>
    <tag k="addr:housenumber" v="936"/>
    <tag k="addr:street" v="North Jay Road"/>
    <tag k="addr:state" v="VT"/>
    <tag k="ref:vcgi:esiteid" v="261751"/>
  </node>
  <node id="-136" visible="true" lat="44.99881363" lon="-72.40563202">
    <tag k="addr:city" v="Troy"/>
    <tag k="addr:housenumber" v="84"/>
    <tag k="addr:street" v="Dominion Avenue"/>
    <tag k="addr:state" v="VT"/>
    <tag k="ref:vcgi:esiteid" v="261752"/>
  </node>
  <node id="-137" visible="true" lat="44.99879074" lon="-72.4069519">
    <tag k="addr:city" v="Troy"/>
    <tag k="addr:housenumber" v="53"/>
    <tag k="addr:street" v="Dominion Avenue"/>
    <tag k="addr:state" v="VT"/>
    <tag k="ref:vcgi:esiteid" v="261753"/>
  </node>
  <node id="-138" visible="true" lat="44.99866867" lon="-72.4107132">
    <tag k="addr:city" v="Troy"/>
    <tag k="addr:housenumber" v="223"/>
    <tag k="addr:street" v="Vermont Route 243"/>
    <tag k="addr:state" v="VT"/>
    <tag k="ref:vcgi:esiteid" v="261755"/>
  </node>
  <node id="-139" visible="true" lat="44.99864197" lon="-72.39318085">
    <tag k="addr:city" v="Troy"/>
    <tag k="addr:housenumber" v="299"/>
    <tag k="addr:street" v="Pine Street"/>
    <tag k="addr:state" v="VT"/>
    <tag k="ref:vcgi:esiteid" v="261756"/>
  </node>
  <node id="-140" visible="true" lat="44.99853134" lon="-72.40583801">
    <tag k="addr:city" v="Troy"/>
    <tag k="addr:housenumber" v="66"/>
    <tag k="addr:street" v="Dominion Avenue"/>
    <tag k="addr:state" v="VT"/>
    <tag k="ref:vcgi:esiteid" v="261757"/>
  </node>
  <node id="-141" visible="true" lat="44.9983688" lon="-72.35285946">
    <tag k="addr:city" v="Troy"/>
    <tag k="addr:housenumber" v="2018"/>
    <tag k="addr:street" v="Bear Mountain Road"/>
    <tag k="addr:state" v="VT"/>
    <tag k="ref:vcgi:esiteid" v="261758"/>
  </node>
  <node id="-142" visible="true" lat="44.99840927" lon="-72.39342499">
    <tag k="addr:city" v="Troy"/>
    <tag k="addr:housenumber" v="281"/>
    <tag k="addr:street" v="Pine Street"/>
    <tag k="addr:state" v="VT"/>
    <tag k="ref:vcgi:esiteid" v="261759"/>
  </node>
  <node id="-143" visible="true" lat="44.99817904" lon="-72.40979085">
    <tag k="addr:city" v="Troy"/>
    <tag k="addr:housenumber" v="169"/>
    <tag k="addr:street" v="Vermont Route 243"/>
    <tag k="addr:state" v="VT"/>
    <tag k="ref:vcgi:esiteid" v="261760"/>
  </node>
  <node id="-144" visible="true" lat="44.99822235" lon="-72.42435455">
    <tag k="addr:city" v="Troy"/>
    <tag k="addr:housenumber" v="857"/>
    <tag k="addr:street" v="North Jay Road"/>
    <tag k="addr:state" v="VT"/>
    <tag k="ref:vcgi:esiteid" v="261762"/>
  </node>
  <node id="-145" visible="true" lat="44.99801122" lon="-72.40910436">
    <tag k="addr:city" v="Troy"/>
    <tag k="addr:housenumber" v="133"/>
    <tag k="addr:street" v="Vermont Route 243"/>
    <tag k="addr:state" v="VT"/>
    <tag k="ref:vcgi:esiteid" v="261764"/>
  </node>
  <node id="-146" visible="true" lat="44.9978866" lon="-72.40866209">
    <tag k="addr:city" v="Troy"/>
    <tag k="addr:housenumber" v="113"/>
    <tag k="addr:street" v="Vermont Route 243"/>
    <tag k="addr:state" v="VT"/>
    <tag k="ref:vcgi:esiteid" v="261765"/>
  </node>
  <node id="-147" visible="true" lat="44.99801649" lon="-72.39404672">
    <tag k="addr:city" v="Troy"/>
    <tag k="addr:housenumber" v="243"/>
    <tag k="addr:street" v="Pine Street"/>
    <tag k="addr:state" v="VT"/>
    <tag k="ref:vcgi:esiteid" v="261766"/>
  </node>
  <node id="-150" visible="true" lat="44.99770735" lon="-72.4077784">
    <tag k="addr:city" v="Troy"/>
    <tag k="addr:housenumber" v="73"/>
    <tag k="addr:street" v="Vermont Route 243"/>
    <tag k="addr:state" v="VT"/>
    <tag k="ref:vcgi:esiteid" v="261769"/>
  </node>
  <node id="-151" visible="true" lat="44.99779892" lon="-72.4012146">
    <tag k="addr:city" v="Troy"/>
    <tag k="addr:housenumber" v="166"/>
    <tag k="addr:street" v="Hill Street"/>
    <tag k="addr:state" v="VT"/>
    <tag k="ref:vcgi:esiteid" v="261770"/>
  </node>
  <node id="-154" visible="true" lat="44.99769564" lon="-72.39423733">
    <tag k="addr:city" v="Troy"/>
    <tag k="addr:housenumber" v="225"/>
    <tag k="addr:street" v="Pine Street"/>
    <tag k="addr:state" v="VT"/>
    <tag k="ref:vcgi:esiteid" v="261773"/>
  </node>
  <node id="-155" visible="true" lat="44.99771881" lon="-72.40742493">
    <tag k="addr:city" v="Troy"/>
    <tag k="addr:housenumber" v="55"/>
    <tag k="addr:street" v="Vermont Route 243"/>
    <tag k="addr:state" v="VT"/>
    <tag k="ref:vcgi:esiteid" v="261774"/>
  </node>
  <node id="-158" visible="true" lat="44.99757349" lon="-72.39477807">
    <tag k="addr:city" v="Troy"/>
    <tag k="addr:housenumber" v="207"/>
    <tag k="addr:street" v="Pine Street"/>
    <tag k="addr:state" v="VT"/>
    <tag k="ref:vcgi:esiteid" v="261777"/>
  </node>
  <node id="-161" visible="true" lat="44.99732448" lon="-72.4071582">
    <tag k="addr:city" v="Troy"/>
    <tag k="addr:housenumber" v="35"/>
    <tag k="addr:street" v="Vermont Route 243"/>
    <tag k="addr:state" v="VT"/>
    <tag k="ref:vcgi:esiteid" v="261782"/>
  </node>
  <node id="-162" visible="true" lat="44.99749756" lon="-72.40641785">
    <tag k="addr:city" v="Troy"/>
    <tag k="addr:housenumber" v="3"/>
    <tag k="addr:street" v="Vermont Route 243"/>
    <tag k="addr:state" v="VT"/>
    <tag k="ref:vcgi:esiteid" v="261783"/>
  </node>
  <node id="-163" visible="true" lat="44.99728798" lon="-72.40584222">
    <tag k="addr:city" v="Troy"/>
    <tag k="addr:housenumber" v="179"/>
    <tag k="addr:street" v="Railroad Street"/>
    <tag k="addr:state" v="VT"/>
    <tag k="ref:vcgi:esiteid" v="261784"/>
  </node>
  <node id="-168" visible="true" lat="44.99716475" lon="-72.39480495">
    <tag k="addr:city" v="Troy"/>
    <tag k="addr:housenumber" v="173"/>
    <tag k="addr:street" v="Pine Street"/>
    <tag k="addr:state" v="VT"/>
    <tag k="ref:vcgi:esiteid" v="261791"/>
  </node>
  <node id="-170" visible="true" lat="44.99713843" lon="-72.39419392">
    <tag k="addr:city" v="Troy"/>
    <tag k="addr:housenumber" v="186"/>
    <tag k="addr:street" v="Pine Street"/>
    <tag k="addr:state" v="VT"/>
    <tag k="ref:vcgi:esiteid" v="261793"/>
  </node>
  <node id="-171" visible="true" lat="44.99703134" lon="-72.39505775">
    <tag k="addr:city" v="Troy"/>
    <tag k="addr:housenumber" v="161"/>
    <tag k="addr:street" v="Pine Street"/>
    <tag k="addr:state" v="VT"/>
    <tag k="ref:vcgi:esiteid" v="261794"/>
  </node>
  <node id="-176" visible="true" lat="44.99698257" lon="-72.40190887">
    <tag k="addr:city" v="Troy"/>
    <tag k="addr:housenumber" v="4"/>
    <tag k="addr:street" v="Railroad Street"/>
    <tag k="addr:state" v="VT"/>
    <tag k="ref:vcgi:esiteid" v="261800"/>
  </node>
  <node id="-181" visible="true" lat="44.99668181" lon="-72.40606958">
    <tag k="addr:city" v="Troy"/>
    <tag k="addr:housenumber" v="148"/>
    <tag k="addr:street" v="Elm Street"/>
    <tag k="addr:state" v="VT"/>
    <tag k="ref:vcgi:esiteid" v="261805"/>
  </node>
  <node id="-184" visible="true" lat="44.99675361" lon="-72.39528965">
    <tag k="addr:city" v="Troy"/>
    <tag k="addr:housenumber" v="141"/>
    <tag k="addr:street" v="Pine Street"/>
    <tag k="addr:state" v="VT"/>
    <tag k="ref:vcgi:esiteid" v="261809"/>
  </node>
  <node id="-187" visible="true" lat="44.99678421" lon="-72.39463043">
    <tag k="addr:city" v="Troy"/>
    <tag k="addr:housenumber" v="154"/>
    <tag k="addr:street" v="Pine Street"/>
    <tag k="addr:state" v="VT"/>
    <tag k="ref:vcgi:esiteid" v="261812"/>
  </node>
  <node id="-188" visible="true" lat="44.99668174" lon="-72.40363329">
    <tag k="addr:city" v="Troy"/>
    <tag k="addr:housenumber" v="67"/>
    <tag k="addr:street" v="Railroad Street"/>
    <tag k="addr:state" v="VT"/>
    <tag k="ref:vcgi:esiteid" v="261813"/>
  </node>
  <node id="-192" visible="true" lat="44.99669266" lon="-72.38990021">
    <tag k="addr:city" v="Troy"/>
    <tag k="addr:housenumber" v="199"/>
    <tag k="addr:street" v="Geraldine Avenue"/>
    <tag k="addr:state" v="VT"/>
    <tag k="ref:vcgi:esiteid" v="261817"/>
  </node>
  <node id="-193" visible="true" lat="44.99657729" lon="-72.39476388">
    <tag k="addr:city" v="Troy"/>
    <tag k="addr:housenumber" v="142"/>
    <tag k="addr:street" v="Pine Street"/>
    <tag k="addr:state" v="VT"/>
    <tag k="ref:vcgi:esiteid" v="261818"/>
  </node>
  <node id="-194" visible="true" lat="44.99662164" lon="-72.39051879">
    <tag k="addr:city" v="Troy"/>
    <tag k="addr:housenumber" v="174"/>
    <tag k="addr:street" v="Geraldine Avenue"/>
    <tag k="addr:state" v="VT"/>
    <tag k="ref:vcgi:esiteid" v="261819"/>
  </node>
  <node id="-195" visible="true" lat="44.99667358" lon="-72.40119171">
    <tag k="addr:city" v="Troy"/>
    <tag k="addr:housenumber" v="51"/>
    <tag k="addr:street" v="Hill Street"/>
    <tag k="addr:state" v="VT"/>
    <tag k="ref:vcgi:esiteid" v="261821"/>
  </node>
  <node id="-197" visible="true" lat="44.99659282" lon="-72.40155064">
    <tag k="addr:city" v="Troy"/>
    <tag k="addr:housenumber" v="31"/>
    <tag k="addr:street" v="Hill Street"/>
    <tag k="addr:state" v="VT"/>
    <tag k="ref:vcgi:esiteid" v="261823"/>
  </node>
  <node id="-198" visible="true" lat="44.99659098" lon="-72.3956736">
    <tag k="addr:city" v="Troy"/>
    <tag k="addr:housenumber" v="117"/>
    <tag k="addr:street" v="Pine Street"/>
    <tag k="addr:state" v="VT"/>
    <tag k="ref:vcgi:esiteid" v="261824"/>
  </node>
  <node id="-200" visible="true" lat="44.99652627" lon="-72.39032043">
    <tag k="addr:city" v="Troy"/>
    <tag k="addr:housenumber" v="186"/>
    <tag k="addr:street" v="Geraldine Avenue"/>
    <tag k="addr:state" v="VT"/>
    <tag k="ref:vcgi:esiteid" v="261827"/>
  </node>
  <node id="-201" visible="true" lat="44.99658203" lon="-72.40198517">
    <tag k="addr:city" v="Troy"/>
    <tag k="addr:housenumber" v="2"/>
    <tag k="addr:street" v="Railroad Street"/>
    <tag k="addr:state" v="VT"/>
    <tag k="ref:vcgi:esiteid" v="261828"/>
  </node>
  <node id="-202" visible="true" lat="44.99644321" lon="-72.39493941">
    <tag k="addr:city" v="Troy"/>
    <tag k="addr:housenumber" v="134"/>
    <tag k="addr:street" v="Pine Street"/>
    <tag k="addr:state" v="VT"/>
    <tag k="ref:vcgi:esiteid" v="261829"/>
  </node>
  <node id="-203" visible="true" lat="44.99645996" lon="-72.33203125">
    <tag k="addr:city" v="Troy"/>
    <tag k="addr:housenumber" v="3185"/>
    <tag k="addr:street" v="Bear Mountain Road"/>
    <tag k="addr:state" v="VT"/>
    <tag k="ref:vcgi:esiteid" v="261830"/>
  </node>
  <node id="-205" visible="true" lat="44.99631943" lon="-72.38995899">
    <tag k="addr:city" v="Troy"/>
    <tag k="addr:housenumber" v="202"/>
    <tag k="addr:street" v="Geraldine Avenue"/>
    <tag k="addr:state" v="VT"/>
    <tag k="ref:vcgi:esiteid" v="261832"/>
  </node>
  <node id="-206" visible="true" lat="44.99615636" lon="-72.41477899">
    <tag k="addr:city" v="Troy"/>
    <tag k="addr:housenumber" v="383"/>
    <tag k="addr:street" v="North Jay Road"/>
    <tag k="addr:state" v="VT"/>
    <tag k="ref:vcgi:esiteid" v="261833"/>
  </node>
  <node id="-207" visible="true" lat="44.99630963" lon="-72.39511123">
    <tag k="addr:city" v="Troy"/>
    <tag k="addr:housenumber" v="120"/>
    <tag k="addr:street" v="Pine Street"/>
    <tag k="addr:state" v="VT"/>
    <tag k="ref:vcgi:esiteid" v="261835"/>
  </node>
  <node id="-208" visible="true" lat="44.99631687" lon="-72.41192525">
    <tag k="addr:city" v="Troy"/>
    <tag k="addr:housenumber" v="250"/>
    <tag k="addr:street" v="North Jay Road"/>
    <tag k="addr:state" v="VT"/>
    <tag k="ref:vcgi:esiteid" v="261836"/>
  </node>
  <node id="-210" visible="true" lat="44.99628547" lon="-72.39580851">
    <tag k="addr:city" v="Troy"/>
    <tag k="addr:housenumber" v="97"/>
    <tag k="addr:street" v="Pine Street"/>
    <tag k="addr:state" v="VT"/>
    <tag k="ref:vcgi:esiteid" v="261840"/>
  </node>
  <node id="-211" visible="true" lat="44.99630943" lon="-72.41126445">
    <tag k="addr:city" v="Troy"/>
    <tag k="addr:housenumber" v="214"/>
    <tag k="addr:street" v="North Jay Road"/>
    <tag k="addr:state" v="VT"/>
    <tag k="ref:vcgi:esiteid" v="261841"/>
  </node>
  <node id="-213" visible="true" lat="44.99628912" lon="-72.40290239">
    <tag k="addr:city" v="Troy"/>
    <tag k="addr:housenumber" v="14"/>
    <tag k="addr:street" v="Main Street"/>
    <tag k="addr:state" v="VT"/>
    <tag k="ref:vcgi:esiteid" v="261843"/>
  </node>
  <node id="-214" visible="true" lat="44.99609709" lon="-72.38943695">
    <tag k="addr:city" v="Troy"/>
    <tag k="addr:housenumber" v="238"/>
    <tag k="addr:street" v="Geraldine Avenue"/>
    <tag k="addr:state" v="VT"/>
    <tag k="ref:vcgi:esiteid" v="261844"/>
  </node>
  <node id="-215" visible="true" lat="44.99583899" lon="-72.39608264">
    <tag k="addr:city" v="Troy"/>
    <tag k="addr:housenumber" v="87"/>
    <tag k="addr:street" v="Pine Street"/>
    <tag k="addr:state" v="VT"/>
    <tag k="ref:vcgi:esiteid" v="261845"/>
  </node>
  <node id="-218" visible="true" lat="44.99595106" lon="-72.37781255">
    <tag k="addr:city" v="Troy"/>
    <tag k="addr:housenumber" v="214"/>
    <tag k="addr:street" v="Cross Road"/>
    <tag k="addr:state" v="VT"/>
    <tag k="ref:vcgi:esiteid" v="261849"/>
  </node>
  <node id="-219" visible="true" lat="44.99608993" lon="-72.41219329">
    <tag k="addr:city" v="Troy"/>
    <tag k="addr:housenumber" v="245"/>
    <tag k="addr:street" v="North Jay Road"/>
    <tag k="addr:state" v="VT"/>
    <tag k="ref:vcgi:esiteid" v="261850"/>
  </node>
  <node id="-220" visible="true" lat="44.99612186" lon="-72.40306341">
    <tag k="addr:city" v="Troy"/>
    <tag k="addr:housenumber" v="30"/>
    <tag k="addr:street" v="Main Street"/>
    <tag k="addr:state" v="VT"/>
    <tag k="ref:vcgi:esiteid" v="261851"/>
  </node>
  <node id="-224" visible="true" lat="44.99608557" lon="-72.40399801">
    <tag k="addr:city" v="Troy"/>
    <tag k="addr:housenumber" v="66"/>
    <tag k="addr:street" v="Main Street"/>
    <tag k="addr:state" v="VT"/>
    <tag k="ref:vcgi:esiteid" v="261855"/>
  </node>
  <node id="-225" visible="true" lat="44.99596244" lon="-72.40205324">
    <tag k="addr:city" v="Troy"/>
    <tag k="addr:housenumber" v="66"/>
    <tag k="addr:street" v="South Street"/>
    <tag k="addr:state" v="VT"/>
    <tag k="ref:vcgi:esiteid" v="261856"/>
  </node>
  <node id="-228" visible="true" lat="44.99594497" lon="-72.41136932">
    <tag k="addr:city" v="Troy"/>
    <tag k="addr:housenumber" v="209"/>
    <tag k="addr:street" v="North Jay Road"/>
    <tag k="addr:state" v="VT"/>
    <tag k="ref:vcgi:esiteid" v="261859"/>
  </node>
  <node id="-229" visible="true" lat="44.99592209" lon="-72.38726807">
    <tag k="addr:city" v="Troy"/>
    <tag k="addr:housenumber" v="321"/>
    <tag k="addr:street" v="Geraldine Avenue"/>
    <tag k="addr:state" v="VT"/>
    <tag k="ref:vcgi:esiteid" v="261860"/>
  </node>
  <node id="-230" visible="true" lat="44.99583291" lon="-72.41012048">
    <tag k="addr:city" v="Troy"/>
    <tag k="addr:housenumber" v="150"/>
    <tag k="addr:street" v="North Jay Road"/>
    <tag k="addr:state" v="VT"/>
    <tag k="ref:vcgi:esiteid" v="261861"/>
  </node>
  <node id="-239" visible="true" lat="44.99557203" lon="-72.40933858">
    <tag k="addr:city" v="Troy"/>
    <tag k="addr:housenumber" v="112"/>
    <tag k="addr:street" v="North Jay Road"/>
    <tag k="addr:state" v="VT"/>
    <tag k="ref:vcgi:esiteid" v="261873"/>
  </node>
  <node id="-242" visible="true" lat="44.99565124" lon="-72.40967559">
    <tag k="addr:city" v="Troy"/>
    <tag k="addr:housenumber" v="124"/>
    <tag k="addr:street" v="North Jay Road"/>
    <tag k="addr:state" v="VT"/>
    <tag k="ref:vcgi:esiteid" v="261876"/>
  </node>
  <node id="-244" visible="true" lat="44.99564046" lon="-72.40082294">
    <tag k="addr:city" v="Troy"/>
    <tag k="addr:housenumber" v="371"/>
    <tag k="addr:street" v="North Pleasant Street"/>
    <tag k="addr:state" v="VT"/>
    <tag k="ref:vcgi:esiteid" v="261878"/>
  </node>
  <node id="-246" visible="true" lat="44.99546814" lon="-72.33960724">
    <tag k="addr:city" v="Troy"/>
    <tag k="addr:housenumber" v="2884"/>
    <tag k="addr:street" v="Bear Mountain Road"/>
    <tag k="addr:state" v="VT"/>
    <tag k="ref:vcgi:esiteid" v="261881"/>
  </node>
  <node id="-248" visible="true" lat="44.99553071" lon="-72.40182161">
    <tag k="addr:city" v="Troy"/>
    <tag k="addr:housenumber" v="30"/>
    <tag k="addr:street" v="South Street"/>
    <tag k="addr:state" v="VT"/>
    <tag k="ref:vcgi:esiteid" v="261884"/>
  </node>
  <node id="-249" visible="true" lat="44.99545477" lon="-72.40109307">
    <tag k="addr:city" v="Troy"/>
    <tag k="addr:housenumber" v="355"/>
    <tag k="addr:street" v="North Pleasant Street"/>
    <tag k="addr:state" v="VT"/>
    <tag k="ref:vcgi:esiteid" v="261885"/>
  </node>
  <node id="-250" visible="true" lat="44.99541041" lon="-72.38790751">
    <tag k="addr:city" v="Troy"/>
    <tag k="addr:housenumber" v="334"/>
    <tag k="addr:street" v="Geraldine Avenue"/>
    <tag k="addr:state" v="VT"/>
    <tag k="ref:vcgi:esiteid" v="261887"/>
  </node>
  <node id="-257" visible="true" lat="44.99539184" lon="-72.40872192">
    <tag k="addr:city" v="Troy"/>
    <tag k="addr:housenumber" v="72"/>
    <tag k="addr:street" v="North Jay Road"/>
    <tag k="addr:state" v="VT"/>
    <tag k="ref:vcgi:esiteid" v="261894"/>
  </node>
  <node id="-259" visible="true" lat="44.99527179" lon="-72.41003314">
    <tag k="addr:city" v="Troy"/>
    <tag k="addr:housenumber" v="137"/>
    <tag k="addr:street" v="North Jay Road"/>
    <tag k="addr:state" v="VT"/>
    <tag k="ref:vcgi:esiteid" v="261896"/>
  </node>
  <node id="-261" visible="true" lat="44.99515452" lon="-72.40934028">
    <tag k="addr:city" v="Troy"/>
    <tag k="addr:housenumber" v="105"/>
    <tag k="addr:street" v="North Jay Road"/>
    <tag k="addr:state" v="VT"/>
    <tag k="ref:vcgi:esiteid" v="261898"/>
  </node>
  <node id="-262" visible="true" lat="44.99542264" lon="-72.39655851">
    <tag k="addr:city" v="Troy"/>
    <tag k="addr:housenumber" v="197"/>
    <tag k="addr:street" v="East Main Street"/>
    <tag k="addr:state" v="VT"/>
    <tag k="ref:vcgi:esiteid" v="261899"/>
  </node>
  <node id="-269" visible="true" lat="44.99520111" lon="-72.40161133">
    <tag k="addr:city" v="Troy"/>
    <tag k="addr:housenumber" v="321"/>
    <tag k="addr:street" v="North Pleasant Street"/>
    <tag k="addr:state" v="VT"/>
    <tag k="ref:vcgi:esiteid" v="261908"/>
  </node>
  <node id="-273" visible="true" lat="44.99507853" lon="-72.3878007">
    <tag k="addr:city" v="Troy"/>
    <tag k="addr:housenumber" v="360"/>
    <tag k="addr:street" v="Geraldine Avenue"/>
    <tag k="addr:state" v="VT"/>
    <tag k="ref:vcgi:esiteid" v="261912"/>
  </node>
  <node id="-275" visible="true" lat="44.99508012" lon="-72.40354472">
    <tag k="addr:city" v="Troy"/>
    <tag k="addr:housenumber" v="31"/>
    <tag k="addr:street" v="High Street"/>
    <tag k="addr:state" v="VT"/>
    <tag k="ref:vcgi:esiteid" v="261914"/>
  </node>
  <node id="-279" visible="true" lat="44.99511337" lon="-72.40888977">
    <tag k="addr:city" v="Troy"/>
    <tag k="addr:housenumber" v="73"/>
    <tag k="addr:street" v="North Jay Road"/>
    <tag k="addr:state" v="VT"/>
    <tag k="ref:vcgi:esiteid" v="261920"/>
  </node>
  <node id="-280" visible="true" lat="44.99501038" lon="-72.33615875">
    <tag k="addr:city" v="Troy"/>
    <tag k="addr:housenumber" v="3039"/>
    <tag k="addr:street" v="Bear Mountain Road"/>
    <tag k="addr:state" v="VT"/>
    <tag k="ref:vcgi:esiteid" v="261921"/>
  </node>
  <node id="-285" visible="true" lat="44.9947456" lon="-72.41080467">
    <tag k="addr:city" v="Troy"/>
    <tag k="addr:housenumber" v="195"/>
    <tag k="addr:street" v="North Jay Road"/>
    <tag k="addr:state" v="VT"/>
    <tag k="ref:vcgi:esiteid" v="261926"/>
  </node>
  <node id="-290" visible="true" lat="44.99490037" lon="-72.40843888">
    <tag k="addr:city" v="Troy"/>
    <tag k="addr:housenumber" v="49"/>
    <tag k="addr:street" v="North Jay Road"/>
    <tag k="addr:state" v="VT"/>
    <tag k="ref:vcgi:esiteid" v="261933"/>
  </node>
  <node id="-326" visible="true" lat="44.99448878" lon="-72.36267303">
    <tag k="addr:city" v="Troy"/>
    <tag k="addr:housenumber" v="1602"/>
    <tag k="addr:street" v="Bear Mountain Road"/>
    <tag k="addr:state" v="VT"/>
    <tag k="ref:vcgi:esiteid" v="261973"/>
  </node>
  <node id="-333" visible="true" lat="44.99414282" lon="-72.39848562">
    <tag k="addr:city" v="Troy"/>
    <tag k="addr:housenumber" v="70"/>
    <tag k="addr:street" v="Elkins Drive"/>
    <tag k="addr:state" v="VT"/>
    <tag k="ref:vcgi:esiteid" v="261981"/>
  </node>
  <node id="-338" visible="true" lat="44.99414983" lon="-72.40798909">
    <tag k="addr:city" v="Troy"/>
    <tag k="addr:housenumber" v="48"/>
    <tag k="addr:street" v="Highland Avenue"/>
    <tag k="addr:state" v="VT"/>
    <tag k="ref:vcgi:esiteid" v="261988"/>
  </node>
  <node id="-349" visible="true" lat="44.993525" lon="-72.41276469">
    <tag k="addr:city" v="Troy"/>
    <tag k="addr:housenumber" v="247"/>
    <tag k="addr:street" v="North Jay Road"/>
    <tag k="addr:state" v="VT"/>
    <tag k="ref:vcgi:esiteid" v="261999"/>
  </node>
  <node id="-351" visible="true" lat="44.99392691" lon="-72.40807008">
    <tag k="addr:city" v="Troy"/>
    <tag k="addr:housenumber" v="64"/>
    <tag k="addr:street" v="Highland Avenue"/>
    <tag k="addr:state" v="VT"/>
    <tag k="ref:vcgi:esiteid" v="262001"/>
  </node>
  <node id="-352" visible="true" lat="44.99369485" lon="-72.40811116">
    <tag k="addr:city" v="Troy"/>
    <tag k="addr:housenumber" v="62"/>
    <tag k="addr:street" v="Highland Avenue"/>
    <tag k="addr:state" v="VT"/>
    <tag k="ref:vcgi:esiteid" v="262002"/>
  </node>
  <node id="-368" visible="true" lat="44.99334453" lon="-72.39780812">
    <tag k="addr:city" v="Troy"/>
    <tag k="addr:housenumber" v="122"/>
    <tag k="addr:street" v="Elkins Drive"/>
    <tag k="addr:state" v="VT"/>
    <tag k="ref:vcgi:esiteid" v="262020"/>
  </node>
  <node id="-371" visible="true" lat="44.99333771" lon="-72.40849868">
    <tag k="addr:city" v="Troy"/>
    <tag k="addr:housenumber" v="96"/>
    <tag k="addr:street" v="Highland Avenue"/>
    <tag k="addr:state" v="VT"/>
    <tag k="ref:vcgi:esiteid" v="262025"/>
  </node>
  <node id="-373" visible="true" lat="44.99314499" lon="-72.33424377">
    <tag k="addr:city" v="Troy"/>
    <tag k="addr:housenumber" v="3186"/>
    <tag k="addr:street" v="Bear Mountain Road"/>
    <tag k="addr:state" v="VT"/>
    <tag k="ref:vcgi:esiteid" v="262027"/>
  </node>
  <node id="-374" visible="true" lat="44.9930458" lon="-72.40855407">
    <tag k="addr:city" v="Troy"/>
    <tag k="addr:housenumber" v="134"/>
    <tag k="addr:street" v="Highland Avenue"/>
    <tag k="addr:state" v="VT"/>
    <tag k="ref:vcgi:esiteid" v="262028"/>
  </node>
  <node id="-379" visible="true" lat="44.99247224" lon="-72.40870795">
    <tag k="addr:city" v="Troy"/>
    <tag k="addr:housenumber" v="136"/>
    <tag k="addr:street" v="Highland Avenue"/>
    <tag k="addr:state" v="VT"/>
    <tag k="ref:vcgi:esiteid" v="262034"/>
  </node>
  <node id="-382" visible="true" lat="44.99217224" lon="-72.3347702">
    <tag k="addr:city" v="Troy"/>
    <tag k="addr:housenumber" v="3240"/>
    <tag k="addr:street" v="Bear Mountain Road"/>
    <tag k="addr:state" v="VT"/>
    <tag k="ref:vcgi:esiteid" v="262037"/>
  </node>
  <node id="-386" visible="true" lat="44.99223066" lon="-72.37919084">
    <tag k="addr:city" v="Troy"/>
    <tag k="addr:housenumber" v="409"/>
    <tag k="addr:street" v="Vermont Route 105 East"/>
    <tag k="addr:state" v="VT"/>
    <tag k="ref:vcgi:esiteid" v="262041"/>
  </node>
  <node id="-388" visible="true" lat="44.99197906" lon="-72.40867669">
    <tag k="addr:city" v="Troy"/>
    <tag k="addr:housenumber" v="202"/>
    <tag k="addr:street" v="Highland Avenue"/>
    <tag k="addr:state" v="VT"/>
    <tag k="ref:vcgi:esiteid" v="262044"/>
  </node>
  <node id="-392" visible="true" lat="44.99133814" lon="-72.40892666">
    <tag k="addr:city" v="Troy"/>
    <tag k="addr:housenumber" v="214"/>
    <tag k="addr:street" v="Highland Avenue"/>
    <tag k="addr:state" v="VT"/>
    <tag k="ref:vcgi:esiteid" v="262048"/>
  </node>
  <node id="-395" visible="true" lat="44.99087568" lon="-72.40851797">
    <tag k="addr:city" v="Troy"/>
    <tag k="addr:housenumber" v="270"/>
    <tag k="addr:street" v="Highland Avenue"/>
    <tag k="addr:state" v="VT"/>
    <tag k="ref:vcgi:esiteid" v="262051"/>
  </node>
  <node id="-396" visible="true" lat="44.99048233" lon="-72.40840149">
    <tag k="addr:city" v="Troy"/>
    <tag k="addr:housenumber" v="296"/>
    <tag k="addr:street" v="Highland Avenue"/>
    <tag k="addr:state" v="VT"/>
    <tag k="ref:vcgi:esiteid" v="262054"/>
  </node>
  <node id="-399" visible="true" lat="44.99023081" lon="-72.38537209">
    <tag k="addr:city" v="Troy"/>
    <tag k="addr:housenumber" v="150"/>
    <tag k="addr:street" v="River Road"/>
    <tag k="addr:state" v="VT"/>
    <tag k="ref:vcgi:esiteid" v="262057"/>
  </node>
  <node id="-401" visible="true" lat="44.99007757" lon="-72.40840937">
    <tag k="addr:city" v="Troy"/>
    <tag k="addr:housenumber" v="340"/>
    <tag k="addr:street" v="Highland Avenue"/>
    <tag k="addr:state" v="VT"/>
    <tag k="ref:vcgi:esiteid" v="262059"/>
  </node>
  <node id="-402" visible="true" lat="44.98966057" lon="-72.37582431">
    <tag k="addr:city" v="Troy"/>
    <tag k="addr:housenumber" v="47"/>
    <tag k="addr:street" v="East Hill Extension"/>
    <tag k="addr:state" v="VT"/>
    <tag k="ref:vcgi:esiteid" v="262060"/>
  </node>
  <node id="-403" visible="true" lat="44.98963165" lon="-72.40853882">
    <tag k="addr:city" v="Troy"/>
    <tag k="addr:housenumber" v="370"/>
    <tag k="addr:street" v="Highland Avenue"/>
    <tag k="addr:state" v="VT"/>
    <tag k="ref:vcgi:esiteid" v="262061"/>
  </node>
  <node id="-406" visible="true" lat="44.9887619" lon="-72.40896607">
    <tag k="addr:city" v="Troy"/>
    <tag k="addr:housenumber" v="434"/>
    <tag k="addr:street" v="Highland Avenue"/>
    <tag k="addr:state" v="VT"/>
    <tag k="ref:vcgi:esiteid" v="262065"/>
  </node>
  <node id="-408" visible="true" lat="44.98794556" lon="-72.40940094">
    <tag k="addr:city" v="Troy"/>
    <tag k="addr:housenumber" v="494"/>
    <tag k="addr:street" v="Highland Avenue"/>
    <tag k="addr:state" v="VT"/>
    <tag k="ref:vcgi:esiteid" v="262067"/>
  </node>
  <node id="-409" visible="true" lat="44.98731232" lon="-72.4096756">
    <tag k="addr:city" v="Troy"/>
    <tag k="addr:housenumber" v="526"/>
    <tag k="addr:street" v="Highland Avenue"/>
    <tag k="addr:state" v="VT"/>
    <tag k="ref:vcgi:esiteid" v="262070"/>
  </node>
  <node id="-411" visible="true" lat="44.98661041" lon="-72.40956879">
    <tag k="addr:city" v="Troy"/>
    <tag k="addr:housenumber" v="584"/>
    <tag k="addr:street" v="Highland Avenue"/>
    <tag k="addr:state" v="VT"/>
    <tag k="ref:vcgi:esiteid" v="262073"/>
  </node>
  <node id="-412" visible="true" lat="44.9863472" lon="-72.38466644">
    <tag k="addr:city" v="Troy"/>
    <tag k="addr:housenumber" v="442"/>
    <tag k="addr:street" v="River Road"/>
    <tag k="addr:state" v="VT"/>
    <tag k="ref:vcgi:esiteid" v="262074"/>
  </node>
  <node id="-413" visible="true" lat="44.98606491" lon="-72.41000366">
    <tag k="addr:city" v="Troy"/>
    <tag k="addr:housenumber" v="626"/>
    <tag k="addr:street" v="Highland Avenue"/>
    <tag k="addr:state" v="VT"/>
    <tag k="ref:vcgi:esiteid" v="262075"/>
  </node>
  <node id="-415" visible="true" lat="44.98557663" lon="-72.3752594">
    <tag k="addr:city" v="Troy"/>
    <tag k="addr:housenumber" v="364"/>
    <tag k="addr:street" v="East Hill"/>
    <tag k="addr:state" v="VT"/>
    <tag k="ref:vcgi:esiteid" v="262077"/>
  </node>
  <node id="-416" visible="true" lat="44.98557663" lon="-72.41027832">
    <tag k="addr:city" v="Troy"/>
    <tag k="addr:housenumber" v="654"/>
    <tag k="addr:street" v="Highland Avenue"/>
    <tag k="addr:state" v="VT"/>
    <tag k="ref:vcgi:esiteid" v="262078"/>
  </node>
  <node id="-417" visible="true" lat="44.9845541" lon="-72.35839445">
    <tag k="addr:city" v="Troy"/>
    <tag k="addr:housenumber" v="1513"/>
    <tag k="addr:street" v="Vermont Route 105 East"/>
    <tag k="addr:state" v="VT"/>
    <tag k="ref:vcgi:esiteid" v="262079"/>
  </node>
  <node id="-419" visible="true" lat="44.98386182" lon="-72.37097121">
    <tag k="addr:city" v="Troy"/>
    <tag k="addr:housenumber" v="507"/>
    <tag k="addr:street" v="East Hill"/>
    <tag k="addr:state" v="VT"/>
    <tag k="ref:vcgi:esiteid" v="262081"/>
  </node>
  <node id="-420" visible="true" lat="44.98370742" lon="-72.41105651">
    <tag k="addr:city" v="Troy"/>
    <tag k="addr:housenumber" v="110"/>
    <tag k="addr:street" v="Vermont Route 105 West"/>
    <tag k="addr:state" v="VT"/>
    <tag k="ref:vcgi:esiteid" v="262084"/>
  </node>
  <node id="-422" visible="true" lat="44.98286819" lon="-72.41056824">
    <tag k="addr:city" v="Troy"/>
    <tag k="addr:housenumber" v="153"/>
    <tag k="addr:street" v="Vermont Route 105 West"/>
    <tag k="addr:state" v="VT"/>
    <tag k="ref:vcgi:esiteid" v="262086"/>
  </node>
  <node id="-423" visible="true" lat="44.98200607" lon="-72.40988922">
    <tag k="addr:city" v="Troy"/>
    <tag k="addr:housenumber" v="100"/>
    <tag k="addr:street" v="Vincent Road"/>
    <tag k="addr:state" v="VT"/>
    <tag k="ref:vcgi:esiteid" v="262087"/>
  </node>
  <node id="-424" visible="true" lat="44.98197937" lon="-72.41077423">
    <tag k="addr:city" v="Troy"/>
    <tag k="addr:housenumber" v="219"/>
    <tag k="addr:street" v="Vermont Route 105 West"/>
    <tag k="addr:state" v="VT"/>
    <tag k="ref:vcgi:esiteid" v="262088"/>
  </node>
  <node id="-425" visible="true" lat="44.98173141" lon="-72.4058609">
    <tag k="addr:city" v="Troy"/>
    <tag k="addr:housenumber" v="319"/>
    <tag k="addr:street" v="Vincent Road"/>
    <tag k="addr:state" v="VT"/>
    <tag k="ref:vcgi:esiteid" v="262089"/>
  </node>
  <node id="-426" visible="true" lat="44.98154068" lon="-72.35392761">
    <tag k="addr:city" v="Troy"/>
    <tag k="addr:housenumber" v="1863"/>
    <tag k="addr:street" v="Vermont Route 105 East"/>
    <tag k="addr:state" v="VT"/>
    <tag k="ref:vcgi:esiteid" v="262090"/>
  </node>
  <node id="-427" visible="true" lat="44.98112106" lon="-72.41217803">
    <tag k="addr:city" v="Troy"/>
    <tag k="addr:housenumber" v="312"/>
    <tag k="addr:street" v="Vermont Route 105 West"/>
    <tag k="addr:state" v="VT"/>
    <tag k="ref:vcgi:esiteid" v="262091"/>
  </node>
  <node id="-428" visible="true" lat="44.98096045" lon="-72.37132834">
    <tag k="addr:city" v="Troy"/>
    <tag k="addr:housenumber" v="721"/>
    <tag k="addr:street" v="East Hill"/>
    <tag k="addr:state" v="VT"/>
    <tag k="ref:vcgi:esiteid" v="262092"/>
  </node>
  <node id="-429" visible="true" lat="44.98049545" lon="-72.4072113">
    <tag k="addr:city" v="Troy"/>
    <tag k="addr:housenumber" v="378"/>
    <tag k="addr:street" v="Vincent Road"/>
    <tag k="addr:state" v="VT"/>
    <tag k="ref:vcgi:esiteid" v="262093"/>
  </node>
  <node id="-430" visible="true" lat="44.98046058" lon="-72.35298881">
    <tag k="addr:city" v="Troy"/>
    <tag k="addr:housenumber" v="10"/>
    <tag k="addr:street" v="Blais Road"/>
    <tag k="addr:state" v="VT"/>
    <tag k="ref:vcgi:esiteid" v="262094"/>
  </node>
  <node id="-431" visible="true" lat="44.98021317" lon="-72.40699005">
    <tag k="addr:city" v="Troy"/>
    <tag k="addr:housenumber" v="380"/>
    <tag k="addr:street" v="Vincent Road"/>
    <tag k="addr:state" v="VT"/>
    <tag k="ref:vcgi:esiteid" v="262095"/>
  </node>
  <node id="-432" visible="true" lat="44.98004816" lon="-72.3522517">
    <tag k="addr:city" v="Troy"/>
    <tag k="addr:housenumber" v="31"/>
    <tag k="addr:street" v="Blais Road"/>
    <tag k="addr:state" v="VT"/>
    <tag k="ref:vcgi:esiteid" v="262096"/>
  </node>
  <node id="-433" visible="true" lat="44.97994191" lon="-72.35043296">
    <tag k="addr:city" v="Troy"/>
    <tag k="addr:housenumber" v="2062"/>
    <tag k="addr:street" v="Vermont Route 105 East"/>
    <tag k="addr:state" v="VT"/>
    <tag k="ref:vcgi:esiteid" v="262097"/>
  </node>
  <node id="-434" visible="true" lat="44.98055619" lon="-72.34186525">
    <tag k="addr:city" v="Troy"/>
    <tag k="addr:housenumber" v="2473"/>
    <tag k="addr:street" v="Vermont Route 105 East"/>
    <tag k="addr:state" v="VT"/>
    <tag k="ref:vcgi:esiteid" v="262098"/>
  </node>
  <node id="-435" visible="true" lat="44.97992706" lon="-72.40641022">
    <tag k="addr:city" v="Troy"/>
    <tag k="addr:housenumber" v="420"/>
    <tag k="addr:street" v="Vincent Road"/>
    <tag k="addr:state" v="VT"/>
    <tag k="ref:vcgi:esiteid" v="262099"/>
  </node>
  <node id="-436" visible="true" lat="44.97964859" lon="-72.40663147">
    <tag k="addr:city" v="Troy"/>
    <tag k="addr:housenumber" v="424"/>
    <tag k="addr:street" v="Vincent Road"/>
    <tag k="addr:state" v="VT"/>
    <tag k="ref:vcgi:esiteid" v="262100"/>
  </node>
  <node id="-437" visible="true" lat="44.97938166" lon="-72.33972881">
    <tag k="addr:city" v="Troy"/>
    <tag k="addr:housenumber" v="2641"/>
    <tag k="addr:street" v="Vermont Route 105 East"/>
    <tag k="addr:state" v="VT"/>
    <tag k="ref:vcgi:esiteid" v="262101"/>
  </node>
  <node id="-438" visible="true" lat="44.97921394" lon="-72.3474524">
    <tag k="addr:city" v="Troy"/>
    <tag k="addr:housenumber" v="2178"/>
    <tag k="addr:street" v="Vermont Route 105 East"/>
    <tag k="addr:state" v="VT"/>
    <tag k="ref:vcgi:esiteid" v="262102"/>
  </node>
  <node id="-439" visible="true" lat="44.97893524" lon="-72.3724823">
    <tag k="addr:city" v="Troy"/>
    <tag k="addr:housenumber" v="864"/>
    <tag k="addr:street" v="East Hill"/>
    <tag k="addr:state" v="VT"/>
    <tag k="ref:vcgi:esiteid" v="262103"/>
  </node>
  <node id="-440" visible="true" lat="44.97859192" lon="-72.40642548">
    <tag k="addr:city" v="Troy"/>
    <tag k="addr:housenumber" v="426"/>
    <tag k="addr:street" v="Vincent Road"/>
    <tag k="addr:state" v="VT"/>
    <tag k="ref:vcgi:esiteid" v="262104"/>
  </node>
  <node id="-441" visible="true" lat="44.97802301" lon="-72.35258097">
    <tag k="addr:city" v="Troy"/>
    <tag k="addr:housenumber" v="172"/>
    <tag k="addr:street" v="Blais Road"/>
    <tag k="addr:state" v="VT"/>
    <tag k="ref:vcgi:esiteid" v="262105"/>
  </node>
  <node id="-442" visible="true" lat="44.97811365" lon="-72.37338182">
    <tag k="addr:city" v="Troy"/>
    <tag k="addr:housenumber" v="928"/>
    <tag k="addr:street" v="East Hill"/>
    <tag k="addr:state" v="VT"/>
    <tag k="ref:vcgi:esiteid" v="262106"/>
  </node>
  <node id="-443" visible="true" lat="44.97725745" lon="-72.37225368">
    <tag k="addr:city" v="Troy"/>
    <tag k="addr:housenumber" v="970"/>
    <tag k="addr:street" v="East Hill"/>
    <tag k="addr:state" v="VT"/>
    <tag k="ref:vcgi:esiteid" v="262107"/>
  </node>
  <node id="-444" visible="true" lat="44.9769488" lon="-72.34512617">
    <tag k="addr:city" v="Troy"/>
    <tag k="addr:housenumber" v="2180"/>
    <tag k="addr:street" v="Vermont Route 105 East"/>
    <tag k="addr:state" v="VT"/>
    <tag k="ref:vcgi:esiteid" v="262108"/>
  </node>
  <node id="-445" visible="true" lat="44.97668838" lon="-72.4127655">
    <tag k="addr:city" v="Troy"/>
    <tag k="addr:housenumber" v="613"/>
    <tag k="addr:street" v="Vermont Route 105 West"/>
    <tag k="addr:state" v="VT"/>
    <tag k="ref:vcgi:esiteid" v="262109"/>
  </node>
  <node id="-446" visible="true" lat="44.97657013" lon="-72.35240173">
    <tag k="addr:city" v="Troy"/>
    <tag k="addr:housenumber" v="280"/>
    <tag k="addr:street" v="Blais Road"/>
    <tag k="addr:state" v="VT"/>
    <tag k="ref:vcgi:esiteid" v="262110"/>
  </node>
  <node id="-447" visible="true" lat="44.9763298" lon="-72.38411713">
    <tag k="addr:city" v="Troy"/>
    <tag k="addr:housenumber" v="1241"/>
    <tag k="addr:street" v="River Road"/>
    <tag k="addr:state" v="VT"/>
    <tag k="ref:vcgi:esiteid" v="262111"/>
  </node>
  <node id="-448" visible="true" lat="44.97610473" lon="-72.41360473">
    <tag k="addr:city" v="Troy"/>
    <tag k="addr:housenumber" v="661"/>
    <tag k="addr:street" v="Vermont Route 105 West"/>
    <tag k="addr:state" v="VT"/>
    <tag k="ref:vcgi:esiteid" v="262112"/>
  </node>
  <node id="-449" visible="true" lat="44.97586855" lon="-72.37120648">
    <tag k="addr:city" v="Troy"/>
    <tag k="addr:housenumber" v="1075"/>
    <tag k="addr:street" v="East Hill"/>
    <tag k="addr:state" v="VT"/>
    <tag k="ref:vcgi:esiteid" v="262113"/>
  </node>
  <node id="-450" visible="true" lat="44.97528076" lon="-72.35616302">
    <tag k="addr:city" v="Troy"/>
    <tag k="addr:housenumber" v="1866"/>
    <tag k="addr:street" v="Vermont Route 105 East"/>
    <tag k="addr:state" v="VT"/>
    <tag k="ref:vcgi:esiteid" v="262114"/>
  </node>
  <node id="-451" visible="true" lat="44.97517777" lon="-72.41299439">
    <tag k="addr:city" v="Troy"/>
    <tag k="addr:housenumber" v="735"/>
    <tag k="addr:street" v="Vermont Route 105 West"/>
    <tag k="addr:state" v="VT"/>
    <tag k="ref:vcgi:esiteid" v="262116"/>
  </node>
  <node id="-452" visible="true" lat="44.97521129" lon="-72.37302711">
    <tag k="addr:city" v="Troy"/>
    <tag k="addr:housenumber" v="1088"/>
    <tag k="addr:street" v="East Hill"/>
    <tag k="addr:state" v="VT"/>
    <tag k="ref:vcgi:esiteid" v="262117"/>
  </node>
  <node id="-453" visible="true" lat="44.97475052" lon="-72.38877106">
    <tag k="addr:city" v="Troy"/>
    <tag k="addr:housenumber" v="1150"/>
    <tag k="addr:street" v="River Road"/>
    <tag k="addr:state" v="VT"/>
    <tag k="ref:vcgi:esiteid" v="262118"/>
  </node>
  <node id="-454" visible="true" lat="44.97463608" lon="-72.38653565">
    <tag k="addr:city" v="Troy"/>
    <tag k="addr:housenumber" v="1280"/>
    <tag k="addr:street" v="River Road"/>
    <tag k="addr:state" v="VT"/>
    <tag k="ref:vcgi:esiteid" v="262119"/>
  </node>
  <node id="-455" visible="true" lat="44.97332764" lon="-72.38555908">
    <tag k="addr:city" v="Troy"/>
    <tag k="addr:housenumber" v="1382"/>
    <tag k="addr:street" v="River Road"/>
    <tag k="addr:state" v="VT"/>
    <tag k="ref:vcgi:esiteid" v="262120"/>
  </node>
  <node id="-456" visible="true" lat="44.97320175" lon="-72.41522979">
    <tag k="addr:city" v="Troy"/>
    <tag k="addr:housenumber" v="884"/>
    <tag k="addr:street" v="Vermont Route 105 West"/>
    <tag k="addr:state" v="VT"/>
    <tag k="ref:vcgi:esiteid" v="262121"/>
  </node>
  <node id="-457" visible="true" lat="44.97266713" lon="-72.37164336">
    <tag k="addr:city" v="Troy"/>
    <tag k="addr:housenumber" v="1294"/>
    <tag k="addr:street" v="East Hill"/>
    <tag k="addr:state" v="VT"/>
    <tag k="ref:vcgi:esiteid" v="262122"/>
  </node>
  <node id="-458" visible="true" lat="44.97269231" lon="-72.3821254">
    <tag k="addr:city" v="Troy"/>
    <tag k="addr:housenumber" v="223"/>
    <tag k="addr:street" v="Brown Road"/>
    <tag k="addr:state" v="VT"/>
    <tag k="ref:vcgi:esiteid" v="262123"/>
  </node>
  <node id="-459" visible="true" lat="44.97186279" lon="-72.41471099">
    <tag k="addr:city" v="Troy"/>
    <tag k="addr:housenumber" v="958"/>
    <tag k="addr:street" v="Vermont Route 105 West"/>
    <tag k="addr:state" v="VT"/>
    <tag k="ref:vcgi:esiteid" v="262124"/>
  </node>
  <node id="-460" visible="true" lat="44.97080612" lon="-72.41441345">
    <tag k="addr:city" v="Troy"/>
    <tag k="addr:housenumber" v="1030"/>
    <tag k="addr:street" v="Vermont Route 105 West"/>
    <tag k="addr:state" v="VT"/>
    <tag k="ref:vcgi:esiteid" v="262125"/>
  </node>
  <node id="-461" visible="true" lat="44.9704129" lon="-72.37847818">
    <tag k="addr:city" v="Troy"/>
    <tag k="addr:housenumber" v="448"/>
    <tag k="addr:street" v="Brown Road"/>
    <tag k="addr:state" v="VT"/>
    <tag k="ref:vcgi:esiteid" v="262126"/>
  </node>
  <node id="-462" visible="true" lat="44.96830368" lon="-72.37451935">
    <tag k="addr:city" v="Troy"/>
    <tag k="addr:housenumber" v="1556"/>
    <tag k="addr:street" v="East Hill"/>
    <tag k="addr:state" v="VT"/>
    <tag k="ref:vcgi:esiteid" v="262127"/>
  </node>
  <node id="-463" visible="true" lat="44.96687231" lon="-72.36703371">
    <tag k="addr:city" v="Troy"/>
    <tag k="addr:housenumber" v="1723"/>
    <tag k="addr:street" v="East Hill"/>
    <tag k="addr:state" v="VT"/>
    <tag k="ref:vcgi:esiteid" v="262128"/>
  </node>
  <node id="-464" visible="true" lat="44.96686848" lon="-72.41374906">
    <tag k="addr:city" v="Troy"/>
    <tag k="addr:housenumber" v="1304"/>
    <tag k="addr:street" v="Vermont Route 105 West"/>
    <tag k="addr:state" v="VT"/>
    <tag k="ref:vcgi:esiteid" v="262129"/>
  </node>
  <node id="-465" visible="true" lat="44.96600429" lon="-72.41379745">
    <tag k="addr:city" v="Troy"/>
    <tag k="addr:housenumber" v="1372"/>
    <tag k="addr:street" v="Vermont Route 105 West"/>
    <tag k="addr:state" v="VT"/>
    <tag k="ref:vcgi:esiteid" v="262130"/>
  </node>
  <node id="-466" visible="true" lat="44.96563834" lon="-72.37063278">
    <tag k="addr:city" v="Troy"/>
    <tag k="addr:housenumber" v="1773"/>
    <tag k="addr:street" v="East Hill"/>
    <tag k="addr:state" v="VT"/>
    <tag k="ref:vcgi:esiteid" v="262131"/>
  </node>
  <node id="-467" visible="true" lat="44.96472931" lon="-72.38796997">
    <tag k="addr:city" v="Troy"/>
    <tag k="addr:housenumber" v="2032"/>
    <tag k="addr:street" v="River Road"/>
    <tag k="addr:state" v="VT"/>
    <tag k="ref:vcgi:esiteid" v="262132"/>
  </node>
  <node id="-468" visible="true" lat="44.96370248" lon="-72.42138199">
    <tag k="addr:city" v="Troy"/>
    <tag k="addr:housenumber" v="1775"/>
    <tag k="addr:street" v="Vermont Route 105 West"/>
    <tag k="addr:state" v="VT"/>
    <tag k="ref:vcgi:esiteid" v="262133"/>
  </node>
  <node id="-470" visible="true" lat="44.96349716" lon="-72.38715363">
    <tag k="addr:city" v="Troy"/>
    <tag k="addr:housenumber" v="2115"/>
    <tag k="addr:street" v="River Road"/>
    <tag k="addr:state" v="VT"/>
    <tag k="ref:vcgi:esiteid" v="262135"/>
  </node>
  <node id="-471" visible="true" lat="44.96322709" lon="-72.40288502">
    <tag k="addr:city" v="Troy"/>
    <tag k="addr:housenumber" v="477"/>
    <tag k="addr:street" v="Veilleux Road"/>
    <tag k="addr:state" v="VT"/>
    <tag k="ref:vcgi:esiteid" v="262136"/>
  </node>
  <node id="-472" visible="true" lat="44.9623596" lon="-72.41531887">
    <tag k="addr:city" v="Troy"/>
    <tag k="addr:housenumber" v="180"/>
    <tag k="addr:street" v="Vermont Route 101"/>
    <tag k="addr:state" v="VT"/>
    <tag k="ref:vcgi:esiteid" v="262137"/>
  </node>
  <node id="-473" visible="true" lat="44.96174622" lon="-72.37014771">
    <tag k="addr:city" v="Troy"/>
    <tag k="addr:housenumber" v="2053"/>
    <tag k="addr:street" v="East Hill"/>
    <tag k="addr:state" v="VT"/>
    <tag k="ref:vcgi:esiteid" v="262138"/>
  </node>
  <node id="-474" visible="true" lat="44.96169772" lon="-72.40901648">
    <tag k="addr:city" v="Troy"/>
    <tag k="addr:housenumber" v="228"/>
    <tag k="addr:street" v="Veilleux Road"/>
    <tag k="addr:state" v="VT"/>
    <tag k="ref:vcgi:esiteid" v="262139"/>
  </node>
  <node id="-475" visible="true" lat="44.96159363" lon="-72.37189484">
    <tag k="addr:city" v="Troy"/>
    <tag k="addr:housenumber" v="2056"/>
    <tag k="addr:street" v="East Hill"/>
    <tag k="addr:state" v="VT"/>
    <tag k="ref:vcgi:esiteid" v="262140"/>
  </node>
  <node id="-476" visible="true" lat="44.96120071" lon="-72.38909912">
    <tag k="addr:city" v="Troy"/>
    <tag k="addr:housenumber" v="2302"/>
    <tag k="addr:street" v="River Road"/>
    <tag k="addr:state" v="VT"/>
    <tag k="ref:vcgi:esiteid" v="262141"/>
  </node>
  <node id="-477" visible="true" lat="44.96073651" lon="-72.41374944">
    <tag k="addr:city" v="Troy"/>
    <tag k="addr:housenumber" v="298"/>
    <tag k="addr:street" v="Vermont Route 101"/>
    <tag k="addr:state" v="VT"/>
    <tag k="ref:vcgi:esiteid" v="262142"/>
  </node>
  <node id="-478" visible="true" lat="44.96016693" lon="-72.40238953">
    <tag k="addr:city" v="Troy"/>
    <tag k="addr:housenumber" v="695"/>
    <tag k="addr:street" v="Veilleux Road"/>
    <tag k="addr:state" v="VT"/>
    <tag k="ref:vcgi:esiteid" v="262143"/>
  </node>
  <node id="-479" visible="true" lat="44.96015167" lon="-72.42056274">
    <tag k="addr:city" v="Troy"/>
    <tag k="addr:housenumber" v="356"/>
    <tag k="addr:street" v="Belle Vista Road"/>
    <tag k="addr:state" v="VT"/>
    <tag k="ref:vcgi:esiteid" v="262144"/>
  </node>
  <node id="-480" visible="true" lat="44.96014023" lon="-72.41657257">
    <tag k="addr:city" v="Troy"/>
    <tag k="addr:housenumber" v="204"/>
    <tag k="addr:street" v="Belle Vista Road"/>
    <tag k="addr:state" v="VT"/>
    <tag k="ref:vcgi:esiteid" v="262145"/>
  </node>
  <node id="-482" visible="true" lat="44.95998764" lon="-72.40338898">
    <tag k="addr:city" v="Troy"/>
    <tag k="addr:housenumber" v="656"/>
    <tag k="addr:street" v="Veilleux Road"/>
    <tag k="addr:state" v="VT"/>
    <tag k="ref:vcgi:esiteid" v="262147"/>
  </node>
  <node id="-483" visible="true" lat="44.95970154" lon="-72.41859436">
    <tag k="addr:city" v="Troy"/>
    <tag k="addr:housenumber" v="266"/>
    <tag k="addr:street" v="Belle Vista Road"/>
    <tag k="addr:state" v="VT"/>
    <tag k="ref:vcgi:esiteid" v="262148"/>
  </node>
  <node id="-485" visible="true" lat="44.95902387" lon="-72.41594521">
    <tag k="addr:city" v="Troy"/>
    <tag k="addr:housenumber" v="143"/>
    <tag k="addr:street" v="Belle Vista Road"/>
    <tag k="addr:state" v="VT"/>
    <tag k="ref:vcgi:esiteid" v="262150"/>
  </node>
  <node id="-486" visible="true" lat="44.95917511" lon="-72.38990021">
    <tag k="addr:city" v="Troy"/>
    <tag k="addr:housenumber" v="2442"/>
    <tag k="addr:street" v="River Road"/>
    <tag k="addr:state" v="VT"/>
    <tag k="ref:vcgi:esiteid" v="262151"/>
  </node>
  <node id="-487" visible="true" lat="44.95912933" lon="-72.37100983">
    <tag k="addr:city" v="Troy"/>
    <tag k="addr:housenumber" v="2228"/>
    <tag k="addr:street" v="East Hill"/>
    <tag k="addr:state" v="VT"/>
    <tag k="ref:vcgi:esiteid" v="262152"/>
  </node>
  <node id="-488" visible="true" lat="44.9582901" lon="-72.39035034">
    <tag k="addr:city" v="Troy"/>
    <tag k="addr:housenumber" v="2500"/>
    <tag k="addr:street" v="River Road"/>
    <tag k="addr:state" v="VT"/>
    <tag k="ref:vcgi:esiteid" v="262153"/>
  </node>
  <node id="-489" visible="true" lat="44.95810318" lon="-72.37101746">
    <tag k="addr:city" v="Troy"/>
    <tag k="addr:housenumber" v="2298"/>
    <tag k="addr:street" v="East Hill"/>
    <tag k="addr:state" v="VT"/>
    <tag k="ref:vcgi:esiteid" v="262154"/>
  </node>
  <node id="-490" visible="true" lat="44.95764542" lon="-72.3709259">
    <tag k="addr:city" v="Troy"/>
    <tag k="addr:housenumber" v="2330"/>
    <tag k="addr:street" v="East Hill"/>
    <tag k="addr:state" v="VT"/>
    <tag k="ref:vcgi:esiteid" v="262155"/>
  </node>
  <node id="-491" visible="true" lat="44.95763016" lon="-72.39026642">
    <tag k="addr:city" v="Troy"/>
    <tag k="addr:housenumber" v="2545"/>
    <tag k="addr:street" v="River Road"/>
    <tag k="addr:state" v="VT"/>
    <tag k="ref:vcgi:esiteid" v="262156"/>
  </node>
  <node id="-492" visible="true" lat="44.9568634" lon="-72.41828156">
    <tag k="addr:city" v="Troy"/>
    <tag k="addr:housenumber" v="371"/>
    <tag k="addr:street" v="Belle Vista Road"/>
    <tag k="addr:state" v="VT"/>
    <tag k="ref:vcgi:esiteid" v="262157"/>
  </node>
  <node id="-493" visible="true" lat="44.95678711" lon="-72.39260864">
    <tag k="addr:city" v="Troy"/>
    <tag k="addr:housenumber" v="2660"/>
    <tag k="addr:street" v="River Road"/>
    <tag k="addr:state" v="VT"/>
    <tag k="ref:vcgi:esiteid" v="262158"/>
  </node>
  <node id="-496" visible="true" lat="44.95482635" lon="-72.39329529">
    <tag k="addr:city" v="Troy"/>
    <tag k="addr:housenumber" v="2795"/>
    <tag k="addr:street" v="River Road"/>
    <tag k="addr:state" v="VT"/>
    <tag k="ref:vcgi:esiteid" v="262161"/>
  </node>
  <node id="-497" visible="true" lat="44.95395362" lon="-72.37019816">
    <tag k="addr:city" v="Troy"/>
    <tag k="addr:housenumber" v="2569"/>
    <tag k="addr:street" v="East Hill"/>
    <tag k="addr:state" v="VT"/>
    <tag k="ref:vcgi:esiteid" v="262162"/>
  </node>
  <node id="-498" visible="true" lat="44.9539319" lon="-72.37695933">
    <tag k="addr:city" v="Troy"/>
    <tag k="addr:housenumber" v="855"/>
    <tag k="addr:street" v="Bergeron Road"/>
    <tag k="addr:state" v="VT"/>
    <tag k="ref:vcgi:esiteid" v="262163"/>
  </node>
  <node id="-500" visible="true" lat="44.9536342" lon="-72.37627027">
    <tag k="addr:city" v="Troy"/>
    <tag k="addr:housenumber" v="853"/>
    <tag k="addr:street" v="Bergeron Road"/>
    <tag k="addr:state" v="VT"/>
    <tag k="ref:vcgi:esiteid" v="262165"/>
  </node>
  <node id="-501" visible="true" lat="44.95392592" lon="-72.39232486">
    <tag k="addr:city" v="Troy"/>
    <tag k="addr:housenumber" v="122"/>
    <tag k="addr:street" v="Bergeron Road"/>
    <tag k="addr:state" v="VT"/>
    <tag k="ref:vcgi:esiteid" v="262166"/>
  </node>
  <node id="-502" visible="true" lat="44.95276727" lon="-72.38221275">
    <tag k="addr:city" v="Troy"/>
    <tag k="addr:housenumber" v="580"/>
    <tag k="addr:street" v="Bergeron Road"/>
    <tag k="addr:state" v="VT"/>
    <tag k="ref:vcgi:esiteid" v="262167"/>
  </node>
  <node id="-503" visible="true" lat="44.94917679" lon="-72.39191437">
    <tag k="addr:city" v="Troy"/>
    <tag k="addr:housenumber" v="3220"/>
    <tag k="addr:street" v="River Road"/>
    <tag k="addr:state" v="VT"/>
    <tag k="ref:vcgi:esiteid" v="262168"/>
  </node>
  <node id="-504" visible="true" lat="44.94850247" lon="-72.37652719">
    <tag k="addr:city" v="Troy"/>
    <tag k="addr:housenumber" v="3026"/>
    <tag k="addr:street" v="East Hill"/>
    <tag k="addr:state" v="VT"/>
    <tag k="ref:vcgi:esiteid" v="262169"/>
  </node>
  <node id="-505" visible="true" lat="44.94729731" lon="-72.37443737">
    <tag k="addr:city" v="Troy"/>
    <tag k="addr:housenumber" v="3103"/>
    <tag k="addr:street" v="East Hill"/>
    <tag k="addr:state" v="VT"/>
    <tag k="ref:vcgi:esiteid" v="262170"/>
  </node>
  <node id="-506" visible="true" lat="44.94711304" lon="-72.41394806">
    <tag k="addr:city" v="Troy"/>
    <tag k="addr:housenumber" v="107"/>
    <tag k="addr:street" v="Vermont Route 242"/>
    <tag k="addr:state" v="VT"/>
    <tag k="ref:vcgi:esiteid" v="262171"/>
  </node>
  <node id="-507" visible="true" lat="44.94698154" lon="-72.4176045">
    <tag k="addr:city" v="Troy"/>
    <tag k="addr:housenumber" v="273"/>
    <tag k="addr:street" v="Vermont Route 242"/>
    <tag k="addr:state" v="VT"/>
    <tag k="ref:vcgi:esiteid" v="262172"/>
  </node>
  <node id="-508" visible="true" lat="44.94678969" lon="-72.3739569">
    <tag k="addr:city" v="Troy"/>
    <tag k="addr:housenumber" v="3101"/>
    <tag k="addr:street" v="East Hill"/>
    <tag k="addr:state" v="VT"/>
    <tag k="ref:vcgi:esiteid" v="262173"/>
  </node>
  <node id="-509" visible="true" lat="44.94658661" lon="-72.40895081">
    <tag k="addr:city" v="Troy"/>
    <tag k="addr:housenumber" v="210"/>
    <tag k="addr:street" v="Great Northern Road"/>
    <tag k="addr:state" v="VT"/>
    <tag k="ref:vcgi:esiteid" v="262174"/>
  </node>
  <node id="-510" visible="true" lat="44.94636917" lon="-72.40940857">
    <tag k="addr:city" v="Troy"/>
    <tag k="addr:housenumber" v="179"/>
    <tag k="addr:street" v="Great Northern Road"/>
    <tag k="addr:state" v="VT"/>
    <tag k="ref:vcgi:esiteid" v="262175"/>
  </node>
  <node id="-511" visible="true" lat="44.94588287" lon="-72.37507978">
    <tag k="addr:city" v="Troy"/>
    <tag k="addr:housenumber" v="3199"/>
    <tag k="addr:street" v="East Hill"/>
    <tag k="addr:state" v="VT"/>
    <tag k="ref:vcgi:esiteid" v="262176"/>
  </node>
  <node id="-512" visible="true" lat="44.94601059" lon="-72.40891266">
    <tag k="addr:city" v="Troy"/>
    <tag k="addr:housenumber" v="186"/>
    <tag k="addr:street" v="Great Northern Road"/>
    <tag k="addr:state" v="VT"/>
    <tag k="ref:vcgi:esiteid" v="262177"/>
  </node>
  <node id="-513" visible="true" lat="44.94553757" lon="-72.39720154">
    <tag k="addr:city" v="Troy"/>
    <tag k="addr:housenumber" v="3382"/>
    <tag k="addr:street" v="River Road"/>
    <tag k="addr:state" v="VT"/>
    <tag k="ref:vcgi:esiteid" v="262178"/>
  </node>
  <node id="-515" visible="true" lat="44.94452739" lon="-72.37572203">
    <tag k="addr:city" v="Troy"/>
    <tag k="addr:housenumber" v="3277"/>
    <tag k="addr:street" v="East Hill"/>
    <tag k="addr:state" v="VT"/>
    <tag k="ref:vcgi:esiteid" v="262180"/>
  </node>
  <node id="-518" visible="true" lat="44.94361393" lon="-72.37600498">
    <tag k="addr:city" v="Troy"/>
    <tag k="addr:housenumber" v="3361"/>
    <tag k="addr:street" v="East Hill"/>
    <tag k="addr:state" v="VT"/>
    <tag k="ref:vcgi:esiteid" v="262183"/>
  </node>
  <node id="-522" visible="true" lat="44.94118118" lon="-72.39426422">
    <tag k="addr:city" v="Troy"/>
    <tag k="addr:housenumber" v="3785"/>
    <tag k="addr:street" v="River Road"/>
    <tag k="addr:state" v="VT"/>
    <tag k="ref:vcgi:esiteid" v="262187"/>
  </node>
  <node id="-523" visible="true" lat="44.94046784" lon="-72.39479065">
    <tag k="addr:city" v="Troy"/>
    <tag k="addr:housenumber" v="3873"/>
    <tag k="addr:street" v="River Road"/>
    <tag k="addr:state" v="VT"/>
    <tag k="ref:vcgi:esiteid" v="262188"/>
  </node>
  <node id="-524" visible="true" lat="44.93937352" lon="-72.37886365">
    <tag k="addr:city" v="Troy"/>
    <tag k="addr:housenumber" v="3638"/>
    <tag k="addr:street" v="East Hill"/>
    <tag k="addr:state" v="VT"/>
    <tag k="ref:vcgi:esiteid" v="262189"/>
  </node>
  <node id="-526" visible="true" lat="44.93538034" lon="-72.37597221">
    <tag k="addr:city" v="Troy"/>
    <tag k="addr:housenumber" v="3931"/>
    <tag k="addr:street" v="East Hill"/>
    <tag k="addr:state" v="VT"/>
    <tag k="ref:vcgi:esiteid" v="262192"/>
  </node>
  <node id="-527" visible="true" lat="44.93485132" lon="-72.3754116">
    <tag k="addr:city" v="Troy"/>
    <tag k="addr:housenumber" v="3973"/>
    <tag k="addr:street" v="East Hill"/>
    <tag k="addr:state" v="VT"/>
    <tag k="ref:vcgi:esiteid" v="262193"/>
  </node>
  <node id="-529" visible="true" lat="44.93399516" lon="-72.37295964">
    <tag k="addr:city" v="Troy"/>
    <tag k="addr:housenumber" v="4063"/>
    <tag k="addr:street" v="East Hill"/>
    <tag k="addr:state" v="VT"/>
    <tag k="ref:vcgi:esiteid" v="262195"/>
  </node>
  <node id="-530" visible="true" lat="44.93245684" lon="-72.37500688">
    <tag k="addr:city" v="Troy"/>
    <tag k="addr:housenumber" v="4143"/>
    <tag k="addr:street" v="East Hill"/>
    <tag k="addr:state" v="VT"/>
    <tag k="ref:vcgi:esiteid" v="262196"/>
  </node>
  <node id="-531" visible="true" lat="44.9321518" lon="-72.40076447">
    <tag k="addr:city" v="Troy"/>
    <tag k="addr:housenumber" v="4336"/>
    <tag k="addr:street" v="River Road"/>
    <tag k="addr:state" v="VT"/>
    <tag k="ref:vcgi:esiteid" v="262197"/>
  </node>
  <node id="-532" visible="true" lat="44.93173952" lon="-72.37454339">
    <tag k="addr:city" v="Troy"/>
    <tag k="addr:housenumber" v="4189"/>
    <tag k="addr:street" v="East Hill"/>
    <tag k="addr:state" v="VT"/>
    <tag k="ref:vcgi:esiteid" v="262198"/>
  </node>
  <node id="-534" visible="true" lat="44.93099594" lon="-72.37499237">
    <tag k="addr:city" v="Troy"/>
    <tag k="addr:housenumber" v="4247"/>
    <tag k="addr:street" v="East Hill"/>
    <tag k="addr:state" v="VT"/>
    <tag k="ref:vcgi:esiteid" v="262200"/>
  </node>
  <node id="-535" visible="true" lat="44.93035283" lon="-72.37480541">
    <tag k="addr:city" v="Troy"/>
    <tag k="addr:housenumber" v="4293"/>
    <tag k="addr:street" v="East Hill"/>
    <tag k="addr:state" v="VT"/>
    <tag k="ref:vcgi:esiteid" v="262201"/>
  </node>
  <node id="-537" visible="true" lat="44.92911911" lon="-72.37477111">
    <tag k="addr:city" v="Troy"/>
    <tag k="addr:housenumber" v="4373"/>
    <tag k="addr:street" v="East Hill"/>
    <tag k="addr:state" v="VT"/>
    <tag k="ref:vcgi:esiteid" v="262203"/>
  </node>
  <node id="-538" visible="true" lat="44.92915149" lon="-72.40767875">
    <tag k="addr:city" v="Troy"/>
    <tag k="addr:housenumber" v="2539"/>
    <tag k="addr:street" v="Vermont Route 101"/>
    <tag k="addr:state" v="VT"/>
    <tag k="ref:vcgi:esiteid" v="262204"/>
  </node>
  <node id="-540" visible="true" lat="44.92680359" lon="-72.37502289">
    <tag k="addr:city" v="Troy"/>
    <tag k="addr:housenumber" v="4530"/>
    <tag k="addr:street" v="East Hill"/>
    <tag k="addr:state" v="VT"/>
    <tag k="ref:vcgi:esiteid" v="262206"/>
  </node>
  <node id="-541" visible="true" lat="44.92654037" lon="-72.35507202">
    <tag k="addr:city" v="Troy"/>
    <tag k="addr:housenumber" v="898"/>
    <tag k="addr:street" v="Routhier Road"/>
    <tag k="addr:state" v="VT"/>
    <tag k="ref:vcgi:esiteid" v="262207"/>
  </node>
  <node id="-543" visible="true" lat="44.92651124" lon="-72.35559031">
    <tag k="addr:city" v="Troy"/>
    <tag k="addr:housenumber" v="900"/>
    <tag k="addr:street" v="Routhier Road"/>
    <tag k="addr:state" v="VT"/>
    <tag k="ref:vcgi:esiteid" v="262209"/>
  </node>
  <node id="-545" visible="true" lat="44.92501172" lon="-72.35582693">
    <tag k="addr:city" v="Troy"/>
    <tag k="addr:housenumber" v="891"/>
    <tag k="addr:street" v="Routhier Road"/>
    <tag k="addr:state" v="VT"/>
    <tag k="ref:vcgi:esiteid" v="262211"/>
  </node>
  <node id="-546" visible="true" lat="44.92574004" lon="-72.35456919">
    <tag k="addr:city" v="Troy"/>
    <tag k="addr:housenumber" v="846"/>
    <tag k="addr:street" v="Routhier Road"/>
    <tag k="addr:state" v="VT"/>
    <tag k="ref:vcgi:esiteid" v="262212"/>
  </node>
  <node id="-547" visible="true" lat="44.92492674" lon="-72.35464316">
    <tag k="addr:city" v="Troy"/>
    <tag k="addr:housenumber" v="807"/>
    <tag k="addr:street" v="Routhier Road"/>
    <tag k="addr:state" v="VT"/>
    <tag k="ref:vcgi:esiteid" v="262213"/>
  </node>
  <node id="-548" visible="true" lat="44.92422485" lon="-72.35467529">
    <tag k="addr:city" v="Troy"/>
    <tag k="addr:housenumber" v="729"/>
    <tag k="addr:street" v="Routhier Road"/>
    <tag k="addr:state" v="VT"/>
    <tag k="ref:vcgi:esiteid" v="262214"/>
  </node>
  <node id="-549" visible="true" lat="44.92308899" lon="-72.35537066">
    <tag k="addr:city" v="Troy"/>
    <tag k="addr:housenumber" v="647"/>
    <tag k="addr:street" v="Routhier Road"/>
    <tag k="addr:state" v="VT"/>
    <tag k="ref:vcgi:esiteid" v="262215"/>
  </node>
  <node id="-551" visible="true" lat="44.92291641" lon="-72.37422943">
    <tag k="addr:city" v="Troy"/>
    <tag k="addr:housenumber" v="4826"/>
    <tag k="addr:street" v="East Hill"/>
    <tag k="addr:state" v="VT"/>
    <tag k="ref:vcgi:esiteid" v="262217"/>
  </node>
  <node id="-553" visible="true" lat="44.9229064" lon="-72.35355897">
    <tag k="addr:city" v="Troy"/>
    <tag k="addr:housenumber" v="626"/>
    <tag k="addr:street" v="Routhier Road"/>
    <tag k="addr:state" v="VT"/>
    <tag k="ref:vcgi:esiteid" v="262219"/>
  </node>
  <node id="-554" visible="true" lat="44.9221407" lon="-72.354941">
    <tag k="addr:city" v="Troy"/>
    <tag k="addr:housenumber" v="597"/>
    <tag k="addr:street" v="Routhier Road"/>
    <tag k="addr:state" v="VT"/>
    <tag k="ref:vcgi:esiteid" v="262220"/>
  </node>
  <node id="-556" visible="true" lat="44.9215393" lon="-72.37319946">
    <tag k="addr:city" v="Troy"/>
    <tag k="addr:housenumber" v="4911"/>
    <tag k="addr:street" v="East Hill"/>
    <tag k="addr:state" v="VT"/>
    <tag k="ref:vcgi:esiteid" v="262222"/>
  </node>
  <node id="-557" visible="true" lat="44.92136001" lon="-72.35518646">
    <tag k="addr:city" v="Troy"/>
    <tag k="addr:housenumber" v="535"/>
    <tag k="addr:street" v="Routhier Road"/>
    <tag k="addr:state" v="VT"/>
    <tag k="ref:vcgi:esiteid" v="262223"/>
  </node>
  <node id="-558" visible="true" lat="44.92097854" lon="-72.37294006">
    <tag k="addr:city" v="Troy"/>
    <tag k="addr:housenumber" v="4943"/>
    <tag k="addr:street" v="East Hill"/>
    <tag k="addr:state" v="VT"/>
    <tag k="ref:vcgi:esiteid" v="262225"/>
  </node>
  <node id="-559" visible="true" lat="44.9202443" lon="-72.35368252">
    <tag k="addr:city" v="Troy"/>
    <tag k="addr:housenumber" v="482"/>
    <tag k="addr:street" v="Routhier Road"/>
    <tag k="addr:state" v="VT"/>
    <tag k="ref:vcgi:esiteid" v="262226"/>
  </node>
  <node id="-560" visible="true" lat="44.92030334" lon="-72.35581207">
    <tag k="addr:city" v="Troy"/>
    <tag k="addr:housenumber" v="459"/>
    <tag k="addr:street" v="Routhier Road"/>
    <tag k="addr:state" v="VT"/>
    <tag k="ref:vcgi:esiteid" v="262227"/>
  </node>
  <node id="-561" visible="true" lat="44.92024994" lon="-72.37402344">
    <tag k="addr:city" v="Troy"/>
    <tag k="addr:housenumber" v="4984"/>
    <tag k="addr:street" v="East Hill"/>
    <tag k="addr:state" v="VT"/>
    <tag k="ref:vcgi:esiteid" v="262228"/>
  </node>
  <node id="-563" visible="true" lat="44.91757583" lon="-72.37244415">
    <tag k="addr:city" v="Troy"/>
    <tag k="addr:housenumber" v="5167"/>
    <tag k="addr:street" v="East Hill"/>
    <tag k="addr:state" v="VT"/>
    <tag k="ref:vcgi:esiteid" v="262230"/>
  </node>
  <node id="-564" visible="true" lat="44.91728534" lon="-72.35556803">
    <tag k="addr:city" v="Troy"/>
    <tag k="addr:housenumber" v="259"/>
    <tag k="addr:street" v="Routhier Road"/>
    <tag k="addr:state" v="VT"/>
    <tag k="ref:vcgi:esiteid" v="262231"/>
  </node>
  <node id="-566" visible="true" lat="44.91693115" lon="-72.39797211">
    <tag k="addr:city" v="Troy"/>
    <tag k="addr:housenumber" v="164"/>
    <tag k="addr:street" v="Citizens Utilities Road"/>
    <tag k="addr:state" v="VT"/>
    <tag k="ref:vcgi:esiteid" v="262233"/>
  </node>
  <node id="-567" visible="true" lat="44.91651154" lon="-72.37363434">
    <tag k="addr:city" v="Troy"/>
    <tag k="addr:housenumber" v="5256"/>
    <tag k="addr:street" v="East Hill"/>
    <tag k="addr:state" v="VT"/>
    <tag k="ref:vcgi:esiteid" v="262235"/>
  </node>
  <node id="-568" visible="true" lat="44.91475699" lon="-72.37464773">
    <tag k="addr:city" v="Troy"/>
    <tag k="addr:housenumber" v="5368"/>
    <tag k="addr:street" v="East Hill"/>
    <tag k="addr:state" v="VT"/>
    <tag k="ref:vcgi:esiteid" v="262237"/>
  </node>
  <node id="-570" visible="true" lat="44.91442108" lon="-72.39763641">
    <tag k="addr:city" v="Troy"/>
    <tag k="addr:housenumber" v="5826"/>
    <tag k="addr:street" v="River Road"/>
    <tag k="addr:state" v="VT"/>
    <tag k="ref:vcgi:esiteid" v="262239"/>
  </node>
  <node id="-571" visible="true" lat="44.91423744" lon="-72.37245073">
    <tag k="addr:city" v="Troy"/>
    <tag k="addr:housenumber" v="5391"/>
    <tag k="addr:street" v="East Hill"/>
    <tag k="addr:state" v="VT"/>
    <tag k="ref:vcgi:esiteid" v="262240"/>
  </node>
  <node id="-572" visible="true" lat="44.9127121" lon="-72.39706421">
    <tag k="addr:city" v="Troy"/>
    <tag k="addr:housenumber" v="5962"/>
    <tag k="addr:street" v="River Road"/>
    <tag k="addr:state" v="VT"/>
    <tag k="ref:vcgi:esiteid" v="262241"/>
  </node>
  <node id="-574" visible="true" lat="44.9120111" lon="-72.39695093">
    <tag k="addr:city" v="Troy"/>
    <tag k="addr:housenumber" v="6000"/>
    <tag k="addr:street" v="River Road"/>
    <tag k="addr:state" v="VT"/>
    <tag k="ref:vcgi:esiteid" v="262243"/>
  </node>
  <node id="-575" visible="true" lat="44.91158941" lon="-72.37284366">
    <tag k="addr:city" v="Troy"/>
    <tag k="addr:housenumber" v="5589"/>
    <tag k="addr:street" v="East Hill"/>
    <tag k="addr:state" v="VT"/>
    <tag k="ref:vcgi:esiteid" v="262244"/>
  </node>
  <node id="-576" visible="true" lat="44.91106033" lon="-72.37154388">
    <tag k="addr:city" v="Troy"/>
    <tag k="addr:housenumber" v="20"/>
    <tag k="addr:street" v="Bonneau Road"/>
    <tag k="addr:state" v="VT"/>
    <tag k="ref:vcgi:esiteid" v="262245"/>
  </node>
  <node id="-584" visible="true" lat="44.91040802" lon="-72.3976059">
    <tag k="addr:city" v="Troy"/>
    <tag k="addr:housenumber" v="6122"/>
    <tag k="addr:street" v="River Road"/>
    <tag k="addr:state" v="VT"/>
    <tag k="ref:vcgi:esiteid" v="262253"/>
  </node>
  <node id="-585" visible="true" lat="44.91021463" lon="-72.39657287">
    <tag k="addr:city" v="Troy"/>
    <tag k="addr:housenumber" v="6121"/>
    <tag k="addr:street" v="River Road"/>
    <tag k="addr:state" v="VT"/>
    <tag k="ref:vcgi:esiteid" v="262255"/>
  </node>
  <node id="-588" visible="true" lat="44.9098266" lon="-72.3981876">
    <tag k="addr:city" v="Troy"/>
    <tag k="addr:housenumber" v="6142"/>
    <tag k="addr:street" v="River Road"/>
    <tag k="addr:state" v="VT"/>
    <tag k="ref:vcgi:esiteid" v="262259"/>
  </node>
  <node id="-595" visible="true" lat="44.908419" lon="-72.39797996">
    <tag k="addr:city" v="Troy"/>
    <tag k="addr:housenumber" v="6271"/>
    <tag k="addr:street" v="River Road"/>
    <tag k="addr:state" v="VT"/>
    <tag k="ref:vcgi:esiteid" v="262267"/>
  </node>
  <node id="-597" visible="true" lat="44.90768814" lon="-72.40925598">
    <tag k="addr:city" v="Troy"/>
    <tag k="addr:housenumber" v="87"/>
    <tag k="addr:street" v="Cheney Road"/>
    <tag k="addr:state" v="VT"/>
    <tag k="ref:vcgi:esiteid" v="262269"/>
  </node>
  <node id="-601" visible="true" lat="44.90685224" lon="-72.40588959">
    <tag k="addr:city" v="Troy"/>
    <tag k="addr:housenumber" v="4102"/>
    <tag k="addr:street" v="Vermont Route 101"/>
    <tag k="addr:state" v="VT"/>
    <tag k="ref:vcgi:esiteid" v="262274"/>
  </node>
  <node id="-607" visible="true" lat="44.90626525" lon="-72.36696624">
    <tag k="addr:city" v="Troy"/>
    <tag k="addr:housenumber" v="399"/>
    <tag k="addr:street" v="Bonneau Road"/>
    <tag k="addr:state" v="VT"/>
    <tag k="ref:vcgi:esiteid" v="262280"/>
  </node>
  <node id="-621" visible="true" lat="44.90497589" lon="-72.36569213">
    <tag k="addr:city" v="Troy"/>
    <tag k="addr:housenumber" v="529"/>
    <tag k="addr:street" v="Bonneau Road"/>
    <tag k="addr:state" v="VT"/>
    <tag k="ref:vcgi:esiteid" v="262298"/>
  </node>
  <node id="-642" visible="true" lat="44.90346908" lon="-72.36531829">
    <tag k="addr:city" v="Troy"/>
    <tag k="addr:housenumber" v="627"/>
    <tag k="addr:street" v="Bonneau Road"/>
    <tag k="addr:state" v="VT"/>
    <tag k="ref:vcgi:esiteid" v="262325"/>
  </node>
  <node id="-643" visible="true" lat="44.90341186" lon="-72.36556243">
    <tag k="addr:city" v="Troy"/>
    <tag k="addr:housenumber" v="622"/>
    <tag k="addr:street" v="Bonneau Road"/>
    <tag k="addr:state" v="VT"/>
    <tag k="ref:vcgi:esiteid" v="262326"/>
  </node>
  <node id="-653" visible="true" lat="44.89470291" lon="-72.39270019">
    <tag k="addr:city" v="Troy"/>
    <tag k="addr:housenumber" v="844"/>
    <tag k="addr:street" v="Loop Road"/>
    <tag k="addr:state" v="VT"/>
    <tag k="ref:vcgi:esiteid" v="262336"/>
  </node>
  <node id="-654" visible="true" lat="44.89013201" lon="-72.39332289">
    <tag k="addr:city" v="Troy"/>
    <tag k="addr:housenumber" v="1012"/>
    <tag k="addr:street" v="Loop Road"/>
    <tag k="addr:state" v="VT"/>
    <tag k="ref:vcgi:esiteid" v="262337"/>
  </node>
  <node id="-655" visible="true" lat="44.88930965" lon="-72.38752639">
    <tag k="addr:city" v="Troy"/>
    <tag k="addr:housenumber" v="1294"/>
    <tag k="addr:street" v="Loop Road"/>
    <tag k="addr:state" v="VT"/>
    <tag k="ref:vcgi:esiteid" v="262338"/>
  </node>
  <node id="-656" visible="true" lat="44.88707458" lon="-72.38295909">
    <tag k="addr:city" v="Troy"/>
    <tag k="addr:housenumber" v="1554"/>
    <tag k="addr:street" v="Loop Road"/>
    <tag k="addr:state" v="VT"/>
    <tag k="ref:vcgi:esiteid" v="262339"/>
  </node>
  <node id="-657" visible="true" lat="44.88615942" lon="-72.38004083">
    <tag k="addr:city" v="Troy"/>
    <tag k="addr:housenumber" v="109"/>
    <tag k="addr:street" v="Boudreau Road"/>
    <tag k="addr:state" v="VT"/>
    <tag k="ref:vcgi:esiteid" v="262340"/>
  </node>
  <node id="-658" visible="true" lat="44.87379836" lon="-72.37259673">
    <tag k="addr:city" v="Troy"/>
    <tag k="addr:housenumber" v="38"/>
    <tag k="addr:street" v="Joe Roberts Road"/>
    <tag k="addr:state" v="VT"/>
    <tag k="ref:vcgi:esiteid" v="262341"/>
  </node>
  <node id="-659" visible="true" lat="44.87321472" lon="-72.37155914">
    <tag k="addr:city" v="Troy"/>
    <tag k="addr:housenumber" v="93"/>
    <tag k="addr:street" v="Joe Roberts Road"/>
    <tag k="addr:state" v="VT"/>
    <tag k="ref:vcgi:esiteid" v="262342"/>
  </node>
  <node id="-660" visible="true" lat="44.87265218" lon="-72.37874292">
    <tag k="addr:city" v="Troy"/>
    <tag k="addr:housenumber" v="266"/>
    <tag k="addr:street" v="Collins Mill Road"/>
    <tag k="addr:state" v="VT"/>
    <tag k="ref:vcgi:esiteid" v="262343"/>
  </node>
  <node id="-661" visible="true" lat="44.87254168" lon="-72.38040636">
    <tag k="addr:city" v="Troy"/>
    <tag k="addr:housenumber" v="198"/>
    <tag k="addr:street" v="Collins Mill Road"/>
    <tag k="addr:state" v="VT"/>
    <tag k="ref:vcgi:esiteid" v="262344"/>
  </node>
  <node id="-662" visible="true" lat="44.87181472" lon="-72.38747405">
    <tag k="addr:city" v="Troy"/>
    <tag k="addr:housenumber" v="2778"/>
    <tag k="addr:street" v="Loop Road"/>
    <tag k="addr:state" v="VT"/>
    <tag k="ref:vcgi:esiteid" v="262345"/>
  </node>
  <node id="-663" visible="true" lat="44.870018" lon="-72.37245941">
    <tag k="addr:city" v="Troy"/>
    <tag k="addr:housenumber" v="298"/>
    <tag k="addr:street" v="Joe Roberts Road"/>
    <tag k="addr:state" v="VT"/>
    <tag k="ref:vcgi:esiteid" v="262346"/>
  </node>
  <node id="-664" visible="true" lat="44.86958091" lon="-72.37145919">
    <tag k="addr:city" v="Troy"/>
    <tag k="addr:housenumber" v="331"/>
    <tag k="addr:street" v="Joe Roberts Road"/>
    <tag k="addr:state" v="VT"/>
    <tag k="ref:vcgi:esiteid" v="262347"/>
  </node>
  <node id="-665" visible="true" lat="44.86299133" lon="-72.38620758">
    <tag k="addr:city" v="Troy"/>
    <tag k="addr:housenumber" v="3489"/>
    <tag k="addr:street" v="Loop Road"/>
    <tag k="addr:state" v="VT"/>
    <tag k="ref:vcgi:esiteid" v="262348"/>
  </node>
  <node id="-666" visible="true" lat="44.86038207" lon="-72.37539672">
    <tag k="addr:city" v="Troy"/>
    <tag k="addr:housenumber" v="577"/>
    <tag k="addr:street" v="Sanville Road"/>
    <tag k="addr:state" v="VT"/>
    <tag k="ref:vcgi:esiteid" v="262349"/>
  </node>
  <node id="-667" visible="true" lat="44.86040569" lon="-72.38038672">
    <tag k="addr:city" v="Troy"/>
    <tag k="addr:housenumber" v="339"/>
    <tag k="addr:street" v="Sanville Road"/>
    <tag k="addr:state" v="VT"/>
    <tag k="ref:vcgi:esiteid" v="262350"/>
  </node>
  <node id="-668" visible="true" lat="44.86028289" lon="-72.37446594">
    <tag k="addr:city" v="Troy"/>
    <tag k="addr:housenumber" v="629"/>
    <tag k="addr:street" v="Sanville Road"/>
    <tag k="addr:state" v="VT"/>
    <tag k="ref:vcgi:esiteid" v="262351"/>
  </node>
  <node id="-669" visible="true" lat="44.85996804" lon="-72.38234362">
    <tag k="addr:city" v="Troy"/>
    <tag k="addr:housenumber" v="236"/>
    <tag k="addr:street" v="Sanville Road"/>
    <tag k="addr:state" v="VT"/>
    <tag k="ref:vcgi:esiteid" v="262353"/>
  </node>
  <node id="-670" visible="true" lat="44.85984871" lon="-72.36848028">
    <tag k="addr:city" v="Troy"/>
    <tag k="addr:housenumber" v="868"/>
    <tag k="addr:street" v="Sanville Road"/>
    <tag k="addr:state" v="VT"/>
    <tag k="ref:vcgi:esiteid" v="262354"/>
  </node>
  <node id="-673" visible="true" lat="44.85994163" lon="-72.37991471">
    <tag k="addr:city" v="Troy"/>
    <tag k="addr:housenumber" v="372"/>
    <tag k="addr:street" v="Sanville Road"/>
    <tag k="addr:state" v="VT"/>
    <tag k="ref:vcgi:esiteid" v="262357"/>
  </node>
  <node id="-674" visible="true" lat="44.85966977" lon="-72.38844902">
    <tag k="addr:city" v="Troy"/>
    <tag k="addr:housenumber" v="3672"/>
    <tag k="addr:street" v="Loop Road"/>
    <tag k="addr:state" v="VT"/>
    <tag k="ref:vcgi:esiteid" v="262358"/>
  </node>
  <node id="-675" visible="true" lat="44.85913085" lon="-72.38376617">
    <tag k="addr:city" v="Troy"/>
    <tag k="addr:housenumber" v="210"/>
    <tag k="addr:street" v="Sanville Road"/>
    <tag k="addr:state" v="VT"/>
    <tag k="ref:vcgi:esiteid" v="262359"/>
  </node>
  <node id="-678" visible="true" lat="44.85750633" lon="-72.38581953">
    <tag k="addr:city" v="Troy"/>
    <tag k="addr:housenumber" v="3799"/>
    <tag k="addr:street" v="Loop Road"/>
    <tag k="addr:state" v="VT"/>
    <tag k="ref:vcgi:esiteid" v="262362"/>
  </node>
  <node id="-681" visible="true" lat="44.85398483" lon="-72.39042663">
    <tag k="addr:city" v="Troy"/>
    <tag k="addr:housenumber" v="4097"/>
    <tag k="addr:street" v="Loop Road"/>
    <tag k="addr:state" v="VT"/>
    <tag k="ref:vcgi:esiteid" v="262365"/>
  </node>
  <node id="-682" visible="true" lat="44.85215112" lon="-72.4035313">
    <tag k="addr:city" v="Troy"/>
    <tag k="addr:housenumber" v="5077"/>
    <tag k="addr:street" v="Loop Road"/>
    <tag k="addr:state" v="VT"/>
    <tag k="ref:vcgi:esiteid" v="262366"/>
  </node>
  <node id="-683" visible="true" lat="44.85166931" lon="-72.39178466">
    <tag k="addr:city" v="Troy"/>
    <tag k="addr:housenumber" v="4260"/>
    <tag k="addr:street" v="Loop Road"/>
    <tag k="addr:state" v="VT"/>
    <tag k="ref:vcgi:esiteid" v="262367"/>
  </node>
  <node id="-684" visible="true" lat="44.85014538" lon="-72.38496084">
    <tag k="addr:city" v="Troy"/>
    <tag k="addr:housenumber" v="305"/>
    <tag k="addr:street" v="Brittain Road"/>
    <tag k="addr:state" v="VT"/>
    <tag k="ref:vcgi:esiteid" v="262368"/>
  </node>
  <node id="-685" visible="true" lat="44.84994125" lon="-72.40038299">
    <tag k="addr:city" v="Troy"/>
    <tag k="addr:housenumber" v="4920"/>
    <tag k="addr:street" v="Loop Road"/>
    <tag k="addr:state" v="VT"/>
    <tag k="ref:vcgi:esiteid" v="262369"/>
  </node>
  <node id="-686" visible="true" lat="44.84877777" lon="-72.3932724">
    <tag k="addr:city" v="Troy"/>
    <tag k="addr:housenumber" v="4492"/>
    <tag k="addr:street" v="Loop Road"/>
    <tag k="addr:state" v="VT"/>
    <tag k="ref:vcgi:esiteid" v="262370"/>
  </node>
  <node id="-691" visible="true" lat="45.0003128" lon="-72.41244506">
    <tag k="addr:city" v="Troy"/>
    <tag k="addr:housenumber" v="365"/>
    <tag k="addr:street" v="Vermont Route 243"/>
    <tag k="addr:state" v="VT"/>
    <tag k="ref:vcgi:esiteid" v="262376"/>
  </node>
  <node id="-692" visible="true" lat="44.9578476" lon="-72.39151764">
    <tag k="addr:city" v="Troy"/>
    <tag k="addr:housenumber" v="2580"/>
    <tag k="addr:street" v="River Road"/>
    <tag k="addr:state" v="VT"/>
    <tag k="ref:vcgi:esiteid" v="262377"/>
  </node>
  <node id="-693" visible="true" lat="44.95286942" lon="-72.37760925">
    <tag k="addr:city" v="Troy"/>
    <tag k="addr:housenumber" v="801"/>
    <tag k="addr:street" v="Bergeron Road"/>
    <tag k="addr:state" v="VT"/>
    <tag k="ref:vcgi:esiteid" v="262378"/>
  </node>
  <node id="-694" visible="true" lat="44.9569055" lon="-72.3583781">
    <tag k="addr:city" v="Troy"/>
    <tag k="addr:housenumber" v="2558"/>
    <tag k="addr:street" v="Searles Road"/>
    <tag k="addr:state" v="VT"/>
    <tag k="ref:vcgi:esiteid" v="262379"/>
  </node>
  <node id="-695" visible="true" lat="44.95672989" lon="-72.35408783">
    <tag k="addr:city" v="Troy"/>
    <tag k="addr:housenumber" v="2340"/>
    <tag k="addr:street" v="Searles Road"/>
    <tag k="addr:state" v="VT"/>
    <tag k="ref:vcgi:esiteid" v="262380"/>
  </node>
  <node id="-696" visible="true" lat="44.95671849" lon="-72.35056959">
    <tag k="addr:city" v="Troy"/>
    <tag k="addr:housenumber" v="2164"/>
    <tag k="addr:street" v="Searles Road"/>
    <tag k="addr:state" v="VT"/>
    <tag k="ref:vcgi:esiteid" v="262381"/>
  </node>
  <node id="-697" visible="true" lat="44.95641828" lon="-72.34566001">
    <tag k="addr:city" v="Troy"/>
    <tag k="addr:housenumber" v="1930"/>
    <tag k="addr:street" v="Searles Road"/>
    <tag k="addr:state" v="VT"/>
    <tag k="ref:vcgi:esiteid" v="262382"/>
  </node>
  <node id="-698" visible="true" lat="44.95619964" lon="-72.34661102">
    <tag k="addr:city" v="Troy"/>
    <tag k="addr:housenumber" v="1971"/>
    <tag k="addr:street" v="Searles Road"/>
    <tag k="addr:state" v="VT"/>
    <tag k="ref:vcgi:esiteid" v="262383"/>
  </node>
  <node id="-699" visible="true" lat="44.95618057" lon="-72.34858703">
    <tag k="addr:city" v="Troy"/>
    <tag k="addr:housenumber" v="2069"/>
    <tag k="addr:street" v="Searles Road"/>
    <tag k="addr:state" v="VT"/>
    <tag k="ref:vcgi:esiteid" v="262384"/>
  </node>
  <node id="-700" visible="true" lat="44.95604232" lon="-72.3430002">
    <tag k="addr:city" v="Troy"/>
    <tag k="addr:housenumber" v="1789"/>
    <tag k="addr:street" v="Searles Road"/>
    <tag k="addr:state" v="VT"/>
    <tag k="ref:vcgi:esiteid" v="262385"/>
  </node>
  <node id="-701" visible="true" lat="44.95511721" lon="-72.3605613">
    <tag k="addr:city" v="Troy"/>
    <tag k="addr:housenumber" v="2647"/>
    <tag k="addr:street" v="Searles Road"/>
    <tag k="addr:state" v="VT"/>
    <tag k="ref:vcgi:esiteid" v="262386"/>
  </node>
  <node id="-702" visible="true" lat="44.95727195" lon="-72.36330525">
    <tag k="addr:city" v="Troy"/>
    <tag k="addr:housenumber" v="2808"/>
    <tag k="addr:street" v="Searles Road"/>
    <tag k="addr:state" v="VT"/>
    <tag k="ref:vcgi:esiteid" v="262387"/>
  </node>
  <node id="-703" visible="true" lat="44.95783615" lon="-72.36119842">
    <tag k="addr:city" v="Troy"/>
    <tag k="addr:housenumber" v="2712"/>
    <tag k="addr:street" v="Searles Road"/>
    <tag k="addr:state" v="VT"/>
    <tag k="ref:vcgi:esiteid" v="262388"/>
  </node>
  <node id="-704" visible="true" lat="44.95796861" lon="-72.35967758">
    <tag k="addr:city" v="Troy"/>
    <tag k="addr:housenumber" v="2642"/>
    <tag k="addr:street" v="Searles Road"/>
    <tag k="addr:state" v="VT"/>
    <tag k="ref:vcgi:esiteid" v="262389"/>
  </node>
  <node id="-705" visible="true" lat="44.95510482" lon="-72.35057067">
    <tag k="addr:city" v="Troy"/>
    <tag k="addr:housenumber" v="2163"/>
    <tag k="addr:street" v="Searles Road"/>
    <tag k="addr:state" v="VT"/>
    <tag k="ref:vcgi:esiteid" v="262390"/>
  </node>
  <node id="-706" visible="true" lat="44.94302841" lon="-72.40907312">
    <tag k="addr:city" v="Troy"/>
    <tag k="addr:housenumber" v="79"/>
    <tag k="addr:street" v="Starrs Drive"/>
    <tag k="addr:state" v="VT"/>
    <tag k="ref:vcgi:esiteid" v="262391"/>
  </node>
  <node id="-707" visible="true" lat="44.94301112" lon="-72.405293">
    <tag k="addr:city" v="Troy"/>
    <tag k="addr:housenumber" v="355"/>
    <tag k="addr:street" v="Starrs Drive"/>
    <tag k="addr:state" v="VT"/>
    <tag k="ref:vcgi:esiteid" v="262392"/>
  </node>
  <node id="-708" visible="true" lat="44.94237921" lon="-72.40646361">
    <tag k="addr:city" v="Troy"/>
    <tag k="addr:housenumber" v="217"/>
    <tag k="addr:street" v="Starrs Drive"/>
    <tag k="addr:state" v="VT"/>
    <tag k="ref:vcgi:esiteid" v="262393"/>
  </node>
  <node id="-709" visible="true" lat="44.94767641" lon="-72.37601416">
    <tag k="addr:city" v="Troy"/>
    <tag k="addr:housenumber" v="3072"/>
    <tag k="addr:street" v="East Hill"/>
    <tag k="addr:state" v="VT"/>
    <tag k="ref:vcgi:esiteid" v="262394"/>
  </node>
  <node id="-710" visible="true" lat="44.89779473" lon="-72.38473316">
    <tag k="addr:city" v="Troy"/>
    <tag k="addr:housenumber" v="190"/>
    <tag k="addr:street" v="Sarault Drive"/>
    <tag k="addr:state" v="VT"/>
    <tag k="ref:vcgi:esiteid" v="262395"/>
  </node>
  <node id="-711" visible="true" lat="44.87368432" lon="-72.38689834">
    <tag k="addr:city" v="Troy"/>
    <tag k="addr:housenumber" v="2702"/>
    <tag k="addr:street" v="Loop Road"/>
    <tag k="addr:state" v="VT"/>
    <tag k="ref:vcgi:esiteid" v="262396"/>
  </node>
  <node id="-712" visible="true" lat="44.87487289" lon="-72.38396065">
    <tag k="addr:city" v="Troy"/>
    <tag k="addr:housenumber" v="2482"/>
    <tag k="addr:street" v="Loop Road"/>
    <tag k="addr:state" v="VT"/>
    <tag k="ref:vcgi:esiteid" v="262397"/>
  </node>
  <node id="-713" visible="true" lat="44.873109" lon="-72.3770605">
    <tag k="addr:city" v="Troy"/>
    <tag k="addr:housenumber" v="332"/>
    <tag k="addr:street" v="Collins Mill Road"/>
    <tag k="addr:state" v="VT"/>
    <tag k="ref:vcgi:esiteid" v="262398"/>
  </node>
  <node id="-714" visible="true" lat="44.99598328" lon="-72.39536123">
    <tag k="addr:city" v="Troy"/>
    <tag k="addr:housenumber" v="96"/>
    <tag k="addr:street" v="Pine Street"/>
    <tag k="addr:state" v="VT"/>
    <tag k="ref:vcgi:esiteid" v="262399"/>
  </node>
  <node id="-715" visible="true" lat="45.00049915" lon="-72.40477616">
    <tag k="addr:city" v="Troy"/>
    <tag k="addr:housenumber" v="210"/>
    <tag k="addr:street" v="Dominion Avenue"/>
    <tag k="addr:state" v="VT"/>
    <tag k="ref:vcgi:esiteid" v="262400"/>
  </node>
  <node id="-719" visible="true" lat="44.99588653" lon="-72.4000512">
    <tag k="addr:city" v="Troy"/>
    <tag k="addr:housenumber" v="9"/>
    <tag k="addr:street" v="East Main Street"/>
    <tag k="addr:state" v="VT"/>
    <tag k="ref:vcgi:esiteid" v="262404"/>
  </node>
  <node id="-721" visible="true" lat="44.91286468" lon="-72.35940551">
    <tag k="addr:city" v="Troy"/>
    <tag k="addr:housenumber" v="4355"/>
    <tag k="addr:street" v="Vermont Route 100"/>
    <tag k="addr:state" v="VT"/>
    <tag k="ref:vcgi:esiteid" v="262406"/>
  </node>
  <node id="-722" visible="true" lat="44.91346368" lon="-72.35351272">
    <tag k="addr:city" v="Troy"/>
    <tag k="addr:housenumber" v="4051"/>
    <tag k="addr:street" v="Vermont Route 100"/>
    <tag k="addr:state" v="VT"/>
    <tag k="ref:vcgi:esiteid" v="262407"/>
  </node>
  <node id="-723" visible="true" lat="44.9128189" lon="-72.35821533">
    <tag k="addr:city" v="Troy"/>
    <tag k="addr:housenumber" v="4295"/>
    <tag k="addr:street" v="Vermont Route 100"/>
    <tag k="addr:state" v="VT"/>
    <tag k="ref:vcgi:esiteid" v="262408"/>
  </node>
  <node id="-724" visible="true" lat="44.91236495" lon="-72.35932159">
    <tag k="addr:city" v="Troy"/>
    <tag k="addr:housenumber" v="4375"/>
    <tag k="addr:street" v="Vermont Route 100"/>
    <tag k="addr:state" v="VT"/>
    <tag k="ref:vcgi:esiteid" v="262409"/>
  </node>
  <node id="-725" visible="true" lat="44.91311241" lon="-72.36423105">
    <tag k="addr:city" v="Troy"/>
    <tag k="addr:housenumber" v="4580"/>
    <tag k="addr:street" v="Vermont Route 100"/>
    <tag k="addr:state" v="VT"/>
    <tag k="ref:vcgi:esiteid" v="262410"/>
  </node>
  <node id="-726" visible="true" lat="44.91269566" lon="-72.36694427">
    <tag k="addr:city" v="Troy"/>
    <tag k="addr:housenumber" v="4712"/>
    <tag k="addr:street" v="Vermont Route 100"/>
    <tag k="addr:state" v="VT"/>
    <tag k="ref:vcgi:esiteid" v="262411"/>
  </node>
  <node id="-727" visible="true" lat="44.91251166" lon="-72.36546396">
    <tag k="addr:city" v="Troy"/>
    <tag k="addr:housenumber" v="4650"/>
    <tag k="addr:street" v="Vermont Route 100"/>
    <tag k="addr:state" v="VT"/>
    <tag k="ref:vcgi:esiteid" v="262412"/>
  </node>
  <node id="-728" visible="true" lat="44.91149139" lon="-72.37142944">
    <tag k="addr:city" v="Troy"/>
    <tag k="addr:housenumber" v="4954"/>
    <tag k="addr:street" v="Vermont Route 100"/>
    <tag k="addr:state" v="VT"/>
    <tag k="ref:vcgi:esiteid" v="262413"/>
  </node>
  <node id="-729" visible="true" lat="44.91375076" lon="-72.36486227">
    <tag k="addr:city" v="Troy"/>
    <tag k="addr:housenumber" v="4590"/>
    <tag k="addr:street" v="Vermont Route 100"/>
    <tag k="addr:state" v="VT"/>
    <tag k="ref:vcgi:esiteid" v="262414"/>
  </node>
  <node id="-730" visible="true" lat="44.91270989" lon="-72.36828523">
    <tag k="addr:city" v="Troy"/>
    <tag k="addr:housenumber" v="4828"/>
    <tag k="addr:street" v="Vermont Route 100"/>
    <tag k="addr:state" v="VT"/>
    <tag k="ref:vcgi:esiteid" v="262415"/>
  </node>
  <node id="-731" visible="true" lat="44.91310451" lon="-72.36991583">
    <tag k="addr:city" v="Troy"/>
    <tag k="addr:housenumber" v="4826"/>
    <tag k="addr:street" v="Vermont Route 100"/>
    <tag k="addr:state" v="VT"/>
    <tag k="ref:vcgi:esiteid" v="262416"/>
  </node>
  <node id="-732" visible="true" lat="44.91122382" lon="-72.37871403">
    <tag k="addr:city" v="Troy"/>
    <tag k="addr:housenumber" v="5304"/>
    <tag k="addr:street" v="Vermont Route 100"/>
    <tag k="addr:state" v="VT"/>
    <tag k="ref:vcgi:esiteid" v="262417"/>
  </node>
  <node id="-733" visible="true" lat="44.91023254" lon="-72.38617706">
    <tag k="addr:city" v="Troy"/>
    <tag k="addr:housenumber" v="5684"/>
    <tag k="addr:street" v="Vermont Route 100"/>
    <tag k="addr:state" v="VT"/>
    <tag k="ref:vcgi:esiteid" v="262418"/>
  </node>
  <node id="-734" visible="true" lat="44.91099778" lon="-72.38023804">
    <tag k="addr:city" v="Troy"/>
    <tag k="addr:housenumber" v="5404"/>
    <tag k="addr:street" v="Vermont Route 100"/>
    <tag k="addr:state" v="VT"/>
    <tag k="ref:vcgi:esiteid" v="262419"/>
  </node>
  <node id="-735" visible="true" lat="44.90896738" lon="-72.39027904">
    <tag k="addr:city" v="Troy"/>
    <tag k="addr:housenumber" v="21"/>
    <tag k="addr:street" v="Old Iron Mine Road"/>
    <tag k="addr:state" v="VT"/>
    <tag k="ref:vcgi:esiteid" v="262420"/>
  </node>
  <node id="-736" visible="true" lat="44.90824018" lon="-72.39075343">
    <tag k="addr:city" v="Troy"/>
    <tag k="addr:housenumber" v="5958"/>
    <tag k="addr:street" v="Vermont Route 100"/>
    <tag k="addr:state" v="VT"/>
    <tag k="ref:vcgi:esiteid" v="262421"/>
  </node>
  <node id="-737" visible="true" lat="44.90665249" lon="-72.39473368">
    <tag k="addr:city" v="Troy"/>
    <tag k="addr:housenumber" v="6198"/>
    <tag k="addr:street" v="Vermont Route 100"/>
    <tag k="addr:state" v="VT"/>
    <tag k="ref:vcgi:esiteid" v="262422"/>
  </node>
  <node id="-738" visible="true" lat="44.91049615" lon="-72.37799035">
    <tag k="addr:city" v="Troy"/>
    <tag k="addr:housenumber" v="5265"/>
    <tag k="addr:street" v="Vermont Route 100"/>
    <tag k="addr:state" v="VT"/>
    <tag k="ref:vcgi:esiteid" v="262423"/>
  </node>
  <node id="-739" visible="true" lat="44.90907337" lon="-72.38613176">
    <tag k="addr:city" v="Troy"/>
    <tag k="addr:housenumber" v="57"/>
    <tag k="addr:street" v="Clems Way"/>
    <tag k="addr:state" v="VT"/>
    <tag k="ref:vcgi:esiteid" v="262424"/>
  </node>
  <node id="-740" visible="true" lat="44.9072988" lon="-72.38632134">
    <tag k="addr:city" v="Troy"/>
    <tag k="addr:housenumber" v="158"/>
    <tag k="addr:street" v="Clems Way"/>
    <tag k="addr:state" v="VT"/>
    <tag k="ref:vcgi:esiteid" v="262425"/>
  </node>
  <node id="-741" visible="true" lat="44.90631729" lon="-72.39146778">
    <tag k="addr:city" v="Troy"/>
    <tag k="addr:housenumber" v="6011"/>
    <tag k="addr:street" v="Vermont Route 100"/>
    <tag k="addr:state" v="VT"/>
    <tag k="ref:vcgi:esiteid" v="262426"/>
  </node>
  <node id="-758" visible="true" lat="44.9042359" lon="-72.40514208">
    <tag k="addr:city" v="Troy"/>
    <tag k="addr:housenumber" v="6740"/>
    <tag k="addr:street" v="Vermont Route 100"/>
    <tag k="addr:state" v="VT"/>
    <tag k="ref:vcgi:esiteid" v="262445"/>
  </node>
  <node id="-759" visible="true" lat="44.90432855" lon="-72.40428701">
    <tag k="addr:city" v="Troy"/>
    <tag k="addr:housenumber" v="6694"/>
    <tag k="addr:street" v="Vermont Route 100"/>
    <tag k="addr:state" v="VT"/>
    <tag k="ref:vcgi:esiteid" v="262446"/>
  </node>
  <node id="-770" visible="true" lat="44.90260696" lon="-72.40618133">
    <tag k="addr:city" v="Troy"/>
    <tag k="addr:housenumber" v="6849"/>
    <tag k="addr:street" v="Vermont Route 100"/>
    <tag k="addr:state" v="VT"/>
    <tag k="ref:vcgi:esiteid" v="262460"/>
  </node>
  <node id="-771" visible="true" lat="44.90050888" lon="-72.40821838">
    <tag k="addr:city" v="Troy"/>
    <tag k="addr:housenumber" v="7021"/>
    <tag k="addr:street" v="Vermont Route 100"/>
    <tag k="addr:state" v="VT"/>
    <tag k="ref:vcgi:esiteid" v="262462"/>
  </node>
  <node id="-773" visible="true" lat="44.90302657" lon="-72.40299224">
    <tag k="addr:city" v="Troy"/>
    <tag k="addr:housenumber" v="6673"/>
    <tag k="addr:street" v="Vermont Route 100"/>
    <tag k="addr:state" v="VT"/>
    <tag k="ref:vcgi:esiteid" v="262465"/>
  </node>
  <node id="-777" visible="true" lat="44.89948654" lon="-72.40470886">
    <tag k="addr:city" v="Troy"/>
    <tag k="addr:housenumber" v="6957"/>
    <tag k="addr:street" v="Vermont Route 100"/>
    <tag k="addr:state" v="VT"/>
    <tag k="ref:vcgi:esiteid" v="262469"/>
  </node>
  <node id="-778" visible="true" lat="44.90102004" lon="-72.40771484">
    <tag k="addr:city" v="Troy"/>
    <tag k="addr:housenumber" v="6989"/>
    <tag k="addr:street" v="Vermont Route 100"/>
    <tag k="addr:state" v="VT"/>
    <tag k="ref:vcgi:esiteid" v="262471"/>
  </node>
  <node id="-780" visible="true" lat="44.90013885" lon="-72.40866851">
    <tag k="addr:city" v="Troy"/>
    <tag k="addr:housenumber" v="7047"/>
    <tag k="addr:street" v="Vermont Route 100"/>
    <tag k="addr:state" v="VT"/>
    <tag k="ref:vcgi:esiteid" v="262473"/>
  </node>
  <node id="-781" visible="true" lat="44.90035505" lon="-72.40954417">
    <tag k="addr:city" v="Troy"/>
    <tag k="addr:housenumber" v="7074"/>
    <tag k="addr:street" v="Vermont Route 100"/>
    <tag k="addr:state" v="VT"/>
    <tag k="ref:vcgi:esiteid" v="262475"/>
  </node>
  <node id="-784" visible="true" lat="44.96664033" lon="-72.41314069">
    <tag k="addr:city" v="Troy"/>
    <tag k="addr:housenumber" v="1315"/>
    <tag k="addr:street" v="Vermont Route 105 West"/>
    <tag k="addr:state" v="VT"/>
    <tag k="ref:vcgi:esiteid" v="262479"/>
  </node>
  <node id="-786" visible="true" lat="44.95061493" lon="-72.39132691">
    <tag k="addr:city" v="Troy"/>
    <tag k="addr:housenumber" v="3095"/>
    <tag k="addr:street" v="River Road"/>
    <tag k="addr:state" v="VT"/>
    <tag k="ref:vcgi:esiteid" v="262481"/>
  </node>
  <node id="-787" visible="true" lat="44.94943237" lon="-72.39048767">
    <tag k="addr:city" v="Troy"/>
    <tag k="addr:housenumber" v="3197"/>
    <tag k="addr:street" v="River Road"/>
    <tag k="addr:state" v="VT"/>
    <tag k="ref:vcgi:esiteid" v="262482"/>
  </node>
  <node id="-788" visible="true" lat="44.95677948" lon="-72.3972168">
    <tag k="addr:city" v="Troy"/>
    <tag k="addr:housenumber" v="1069"/>
    <tag k="addr:street" v="Veilleux Road"/>
    <tag k="addr:state" v="VT"/>
    <tag k="ref:vcgi:esiteid" v="262483"/>
  </node>
  <node id="-789" visible="true" lat="44.95373813" lon="-72.38417261">
    <tag k="addr:city" v="Troy"/>
    <tag k="addr:housenumber" v="499"/>
    <tag k="addr:street" v="Bergeron Road"/>
    <tag k="addr:state" v="VT"/>
    <tag k="ref:vcgi:esiteid" v="262484"/>
  </node>
  <node id="-793" visible="true" lat="45.00038031" lon="-72.35055244">
    <tag k="addr:city" v="Troy"/>
    <tag k="addr:housenumber" v="2157"/>
    <tag k="addr:street" v="Bear Mountain Road"/>
    <tag k="addr:state" v="VT"/>
    <tag k="ref:vcgi:esiteid" v="262490"/>
  </node>
  <node id="-796" visible="true" lat="44.94307498" lon="-72.41010394">
    <tag k="addr:city" v="Troy"/>
    <tag k="addr:housenumber" v="19"/>
    <tag k="addr:street" v="Starrs Drive"/>
    <tag k="addr:state" v="VT"/>
    <tag k="ref:vcgi:esiteid" v="262493"/>
  </node>
  <node id="-797" visible="true" lat="44.95146506" lon="-72.37306633">
    <tag k="addr:city" v="Troy"/>
    <tag k="addr:housenumber" v="2844"/>
    <tag k="addr:street" v="East Hill"/>
    <tag k="addr:state" v="VT"/>
    <tag k="ref:vcgi:esiteid" v="262494"/>
  </node>
  <node id="-798" visible="true" lat="44.94875065" lon="-72.36991823">
    <tag k="addr:city" v="Troy"/>
    <tag k="addr:housenumber" v="2949"/>
    <tag k="addr:street" v="East Hill"/>
    <tag k="addr:state" v="VT"/>
    <tag k="ref:vcgi:esiteid" v="262495"/>
  </node>
  <node id="-799" visible="true" lat="44.96265551" lon="-72.37021698">
    <tag k="addr:city" v="Troy"/>
    <tag k="addr:housenumber" v="2013"/>
    <tag k="addr:street" v="East Hill"/>
    <tag k="addr:state" v="VT"/>
    <tag k="ref:vcgi:esiteid" v="262496"/>
  </node>
  <node id="-802" visible="true" lat="44.8594297" lon="-72.38585599">
    <tag k="addr:city" v="Troy"/>
    <tag k="addr:housenumber" v="68"/>
    <tag k="addr:street" v="Sanville Road"/>
    <tag k="addr:state" v="VT"/>
    <tag k="ref:vcgi:esiteid" v="262499"/>
  </node>
  <node id="-804" visible="true" lat="44.96432249" lon="-72.41652174">
    <tag k="addr:city" v="Troy"/>
    <tag k="addr:housenumber" v="1641"/>
    <tag k="addr:street" v="Vermont Route 105 West"/>
    <tag k="addr:state" v="VT"/>
    <tag k="ref:vcgi:esiteid" v="262501"/>
  </node>
  <node id="-805" visible="true" lat="44.98105807" lon="-72.36718275">
    <tag k="addr:city" v="Troy"/>
    <tag k="addr:housenumber" v="811"/>
    <tag k="addr:street" v="East Hill"/>
    <tag k="addr:state" v="VT"/>
    <tag k="ref:vcgi:esiteid" v="262502"/>
  </node>
  <node id="-806" visible="true" lat="44.94611734" lon="-72.37926398">
    <tag k="addr:city" v="Troy"/>
    <tag k="addr:housenumber" v="3206"/>
    <tag k="addr:street" v="East Hill"/>
    <tag k="addr:state" v="VT"/>
    <tag k="ref:vcgi:esiteid" v="262503"/>
  </node>
  <node id="-807" visible="true" lat="44.95720777" lon="-72.39114481">
    <tag k="addr:city" v="Troy"/>
    <tag k="addr:housenumber" v="2525"/>
    <tag k="addr:street" v="River Road"/>
    <tag k="addr:state" v="VT"/>
    <tag k="ref:vcgi:esiteid" v="262504"/>
  </node>
  <node id="-808" visible="true" lat="44.97662141" lon="-72.35145743">
    <tag k="addr:city" v="Troy"/>
    <tag k="addr:housenumber" v="279"/>
    <tag k="addr:street" v="Blais Road"/>
    <tag k="addr:state" v="VT"/>
    <tag k="ref:vcgi:esiteid" v="262505"/>
  </node>
  <node id="-810" visible="true" lat="44.9494259" lon="-72.37439952">
    <tag k="addr:city" v="Troy"/>
    <tag k="addr:housenumber" v="2942"/>
    <tag k="addr:street" v="East Hill"/>
    <tag k="addr:state" v="VT"/>
    <tag k="ref:vcgi:esiteid" v="262507"/>
  </node>
  <node id="-811" visible="true" lat="44.95322151" lon="-72.3738765">
    <tag k="addr:city" v="Troy"/>
    <tag k="addr:housenumber" v="989"/>
    <tag k="addr:street" v="Bergeron Road"/>
    <tag k="addr:state" v="VT"/>
    <tag k="ref:vcgi:esiteid" v="262508"/>
  </node>
  <node id="-812" visible="true" lat="44.84941123" lon="-72.38321984">
    <tag k="addr:city" v="Troy"/>
    <tag k="addr:housenumber" v="421"/>
    <tag k="addr:street" v="Brittain Road"/>
    <tag k="addr:state" v="VT"/>
    <tag k="ref:vcgi:esiteid" v="262509"/>
  </node>
  <node id="-813" visible="true" lat="44.86142285" lon="-72.38734921">
    <tag k="addr:city" v="Troy"/>
    <tag k="addr:housenumber" v="3490"/>
    <tag k="addr:street" v="Loop Road"/>
    <tag k="addr:state" v="VT"/>
    <tag k="ref:vcgi:esiteid" v="262510"/>
  </node>
  <node id="-814" visible="true" lat="44.88001881" lon="-72.38540355">
    <tag k="addr:city" v="Troy"/>
    <tag k="addr:housenumber" v="1932"/>
    <tag k="addr:street" v="Loop Road"/>
    <tag k="addr:state" v="VT"/>
    <tag k="ref:vcgi:esiteid" v="262511"/>
  </node>
  <node id="-815" visible="true" lat="44.95756331" lon="-72.36950602">
    <tag k="addr:city" v="Troy"/>
    <tag k="addr:housenumber" v="2345"/>
    <tag k="addr:street" v="East Hill"/>
    <tag k="addr:state" v="VT"/>
    <tag k="ref:vcgi:esiteid" v="262512"/>
  </node>
  <node id="-816" visible="true" lat="44.99706836" lon="-72.41246062">
    <tag k="addr:city" v="Troy"/>
    <tag k="addr:housenumber" v="310"/>
    <tag k="addr:street" v="North Jay Road"/>
    <tag k="addr:state" v="VT"/>
    <tag k="ref:vcgi:esiteid" v="262513"/>
  </node>
  <node id="-817" visible="true" lat="44.99027836" lon="-72.37027388">
    <tag k="addr:city" v="Troy"/>
    <tag k="addr:housenumber" v="863"/>
    <tag k="addr:street" v="Vermont Route 105 East"/>
    <tag k="addr:state" v="VT"/>
    <tag k="ref:vcgi:esiteid" v="262514"/>
  </node>
  <node id="-818" visible="true" lat="44.89164546" lon="-72.3893786">
    <tag k="addr:city" v="Troy"/>
    <tag k="addr:housenumber" v="1127"/>
    <tag k="addr:street" v="Loop Road"/>
    <tag k="addr:state" v="VT"/>
    <tag k="ref:vcgi:esiteid" v="262515"/>
  </node>
  <node id="-823" visible="true" lat="44.90903898" lon="-72.39865213">
    <tag k="addr:city" v="Troy"/>
    <tag k="addr:housenumber" v="6218"/>
    <tag k="addr:street" v="River Road"/>
    <tag k="addr:state" v="VT"/>
    <tag k="ref:vcgi:esiteid" v="262521"/>
  </node>
  <node id="-825" visible="true" lat="44.99723977" lon="-72.34371469">
    <tag k="addr:city" v="Troy"/>
    <tag k="addr:housenumber" v="2534"/>
    <tag k="addr:street" v="Bear Mountain Road"/>
    <tag k="addr:state" v="VT"/>
    <tag k="ref:vcgi:esiteid" v="262523"/>
  </node>
  <node id="-826" visible="true" lat="44.99896402" lon="-72.37837644">
    <tag k="addr:city" v="Troy"/>
    <tag k="addr:housenumber" v="788"/>
    <tag k="addr:street" v="Bear Mountain Road"/>
    <tag k="addr:state" v="VT"/>
    <tag k="ref:vcgi:esiteid" v="262524"/>
  </node>
  <node id="-827" visible="true" lat="45.00075904" lon="-72.42966727">
    <tag k="addr:city" v="Troy"/>
    <tag k="addr:housenumber" v="1164"/>
    <tag k="addr:street" v="North Jay Road"/>
    <tag k="addr:state" v="VT"/>
    <tag k="ref:vcgi:esiteid" v="262525"/>
  </node>
  <node id="-828" visible="true" lat="44.97431389" lon="-72.34839845">
    <tag k="addr:city" v="Troy"/>
    <tag k="addr:housenumber" v="281"/>
    <tag k="addr:street" v="Blais Road"/>
    <tag k="addr:state" v="VT"/>
    <tag k="ref:vcgi:esiteid" v="262526"/>
  </node>
  <node id="-829" visible="true" lat="44.9977001" lon="-72.4177399">
    <tag k="addr:city" v="Troy"/>
    <tag k="addr:housenumber" v="532"/>
    <tag k="addr:street" v="North Jay Road"/>
    <tag k="addr:state" v="VT"/>
    <tag k="ref:vcgi:esiteid" v="262527"/>
  </node>
  <node id="-830" visible="true" lat="44.95515549" lon="-72.39178613">
    <tag k="addr:city" v="Troy"/>
    <tag k="addr:housenumber" v="67"/>
    <tag k="addr:street" v="Bergeron Road"/>
    <tag k="addr:state" v="VT"/>
    <tag k="ref:vcgi:esiteid" v="262528"/>
  </node>
  <node id="-831" visible="true" lat="44.96252742" lon="-72.40985409">
    <tag k="addr:city" v="Troy"/>
    <tag k="addr:housenumber" v="226"/>
    <tag k="addr:street" v="Veilleux Road"/>
    <tag k="addr:state" v="VT"/>
    <tag k="ref:vcgi:esiteid" v="262529"/>
  </node>
  <node id="-832" visible="true" lat="44.96385402" lon="-72.41183319">
    <tag k="addr:city" v="Troy"/>
    <tag k="addr:housenumber" v="61"/>
    <tag k="addr:street" v="Veilleux Road"/>
    <tag k="addr:state" v="VT"/>
    <tag k="ref:vcgi:esiteid" v="262530"/>
  </node>
  <node id="-833" visible="true" lat="44.96532544" lon="-72.42029357">
    <tag k="addr:city" v="Troy"/>
    <tag k="addr:housenumber" v="1772"/>
    <tag k="addr:street" v="Vermont Route 105 West"/>
    <tag k="addr:state" v="VT"/>
    <tag k="ref:vcgi:esiteid" v="262531"/>
  </node>
  <node id="-834" visible="true" lat="44.96508702" lon="-72.42114637">
    <tag k="addr:city" v="Troy"/>
    <tag k="addr:housenumber" v="1788"/>
    <tag k="addr:street" v="Vermont Route 105 West"/>
    <tag k="addr:state" v="VT"/>
    <tag k="ref:vcgi:esiteid" v="262532"/>
  </node>
  <node id="-836" visible="true" lat="44.95788939" lon="-72.36685574">
    <tag k="addr:city" v="Troy"/>
    <tag k="addr:housenumber" v="2978"/>
    <tag k="addr:street" v="Searles Road"/>
    <tag k="addr:state" v="VT"/>
    <tag k="ref:vcgi:esiteid" v="262534"/>
  </node>
  <node id="-837" visible="true" lat="44.95442395" lon="-72.37158402">
    <tag k="addr:city" v="Troy"/>
    <tag k="addr:housenumber" v="2570"/>
    <tag k="addr:street" v="East Hill"/>
    <tag k="addr:state" v="VT"/>
    <tag k="ref:vcgi:esiteid" v="262535"/>
  </node>
  <node id="-838" visible="true" lat="44.9523693" lon="-72.37014248">
    <tag k="addr:city" v="Troy"/>
    <tag k="addr:housenumber" v="2735"/>
    <tag k="addr:street" v="East Hill"/>
    <tag k="addr:state" v="VT"/>
    <tag k="ref:vcgi:esiteid" v="262536"/>
  </node>
  <node id="-839" visible="true" lat="44.95127778" lon="-72.34837784">
    <tag k="addr:city" v="Troy"/>
    <tag k="addr:housenumber" v="350"/>
    <tag k="addr:street" v="Bowenville Road"/>
    <tag k="addr:state" v="VT"/>
    <tag k="ref:vcgi:esiteid" v="262537"/>
  </node>
  <node id="-840" visible="true" lat="44.94539892" lon="-72.35025551">
    <tag k="addr:city" v="Troy"/>
    <tag k="addr:housenumber" v="808"/>
    <tag k="addr:street" v="Bowenville Road"/>
    <tag k="addr:state" v="VT"/>
    <tag k="ref:vcgi:esiteid" v="262538"/>
  </node>
  <node id="-843" visible="true" lat="44.93721594" lon="-72.37430569">
    <tag k="addr:city" v="Troy"/>
    <tag k="addr:housenumber" v="3749"/>
    <tag k="addr:street" v="East Hill"/>
    <tag k="addr:state" v="VT"/>
    <tag k="ref:vcgi:esiteid" v="262541"/>
  </node>
  <node id="-844" visible="true" lat="44.91627307" lon="-72.35761617">
    <tag k="addr:city" v="Troy"/>
    <tag k="addr:housenumber" v="213"/>
    <tag k="addr:street" v="Routhier Road"/>
    <tag k="addr:state" v="VT"/>
    <tag k="ref:vcgi:esiteid" v="262542"/>
  </node>
  <node id="-846" visible="true" lat="44.87726725" lon="-72.38636945">
    <tag k="addr:city" v="Troy"/>
    <tag k="addr:housenumber" v="2296"/>
    <tag k="addr:street" v="Loop Road"/>
    <tag k="addr:state" v="VT"/>
    <tag k="ref:vcgi:esiteid" v="262545"/>
  </node>
  <node id="-847" visible="true" lat="44.87080292" lon="-72.37125072">
    <tag k="addr:city" v="Troy"/>
    <tag k="addr:housenumber" v="241"/>
    <tag k="addr:street" v="Joe Roberts Road"/>
    <tag k="addr:state" v="VT"/>
    <tag k="ref:vcgi:esiteid" v="262546"/>
  </node>
  <node id="-849" visible="true" lat="44.87175927" lon="-72.37714629">
    <tag k="addr:city" v="Troy"/>
    <tag k="addr:housenumber" v="334"/>
    <tag k="addr:street" v="Collins Mill Road"/>
    <tag k="addr:state" v="VT"/>
    <tag k="ref:vcgi:esiteid" v="262548"/>
  </node>
  <node id="-850" visible="true" lat="44.99896094" lon="-72.39285118">
    <tag k="addr:city" v="Troy"/>
    <tag k="addr:housenumber" v="337"/>
    <tag k="addr:street" v="Pine Street"/>
    <tag k="addr:state" v="VT"/>
    <tag k="ref:vcgi:esiteid" v="262549"/>
  </node>
  <node id="-851" visible="true" lat="44.99818575" lon="-72.40641442">
    <tag k="addr:city" v="Troy"/>
    <tag k="addr:housenumber" v="51"/>
    <tag k="addr:street" v="Dominion Avenue"/>
    <tag k="addr:state" v="VT"/>
    <tag k="ref:vcgi:esiteid" v="262550"/>
  </node>
  <node id="-853" visible="true" lat="44.95530149" lon="-72.36877946">
    <tag k="addr:city" v="Troy"/>
    <tag k="addr:housenumber" v="2441"/>
    <tag k="addr:street" v="East Hill"/>
    <tag k="addr:state" v="VT"/>
    <tag k="ref:vcgi:esiteid" v="262552"/>
  </node>
  <node id="-854" visible="true" lat="45.00613668" lon="-72.41584606">
    <tag k="addr:city" v="Troy"/>
    <tag k="addr:housenumber" v="807"/>
    <tag k="addr:street" v="Vermont Route 243"/>
    <tag k="addr:state" v="VT"/>
    <tag k="ref:vcgi:esiteid" v="262553"/>
  </node>
  <node id="-855" visible="true" lat="44.99614907" lon="-72.3767029">
    <tag k="addr:city" v="Troy"/>
    <tag k="addr:housenumber" v="217"/>
    <tag k="addr:street" v="Cross Road"/>
    <tag k="addr:state" v="VT"/>
    <tag k="ref:vcgi:esiteid" v="262554"/>
  </node>
  <node id="-857" visible="true" lat="44.99806999" lon="-72.36989595">
    <tag k="addr:city" v="Troy"/>
    <tag k="addr:housenumber" v="1176"/>
    <tag k="addr:street" v="Bear Mountain Road"/>
    <tag k="addr:state" v="VT"/>
    <tag k="ref:vcgi:esiteid" v="262556"/>
  </node>
  <node id="-858" visible="true" lat="44.96528609" lon="-72.41919405">
    <tag k="addr:city" v="Troy"/>
    <tag k="addr:housenumber" v="1740"/>
    <tag k="addr:street" v="Vermont Route 105 West"/>
    <tag k="addr:state" v="VT"/>
    <tag k="ref:vcgi:esiteid" v="262557"/>
  </node>
  <node id="-859" visible="true" lat="44.96628369" lon="-72.42227511">
    <tag k="addr:city" v="Troy"/>
    <tag k="addr:housenumber" v="1836"/>
    <tag k="addr:street" v="Vermont Route 105 West"/>
    <tag k="addr:state" v="VT"/>
    <tag k="ref:vcgi:esiteid" v="262558"/>
  </node>
  <node id="-860" visible="true" lat="44.96555763" lon="-72.41661867">
    <tag k="addr:city" v="Troy"/>
    <tag k="addr:housenumber" v="1648"/>
    <tag k="addr:street" v="Vermont Route 105 West"/>
    <tag k="addr:state" v="VT"/>
    <tag k="ref:vcgi:esiteid" v="262559"/>
  </node>
  <node id="-861" visible="true" lat="44.96527446" lon="-72.41754465">
    <tag k="addr:city" v="Troy"/>
    <tag k="addr:housenumber" v="1650"/>
    <tag k="addr:street" v="Vermont Route 105 West"/>
    <tag k="addr:state" v="VT"/>
    <tag k="ref:vcgi:esiteid" v="262560"/>
  </node>
  <node id="-862" visible="true" lat="44.95346545" lon="-72.38091709">
    <tag k="addr:city" v="Troy"/>
    <tag k="addr:housenumber" v="623"/>
    <tag k="addr:street" v="Bergeron Road"/>
    <tag k="addr:state" v="VT"/>
    <tag k="ref:vcgi:esiteid" v="262561"/>
  </node>
  <node id="-863" visible="true" lat="44.95148461" lon="-72.37861198">
    <tag k="addr:city" v="Troy"/>
    <tag k="addr:housenumber" v="610"/>
    <tag k="addr:street" v="Bergeron Road"/>
    <tag k="addr:state" v="VT"/>
    <tag k="ref:vcgi:esiteid" v="262562"/>
  </node>
  <node id="-864" visible="true" lat="44.96097803" lon="-72.37006456">
    <tag k="addr:city" v="Troy"/>
    <tag k="addr:housenumber" v="2141"/>
    <tag k="addr:street" v="East Hill"/>
    <tag k="addr:state" v="VT"/>
    <tag k="ref:vcgi:esiteid" v="262563"/>
  </node>
  <node id="-865" visible="true" lat="44.95619493" lon="-72.3470824">
    <tag k="addr:city" v="Troy"/>
    <tag k="addr:housenumber" v="1981"/>
    <tag k="addr:street" v="Searles Road"/>
    <tag k="addr:state" v="VT"/>
    <tag k="ref:vcgi:esiteid" v="262564"/>
  </node>
  <node id="-866" visible="true" lat="44.95954258" lon="-72.37314145">
    <tag k="addr:city" v="Troy"/>
    <tag k="addr:housenumber" v="2256"/>
    <tag k="addr:street" v="East Hill"/>
    <tag k="addr:state" v="VT"/>
    <tag k="ref:vcgi:esiteid" v="262565"/>
  </node>
  <node id="-867" visible="true" lat="44.93952929" lon="-72.37519849">
    <tag k="addr:city" v="Troy"/>
    <tag k="addr:housenumber" v="3657"/>
    <tag k="addr:street" v="East Hill"/>
    <tag k="addr:state" v="VT"/>
    <tag k="ref:vcgi:esiteid" v="262566"/>
  </node>
  <node id="-869" visible="true" lat="44.90981693" lon="-72.39936869">
    <tag k="addr:city" v="Troy"/>
    <tag k="addr:housenumber" v="6144"/>
    <tag k="addr:street" v="River Road"/>
    <tag k="addr:state" v="VT"/>
    <tag k="ref:vcgi:esiteid" v="262568"/>
  </node>
  <node id="-871" visible="true" lat="44.91366778" lon="-72.359254">
    <tag k="addr:city" v="Troy"/>
    <tag k="addr:housenumber" v="4356"/>
    <tag k="addr:street" v="Vermont Route 100"/>
    <tag k="addr:state" v="VT"/>
    <tag k="ref:vcgi:esiteid" v="262570"/>
  </node>
  <node id="-872" visible="true" lat="44.92527004" lon="-72.35495802">
    <tag k="addr:city" v="Troy"/>
    <tag k="addr:housenumber" v="831"/>
    <tag k="addr:street" v="Routhier Road"/>
    <tag k="addr:state" v="VT"/>
    <tag k="ref:vcgi:esiteid" v="262571"/>
  </node>
  <node id="-873" visible="true" lat="44.9237456" lon="-72.37331067">
    <tag k="addr:city" v="Troy"/>
    <tag k="addr:housenumber" v="4783"/>
    <tag k="addr:street" v="East Hill"/>
    <tag k="addr:state" v="VT"/>
    <tag k="ref:vcgi:esiteid" v="262572"/>
  </node>
  <node id="-874" visible="true" lat="44.91305956" lon="-72.37637651">
    <tag k="addr:city" v="Troy"/>
    <tag k="addr:housenumber" v="5474"/>
    <tag k="addr:street" v="East Hill"/>
    <tag k="addr:state" v="VT"/>
    <tag k="ref:vcgi:esiteid" v="262573"/>
  </node>
  <node id="-875" visible="true" lat="44.84928258" lon="-72.38416538">
    <tag k="addr:city" v="Troy"/>
    <tag k="addr:housenumber" v="324"/>
    <tag k="addr:street" v="Brittain Road"/>
    <tag k="addr:state" v="VT"/>
    <tag k="ref:vcgi:esiteid" v="262574"/>
  </node>
  <node id="-876" visible="true" lat="44.95355262" lon="-72.34798695">
    <tag k="addr:city" v="Troy"/>
    <tag k="addr:housenumber" v="190"/>
    <tag k="addr:street" v="Bowenville Road"/>
    <tag k="addr:state" v="VT"/>
    <tag k="ref:vcgi:esiteid" v="262575"/>
  </node>
  <node id="-877" visible="true" lat="44.91079981" lon="-72.39136445">
    <tag k="addr:city" v="Troy"/>
    <tag k="addr:housenumber" v="165"/>
    <tag k="addr:street" v="Old Iron Mine Road"/>
    <tag k="addr:state" v="VT"/>
    <tag k="ref:vcgi:esiteid" v="262576"/>
  </node>
  <node id="-878" visible="true" lat="44.96341916" lon="-72.37031777">
    <tag k="addr:city" v="Troy"/>
    <tag k="addr:housenumber" v="1927"/>
    <tag k="addr:street" v="East Hill"/>
    <tag k="addr:state" v="VT"/>
    <tag k="ref:vcgi:esiteid" v="262577"/>
  </node>
  <node id="-879" visible="true" lat="44.96364258" lon="-72.37372408">
    <tag k="addr:city" v="Troy"/>
    <tag k="addr:housenumber" v="1932"/>
    <tag k="addr:street" v="East Hill"/>
    <tag k="addr:state" v="VT"/>
    <tag k="ref:vcgi:esiteid" v="262578"/>
  </node>
  <node id="-880" visible="true" lat="44.96114451" lon="-72.35846064">
    <tag k="addr:city" v="Troy"/>
    <tag k="addr:housenumber" v="2564"/>
    <tag k="addr:street" v="Searles Road"/>
    <tag k="addr:state" v="VT"/>
    <tag k="ref:vcgi:esiteid" v="262579"/>
  </node>
  <node id="-881" visible="true" lat="44.91294227" lon="-72.37448221">
    <tag k="addr:city" v="Troy"/>
    <tag k="addr:housenumber" v="5530"/>
    <tag k="addr:street" v="East Hill"/>
    <tag k="addr:state" v="VT"/>
    <tag k="ref:vcgi:esiteid" v="262580"/>
  </node>
  <node id="-882" visible="true" lat="44.96526658" lon="-72.41847683">
    <tag k="addr:city" v="Troy"/>
    <tag k="addr:housenumber" v="1738"/>
    <tag k="addr:street" v="Vermont Route 105 West"/>
    <tag k="addr:state" v="VT"/>
    <tag k="ref:vcgi:esiteid" v="262581"/>
  </node>
  <node id="-883" visible="true" lat="44.94697256" lon="-72.37679435">
    <tag k="addr:city" v="Troy"/>
    <tag k="addr:housenumber" v="3142"/>
    <tag k="addr:street" v="East Hill"/>
    <tag k="addr:state" v="VT"/>
    <tag k="ref:vcgi:esiteid" v="262582"/>
  </node>
  <node id="-884" visible="true" lat="44.8566798" lon="-72.38975851">
    <tag k="addr:city" v="Troy"/>
    <tag k="addr:housenumber" v="3902"/>
    <tag k="addr:street" v="Loop Road"/>
    <tag k="addr:state" v="VT"/>
    <tag k="ref:vcgi:esiteid" v="262583"/>
  </node>
  <node id="-885" visible="true" lat="44.85891454" lon="-72.38869297">
    <tag k="addr:city" v="Troy"/>
    <tag k="addr:housenumber" v="3698"/>
    <tag k="addr:street" v="Loop Road"/>
    <tag k="addr:state" v="VT"/>
    <tag k="ref:vcgi:esiteid" v="262584"/>
  </node>
  <node id="-887" visible="true" lat="44.97409063" lon="-72.35533985">
    <tag k="addr:city" v="Troy"/>
    <tag k="addr:housenumber" v="1864"/>
    <tag k="addr:street" v="Vermont Route 105 East"/>
    <tag k="addr:state" v="VT"/>
    <tag k="ref:vcgi:esiteid" v="262586"/>
  </node>
  <node id="-888" visible="true" lat="44.98974439" lon="-72.37214126">
    <tag k="addr:city" v="Troy"/>
    <tag k="addr:housenumber" v="780"/>
    <tag k="addr:street" v="Vermont Route 105 East"/>
    <tag k="addr:state" v="VT"/>
    <tag k="ref:vcgi:esiteid" v="262587"/>
  </node>
  <node id="-889" visible="true" lat="44.93664762" lon="-72.37552899">
    <tag k="addr:city" v="Troy"/>
    <tag k="addr:housenumber" v="3831"/>
    <tag k="addr:street" v="East Hill"/>
    <tag k="addr:state" v="VT"/>
    <tag k="ref:vcgi:esiteid" v="262588"/>
  </node>
  <node id="-890" visible="true" lat="44.93605247" lon="-72.37513545">
    <tag k="addr:city" v="Troy"/>
    <tag k="addr:housenumber" v="3873"/>
    <tag k="addr:street" v="East Hill"/>
    <tag k="addr:state" v="VT"/>
    <tag k="ref:vcgi:esiteid" v="262589"/>
  </node>
  <node id="-891" visible="true" lat="44.92018057" lon="-72.37148562">
    <tag k="addr:city" v="Troy"/>
    <tag k="addr:housenumber" v="5075"/>
    <tag k="addr:street" v="East Hill"/>
    <tag k="addr:state" v="VT"/>
    <tag k="ref:vcgi:esiteid" v="262590"/>
  </node>
  <node id="-892" visible="true" lat="44.87333404" lon="-72.37555387">
    <tag k="addr:city" v="Troy"/>
    <tag k="addr:housenumber" v="422"/>
    <tag k="addr:street" v="Collins Mill Road"/>
    <tag k="addr:state" v="VT"/>
    <tag k="ref:vcgi:esiteid" v="262591"/>
  </node>
  <node id="-893" visible="true" lat="44.99895233" lon="-72.36300935">
    <tag k="addr:city" v="Troy"/>
    <tag k="addr:housenumber" v="1409"/>
    <tag k="addr:street" v="Bear Mountain Road"/>
    <tag k="addr:state" v="VT"/>
    <tag k="ref:vcgi:esiteid" v="262592"/>
  </node>
  <node id="-894" visible="true" lat="44.95086651" lon="-72.39383648">
    <tag k="addr:city" v="Troy"/>
    <tag k="addr:housenumber" v="3032"/>
    <tag k="addr:street" v="River Road"/>
    <tag k="addr:state" v="VT"/>
    <tag k="ref:vcgi:esiteid" v="262593"/>
  </node>
  <node id="-895" visible="true" lat="44.95757839" lon="-72.3647179">
    <tag k="addr:city" v="Troy"/>
    <tag k="addr:housenumber" v="2860"/>
    <tag k="addr:street" v="Searles Road"/>
    <tag k="addr:state" v="VT"/>
    <tag k="ref:vcgi:esiteid" v="262594"/>
  </node>
  <node id="-896" visible="true" lat="44.94964711" lon="-72.36935428">
    <tag k="addr:city" v="Troy"/>
    <tag k="addr:housenumber" v="2873"/>
    <tag k="addr:street" v="East Hill"/>
    <tag k="addr:state" v="VT"/>
    <tag k="ref:vcgi:esiteid" v="262595"/>
  </node>
  <node id="-897" visible="true" lat="44.94562168" lon="-72.39292313">
    <tag k="addr:city" v="Troy"/>
    <tag k="addr:housenumber" v="3465"/>
    <tag k="addr:street" v="River Road"/>
    <tag k="addr:state" v="VT"/>
    <tag k="ref:vcgi:esiteid" v="262596"/>
  </node>
  <node id="-899" visible="true" lat="44.88611941" lon="-72.38813307">
    <tag k="addr:city" v="Troy"/>
    <tag k="addr:housenumber" v="1244"/>
    <tag k="addr:street" v="Loop Road"/>
    <tag k="addr:state" v="VT"/>
    <tag k="ref:vcgi:esiteid" v="262598"/>
  </node>
  <node id="-900" visible="true" lat="44.99584765" lon="-72.39461957">
    <tag k="addr:city" v="Troy"/>
    <tag k="addr:housenumber" v="40"/>
    <tag k="addr:street" v="Pine Street"/>
    <tag k="addr:state" v="VT"/>
    <tag k="ref:vcgi:esiteid" v="262599"/>
  </node>
  <node id="-902" visible="true" lat="44.91469508" lon="-72.36227982">
    <tag k="addr:city" v="Troy"/>
    <tag k="addr:housenumber" v="4492"/>
    <tag k="addr:street" v="Vermont Route 100"/>
    <tag k="addr:state" v="VT"/>
    <tag k="ref:vcgi:esiteid" v="262601"/>
  </node>
  <node id="-903" visible="true" lat="44.84386379" lon="-72.39091418">
    <tag k="addr:city" v="Troy"/>
    <tag k="addr:housenumber" v="120"/>
    <tag k="addr:street" v="Wursthorn Road"/>
    <tag k="addr:state" v="VT"/>
    <tag k="ref:vcgi:esiteid" v="262602"/>
  </node>
  <node id="-904" visible="true" lat="44.86643078" lon="-72.37492683">
    <tag k="addr:city" v="Troy"/>
    <tag k="addr:housenumber" v="368"/>
    <tag k="addr:street" v="Joe Roberts Road"/>
    <tag k="addr:state" v="VT"/>
    <tag k="ref:vcgi:esiteid" v="262603"/>
  </node>
  <node id="-905" visible="true" lat="44.98409204" lon="-72.37359935">
    <tag k="addr:city" v="Troy"/>
    <tag k="addr:housenumber" v="486"/>
    <tag k="addr:street" v="East Hill"/>
    <tag k="addr:state" v="VT"/>
    <tag k="ref:vcgi:esiteid" v="262604"/>
  </node>
  <node id="-906" visible="true" lat="44.85799279" lon="-72.37893531">
    <tag k="addr:city" v="Troy"/>
    <tag k="addr:housenumber" v="462"/>
    <tag k="addr:street" v="Sanville Road"/>
    <tag k="addr:state" v="VT"/>
    <tag k="ref:vcgi:esiteid" v="262605"/>
  </node>
  <node id="-907" visible="true" lat="44.95923966" lon="-72.38738043">
    <tag k="addr:city" v="Troy"/>
    <tag k="addr:housenumber" v="2341"/>
    <tag k="addr:street" v="River Road"/>
    <tag k="addr:state" v="VT"/>
    <tag k="ref:vcgi:esiteid" v="262607"/>
  </node>
  <node id="-910" visible="true" lat="44.91171054" lon="-72.37524482">
    <tag k="addr:city" v="Troy"/>
    <tag k="addr:housenumber" v="5126"/>
    <tag k="addr:street" v="Vermont Route 100"/>
    <tag k="addr:state" v="VT"/>
    <tag k="ref:vcgi:esiteid" v="262612"/>
  </node>
  <node id="-911" visible="true" lat="44.99959178" lon="-72.40600936">
    <tag k="addr:city" v="Troy"/>
    <tag k="addr:housenumber" v="149"/>
    <tag k="addr:street" v="Dominion Avenue"/>
    <tag k="addr:state" v="VT"/>
    <tag k="ref:vcgi:esiteid" v="262613"/>
  </node>
  <node id="-913" visible="true" lat="44.99522992" lon="-72.40167215">
    <tag k="addr:city" v="Troy"/>
    <tag k="addr:housenumber" v="14"/>
    <tag k="addr:street" v="South Street"/>
    <tag k="addr:state" v="VT"/>
    <tag k="ref:vcgi:esiteid" v="262615"/>
  </node>
  <node id="-914" visible="true" lat="45.00706902" lon="-72.41546619">
    <tag k="addr:city" v="Troy"/>
    <tag k="addr:housenumber" v="844"/>
    <tag k="addr:street" v="Vermont Route 243"/>
    <tag k="addr:state" v="VT"/>
    <tag k="ref:vcgi:esiteid" v="310752"/>
  </node>
  <node id="-915" visible="true" lat="44.95343118" lon="-72.38227361">
    <tag k="addr:city" v="Troy"/>
    <tag k="addr:housenumber" v="561"/>
    <tag k="addr:street" v="Bergeron Road"/>
    <tag k="addr:state" v="VT"/>
    <tag k="ref:vcgi:esiteid" v="310753"/>
  </node>
  <node id="-916" visible="true" lat="44.95938271" lon="-72.40833367">
    <tag k="addr:city" v="Troy"/>
    <tag k="addr:housenumber" v="387"/>
    <tag k="addr:street" v="Vermont Route 101"/>
    <tag k="addr:state" v="VT"/>
    <tag k="ref:vcgi:esiteid" v="310754"/>
  </node>
  <node id="-917" visible="true" lat="44.95897588" lon="-72.4017048">
    <tag k="addr:city" v="Troy"/>
    <tag k="addr:housenumber" v="786"/>
    <tag k="addr:street" v="Veilleux Road"/>
    <tag k="addr:state" v="VT"/>
    <tag k="ref:vcgi:esiteid" v="310756"/>
  </node>
  <node id="-918" visible="true" lat="44.9604201" lon="-72.40428103">
    <tag k="addr:city" v="Troy"/>
    <tag k="addr:housenumber" v="654"/>
    <tag k="addr:street" v="Veilleux Road"/>
    <tag k="addr:state" v="VT"/>
    <tag k="ref:vcgi:esiteid" v="310757"/>
  </node>
  <node id="-919" visible="true" lat="44.95342444" lon="-72.3779914">
    <tag k="addr:city" v="Troy"/>
    <tag k="addr:housenumber" v="759"/>
    <tag k="addr:street" v="Bergeron Road"/>
    <tag k="addr:state" v="VT"/>
    <tag k="ref:vcgi:esiteid" v="310758"/>
  </node>
  <node id="-920" visible="true" lat="44.95047486" lon="-72.34569467">
    <tag k="addr:city" v="Troy"/>
    <tag k="addr:housenumber" v="227"/>
    <tag k="addr:street" v="Bowenville Road"/>
    <tag k="addr:state" v="VT"/>
    <tag k="ref:vcgi:esiteid" v="311136"/>
  </node>
  <node id="-921" visible="true" lat="44.9304219" lon="-72.3780116">
    <tag k="addr:city" v="Troy"/>
    <tag k="addr:housenumber" v="4242"/>
    <tag k="addr:street" v="East Hill"/>
    <tag k="addr:state" v="VT"/>
    <tag k="ref:vcgi:esiteid" v="311137"/>
  </node>
  <node id="-922" visible="true" lat="44.94675343" lon="-72.37262902">
    <tag k="addr:city" v="Troy"/>
    <tag k="addr:housenumber" v="3071"/>
    <tag k="addr:street" v="East Hill"/>
    <tag k="addr:state" v="VT"/>
    <tag k="ref:vcgi:esiteid" v="311138"/>
  </node>
  <node id="-923" visible="true" lat="44.9079524" lon="-72.38662596">
    <tag k="addr:city" v="Troy"/>
    <tag k="addr:housenumber" v="126"/>
    <tag k="addr:street" v="Clems Way"/>
    <tag k="addr:state" v="VT"/>
    <tag k="ref:vcgi:esiteid" v="311140"/>
  </node>
  <node id="-924" visible="true" lat="44.91369025" lon="-72.39228122">
    <tag k="addr:city" v="Troy"/>
    <tag k="addr:housenumber" v="316"/>
    <tag k="addr:street" v="Aaron Greenwood Road"/>
    <tag k="addr:state" v="VT"/>
    <tag k="ref:vcgi:esiteid" v="311141"/>
  </node>
  <node id="-925" visible="true" lat="44.99592052" lon="-72.38892664">
    <tag k="addr:city" v="Troy"/>
    <tag k="addr:housenumber" v="278"/>
    <tag k="addr:street" v="Geraldine Avenue"/>
    <tag k="addr:state" v="VT"/>
    <tag k="ref:vcgi:esiteid" v="311142"/>
  </node>
  <node id="-927" visible="true" lat="44.99112931" lon="-72.38742687">
    <tag k="addr:city" v="Troy"/>
    <tag k="addr:housenumber" v="64"/>
    <tag k="addr:street" v="River Road"/>
    <tag k="addr:state" v="VT"/>
    <tag k="ref:vcgi:esiteid" v="311144"/>
  </node>
  <node id="-928" visible="true" lat="44.91887838" lon="-72.37398283">
    <tag k="addr:city" v="Troy"/>
    <tag k="addr:housenumber" v="5080"/>
    <tag k="addr:street" v="East Hill"/>
    <tag k="addr:state" v="VT"/>
    <tag k="ref:vcgi:esiteid" v="313889"/>
  </node>
  <node id="-930" visible="true" lat="44.94970993" lon="-72.3495192">
    <tag k="addr:city" v="Troy"/>
    <tag k="addr:housenumber" v="444"/>
    <tag k="addr:street" v="Bowenville Road"/>
    <tag k="addr:state" v="VT"/>
    <tag k="ref:vcgi:esiteid" v="315900"/>
  </node>
  <node id="-931" visible="true" lat="44.94263518" lon="-72.41217366">
    <tag k="addr:city" v="Troy"/>
    <tag k="addr:housenumber" v="1596"/>
    <tag k="addr:street" v="Vermont Route 101"/>
    <tag k="addr:state" v="VT"/>
    <tag k="ref:vcgi:esiteid" v="315901"/>
  </node>
  <node id="-932" visible="true" lat="44.93059949" lon="-72.41068829">
    <tag k="addr:city" v="Troy"/>
    <tag k="addr:housenumber" v="2398"/>
    <tag k="addr:street" v="Vermont Route 101"/>
    <tag k="addr:state" v="VT"/>
    <tag k="ref:vcgi:esiteid" v="315902"/>
  </node>
  <node id="-933" visible="true" lat="44.94762687" lon="-72.39052524">
    <tag k="addr:city" v="Troy"/>
    <tag k="addr:housenumber" v="3263"/>
    <tag k="addr:street" v="River Road"/>
    <tag k="addr:state" v="VT"/>
    <tag k="ref:vcgi:esiteid" v="316889"/>
  </node>
  <node id="-935" visible="true" lat="44.86629729" lon="-72.40189291">
    <tag k="addr:city" v="Troy"/>
    <tag k="addr:housenumber" v="486"/>
    <tag k="addr:street" v="Fox Run"/>
    <tag k="addr:state" v="VT"/>
    <tag k="ref:vcgi:esiteid" v="328640"/>
  </node>
  <node id="-936" visible="true" lat="44.87263441" lon="-72.36462621">
    <tag k="addr:city" v="Troy"/>
    <tag k="addr:housenumber" v="932"/>
    <tag k="addr:street" v="Collins Mill Road"/>
    <tag k="addr:state" v="VT"/>
    <tag k="ref:vcgi:esiteid" v="328641"/>
  </node>
  <node id="-937" visible="true" lat="44.99787834" lon="-72.3775693">
    <tag k="addr:city" v="Troy"/>
    <tag k="addr:housenumber" v="102"/>
    <tag k="addr:street" v="Cross Road"/>
    <tag k="addr:state" v="VT"/>
    <tag k="ref:vcgi:esiteid" v="331008"/>
  </node>
  <node id="-939" visible="true" lat="44.91813658" lon="-72.35214132">
    <tag k="addr:city" v="Troy"/>
    <tag k="addr:housenumber" v="330"/>
    <tag k="addr:street" v="Routhier Road"/>
    <tag k="addr:state" v="VT"/>
    <tag k="ref:vcgi:esiteid" v="332682"/>
  </node>
  <node id="-940" visible="true" lat="44.9117597" lon="-72.39551324">
    <tag k="addr:city" v="Troy"/>
    <tag k="addr:housenumber" v="6013"/>
    <tag k="addr:street" v="River Road"/>
    <tag k="addr:state" v="VT"/>
    <tag k="ref:vcgi:esiteid" v="334972"/>
  </node>
  <node id="-942" visible="true" lat="44.9482186" lon="-72.34928142">
    <tag k="addr:city" v="Troy"/>
    <tag k="addr:housenumber" v="530"/>
    <tag k="addr:street" v="Bowenville Road"/>
    <tag k="addr:state" v="VT"/>
    <tag k="ref:vcgi:esiteid" v="335712"/>
  </node>
  <node id="-943" visible="true" lat="44.848921" lon="-72.39680125">
    <tag k="addr:city" v="Troy"/>
    <tag k="addr:housenumber" v="4698"/>
    <tag k="addr:street" v="Loop Road"/>
    <tag k="addr:state" v="VT"/>
    <tag k="ref:vcgi:esiteid" v="335713"/>
  </node>
  <node id="-946" visible="true" lat="44.87647054" lon="-72.37366976">
    <tag k="addr:city" v="Troy"/>
    <tag k="addr:housenumber" v="605"/>
    <tag k="addr:street" v="Collins Mill Road"/>
    <tag k="addr:state" v="VT"/>
    <tag k="ref:vcgi:esiteid" v="336530"/>
  </node>
  <node id="-947" visible="true" lat="44.9768847" lon="-72.37493497">
    <tag k="addr:city" v="Troy"/>
    <tag k="addr:housenumber" v="952"/>
    <tag k="addr:street" v="East Hill"/>
    <tag k="addr:state" v="VT"/>
    <tag k="ref:vcgi:esiteid" v="336761"/>
  </node>
  <node id="-949" visible="true" lat="44.97374906" lon="-72.36941801">
    <tag k="addr:city" v="Troy"/>
    <tag k="addr:housenumber" v="1245"/>
    <tag k="addr:street" v="East Hill"/>
    <tag k="addr:state" v="VT"/>
    <tag k="ref:vcgi:esiteid" v="337383"/>
  </node>
  <node id="-951" visible="true" lat="44.93469475" lon="-72.3809037">
    <tag k="addr:city" v="Troy"/>
    <tag k="addr:housenumber" v="3948"/>
    <tag k="addr:street" v="East Hill"/>
    <tag k="addr:state" v="VT"/>
    <tag k="ref:vcgi:esiteid" v="339314"/>
  </node>
  <node id="-953" visible="true" lat="44.88777761" lon="-72.38496393">
    <tag k="addr:city" v="Troy"/>
    <tag k="addr:housenumber" v="1458"/>
    <tag k="addr:street" v="Loop Road"/>
    <tag k="addr:state" v="VT"/>
    <tag k="ref:vcgi:esiteid" v="339920"/>
  </node>
  <node id="-955" visible="true" lat="44.87587535" lon="-72.3654575">
    <tag k="addr:city" v="Troy"/>
    <tag k="addr:housenumber" v="917"/>
    <tag k="addr:street" v="Collins Mill Road"/>
    <tag k="addr:state" v="VT"/>
    <tag k="ref:vcgi:esiteid" v="339922"/>
  </node>
  <node id="-957" visible="true" lat="44.99618628" lon="-72.40131761">
    <tag k="addr:city" v="Troy"/>
    <tag k="addr:housenumber" v="44"/>
    <tag k="addr:street" v="Hill Street"/>
    <tag k="addr:state" v="VT"/>
    <tag k="ref:vcgi:esiteid" v="340757"/>
  </node>
  <node id="-958" visible="true" lat="44.92639112" lon="-72.39363397">
    <tag k="addr:city" v="Troy"/>
    <tag k="addr:housenumber" v="5387"/>
    <tag k="addr:street" v="River Road"/>
    <tag k="addr:state" v="VT"/>
    <tag k="ref:vcgi:esiteid" v="345329"/>
  </node>
  <node id="-963" visible="true" lat="44.97570828" lon="-72.3744906">
    <tag k="addr:city" v="Troy"/>
    <tag k="addr:housenumber" v="954"/>
    <tag k="addr:street" v="East Hill"/>
    <tag k="addr:state" v="VT"/>
    <tag k="ref:vcgi:esiteid" v="446500"/>
  </node>
  <node id="-964" visible="true" lat="44.90774686" lon="-72.39809944">
    <tag k="addr:city" v="Troy"/>
    <tag k="addr:housenumber" v="6301"/>
    <tag k="addr:street" v="River Road"/>
    <tag k="addr:state" v="VT"/>
    <tag k="ref:vcgi:esiteid" v="446603"/>
  </node>
  <node id="-965" visible="true" lat="44.91469798" lon="-72.39673408">
    <tag k="addr:city" v="Troy"/>
    <tag k="addr:housenumber" v="5804"/>
    <tag k="addr:street" v="River Road"/>
    <tag k="addr:state" v="VT"/>
    <tag k="ref:vcgi:esiteid" v="447796"/>
  </node>
  <node id="-968" visible="true" lat="44.95192633" lon="-72.36437563">
    <tag k="addr:city" v="Troy"/>
    <tag k="addr:housenumber" v="2627"/>
    <tag k="addr:street" v="East Hill"/>
    <tag k="addr:state" v="VT"/>
    <tag k="ref:vcgi:esiteid" v="447975"/>
  </node>
  <node id="-969" visible="true" lat="44.98301035" lon="-72.38120428">
    <tag k="addr:city" v="Troy"/>
    <tag k="addr:housenumber" v="661"/>
    <tag k="addr:street" v="River Road"/>
    <tag k="addr:state" v="VT"/>
    <tag k="ref:vcgi:esiteid" v="448120"/>
  </node>
  <node id="-972" visible="true" lat="44.99532335" lon="-72.42317263">
    <tag k="addr:city" v="Troy"/>
    <tag k="addr:housenumber" v="825"/>
    <tag k="addr:street" v="North Jay Road"/>
    <tag k="addr:state" v="VT"/>
    <tag k="ref:vcgi:esiteid" v="449144"/>
  </node>
  <node id="-974" visible="true" lat="44.91066026" lon="-72.37584704">
    <tag k="addr:city" v="Troy"/>
    <tag k="addr:housenumber" v="5139"/>
    <tag k="addr:street" v="Vermont Route 100"/>
    <tag k="addr:state" v="VT"/>
    <tag k="ref:vcgi:esiteid" v="449146"/>
  </node>
  <node id="-975" visible="true" lat="44.90599809" lon="-72.3927511">
    <tag k="addr:city" v="Troy"/>
    <tag k="addr:housenumber" v="6075"/>
    <tag k="addr:street" v="Vermont Route 100"/>
    <tag k="addr:state" v="VT"/>
    <tag k="ref:vcgi:esiteid" v="449147"/>
  </node>
  <node id="-978" visible="true" lat="44.9847021" lon="-72.3813056">
    <tag k="addr:city" v="Troy"/>
    <tag k="addr:housenumber" v="533"/>
    <tag k="addr:street" v="River Road"/>
    <tag k="addr:state" v="VT"/>
    <tag k="ref:vcgi:esiteid" v="451405"/>
  </node>
  <node id="-979" visible="true" lat="44.98278756" lon="-72.38000521">
    <tag k="addr:city" v="Troy"/>
    <tag k="addr:housenumber" v="663"/>
    <tag k="addr:street" v="River Road"/>
    <tag k="addr:state" v="VT"/>
    <tag k="ref:vcgi:esiteid" v="451406"/>
  </node>
  <node id="-980" visible="true" lat="44.96601391" lon="-72.3682166">
    <tag k="addr:city" v="Troy"/>
    <tag k="addr:housenumber" v="1721"/>
    <tag k="addr:street" v="East Hill"/>
    <tag k="addr:state" v="VT"/>
    <tag k="ref:vcgi:esiteid" v="452850"/>
  </node>
  <node id="-981" visible="true" lat="44.85695043" lon="-72.38581559">
    <tag k="addr:city" v="Troy"/>
    <tag k="addr:housenumber" v="3903"/>
    <tag k="addr:street" v="Loop Road"/>
    <tag k="addr:state" v="VT"/>
    <tag k="ref:vcgi:esiteid" v="453246"/>
  </node>
  <node id="-982" visible="true" lat="44.99253673" lon="-72.39270356">
    <tag k="addr:city" v="Troy"/>
    <tag k="addr:housenumber" v="472"/>
    <tag k="addr:street" v="East Main Street"/>
    <tag k="addr:state" v="VT"/>
    <tag k="ref:vcgi:esiteid" v="454408"/>
  </node>
  <node id="-983" visible="true" lat="44.9673832" lon="-72.38952822">
    <tag k="addr:city" v="Troy"/>
    <tag k="addr:housenumber" v="123"/>
    <tag k="addr:street" v="Starrs Pit Road"/>
    <tag k="addr:state" v="VT"/>
    <tag k="ref:vcgi:esiteid" v="454629"/>
  </node>
  <node id="-984" visible="true" lat="44.91331842" lon="-72.39722893">
    <tag k="addr:city" v="Troy"/>
    <tag k="addr:housenumber" v="5920"/>
    <tag k="addr:street" v="River Road"/>
    <tag k="addr:state" v="VT"/>
    <tag k="ref:vcgi:esiteid" v="455064"/>
  </node>
  <node id="-985" visible="true" lat="44.86028941" lon="-72.37174088">
    <tag k="addr:city" v="Troy"/>
    <tag k="addr:housenumber" v="749"/>
    <tag k="addr:street" v="Sanville Road"/>
    <tag k="addr:state" v="VT"/>
    <tag k="ref:vcgi:esiteid" v="610358"/>
  </node>
  <node id="-986" visible="true" lat="44.86037346" lon="-72.3723801">
    <tag k="addr:city" v="Troy"/>
    <tag k="addr:housenumber" v="721"/>
    <tag k="addr:street" v="Sanville Road"/>
    <tag k="addr:state" v="VT"/>
    <tag k="ref:vcgi:esiteid" v="610359"/>
  </node>
  <node id="-987" visible="true" lat="44.85953371" lon="-72.37196685">
    <tag k="addr:city" v="Troy"/>
    <tag k="addr:housenumber" v="726"/>
    <tag k="addr:street" v="Sanville Road"/>
    <tag k="addr:state" v="VT"/>
    <tag k="ref:vcgi:esiteid" v="610360"/>
  </node>
  <node id="-988" visible="true" lat="44.85917965" lon="-72.37568071">
    <tag k="addr:city" v="Troy"/>
    <tag k="addr:housenumber" v="516"/>
    <tag k="addr:street" v="Sanville Road"/>
    <tag k="addr:state" v="VT"/>
    <tag k="ref:vcgi:esiteid" v="610361"/>
  </node>
  <node id="-990" visible="true" lat="44.90148553" lon="-72.39062147">
    <tag k="addr:city" v="Troy"/>
    <tag k="addr:housenumber" v="445"/>
    <tag k="addr:street" v="Loop Road"/>
    <tag k="addr:state" v="VT"/>
    <tag k="ref:vcgi:esiteid" v="611454"/>
  </node>
  <node id="-992" visible="true" lat="44.90889706" lon="-72.40106632">
    <tag k="addr:city" v="Troy"/>
    <tag k="addr:housenumber" v="265"/>
    <tag k="addr:street" v="Autumn Ridge"/>
    <tag k="addr:state" v="VT"/>
    <tag k="ref:vcgi:esiteid" v="617070"/>
  </node>
  <node id="-993" visible="true" lat="44.85401847" lon="-72.38397082">
    <tag k="addr:city" v="Troy"/>
    <tag k="addr:housenumber" v="3905"/>
    <tag k="addr:street" v="Loop Road"/>
    <tag k="addr:state" v="VT"/>
    <tag k="ref:vcgi:esiteid" v="617173"/>
  </node>
  <node id="-994" visible="true" lat="44.99392664" lon="-72.38330926">
    <tag k="addr:city" v="Troy"/>
    <tag k="addr:housenumber" v="133"/>
    <tag k="addr:street" v="Cemetery Road"/>
    <tag k="addr:state" v="VT"/>
    <tag k="ref:vcgi:esiteid" v="617245"/>
  </node>
  <node id="-995" visible="true" lat="44.96514712" lon="-72.41314391">
    <tag k="addr:city" v="Troy"/>
    <tag k="addr:housenumber" v="9"/>
    <tag k="addr:street" v="Veilleux Road"/>
    <tag k="addr:state" v="VT"/>
    <tag k="ref:vcgi:esiteid" v="617360"/>
  </node>
  <node id="-997" visible="true" lat="44.99102358" lon="-72.40797033">
    <tag k="addr:city" v="Troy"/>
    <tag k="addr:housenumber" v="268"/>
    <tag k="addr:street" v="Highland Avenue"/>
    <tag k="addr:state" v="VT"/>
    <tag k="ref:vcgi:esiteid" v="750699"/>
  </node>
  <node id="-1000" visible="true" lat="44.85478537" lon="-72.38954722">
    <tag k="addr:city" v="Troy"/>
    <tag k="addr:housenumber" v="4013"/>
    <tag k="addr:street" v="Loop Road"/>
    <tag k="addr:state" v="VT"/>
    <tag k="ref:vcgi:esiteid" v="752036"/>
  </node>
  <node id="-1001" visible="true" lat="44.96186508" lon="-72.41339372">
    <tag k="addr:city" v="Troy"/>
    <tag k="addr:housenumber" v="251"/>
    <tag k="addr:street" v="Vermont Route 101"/>
    <tag k="addr:state" v="VT"/>
    <tag k="ref:vcgi:esiteid" v="752761"/>
  </node>
  <node id="-1002" visible="true" lat="44.87363708" lon="-72.38009237">
    <tag k="addr:city" v="Troy"/>
    <tag k="addr:housenumber" v="203"/>
    <tag k="addr:street" v="Collins Mill Road"/>
    <tag k="addr:state" v="VT"/>
    <tag k="ref:vcgi:esiteid" v="752999"/>
  </node>
  <node id="-1003" visible="true" lat="44.90727372" lon="-72.40039837">
    <tag k="addr:city" v="Troy"/>
    <tag k="addr:housenumber" v="178"/>
    <tag k="addr:street" v="Autumn Ridge"/>
    <tag k="addr:state" v="VT"/>
    <tag k="ref:vcgi:esiteid" v="753383"/>
  </node>
  <node id="-1004" visible="true" lat="44.90922722" lon="-72.39966771">
    <tag k="addr:city" v="Troy"/>
    <tag k="addr:housenumber" v="329"/>
    <tag k="addr:street" v="Autumn Ridge"/>
    <tag k="addr:state" v="VT"/>
    <tag k="ref:vcgi:esiteid" v="753384"/>
  </node>
  <node id="-1005" visible="true" lat="44.96176508" lon="-72.40378141">
    <tag k="addr:city" v="Troy"/>
    <tag k="addr:housenumber" v="555"/>
    <tag k="addr:street" v="Veilleux Road"/>
    <tag k="addr:state" v="VT"/>
    <tag k="ref:vcgi:esiteid" v="757115"/>
  </node>
  <node id="-1006" visible="true" lat="44.95570382" lon="-72.39246221">
    <tag k="addr:city" v="Troy"/>
    <tag k="addr:housenumber" v="2715"/>
    <tag k="addr:street" v="River Road"/>
    <tag k="addr:state" v="VT"/>
    <tag k="ref:vcgi:esiteid" v="758100"/>
  </node>
  <node id="-1007" visible="true" lat="44.90844805" lon="-72.40045788">
    <tag k="addr:city" v="Troy"/>
    <tag k="addr:housenumber" v="282"/>
    <tag k="addr:street" v="Autumn Ridge"/>
    <tag k="addr:state" v="VT"/>
    <tag k="ref:vcgi:esiteid" v="758311"/>
  </node>
  <node id="-1008" visible="true" lat="44.90759052" lon="-72.4043189">
    <tag k="addr:city" v="Troy"/>
    <tag k="addr:housenumber" v="86"/>
    <tag k="addr:street" v="Village Overlook Drive"/>
    <tag k="addr:state" v="VT"/>
    <tag k="ref:vcgi:esiteid" v="758351"/>
  </node>
  <node id="-1009" visible="true" lat="44.86479216" lon="-72.4042375">
    <tag k="addr:city" v="Troy"/>
    <tag k="addr:housenumber" v="329"/>
    <tag k="addr:street" v="Fox Run"/>
    <tag k="addr:state" v="VT"/>
    <tag k="ref:vcgi:esiteid" v="760318"/>
  </node>
  <node id="-1010" visible="true" lat="44.90942236" lon="-72.38857948">
    <tag k="addr:city" v="Troy"/>
    <tag k="addr:housenumber" v="5818"/>
    <tag k="addr:street" v="Vermont Route 100"/>
    <tag k="addr:state" v="VT"/>
    <tag k="ref:vcgi:esiteid" v="760594"/>
  </node>
  <node id="-1011" visible="true" lat="44.96864919" lon="-72.41556916">
    <tag k="addr:city" v="Troy"/>
    <tag k="addr:housenumber" v="1150"/>
    <tag k="addr:street" v="Vermont Route 105 West"/>
    <tag k="addr:state" v="VT"/>
    <tag k="ref:vcgi:esiteid" v="760595"/>
  </node>
  <node id="-1012" visible="true" lat="44.90937942" lon="-72.39886189">
    <tag k="addr:city" v="Troy"/>
    <tag k="addr:housenumber" v="363"/>
    <tag k="addr:street" v="Autumn Ridge"/>
    <tag k="addr:state" v="VT"/>
    <tag k="ref:vcgi:esiteid" v="760596"/>
  </node>
  <node id="-1013" visible="true" lat="44.92371774" lon="-72.35397427">
    <tag k="addr:city" v="Troy"/>
    <tag k="addr:housenumber" v="710"/>
    <tag k="addr:street" v="Routhier Road"/>
    <tag k="addr:state" v="VT"/>
    <tag k="ref:vcgi:esiteid" v="760613"/>
  </node>
  <node id="-1014" visible="true" lat="44.96814515" lon="-72.41551237">
    <tag k="addr:city" v="Troy"/>
    <tag k="addr:housenumber" v="1244"/>
    <tag k="addr:street" v="Vermont Route 105 West"/>
    <tag k="addr:state" v="VT"/>
    <tag k="ref:vcgi:esiteid" v="761658"/>
  </node>
  <node id="-1015" visible="true" lat="44.98487468" lon="-72.37148332">
    <tag k="addr:city" v="Troy"/>
    <tag k="addr:housenumber" v="449"/>
    <tag k="addr:street" v="East Hill"/>
    <tag k="addr:state" v="VT"/>
    <tag k="ref:vcgi:esiteid" v="761710"/>
  </node>
  <node id="-1016" visible="true" lat="44.85158015" lon="-72.40168342">
    <tag k="addr:city" v="Troy"/>
    <tag k="addr:housenumber" v="5063"/>
    <tag k="addr:street" v="Loop Road"/>
    <tag k="addr:state" v="VT"/>
    <tag k="ref:vcgi:esiteid" v="762082"/>
  </node>
  <node id="-1017" visible="true" lat="44.85177065" lon="-72.40171657">
    <tag k="addr:city" v="Troy"/>
    <tag k="addr:housenumber" v="5065"/>
    <tag k="addr:street" v="Loop Road"/>
    <tag k="addr:state" v="VT"/>
    <tag k="ref:vcgi:esiteid" v="762083"/>
  </node>
  <node id="-1018" visible="true" lat="44.84388537" lon="-72.40469789">
    <tag k="addr:city" v="Troy"/>
    <tag k="addr:housenumber" v="132"/>
    <tag k="addr:street" v="Carter Road"/>
    <tag k="addr:state" v="VT"/>
    <tag k="ref:vcgi:esiteid" v="762086"/>
  </node>
  <node id="-1019" visible="true" lat="44.84703713" lon="-72.39843735">
    <tag k="addr:city" v="Troy"/>
    <tag k="addr:housenumber" v="121"/>
    <tag k="addr:street" v="Carter Road"/>
    <tag k="addr:state" v="VT"/>
    <tag k="ref:vcgi:esiteid" v="762087"/>
  </node>
  <node id="-1020" visible="true" lat="44.86584472" lon="-72.39009321">
    <tag k="addr:city" v="Troy"/>
    <tag k="addr:housenumber" v="3264"/>
    <tag k="addr:street" v="Loop Road"/>
    <tag k="addr:state" v="VT"/>
    <tag k="ref:vcgi:esiteid" v="762088"/>
  </node>
  <node id="-1021" visible="true" lat="44.91572186" lon="-72.37230696">
    <tag k="addr:city" v="Troy"/>
    <tag k="addr:housenumber" v="5317"/>
    <tag k="addr:street" v="East Hill"/>
    <tag k="addr:state" v="VT"/>
    <tag k="ref:vcgi:esiteid" v="762325"/>
  </node>
  <node id="-1022" visible="true" lat="44.97454732" lon="-72.38577723">
    <tag k="addr:city" v="Troy"/>
    <tag k="addr:housenumber" v="1295"/>
    <tag k="addr:street" v="River Road"/>
    <tag k="addr:state" v="VT"/>
    <tag k="ref:vcgi:esiteid" v="762777"/>
  </node>
  <node id="-1023" visible="true" lat="44.84951119" lon="-72.38231002">
    <tag k="addr:city" v="Troy"/>
    <tag k="addr:housenumber" v="441"/>
    <tag k="addr:street" v="Brittain Road"/>
    <tag k="addr:state" v="VT"/>
    <tag k="ref:vcgi:esiteid" v="763440"/>
  </node>
  <node id="-1024" visible="true" lat="44.90655849" lon="-72.40032969">
    <tag k="addr:city" v="Troy"/>
    <tag k="addr:housenumber" v="150"/>
    <tag k="addr:street" v="Autumn Ridge"/>
    <tag k="addr:state" v="VT"/>
    <tag k="ref:vcgi:esiteid" v="763685"/>
  </node>
  <node id="-1025" visible="true" lat="44.907901" lon="-72.40288567">
    <tag k="addr:city" v="Troy"/>
    <tag k="addr:housenumber" v="228"/>
    <tag k="addr:street" v="Village Overlook Drive"/>
    <tag k="addr:state" v="VT"/>
    <tag k="ref:vcgi:esiteid" v="764111"/>
  </node>
  <node id="-1026" visible="true" lat="44.84142767" lon="-72.39294135">
    <tag k="addr:city" v="Troy"/>
    <tag k="addr:housenumber" v="165"/>
    <tag k="addr:street" v="Robtoy Road"/>
    <tag k="addr:state" v="VT"/>
    <tag k="ref:vcgi:esiteid" v="764379"/>
  </node>
  <node id="-1027" visible="true" lat="44.93226681" lon="-72.38298507">
    <tag k="addr:city" v="Troy"/>
    <tag k="addr:housenumber" v="4168"/>
    <tag k="addr:street" v="East Hill"/>
    <tag k="addr:state" v="VT"/>
    <tag k="ref:vcgi:esiteid" v="1051121"/>
  </node>
</osm>
