<?xml version="1.0" encoding="UTF-8"?>
<osm version="0.6" generator="JOSM">
  <node id="-166" visible="true" lat="43.94004804" lon="-72.46554139">
    <!-- conflict: "704 Vermont Route 110, Tunbridge, VT" No match in OSM, but a different address exists <5m away: "704 Vt Route 110, Tunbridge, VT" -->
    <tag k="addr:city" v="Tunbridge"/>
    <tag k="addr:housenumber" v="704"/>
    <tag k="addr:street" v="Vermont Route 110"/>
    <tag k="addr:state" v="VT"/>
    <tag k="ref:vcgi:esiteid" v="262683"/>
  </node>
  <node id="-170" visible="true" lat="43.93907546" lon="-72.46797942">
    <!-- conflict: "693 Vermont Route 110, Tunbridge, VT" No match in OSM, but a different address exists <5m away: "693 Vt Route 110, Tunbridge, VT" -->
    <tag k="addr:city" v="Tunbridge"/>
    <tag k="addr:housenumber" v="693"/>
    <tag k="addr:street" v="Vermont Route 110"/>
    <tag k="addr:state" v="VT"/>
    <tag k="ref:vcgi:esiteid" v="262687"/>
  </node>
  <node id="-187" visible="true" lat="43.93281037" lon="-72.46745059">
    <!-- conflict: "651 Vermont Route 110, Tunbridge, VT" No match in OSM, but a different address exists <5m away: "651 Vt Route 110, Tunbridge, VT" -->
    <tag k="addr:city" v="Tunbridge"/>
    <tag k="addr:housenumber" v="651"/>
    <tag k="addr:street" v="Vermont Route 110"/>
    <tag k="addr:state" v="VT"/>
    <tag k="ref:vcgi:esiteid" v="262705"/>
  </node>
  <node id="-193" visible="true" lat="43.93249893" lon="-72.46649932">
    <!-- conflict: "649 Vermont Route 110, Tunbridge, VT" No match in OSM, but a different address exists <5m away: "649 Vt Route 110, Tunbridge, VT" -->
    <tag k="addr:city" v="Tunbridge"/>
    <tag k="addr:housenumber" v="649"/>
    <tag k="addr:street" v="Vermont Route 110"/>
    <tag k="addr:state" v="VT"/>
    <tag k="ref:vcgi:esiteid" v="262712"/>
  </node>
  <node id="-211" visible="true" lat="43.9302864" lon="-72.46607208">
    <!-- conflict: "634 Vermont Route 110, Tunbridge, VT" No match in OSM, but a different address exists <5m away: "634 Vt Route 110, Tunbridge, VT" -->
    <tag k="addr:city" v="Tunbridge"/>
    <tag k="addr:housenumber" v="634"/>
    <tag k="addr:street" v="Vermont Route 110"/>
    <tag k="addr:state" v="VT"/>
    <tag k="ref:vcgi:esiteid" v="262731"/>
  </node>
  <node id="-222" visible="true" lat="43.9281311" lon="-72.4656372">
    <!-- conflict: "616 Vermont Route 110, Tunbridge, VT" No match in OSM, but a different address exists <5m away: "616 Vt Route 110, Tunbridge, VT" -->
    <tag k="addr:city" v="Tunbridge"/>
    <tag k="addr:housenumber" v="616"/>
    <tag k="addr:street" v="Vermont Route 110"/>
    <tag k="addr:state" v="VT"/>
    <tag k="ref:vcgi:esiteid" v="262742"/>
  </node>
  <node id="-239" visible="true" lat="43.92456436" lon="-72.46598052">
    <!-- conflict: "594 Vermont Route 110, Tunbridge, VT" No match in OSM, but a different address exists <5m away: "594 Vt Route 110, Tunbridge, VT" -->
    <tag k="addr:city" v="Tunbridge"/>
    <tag k="addr:housenumber" v="594"/>
    <tag k="addr:street" v="Vermont Route 110"/>
    <tag k="addr:state" v="VT"/>
    <tag k="ref:vcgi:esiteid" v="262759"/>
  </node>
  <node id="-356" visible="true" lat="43.91173553" lon="-72.48237609">
    <!-- conflict: "469 Vermont Route 110, Tunbridge, VT" Fuzzy match to "469 Vermont Route 110, Tunbridge, " -->
    <tag k="addr:city" v="Tunbridge"/>
    <tag k="addr:housenumber" v="469"/>
    <tag k="addr:street" v="Vermont Route 110"/>
    <tag k="addr:state" v="VT"/>
    <tag k="ref:vcgi:esiteid" v="262877"/>
  </node>
  <node id="-479" visible="true" lat="43.89279232" lon="-72.48711847">
    <!-- conflict: "329 Vermont Route 110, Tunbridge, VT" No match in OSM, but a different address exists <5m away: "329 Vt Route 110, Tunbridge, VT" -->
    <tag k="addr:city" v="Tunbridge"/>
    <tag k="addr:housenumber" v="329"/>
    <tag k="addr:street" v="Vermont Route 110"/>
    <tag k="addr:state" v="VT"/>
    <tag k="ref:vcgi:esiteid" v="263001"/>
  </node>
  <node id="-484" visible="true" lat="43.89234924" lon="-72.48783874">
    <!-- conflict: "325 Vermont Route 110, Tunbridge, VT" No match in OSM, but a different address exists <5m away: "325 Vt Route 110, Tunbridge, VT" -->
    <tag k="addr:city" v="Tunbridge"/>
    <tag k="addr:housenumber" v="325"/>
    <tag k="addr:street" v="Vermont Route 110"/>
    <tag k="addr:state" v="VT"/>
    <tag k="ref:vcgi:esiteid" v="263006"/>
  </node>
  <node id="-492" visible="true" lat="43.89138794" lon="-72.49044799">
    <!-- conflict: "313 Vermont Route 110, Tunbridge, VT" No match in OSM, but a different address exists <5m away: "313 Vt Route 110, Tunbridge, VT" -->
    <tag k="addr:city" v="Tunbridge"/>
    <tag k="addr:housenumber" v="313"/>
    <tag k="addr:street" v="Vermont Route 110"/>
    <tag k="addr:state" v="VT"/>
    <tag k="ref:vcgi:esiteid" v="263014"/>
  </node>
  <node id="-493" visible="true" lat="43.89138412" lon="-72.49080657">
    <!-- conflict: "311 Vermont Route 110, Tunbridge, VT" No match in OSM, but a different address exists <5m away: "311 Vt Route 110, Tunbridge, VT" -->
    <tag k="addr:city" v="Tunbridge"/>
    <tag k="addr:housenumber" v="311"/>
    <tag k="addr:street" v="Vermont Route 110"/>
    <tag k="addr:state" v="VT"/>
    <tag k="ref:vcgi:esiteid" v="263015"/>
  </node>
  <node id="-495" visible="true" lat="43.89128112" lon="-72.48949432">
    <!-- conflict: "318 Vermont Route 110, Tunbridge, VT" No match in OSM, but a different address exists <5m away: "318 Vt Route 110, Tunbridge, VT" -->
    <tag k="addr:city" v="Tunbridge"/>
    <tag k="addr:housenumber" v="318"/>
    <tag k="addr:street" v="Vermont Route 110"/>
    <tag k="addr:state" v="VT"/>
    <tag k="ref:vcgi:esiteid" v="263017"/>
  </node>
  <node id="-502" visible="true" lat="43.89043963" lon="-72.49014848">
    <!-- conflict: "306 Vermont Route 110, Tunbridge, VT" No match in OSM, but a different address exists <5m away: "306 Vt Route 110, Tunbridge, VT" -->
    <tag k="addr:city" v="Tunbridge"/>
    <tag k="addr:housenumber" v="306"/>
    <tag k="addr:street" v="Vermont Route 110"/>
    <tag k="addr:state" v="VT"/>
    <tag k="ref:vcgi:esiteid" v="263025"/>
  </node>
  <node id="-506" visible="true" lat="43.88984374" lon="-72.49247004">
    <!-- conflict: "289 Vermont Route 110, Tunbridge, VT" No match in OSM, but a different address exists <5m away: "289 VT-110, Tunbridge, VT" -->
    <tag k="addr:city" v="Tunbridge"/>
    <tag k="addr:housenumber" v="289"/>
    <tag k="addr:street" v="Vermont Route 110"/>
    <tag k="addr:state" v="VT"/>
    <tag k="ref:vcgi:esiteid" v="263030"/>
  </node>
  <node id="-508" visible="true" lat="43.88948645" lon="-72.49212377">
    <!-- conflict: "290 Vermont Route 110, Tunbridge, VT" No match in OSM, but a different address exists <5m away: "288 Vt Route 110, Tunbridge, VT" -->
    <tag k="addr:city" v="Tunbridge"/>
    <tag k="addr:housenumber" v="290"/>
    <tag k="addr:street" v="Vermont Route 110"/>
    <tag k="addr:state" v="VT"/>
    <tag k="ref:vcgi:esiteid" v="263032"/>
  </node>
  <node id="-509" visible="true" lat="43.88952753" lon="-72.4926153">
    <!-- conflict: "287 Vermont Route 110, Tunbridge, VT" No match in OSM, but a different address exists <5m away: "287 VT Route 110, Tunbridge, VT" -->
    <tag k="addr:city" v="Tunbridge"/>
    <tag k="addr:housenumber" v="287"/>
    <tag k="addr:street" v="Vermont Route 110"/>
    <tag k="addr:state" v="VT"/>
    <tag k="ref:vcgi:esiteid" v="263034"/>
  </node>
  <node id="-510" visible="true" lat="43.88921661" lon="-72.49223176">
    <!-- conflict: "288 Vermont Route 110, Tunbridge, VT" No match in OSM, but a different address exists <5m away: "286 Vt Route 110, Tunbridge, VT" -->
    <tag k="addr:city" v="Tunbridge"/>
    <tag k="addr:housenumber" v="288"/>
    <tag k="addr:street" v="Vermont Route 110"/>
    <tag k="addr:state" v="VT"/>
    <tag k="ref:vcgi:esiteid" v="263035"/>
  </node>
  <node id="-511" visible="true" lat="43.88923539" lon="-72.49317439">
    <!-- conflict: "285 Vermont Route 110, Tunbridge, VT" No match in OSM, but a different address exists <5m away: "285 Vt Route 110, Tunbridge, VT" -->
    <tag k="addr:city" v="Tunbridge"/>
    <tag k="addr:housenumber" v="285"/>
    <tag k="addr:street" v="Vermont Route 110"/>
    <tag k="addr:state" v="VT"/>
    <tag k="ref:vcgi:esiteid" v="263037"/>
  </node>
  <node id="-518" visible="true" lat="43.88894685" lon="-72.49317731">
    <!-- conflict: "283 Vermont Route 110, Tunbridge, VT" No match in OSM, but a different address exists <5m away: "283 Vt Route 110, Tunbridge, VT" -->
    <tag k="addr:city" v="Tunbridge"/>
    <tag k="addr:housenumber" v="283"/>
    <tag k="addr:street" v="Vermont Route 110"/>
    <tag k="addr:state" v="VT"/>
    <tag k="ref:vcgi:esiteid" v="263044"/>
  </node>
  <node id="-519" visible="true" lat="43.88861083" lon="-72.49339294">
    <!-- conflict: "281 Vermont Route 110, Tunbridge, VT" No match in OSM, but a different address exists <5m away: "281 Vt Route 110, Tunbridge, VT" -->
    <tag k="addr:city" v="Tunbridge"/>
    <tag k="addr:housenumber" v="281"/>
    <tag k="addr:street" v="Vermont Route 110"/>
    <tag k="addr:state" v="VT"/>
    <tag k="ref:vcgi:esiteid" v="263045"/>
  </node>
  <node id="-520" visible="true" lat="43.88837945" lon="-72.49359585">
    <!-- conflict: "279 Vermont Route 110, Tunbridge, VT" No match in OSM, but a different address exists <5m away: "279 Vt Route 110, Tunbridge, VT" -->
    <tag k="addr:city" v="Tunbridge"/>
    <tag k="addr:housenumber" v="279"/>
    <tag k="addr:street" v="Vermont Route 110"/>
    <tag k="addr:state" v="VT"/>
    <tag k="ref:vcgi:esiteid" v="263046"/>
  </node>
  <node id="-522" visible="true" lat="43.8882222" lon="-72.49381049">
    <!-- conflict: "277 Vermont Route 110, Tunbridge, VT" No match in OSM, but a different address exists <5m away: "277 Vt Route 110, Tunbridge, VT" -->
    <tag k="addr:city" v="Tunbridge"/>
    <tag k="addr:housenumber" v="277"/>
    <tag k="addr:street" v="Vermont Route 110"/>
    <tag k="addr:state" v="VT"/>
    <tag k="ref:vcgi:esiteid" v="263048"/>
  </node>
  <node id="-523" visible="true" lat="43.88808059" lon="-72.49407959">
    <!-- conflict: "275 Vermont Route 110, Tunbridge, VT" No match in OSM, but a different address exists <5m away: "275 Vt Route 110, Tunbridge, VT" -->
    <tag k="addr:city" v="Tunbridge"/>
    <tag k="addr:housenumber" v="275"/>
    <tag k="addr:street" v="Vermont Route 110"/>
    <tag k="addr:state" v="VT"/>
    <tag k="ref:vcgi:esiteid" v="263049"/>
  </node>
  <node id="-524" visible="true" lat="43.88798484" lon="-72.49330173">
    <!-- conflict: "276 Vermont Route 110, Tunbridge, VT" No match in OSM, but a different address exists <5m away: "276 Vt Route 110, Tunbridge, VT" -->
    <tag k="addr:city" v="Tunbridge"/>
    <tag k="addr:housenumber" v="276"/>
    <tag k="addr:street" v="Vermont Route 110"/>
    <tag k="addr:state" v="VT"/>
    <tag k="ref:vcgi:esiteid" v="263050"/>
  </node>
  <node id="-526" visible="true" lat="43.88760376" lon="-72.49427032">
    <!-- conflict: "271 Vermont Route 110, Tunbridge, VT" No match in OSM, but a different address exists <5m away: "271 Vt Route 110, Tunbridge, VT" -->
    <tag k="addr:city" v="Tunbridge"/>
    <tag k="addr:housenumber" v="271"/>
    <tag k="addr:street" v="Vermont Route 110"/>
    <tag k="addr:state" v="VT"/>
    <tag k="ref:vcgi:esiteid" v="263052"/>
  </node>
  <node id="-532" visible="true" lat="43.88583094" lon="-72.4954851">
    <!-- conflict: "261 Vermont Route 110, Tunbridge, VT" No match in OSM, but a different address exists <5m away: "261 Vt Route 110, Tunbridge, VT" -->
    <tag k="addr:city" v="Tunbridge"/>
    <tag k="addr:housenumber" v="261"/>
    <tag k="addr:street" v="Vermont Route 110"/>
    <tag k="addr:state" v="VT"/>
    <tag k="ref:vcgi:esiteid" v="263059"/>
  </node>
  <node id="-533" visible="true" lat="43.88509368" lon="-72.49535369">
    <!-- conflict: "256 Vermont Route 110, Tunbridge, VT" No match in OSM, but a different address exists <5m away: "256 Vt Route 110, Tunbridge, VT" -->
    <tag k="addr:city" v="Tunbridge"/>
    <tag k="addr:housenumber" v="256"/>
    <tag k="addr:street" v="Vermont Route 110"/>
    <tag k="addr:state" v="VT"/>
    <tag k="ref:vcgi:esiteid" v="263060"/>
  </node>
  <node id="-539" visible="true" lat="43.88370895" lon="-72.49802398">
    <!-- conflict: "241 Vermont Route 110, Tunbridge, VT" No match in OSM, but a different address exists <5m away: "241 Vt Route 110, Tunbridge, VT" -->
    <tag k="addr:city" v="Tunbridge"/>
    <tag k="addr:housenumber" v="241"/>
    <tag k="addr:street" v="Vermont Route 110"/>
    <tag k="addr:state" v="VT"/>
    <tag k="ref:vcgi:esiteid" v="263066"/>
  </node>
  <node id="-550" visible="true" lat="43.88220628" lon="-72.49987394">
    <!-- conflict: "226 Vermont Route 110, Tunbridge, VT" No match in OSM, but a different address exists <5m away: "226 Vt Route 110, Tunbridge, VT" -->
    <tag k="addr:city" v="Tunbridge"/>
    <tag k="addr:housenumber" v="226"/>
    <tag k="addr:street" v="Vermont Route 110"/>
    <tag k="addr:state" v="VT"/>
    <tag k="ref:vcgi:esiteid" v="263077"/>
  </node>
  <node id="-559" visible="true" lat="43.88025975" lon="-72.50228352">
    <!-- conflict: "209 Vermont Route 110, Tunbridge, VT" No match in OSM, but a different address exists <5m away: "209 Vt Route 110, Tunbridge, VT" -->
    <tag k="addr:city" v="Tunbridge"/>
    <tag k="addr:housenumber" v="209"/>
    <tag k="addr:street" v="Vermont Route 110"/>
    <tag k="addr:state" v="VT"/>
    <tag k="ref:vcgi:esiteid" v="263086"/>
  </node>
  <node id="-601" visible="true" lat="43.87335557" lon="-72.4345966">
    <!-- conflict: "156 Kibling Hill Road, Tunbridge, VT" Fuzzy match to "156 Kibling Hill Road, Strafford, VT" -->
    <tag k="addr:city" v="Tunbridge"/>
    <tag k="addr:housenumber" v="156"/>
    <tag k="addr:street" v="Kibling Hill Road"/>
    <tag k="addr:state" v="VT"/>
    <tag k="ref:vcgi:esiteid" v="263128"/>
  </node>
  <node id="-651" visible="true" lat="43.86719223" lon="-72.49883667">
    <!-- conflict: "112 Vermont Route 110, Tunbridge, VT" No match in OSM, but a different address exists <5m away: "112 Vt Route 110, Tunbridge, VT" -->
    <tag k="addr:city" v="Tunbridge"/>
    <tag k="addr:housenumber" v="112"/>
    <tag k="addr:street" v="Vermont Route 110"/>
    <tag k="addr:state" v="VT"/>
    <tag k="ref:vcgi:esiteid" v="263182"/>
  </node>
  <node id="-666" visible="true" lat="43.86480189" lon="-72.49970444">
    <!-- conflict: "97 Vermont Route 110, Tunbridge, VT" No match in OSM, but a different address exists <5m away: "97 Vt Route 110, Tunbridge, VT" -->
    <tag k="addr:city" v="Tunbridge"/>
    <tag k="addr:housenumber" v="97"/>
    <tag k="addr:street" v="Vermont Route 110"/>
    <tag k="addr:state" v="VT"/>
    <tag k="ref:vcgi:esiteid" v="263199"/>
  </node>
  <node id="-674" visible="true" lat="43.86297356" lon="-72.50025243">
    <!-- conflict: "83 Vermont Route 110, Tunbridge, VT" No match in OSM, but a different address exists <5m away: "83 Vt Route 110, Tunbridge, VT" -->
    <tag k="addr:city" v="Tunbridge"/>
    <tag k="addr:housenumber" v="83"/>
    <tag k="addr:street" v="Vermont Route 110"/>
    <tag k="addr:state" v="VT"/>
    <tag k="ref:vcgi:esiteid" v="263208"/>
  </node>
  <node id="-681" visible="true" lat="43.86114706" lon="-72.50002751">
    <!-- conflict: "71 Vermont Route 110, Tunbridge, VT" No match in OSM, but a different address exists <5m away: "71 Vt Route 110, Tunbridge, VT" -->
    <tag k="addr:city" v="Tunbridge"/>
    <tag k="addr:housenumber" v="71"/>
    <tag k="addr:street" v="Vermont Route 110"/>
    <tag k="addr:state" v="VT"/>
    <tag k="ref:vcgi:esiteid" v="263215"/>
  </node>
  <node id="-685" visible="true" lat="43.85872514" lon="-72.50202483">
    <!-- conflict: "55 Vermont Route 110, Tunbridge, VT" No match in OSM, but a different address exists <5m away: "55 Vt Route 110, Tunbridge, VT" -->
    <tag k="addr:city" v="Tunbridge"/>
    <tag k="addr:housenumber" v="55"/>
    <tag k="addr:street" v="Vermont Route 110"/>
    <tag k="addr:state" v="VT"/>
    <tag k="ref:vcgi:esiteid" v="263219"/>
  </node>
  <node id="-686" visible="true" lat="43.8587306" lon="-72.50151802">
    <!-- conflict: "53 Vermont Route 110, Tunbridge, VT" No match in OSM, but a different address exists <5m away: "53 Vt Route 110, Tunbridge, VT" -->
    <tag k="addr:city" v="Tunbridge"/>
    <tag k="addr:housenumber" v="53"/>
    <tag k="addr:street" v="Vermont Route 110"/>
    <tag k="addr:state" v="VT"/>
    <tag k="ref:vcgi:esiteid" v="263220"/>
  </node>
  <node id="-687" visible="true" lat="43.85823134" lon="-72.50161476">
    <!-- conflict: "51 Vermont Route 110, Tunbridge, VT" No match in OSM, but a different address exists <5m away: "51 Vt Route 110, Tunbridge, VT" -->
    <tag k="addr:city" v="Tunbridge"/>
    <tag k="addr:housenumber" v="51"/>
    <tag k="addr:street" v="Vermont Route 110"/>
    <tag k="addr:state" v="VT"/>
    <tag k="ref:vcgi:esiteid" v="263221"/>
  </node>
  <node id="-688" visible="true" lat="43.8582344" lon="-72.50103759">
    <!-- conflict: "49 Vermont Route 110, Tunbridge, VT" No match in OSM, but a different address exists <5m away: "49 Vt Route 110, Tunbridge, VT" -->
    <tag k="addr:city" v="Tunbridge"/>
    <tag k="addr:housenumber" v="49"/>
    <tag k="addr:street" v="Vermont Route 110"/>
    <tag k="addr:state" v="VT"/>
    <tag k="ref:vcgi:esiteid" v="263222"/>
  </node>
  <node id="-693" visible="true" lat="43.85745239" lon="-72.50134277">
    <!-- conflict: "43 Vermont Route 110, Tunbridge, VT" No match in OSM, but a different address exists <5m away: "43 Vt Route 110, Tunbridge, VT" -->
    <tag k="addr:city" v="Tunbridge"/>
    <tag k="addr:housenumber" v="43"/>
    <tag k="addr:street" v="Vermont Route 110"/>
    <tag k="addr:state" v="VT"/>
    <tag k="ref:vcgi:esiteid" v="263228"/>
  </node>
  <node id="-695" visible="true" lat="43.85704244" lon="-72.50153748">
    <!-- conflict: "41 Vermont Route 110, Tunbridge, VT" No match in OSM, but a different address exists <5m away: "41 Vt Route 110, Tunbridge, VT" -->
    <tag k="addr:city" v="Tunbridge"/>
    <tag k="addr:housenumber" v="41"/>
    <tag k="addr:street" v="Vermont Route 110"/>
    <tag k="addr:state" v="VT"/>
    <tag k="ref:vcgi:esiteid" v="263230"/>
  </node>
  <node id="-697" visible="true" lat="43.8567276" lon="-72.50159454">
    <!-- conflict: "39 Vermont Route 110, Tunbridge, VT" No match in OSM, but a different address exists <5m away: "39 Vt Route 110, Tunbridge, VT" -->
    <tag k="addr:city" v="Tunbridge"/>
    <tag k="addr:housenumber" v="39"/>
    <tag k="addr:street" v="Vermont Route 110"/>
    <tag k="addr:state" v="VT"/>
    <tag k="ref:vcgi:esiteid" v="263232"/>
  </node>
  <node id="-718" visible="true" lat="43.85333699" lon="-72.50536931">
    <!-- conflict: "7 Vermont Route 110, Tunbridge, VT" No match in OSM, but a different address exists <5m away: "7 Vt Route 110, Tunbridge, VT" -->
    <tag k="addr:city" v="Tunbridge"/>
    <tag k="addr:housenumber" v="7"/>
    <tag k="addr:street" v="Vermont Route 110"/>
    <tag k="addr:state" v="VT"/>
    <tag k="ref:vcgi:esiteid" v="263253"/>
  </node>
  <node id="-770" visible="true" lat="43.86132487" lon="-72.44497257">
    <!-- conflict: "181 Round Robin Road, Tunbridge, VT" No match in OSM, but a different address exists <5m away: "108 Gilley Road, Tunbridge, VT" -->
    <tag k="addr:city" v="Tunbridge"/>
    <tag k="addr:housenumber" v="181"/>
    <tag k="addr:street" v="Round Robin Road"/>
    <tag k="addr:state" v="VT"/>
    <tag k="ref:vcgi:esiteid" v="263308"/>
  </node>
  <node id="-946" visible="true" lat="43.8888359" lon="-72.49265749">
    <!-- conflict: "282 Vermont Route 110, Tunbridge, VT" No match in OSM, but a different address exists <5m away: "284 Vt Route 110, Tunbridge, VT" -->
    <tag k="addr:city" v="Tunbridge"/>
    <tag k="addr:housenumber" v="282"/>
    <tag k="addr:street" v="Vermont Route 110"/>
    <tag k="addr:state" v="VT"/>
    <tag k="ref:vcgi:esiteid" v="763904"/>
  </node>
  <node id="-966" visible="true" lat="43.88961995" lon="-72.49474967">
    <!-- conflict: "144 Fairground Road, Tunbridge, VT" No match in OSM, but a different address exists <5m away: "16 Fairground Road, Tunbridge, VT" -->
    <tag k="addr:city" v="Tunbridge"/>
    <tag k="addr:housenumber" v="144"/>
    <tag k="addr:street" v="Fairground Road"/>
    <tag k="addr:state" v="VT"/>
    <tag k="ref:vcgi:esiteid" v="764127"/>
  </node>
  <node id="-978" visible="true" lat="43.8892836" lon="-72.49487199">
    <!-- conflict: "174 Fairground Road, Tunbridge, VT" No match in OSM, but a different address exists <5m away: "18 Fairground Road, Tunbridge, VT" -->
    <tag k="addr:city" v="Tunbridge"/>
    <tag k="addr:housenumber" v="174"/>
    <tag k="addr:street" v="Fairground Road"/>
    <tag k="addr:state" v="VT"/>
    <tag k="ref:vcgi:esiteid" v="764139"/>
  </node>
</osm>
