<?xml version="1.0" encoding="UTF-8"?>
<osm version="0.6" generator="JOSM" upload="false">
  <node id="-101" visible="true" lat="44.52364796" lon="-72.94350783">
    <tag k="addr:city" v="Underhill"/>
    <tag k="addr:housenumber" v="16"/>
    <tag k="addr:street" v="Park Street"/>
    <tag k="addr:state" v="VT"/>
    <tag k="ref:vcgi:esiteid" v="135881"/>
  </node>
  <node id="-102" visible="true" lat="44.5225436" lon="-72.94237543">
    <tag k="addr:city" v="Underhill"/>
    <tag k="addr:housenumber" v="26"/>
    <tag k="addr:street" v="Park Street"/>
    <tag k="addr:state" v="VT"/>
    <tag k="ref:vcgi:esiteid" v="135883"/>
  </node>
  <node id="-129" visible="true" lat="44.61251415" lon="-72.90436497">
    <tag k="addr:city" v="Underhill"/>
    <tag k="addr:housenumber" v="36"/>
    <tag k="addr:street" v="Downes Road"/>
    <tag k="addr:state" v="VT"/>
    <tag k="ref:vcgi:esiteid" v="263353"/>
  </node>
  <node id="-145" visible="true" lat="44.60259601" lon="-72.92846354">
    <tag k="addr:city" v="Underhill"/>
    <tag k="addr:housenumber" v="31"/>
    <tag k="addr:street" v="Wildberry Lane"/>
    <tag k="addr:state" v="VT"/>
    <tag k="ref:vcgi:esiteid" v="263369"/>
  </node>
  <node id="-164" visible="true" lat="44.59810379" lon="-72.91279742">
    <tag k="addr:city" v="Underhill"/>
    <tag k="addr:housenumber" v="21"/>
    <tag k="addr:street" v="Mullen Road"/>
    <tag k="addr:state" v="VT"/>
    <tag k="ref:vcgi:esiteid" v="263388"/>
  </node>
  <node id="-204" visible="true" lat="44.59309722" lon="-72.9372038">
    <tag k="addr:city" v="Underhill"/>
    <tag k="addr:housenumber" v="910"/>
    <tag k="addr:street" v="Vermont Route 15"/>
    <tag k="addr:state" v="VT"/>
    <tag k="ref:vcgi:esiteid" v="263429"/>
  </node>
  <node id="-241" visible="true" lat="44.58865296" lon="-72.86738751">
    <tag k="addr:city" v="Underhill"/>
    <tag k="addr:housenumber" v="665"/>
    <tag k="addr:street" v="Irish Settlement Road"/>
    <tag k="addr:state" v="VT"/>
    <tag k="ref:vcgi:esiteid" v="263466"/>
  </node>
  <node id="-256" visible="true" lat="44.58633041" lon="-72.94322204">
    <tag k="addr:city" v="Underhill"/>
    <tag k="addr:housenumber" v="853"/>
    <tag k="addr:street" v="Vermont Route 15"/>
    <tag k="addr:state" v="VT"/>
    <tag k="ref:vcgi:esiteid" v="263481"/>
  </node>
  <node id="-267" visible="true" lat="44.58508354" lon="-72.93926615">
    <tag k="addr:city" v="Underhill"/>
    <tag k="addr:housenumber" v="850"/>
    <tag k="addr:street" v="Vermont Route 15"/>
    <tag k="addr:state" v="VT"/>
    <tag k="ref:vcgi:esiteid" v="263492"/>
  </node>
  <node id="-278" visible="true" lat="44.58211265" lon="-72.94132592">
    <tag k="addr:city" v="Underhill"/>
    <tag k="addr:housenumber" v="829"/>
    <tag k="addr:street" v="Vermont Route 15"/>
    <tag k="addr:state" v="VT"/>
    <tag k="ref:vcgi:esiteid" v="263503"/>
  </node>
  <node id="-284" visible="true" lat="44.58169555" lon="-72.8815155">
    <tag k="addr:city" v="Underhill"/>
    <tag k="addr:housenumber" v="559"/>
    <tag k="addr:street" v="Irish Settlement Road"/>
    <tag k="addr:state" v="VT"/>
    <tag k="ref:vcgi:esiteid" v="263509"/>
  </node>
  <node id="-366" visible="true" lat="44.56871182" lon="-72.94218841">
    <tag k="addr:city" v="Underhill"/>
    <tag k="addr:housenumber" v="725"/>
    <tag k="addr:street" v="Vermont Route 15"/>
    <tag k="addr:state" v="VT"/>
    <tag k="ref:vcgi:esiteid" v="263594"/>
  </node>
  <node id="-376" visible="true" lat="44.56743776" lon="-72.94100527">
    <tag k="addr:city" v="Underhill"/>
    <tag k="addr:housenumber" v="722"/>
    <tag k="addr:street" v="Vermont Route 15"/>
    <tag k="addr:state" v="VT"/>
    <tag k="ref:vcgi:esiteid" v="263604"/>
  </node>
  <node id="-379" visible="true" lat="44.56687867" lon="-72.94293899">
    <tag k="addr:city" v="Underhill"/>
    <tag k="addr:housenumber" v="707"/>
    <tag k="addr:street" v="Vermont Route 15"/>
    <tag k="addr:state" v="VT"/>
    <tag k="ref:vcgi:esiteid" v="263607"/>
  </node>
  <node id="-410" visible="true" lat="44.56293157" lon="-72.94295474">
    <tag k="addr:city" v="Underhill"/>
    <tag k="addr:housenumber" v="683"/>
    <tag k="addr:street" v="Vermont Route 15"/>
    <tag k="addr:state" v="VT"/>
    <tag k="ref:vcgi:esiteid" v="263638"/>
  </node>
  <node id="-419" visible="true" lat="44.56225664" lon="-72.85633609">
    <tag k="addr:city" v="Underhill"/>
    <tag k="addr:housenumber" v="77"/>
    <tag k="addr:street" v="Corbett Road"/>
    <tag k="addr:state" v="VT"/>
    <tag k="ref:vcgi:esiteid" v="263647"/>
  </node>
  <node id="-423" visible="true" lat="44.5621589" lon="-72.85218662">
    <tag k="addr:city" v="Underhill"/>
    <tag k="addr:housenumber" v="13"/>
    <tag k="addr:street" v="Waughbrook Lane"/>
    <tag k="addr:state" v="VT"/>
    <tag k="ref:vcgi:esiteid" v="263651"/>
  </node>
  <node id="-441" visible="true" lat="44.56002394" lon="-72.94416669">
    <tag k="addr:city" v="Underhill"/>
    <tag k="addr:housenumber" v="661"/>
    <tag k="addr:street" v="Vermont Route 15"/>
    <tag k="addr:state" v="VT"/>
    <tag k="ref:vcgi:esiteid" v="263669"/>
  </node>
  <node id="-503" visible="true" lat="44.55477132" lon="-72.86266685">
    <tag k="addr:city" v="Underhill"/>
    <tag k="addr:housenumber" v="25"/>
    <tag k="addr:street" v="Sage Road"/>
    <tag k="addr:state" v="VT"/>
    <tag k="ref:vcgi:esiteid" v="263731"/>
  </node>
  <node id="-526" visible="true" lat="44.55188851" lon="-72.86083979">
    <tag k="addr:city" v="Underhill"/>
    <tag k="addr:housenumber" v="45"/>
    <tag k="addr:street" v="Ellsworth Meadow Lane"/>
    <tag k="addr:state" v="VT"/>
    <tag k="ref:vcgi:esiteid" v="263754"/>
  </node>
  <node id="-533" visible="true" lat="44.55120974" lon="-72.9704641">
    <tag k="addr:city" v="Underhill"/>
    <tag k="addr:housenumber" v="354"/>
    <tag k="addr:street" v="Cilley Hill Road"/>
    <tag k="addr:state" v="VT"/>
    <tag k="ref:vcgi:esiteid" v="263761"/>
  </node>
  <node id="-555" visible="true" lat="44.5480397" lon="-72.95407661">
    <tag k="addr:city" v="Underhill"/>
    <tag k="addr:housenumber" v="3"/>
    <tag k="addr:street" v="Woodland Drive"/>
    <tag k="addr:state" v="VT"/>
    <tag k="ref:vcgi:esiteid" v="263783"/>
  </node>
  <node id="-568" visible="true" lat="44.54647432" lon="-72.94835549">
    <tag k="addr:city" v="Underhill"/>
    <tag k="addr:housenumber" v="565"/>
    <tag k="addr:street" v="Vermont Route 15"/>
    <tag k="addr:state" v="VT"/>
    <tag k="ref:vcgi:esiteid" v="263796"/>
  </node>
  <node id="-629" visible="true" lat="44.53718744" lon="-72.94977545">
    <tag k="addr:city" v="Underhill"/>
    <tag k="addr:housenumber" v="493"/>
    <tag k="addr:street" v="Vermont Route 15"/>
    <tag k="addr:state" v="VT"/>
    <tag k="ref:vcgi:esiteid" v="263858"/>
  </node>
  <node id="-646" visible="true" lat="44.53480911" lon="-72.94561004">
    <tag k="addr:city" v="Underhill"/>
    <tag k="addr:housenumber" v="468"/>
    <tag k="addr:street" v="Vermont Route 15"/>
    <tag k="addr:state" v="VT"/>
    <tag k="ref:vcgi:esiteid" v="263875"/>
  </node>
  <node id="-675" visible="true" lat="44.53232574" lon="-72.94520568">
    <tag k="addr:city" v="Underhill"/>
    <tag k="addr:housenumber" v="451"/>
    <tag k="addr:street" v="Vermont Route 15"/>
    <tag k="addr:state" v="VT"/>
    <tag k="ref:vcgi:esiteid" v="263905"/>
  </node>
  <node id="-678" visible="true" lat="44.53222618" lon="-72.94593406">
    <tag k="addr:city" v="Underhill"/>
    <tag k="addr:housenumber" v="449"/>
    <tag k="addr:street" v="Vermont Route 15"/>
    <tag k="addr:state" v="VT"/>
    <tag k="ref:vcgi:esiteid" v="263908"/>
  </node>
  <node id="-708" visible="true" lat="44.53030776" lon="-72.94508361">
    <tag k="addr:city" v="Underhill"/>
    <tag k="addr:housenumber" v="437"/>
    <tag k="addr:street" v="Vermont Route 15"/>
    <tag k="addr:state" v="VT"/>
    <tag k="ref:vcgi:esiteid" v="263938"/>
  </node>
  <node id="-722" visible="true" lat="44.52944295" lon="-72.94509375">
    <tag k="addr:city" v="Underhill"/>
    <tag k="addr:housenumber" v="429"/>
    <tag k="addr:street" v="Vermont Route 15"/>
    <tag k="addr:state" v="VT"/>
    <tag k="ref:vcgi:esiteid" v="263952"/>
  </node>
  <node id="-724" visible="true" lat="44.52977251" lon="-72.86634065">
    <tag k="addr:city" v="Underhill"/>
    <tag k="addr:housenumber" v="59"/>
    <tag k="addr:street" v="Harvey Road"/>
    <tag k="addr:state" v="VT"/>
    <tag k="ref:vcgi:esiteid" v="263954"/>
  </node>
  <node id="-777" visible="true" lat="44.52695004" lon="-72.9454296">
    <tag k="addr:city" v="Underhill"/>
    <tag k="addr:housenumber" v="413"/>
    <tag k="addr:street" v="Vermont Route 15"/>
    <tag k="addr:state" v="VT"/>
    <tag k="ref:vcgi:esiteid" v="264008"/>
  </node>
  <node id="-785" visible="true" lat="44.52644503" lon="-72.94544215">
    <tag k="addr:city" v="Underhill"/>
    <tag k="addr:housenumber" v="409"/>
    <tag k="addr:street" v="Vermont Route 15"/>
    <tag k="addr:state" v="VT"/>
    <tag k="ref:vcgi:esiteid" v="264016"/>
  </node>
  <node id="-798" visible="true" lat="44.52545547" lon="-72.94438934">
    <tag k="addr:city" v="Underhill"/>
    <tag k="addr:housenumber" v="3"/>
    <tag k="addr:street" v="Park Street"/>
    <tag k="addr:state" v="VT"/>
    <tag k="ref:vcgi:esiteid" v="264030"/>
  </node>
  <node id="-808" visible="true" lat="44.52454546" lon="-72.94401117">
    <tag k="addr:city" v="Underhill"/>
    <tag k="addr:housenumber" v="9"/>
    <tag k="addr:street" v="Park Street"/>
    <tag k="addr:state" v="VT"/>
    <tag k="ref:vcgi:esiteid" v="264040"/>
  </node>
  <node id="-817" visible="true" lat="44.52394867" lon="-72.94386291">
    <tag k="addr:city" v="Underhill"/>
    <tag k="addr:housenumber" v="14"/>
    <tag k="addr:street" v="Park Street"/>
    <tag k="addr:state" v="VT"/>
    <tag k="ref:vcgi:esiteid" v="264049"/>
  </node>
  <node id="-857" visible="true" lat="44.52103591" lon="-72.90027707">
    <tag k="addr:city" v="Underhill"/>
    <tag k="addr:housenumber" v="73"/>
    <tag k="addr:street" v="Sand Hill Road"/>
    <tag k="addr:state" v="VT"/>
    <tag k="ref:vcgi:esiteid" v="264089"/>
  </node>
  <node id="-891" visible="true" lat="44.51789834" lon="-72.86474092">
    <tag k="addr:city" v="Underhill"/>
    <tag k="addr:housenumber" v="6"/>
    <tag k="addr:street" v="Edgmont Road"/>
    <tag k="addr:state" v="VT"/>
    <tag k="ref:vcgi:esiteid" v="264123"/>
  </node>
  <node id="-960" visible="true" lat="44.5105766" lon="-72.87760275">
    <tag k="addr:city" v="Underhill"/>
    <tag k="addr:housenumber" v="56"/>
    <tag k="addr:street" v="Mountain Road"/>
    <tag k="addr:state" v="VT"/>
    <tag k="ref:vcgi:esiteid" v="264194"/>
  </node>
  <node id="-969" visible="true" lat="44.50979768" lon="-72.90378261">
    <tag k="addr:city" v="Underhill"/>
    <tag k="addr:housenumber" v="265"/>
    <tag k="addr:street" v="River Road"/>
    <tag k="addr:state" v="VT"/>
    <tag k="ref:vcgi:esiteid" v="264203"/>
  </node>
  <node id="-1005" visible="true" lat="44.50765722" lon="-72.90165275">
    <tag k="addr:city" v="Underhill"/>
    <tag k="addr:housenumber" v="285"/>
    <tag k="addr:street" v="River Road"/>
    <tag k="addr:state" v="VT"/>
    <tag k="ref:vcgi:esiteid" v="264239"/>
  </node>
  <node id="-1015" visible="true" lat="44.50727895" lon="-72.85478986">
    <tag k="addr:city" v="Underhill"/>
    <tag k="addr:housenumber" v="133"/>
    <tag k="addr:street" v="Howard Road"/>
    <tag k="addr:state" v="VT"/>
    <tag k="ref:vcgi:esiteid" v="264249"/>
  </node>
  <node id="-1031" visible="true" lat="44.50666808" lon="-72.8618164">
    <tag k="addr:city" v="Underhill"/>
    <tag k="addr:housenumber" v="185"/>
    <tag k="addr:street" v="Stevensville Road"/>
    <tag k="addr:state" v="VT"/>
    <tag k="ref:vcgi:esiteid" v="264266"/>
  </node>
  <node id="-1034" visible="true" lat="44.50658279" lon="-72.84983542">
    <tag k="addr:city" v="Underhill"/>
    <tag k="addr:housenumber" v="400"/>
    <tag k="addr:street" v="Howard Road"/>
    <tag k="addr:state" v="VT"/>
    <tag k="ref:vcgi:esiteid" v="264269"/>
  </node>
  <node id="-1057" visible="true" lat="44.5050354" lon="-72.90616607">
    <tag k="addr:city" v="Underhill"/>
    <tag k="addr:housenumber" v="28"/>
    <tag k="addr:street" v="Range Road"/>
    <tag k="addr:state" v="VT"/>
    <tag k="ref:vcgi:esiteid" v="264292"/>
  </node>
  <node id="-1059" visible="true" lat="44.50519547" lon="-72.8717842">
    <tag k="addr:city" v="Underhill"/>
    <tag k="addr:housenumber" v="137"/>
    <tag k="addr:street" v="Stevensville Road"/>
    <tag k="addr:state" v="VT"/>
    <tag k="ref:vcgi:esiteid" v="264294"/>
  </node>
  <node id="-1069" visible="true" lat="44.50456901" lon="-72.88792421">
    <tag k="addr:city" v="Underhill"/>
    <tag k="addr:housenumber" v="190"/>
    <tag k="addr:street" v="Kusserow Road"/>
    <tag k="addr:state" v="VT"/>
    <tag k="ref:vcgi:esiteid" v="264304"/>
  </node>
  <node id="-1132" visible="true" lat="44.49902885" lon="-72.88954921">
    <tag k="addr:city" v="Underhill"/>
    <tag k="addr:housenumber" v="93"/>
    <tag k="addr:street" v="Beartown Road"/>
    <tag k="addr:state" v="VT"/>
    <tag k="ref:vcgi:esiteid" v="264367"/>
  </node>
  <node id="-1172" visible="true" lat="44.54143177" lon="-72.91972249">
    <tag k="addr:city" v="Underhill"/>
    <tag k="addr:housenumber" v="58"/>
    <tag k="addr:street" v="McClellan Farm Road"/>
    <tag k="addr:state" v="VT"/>
    <tag k="ref:vcgi:esiteid" v="264407"/>
  </node>
  <node id="-1182" visible="true" lat="44.50610578" lon="-72.86481758">
    <tag k="addr:city" v="Underhill"/>
    <tag k="addr:housenumber" v="12"/>
    <tag k="addr:street" v="Maple Leaf Road"/>
    <tag k="addr:state" v="VT"/>
    <tag k="ref:vcgi:esiteid" v="264418"/>
  </node>
  <node id="-1183" visible="true" lat="44.50634727" lon="-72.8651237">
    <tag k="addr:city" v="Underhill"/>
    <tag k="addr:housenumber" v="14"/>
    <tag k="addr:street" v="Maple Leaf Road"/>
    <tag k="addr:state" v="VT"/>
    <tag k="ref:vcgi:esiteid" v="264419"/>
  </node>
  <node id="-1190" visible="true" lat="44.61024949" lon="-72.90600614">
    <tag k="addr:city" v="Underhill"/>
    <tag k="addr:housenumber" v="34"/>
    <tag k="addr:street" v="Downes Road"/>
    <tag k="addr:state" v="VT"/>
    <tag k="ref:vcgi:esiteid" v="264426"/>
  </node>
  <node id="-1197" visible="true" lat="44.61205695" lon="-72.90029802">
    <tag k="addr:city" v="Underhill"/>
    <tag k="addr:housenumber" v="51"/>
    <tag k="addr:street" v="Downes Road"/>
    <tag k="addr:state" v="VT"/>
    <tag k="ref:vcgi:esiteid" v="264433"/>
  </node>
  <node id="-1198" visible="true" lat="44.6105836" lon="-72.89774673">
    <tag k="addr:city" v="Underhill"/>
    <tag k="addr:housenumber" v="57"/>
    <tag k="addr:street" v="Downes Road"/>
    <tag k="addr:state" v="VT"/>
    <tag k="ref:vcgi:esiteid" v="264434"/>
  </node>
  <node id="-1230" visible="true" lat="44.51595964" lon="-72.92018545">
    <tag k="addr:city" v="Underhill"/>
    <tag k="addr:housenumber" v="168"/>
    <tag k="addr:street" v="River Road"/>
    <tag k="addr:state" v="VT"/>
    <tag k="ref:vcgi:esiteid" v="328413"/>
  </node>
  <node id="-1237" visible="true" lat="44.52721564" lon="-72.89246642">
    <tag k="addr:city" v="Underhill"/>
    <tag k="addr:housenumber" v="133"/>
    <tag k="addr:street" v="Irish Settlement Road"/>
    <tag k="addr:state" v="VT"/>
    <tag k="ref:vcgi:esiteid" v="328420"/>
  </node>
  <node id="-1255" visible="true" lat="44.54383599" lon="-72.9489172">
    <tag k="addr:city" v="Underhill"/>
    <tag k="addr:housenumber" v="543"/>
    <tag k="addr:street" v="Vermont Route 15"/>
    <tag k="addr:state" v="VT"/>
    <tag k="ref:vcgi:esiteid" v="328438"/>
  </node>
  <node id="-1256" visible="true" lat="44.54269535" lon="-72.93880883">
    <tag k="addr:city" v="Underhill"/>
    <tag k="addr:housenumber" v="77"/>
    <tag k="addr:street" v="Poker Hill Road"/>
    <tag k="addr:state" v="VT"/>
    <tag k="ref:vcgi:esiteid" v="328605"/>
  </node>
  <node id="-1259" visible="true" lat="44.61357682" lon="-72.90309941">
    <tag k="addr:city" v="Underhill"/>
    <tag k="addr:housenumber" v="41"/>
    <tag k="addr:street" v="Downes Road"/>
    <tag k="addr:state" v="VT"/>
    <tag k="ref:vcgi:esiteid" v="328608"/>
  </node>
  <node id="-1263" visible="true" lat="44.52780541" lon="-72.87826944">
    <tag k="addr:city" v="Underhill"/>
    <tag k="addr:housenumber" v="207"/>
    <tag k="addr:street" v="Pleasant Valley Road"/>
    <tag k="addr:state" v="VT"/>
    <tag k="ref:vcgi:esiteid" v="329284"/>
  </node>
  <node id="-1276" visible="true" lat="44.556777" lon="-72.94355795">
    <tag k="addr:city" v="Underhill"/>
    <tag k="addr:housenumber" v="642"/>
    <tag k="addr:street" v="Vermont Route 15"/>
    <tag k="addr:state" v="VT"/>
    <tag k="ref:vcgi:esiteid" v="331039"/>
  </node>
  <node id="-1277" visible="true" lat="44.54427198" lon="-72.9497351">
    <tag k="addr:city" v="Underhill"/>
    <tag k="addr:housenumber" v="511"/>
    <tag k="addr:street" v="Cilley Hill Road"/>
    <tag k="addr:state" v="VT"/>
    <tag k="ref:vcgi:esiteid" v="331040"/>
  </node>
  <node id="-1282" visible="true" lat="44.52659512" lon="-72.84773512">
    <tag k="addr:city" v="Underhill"/>
    <tag k="addr:housenumber" v="239"/>
    <tag k="addr:street" v="Mountain Road"/>
    <tag k="addr:state" v="VT"/>
    <tag k="ref:vcgi:esiteid" v="331584"/>
  </node>
  <node id="-1283" visible="true" lat="44.53942924" lon="-72.88599033">
    <tag k="addr:city" v="Underhill"/>
    <tag k="addr:housenumber" v="232"/>
    <tag k="addr:street" v="Irish Settlement Road"/>
    <tag k="addr:state" v="VT"/>
    <tag k="ref:vcgi:esiteid" v="334830"/>
  </node>
  <node id="-1284" visible="true" lat="44.58804554" lon="-72.86905214">
    <tag k="addr:city" v="Underhill"/>
    <tag k="addr:housenumber" v="664"/>
    <tag k="addr:street" v="Irish Settlement Road"/>
    <tag k="addr:state" v="VT"/>
    <tag k="ref:vcgi:esiteid" v="334831"/>
  </node>
  <node id="-1285" visible="true" lat="44.50491561" lon="-72.90089358">
    <tag k="addr:city" v="Underhill"/>
    <tag k="addr:housenumber" v="17"/>
    <tag k="addr:street" v="Krug Road"/>
    <tag k="addr:state" v="VT"/>
    <tag k="ref:vcgi:esiteid" v="334832"/>
  </node>
  <node id="-1286" visible="true" lat="44.55012532" lon="-72.86548858">
    <tag k="addr:city" v="Underhill"/>
    <tag k="addr:housenumber" v="9"/>
    <tag k="addr:street" v="Macomber View"/>
    <tag k="addr:state" v="VT"/>
    <tag k="ref:vcgi:esiteid" v="334833"/>
  </node>
  <node id="-1287" visible="true" lat="44.55654278" lon="-72.86476589">
    <tag k="addr:city" v="Underhill"/>
    <tag k="addr:housenumber" v="3"/>
    <tag k="addr:street" v="Sage Road"/>
    <tag k="addr:state" v="VT"/>
    <tag k="ref:vcgi:esiteid" v="334834"/>
  </node>
  <node id="-1288" visible="true" lat="44.53439023" lon="-72.94317171">
    <tag k="addr:city" v="Underhill"/>
    <tag k="addr:housenumber" v="13"/>
    <tag k="addr:street" v="Poker Hill Road"/>
    <tag k="addr:state" v="VT"/>
    <tag k="ref:vcgi:esiteid" v="334835"/>
  </node>
  <node id="-1289" visible="true" lat="44.51590782" lon="-72.87293262">
    <tag k="addr:city" v="Underhill"/>
    <tag k="addr:housenumber" v="73"/>
    <tag k="addr:street" v="Mountain Road"/>
    <tag k="addr:state" v="VT"/>
    <tag k="ref:vcgi:esiteid" v="334836"/>
  </node>
  <node id="-1290" visible="true" lat="44.50617495" lon="-72.88904186">
    <tag k="addr:city" v="Underhill"/>
    <tag k="addr:housenumber" v="6"/>
    <tag k="addr:street" v="Acer Ridge"/>
    <tag k="addr:state" v="VT"/>
    <tag k="ref:vcgi:esiteid" v="334837"/>
  </node>
  <node id="-1291" visible="true" lat="44.52296273" lon="-72.89345319">
    <tag k="addr:city" v="Underhill"/>
    <tag k="addr:housenumber" v="104"/>
    <tag k="addr:street" v="Irish Settlement Road"/>
    <tag k="addr:state" v="VT"/>
    <tag k="ref:vcgi:esiteid" v="336323"/>
  </node>
  <node id="-1292" visible="true" lat="44.54168199" lon="-72.86916871">
    <tag k="addr:city" v="Underhill"/>
    <tag k="addr:housenumber" v="316"/>
    <tag k="addr:street" v="Pleasant Valley Road"/>
    <tag k="addr:state" v="VT"/>
    <tag k="ref:vcgi:esiteid" v="336324"/>
  </node>
  <node id="-1293" visible="true" lat="44.55929542" lon="-72.94595747">
    <tag k="addr:city" v="Underhill"/>
    <tag k="addr:housenumber" v="10"/>
    <tag k="addr:street" v="Russin Drive"/>
    <tag k="addr:state" v="VT"/>
    <tag k="ref:vcgi:esiteid" v="336325"/>
  </node>
  <node id="-1295" visible="true" lat="44.51305033" lon="-72.86090118">
    <tag k="addr:city" v="Underhill"/>
    <tag k="addr:housenumber" v="4"/>
    <tag k="addr:street" v="Montgomery Road"/>
    <tag k="addr:state" v="VT"/>
    <tag k="ref:vcgi:esiteid" v="336455"/>
  </node>
  <node id="-1296" visible="true" lat="44.5303839" lon="-72.87214358">
    <tag k="addr:city" v="Underhill"/>
    <tag k="addr:housenumber" v="29"/>
    <tag k="addr:street" v="Harvey Road"/>
    <tag k="addr:state" v="VT"/>
    <tag k="ref:vcgi:esiteid" v="337194"/>
  </node>
  <node id="-1297" visible="true" lat="44.53036465" lon="-72.87010739">
    <tag k="addr:city" v="Underhill"/>
    <tag k="addr:housenumber" v="39"/>
    <tag k="addr:street" v="Harvey Road"/>
    <tag k="addr:state" v="VT"/>
    <tag k="ref:vcgi:esiteid" v="337689"/>
  </node>
  <node id="-1304" visible="true" lat="44.57840617" lon="-72.92266889">
    <tag k="addr:city" v="Underhill"/>
    <tag k="addr:housenumber" v="355"/>
    <tag k="addr:street" v="Poker Hill Road"/>
    <tag k="addr:state" v="VT"/>
    <tag k="ref:vcgi:esiteid" v="339693"/>
  </node>
  <node id="-1308" visible="true" lat="44.52279453" lon="-72.94262264">
    <tag k="addr:city" v="Underhill"/>
    <tag k="addr:housenumber" v="24"/>
    <tag k="addr:street" v="Park Street"/>
    <tag k="addr:state" v="VT"/>
    <tag k="ref:vcgi:esiteid" v="341238"/>
  </node>
  <node id="-1309" visible="true" lat="44.52303936" lon="-72.94287163">
    <tag k="addr:city" v="Underhill"/>
    <tag k="addr:housenumber" v="22"/>
    <tag k="addr:street" v="Park Street"/>
    <tag k="addr:state" v="VT"/>
    <tag k="ref:vcgi:esiteid" v="341239"/>
  </node>
  <node id="-1310" visible="true" lat="44.52469262" lon="-72.94465631">
    <tag k="addr:city" v="Underhill"/>
    <tag k="addr:housenumber" v="6"/>
    <tag k="addr:street" v="Park Street"/>
    <tag k="addr:state" v="VT"/>
    <tag k="ref:vcgi:esiteid" v="341240"/>
  </node>
  <node id="-1312" visible="true" lat="44.59038193" lon="-72.93704052">
    <tag k="addr:city" v="Underhill"/>
    <tag k="addr:housenumber" v="11"/>
    <tag k="addr:street" v="Black Dog Lane"/>
    <tag k="addr:state" v="VT"/>
    <tag k="ref:vcgi:esiteid" v="341349"/>
  </node>
  <node id="-1313" visible="true" lat="44.59018338" lon="-72.93753573">
    <tag k="addr:city" v="Underhill"/>
    <tag k="addr:housenumber" v="12"/>
    <tag k="addr:street" v="Black Dog Lane"/>
    <tag k="addr:state" v="VT"/>
    <tag k="ref:vcgi:esiteid" v="341350"/>
  </node>
  <node id="-1315" visible="true" lat="44.50697877" lon="-72.88621359">
    <tag k="addr:city" v="Underhill"/>
    <tag k="addr:housenumber" v="51"/>
    <tag k="addr:street" v="Stevensville Road"/>
    <tag k="addr:state" v="VT"/>
    <tag k="ref:vcgi:esiteid" v="343483"/>
  </node>
  <node id="-1316" visible="true" lat="44.59062992" lon="-72.93812705">
    <tag k="addr:city" v="Underhill"/>
    <tag k="addr:housenumber" v="894"/>
    <tag k="addr:street" v="Vermont Route 15"/>
    <tag k="addr:state" v="VT"/>
    <tag k="ref:vcgi:esiteid" v="343491"/>
  </node>
  <node id="-1317" visible="true" lat="44.51458574" lon="-72.9019849">
    <tag k="addr:city" v="Underhill"/>
    <tag k="addr:housenumber" v="32"/>
    <tag k="addr:street" v="Sand Hill Road"/>
    <tag k="addr:state" v="VT"/>
    <tag k="ref:vcgi:esiteid" v="345256"/>
  </node>
  <node id="-1323" visible="true" lat="44.51174198" lon="-72.85971409">
    <tag k="addr:city" v="Underhill"/>
    <tag k="addr:housenumber" v="14"/>
    <tag k="addr:street" v="Wheeler Road"/>
    <tag k="addr:state" v="VT"/>
    <tag k="ref:vcgi:esiteid" v="345263"/>
  </node>
  <node id="-1326" visible="true" lat="44.52536111" lon="-72.86709958">
    <tag k="addr:city" v="Underhill"/>
    <tag k="addr:housenumber" v="300"/>
    <tag k="addr:street" v="Marvin Taylor Road"/>
    <tag k="addr:state" v="VT"/>
    <tag k="ref:vcgi:esiteid" v="446651"/>
  </node>
  <node id="-1327" visible="true" lat="44.57724596" lon="-72.88214779">
    <tag k="addr:city" v="Underhill"/>
    <tag k="addr:housenumber" v="2"/>
    <tag k="addr:street" v="Doon Road"/>
    <tag k="addr:state" v="VT"/>
    <tag k="ref:vcgi:esiteid" v="448694"/>
  </node>
  <node id="-1338" visible="true" lat="44.60323311" lon="-72.89667701">
    <tag k="addr:city" v="Underhill"/>
    <tag k="addr:housenumber" v="122"/>
    <tag k="addr:street" v="Downes Road"/>
    <tag k="addr:state" v="VT"/>
    <tag k="ref:vcgi:esiteid" v="452855"/>
  </node>
  <node id="-1343" visible="true" lat="44.52174898" lon="-72.94151654">
    <tag k="addr:city" v="Underhill"/>
    <tag k="addr:housenumber" v="34"/>
    <tag k="addr:street" v="Park Street"/>
    <tag k="addr:state" v="VT"/>
    <tag k="ref:vcgi:esiteid" v="455191"/>
  </node>
  <node id="-1344" visible="true" lat="44.52328575" lon="-72.94311076">
    <tag k="addr:city" v="Underhill"/>
    <tag k="addr:housenumber" v="20"/>
    <tag k="addr:street" v="Park Street"/>
    <tag k="addr:state" v="VT"/>
    <tag k="ref:vcgi:esiteid" v="455192"/>
  </node>
  <node id="-1345" visible="true" lat="44.52126502" lon="-72.9410536">
    <tag k="addr:city" v="Underhill"/>
    <tag k="addr:housenumber" v="38"/>
    <tag k="addr:street" v="Park Street"/>
    <tag k="addr:state" v="VT"/>
    <tag k="ref:vcgi:esiteid" v="455193"/>
  </node>
  <node id="-1350" visible="true" lat="44.52001245" lon="-72.93119015">
    <tag k="addr:city" v="Underhill"/>
    <tag k="addr:housenumber" v="100"/>
    <tag k="addr:street" v="River Road"/>
    <tag k="addr:state" v="VT"/>
    <tag k="ref:vcgi:esiteid" v="455725"/>
  </node>
  <node id="-1355" visible="true" lat="44.51369972" lon="-72.90113364">
    <tag k="addr:city" v="Underhill"/>
    <tag k="addr:housenumber" v="38"/>
    <tag k="addr:street" v="Sand Hill Road"/>
    <tag k="addr:state" v="VT"/>
    <tag k="ref:vcgi:esiteid" v="610554"/>
  </node>
  <node id="-1356" visible="true" lat="44.53847722" lon="-72.94025332">
    <tag k="addr:city" v="Underhill"/>
    <tag k="addr:housenumber" v="47"/>
    <tag k="addr:street" v="Poker Hill Road"/>
    <tag k="addr:state" v="VT"/>
    <tag k="ref:vcgi:esiteid" v="610911"/>
  </node>
  <node id="-1360" visible="true" lat="44.5164273" lon="-72.8880853">
    <tag k="addr:city" v="Underhill"/>
    <tag k="addr:housenumber" v="7"/>
    <tag k="addr:street" v="Shepherds Way"/>
    <tag k="addr:state" v="VT"/>
    <tag k="ref:vcgi:esiteid" v="611643"/>
  </node>
  <node id="-1361" visible="true" lat="44.51671754" lon="-72.88520691">
    <tag k="addr:city" v="Underhill"/>
    <tag k="addr:housenumber" v="12"/>
    <tag k="addr:street" v="Shepherds Way"/>
    <tag k="addr:state" v="VT"/>
    <tag k="ref:vcgi:esiteid" v="611644"/>
  </node>
  <node id="-1365" visible="true" lat="44.51607853" lon="-72.88578905">
    <tag k="addr:city" v="Underhill"/>
    <tag k="addr:housenumber" v="10"/>
    <tag k="addr:street" v="Shepherds Way"/>
    <tag k="addr:state" v="VT"/>
    <tag k="ref:vcgi:esiteid" v="617780"/>
  </node>
  <node id="-1366" visible="true" lat="44.51709587" lon="-72.88648964">
    <tag k="addr:city" v="Underhill"/>
    <tag k="addr:housenumber" v="11"/>
    <tag k="addr:street" v="Shepherds Way"/>
    <tag k="addr:state" v="VT"/>
    <tag k="ref:vcgi:esiteid" v="617781"/>
  </node>
  <node id="-1367" visible="true" lat="44.51615224" lon="-72.8867716">
    <tag k="addr:city" v="Underhill"/>
    <tag k="addr:housenumber" v="9"/>
    <tag k="addr:street" v="Shepherds Way"/>
    <tag k="addr:state" v="VT"/>
    <tag k="ref:vcgi:esiteid" v="617782"/>
  </node>
  <node id="-1369" visible="true" lat="44.5244667" lon="-72.91261407">
    <tag k="addr:city" v="Underhill"/>
    <tag k="addr:housenumber" v="67"/>
    <tag k="addr:street" v="Lower English Settlement Road"/>
    <tag k="addr:state" v="VT"/>
    <tag k="ref:vcgi:esiteid" v="620622"/>
  </node>
  <node id="-1370" visible="true" lat="44.52361357" lon="-72.91368219">
    <tag k="addr:city" v="Underhill"/>
    <tag k="addr:housenumber" v="57"/>
    <tag k="addr:street" v="Lower English Settlement Road"/>
    <tag k="addr:state" v="VT"/>
    <tag k="ref:vcgi:esiteid" v="620623"/>
  </node>
  <node id="-1371" visible="true" lat="44.58856001" lon="-72.93176855">
    <tag k="addr:city" v="Underhill"/>
    <tag k="addr:housenumber" v="73"/>
    <tag k="addr:street" v="Cloverdale Road"/>
    <tag k="addr:state" v="VT"/>
    <tag k="ref:vcgi:esiteid" v="620624"/>
  </node>
  <node id="-1375" visible="true" lat="44.60035305" lon="-72.92242015">
    <tag k="addr:city" v="Underhill"/>
    <tag k="addr:housenumber" v="15"/>
    <tag k="addr:street" v="Hidden View Road"/>
    <tag k="addr:state" v="VT"/>
    <tag k="ref:vcgi:esiteid" v="655907"/>
  </node>
  <node id="-1376" visible="true" lat="44.56530659" lon="-72.92765701">
    <tag k="addr:city" v="Underhill"/>
    <tag k="addr:housenumber" v="255"/>
    <tag k="addr:street" v="Poker Hill Road"/>
    <tag k="addr:state" v="VT"/>
    <tag k="ref:vcgi:esiteid" v="655909"/>
  </node>
  <node id="-1377" visible="true" lat="44.54870135" lon="-72.92934342">
    <tag k="addr:city" v="Underhill"/>
    <tag k="addr:housenumber" v="40"/>
    <tag k="addr:street" v="Upper English Settlement Road"/>
    <tag k="addr:state" v="VT"/>
    <tag k="ref:vcgi:esiteid" v="655910"/>
  </node>
  <node id="-1378" visible="true" lat="44.54176557" lon="-72.91780687">
    <tag k="addr:city" v="Underhill"/>
    <tag k="addr:housenumber" v="57"/>
    <tag k="addr:street" v="McClellan Farm Road"/>
    <tag k="addr:state" v="VT"/>
    <tag k="ref:vcgi:esiteid" v="655911"/>
  </node>
  <node id="-1379" visible="true" lat="44.57999714" lon="-72.94276058">
    <tag k="addr:city" v="Underhill"/>
    <tag k="addr:housenumber" v="8"/>
    <tag k="addr:street" v="Daudelin Road"/>
    <tag k="addr:state" v="VT"/>
    <tag k="ref:vcgi:esiteid" v="655912"/>
  </node>
  <node id="-1380" visible="true" lat="44.59987535" lon="-72.92664792">
    <tag k="addr:city" v="Underhill"/>
    <tag k="addr:housenumber" v="43"/>
    <tag k="addr:street" v="Wildberry Lane"/>
    <tag k="addr:state" v="VT"/>
    <tag k="ref:vcgi:esiteid" v="655913"/>
  </node>
  <node id="-1381" visible="true" lat="44.59964952" lon="-72.92734613">
    <tag k="addr:city" v="Underhill"/>
    <tag k="addr:housenumber" v="47"/>
    <tag k="addr:street" v="Wildberry Lane"/>
    <tag k="addr:state" v="VT"/>
    <tag k="ref:vcgi:esiteid" v="655914"/>
  </node>
  <node id="-1382" visible="true" lat="44.59016145" lon="-72.9330798">
    <tag k="addr:city" v="Underhill"/>
    <tag k="addr:housenumber" v="69"/>
    <tag k="addr:street" v="Cloverdale Road"/>
    <tag k="addr:state" v="VT"/>
    <tag k="ref:vcgi:esiteid" v="655915"/>
  </node>
  <node id="-1383" visible="true" lat="44.55913988" lon="-72.95277745">
    <tag k="addr:city" v="Underhill"/>
    <tag k="addr:housenumber" v="54"/>
    <tag k="addr:street" v="Kelley Road"/>
    <tag k="addr:state" v="VT"/>
    <tag k="ref:vcgi:esiteid" v="655916"/>
  </node>
  <node id="-1384" visible="true" lat="44.55060942" lon="-72.96914936">
    <tag k="addr:city" v="Underhill"/>
    <tag k="addr:housenumber" v="352"/>
    <tag k="addr:street" v="Cilley Hill Road"/>
    <tag k="addr:state" v="VT"/>
    <tag k="ref:vcgi:esiteid" v="655917"/>
  </node>
  <node id="-1385" visible="true" lat="44.52237306" lon="-72.91660266">
    <tag k="addr:city" v="Underhill"/>
    <tag k="addr:housenumber" v="41"/>
    <tag k="addr:street" v="Orchard Road"/>
    <tag k="addr:state" v="VT"/>
    <tag k="ref:vcgi:esiteid" v="655918"/>
  </node>
  <node id="-1386" visible="true" lat="44.51607875" lon="-72.91601668">
    <tag k="addr:city" v="Underhill"/>
    <tag k="addr:housenumber" v="187"/>
    <tag k="addr:street" v="River Road"/>
    <tag k="addr:state" v="VT"/>
    <tag k="ref:vcgi:esiteid" v="655919"/>
  </node>
  <node id="-1387" visible="true" lat="44.51477308" lon="-72.91440047">
    <tag k="addr:city" v="Underhill"/>
    <tag k="addr:housenumber" v="196"/>
    <tag k="addr:street" v="River Road"/>
    <tag k="addr:state" v="VT"/>
    <tag k="ref:vcgi:esiteid" v="655920"/>
  </node>
  <node id="-1388" visible="true" lat="44.51852654" lon="-72.91262407">
    <tag k="addr:city" v="Underhill"/>
    <tag k="addr:housenumber" v="24"/>
    <tag k="addr:street" v="Lower English Settlement Road"/>
    <tag k="addr:state" v="VT"/>
    <tag k="ref:vcgi:esiteid" v="655921"/>
  </node>
  <node id="-1389" visible="true" lat="44.51984802" lon="-72.91197443">
    <tag k="addr:city" v="Underhill"/>
    <tag k="addr:housenumber" v="34"/>
    <tag k="addr:street" v="Lower English Settlement Road"/>
    <tag k="addr:state" v="VT"/>
    <tag k="ref:vcgi:esiteid" v="655922"/>
  </node>
  <node id="-1390" visible="true" lat="44.56922991" lon="-72.92678893">
    <tag k="addr:city" v="Underhill"/>
    <tag k="addr:housenumber" v="281"/>
    <tag k="addr:street" v="Poker Hill Road"/>
    <tag k="addr:state" v="VT"/>
    <tag k="ref:vcgi:esiteid" v="655923"/>
  </node>
  <node id="-1391" visible="true" lat="44.58734951" lon="-72.87231456">
    <tag k="addr:city" v="Underhill"/>
    <tag k="addr:housenumber" v="648"/>
    <tag k="addr:street" v="Irish Settlement Road"/>
    <tag k="addr:state" v="VT"/>
    <tag k="ref:vcgi:esiteid" v="655962"/>
  </node>
  <node id="-1392" visible="true" lat="44.55549456" lon="-72.88207225">
    <tag k="addr:city" v="Underhill"/>
    <tag k="addr:housenumber" v="361"/>
    <tag k="addr:street" v="Irish Settlement Road"/>
    <tag k="addr:state" v="VT"/>
    <tag k="ref:vcgi:esiteid" v="655963"/>
  </node>
  <node id="-1393" visible="true" lat="44.54922622" lon="-72.88300104">
    <tag k="addr:city" v="Underhill"/>
    <tag k="addr:housenumber" v="312"/>
    <tag k="addr:street" v="Irish Settlement Road"/>
    <tag k="addr:state" v="VT"/>
    <tag k="ref:vcgi:esiteid" v="655964"/>
  </node>
  <node id="-1394" visible="true" lat="44.54960192" lon="-72.88481975">
    <tag k="addr:city" v="Underhill"/>
    <tag k="addr:housenumber" v="303"/>
    <tag k="addr:street" v="Irish Settlement Road"/>
    <tag k="addr:state" v="VT"/>
    <tag k="ref:vcgi:esiteid" v="655965"/>
  </node>
  <node id="-1395" visible="true" lat="44.50155786" lon="-72.87824081">
    <tag k="addr:city" v="Underhill"/>
    <tag k="addr:housenumber" v="180"/>
    <tag k="addr:street" v="Beartown Road"/>
    <tag k="addr:state" v="VT"/>
    <tag k="ref:vcgi:esiteid" v="655968"/>
  </node>
  <node id="-1396" visible="true" lat="44.5539963" lon="-72.86203599">
    <tag k="addr:city" v="Underhill"/>
    <tag k="addr:housenumber" v="29"/>
    <tag k="addr:street" v="Sage Road"/>
    <tag k="addr:state" v="VT"/>
    <tag k="ref:vcgi:esiteid" v="655969"/>
  </node>
  <node id="-1397" visible="true" lat="44.55885597" lon="-72.8599741">
    <tag k="addr:city" v="Underhill"/>
    <tag k="addr:housenumber" v="48"/>
    <tag k="addr:street" v="Corbett Road"/>
    <tag k="addr:state" v="VT"/>
    <tag k="ref:vcgi:esiteid" v="655970"/>
  </node>
  <node id="-1399" visible="true" lat="44.57873715" lon="-72.85942165">
    <tag k="addr:city" v="Underhill"/>
    <tag k="addr:housenumber" v="24"/>
    <tag k="addr:street" v="Westman Road"/>
    <tag k="addr:state" v="VT"/>
    <tag k="ref:vcgi:esiteid" v="656003"/>
  </node>
  <node id="-1400" visible="true" lat="44.58754926" lon="-72.87112862">
    <tag k="addr:city" v="Underhill"/>
    <tag k="addr:housenumber" v="650"/>
    <tag k="addr:street" v="Irish Settlement Road"/>
    <tag k="addr:state" v="VT"/>
    <tag k="ref:vcgi:esiteid" v="656056"/>
  </node>
  <node id="-1401" visible="true" lat="44.5743866" lon="-72.93775251">
    <tag k="addr:city" v="Underhill"/>
    <tag k="addr:housenumber" v="37"/>
    <tag k="addr:street" v="Warner Creek"/>
    <tag k="addr:state" v="VT"/>
    <tag k="ref:vcgi:esiteid" v="656057"/>
  </node>
  <node id="-1403" visible="true" lat="44.51269326" lon="-72.85732505">
    <tag k="addr:city" v="Underhill"/>
    <tag k="addr:housenumber" v="26"/>
    <tag k="addr:street" v="Wheeler Road"/>
    <tag k="addr:state" v="VT"/>
    <tag k="ref:vcgi:esiteid" v="656059"/>
  </node>
  <node id="-1404" visible="true" lat="44.61436272" lon="-72.90609108">
    <tag k="addr:city" v="Underhill"/>
    <tag k="addr:housenumber" v="25"/>
    <tag k="addr:street" v="Downes Road"/>
    <tag k="addr:state" v="VT"/>
    <tag k="ref:vcgi:esiteid" v="656252"/>
  </node>
  <node id="-1405" visible="true" lat="44.51188593" lon="-72.8658944">
    <tag k="addr:city" v="Underhill"/>
    <tag k="addr:housenumber" v="83"/>
    <tag k="addr:street" v="Maple Leaf Road"/>
    <tag k="addr:state" v="VT"/>
    <tag k="ref:vcgi:esiteid" v="656306"/>
  </node>
  <node id="-1406" visible="true" lat="44.55079685" lon="-72.97104049">
    <tag k="addr:city" v="Underhill"/>
    <tag k="addr:housenumber" v="351"/>
    <tag k="addr:street" v="Cilley Hill Road"/>
    <tag k="addr:state" v="VT"/>
    <tag k="ref:vcgi:esiteid" v="750785"/>
  </node>
  <node id="-1409" visible="true" lat="44.54100601" lon="-72.8862796">
    <tag k="addr:city" v="Underhill"/>
    <tag k="addr:housenumber" v="246"/>
    <tag k="addr:street" v="Irish Settlement Road"/>
    <tag k="addr:state" v="VT"/>
    <tag k="ref:vcgi:esiteid" v="751734"/>
  </node>
  <node id="-1410" visible="true" lat="44.52786671" lon="-72.90894096">
    <tag k="addr:city" v="Underhill"/>
    <tag k="addr:housenumber" v="97"/>
    <tag k="addr:street" v="Lower English Settlement Road"/>
    <tag k="addr:state" v="VT"/>
    <tag k="ref:vcgi:esiteid" v="751805"/>
  </node>
  <node id="-1411" visible="true" lat="44.52699396" lon="-72.90912874">
    <tag k="addr:city" v="Underhill"/>
    <tag k="addr:housenumber" v="90"/>
    <tag k="addr:street" v="Lower English Settlement Road"/>
    <tag k="addr:state" v="VT"/>
    <tag k="ref:vcgi:esiteid" v="751806"/>
  </node>
  <node id="-1418" visible="true" lat="44.55893717" lon="-72.94769021">
    <tag k="addr:city" v="Underhill"/>
    <tag k="addr:housenumber" v="24"/>
    <tag k="addr:street" v="Russin Drive"/>
    <tag k="addr:state" v="VT"/>
    <tag k="ref:vcgi:esiteid" v="753156"/>
  </node>
  <node id="-1419" visible="true" lat="44.52355454" lon="-72.88418412">
    <tag k="addr:city" v="Underhill"/>
    <tag k="addr:housenumber" v="48"/>
    <tag k="addr:street" v="New Road"/>
    <tag k="addr:state" v="VT"/>
    <tag k="ref:vcgi:esiteid" v="753157"/>
  </node>
  <node id="-1420" visible="true" lat="44.50562645" lon="-72.89315496">
    <tag k="addr:city" v="Underhill"/>
    <tag k="addr:housenumber" v="1"/>
    <tag k="addr:street" v="Acer Ridge"/>
    <tag k="addr:state" v="VT"/>
    <tag k="ref:vcgi:esiteid" v="753162"/>
  </node>
  <node id="-1421" visible="true" lat="44.5492773" lon="-72.93293458">
    <tag k="addr:city" v="Underhill"/>
    <tag k="addr:housenumber" v="138"/>
    <tag k="addr:street" v="Poker Hill Road"/>
    <tag k="addr:state" v="VT"/>
    <tag k="ref:vcgi:esiteid" v="753577"/>
  </node>
  <node id="-1422" visible="true" lat="44.55711497" lon="-72.87074139">
    <tag k="addr:city" v="Underhill"/>
    <tag k="addr:housenumber" v="421"/>
    <tag k="addr:street" v="Pleasant Valley Road"/>
    <tag k="addr:state" v="VT"/>
    <tag k="ref:vcgi:esiteid" v="754192"/>
  </node>
  <node id="-1423" visible="true" lat="44.58109429" lon="-72.91180173">
    <tag k="addr:city" v="Underhill"/>
    <tag k="addr:housenumber" v="48"/>
    <tag k="addr:street" v="Page Road"/>
    <tag k="addr:state" v="VT"/>
    <tag k="ref:vcgi:esiteid" v="754231"/>
  </node>
  <node id="-1424" visible="true" lat="44.53416044" lon="-72.86884108">
    <tag k="addr:city" v="Underhill"/>
    <tag k="addr:housenumber" v="293"/>
    <tag k="addr:street" v="Moose Run"/>
    <tag k="addr:state" v="VT"/>
    <tag k="ref:vcgi:esiteid" v="754232"/>
  </node>
  <node id="-1425" visible="true" lat="44.53808759" lon="-72.87040699">
    <tag k="addr:city" v="Underhill"/>
    <tag k="addr:housenumber" v="137"/>
    <tag k="addr:street" v="Moose Run"/>
    <tag k="addr:state" v="VT"/>
    <tag k="ref:vcgi:esiteid" v="754631"/>
  </node>
  <node id="-1426" visible="true" lat="44.53936613" lon="-72.86635938">
    <tag k="addr:city" v="Underhill"/>
    <tag k="addr:housenumber" v="14"/>
    <tag k="addr:street" v="Lap Run"/>
    <tag k="addr:state" v="VT"/>
    <tag k="ref:vcgi:esiteid" v="755094"/>
  </node>
  <node id="-1427" visible="true" lat="44.53993448" lon="-72.86514003">
    <tag k="addr:city" v="Underhill"/>
    <tag k="addr:housenumber" v="24"/>
    <tag k="addr:street" v="Lap Run"/>
    <tag k="addr:state" v="VT"/>
    <tag k="ref:vcgi:esiteid" v="755095"/>
  </node>
  <node id="-1428" visible="true" lat="44.54116824" lon="-72.864456">
    <tag k="addr:city" v="Underhill"/>
    <tag k="addr:housenumber" v="30"/>
    <tag k="addr:street" v="Lap Run"/>
    <tag k="addr:state" v="VT"/>
    <tag k="ref:vcgi:esiteid" v="755096"/>
  </node>
  <node id="-1429" visible="true" lat="44.52793817" lon="-72.93512417">
    <tag k="addr:city" v="Underhill"/>
    <tag k="addr:housenumber" v="35"/>
    <tag k="addr:street" v="Sugar Hill"/>
    <tag k="addr:state" v="VT"/>
    <tag k="ref:vcgi:esiteid" v="755557"/>
  </node>
  <node id="-1431" visible="true" lat="44.49768332" lon="-72.90696887">
    <tag k="addr:city" v="Underhill"/>
    <tag k="addr:housenumber" v="11"/>
    <tag k="addr:street" v="Poor Farm Road"/>
    <tag k="addr:state" v="VT"/>
    <tag k="ref:vcgi:esiteid" v="755599"/>
  </node>
  <node id="-1432" visible="true" lat="44.49065878" lon="-72.90621716">
    <tag k="addr:city" v="Underhill"/>
    <tag k="addr:housenumber" v="555"/>
    <tag k="addr:street" v="Poor Farm Road"/>
    <tag k="addr:state" v="VT"/>
    <tag k="ref:vcgi:esiteid" v="755600"/>
  </node>
  <node id="-1433" visible="true" lat="44.48611485" lon="-72.87028293">
    <tag k="addr:city" v="Underhill"/>
    <tag k="addr:housenumber" v="1070"/>
    <tag k="addr:street" v="Feigel Hill Road"/>
    <tag k="addr:state" v="VT"/>
    <tag k="ref:vcgi:esiteid" v="755638"/>
  </node>
  <node id="-1434" visible="true" lat="44.52520654" lon="-72.88020924">
    <tag k="addr:city" v="Underhill"/>
    <tag k="addr:housenumber" v="183"/>
    <tag k="addr:street" v="Pleasant Valley Road"/>
    <tag k="addr:state" v="VT"/>
    <tag k="ref:vcgi:esiteid" v="755766"/>
  </node>
  <node id="-1435" visible="true" lat="44.51319528" lon="-72.8582174">
    <tag k="addr:city" v="Underhill"/>
    <tag k="addr:housenumber" v="23"/>
    <tag k="addr:street" v="Wheeler Road"/>
    <tag k="addr:state" v="VT"/>
    <tag k="ref:vcgi:esiteid" v="755767"/>
  </node>
  <node id="-1436" visible="true" lat="44.57841243" lon="-72.85894661">
    <tag k="addr:city" v="Underhill"/>
    <tag k="addr:housenumber" v="26"/>
    <tag k="addr:street" v="Westman Road"/>
    <tag k="addr:state" v="VT"/>
    <tag k="ref:vcgi:esiteid" v="755768"/>
  </node>
  <node id="-1438" visible="true" lat="44.55083652" lon="-72.88240987">
    <tag k="addr:city" v="Underhill"/>
    <tag k="addr:housenumber" v="319"/>
    <tag k="addr:street" v="Irish Settlement Road"/>
    <tag k="addr:state" v="VT"/>
    <tag k="ref:vcgi:esiteid" v="755889"/>
  </node>
  <node id="-1439" visible="true" lat="44.55101601" lon="-72.88087163">
    <tag k="addr:city" v="Underhill"/>
    <tag k="addr:housenumber" v="330"/>
    <tag k="addr:street" v="Irish Settlement Road"/>
    <tag k="addr:state" v="VT"/>
    <tag k="ref:vcgi:esiteid" v="755890"/>
  </node>
  <node id="-1440" visible="true" lat="44.55182811" lon="-72.88046735">
    <tag k="addr:city" v="Underhill"/>
    <tag k="addr:housenumber" v="334"/>
    <tag k="addr:street" v="Irish Settlement Road"/>
    <tag k="addr:state" v="VT"/>
    <tag k="ref:vcgi:esiteid" v="755891"/>
  </node>
  <node id="-1441" visible="true" lat="44.55246808" lon="-72.8817133">
    <tag k="addr:city" v="Underhill"/>
    <tag k="addr:housenumber" v="339"/>
    <tag k="addr:street" v="Irish Settlement Road"/>
    <tag k="addr:state" v="VT"/>
    <tag k="ref:vcgi:esiteid" v="755892"/>
  </node>
  <node id="-1442" visible="true" lat="44.54097443" lon="-72.93789434">
    <tag k="addr:city" v="Underhill"/>
    <tag k="addr:housenumber" v="68"/>
    <tag k="addr:street" v="Poker Hill Road"/>
    <tag k="addr:state" v="VT"/>
    <tag k="ref:vcgi:esiteid" v="755938"/>
  </node>
  <node id="-1443" visible="true" lat="44.54047917" lon="-72.93789063">
    <tag k="addr:city" v="Underhill"/>
    <tag k="addr:housenumber" v="70"/>
    <tag k="addr:street" v="Poker Hill Road"/>
    <tag k="addr:state" v="VT"/>
    <tag k="ref:vcgi:esiteid" v="755939"/>
  </node>
  <node id="-1444" visible="true" lat="44.528471" lon="-72.94551444">
    <tag k="addr:city" v="Underhill"/>
    <tag k="addr:housenumber" v="421A"/>
    <tag k="addr:street" v="Vermont Route 15"/>
    <tag k="addr:state" v="VT"/>
    <tag k="ref:vcgi:esiteid" v="755940"/>
  </node>
  <node id="-1445" visible="true" lat="44.53075173" lon="-72.94804105">
    <tag k="addr:city" v="Underhill"/>
    <tag k="addr:housenumber" v="5"/>
    <tag k="addr:street" v="Vermont Farmhouse Road"/>
    <tag k="addr:state" v="VT"/>
    <tag k="ref:vcgi:esiteid" v="755941"/>
  </node>
  <node id="-1446" visible="true" lat="44.52401868" lon="-72.90081985">
    <tag k="addr:city" v="Underhill"/>
    <tag k="addr:housenumber" v="77"/>
    <tag k="addr:street" v="Sand Hill Road"/>
    <tag k="addr:state" v="VT"/>
    <tag k="ref:vcgi:esiteid" v="756210"/>
  </node>
  <node id="-1447" visible="true" lat="44.56577633" lon="-72.88371932">
    <tag k="addr:city" v="Underhill"/>
    <tag k="addr:housenumber" v="445"/>
    <tag k="addr:street" v="Irish Settlement Road"/>
    <tag k="addr:state" v="VT"/>
    <tag k="ref:vcgi:esiteid" v="756780"/>
  </node>
  <node id="-1448" visible="true" lat="44.61085095" lon="-72.90478673">
    <tag k="addr:city" v="Underhill"/>
    <tag k="addr:housenumber" v="32"/>
    <tag k="addr:street" v="Downes Road"/>
    <tag k="addr:state" v="VT"/>
    <tag k="ref:vcgi:esiteid" v="756809"/>
  </node>
  <node id="-1450" visible="true" lat="44.58626944" lon="-72.92850972">
    <tag k="addr:city" v="Underhill"/>
    <tag k="addr:housenumber" v="75"/>
    <tag k="addr:street" v="North Underhill Station Road"/>
    <tag k="addr:state" v="VT"/>
    <tag k="ref:vcgi:esiteid" v="758252"/>
  </node>
  <node id="-1451" visible="true" lat="44.52270338" lon="-72.87930493">
    <tag k="addr:city" v="Underhill"/>
    <tag k="addr:housenumber" v="168"/>
    <tag k="addr:street" v="Pleasant Valley Road"/>
    <tag k="addr:state" v="VT"/>
    <tag k="ref:vcgi:esiteid" v="758607"/>
  </node>
  <node id="-1452" visible="true" lat="44.5233502" lon="-72.87812092">
    <tag k="addr:city" v="Underhill"/>
    <tag k="addr:housenumber" v="170"/>
    <tag k="addr:street" v="Pleasant Valley Road"/>
    <tag k="addr:state" v="VT"/>
    <tag k="ref:vcgi:esiteid" v="758608"/>
  </node>
  <node id="-1453" visible="true" lat="44.52440652" lon="-72.87766843">
    <tag k="addr:city" v="Underhill"/>
    <tag k="addr:housenumber" v="184"/>
    <tag k="addr:street" v="Pleasant Valley Road"/>
    <tag k="addr:state" v="VT"/>
    <tag k="ref:vcgi:esiteid" v="758609"/>
  </node>
  <node id="-1454" visible="true" lat="44.56772132" lon="-72.86765467">
    <tag k="addr:city" v="Underhill"/>
    <tag k="addr:housenumber" v="17"/>
    <tag k="addr:street" v="Paul Cook Road"/>
    <tag k="addr:state" v="VT"/>
    <tag k="ref:vcgi:esiteid" v="759937"/>
  </node>
  <node id="-1455" visible="true" lat="44.49971069" lon="-72.88584418">
    <tag k="addr:city" v="Underhill"/>
    <tag k="addr:housenumber" v="116"/>
    <tag k="addr:street" v="Beartown Road"/>
    <tag k="addr:state" v="VT"/>
    <tag k="ref:vcgi:esiteid" v="759938"/>
  </node>
  <node id="-1456" visible="true" lat="44.51534033" lon="-72.92943721">
    <tag k="addr:city" v="Underhill"/>
    <tag k="addr:housenumber" v="124"/>
    <tag k="addr:street" v="River Road"/>
    <tag k="addr:state" v="VT"/>
    <tag k="ref:vcgi:esiteid" v="759939"/>
  </node>
  <node id="-1457" visible="true" lat="44.53667287" lon="-72.94081499">
    <tag k="addr:city" v="Underhill"/>
    <tag k="addr:housenumber" v="34"/>
    <tag k="addr:street" v="Poker Hill Road"/>
    <tag k="addr:state" v="VT"/>
    <tag k="ref:vcgi:esiteid" v="759940"/>
  </node>
  <node id="-1458" visible="true" lat="44.5990427" lon="-72.92458347">
    <tag k="addr:city" v="Underhill"/>
    <tag k="addr:housenumber" v="27"/>
    <tag k="addr:street" v="Hidden View Road"/>
    <tag k="addr:state" v="VT"/>
    <tag k="ref:vcgi:esiteid" v="759941"/>
  </node>
  <node id="-1459" visible="true" lat="44.54152239" lon="-72.9411323">
    <tag k="addr:city" v="Underhill"/>
    <tag k="addr:housenumber" v="17"/>
    <tag k="addr:street" v="Bridle Trail"/>
    <tag k="addr:state" v="VT"/>
    <tag k="ref:vcgi:esiteid" v="759942"/>
  </node>
  <node id="-1461" visible="true" lat="44.54391147" lon="-72.90882118">
    <tag k="addr:city" v="Underhill"/>
    <tag k="addr:housenumber" v="165"/>
    <tag k="addr:street" v="Upper English Settlement Road"/>
    <tag k="addr:state" v="VT"/>
    <tag k="ref:vcgi:esiteid" v="761980"/>
  </node>
  <node id="-1462" visible="true" lat="44.51787061" lon="-72.91006349">
    <tag k="addr:city" v="Underhill"/>
    <tag k="addr:housenumber" v="19"/>
    <tag k="addr:street" v="Piney Grove Lane"/>
    <tag k="addr:state" v="VT"/>
    <tag k="ref:vcgi:esiteid" v="762541"/>
  </node>
  <node id="-1463" visible="true" lat="44.51792385" lon="-72.908971">
    <tag k="addr:city" v="Underhill"/>
    <tag k="addr:housenumber" v="20"/>
    <tag k="addr:street" v="Piney Grove Lane"/>
    <tag k="addr:state" v="VT"/>
    <tag k="ref:vcgi:esiteid" v="762542"/>
  </node>
  <node id="-1464" visible="true" lat="44.51675322" lon="-72.90922489">
    <tag k="addr:city" v="Underhill"/>
    <tag k="addr:housenumber" v="16"/>
    <tag k="addr:street" v="Piney Grove Lane"/>
    <tag k="addr:state" v="VT"/>
    <tag k="ref:vcgi:esiteid" v="762543"/>
  </node>
  <node id="-1465" visible="true" lat="44.5053114" lon="-72.90289689">
    <tag k="addr:city" v="Underhill"/>
    <tag k="addr:housenumber" v="16"/>
    <tag k="addr:street" v="Krug Road"/>
    <tag k="addr:state" v="VT"/>
    <tag k="ref:vcgi:esiteid" v="762997"/>
  </node>
  <node id="-1466" visible="true" lat="44.58853295" lon="-72.93305517">
    <tag k="addr:city" v="Underhill"/>
    <tag k="addr:housenumber" v="77"/>
    <tag k="addr:street" v="Cloverdale Road"/>
    <tag k="addr:state" v="VT"/>
    <tag k="ref:vcgi:esiteid" v="763305"/>
  </node>
  <node id="-1467" visible="true" lat="44.52534459" lon="-72.86573789">
    <tag k="addr:city" v="Underhill"/>
    <tag k="addr:housenumber" v="371"/>
    <tag k="addr:street" v="Marvin Taylor Road"/>
    <tag k="addr:state" v="VT"/>
    <tag k="ref:vcgi:esiteid" v="763665"/>
  </node>
  <node id="-1468" visible="true" lat="44.52515989" lon="-72.8654172">
    <tag k="addr:city" v="Underhill"/>
    <tag k="addr:housenumber" v="381"/>
    <tag k="addr:street" v="Marvin Taylor Road"/>
    <tag k="addr:state" v="VT"/>
    <tag k="ref:vcgi:esiteid" v="763666"/>
  </node>
  <node id="-1469" visible="true" lat="44.52560495" lon="-72.86711349">
    <tag k="addr:city" v="Underhill"/>
    <tag k="addr:housenumber" v="298"/>
    <tag k="addr:street" v="Marvin Taylor Road"/>
    <tag k="addr:state" v="VT"/>
    <tag k="ref:vcgi:esiteid" v="763667"/>
  </node>
  <node id="-1470" visible="true" lat="44.5251718" lon="-72.86705086">
    <tag k="addr:city" v="Underhill"/>
    <tag k="addr:housenumber" v="302"/>
    <tag k="addr:street" v="Marvin Taylor Road"/>
    <tag k="addr:state" v="VT"/>
    <tag k="ref:vcgi:esiteid" v="763668"/>
  </node>
  <node id="-1471" visible="true" lat="44.52646063" lon="-72.86610368">
    <tag k="addr:city" v="Underhill"/>
    <tag k="addr:housenumber" v="319"/>
    <tag k="addr:street" v="Marvin Taylor Road"/>
    <tag k="addr:state" v="VT"/>
    <tag k="ref:vcgi:esiteid" v="763670"/>
  </node>
  <node id="-1472" visible="true" lat="44.52841095" lon="-72.86826284">
    <tag k="addr:city" v="Underhill"/>
    <tag k="addr:housenumber" v="88"/>
    <tag k="addr:street" v="Marvin Taylor Road"/>
    <tag k="addr:state" v="VT"/>
    <tag k="ref:vcgi:esiteid" v="763671"/>
  </node>
  <node id="-1473" visible="true" lat="44.52837561" lon="-72.86888174">
    <tag k="addr:city" v="Underhill"/>
    <tag k="addr:housenumber" v="90"/>
    <tag k="addr:street" v="Marvin Taylor Road"/>
    <tag k="addr:state" v="VT"/>
    <tag k="ref:vcgi:esiteid" v="763672"/>
  </node>
  <node id="-1474" visible="true" lat="44.5295771" lon="-72.87062943">
    <tag k="addr:city" v="Underhill"/>
    <tag k="addr:housenumber" v="42"/>
    <tag k="addr:street" v="Harvey Road"/>
    <tag k="addr:state" v="VT"/>
    <tag k="ref:vcgi:esiteid" v="763734"/>
  </node>
  <node id="-1476" visible="true" lat="44.60936244" lon="-72.89458159">
    <tag k="addr:city" v="Underhill"/>
    <tag k="addr:housenumber" v="75"/>
    <tag k="addr:street" v="Downes Road"/>
    <tag k="addr:state" v="VT"/>
    <tag k="ref:vcgi:esiteid" v="765575"/>
  </node>
  <node id="-1477" visible="true" lat="44.60794599" lon="-72.90201155">
    <tag k="addr:city" v="Underhill"/>
    <tag k="addr:housenumber" v="80"/>
    <tag k="addr:street" v="Downes Road"/>
    <tag k="addr:state" v="VT"/>
    <tag k="ref:vcgi:esiteid" v="765576"/>
  </node>
  <node id="-1480" visible="true" lat="44.5939652" lon="-72.91250352">
    <tag k="addr:city" v="Underhill"/>
    <tag k="addr:housenumber" v="4"/>
    <tag k="addr:street" v="Tatro Road"/>
    <tag k="addr:state" v="VT"/>
    <tag k="ref:vcgi:esiteid" v="765741"/>
  </node>
  <node id="-1482" visible="true" lat="44.50510413" lon="-72.89200555">
    <tag k="addr:city" v="Underhill"/>
    <tag k="addr:housenumber" v="4"/>
    <tag k="addr:street" v="Acer Ridge"/>
    <tag k="addr:state" v="VT"/>
    <tag k="ref:vcgi:esiteid" v="765987"/>
  </node>
  <node id="-1483" visible="true" lat="44.50020202" lon="-72.88770679">
    <tag k="addr:city" v="Underhill"/>
    <tag k="addr:housenumber" v="99"/>
    <tag k="addr:street" v="Beartown Road"/>
    <tag k="addr:state" v="VT"/>
    <tag k="ref:vcgi:esiteid" v="765988"/>
  </node>
  <node id="-1484" visible="true" lat="44.50077216" lon="-72.89758196">
    <tag k="addr:city" v="Underhill"/>
    <tag k="addr:housenumber" v="61"/>
    <tag k="addr:street" v="Krug Road"/>
    <tag k="addr:state" v="VT"/>
    <tag k="ref:vcgi:esiteid" v="765989"/>
  </node>
  <node id="-1485" visible="true" lat="44.50025486" lon="-72.85647071">
    <tag k="addr:city" v="Underhill"/>
    <tag k="addr:housenumber" v="206"/>
    <tag k="addr:street" v="Stevensville Road"/>
    <tag k="addr:state" v="VT"/>
    <tag k="ref:vcgi:esiteid" v="765990"/>
  </node>
  <node id="-1486" visible="true" lat="44.50345208" lon="-72.85976358">
    <tag k="addr:city" v="Underhill"/>
    <tag k="addr:housenumber" v="202"/>
    <tag k="addr:street" v="Stevensville Road"/>
    <tag k="addr:state" v="VT"/>
    <tag k="ref:vcgi:esiteid" v="765991"/>
  </node>
  <node id="-1487" visible="true" lat="44.5041782" lon="-72.87669514">
    <tag k="addr:city" v="Underhill"/>
    <tag k="addr:housenumber" v="114"/>
    <tag k="addr:street" v="Stevensville Road"/>
    <tag k="addr:state" v="VT"/>
    <tag k="ref:vcgi:esiteid" v="765992"/>
  </node>
  <node id="-1489" visible="true" lat="44.51135677" lon="-72.86829626">
    <tag k="addr:city" v="Underhill"/>
    <tag k="addr:housenumber" v="97"/>
    <tag k="addr:street" v="Maple Leaf Road"/>
    <tag k="addr:state" v="VT"/>
    <tag k="ref:vcgi:esiteid" v="765994"/>
  </node>
  <node id="-1490" visible="true" lat="44.50183548" lon="-72.88985515">
    <tag k="addr:city" v="Underhill"/>
    <tag k="addr:housenumber" v="69"/>
    <tag k="addr:street" v="Beartown Road"/>
    <tag k="addr:state" v="VT"/>
    <tag k="ref:vcgi:esiteid" v="765995"/>
  </node>
  <node id="-1491" visible="true" lat="44.50840707" lon="-72.89198219">
    <tag k="addr:city" v="Underhill"/>
    <tag k="addr:housenumber" v="22"/>
    <tag k="addr:street" v="Stevensville Road"/>
    <tag k="addr:state" v="VT"/>
    <tag k="ref:vcgi:esiteid" v="765996"/>
  </node>
  <node id="-1492" visible="true" lat="44.50268182" lon="-72.9022234">
    <tag k="addr:city" v="Underhill"/>
    <tag k="addr:housenumber" v="34"/>
    <tag k="addr:street" v="Krug Road"/>
    <tag k="addr:state" v="VT"/>
    <tag k="ref:vcgi:esiteid" v="765997"/>
  </node>
  <node id="-1493" visible="true" lat="44.52626232" lon="-72.93965898">
    <tag k="addr:city" v="Underhill"/>
    <tag k="addr:housenumber" v="4"/>
    <tag k="addr:street" v="Mins Lane"/>
    <tag k="addr:state" v="VT"/>
    <tag k="ref:vcgi:esiteid" v="765998"/>
  </node>
  <node id="-1494" visible="true" lat="44.52718228" lon="-72.93916811">
    <tag k="addr:city" v="Underhill"/>
    <tag k="addr:housenumber" v="8"/>
    <tag k="addr:street" v="Mins Lane"/>
    <tag k="addr:state" v="VT"/>
    <tag k="ref:vcgi:esiteid" v="765999"/>
  </node>
  <node id="-1495" visible="true" lat="44.52608702" lon="-72.94198846">
    <tag k="addr:city" v="Underhill"/>
    <tag k="addr:housenumber" v="22"/>
    <tag k="addr:street" v="Harvest Run"/>
    <tag k="addr:state" v="VT"/>
    <tag k="ref:vcgi:esiteid" v="766000"/>
  </node>
  <node id="-1496" visible="true" lat="44.52761155" lon="-72.94336054">
    <tag k="addr:city" v="Underhill"/>
    <tag k="addr:housenumber" v="422"/>
    <tag k="addr:street" v="Vermont Route 15"/>
    <tag k="addr:state" v="VT"/>
    <tag k="ref:vcgi:esiteid" v="766002"/>
  </node>
  <node id="-1497" visible="true" lat="44.53261384" lon="-72.90784015">
    <tag k="addr:city" v="Underhill"/>
    <tag k="addr:housenumber" v="250"/>
    <tag k="addr:street" v="Upper English Settlement Road"/>
    <tag k="addr:state" v="VT"/>
    <tag k="ref:vcgi:esiteid" v="766003"/>
  </node>
  <node id="-1498" visible="true" lat="44.55912772" lon="-72.95979068">
    <tag k="addr:city" v="Underhill"/>
    <tag k="addr:housenumber" v="40"/>
    <tag k="addr:street" v="Sam Ward Road"/>
    <tag k="addr:state" v="VT"/>
    <tag k="ref:vcgi:esiteid" v="766004"/>
  </node>
  <node id="-1499" visible="true" lat="44.54244978" lon="-72.90705092">
    <tag k="addr:city" v="Underhill"/>
    <tag k="addr:housenumber" v="187"/>
    <tag k="addr:street" v="Upper English Settlement Road"/>
    <tag k="addr:state" v="VT"/>
    <tag k="ref:vcgi:esiteid" v="766005"/>
  </node>
  <node id="-1500" visible="true" lat="44.54890322" lon="-72.87646706">
    <tag k="addr:city" v="Underhill"/>
    <tag k="addr:housenumber" v="49"/>
    <tag k="addr:street" v="Fuller Road"/>
    <tag k="addr:state" v="VT"/>
    <tag k="ref:vcgi:esiteid" v="766006"/>
  </node>
  <node id="-1501" visible="true" lat="44.54610545" lon="-72.87862659">
    <tag k="addr:city" v="Underhill"/>
    <tag k="addr:housenumber" v="59"/>
    <tag k="addr:street" v="Fuller Road"/>
    <tag k="addr:state" v="VT"/>
    <tag k="ref:vcgi:esiteid" v="766007"/>
  </node>
  <node id="-1502" visible="true" lat="44.54798809" lon="-72.86879172">
    <tag k="addr:city" v="Underhill"/>
    <tag k="addr:housenumber" v="363"/>
    <tag k="addr:street" v="Pleasant Valley Road"/>
    <tag k="addr:state" v="VT"/>
    <tag k="ref:vcgi:esiteid" v="766040"/>
  </node>
  <node id="-1503" visible="true" lat="44.53809553" lon="-72.95361562">
    <tag k="addr:city" v="Underhill"/>
    <tag k="addr:housenumber" v="487"/>
    <tag k="addr:street" v="Vermont Route 15"/>
    <tag k="addr:state" v="VT"/>
    <tag k="ref:vcgi:esiteid" v="766041"/>
  </node>
  <node id="-1504" visible="true" lat="44.53197154" lon="-72.94529461">
    <tag k="addr:city" v="Underhill"/>
    <tag k="addr:housenumber" v="447A"/>
    <tag k="addr:street" v="Vermont Route 15"/>
    <tag k="addr:state" v="VT"/>
    <tag k="ref:vcgi:esiteid" v="766042"/>
  </node>
  <node id="-1505" visible="true" lat="44.52960856" lon="-72.86100756">
    <tag k="addr:city" v="Underhill"/>
    <tag k="addr:housenumber" v="85"/>
    <tag k="addr:street" v="Harvey Road"/>
    <tag k="addr:state" v="VT"/>
    <tag k="ref:vcgi:esiteid" v="766043"/>
  </node>
  <node id="-1506" visible="true" lat="44.52464443" lon="-72.87768122">
    <tag k="addr:city" v="Underhill"/>
    <tag k="addr:housenumber" v="186"/>
    <tag k="addr:street" v="Pleasant Valley Road"/>
    <tag k="addr:state" v="VT"/>
    <tag k="ref:vcgi:esiteid" v="766044"/>
  </node>
  <node id="-1508" visible="true" lat="44.51851957" lon="-72.915739">
    <tag k="addr:city" v="Underhill"/>
    <tag k="addr:housenumber" v="13"/>
    <tag k="addr:street" v="Romar Drive"/>
    <tag k="addr:state" v="VT"/>
    <tag k="ref:vcgi:esiteid" v="766046"/>
  </node>
  <node id="-1509" visible="true" lat="44.51298841" lon="-72.90638667">
    <tag k="addr:city" v="Underhill"/>
    <tag k="addr:housenumber" v="7"/>
    <tag k="addr:street" v="Sand Hill Road"/>
    <tag k="addr:state" v="VT"/>
    <tag k="ref:vcgi:esiteid" v="766047"/>
  </node>
  <node id="-1510" visible="true" lat="44.51433501" lon="-72.90819554">
    <tag k="addr:city" v="Underhill"/>
    <tag k="addr:housenumber" v="223"/>
    <tag k="addr:street" v="River Road"/>
    <tag k="addr:state" v="VT"/>
    <tag k="ref:vcgi:esiteid" v="766048"/>
  </node>
  <node id="-1511" visible="true" lat="44.57933238" lon="-72.91368532">
    <tag k="addr:city" v="Underhill"/>
    <tag k="addr:housenumber" v="42"/>
    <tag k="addr:street" v="Page Road"/>
    <tag k="addr:state" v="VT"/>
    <tag k="ref:vcgi:esiteid" v="766049"/>
  </node>
  <node id="-1512" visible="true" lat="44.56617724" lon="-72.95195071">
    <tag k="addr:city" v="Underhill"/>
    <tag k="addr:housenumber" v="75"/>
    <tag k="addr:street" v="Repa Road"/>
    <tag k="addr:state" v="VT"/>
    <tag k="ref:vcgi:esiteid" v="766050"/>
  </node>
  <node id="-1513" visible="true" lat="44.57192458" lon="-72.88030928">
    <tag k="addr:city" v="Underhill"/>
    <tag k="addr:housenumber" v="480"/>
    <tag k="addr:street" v="Irish Settlement Road"/>
    <tag k="addr:state" v="VT"/>
    <tag k="ref:vcgi:esiteid" v="766051"/>
  </node>
  <node id="-1514" visible="true" lat="44.57272164" lon="-72.88227317">
    <tag k="addr:city" v="Underhill"/>
    <tag k="addr:housenumber" v="492"/>
    <tag k="addr:street" v="Irish Settlement Road"/>
    <tag k="addr:state" v="VT"/>
    <tag k="ref:vcgi:esiteid" v="766052"/>
  </node>
  <node id="-1515" visible="true" lat="44.57394934" lon="-72.86213659">
    <tag k="addr:city" v="Underhill"/>
    <tag k="addr:housenumber" v="15"/>
    <tag k="addr:street" v="Deane Road"/>
    <tag k="addr:state" v="VT"/>
    <tag k="ref:vcgi:esiteid" v="766053"/>
  </node>
  <node id="-1516" visible="true" lat="44.5816146" lon="-72.88165066">
    <tag k="addr:city" v="Underhill"/>
    <tag k="addr:housenumber" v="557"/>
    <tag k="addr:street" v="Irish Settlement Road"/>
    <tag k="addr:state" v="VT"/>
    <tag k="ref:vcgi:esiteid" v="766086"/>
  </node>
  <node id="-1517" visible="true" lat="44.57554717" lon="-72.86511021">
    <tag k="addr:city" v="Underhill"/>
    <tag k="addr:housenumber" v="557"/>
    <tag k="addr:street" v="Pleasant Valley Road"/>
    <tag k="addr:state" v="VT"/>
    <tag k="ref:vcgi:esiteid" v="766087"/>
  </node>
  <node id="-1518" visible="true" lat="44.5827087" lon="-72.87973836">
    <tag k="addr:city" v="Underhill"/>
    <tag k="addr:housenumber" v="558"/>
    <tag k="addr:street" v="Irish Settlement Road"/>
    <tag k="addr:state" v="VT"/>
    <tag k="ref:vcgi:esiteid" v="766094"/>
  </node>
  <node id="-1519" visible="true" lat="44.6126397" lon="-72.91192558">
    <tag k="addr:city" v="Underhill"/>
    <tag k="addr:housenumber" v="621"/>
    <tag k="addr:street" v="Poker Hill Road"/>
    <tag k="addr:state" v="VT"/>
    <tag k="ref:vcgi:esiteid" v="766142"/>
  </node>
  <node id="-1520" visible="true" lat="44.61160562" lon="-72.91825134">
    <tag k="addr:city" v="Underhill"/>
    <tag k="addr:housenumber" v="38"/>
    <tag k="addr:street" v="Hill Crest Lane"/>
    <tag k="addr:state" v="VT"/>
    <tag k="ref:vcgi:esiteid" v="766143"/>
  </node>
  <node id="-1521" visible="true" lat="44.60768777" lon="-72.91761775">
    <tag k="addr:city" v="Underhill"/>
    <tag k="addr:housenumber" v="571"/>
    <tag k="addr:street" v="Poker Hill Road"/>
    <tag k="addr:state" v="VT"/>
    <tag k="ref:vcgi:esiteid" v="766145"/>
  </node>
  <node id="-1522" visible="true" lat="44.61355595" lon="-72.90277548">
    <tag k="addr:city" v="Underhill"/>
    <tag k="addr:housenumber" v="41A"/>
    <tag k="addr:street" v="Downes Road"/>
    <tag k="addr:state" v="VT"/>
    <tag k="ref:vcgi:esiteid" v="766146"/>
  </node>
  <node id="-1523" visible="true" lat="44.59303959" lon="-72.91176796">
    <tag k="addr:city" v="Underhill"/>
    <tag k="addr:housenumber" v="5"/>
    <tag k="addr:street" v="Tatro Road"/>
    <tag k="addr:state" v="VT"/>
    <tag k="ref:vcgi:esiteid" v="766147"/>
  </node>
  <node id="-1524" visible="true" lat="44.53664551" lon="-72.86859346">
    <tag k="addr:city" v="Underhill"/>
    <tag k="addr:housenumber" v="153"/>
    <tag k="addr:street" v="Moose Run"/>
    <tag k="addr:state" v="VT"/>
    <tag k="ref:vcgi:esiteid" v="766189"/>
  </node>
  <node id="-1525" visible="true" lat="44.5071993" lon="-72.85079498">
    <tag k="addr:city" v="Underhill"/>
    <tag k="addr:housenumber" v="315"/>
    <tag k="addr:street" v="Howard Road"/>
    <tag k="addr:state" v="VT"/>
    <tag k="ref:vcgi:esiteid" v="766986"/>
  </node>
  <node id="-1526" visible="true" lat="44.50701624" lon="-72.84934232">
    <tag k="addr:city" v="Underhill"/>
    <tag k="addr:housenumber" v="375"/>
    <tag k="addr:street" v="Howard Road"/>
    <tag k="addr:state" v="VT"/>
    <tag k="ref:vcgi:esiteid" v="766987"/>
  </node>
  <node id="-1527" visible="true" lat="44.50750198" lon="-72.85494358">
    <tag k="addr:city" v="Underhill"/>
    <tag k="addr:housenumber" v="135"/>
    <tag k="addr:street" v="Howard Road"/>
    <tag k="addr:state" v="VT"/>
    <tag k="ref:vcgi:esiteid" v="766988"/>
  </node>
  <node id="-1528" visible="true" lat="44.55065626" lon="-72.88404658">
    <tag k="addr:city" v="Underhill"/>
    <tag k="addr:housenumber" v="317"/>
    <tag k="addr:street" v="Irish Settlement Road"/>
    <tag k="addr:state" v="VT"/>
    <tag k="ref:vcgi:esiteid" v="767007"/>
  </node>
  <node id="-1529" visible="true" lat="44.61394455" lon="-72.90794623">
    <tag k="addr:city" v="Underhill"/>
    <tag k="addr:housenumber" v="13"/>
    <tag k="addr:street" v="Downes Road"/>
    <tag k="addr:state" v="VT"/>
    <tag k="ref:vcgi:esiteid" v="767015"/>
  </node>
  <node id="-1530" visible="true" lat="44.61291407" lon="-72.9073015">
    <tag k="addr:city" v="Underhill"/>
    <tag k="addr:housenumber" v="16"/>
    <tag k="addr:street" v="Downes Road"/>
    <tag k="addr:state" v="VT"/>
    <tag k="ref:vcgi:esiteid" v="767016"/>
  </node>
  <node id="-1531" visible="true" lat="44.61213995" lon="-72.90737943">
    <tag k="addr:city" v="Underhill"/>
    <tag k="addr:housenumber" v="18"/>
    <tag k="addr:street" v="Downes Road"/>
    <tag k="addr:state" v="VT"/>
    <tag k="ref:vcgi:esiteid" v="767017"/>
  </node>
  <node id="-1533" visible="true" lat="44.60072016" lon="-72.92232781">
    <tag k="addr:city" v="Underhill"/>
    <tag k="addr:housenumber" v="18"/>
    <tag k="addr:street" v="Hidden View Road"/>
    <tag k="addr:state" v="VT"/>
    <tag k="ref:vcgi:esiteid" v="767019"/>
  </node>
  <node id="-1534" visible="true" lat="44.5919557" lon="-72.92758218">
    <tag k="addr:city" v="Underhill"/>
    <tag k="addr:housenumber" v="65"/>
    <tag k="addr:street" v="Highland Road"/>
    <tag k="addr:state" v="VT"/>
    <tag k="ref:vcgi:esiteid" v="767020"/>
  </node>
  <node id="-1535" visible="true" lat="44.5821222" lon="-72.92210547">
    <tag k="addr:city" v="Underhill"/>
    <tag k="addr:housenumber" v="384"/>
    <tag k="addr:street" v="Poker Hill Road"/>
    <tag k="addr:state" v="VT"/>
    <tag k="ref:vcgi:esiteid" v="767021"/>
  </node>
  <node id="-1536" visible="true" lat="44.57538801" lon="-72.92605201">
    <tag k="addr:city" v="Underhill"/>
    <tag k="addr:housenumber" v="327"/>
    <tag k="addr:street" v="Poker Hill Road"/>
    <tag k="addr:state" v="VT"/>
    <tag k="ref:vcgi:esiteid" v="767022"/>
  </node>
  <node id="-1537" visible="true" lat="44.56230983" lon="-72.92793926">
    <tag k="addr:city" v="Underhill"/>
    <tag k="addr:housenumber" v="233"/>
    <tag k="addr:street" v="Poker Hill Road"/>
    <tag k="addr:state" v="VT"/>
    <tag k="ref:vcgi:esiteid" v="767023"/>
  </node>
  <node id="-1539" visible="true" lat="44.56342177" lon="-72.92657346">
    <tag k="addr:city" v="Underhill"/>
    <tag k="addr:housenumber" v="242"/>
    <tag k="addr:street" v="Poker Hill Road"/>
    <tag k="addr:state" v="VT"/>
    <tag k="ref:vcgi:esiteid" v="767025"/>
  </node>
  <node id="-1540" visible="true" lat="44.55868051" lon="-72.92559717">
    <tag k="addr:city" v="Underhill"/>
    <tag k="addr:housenumber" v="210"/>
    <tag k="addr:street" v="Poker Hill Road"/>
    <tag k="addr:state" v="VT"/>
    <tag k="ref:vcgi:esiteid" v="767026"/>
  </node>
  <node id="-1541" visible="true" lat="44.55889072" lon="-72.93693034">
    <tag k="addr:city" v="Underhill"/>
    <tag k="addr:housenumber" v="62"/>
    <tag k="addr:street" v="Timber Ridge Road"/>
    <tag k="addr:state" v="VT"/>
    <tag k="ref:vcgi:esiteid" v="767027"/>
  </node>
  <node id="-1542" visible="true" lat="44.55363142" lon="-72.93442036">
    <tag k="addr:city" v="Underhill"/>
    <tag k="addr:housenumber" v="159"/>
    <tag k="addr:street" v="Poker Hill Road"/>
    <tag k="addr:state" v="VT"/>
    <tag k="ref:vcgi:esiteid" v="767028"/>
  </node>
  <node id="-1543" visible="true" lat="44.59349755" lon="-72.93083837">
    <tag k="addr:city" v="Underhill"/>
    <tag k="addr:housenumber" v="16"/>
    <tag k="addr:street" v="French Hill Road"/>
    <tag k="addr:state" v="VT"/>
    <tag k="ref:vcgi:esiteid" v="767029"/>
  </node>
  <node id="-1544" visible="true" lat="44.59401139" lon="-72.93713507">
    <tag k="addr:city" v="Underhill"/>
    <tag k="addr:housenumber" v="918"/>
    <tag k="addr:street" v="Vermont Route 15"/>
    <tag k="addr:state" v="VT"/>
    <tag k="ref:vcgi:esiteid" v="767030"/>
  </node>
  <node id="-1545" visible="true" lat="44.51287141" lon="-72.90408492">
    <tag k="addr:city" v="Underhill"/>
    <tag k="addr:housenumber" v="14"/>
    <tag k="addr:street" v="Sand Hill Road"/>
    <tag k="addr:state" v="VT"/>
    <tag k="ref:vcgi:esiteid" v="767589"/>
  </node>
  <node id="-1546" visible="true" lat="44.53281188" lon="-72.93296129">
    <tag k="addr:city" v="Underhill"/>
    <tag k="addr:housenumber" v="77"/>
    <tag k="addr:street" v="Meadow Lane"/>
    <tag k="addr:state" v="VT"/>
    <tag k="ref:vcgi:esiteid" v="767590"/>
  </node>
  <node id="-1547" visible="true" lat="44.53296242" lon="-72.94029754">
    <tag k="addr:city" v="Underhill"/>
    <tag k="addr:housenumber" v="55"/>
    <tag k="addr:street" v="Meadow Lane"/>
    <tag k="addr:state" v="VT"/>
    <tag k="ref:vcgi:esiteid" v="767591"/>
  </node>
  <node id="-1548" visible="true" lat="44.54882544" lon="-72.94660256">
    <tag k="addr:city" v="Underhill"/>
    <tag k="addr:housenumber" v="573"/>
    <tag k="addr:street" v="Vermont Route 15"/>
    <tag k="addr:state" v="VT"/>
    <tag k="ref:vcgi:esiteid" v="767592"/>
  </node>
  <node id="-1549" visible="true" lat="44.55088937" lon="-72.93424778">
    <tag k="addr:city" v="Underhill"/>
    <tag k="addr:housenumber" v="147"/>
    <tag k="addr:street" v="Poker Hill Road"/>
    <tag k="addr:state" v="VT"/>
    <tag k="ref:vcgi:esiteid" v="767635"/>
  </node>
  <node id="-1550" visible="true" lat="44.6064622" lon="-72.91226507">
    <tag k="addr:city" v="Underhill"/>
    <tag k="addr:housenumber" v="7"/>
    <tag k="addr:street" v="Raven Hill Road"/>
    <tag k="addr:state" v="VT"/>
    <tag k="ref:vcgi:esiteid" v="768028"/>
  </node>
  <node id="-1551" visible="true" lat="44.52875372" lon="-72.87664138">
    <tag k="addr:city" v="Underhill"/>
    <tag k="addr:housenumber" v="4"/>
    <tag k="addr:street" v="Harvey Road"/>
    <tag k="addr:state" v="VT"/>
    <tag k="ref:vcgi:esiteid" v="768368"/>
  </node>
  <node id="-1552" visible="true" lat="44.5150966" lon="-72.88439897">
    <tag k="addr:city" v="Underhill"/>
    <tag k="addr:housenumber" v="2"/>
    <tag k="addr:street" v="Mountain Road"/>
    <tag k="addr:state" v="VT"/>
    <tag k="ref:vcgi:esiteid" v="768384"/>
  </node>
  <node id="-1553" visible="true" lat="44.51167811" lon="-72.88839463">
    <tag k="addr:city" v="Underhill"/>
    <tag k="addr:housenumber" v="72"/>
    <tag k="addr:street" v="Pleasant Valley Road"/>
    <tag k="addr:state" v="VT"/>
    <tag k="ref:vcgi:esiteid" v="768385"/>
  </node>
  <node id="-1554" visible="true" lat="44.55108882" lon="-72.94761929">
    <tag k="addr:city" v="Underhill"/>
    <tag k="addr:housenumber" v="16"/>
    <tag k="addr:street" v="Mount Vista Road"/>
    <tag k="addr:state" v="VT"/>
    <tag k="ref:vcgi:esiteid" v="768497"/>
  </node>
  <node id="-1555" visible="true" lat="44.55471183" lon="-72.94712018">
    <tag k="addr:city" v="Underhill"/>
    <tag k="addr:housenumber" v="13"/>
    <tag k="addr:street" v="Briar Patch Lane"/>
    <tag k="addr:state" v="VT"/>
    <tag k="ref:vcgi:esiteid" v="768498"/>
  </node>
  <node id="-1556" visible="true" lat="44.58230058" lon="-72.92933362">
    <tag k="addr:city" v="Underhill"/>
    <tag k="addr:housenumber" v="62"/>
    <tag k="addr:street" v="North Underhill Station Road"/>
    <tag k="addr:state" v="VT"/>
    <tag k="ref:vcgi:esiteid" v="768499"/>
  </node>
  <node id="-1557" visible="true" lat="44.58548213" lon="-72.93409785">
    <tag k="addr:city" v="Underhill"/>
    <tag k="addr:housenumber" v="29"/>
    <tag k="addr:street" v="North Underhill Station Road"/>
    <tag k="addr:state" v="VT"/>
    <tag k="ref:vcgi:esiteid" v="768500"/>
  </node>
  <node id="-1558" visible="true" lat="44.58724831" lon="-72.93624827">
    <tag k="addr:city" v="Underhill"/>
    <tag k="addr:housenumber" v="15"/>
    <tag k="addr:street" v="North Underhill Station Road"/>
    <tag k="addr:state" v="VT"/>
    <tag k="ref:vcgi:esiteid" v="768501"/>
  </node>
  <node id="-1559" visible="true" lat="44.58766297" lon="-72.94010331">
    <tag k="addr:city" v="Underhill"/>
    <tag k="addr:housenumber" v="859"/>
    <tag k="addr:street" v="Vermont Route 15"/>
    <tag k="addr:state" v="VT"/>
    <tag k="ref:vcgi:esiteid" v="768502"/>
  </node>
  <node id="-1560" visible="true" lat="44.51892209" lon="-72.8615487">
    <tag k="addr:city" v="Underhill"/>
    <tag k="addr:housenumber" v="139"/>
    <tag k="addr:street" v="Mountain Road"/>
    <tag k="addr:state" v="VT"/>
    <tag k="ref:vcgi:esiteid" v="768700"/>
  </node>
  <node id="-1561" visible="true" lat="44.53783979" lon="-72.94093504">
    <tag k="addr:city" v="Underhill"/>
    <tag k="addr:housenumber" v="43"/>
    <tag k="addr:street" v="Poker Hill Road"/>
    <tag k="addr:state" v="VT"/>
    <tag k="ref:vcgi:esiteid" v="768817"/>
  </node>
  <node id="-1562" visible="true" lat="44.59920082" lon="-72.91740613">
    <tag k="addr:city" v="Underhill"/>
    <tag k="addr:housenumber" v="516"/>
    <tag k="addr:street" v="Poker Hill Road"/>
    <tag k="addr:state" v="VT"/>
    <tag k="ref:vcgi:esiteid" v="768822"/>
  </node>
  <node id="-1564" visible="true" lat="44.52015777" lon="-72.89540547">
    <tag k="addr:city" v="Underhill"/>
    <tag k="addr:housenumber" v="77"/>
    <tag k="addr:street" v="Irish Settlement Road"/>
    <tag k="addr:state" v="VT"/>
    <tag k="ref:vcgi:esiteid" v="768883"/>
  </node>
  <node id="-1566" visible="true" lat="44.54149526" lon="-72.93433185">
    <tag k="addr:city" v="Underhill"/>
    <tag k="addr:housenumber" v="17"/>
    <tag k="addr:street" v="Blakey Road"/>
    <tag k="addr:state" v="VT"/>
    <tag k="ref:vcgi:esiteid" v="768916"/>
  </node>
  <node id="-1567" visible="true" lat="44.56797021" lon="-72.86550015">
    <tag k="addr:city" v="Underhill"/>
    <tag k="addr:housenumber" v="517"/>
    <tag k="addr:street" v="Pleasant Valley Road"/>
    <tag k="addr:state" v="VT"/>
    <tag k="ref:vcgi:esiteid" v="768975"/>
  </node>
  <node id="-1568" visible="true" lat="44.50795679" lon="-72.88285401">
    <tag k="addr:city" v="Underhill"/>
    <tag k="addr:housenumber" v="71"/>
    <tag k="addr:street" v="Stevensville Road"/>
    <tag k="addr:state" v="VT"/>
    <tag k="ref:vcgi:esiteid" v="768976"/>
  </node>
  <node id="-1569" visible="true" lat="44.53755775" lon="-72.86694606">
    <tag k="addr:city" v="Underhill"/>
    <tag k="addr:housenumber" v="147"/>
    <tag k="addr:street" v="Moose Run"/>
    <tag k="addr:state" v="VT"/>
    <tag k="ref:vcgi:esiteid" v="768977"/>
  </node>
  <node id="-1571" visible="true" lat="44.48489316" lon="-72.82671657">
    <tag k="addr:city" v="Underhill"/>
    <tag k="addr:housenumber" v="4450"/>
    <tag k="addr:street" v="Nebraska Valley Road"/>
    <tag k="addr:state" v="VT"/>
    <tag k="ref:vcgi:esiteid" v="1050109"/>
  </node>
</osm>
