<?xml version="1.0" encoding="UTF-8"?>
<osm version="0.6" generator="JOSM">
  <node id="-107" visible="true" lat="44.17348723" lon="-73.2422741">
    <!-- multiple: "115 Monkton Road, Vergennes, VT" Multiple exact matches in OSM. -->
    <tag k="addr:city" v="Vergennes"/>
    <tag k="addr:housenumber" v="115"/>
    <tag k="addr:street" v="Monkton Road"/>
    <tag k="addr:state" v="VT"/>
    <tag k="ref:vcgi:esiteid" v="108063"/>
  </node>
  <node id="-172" visible="true" lat="44.17118716" lon="-73.24799412">
    <!-- multiple: "65 Main Street, Vergennes, VT" Multiple exact matches in OSM. -->
    <tag k="addr:city" v="Vergennes"/>
    <tag k="addr:housenumber" v="65"/>
    <tag k="addr:street" v="Main Street"/>
    <tag k="addr:state" v="VT"/>
    <tag k="ref:vcgi:esiteid" v="264508"/>
  </node>
  <node id="-259" visible="true" lat="44.16863517" lon="-73.25094236">
    <!-- multiple: "120 Main Street, Vergennes, VT" Multiple exact matches in OSM. -->
    <tag k="addr:city" v="Vergennes"/>
    <tag k="addr:housenumber" v="120"/>
    <tag k="addr:street" v="Main Street"/>
    <tag k="addr:state" v="VT"/>
    <tag k="ref:vcgi:esiteid" v="264595"/>
  </node>
  <node id="-290" visible="true" lat="44.1676383" lon="-73.2514471">
    <!-- multiple: "7 Green Street, Vergennes, VT" Multiple exact matches in OSM. -->
    <tag k="addr:city" v="Vergennes"/>
    <tag k="addr:housenumber" v="7"/>
    <tag k="addr:street" v="Green Street"/>
    <tag k="addr:state" v="VT"/>
    <tag k="ref:vcgi:esiteid" v="264628"/>
  </node>
  <node id="-308" visible="true" lat="44.16683959" lon="-73.24799346">
    <!-- multiple: "43 East Street, Vergennes, VT" Multiple exact matches in OSM. -->
    <tag k="addr:city" v="Vergennes"/>
    <tag k="addr:housenumber" v="43"/>
    <tag k="addr:street" v="East Street"/>
    <tag k="addr:state" v="VT"/>
    <tag k="ref:vcgi:esiteid" v="264649"/>
  </node>
  <node id="-430" visible="true" lat="44.16462268" lon="-73.24599947">
    <!-- multiple: "30 New Haven Road, Vergennes, VT" Multiple exact matches in OSM. -->
    <tag k="addr:city" v="Vergennes"/>
    <tag k="addr:housenumber" v="30"/>
    <tag k="addr:street" v="New Haven Road"/>
    <tag k="addr:state" v="VT"/>
    <tag k="ref:vcgi:esiteid" v="264775"/>
  </node>
  <node id="-438" visible="true" lat="44.16449446" lon="-73.24537713">
    <!-- multiple: "38 New Haven Road, Vergennes, VT" Multiple exact matches in OSM. -->
    <tag k="addr:city" v="Vergennes"/>
    <tag k="addr:housenumber" v="38"/>
    <tag k="addr:street" v="New Haven Road"/>
    <tag k="addr:state" v="VT"/>
    <tag k="ref:vcgi:esiteid" v="264783"/>
  </node>
  <node id="-955" visible="true" lat="44.16805238" lon="-73.25097165">
    <!-- multiple: "141 Main Street, Vergennes, VT" Multiple exact matches in OSM. -->
    <tag k="addr:city" v="Vergennes"/>
    <tag k="addr:housenumber" v="141"/>
    <tag k="addr:street" v="Main Street"/>
    <tag k="addr:state" v="VT"/>
    <tag k="ref:vcgi:esiteid" v="265424"/>
  </node>
  <node id="-1115" visible="true" lat="44.16719011" lon="-73.25102725">
    <!-- multiple: "35 Green Street, Vergennes, VT" Multiple exact matches in OSM. -->
    <tag k="addr:city" v="Vergennes"/>
    <tag k="addr:housenumber" v="35"/>
    <tag k="addr:street" v="Green Street"/>
    <tag k="addr:state" v="VT"/>
    <tag k="ref:vcgi:esiteid" v="613349"/>
  </node>
  <node id="-1203" visible="true" lat="44.16783965" lon="-73.25146812">
    <!-- multiple: "175 Main Street, Vergennes, VT" Multiple exact matches in OSM. -->
    <tag k="addr:city" v="Vergennes"/>
    <tag k="addr:housenumber" v="175"/>
    <tag k="addr:street" v="Main Street"/>
    <tag k="addr:state" v="VT"/>
    <tag k="ref:vcgi:esiteid" v="768986"/>
  </node>
</osm>
