<?xml version="1.0" encoding="UTF-8"?>
<osm version="0.6" generator="JOSM">
  <node id="-108" visible="true" lat="44.16493231" lon="-73.24092305">
    <tag k="addr:city" v="Vergennes"/>
    <tag k="addr:housenumber" v="67"/>
    <tag k="addr:street" v="New Haven Road"/>
    <tag k="addr:state" v="VT"/>
    <tag k="ref:vcgi:esiteid" v="264443"/>
  </node>
  <node id="-128" visible="true" lat="44.17424706" lon="-73.24235872">
    <tag k="addr:city" v="Vergennes"/>
    <tag k="addr:housenumber" v="100"/>
    <tag k="addr:street" v="Armory Lane"/>
    <tag k="addr:state" v="VT"/>
    <tag k="ref:vcgi:esiteid" v="264464"/>
  </node>
  <node id="-170" visible="true" lat="44.17138415" lon="-73.24695355">
    <tag k="addr:city" v="Vergennes"/>
    <tag k="addr:housenumber" v="25"/>
    <tag k="addr:street" v="Monkton Road"/>
    <tag k="addr:state" v="VT"/>
    <tag k="ref:vcgi:esiteid" v="264506"/>
  </node>
  <node id="-175" visible="true" lat="44.1709175" lon="-73.24916076">
    <tag k="addr:city" v="Vergennes"/>
    <tag k="addr:housenumber" v="72"/>
    <tag k="addr:street" v="Main Street"/>
    <tag k="addr:state" v="VT"/>
    <tag k="ref:vcgi:esiteid" v="264511"/>
  </node>
  <node id="-213" visible="true" lat="44.17017746" lon="-73.24957275">
    <tag k="addr:city" v="Vergennes"/>
    <tag k="addr:housenumber" v="82"/>
    <tag k="addr:street" v="Main Street"/>
    <tag k="addr:state" v="VT"/>
    <tag k="ref:vcgi:esiteid" v="264549"/>
  </node>
  <node id="-258" visible="true" lat="44.16875394" lon="-73.25162556">
    <tag k="addr:city" v="Vergennes"/>
    <tag k="addr:housenumber" v="6"/>
    <tag k="addr:street" v="Park Street"/>
    <tag k="addr:state" v="VT"/>
    <tag k="ref:vcgi:esiteid" v="264594"/>
  </node>
  <node id="-274" visible="true" lat="44.16822487" lon="-73.25061363">
    <tag k="addr:city" v="Vergennes"/>
    <tag k="addr:housenumber" v="129"/>
    <tag k="addr:street" v="Main Street"/>
    <tag k="addr:state" v="VT"/>
    <tag k="ref:vcgi:esiteid" v="264610"/>
  </node>
  <node id="-275" visible="true" lat="44.1682656" lon="-73.25241634">
    <tag k="addr:city" v="Vergennes"/>
    <tag k="addr:housenumber" v="9"/>
    <tag k="addr:street" v="North Green Street"/>
    <tag k="addr:state" v="VT"/>
    <tag k="ref:vcgi:esiteid" v="264611"/>
  </node>
  <node id="-287" visible="true" lat="44.16752704" lon="-73.25369634">
    <tag k="addr:city" v="Vergennes"/>
    <tag k="addr:housenumber" v="258"/>
    <tag k="addr:street" v="Main Street"/>
    <tag k="addr:state" v="VT"/>
    <tag k="ref:vcgi:esiteid" v="264625"/>
  </node>
  <node id="-289" visible="true" lat="44.16747086" lon="-73.25129953">
    <tag k="addr:city" v="Vergennes"/>
    <tag k="addr:housenumber" v="29"/>
    <tag k="addr:street" v="Green Street"/>
    <tag k="addr:state" v="VT"/>
    <tag k="ref:vcgi:esiteid" v="264627"/>
  </node>
  <node id="-297" visible="true" lat="44.16710662" lon="-73.25099182">
    <tag k="addr:city" v="Vergennes"/>
    <tag k="addr:housenumber" v="37"/>
    <tag k="addr:street" v="Green Street"/>
    <tag k="addr:state" v="VT"/>
    <tag k="ref:vcgi:esiteid" v="264637"/>
  </node>
  <node id="-311" visible="true" lat="44.16672897" lon="-73.2540512">
    <tag k="addr:city" v="Vergennes"/>
    <tag k="addr:housenumber" v="2"/>
    <tag k="addr:street" v="South Water Street"/>
    <tag k="addr:state" v="VT"/>
    <tag k="ref:vcgi:esiteid" v="264652"/>
  </node>
  <node id="-314" visible="true" lat="44.16660564" lon="-73.25137179">
    <tag k="addr:city" v="Vergennes"/>
    <tag k="addr:housenumber" v="50"/>
    <tag k="addr:street" v="Green Street"/>
    <tag k="addr:state" v="VT"/>
    <tag k="ref:vcgi:esiteid" v="264655"/>
  </node>
  <node id="-325" visible="true" lat="44.16645111" lon="-73.25088534">
    <tag k="addr:city" v="Vergennes"/>
    <tag k="addr:housenumber" v="56"/>
    <tag k="addr:street" v="Green Street"/>
    <tag k="addr:state" v="VT"/>
    <tag k="ref:vcgi:esiteid" v="264667"/>
  </node>
  <node id="-338" visible="true" lat="44.16663272" lon="-73.25775736">
    <tag k="addr:city" v="Vergennes"/>
    <tag k="addr:housenumber" v="3"/>
    <tag k="addr:street" v="Green Mountain Drive"/>
    <tag k="addr:state" v="VT"/>
    <tag k="ref:vcgi:esiteid" v="264680"/>
  </node>
  <node id="-437" visible="true" lat="44.16465113" lon="-73.24716364">
    <tag k="addr:city" v="Vergennes"/>
    <tag k="addr:housenumber" v="16"/>
    <tag k="addr:street" v="New Haven Road"/>
    <tag k="addr:state" v="VT"/>
    <tag k="ref:vcgi:esiteid" v="264782"/>
  </node>
  <node id="-469" visible="true" lat="44.16394741" lon="-73.26385026">
    <tag k="addr:city" v="Vergennes"/>
    <tag k="addr:housenumber" v="100"/>
    <tag k="addr:street" v="Panton Road"/>
    <tag k="addr:state" v="VT"/>
    <tag k="ref:vcgi:esiteid" v="264814"/>
  </node>
  <node id="-562" visible="true" lat="44.16307693" lon="-73.26591508">
    <tag k="addr:city" v="Vergennes"/>
    <tag k="addr:housenumber" v="106"/>
    <tag k="addr:street" v="Panton Road"/>
    <tag k="addr:state" v="VT"/>
    <tag k="ref:vcgi:esiteid" v="264907"/>
  </node>
  <node id="-581" visible="true" lat="44.16253662" lon="-73.26243591">
    <tag k="addr:city" v="Vergennes"/>
    <tag k="addr:housenumber" v="101"/>
    <tag k="addr:street" v="Panton Road"/>
    <tag k="addr:state" v="VT"/>
    <tag k="ref:vcgi:esiteid" v="264926"/>
  </node>
  <node id="-716" visible="true" lat="44.15686035" lon="-73.24597167">
    <tag k="addr:city" v="Vergennes"/>
    <tag k="addr:housenumber" v="28"/>
    <tag k="addr:street" v="Thomas Circle"/>
    <tag k="addr:state" v="VT"/>
    <tag k="ref:vcgi:esiteid" v="265069"/>
  </node>
  <node id="-717" visible="true" lat="44.15678787" lon="-73.24636077">
    <tag k="addr:city" v="Vergennes"/>
    <tag k="addr:housenumber" v="30"/>
    <tag k="addr:street" v="Thomas Circle"/>
    <tag k="addr:state" v="VT"/>
    <tag k="ref:vcgi:esiteid" v="265070"/>
  </node>
  <node id="-718" visible="true" lat="44.15715742" lon="-73.24474171">
    <tag k="addr:city" v="Vergennes"/>
    <tag k="addr:housenumber" v="22"/>
    <tag k="addr:street" v="Thomas Circle"/>
    <tag k="addr:state" v="VT"/>
    <tag k="ref:vcgi:esiteid" v="265071"/>
  </node>
  <node id="-724" visible="true" lat="44.15644442" lon="-73.24587909">
    <tag k="addr:city" v="Vergennes"/>
    <tag k="addr:housenumber" v="27"/>
    <tag k="addr:street" v="Thomas Circle"/>
    <tag k="addr:state" v="VT"/>
    <tag k="ref:vcgi:esiteid" v="265077"/>
  </node>
  <node id="-726" visible="true" lat="44.15628606" lon="-73.24623703">
    <tag k="addr:city" v="Vergennes"/>
    <tag k="addr:housenumber" v="29"/>
    <tag k="addr:street" v="Thomas Circle"/>
    <tag k="addr:state" v="VT"/>
    <tag k="ref:vcgi:esiteid" v="265079"/>
  </node>
  <node id="-731" visible="true" lat="44.15598678" lon="-73.24681091">
    <tag k="addr:city" v="Vergennes"/>
    <tag k="addr:housenumber" v="34"/>
    <tag k="addr:street" v="Thomas Circle"/>
    <tag k="addr:state" v="VT"/>
    <tag k="ref:vcgi:esiteid" v="265084"/>
  </node>
  <node id="-733" visible="true" lat="44.15598216" lon="-73.24618615">
    <tag k="addr:city" v="Vergennes"/>
    <tag k="addr:housenumber" v="33"/>
    <tag k="addr:street" v="Thomas Circle"/>
    <tag k="addr:state" v="VT"/>
    <tag k="ref:vcgi:esiteid" v="265086"/>
  </node>
  <node id="-737" visible="true" lat="44.15573331" lon="-73.24607314">
    <tag k="addr:city" v="Vergennes"/>
    <tag k="addr:housenumber" v="1"/>
    <tag k="addr:street" v="Thomas Circle"/>
    <tag k="addr:state" v="VT"/>
    <tag k="ref:vcgi:esiteid" v="265090"/>
  </node>
  <node id="-738" visible="true" lat="44.15552139" lon="-73.24669647">
    <tag k="addr:city" v="Vergennes"/>
    <tag k="addr:housenumber" v="2"/>
    <tag k="addr:street" v="Thomas Circle"/>
    <tag k="addr:state" v="VT"/>
    <tag k="ref:vcgi:esiteid" v="265091"/>
  </node>
  <node id="-739" visible="true" lat="44.15539848" lon="-73.24549501">
    <tag k="addr:city" v="Vergennes"/>
    <tag k="addr:housenumber" v="9"/>
    <tag k="addr:street" v="Thomas Circle"/>
    <tag k="addr:state" v="VT"/>
    <tag k="ref:vcgi:esiteid" v="265092"/>
  </node>
  <node id="-742" visible="true" lat="44.1550682" lon="-73.24446262">
    <tag k="addr:city" v="Vergennes"/>
    <tag k="addr:housenumber" v="12"/>
    <tag k="addr:street" v="Thomas Circle"/>
    <tag k="addr:state" v="VT"/>
    <tag k="ref:vcgi:esiteid" v="265095"/>
  </node>
  <node id="-743" visible="true" lat="44.15496586" lon="-73.24616233">
    <tag k="addr:city" v="Vergennes"/>
    <tag k="addr:housenumber" v="6"/>
    <tag k="addr:street" v="Thomas Circle"/>
    <tag k="addr:state" v="VT"/>
    <tag k="ref:vcgi:esiteid" v="265096"/>
  </node>
  <node id="-744" visible="true" lat="44.15500819" lon="-73.24665895">
    <tag k="addr:city" v="Vergennes"/>
    <tag k="addr:housenumber" v="4"/>
    <tag k="addr:street" v="Thomas Circle"/>
    <tag k="addr:state" v="VT"/>
    <tag k="ref:vcgi:esiteid" v="265097"/>
  </node>
  <node id="-745" visible="true" lat="44.15502103" lon="-73.24503206">
    <tag k="addr:city" v="Vergennes"/>
    <tag k="addr:housenumber" v="10"/>
    <tag k="addr:street" v="Thomas Circle"/>
    <tag k="addr:state" v="VT"/>
    <tag k="ref:vcgi:esiteid" v="265098"/>
  </node>
  <node id="-760" visible="true" lat="44.16130131" lon="-73.26116865">
    <tag k="addr:city" v="Vergennes"/>
    <tag k="addr:housenumber" v="94"/>
    <tag k="addr:street" v="West Main Street"/>
    <tag k="addr:state" v="VT"/>
    <tag k="ref:vcgi:esiteid" v="265114"/>
  </node>
  <node id="-771" visible="true" lat="44.16250292" lon="-73.26514574">
    <tag k="addr:city" v="Vergennes"/>
    <tag k="addr:housenumber" v="107"/>
    <tag k="addr:street" v="Panton Road"/>
    <tag k="addr:state" v="VT"/>
    <tag k="ref:vcgi:esiteid" v="265125"/>
  </node>
  <node id="-772" visible="true" lat="44.15541219" lon="-73.24421963">
    <tag k="addr:city" v="Vergennes"/>
    <tag k="addr:housenumber" v="14"/>
    <tag k="addr:street" v="Thomas Circle"/>
    <tag k="addr:state" v="VT"/>
    <tag k="ref:vcgi:esiteid" v="265126"/>
  </node>
  <node id="-773" visible="true" lat="44.15501971" lon="-73.24553348">
    <tag k="addr:city" v="Vergennes"/>
    <tag k="addr:housenumber" v="8"/>
    <tag k="addr:street" v="Thomas Circle"/>
    <tag k="addr:state" v="VT"/>
    <tag k="ref:vcgi:esiteid" v="265127"/>
  </node>
  <node id="-823" visible="true" lat="44.16960588" lon="-73.25071621">
    <tag k="addr:city" v="Vergennes"/>
    <tag k="addr:housenumber" v="10"/>
    <tag k="addr:street" v="North Street"/>
    <tag k="addr:state" v="VT"/>
    <tag k="ref:vcgi:esiteid" v="265179"/>
  </node>
  <node id="-829" visible="true" lat="44.16874451" lon="-73.25235659">
    <tag k="addr:city" v="Vergennes"/>
    <tag k="addr:housenumber" v="34"/>
    <tag k="addr:street" v="North Street"/>
    <tag k="addr:state" v="VT"/>
    <tag k="ref:vcgi:esiteid" v="265185"/>
  </node>
  <node id="-889" visible="true" lat="44.16715647" lon="-73.25311249">
    <tag k="addr:city" v="Vergennes"/>
    <tag k="addr:housenumber" v="253"/>
    <tag k="addr:street" v="Main Street"/>
    <tag k="addr:state" v="VT"/>
    <tag k="ref:vcgi:esiteid" v="265356"/>
  </node>
  <node id="-910" visible="true" lat="44.16470431" lon="-73.25026497">
    <tag k="addr:city" v="Vergennes"/>
    <tag k="addr:housenumber" v="85"/>
    <tag k="addr:street" v="South Maple Street"/>
    <tag k="addr:state" v="VT"/>
    <tag k="ref:vcgi:esiteid" v="265377"/>
  </node>
  <node id="-950" visible="true" lat="44.1679552" lon="-73.25121068">
    <tag k="addr:city" v="Vergennes"/>
    <tag k="addr:housenumber" v="155"/>
    <tag k="addr:street" v="Main Street"/>
    <tag k="addr:state" v="VT"/>
    <tag k="ref:vcgi:esiteid" v="265419"/>
  </node>
  <node id="-954" visible="true" lat="44.16798519" lon="-73.25112599">
    <tag k="addr:city" v="Vergennes"/>
    <tag k="addr:housenumber" v="151"/>
    <tag k="addr:street" v="Main Street"/>
    <tag k="addr:state" v="VT"/>
    <tag k="ref:vcgi:esiteid" v="265423"/>
  </node>
  <node id="-973" visible="true" lat="44.15693937" lon="-73.24560668">
    <tag k="addr:city" v="Vergennes"/>
    <tag k="addr:housenumber" v="26"/>
    <tag k="addr:street" v="Thomas Circle"/>
    <tag k="addr:state" v="VT"/>
    <tag k="ref:vcgi:esiteid" v="265443"/>
  </node>
  <node id="-974" visible="true" lat="44.15698065" lon="-73.24525888">
    <tag k="addr:city" v="Vergennes"/>
    <tag k="addr:housenumber" v="24"/>
    <tag k="addr:street" v="Thomas Circle"/>
    <tag k="addr:state" v="VT"/>
    <tag k="ref:vcgi:esiteid" v="265444"/>
  </node>
  <node id="-975" visible="true" lat="44.15645452" lon="-73.24510407">
    <tag k="addr:city" v="Vergennes"/>
    <tag k="addr:housenumber" v="21"/>
    <tag k="addr:street" v="Thomas Circle"/>
    <tag k="addr:state" v="VT"/>
    <tag k="ref:vcgi:esiteid" v="265445"/>
  </node>
  <node id="-1026" visible="true" lat="44.15541679" lon="-73.24592715">
    <tag k="addr:city" v="Vergennes"/>
    <tag k="addr:housenumber" v="7"/>
    <tag k="addr:street" v="Thomas Circle"/>
    <tag k="addr:state" v="VT"/>
    <tag k="ref:vcgi:esiteid" v="265501"/>
  </node>
  <node id="-1027" visible="true" lat="44.15639779" lon="-73.24679399">
    <tag k="addr:city" v="Vergennes"/>
    <tag k="addr:housenumber" v="32"/>
    <tag k="addr:street" v="Thomas Circle"/>
    <tag k="addr:state" v="VT"/>
    <tag k="ref:vcgi:esiteid" v="265502"/>
  </node>
  <node id="-1028" visible="true" lat="44.15580776" lon="-73.24431765">
    <tag k="addr:city" v="Vergennes"/>
    <tag k="addr:housenumber" v="16"/>
    <tag k="addr:street" v="Thomas Circle"/>
    <tag k="addr:state" v="VT"/>
    <tag k="ref:vcgi:esiteid" v="265503"/>
  </node>
  <node id="-1029" visible="true" lat="44.15612174" lon="-73.24440387">
    <tag k="addr:city" v="Vergennes"/>
    <tag k="addr:housenumber" v="18"/>
    <tag k="addr:street" v="Thomas Circle"/>
    <tag k="addr:state" v="VT"/>
    <tag k="ref:vcgi:esiteid" v="265504"/>
  </node>
  <node id="-1030" visible="true" lat="44.15643625" lon="-73.24447476">
    <tag k="addr:city" v="Vergennes"/>
    <tag k="addr:housenumber" v="20"/>
    <tag k="addr:street" v="Thomas Circle"/>
    <tag k="addr:state" v="VT"/>
    <tag k="ref:vcgi:esiteid" v="265505"/>
  </node>
  <node id="-1031" visible="true" lat="44.1554514" lon="-73.24516503">
    <tag k="addr:city" v="Vergennes"/>
    <tag k="addr:housenumber" v="11"/>
    <tag k="addr:street" v="Thomas Circle"/>
    <tag k="addr:state" v="VT"/>
    <tag k="ref:vcgi:esiteid" v="265506"/>
  </node>
  <node id="-1032" visible="true" lat="44.15552433" lon="-73.24484943">
    <tag k="addr:city" v="Vergennes"/>
    <tag k="addr:housenumber" v="15"/>
    <tag k="addr:street" v="Thomas Circle"/>
    <tag k="addr:state" v="VT"/>
    <tag k="ref:vcgi:esiteid" v="265507"/>
  </node>
  <node id="-1033" visible="true" lat="44.15597216" lon="-73.24492032">
    <tag k="addr:city" v="Vergennes"/>
    <tag k="addr:housenumber" v="17"/>
    <tag k="addr:street" v="Thomas Circle"/>
    <tag k="addr:state" v="VT"/>
    <tag k="ref:vcgi:esiteid" v="265508"/>
  </node>
  <node id="-1034" visible="true" lat="44.15619515" lon="-73.24497286">
    <tag k="addr:city" v="Vergennes"/>
    <tag k="addr:housenumber" v="19"/>
    <tag k="addr:street" v="Thomas Circle"/>
    <tag k="addr:state" v="VT"/>
    <tag k="ref:vcgi:esiteid" v="265509"/>
  </node>
  <node id="-1035" visible="true" lat="44.15652582" lon="-73.24552463">
    <tag k="addr:city" v="Vergennes"/>
    <tag k="addr:housenumber" v="25"/>
    <tag k="addr:street" v="Thomas Circle"/>
    <tag k="addr:state" v="VT"/>
    <tag k="ref:vcgi:esiteid" v="265510"/>
  </node>
  <node id="-1065" visible="true" lat="44.16740503" lon="-73.25170775">
    <tag k="addr:city" v="Vergennes"/>
    <tag k="addr:housenumber" v="14"/>
    <tag k="addr:street" v="Green Street"/>
    <tag k="addr:state" v="VT"/>
    <tag k="ref:vcgi:esiteid" v="335719"/>
  </node>
  <node id="-1084" visible="true" lat="44.167904" lon="-73.25131082">
    <tag k="addr:city" v="Vergennes"/>
    <tag k="addr:housenumber" v="161"/>
    <tag k="addr:street" v="Main Street"/>
    <tag k="addr:state" v="VT"/>
    <tag k="ref:vcgi:esiteid" v="453848"/>
  </node>
  <node id="-1128" visible="true" lat="44.16740376" lon="-73.25261234">
    <tag k="addr:city" v="Vergennes"/>
    <tag k="addr:housenumber" v="221"/>
    <tag k="addr:street" v="Main Street"/>
    <tag k="addr:state" v="VT"/>
    <tag k="ref:vcgi:esiteid" v="750925"/>
  </node>
  <node id="-1134" visible="true" lat="44.16663594" lon="-73.26072033">
    <tag k="addr:city" v="Vergennes"/>
    <tag k="addr:housenumber" v="15"/>
    <tag k="addr:street" v="Canal Street"/>
    <tag k="addr:state" v="VT"/>
    <tag k="ref:vcgi:esiteid" v="750931"/>
  </node>
  <node id="-1135" visible="true" lat="44.16694011" lon="-73.25956306">
    <tag k="addr:city" v="Vergennes"/>
    <tag k="addr:housenumber" v="16"/>
    <tag k="addr:street" v="Canal Street"/>
    <tag k="addr:state" v="VT"/>
    <tag k="ref:vcgi:esiteid" v="750932"/>
  </node>
</osm>
