<?xml version="1.0" encoding="UTF-8"?>
<osm version="0.6" generator="JOSM" upload="false">
  <node id="-111" visible="true" lat="42.81726365" lon="-72.54816819">
    <tag k="addr:city" v="Vernon"/>
    <tag k="addr:housenumber" v="268"/>
    <tag k="addr:street" v="Fort Bridgman Road"/>
    <tag k="addr:state" v="VT"/>
    <tag k="ref:vcgi:esiteid" v="265537"/>
  </node>
  <node id="-112" visible="true" lat="42.81751322" lon="-72.54828226">
    <tag k="addr:city" v="Vernon"/>
    <tag k="addr:housenumber" v="258"/>
    <tag k="addr:street" v="Fort Bridgman Road"/>
    <tag k="addr:state" v="VT"/>
    <tag k="ref:vcgi:esiteid" v="265538"/>
  </node>
  <node id="-117" visible="true" lat="42.81879422" lon="-72.55056566">
    <tag k="addr:city" v="Vernon"/>
    <tag k="addr:housenumber" v="63"/>
    <tag k="addr:street" v="Ox Cart Road"/>
    <tag k="addr:state" v="VT"/>
    <tag k="ref:vcgi:esiteid" v="265543"/>
  </node>
  <node id="-118" visible="true" lat="42.81825021" lon="-72.54924828">
    <tag k="addr:city" v="Vernon"/>
    <tag k="addr:housenumber" v="35"/>
    <tag k="addr:street" v="Ox Cart Road"/>
    <tag k="addr:state" v="VT"/>
    <tag k="ref:vcgi:esiteid" v="265544"/>
  </node>
  <node id="-123" visible="true" lat="42.81860616" lon="-72.54923646">
    <tag k="addr:city" v="Vernon"/>
    <tag k="addr:housenumber" v="28"/>
    <tag k="addr:street" v="Ox Cart Road"/>
    <tag k="addr:state" v="VT"/>
    <tag k="ref:vcgi:esiteid" v="265549"/>
  </node>
  <node id="-124" visible="true" lat="42.81859483" lon="-72.54898798">
    <tag k="addr:city" v="Vernon"/>
    <tag k="addr:housenumber" v="24"/>
    <tag k="addr:street" v="Ox Cart Road"/>
    <tag k="addr:state" v="VT"/>
    <tag k="ref:vcgi:esiteid" v="265550"/>
  </node>
  <node id="-125" visible="true" lat="42.81819331" lon="-72.54865033">
    <tag k="addr:city" v="Vernon"/>
    <tag k="addr:housenumber" v="230"/>
    <tag k="addr:street" v="Fort Bridgman Road"/>
    <tag k="addr:state" v="VT"/>
    <tag k="ref:vcgi:esiteid" v="265551"/>
  </node>
  <node id="-129" visible="true" lat="42.80963305" lon="-72.54376954">
    <tag k="addr:city" v="Vernon"/>
    <tag k="addr:housenumber" v="571"/>
    <tag k="addr:street" v="Fort Bridgman Road"/>
    <tag k="addr:state" v="VT"/>
    <tag k="ref:vcgi:esiteid" v="265555"/>
  </node>
  <node id="-130" visible="true" lat="42.80943875" lon="-72.54360636">
    <tag k="addr:city" v="Vernon"/>
    <tag k="addr:housenumber" v="575"/>
    <tag k="addr:street" v="Fort Bridgman Road"/>
    <tag k="addr:state" v="VT"/>
    <tag k="ref:vcgi:esiteid" v="265556"/>
  </node>
  <node id="-141" visible="true" lat="42.7984593" lon="-72.53637794">
    <tag k="addr:city" v="Vernon"/>
    <tag k="addr:housenumber" v="1033"/>
    <tag k="addr:street" v="Fort Bridgman Road"/>
    <tag k="addr:state" v="VT"/>
    <tag k="ref:vcgi:esiteid" v="265569"/>
  </node>
  <node id="-142" visible="true" lat="42.79956539" lon="-72.54692408">
    <tag k="addr:city" v="Vernon"/>
    <tag k="addr:housenumber" v="98"/>
    <tag k="addr:street" v="Ridge Road"/>
    <tag k="addr:state" v="VT"/>
    <tag k="ref:vcgi:esiteid" v="265570"/>
  </node>
  <node id="-143" visible="true" lat="42.80076899" lon="-72.54847819">
    <tag k="addr:city" v="Vernon"/>
    <tag k="addr:housenumber" v="106"/>
    <tag k="addr:street" v="Sunset Hill Road"/>
    <tag k="addr:state" v="VT"/>
    <tag k="ref:vcgi:esiteid" v="265571"/>
  </node>
  <node id="-144" visible="true" lat="42.80006559" lon="-72.54915687">
    <tag k="addr:city" v="Vernon"/>
    <tag k="addr:housenumber" v="78"/>
    <tag k="addr:street" v="Sunset Hill Road"/>
    <tag k="addr:state" v="VT"/>
    <tag k="ref:vcgi:esiteid" v="265572"/>
  </node>
  <node id="-145" visible="true" lat="42.79841945" lon="-72.54967123">
    <tag k="addr:city" v="Vernon"/>
    <tag k="addr:housenumber" v="6"/>
    <tag k="addr:street" v="Sunset Hill Road"/>
    <tag k="addr:state" v="VT"/>
    <tag k="ref:vcgi:esiteid" v="265573"/>
  </node>
  <node id="-147" visible="true" lat="42.79875957" lon="-72.55221052">
    <tag k="addr:city" v="Vernon"/>
    <tag k="addr:housenumber" v="28"/>
    <tag k="addr:street" v="Laurel Ledges"/>
    <tag k="addr:state" v="VT"/>
    <tag k="ref:vcgi:esiteid" v="265575"/>
  </node>
  <node id="-149" visible="true" lat="42.80067989" lon="-72.55220333">
    <tag k="addr:city" v="Vernon"/>
    <tag k="addr:housenumber" v="92"/>
    <tag k="addr:street" v="Laurel Ledges"/>
    <tag k="addr:state" v="VT"/>
    <tag k="ref:vcgi:esiteid" v="265577"/>
  </node>
  <node id="-150" visible="true" lat="42.8018524" lon="-72.55242582">
    <tag k="addr:city" v="Vernon"/>
    <tag k="addr:housenumber" v="152"/>
    <tag k="addr:street" v="Laurel Ledges"/>
    <tag k="addr:state" v="VT"/>
    <tag k="ref:vcgi:esiteid" v="265578"/>
  </node>
  <node id="-154" visible="true" lat="42.79852413" lon="-72.55329111">
    <tag k="addr:city" v="Vernon"/>
    <tag k="addr:housenumber" v="1"/>
    <tag k="addr:street" v="Laurel Ledges"/>
    <tag k="addr:state" v="VT"/>
    <tag k="ref:vcgi:esiteid" v="265582"/>
  </node>
  <node id="-161" visible="true" lat="42.79871781" lon="-72.55472734">
    <tag k="addr:city" v="Vernon"/>
    <tag k="addr:housenumber" v="457"/>
    <tag k="addr:street" v="Franklin Road"/>
    <tag k="addr:state" v="VT"/>
    <tag k="ref:vcgi:esiteid" v="265589"/>
  </node>
  <node id="-168" visible="true" lat="42.79723418" lon="-72.55319492">
    <tag k="addr:city" v="Vernon"/>
    <tag k="addr:housenumber" v="383"/>
    <tag k="addr:street" v="Franklin Road"/>
    <tag k="addr:state" v="VT"/>
    <tag k="ref:vcgi:esiteid" v="265598"/>
  </node>
  <node id="-169" visible="true" lat="42.79687361" lon="-72.55312022">
    <tag k="addr:city" v="Vernon"/>
    <tag k="addr:housenumber" v="365"/>
    <tag k="addr:street" v="Franklin Road"/>
    <tag k="addr:state" v="VT"/>
    <tag k="ref:vcgi:esiteid" v="265599"/>
  </node>
  <node id="-170" visible="true" lat="42.79612467" lon="-72.55316173">
    <tag k="addr:city" v="Vernon"/>
    <tag k="addr:housenumber" v="355"/>
    <tag k="addr:street" v="Franklin Road"/>
    <tag k="addr:state" v="VT"/>
    <tag k="ref:vcgi:esiteid" v="265600"/>
  </node>
  <node id="-172" visible="true" lat="42.79563306" lon="-72.55316907">
    <tag k="addr:city" v="Vernon"/>
    <tag k="addr:housenumber" v="333"/>
    <tag k="addr:street" v="Franklin Road"/>
    <tag k="addr:state" v="VT"/>
    <tag k="ref:vcgi:esiteid" v="265602"/>
  </node>
  <node id="-173" visible="true" lat="42.79513005" lon="-72.55309878">
    <tag k="addr:city" v="Vernon"/>
    <tag k="addr:housenumber" v="303"/>
    <tag k="addr:street" v="Franklin Road"/>
    <tag k="addr:state" v="VT"/>
    <tag k="ref:vcgi:esiteid" v="265603"/>
  </node>
  <node id="-175" visible="true" lat="42.79515604" lon="-72.55252959">
    <tag k="addr:city" v="Vernon"/>
    <tag k="addr:housenumber" v="296"/>
    <tag k="addr:street" v="Franklin Road"/>
    <tag k="addr:state" v="VT"/>
    <tag k="ref:vcgi:esiteid" v="265605"/>
  </node>
  <node id="-176" visible="true" lat="42.79606205" lon="-72.55261056">
    <tag k="addr:city" v="Vernon"/>
    <tag k="addr:housenumber" v="338"/>
    <tag k="addr:street" v="Franklin Road"/>
    <tag k="addr:state" v="VT"/>
    <tag k="ref:vcgi:esiteid" v="265606"/>
  </node>
  <node id="-177" visible="true" lat="42.7962565" lon="-72.55238563">
    <tag k="addr:city" v="Vernon"/>
    <tag k="addr:housenumber" v="340"/>
    <tag k="addr:street" v="Franklin Road"/>
    <tag k="addr:state" v="VT"/>
    <tag k="ref:vcgi:esiteid" v="265607"/>
  </node>
  <node id="-178" visible="true" lat="42.79657081" lon="-72.55170724">
    <tag k="addr:city" v="Vernon"/>
    <tag k="addr:housenumber" v="360"/>
    <tag k="addr:street" v="Franklin Road"/>
    <tag k="addr:state" v="VT"/>
    <tag k="ref:vcgi:esiteid" v="265608"/>
  </node>
  <node id="-179" visible="true" lat="42.79723109" lon="-72.5524431">
    <tag k="addr:city" v="Vernon"/>
    <tag k="addr:housenumber" v="368"/>
    <tag k="addr:street" v="Franklin Road"/>
    <tag k="addr:state" v="VT"/>
    <tag k="ref:vcgi:esiteid" v="265609"/>
  </node>
  <node id="-180" visible="true" lat="42.79859545" lon="-72.55097149">
    <tag k="addr:city" v="Vernon"/>
    <tag k="addr:housenumber" v="66"/>
    <tag k="addr:street" v="Cushing Lot Road"/>
    <tag k="addr:state" v="VT"/>
    <tag k="ref:vcgi:esiteid" v="265610"/>
  </node>
  <node id="-181" visible="true" lat="42.79769235" lon="-72.54896363">
    <tag k="addr:city" v="Vernon"/>
    <tag k="addr:housenumber" v="125"/>
    <tag k="addr:street" v="Cushing Lot Road"/>
    <tag k="addr:state" v="VT"/>
    <tag k="ref:vcgi:esiteid" v="265611"/>
  </node>
  <node id="-182" visible="true" lat="42.79755221" lon="-72.55559246">
    <tag k="addr:city" v="Vernon"/>
    <tag k="addr:housenumber" v="445"/>
    <tag k="addr:street" v="Franklin Road"/>
    <tag k="addr:state" v="VT"/>
    <tag k="ref:vcgi:esiteid" v="265612"/>
  </node>
  <node id="-183" visible="true" lat="42.79753274" lon="-72.54791559">
    <tag k="addr:city" v="Vernon"/>
    <tag k="addr:housenumber" v="21"/>
    <tag k="addr:street" v="Ridge Road"/>
    <tag k="addr:state" v="VT"/>
    <tag k="ref:vcgi:esiteid" v="265613"/>
  </node>
  <node id="-184" visible="true" lat="42.79797908" lon="-72.5469617">
    <tag k="addr:city" v="Vernon"/>
    <tag k="addr:housenumber" v="195"/>
    <tag k="addr:street" v="Cushing Lot Road"/>
    <tag k="addr:state" v="VT"/>
    <tag k="ref:vcgi:esiteid" v="265614"/>
  </node>
  <node id="-186" visible="true" lat="42.79807991" lon="-72.53699094">
    <tag k="addr:city" v="Vernon"/>
    <tag k="addr:housenumber" v="1040"/>
    <tag k="addr:street" v="Fort Bridgman Road"/>
    <tag k="addr:state" v="VT"/>
    <tag k="ref:vcgi:esiteid" v="265616"/>
  </node>
  <node id="-187" visible="true" lat="42.7972169" lon="-72.53648588">
    <tag k="addr:city" v="Vernon"/>
    <tag k="addr:housenumber" v="1076"/>
    <tag k="addr:street" v="Fort Bridgman Road"/>
    <tag k="addr:state" v="VT"/>
    <tag k="ref:vcgi:esiteid" v="265617"/>
  </node>
  <node id="-195" visible="true" lat="42.79281126" lon="-72.54752052">
    <tag k="addr:city" v="Vernon"/>
    <tag k="addr:housenumber" v="155"/>
    <tag k="addr:street" v="Skyline Drive"/>
    <tag k="addr:state" v="VT"/>
    <tag k="ref:vcgi:esiteid" v="265625"/>
  </node>
  <node id="-196" visible="true" lat="42.79385845" lon="-72.55157949">
    <tag k="addr:city" v="Vernon"/>
    <tag k="addr:housenumber" v="15"/>
    <tag k="addr:street" v="Skyline Drive"/>
    <tag k="addr:state" v="VT"/>
    <tag k="ref:vcgi:esiteid" v="265626"/>
  </node>
  <node id="-197" visible="true" lat="42.79308367" lon="-72.55206138">
    <tag k="addr:city" v="Vernon"/>
    <tag k="addr:housenumber" v="216"/>
    <tag k="addr:street" v="Franklin Road"/>
    <tag k="addr:state" v="VT"/>
    <tag k="ref:vcgi:esiteid" v="265627"/>
  </node>
  <node id="-198" visible="true" lat="42.79246519" lon="-72.55194668">
    <tag k="addr:city" v="Vernon"/>
    <tag k="addr:housenumber" v="208"/>
    <tag k="addr:street" v="Franklin Road"/>
    <tag k="addr:state" v="VT"/>
    <tag k="ref:vcgi:esiteid" v="265628"/>
  </node>
  <node id="-199" visible="true" lat="42.79215091" lon="-72.55168252">
    <tag k="addr:city" v="Vernon"/>
    <tag k="addr:housenumber" v="196"/>
    <tag k="addr:street" v="Franklin Road"/>
    <tag k="addr:state" v="VT"/>
    <tag k="ref:vcgi:esiteid" v="265629"/>
  </node>
  <node id="-200" visible="true" lat="42.79195087" lon="-72.55160473">
    <tag k="addr:city" v="Vernon"/>
    <tag k="addr:housenumber" v="184"/>
    <tag k="addr:street" v="Franklin Road"/>
    <tag k="addr:state" v="VT"/>
    <tag k="ref:vcgi:esiteid" v="265630"/>
  </node>
  <node id="-201" visible="true" lat="42.79156563" lon="-72.55163501">
    <tag k="addr:city" v="Vernon"/>
    <tag k="addr:housenumber" v="172"/>
    <tag k="addr:street" v="Franklin Road"/>
    <tag k="addr:state" v="VT"/>
    <tag k="ref:vcgi:esiteid" v="265631"/>
  </node>
  <node id="-202" visible="true" lat="42.79085447" lon="-72.55165591">
    <tag k="addr:city" v="Vernon"/>
    <tag k="addr:housenumber" v="148"/>
    <tag k="addr:street" v="Franklin Road"/>
    <tag k="addr:state" v="VT"/>
    <tag k="ref:vcgi:esiteid" v="265632"/>
  </node>
  <node id="-203" visible="true" lat="42.79039375" lon="-72.55019173">
    <tag k="addr:city" v="Vernon"/>
    <tag k="addr:housenumber" v="92"/>
    <tag k="addr:street" v="Stoney Acres Road"/>
    <tag k="addr:state" v="VT"/>
    <tag k="ref:vcgi:esiteid" v="265633"/>
  </node>
  <node id="-205" visible="true" lat="42.78883498" lon="-72.5618699">
    <tag k="addr:city" v="Vernon"/>
    <tag k="addr:housenumber" v="1024"/>
    <tag k="addr:street" v="Tyler Hill Road"/>
    <tag k="addr:state" v="VT"/>
    <tag k="ref:vcgi:esiteid" v="265635"/>
  </node>
  <node id="-207" visible="true" lat="42.78893489" lon="-72.55848608">
    <tag k="addr:city" v="Vernon"/>
    <tag k="addr:housenumber" v="952"/>
    <tag k="addr:street" v="Tyler Hill Road"/>
    <tag k="addr:state" v="VT"/>
    <tag k="ref:vcgi:esiteid" v="265637"/>
  </node>
  <node id="-208" visible="true" lat="42.78772004" lon="-72.55659649">
    <tag k="addr:city" v="Vernon"/>
    <tag k="addr:housenumber" v="870"/>
    <tag k="addr:street" v="Tyler Hill Road"/>
    <tag k="addr:state" v="VT"/>
    <tag k="ref:vcgi:esiteid" v="265638"/>
  </node>
  <node id="-209" visible="true" lat="42.78701559" lon="-72.55946087">
    <tag k="addr:city" v="Vernon"/>
    <tag k="addr:housenumber" v="931"/>
    <tag k="addr:street" v="Tyler Hill Road"/>
    <tag k="addr:state" v="VT"/>
    <tag k="ref:vcgi:esiteid" v="265639"/>
  </node>
  <node id="-210" visible="true" lat="42.78659285" lon="-72.55384872">
    <tag k="addr:city" v="Vernon"/>
    <tag k="addr:housenumber" v="793"/>
    <tag k="addr:street" v="Tyler Hill Road"/>
    <tag k="addr:state" v="VT"/>
    <tag k="ref:vcgi:esiteid" v="265640"/>
  </node>
  <node id="-213" visible="true" lat="42.78733651" lon="-72.54844376">
    <tag k="addr:city" v="Vernon"/>
    <tag k="addr:housenumber" v="656"/>
    <tag k="addr:street" v="Tyler Hill Road"/>
    <tag k="addr:state" v="VT"/>
    <tag k="ref:vcgi:esiteid" v="265643"/>
  </node>
  <node id="-215" visible="true" lat="42.78827767" lon="-72.55090869">
    <tag k="addr:city" v="Vernon"/>
    <tag k="addr:housenumber" v="52"/>
    <tag k="addr:street" v="Franklin Road"/>
    <tag k="addr:state" v="VT"/>
    <tag k="ref:vcgi:esiteid" v="265645"/>
  </node>
  <node id="-218" visible="true" lat="42.78673623" lon="-72.55165705">
    <tag k="addr:city" v="Vernon"/>
    <tag k="addr:housenumber" v="729"/>
    <tag k="addr:street" v="Tyler Hill Road"/>
    <tag k="addr:state" v="VT"/>
    <tag k="ref:vcgi:esiteid" v="265648"/>
  </node>
  <node id="-219" visible="true" lat="42.78640309" lon="-72.5477976">
    <tag k="addr:city" v="Vernon"/>
    <tag k="addr:housenumber" v="621"/>
    <tag k="addr:street" v="Tyler Hill Road"/>
    <tag k="addr:state" v="VT"/>
    <tag k="ref:vcgi:esiteid" v="265649"/>
  </node>
  <node id="-220" visible="true" lat="42.78660927" lon="-72.5468535">
    <tag k="addr:city" v="Vernon"/>
    <tag k="addr:housenumber" v="594"/>
    <tag k="addr:street" v="Tyler Hill Road"/>
    <tag k="addr:state" v="VT"/>
    <tag k="ref:vcgi:esiteid" v="265650"/>
  </node>
  <node id="-221" visible="true" lat="42.78647816" lon="-72.5459402">
    <tag k="addr:city" v="Vernon"/>
    <tag k="addr:housenumber" v="576"/>
    <tag k="addr:street" v="Tyler Hill Road"/>
    <tag k="addr:state" v="VT"/>
    <tag k="ref:vcgi:esiteid" v="265651"/>
  </node>
  <node id="-222" visible="true" lat="42.7862574" lon="-72.54526742">
    <tag k="addr:city" v="Vernon"/>
    <tag k="addr:housenumber" v="570"/>
    <tag k="addr:street" v="Tyler Hill Road"/>
    <tag k="addr:state" v="VT"/>
    <tag k="ref:vcgi:esiteid" v="265652"/>
  </node>
  <node id="-223" visible="true" lat="42.78615288" lon="-72.54454299">
    <tag k="addr:city" v="Vernon"/>
    <tag k="addr:housenumber" v="516"/>
    <tag k="addr:street" v="Tyler Hill Road"/>
    <tag k="addr:state" v="VT"/>
    <tag k="ref:vcgi:esiteid" v="265653"/>
  </node>
  <node id="-224" visible="true" lat="42.78679139" lon="-72.53269756">
    <tag k="addr:city" v="Vernon"/>
    <tag k="addr:housenumber" v="66"/>
    <tag k="addr:street" v="Hubbard Road"/>
    <tag k="addr:state" v="VT"/>
    <tag k="ref:vcgi:esiteid" v="265654"/>
  </node>
  <node id="-225" visible="true" lat="42.78884347" lon="-72.53305565">
    <tag k="addr:city" v="Vernon"/>
    <tag k="addr:housenumber" v="1388"/>
    <tag k="addr:street" v="Fort Bridgman Road"/>
    <tag k="addr:state" v="VT"/>
    <tag k="ref:vcgi:esiteid" v="265655"/>
  </node>
  <node id="-227" visible="true" lat="42.78928777" lon="-72.53189687">
    <tag k="addr:city" v="Vernon"/>
    <tag k="addr:housenumber" v="1367"/>
    <tag k="addr:street" v="Fort Bridgman Road"/>
    <tag k="addr:state" v="VT"/>
    <tag k="ref:vcgi:esiteid" v="265657"/>
  </node>
  <node id="-230" visible="true" lat="42.78224678" lon="-72.52333995">
    <tag k="addr:city" v="Vernon"/>
    <tag k="addr:housenumber" v="1741"/>
    <tag k="addr:street" v="Fort Bridgman Road"/>
    <tag k="addr:state" v="VT"/>
    <tag k="ref:vcgi:esiteid" v="265660"/>
  </node>
  <node id="-232" visible="true" lat="42.78235987" lon="-72.52468708">
    <tag k="addr:city" v="Vernon"/>
    <tag k="addr:housenumber" v="1730"/>
    <tag k="addr:street" v="Fort Bridgman Road"/>
    <tag k="addr:state" v="VT"/>
    <tag k="ref:vcgi:esiteid" v="265662"/>
  </node>
  <node id="-234" visible="true" lat="42.78197932" lon="-72.52442437">
    <tag k="addr:city" v="Vernon"/>
    <tag k="addr:housenumber" v="1732"/>
    <tag k="addr:street" v="Fort Bridgman Road"/>
    <tag k="addr:state" v="VT"/>
    <tag k="ref:vcgi:esiteid" v="265664"/>
  </node>
  <node id="-240" visible="true" lat="42.78574373" lon="-72.52781024">
    <tag k="addr:city" v="Vernon"/>
    <tag k="addr:housenumber" v="1569"/>
    <tag k="addr:street" v="Fort Bridgman Road"/>
    <tag k="addr:state" v="VT"/>
    <tag k="ref:vcgi:esiteid" v="265670"/>
  </node>
  <node id="-242" visible="true" lat="42.78573764" lon="-72.5292848">
    <tag k="addr:city" v="Vernon"/>
    <tag k="addr:housenumber" v="1534"/>
    <tag k="addr:street" v="Fort Bridgman Road"/>
    <tag k="addr:state" v="VT"/>
    <tag k="ref:vcgi:esiteid" v="265672"/>
  </node>
  <node id="-243" visible="true" lat="42.78500051" lon="-72.5281669">
    <tag k="addr:city" v="Vernon"/>
    <tag k="addr:housenumber" v="14"/>
    <tag k="addr:street" v="Tyler Hill Road"/>
    <tag k="addr:state" v="VT"/>
    <tag k="ref:vcgi:esiteid" v="265673"/>
  </node>
  <node id="-245" visible="true" lat="42.784178" lon="-72.53126191">
    <tag k="addr:city" v="Vernon"/>
    <tag k="addr:housenumber" v="104"/>
    <tag k="addr:street" v="Tyler Hill Road"/>
    <tag k="addr:state" v="VT"/>
    <tag k="ref:vcgi:esiteid" v="265675"/>
  </node>
  <node id="-247" visible="true" lat="42.78448047" lon="-72.53465331">
    <tag k="addr:city" v="Vernon"/>
    <tag k="addr:housenumber" v="210"/>
    <tag k="addr:street" v="Tyler Hill Road"/>
    <tag k="addr:state" v="VT"/>
    <tag k="ref:vcgi:esiteid" v="265677"/>
  </node>
  <node id="-252" visible="true" lat="42.78394337" lon="-72.53384073">
    <tag k="addr:city" v="Vernon"/>
    <tag k="addr:housenumber" v="189"/>
    <tag k="addr:street" v="Tyler Hill Road"/>
    <tag k="addr:state" v="VT"/>
    <tag k="ref:vcgi:esiteid" v="265682"/>
  </node>
  <node id="-253" visible="true" lat="42.78391544" lon="-72.52979113">
    <tag k="addr:city" v="Vernon"/>
    <tag k="addr:housenumber" v="79"/>
    <tag k="addr:street" v="Tyler Hill Road"/>
    <tag k="addr:state" v="VT"/>
    <tag k="ref:vcgi:esiteid" v="265683"/>
  </node>
  <node id="-254" visible="true" lat="42.78401271" lon="-72.52945747">
    <tag k="addr:city" v="Vernon"/>
    <tag k="addr:housenumber" v="69"/>
    <tag k="addr:street" v="Tyler Hill Road"/>
    <tag k="addr:state" v="VT"/>
    <tag k="ref:vcgi:esiteid" v="265684"/>
  </node>
  <node id="-256" visible="true" lat="42.78409853" lon="-72.52914708">
    <tag k="addr:city" v="Vernon"/>
    <tag k="addr:housenumber" v="61"/>
    <tag k="addr:street" v="Tyler Hill Road"/>
    <tag k="addr:state" v="VT"/>
    <tag k="ref:vcgi:esiteid" v="265686"/>
  </node>
  <node id="-257" visible="true" lat="42.78424915" lon="-72.52851508">
    <tag k="addr:city" v="Vernon"/>
    <tag k="addr:housenumber" v="43"/>
    <tag k="addr:street" v="Tyler Hill Road"/>
    <tag k="addr:state" v="VT"/>
    <tag k="ref:vcgi:esiteid" v="265687"/>
  </node>
  <node id="-258" visible="true" lat="42.7843284" lon="-72.52817507">
    <tag k="addr:city" v="Vernon"/>
    <tag k="addr:housenumber" v="33"/>
    <tag k="addr:street" v="Tyler Hill Road"/>
    <tag k="addr:state" v="VT"/>
    <tag k="ref:vcgi:esiteid" v="265688"/>
  </node>
  <node id="-259" visible="true" lat="42.78443139" lon="-72.52781812">
    <tag k="addr:city" v="Vernon"/>
    <tag k="addr:housenumber" v="23"/>
    <tag k="addr:street" v="Tyler Hill Road"/>
    <tag k="addr:state" v="VT"/>
    <tag k="ref:vcgi:esiteid" v="265689"/>
  </node>
  <node id="-261" visible="true" lat="42.78456491" lon="-72.52712563">
    <tag k="addr:city" v="Vernon"/>
    <tag k="addr:housenumber" v="5"/>
    <tag k="addr:street" v="Tyler Hill Road"/>
    <tag k="addr:state" v="VT"/>
    <tag k="ref:vcgi:esiteid" v="265691"/>
  </node>
  <node id="-262" visible="true" lat="42.78474699" lon="-72.53543471">
    <tag k="addr:city" v="Vernon"/>
    <tag k="addr:housenumber" v="234"/>
    <tag k="addr:street" v="Tyler Hill Road"/>
    <tag k="addr:state" v="VT"/>
    <tag k="ref:vcgi:esiteid" v="265692"/>
  </node>
  <node id="-263" visible="true" lat="42.78457193" lon="-72.53761152">
    <tag k="addr:city" v="Vernon"/>
    <tag k="addr:housenumber" v="324"/>
    <tag k="addr:street" v="Tyler Hill Road"/>
    <tag k="addr:state" v="VT"/>
    <tag k="ref:vcgi:esiteid" v="265693"/>
  </node>
  <node id="-264" visible="true" lat="42.7855463" lon="-72.53843476">
    <tag k="addr:city" v="Vernon"/>
    <tag k="addr:housenumber" v="336"/>
    <tag k="addr:street" v="Tyler Hill Road"/>
    <tag k="addr:state" v="VT"/>
    <tag k="ref:vcgi:esiteid" v="265694"/>
  </node>
  <node id="-265" visible="true" lat="42.78571144" lon="-72.54028195">
    <tag k="addr:city" v="Vernon"/>
    <tag k="addr:housenumber" v="403"/>
    <tag k="addr:street" v="Tyler Hill Road"/>
    <tag k="addr:state" v="VT"/>
    <tag k="ref:vcgi:esiteid" v="265695"/>
  </node>
  <node id="-268" visible="true" lat="42.78587094" lon="-72.54443023">
    <tag k="addr:city" v="Vernon"/>
    <tag k="addr:housenumber" v="530"/>
    <tag k="addr:street" v="Tyler Hill Road"/>
    <tag k="addr:state" v="VT"/>
    <tag k="ref:vcgi:esiteid" v="265698"/>
  </node>
  <node id="-269" visible="true" lat="42.78544288" lon="-72.5426152">
    <tag k="addr:city" v="Vernon"/>
    <tag k="addr:housenumber" v="480"/>
    <tag k="addr:street" v="Tyler Hill Road"/>
    <tag k="addr:state" v="VT"/>
    <tag k="ref:vcgi:esiteid" v="265699"/>
  </node>
  <node id="-270" visible="true" lat="42.78473616" lon="-72.55138954">
    <tag k="addr:city" v="Vernon"/>
    <tag k="addr:housenumber" v="79"/>
    <tag k="addr:street" v="Lillis Pasture Road"/>
    <tag k="addr:state" v="VT"/>
    <tag k="ref:vcgi:esiteid" v="265700"/>
  </node>
  <node id="-271" visible="true" lat="42.78571577" lon="-72.55604817">
    <tag k="addr:city" v="Vernon"/>
    <tag k="addr:housenumber" v="863"/>
    <tag k="addr:street" v="Tyler Hill Road"/>
    <tag k="addr:state" v="VT"/>
    <tag k="ref:vcgi:esiteid" v="265701"/>
  </node>
  <node id="-274" visible="true" lat="42.78135229" lon="-72.52271232">
    <tag k="addr:city" v="Vernon"/>
    <tag k="addr:housenumber" v="612"/>
    <tag k="addr:street" v="Governor Hunt Road"/>
    <tag k="addr:state" v="VT"/>
    <tag k="ref:vcgi:esiteid" v="265704"/>
  </node>
  <node id="-275" visible="true" lat="42.78171714" lon="-72.52297566">
    <tag k="addr:city" v="Vernon"/>
    <tag k="addr:housenumber" v="628"/>
    <tag k="addr:street" v="Governor Hunt Road"/>
    <tag k="addr:state" v="VT"/>
    <tag k="ref:vcgi:esiteid" v="265705"/>
  </node>
  <node id="-276" visible="true" lat="42.78080929" lon="-72.52284413">
    <tag k="addr:city" v="Vernon"/>
    <tag k="addr:housenumber" v="1793"/>
    <tag k="addr:street" v="Fort Bridgman Road"/>
    <tag k="addr:state" v="VT"/>
    <tag k="ref:vcgi:esiteid" v="265706"/>
  </node>
  <node id="-278" visible="true" lat="42.7798805" lon="-72.52179932">
    <tag k="addr:city" v="Vernon"/>
    <tag k="addr:housenumber" v="567"/>
    <tag k="addr:street" v="Governor Hunt Road"/>
    <tag k="addr:state" v="VT"/>
    <tag k="ref:vcgi:esiteid" v="265708"/>
  </node>
  <node id="-279" visible="true" lat="42.77840786" lon="-72.52280954">
    <tag k="addr:city" v="Vernon"/>
    <tag k="addr:housenumber" v="29"/>
    <tag k="addr:street" v="Peck Road"/>
    <tag k="addr:state" v="VT"/>
    <tag k="ref:vcgi:esiteid" v="265709"/>
  </node>
  <node id="-280" visible="true" lat="42.7787739" lon="-72.5218442">
    <tag k="addr:city" v="Vernon"/>
    <tag k="addr:housenumber" v="1875"/>
    <tag k="addr:street" v="Fort Bridgman Road"/>
    <tag k="addr:state" v="VT"/>
    <tag k="ref:vcgi:esiteid" v="265710"/>
  </node>
  <node id="-281" visible="true" lat="42.77844808" lon="-72.52175097">
    <tag k="addr:city" v="Vernon"/>
    <tag k="addr:housenumber" v="1877"/>
    <tag k="addr:street" v="Fort Bridgman Road"/>
    <tag k="addr:state" v="VT"/>
    <tag k="ref:vcgi:esiteid" v="265711"/>
  </node>
  <node id="-283" visible="true" lat="42.77848821" lon="-72.52115346">
    <tag k="addr:city" v="Vernon"/>
    <tag k="addr:housenumber" v="12"/>
    <tag k="addr:street" v="Burrows Road"/>
    <tag k="addr:state" v="VT"/>
    <tag k="ref:vcgi:esiteid" v="265713"/>
  </node>
  <node id="-285" visible="true" lat="42.777472" lon="-72.52146933">
    <tag k="addr:city" v="Vernon"/>
    <tag k="addr:housenumber" v="1919"/>
    <tag k="addr:street" v="Fort Bridgman Road"/>
    <tag k="addr:state" v="VT"/>
    <tag k="ref:vcgi:esiteid" v="265715"/>
  </node>
  <node id="-286" visible="true" lat="42.77828466" lon="-72.51934764">
    <tag k="addr:city" v="Vernon"/>
    <tag k="addr:housenumber" v="477"/>
    <tag k="addr:street" v="Governor Hunt Road"/>
    <tag k="addr:state" v="VT"/>
    <tag k="ref:vcgi:esiteid" v="265716"/>
  </node>
  <node id="-287" visible="true" lat="42.78016125" lon="-72.52090247">
    <tag k="addr:city" v="Vernon"/>
    <tag k="addr:housenumber" v="546"/>
    <tag k="addr:street" v="Governor Hunt Road"/>
    <tag k="addr:state" v="VT"/>
    <tag k="ref:vcgi:esiteid" v="265717"/>
  </node>
  <node id="-289" visible="true" lat="42.77918299" lon="-72.51980991">
    <tag k="addr:city" v="Vernon"/>
    <tag k="addr:housenumber" v="510"/>
    <tag k="addr:street" v="Governor Hunt Road"/>
    <tag k="addr:state" v="VT"/>
    <tag k="ref:vcgi:esiteid" v="265719"/>
  </node>
  <node id="-290" visible="true" lat="42.77862768" lon="-72.51915375">
    <tag k="addr:city" v="Vernon"/>
    <tag k="addr:housenumber" v="486"/>
    <tag k="addr:street" v="Governor Hunt Road"/>
    <tag k="addr:state" v="VT"/>
    <tag k="ref:vcgi:esiteid" v="265720"/>
  </node>
  <node id="-291" visible="true" lat="42.77811711" lon="-72.51847939">
    <tag k="addr:city" v="Vernon"/>
    <tag k="addr:housenumber" v="448"/>
    <tag k="addr:street" v="Governor Hunt Road"/>
    <tag k="addr:state" v="VT"/>
    <tag k="ref:vcgi:esiteid" v="265721"/>
  </node>
  <node id="-292" visible="true" lat="42.77757608" lon="-72.51768773">
    <tag k="addr:city" v="Vernon"/>
    <tag k="addr:housenumber" v="422"/>
    <tag k="addr:street" v="Governor Hunt Road"/>
    <tag k="addr:state" v="VT"/>
    <tag k="ref:vcgi:esiteid" v="265722"/>
  </node>
  <node id="-309" visible="true" lat="42.77693907" lon="-72.5159669">
    <tag k="addr:city" v="Vernon"/>
    <tag k="addr:housenumber" v="394"/>
    <tag k="addr:street" v="Governor Hunt Road"/>
    <tag k="addr:state" v="VT"/>
    <tag k="ref:vcgi:esiteid" v="265748"/>
  </node>
  <node id="-311" visible="true" lat="42.77580436" lon="-72.51544414">
    <tag k="addr:city" v="Vernon"/>
    <tag k="addr:housenumber" v="322"/>
    <tag k="addr:street" v="Governor Hunt Road"/>
    <tag k="addr:state" v="VT"/>
    <tag k="ref:vcgi:esiteid" v="265753"/>
  </node>
  <node id="-313" visible="true" lat="42.77492303" lon="-72.5153124">
    <tag k="addr:city" v="Vernon"/>
    <tag k="addr:housenumber" v="306"/>
    <tag k="addr:street" v="Governor Hunt Road"/>
    <tag k="addr:state" v="VT"/>
    <tag k="ref:vcgi:esiteid" v="265755"/>
  </node>
  <node id="-314" visible="true" lat="42.77458006" lon="-72.5152192">
    <tag k="addr:city" v="Vernon"/>
    <tag k="addr:housenumber" v="298"/>
    <tag k="addr:street" v="Governor Hunt Road"/>
    <tag k="addr:state" v="VT"/>
    <tag k="ref:vcgi:esiteid" v="265756"/>
  </node>
  <node id="-315" visible="true" lat="42.7742143" lon="-72.51511526">
    <tag k="addr:city" v="Vernon"/>
    <tag k="addr:housenumber" v="278"/>
    <tag k="addr:street" v="Governor Hunt Road"/>
    <tag k="addr:state" v="VT"/>
    <tag k="ref:vcgi:esiteid" v="265757"/>
  </node>
  <node id="-318" visible="true" lat="42.77393134" lon="-72.51506088">
    <tag k="addr:city" v="Vernon"/>
    <tag k="addr:housenumber" v="270"/>
    <tag k="addr:street" v="Governor Hunt Road"/>
    <tag k="addr:state" v="VT"/>
    <tag k="ref:vcgi:esiteid" v="265760"/>
  </node>
  <node id="-321" visible="true" lat="42.77513437" lon="-72.51650743">
    <tag k="addr:city" v="Vernon"/>
    <tag k="addr:housenumber" v="327"/>
    <tag k="addr:street" v="Governor Hunt Road"/>
    <tag k="addr:state" v="VT"/>
    <tag k="ref:vcgi:esiteid" v="265763"/>
  </node>
  <node id="-322" visible="true" lat="42.77535639" lon="-72.51678592">
    <tag k="addr:city" v="Vernon"/>
    <tag k="addr:housenumber" v="341"/>
    <tag k="addr:street" v="Governor Hunt Road"/>
    <tag k="addr:state" v="VT"/>
    <tag k="ref:vcgi:esiteid" v="265764"/>
  </node>
  <node id="-323" visible="true" lat="42.77588037" lon="-72.51690039">
    <tag k="addr:city" v="Vernon"/>
    <tag k="addr:housenumber" v="349"/>
    <tag k="addr:street" v="Governor Hunt Road"/>
    <tag k="addr:state" v="VT"/>
    <tag k="ref:vcgi:esiteid" v="265765"/>
  </node>
  <node id="-328" visible="true" lat="42.77731013" lon="-72.52114799">
    <tag k="addr:city" v="Vernon"/>
    <tag k="addr:housenumber" v="1927"/>
    <tag k="addr:street" v="Fort Bridgman Road"/>
    <tag k="addr:state" v="VT"/>
    <tag k="ref:vcgi:esiteid" v="265771"/>
  </node>
  <node id="-329" visible="true" lat="42.77672448" lon="-72.52122306">
    <tag k="addr:city" v="Vernon"/>
    <tag k="addr:housenumber" v="1945"/>
    <tag k="addr:street" v="Fort Bridgman Road"/>
    <tag k="addr:state" v="VT"/>
    <tag k="ref:vcgi:esiteid" v="265772"/>
  </node>
  <node id="-331" visible="true" lat="42.77646726" lon="-72.5211221">
    <tag k="addr:city" v="Vernon"/>
    <tag k="addr:housenumber" v="1957"/>
    <tag k="addr:street" v="Fort Bridgman Road"/>
    <tag k="addr:state" v="VT"/>
    <tag k="ref:vcgi:esiteid" v="265774"/>
  </node>
  <node id="-333" visible="true" lat="42.77491941" lon="-72.52064022">
    <tag k="addr:city" v="Vernon"/>
    <tag k="addr:housenumber" v="2001"/>
    <tag k="addr:street" v="Fort Bridgman Road"/>
    <tag k="addr:state" v="VT"/>
    <tag k="ref:vcgi:esiteid" v="265776"/>
  </node>
  <node id="-335" visible="true" lat="42.77439634" lon="-72.52075514">
    <tag k="addr:city" v="Vernon"/>
    <tag k="addr:housenumber" v="2031"/>
    <tag k="addr:street" v="Fort Bridgman Road"/>
    <tag k="addr:state" v="VT"/>
    <tag k="ref:vcgi:esiteid" v="265778"/>
  </node>
  <node id="-336" visible="true" lat="42.77347295" lon="-72.52041756">
    <tag k="addr:city" v="Vernon"/>
    <tag k="addr:housenumber" v="2069"/>
    <tag k="addr:street" v="Fort Bridgman Road"/>
    <tag k="addr:state" v="VT"/>
    <tag k="ref:vcgi:esiteid" v="265779"/>
  </node>
  <node id="-337" visible="true" lat="42.77530501" lon="-72.52201379">
    <tag k="addr:city" v="Vernon"/>
    <tag k="addr:housenumber" v="1986"/>
    <tag k="addr:street" v="Fort Bridgman Road"/>
    <tag k="addr:state" v="VT"/>
    <tag k="ref:vcgi:esiteid" v="265780"/>
  </node>
  <node id="-339" visible="true" lat="42.77079146" lon="-72.52209586">
    <tag k="addr:city" v="Vernon"/>
    <tag k="addr:housenumber" v="106"/>
    <tag k="addr:street" v="Rinfret Drive"/>
    <tag k="addr:state" v="VT"/>
    <tag k="ref:vcgi:esiteid" v="265782"/>
  </node>
  <node id="-341" visible="true" lat="42.7703634" lon="-72.52089087">
    <tag k="addr:city" v="Vernon"/>
    <tag k="addr:housenumber" v="20"/>
    <tag k="addr:street" v="Rinfret Drive"/>
    <tag k="addr:state" v="VT"/>
    <tag k="ref:vcgi:esiteid" v="265784"/>
  </node>
  <node id="-342" visible="true" lat="42.77139236" lon="-72.52086018">
    <tag k="addr:city" v="Vernon"/>
    <tag k="addr:housenumber" v="22"/>
    <tag k="addr:street" v="Rinfret Drive"/>
    <tag k="addr:state" v="VT"/>
    <tag k="ref:vcgi:esiteid" v="265785"/>
  </node>
  <node id="-343" visible="true" lat="42.7719611" lon="-72.52108927">
    <tag k="addr:city" v="Vernon"/>
    <tag k="addr:housenumber" v="13"/>
    <tag k="addr:street" v="Bemis Road"/>
    <tag k="addr:state" v="VT"/>
    <tag k="ref:vcgi:esiteid" v="265786"/>
  </node>
  <node id="-344" visible="true" lat="42.77170945" lon="-72.52174871">
    <tag k="addr:city" v="Vernon"/>
    <tag k="addr:housenumber" v="65"/>
    <tag k="addr:street" v="Bemis Road"/>
    <tag k="addr:state" v="VT"/>
    <tag k="ref:vcgi:esiteid" v="265787"/>
  </node>
  <node id="-345" visible="true" lat="42.77199532" lon="-72.52219766">
    <tag k="addr:city" v="Vernon"/>
    <tag k="addr:housenumber" v="79"/>
    <tag k="addr:street" v="Bemis Road"/>
    <tag k="addr:state" v="VT"/>
    <tag k="ref:vcgi:esiteid" v="265788"/>
  </node>
  <node id="-348" visible="true" lat="42.77295835" lon="-72.5224533">
    <tag k="addr:city" v="Vernon"/>
    <tag k="addr:housenumber" v="48"/>
    <tag k="addr:street" v="Bemis Road"/>
    <tag k="addr:state" v="VT"/>
    <tag k="ref:vcgi:esiteid" v="265791"/>
  </node>
  <node id="-349" visible="true" lat="42.77246797" lon="-72.52197348">
    <tag k="addr:city" v="Vernon"/>
    <tag k="addr:housenumber" v="63"/>
    <tag k="addr:street" v="Bemis Road"/>
    <tag k="addr:state" v="VT"/>
    <tag k="ref:vcgi:esiteid" v="265792"/>
  </node>
  <node id="-350" visible="true" lat="42.77315855" lon="-72.52045626">
    <tag k="addr:city" v="Vernon"/>
    <tag k="addr:housenumber" v="2073"/>
    <tag k="addr:street" v="Fort Bridgman Road"/>
    <tag k="addr:state" v="VT"/>
    <tag k="ref:vcgi:esiteid" v="265793"/>
  </node>
  <node id="-351" visible="true" lat="42.77147844" lon="-72.51976112">
    <tag k="addr:city" v="Vernon"/>
    <tag k="addr:housenumber" v="2145"/>
    <tag k="addr:street" v="Fort Bridgman Road"/>
    <tag k="addr:state" v="VT"/>
    <tag k="ref:vcgi:esiteid" v="265794"/>
  </node>
  <node id="-352" visible="true" lat="42.77080679" lon="-72.51957469">
    <tag k="addr:city" v="Vernon"/>
    <tag k="addr:housenumber" v="2161"/>
    <tag k="addr:street" v="Fort Bridgman Road"/>
    <tag k="addr:state" v="VT"/>
    <tag k="ref:vcgi:esiteid" v="265795"/>
  </node>
  <node id="-354" visible="true" lat="42.77028091" lon="-72.51940383">
    <tag k="addr:city" v="Vernon"/>
    <tag k="addr:housenumber" v="2191"/>
    <tag k="addr:street" v="Fort Bridgman Road"/>
    <tag k="addr:state" v="VT"/>
    <tag k="ref:vcgi:esiteid" v="265798"/>
  </node>
  <node id="-356" visible="true" lat="42.76992654" lon="-72.51914767">
    <tag k="addr:city" v="Vernon"/>
    <tag k="addr:housenumber" v="2193"/>
    <tag k="addr:street" v="Fort Bridgman Road"/>
    <tag k="addr:state" v="VT"/>
    <tag k="ref:vcgi:esiteid" v="265800"/>
  </node>
  <node id="-357" visible="true" lat="42.76931766" lon="-72.51884995">
    <tag k="addr:city" v="Vernon"/>
    <tag k="addr:housenumber" v="2209"/>
    <tag k="addr:street" v="Fort Bridgman Road"/>
    <tag k="addr:state" v="VT"/>
    <tag k="ref:vcgi:esiteid" v="265801"/>
  </node>
  <node id="-359" visible="true" lat="42.7695065" lon="-72.51759695">
    <tag k="addr:city" v="Vernon"/>
    <tag k="addr:housenumber" v="101"/>
    <tag k="addr:street" v="Governor Hunt Road"/>
    <tag k="addr:state" v="VT"/>
    <tag k="ref:vcgi:esiteid" v="265803"/>
  </node>
  <node id="-360" visible="true" lat="42.76905489" lon="-72.51767441">
    <tag k="addr:city" v="Vernon"/>
    <tag k="addr:housenumber" v="83"/>
    <tag k="addr:street" v="Governor Hunt Road"/>
    <tag k="addr:state" v="VT"/>
    <tag k="ref:vcgi:esiteid" v="265804"/>
  </node>
  <node id="-361" visible="true" lat="42.76878068" lon="-72.51815532">
    <tag k="addr:city" v="Vernon"/>
    <tag k="addr:housenumber" v="67"/>
    <tag k="addr:street" v="Governor Hunt Road"/>
    <tag k="addr:state" v="VT"/>
    <tag k="ref:vcgi:esiteid" v="265805"/>
  </node>
  <node id="-363" visible="true" lat="42.76811759" lon="-72.51809305">
    <tag k="addr:city" v="Vernon"/>
    <tag k="addr:housenumber" v="47"/>
    <tag k="addr:street" v="Governor Hunt Road"/>
    <tag k="addr:state" v="VT"/>
    <tag k="ref:vcgi:esiteid" v="265807"/>
  </node>
  <node id="-364" visible="true" lat="42.7675573" lon="-72.51784738">
    <tag k="addr:city" v="Vernon"/>
    <tag k="addr:housenumber" v="17"/>
    <tag k="addr:street" v="Governor Hunt Road"/>
    <tag k="addr:state" v="VT"/>
    <tag k="ref:vcgi:esiteid" v="265808"/>
  </node>
  <node id="-366" visible="true" lat="42.76681414" lon="-72.51718499">
    <tag k="addr:city" v="Vernon"/>
    <tag k="addr:housenumber" v="2"/>
    <tag k="addr:street" v="Governor Hunt Road"/>
    <tag k="addr:state" v="VT"/>
    <tag k="ref:vcgi:esiteid" v="265810"/>
  </node>
  <node id="-369" visible="true" lat="42.76785453" lon="-72.51715424">
    <tag k="addr:city" v="Vernon"/>
    <tag k="addr:housenumber" v="34"/>
    <tag k="addr:street" v="Governor Hunt Road"/>
    <tag k="addr:state" v="VT"/>
    <tag k="ref:vcgi:esiteid" v="265813"/>
  </node>
  <node id="-370" visible="true" lat="42.77025415" lon="-72.52194049">
    <tag k="addr:city" v="Vernon"/>
    <tag k="addr:housenumber" v="84"/>
    <tag k="addr:street" v="Rinfret Drive"/>
    <tag k="addr:state" v="VT"/>
    <tag k="ref:vcgi:esiteid" v="265814"/>
  </node>
  <node id="-371" visible="true" lat="42.76975108" lon="-72.52207997">
    <tag k="addr:city" v="Vernon"/>
    <tag k="addr:housenumber" v="67"/>
    <tag k="addr:street" v="Rinfret Drive"/>
    <tag k="addr:state" v="VT"/>
    <tag k="ref:vcgi:esiteid" v="265815"/>
  </node>
  <node id="-373" visible="true" lat="42.76781765" lon="-72.52975814">
    <tag k="addr:city" v="Vernon"/>
    <tag k="addr:housenumber" v="241"/>
    <tag k="addr:street" v="Sak Road"/>
    <tag k="addr:state" v="VT"/>
    <tag k="ref:vcgi:esiteid" v="265817"/>
  </node>
  <node id="-374" visible="true" lat="42.76686844" lon="-72.52690568">
    <tag k="addr:city" v="Vernon"/>
    <tag k="addr:housenumber" v="170"/>
    <tag k="addr:street" v="Sak Road"/>
    <tag k="addr:state" v="VT"/>
    <tag k="ref:vcgi:esiteid" v="265818"/>
  </node>
  <node id="-375" visible="true" lat="42.76763435" lon="-72.53114297">
    <tag k="addr:city" v="Vernon"/>
    <tag k="addr:housenumber" v="44"/>
    <tag k="addr:street" v="Rocky Ledge Court"/>
    <tag k="addr:state" v="VT"/>
    <tag k="ref:vcgi:esiteid" v="265819"/>
  </node>
  <node id="-377" visible="true" lat="42.76647947" lon="-72.53176307">
    <tag k="addr:city" v="Vernon"/>
    <tag k="addr:housenumber" v="65"/>
    <tag k="addr:street" v="Rocky Ledge Court"/>
    <tag k="addr:state" v="VT"/>
    <tag k="ref:vcgi:esiteid" v="265821"/>
  </node>
  <node id="-378" visible="true" lat="42.76632531" lon="-72.53111516">
    <tag k="addr:city" v="Vernon"/>
    <tag k="addr:housenumber" v="55"/>
    <tag k="addr:street" v="Rocky Ledge Court"/>
    <tag k="addr:state" v="VT"/>
    <tag k="ref:vcgi:esiteid" v="265822"/>
  </node>
  <node id="-379" visible="true" lat="42.76575945" lon="-72.53085497">
    <tag k="addr:city" v="Vernon"/>
    <tag k="addr:housenumber" v="53"/>
    <tag k="addr:street" v="Rocky Ledge Court"/>
    <tag k="addr:state" v="VT"/>
    <tag k="ref:vcgi:esiteid" v="265823"/>
  </node>
  <node id="-380" visible="true" lat="42.76650263" lon="-72.53068465">
    <tag k="addr:city" v="Vernon"/>
    <tag k="addr:housenumber" v="5"/>
    <tag k="addr:street" v="Rocky Ledge Court"/>
    <tag k="addr:state" v="VT"/>
    <tag k="ref:vcgi:esiteid" v="265824"/>
  </node>
  <node id="-381" visible="true" lat="42.76680567" lon="-72.53042101">
    <tag k="addr:city" v="Vernon"/>
    <tag k="addr:housenumber" v="3"/>
    <tag k="addr:street" v="Rocky Ledge Court"/>
    <tag k="addr:state" v="VT"/>
    <tag k="ref:vcgi:esiteid" v="265825"/>
  </node>
  <node id="-382" visible="true" lat="42.76637424" lon="-72.5298234">
    <tag k="addr:city" v="Vernon"/>
    <tag k="addr:housenumber" v="199"/>
    <tag k="addr:street" v="Sak Road"/>
    <tag k="addr:state" v="VT"/>
    <tag k="ref:vcgi:esiteid" v="265826"/>
  </node>
  <node id="-385" visible="true" lat="42.76466267" lon="-72.53483441">
    <tag k="addr:city" v="Vernon"/>
    <tag k="addr:housenumber" v="199"/>
    <tag k="addr:street" v="Fairman Road"/>
    <tag k="addr:state" v="VT"/>
    <tag k="ref:vcgi:esiteid" v="265829"/>
  </node>
  <node id="-386" visible="true" lat="42.76283775" lon="-72.5331111">
    <tag k="addr:city" v="Vernon"/>
    <tag k="addr:housenumber" v="119"/>
    <tag k="addr:street" v="Fairman Road"/>
    <tag k="addr:state" v="VT"/>
    <tag k="ref:vcgi:esiteid" v="265830"/>
  </node>
  <node id="-387" visible="true" lat="42.76244434" lon="-72.53234095">
    <tag k="addr:city" v="Vernon"/>
    <tag k="addr:housenumber" v="91"/>
    <tag k="addr:street" v="Fairman Road"/>
    <tag k="addr:state" v="VT"/>
    <tag k="ref:vcgi:esiteid" v="265831"/>
  </node>
  <node id="-389" visible="true" lat="42.76290653" lon="-72.53245947">
    <tag k="addr:city" v="Vernon"/>
    <tag k="addr:housenumber" v="108"/>
    <tag k="addr:street" v="Fairman Road"/>
    <tag k="addr:state" v="VT"/>
    <tag k="ref:vcgi:esiteid" v="265833"/>
  </node>
  <node id="-391" visible="true" lat="42.76591386" lon="-72.52945232">
    <tag k="addr:city" v="Vernon"/>
    <tag k="addr:housenumber" v="175"/>
    <tag k="addr:street" v="Sak Road"/>
    <tag k="addr:state" v="VT"/>
    <tag k="ref:vcgi:esiteid" v="265835"/>
  </node>
  <node id="-393" visible="true" lat="42.76563379" lon="-72.52934357">
    <tag k="addr:city" v="Vernon"/>
    <tag k="addr:housenumber" v="159"/>
    <tag k="addr:street" v="Sak Road"/>
    <tag k="addr:state" v="VT"/>
    <tag k="ref:vcgi:esiteid" v="265837"/>
  </node>
  <node id="-398" visible="true" lat="42.76504893" lon="-72.52817154">
    <tag k="addr:city" v="Vernon"/>
    <tag k="addr:housenumber" v="138"/>
    <tag k="addr:street" v="Sak Road"/>
    <tag k="addr:state" v="VT"/>
    <tag k="ref:vcgi:esiteid" v="265842"/>
  </node>
  <node id="-399" visible="true" lat="42.76377172" lon="-72.52680966">
    <tag k="addr:city" v="Vernon"/>
    <tag k="addr:housenumber" v="80"/>
    <tag k="addr:street" v="Sak Road"/>
    <tag k="addr:state" v="VT"/>
    <tag k="ref:vcgi:esiteid" v="265843"/>
  </node>
  <node id="-402" visible="true" lat="42.76229108" lon="-72.52555095">
    <tag k="addr:city" v="Vernon"/>
    <tag k="addr:housenumber" v="282"/>
    <tag k="addr:street" v="West Road"/>
    <tag k="addr:state" v="VT"/>
    <tag k="ref:vcgi:esiteid" v="265846"/>
  </node>
  <node id="-404" visible="true" lat="42.7626731" lon="-72.52442041">
    <tag k="addr:city" v="Vernon"/>
    <tag k="addr:housenumber" v="256"/>
    <tag k="addr:street" v="West Road"/>
    <tag k="addr:state" v="VT"/>
    <tag k="ref:vcgi:esiteid" v="265848"/>
  </node>
  <node id="-407" visible="true" lat="42.76309008" lon="-72.52380732">
    <tag k="addr:city" v="Vernon"/>
    <tag k="addr:housenumber" v="51"/>
    <tag k="addr:street" v="Edgewood Drive"/>
    <tag k="addr:state" v="VT"/>
    <tag k="ref:vcgi:esiteid" v="265851"/>
  </node>
  <node id="-408" visible="true" lat="42.76261716" lon="-72.52359969">
    <tag k="addr:city" v="Vernon"/>
    <tag k="addr:housenumber" v="41"/>
    <tag k="addr:street" v="Edgewood Drive"/>
    <tag k="addr:state" v="VT"/>
    <tag k="ref:vcgi:esiteid" v="265852"/>
  </node>
  <node id="-410" visible="true" lat="42.76229707" lon="-72.52346768">
    <tag k="addr:city" v="Vernon"/>
    <tag k="addr:housenumber" v="27"/>
    <tag k="addr:street" v="Edgewood Drive"/>
    <tag k="addr:state" v="VT"/>
    <tag k="ref:vcgi:esiteid" v="265854"/>
  </node>
  <node id="-411" visible="true" lat="42.76191123" lon="-72.52335893">
    <tag k="addr:city" v="Vernon"/>
    <tag k="addr:housenumber" v="11"/>
    <tag k="addr:street" v="Edgewood Drive"/>
    <tag k="addr:state" v="VT"/>
    <tag k="ref:vcgi:esiteid" v="265855"/>
  </node>
  <node id="-412" visible="true" lat="42.7630117" lon="-72.52308005">
    <tag k="addr:city" v="Vernon"/>
    <tag k="addr:housenumber" v="46"/>
    <tag k="addr:street" v="Edgewood Drive"/>
    <tag k="addr:state" v="VT"/>
    <tag k="ref:vcgi:esiteid" v="265856"/>
  </node>
  <node id="-413" visible="true" lat="42.76263173" lon="-72.5230918">
    <tag k="addr:city" v="Vernon"/>
    <tag k="addr:housenumber" v="32"/>
    <tag k="addr:street" v="Edgewood Drive"/>
    <tag k="addr:state" v="VT"/>
    <tag k="ref:vcgi:esiteid" v="265857"/>
  </node>
  <node id="-414" visible="true" lat="42.76228878" lon="-72.52291324">
    <tag k="addr:city" v="Vernon"/>
    <tag k="addr:housenumber" v="18"/>
    <tag k="addr:street" v="Edgewood Drive"/>
    <tag k="addr:state" v="VT"/>
    <tag k="ref:vcgi:esiteid" v="265858"/>
  </node>
  <node id="-418" visible="true" lat="42.76226131" lon="-72.51655637">
    <tag k="addr:city" v="Vernon"/>
    <tag k="addr:housenumber" v="44"/>
    <tag k="addr:street" v="West Road"/>
    <tag k="addr:state" v="VT"/>
    <tag k="ref:vcgi:esiteid" v="265862"/>
  </node>
  <node id="-421" visible="true" lat="42.761861" lon="-72.51500831">
    <tag k="addr:city" v="Vernon"/>
    <tag k="addr:housenumber" v="8"/>
    <tag k="addr:street" v="West Road"/>
    <tag k="addr:state" v="VT"/>
    <tag k="ref:vcgi:esiteid" v="265865"/>
  </node>
  <node id="-422" visible="true" lat="42.76587672" lon="-72.51668819">
    <tag k="addr:city" v="Vernon"/>
    <tag k="addr:housenumber" v="2371"/>
    <tag k="addr:street" v="Fort Bridgman Road"/>
    <tag k="addr:state" v="VT"/>
    <tag k="ref:vcgi:esiteid" v="265866"/>
  </node>
  <node id="-424" visible="true" lat="42.76515083" lon="-72.51606733">
    <tag k="addr:city" v="Vernon"/>
    <tag k="addr:housenumber" v="2373"/>
    <tag k="addr:street" v="Fort Bridgman Road"/>
    <tag k="addr:state" v="VT"/>
    <tag k="ref:vcgi:esiteid" v="265868"/>
  </node>
  <node id="-427" visible="true" lat="42.76333599" lon="-72.51524839">
    <tag k="addr:city" v="Vernon"/>
    <tag k="addr:housenumber" v="2472"/>
    <tag k="addr:street" v="Fort Bridgman Road"/>
    <tag k="addr:state" v="VT"/>
    <tag k="ref:vcgi:esiteid" v="265871"/>
  </node>
  <node id="-428" visible="true" lat="42.76214169" lon="-72.51278377">
    <tag k="addr:city" v="Vernon"/>
    <tag k="addr:housenumber" v="2531"/>
    <tag k="addr:street" v="Fort Bridgman Road"/>
    <tag k="addr:state" v="VT"/>
    <tag k="ref:vcgi:esiteid" v="265872"/>
  </node>
  <node id="-429" visible="true" lat="42.76186159" lon="-72.5128225">
    <tag k="addr:city" v="Vernon"/>
    <tag k="addr:housenumber" v="2533"/>
    <tag k="addr:street" v="Fort Bridgman Road"/>
    <tag k="addr:state" v="VT"/>
    <tag k="ref:vcgi:esiteid" v="265873"/>
  </node>
  <node id="-430" visible="true" lat="42.76201877" lon="-72.51169106">
    <tag k="addr:city" v="Vernon"/>
    <tag k="addr:housenumber" v="2585"/>
    <tag k="addr:street" v="Fort Bridgman Road"/>
    <tag k="addr:state" v="VT"/>
    <tag k="ref:vcgi:esiteid" v="265874"/>
  </node>
  <node id="-432" visible="true" lat="42.76188741" lon="-72.51053511">
    <tag k="addr:city" v="Vernon"/>
    <tag k="addr:housenumber" v="2631"/>
    <tag k="addr:street" v="Fort Bridgman Road"/>
    <tag k="addr:state" v="VT"/>
    <tag k="ref:vcgi:esiteid" v="265876"/>
  </node>
  <node id="-433" visible="true" lat="42.76227338" lon="-72.50917753">
    <tag k="addr:city" v="Vernon"/>
    <tag k="addr:housenumber" v="13"/>
    <tag k="addr:street" v="Greenway Drive"/>
    <tag k="addr:state" v="VT"/>
    <tag k="ref:vcgi:esiteid" v="265877"/>
  </node>
  <node id="-435" visible="true" lat="42.76306805" lon="-72.50798291">
    <tag k="addr:city" v="Vernon"/>
    <tag k="addr:housenumber" v="31"/>
    <tag k="addr:street" v="Greenway Drive"/>
    <tag k="addr:state" v="VT"/>
    <tag k="ref:vcgi:esiteid" v="265879"/>
  </node>
  <node id="-436" visible="true" lat="42.76301381" lon="-72.50693945">
    <tag k="addr:city" v="Vernon"/>
    <tag k="addr:housenumber" v="61"/>
    <tag k="addr:street" v="Greenway Drive"/>
    <tag k="addr:state" v="VT"/>
    <tag k="ref:vcgi:esiteid" v="265880"/>
  </node>
  <node id="-442" visible="true" lat="42.76219075" lon="-72.50506969">
    <tag k="addr:city" v="Vernon"/>
    <tag k="addr:housenumber" v="2777"/>
    <tag k="addr:street" v="Fort Bridgman Road"/>
    <tag k="addr:state" v="VT"/>
    <tag k="ref:vcgi:esiteid" v="265886"/>
  </node>
  <node id="-444" visible="true" lat="42.76296248" lon="-72.50466634">
    <tag k="addr:city" v="Vernon"/>
    <tag k="addr:housenumber" v="300"/>
    <tag k="addr:street" v="Falveys Way"/>
    <tag k="addr:state" v="VT"/>
    <tag k="ref:vcgi:esiteid" v="265888"/>
  </node>
  <node id="-445" visible="true" lat="42.76347694" lon="-72.50515901">
    <tag k="addr:city" v="Vernon"/>
    <tag k="addr:housenumber" v="176"/>
    <tag k="addr:street" v="Falveys Way"/>
    <tag k="addr:state" v="VT"/>
    <tag k="ref:vcgi:esiteid" v="265889"/>
  </node>
  <node id="-446" visible="true" lat="42.7635713" lon="-72.50413495">
    <tag k="addr:city" v="Vernon"/>
    <tag k="addr:housenumber" v="179"/>
    <tag k="addr:street" v="Falveys Way"/>
    <tag k="addr:state" v="VT"/>
    <tag k="ref:vcgi:esiteid" v="265890"/>
  </node>
  <node id="-447" visible="true" lat="42.76392855" lon="-72.5046858">
    <tag k="addr:city" v="Vernon"/>
    <tag k="addr:housenumber" v="90"/>
    <tag k="addr:street" v="Stebbins Road"/>
    <tag k="addr:state" v="VT"/>
    <tag k="ref:vcgi:esiteid" v="265891"/>
  </node>
  <node id="-448" visible="true" lat="42.76427155" lon="-72.50421258">
    <tag k="addr:city" v="Vernon"/>
    <tag k="addr:housenumber" v="102"/>
    <tag k="addr:street" v="Stebbins Road"/>
    <tag k="addr:state" v="VT"/>
    <tag k="ref:vcgi:esiteid" v="265892"/>
  </node>
  <node id="-450" visible="true" lat="42.76782722" lon="-72.49885742">
    <tag k="addr:city" v="Vernon"/>
    <tag k="addr:housenumber" v="301"/>
    <tag k="addr:street" v="Stebbins Road"/>
    <tag k="addr:state" v="VT"/>
    <tag k="ref:vcgi:esiteid" v="265894"/>
  </node>
  <node id="-452" visible="true" lat="42.76701498" lon="-72.49673547">
    <tag k="addr:city" v="Vernon"/>
    <tag k="addr:housenumber" v="353"/>
    <tag k="addr:street" v="Stebbins Road"/>
    <tag k="addr:state" v="VT"/>
    <tag k="ref:vcgi:esiteid" v="265896"/>
  </node>
  <node id="-453" visible="true" lat="42.76728938" lon="-72.49721649">
    <tag k="addr:city" v="Vernon"/>
    <tag k="addr:housenumber" v="345"/>
    <tag k="addr:street" v="Stebbins Road"/>
    <tag k="addr:state" v="VT"/>
    <tag k="ref:vcgi:esiteid" v="265897"/>
  </node>
  <node id="-454" visible="true" lat="42.76586881" lon="-72.49589763">
    <tag k="addr:city" v="Vernon"/>
    <tag k="addr:housenumber" v="410"/>
    <tag k="addr:street" v="Stebbins Road"/>
    <tag k="addr:state" v="VT"/>
    <tag k="ref:vcgi:esiteid" v="265898"/>
  </node>
  <node id="-461" visible="true" lat="42.76740612" lon="-72.49887876">
    <tag k="addr:city" v="Vernon"/>
    <tag k="addr:housenumber" v="296"/>
    <tag k="addr:street" v="Stebbins Road"/>
    <tag k="addr:state" v="VT"/>
    <tag k="ref:vcgi:esiteid" v="265905"/>
  </node>
  <node id="-462" visible="true" lat="42.76623131" lon="-72.49537972">
    <tag k="addr:city" v="Vernon"/>
    <tag k="addr:housenumber" v="403"/>
    <tag k="addr:street" v="Stebbins Road"/>
    <tag k="addr:state" v="VT"/>
    <tag k="ref:vcgi:esiteid" v="265906"/>
  </node>
  <node id="-467" visible="true" lat="42.76182164" lon="-72.49695555">
    <tag k="addr:city" v="Vernon"/>
    <tag k="addr:housenumber" v="2993"/>
    <tag k="addr:street" v="Fort Bridgman Road"/>
    <tag k="addr:state" v="VT"/>
    <tag k="ref:vcgi:esiteid" v="265913"/>
  </node>
  <node id="-468" visible="true" lat="42.76386425" lon="-72.49545425">
    <tag k="addr:city" v="Vernon"/>
    <tag k="addr:housenumber" v="474"/>
    <tag k="addr:street" v="Stebbins Road"/>
    <tag k="addr:state" v="VT"/>
    <tag k="ref:vcgi:esiteid" v="265914"/>
  </node>
  <node id="-469" visible="true" lat="42.76446111" lon="-72.49494152">
    <tag k="addr:city" v="Vernon"/>
    <tag k="addr:housenumber" v="473"/>
    <tag k="addr:street" v="Stebbins Road"/>
    <tag k="addr:state" v="VT"/>
    <tag k="ref:vcgi:esiteid" v="265915"/>
  </node>
  <node id="-470" visible="true" lat="42.76416332" lon="-72.49365497">
    <tag k="addr:city" v="Vernon"/>
    <tag k="addr:housenumber" v="481"/>
    <tag k="addr:street" v="Stebbins Road"/>
    <tag k="addr:state" v="VT"/>
    <tag k="ref:vcgi:esiteid" v="265916"/>
  </node>
  <node id="-475" visible="true" lat="42.76021185" lon="-72.48386905">
    <tag k="addr:city" v="Vernon"/>
    <tag k="addr:housenumber" v="175"/>
    <tag k="addr:street" v="Blodgett Road"/>
    <tag k="addr:state" v="VT"/>
    <tag k="ref:vcgi:esiteid" v="265921"/>
  </node>
  <node id="-476" visible="true" lat="42.75906433" lon="-72.48417836">
    <tag k="addr:city" v="Vernon"/>
    <tag k="addr:housenumber" v="123"/>
    <tag k="addr:street" v="Blodgett Road"/>
    <tag k="addr:state" v="VT"/>
    <tag k="ref:vcgi:esiteid" v="265922"/>
  </node>
  <node id="-478" visible="true" lat="42.75867577" lon="-72.48536535">
    <tag k="addr:city" v="Vernon"/>
    <tag k="addr:housenumber" v="95"/>
    <tag k="addr:street" v="Blodgett Road"/>
    <tag k="addr:state" v="VT"/>
    <tag k="ref:vcgi:esiteid" v="265924"/>
  </node>
  <node id="-479" visible="true" lat="42.75863818" lon="-72.4857332">
    <tag k="addr:city" v="Vernon"/>
    <tag k="addr:housenumber" v="93"/>
    <tag k="addr:street" v="Blodgett Road"/>
    <tag k="addr:state" v="VT"/>
    <tag k="ref:vcgi:esiteid" v="265925"/>
  </node>
  <node id="-481" visible="true" lat="42.75857839" lon="-72.48384491">
    <tag k="addr:city" v="Vernon"/>
    <tag k="addr:housenumber" v="124"/>
    <tag k="addr:street" v="Blodgett Road"/>
    <tag k="addr:state" v="VT"/>
    <tag k="ref:vcgi:esiteid" v="265927"/>
  </node>
  <node id="-484" visible="true" lat="42.75857896" lon="-72.48981895">
    <tag k="addr:city" v="Vernon"/>
    <tag k="addr:housenumber" v="3215"/>
    <tag k="addr:street" v="Fort Bridgman Road"/>
    <tag k="addr:state" v="VT"/>
    <tag k="ref:vcgi:esiteid" v="265930"/>
  </node>
  <node id="-487" visible="true" lat="42.76133002" lon="-72.49677714">
    <tag k="addr:city" v="Vernon"/>
    <tag k="addr:housenumber" v="3007"/>
    <tag k="addr:street" v="Fort Bridgman Road"/>
    <tag k="addr:state" v="VT"/>
    <tag k="ref:vcgi:esiteid" v="265933"/>
  </node>
  <node id="-488" visible="true" lat="42.76134716" lon="-72.49637374">
    <tag k="addr:city" v="Vernon"/>
    <tag k="addr:housenumber" v="3015"/>
    <tag k="addr:street" v="Fort Bridgman Road"/>
    <tag k="addr:state" v="VT"/>
    <tag k="ref:vcgi:esiteid" v="265934"/>
  </node>
  <node id="-489" visible="true" lat="42.76158723" lon="-72.49590049">
    <tag k="addr:city" v="Vernon"/>
    <tag k="addr:housenumber" v="3041"/>
    <tag k="addr:street" v="Fort Bridgman Road"/>
    <tag k="addr:state" v="VT"/>
    <tag k="ref:vcgi:esiteid" v="265935"/>
  </node>
  <node id="-490" visible="true" lat="42.76156435" lon="-72.49544278">
    <tag k="addr:city" v="Vernon"/>
    <tag k="addr:housenumber" v="3043"/>
    <tag k="addr:street" v="Fort Bridgman Road"/>
    <tag k="addr:state" v="VT"/>
    <tag k="ref:vcgi:esiteid" v="265936"/>
  </node>
  <node id="-492" visible="true" lat="42.76104172" lon="-72.4942048">
    <tag k="addr:city" v="Vernon"/>
    <tag k="addr:housenumber" v="3077"/>
    <tag k="addr:street" v="Fort Bridgman Road"/>
    <tag k="addr:state" v="VT"/>
    <tag k="ref:vcgi:esiteid" v="265938"/>
  </node>
  <node id="-493" visible="true" lat="42.76093318" lon="-72.4960072">
    <tag k="addr:city" v="Vernon"/>
    <tag k="addr:housenumber" v="3034"/>
    <tag k="addr:street" v="Fort Bridgman Road"/>
    <tag k="addr:state" v="VT"/>
    <tag k="ref:vcgi:esiteid" v="265939"/>
  </node>
  <node id="-495" visible="true" lat="42.76073307" lon="-72.49499612">
    <tag k="addr:city" v="Vernon"/>
    <tag k="addr:housenumber" v="3062"/>
    <tag k="addr:street" v="Fort Bridgman Road"/>
    <tag k="addr:state" v="VT"/>
    <tag k="ref:vcgi:esiteid" v="265942"/>
  </node>
  <node id="-497" visible="true" lat="42.76051583" lon="-72.49470135">
    <tag k="addr:city" v="Vernon"/>
    <tag k="addr:housenumber" v="3062"/>
    <tag k="addr:street" v="Fort Bridgman Road"/>
    <tag k="addr:state" v="VT"/>
    <tag k="ref:vcgi:esiteid" v="265944"/>
  </node>
  <node id="-499" visible="true" lat="42.76046436" lon="-72.49417383">
    <tag k="addr:city" v="Vernon"/>
    <tag k="addr:housenumber" v="3080"/>
    <tag k="addr:street" v="Fort Bridgman Road"/>
    <tag k="addr:state" v="VT"/>
    <tag k="ref:vcgi:esiteid" v="265946"/>
  </node>
  <node id="-501" visible="true" lat="42.76029856" lon="-72.4936127">
    <tag k="addr:city" v="Vernon"/>
    <tag k="addr:housenumber" v="3098"/>
    <tag k="addr:street" v="Fort Bridgman Road"/>
    <tag k="addr:state" v="VT"/>
    <tag k="ref:vcgi:esiteid" v="265948"/>
  </node>
  <node id="-502" visible="true" lat="42.75974668" lon="-72.49288112">
    <tag k="addr:city" v="Vernon"/>
    <tag k="addr:housenumber" v="9"/>
    <tag k="addr:street" v="Mary Drive"/>
    <tag k="addr:state" v="VT"/>
    <tag k="ref:vcgi:esiteid" v="265949"/>
  </node>
  <node id="-505" visible="true" lat="42.75917768" lon="-72.49174659">
    <tag k="addr:city" v="Vernon"/>
    <tag k="addr:housenumber" v="3172"/>
    <tag k="addr:street" v="Fort Bridgman Road"/>
    <tag k="addr:state" v="VT"/>
    <tag k="ref:vcgi:esiteid" v="265952"/>
  </node>
  <node id="-507" visible="true" lat="42.75897185" lon="-72.4912579">
    <tag k="addr:city" v="Vernon"/>
    <tag k="addr:housenumber" v="3186"/>
    <tag k="addr:street" v="Fort Bridgman Road"/>
    <tag k="addr:state" v="VT"/>
    <tag k="ref:vcgi:esiteid" v="265954"/>
  </node>
  <node id="-526" visible="true" lat="42.76151006" lon="-72.51125652">
    <tag k="addr:city" v="Vernon"/>
    <tag k="addr:housenumber" v="2610"/>
    <tag k="addr:street" v="Fort Bridgman Road"/>
    <tag k="addr:state" v="VT"/>
    <tag k="ref:vcgi:esiteid" v="265973"/>
  </node>
  <node id="-527" visible="true" lat="42.7616588" lon="-72.51003081">
    <tag k="addr:city" v="Vernon"/>
    <tag k="addr:housenumber" v="2636"/>
    <tag k="addr:street" v="Fort Bridgman Road"/>
    <tag k="addr:state" v="VT"/>
    <tag k="ref:vcgi:esiteid" v="265974"/>
  </node>
  <node id="-534" visible="true" lat="42.76100364" lon="-72.51414491">
    <tag k="addr:city" v="Vernon"/>
    <tag k="addr:housenumber" v="27"/>
    <tag k="addr:street" v="Washburn Way"/>
    <tag k="addr:state" v="VT"/>
    <tag k="ref:vcgi:esiteid" v="265981"/>
  </node>
  <node id="-536" visible="true" lat="42.75990726" lon="-72.5139559">
    <tag k="addr:city" v="Vernon"/>
    <tag k="addr:housenumber" v="63"/>
    <tag k="addr:street" v="Washburn Way"/>
    <tag k="addr:state" v="VT"/>
    <tag k="ref:vcgi:esiteid" v="265983"/>
  </node>
  <node id="-537" visible="true" lat="42.75888632" lon="-72.51394962">
    <tag k="addr:city" v="Vernon"/>
    <tag k="addr:housenumber" v="101"/>
    <tag k="addr:street" v="Washburn Way"/>
    <tag k="addr:state" v="VT"/>
    <tag k="ref:vcgi:esiteid" v="265984"/>
  </node>
  <node id="-538" visible="true" lat="42.76029549" lon="-72.51479537">
    <tag k="addr:city" v="Vernon"/>
    <tag k="addr:housenumber" v="42"/>
    <tag k="addr:street" v="Washburn Way"/>
    <tag k="addr:state" v="VT"/>
    <tag k="ref:vcgi:esiteid" v="265985"/>
  </node>
  <node id="-540" visible="true" lat="42.76079904" lon="-72.51485747">
    <tag k="addr:city" v="Vernon"/>
    <tag k="addr:housenumber" v="34"/>
    <tag k="addr:street" v="Washburn Way"/>
    <tag k="addr:state" v="VT"/>
    <tag k="ref:vcgi:esiteid" v="265987"/>
  </node>
  <node id="-541" visible="true" lat="42.76048582" lon="-72.51642919">
    <tag k="addr:city" v="Vernon"/>
    <tag k="addr:housenumber" v="89"/>
    <tag k="addr:street" v="Pond Road"/>
    <tag k="addr:state" v="VT"/>
    <tag k="ref:vcgi:esiteid" v="265988"/>
  </node>
  <node id="-547" visible="true" lat="42.75981674" lon="-72.52041799">
    <tag k="addr:city" v="Vernon"/>
    <tag k="addr:housenumber" v="110"/>
    <tag k="addr:street" v="Pond Road"/>
    <tag k="addr:state" v="VT"/>
    <tag k="ref:vcgi:esiteid" v="265994"/>
  </node>
  <node id="-548" visible="true" lat="42.76058471" lon="-72.52004587">
    <tag k="addr:city" v="Vernon"/>
    <tag k="addr:housenumber" v="143"/>
    <tag k="addr:street" v="West Road"/>
    <tag k="addr:state" v="VT"/>
    <tag k="ref:vcgi:esiteid" v="265995"/>
  </node>
  <node id="-549" visible="true" lat="42.76033333" lon="-72.51920796">
    <tag k="addr:city" v="Vernon"/>
    <tag k="addr:housenumber" v="111"/>
    <tag k="addr:street" v="West Road"/>
    <tag k="addr:state" v="VT"/>
    <tag k="ref:vcgi:esiteid" v="265996"/>
  </node>
  <node id="-550" visible="true" lat="42.76092162" lon="-72.51758004">
    <tag k="addr:city" v="Vernon"/>
    <tag k="addr:housenumber" v="85"/>
    <tag k="addr:street" v="West Road"/>
    <tag k="addr:state" v="VT"/>
    <tag k="ref:vcgi:esiteid" v="265998"/>
  </node>
  <node id="-551" visible="true" lat="42.76087025" lon="-72.51702147">
    <tag k="addr:city" v="Vernon"/>
    <tag k="addr:housenumber" v="78"/>
    <tag k="addr:street" v="Pond Road"/>
    <tag k="addr:state" v="VT"/>
    <tag k="ref:vcgi:esiteid" v="265999"/>
  </node>
  <node id="-553" visible="true" lat="42.76141654" lon="-72.51577053">
    <tag k="addr:city" v="Vernon"/>
    <tag k="addr:housenumber" v="54"/>
    <tag k="addr:street" v="Pond Road"/>
    <tag k="addr:state" v="VT"/>
    <tag k="ref:vcgi:esiteid" v="266001"/>
  </node>
  <node id="-554" visible="true" lat="42.76130683" lon="-72.51801511">
    <tag k="addr:city" v="Vernon"/>
    <tag k="addr:housenumber" v="88"/>
    <tag k="addr:street" v="West Road"/>
    <tag k="addr:state" v="VT"/>
    <tag k="ref:vcgi:esiteid" v="266002"/>
  </node>
  <node id="-555" visible="true" lat="42.76155166" lon="-72.51697045">
    <tag k="addr:city" v="Vernon"/>
    <tag k="addr:housenumber" v="48"/>
    <tag k="addr:street" v="West Road"/>
    <tag k="addr:state" v="VT"/>
    <tag k="ref:vcgi:esiteid" v="266003"/>
  </node>
  <node id="-562" visible="true" lat="42.76137041" lon="-72.51842215">
    <tag k="addr:city" v="Vernon"/>
    <tag k="addr:housenumber" v="96"/>
    <tag k="addr:street" v="West Road"/>
    <tag k="addr:state" v="VT"/>
    <tag k="ref:vcgi:esiteid" v="266010"/>
  </node>
  <node id="-563" visible="true" lat="42.76116206" lon="-72.52586557">
    <tag k="addr:city" v="Vernon"/>
    <tag k="addr:housenumber" v="303"/>
    <tag k="addr:street" v="West Road"/>
    <tag k="addr:state" v="VT"/>
    <tag k="ref:vcgi:esiteid" v="266011"/>
  </node>
  <node id="-564" visible="true" lat="42.76131956" lon="-72.52349059">
    <tag k="addr:city" v="Vernon"/>
    <tag k="addr:housenumber" v="221"/>
    <tag k="addr:street" v="West Road"/>
    <tag k="addr:state" v="VT"/>
    <tag k="ref:vcgi:esiteid" v="266012"/>
  </node>
  <node id="-565" visible="true" lat="42.76181134" lon="-72.5226374">
    <tag k="addr:city" v="Vernon"/>
    <tag k="addr:housenumber" v="210"/>
    <tag k="addr:street" v="West Road"/>
    <tag k="addr:state" v="VT"/>
    <tag k="ref:vcgi:esiteid" v="266013"/>
  </node>
  <node id="-566" visible="true" lat="42.7616406" lon="-72.52192461">
    <tag k="addr:city" v="Vernon"/>
    <tag k="addr:housenumber" v="196"/>
    <tag k="addr:street" v="West Road"/>
    <tag k="addr:state" v="VT"/>
    <tag k="ref:vcgi:esiteid" v="266014"/>
  </node>
  <node id="-567" visible="true" lat="42.76127112" lon="-72.52274194">
    <tag k="addr:city" v="Vernon"/>
    <tag k="addr:housenumber" v="215"/>
    <tag k="addr:street" v="West Road"/>
    <tag k="addr:state" v="VT"/>
    <tag k="ref:vcgi:esiteid" v="266015"/>
  </node>
  <node id="-568" visible="true" lat="42.7612862" lon="-72.52183915">
    <tag k="addr:city" v="Vernon"/>
    <tag k="addr:housenumber" v="191"/>
    <tag k="addr:street" v="West Road"/>
    <tag k="addr:state" v="VT"/>
    <tag k="ref:vcgi:esiteid" v="266016"/>
  </node>
  <node id="-569" visible="true" lat="42.76095479" lon="-72.52110204">
    <tag k="addr:city" v="Vernon"/>
    <tag k="addr:housenumber" v="171"/>
    <tag k="addr:street" v="West Road"/>
    <tag k="addr:state" v="VT"/>
    <tag k="ref:vcgi:esiteid" v="266017"/>
  </node>
  <node id="-570" visible="true" lat="42.76176579" lon="-72.52699369">
    <tag k="addr:city" v="Vernon"/>
    <tag k="addr:housenumber" v="10"/>
    <tag k="addr:street" v="Sak Road"/>
    <tag k="addr:state" v="VT"/>
    <tag k="ref:vcgi:esiteid" v="266018"/>
  </node>
  <node id="-571" visible="true" lat="42.76117552" lon="-72.52846329">
    <tag k="addr:city" v="Vernon"/>
    <tag k="addr:housenumber" v="370"/>
    <tag k="addr:street" v="West Road"/>
    <tag k="addr:state" v="VT"/>
    <tag k="ref:vcgi:esiteid" v="266019"/>
  </node>
  <node id="-572" visible="true" lat="42.7605966" lon="-72.53029712">
    <tag k="addr:city" v="Vernon"/>
    <tag k="addr:housenumber" v="434"/>
    <tag k="addr:street" v="West Road"/>
    <tag k="addr:state" v="VT"/>
    <tag k="ref:vcgi:esiteid" v="266020"/>
  </node>
  <node id="-573" visible="true" lat="42.76176433" lon="-72.53148723">
    <tag k="addr:city" v="Vernon"/>
    <tag k="addr:housenumber" v="59"/>
    <tag k="addr:street" v="Fairman Road"/>
    <tag k="addr:state" v="VT"/>
    <tag k="ref:vcgi:esiteid" v="266021"/>
  </node>
  <node id="-574" visible="true" lat="42.7602014" lon="-72.53420353">
    <tag k="addr:city" v="Vernon"/>
    <tag k="addr:housenumber" v="524"/>
    <tag k="addr:street" v="West Road"/>
    <tag k="addr:state" v="VT"/>
    <tag k="ref:vcgi:esiteid" v="266022"/>
  </node>
  <node id="-575" visible="true" lat="42.76009841" lon="-72.53531273">
    <tag k="addr:city" v="Vernon"/>
    <tag k="addr:housenumber" v="562"/>
    <tag k="addr:street" v="West Road"/>
    <tag k="addr:state" v="VT"/>
    <tag k="ref:vcgi:esiteid" v="266023"/>
  </node>
  <node id="-578" visible="true" lat="42.75909994" lon="-72.53579685">
    <tag k="addr:city" v="Vernon"/>
    <tag k="addr:housenumber" v="592"/>
    <tag k="addr:street" v="West Road"/>
    <tag k="addr:state" v="VT"/>
    <tag k="ref:vcgi:esiteid" v="266026"/>
  </node>
  <node id="-580" visible="true" lat="42.7588256" lon="-72.53561827">
    <tag k="addr:city" v="Vernon"/>
    <tag k="addr:housenumber" v="601"/>
    <tag k="addr:street" v="West Road"/>
    <tag k="addr:state" v="VT"/>
    <tag k="ref:vcgi:esiteid" v="266028"/>
  </node>
  <node id="-582" visible="true" lat="42.75894231" lon="-72.53531682">
    <tag k="addr:city" v="Vernon"/>
    <tag k="addr:housenumber" v="593"/>
    <tag k="addr:street" v="West Road"/>
    <tag k="addr:state" v="VT"/>
    <tag k="ref:vcgi:esiteid" v="266030"/>
  </node>
  <node id="-583" visible="true" lat="42.75906585" lon="-72.5351064">
    <tag k="addr:city" v="Vernon"/>
    <tag k="addr:housenumber" v="575"/>
    <tag k="addr:street" v="West Road"/>
    <tag k="addr:state" v="VT"/>
    <tag k="ref:vcgi:esiteid" v="266031"/>
  </node>
  <node id="-586" visible="true" lat="42.76052257" lon="-72.52919549">
    <tag k="addr:city" v="Vernon"/>
    <tag k="addr:housenumber" v="403"/>
    <tag k="addr:street" v="West Road"/>
    <tag k="addr:state" v="VT"/>
    <tag k="ref:vcgi:esiteid" v="266034"/>
  </node>
  <node id="-593" visible="true" lat="42.75662437" lon="-72.53665092">
    <tag k="addr:city" v="Vernon"/>
    <tag k="addr:housenumber" v="697"/>
    <tag k="addr:street" v="West Road"/>
    <tag k="addr:state" v="VT"/>
    <tag k="ref:vcgi:esiteid" v="266041"/>
  </node>
  <node id="-594" visible="true" lat="42.75804297" lon="-72.5364039">
    <tag k="addr:city" v="Vernon"/>
    <tag k="addr:housenumber" v="633"/>
    <tag k="addr:street" v="West Road"/>
    <tag k="addr:state" v="VT"/>
    <tag k="ref:vcgi:esiteid" v="266042"/>
  </node>
  <node id="-607" visible="true" lat="42.75792866" lon="-72.51586313">
    <tag k="addr:city" v="Vernon"/>
    <tag k="addr:housenumber" v="71"/>
    <tag k="addr:street" v="Central Park Road"/>
    <tag k="addr:state" v="VT"/>
    <tag k="ref:vcgi:esiteid" v="266055"/>
  </node>
  <node id="-609" visible="true" lat="42.7576811" lon="-72.51476604">
    <tag k="addr:city" v="Vernon"/>
    <tag k="addr:housenumber" v="73"/>
    <tag k="addr:street" v="Central Park Road"/>
    <tag k="addr:state" v="VT"/>
    <tag k="ref:vcgi:esiteid" v="266057"/>
  </node>
  <node id="-611" visible="true" lat="42.75751544" lon="-72.51385193">
    <tag k="addr:city" v="Vernon"/>
    <tag k="addr:housenumber" v="54"/>
    <tag k="addr:street" v="Oak Court"/>
    <tag k="addr:state" v="VT"/>
    <tag k="ref:vcgi:esiteid" v="266059"/>
  </node>
  <node id="-612" visible="true" lat="42.75807762" lon="-72.51323534">
    <tag k="addr:city" v="Vernon"/>
    <tag k="addr:housenumber" v="48"/>
    <tag k="addr:street" v="Oak Court"/>
    <tag k="addr:state" v="VT"/>
    <tag k="ref:vcgi:esiteid" v="266060"/>
  </node>
  <node id="-613" visible="true" lat="42.75665333" lon="-72.51283618">
    <tag k="addr:city" v="Vernon"/>
    <tag k="addr:housenumber" v="129"/>
    <tag k="addr:street" v="Central Park Road"/>
    <tag k="addr:state" v="VT"/>
    <tag k="ref:vcgi:esiteid" v="266061"/>
  </node>
  <node id="-614" visible="true" lat="42.75753657" lon="-72.51237545">
    <tag k="addr:city" v="Vernon"/>
    <tag k="addr:housenumber" v="42"/>
    <tag k="addr:street" v="Oak Court"/>
    <tag k="addr:state" v="VT"/>
    <tag k="ref:vcgi:esiteid" v="266062"/>
  </node>
  <node id="-615" visible="true" lat="42.75644433" lon="-72.51165187">
    <tag k="addr:city" v="Vernon"/>
    <tag k="addr:housenumber" v="163"/>
    <tag k="addr:street" v="Central Park Road"/>
    <tag k="addr:state" v="VT"/>
    <tag k="ref:vcgi:esiteid" v="266063"/>
  </node>
  <node id="-616" visible="true" lat="42.75770867" lon="-72.5110619">
    <tag k="addr:city" v="Vernon"/>
    <tag k="addr:housenumber" v="56"/>
    <tag k="addr:street" v="Pine Ridge"/>
    <tag k="addr:state" v="VT"/>
    <tag k="ref:vcgi:esiteid" v="266064"/>
  </node>
  <node id="-617" visible="true" lat="42.75665688" lon="-72.51075271">
    <tag k="addr:city" v="Vernon"/>
    <tag k="addr:housenumber" v="18"/>
    <tag k="addr:street" v="Pine Ridge"/>
    <tag k="addr:state" v="VT"/>
    <tag k="ref:vcgi:esiteid" v="266065"/>
  </node>
  <node id="-619" visible="true" lat="42.75514413" lon="-72.50853587">
    <tag k="addr:city" v="Vernon"/>
    <tag k="addr:housenumber" v="31"/>
    <tag k="addr:street" v="Poplar Lane"/>
    <tag k="addr:state" v="VT"/>
    <tag k="ref:vcgi:esiteid" v="266067"/>
  </node>
  <node id="-620" visible="true" lat="42.75437178" lon="-72.51041037">
    <tag k="addr:city" v="Vernon"/>
    <tag k="addr:housenumber" v="53"/>
    <tag k="addr:street" v="Poplar Lane"/>
    <tag k="addr:state" v="VT"/>
    <tag k="ref:vcgi:esiteid" v="266068"/>
  </node>
  <node id="-621" visible="true" lat="42.75554066" lon="-72.51165364">
    <tag k="addr:city" v="Vernon"/>
    <tag k="addr:housenumber" v="6"/>
    <tag k="addr:street" v="Poplar Lane"/>
    <tag k="addr:state" v="VT"/>
    <tag k="ref:vcgi:esiteid" v="266069"/>
  </node>
  <node id="-622" visible="true" lat="42.75591948" lon="-72.51052763">
    <tag k="addr:city" v="Vernon"/>
    <tag k="addr:housenumber" v="3"/>
    <tag k="addr:street" v="Poplar Lane"/>
    <tag k="addr:state" v="VT"/>
    <tag k="ref:vcgi:esiteid" v="266070"/>
  </node>
  <node id="-623" visible="true" lat="42.75747278" lon="-72.48802382">
    <tag k="addr:city" v="Vernon"/>
    <tag k="addr:housenumber" v="3285"/>
    <tag k="addr:street" v="Fort Bridgman Road"/>
    <tag k="addr:state" v="VT"/>
    <tag k="ref:vcgi:esiteid" v="266071"/>
  </node>
  <node id="-669" visible="true" lat="42.75283064" lon="-72.5147965">
    <tag k="addr:city" v="Vernon"/>
    <tag k="addr:housenumber" v="407"/>
    <tag k="addr:street" v="Pond Road"/>
    <tag k="addr:state" v="VT"/>
    <tag k="ref:vcgi:esiteid" v="266117"/>
  </node>
  <node id="-673" visible="true" lat="42.75154189" lon="-72.51665978">
    <tag k="addr:city" v="Vernon"/>
    <tag k="addr:housenumber" v="54"/>
    <tag k="addr:street" v="Old Farm Road"/>
    <tag k="addr:state" v="VT"/>
    <tag k="ref:vcgi:esiteid" v="266122"/>
  </node>
  <node id="-674" visible="true" lat="42.7510859" lon="-72.51514857">
    <tag k="addr:city" v="Vernon"/>
    <tag k="addr:housenumber" v="17"/>
    <tag k="addr:street" v="Old Farm Road"/>
    <tag k="addr:state" v="VT"/>
    <tag k="ref:vcgi:esiteid" v="266123"/>
  </node>
  <node id="-676" visible="true" lat="42.75197886" lon="-72.51492452">
    <tag k="addr:city" v="Vernon"/>
    <tag k="addr:housenumber" v="428"/>
    <tag k="addr:street" v="Pond Road"/>
    <tag k="addr:state" v="VT"/>
    <tag k="ref:vcgi:esiteid" v="266125"/>
  </node>
  <node id="-677" visible="true" lat="42.75119063" lon="-72.51449173">
    <tag k="addr:city" v="Vernon"/>
    <tag k="addr:housenumber" v="462"/>
    <tag k="addr:street" v="Pond Road"/>
    <tag k="addr:state" v="VT"/>
    <tag k="ref:vcgi:esiteid" v="266126"/>
  </node>
  <node id="-680" visible="true" lat="42.74973238" lon="-72.51328592">
    <tag k="addr:city" v="Vernon"/>
    <tag k="addr:housenumber" v="530"/>
    <tag k="addr:street" v="Pond Road"/>
    <tag k="addr:state" v="VT"/>
    <tag k="ref:vcgi:esiteid" v="266129"/>
  </node>
  <node id="-682" visible="true" lat="42.74910144" lon="-72.51318301">
    <tag k="addr:city" v="Vernon"/>
    <tag k="addr:housenumber" v="548"/>
    <tag k="addr:street" v="Pond Road"/>
    <tag k="addr:state" v="VT"/>
    <tag k="ref:vcgi:esiteid" v="266131"/>
  </node>
  <node id="-684" visible="true" lat="42.75116315" lon="-72.51326748">
    <tag k="addr:city" v="Vernon"/>
    <tag k="addr:housenumber" v="487"/>
    <tag k="addr:street" v="Pond Road"/>
    <tag k="addr:state" v="VT"/>
    <tag k="ref:vcgi:esiteid" v="266133"/>
  </node>
  <node id="-689" visible="true" lat="42.75442969" lon="-72.53785714">
    <tag k="addr:city" v="Vernon"/>
    <tag k="addr:housenumber" v="71"/>
    <tag k="addr:street" v="Ad Brooks Road"/>
    <tag k="addr:state" v="VT"/>
    <tag k="ref:vcgi:esiteid" v="266138"/>
  </node>
  <node id="-697" visible="true" lat="42.7446058" lon="-72.5199696">
    <tag k="addr:city" v="Vernon"/>
    <tag k="addr:housenumber" v="258"/>
    <tag k="addr:street" v="Huckle Hill Road"/>
    <tag k="addr:state" v="VT"/>
    <tag k="ref:vcgi:esiteid" v="266146"/>
  </node>
  <node id="-698" visible="true" lat="42.74457601" lon="-72.51771587">
    <tag k="addr:city" v="Vernon"/>
    <tag k="addr:housenumber" v="195"/>
    <tag k="addr:street" v="Huckle Hill Road"/>
    <tag k="addr:state" v="VT"/>
    <tag k="ref:vcgi:esiteid" v="266147"/>
  </node>
  <node id="-703" visible="true" lat="42.74643966" lon="-72.51708041">
    <tag k="addr:city" v="Vernon"/>
    <tag k="addr:housenumber" v="48"/>
    <tag k="addr:street" v="Hickory Hollow Road"/>
    <tag k="addr:state" v="VT"/>
    <tag k="ref:vcgi:esiteid" v="266152"/>
  </node>
  <node id="-704" visible="true" lat="42.74573084" lon="-72.51693285">
    <tag k="addr:city" v="Vernon"/>
    <tag k="addr:housenumber" v="6"/>
    <tag k="addr:street" v="Hickory Hollow Road"/>
    <tag k="addr:state" v="VT"/>
    <tag k="ref:vcgi:esiteid" v="266153"/>
  </node>
  <node id="-705" visible="true" lat="42.74497063" lon="-72.51642852">
    <tag k="addr:city" v="Vernon"/>
    <tag k="addr:housenumber" v="159"/>
    <tag k="addr:street" v="Huckle Hill Road"/>
    <tag k="addr:state" v="VT"/>
    <tag k="ref:vcgi:esiteid" v="266154"/>
  </node>
  <node id="-706" visible="true" lat="42.74513651" lon="-72.51575381">
    <tag k="addr:city" v="Vernon"/>
    <tag k="addr:housenumber" v="127"/>
    <tag k="addr:street" v="Huckle Hill Road"/>
    <tag k="addr:state" v="VT"/>
    <tag k="ref:vcgi:esiteid" v="266155"/>
  </node>
  <node id="-707" visible="true" lat="42.74533665" lon="-72.51524197">
    <tag k="addr:city" v="Vernon"/>
    <tag k="addr:housenumber" v="123"/>
    <tag k="addr:street" v="Huckle Hill Road"/>
    <tag k="addr:state" v="VT"/>
    <tag k="ref:vcgi:esiteid" v="266156"/>
  </node>
  <node id="-708" visible="true" lat="42.74564789" lon="-72.5138224">
    <tag k="addr:city" v="Vernon"/>
    <tag k="addr:housenumber" v="77"/>
    <tag k="addr:street" v="Huckle Hill Road"/>
    <tag k="addr:state" v="VT"/>
    <tag k="ref:vcgi:esiteid" v="266157"/>
  </node>
  <node id="-709" visible="true" lat="42.74583268" lon="-72.51250626">
    <tag k="addr:city" v="Vernon"/>
    <tag k="addr:housenumber" v="53"/>
    <tag k="addr:street" v="Huckle Hill Road"/>
    <tag k="addr:state" v="VT"/>
    <tag k="ref:vcgi:esiteid" v="266158"/>
  </node>
  <node id="-711" visible="true" lat="42.74859561" lon="-72.5125637">
    <tag k="addr:city" v="Vernon"/>
    <tag k="addr:housenumber" v="572"/>
    <tag k="addr:street" v="Pond Road"/>
    <tag k="addr:state" v="VT"/>
    <tag k="ref:vcgi:esiteid" v="266160"/>
  </node>
  <node id="-712" visible="true" lat="42.74822979" lon="-72.51223011">
    <tag k="addr:city" v="Vernon"/>
    <tag k="addr:housenumber" v="584"/>
    <tag k="addr:street" v="Pond Road"/>
    <tag k="addr:state" v="VT"/>
    <tag k="ref:vcgi:esiteid" v="266161"/>
  </node>
  <node id="-713" visible="true" lat="42.74777251" lon="-72.5119508">
    <tag k="addr:city" v="Vernon"/>
    <tag k="addr:housenumber" v="610"/>
    <tag k="addr:street" v="Pond Road"/>
    <tag k="addr:state" v="VT"/>
    <tag k="ref:vcgi:esiteid" v="266162"/>
  </node>
  <node id="-714" visible="true" lat="42.74715615" lon="-72.51136251">
    <tag k="addr:city" v="Vernon"/>
    <tag k="addr:housenumber" v="634"/>
    <tag k="addr:street" v="Pond Road"/>
    <tag k="addr:state" v="VT"/>
    <tag k="ref:vcgi:esiteid" v="266163"/>
  </node>
  <node id="-715" visible="true" lat="42.74539545" lon="-72.51179264">
    <tag k="addr:city" v="Vernon"/>
    <tag k="addr:housenumber" v="39"/>
    <tag k="addr:street" v="Huckle Hill Road"/>
    <tag k="addr:state" v="VT"/>
    <tag k="ref:vcgi:esiteid" v="266164"/>
  </node>
  <node id="-716" visible="true" lat="42.74598424" lon="-72.51182377">
    <tag k="addr:city" v="Vernon"/>
    <tag k="addr:housenumber" v="25"/>
    <tag k="addr:street" v="Huckle Hill Road"/>
    <tag k="addr:state" v="VT"/>
    <tag k="ref:vcgi:esiteid" v="266165"/>
  </node>
  <node id="-717" visible="true" lat="42.74625297" lon="-72.51121886">
    <tag k="addr:city" v="Vernon"/>
    <tag k="addr:housenumber" v="670"/>
    <tag k="addr:street" v="Pond Road"/>
    <tag k="addr:state" v="VT"/>
    <tag k="ref:vcgi:esiteid" v="266166"/>
  </node>
  <node id="-718" visible="true" lat="42.74558992" lon="-72.51065256">
    <tag k="addr:city" v="Vernon"/>
    <tag k="addr:housenumber" v="690"/>
    <tag k="addr:street" v="Pond Road"/>
    <tag k="addr:state" v="VT"/>
    <tag k="ref:vcgi:esiteid" v="266167"/>
  </node>
  <node id="-722" visible="true" lat="42.74456938" lon="-72.51223844">
    <tag k="addr:city" v="Vernon"/>
    <tag k="addr:housenumber" v="146"/>
    <tag k="addr:street" v="Silver Lane"/>
    <tag k="addr:state" v="VT"/>
    <tag k="ref:vcgi:esiteid" v="266171"/>
  </node>
  <node id="-723" visible="true" lat="42.74471236" lon="-72.51158698">
    <tag k="addr:city" v="Vernon"/>
    <tag k="addr:housenumber" v="122"/>
    <tag k="addr:street" v="Silver Lane"/>
    <tag k="addr:state" v="VT"/>
    <tag k="ref:vcgi:esiteid" v="266172"/>
  </node>
  <node id="-729" visible="true" lat="42.74631025" lon="-72.50993526">
    <tag k="addr:city" v="Vernon"/>
    <tag k="addr:housenumber" v="683"/>
    <tag k="addr:street" v="Pond Road"/>
    <tag k="addr:state" v="VT"/>
    <tag k="ref:vcgi:esiteid" v="266178"/>
  </node>
  <node id="-730" visible="true" lat="42.7463161" lon="-72.50833753">
    <tag k="addr:city" v="Vernon"/>
    <tag k="addr:housenumber" v="669"/>
    <tag k="addr:street" v="Pond Road"/>
    <tag k="addr:state" v="VT"/>
    <tag k="ref:vcgi:esiteid" v="266179"/>
  </node>
  <node id="-732" visible="true" lat="42.74785027" lon="-72.51078577">
    <tag k="addr:city" v="Vernon"/>
    <tag k="addr:housenumber" v="607"/>
    <tag k="addr:street" v="Pond Road"/>
    <tag k="addr:state" v="VT"/>
    <tag k="ref:vcgi:esiteid" v="266181"/>
  </node>
  <node id="-733" visible="true" lat="42.74837853" lon="-72.51128188">
    <tag k="addr:city" v="Vernon"/>
    <tag k="addr:housenumber" v="597"/>
    <tag k="addr:street" v="Pond Road"/>
    <tag k="addr:state" v="VT"/>
    <tag k="ref:vcgi:esiteid" v="266182"/>
  </node>
  <node id="-861" visible="true" lat="42.74438922" lon="-72.51309929">
    <tag k="addr:city" v="Vernon"/>
    <tag k="addr:housenumber" v="152"/>
    <tag k="addr:street" v="Silver Lane"/>
    <tag k="addr:state" v="VT"/>
    <tag k="ref:vcgi:esiteid" v="266310"/>
  </node>
  <node id="-862" visible="true" lat="42.7442291" lon="-72.51364215">
    <tag k="addr:city" v="Vernon"/>
    <tag k="addr:housenumber" v="176"/>
    <tag k="addr:street" v="Silver Lane"/>
    <tag k="addr:state" v="VT"/>
    <tag k="ref:vcgi:esiteid" v="266311"/>
  </node>
  <node id="-863" visible="true" lat="42.74429503" lon="-72.51106062">
    <tag k="addr:city" v="Vernon"/>
    <tag k="addr:housenumber" v="112"/>
    <tag k="addr:street" v="Silver Lane"/>
    <tag k="addr:state" v="VT"/>
    <tag k="ref:vcgi:esiteid" v="266312"/>
  </node>
  <node id="-864" visible="true" lat="42.74377782" lon="-72.51059796">
    <tag k="addr:city" v="Vernon"/>
    <tag k="addr:housenumber" v="86"/>
    <tag k="addr:street" v="Silver Lane"/>
    <tag k="addr:state" v="VT"/>
    <tag k="ref:vcgi:esiteid" v="266313"/>
  </node>
  <node id="-865" visible="true" lat="42.7431805" lon="-72.51012477">
    <tag k="addr:city" v="Vernon"/>
    <tag k="addr:housenumber" v="52"/>
    <tag k="addr:street" v="Silver Lane"/>
    <tag k="addr:state" v="VT"/>
    <tag k="ref:vcgi:esiteid" v="266314"/>
  </node>
  <node id="-866" visible="true" lat="42.74291479" lon="-72.50881792">
    <tag k="addr:city" v="Vernon"/>
    <tag k="addr:housenumber" v="18"/>
    <tag k="addr:street" v="Silver Lane"/>
    <tag k="addr:state" v="VT"/>
    <tag k="ref:vcgi:esiteid" v="266315"/>
  </node>
  <node id="-867" visible="true" lat="42.74358809" lon="-72.50892046">
    <tag k="addr:city" v="Vernon"/>
    <tag k="addr:housenumber" v="784"/>
    <tag k="addr:street" v="Pond Road"/>
    <tag k="addr:state" v="VT"/>
    <tag k="ref:vcgi:esiteid" v="266316"/>
  </node>
  <node id="-868" visible="true" lat="42.74395964" lon="-72.50921523">
    <tag k="addr:city" v="Vernon"/>
    <tag k="addr:housenumber" v="764"/>
    <tag k="addr:street" v="Pond Road"/>
    <tag k="addr:state" v="VT"/>
    <tag k="ref:vcgi:esiteid" v="266317"/>
  </node>
  <node id="-869" visible="true" lat="42.74419901" lon="-72.50955076">
    <tag k="addr:city" v="Vernon"/>
    <tag k="addr:housenumber" v="758"/>
    <tag k="addr:street" v="Pond Road"/>
    <tag k="addr:state" v="VT"/>
    <tag k="ref:vcgi:esiteid" v="266318"/>
  </node>
  <node id="-870" visible="true" lat="42.7433878" lon="-72.51137895">
    <tag k="addr:city" v="Vernon"/>
    <tag k="addr:housenumber" v="83"/>
    <tag k="addr:street" v="Silver Lane"/>
    <tag k="addr:state" v="VT"/>
    <tag k="ref:vcgi:esiteid" v="266319"/>
  </node>
  <node id="-872" visible="true" lat="42.74399228" lon="-72.51172225">
    <tag k="addr:city" v="Vernon"/>
    <tag k="addr:housenumber" v="135"/>
    <tag k="addr:street" v="Silver Lane"/>
    <tag k="addr:state" v="VT"/>
    <tag k="ref:vcgi:esiteid" v="266321"/>
  </node>
  <node id="-873" visible="true" lat="42.74396626" lon="-72.51260671">
    <tag k="addr:city" v="Vernon"/>
    <tag k="addr:housenumber" v="147"/>
    <tag k="addr:street" v="Silver Lane"/>
    <tag k="addr:state" v="VT"/>
    <tag k="ref:vcgi:esiteid" v="266322"/>
  </node>
  <node id="-874" visible="true" lat="42.74370028" lon="-72.51327087">
    <tag k="addr:city" v="Vernon"/>
    <tag k="addr:housenumber" v="167"/>
    <tag k="addr:street" v="Silver Lane"/>
    <tag k="addr:state" v="VT"/>
    <tag k="ref:vcgi:esiteid" v="266323"/>
  </node>
  <node id="-875" visible="true" lat="42.74360302" lon="-72.51400763">
    <tag k="addr:city" v="Vernon"/>
    <tag k="addr:housenumber" v="191"/>
    <tag k="addr:street" v="Silver Lane"/>
    <tag k="addr:state" v="VT"/>
    <tag k="ref:vcgi:esiteid" v="266324"/>
  </node>
  <node id="-876" visible="true" lat="42.74313735" lon="-72.5128935">
    <tag k="addr:city" v="Vernon"/>
    <tag k="addr:housenumber" v="269"/>
    <tag k="addr:street" v="Silver Lane"/>
    <tag k="addr:state" v="VT"/>
    <tag k="ref:vcgi:esiteid" v="266325"/>
  </node>
  <node id="-877" visible="true" lat="42.74318193" lon="-72.51217774">
    <tag k="addr:city" v="Vernon"/>
    <tag k="addr:housenumber" v="297"/>
    <tag k="addr:street" v="Silver Lane"/>
    <tag k="addr:state" v="VT"/>
    <tag k="ref:vcgi:esiteid" v="266326"/>
  </node>
  <node id="-878" visible="true" lat="42.74245419" lon="-72.51332379">
    <tag k="addr:city" v="Vernon"/>
    <tag k="addr:housenumber" v="268"/>
    <tag k="addr:street" v="Silver Lane"/>
    <tag k="addr:state" v="VT"/>
    <tag k="ref:vcgi:esiteid" v="266327"/>
  </node>
  <node id="-879" visible="true" lat="42.74256576" lon="-72.51242417">
    <tag k="addr:city" v="Vernon"/>
    <tag k="addr:housenumber" v="272"/>
    <tag k="addr:street" v="Silver Lane"/>
    <tag k="addr:state" v="VT"/>
    <tag k="ref:vcgi:esiteid" v="266328"/>
  </node>
  <node id="-880" visible="true" lat="42.74278307" lon="-72.5115207">
    <tag k="addr:city" v="Vernon"/>
    <tag k="addr:housenumber" v="304"/>
    <tag k="addr:street" v="Silver Lane"/>
    <tag k="addr:state" v="VT"/>
    <tag k="ref:vcgi:esiteid" v="266329"/>
  </node>
  <node id="-881" visible="true" lat="42.74280799" lon="-72.51070115">
    <tag k="addr:city" v="Vernon"/>
    <tag k="addr:housenumber" v="63"/>
    <tag k="addr:street" v="Silver Lane"/>
    <tag k="addr:state" v="VT"/>
    <tag k="ref:vcgi:esiteid" v="266330"/>
  </node>
  <node id="-882" visible="true" lat="42.74239671" lon="-72.50948681">
    <tag k="addr:city" v="Vernon"/>
    <tag k="addr:housenumber" v="31"/>
    <tag k="addr:street" v="Silver Lane"/>
    <tag k="addr:state" v="VT"/>
    <tag k="ref:vcgi:esiteid" v="266331"/>
  </node>
  <node id="-883" visible="true" lat="42.74237444" lon="-72.50839188">
    <tag k="addr:city" v="Vernon"/>
    <tag k="addr:housenumber" v="9"/>
    <tag k="addr:street" v="Silver Lane"/>
    <tag k="addr:state" v="VT"/>
    <tag k="ref:vcgi:esiteid" v="266332"/>
  </node>
  <node id="-905" visible="true" lat="42.7436258" lon="-72.52068187">
    <tag k="addr:city" v="Vernon"/>
    <tag k="addr:housenumber" v="299"/>
    <tag k="addr:street" v="Huckle Hill Road"/>
    <tag k="addr:state" v="VT"/>
    <tag k="ref:vcgi:esiteid" v="266354"/>
  </node>
  <node id="-907" visible="true" lat="42.74409099" lon="-72.51987381">
    <tag k="addr:city" v="Vernon"/>
    <tag k="addr:housenumber" v="253"/>
    <tag k="addr:street" v="Huckle Hill Road"/>
    <tag k="addr:state" v="VT"/>
    <tag k="ref:vcgi:esiteid" v="266356"/>
  </node>
  <node id="-910" visible="true" lat="42.74432841" lon="-72.51874543">
    <tag k="addr:city" v="Vernon"/>
    <tag k="addr:housenumber" v="213"/>
    <tag k="addr:street" v="Huckle Hill Road"/>
    <tag k="addr:state" v="VT"/>
    <tag k="ref:vcgi:esiteid" v="266359"/>
  </node>
  <node id="-911" visible="true" lat="42.7441702" lon="-72.51735124">
    <tag k="addr:city" v="Vernon"/>
    <tag k="addr:housenumber" v="173"/>
    <tag k="addr:street" v="Huckle Hill Road"/>
    <tag k="addr:state" v="VT"/>
    <tag k="ref:vcgi:esiteid" v="266360"/>
  </node>
  <node id="-912" visible="true" lat="42.74314857" lon="-72.5146734">
    <tag k="addr:city" v="Vernon"/>
    <tag k="addr:housenumber" v="7"/>
    <tag k="addr:street" v="Allison Lane"/>
    <tag k="addr:state" v="VT"/>
    <tag k="ref:vcgi:esiteid" v="266361"/>
  </node>
  <node id="-927" visible="true" lat="42.7430714" lon="-72.51943917">
    <tag k="addr:city" v="Vernon"/>
    <tag k="addr:housenumber" v="122"/>
    <tag k="addr:street" v="Allison Lane"/>
    <tag k="addr:state" v="VT"/>
    <tag k="ref:vcgi:esiteid" v="266376"/>
  </node>
  <node id="-930" visible="true" lat="42.74338255" lon="-72.51741118">
    <tag k="addr:city" v="Vernon"/>
    <tag k="addr:housenumber" v="80"/>
    <tag k="addr:street" v="Allison Lane"/>
    <tag k="addr:state" v="VT"/>
    <tag k="ref:vcgi:esiteid" v="266379"/>
  </node>
  <node id="-931" visible="true" lat="42.7439199" lon="-72.51681137">
    <tag k="addr:city" v="Vernon"/>
    <tag k="addr:housenumber" v="29"/>
    <tag k="addr:street" v="Shirley Drive"/>
    <tag k="addr:state" v="VT"/>
    <tag k="ref:vcgi:esiteid" v="266380"/>
  </node>
  <node id="-932" visible="true" lat="42.74446022" lon="-72.51599717">
    <tag k="addr:city" v="Vernon"/>
    <tag k="addr:housenumber" v="39"/>
    <tag k="addr:street" v="Shirley Drive"/>
    <tag k="addr:state" v="VT"/>
    <tag k="ref:vcgi:esiteid" v="266381"/>
  </node>
  <node id="-933" visible="true" lat="42.74413445" lon="-72.51554726">
    <tag k="addr:city" v="Vernon"/>
    <tag k="addr:housenumber" v="40"/>
    <tag k="addr:street" v="Shirley Drive"/>
    <tag k="addr:state" v="VT"/>
    <tag k="ref:vcgi:esiteid" v="266382"/>
  </node>
  <node id="-934" visible="true" lat="42.74346555" lon="-72.51607835">
    <tag k="addr:city" v="Vernon"/>
    <tag k="addr:housenumber" v="8"/>
    <tag k="addr:street" v="Shirley Drive"/>
    <tag k="addr:state" v="VT"/>
    <tag k="ref:vcgi:esiteid" v="266383"/>
  </node>
  <node id="-935" visible="true" lat="42.74368015" lon="-72.51499151">
    <tag k="addr:city" v="Vernon"/>
    <tag k="addr:housenumber" v="214"/>
    <tag k="addr:street" v="Silver Lane"/>
    <tag k="addr:state" v="VT"/>
    <tag k="ref:vcgi:esiteid" v="266384"/>
  </node>
  <node id="-936" visible="true" lat="42.7440232" lon="-72.51448747">
    <tag k="addr:city" v="Vernon"/>
    <tag k="addr:housenumber" v="194"/>
    <tag k="addr:street" v="Silver Lane"/>
    <tag k="addr:state" v="VT"/>
    <tag k="ref:vcgi:esiteid" v="266385"/>
  </node>
  <node id="-940" visible="true" lat="42.73600873" lon="-72.5391067">
    <tag k="addr:city" v="Vernon"/>
    <tag k="addr:housenumber" v="111"/>
    <tag k="addr:street" v="Honey Brim Road"/>
    <tag k="addr:state" v="VT"/>
    <tag k="ref:vcgi:esiteid" v="266389"/>
  </node>
  <node id="-942" visible="true" lat="42.73672911" lon="-72.52804854">
    <tag k="addr:city" v="Vernon"/>
    <tag k="addr:housenumber" v="684"/>
    <tag k="addr:street" v="Huckle Hill Road"/>
    <tag k="addr:state" v="VT"/>
    <tag k="ref:vcgi:esiteid" v="266391"/>
  </node>
  <node id="-943" visible="true" lat="42.735799" lon="-72.52496823">
    <tag k="addr:city" v="Vernon"/>
    <tag k="addr:housenumber" v="601"/>
    <tag k="addr:street" v="Huckle Hill Road"/>
    <tag k="addr:state" v="VT"/>
    <tag k="ref:vcgi:esiteid" v="266392"/>
  </node>
  <node id="-944" visible="true" lat="42.73615249" lon="-72.52485852">
    <tag k="addr:city" v="Vernon"/>
    <tag k="addr:housenumber" v="593"/>
    <tag k="addr:street" v="Huckle Hill Road"/>
    <tag k="addr:state" v="VT"/>
    <tag k="ref:vcgi:esiteid" v="266393"/>
  </node>
  <node id="-969" visible="true" lat="42.73609841" lon="-72.48609056">
    <tag k="addr:city" v="Vernon"/>
    <tag k="addr:housenumber" v="11"/>
    <tag k="addr:street" v="Sartwell Road"/>
    <tag k="addr:state" v="VT"/>
    <tag k="ref:vcgi:esiteid" v="266418"/>
  </node>
  <node id="-970" visible="true" lat="42.73758088" lon="-72.48622723">
    <tag k="addr:city" v="Vernon"/>
    <tag k="addr:housenumber" v="57"/>
    <tag k="addr:street" v="Sartwell Road"/>
    <tag k="addr:state" v="VT"/>
    <tag k="ref:vcgi:esiteid" v="266419"/>
  </node>
  <node id="-971" visible="true" lat="42.73758653" lon="-72.48570765">
    <tag k="addr:city" v="Vernon"/>
    <tag k="addr:housenumber" v="58"/>
    <tag k="addr:street" v="Sartwell Road"/>
    <tag k="addr:state" v="VT"/>
    <tag k="ref:vcgi:esiteid" v="266420"/>
  </node>
  <node id="-972" visible="true" lat="42.7372578" lon="-72.48536264">
    <tag k="addr:city" v="Vernon"/>
    <tag k="addr:housenumber" v="54"/>
    <tag k="addr:street" v="Sartwell Road"/>
    <tag k="addr:state" v="VT"/>
    <tag k="ref:vcgi:esiteid" v="266421"/>
  </node>
  <node id="-973" visible="true" lat="42.73676525" lon="-72.48545969">
    <tag k="addr:city" v="Vernon"/>
    <tag k="addr:housenumber" v="34"/>
    <tag k="addr:street" v="Sartwell Road"/>
    <tag k="addr:state" v="VT"/>
    <tag k="ref:vcgi:esiteid" v="266422"/>
  </node>
  <node id="-974" visible="true" lat="42.73615548" lon="-72.48536936">
    <tag k="addr:city" v="Vernon"/>
    <tag k="addr:housenumber" v="12"/>
    <tag k="addr:street" v="Sartwell Road"/>
    <tag k="addr:state" v="VT"/>
    <tag k="ref:vcgi:esiteid" v="266423"/>
  </node>
  <node id="-975" visible="true" lat="42.73613445" lon="-72.48479293">
    <tag k="addr:city" v="Vernon"/>
    <tag k="addr:housenumber" v="1605"/>
    <tag k="addr:street" v="Pond Road"/>
    <tag k="addr:state" v="VT"/>
    <tag k="ref:vcgi:esiteid" v="266424"/>
  </node>
  <node id="-980" visible="true" lat="42.73644099" lon="-72.48308165">
    <tag k="addr:city" v="Vernon"/>
    <tag k="addr:housenumber" v="1653"/>
    <tag k="addr:street" v="Pond Road"/>
    <tag k="addr:state" v="VT"/>
    <tag k="ref:vcgi:esiteid" v="266429"/>
  </node>
  <node id="-983" visible="true" lat="42.73666188" lon="-72.48215618">
    <tag k="addr:city" v="Vernon"/>
    <tag k="addr:housenumber" v="1683"/>
    <tag k="addr:street" v="Pond Road"/>
    <tag k="addr:state" v="VT"/>
    <tag k="ref:vcgi:esiteid" v="266432"/>
  </node>
  <node id="-984" visible="true" lat="42.73784602" lon="-72.47447694">
    <tag k="addr:city" v="Vernon"/>
    <tag k="addr:housenumber" v="1899"/>
    <tag k="addr:street" v="Pond Road"/>
    <tag k="addr:state" v="VT"/>
    <tag k="ref:vcgi:esiteid" v="266433"/>
  </node>
  <node id="-985" visible="true" lat="42.73784537" lon="-72.47332249">
    <tag k="addr:city" v="Vernon"/>
    <tag k="addr:housenumber" v="1927"/>
    <tag k="addr:street" v="Pond Road"/>
    <tag k="addr:state" v="VT"/>
    <tag k="ref:vcgi:esiteid" v="266434"/>
  </node>
  <node id="-986" visible="true" lat="42.73694704" lon="-72.47833816">
    <tag k="addr:city" v="Vernon"/>
    <tag k="addr:housenumber" v="1794"/>
    <tag k="addr:street" v="Pond Road"/>
    <tag k="addr:state" v="VT"/>
    <tag k="ref:vcgi:esiteid" v="266435"/>
  </node>
  <node id="-993" visible="true" lat="42.73715086" lon="-72.46964649">
    <tag k="addr:city" v="Vernon"/>
    <tag k="addr:housenumber" v="4201"/>
    <tag k="addr:street" v="Fort Bridgman Road"/>
    <tag k="addr:state" v="VT"/>
    <tag k="ref:vcgi:esiteid" v="266442"/>
  </node>
  <node id="-1001" visible="true" lat="42.73546487" lon="-72.46952634">
    <tag k="addr:city" v="Vernon"/>
    <tag k="addr:housenumber" v="4248"/>
    <tag k="addr:street" v="Fort Bridgman Road"/>
    <tag k="addr:state" v="VT"/>
    <tag k="ref:vcgi:esiteid" v="266450"/>
  </node>
  <node id="-1003" visible="true" lat="42.73254716" lon="-72.46936674">
    <tag k="addr:city" v="Vernon"/>
    <tag k="addr:housenumber" v="4372"/>
    <tag k="addr:street" v="Fort Bridgman Road"/>
    <tag k="addr:state" v="VT"/>
    <tag k="ref:vcgi:esiteid" v="266452"/>
  </node>
  <node id="-1007" visible="true" lat="42.73195237" lon="-72.46835124">
    <tag k="addr:city" v="Vernon"/>
    <tag k="addr:housenumber" v="4399"/>
    <tag k="addr:street" v="Fort Bridgman Road"/>
    <tag k="addr:state" v="VT"/>
    <tag k="ref:vcgi:esiteid" v="266456"/>
  </node>
  <node id="-1010" visible="true" lat="42.73346379" lon="-72.46846307">
    <tag k="addr:city" v="Vernon"/>
    <tag k="addr:housenumber" v="4339"/>
    <tag k="addr:street" v="Fort Bridgman Road"/>
    <tag k="addr:state" v="VT"/>
    <tag k="ref:vcgi:esiteid" v="266459"/>
  </node>
  <node id="-1012" visible="true" lat="42.7349536" lon="-72.46873718">
    <tag k="addr:city" v="Vernon"/>
    <tag k="addr:housenumber" v="4283"/>
    <tag k="addr:street" v="Fort Bridgman Road"/>
    <tag k="addr:state" v="VT"/>
    <tag k="ref:vcgi:esiteid" v="266461"/>
  </node>
  <node id="-1015" visible="true" lat="42.73545266" lon="-72.48791562">
    <tag k="addr:city" v="Vernon"/>
    <tag k="addr:housenumber" v="1519"/>
    <tag k="addr:street" v="Pond Road"/>
    <tag k="addr:state" v="VT"/>
    <tag k="ref:vcgi:esiteid" v="266464"/>
  </node>
  <node id="-1016" visible="true" lat="42.73455344" lon="-72.48958301">
    <tag k="addr:city" v="Vernon"/>
    <tag k="addr:housenumber" v="1468"/>
    <tag k="addr:street" v="Pond Road"/>
    <tag k="addr:state" v="VT"/>
    <tag k="ref:vcgi:esiteid" v="266465"/>
  </node>
  <node id="-1017" visible="true" lat="42.73397035" lon="-72.48945128">
    <tag k="addr:city" v="Vernon"/>
    <tag k="addr:housenumber" v="22"/>
    <tag k="addr:street" v="Houghton Hill Road"/>
    <tag k="addr:state" v="VT"/>
    <tag k="ref:vcgi:esiteid" v="266466"/>
  </node>
  <node id="-1019" visible="true" lat="42.73470955" lon="-72.48817942">
    <tag k="addr:city" v="Vernon"/>
    <tag k="addr:housenumber" v="17"/>
    <tag k="addr:street" v="Houghton Hill Road"/>
    <tag k="addr:state" v="VT"/>
    <tag k="ref:vcgi:esiteid" v="266468"/>
  </node>
  <node id="-1021" visible="true" lat="42.73243622" lon="-72.48725193">
    <tag k="addr:city" v="Vernon"/>
    <tag k="addr:housenumber" v="99"/>
    <tag k="addr:street" v="Houghton Hill Road"/>
    <tag k="addr:state" v="VT"/>
    <tag k="ref:vcgi:esiteid" v="266470"/>
  </node>
  <node id="-1022" visible="true" lat="42.73273167" lon="-72.4882289">
    <tag k="addr:city" v="Vernon"/>
    <tag k="addr:housenumber" v="88"/>
    <tag k="addr:street" v="Houghton Hill Road"/>
    <tag k="addr:state" v="VT"/>
    <tag k="ref:vcgi:esiteid" v="266471"/>
  </node>
  <node id="-1024" visible="true" lat="42.73227264" lon="-72.49028902">
    <tag k="addr:city" v="Vernon"/>
    <tag k="addr:housenumber" v="77"/>
    <tag k="addr:street" v="Dunklee Drive"/>
    <tag k="addr:state" v="VT"/>
    <tag k="ref:vcgi:esiteid" v="266473"/>
  </node>
  <node id="-1026" visible="true" lat="42.73420673" lon="-72.49060924">
    <tag k="addr:city" v="Vernon"/>
    <tag k="addr:housenumber" v="7"/>
    <tag k="addr:street" v="Dunklee Drive"/>
    <tag k="addr:state" v="VT"/>
    <tag k="ref:vcgi:esiteid" v="266475"/>
  </node>
  <node id="-1027" visible="true" lat="42.73349217" lon="-72.49050854">
    <tag k="addr:city" v="Vernon"/>
    <tag k="addr:housenumber" v="31"/>
    <tag k="addr:street" v="Dunklee Drive"/>
    <tag k="addr:state" v="VT"/>
    <tag k="ref:vcgi:esiteid" v="266476"/>
  </node>
  <node id="-1028" visible="true" lat="42.73314347" lon="-72.49056546">
    <tag k="addr:city" v="Vernon"/>
    <tag k="addr:housenumber" v="53"/>
    <tag k="addr:street" v="Dunklee Drive"/>
    <tag k="addr:state" v="VT"/>
    <tag k="ref:vcgi:esiteid" v="266477"/>
  </node>
  <node id="-1030" visible="true" lat="42.73193926" lon="-72.49125835">
    <tag k="addr:city" v="Vernon"/>
    <tag k="addr:housenumber" v="94"/>
    <tag k="addr:street" v="Dunklee Drive"/>
    <tag k="addr:state" v="VT"/>
    <tag k="ref:vcgi:esiteid" v="266479"/>
  </node>
  <node id="-1031" visible="true" lat="42.73289393" lon="-72.49158648">
    <tag k="addr:city" v="Vernon"/>
    <tag k="addr:housenumber" v="52"/>
    <tag k="addr:street" v="Dunklee Drive"/>
    <tag k="addr:state" v="VT"/>
    <tag k="ref:vcgi:esiteid" v="266480"/>
  </node>
  <node id="-1032" visible="true" lat="42.73368281" lon="-72.4917001">
    <tag k="addr:city" v="Vernon"/>
    <tag k="addr:housenumber" v="36"/>
    <tag k="addr:street" v="Dunklee Drive"/>
    <tag k="addr:state" v="VT"/>
    <tag k="ref:vcgi:esiteid" v="266481"/>
  </node>
  <node id="-1037" visible="true" lat="42.73396306" lon="-72.4940083">
    <tag k="addr:city" v="Vernon"/>
    <tag k="addr:housenumber" v="1362"/>
    <tag k="addr:street" v="Pond Road"/>
    <tag k="addr:state" v="VT"/>
    <tag k="ref:vcgi:esiteid" v="266487"/>
  </node>
  <node id="-1044" visible="true" lat="42.73486054" lon="-72.49415296">
    <tag k="addr:city" v="Vernon"/>
    <tag k="addr:housenumber" v="1361"/>
    <tag k="addr:street" v="Pond Road"/>
    <tag k="addr:state" v="VT"/>
    <tag k="ref:vcgi:esiteid" v="266494"/>
  </node>
  <node id="-1045" visible="true" lat="42.73567605" lon="-72.49354802">
    <tag k="addr:city" v="Vernon"/>
    <tag k="addr:housenumber" v="45"/>
    <tag k="addr:street" v="Crystal Springs Drive"/>
    <tag k="addr:state" v="VT"/>
    <tag k="ref:vcgi:esiteid" v="266495"/>
  </node>
  <node id="-1046" visible="true" lat="42.73458606" lon="-72.4925659">
    <tag k="addr:city" v="Vernon"/>
    <tag k="addr:housenumber" v="1393"/>
    <tag k="addr:street" v="Pond Road"/>
    <tag k="addr:state" v="VT"/>
    <tag k="ref:vcgi:esiteid" v="266496"/>
  </node>
  <node id="-1048" visible="true" lat="42.7356149" lon="-72.49090629">
    <tag k="addr:city" v="Vernon"/>
    <tag k="addr:housenumber" v="23"/>
    <tag k="addr:street" v="Country Lane"/>
    <tag k="addr:state" v="VT"/>
    <tag k="ref:vcgi:esiteid" v="266498"/>
  </node>
  <node id="-1049" visible="true" lat="42.73515377" lon="-72.49080296">
    <tag k="addr:city" v="Vernon"/>
    <tag k="addr:housenumber" v="19"/>
    <tag k="addr:street" v="Country Lane"/>
    <tag k="addr:state" v="VT"/>
    <tag k="ref:vcgi:esiteid" v="266499"/>
  </node>
  <node id="-1058" visible="true" lat="42.73213322" lon="-72.52229512">
    <tag k="addr:city" v="Vernon"/>
    <tag k="addr:housenumber" v="16"/>
    <tag k="addr:street" v="Beech Hill Road"/>
    <tag k="addr:state" v="VT"/>
    <tag k="ref:vcgi:esiteid" v="266508"/>
  </node>
  <node id="-1059" visible="true" lat="42.73578603" lon="-72.52268687">
    <tag k="addr:city" v="Vernon"/>
    <tag k="addr:housenumber" v="37"/>
    <tag k="addr:street" v="Wheeler Road"/>
    <tag k="addr:state" v="VT"/>
    <tag k="ref:vcgi:esiteid" v="266509"/>
  </node>
  <node id="-1061" visible="true" lat="42.73435022" lon="-72.52267338">
    <tag k="addr:city" v="Vernon"/>
    <tag k="addr:housenumber" v="105"/>
    <tag k="addr:street" v="Wheeler Road"/>
    <tag k="addr:state" v="VT"/>
    <tag k="ref:vcgi:esiteid" v="266511"/>
  </node>
  <node id="-1064" visible="true" lat="42.73302916" lon="-72.5228363">
    <tag k="addr:city" v="Vernon"/>
    <tag k="addr:housenumber" v="179"/>
    <tag k="addr:street" v="Hemlock Road"/>
    <tag k="addr:state" v="VT"/>
    <tag k="ref:vcgi:esiteid" v="266514"/>
  </node>
  <node id="-1069" visible="true" lat="42.73544187" lon="-72.52429473">
    <tag k="addr:city" v="Vernon"/>
    <tag k="addr:housenumber" v="62"/>
    <tag k="addr:street" v="Wheeler Road"/>
    <tag k="addr:state" v="VT"/>
    <tag k="ref:vcgi:esiteid" v="266519"/>
  </node>
  <node id="-1071" visible="true" lat="42.73550062" lon="-72.52573453">
    <tag k="addr:city" v="Vernon"/>
    <tag k="addr:housenumber" v="619"/>
    <tag k="addr:street" v="Huckle Hill Road"/>
    <tag k="addr:state" v="VT"/>
    <tag k="ref:vcgi:esiteid" v="266521"/>
  </node>
  <node id="-1072" visible="true" lat="42.73500573" lon="-72.52756311">
    <tag k="addr:city" v="Vernon"/>
    <tag k="addr:housenumber" v="675"/>
    <tag k="addr:street" v="Huckle Hill Road"/>
    <tag k="addr:state" v="VT"/>
    <tag k="ref:vcgi:esiteid" v="266522"/>
  </node>
  <node id="-1073" visible="true" lat="42.73437657" lon="-72.5289974">
    <tag k="addr:city" v="Vernon"/>
    <tag k="addr:housenumber" v="729"/>
    <tag k="addr:street" v="Huckle Hill Road"/>
    <tag k="addr:state" v="VT"/>
    <tag k="ref:vcgi:esiteid" v="266523"/>
  </node>
  <node id="-1074" visible="true" lat="42.73245037" lon="-72.52803498">
    <tag k="addr:city" v="Vernon"/>
    <tag k="addr:housenumber" v="25"/>
    <tag k="addr:street" v="Hemlock Road"/>
    <tag k="addr:state" v="VT"/>
    <tag k="ref:vcgi:esiteid" v="266524"/>
  </node>
  <node id="-1075" visible="true" lat="42.73227092" lon="-72.52658131">
    <tag k="addr:city" v="Vernon"/>
    <tag k="addr:housenumber" v="61"/>
    <tag k="addr:street" v="Hemlock Road"/>
    <tag k="addr:state" v="VT"/>
    <tag k="ref:vcgi:esiteid" v="266525"/>
  </node>
  <node id="-1076" visible="true" lat="42.73281125" lon="-72.52605425">
    <tag k="addr:city" v="Vernon"/>
    <tag k="addr:housenumber" v="26"/>
    <tag k="addr:street" v="Aspen Lane"/>
    <tag k="addr:state" v="VT"/>
    <tag k="ref:vcgi:esiteid" v="266526"/>
  </node>
  <node id="-1077" visible="true" lat="42.73329131" lon="-72.52655848">
    <tag k="addr:city" v="Vernon"/>
    <tag k="addr:housenumber" v="44"/>
    <tag k="addr:street" v="Aspen Lane"/>
    <tag k="addr:state" v="VT"/>
    <tag k="ref:vcgi:esiteid" v="266527"/>
  </node>
  <node id="-1078" visible="true" lat="42.73344797" lon="-72.52770199">
    <tag k="addr:city" v="Vernon"/>
    <tag k="addr:housenumber" v="31"/>
    <tag k="addr:street" v="Aspen Lane"/>
    <tag k="addr:state" v="VT"/>
    <tag k="ref:vcgi:esiteid" v="266528"/>
  </node>
  <node id="-1080" visible="true" lat="42.73171045" lon="-72.52771317">
    <tag k="addr:city" v="Vernon"/>
    <tag k="addr:housenumber" v="34"/>
    <tag k="addr:street" v="Hemlock Road"/>
    <tag k="addr:state" v="VT"/>
    <tag k="ref:vcgi:esiteid" v="266530"/>
  </node>
  <node id="-1081" visible="true" lat="42.73546026" lon="-72.52837398">
    <tag k="addr:city" v="Vernon"/>
    <tag k="addr:housenumber" v="694"/>
    <tag k="addr:street" v="Huckle Hill Road"/>
    <tag k="addr:state" v="VT"/>
    <tag k="ref:vcgi:esiteid" v="266531"/>
  </node>
  <node id="-1082" visible="true" lat="42.73578027" lon="-72.52769915">
    <tag k="addr:city" v="Vernon"/>
    <tag k="addr:housenumber" v="672"/>
    <tag k="addr:street" v="Huckle Hill Road"/>
    <tag k="addr:state" v="VT"/>
    <tag k="ref:vcgi:esiteid" v="266532"/>
  </node>
  <node id="-1084" visible="true" lat="42.73565709" lon="-72.52990173">
    <tag k="addr:city" v="Vernon"/>
    <tag k="addr:housenumber" v="714"/>
    <tag k="addr:street" v="Huckle Hill Road"/>
    <tag k="addr:state" v="VT"/>
    <tag k="ref:vcgi:esiteid" v="266534"/>
  </node>
  <node id="-1086" visible="true" lat="42.73489122" lon="-72.52940507">
    <tag k="addr:city" v="Vernon"/>
    <tag k="addr:housenumber" v="716"/>
    <tag k="addr:street" v="Huckle Hill Road"/>
    <tag k="addr:state" v="VT"/>
    <tag k="ref:vcgi:esiteid" v="266536"/>
  </node>
  <node id="-1087" visible="true" lat="42.73561927" lon="-72.53133988">
    <tag k="addr:city" v="Vernon"/>
    <tag k="addr:housenumber" v="62"/>
    <tag k="addr:street" v="Basin Road"/>
    <tag k="addr:state" v="VT"/>
    <tag k="ref:vcgi:esiteid" v="266537"/>
  </node>
  <node id="-1089" visible="true" lat="42.7353618" lon="-72.53216949">
    <tag k="addr:city" v="Vernon"/>
    <tag k="addr:housenumber" v="76"/>
    <tag k="addr:street" v="Basin Road"/>
    <tag k="addr:state" v="VT"/>
    <tag k="ref:vcgi:esiteid" v="266539"/>
  </node>
  <node id="-1090" visible="true" lat="42.7349333" lon="-72.53234019">
    <tag k="addr:city" v="Vernon"/>
    <tag k="addr:housenumber" v="92"/>
    <tag k="addr:street" v="Basin Road"/>
    <tag k="addr:state" v="VT"/>
    <tag k="ref:vcgi:esiteid" v="266540"/>
  </node>
  <node id="-1092" visible="true" lat="42.73373809" lon="-72.53302939">
    <tag k="addr:city" v="Vernon"/>
    <tag k="addr:housenumber" v="142"/>
    <tag k="addr:street" v="Basin Road"/>
    <tag k="addr:state" v="VT"/>
    <tag k="ref:vcgi:esiteid" v="266542"/>
  </node>
  <node id="-1095" visible="true" lat="42.73395051" lon="-72.53413412">
    <tag k="addr:city" v="Vernon"/>
    <tag k="addr:housenumber" v="174"/>
    <tag k="addr:street" v="Basin Road"/>
    <tag k="addr:state" v="VT"/>
    <tag k="ref:vcgi:esiteid" v="266545"/>
  </node>
  <node id="-1096" visible="true" lat="42.73399839" lon="-72.53493673">
    <tag k="addr:city" v="Vernon"/>
    <tag k="addr:housenumber" v="190"/>
    <tag k="addr:street" v="Basin Road"/>
    <tag k="addr:state" v="VT"/>
    <tag k="ref:vcgi:esiteid" v="266546"/>
  </node>
  <node id="-1097" visible="true" lat="42.73287167" lon="-72.5352586">
    <tag k="addr:city" v="Vernon"/>
    <tag k="addr:housenumber" v="195"/>
    <tag k="addr:street" v="Basin Road"/>
    <tag k="addr:state" v="VT"/>
    <tag k="ref:vcgi:esiteid" v="266547"/>
  </node>
  <node id="-1098" visible="true" lat="42.73423348" lon="-72.52968748">
    <tag k="addr:city" v="Vernon"/>
    <tag k="addr:housenumber" v="7"/>
    <tag k="addr:street" v="Basin Road"/>
    <tag k="addr:state" v="VT"/>
    <tag k="ref:vcgi:esiteid" v="266548"/>
  </node>
  <node id="-1099" visible="true" lat="42.73292994" lon="-72.5304274">
    <tag k="addr:city" v="Vernon"/>
    <tag k="addr:housenumber" v="766"/>
    <tag k="addr:street" v="Huckle Hill Road"/>
    <tag k="addr:state" v="VT"/>
    <tag k="ref:vcgi:esiteid" v="266549"/>
  </node>
  <node id="-1102" visible="true" lat="42.73329058" lon="-72.5295594">
    <tag k="addr:city" v="Vernon"/>
    <tag k="addr:housenumber" v="764"/>
    <tag k="addr:street" v="Huckle Hill Road"/>
    <tag k="addr:state" v="VT"/>
    <tag k="ref:vcgi:esiteid" v="266552"/>
  </node>
  <node id="-1104" visible="true" lat="42.73541429" lon="-72.53892797">
    <tag k="addr:city" v="Vernon"/>
    <tag k="addr:housenumber" v="81"/>
    <tag k="addr:street" v="Honey Brim Road"/>
    <tag k="addr:state" v="VT"/>
    <tag k="ref:vcgi:esiteid" v="266554"/>
  </node>
  <node id="-1106" visible="true" lat="42.7340291" lon="-72.53867825">
    <tag k="addr:city" v="Vernon"/>
    <tag k="addr:housenumber" v="23"/>
    <tag k="addr:street" v="Honey Brim Road"/>
    <tag k="addr:state" v="VT"/>
    <tag k="ref:vcgi:esiteid" v="266556"/>
  </node>
  <node id="-1107" visible="true" lat="42.73346888" lon="-72.53870892">
    <tag k="addr:city" v="Vernon"/>
    <tag k="addr:housenumber" v="300"/>
    <tag k="addr:street" v="Basin Road"/>
    <tag k="addr:state" v="VT"/>
    <tag k="ref:vcgi:esiteid" v="266557"/>
  </node>
  <node id="-1108" visible="true" lat="42.73215558" lon="-72.53993398">
    <tag k="addr:city" v="Vernon"/>
    <tag k="addr:housenumber" v="359"/>
    <tag k="addr:street" v="Basin Road"/>
    <tag k="addr:state" v="VT"/>
    <tag k="ref:vcgi:esiteid" v="266558"/>
  </node>
  <node id="-1109" visible="true" lat="42.73230512" lon="-72.53722785">
    <tag k="addr:city" v="Vernon"/>
    <tag k="addr:housenumber" v="229"/>
    <tag k="addr:street" v="Basin Road"/>
    <tag k="addr:state" v="VT"/>
    <tag k="ref:vcgi:esiteid" v="266559"/>
  </node>
  <node id="-1110" visible="true" lat="42.73164089" lon="-72.54170062">
    <tag k="addr:city" v="Vernon"/>
    <tag k="addr:housenumber" v="407"/>
    <tag k="addr:street" v="Basin Road"/>
    <tag k="addr:state" v="VT"/>
    <tag k="ref:vcgi:esiteid" v="266560"/>
  </node>
  <node id="-1111" visible="true" lat="42.73160143" lon="-72.52931822">
    <tag k="addr:city" v="Vernon"/>
    <tag k="addr:housenumber" v="802"/>
    <tag k="addr:street" v="Huckle Hill Road"/>
    <tag k="addr:state" v="VT"/>
    <tag k="ref:vcgi:esiteid" v="266561"/>
  </node>
  <node id="-1112" visible="true" lat="42.72945666" lon="-72.52993688">
    <tag k="addr:city" v="Vernon"/>
    <tag k="addr:housenumber" v="946"/>
    <tag k="addr:street" v="Huckle Hill Road"/>
    <tag k="addr:state" v="VT"/>
    <tag k="ref:vcgi:esiteid" v="266562"/>
  </node>
  <node id="-1113" visible="true" lat="42.72985063" lon="-72.52799084">
    <tag k="addr:city" v="Vernon"/>
    <tag k="addr:housenumber" v="895"/>
    <tag k="addr:street" v="Huckle Hill Road"/>
    <tag k="addr:state" v="VT"/>
    <tag k="ref:vcgi:esiteid" v="266563"/>
  </node>
  <node id="-1115" visible="true" lat="42.73072682" lon="-72.52856102">
    <tag k="addr:city" v="Vernon"/>
    <tag k="addr:housenumber" v="857"/>
    <tag k="addr:street" v="Huckle Hill Road"/>
    <tag k="addr:state" v="VT"/>
    <tag k="ref:vcgi:esiteid" v="266565"/>
  </node>
  <node id="-1116" visible="true" lat="42.73023853" lon="-72.52743337">
    <tag k="addr:city" v="Vernon"/>
    <tag k="addr:housenumber" v="859"/>
    <tag k="addr:street" v="Huckle Hill Road"/>
    <tag k="addr:state" v="VT"/>
    <tag k="ref:vcgi:esiteid" v="266566"/>
  </node>
  <node id="-1117" visible="true" lat="42.73143062" lon="-72.52654993">
    <tag k="addr:city" v="Vernon"/>
    <tag k="addr:housenumber" v="68"/>
    <tag k="addr:street" v="Hemlock Road"/>
    <tag k="addr:state" v="VT"/>
    <tag k="ref:vcgi:esiteid" v="266567"/>
  </node>
  <node id="-1118" visible="true" lat="42.73149375" lon="-72.52544112">
    <tag k="addr:city" v="Vernon"/>
    <tag k="addr:housenumber" v="90"/>
    <tag k="addr:street" v="Hemlock Road"/>
    <tag k="addr:state" v="VT"/>
    <tag k="ref:vcgi:esiteid" v="266568"/>
  </node>
  <node id="-1126" visible="true" lat="42.72946537" lon="-72.46689829">
    <tag k="addr:city" v="Vernon"/>
    <tag k="addr:housenumber" v="4507"/>
    <tag k="addr:street" v="Fort Bridgman Road"/>
    <tag k="addr:state" v="VT"/>
    <tag k="ref:vcgi:esiteid" v="266576"/>
  </node>
  <node id="-1128" visible="true" lat="42.72774435" lon="-72.46581664">
    <tag k="addr:city" v="Vernon"/>
    <tag k="addr:housenumber" v="4554"/>
    <tag k="addr:street" v="Fort Bridgman Road"/>
    <tag k="addr:state" v="VT"/>
    <tag k="ref:vcgi:esiteid" v="266578"/>
  </node>
  <node id="-1129" visible="true" lat="42.72746414" lon="-72.4654653">
    <tag k="addr:city" v="Vernon"/>
    <tag k="addr:housenumber" v="4590"/>
    <tag k="addr:street" v="Fort Bridgman Road"/>
    <tag k="addr:state" v="VT"/>
    <tag k="ref:vcgi:esiteid" v="266579"/>
  </node>
  <node id="-1131" visible="true" lat="42.72869718" lon="-72.46612885">
    <tag k="addr:city" v="Vernon"/>
    <tag k="addr:housenumber" v="4535"/>
    <tag k="addr:street" v="Fort Bridgman Road"/>
    <tag k="addr:state" v="VT"/>
    <tag k="ref:vcgi:esiteid" v="266581"/>
  </node>
  <node id="-1135" visible="true" lat="42.72736073" lon="-72.46381384">
    <tag k="addr:city" v="Vernon"/>
    <tag k="addr:housenumber" v="19"/>
    <tag k="addr:street" v="Old Depot Road"/>
    <tag k="addr:state" v="VT"/>
    <tag k="ref:vcgi:esiteid" v="266586"/>
  </node>
  <node id="-1136" visible="true" lat="42.72840301" lon="-72.46373053">
    <tag k="addr:city" v="Vernon"/>
    <tag k="addr:housenumber" v="87"/>
    <tag k="addr:street" v="Old Depot Road"/>
    <tag k="addr:state" v="VT"/>
    <tag k="ref:vcgi:esiteid" v="266587"/>
  </node>
  <node id="-1137" visible="true" lat="42.72818191" lon="-72.46355749">
    <tag k="addr:city" v="Vernon"/>
    <tag k="addr:housenumber" v="75"/>
    <tag k="addr:street" v="Old Depot Road"/>
    <tag k="addr:state" v="VT"/>
    <tag k="ref:vcgi:esiteid" v="266588"/>
  </node>
  <node id="-1138" visible="true" lat="42.7273312" lon="-72.46123717">
    <tag k="addr:city" v="Vernon"/>
    <tag k="addr:housenumber" v="124"/>
    <tag k="addr:street" v="Railroad Station Road"/>
    <tag k="addr:state" v="VT"/>
    <tag k="ref:vcgi:esiteid" v="266589"/>
  </node>
  <node id="-1139" visible="true" lat="42.73031927" lon="-72.46173664">
    <tag k="addr:city" v="Vernon"/>
    <tag k="addr:housenumber" v="201"/>
    <tag k="addr:street" v="Railroad Station Road"/>
    <tag k="addr:state" v="VT"/>
    <tag k="ref:vcgi:esiteid" v="266590"/>
  </node>
  <node id="-1160" visible="true" lat="42.81701943" lon="-72.54806266">
    <tag k="addr:city" v="Vernon"/>
    <tag k="addr:housenumber" v="278"/>
    <tag k="addr:street" v="Fort Bridgman Road"/>
    <tag k="addr:state" v="VT"/>
    <tag k="ref:vcgi:esiteid" v="266611"/>
  </node>
  <node id="-1162" visible="true" lat="42.7992274" lon="-72.53792482">
    <!-- match: "1002 Fort Bridgman Road, Vernon, VT"  ignoring missing state when matching to "1002 Fort Bridgman Road, Vernon, " -->
    <tag k="addr:city" v="Vernon"/>
    <tag k="addr:housenumber" v="1002"/>
    <tag k="addr:street" v="Fort Bridgman Road"/>
    <tag k="addr:state" v="VT"/>
    <tag k="ref:vcgi:esiteid" v="266613"/>
  </node>
  <node id="-1169" visible="true" lat="42.78560743" lon="-72.54366526">
    <tag k="addr:city" v="Vernon"/>
    <tag k="addr:housenumber" v="514"/>
    <tag k="addr:street" v="Tyler Hill Road"/>
    <tag k="addr:state" v="VT"/>
    <tag k="ref:vcgi:esiteid" v="266620"/>
  </node>
  <node id="-1178" visible="true" lat="42.79530252" lon="-72.55186641">
    <tag k="addr:city" v="Vernon"/>
    <tag k="addr:housenumber" v="322"/>
    <tag k="addr:street" v="Franklin Road"/>
    <tag k="addr:state" v="VT"/>
    <tag k="ref:vcgi:esiteid" v="266629"/>
  </node>
  <node id="-1187" visible="true" lat="42.79911665" lon="-72.55431074">
    <tag k="addr:city" v="Vernon"/>
    <tag k="addr:housenumber" v="454"/>
    <tag k="addr:street" v="Franklin Road"/>
    <tag k="addr:state" v="VT"/>
    <tag k="ref:vcgi:esiteid" v="266639"/>
  </node>
  <node id="-1195" visible="true" lat="42.78998844" lon="-72.55025393">
    <tag k="addr:city" v="Vernon"/>
    <tag k="addr:housenumber" v="106"/>
    <tag k="addr:street" v="Stoney Acres Road"/>
    <tag k="addr:state" v="VT"/>
    <tag k="ref:vcgi:esiteid" v="266647"/>
  </node>
  <node id="-1196" visible="true" lat="42.78644224" lon="-72.52710032">
    <tag k="addr:city" v="Vernon"/>
    <tag k="addr:housenumber" v="1585"/>
    <tag k="addr:street" v="Fort Bridgman Road"/>
    <tag k="addr:state" v="VT"/>
    <tag k="ref:vcgi:esiteid" v="266648"/>
  </node>
  <node id="-1212" visible="true" lat="42.77276101" lon="-72.521994">
    <tag k="addr:city" v="Vernon"/>
    <tag k="addr:housenumber" v="57"/>
    <tag k="addr:street" v="Bemis Road"/>
    <tag k="addr:state" v="VT"/>
    <tag k="ref:vcgi:esiteid" v="266665"/>
  </node>
  <node id="-1214" visible="true" lat="42.77232606" lon="-72.52255614">
    <tag k="addr:city" v="Vernon"/>
    <tag k="addr:housenumber" v="78"/>
    <tag k="addr:street" v="Bemis Road"/>
    <tag k="addr:state" v="VT"/>
    <tag k="ref:vcgi:esiteid" v="266667"/>
  </node>
  <node id="-1215" visible="true" lat="42.7635588" lon="-72.51438587">
    <tag k="addr:city" v="Vernon"/>
    <tag k="addr:housenumber" v="2449"/>
    <tag k="addr:street" v="Fort Bridgman Road"/>
    <tag k="addr:state" v="VT"/>
    <tag k="ref:vcgi:esiteid" v="266668"/>
  </node>
  <node id="-1219" visible="true" lat="42.7624583" lon="-72.50817752">
    <tag k="addr:city" v="Vernon"/>
    <tag k="addr:housenumber" v="22"/>
    <tag k="addr:street" v="Greenway Drive"/>
    <tag k="addr:state" v="VT"/>
    <tag k="ref:vcgi:esiteid" v="266672"/>
  </node>
  <node id="-1220" visible="true" lat="42.76294802" lon="-72.50585161">
    <tag k="addr:city" v="Vernon"/>
    <tag k="addr:housenumber" v="30"/>
    <tag k="addr:street" v="Stebbins Road"/>
    <tag k="addr:state" v="VT"/>
    <tag k="ref:vcgi:esiteid" v="266673"/>
  </node>
  <node id="-1224" visible="true" lat="42.76263641" lon="-72.49514918">
    <tag k="addr:city" v="Vernon"/>
    <tag k="addr:housenumber" v="524"/>
    <tag k="addr:street" v="Stebbins Road"/>
    <tag k="addr:state" v="VT"/>
    <tag k="ref:vcgi:esiteid" v="266677"/>
  </node>
  <node id="-1225" visible="true" lat="42.76215923" lon="-72.49479585">
    <tag k="addr:city" v="Vernon"/>
    <tag k="addr:housenumber" v="552"/>
    <tag k="addr:street" v="Stebbins Road"/>
    <tag k="addr:state" v="VT"/>
    <tag k="ref:vcgi:esiteid" v="266678"/>
  </node>
  <node id="-1226" visible="true" lat="42.76176952" lon="-72.49466742">
    <tag k="addr:city" v="Vernon"/>
    <tag k="addr:housenumber" v="562"/>
    <tag k="addr:street" v="Stebbins Road"/>
    <tag k="addr:state" v="VT"/>
    <tag k="ref:vcgi:esiteid" v="266679"/>
  </node>
  <node id="-1247" visible="true" lat="42.7293927" lon="-72.46675504">
    <tag k="addr:city" v="Vernon"/>
    <tag k="addr:housenumber" v="4509"/>
    <tag k="addr:street" v="Fort Bridgman Road"/>
    <tag k="addr:state" v="VT"/>
    <tag k="ref:vcgi:esiteid" v="266702"/>
  </node>
  <node id="-1254" visible="true" lat="42.76173347" lon="-72.51608757">
    <tag k="addr:city" v="Vernon"/>
    <tag k="addr:housenumber" v="26"/>
    <tag k="addr:street" v="West Road"/>
    <tag k="addr:state" v="VT"/>
    <tag k="ref:vcgi:esiteid" v="266710"/>
  </node>
  <node id="-1259" visible="true" lat="42.76196953" lon="-72.52631996">
    <tag k="addr:city" v="Vernon"/>
    <tag k="addr:housenumber" v="310"/>
    <tag k="addr:street" v="West Road"/>
    <tag k="addr:state" v="VT"/>
    <tag k="ref:vcgi:esiteid" v="266715"/>
  </node>
  <node id="-1262" visible="true" lat="42.76055183" lon="-72.5316741">
    <tag k="addr:city" v="Vernon"/>
    <tag k="addr:housenumber" v="464"/>
    <tag k="addr:street" v="West Road"/>
    <tag k="addr:state" v="VT"/>
    <tag k="ref:vcgi:esiteid" v="266719"/>
  </node>
  <node id="-1267" visible="true" lat="42.76034628" lon="-72.52192101">
    <tag k="addr:city" v="Vernon"/>
    <tag k="addr:housenumber" v="39"/>
    <tag k="addr:street" v="Southward Drive"/>
    <tag k="addr:state" v="VT"/>
    <tag k="ref:vcgi:esiteid" v="266724"/>
  </node>
  <node id="-1268" visible="true" lat="42.75953448" lon="-72.52202127">
    <tag k="addr:city" v="Vernon"/>
    <tag k="addr:housenumber" v="55"/>
    <tag k="addr:street" v="Southward Drive"/>
    <tag k="addr:state" v="VT"/>
    <tag k="ref:vcgi:esiteid" v="266725"/>
  </node>
  <node id="-1273" visible="true" lat="42.75693516" lon="-72.51277729">
    <tag k="addr:city" v="Vernon"/>
    <tag k="addr:housenumber" v="32"/>
    <tag k="addr:street" v="Oak Court"/>
    <tag k="addr:state" v="VT"/>
    <tag k="ref:vcgi:esiteid" v="266731"/>
  </node>
  <node id="-1278" visible="true" lat="42.75114144" lon="-72.5152965">
    <tag k="addr:city" v="Vernon"/>
    <tag k="addr:housenumber" v="19"/>
    <tag k="addr:street" v="Old Farm Road"/>
    <tag k="addr:state" v="VT"/>
    <tag k="ref:vcgi:esiteid" v="266736"/>
  </node>
  <node id="-1279" visible="true" lat="42.75127136" lon="-72.51607945">
    <tag k="addr:city" v="Vernon"/>
    <tag k="addr:housenumber" v="40"/>
    <tag k="addr:street" v="Old Farm Road"/>
    <tag k="addr:state" v="VT"/>
    <tag k="ref:vcgi:esiteid" v="266737"/>
  </node>
  <node id="-1284" visible="true" lat="42.74901081" lon="-72.5113151">
    <tag k="addr:city" v="Vernon"/>
    <tag k="addr:housenumber" v="23"/>
    <tag k="addr:street" v="Forrett Drive"/>
    <tag k="addr:state" v="VT"/>
    <tag k="ref:vcgi:esiteid" v="266742"/>
  </node>
  <node id="-1290" visible="true" lat="42.74447311" lon="-72.51917584">
    <tag k="addr:city" v="Vernon"/>
    <tag k="addr:housenumber" v="235"/>
    <tag k="addr:street" v="Huckle Hill Road"/>
    <tag k="addr:state" v="VT"/>
    <tag k="ref:vcgi:esiteid" v="266748"/>
  </node>
  <node id="-1299" visible="true" lat="42.73470766" lon="-72.52120726">
    <tag k="addr:city" v="Vernon"/>
    <tag k="addr:housenumber" v="99"/>
    <tag k="addr:street" v="Wheeler Road"/>
    <tag k="addr:state" v="VT"/>
    <tag k="ref:vcgi:esiteid" v="266757"/>
  </node>
  <node id="-1312" visible="true" lat="42.74580661" lon="-72.50968243">
    <tag k="addr:city" v="Vernon"/>
    <tag k="addr:housenumber" v="699"/>
    <tag k="addr:street" v="Pond Road"/>
    <tag k="addr:state" v="VT"/>
    <tag k="ref:vcgi:esiteid" v="266770"/>
  </node>
  <node id="-1348" visible="true" lat="42.73354617" lon="-72.48900987">
    <tag k="addr:city" v="Vernon"/>
    <tag k="addr:housenumber" v="42"/>
    <tag k="addr:street" v="Houghton Hill Road"/>
    <tag k="addr:state" v="VT"/>
    <tag k="ref:vcgi:esiteid" v="266807"/>
  </node>
  <node id="-1400" visible="true" lat="42.77286741" lon="-72.52942011">
    <tag k="addr:city" v="Vernon"/>
    <tag k="addr:housenumber" v="253"/>
    <tag k="addr:street" v="Peck Road"/>
    <tag k="addr:state" v="VT"/>
    <tag k="ref:vcgi:esiteid" v="266860"/>
  </node>
  <node id="-1401" visible="true" lat="42.73083252" lon="-72.54090553">
    <tag k="addr:city" v="Vernon"/>
    <tag k="addr:housenumber" v="409"/>
    <tag k="addr:street" v="Basin Road"/>
    <tag k="addr:state" v="VT"/>
    <tag k="ref:vcgi:esiteid" v="266861"/>
  </node>
  <node id="-1411" visible="true" lat="42.77772629" lon="-72.52152335">
    <tag k="addr:city" v="Vernon"/>
    <tag k="addr:housenumber" v="1897"/>
    <tag k="addr:street" v="Fort Bridgman Road"/>
    <tag k="addr:state" v="VT"/>
    <tag k="ref:vcgi:esiteid" v="266871"/>
  </node>
  <node id="-1414" visible="true" lat="42.76018" lon="-72.51795798">
    <tag k="addr:city" v="Vernon"/>
    <tag k="addr:housenumber" v="102"/>
    <tag k="addr:street" v="Pond Road"/>
    <tag k="addr:state" v="VT"/>
    <tag k="ref:vcgi:esiteid" v="266874"/>
  </node>
  <node id="-1415" visible="true" lat="42.73204875" lon="-72.52449764">
    <tag k="addr:city" v="Vernon"/>
    <tag k="addr:housenumber" v="100"/>
    <tag k="addr:street" v="Hemlock Road"/>
    <tag k="addr:state" v="VT"/>
    <tag k="ref:vcgi:esiteid" v="266875"/>
  </node>
  <node id="-1422" visible="true" lat="42.74860424" lon="-72.51074471">
    <tag k="addr:city" v="Vernon"/>
    <tag k="addr:housenumber" v="28"/>
    <tag k="addr:street" v="Forrett Drive"/>
    <tag k="addr:state" v="VT"/>
    <tag k="ref:vcgi:esiteid" v="266882"/>
  </node>
  <node id="-1429" visible="true" lat="42.76454996" lon="-72.52754572">
    <tag k="addr:city" v="Vernon"/>
    <tag k="addr:housenumber" v="118"/>
    <tag k="addr:street" v="Sak Road"/>
    <tag k="addr:state" v="VT"/>
    <tag k="ref:vcgi:esiteid" v="313199"/>
  </node>
  <node id="-1430" visible="true" lat="42.77191616" lon="-72.52447624">
    <tag k="addr:city" v="Vernon"/>
    <tag k="addr:housenumber" v="140"/>
    <tag k="addr:street" v="Bemis Road"/>
    <tag k="addr:state" v="VT"/>
    <tag k="ref:vcgi:esiteid" v="313200"/>
  </node>
  <node id="-1432" visible="true" lat="42.76116958" lon="-72.52474108">
    <tag k="addr:city" v="Vernon"/>
    <tag k="addr:housenumber" v="279"/>
    <tag k="addr:street" v="West Road"/>
    <tag k="addr:state" v="VT"/>
    <tag k="ref:vcgi:esiteid" v="313203"/>
  </node>
  <node id="-1433" visible="true" lat="42.75765919" lon="-72.53726277">
    <tag k="addr:city" v="Vernon"/>
    <tag k="addr:housenumber" v="664"/>
    <tag k="addr:street" v="West Road"/>
    <tag k="addr:state" v="VT"/>
    <tag k="ref:vcgi:esiteid" v="313204"/>
  </node>
  <node id="-1434" visible="true" lat="42.76178681" lon="-72.50540754">
    <tag k="addr:city" v="Vernon"/>
    <tag k="addr:housenumber" v="2774"/>
    <tag k="addr:street" v="Fort Bridgman Road"/>
    <tag k="addr:state" v="VT"/>
    <tag k="ref:vcgi:esiteid" v="313205"/>
  </node>
  <node id="-1441" visible="true" lat="42.75997119" lon="-72.49488118">
    <tag k="addr:city" v="Vernon"/>
    <tag k="addr:housenumber" v="38"/>
    <tag k="addr:street" v="Mary Drive"/>
    <tag k="addr:state" v="VT"/>
    <tag k="ref:vcgi:esiteid" v="317499"/>
  </node>
  <node id="-1444" visible="true" lat="42.79117177" lon="-72.5473317">
    <tag k="addr:city" v="Vernon"/>
    <tag k="addr:housenumber" v="205"/>
    <tag k="addr:street" v="Skyline Drive"/>
    <tag k="addr:state" v="VT"/>
    <tag k="ref:vcgi:esiteid" v="317502"/>
  </node>
  <node id="-1446" visible="true" lat="42.74662982" lon="-72.51456903">
    <tag k="addr:city" v="Vernon"/>
    <tag k="addr:housenumber" v="82"/>
    <tag k="addr:street" v="Huckle Hill Road"/>
    <tag k="addr:state" v="VT"/>
    <tag k="ref:vcgi:esiteid" v="335924"/>
  </node>
  <node id="-1448" visible="true" lat="42.79763513" lon="-72.5515075">
    <tag k="addr:city" v="Vernon"/>
    <tag k="addr:housenumber" v="42"/>
    <tag k="addr:street" v="Cushing Lot Road"/>
    <tag k="addr:state" v="VT"/>
    <tag k="ref:vcgi:esiteid" v="335945"/>
  </node>
  <node id="-1452" visible="true" lat="42.75752237" lon="-72.51069281">
    <tag k="addr:city" v="Vernon"/>
    <tag k="addr:housenumber" v="48"/>
    <tag k="addr:street" v="Pine Ridge"/>
    <tag k="addr:state" v="VT"/>
    <tag k="ref:vcgi:esiteid" v="335950"/>
  </node>
  <node id="-1453" visible="true" lat="42.75186744" lon="-72.51585857">
    <tag k="addr:city" v="Vernon"/>
    <tag k="addr:housenumber" v="448"/>
    <tag k="addr:street" v="Pond Road"/>
    <tag k="addr:state" v="VT"/>
    <tag k="ref:vcgi:esiteid" v="335951"/>
  </node>
  <node id="-1455" visible="true" lat="42.75909444" lon="-72.5151667">
    <tag k="addr:city" v="Vernon"/>
    <tag k="addr:housenumber" v="100"/>
    <tag k="addr:street" v="Washburn Way"/>
    <tag k="addr:state" v="VT"/>
    <tag k="ref:vcgi:esiteid" v="335953"/>
  </node>
  <node id="-1456" visible="true" lat="42.76185919" lon="-72.52667771">
    <tag k="addr:city" v="Vernon"/>
    <tag k="addr:housenumber" v="324"/>
    <tag k="addr:street" v="West Road"/>
    <tag k="addr:state" v="VT"/>
    <tag k="ref:vcgi:esiteid" v="335954"/>
  </node>
  <node id="-1458" visible="true" lat="42.73513603" lon="-72.53566599">
    <tag k="addr:city" v="Vernon"/>
    <tag k="addr:housenumber" v="222"/>
    <tag k="addr:street" v="Basin Road"/>
    <tag k="addr:state" v="VT"/>
    <tag k="ref:vcgi:esiteid" v="337736"/>
  </node>
  <node id="-1466" visible="true" lat="42.77092595" lon="-72.51644927">
    <tag k="addr:city" v="Vernon"/>
    <tag k="addr:housenumber" v="109"/>
    <tag k="addr:street" v="Governor Hunt Road"/>
    <tag k="addr:state" v="VT"/>
    <tag k="ref:vcgi:esiteid" v="343938"/>
  </node>
  <node id="-1467" visible="true" lat="42.75992702" lon="-72.55028506">
    <tag k="addr:city" v="Vernon"/>
    <tag k="addr:housenumber" v="1102"/>
    <tag k="addr:street" v="West Road"/>
    <tag k="addr:state" v="VT"/>
    <tag k="ref:vcgi:esiteid" v="343939"/>
  </node>
  <node id="-1468" visible="true" lat="42.73686682" lon="-72.53942158">
    <tag k="addr:city" v="Vernon"/>
    <tag k="addr:housenumber" v="110"/>
    <tag k="addr:street" v="Honey Brim Road"/>
    <tag k="addr:state" v="VT"/>
    <tag k="ref:vcgi:esiteid" v="343941"/>
  </node>
  <node id="-1470" visible="true" lat="42.74224877" lon="-72.51016155">
    <tag k="addr:city" v="Vernon"/>
    <tag k="addr:housenumber" v="54"/>
    <tag k="addr:street" v="Lily Pond Road"/>
    <tag k="addr:state" v="VT"/>
    <tag k="ref:vcgi:esiteid" v="343943"/>
  </node>
  <node id="-1471" visible="true" lat="42.73541835" lon="-72.48973238">
    <tag k="addr:city" v="Vernon"/>
    <tag k="addr:housenumber" v="20"/>
    <tag k="addr:street" v="Country Lane"/>
    <tag k="addr:state" v="VT"/>
    <tag k="ref:vcgi:esiteid" v="343944"/>
  </node>
  <node id="-1474" visible="true" lat="42.7494751" lon="-72.51215743">
    <tag k="addr:city" v="Vernon"/>
    <tag k="addr:housenumber" v="539"/>
    <tag k="addr:street" v="Pond Road"/>
    <tag k="addr:state" v="VT"/>
    <tag k="ref:vcgi:esiteid" v="448697"/>
  </node>
  <node id="-1476" visible="true" lat="42.7550713" lon="-72.51045432">
    <tag k="addr:city" v="Vernon"/>
    <tag k="addr:housenumber" v="37"/>
    <tag k="addr:street" v="Poplar Lane"/>
    <tag k="addr:state" v="VT"/>
    <tag k="ref:vcgi:esiteid" v="448814"/>
  </node>
  <node id="-1481" visible="true" lat="42.77679878" lon="-72.52287704">
    <tag k="addr:city" v="Vernon"/>
    <tag k="addr:housenumber" v="63"/>
    <tag k="addr:street" v="Peck Road"/>
    <tag k="addr:state" v="VT"/>
    <tag k="ref:vcgi:esiteid" v="454193"/>
  </node>
  <node id="-1489" visible="true" lat="42.79264936" lon="-72.55395016">
    <tag k="addr:city" v="Vernon"/>
    <tag k="addr:housenumber" v="229"/>
    <tag k="addr:street" v="Franklin Road"/>
    <tag k="addr:state" v="VT"/>
    <tag k="ref:vcgi:esiteid" v="617119"/>
  </node>
  <node id="-1491" visible="true" lat="42.7635235" lon="-72.49390568">
    <tag k="addr:city" v="Vernon"/>
    <tag k="addr:housenumber" v="493"/>
    <tag k="addr:street" v="Stebbins Road"/>
    <tag k="addr:state" v="VT"/>
    <tag k="ref:vcgi:esiteid" v="620541"/>
  </node>
  <node id="-1509" visible="true" lat="42.7688228" lon="-72.51766277">
    <tag k="addr:city" v="Vernon"/>
    <tag k="addr:housenumber" v="71"/>
    <tag k="addr:street" v="Governor Hunt Road"/>
    <tag k="addr:state" v="VT"/>
    <tag k="ref:vcgi:esiteid" v="753691"/>
  </node>
</osm>
