<?xml version="1.0" encoding="UTF-8"?>
<osm version="0.6" generator="JOSM" upload="false">
  <node id="-100" visible="true" lat="42.73512139" lon="-72.53327477">
    <tag k="addr:city" v="Vernon"/>
    <tag k="addr:housenumber" v="100"/>
    <tag k="addr:street" v="Basin Road"/>
    <tag k="addr:state" v="VT"/>
    <tag k="ref:vcgi:esiteid" v="358"/>
  </node>
  <node id="-101" visible="true" lat="42.77569475" lon="-72.56310827">
    <tag k="addr:city" v="Vernon"/>
    <tag k="addr:housenumber" v="208"/>
    <tag k="addr:street" v="Lowry Road"/>
    <tag k="addr:state" v="VT"/>
    <tag k="ref:vcgi:esiteid" v="265523"/>
  </node>
  <node id="-102" visible="true" lat="42.77532245" lon="-72.56392788">
    <tag k="addr:city" v="Vernon"/>
    <tag k="addr:housenumber" v="172"/>
    <tag k="addr:street" v="Lowry Road"/>
    <tag k="addr:state" v="VT"/>
    <tag k="ref:vcgi:esiteid" v="265525"/>
  </node>
  <node id="-103" visible="true" lat="42.82382314" lon="-72.5474947">
    <tag k="addr:city" v="Vernon"/>
    <tag k="addr:housenumber" v="2"/>
    <tag k="addr:street" v="Fort Bridgman Road"/>
    <tag k="addr:state" v="VT"/>
    <tag k="ref:vcgi:esiteid" v="265527"/>
  </node>
  <node id="-106" visible="true" lat="42.82077563" lon="-72.54758852">
    <tag k="addr:city" v="Vernon"/>
    <tag k="addr:housenumber" v="122"/>
    <tag k="addr:street" v="Fort Bridgman Road"/>
    <tag k="addr:state" v="VT"/>
    <tag k="ref:vcgi:esiteid" v="265532"/>
  </node>
  <node id="-107" visible="true" lat="42.8203788" lon="-72.55547042">
    <tag k="addr:city" v="Vernon"/>
    <tag k="addr:housenumber" v="59"/>
    <tag k="addr:street" v="Steep Hill Lane"/>
    <tag k="addr:state" v="VT"/>
    <tag k="ref:vcgi:esiteid" v="265533"/>
  </node>
  <node id="-113" visible="true" lat="42.82013417" lon="-72.55046632">
    <tag k="addr:city" v="Vernon"/>
    <tag k="addr:housenumber" v="70"/>
    <tag k="addr:street" v="Broad Brook Road"/>
    <tag k="addr:state" v="VT"/>
    <tag k="ref:vcgi:esiteid" v="265539"/>
  </node>
  <node id="-114" visible="true" lat="42.82010839" lon="-72.55016294">
    <tag k="addr:city" v="Vernon"/>
    <tag k="addr:housenumber" v="40"/>
    <tag k="addr:street" v="Broad Brook Road"/>
    <tag k="addr:state" v="VT"/>
    <tag k="ref:vcgi:esiteid" v="265540"/>
  </node>
  <node id="-116" visible="true" lat="42.81883746" lon="-72.55015104">
    <tag k="addr:city" v="Vernon"/>
    <tag k="addr:housenumber" v="51"/>
    <tag k="addr:street" v="Ox Cart Road"/>
    <tag k="addr:state" v="VT"/>
    <tag k="ref:vcgi:esiteid" v="265542"/>
  </node>
  <node id="-120" visible="true" lat="42.81831664" lon="-72.5524185">
    <tag k="addr:city" v="Vernon"/>
    <tag k="addr:housenumber" v="124"/>
    <tag k="addr:street" v="Ox Cart Road"/>
    <tag k="addr:state" v="VT"/>
    <tag k="ref:vcgi:esiteid" v="265546"/>
  </node>
  <node id="-121" visible="true" lat="42.81809229" lon="-72.55299861">
    <tag k="addr:city" v="Vernon"/>
    <tag k="addr:housenumber" v="137"/>
    <tag k="addr:street" v="Ox Cart Road"/>
    <tag k="addr:state" v="VT"/>
    <tag k="ref:vcgi:esiteid" v="265547"/>
  </node>
  <node id="-126" visible="true" lat="42.81945425" lon="-72.5539409">
    <tag k="addr:city" v="Vernon"/>
    <tag k="addr:housenumber" v="44"/>
    <tag k="addr:street" v="Steep Hill Lane"/>
    <tag k="addr:state" v="VT"/>
    <tag k="ref:vcgi:esiteid" v="265552"/>
  </node>
  <node id="-127" visible="true" lat="42.81882568" lon="-72.55427063">
    <tag k="addr:city" v="Vernon"/>
    <tag k="addr:housenumber" v="168"/>
    <tag k="addr:street" v="Broad Brook Road"/>
    <tag k="addr:state" v="VT"/>
    <tag k="ref:vcgi:esiteid" v="265553"/>
  </node>
  <node id="-131" visible="true" lat="42.80315423" lon="-72.56166463">
    <tag k="addr:city" v="Vernon"/>
    <tag k="addr:housenumber" v="748"/>
    <tag k="addr:street" v="Franklin Road"/>
    <tag k="addr:state" v="VT"/>
    <tag k="ref:vcgi:esiteid" v="265559"/>
  </node>
  <node id="-133" visible="true" lat="42.80300519" lon="-72.5587364">
    <tag k="addr:city" v="Vernon"/>
    <tag k="addr:housenumber" v="664"/>
    <tag k="addr:street" v="Franklin Road"/>
    <tag k="addr:state" v="VT"/>
    <tag k="ref:vcgi:esiteid" v="265561"/>
  </node>
  <node id="-134" visible="true" lat="42.80299394" lon="-72.55838188">
    <tag k="addr:city" v="Vernon"/>
    <tag k="addr:housenumber" v="662"/>
    <tag k="addr:street" v="Franklin Road"/>
    <tag k="addr:state" v="VT"/>
    <tag k="ref:vcgi:esiteid" v="265562"/>
  </node>
  <node id="-137" visible="true" lat="42.8039006" lon="-72.55677491">
    <tag k="addr:city" v="Vernon"/>
    <tag k="addr:housenumber" v="616"/>
    <tag k="addr:street" v="Franklin Road"/>
    <tag k="addr:state" v="VT"/>
    <tag k="ref:vcgi:esiteid" v="265565"/>
  </node>
  <node id="-138" visible="true" lat="42.80307379" lon="-72.55645587">
    <tag k="addr:city" v="Vernon"/>
    <tag k="addr:housenumber" v="606"/>
    <tag k="addr:street" v="Franklin Road"/>
    <tag k="addr:state" v="VT"/>
    <tag k="ref:vcgi:esiteid" v="265566"/>
  </node>
  <node id="-139" visible="true" lat="42.80616965" lon="-72.55143898">
    <tag k="addr:city" v="Vernon"/>
    <tag k="addr:housenumber" v="311"/>
    <tag k="addr:street" v="Laurel Ledges"/>
    <tag k="addr:state" v="VT"/>
    <tag k="ref:vcgi:esiteid" v="265567"/>
  </node>
  <node id="-140" visible="true" lat="42.8035173" lon="-72.54919195">
    <tag k="addr:city" v="Vernon"/>
    <tag k="addr:housenumber" v="244"/>
    <tag k="addr:street" v="Laurel Ledges"/>
    <tag k="addr:state" v="VT"/>
    <tag k="ref:vcgi:esiteid" v="265568"/>
  </node>
  <node id="-152" visible="true" lat="42.79993122" lon="-72.55348044">
    <tag k="addr:city" v="Vernon"/>
    <tag k="addr:housenumber" v="69"/>
    <tag k="addr:street" v="Laurel Ledges"/>
    <tag k="addr:state" v="VT"/>
    <tag k="ref:vcgi:esiteid" v="265580"/>
  </node>
  <node id="-153" visible="true" lat="42.79934131" lon="-72.55344525">
    <tag k="addr:city" v="Vernon"/>
    <tag k="addr:housenumber" v="37"/>
    <tag k="addr:street" v="Laurel Ledges"/>
    <tag k="addr:state" v="VT"/>
    <tag k="ref:vcgi:esiteid" v="265581"/>
  </node>
  <node id="-156" visible="true" lat="42.8009917" lon="-72.55449517">
    <tag k="addr:city" v="Vernon"/>
    <tag k="addr:housenumber" v="532"/>
    <tag k="addr:street" v="Franklin Road"/>
    <tag k="addr:state" v="VT"/>
    <tag k="ref:vcgi:esiteid" v="265584"/>
  </node>
  <node id="-157" visible="true" lat="42.80153409" lon="-72.55467678">
    <tag k="addr:city" v="Vernon"/>
    <tag k="addr:housenumber" v="542"/>
    <tag k="addr:street" v="Franklin Road"/>
    <tag k="addr:state" v="VT"/>
    <tag k="ref:vcgi:esiteid" v="265585"/>
  </node>
  <node id="-158" visible="true" lat="42.80179398" lon="-72.55511561">
    <tag k="addr:city" v="Vernon"/>
    <tag k="addr:housenumber" v="576"/>
    <tag k="addr:street" v="Franklin Road"/>
    <tag k="addr:state" v="VT"/>
    <tag k="ref:vcgi:esiteid" v="265586"/>
  </node>
  <node id="-160" visible="true" lat="42.80015383" lon="-72.55497934">
    <tag k="addr:city" v="Vernon"/>
    <tag k="addr:housenumber" v="503"/>
    <tag k="addr:street" v="Franklin Road"/>
    <tag k="addr:state" v="VT"/>
    <tag k="ref:vcgi:esiteid" v="265588"/>
  </node>
  <node id="-162" visible="true" lat="42.80245261" lon="-72.56156545">
    <tag k="addr:city" v="Vernon"/>
    <tag k="addr:housenumber" v="749"/>
    <tag k="addr:street" v="Franklin Road"/>
    <tag k="addr:state" v="VT"/>
    <tag k="ref:vcgi:esiteid" v="265592"/>
  </node>
  <node id="-163" visible="true" lat="42.80243776" lon="-72.55796034">
    <tag k="addr:city" v="Vernon"/>
    <tag k="addr:housenumber" v="649"/>
    <tag k="addr:street" v="Franklin Road"/>
    <tag k="addr:state" v="VT"/>
    <tag k="ref:vcgi:esiteid" v="265593"/>
  </node>
  <node id="-185" visible="true" lat="42.79638483" lon="-72.5454391">
    <tag k="addr:city" v="Vernon"/>
    <tag k="addr:housenumber" v="196"/>
    <tag k="addr:street" v="Cushing Lot Road"/>
    <tag k="addr:state" v="VT"/>
    <tag k="ref:vcgi:esiteid" v="265615"/>
  </node>
  <node id="-188" visible="true" lat="42.79544893" lon="-72.5355715">
    <tag k="addr:city" v="Vernon"/>
    <tag k="addr:housenumber" v="1140"/>
    <tag k="addr:street" v="Fort Bridgman Road"/>
    <tag k="addr:state" v="VT"/>
    <tag k="ref:vcgi:esiteid" v="265618"/>
  </node>
  <node id="-282" visible="true" lat="42.77850055" lon="-72.52141181">
    <tag k="addr:city" v="Vernon"/>
    <tag k="addr:housenumber" v="1879"/>
    <tag k="addr:street" v="Fort Bridgman Road"/>
    <tag k="addr:state" v="VT"/>
    <tag k="ref:vcgi:esiteid" v="265712"/>
  </node>
  <node id="-302" visible="true" lat="42.77846045" lon="-72.51606614">
    <tag k="addr:city" v="Vernon"/>
    <tag k="addr:housenumber" v="530"/>
    <tag k="addr:street" v="Governor Hunt Road"/>
    <tag k="addr:state" v="VT"/>
    <tag k="ref:vcgi:esiteid" v="265734"/>
  </node>
  <node id="-316" visible="true" lat="42.77493469" lon="-72.51504604">
    <tag k="addr:city" v="Vernon"/>
    <tag k="addr:housenumber" v="304"/>
    <tag k="addr:street" v="Governor Hunt Road"/>
    <tag k="addr:state" v="VT"/>
    <tag k="ref:vcgi:esiteid" v="265758"/>
  </node>
  <node id="-320" visible="true" lat="42.77482005" lon="-72.51594866">
    <tag k="addr:city" v="Vernon"/>
    <tag k="addr:housenumber" v="301"/>
    <tag k="addr:street" v="Governor Hunt Road"/>
    <tag k="addr:state" v="VT"/>
    <tag k="ref:vcgi:esiteid" v="265762"/>
  </node>
  <node id="-353" visible="true" lat="42.77187745" lon="-72.51603272">
    <tag k="addr:city" v="Vernon"/>
    <tag k="addr:housenumber" v="201"/>
    <tag k="addr:street" v="Governor Hunt Road"/>
    <tag k="addr:state" v="VT"/>
    <tag k="ref:vcgi:esiteid" v="265797"/>
  </node>
  <node id="-372" visible="true" lat="42.76996266" lon="-72.52394387">
    <tag k="addr:city" v="Vernon"/>
    <tag k="addr:housenumber" v="73"/>
    <tag k="addr:street" v="Rinfret Drive"/>
    <tag k="addr:state" v="VT"/>
    <tag k="ref:vcgi:esiteid" v="265816"/>
  </node>
  <node id="-376" visible="true" lat="42.76800573" lon="-72.53182592">
    <tag k="addr:city" v="Vernon"/>
    <tag k="addr:housenumber" v="60"/>
    <tag k="addr:street" v="Rocky Ledge Court"/>
    <tag k="addr:state" v="VT"/>
    <tag k="ref:vcgi:esiteid" v="265820"/>
  </node>
  <node id="-383" visible="true" lat="42.76936261" lon="-72.53749315">
    <tag k="addr:city" v="Vernon"/>
    <tag k="addr:housenumber" v="379"/>
    <tag k="addr:street" v="Fairman Road"/>
    <tag k="addr:state" v="VT"/>
    <tag k="ref:vcgi:esiteid" v="265827"/>
  </node>
  <node id="-396" visible="true" lat="42.76538639" lon="-72.52736483">
    <tag k="addr:city" v="Vernon"/>
    <tag k="addr:housenumber" v="142"/>
    <tag k="addr:street" v="Sak Road"/>
    <tag k="addr:state" v="VT"/>
    <tag k="ref:vcgi:esiteid" v="265840"/>
  </node>
  <node id="-437" visible="true" lat="42.76352203" lon="-72.5063976">
    <tag k="addr:city" v="Vernon"/>
    <tag k="addr:housenumber" v="63"/>
    <tag k="addr:street" v="Stebbins Road"/>
    <tag k="addr:state" v="VT"/>
    <tag k="ref:vcgi:esiteid" v="265881"/>
  </node>
  <node id="-438" visible="true" lat="42.76407997" lon="-72.50605901">
    <tag k="addr:city" v="Vernon"/>
    <tag k="addr:housenumber" v="63"/>
    <tag k="addr:street" v="Stebbins Road"/>
    <tag k="addr:state" v="VT"/>
    <tag k="ref:vcgi:esiteid" v="265882"/>
  </node>
  <node id="-439" visible="true" lat="42.76437154" lon="-72.50531037">
    <tag k="addr:city" v="Vernon"/>
    <tag k="addr:housenumber" v="63"/>
    <tag k="addr:street" v="Stebbins Road"/>
    <tag k="addr:state" v="VT"/>
    <tag k="ref:vcgi:esiteid" v="265883"/>
  </node>
  <node id="-443" visible="true" lat="42.76228226" lon="-72.503778">
    <tag k="addr:city" v="Vernon"/>
    <tag k="addr:housenumber" v="2813"/>
    <tag k="addr:street" v="Fort Bridgman Road"/>
    <tag k="addr:state" v="VT"/>
    <tag k="ref:vcgi:esiteid" v="265887"/>
  </node>
  <node id="-449" visible="true" lat="42.76728894" lon="-72.50019125">
    <tag k="addr:city" v="Vernon"/>
    <tag k="addr:housenumber" v="259"/>
    <tag k="addr:street" v="Stebbins Road"/>
    <tag k="addr:state" v="VT"/>
    <tag k="ref:vcgi:esiteid" v="265893"/>
  </node>
  <node id="-459" visible="true" lat="42.76712316" lon="-72.49966367">
    <tag k="addr:city" v="Vernon"/>
    <tag k="addr:housenumber" v="260"/>
    <tag k="addr:street" v="Stebbins Road"/>
    <tag k="addr:state" v="VT"/>
    <tag k="ref:vcgi:esiteid" v="265903"/>
  </node>
  <node id="-463" visible="true" lat="42.761905" lon="-72.50323492">
    <tag k="addr:city" v="Vernon"/>
    <tag k="addr:housenumber" v="2827"/>
    <tag k="addr:street" v="Fort Bridgman Road"/>
    <tag k="addr:state" v="VT"/>
    <tag k="ref:vcgi:esiteid" v="265908"/>
  </node>
  <node id="-464" visible="true" lat="42.76184785" lon="-72.50266859">
    <tag k="addr:city" v="Vernon"/>
    <tag k="addr:housenumber" v="5"/>
    <tag k="addr:street" v="Fletcher Drive"/>
    <tag k="addr:state" v="VT"/>
    <tag k="ref:vcgi:esiteid" v="265909"/>
  </node>
  <node id="-465" visible="true" lat="42.76228231" lon="-72.50152043">
    <tag k="addr:city" v="Vernon"/>
    <tag k="addr:housenumber" v="37"/>
    <tag k="addr:street" v="Fletcher Drive"/>
    <tag k="addr:state" v="VT"/>
    <tag k="ref:vcgi:esiteid" v="265910"/>
  </node>
  <node id="-466" visible="true" lat="42.761825" lon="-72.50172601">
    <tag k="addr:city" v="Vernon"/>
    <tag k="addr:housenumber" v="28"/>
    <tag k="addr:street" v="Fletcher Drive"/>
    <tag k="addr:state" v="VT"/>
    <tag k="ref:vcgi:esiteid" v="265911"/>
  </node>
  <node id="-509" visible="true" lat="42.76148773" lon="-72.49839788">
    <tag k="addr:city" v="Vernon"/>
    <tag k="addr:housenumber" v="2983"/>
    <tag k="addr:street" v="Fort Bridgman Road"/>
    <tag k="addr:state" v="VT"/>
    <tag k="ref:vcgi:esiteid" v="265956"/>
  </node>
  <node id="-510" visible="true" lat="42.76115905" lon="-72.49965853">
    <tag k="addr:city" v="Vernon"/>
    <tag k="addr:housenumber" v="2935"/>
    <tag k="addr:street" v="Fort Bridgman Road"/>
    <tag k="addr:state" v="VT"/>
    <tag k="ref:vcgi:esiteid" v="265957"/>
  </node>
  <node id="-513" visible="true" lat="42.76115333" lon="-72.50057395">
    <tag k="addr:city" v="Vernon"/>
    <tag k="addr:housenumber" v="2905"/>
    <tag k="addr:street" v="Fort Bridgman Road"/>
    <tag k="addr:state" v="VT"/>
    <tag k="ref:vcgi:esiteid" v="265960"/>
  </node>
  <node id="-514" visible="true" lat="42.76124193" lon="-72.50121398">
    <tag k="addr:city" v="Vernon"/>
    <tag k="addr:housenumber" v="2887"/>
    <tag k="addr:street" v="Fort Bridgman Road"/>
    <tag k="addr:state" v="VT"/>
    <tag k="ref:vcgi:esiteid" v="265961"/>
  </node>
  <node id="-515" visible="true" lat="42.76129052" lon="-72.50143895">
    <tag k="addr:city" v="Vernon"/>
    <tag k="addr:housenumber" v="4"/>
    <tag k="addr:street" v="Rondeau Way"/>
    <tag k="addr:state" v="VT"/>
    <tag k="ref:vcgi:esiteid" v="265962"/>
  </node>
  <node id="-516" visible="true" lat="42.76144771" lon="-72.50236214">
    <tag k="addr:city" v="Vernon"/>
    <tag k="addr:housenumber" v="2853"/>
    <tag k="addr:street" v="Fort Bridgman Road"/>
    <tag k="addr:state" v="VT"/>
    <tag k="ref:vcgi:esiteid" v="265963"/>
  </node>
  <node id="-517" visible="true" lat="42.76149339" lon="-72.50416584">
    <tag k="addr:city" v="Vernon"/>
    <tag k="addr:housenumber" v="2810"/>
    <tag k="addr:street" v="Fort Bridgman Road"/>
    <tag k="addr:state" v="VT"/>
    <tag k="ref:vcgi:esiteid" v="265964"/>
  </node>
  <node id="-518" visible="true" lat="42.76132763" lon="-72.50365382">
    <tag k="addr:city" v="Vernon"/>
    <tag k="addr:housenumber" v="2822"/>
    <tag k="addr:street" v="Fort Bridgman Road"/>
    <tag k="addr:state" v="VT"/>
    <tag k="ref:vcgi:esiteid" v="265965"/>
  </node>
  <node id="-521" visible="true" lat="42.76115615" lon="-72.50301766">
    <tag k="addr:city" v="Vernon"/>
    <tag k="addr:housenumber" v="2842"/>
    <tag k="addr:street" v="Fort Bridgman Road"/>
    <tag k="addr:state" v="VT"/>
    <tag k="ref:vcgi:esiteid" v="265968"/>
  </node>
  <node id="-522" visible="true" lat="42.76075033" lon="-72.49981757">
    <tag k="addr:city" v="Vernon"/>
    <tag k="addr:housenumber" v="2908"/>
    <tag k="addr:street" v="Fort Bridgman Road"/>
    <tag k="addr:state" v="VT"/>
    <tag k="ref:vcgi:esiteid" v="265969"/>
  </node>
  <node id="-523" visible="true" lat="42.7605885" lon="-72.49913242">
    <tag k="addr:city" v="Vernon"/>
    <tag k="addr:housenumber" v="2944"/>
    <tag k="addr:street" v="Fort Bridgman Road"/>
    <tag k="addr:state" v="VT"/>
    <tag k="ref:vcgi:esiteid" v="265970"/>
  </node>
  <node id="-524" visible="true" lat="42.76059421" lon="-72.49868247">
    <tag k="addr:city" v="Vernon"/>
    <tag k="addr:housenumber" v="2956"/>
    <tag k="addr:street" v="Fort Bridgman Road"/>
    <tag k="addr:state" v="VT"/>
    <tag k="ref:vcgi:esiteid" v="265971"/>
  </node>
  <node id="-528" visible="true" lat="42.76153307" lon="-72.50961186">
    <tag k="addr:city" v="Vernon"/>
    <tag k="addr:housenumber" v="2656"/>
    <tag k="addr:street" v="Fort Bridgman Road"/>
    <tag k="addr:state" v="VT"/>
    <tag k="ref:vcgi:esiteid" v="265975"/>
  </node>
  <node id="-529" visible="true" lat="42.7615674" lon="-72.5092007">
    <tag k="addr:city" v="Vernon"/>
    <tag k="addr:housenumber" v="2658"/>
    <tag k="addr:street" v="Fort Bridgman Road"/>
    <tag k="addr:state" v="VT"/>
    <tag k="ref:vcgi:esiteid" v="265976"/>
  </node>
  <node id="-530" visible="true" lat="42.76063871" lon="-72.50581431">
    <tag k="addr:city" v="Vernon"/>
    <tag k="addr:housenumber" v="50"/>
    <tag k="addr:street" v="T Bird Drive"/>
    <tag k="addr:state" v="VT"/>
    <tag k="ref:vcgi:esiteid" v="265977"/>
  </node>
  <node id="-533" visible="true" lat="42.75832623" lon="-72.50888022">
    <tag k="addr:city" v="Vernon"/>
    <tag k="addr:housenumber" v="293"/>
    <tag k="addr:street" v="Central Park Road"/>
    <tag k="addr:state" v="VT"/>
    <tag k="ref:vcgi:esiteid" v="265980"/>
  </node>
  <node id="-542" visible="true" lat="42.75867954" lon="-72.51822225">
    <tag k="addr:city" v="Vernon"/>
    <tag k="addr:housenumber" v="180"/>
    <tag k="addr:street" v="Pond Road"/>
    <tag k="addr:state" v="VT"/>
    <tag k="ref:vcgi:esiteid" v="265989"/>
  </node>
  <node id="-592" visible="true" lat="42.75694215" lon="-72.54193062">
    <tag k="addr:city" v="Vernon"/>
    <tag k="addr:housenumber" v="834"/>
    <tag k="addr:street" v="West Road"/>
    <tag k="addr:state" v="VT"/>
    <tag k="ref:vcgi:esiteid" v="266040"/>
  </node>
  <node id="-595" visible="true" lat="42.75564379" lon="-72.52026148">
    <tag k="addr:city" v="Vernon"/>
    <tag k="addr:housenumber" v="74"/>
    <tag k="addr:street" v="Crestwood Estates"/>
    <tag k="addr:state" v="VT"/>
    <tag k="ref:vcgi:esiteid" v="266043"/>
  </node>
  <node id="-596" visible="true" lat="42.75511506" lon="-72.52007126">
    <tag k="addr:city" v="Vernon"/>
    <tag k="addr:housenumber" v="67"/>
    <tag k="addr:street" v="Crestwood Estates"/>
    <tag k="addr:state" v="VT"/>
    <tag k="ref:vcgi:esiteid" v="266044"/>
  </node>
  <node id="-597" visible="true" lat="42.75714749" lon="-72.51855536">
    <tag k="addr:city" v="Vernon"/>
    <tag k="addr:housenumber" v="208"/>
    <tag k="addr:street" v="Pond Road"/>
    <tag k="addr:state" v="VT"/>
    <tag k="ref:vcgi:esiteid" v="266045"/>
  </node>
  <node id="-599" visible="true" lat="42.75641864" lon="-72.51860944">
    <tag k="addr:city" v="Vernon"/>
    <tag k="addr:housenumber" v="220"/>
    <tag k="addr:street" v="Pond Road"/>
    <tag k="addr:state" v="VT"/>
    <tag k="ref:vcgi:esiteid" v="266047"/>
  </node>
  <node id="-600" visible="true" lat="42.75582401" lon="-72.51937722">
    <tag k="addr:city" v="Vernon"/>
    <tag k="addr:housenumber" v="60"/>
    <tag k="addr:street" v="Crestwood Estates"/>
    <tag k="addr:state" v="VT"/>
    <tag k="ref:vcgi:esiteid" v="266048"/>
  </node>
  <node id="-601" visible="true" lat="42.75537817" lon="-72.51913274">
    <tag k="addr:city" v="Vernon"/>
    <tag k="addr:housenumber" v="55"/>
    <tag k="addr:street" v="Crestwood Estates"/>
    <tag k="addr:state" v="VT"/>
    <tag k="ref:vcgi:esiteid" v="266049"/>
  </node>
  <node id="-603" visible="true" lat="42.75574555" lon="-72.51801512">
    <tag k="addr:city" v="Vernon"/>
    <tag k="addr:housenumber" v="21"/>
    <tag k="addr:street" v="Crestwood Estates"/>
    <tag k="addr:state" v="VT"/>
    <tag k="ref:vcgi:esiteid" v="266051"/>
  </node>
  <node id="-604" visible="true" lat="42.75547552" lon="-72.5180778">
    <tag k="addr:city" v="Vernon"/>
    <tag k="addr:housenumber" v="282"/>
    <tag k="addr:street" v="Pond Road"/>
    <tag k="addr:state" v="VT"/>
    <tag k="ref:vcgi:esiteid" v="266052"/>
  </node>
  <node id="-605" visible="true" lat="42.75517704" lon="-72.51307376">
    <tag k="addr:city" v="Vernon"/>
    <tag k="addr:housenumber" v="146"/>
    <tag k="addr:street" v="Central Park Road"/>
    <tag k="addr:state" v="VT"/>
    <tag k="ref:vcgi:esiteid" v="266053"/>
  </node>
  <node id="-606" visible="true" lat="42.75635397" lon="-72.51454141">
    <tag k="addr:city" v="Vernon"/>
    <tag k="addr:housenumber" v="88"/>
    <tag k="addr:street" v="Central Park Road"/>
    <tag k="addr:state" v="VT"/>
    <tag k="ref:vcgi:esiteid" v="266054"/>
  </node>
  <node id="-618" visible="true" lat="42.75776981" lon="-72.5091982">
    <tag k="addr:city" v="Vernon"/>
    <tag k="addr:housenumber" v="269"/>
    <tag k="addr:street" v="Central Park Road"/>
    <tag k="addr:state" v="VT"/>
    <tag k="ref:vcgi:esiteid" v="266066"/>
  </node>
  <node id="-626" visible="true" lat="42.75585302" lon="-72.48585419">
    <tag k="addr:city" v="Vernon"/>
    <tag k="addr:housenumber" v="3369"/>
    <tag k="addr:street" v="Fort Bridgman Road"/>
    <tag k="addr:state" v="VT"/>
    <tag k="ref:vcgi:esiteid" v="266074"/>
  </node>
  <node id="-628" visible="true" lat="42.75513292" lon="-72.48458208">
    <tag k="addr:city" v="Vernon"/>
    <tag k="addr:housenumber" v="3413"/>
    <tag k="addr:street" v="Fort Bridgman Road"/>
    <tag k="addr:state" v="VT"/>
    <tag k="ref:vcgi:esiteid" v="266076"/>
  </node>
  <node id="-631" visible="true" lat="42.75470079" lon="-72.48406376">
    <tag k="addr:city" v="Vernon"/>
    <tag k="addr:housenumber" v="3423"/>
    <tag k="addr:street" v="Fort Bridgman Road"/>
    <tag k="addr:state" v="VT"/>
    <tag k="ref:vcgi:esiteid" v="266079"/>
  </node>
  <node id="-636" visible="true" lat="42.7555009" lon="-72.47984692">
    <tag k="addr:city" v="Vernon"/>
    <tag k="addr:housenumber" v="3521"/>
    <tag k="addr:street" v="Fort Bridgman Road"/>
    <tag k="addr:state" v="VT"/>
    <tag k="ref:vcgi:esiteid" v="266084"/>
  </node>
  <node id="-637" visible="true" lat="42.75485473" lon="-72.47863704">
    <tag k="addr:city" v="Vernon"/>
    <tag k="addr:housenumber" v="3521A"/>
    <tag k="addr:street" v="Fort Bridgman Road"/>
    <tag k="addr:state" v="VT"/>
    <tag k="ref:vcgi:esiteid" v="266085"/>
  </node>
  <node id="-642" visible="true" lat="42.75224936" lon="-72.48068634">
    <tag k="addr:city" v="Vernon"/>
    <tag k="addr:housenumber" v="3553"/>
    <tag k="addr:street" v="Fort Bridgman Road"/>
    <tag k="addr:state" v="VT"/>
    <tag k="ref:vcgi:esiteid" v="266090"/>
  </node>
  <node id="-643" visible="true" lat="42.75066455" lon="-72.47837475">
    <tag k="addr:city" v="Vernon"/>
    <tag k="addr:housenumber" v="3633"/>
    <tag k="addr:street" v="Fort Bridgman Road"/>
    <tag k="addr:state" v="VT"/>
    <tag k="ref:vcgi:esiteid" v="266091"/>
  </node>
  <node id="-644" visible="true" lat="42.74913132" lon="-72.48229481">
    <tag k="addr:city" v="Vernon"/>
    <tag k="addr:housenumber" v="15"/>
    <tag k="addr:street" v="Woodland Road"/>
    <tag k="addr:state" v="VT"/>
    <tag k="ref:vcgi:esiteid" v="266092"/>
  </node>
  <node id="-645" visible="true" lat="42.74919048" lon="-72.48347302">
    <tag k="addr:city" v="Vernon"/>
    <tag k="addr:housenumber" v="38"/>
    <tag k="addr:street" v="Woodland Road"/>
    <tag k="addr:state" v="VT"/>
    <tag k="ref:vcgi:esiteid" v="266093"/>
  </node>
  <node id="-646" visible="true" lat="42.74889903" lon="-72.48407808">
    <tag k="addr:city" v="Vernon"/>
    <tag k="addr:housenumber" v="60"/>
    <tag k="addr:street" v="Woodland Road"/>
    <tag k="addr:state" v="VT"/>
    <tag k="ref:vcgi:esiteid" v="266094"/>
  </node>
  <node id="-647" visible="true" lat="42.74957731" lon="-72.48304446">
    <tag k="addr:city" v="Vernon"/>
    <tag k="addr:housenumber" v="18"/>
    <tag k="addr:street" v="Woodland Road"/>
    <tag k="addr:state" v="VT"/>
    <tag k="ref:vcgi:esiteid" v="266095"/>
  </node>
  <node id="-648" visible="true" lat="42.7498702" lon="-72.48252729">
    <tag k="addr:city" v="Vernon"/>
    <tag k="addr:housenumber" v="40"/>
    <tag k="addr:street" v="Fox Hill Road"/>
    <tag k="addr:state" v="VT"/>
    <tag k="ref:vcgi:esiteid" v="266096"/>
  </node>
  <node id="-649" visible="true" lat="42.75043334" lon="-72.48303841">
    <tag k="addr:city" v="Vernon"/>
    <tag k="addr:housenumber" v="95"/>
    <tag k="addr:street" v="Newton Road"/>
    <tag k="addr:state" v="VT"/>
    <tag k="ref:vcgi:esiteid" v="266097"/>
  </node>
  <node id="-650" visible="true" lat="42.75065206" lon="-72.48348435">
    <tag k="addr:city" v="Vernon"/>
    <tag k="addr:housenumber" v="103"/>
    <tag k="addr:street" v="Newton Road"/>
    <tag k="addr:state" v="VT"/>
    <tag k="ref:vcgi:esiteid" v="266098"/>
  </node>
  <node id="-651" visible="true" lat="42.75058354" lon="-72.48399371">
    <tag k="addr:city" v="Vernon"/>
    <tag k="addr:housenumber" v="121"/>
    <tag k="addr:street" v="Newton Road"/>
    <tag k="addr:state" v="VT"/>
    <tag k="ref:vcgi:esiteid" v="266099"/>
  </node>
  <node id="-652" visible="true" lat="42.75034925" lon="-72.48462657">
    <tag k="addr:city" v="Vernon"/>
    <tag k="addr:housenumber" v="141"/>
    <tag k="addr:street" v="Newton Road"/>
    <tag k="addr:state" v="VT"/>
    <tag k="ref:vcgi:esiteid" v="266100"/>
  </node>
  <node id="-653" visible="true" lat="42.75021021" lon="-72.48507648">
    <tag k="addr:city" v="Vernon"/>
    <tag k="addr:housenumber" v="153"/>
    <tag k="addr:street" v="Newton Road"/>
    <tag k="addr:state" v="VT"/>
    <tag k="ref:vcgi:esiteid" v="266101"/>
  </node>
  <node id="-654" visible="true" lat="42.74945945" lon="-72.48500685">
    <tag k="addr:city" v="Vernon"/>
    <tag k="addr:housenumber" v="165"/>
    <tag k="addr:street" v="Newton Road"/>
    <tag k="addr:state" v="VT"/>
    <tag k="ref:vcgi:esiteid" v="266102"/>
  </node>
  <node id="-655" visible="true" lat="42.75005027" lon="-72.48598919">
    <tag k="addr:city" v="Vernon"/>
    <tag k="addr:housenumber" v="169"/>
    <tag k="addr:street" v="Newton Road"/>
    <tag k="addr:state" v="VT"/>
    <tag k="ref:vcgi:esiteid" v="266103"/>
  </node>
  <node id="-656" visible="true" lat="42.74995697" lon="-72.48655801">
    <tag k="addr:city" v="Vernon"/>
    <tag k="addr:housenumber" v="197"/>
    <tag k="addr:street" v="Newton Road"/>
    <tag k="addr:state" v="VT"/>
    <tag k="ref:vcgi:esiteid" v="266104"/>
  </node>
  <node id="-657" visible="true" lat="42.74970172" lon="-72.48735439">
    <tag k="addr:city" v="Vernon"/>
    <tag k="addr:housenumber" v="217"/>
    <tag k="addr:street" v="Newton Road"/>
    <tag k="addr:state" v="VT"/>
    <tag k="ref:vcgi:esiteid" v="266105"/>
  </node>
  <node id="-658" visible="true" lat="42.74926142" lon="-72.48612122">
    <tag k="addr:city" v="Vernon"/>
    <tag k="addr:housenumber" v="183"/>
    <tag k="addr:street" v="Newton Road"/>
    <tag k="addr:state" v="VT"/>
    <tag k="ref:vcgi:esiteid" v="266106"/>
  </node>
  <node id="-659" visible="true" lat="42.74899687" lon="-72.48711052">
    <tag k="addr:city" v="Vernon"/>
    <tag k="addr:housenumber" v="33"/>
    <tag k="addr:street" v="Meadow Road"/>
    <tag k="addr:state" v="VT"/>
    <tag k="ref:vcgi:esiteid" v="266107"/>
  </node>
  <node id="-662" visible="true" lat="42.74975959" lon="-72.50007485">
    <tag k="addr:city" v="Vernon"/>
    <tag k="addr:housenumber" v="160"/>
    <tag k="addr:street" v="Newton Hills"/>
    <tag k="addr:state" v="VT"/>
    <tag k="ref:vcgi:esiteid" v="266110"/>
  </node>
  <node id="-663" visible="true" lat="42.74926226" lon="-72.4998189">
    <tag k="addr:city" v="Vernon"/>
    <tag k="addr:housenumber" v="150"/>
    <tag k="addr:street" v="Newton Hills"/>
    <tag k="addr:state" v="VT"/>
    <tag k="ref:vcgi:esiteid" v="266111"/>
  </node>
  <node id="-664" visible="true" lat="42.74902312" lon="-72.50083433">
    <tag k="addr:city" v="Vernon"/>
    <tag k="addr:housenumber" v="137"/>
    <tag k="addr:street" v="Newton Hills"/>
    <tag k="addr:state" v="VT"/>
    <tag k="ref:vcgi:esiteid" v="266112"/>
  </node>
  <node id="-666" visible="true" lat="42.7500716" lon="-72.5007697">
    <tag k="addr:city" v="Vernon"/>
    <tag k="addr:housenumber" v="163"/>
    <tag k="addr:street" v="Newton Hills"/>
    <tag k="addr:state" v="VT"/>
    <tag k="ref:vcgi:esiteid" v="266114"/>
  </node>
  <node id="-667" visible="true" lat="42.74990581" lon="-72.5023268">
    <tag k="addr:city" v="Vernon"/>
    <tag k="addr:housenumber" v="161"/>
    <tag k="addr:street" v="Newton Hills"/>
    <tag k="addr:state" v="VT"/>
    <tag k="ref:vcgi:esiteid" v="266115"/>
  </node>
  <node id="-685" visible="true" lat="42.75029554" lon="-72.51784748">
    <tag k="addr:city" v="Vernon"/>
    <tag k="addr:housenumber" v="98"/>
    <tag k="addr:street" v="Old Farm Road"/>
    <tag k="addr:state" v="VT"/>
    <tag k="ref:vcgi:esiteid" v="266134"/>
  </node>
  <node id="-692" visible="true" lat="42.7490223" lon="-72.5198612">
    <tag k="addr:city" v="Vernon"/>
    <tag k="addr:housenumber" v="172"/>
    <tag k="addr:street" v="Hickory Hollow Road"/>
    <tag k="addr:state" v="VT"/>
    <tag k="ref:vcgi:esiteid" v="266141"/>
  </node>
  <node id="-693" visible="true" lat="42.7476297" lon="-72.51837413">
    <tag k="addr:city" v="Vernon"/>
    <tag k="addr:housenumber" v="91"/>
    <tag k="addr:street" v="Hickory Hollow Road"/>
    <tag k="addr:state" v="VT"/>
    <tag k="ref:vcgi:esiteid" v="266142"/>
  </node>
  <node id="-694" visible="true" lat="42.74692092" lon="-72.5180249">
    <tag k="addr:city" v="Vernon"/>
    <tag k="addr:housenumber" v="65"/>
    <tag k="addr:street" v="Hickory Hollow Road"/>
    <tag k="addr:state" v="VT"/>
    <tag k="ref:vcgi:esiteid" v="266143"/>
  </node>
  <node id="-695" visible="true" lat="42.74638361" lon="-72.51781533">
    <tag k="addr:city" v="Vernon"/>
    <tag k="addr:housenumber" v="39"/>
    <tag k="addr:street" v="Hickory Hollow Road"/>
    <tag k="addr:state" v="VT"/>
    <tag k="ref:vcgi:esiteid" v="266144"/>
  </node>
  <node id="-696" visible="true" lat="42.74582337" lon="-72.51804009">
    <tag k="addr:city" v="Vernon"/>
    <tag k="addr:housenumber" v="29"/>
    <tag k="addr:street" v="Hickory Hollow Road"/>
    <tag k="addr:state" v="VT"/>
    <tag k="ref:vcgi:esiteid" v="266145"/>
  </node>
  <node id="-699" visible="true" lat="42.74776419" lon="-72.51741241">
    <tag k="addr:city" v="Vernon"/>
    <tag k="addr:housenumber" v="92"/>
    <tag k="addr:street" v="Hickory Hollow Road"/>
    <tag k="addr:state" v="VT"/>
    <tag k="ref:vcgi:esiteid" v="266148"/>
  </node>
  <node id="-700" visible="true" lat="42.74722113" lon="-72.51738899">
    <tag k="addr:city" v="Vernon"/>
    <tag k="addr:housenumber" v="72"/>
    <tag k="addr:street" v="Hickory Hollow Road"/>
    <tag k="addr:state" v="VT"/>
    <tag k="ref:vcgi:esiteid" v="266149"/>
  </node>
  <node id="-701" visible="true" lat="42.74745564" lon="-72.51648935">
    <tag k="addr:city" v="Vernon"/>
    <tag k="addr:housenumber" v="64"/>
    <tag k="addr:street" v="Hickory Hollow Road"/>
    <tag k="addr:state" v="VT"/>
    <tag k="ref:vcgi:esiteid" v="266150"/>
  </node>
  <node id="-720" visible="true" lat="42.74528976" lon="-72.51020765">
    <tag k="addr:city" v="Vernon"/>
    <tag k="addr:housenumber" v="712"/>
    <tag k="addr:street" v="Pond Road"/>
    <tag k="addr:state" v="VT"/>
    <tag k="ref:vcgi:esiteid" v="266169"/>
  </node>
  <node id="-721" visible="true" lat="42.74502119" lon="-72.51003588">
    <tag k="addr:city" v="Vernon"/>
    <tag k="addr:housenumber" v="722"/>
    <tag k="addr:street" v="Pond Road"/>
    <tag k="addr:state" v="VT"/>
    <tag k="ref:vcgi:esiteid" v="266170"/>
  </node>
  <node id="-724" visible="true" lat="42.74446967" lon="-72.50867854">
    <tag k="addr:city" v="Vernon"/>
    <tag k="addr:housenumber" v="759"/>
    <tag k="addr:street" v="Pond Road"/>
    <tag k="addr:state" v="VT"/>
    <tag k="ref:vcgi:esiteid" v="266173"/>
  </node>
  <node id="-725" visible="true" lat="42.74562454" lon="-72.50624335">
    <tag k="addr:city" v="Vernon"/>
    <tag k="addr:housenumber" v="775"/>
    <tag k="addr:street" v="Pond Road"/>
    <tag k="addr:state" v="VT"/>
    <tag k="ref:vcgi:esiteid" v="266174"/>
  </node>
  <node id="-726" visible="true" lat="42.74485267" lon="-72.50865532">
    <tag k="addr:city" v="Vernon"/>
    <tag k="addr:housenumber" v="739"/>
    <tag k="addr:street" v="Pond Road"/>
    <tag k="addr:state" v="VT"/>
    <tag k="ref:vcgi:esiteid" v="266175"/>
  </node>
  <node id="-727" visible="true" lat="42.74523276" lon="-72.50936503">
    <tag k="addr:city" v="Vernon"/>
    <tag k="addr:housenumber" v="723"/>
    <tag k="addr:street" v="Pond Road"/>
    <tag k="addr:state" v="VT"/>
    <tag k="ref:vcgi:esiteid" v="266176"/>
  </node>
  <node id="-728" visible="true" lat="42.74543568" lon="-72.50951243">
    <tag k="addr:city" v="Vernon"/>
    <tag k="addr:housenumber" v="715"/>
    <tag k="addr:street" v="Pond Road"/>
    <tag k="addr:state" v="VT"/>
    <tag k="ref:vcgi:esiteid" v="266177"/>
  </node>
  <node id="-736" visible="true" lat="42.74800464" lon="-72.50080264">
    <tag k="addr:city" v="Vernon"/>
    <tag k="addr:housenumber" v="103"/>
    <tag k="addr:street" v="Newton Hills"/>
    <tag k="addr:state" v="VT"/>
    <tag k="ref:vcgi:esiteid" v="266185"/>
  </node>
  <node id="-737" visible="true" lat="42.74752637" lon="-72.50058482">
    <tag k="addr:city" v="Vernon"/>
    <tag k="addr:housenumber" v="91"/>
    <tag k="addr:street" v="Newton Hills"/>
    <tag k="addr:state" v="VT"/>
    <tag k="ref:vcgi:esiteid" v="266186"/>
  </node>
  <node id="-738" visible="true" lat="42.74687946" lon="-72.50112256">
    <tag k="addr:city" v="Vernon"/>
    <tag k="addr:housenumber" v="69"/>
    <tag k="addr:street" v="Newton Hills"/>
    <tag k="addr:state" v="VT"/>
    <tag k="ref:vcgi:esiteid" v="266187"/>
  </node>
  <node id="-742" visible="true" lat="42.74609489" lon="-72.50036182">
    <tag k="addr:city" v="Vernon"/>
    <tag k="addr:housenumber" v="43"/>
    <tag k="addr:street" v="Newton Hills"/>
    <tag k="addr:state" v="VT"/>
    <tag k="ref:vcgi:esiteid" v="266191"/>
  </node>
  <node id="-743" visible="true" lat="42.74582517" lon="-72.49973514">
    <tag k="addr:city" v="Vernon"/>
    <tag k="addr:housenumber" v="31"/>
    <tag k="addr:street" v="Newton Hills"/>
    <tag k="addr:state" v="VT"/>
    <tag k="ref:vcgi:esiteid" v="266192"/>
  </node>
  <node id="-744" visible="true" lat="42.74502157" lon="-72.50374657">
    <tag k="addr:city" v="Vernon"/>
    <tag k="addr:housenumber" v="32"/>
    <tag k="addr:street" v="Brookside Drive"/>
    <tag k="addr:state" v="VT"/>
    <tag k="ref:vcgi:esiteid" v="266193"/>
  </node>
  <node id="-745" visible="true" lat="42.74538866" lon="-72.49892789">
    <tag k="addr:city" v="Vernon"/>
    <tag k="addr:housenumber" v="588"/>
    <tag k="addr:street" v="Newton Road"/>
    <tag k="addr:state" v="VT"/>
    <tag k="ref:vcgi:esiteid" v="266194"/>
  </node>
  <node id="-748" visible="true" lat="42.74494208" lon="-72.49957783">
    <tag k="addr:city" v="Vernon"/>
    <tag k="addr:housenumber" v="610"/>
    <tag k="addr:street" v="Newton Road"/>
    <tag k="addr:state" v="VT"/>
    <tag k="ref:vcgi:esiteid" v="266197"/>
  </node>
  <node id="-751" visible="true" lat="42.7445655" lon="-72.49873013">
    <tag k="addr:city" v="Vernon"/>
    <tag k="addr:housenumber" v="599"/>
    <tag k="addr:street" v="Newton Road"/>
    <tag k="addr:state" v="VT"/>
    <tag k="ref:vcgi:esiteid" v="266200"/>
  </node>
  <node id="-754" visible="true" lat="42.74593671" lon="-72.4978153">
    <tag k="addr:city" v="Vernon"/>
    <tag k="addr:housenumber" v="550"/>
    <tag k="addr:street" v="Newton Road"/>
    <tag k="addr:state" v="VT"/>
    <tag k="ref:vcgi:esiteid" v="266203"/>
  </node>
  <node id="-756" visible="true" lat="42.74611584" lon="-72.49890047">
    <tag k="addr:city" v="Vernon"/>
    <tag k="addr:housenumber" v="28"/>
    <tag k="addr:street" v="Newton Hills"/>
    <tag k="addr:state" v="VT"/>
    <tag k="ref:vcgi:esiteid" v="266205"/>
  </node>
  <node id="-757" visible="true" lat="42.74659174" lon="-72.49905106">
    <tag k="addr:city" v="Vernon"/>
    <tag k="addr:housenumber" v="46"/>
    <tag k="addr:street" v="Newton Hills"/>
    <tag k="addr:state" v="VT"/>
    <tag k="ref:vcgi:esiteid" v="266206"/>
  </node>
  <node id="-758" visible="true" lat="42.74778028" lon="-72.49987901">
    <tag k="addr:city" v="Vernon"/>
    <tag k="addr:housenumber" v="100"/>
    <tag k="addr:street" v="Newton Hills"/>
    <tag k="addr:state" v="VT"/>
    <tag k="ref:vcgi:esiteid" v="266207"/>
  </node>
  <node id="-760" visible="true" lat="42.7482857" lon="-72.4995442">
    <tag k="addr:city" v="Vernon"/>
    <tag k="addr:housenumber" v="116"/>
    <tag k="addr:street" v="Newton Hills"/>
    <tag k="addr:state" v="VT"/>
    <tag k="ref:vcgi:esiteid" v="266209"/>
  </node>
  <node id="-761" visible="true" lat="42.74888974" lon="-72.49967411">
    <tag k="addr:city" v="Vernon"/>
    <tag k="addr:housenumber" v="132"/>
    <tag k="addr:street" v="Newton Hills"/>
    <tag k="addr:state" v="VT"/>
    <tag k="ref:vcgi:esiteid" v="266210"/>
  </node>
  <node id="-762" visible="true" lat="42.74678347" lon="-72.49613588">
    <tag k="addr:city" v="Vernon"/>
    <tag k="addr:housenumber" v="494"/>
    <tag k="addr:street" v="Newton Road"/>
    <tag k="addr:state" v="VT"/>
    <tag k="ref:vcgi:esiteid" v="266211"/>
  </node>
  <node id="-764" visible="true" lat="42.74714188" lon="-72.49615804">
    <tag k="addr:city" v="Vernon"/>
    <tag k="addr:housenumber" v="496"/>
    <tag k="addr:street" v="Newton Road"/>
    <tag k="addr:state" v="VT"/>
    <tag k="ref:vcgi:esiteid" v="266213"/>
  </node>
  <node id="-765" visible="true" lat="42.74638725" lon="-72.49449702">
    <tag k="addr:city" v="Vernon"/>
    <tag k="addr:housenumber" v="2"/>
    <tag k="addr:street" v="Lindy Road"/>
    <tag k="addr:state" v="VT"/>
    <tag k="ref:vcgi:esiteid" v="266214"/>
  </node>
  <node id="-766" visible="true" lat="42.74620431" lon="-72.49417904">
    <tag k="addr:city" v="Vernon"/>
    <tag k="addr:housenumber" v="18"/>
    <tag k="addr:street" v="Lindy Road"/>
    <tag k="addr:state" v="VT"/>
    <tag k="ref:vcgi:esiteid" v="266215"/>
  </node>
  <node id="-767" visible="true" lat="42.74603279" lon="-72.49372921">
    <tag k="addr:city" v="Vernon"/>
    <tag k="addr:housenumber" v="24"/>
    <tag k="addr:street" v="Lindy Road"/>
    <tag k="addr:state" v="VT"/>
    <tag k="ref:vcgi:esiteid" v="266216"/>
  </node>
  <node id="-768" visible="true" lat="42.7461528" lon="-72.49310873">
    <tag k="addr:city" v="Vernon"/>
    <tag k="addr:housenumber" v="62"/>
    <tag k="addr:street" v="Vernon Estates Drive"/>
    <tag k="addr:state" v="VT"/>
    <tag k="ref:vcgi:esiteid" v="266217"/>
  </node>
  <node id="-770" visible="true" lat="42.74610132" lon="-72.49254255">
    <tag k="addr:city" v="Vernon"/>
    <tag k="addr:housenumber" v="63"/>
    <tag k="addr:street" v="Vernon Estates Drive"/>
    <tag k="addr:state" v="VT"/>
    <tag k="ref:vcgi:esiteid" v="266219"/>
  </node>
  <node id="-771" visible="true" lat="42.74635284" lon="-72.49262008">
    <tag k="addr:city" v="Vernon"/>
    <tag k="addr:housenumber" v="53"/>
    <tag k="addr:street" v="Vernon Estates Drive"/>
    <tag k="addr:state" v="VT"/>
    <tag k="ref:vcgi:esiteid" v="266220"/>
  </node>
  <node id="-772" visible="true" lat="42.74653009" lon="-72.49328707">
    <tag k="addr:city" v="Vernon"/>
    <tag k="addr:housenumber" v="38"/>
    <tag k="addr:street" v="Vernon Estates Drive"/>
    <tag k="addr:state" v="VT"/>
    <tag k="ref:vcgi:esiteid" v="266221"/>
  </node>
  <node id="-774" visible="true" lat="42.74686739" lon="-72.49388425">
    <tag k="addr:city" v="Vernon"/>
    <tag k="addr:housenumber" v="17"/>
    <tag k="addr:street" v="Vernon Estates Drive"/>
    <tag k="addr:state" v="VT"/>
    <tag k="ref:vcgi:esiteid" v="266223"/>
  </node>
  <node id="-775" visible="true" lat="42.74691311" lon="-72.49362054">
    <tag k="addr:city" v="Vernon"/>
    <tag k="addr:housenumber" v="23"/>
    <tag k="addr:street" v="Vernon Estates Drive"/>
    <tag k="addr:state" v="VT"/>
    <tag k="ref:vcgi:esiteid" v="266224"/>
  </node>
  <node id="-776" visible="true" lat="42.74691309" lon="-72.49334132">
    <tag k="addr:city" v="Vernon"/>
    <tag k="addr:housenumber" v="31"/>
    <tag k="addr:street" v="Vernon Estates Drive"/>
    <tag k="addr:state" v="VT"/>
    <tag k="ref:vcgi:esiteid" v="266225"/>
  </node>
  <node id="-777" visible="true" lat="42.74689592" lon="-72.49294577">
    <tag k="addr:city" v="Vernon"/>
    <tag k="addr:housenumber" v="37"/>
    <tag k="addr:street" v="Vernon Estates Drive"/>
    <tag k="addr:state" v="VT"/>
    <tag k="ref:vcgi:esiteid" v="266226"/>
  </node>
  <node id="-778" visible="true" lat="42.74865959" lon="-72.487002">
    <tag k="addr:city" v="Vernon"/>
    <tag k="addr:housenumber" v="53"/>
    <tag k="addr:street" v="Meadow Road"/>
    <tag k="addr:state" v="VT"/>
    <tag k="ref:vcgi:esiteid" v="266227"/>
  </node>
  <node id="-779" visible="true" lat="42.74861354" lon="-72.48596366">
    <tag k="addr:city" v="Vernon"/>
    <tag k="addr:housenumber" v="55"/>
    <tag k="addr:street" v="Meadow Road"/>
    <tag k="addr:state" v="VT"/>
    <tag k="ref:vcgi:esiteid" v="266228"/>
  </node>
  <node id="-780" visible="true" lat="42.74859051" lon="-72.48528038">
    <tag k="addr:city" v="Vernon"/>
    <tag k="addr:housenumber" v="106"/>
    <tag k="addr:street" v="Woodland Road"/>
    <tag k="addr:state" v="VT"/>
    <tag k="ref:vcgi:esiteid" v="266229"/>
  </node>
  <node id="-781" visible="true" lat="42.74868189" lon="-72.48465986">
    <tag k="addr:city" v="Vernon"/>
    <tag k="addr:housenumber" v="86"/>
    <tag k="addr:street" v="Woodland Road"/>
    <tag k="addr:state" v="VT"/>
    <tag k="ref:vcgi:esiteid" v="266230"/>
  </node>
  <node id="-782" visible="true" lat="42.74868169" lon="-72.4827267">
    <tag k="addr:city" v="Vernon"/>
    <tag k="addr:housenumber" v="35"/>
    <tag k="addr:street" v="Woodland Road"/>
    <tag k="addr:state" v="VT"/>
    <tag k="ref:vcgi:esiteid" v="266231"/>
  </node>
  <node id="-783" visible="true" lat="42.7485521" lon="-72.48310089">
    <tag k="addr:city" v="Vernon"/>
    <tag k="addr:housenumber" v="51"/>
    <tag k="addr:street" v="Woodland Road"/>
    <tag k="addr:state" v="VT"/>
    <tag k="ref:vcgi:esiteid" v="266232"/>
  </node>
  <node id="-784" visible="true" lat="42.74817296" lon="-72.48345002">
    <tag k="addr:city" v="Vernon"/>
    <tag k="addr:housenumber" v="19"/>
    <tag k="addr:street" v="Southern Heights Drive"/>
    <tag k="addr:state" v="VT"/>
    <tag k="ref:vcgi:esiteid" v="266233"/>
  </node>
  <node id="-785" visible="true" lat="42.74759572" lon="-72.48375081">
    <tag k="addr:city" v="Vernon"/>
    <tag k="addr:housenumber" v="51"/>
    <tag k="addr:street" v="Southern Heights Drive"/>
    <tag k="addr:state" v="VT"/>
    <tag k="ref:vcgi:esiteid" v="266234"/>
  </node>
  <node id="-786" visible="true" lat="42.74765837" lon="-72.48217371">
    <tag k="addr:city" v="Vernon"/>
    <tag k="addr:housenumber" v="93"/>
    <tag k="addr:street" v="Southern Heights Drive"/>
    <tag k="addr:state" v="VT"/>
    <tag k="ref:vcgi:esiteid" v="266235"/>
  </node>
  <node id="-787" visible="true" lat="42.74732487" lon="-72.48192303">
    <tag k="addr:city" v="Vernon"/>
    <tag k="addr:housenumber" v="90"/>
    <tag k="addr:street" v="Southern Heights Drive"/>
    <tag k="addr:state" v="VT"/>
    <tag k="ref:vcgi:esiteid" v="266236"/>
  </node>
  <node id="-788" visible="true" lat="42.74693052" lon="-72.48241953">
    <tag k="addr:city" v="Vernon"/>
    <tag k="addr:housenumber" v="86"/>
    <tag k="addr:street" v="Southern Heights Drive"/>
    <tag k="addr:state" v="VT"/>
    <tag k="ref:vcgi:esiteid" v="266237"/>
  </node>
  <node id="-789" visible="true" lat="42.74673636" lon="-72.4837924">
    <tag k="addr:city" v="Vernon"/>
    <tag k="addr:housenumber" v="56"/>
    <tag k="addr:street" v="Southern Heights Drive"/>
    <tag k="addr:state" v="VT"/>
    <tag k="ref:vcgi:esiteid" v="266238"/>
  </node>
  <node id="-790" visible="true" lat="42.74658216" lon="-72.48481623">
    <tag k="addr:city" v="Vernon"/>
    <tag k="addr:housenumber" v="52"/>
    <tag k="addr:street" v="Southern Heights Drive"/>
    <tag k="addr:state" v="VT"/>
    <tag k="ref:vcgi:esiteid" v="266239"/>
  </node>
  <node id="-791" visible="true" lat="42.74716522" lon="-72.48471526">
    <tag k="addr:city" v="Vernon"/>
    <tag k="addr:housenumber" v="40"/>
    <tag k="addr:street" v="Southern Heights Drive"/>
    <tag k="addr:state" v="VT"/>
    <tag k="ref:vcgi:esiteid" v="266240"/>
  </node>
  <node id="-792" visible="true" lat="42.74748173" lon="-72.4847478">
    <tag k="addr:city" v="Vernon"/>
    <tag k="addr:housenumber" v="30"/>
    <tag k="addr:street" v="Southern Heights Drive"/>
    <tag k="addr:state" v="VT"/>
    <tag k="ref:vcgi:esiteid" v="266241"/>
  </node>
  <node id="-793" visible="true" lat="42.7477847" lon="-72.484771">
    <tag k="addr:city" v="Vernon"/>
    <tag k="addr:housenumber" v="18"/>
    <tag k="addr:street" v="Southern Heights Drive"/>
    <tag k="addr:state" v="VT"/>
    <tag k="ref:vcgi:esiteid" v="266242"/>
  </node>
  <node id="-794" visible="true" lat="42.74819026" lon="-72.4844971">
    <tag k="addr:city" v="Vernon"/>
    <tag k="addr:housenumber" v="113"/>
    <tag k="addr:street" v="Woodland Road"/>
    <tag k="addr:state" v="VT"/>
    <tag k="ref:vcgi:esiteid" v="266243"/>
  </node>
  <node id="-795" visible="true" lat="42.74712915" lon="-72.48577009">
    <tag k="addr:city" v="Vernon"/>
    <tag k="addr:housenumber" v="131"/>
    <tag k="addr:street" v="Woodland Road"/>
    <tag k="addr:state" v="VT"/>
    <tag k="ref:vcgi:esiteid" v="266244"/>
  </node>
  <node id="-796" visible="true" lat="42.74632134" lon="-72.48669065">
    <tag k="addr:city" v="Vernon"/>
    <tag k="addr:housenumber" v="165"/>
    <tag k="addr:street" v="Woodland Road"/>
    <tag k="addr:state" v="VT"/>
    <tag k="ref:vcgi:esiteid" v="266245"/>
  </node>
  <node id="-797" visible="true" lat="42.74698453" lon="-72.48747839">
    <tag k="addr:city" v="Vernon"/>
    <tag k="addr:housenumber" v="172"/>
    <tag k="addr:street" v="Woodland Road"/>
    <tag k="addr:state" v="VT"/>
    <tag k="ref:vcgi:esiteid" v="266246"/>
  </node>
  <node id="-798" visible="true" lat="42.7466639" lon="-72.4870926">
    <tag k="addr:city" v="Vernon"/>
    <tag k="addr:housenumber" v="168"/>
    <tag k="addr:street" v="Woodland Road"/>
    <tag k="addr:state" v="VT"/>
    <tag k="ref:vcgi:esiteid" v="266247"/>
  </node>
  <node id="-799" visible="true" lat="42.74805145" lon="-72.48618613">
    <tag k="addr:city" v="Vernon"/>
    <tag k="addr:housenumber" v="142"/>
    <tag k="addr:street" v="Woodland Road"/>
    <tag k="addr:state" v="VT"/>
    <tag k="ref:vcgi:esiteid" v="266248"/>
  </node>
  <node id="-800" visible="true" lat="42.74814923" lon="-72.47785338">
    <tag k="addr:city" v="Vernon"/>
    <tag k="addr:housenumber" v="3729"/>
    <tag k="addr:street" v="Fort Bridgman Road"/>
    <tag k="addr:state" v="VT"/>
    <tag k="ref:vcgi:esiteid" v="266249"/>
  </node>
  <node id="-801" visible="true" lat="42.74623381" lon="-72.47577029">
    <tag k="addr:city" v="Vernon"/>
    <tag k="addr:housenumber" v="3823"/>
    <tag k="addr:street" v="Fort Bridgman Road"/>
    <tag k="addr:state" v="VT"/>
    <tag k="ref:vcgi:esiteid" v="266250"/>
  </node>
  <node id="-805" visible="true" lat="42.7449122" lon="-72.47498877">
    <tag k="addr:city" v="Vernon"/>
    <tag k="addr:housenumber" v="3867"/>
    <tag k="addr:street" v="Fort Bridgman Road"/>
    <tag k="addr:state" v="VT"/>
    <tag k="ref:vcgi:esiteid" v="266254"/>
  </node>
  <node id="-806" visible="true" lat="42.74413928" lon="-72.47390199">
    <tag k="addr:city" v="Vernon"/>
    <tag k="addr:housenumber" v="3901"/>
    <tag k="addr:street" v="Fort Bridgman Road"/>
    <tag k="addr:state" v="VT"/>
    <tag k="ref:vcgi:esiteid" v="266255"/>
  </node>
  <node id="-807" visible="true" lat="42.74372759" lon="-72.47343682">
    <tag k="addr:city" v="Vernon"/>
    <tag k="addr:housenumber" v="3935"/>
    <tag k="addr:street" v="Fort Bridgman Road"/>
    <tag k="addr:state" v="VT"/>
    <tag k="ref:vcgi:esiteid" v="266256"/>
  </node>
  <node id="-808" visible="true" lat="42.74333682" lon="-72.47278294">
    <tag k="addr:city" v="Vernon"/>
    <tag k="addr:housenumber" v="3959"/>
    <tag k="addr:street" v="Fort Bridgman Road"/>
    <tag k="addr:state" v="VT"/>
    <tag k="ref:vcgi:esiteid" v="266257"/>
  </node>
  <node id="-809" visible="true" lat="42.74322296" lon="-72.4721441">
    <tag k="addr:city" v="Vernon"/>
    <tag k="addr:housenumber" v="15"/>
    <tag k="addr:street" v="Homestead Way"/>
    <tag k="addr:state" v="VT"/>
    <tag k="ref:vcgi:esiteid" v="266258"/>
  </node>
  <node id="-810" visible="true" lat="42.7430799" lon="-72.47153148">
    <tag k="addr:city" v="Vernon"/>
    <tag k="addr:housenumber" v="25"/>
    <tag k="addr:street" v="Homestead Way"/>
    <tag k="addr:state" v="VT"/>
    <tag k="ref:vcgi:esiteid" v="266259"/>
  </node>
  <node id="-812" visible="true" lat="42.7428111" lon="-72.47102749">
    <tag k="addr:city" v="Vernon"/>
    <tag k="addr:housenumber" v="39"/>
    <tag k="addr:street" v="Homestead Way"/>
    <tag k="addr:state" v="VT"/>
    <tag k="ref:vcgi:esiteid" v="266261"/>
  </node>
  <node id="-813" visible="true" lat="42.7423702" lon="-72.47058081">
    <tag k="addr:city" v="Vernon"/>
    <tag k="addr:housenumber" v="49"/>
    <tag k="addr:street" v="Homestead Way"/>
    <tag k="addr:state" v="VT"/>
    <tag k="ref:vcgi:esiteid" v="266262"/>
  </node>
  <node id="-814" visible="true" lat="42.74191473" lon="-72.47035094">
    <tag k="addr:city" v="Vernon"/>
    <tag k="addr:housenumber" v="57"/>
    <tag k="addr:street" v="Homestead Way"/>
    <tag k="addr:state" v="VT"/>
    <tag k="ref:vcgi:esiteid" v="266263"/>
  </node>
  <node id="-815" visible="true" lat="42.74150305" lon="-72.46997888">
    <tag k="addr:city" v="Vernon"/>
    <tag k="addr:housenumber" v="59"/>
    <tag k="addr:street" v="Homestead Way"/>
    <tag k="addr:state" v="VT"/>
    <tag k="ref:vcgi:esiteid" v="266264"/>
  </node>
  <node id="-816" visible="true" lat="42.74173391" lon="-72.47114983">
    <tag k="addr:city" v="Vernon"/>
    <tag k="addr:housenumber" v="60"/>
    <tag k="addr:street" v="Homestead Way"/>
    <tag k="addr:state" v="VT"/>
    <tag k="ref:vcgi:esiteid" v="266265"/>
  </node>
  <node id="-817" visible="true" lat="42.74181406" lon="-72.47161512">
    <tag k="addr:city" v="Vernon"/>
    <tag k="addr:housenumber" v="58"/>
    <tag k="addr:street" v="Homestead Way"/>
    <tag k="addr:state" v="VT"/>
    <tag k="ref:vcgi:esiteid" v="266266"/>
  </node>
  <node id="-818" visible="true" lat="42.74207136" lon="-72.47186318">
    <tag k="addr:city" v="Vernon"/>
    <tag k="addr:housenumber" v="54"/>
    <tag k="addr:street" v="Homestead Way"/>
    <tag k="addr:state" v="VT"/>
    <tag k="ref:vcgi:esiteid" v="266267"/>
  </node>
  <node id="-819" visible="true" lat="42.7426545" lon="-72.4721266">
    <tag k="addr:city" v="Vernon"/>
    <tag k="addr:housenumber" v="14"/>
    <tag k="addr:street" v="Homestead Way"/>
    <tag k="addr:state" v="VT"/>
    <tag k="ref:vcgi:esiteid" v="266268"/>
  </node>
  <node id="-820" visible="true" lat="42.7404347" lon="-72.4724559">
    <tag k="addr:city" v="Vernon"/>
    <tag k="addr:housenumber" v="4062"/>
    <tag k="addr:street" v="Fort Bridgman Road"/>
    <tag k="addr:state" v="VT"/>
    <tag k="ref:vcgi:esiteid" v="266269"/>
  </node>
  <node id="-821" visible="true" lat="42.74104273" lon="-72.47323116">
    <tag k="addr:city" v="Vernon"/>
    <tag k="addr:housenumber" v="4036"/>
    <tag k="addr:street" v="Fort Bridgman Road"/>
    <tag k="addr:state" v="VT"/>
    <tag k="ref:vcgi:esiteid" v="266270"/>
  </node>
  <node id="-822" visible="true" lat="42.74163158" lon="-72.4734765">
    <tag k="addr:city" v="Vernon"/>
    <tag k="addr:housenumber" v="4008"/>
    <tag k="addr:street" v="Fort Bridgman Road"/>
    <tag k="addr:state" v="VT"/>
    <tag k="ref:vcgi:esiteid" v="266271"/>
  </node>
  <node id="-823" visible="true" lat="42.7430988" lon="-72.47349138">
    <tag k="addr:city" v="Vernon"/>
    <tag k="addr:housenumber" v="3952"/>
    <tag k="addr:street" v="Fort Bridgman Road"/>
    <tag k="addr:state" v="VT"/>
    <tag k="ref:vcgi:esiteid" v="266272"/>
  </node>
  <node id="-824" visible="true" lat="42.7408204" lon="-72.47595077">
    <tag k="addr:city" v="Vernon"/>
    <tag k="addr:housenumber" v="77"/>
    <tag k="addr:street" v="Valley View Drive"/>
    <tag k="addr:state" v="VT"/>
    <tag k="ref:vcgi:esiteid" v="266273"/>
  </node>
  <node id="-825" visible="true" lat="42.74064678" lon="-72.47491681">
    <tag k="addr:city" v="Vernon"/>
    <tag k="addr:housenumber" v="75"/>
    <tag k="addr:street" v="Valley View Drive"/>
    <tag k="addr:state" v="VT"/>
    <tag k="ref:vcgi:esiteid" v="266274"/>
  </node>
  <node id="-826" visible="true" lat="42.74338669" lon="-72.49672314">
    <tag k="addr:city" v="Vernon"/>
    <tag k="addr:housenumber" v="92"/>
    <tag k="addr:street" v="Breezy Acres Drive"/>
    <tag k="addr:state" v="VT"/>
    <tag k="ref:vcgi:esiteid" v="266275"/>
  </node>
  <node id="-827" visible="true" lat="42.74284936" lon="-72.49720789">
    <tag k="addr:city" v="Vernon"/>
    <tag k="addr:housenumber" v="98"/>
    <tag k="addr:street" v="Breezy Acres Drive"/>
    <tag k="addr:state" v="VT"/>
    <tag k="ref:vcgi:esiteid" v="266276"/>
  </node>
  <node id="-829" visible="true" lat="42.74245493" lon="-72.49732424">
    <tag k="addr:city" v="Vernon"/>
    <tag k="addr:housenumber" v="100"/>
    <tag k="addr:street" v="Breezy Acres Drive"/>
    <tag k="addr:state" v="VT"/>
    <tag k="ref:vcgi:esiteid" v="266278"/>
  </node>
  <node id="-830" visible="true" lat="42.74259496" lon="-72.49643623">
    <tag k="addr:city" v="Vernon"/>
    <tag k="addr:housenumber" v="112"/>
    <tag k="addr:street" v="Breezy Acres Drive"/>
    <tag k="addr:state" v="VT"/>
    <tag k="ref:vcgi:esiteid" v="266279"/>
  </node>
  <node id="-832" visible="true" lat="42.74169463" lon="-72.49668057">
    <tag k="addr:city" v="Vernon"/>
    <tag k="addr:housenumber" v="168"/>
    <tag k="addr:street" v="Breezy Acres Drive"/>
    <tag k="addr:state" v="VT"/>
    <tag k="ref:vcgi:esiteid" v="266281"/>
  </node>
  <node id="-834" visible="true" lat="42.7410401" lon="-72.49662632">
    <tag k="addr:city" v="Vernon"/>
    <tag k="addr:housenumber" v="180"/>
    <tag k="addr:street" v="Breezy Acres Drive"/>
    <tag k="addr:state" v="VT"/>
    <tag k="ref:vcgi:esiteid" v="266283"/>
  </node>
  <node id="-835" visible="true" lat="42.74062802" lon="-72.4968808">
    <tag k="addr:city" v="Vernon"/>
    <tag k="addr:housenumber" v="200"/>
    <tag k="addr:street" v="Breezy Acres Drive"/>
    <tag k="addr:state" v="VT"/>
    <tag k="ref:vcgi:esiteid" v="266284"/>
  </node>
  <node id="-836" visible="true" lat="42.74063372" lon="-72.49607426">
    <tag k="addr:city" v="Vernon"/>
    <tag k="addr:housenumber" v="195"/>
    <tag k="addr:street" v="Breezy Acres Drive"/>
    <tag k="addr:state" v="VT"/>
    <tag k="ref:vcgi:esiteid" v="266285"/>
  </node>
  <node id="-837" visible="true" lat="42.74233768" lon="-72.49549008">
    <tag k="addr:city" v="Vernon"/>
    <tag k="addr:housenumber" v="127"/>
    <tag k="addr:street" v="Breezy Acres Drive"/>
    <tag k="addr:state" v="VT"/>
    <tag k="ref:vcgi:esiteid" v="266286"/>
  </node>
  <node id="-838" visible="true" lat="42.74412748" lon="-72.5012563">
    <tag k="addr:city" v="Vernon"/>
    <tag k="addr:housenumber" v="652"/>
    <tag k="addr:street" v="Newton Road"/>
    <tag k="addr:state" v="VT"/>
    <tag k="ref:vcgi:esiteid" v="266287"/>
  </node>
  <node id="-839" visible="true" lat="42.74356774" lon="-72.50161434">
    <tag k="addr:city" v="Vernon"/>
    <tag k="addr:housenumber" v="672"/>
    <tag k="addr:street" v="Newton Road"/>
    <tag k="addr:state" v="VT"/>
    <tag k="ref:vcgi:esiteid" v="266288"/>
  </node>
  <node id="-840" visible="true" lat="42.74343959" lon="-72.50235823">
    <tag k="addr:city" v="Vernon"/>
    <tag k="addr:housenumber" v="18"/>
    <tag k="addr:street" v="Brookside Drive"/>
    <tag k="addr:state" v="VT"/>
    <tag k="ref:vcgi:esiteid" v="266289"/>
  </node>
  <node id="-841" visible="true" lat="42.7442155" lon="-72.50525048">
    <tag k="addr:city" v="Vernon"/>
    <tag k="addr:housenumber" v="797"/>
    <tag k="addr:street" v="Pond Road"/>
    <tag k="addr:state" v="VT"/>
    <tag k="ref:vcgi:esiteid" v="266290"/>
  </node>
  <node id="-842" visible="true" lat="42.74300369" lon="-72.50333282">
    <tag k="addr:city" v="Vernon"/>
    <tag k="addr:housenumber" v="38"/>
    <tag k="addr:street" v="Brookside Drive"/>
    <tag k="addr:state" v="VT"/>
    <tag k="ref:vcgi:esiteid" v="266291"/>
  </node>
  <node id="-843" visible="true" lat="42.74239479" lon="-72.50580872">
    <tag k="addr:city" v="Vernon"/>
    <tag k="addr:housenumber" v="828"/>
    <tag k="addr:street" v="Newton Road"/>
    <tag k="addr:state" v="VT"/>
    <tag k="ref:vcgi:esiteid" v="266292"/>
  </node>
  <node id="-844" visible="true" lat="42.74192606" lon="-72.50542866">
    <tag k="addr:city" v="Vernon"/>
    <tag k="addr:housenumber" v="808"/>
    <tag k="addr:street" v="Newton Road"/>
    <tag k="addr:state" v="VT"/>
    <tag k="ref:vcgi:esiteid" v="266293"/>
  </node>
  <node id="-845" visible="true" lat="42.74211475" lon="-72.5043817">
    <tag k="addr:city" v="Vernon"/>
    <tag k="addr:housenumber" v="786"/>
    <tag k="addr:street" v="Newton Road"/>
    <tag k="addr:state" v="VT"/>
    <tag k="ref:vcgi:esiteid" v="266294"/>
  </node>
  <node id="-847" visible="true" lat="42.74114272" lon="-72.50571613">
    <tag k="addr:city" v="Vernon"/>
    <tag k="addr:housenumber" v="831"/>
    <tag k="addr:street" v="Newton Road"/>
    <tag k="addr:state" v="VT"/>
    <tag k="ref:vcgi:esiteid" v="266296"/>
  </node>
  <node id="-848" visible="true" lat="42.74133138" lon="-72.50533613">
    <tag k="addr:city" v="Vernon"/>
    <tag k="addr:housenumber" v="813"/>
    <tag k="addr:street" v="Newton Road"/>
    <tag k="addr:state" v="VT"/>
    <tag k="ref:vcgi:esiteid" v="266297"/>
  </node>
  <node id="-849" visible="true" lat="42.74136016" lon="-72.50494003">
    <tag k="addr:city" v="Vernon"/>
    <tag k="addr:housenumber" v="801"/>
    <tag k="addr:street" v="Newton Road"/>
    <tag k="addr:state" v="VT"/>
    <tag k="ref:vcgi:esiteid" v="266298"/>
  </node>
  <node id="-850" visible="true" lat="42.74140019" lon="-72.5044592">
    <tag k="addr:city" v="Vernon"/>
    <tag k="addr:housenumber" v="797"/>
    <tag k="addr:street" v="Newton Road"/>
    <tag k="addr:state" v="VT"/>
    <tag k="ref:vcgi:esiteid" v="266299"/>
  </node>
  <node id="-851" visible="true" lat="42.74157171" lon="-72.50385042">
    <tag k="addr:city" v="Vernon"/>
    <tag k="addr:housenumber" v="763"/>
    <tag k="addr:street" v="Newton Road"/>
    <tag k="addr:state" v="VT"/>
    <tag k="ref:vcgi:esiteid" v="266300"/>
  </node>
  <node id="-853" visible="true" lat="42.74208891" lon="-72.50201687">
    <tag k="addr:city" v="Vernon"/>
    <tag k="addr:housenumber" v="721"/>
    <tag k="addr:street" v="Newton Road"/>
    <tag k="addr:state" v="VT"/>
    <tag k="ref:vcgi:esiteid" v="266302"/>
  </node>
  <node id="-855" visible="true" lat="42.74272344" lon="-72.50157483">
    <tag k="addr:city" v="Vernon"/>
    <tag k="addr:housenumber" v="701"/>
    <tag k="addr:street" v="Newton Road"/>
    <tag k="addr:state" v="VT"/>
    <tag k="ref:vcgi:esiteid" v="266304"/>
  </node>
  <node id="-858" visible="true" lat="42.74260266" lon="-72.50043937">
    <tag k="addr:city" v="Vernon"/>
    <tag k="addr:housenumber" v="685"/>
    <tag k="addr:street" v="Newton Road"/>
    <tag k="addr:state" v="VT"/>
    <tag k="ref:vcgi:esiteid" v="266307"/>
  </node>
  <node id="-860" visible="true" lat="42.74412701" lon="-72.49954035">
    <tag k="addr:city" v="Vernon"/>
    <tag k="addr:housenumber" v="639"/>
    <tag k="addr:street" v="Newton Road"/>
    <tag k="addr:state" v="VT"/>
    <tag k="ref:vcgi:esiteid" v="266309"/>
  </node>
  <node id="-884" visible="true" lat="42.74199164" lon="-72.50808878">
    <tag k="addr:city" v="Vernon"/>
    <tag k="addr:housenumber" v="840"/>
    <tag k="addr:street" v="Pond Road"/>
    <tag k="addr:state" v="VT"/>
    <tag k="ref:vcgi:esiteid" v="266333"/>
  </node>
  <node id="-885" visible="true" lat="42.7415686" lon="-72.50855017">
    <tag k="addr:city" v="Vernon"/>
    <tag k="addr:housenumber" v="24"/>
    <tag k="addr:street" v="Lily Pond Road"/>
    <tag k="addr:state" v="VT"/>
    <tag k="ref:vcgi:esiteid" v="266334"/>
  </node>
  <node id="-886" visible="true" lat="42.74142563" lon="-72.50922486">
    <tag k="addr:city" v="Vernon"/>
    <tag k="addr:housenumber" v="50"/>
    <tag k="addr:street" v="Lily Pond Road"/>
    <tag k="addr:state" v="VT"/>
    <tag k="ref:vcgi:esiteid" v="266335"/>
  </node>
  <node id="-887" visible="true" lat="42.74093592" lon="-72.51188776">
    <tag k="addr:city" v="Vernon"/>
    <tag k="addr:housenumber" v="116"/>
    <tag k="addr:street" v="Lily Pond Road"/>
    <tag k="addr:state" v="VT"/>
    <tag k="ref:vcgi:esiteid" v="266336"/>
  </node>
  <node id="-889" visible="true" lat="42.7405217" lon="-72.51203954">
    <tag k="addr:city" v="Vernon"/>
    <tag k="addr:housenumber" v="125"/>
    <tag k="addr:street" v="Lily Pond Road"/>
    <tag k="addr:state" v="VT"/>
    <tag k="ref:vcgi:esiteid" v="266338"/>
  </node>
  <node id="-890" visible="true" lat="42.74115137" lon="-72.50752641">
    <tag k="addr:city" v="Vernon"/>
    <tag k="addr:housenumber" v="874"/>
    <tag k="addr:street" v="Pond Road"/>
    <tag k="addr:state" v="VT"/>
    <tag k="ref:vcgi:esiteid" v="266339"/>
  </node>
  <node id="-891" visible="true" lat="42.74056837" lon="-72.50635918">
    <tag k="addr:city" v="Vernon"/>
    <tag k="addr:housenumber" v="903"/>
    <tag k="addr:street" v="Pond Road"/>
    <tag k="addr:state" v="VT"/>
    <tag k="ref:vcgi:esiteid" v="266340"/>
  </node>
  <node id="-892" visible="true" lat="42.74079415" lon="-72.50652981">
    <tag k="addr:city" v="Vernon"/>
    <tag k="addr:housenumber" v="899"/>
    <tag k="addr:street" v="Pond Road"/>
    <tag k="addr:state" v="VT"/>
    <tag k="ref:vcgi:esiteid" v="266341"/>
  </node>
  <node id="-893" visible="true" lat="42.74114571" lon="-72.50661904">
    <tag k="addr:city" v="Vernon"/>
    <tag k="addr:housenumber" v="847"/>
    <tag k="addr:street" v="Newton Road"/>
    <tag k="addr:state" v="VT"/>
    <tag k="ref:vcgi:esiteid" v="266342"/>
  </node>
  <node id="-895" visible="true" lat="42.74161443" lon="-72.50707278">
    <tag k="addr:city" v="Vernon"/>
    <tag k="addr:housenumber" v="858"/>
    <tag k="addr:street" v="Newton Road"/>
    <tag k="addr:state" v="VT"/>
    <tag k="ref:vcgi:esiteid" v="266344"/>
  </node>
  <node id="-897" visible="true" lat="42.74182311" lon="-72.50656482">
    <tag k="addr:city" v="Vernon"/>
    <tag k="addr:housenumber" v="838"/>
    <tag k="addr:street" v="Newton Road"/>
    <tag k="addr:state" v="VT"/>
    <tag k="ref:vcgi:esiteid" v="266346"/>
  </node>
  <node id="-899" visible="true" lat="42.74203461" lon="-72.50671995">
    <tag k="addr:city" v="Vernon"/>
    <tag k="addr:housenumber" v="840"/>
    <tag k="addr:street" v="Newton Road"/>
    <tag k="addr:state" v="VT"/>
    <tag k="ref:vcgi:esiteid" v="266348"/>
  </node>
  <node id="-900" visible="true" lat="42.74244596" lon="-72.50756981">
    <tag k="addr:city" v="Vernon"/>
    <tag k="addr:housenumber" v="835"/>
    <tag k="addr:street" v="Pond Road"/>
    <tag k="addr:state" v="VT"/>
    <tag k="ref:vcgi:esiteid" v="266349"/>
  </node>
  <node id="-901" visible="true" lat="42.74280036" lon="-72.50775598">
    <tag k="addr:city" v="Vernon"/>
    <tag k="addr:housenumber" v="817"/>
    <tag k="addr:street" v="Pond Road"/>
    <tag k="addr:state" v="VT"/>
    <tag k="ref:vcgi:esiteid" v="266350"/>
  </node>
  <node id="-902" visible="true" lat="42.74299497" lon="-72.50668903">
    <tag k="addr:city" v="Vernon"/>
    <tag k="addr:housenumber" v="799"/>
    <tag k="addr:street" v="Pond Road"/>
    <tag k="addr:state" v="VT"/>
    <tag k="ref:vcgi:esiteid" v="266351"/>
  </node>
  <node id="-903" visible="true" lat="42.74199442" lon="-72.52140671">
    <tag k="addr:city" v="Vernon"/>
    <tag k="addr:housenumber" v="361"/>
    <tag k="addr:street" v="Huckle Hill Road"/>
    <tag k="addr:state" v="VT"/>
    <tag k="ref:vcgi:esiteid" v="266352"/>
  </node>
  <node id="-913" visible="true" lat="42.74300553" lon="-72.51561179">
    <tag k="addr:city" v="Vernon"/>
    <tag k="addr:housenumber" v="37"/>
    <tag k="addr:street" v="Allison Lane"/>
    <tag k="addr:state" v="VT"/>
    <tag k="ref:vcgi:esiteid" v="266362"/>
  </node>
  <node id="-914" visible="true" lat="42.7428168" lon="-72.51627872">
    <tag k="addr:city" v="Vernon"/>
    <tag k="addr:housenumber" v="49"/>
    <tag k="addr:street" v="Allison Lane"/>
    <tag k="addr:state" v="VT"/>
    <tag k="ref:vcgi:esiteid" v="266363"/>
  </node>
  <node id="-915" visible="true" lat="42.74218794" lon="-72.51662755">
    <tag k="addr:city" v="Vernon"/>
    <tag k="addr:housenumber" v="15"/>
    <tag k="addr:street" v="Christine Court"/>
    <tag k="addr:state" v="VT"/>
    <tag k="ref:vcgi:esiteid" v="266364"/>
  </node>
  <node id="-916" visible="true" lat="42.74173065" lon="-72.5164413">
    <tag k="addr:city" v="Vernon"/>
    <tag k="addr:housenumber" v="37"/>
    <tag k="addr:street" v="Christine Court"/>
    <tag k="addr:state" v="VT"/>
    <tag k="ref:vcgi:esiteid" v="266365"/>
  </node>
  <node id="-917" visible="true" lat="42.74151039" lon="-72.51707053">
    <tag k="addr:city" v="Vernon"/>
    <tag k="addr:housenumber" v="39"/>
    <tag k="addr:street" v="Christine Court"/>
    <tag k="addr:state" v="VT"/>
    <tag k="ref:vcgi:esiteid" v="266366"/>
  </node>
  <node id="-918" visible="true" lat="42.74176182" lon="-72.51769103">
    <tag k="addr:city" v="Vernon"/>
    <tag k="addr:housenumber" v="34"/>
    <tag k="addr:street" v="Christine Court"/>
    <tag k="addr:state" v="VT"/>
    <tag k="ref:vcgi:esiteid" v="266367"/>
  </node>
  <node id="-919" visible="true" lat="42.74234787" lon="-72.51745743">
    <tag k="addr:city" v="Vernon"/>
    <tag k="addr:housenumber" v="16"/>
    <tag k="addr:street" v="Christine Court"/>
    <tag k="addr:state" v="VT"/>
    <tag k="ref:vcgi:esiteid" v="266368"/>
  </node>
  <node id="-920" visible="true" lat="42.74292515" lon="-72.51796946">
    <tag k="addr:city" v="Vernon"/>
    <tag k="addr:housenumber" v="95"/>
    <tag k="addr:street" v="Allison Lane"/>
    <tag k="addr:state" v="VT"/>
    <tag k="ref:vcgi:esiteid" v="266369"/>
  </node>
  <node id="-921" visible="true" lat="42.74284506" lon="-72.51840374">
    <tag k="addr:city" v="Vernon"/>
    <tag k="addr:housenumber" v="111"/>
    <tag k="addr:street" v="Allison Lane"/>
    <tag k="addr:state" v="VT"/>
    <tag k="ref:vcgi:esiteid" v="266370"/>
  </node>
  <node id="-922" visible="true" lat="42.74205038" lon="-72.51844339">
    <tag k="addr:city" v="Vernon"/>
    <tag k="addr:housenumber" v="151"/>
    <tag k="addr:street" v="Allison Lane"/>
    <tag k="addr:state" v="VT"/>
    <tag k="ref:vcgi:esiteid" v="266371"/>
  </node>
  <node id="-924" visible="true" lat="42.7416502" lon="-72.51866042">
    <tag k="addr:city" v="Vernon"/>
    <tag k="addr:housenumber" v="157"/>
    <tag k="addr:street" v="Allison Lane"/>
    <tag k="addr:state" v="VT"/>
    <tag k="ref:vcgi:esiteid" v="266373"/>
  </node>
  <node id="-925" visible="true" lat="42.74140999" lon="-72.51937384">
    <tag k="addr:city" v="Vernon"/>
    <tag k="addr:housenumber" v="156"/>
    <tag k="addr:street" v="Allison Lane"/>
    <tag k="addr:state" v="VT"/>
    <tag k="ref:vcgi:esiteid" v="266374"/>
  </node>
  <node id="-926" visible="true" lat="42.7424561" lon="-72.5193509">
    <tag k="addr:city" v="Vernon"/>
    <tag k="addr:housenumber" v="144"/>
    <tag k="addr:street" v="Allison Lane"/>
    <tag k="addr:state" v="VT"/>
    <tag k="ref:vcgi:esiteid" v="266375"/>
  </node>
  <node id="-928" visible="true" lat="42.74333091" lon="-72.51864431">
    <tag k="addr:city" v="Vernon"/>
    <tag k="addr:housenumber" v="106"/>
    <tag k="addr:street" v="Allison Lane"/>
    <tag k="addr:state" v="VT"/>
    <tag k="ref:vcgi:esiteid" v="266377"/>
  </node>
  <node id="-929" visible="true" lat="42.74354827" lon="-72.51783003">
    <tag k="addr:city" v="Vernon"/>
    <tag k="addr:housenumber" v="92"/>
    <tag k="addr:street" v="Allison Lane"/>
    <tag k="addr:state" v="VT"/>
    <tag k="ref:vcgi:esiteid" v="266378"/>
  </node>
  <node id="-937" visible="true" lat="42.74046883" lon="-72.52180241">
    <tag k="addr:city" v="Vernon"/>
    <tag k="addr:housenumber" v="399"/>
    <tag k="addr:street" v="Huckle Hill Road"/>
    <tag k="addr:state" v="VT"/>
    <tag k="ref:vcgi:esiteid" v="266386"/>
  </node>
  <node id="-938" visible="true" lat="42.74097517" lon="-72.52192797">
    <tag k="addr:city" v="Vernon"/>
    <tag k="addr:housenumber" v="391"/>
    <tag k="addr:street" v="Huckle Hill Road"/>
    <tag k="addr:state" v="VT"/>
    <tag k="ref:vcgi:esiteid" v="266387"/>
  </node>
  <node id="-939" visible="true" lat="42.74155991" lon="-72.52170902">
    <tag k="addr:city" v="Vernon"/>
    <tag k="addr:housenumber" v="371"/>
    <tag k="addr:street" v="Huckle Hill Road"/>
    <tag k="addr:state" v="VT"/>
    <tag k="ref:vcgi:esiteid" v="266388"/>
  </node>
  <node id="-945" visible="true" lat="42.73808501" lon="-72.52443308">
    <tag k="addr:city" v="Vernon"/>
    <tag k="addr:housenumber" v="538"/>
    <tag k="addr:street" v="Huckle Hill Road"/>
    <tag k="addr:state" v="VT"/>
    <tag k="ref:vcgi:esiteid" v="266394"/>
  </node>
  <node id="-946" visible="true" lat="42.73832529" lon="-72.52349354">
    <tag k="addr:city" v="Vernon"/>
    <tag k="addr:housenumber" v="509"/>
    <tag k="addr:street" v="Huckle Hill Road"/>
    <tag k="addr:state" v="VT"/>
    <tag k="ref:vcgi:esiteid" v="266395"/>
  </node>
  <node id="-947" visible="true" lat="42.73801668" lon="-72.52174861">
    <tag k="addr:city" v="Vernon"/>
    <tag k="addr:housenumber" v="67"/>
    <tag k="addr:street" v="Stonebridge Road"/>
    <tag k="addr:state" v="VT"/>
    <tag k="ref:vcgi:esiteid" v="266396"/>
  </node>
  <node id="-948" visible="true" lat="42.73980101" lon="-72.5067473">
    <tag k="addr:city" v="Vernon"/>
    <tag k="addr:housenumber" v="930"/>
    <tag k="addr:street" v="Pond Road"/>
    <tag k="addr:state" v="VT"/>
    <tag k="ref:vcgi:esiteid" v="266397"/>
  </node>
  <node id="-949" visible="true" lat="42.73922768" lon="-72.50646044">
    <tag k="addr:city" v="Vernon"/>
    <tag k="addr:housenumber" v="942"/>
    <tag k="addr:street" v="Pond Road"/>
    <tag k="addr:state" v="VT"/>
    <tag k="ref:vcgi:esiteid" v="266398"/>
  </node>
  <node id="-950" visible="true" lat="42.73733062" lon="-72.50307726">
    <tag k="addr:city" v="Vernon"/>
    <tag k="addr:housenumber" v="38"/>
    <tag k="addr:street" v="Plain Road"/>
    <tag k="addr:state" v="VT"/>
    <tag k="ref:vcgi:esiteid" v="266399"/>
  </node>
  <node id="-951" visible="true" lat="42.73683187" lon="-72.50300809">
    <tag k="addr:city" v="Vernon"/>
    <tag k="addr:housenumber" v="24"/>
    <tag k="addr:street" v="Plain Road"/>
    <tag k="addr:state" v="VT"/>
    <tag k="ref:vcgi:esiteid" v="266400"/>
  </node>
  <node id="-952" visible="true" lat="42.73647841" lon="-72.50283165">
    <tag k="addr:city" v="Vernon"/>
    <tag k="addr:housenumber" v="2"/>
    <tag k="addr:street" v="Plain Road"/>
    <tag k="addr:state" v="VT"/>
    <tag k="ref:vcgi:esiteid" v="266401"/>
  </node>
  <node id="-953" visible="true" lat="42.73645557" lon="-72.50061509">
    <tag k="addr:city" v="Vernon"/>
    <tag k="addr:housenumber" v="1177"/>
    <tag k="addr:street" v="Pond Road"/>
    <tag k="addr:state" v="VT"/>
    <tag k="ref:vcgi:esiteid" v="266402"/>
  </node>
  <node id="-954" visible="true" lat="42.73601159" lon="-72.50148231">
    <tag k="addr:city" v="Vernon"/>
    <tag k="addr:housenumber" v="1145"/>
    <tag k="addr:street" v="Pond Road"/>
    <tag k="addr:state" v="VT"/>
    <tag k="ref:vcgi:esiteid" v="266403"/>
  </node>
  <node id="-955" visible="true" lat="42.73607257" lon="-72.50073916">
    <tag k="addr:city" v="Vernon"/>
    <tag k="addr:housenumber" v="1175"/>
    <tag k="addr:street" v="Pond Road"/>
    <tag k="addr:state" v="VT"/>
    <tag k="ref:vcgi:esiteid" v="266404"/>
  </node>
  <node id="-959" visible="true" lat="42.73541518" lon="-72.49900987">
    <tag k="addr:city" v="Vernon"/>
    <tag k="addr:housenumber" v="1207"/>
    <tag k="addr:street" v="Pond Road"/>
    <tag k="addr:state" v="VT"/>
    <tag k="ref:vcgi:esiteid" v="266408"/>
  </node>
  <node id="-960" visible="true" lat="42.73532371" lon="-72.49845154">
    <tag k="addr:city" v="Vernon"/>
    <tag k="addr:housenumber" v="1221"/>
    <tag k="addr:street" v="Pond Road"/>
    <tag k="addr:state" v="VT"/>
    <tag k="ref:vcgi:esiteid" v="266409"/>
  </node>
  <node id="-963" visible="true" lat="42.73492737" lon="-72.49846189">
    <tag k="addr:city" v="Vernon"/>
    <tag k="addr:housenumber" v="1226"/>
    <tag k="addr:street" v="Pond Road"/>
    <tag k="addr:state" v="VT"/>
    <tag k="ref:vcgi:esiteid" v="266412"/>
  </node>
  <node id="-964" visible="true" lat="42.73486258" lon="-72.49802764">
    <tag k="addr:city" v="Vernon"/>
    <tag k="addr:housenumber" v="1244"/>
    <tag k="addr:street" v="Pond Road"/>
    <tag k="addr:state" v="VT"/>
    <tag k="ref:vcgi:esiteid" v="266413"/>
  </node>
  <node id="-965" visible="true" lat="42.73993397" lon="-72.49658761">
    <tag k="addr:city" v="Vernon"/>
    <tag k="addr:housenumber" v="230"/>
    <tag k="addr:street" v="Breezy Acres Drive"/>
    <tag k="addr:state" v="VT"/>
    <tag k="ref:vcgi:esiteid" v="266414"/>
  </node>
  <node id="-966" visible="true" lat="42.73922798" lon="-72.49613009">
    <tag k="addr:city" v="Vernon"/>
    <tag k="addr:housenumber" v="242"/>
    <tag k="addr:street" v="Breezy Acres Drive"/>
    <tag k="addr:state" v="VT"/>
    <tag k="ref:vcgi:esiteid" v="266415"/>
  </node>
  <node id="-967" visible="true" lat="42.73925081" lon="-72.49538173">
    <tag k="addr:city" v="Vernon"/>
    <tag k="addr:housenumber" v="239"/>
    <tag k="addr:street" v="Breezy Acres Drive"/>
    <tag k="addr:state" v="VT"/>
    <tag k="ref:vcgi:esiteid" v="266416"/>
  </node>
  <node id="-968" visible="true" lat="42.7399711" lon="-72.49576168">
    <tag k="addr:city" v="Vernon"/>
    <tag k="addr:housenumber" v="215"/>
    <tag k="addr:street" v="Breezy Acres Drive"/>
    <tag k="addr:state" v="VT"/>
    <tag k="ref:vcgi:esiteid" v="266417"/>
  </node>
  <node id="-987" visible="true" lat="42.73949985" lon="-72.47567468">
    <tag k="addr:city" v="Vernon"/>
    <tag k="addr:housenumber" v="69"/>
    <tag k="addr:street" v="Valley View Drive"/>
    <tag k="addr:state" v="VT"/>
    <tag k="ref:vcgi:esiteid" v="266436"/>
  </node>
  <node id="-988" visible="true" lat="42.73981027" lon="-72.47489646">
    <tag k="addr:city" v="Vernon"/>
    <tag k="addr:housenumber" v="71"/>
    <tag k="addr:street" v="Valley View Drive"/>
    <tag k="addr:state" v="VT"/>
    <tag k="ref:vcgi:esiteid" v="266437"/>
  </node>
  <node id="-990" visible="true" lat="42.73952393" lon="-72.47261658">
    <tag k="addr:city" v="Vernon"/>
    <tag k="addr:housenumber" v="33"/>
    <tag k="addr:street" v="Valley View Drive"/>
    <tag k="addr:state" v="VT"/>
    <tag k="ref:vcgi:esiteid" v="266439"/>
  </node>
  <node id="-991" visible="true" lat="42.7397315" lon="-72.47209689">
    <tag k="addr:city" v="Vernon"/>
    <tag k="addr:housenumber" v="15"/>
    <tag k="addr:street" v="Valley View Drive"/>
    <tag k="addr:state" v="VT"/>
    <tag k="ref:vcgi:esiteid" v="266440"/>
  </node>
  <node id="-992" visible="true" lat="42.73942079" lon="-72.47164465">
    <tag k="addr:city" v="Vernon"/>
    <tag k="addr:housenumber" v="4106"/>
    <tag k="addr:street" v="Fort Bridgman Road"/>
    <tag k="addr:state" v="VT"/>
    <tag k="ref:vcgi:esiteid" v="266441"/>
  </node>
  <node id="-1018" visible="true" lat="42.73446762" lon="-72.48887736">
    <tag k="addr:city" v="Vernon"/>
    <tag k="addr:housenumber" v="2"/>
    <tag k="addr:street" v="Houghton Hill Road"/>
    <tag k="addr:state" v="VT"/>
    <tag k="ref:vcgi:esiteid" v="266467"/>
  </node>
  <node id="-1035" visible="true" lat="42.73359144" lon="-72.49316311">
    <tag k="addr:city" v="Vernon"/>
    <tag k="addr:housenumber" v="1382"/>
    <tag k="addr:street" v="Pond Road"/>
    <tag k="addr:state" v="VT"/>
    <tag k="ref:vcgi:esiteid" v="266484"/>
  </node>
  <node id="-1036" visible="true" lat="42.73294741" lon="-72.49351729">
    <tag k="addr:city" v="Vernon"/>
    <tag k="addr:housenumber" v="1380"/>
    <tag k="addr:street" v="Pond Road"/>
    <tag k="addr:state" v="VT"/>
    <tag k="ref:vcgi:esiteid" v="266485"/>
  </node>
  <node id="-1040" visible="true" lat="42.73502261" lon="-72.49662148">
    <tag k="addr:city" v="Vernon"/>
    <tag k="addr:housenumber" v="1277"/>
    <tag k="addr:street" v="Pond Road"/>
    <tag k="addr:state" v="VT"/>
    <tag k="ref:vcgi:esiteid" v="266490"/>
  </node>
  <node id="-1041" visible="true" lat="42.73476151" lon="-72.49540662">
    <tag k="addr:city" v="Vernon"/>
    <tag k="addr:housenumber" v="1319"/>
    <tag k="addr:street" v="Pond Road"/>
    <tag k="addr:state" v="VT"/>
    <tag k="ref:vcgi:esiteid" v="266491"/>
  </node>
  <node id="-1050" visible="true" lat="42.73439047" lon="-72.50326063">
    <tag k="addr:city" v="Vernon"/>
    <tag k="addr:housenumber" v="69"/>
    <tag k="addr:street" v="Scott Road"/>
    <tag k="addr:state" v="VT"/>
    <tag k="ref:vcgi:esiteid" v="266500"/>
  </node>
  <node id="-1051" visible="true" lat="42.73472918" lon="-72.50285095">
    <tag k="addr:city" v="Vernon"/>
    <tag k="addr:housenumber" v="67"/>
    <tag k="addr:street" v="Scott Road"/>
    <tag k="addr:state" v="VT"/>
    <tag k="ref:vcgi:esiteid" v="266501"/>
  </node>
  <node id="-1052" visible="true" lat="42.73330295" lon="-72.50205478">
    <tag k="addr:city" v="Vernon"/>
    <tag k="addr:housenumber" v="156"/>
    <tag k="addr:street" v="Scott Road"/>
    <tag k="addr:state" v="VT"/>
    <tag k="ref:vcgi:esiteid" v="266502"/>
  </node>
  <node id="-1053" visible="true" lat="42.7313684" lon="-72.50270799">
    <tag k="addr:city" v="Vernon"/>
    <tag k="addr:housenumber" v="106"/>
    <tag k="addr:street" v="Scott Road"/>
    <tag k="addr:state" v="VT"/>
    <tag k="ref:vcgi:esiteid" v="266503"/>
  </node>
  <node id="-1054" visible="true" lat="42.73316291" lon="-72.50060471">
    <tag k="addr:city" v="Vernon"/>
    <tag k="addr:housenumber" v="192"/>
    <tag k="addr:street" v="Scott Road"/>
    <tag k="addr:state" v="VT"/>
    <tag k="ref:vcgi:esiteid" v="266504"/>
  </node>
  <node id="-1056" visible="true" lat="42.73381173" lon="-72.50078307">
    <tag k="addr:city" v="Vernon"/>
    <tag k="addr:housenumber" v="161"/>
    <tag k="addr:street" v="Scott Road"/>
    <tag k="addr:state" v="VT"/>
    <tag k="ref:vcgi:esiteid" v="266506"/>
  </node>
  <node id="-1057" visible="true" lat="42.73389258" lon="-72.5215804">
    <tag k="addr:city" v="Vernon"/>
    <tag k="addr:housenumber" v="109"/>
    <tag k="addr:street" v="Wheeler Road"/>
    <tag k="addr:state" v="VT"/>
    <tag k="ref:vcgi:esiteid" v="266507"/>
  </node>
  <node id="-1060" visible="true" lat="42.73475399" lon="-72.52276984">
    <tag k="addr:city" v="Vernon"/>
    <tag k="addr:housenumber" v="91"/>
    <tag k="addr:street" v="Wheeler Road"/>
    <tag k="addr:state" v="VT"/>
    <tag k="ref:vcgi:esiteid" v="266510"/>
  </node>
  <node id="-1063" visible="true" lat="42.73366435" lon="-72.52285431">
    <tag k="addr:city" v="Vernon"/>
    <tag k="addr:housenumber" v="118"/>
    <tag k="addr:street" v="Wheeler Road"/>
    <tag k="addr:state" v="VT"/>
    <tag k="ref:vcgi:esiteid" v="266513"/>
  </node>
  <node id="-1066" visible="true" lat="42.73433483" lon="-72.52410561">
    <tag k="addr:city" v="Vernon"/>
    <tag k="addr:housenumber" v="80"/>
    <tag k="addr:street" v="Wheeler Road"/>
    <tag k="addr:state" v="VT"/>
    <tag k="ref:vcgi:esiteid" v="266516"/>
  </node>
  <node id="-1067" visible="true" lat="42.7336298" lon="-72.52408724">
    <tag k="addr:city" v="Vernon"/>
    <tag k="addr:housenumber" v="106"/>
    <tag k="addr:street" v="Wheeler Road"/>
    <tag k="addr:state" v="VT"/>
    <tag k="ref:vcgi:esiteid" v="266517"/>
  </node>
  <node id="-1079" visible="true" lat="42.7341033" lon="-72.52541634">
    <tag k="addr:city" v="Vernon"/>
    <tag k="addr:housenumber" v="102"/>
    <tag k="addr:street" v="Wheeler Road"/>
    <tag k="addr:state" v="VT"/>
    <tag k="ref:vcgi:esiteid" v="266529"/>
  </node>
  <node id="-1120" visible="true" lat="42.73059047" lon="-72.49663206">
    <tag k="addr:city" v="Vernon"/>
    <tag k="addr:housenumber" v="41"/>
    <tag k="addr:street" v="Happy Hill"/>
    <tag k="addr:state" v="VT"/>
    <tag k="ref:vcgi:esiteid" v="266570"/>
  </node>
  <node id="-1121" visible="true" lat="42.73035034" lon="-72.49551291">
    <tag k="addr:city" v="Vernon"/>
    <tag k="addr:housenumber" v="352"/>
    <tag k="addr:street" v="Scott Road"/>
    <tag k="addr:state" v="VT"/>
    <tag k="ref:vcgi:esiteid" v="266571"/>
  </node>
  <node id="-1122" visible="true" lat="42.72869246" lon="-72.4931882">
    <tag k="addr:city" v="Vernon"/>
    <tag k="addr:housenumber" v="434"/>
    <tag k="addr:street" v="Scott Road"/>
    <tag k="addr:state" v="VT"/>
    <tag k="ref:vcgi:esiteid" v="266572"/>
  </node>
  <node id="-1123" visible="true" lat="42.72840107" lon="-72.49628196">
    <tag k="addr:city" v="Vernon"/>
    <tag k="addr:housenumber" v="370"/>
    <tag k="addr:street" v="Scott Road"/>
    <tag k="addr:state" v="VT"/>
    <tag k="ref:vcgi:esiteid" v="266573"/>
  </node>
  <node id="-1125" visible="true" lat="42.72987913" lon="-72.46803271">
    <tag k="addr:city" v="Vernon"/>
    <tag k="addr:housenumber" v="4462"/>
    <tag k="addr:street" v="Fort Bridgman Road"/>
    <tag k="addr:state" v="VT"/>
    <tag k="ref:vcgi:esiteid" v="266575"/>
  </node>
  <node id="-1134" visible="true" lat="42.72750576" lon="-72.46448832">
    <tag k="addr:city" v="Vernon"/>
    <tag k="addr:housenumber" v="4591"/>
    <tag k="addr:street" v="Fort Bridgman Road"/>
    <tag k="addr:state" v="VT"/>
    <tag k="ref:vcgi:esiteid" v="266585"/>
  </node>
  <node id="-1141" visible="true" lat="42.82386752" lon="-72.54822528">
    <tag k="addr:city" v="Vernon"/>
    <tag k="addr:housenumber" v="1103"/>
    <tag k="addr:street" v="Fort Bridgman Road"/>
    <tag k="addr:state" v="VT"/>
    <tag k="ref:vcgi:esiteid" v="266592"/>
  </node>
  <node id="-1144" visible="true" lat="42.81814327" lon="-72.55729098">
    <tag k="addr:city" v="Vernon"/>
    <tag k="addr:housenumber" v="262"/>
    <tag k="addr:street" v="Broad Brook Road"/>
    <tag k="addr:state" v="VT"/>
    <tag k="ref:vcgi:esiteid" v="266595"/>
  </node>
  <node id="-1145" visible="true" lat="42.81690155" lon="-72.55717232">
    <tag k="addr:city" v="Vernon"/>
    <tag k="addr:housenumber" v="303"/>
    <tag k="addr:street" v="Broad Brook Road"/>
    <tag k="addr:state" v="VT"/>
    <tag k="ref:vcgi:esiteid" v="266596"/>
  </node>
  <node id="-1147" visible="true" lat="42.81847297" lon="-72.55344438">
    <tag k="addr:city" v="Vernon"/>
    <tag k="addr:housenumber" v="187"/>
    <tag k="addr:street" v="Broad Brook Road"/>
    <tag k="addr:state" v="VT"/>
    <tag k="ref:vcgi:esiteid" v="266598"/>
  </node>
  <node id="-1148" visible="true" lat="42.81849212" lon="-72.55399149">
    <tag k="addr:city" v="Vernon"/>
    <tag k="addr:housenumber" v="189"/>
    <tag k="addr:street" v="Broad Brook Road"/>
    <tag k="addr:state" v="VT"/>
    <tag k="ref:vcgi:esiteid" v="266599"/>
  </node>
  <node id="-1175" visible="true" lat="42.78286086" lon="-72.5304296">
    <tag k="addr:city" v="Vernon"/>
    <tag k="addr:housenumber" v="101"/>
    <tag k="addr:street" v="Tyler Hill Road"/>
    <tag k="addr:state" v="VT"/>
    <tag k="ref:vcgi:esiteid" v="266626"/>
  </node>
  <node id="-1203" visible="true" lat="42.78062909" lon="-72.52266064">
    <tag k="addr:city" v="Vernon"/>
    <tag k="addr:housenumber" v="593"/>
    <tag k="addr:street" v="Governor Hunt Road"/>
    <tag k="addr:state" v="VT"/>
    <tag k="ref:vcgi:esiteid" v="266656"/>
  </node>
  <node id="-1210" visible="true" lat="42.76725729" lon="-72.51835819">
    <tag k="addr:city" v="Vernon"/>
    <tag k="addr:housenumber" v="2292"/>
    <tag k="addr:street" v="Fort Bridgman Road"/>
    <tag k="addr:state" v="VT"/>
    <tag k="ref:vcgi:esiteid" v="266663"/>
  </node>
  <node id="-1227" visible="true" lat="42.76127375" lon="-72.49480586">
    <tag k="addr:city" v="Vernon"/>
    <tag k="addr:housenumber" v="586"/>
    <tag k="addr:street" v="Stebbins Road"/>
    <tag k="addr:state" v="VT"/>
    <tag k="ref:vcgi:esiteid" v="266680"/>
  </node>
  <node id="-1228" visible="true" lat="42.7618244" lon="-72.50107544">
    <tag k="addr:city" v="Vernon"/>
    <tag k="addr:housenumber" v="26"/>
    <tag k="addr:street" v="Rondeau Way"/>
    <tag k="addr:state" v="VT"/>
    <tag k="ref:vcgi:esiteid" v="266682"/>
  </node>
  <node id="-1230" visible="true" lat="42.76088913" lon="-72.50061609">
    <tag k="addr:city" v="Vernon"/>
    <tag k="addr:housenumber" v="2908"/>
    <tag k="addr:street" v="Fort Bridgman Road"/>
    <tag k="addr:state" v="VT"/>
    <tag k="ref:vcgi:esiteid" v="266684"/>
  </node>
  <node id="-1233" visible="true" lat="42.75010299" lon="-72.47860531">
    <tag k="addr:city" v="Vernon"/>
    <tag k="addr:housenumber" v="3657"/>
    <tag k="addr:street" v="Fort Bridgman Road"/>
    <tag k="addr:state" v="VT"/>
    <tag k="ref:vcgi:esiteid" v="266687"/>
  </node>
  <node id="-1235" visible="true" lat="42.74955346" lon="-72.47827819">
    <tag k="addr:city" v="Vernon"/>
    <tag k="addr:housenumber" v="3683"/>
    <tag k="addr:street" v="Fort Bridgman Road"/>
    <tag k="addr:state" v="VT"/>
    <tag k="ref:vcgi:esiteid" v="266689"/>
  </node>
  <node id="-1253" visible="true" lat="42.74210573" lon="-72.47503184">
    <tag k="addr:city" v="Vernon"/>
    <tag k="addr:housenumber" v="58"/>
    <tag k="addr:street" v="Valley View Drive"/>
    <tag k="addr:state" v="VT"/>
    <tag k="ref:vcgi:esiteid" v="266709"/>
  </node>
  <node id="-1274" visible="true" lat="42.75207013" lon="-72.52028773">
    <tag k="addr:city" v="Vernon"/>
    <tag k="addr:housenumber" v="406"/>
    <tag k="addr:street" v="Pond Road"/>
    <tag k="addr:state" v="VT"/>
    <tag k="ref:vcgi:esiteid" v="266732"/>
  </node>
  <node id="-1294" visible="true" lat="42.74248471" lon="-72.52065119">
    <tag k="addr:city" v="Vernon"/>
    <tag k="addr:housenumber" v="337"/>
    <tag k="addr:street" v="Huckle Hill Road"/>
    <tag k="addr:state" v="VT"/>
    <tag k="ref:vcgi:esiteid" v="266752"/>
  </node>
  <node id="-1309" visible="true" lat="42.73774041" lon="-72.52477521">
    <tag k="addr:city" v="Vernon"/>
    <tag k="addr:housenumber" v="538 1/2"/>
    <tag k="addr:street" v="Huckle Hill Road"/>
    <tag k="addr:state" v="VT"/>
    <tag k="ref:vcgi:esiteid" v="266767"/>
  </node>
  <node id="-1359" visible="true" lat="42.73024141" lon="-72.49633289">
    <tag k="addr:city" v="Vernon"/>
    <tag k="addr:housenumber" v="51"/>
    <tag k="addr:street" v="Happy Hill"/>
    <tag k="addr:state" v="VT"/>
    <tag k="ref:vcgi:esiteid" v="266818"/>
  </node>
  <node id="-1361" visible="true" lat="42.75154914" lon="-72.4822906">
    <tag k="addr:city" v="Vernon"/>
    <tag k="addr:housenumber" v="63"/>
    <tag k="addr:street" v="Newton Road"/>
    <tag k="addr:state" v="VT"/>
    <tag k="ref:vcgi:esiteid" v="266820"/>
  </node>
  <node id="-1362" visible="true" lat="42.75087621" lon="-72.48213861">
    <tag k="addr:city" v="Vernon"/>
    <tag k="addr:housenumber" v="11"/>
    <tag k="addr:street" v="Fox Hill Road"/>
    <tag k="addr:state" v="VT"/>
    <tag k="ref:vcgi:esiteid" v="266821"/>
  </node>
  <node id="-1364" visible="true" lat="42.75035229" lon="-72.48164181">
    <tag k="addr:city" v="Vernon"/>
    <tag k="addr:housenumber" v="27"/>
    <tag k="addr:street" v="Fox Hill Road"/>
    <tag k="addr:state" v="VT"/>
    <tag k="ref:vcgi:esiteid" v="266823"/>
  </node>
  <node id="-1365" visible="true" lat="42.74952521" lon="-72.48129396">
    <tag k="addr:city" v="Vernon"/>
    <tag k="addr:housenumber" v="23"/>
    <tag k="addr:street" v="White Tail Drive"/>
    <tag k="addr:state" v="VT"/>
    <tag k="ref:vcgi:esiteid" v="266824"/>
  </node>
  <node id="-1366" visible="true" lat="42.74933918" lon="-72.48082268">
    <tag k="addr:city" v="Vernon"/>
    <tag k="addr:housenumber" v="27"/>
    <tag k="addr:street" v="White Tail Drive"/>
    <tag k="addr:state" v="VT"/>
    <tag k="ref:vcgi:esiteid" v="266825"/>
  </node>
  <node id="-1367" visible="true" lat="42.74893383" lon="-72.48036075">
    <tag k="addr:city" v="Vernon"/>
    <tag k="addr:housenumber" v="49"/>
    <tag k="addr:street" v="White Tail Drive"/>
    <tag k="addr:state" v="VT"/>
    <tag k="ref:vcgi:esiteid" v="266826"/>
  </node>
  <node id="-1368" visible="true" lat="42.74860805" lon="-72.48115054">
    <tag k="addr:city" v="Vernon"/>
    <tag k="addr:housenumber" v="26"/>
    <tag k="addr:street" v="White Tail Drive"/>
    <tag k="addr:state" v="VT"/>
    <tag k="ref:vcgi:esiteid" v="266827"/>
  </node>
  <node id="-1369" visible="true" lat="42.74769807" lon="-72.48299067">
    <tag k="addr:city" v="Vernon"/>
    <tag k="addr:housenumber" v="73"/>
    <tag k="addr:street" v="Southern Heights Drive"/>
    <tag k="addr:state" v="VT"/>
    <tag k="ref:vcgi:esiteid" v="266828"/>
  </node>
  <node id="-1370" visible="true" lat="42.74691469" lon="-72.48324498">
    <tag k="addr:city" v="Vernon"/>
    <tag k="addr:housenumber" v="66"/>
    <tag k="addr:street" v="Southern Heights Drive"/>
    <tag k="addr:state" v="VT"/>
    <tag k="ref:vcgi:esiteid" v="266829"/>
  </node>
  <node id="-1372" visible="true" lat="42.75055536" lon="-72.48270907">
    <tag k="addr:city" v="Vernon"/>
    <tag k="addr:housenumber" v="16"/>
    <tag k="addr:street" v="Fox Hill Road"/>
    <tag k="addr:state" v="VT"/>
    <tag k="ref:vcgi:esiteid" v="266831"/>
  </node>
  <node id="-1373" visible="true" lat="42.75048665" lon="-72.48408848">
    <tag k="addr:city" v="Vernon"/>
    <tag k="addr:housenumber" v="123"/>
    <tag k="addr:street" v="Newton Road"/>
    <tag k="addr:state" v="VT"/>
    <tag k="ref:vcgi:esiteid" v="266832"/>
  </node>
  <node id="-1384" visible="true" lat="42.74412214" lon="-72.49743431">
    <tag k="addr:city" v="Vernon"/>
    <tag k="addr:housenumber" v="42"/>
    <tag k="addr:street" v="Breezy Acres Drive"/>
    <tag k="addr:state" v="VT"/>
    <tag k="ref:vcgi:esiteid" v="266844"/>
  </node>
  <node id="-1386" visible="true" lat="42.7450991" lon="-72.49812698">
    <tag k="addr:city" v="Vernon"/>
    <tag k="addr:housenumber" v="561"/>
    <tag k="addr:street" v="Newton Road"/>
    <tag k="addr:state" v="VT"/>
    <tag k="ref:vcgi:esiteid" v="266846"/>
  </node>
  <node id="-1387" visible="true" lat="42.74851694" lon="-72.50111551">
    <tag k="addr:city" v="Vernon"/>
    <tag k="addr:housenumber" v="119"/>
    <tag k="addr:street" v="Newton Hills"/>
    <tag k="addr:state" v="VT"/>
    <tag k="ref:vcgi:esiteid" v="266847"/>
  </node>
  <node id="-1391" visible="true" lat="42.74164338" lon="-72.50272707">
    <tag k="addr:city" v="Vernon"/>
    <tag k="addr:housenumber" v="741"/>
    <tag k="addr:street" v="Newton Road"/>
    <tag k="addr:state" v="VT"/>
    <tag k="ref:vcgi:esiteid" v="266851"/>
  </node>
  <node id="-1395" visible="true" lat="42.77709887" lon="-72.56287801">
    <tag k="addr:city" v="Vernon"/>
    <tag k="addr:housenumber" v="212"/>
    <tag k="addr:street" v="Lowry Road"/>
    <tag k="addr:state" v="VT"/>
    <tag k="ref:vcgi:esiteid" v="266855"/>
  </node>
  <node id="-1397" visible="true" lat="42.77153247" lon="-72.51471753">
    <tag k="addr:city" v="Vernon"/>
    <tag k="addr:housenumber" v="152"/>
    <tag k="addr:street" v="Governor Hunt Road"/>
    <tag k="addr:state" v="VT"/>
    <tag k="ref:vcgi:esiteid" v="266857"/>
  </node>
  <node id="-1403" visible="true" lat="42.79959619" lon="-72.5564759">
    <tag k="addr:city" v="Vernon"/>
    <tag k="addr:housenumber" v="40"/>
    <tag k="addr:street" v="Victoria Drive"/>
    <tag k="addr:state" v="VT"/>
    <tag k="ref:vcgi:esiteid" v="266863"/>
  </node>
  <node id="-1404" visible="true" lat="42.74097063" lon="-72.52449701">
    <tag k="addr:city" v="Vernon"/>
    <tag k="addr:housenumber" v="446"/>
    <tag k="addr:street" v="Huckle Hill Road"/>
    <tag k="addr:state" v="VT"/>
    <tag k="ref:vcgi:esiteid" v="266864"/>
  </node>
  <node id="-1405" visible="true" lat="42.75917253" lon="-72.52473451">
    <tag k="addr:city" v="Vernon"/>
    <tag k="addr:housenumber" v="329"/>
    <tag k="addr:street" v="West Road"/>
    <tag k="addr:state" v="VT"/>
    <tag k="ref:vcgi:esiteid" v="266865"/>
  </node>
  <node id="-1407" visible="true" lat="42.74480644" lon="-72.49614488">
    <tag k="addr:city" v="Vernon"/>
    <tag k="addr:housenumber" v="41"/>
    <tag k="addr:street" v="Breezy Acres Drive"/>
    <tag k="addr:state" v="VT"/>
    <tag k="ref:vcgi:esiteid" v="266867"/>
  </node>
  <node id="-1408" visible="true" lat="42.74394152" lon="-72.50043341">
    <tag k="addr:city" v="Vernon"/>
    <tag k="addr:housenumber" v="649"/>
    <tag k="addr:street" v="Newton Road"/>
    <tag k="addr:state" v="VT"/>
    <tag k="ref:vcgi:esiteid" v="266868"/>
  </node>
  <node id="-1409" visible="true" lat="42.82311717" lon="-72.54629065">
    <tag k="addr:city" v="Vernon"/>
    <tag k="addr:housenumber" v="29"/>
    <tag k="addr:street" v="Fort Bridgman Road"/>
    <tag k="addr:state" v="VT"/>
    <tag k="ref:vcgi:esiteid" v="266869"/>
  </node>
  <node id="-1410" visible="true" lat="42.77110494" lon="-72.56332702">
    <tag k="addr:city" v="Vernon"/>
    <tag k="addr:housenumber" v="168"/>
    <tag k="addr:street" v="Princesses Lane"/>
    <tag k="addr:state" v="VT"/>
    <tag k="ref:vcgi:esiteid" v="266870"/>
  </node>
  <node id="-1412" visible="true" lat="42.77875115" lon="-72.51647152">
    <tag k="addr:city" v="Vernon"/>
    <tag k="addr:housenumber" v="536"/>
    <tag k="addr:street" v="Governor Hunt Road"/>
    <tag k="addr:state" v="VT"/>
    <tag k="ref:vcgi:esiteid" v="266872"/>
  </node>
  <node id="-1413" visible="true" lat="42.76164928" lon="-72.50040133">
    <tag k="addr:city" v="Vernon"/>
    <tag k="addr:housenumber" v="2907"/>
    <tag k="addr:street" v="Fort Bridgman Road"/>
    <tag k="addr:state" v="VT"/>
    <tag k="ref:vcgi:esiteid" v="266873"/>
  </node>
  <node id="-1416" visible="true" lat="42.73496265" lon="-72.52299519">
    <tag k="addr:city" v="Vernon"/>
    <tag k="addr:housenumber" v="85"/>
    <tag k="addr:street" v="Wheeler Road"/>
    <tag k="addr:state" v="VT"/>
    <tag k="ref:vcgi:esiteid" v="266876"/>
  </node>
  <node id="-1417" visible="true" lat="42.74375034" lon="-72.49570376">
    <tag k="addr:city" v="Vernon"/>
    <tag k="addr:housenumber" v="85"/>
    <tag k="addr:street" v="Breezy Acres Drive"/>
    <tag k="addr:state" v="VT"/>
    <tag k="ref:vcgi:esiteid" v="266877"/>
  </node>
  <node id="-1418" visible="true" lat="42.74527992" lon="-72.49653691">
    <tag k="addr:city" v="Vernon"/>
    <tag k="addr:housenumber" v="39"/>
    <tag k="addr:street" v="Breezy Acres Drive"/>
    <tag k="addr:state" v="VT"/>
    <tag k="ref:vcgi:esiteid" v="266878"/>
  </node>
  <node id="-1419" visible="true" lat="42.74016784" lon="-72.50035448">
    <tag k="addr:city" v="Vernon"/>
    <tag k="addr:housenumber" v="207"/>
    <tag k="addr:street" v="Sonny Drive"/>
    <tag k="addr:state" v="VT"/>
    <tag k="ref:vcgi:esiteid" v="266879"/>
  </node>
  <node id="-1420" visible="true" lat="42.74365425" lon="-72.49435769">
    <tag k="addr:city" v="Vernon"/>
    <tag k="addr:housenumber" v="125"/>
    <tag k="addr:street" v="Breezy Acres Drive"/>
    <tag k="addr:state" v="VT"/>
    <tag k="ref:vcgi:esiteid" v="266880"/>
  </node>
  <node id="-1421" visible="true" lat="42.74968447" lon="-72.5088048">
    <tag k="addr:city" v="Vernon"/>
    <tag k="addr:housenumber" v="87"/>
    <tag k="addr:street" v="Forrett Drive"/>
    <tag k="addr:state" v="VT"/>
    <tag k="ref:vcgi:esiteid" v="266881"/>
  </node>
  <node id="-1423" visible="true" lat="42.74914698" lon="-72.50875886">
    <tag k="addr:city" v="Vernon"/>
    <tag k="addr:housenumber" v="98"/>
    <tag k="addr:street" v="Forrett Drive"/>
    <tag k="addr:state" v="VT"/>
    <tag k="ref:vcgi:esiteid" v="266883"/>
  </node>
  <node id="-1424" visible="true" lat="42.74689333" lon="-72.48618136">
    <tag k="addr:city" v="Vernon"/>
    <tag k="addr:housenumber" v="155"/>
    <tag k="addr:street" v="Woodland Road"/>
    <tag k="addr:state" v="VT"/>
    <tag k="ref:vcgi:esiteid" v="266884"/>
  </node>
  <node id="-1425" visible="true" lat="42.7466359" lon="-72.47991479">
    <tag k="addr:city" v="Vernon"/>
    <tag k="addr:housenumber" v="56"/>
    <tag k="addr:street" v="White Tail Drive"/>
    <tag k="addr:state" v="VT"/>
    <tag k="ref:vcgi:esiteid" v="311764"/>
  </node>
  <node id="-1426" visible="true" lat="42.77281332" lon="-72.56245327">
    <tag k="addr:city" v="Vernon"/>
    <tag k="addr:housenumber" v="93"/>
    <tag k="addr:street" v="Princesses Lane"/>
    <tag k="addr:state" v="VT"/>
    <tag k="ref:vcgi:esiteid" v="313196"/>
  </node>
  <node id="-1427" visible="true" lat="42.77333607" lon="-72.56297938">
    <tag k="addr:city" v="Vernon"/>
    <tag k="addr:housenumber" v="80"/>
    <tag k="addr:street" v="Princesses Lane"/>
    <tag k="addr:state" v="VT"/>
    <tag k="ref:vcgi:esiteid" v="313197"/>
  </node>
  <node id="-1428" visible="true" lat="42.78178598" lon="-72.53303636">
    <tag k="addr:city" v="Vernon"/>
    <tag k="addr:housenumber" v="125"/>
    <tag k="addr:street" v="Tyler Hill Road"/>
    <tag k="addr:state" v="VT"/>
    <tag k="ref:vcgi:esiteid" v="313198"/>
  </node>
  <node id="-1431" visible="true" lat="42.76218398" lon="-72.51393889">
    <tag k="addr:city" v="Vernon"/>
    <tag k="addr:housenumber" v="2527"/>
    <tag k="addr:street" v="Fort Bridgman Road"/>
    <tag k="addr:state" v="VT"/>
    <tag k="ref:vcgi:esiteid" v="313201"/>
  </node>
  <node id="-1435" visible="true" lat="42.76100508" lon="-72.50231871">
    <tag k="addr:city" v="Vernon"/>
    <tag k="addr:housenumber" v="2864"/>
    <tag k="addr:street" v="Fort Bridgman Road"/>
    <tag k="addr:state" v="VT"/>
    <tag k="ref:vcgi:esiteid" v="313206"/>
  </node>
  <node id="-1436" visible="true" lat="42.74463756" lon="-72.50983951">
    <tag k="addr:city" v="Vernon"/>
    <tag k="addr:housenumber" v="736"/>
    <tag k="addr:street" v="Pond Road"/>
    <tag k="addr:state" v="VT"/>
    <tag k="ref:vcgi:esiteid" v="313207"/>
  </node>
  <node id="-1437" visible="true" lat="42.73656899" lon="-72.49931612">
    <tag k="addr:city" v="Vernon"/>
    <tag k="addr:housenumber" v="1191"/>
    <tag k="addr:street" v="Pond Road"/>
    <tag k="addr:state" v="VT"/>
    <tag k="ref:vcgi:esiteid" v="313208"/>
  </node>
  <node id="-1438" visible="true" lat="42.74209604" lon="-72.47420378">
    <tag k="addr:city" v="Vernon"/>
    <tag k="addr:housenumber" v="56"/>
    <tag k="addr:street" v="Valley View Drive"/>
    <tag k="addr:state" v="VT"/>
    <tag k="ref:vcgi:esiteid" v="313209"/>
  </node>
  <node id="-1439" visible="true" lat="42.77516005" lon="-72.51545425">
    <tag k="addr:city" v="Vernon"/>
    <tag k="addr:housenumber" v="316"/>
    <tag k="addr:street" v="Governor Hunt Road"/>
    <tag k="addr:state" v="VT"/>
    <tag k="ref:vcgi:esiteid" v="317497"/>
  </node>
  <node id="-1440" visible="true" lat="42.774941" lon="-72.5631806">
    <tag k="addr:city" v="Vernon"/>
    <tag k="addr:housenumber" v="11"/>
    <tag k="addr:street" v="Princesses Lane"/>
    <tag k="addr:state" v="VT"/>
    <tag k="ref:vcgi:esiteid" v="317498"/>
  </node>
  <node id="-1442" visible="true" lat="42.81784629" lon="-72.55749046">
    <tag k="addr:city" v="Vernon"/>
    <tag k="addr:housenumber" v="280"/>
    <tag k="addr:street" v="Broad Brook Road"/>
    <tag k="addr:state" v="VT"/>
    <tag k="ref:vcgi:esiteid" v="317500"/>
  </node>
  <node id="-1443" visible="true" lat="42.74419489" lon="-72.49610889">
    <tag k="addr:city" v="Vernon"/>
    <tag k="addr:housenumber" v="83"/>
    <tag k="addr:street" v="Breezy Acres Drive"/>
    <tag k="addr:state" v="VT"/>
    <tag k="ref:vcgi:esiteid" v="317501"/>
  </node>
  <node id="-1445" visible="true" lat="42.73096299" lon="-72.49128763">
    <tag k="addr:city" v="Vernon"/>
    <tag k="addr:housenumber" v="128"/>
    <tag k="addr:street" v="Dunklee Drive"/>
    <tag k="addr:state" v="VT"/>
    <tag k="ref:vcgi:esiteid" v="317514"/>
  </node>
  <node id="-1447" visible="true" lat="42.74136165" lon="-72.49579894">
    <tag k="addr:city" v="Vernon"/>
    <tag k="addr:housenumber" v="179"/>
    <tag k="addr:street" v="Breezy Acres Drive"/>
    <tag k="addr:state" v="VT"/>
    <tag k="ref:vcgi:esiteid" v="335944"/>
  </node>
  <node id="-1449" visible="true" lat="42.80086309" lon="-72.5555559">
    <tag k="addr:city" v="Vernon"/>
    <tag k="addr:housenumber" v="533"/>
    <tag k="addr:street" v="Franklin Road"/>
    <tag k="addr:state" v="VT"/>
    <tag k="ref:vcgi:esiteid" v="335946"/>
  </node>
  <node id="-1450" visible="true" lat="42.74139346" lon="-72.51086877">
    <tag k="addr:city" v="Vernon"/>
    <tag k="addr:housenumber" v="88"/>
    <tag k="addr:street" v="Lily Pond Road"/>
    <tag k="addr:state" v="VT"/>
    <tag k="ref:vcgi:esiteid" v="335947"/>
  </node>
  <node id="-1451" visible="true" lat="42.73972689" lon="-72.51545742">
    <tag k="addr:city" v="Vernon"/>
    <tag k="addr:housenumber" v="174"/>
    <tag k="addr:street" v="Lily Pond Road"/>
    <tag k="addr:state" v="VT"/>
    <tag k="ref:vcgi:esiteid" v="335948"/>
  </node>
  <node id="-1454" visible="true" lat="42.76527396" lon="-72.50672634">
    <tag k="addr:city" v="Vernon"/>
    <tag k="addr:housenumber" v="107"/>
    <tag k="addr:street" v="Stebbins Road"/>
    <tag k="addr:state" v="VT"/>
    <tag k="ref:vcgi:esiteid" v="335952"/>
  </node>
  <node id="-1457" visible="true" lat="42.74635141" lon="-72.51047009">
    <tag k="addr:city" v="Vernon"/>
    <tag k="addr:housenumber" v="671"/>
    <tag k="addr:street" v="Pond Road"/>
    <tag k="addr:state" v="VT"/>
    <tag k="ref:vcgi:esiteid" v="337735"/>
  </node>
  <node id="-1459" visible="true" lat="42.78344756" lon="-72.51935247">
    <tag k="addr:city" v="Vernon"/>
    <tag k="addr:housenumber" v="1733"/>
    <tag k="addr:street" v="Fort Bridgman Road"/>
    <tag k="addr:state" v="VT"/>
    <tag k="ref:vcgi:esiteid" v="337737"/>
  </node>
  <node id="-1460" visible="true" lat="42.74144825" lon="-72.51038149">
    <tag k="addr:city" v="Vernon"/>
    <tag k="addr:housenumber" v="74"/>
    <tag k="addr:street" v="Lily Pond Road"/>
    <tag k="addr:state" v="VT"/>
    <tag k="ref:vcgi:esiteid" v="342487"/>
  </node>
  <node id="-1461" visible="true" lat="42.74134891" lon="-72.51138396">
    <tag k="addr:city" v="Vernon"/>
    <tag k="addr:housenumber" v="108"/>
    <tag k="addr:street" v="Lily Pond Road"/>
    <tag k="addr:state" v="VT"/>
    <tag k="ref:vcgi:esiteid" v="342488"/>
  </node>
  <node id="-1462" visible="true" lat="42.81601922" lon="-72.55950117">
    <tag k="addr:city" v="Vernon"/>
    <tag k="addr:housenumber" v="387"/>
    <tag k="addr:street" v="Broad Brook Road"/>
    <tag k="addr:state" v="VT"/>
    <tag k="ref:vcgi:esiteid" v="343932"/>
  </node>
  <node id="-1463" visible="true" lat="42.77623907" lon="-72.56307635">
    <tag k="addr:city" v="Vernon"/>
    <tag k="addr:housenumber" v="210"/>
    <tag k="addr:street" v="Lowry Road"/>
    <tag k="addr:state" v="VT"/>
    <tag k="ref:vcgi:esiteid" v="343934"/>
  </node>
  <node id="-1464" visible="true" lat="42.79781566" lon="-72.55396375">
    <tag k="addr:city" v="Vernon"/>
    <tag k="addr:housenumber" v="413"/>
    <tag k="addr:street" v="Franklin Road"/>
    <tag k="addr:state" v="VT"/>
    <tag k="ref:vcgi:esiteid" v="343935"/>
  </node>
  <node id="-1465" visible="true" lat="42.76878582" lon="-72.51702168">
    <tag k="addr:city" v="Vernon"/>
    <tag k="addr:housenumber" v="76"/>
    <tag k="addr:street" v="Governor Hunt Road"/>
    <tag k="addr:state" v="VT"/>
    <tag k="ref:vcgi:esiteid" v="343937"/>
  </node>
  <node id="-1469" visible="true" lat="42.74143723" lon="-72.50985618">
    <tag k="addr:city" v="Vernon"/>
    <tag k="addr:housenumber" v="60"/>
    <tag k="addr:street" v="Lily Pond Road"/>
    <tag k="addr:state" v="VT"/>
    <tag k="ref:vcgi:esiteid" v="343942"/>
  </node>
  <node id="-1472" visible="true" lat="42.74892119" lon="-72.48782315">
    <tag k="addr:city" v="Vernon"/>
    <tag k="addr:housenumber" v="36"/>
    <tag k="addr:street" v="Meadow Road"/>
    <tag k="addr:state" v="VT"/>
    <tag k="ref:vcgi:esiteid" v="343945"/>
  </node>
  <node id="-1475" visible="true" lat="42.74068399" lon="-72.52295828">
    <tag k="addr:city" v="Vernon"/>
    <tag k="addr:housenumber" v="430"/>
    <tag k="addr:street" v="Huckle Hill Road"/>
    <tag k="addr:state" v="VT"/>
    <tag k="ref:vcgi:esiteid" v="448698"/>
  </node>
  <node id="-1477" visible="true" lat="42.80203277" lon="-72.56175331">
    <tag k="addr:city" v="Vernon"/>
    <tag k="addr:housenumber" v="733"/>
    <tag k="addr:street" v="Franklin Road"/>
    <tag k="addr:state" v="VT"/>
    <tag k="ref:vcgi:esiteid" v="449071"/>
  </node>
  <node id="-1478" visible="true" lat="42.73174958" lon="-72.49898512">
    <tag k="addr:city" v="Vernon"/>
    <tag k="addr:housenumber" v="242"/>
    <tag k="addr:street" v="Scott Road"/>
    <tag k="addr:state" v="VT"/>
    <tag k="ref:vcgi:esiteid" v="452622"/>
  </node>
  <node id="-1479" visible="true" lat="42.77881233" lon="-72.56351848">
    <tag k="addr:city" v="Vernon"/>
    <tag k="addr:housenumber" v="316"/>
    <tag k="addr:street" v="Lowry Road"/>
    <tag k="addr:state" v="VT"/>
    <tag k="ref:vcgi:esiteid" v="453823"/>
  </node>
  <node id="-1480" visible="true" lat="42.74002551" lon="-72.52076934">
    <tag k="addr:city" v="Vernon"/>
    <tag k="addr:housenumber" v="403"/>
    <tag k="addr:street" v="Huckle Hill Road"/>
    <tag k="addr:state" v="VT"/>
    <tag k="ref:vcgi:esiteid" v="454192"/>
  </node>
  <node id="-1482" visible="true" lat="42.77179297" lon="-72.56258893">
    <tag k="addr:city" v="Vernon"/>
    <tag k="addr:housenumber" v="129"/>
    <tag k="addr:street" v="Princesses Lane"/>
    <tag k="addr:state" v="VT"/>
    <tag k="ref:vcgi:esiteid" v="454365"/>
  </node>
  <node id="-1483" visible="true" lat="42.76358763" lon="-72.51627244">
    <tag k="addr:city" v="Vernon"/>
    <tag k="addr:housenumber" v="4"/>
    <tag k="addr:street" v="Pond Road"/>
    <tag k="addr:state" v="VT"/>
    <tag k="ref:vcgi:esiteid" v="454982"/>
  </node>
  <node id="-1484" visible="true" lat="42.80429097" lon="-72.54812297">
    <tag k="addr:city" v="Vernon"/>
    <tag k="addr:housenumber" v="246"/>
    <tag k="addr:street" v="Laurel Ledges"/>
    <tag k="addr:state" v="VT"/>
    <tag k="ref:vcgi:esiteid" v="610396"/>
  </node>
  <node id="-1485" visible="true" lat="42.80151084" lon="-72.56100332">
    <tag k="addr:city" v="Vernon"/>
    <tag k="addr:housenumber" v="731"/>
    <tag k="addr:street" v="Franklin Road"/>
    <tag k="addr:state" v="VT"/>
    <tag k="ref:vcgi:esiteid" v="612764"/>
  </node>
  <node id="-1490" visible="true" lat="42.74924183" lon="-72.50489739">
    <tag k="addr:city" v="Vernon"/>
    <tag k="addr:housenumber" v="142"/>
    <tag k="addr:street" v="Forrett Drive"/>
    <tag k="addr:state" v="VT"/>
    <tag k="ref:vcgi:esiteid" v="620540"/>
  </node>
  <node id="-1492" visible="true" lat="42.75946016" lon="-72.49245425">
    <tag k="addr:city" v="Vernon"/>
    <tag k="addr:housenumber" v="23"/>
    <tag k="addr:street" v="Mary Drive"/>
    <tag k="addr:state" v="VT"/>
    <tag k="ref:vcgi:esiteid" v="620542"/>
  </node>
  <node id="-1493" visible="true" lat="42.74951481" lon="-72.51431689">
    <tag k="addr:city" v="Vernon"/>
    <tag k="addr:housenumber" v="536"/>
    <tag k="addr:street" v="Pond Road"/>
    <tag k="addr:state" v="VT"/>
    <tag k="ref:vcgi:esiteid" v="620543"/>
  </node>
  <node id="-1494" visible="true" lat="42.76026881" lon="-72.53064857">
    <tag k="addr:city" v="Vernon"/>
    <tag k="addr:housenumber" v="439"/>
    <tag k="addr:street" v="West Road"/>
    <tag k="addr:state" v="VT"/>
    <tag k="ref:vcgi:esiteid" v="620600"/>
  </node>
  <node id="-1495" visible="true" lat="42.75990246" lon="-72.53242461">
    <tag k="addr:city" v="Vernon"/>
    <tag k="addr:housenumber" v="485"/>
    <tag k="addr:street" v="West Road"/>
    <tag k="addr:state" v="VT"/>
    <tag k="ref:vcgi:esiteid" v="655267"/>
  </node>
  <node id="-1496" visible="true" lat="42.75988325" lon="-72.53297734">
    <tag k="addr:city" v="Vernon"/>
    <tag k="addr:housenumber" v="487"/>
    <tag k="addr:street" v="West Road"/>
    <tag k="addr:state" v="VT"/>
    <tag k="ref:vcgi:esiteid" v="655268"/>
  </node>
  <node id="-1497" visible="true" lat="42.76028356" lon="-72.53242481">
    <tag k="addr:city" v="Vernon"/>
    <tag k="addr:housenumber" v="484"/>
    <tag k="addr:street" v="West Road"/>
    <tag k="addr:state" v="VT"/>
    <tag k="ref:vcgi:esiteid" v="655269"/>
  </node>
  <node id="-1498" visible="true" lat="42.76025017" lon="-72.53255409">
    <tag k="addr:city" v="Vernon"/>
    <tag k="addr:housenumber" v="488"/>
    <tag k="addr:street" v="West Road"/>
    <tag k="addr:state" v="VT"/>
    <tag k="ref:vcgi:esiteid" v="655270"/>
  </node>
  <node id="-1499" visible="true" lat="42.76026907" lon="-72.53266355">
    <tag k="addr:city" v="Vernon"/>
    <tag k="addr:housenumber" v="492"/>
    <tag k="addr:street" v="West Road"/>
    <tag k="addr:state" v="VT"/>
    <tag k="ref:vcgi:esiteid" v="655271"/>
  </node>
  <node id="-1500" visible="true" lat="42.73170177" lon="-72.49283338">
    <tag k="addr:city" v="Vernon"/>
    <tag k="addr:housenumber" v="97"/>
    <tag k="addr:street" v="Skillings Road"/>
    <tag k="addr:state" v="VT"/>
    <tag k="ref:vcgi:esiteid" v="655273"/>
  </node>
  <node id="-1501" visible="true" lat="42.80128178" lon="-72.55540449">
    <tag k="addr:city" v="Vernon"/>
    <tag k="addr:housenumber" v="549"/>
    <tag k="addr:street" v="Franklin Road"/>
    <tag k="addr:state" v="VT"/>
    <tag k="ref:vcgi:esiteid" v="655277"/>
  </node>
  <node id="-1502" visible="true" lat="42.76056057" lon="-72.5321043">
    <tag k="addr:city" v="Vernon"/>
    <tag k="addr:housenumber" v="480"/>
    <tag k="addr:street" v="West Road"/>
    <tag k="addr:state" v="VT"/>
    <tag k="ref:vcgi:esiteid" v="655278"/>
  </node>
  <node id="-1503" visible="true" lat="42.72848534" lon="-72.46963128">
    <tag k="addr:city" v="Vernon"/>
    <tag k="addr:housenumber" v="4484"/>
    <tag k="addr:street" v="Fort Bridgman Road"/>
    <tag k="addr:state" v="VT"/>
    <tag k="ref:vcgi:esiteid" v="655472"/>
  </node>
  <node id="-1506" visible="true" lat="42.73382073" lon="-72.53597334">
    <tag k="addr:city" v="Vernon"/>
    <tag k="addr:housenumber" v="220"/>
    <tag k="addr:street" v="Basin Road"/>
    <tag k="addr:state" v="VT"/>
    <tag k="ref:vcgi:esiteid" v="655480"/>
  </node>
  <node id="-1507" visible="true" lat="42.76310504" lon="-72.52874903">
    <tag k="addr:city" v="Vernon"/>
    <tag k="addr:housenumber" v="81"/>
    <tag k="addr:street" v="Sak Road"/>
    <tag k="addr:state" v="VT"/>
    <tag k="ref:vcgi:esiteid" v="750686"/>
  </node>
  <node id="-1508" visible="true" lat="42.74075574" lon="-72.50088463">
    <tag k="addr:city" v="Vernon"/>
    <tag k="addr:housenumber" v="173"/>
    <tag k="addr:street" v="Sonny Drive"/>
    <tag k="addr:state" v="VT"/>
    <tag k="ref:vcgi:esiteid" v="753002"/>
  </node>
  <node id="-1510" visible="true" lat="42.77765177" lon="-72.52121345">
    <tag k="addr:city" v="Vernon"/>
    <tag k="addr:housenumber" v="1899"/>
    <tag k="addr:street" v="Fort Bridgman Road"/>
    <tag k="addr:state" v="VT"/>
    <tag k="ref:vcgi:esiteid" v="755101"/>
  </node>
  <node id="-1511" visible="true" lat="42.73240215" lon="-72.54056168">
    <tag k="addr:city" v="Vernon"/>
    <tag k="addr:housenumber" v="366"/>
    <tag k="addr:street" v="Basin Road"/>
    <tag k="addr:state" v="VT"/>
    <tag k="ref:vcgi:esiteid" v="755860"/>
  </node>
  <node id="-1520" visible="true" lat="42.78412703" lon="-72.5288123">
    <tag k="addr:city" v="Vernon"/>
    <tag k="addr:housenumber" v="47"/>
    <tag k="addr:street" v="Tyler Hill Road"/>
    <tag k="addr:state" v="VT"/>
    <tag k="ref:vcgi:esiteid" v="760653"/>
  </node>
  <node id="-1521" visible="true" lat="42.74745534" lon="-72.51164517">
    <tag k="addr:city" v="Vernon"/>
    <tag k="addr:housenumber" v="618"/>
    <tag k="addr:street" v="Pond Road"/>
    <tag k="addr:state" v="VT"/>
    <tag k="ref:vcgi:esiteid" v="760654"/>
  </node>
  <node id="-1522" visible="true" lat="42.80323297" lon="-72.55142578">
    <tag k="addr:city" v="Vernon"/>
    <tag k="addr:housenumber" v="206"/>
    <tag k="addr:street" v="Laurel Ledges"/>
    <tag k="addr:state" v="VT"/>
    <tag k="ref:vcgi:esiteid" v="762238"/>
  </node>
  <node id="-1524" visible="true" lat="42.74940514" lon="-72.4888679">
    <tag k="addr:city" v="Vernon"/>
    <tag k="addr:housenumber" v="257"/>
    <tag k="addr:street" v="Newton Road"/>
    <tag k="addr:state" v="VT"/>
    <tag k="ref:vcgi:esiteid" v="762240"/>
  </node>
  <node id="-1525" visible="true" lat="42.74959561" lon="-72.48815686">
    <tag k="addr:city" v="Vernon"/>
    <tag k="addr:housenumber" v="243"/>
    <tag k="addr:street" v="Newton Road"/>
    <tag k="addr:state" v="VT"/>
    <tag k="ref:vcgi:esiteid" v="762241"/>
  </node>
  <node id="-1526" visible="true" lat="42.7594917" lon="-72.52724694">
    <tag k="addr:city" v="Vernon"/>
    <tag k="addr:housenumber" v="349"/>
    <tag k="addr:street" v="West Road"/>
    <tag k="addr:state" v="VT"/>
    <tag k="ref:vcgi:esiteid" v="762748"/>
  </node>
  <node id="-1527" visible="true" lat="42.76441419" lon="-72.51532871">
    <tag k="addr:city" v="Vernon"/>
    <tag k="addr:housenumber" v="2419"/>
    <tag k="addr:street" v="Fort Bridgman Road"/>
    <tag k="addr:state" v="VT"/>
    <tag k="ref:vcgi:esiteid" v="765870"/>
  </node>
  <node id="-1528" visible="true" lat="42.74986649" lon="-72.49337296">
    <tag k="addr:city" v="Vernon"/>
    <tag k="addr:housenumber" v="342"/>
    <tag k="addr:street" v="Newton Road"/>
    <tag k="addr:state" v="VT"/>
    <tag k="ref:vcgi:esiteid" v="766452"/>
  </node>
  <node id="-1529" visible="true" lat="42.79668444" lon="-72.54857925">
    <tag k="addr:city" v="Vernon"/>
    <tag k="addr:housenumber" v="148"/>
    <tag k="addr:street" v="Cushing Lot Road"/>
    <tag k="addr:state" v="VT"/>
    <tag k="ref:vcgi:esiteid" v="766512"/>
  </node>
  <node id="-1530" visible="true" lat="42.79782214" lon="-72.55202218">
    <tag k="addr:city" v="Vernon"/>
    <tag k="addr:housenumber" v="26"/>
    <tag k="addr:street" v="Cushing Lot Road"/>
    <tag k="addr:state" v="VT"/>
    <tag k="ref:vcgi:esiteid" v="767809"/>
  </node>
  <node id="-1531" visible="true" lat="42.79676493" lon="-72.550262">
    <tag k="addr:city" v="Vernon"/>
    <tag k="addr:housenumber" v="84"/>
    <tag k="addr:street" v="Cushing Lot Road"/>
    <tag k="addr:state" v="VT"/>
    <tag k="ref:vcgi:esiteid" v="767810"/>
  </node>
  <node id="-1532" visible="true" lat="42.77811565" lon="-72.52165985">
    <tag k="addr:city" v="Vernon"/>
    <tag k="addr:housenumber" v="1895"/>
    <tag k="addr:street" v="Fort Bridgman Road"/>
    <tag k="addr:state" v="VT"/>
    <tag k="ref:vcgi:esiteid" v="767811"/>
  </node>
  <node id="-1533" visible="true" lat="42.74920541" lon="-72.48796373">
    <tag k="addr:city" v="Vernon"/>
    <tag k="addr:housenumber" v="22"/>
    <tag k="addr:street" v="Meadow Road"/>
    <tag k="addr:state" v="VT"/>
    <tag k="ref:vcgi:esiteid" v="767812"/>
  </node>
  <node id="-1534" visible="true" lat="42.73571363" lon="-72.48663096">
    <tag k="addr:city" v="Vernon"/>
    <tag k="addr:housenumber" v="1571"/>
    <tag k="addr:street" v="Pond Road"/>
    <tag k="addr:state" v="VT"/>
    <tag k="ref:vcgi:esiteid" v="767813"/>
  </node>
  <node id="-1535" visible="true" lat="42.73531534" lon="-72.53786087">
    <tag k="addr:city" v="Vernon"/>
    <tag k="addr:housenumber" v="54"/>
    <tag k="addr:street" v="Honey Brim Road"/>
    <tag k="addr:state" v="VT"/>
    <tag k="ref:vcgi:esiteid" v="767814"/>
  </node>
  <node id="-1536" visible="true" lat="42.7365109" lon="-72.49054779">
    <tag k="addr:city" v="Vernon"/>
    <tag k="addr:housenumber" v="1475"/>
    <tag k="addr:street" v="Pond Road"/>
    <tag k="addr:state" v="VT"/>
    <tag k="ref:vcgi:esiteid" v="767815"/>
  </node>
  <node id="-1537" visible="true" lat="42.74432515" lon="-72.5096696">
    <tag k="addr:city" v="Vernon"/>
    <tag k="addr:housenumber" v="748"/>
    <tag k="addr:street" v="Pond Road"/>
    <tag k="addr:state" v="VT"/>
    <tag k="ref:vcgi:esiteid" v="767816"/>
  </node>
  <node id="-1538" visible="true" lat="42.72948421" lon="-72.49077415">
    <tag k="addr:city" v="Vernon"/>
    <tag k="addr:housenumber" v="449"/>
    <tag k="addr:street" v="Scott Road"/>
    <tag k="addr:state" v="VT"/>
    <tag k="ref:vcgi:esiteid" v="767818"/>
  </node>
  <node id="-1539" visible="true" lat="42.73461625" lon="-72.5382107">
    <tag k="addr:city" v="Vernon"/>
    <tag k="addr:housenumber" v="32"/>
    <tag k="addr:street" v="Honey Brim Road"/>
    <tag k="addr:state" v="VT"/>
    <tag k="ref:vcgi:esiteid" v="767820"/>
  </node>
  <node id="-1540" visible="true" lat="42.7322045" lon="-72.49822725">
    <tag k="addr:city" v="Vernon"/>
    <tag k="addr:housenumber" v="261"/>
    <tag k="addr:street" v="Scott Road"/>
    <tag k="addr:state" v="VT"/>
    <tag k="ref:vcgi:esiteid" v="767821"/>
  </node>
  <node id="-1541" visible="true" lat="42.79182455" lon="-72.54716757">
    <tag k="addr:city" v="Vernon"/>
    <tag k="addr:housenumber" v="179"/>
    <tag k="addr:street" v="Skyline Drive"/>
    <tag k="addr:state" v="VT"/>
    <tag k="ref:vcgi:esiteid" v="767822"/>
  </node>
  <node id="-1542" visible="true" lat="42.7980405" lon="-72.55065171">
    <tag k="addr:city" v="Vernon"/>
    <tag k="addr:housenumber" v="75"/>
    <tag k="addr:street" v="Cushing Lot Road"/>
    <tag k="addr:state" v="VT"/>
    <tag k="ref:vcgi:esiteid" v="767996"/>
  </node>
  <node id="-1543" visible="true" lat="42.76105446" lon="-72.52650322">
    <tag k="addr:city" v="Vernon"/>
    <tag k="addr:housenumber" v="323"/>
    <tag k="addr:street" v="West Road"/>
    <tag k="addr:state" v="VT"/>
    <tag k="ref:vcgi:esiteid" v="768149"/>
  </node>
  <node id="-1544" visible="true" lat="42.75718867" lon="-72.52491398">
    <tag k="addr:city" v="Vernon"/>
    <tag k="addr:housenumber" v="337"/>
    <tag k="addr:street" v="West Road"/>
    <tag k="addr:state" v="VT"/>
    <tag k="ref:vcgi:esiteid" v="768151"/>
  </node>
  <node id="-1545" visible="true" lat="42.80255325" lon="-72.54023768">
    <tag k="addr:city" v="Vernon"/>
    <tag k="addr:housenumber" v="800"/>
    <tag k="addr:street" v="Fort Bridgman Road"/>
    <tag k="addr:state" v="VT"/>
    <tag k="ref:vcgi:esiteid" v="768234"/>
  </node>
  <node id="-1546" visible="true" lat="42.73175863" lon="-72.49617168">
    <tag k="addr:city" v="Vernon"/>
    <tag k="addr:housenumber" v="321"/>
    <tag k="addr:street" v="Scott Road"/>
    <tag k="addr:state" v="VT"/>
    <tag k="ref:vcgi:esiteid" v="768235"/>
  </node>
  <node id="-1547" visible="true" lat="42.74045282" lon="-72.51018217">
    <tag k="addr:city" v="Vernon"/>
    <tag k="addr:housenumber" v="81"/>
    <tag k="addr:street" v="Lily Pond Road"/>
    <tag k="addr:state" v="VT"/>
    <tag k="ref:vcgi:esiteid" v="768829"/>
  </node>
  <node id="-1548" visible="true" lat="42.75284108" lon="-72.51366977">
    <tag k="addr:city" v="Vernon"/>
    <tag k="addr:housenumber" v="409"/>
    <tag k="addr:street" v="Pond Road"/>
    <tag k="addr:state" v="VT"/>
    <tag k="ref:vcgi:esiteid" v="900490"/>
  </node>
  <node id="-1549" visible="true" lat="42.77326459" lon="-72.5617307">
    <tag k="addr:city" v="Vernon"/>
    <tag k="addr:housenumber" v="1006"/>
    <tag k="addr:street" v="Interstate 91 South"/>
    <tag k="addr:state" v="VT"/>
    <tag k="ref:vcgi:esiteid" v="1050171"/>
  </node>
  <node id="-1550" visible="true" lat="42.7882988" lon="-72.56036211">
    <tag k="addr:city" v="Vernon"/>
    <tag k="addr:housenumber" v="944"/>
    <tag k="addr:street" v="Interstate 91 North"/>
    <tag k="addr:state" v="VT"/>
    <tag k="ref:vcgi:esiteid" v="1050172"/>
  </node>
  <node id="-1551" visible="true" lat="42.76120522" lon="-72.50255868">
    <tag k="addr:city" v="Vernon"/>
    <tag k="addr:housenumber" v="2854"/>
    <tag k="addr:street" v="Fort Bridgman Road"/>
    <tag k="addr:state" v="VT"/>
    <tag k="ref:vcgi:esiteid" v="1050191"/>
  </node>
</osm>
