<?xml version="1.0" encoding="UTF-8"?>
<osm version="0.6" generator="JOSM">
  <node id="-100" visible="true" lat="43.97192479" lon="-72.31830388">
    <tag k="addr:city" v="Vershire"/>
    <tag k="addr:housenumber" v="297"/>
    <tag k="addr:street" v="Sugar House Lane"/>
    <tag k="addr:state" v="VT"/>
    <tag k="ref:vcgi:esiteid" v="291"/>
  </node>
  <node id="-101" visible="true" lat="43.97325998" lon="-72.32162198">
    <tag k="addr:city" v="Vershire"/>
    <tag k="addr:housenumber" v="44"/>
    <tag k="addr:street" v="Sugar House Lane"/>
    <tag k="addr:state" v="VT"/>
    <tag k="ref:vcgi:esiteid" v="360"/>
  </node>
  <node id="-102" visible="true" lat="43.92641181" lon="-72.2945985">
    <tag k="addr:city" v="Vershire"/>
    <tag k="addr:housenumber" v="2847"/>
    <tag k="addr:street" v="Parker Road"/>
    <tag k="addr:state" v="VT"/>
    <tag k="ref:vcgi:esiteid" v="363"/>
  </node>
  <node id="-103" visible="true" lat="44.00779948" lon="-72.37980839">
    <tag k="addr:city" v="Vershire"/>
    <tag k="addr:housenumber" v="2203"/>
    <tag k="addr:street" v="Private Rd 6"/>
    <tag k="addr:state" v="VT"/>
    <tag k="ref:vcgi:esiteid" v="77078"/>
  </node>
  <node id="-104" visible="true" lat="44.00452423" lon="-72.37628936">
    <tag k="addr:city" v="Vershire"/>
    <tag k="addr:housenumber" v="832"/>
    <tag k="addr:street" v="Vershire Riding School Road"/>
    <tag k="addr:state" v="VT"/>
    <tag k="ref:vcgi:esiteid" v="266885"/>
  </node>
  <node id="-105" visible="true" lat="44.00323104" lon="-72.36824035">
    <tag k="addr:city" v="Vershire"/>
    <tag k="addr:housenumber" v="404"/>
    <tag k="addr:street" v="Vershire Riding School Road"/>
    <tag k="addr:state" v="VT"/>
    <tag k="ref:vcgi:esiteid" v="266886"/>
  </node>
  <node id="-106" visible="true" lat="44.0030632" lon="-72.37202453">
    <tag k="addr:city" v="Vershire"/>
    <tag k="addr:housenumber" v="560"/>
    <tag k="addr:street" v="Vershire Riding School Road"/>
    <tag k="addr:state" v="VT"/>
    <tag k="ref:vcgi:esiteid" v="266887"/>
  </node>
  <node id="-107" visible="true" lat="44.00236129" lon="-72.37451934">
    <tag k="addr:city" v="Vershire"/>
    <tag k="addr:housenumber" v="665"/>
    <tag k="addr:street" v="Vershire Riding School Road"/>
    <tag k="addr:state" v="VT"/>
    <tag k="ref:vcgi:esiteid" v="266888"/>
  </node>
  <node id="-108" visible="true" lat="44.00220296" lon="-72.35675626">
    <tag k="addr:city" v="Vershire"/>
    <tag k="addr:housenumber" v="1303"/>
    <tag k="addr:street" v="Goose Green Road"/>
    <tag k="addr:state" v="VT"/>
    <tag k="ref:vcgi:esiteid" v="266889"/>
  </node>
  <node id="-109" visible="true" lat="44.00210952" lon="-72.36765289">
    <tag k="addr:city" v="Vershire"/>
    <tag k="addr:housenumber" v="402"/>
    <tag k="addr:street" v="Vershire Riding School Road"/>
    <tag k="addr:state" v="VT"/>
    <tag k="ref:vcgi:esiteid" v="266890"/>
  </node>
  <node id="-110" visible="true" lat="44.00147748" lon="-72.36824797">
    <tag k="addr:city" v="Vershire"/>
    <tag k="addr:housenumber" v="376"/>
    <tag k="addr:street" v="Vershire Riding School Road"/>
    <tag k="addr:state" v="VT"/>
    <tag k="ref:vcgi:esiteid" v="266891"/>
  </node>
  <node id="-111" visible="true" lat="44.00133499" lon="-72.36779807">
    <tag k="addr:city" v="Vershire"/>
    <tag k="addr:housenumber" v="336"/>
    <tag k="addr:street" v="Vershire Riding School Road"/>
    <tag k="addr:state" v="VT"/>
    <tag k="ref:vcgi:esiteid" v="266892"/>
  </node>
  <node id="-112" visible="true" lat="44.00095697" lon="-72.36749427">
    <tag k="addr:city" v="Vershire"/>
    <tag k="addr:housenumber" v="333"/>
    <tag k="addr:street" v="Vershire Riding School Road"/>
    <tag k="addr:state" v="VT"/>
    <tag k="ref:vcgi:esiteid" v="266893"/>
  </node>
  <node id="-113" visible="true" lat="44.00038528" lon="-72.37571716">
    <tag k="addr:city" v="Vershire"/>
    <tag k="addr:housenumber" v="585"/>
    <tag k="addr:street" v="Vershire Riding School Road"/>
    <tag k="addr:state" v="VT"/>
    <tag k="ref:vcgi:esiteid" v="266894"/>
  </node>
  <node id="-114" visible="true" lat="44.00040717" lon="-72.35312415">
    <tag k="addr:city" v="Vershire"/>
    <tag k="addr:housenumber" v="1410"/>
    <tag k="addr:street" v="Goose Green Road"/>
    <tag k="addr:state" v="VT"/>
    <tag k="ref:vcgi:esiteid" v="266895"/>
  </node>
  <node id="-115" visible="true" lat="43.99964702" lon="-72.35417806">
    <tag k="addr:city" v="Vershire"/>
    <tag k="addr:housenumber" v="1310"/>
    <tag k="addr:street" v="Goose Green Road"/>
    <tag k="addr:state" v="VT"/>
    <tag k="ref:vcgi:esiteid" v="266896"/>
  </node>
  <node id="-116" visible="true" lat="43.99817657" lon="-72.36578369">
    <tag k="addr:city" v="Vershire"/>
    <tag k="addr:housenumber" v="77"/>
    <tag k="addr:street" v="Vershire Riding School Road"/>
    <tag k="addr:state" v="VT"/>
    <tag k="ref:vcgi:esiteid" v="266897"/>
  </node>
  <node id="-118" visible="true" lat="43.9951745" lon="-72.34054467">
    <tag k="addr:city" v="Vershire"/>
    <tag k="addr:housenumber" v="1266"/>
    <tag k="addr:street" v="Rowell Road"/>
    <tag k="addr:state" v="VT"/>
    <tag k="ref:vcgi:esiteid" v="266899"/>
  </node>
  <node id="-119" visible="true" lat="43.99443054" lon="-72.33033752">
    <tag k="addr:city" v="Vershire"/>
    <tag k="addr:housenumber" v="537"/>
    <tag k="addr:street" v="Stacey Road"/>
    <tag k="addr:state" v="VT"/>
    <tag k="ref:vcgi:esiteid" v="266900"/>
  </node>
  <node id="-120" visible="true" lat="43.99425125" lon="-72.34248352">
    <tag k="addr:city" v="Vershire"/>
    <tag k="addr:housenumber" v="1295"/>
    <tag k="addr:street" v="Rowell Road"/>
    <tag k="addr:state" v="VT"/>
    <tag k="ref:vcgi:esiteid" v="266901"/>
  </node>
  <node id="-121" visible="true" lat="43.99273681" lon="-72.36373901">
    <tag k="addr:city" v="Vershire"/>
    <tag k="addr:housenumber" v="442"/>
    <tag k="addr:street" v="Goose Green Road"/>
    <tag k="addr:state" v="VT"/>
    <tag k="ref:vcgi:esiteid" v="266902"/>
  </node>
  <node id="-122" visible="true" lat="43.99220275" lon="-72.38205719">
    <tag k="addr:city" v="Vershire"/>
    <tag k="addr:housenumber" v="10312"/>
    <tag k="addr:street" v="Vermont Route 113"/>
    <tag k="addr:state" v="VT"/>
    <tag k="ref:vcgi:esiteid" v="266903"/>
  </node>
  <node id="-123" visible="true" lat="43.99209976" lon="-72.38134002">
    <tag k="addr:city" v="Vershire"/>
    <tag k="addr:housenumber" v="10310"/>
    <tag k="addr:street" v="Vermont Route 113"/>
    <tag k="addr:state" v="VT"/>
    <tag k="ref:vcgi:esiteid" v="266904"/>
  </node>
  <node id="-125" visible="true" lat="43.99165344" lon="-72.37858581">
    <tag k="addr:city" v="Vershire"/>
    <tag k="addr:housenumber" v="10148"/>
    <tag k="addr:street" v="Vermont Route 113"/>
    <tag k="addr:state" v="VT"/>
    <tag k="ref:vcgi:esiteid" v="266906"/>
  </node>
  <node id="-129" visible="true" lat="43.99125167" lon="-72.3379944">
    <tag k="addr:city" v="Vershire"/>
    <tag k="addr:housenumber" v="934"/>
    <tag k="addr:street" v="Rowell Road"/>
    <tag k="addr:state" v="VT"/>
    <tag k="ref:vcgi:esiteid" v="266910"/>
  </node>
  <node id="-134" visible="true" lat="43.98978805" lon="-72.37621307">
    <tag k="addr:city" v="Vershire"/>
    <tag k="addr:housenumber" v="9997"/>
    <tag k="addr:street" v="Vermont Route 113"/>
    <tag k="addr:state" v="VT"/>
    <tag k="ref:vcgi:esiteid" v="266915"/>
  </node>
  <node id="-135" visible="true" lat="43.98846727" lon="-72.29873007">
    <tag k="addr:city" v="Vershire"/>
    <tag k="addr:housenumber" v="2095"/>
    <tag k="addr:street" v="Eagle Hollow Road"/>
    <tag k="addr:state" v="VT"/>
    <tag k="ref:vcgi:esiteid" v="266916"/>
  </node>
  <node id="-138" visible="true" lat="43.98845672" lon="-72.36044311">
    <tag k="addr:city" v="Vershire"/>
    <tag k="addr:housenumber" v="429"/>
    <tag k="addr:street" v="Private Rd 1"/>
    <tag k="addr:state" v="VT"/>
    <tag k="ref:vcgi:esiteid" v="266919"/>
  </node>
  <node id="-139" visible="true" lat="43.98825836" lon="-72.35874938">
    <tag k="addr:city" v="Vershire"/>
    <tag k="addr:housenumber" v="431"/>
    <tag k="addr:street" v="Private Rd 1"/>
    <tag k="addr:state" v="VT"/>
    <tag k="ref:vcgi:esiteid" v="266920"/>
  </node>
  <node id="-142" visible="true" lat="43.98781209" lon="-72.3637233">
    <tag k="addr:city" v="Vershire"/>
    <tag k="addr:housenumber" v="301"/>
    <tag k="addr:street" v="Private Rd 1"/>
    <tag k="addr:state" v="VT"/>
    <tag k="ref:vcgi:esiteid" v="266923"/>
  </node>
  <node id="-144" visible="true" lat="43.98741289" lon="-72.36383138">
    <tag k="addr:city" v="Vershire"/>
    <tag k="addr:housenumber" v="300"/>
    <tag k="addr:street" v="Private Rd 1"/>
    <tag k="addr:state" v="VT"/>
    <tag k="ref:vcgi:esiteid" v="266926"/>
  </node>
  <node id="-146" visible="true" lat="43.98729705" lon="-72.36891937">
    <tag k="addr:city" v="Vershire"/>
    <tag k="addr:housenumber" v="9580"/>
    <tag k="addr:street" v="Vermont Route 113"/>
    <tag k="addr:state" v="VT"/>
    <tag k="ref:vcgi:esiteid" v="266928"/>
  </node>
  <node id="-147" visible="true" lat="43.98729324" lon="-72.36934661">
    <tag k="addr:city" v="Vershire"/>
    <tag k="addr:housenumber" v="9593"/>
    <tag k="addr:street" v="Vermont Route 113"/>
    <tag k="addr:state" v="VT"/>
    <tag k="ref:vcgi:esiteid" v="266929"/>
  </node>
  <node id="-150" visible="true" lat="43.98632495" lon="-72.35985879">
    <tag k="addr:city" v="Vershire"/>
    <tag k="addr:housenumber" v="436"/>
    <tag k="addr:street" v="Private Rd 1"/>
    <tag k="addr:state" v="VT"/>
    <tag k="ref:vcgi:esiteid" v="266932"/>
  </node>
  <node id="-151" visible="true" lat="43.98439442" lon="-72.28869299">
    <tag k="addr:city" v="Vershire"/>
    <tag k="addr:housenumber" v="1896"/>
    <tag k="addr:street" v="Eagle Hollow Road"/>
    <tag k="addr:state" v="VT"/>
    <tag k="ref:vcgi:esiteid" v="266933"/>
  </node>
  <node id="-152" visible="true" lat="43.98616409" lon="-72.36765289">
    <tag k="addr:city" v="Vershire"/>
    <tag k="addr:housenumber" v="9476"/>
    <tag k="addr:street" v="Vermont Route 113"/>
    <tag k="addr:state" v="VT"/>
    <tag k="ref:vcgi:esiteid" v="266934"/>
  </node>
  <node id="-154" visible="true" lat="43.98377227" lon="-72.36278533">
    <tag k="addr:city" v="Vershire"/>
    <tag k="addr:housenumber" v="9246"/>
    <tag k="addr:street" v="Vermont Route 113"/>
    <tag k="addr:state" v="VT"/>
    <tag k="ref:vcgi:esiteid" v="266936"/>
  </node>
  <node id="-157" visible="true" lat="43.9833374" lon="-72.363945">
    <tag k="addr:city" v="Vershire"/>
    <tag k="addr:housenumber" v="9287"/>
    <tag k="addr:street" v="Vermont Route 113"/>
    <tag k="addr:state" v="VT"/>
    <tag k="ref:vcgi:esiteid" v="266939"/>
  </node>
  <node id="-160" visible="true" lat="43.98236846" lon="-72.36083221">
    <tag k="addr:city" v="Vershire"/>
    <tag k="addr:housenumber" v="9006"/>
    <tag k="addr:street" v="Vermont Route 113"/>
    <tag k="addr:state" v="VT"/>
    <tag k="ref:vcgi:esiteid" v="266942"/>
  </node>
  <node id="-161" visible="true" lat="43.98215866" lon="-72.33277893">
    <tag k="addr:city" v="Vershire"/>
    <tag k="addr:housenumber" v="162"/>
    <tag k="addr:street" v="Rowell Road"/>
    <tag k="addr:state" v="VT"/>
    <tag k="ref:vcgi:esiteid" v="266943"/>
  </node>
  <node id="-166" visible="true" lat="43.98115158" lon="-72.3559494">
    <tag k="addr:city" v="Vershire"/>
    <tag k="addr:housenumber" v="8798"/>
    <tag k="addr:street" v="Vermont Route 113"/>
    <tag k="addr:state" v="VT"/>
    <tag k="ref:vcgi:esiteid" v="266949"/>
  </node>
  <node id="-167" visible="true" lat="43.98114046" lon="-72.36628164">
    <tag k="addr:city" v="Vershire"/>
    <tag k="addr:housenumber" v="9289"/>
    <tag k="addr:street" v="Vermont Route 113"/>
    <tag k="addr:state" v="VT"/>
    <tag k="ref:vcgi:esiteid" v="266950"/>
  </node>
  <node id="-168" visible="true" lat="43.98083495" lon="-72.35984039">
    <tag k="addr:city" v="Vershire"/>
    <tag k="addr:housenumber" v="8931"/>
    <tag k="addr:street" v="Vermont Route 113"/>
    <tag k="addr:state" v="VT"/>
    <tag k="ref:vcgi:esiteid" v="266951"/>
  </node>
  <node id="-172" visible="true" lat="43.98027801" lon="-72.35438537">
    <tag k="addr:city" v="Vershire"/>
    <tag k="addr:housenumber" v="8690"/>
    <tag k="addr:street" v="Vermont Route 113"/>
    <tag k="addr:state" v="VT"/>
    <tag k="ref:vcgi:esiteid" v="266955"/>
  </node>
  <node id="-174" visible="true" lat="43.97993469" lon="-72.33348083">
    <tag k="addr:city" v="Vershire"/>
    <tag k="addr:housenumber" v="43"/>
    <tag k="addr:street" v="Rowell Road"/>
    <tag k="addr:state" v="VT"/>
    <tag k="ref:vcgi:esiteid" v="266957"/>
  </node>
  <node id="-175" visible="true" lat="43.97907257" lon="-72.26701355">
    <tag k="addr:city" v="Vershire"/>
    <tag k="addr:housenumber" v="385"/>
    <tag k="addr:street" v="South America Road"/>
    <tag k="addr:state" v="VT"/>
    <tag k="ref:vcgi:esiteid" v="266958"/>
  </node>
  <node id="-176" visible="true" lat="43.97901535" lon="-72.26643371">
    <tag k="addr:city" v="Vershire"/>
    <tag k="addr:housenumber" v="379"/>
    <tag k="addr:street" v="South America Road"/>
    <tag k="addr:state" v="VT"/>
    <tag k="ref:vcgi:esiteid" v="266959"/>
  </node>
  <node id="-179" visible="true" lat="43.97870635" lon="-72.34877777">
    <tag k="addr:city" v="Vershire"/>
    <tag k="addr:housenumber" v="8440"/>
    <tag k="addr:street" v="Vermont Route 113"/>
    <tag k="addr:state" v="VT"/>
    <tag k="ref:vcgi:esiteid" v="266962"/>
  </node>
  <node id="-180" visible="true" lat="43.97810851" lon="-72.31588625">
    <tag k="addr:city" v="Vershire"/>
    <tag k="addr:housenumber" v="127"/>
    <tag k="addr:street" v="Private Rd 4"/>
    <tag k="addr:state" v="VT"/>
    <tag k="ref:vcgi:esiteid" v="266963"/>
  </node>
  <node id="-182" visible="true" lat="43.97867148" lon="-72.33210357">
    <tag k="addr:city" v="Vershire"/>
    <tag k="addr:housenumber" v="454"/>
    <tag k="addr:street" v="Durgin Hill Road"/>
    <tag k="addr:state" v="VT"/>
    <tag k="ref:vcgi:esiteid" v="266965"/>
  </node>
  <node id="-183" visible="true" lat="43.97808456" lon="-72.35288238">
    <tag k="addr:city" v="Vershire"/>
    <tag k="addr:housenumber" v="8522"/>
    <tag k="addr:street" v="Vermont Route 113"/>
    <tag k="addr:state" v="VT"/>
    <tag k="ref:vcgi:esiteid" v="266966"/>
  </node>
  <node id="-186" visible="true" lat="43.97773694" lon="-72.33173081">
    <tag k="addr:city" v="Vershire"/>
    <tag k="addr:housenumber" v="408"/>
    <tag k="addr:street" v="Durgin Hill Road"/>
    <tag k="addr:state" v="VT"/>
    <tag k="ref:vcgi:esiteid" v="266969"/>
  </node>
  <node id="-189" visible="true" lat="43.97691726" lon="-72.37407684">
    <tag k="addr:city" v="Vershire"/>
    <tag k="addr:housenumber" v="299"/>
    <tag k="addr:street" v="Private Rd 3"/>
    <tag k="addr:state" v="VT"/>
    <tag k="ref:vcgi:esiteid" v="266972"/>
  </node>
  <node id="-192" visible="true" lat="43.97712717" lon="-72.33158">
    <tag k="addr:city" v="Vershire"/>
    <tag k="addr:housenumber" v="334"/>
    <tag k="addr:street" v="Durgin Hill Road"/>
    <tag k="addr:state" v="VT"/>
    <tag k="ref:vcgi:esiteid" v="266975"/>
  </node>
  <node id="-195" visible="true" lat="43.97616195" lon="-72.35115051">
    <tag k="addr:city" v="Vershire"/>
    <tag k="addr:housenumber" v="8403"/>
    <tag k="addr:street" v="Vermont Route 113"/>
    <tag k="addr:state" v="VT"/>
    <tag k="ref:vcgi:esiteid" v="266978"/>
  </node>
  <node id="-196" visible="true" lat="43.97595977" lon="-72.35958862">
    <tag k="addr:city" v="Vershire"/>
    <tag k="addr:housenumber" v="8791"/>
    <tag k="addr:street" v="Vermont Route 113"/>
    <tag k="addr:state" v="VT"/>
    <tag k="ref:vcgi:esiteid" v="266979"/>
  </node>
  <node id="-198" visible="true" lat="43.97613508" lon="-72.31581373">
    <tag k="addr:city" v="Vershire"/>
    <tag k="addr:housenumber" v="406"/>
    <tag k="addr:street" v="Private Rd 4"/>
    <tag k="addr:state" v="VT"/>
    <tag k="ref:vcgi:esiteid" v="266981"/>
  </node>
  <node id="-202" visible="true" lat="43.97448137" lon="-72.37523805">
    <tag k="addr:city" v="Vershire"/>
    <tag k="addr:housenumber" v="476"/>
    <tag k="addr:street" v="Private Rd 3"/>
    <tag k="addr:state" v="VT"/>
    <tag k="ref:vcgi:esiteid" v="266985"/>
  </node>
  <node id="-205" visible="true" lat="43.97416623" lon="-72.37661772">
    <tag k="addr:city" v="Vershire"/>
    <tag k="addr:housenumber" v="474"/>
    <tag k="addr:street" v="Private Rd 3"/>
    <tag k="addr:state" v="VT"/>
    <tag k="ref:vcgi:esiteid" v="266988"/>
  </node>
  <node id="-212" visible="true" lat="43.97222471" lon="-72.33092793">
    <tag k="addr:city" v="Vershire"/>
    <tag k="addr:housenumber" v="15"/>
    <tag k="addr:street" v="Durgin Hill Road"/>
    <tag k="addr:state" v="VT"/>
    <tag k="ref:vcgi:esiteid" v="266995"/>
  </node>
  <node id="-224" visible="true" lat="43.97087128" lon="-72.31982091">
    <tag k="addr:city" v="Vershire"/>
    <tag k="addr:housenumber" v="74"/>
    <tag k="addr:street" v="North Road"/>
    <tag k="addr:state" v="VT"/>
    <tag k="ref:vcgi:esiteid" v="267007"/>
  </node>
  <node id="-232" visible="true" lat="43.96984863" lon="-72.32092285">
    <tag k="addr:city" v="Vershire"/>
    <tag k="addr:housenumber" v="6776"/>
    <tag k="addr:street" v="Vermont Route 113"/>
    <tag k="addr:state" v="VT"/>
    <tag k="ref:vcgi:esiteid" v="267016"/>
  </node>
  <node id="-235" visible="true" lat="43.96977512" lon="-72.32203963">
    <tag k="addr:city" v="Vershire"/>
    <tag k="addr:housenumber" v="6811"/>
    <tag k="addr:street" v="Vermont Route 113"/>
    <tag k="addr:state" v="VT"/>
    <tag k="ref:vcgi:esiteid" v="267019"/>
  </node>
  <node id="-236" visible="true" lat="43.96955108" lon="-72.32133483">
    <tag k="addr:city" v="Vershire"/>
    <tag k="addr:housenumber" v="6787"/>
    <tag k="addr:street" v="Vermont Route 113"/>
    <tag k="addr:state" v="VT"/>
    <tag k="ref:vcgi:esiteid" v="267020"/>
  </node>
  <node id="-237" visible="true" lat="43.96952819" lon="-72.31993103">
    <tag k="addr:city" v="Vershire"/>
    <tag k="addr:housenumber" v="6722"/>
    <tag k="addr:street" v="Vermont Route 113"/>
    <tag k="addr:state" v="VT"/>
    <tag k="ref:vcgi:esiteid" v="267021"/>
  </node>
  <node id="-238" visible="true" lat="43.97033252" lon="-72.25095211">
    <tag k="addr:city" v="Vershire"/>
    <tag k="addr:housenumber" v="31"/>
    <tag k="addr:street" v="Hoth Lane"/>
    <tag k="addr:state" v="VT"/>
    <tag k="ref:vcgi:esiteid" v="267022"/>
  </node>
  <node id="-239" visible="true" lat="43.9689064" lon="-72.33924102">
    <tag k="addr:city" v="Vershire"/>
    <tag k="addr:housenumber" v="386"/>
    <tag k="addr:street" v="Brown Road"/>
    <tag k="addr:state" v="VT"/>
    <tag k="ref:vcgi:esiteid" v="267023"/>
  </node>
  <node id="-242" visible="true" lat="43.96868896" lon="-72.31711578">
    <tag k="addr:city" v="Vershire"/>
    <tag k="addr:housenumber" v="6570"/>
    <tag k="addr:street" v="Vermont Route 113"/>
    <tag k="addr:state" v="VT"/>
    <tag k="ref:vcgi:esiteid" v="267026"/>
  </node>
  <node id="-248" visible="true" lat="43.96760417" lon="-72.31518679">
    <tag k="addr:city" v="Vershire"/>
    <tag k="addr:housenumber" v="6451"/>
    <tag k="addr:street" v="Vermont Route 113"/>
    <tag k="addr:state" v="VT"/>
    <tag k="ref:vcgi:esiteid" v="267032"/>
  </node>
  <node id="-252" visible="true" lat="43.96643465" lon="-72.31360926">
    <tag k="addr:city" v="Vershire"/>
    <tag k="addr:housenumber" v="6335"/>
    <tag k="addr:street" v="Vermont Route 113"/>
    <tag k="addr:state" v="VT"/>
    <tag k="ref:vcgi:esiteid" v="267036"/>
  </node>
  <node id="-253" visible="true" lat="43.9665366" lon="-72.33735202">
    <tag k="addr:city" v="Vershire"/>
    <tag k="addr:housenumber" v="537"/>
    <tag k="addr:street" v="Brown Road"/>
    <tag k="addr:state" v="VT"/>
    <tag k="ref:vcgi:esiteid" v="267037"/>
  </node>
  <node id="-259" visible="true" lat="43.9662048" lon="-72.31172471">
    <tag k="addr:city" v="Vershire"/>
    <tag k="addr:housenumber" v="6246"/>
    <tag k="addr:street" v="Vermont Route 113"/>
    <tag k="addr:state" v="VT"/>
    <tag k="ref:vcgi:esiteid" v="267043"/>
  </node>
  <node id="-260" visible="true" lat="43.96560122" lon="-72.25358943">
    <tag k="addr:city" v="Vershire"/>
    <tag k="addr:housenumber" v="567"/>
    <tag k="addr:street" v="Powells Road"/>
    <tag k="addr:state" v="VT"/>
    <tag k="ref:vcgi:esiteid" v="267044"/>
  </node>
  <node id="-265" visible="true" lat="43.96471405" lon="-72.2900772">
    <tag k="addr:city" v="Vershire"/>
    <tag k="addr:housenumber" v="148"/>
    <tag k="addr:street" v="Eagle Hollow Road"/>
    <tag k="addr:state" v="VT"/>
    <tag k="ref:vcgi:esiteid" v="267049"/>
  </node>
  <node id="-277" visible="true" lat="43.96282577" lon="-72.29165649">
    <tag k="addr:city" v="Vershire"/>
    <tag k="addr:housenumber" v="5096"/>
    <tag k="addr:street" v="Vermont Route 113"/>
    <tag k="addr:state" v="VT"/>
    <tag k="ref:vcgi:esiteid" v="267061"/>
  </node>
  <node id="-281" visible="true" lat="43.96258041" lon="-72.34042451">
    <tag k="addr:city" v="Vershire"/>
    <tag k="addr:housenumber" v="181"/>
    <tag k="addr:street" v="Reed Road"/>
    <tag k="addr:state" v="VT"/>
    <tag k="ref:vcgi:esiteid" v="267065"/>
  </node>
  <node id="-284" visible="true" lat="43.9624176" lon="-72.35285186">
    <tag k="addr:city" v="Vershire"/>
    <tag k="addr:housenumber" v="677"/>
    <tag k="addr:street" v="Reed Road"/>
    <tag k="addr:state" v="VT"/>
    <tag k="ref:vcgi:esiteid" v="267068"/>
  </node>
  <node id="-287" visible="true" lat="43.96186828" lon="-72.29164123">
    <tag k="addr:city" v="Vershire"/>
    <tag k="addr:housenumber" v="5027"/>
    <tag k="addr:street" v="Vermont Route 113"/>
    <tag k="addr:state" v="VT"/>
    <tag k="ref:vcgi:esiteid" v="267071"/>
  </node>
  <node id="-294" visible="true" lat="43.9616127" lon="-72.28840637">
    <tag k="addr:city" v="Vershire"/>
    <tag k="addr:housenumber" v="4909"/>
    <tag k="addr:street" v="Vermont Route 113"/>
    <tag k="addr:state" v="VT"/>
    <tag k="ref:vcgi:esiteid" v="267078"/>
  </node>
  <node id="-299" visible="true" lat="43.96144104" lon="-72.31630706">
    <tag k="addr:city" v="Vershire"/>
    <tag k="addr:housenumber" v="473"/>
    <tag k="addr:street" v="Darling Hill Road"/>
    <tag k="addr:state" v="VT"/>
    <tag k="ref:vcgi:esiteid" v="267083"/>
  </node>
  <node id="-301" visible="true" lat="43.96118545" lon="-72.30094909">
    <tag k="addr:city" v="Vershire"/>
    <tag k="addr:housenumber" v="5601"/>
    <tag k="addr:street" v="Vermont Route 113"/>
    <tag k="addr:state" v="VT"/>
    <tag k="ref:vcgi:esiteid" v="267085"/>
  </node>
  <node id="-304" visible="true" lat="43.96063995" lon="-72.28481292">
    <tag k="addr:city" v="Vershire"/>
    <tag k="addr:housenumber" v="4720"/>
    <tag k="addr:street" v="Vermont Route 113"/>
    <tag k="addr:state" v="VT"/>
    <tag k="ref:vcgi:esiteid" v="267088"/>
  </node>
  <node id="-306" visible="true" lat="43.96051788" lon="-72.29920196">
    <tag k="addr:city" v="Vershire"/>
    <tag k="addr:housenumber" v="5505"/>
    <tag k="addr:street" v="Vermont Route 113"/>
    <tag k="addr:state" v="VT"/>
    <tag k="ref:vcgi:esiteid" v="267090"/>
  </node>
  <node id="-307" visible="true" lat="43.96048355" lon="-72.29843139">
    <tag k="addr:city" v="Vershire"/>
    <tag k="addr:housenumber" v="5471"/>
    <tag k="addr:street" v="Vermont Route 113"/>
    <tag k="addr:state" v="VT"/>
    <tag k="ref:vcgi:esiteid" v="267091"/>
  </node>
  <node id="-310" visible="true" lat="43.95997238" lon="-72.36302185">
    <tag k="addr:city" v="Vershire"/>
    <tag k="addr:housenumber" v="1465"/>
    <tag k="addr:street" v="Taylor Valley Road"/>
    <tag k="addr:state" v="VT"/>
    <tag k="ref:vcgi:esiteid" v="267094"/>
  </node>
  <node id="-313" visible="true" lat="43.95806503" lon="-72.25535583">
    <tag k="addr:city" v="Vershire"/>
    <tag k="addr:housenumber" v="1599"/>
    <tag k="addr:street" v="Beaver Meadow Road"/>
    <tag k="addr:state" v="VT"/>
    <tag k="ref:vcgi:esiteid" v="267097"/>
  </node>
  <node id="-316" visible="true" lat="43.95619201" lon="-72.27855682">
    <tag k="addr:city" v="Vershire"/>
    <tag k="addr:housenumber" v="4253"/>
    <tag k="addr:street" v="Vermont Route 113"/>
    <tag k="addr:state" v="VT"/>
    <tag k="ref:vcgi:esiteid" v="267100"/>
  </node>
  <node id="-331" visible="true" lat="43.95196533" lon="-72.30821991">
    <tag k="addr:city" v="Vershire"/>
    <tag k="addr:housenumber" v="772"/>
    <tag k="addr:street" v="Parker Road"/>
    <tag k="addr:state" v="VT"/>
    <tag k="ref:vcgi:esiteid" v="267115"/>
  </node>
  <node id="-332" visible="true" lat="43.95186996" lon="-72.29927825">
    <tag k="addr:city" v="Vershire"/>
    <tag k="addr:housenumber" v="1528"/>
    <tag k="addr:street" v="Kingdom Road"/>
    <tag k="addr:state" v="VT"/>
    <tag k="ref:vcgi:esiteid" v="267116"/>
  </node>
  <node id="-335" visible="true" lat="43.95155715" lon="-72.27596282">
    <tag k="addr:city" v="Vershire"/>
    <tag k="addr:housenumber" v="3908"/>
    <tag k="addr:street" v="Vermont Route 113"/>
    <tag k="addr:state" v="VT"/>
    <tag k="ref:vcgi:esiteid" v="267119"/>
  </node>
  <node id="-336" visible="true" lat="43.95065688" lon="-72.27667236">
    <tag k="addr:city" v="Vershire"/>
    <tag k="addr:housenumber" v="3863"/>
    <tag k="addr:street" v="Vermont Route 113"/>
    <tag k="addr:state" v="VT"/>
    <tag k="ref:vcgi:esiteid" v="267120"/>
  </node>
  <node id="-337" visible="true" lat="43.95073631" lon="-72.28750872">
    <tag k="addr:city" v="Vershire"/>
    <tag k="addr:housenumber" v="864"/>
    <tag k="addr:street" v="Kingdom Road"/>
    <tag k="addr:state" v="VT"/>
    <tag k="ref:vcgi:esiteid" v="267121"/>
  </node>
  <node id="-339" visible="true" lat="43.94975055" lon="-72.25895287">
    <tag k="addr:city" v="Vershire"/>
    <tag k="addr:housenumber" v="1097"/>
    <tag k="addr:street" v="Beaver Meadow Road"/>
    <tag k="addr:state" v="VT"/>
    <tag k="ref:vcgi:esiteid" v="267123"/>
  </node>
  <node id="-340" visible="true" lat="43.94988266" lon="-72.28935341">
    <tag k="addr:city" v="Vershire"/>
    <tag k="addr:housenumber" v="958"/>
    <tag k="addr:street" v="Kingdom Road"/>
    <tag k="addr:state" v="VT"/>
    <tag k="ref:vcgi:esiteid" v="267124"/>
  </node>
  <node id="-342" visible="true" lat="43.94959315" lon="-72.2968892">
    <tag k="addr:city" v="Vershire"/>
    <tag k="addr:housenumber" v="1337"/>
    <tag k="addr:street" v="Kingdom Road"/>
    <tag k="addr:state" v="VT"/>
    <tag k="ref:vcgi:esiteid" v="267126"/>
  </node>
  <node id="-344" visible="true" lat="43.94890594" lon="-72.30136871">
    <tag k="addr:city" v="Vershire"/>
    <tag k="addr:housenumber" v="1605"/>
    <tag k="addr:street" v="Kingdom Road"/>
    <tag k="addr:state" v="VT"/>
    <tag k="ref:vcgi:esiteid" v="267128"/>
  </node>
  <node id="-345" visible="true" lat="43.94878768" lon="-72.31030273">
    <tag k="addr:city" v="Vershire"/>
    <tag k="addr:housenumber" v="996"/>
    <tag k="addr:street" v="Parker Road"/>
    <tag k="addr:state" v="VT"/>
    <tag k="ref:vcgi:esiteid" v="267129"/>
  </node>
  <node id="-347" visible="true" lat="43.94826126" lon="-72.27455139">
    <tag k="addr:city" v="Vershire"/>
    <tag k="addr:housenumber" v="3667"/>
    <tag k="addr:street" v="Vermont Route 113"/>
    <tag k="addr:state" v="VT"/>
    <tag k="ref:vcgi:esiteid" v="267131"/>
  </node>
  <node id="-355" visible="true" lat="43.94704437" lon="-72.27405548">
    <tag k="addr:city" v="Vershire"/>
    <tag k="addr:housenumber" v="3581"/>
    <tag k="addr:street" v="Vermont Route 113"/>
    <tag k="addr:state" v="VT"/>
    <tag k="ref:vcgi:esiteid" v="267139"/>
  </node>
  <node id="-362" visible="true" lat="43.94618225" lon="-72.27328491">
    <tag k="addr:city" v="Vershire"/>
    <tag k="addr:housenumber" v="3515"/>
    <tag k="addr:street" v="Vermont Route 113"/>
    <tag k="addr:state" v="VT"/>
    <tag k="ref:vcgi:esiteid" v="267146"/>
  </node>
  <node id="-368" visible="true" lat="43.94484375" lon="-72.2707677">
    <tag k="addr:city" v="Vershire"/>
    <tag k="addr:housenumber" v="3366"/>
    <tag k="addr:street" v="Vermont Route 113"/>
    <tag k="addr:state" v="VT"/>
    <tag k="ref:vcgi:esiteid" v="267152"/>
  </node>
  <node id="-373" visible="true" lat="43.94377899" lon="-72.26881408">
    <tag k="addr:city" v="Vershire"/>
    <tag k="addr:housenumber" v="3226"/>
    <tag k="addr:street" v="Vermont Route 113"/>
    <tag k="addr:state" v="VT"/>
    <tag k="ref:vcgi:esiteid" v="267157"/>
  </node>
  <node id="-374" visible="true" lat="43.94350749" lon="-72.27170196">
    <tag k="addr:city" v="Vershire"/>
    <tag k="addr:housenumber" v="3397"/>
    <tag k="addr:street" v="Vermont Route 113"/>
    <tag k="addr:state" v="VT"/>
    <tag k="ref:vcgi:esiteid" v="267158"/>
  </node>
  <node id="-381" visible="true" lat="43.94218826" lon="-72.26743316">
    <tag k="addr:city" v="Vershire"/>
    <tag k="addr:housenumber" v="3146"/>
    <tag k="addr:street" v="Vermont Route 113"/>
    <tag k="addr:state" v="VT"/>
    <tag k="ref:vcgi:esiteid" v="267165"/>
  </node>
  <node id="-389" visible="true" lat="43.94060516" lon="-72.26715087">
    <tag k="addr:city" v="Vershire"/>
    <tag k="addr:housenumber" v="3011"/>
    <tag k="addr:street" v="Vermont Route 113"/>
    <tag k="addr:state" v="VT"/>
    <tag k="ref:vcgi:esiteid" v="267173"/>
  </node>
  <node id="-391" visible="true" lat="43.93999481" lon="-72.26492309">
    <tag k="addr:city" v="Vershire"/>
    <tag k="addr:housenumber" v="2984"/>
    <tag k="addr:street" v="Vermont Route 113"/>
    <tag k="addr:state" v="VT"/>
    <tag k="ref:vcgi:esiteid" v="267175"/>
  </node>
  <node id="-392" visible="true" lat="43.93996429" lon="-72.26456451">
    <tag k="addr:city" v="Vershire"/>
    <tag k="addr:housenumber" v="2988"/>
    <tag k="addr:street" v="Vermont Route 113"/>
    <tag k="addr:state" v="VT"/>
    <tag k="ref:vcgi:esiteid" v="267176"/>
  </node>
  <node id="-393" visible="true" lat="43.93886184" lon="-72.26488494">
    <tag k="addr:city" v="Vershire"/>
    <tag k="addr:housenumber" v="2908"/>
    <tag k="addr:street" v="Vermont Route 113"/>
    <tag k="addr:state" v="VT"/>
    <tag k="ref:vcgi:esiteid" v="267177"/>
  </node>
  <node id="-394" visible="true" lat="43.93894577" lon="-72.31388091">
    <tag k="addr:city" v="Vershire"/>
    <tag k="addr:housenumber" v="1116"/>
    <tag k="addr:street" v="Chamberlain Hill Road"/>
    <tag k="addr:state" v="VT"/>
    <tag k="ref:vcgi:esiteid" v="267178"/>
  </node>
  <node id="-400" visible="true" lat="43.93779373" lon="-72.2669754">
    <tag k="addr:city" v="Vershire"/>
    <tag k="addr:housenumber" v="2743"/>
    <tag k="addr:street" v="Vermont Route 113"/>
    <tag k="addr:state" v="VT"/>
    <tag k="ref:vcgi:esiteid" v="267185"/>
  </node>
  <node id="-401" visible="true" lat="43.93774414" lon="-72.26641845">
    <tag k="addr:city" v="Vershire"/>
    <tag k="addr:housenumber" v="2775"/>
    <tag k="addr:street" v="Vermont Route 113"/>
    <tag k="addr:state" v="VT"/>
    <tag k="ref:vcgi:esiteid" v="267186"/>
  </node>
  <node id="-403" visible="true" lat="43.93749236" lon="-72.31044006">
    <tag k="addr:city" v="Vershire"/>
    <tag k="addr:housenumber" v="1118"/>
    <tag k="addr:street" v="Chamberlain Hill Road"/>
    <tag k="addr:state" v="VT"/>
    <tag k="ref:vcgi:esiteid" v="267189"/>
  </node>
  <node id="-406" visible="true" lat="43.93649673" lon="-72.304039">
    <tag k="addr:city" v="Vershire"/>
    <tag k="addr:housenumber" v="2043"/>
    <tag k="addr:street" v="Parker Road"/>
    <tag k="addr:state" v="VT"/>
    <tag k="ref:vcgi:esiteid" v="267192"/>
  </node>
  <node id="-407" visible="true" lat="43.93626022" lon="-72.29761505">
    <tag k="addr:city" v="Vershire"/>
    <tag k="addr:housenumber" v="2345"/>
    <tag k="addr:street" v="Parker Road"/>
    <tag k="addr:state" v="VT"/>
    <tag k="ref:vcgi:esiteid" v="267193"/>
  </node>
  <node id="-408" visible="true" lat="43.93598938" lon="-72.29780578">
    <tag k="addr:city" v="Vershire"/>
    <tag k="addr:housenumber" v="2343"/>
    <tag k="addr:street" v="Parker Road"/>
    <tag k="addr:state" v="VT"/>
    <tag k="ref:vcgi:esiteid" v="267194"/>
  </node>
  <node id="-410" visible="true" lat="43.93563842" lon="-72.30576324">
    <tag k="addr:city" v="Vershire"/>
    <tag k="addr:housenumber" v="2058"/>
    <tag k="addr:street" v="Parker Road"/>
    <tag k="addr:state" v="VT"/>
    <tag k="ref:vcgi:esiteid" v="267196"/>
  </node>
  <node id="-413" visible="true" lat="43.93350219" lon="-72.2980957">
    <tag k="addr:city" v="Vershire"/>
    <tag k="addr:housenumber" v="2513"/>
    <tag k="addr:street" v="Parker Road"/>
    <tag k="addr:state" v="VT"/>
    <tag k="ref:vcgi:esiteid" v="267199"/>
  </node>
  <node id="-417" visible="true" lat="43.93170166" lon="-72.29633331">
    <tag k="addr:city" v="Vershire"/>
    <tag k="addr:housenumber" v="2545"/>
    <tag k="addr:street" v="Parker Road"/>
    <tag k="addr:state" v="VT"/>
    <tag k="ref:vcgi:esiteid" v="267203"/>
  </node>
  <node id="-418" visible="true" lat="43.93131637" lon="-72.2998352">
    <tag k="addr:city" v="Vershire"/>
    <tag k="addr:housenumber" v="2476"/>
    <tag k="addr:street" v="Parker Road"/>
    <tag k="addr:state" v="VT"/>
    <tag k="ref:vcgi:esiteid" v="267204"/>
  </node>
  <node id="-420" visible="true" lat="43.9311943" lon="-72.29695129">
    <tag k="addr:city" v="Vershire"/>
    <tag k="addr:housenumber" v="2543"/>
    <tag k="addr:street" v="Parker Road"/>
    <tag k="addr:state" v="VT"/>
    <tag k="ref:vcgi:esiteid" v="267206"/>
  </node>
  <node id="-421" visible="true" lat="43.93102264" lon="-72.29856872">
    <tag k="addr:city" v="Vershire"/>
    <tag k="addr:housenumber" v="2520"/>
    <tag k="addr:street" v="Parker Road"/>
    <tag k="addr:state" v="VT"/>
    <tag k="ref:vcgi:esiteid" v="267207"/>
  </node>
  <node id="-422" visible="true" lat="43.93047714" lon="-72.29749298">
    <tag k="addr:city" v="Vershire"/>
    <tag k="addr:housenumber" v="2579"/>
    <tag k="addr:street" v="Parker Road"/>
    <tag k="addr:state" v="VT"/>
    <tag k="ref:vcgi:esiteid" v="267208"/>
  </node>
  <node id="-424" visible="true" lat="43.93033012" lon="-72.32074608">
    <tag k="addr:city" v="Vershire"/>
    <tag k="addr:housenumber" v="3421"/>
    <tag k="addr:street" v="Vershire Center Road"/>
    <tag k="addr:state" v="VT"/>
    <tag k="ref:vcgi:esiteid" v="267210"/>
  </node>
  <node id="-426" visible="true" lat="43.92981338" lon="-72.29515838">
    <tag k="addr:city" v="Vershire"/>
    <tag k="addr:housenumber" v="2675"/>
    <tag k="addr:street" v="Parker Road"/>
    <tag k="addr:state" v="VT"/>
    <tag k="ref:vcgi:esiteid" v="267212"/>
  </node>
  <node id="-427" visible="true" lat="43.92936706" lon="-72.29715728">
    <tag k="addr:city" v="Vershire"/>
    <tag k="addr:housenumber" v="2654"/>
    <tag k="addr:street" v="Parker Road"/>
    <tag k="addr:state" v="VT"/>
    <tag k="ref:vcgi:esiteid" v="267213"/>
  </node>
  <node id="-428" visible="true" lat="43.92920303" lon="-72.29707336">
    <tag k="addr:city" v="Vershire"/>
    <tag k="addr:housenumber" v="2666"/>
    <tag k="addr:street" v="Parker Road"/>
    <tag k="addr:state" v="VT"/>
    <tag k="ref:vcgi:esiteid" v="267214"/>
  </node>
  <node id="-430" visible="true" lat="43.92875289" lon="-72.30110168">
    <tag k="addr:city" v="Vershire"/>
    <tag k="addr:housenumber" v="2148"/>
    <tag k="addr:street" v="Parker Road"/>
    <tag k="addr:state" v="VT"/>
    <tag k="ref:vcgi:esiteid" v="267216"/>
  </node>
  <node id="-431" visible="true" lat="43.92868423" lon="-72.30164337">
    <tag k="addr:city" v="Vershire"/>
    <tag k="addr:housenumber" v="2150"/>
    <tag k="addr:street" v="Parker Road"/>
    <tag k="addr:state" v="VT"/>
    <tag k="ref:vcgi:esiteid" v="267217"/>
  </node>
  <node id="-433" visible="true" lat="43.92700958" lon="-72.29595947">
    <tag k="addr:city" v="Vershire"/>
    <tag k="addr:housenumber" v="2826"/>
    <tag k="addr:street" v="Parker Road"/>
    <tag k="addr:state" v="VT"/>
    <tag k="ref:vcgi:esiteid" v="267219"/>
  </node>
  <node id="-435" visible="true" lat="43.92568588" lon="-72.3104782">
    <tag k="addr:city" v="Vershire"/>
    <tag k="addr:housenumber" v="2768"/>
    <tag k="addr:street" v="South Vershire Road"/>
    <tag k="addr:state" v="VT"/>
    <tag k="ref:vcgi:esiteid" v="267221"/>
  </node>
  <node id="-438" visible="true" lat="43.92491912" lon="-72.34357452">
    <tag k="addr:city" v="Vershire"/>
    <tag k="addr:housenumber" v="717"/>
    <tag k="addr:street" v="Moody Hill Road"/>
    <tag k="addr:state" v="VT"/>
    <tag k="ref:vcgi:esiteid" v="267224"/>
  </node>
  <node id="-440" visible="true" lat="43.92471694" lon="-72.31438446">
    <tag k="addr:city" v="Vershire"/>
    <tag k="addr:housenumber" v="2964"/>
    <tag k="addr:street" v="South Vershire Road"/>
    <tag k="addr:state" v="VT"/>
    <tag k="ref:vcgi:esiteid" v="267226"/>
  </node>
  <node id="-442" visible="true" lat="43.92430496" lon="-72.31881713">
    <tag k="addr:city" v="Vershire"/>
    <tag k="addr:housenumber" v="180"/>
    <tag k="addr:street" v="Mountain Ash Road"/>
    <tag k="addr:state" v="VT"/>
    <tag k="ref:vcgi:esiteid" v="267228"/>
  </node>
  <node id="-443" visible="true" lat="43.92412948" lon="-72.31150817">
    <tag k="addr:city" v="Vershire"/>
    <tag k="addr:housenumber" v="2839"/>
    <tag k="addr:street" v="South Vershire Road"/>
    <tag k="addr:state" v="VT"/>
    <tag k="ref:vcgi:esiteid" v="267229"/>
  </node>
  <node id="-456" visible="true" lat="43.92279865" lon="-72.32348325">
    <tag k="addr:city" v="Vershire"/>
    <tag k="addr:housenumber" v="3979"/>
    <tag k="addr:street" v="Vershire Center Road"/>
    <tag k="addr:state" v="VT"/>
    <tag k="ref:vcgi:esiteid" v="267242"/>
  </node>
  <node id="-457" visible="true" lat="43.92232131" lon="-72.36495208">
    <tag k="addr:city" v="Vershire"/>
    <tag k="addr:housenumber" v="19"/>
    <tag k="addr:street" v="Sawyer Mountain Road"/>
    <tag k="addr:state" v="VT"/>
    <tag k="ref:vcgi:esiteid" v="267243"/>
  </node>
  <node id="-458" visible="true" lat="43.92204666" lon="-72.36269378">
    <tag k="addr:city" v="Vershire"/>
    <tag k="addr:housenumber" v="2925"/>
    <tag k="addr:street" v="Van Dyke Road"/>
    <tag k="addr:state" v="VT"/>
    <tag k="ref:vcgi:esiteid" v="267244"/>
  </node>
  <node id="-459" visible="true" lat="43.92111529" lon="-72.31877948">
    <tag k="addr:city" v="Vershire"/>
    <tag k="addr:housenumber" v="3349"/>
    <tag k="addr:street" v="South Vershire Road"/>
    <tag k="addr:state" v="VT"/>
    <tag k="ref:vcgi:esiteid" v="267245"/>
  </node>
  <node id="-468" visible="true" lat="43.91725017" lon="-72.34224571">
    <tag k="addr:city" v="Vershire"/>
    <tag k="addr:housenumber" v="191"/>
    <tag k="addr:street" v="Moody Hill Road"/>
    <tag k="addr:state" v="VT"/>
    <tag k="ref:vcgi:esiteid" v="267254"/>
  </node>
  <node id="-469" visible="true" lat="43.91710336" lon="-72.28270872">
    <tag k="addr:city" v="Vershire"/>
    <tag k="addr:housenumber" v="101"/>
    <tag k="addr:street" v="Private Rd 5"/>
    <tag k="addr:state" v="VT"/>
    <tag k="ref:vcgi:esiteid" v="267255"/>
  </node>
  <node id="-476" visible="true" lat="43.91481054" lon="-72.31323292">
    <tag k="addr:city" v="Vershire"/>
    <tag k="addr:housenumber" v="605"/>
    <tag k="addr:street" v="Ayers Road"/>
    <tag k="addr:state" v="VT"/>
    <tag k="ref:vcgi:esiteid" v="267262"/>
  </node>
  <node id="-477" visible="true" lat="43.91213339" lon="-72.30896172">
    <tag k="addr:city" v="Vershire"/>
    <tag k="addr:housenumber" v="841"/>
    <tag k="addr:street" v="Ayers Road"/>
    <tag k="addr:state" v="VT"/>
    <tag k="ref:vcgi:esiteid" v="267263"/>
  </node>
  <node id="-483" visible="true" lat="43.99880914" lon="-72.33857289">
    <tag k="addr:city" v="Vershire"/>
    <tag k="addr:housenumber" v="921"/>
    <tag k="addr:street" v="Cross Road"/>
    <tag k="addr:state" v="VT"/>
    <tag k="ref:vcgi:esiteid" v="267271"/>
  </node>
  <node id="-486" visible="true" lat="43.99623656" lon="-72.35680976">
    <tag k="addr:city" v="Vershire"/>
    <tag k="addr:housenumber" v="1170"/>
    <tag k="addr:street" v="Goose Green Road"/>
    <tag k="addr:state" v="VT"/>
    <tag k="ref:vcgi:esiteid" v="267274"/>
  </node>
  <node id="-488" visible="true" lat="43.93702697" lon="-72.3047409">
    <tag k="addr:city" v="Vershire"/>
    <tag k="addr:housenumber" v="1993"/>
    <tag k="addr:street" v="Parker Road"/>
    <tag k="addr:state" v="VT"/>
    <tag k="ref:vcgi:esiteid" v="267276"/>
  </node>
  <node id="-491" visible="true" lat="43.91633162" lon="-72.31426194">
    <tag k="addr:city" v="Vershire"/>
    <tag k="addr:housenumber" v="415"/>
    <tag k="addr:street" v="Ayers Road"/>
    <tag k="addr:state" v="VT"/>
    <tag k="ref:vcgi:esiteid" v="267279"/>
  </node>
  <node id="-492" visible="true" lat="43.91285959" lon="-72.31425133">
    <tag k="addr:city" v="Vershire"/>
    <tag k="addr:housenumber" v="766"/>
    <tag k="addr:street" v="Ayers Road"/>
    <tag k="addr:state" v="VT"/>
    <tag k="ref:vcgi:esiteid" v="267280"/>
  </node>
  <node id="-494" visible="true" lat="43.93461909" lon="-72.29964672">
    <tag k="addr:city" v="Vershire"/>
    <tag k="addr:housenumber" v="2221"/>
    <tag k="addr:street" v="Parker Road"/>
    <tag k="addr:state" v="VT"/>
    <tag k="ref:vcgi:esiteid" v="267282"/>
  </node>
  <node id="-497" visible="true" lat="43.98015855" lon="-72.30427021">
    <tag k="addr:city" v="Vershire"/>
    <tag k="addr:housenumber" v="1355"/>
    <tag k="addr:street" v="Eagle Hollow Road"/>
    <tag k="addr:state" v="VT"/>
    <tag k="ref:vcgi:esiteid" v="267285"/>
  </node>
  <node id="-499" visible="true" lat="43.95553488" lon="-72.37541112">
    <tag k="addr:city" v="Vershire"/>
    <tag k="addr:housenumber" v="2242"/>
    <tag k="addr:street" v="Taylor Valley Road"/>
    <tag k="addr:state" v="VT"/>
    <tag k="ref:vcgi:esiteid" v="267287"/>
  </node>
  <node id="-502" visible="true" lat="43.94697425" lon="-72.2724862">
    <tag k="addr:city" v="Vershire"/>
    <tag k="addr:housenumber" v="3518"/>
    <tag k="addr:street" v="Vermont Route 113"/>
    <tag k="addr:state" v="VT"/>
    <tag k="ref:vcgi:esiteid" v="267290"/>
  </node>
  <node id="-506" visible="true" lat="43.97819883" lon="-72.24699524">
    <tag k="addr:city" v="Vershire"/>
    <tag k="addr:housenumber" v="2831"/>
    <tag k="addr:street" v="Beaver Meadow Road"/>
    <tag k="addr:state" v="VT"/>
    <tag k="ref:vcgi:esiteid" v="267296"/>
  </node>
  <node id="-507" visible="true" lat="43.93848374" lon="-72.312304">
    <tag k="addr:city" v="Vershire"/>
    <tag k="addr:housenumber" v="1114"/>
    <tag k="addr:street" v="Chamberlain Hill Road"/>
    <tag k="addr:state" v="VT"/>
    <tag k="ref:vcgi:esiteid" v="267297"/>
  </node>
  <node id="-510" visible="true" lat="43.92744376" lon="-72.31113768">
    <tag k="addr:city" v="Vershire"/>
    <tag k="addr:housenumber" v="2772"/>
    <tag k="addr:street" v="South Vershire Road"/>
    <tag k="addr:state" v="VT"/>
    <tag k="ref:vcgi:esiteid" v="267300"/>
  </node>
  <node id="-512" visible="true" lat="43.99047558" lon="-72.31352367">
    <tag k="addr:city" v="Vershire"/>
    <tag k="addr:housenumber" v="42"/>
    <tag k="addr:street" v="Private Rd 7"/>
    <tag k="addr:state" v="VT"/>
    <tag k="ref:vcgi:esiteid" v="267302"/>
  </node>
  <node id="-520" visible="true" lat="43.99940261" lon="-72.36463739">
    <tag k="addr:city" v="Vershire"/>
    <tag k="addr:housenumber" v="156"/>
    <tag k="addr:street" v="Vershire Riding School Road"/>
    <tag k="addr:state" v="VT"/>
    <tag k="ref:vcgi:esiteid" v="267310"/>
  </node>
  <node id="-524" visible="true" lat="43.92188165" lon="-72.2969811">
    <tag k="addr:city" v="Vershire"/>
    <tag k="addr:housenumber" v="114"/>
    <tag k="addr:street" v="Mero Road"/>
    <tag k="addr:state" v="VT"/>
    <tag k="ref:vcgi:esiteid" v="267315"/>
  </node>
  <node id="-526" visible="true" lat="43.96142337" lon="-72.25359357">
    <tag k="addr:city" v="Vershire"/>
    <tag k="addr:housenumber" v="1728"/>
    <tag k="addr:street" v="Beaver Meadow Road"/>
    <tag k="addr:state" v="VT"/>
    <tag k="ref:vcgi:esiteid" v="267317"/>
  </node>
  <node id="-528" visible="true" lat="43.98093633" lon="-72.36215102">
    <tag k="addr:city" v="Vershire"/>
    <tag k="addr:housenumber" v="8989"/>
    <tag k="addr:street" v="Vermont Route 113"/>
    <tag k="addr:state" v="VT"/>
    <tag k="ref:vcgi:esiteid" v="267319"/>
  </node>
  <node id="-529" visible="true" lat="43.99922208" lon="-72.34903617">
    <tag k="addr:city" v="Vershire"/>
    <tag k="addr:housenumber" v="1339"/>
    <tag k="addr:street" v="Rowell Road"/>
    <tag k="addr:state" v="VT"/>
    <tag k="ref:vcgi:esiteid" v="267320"/>
  </node>
  <node id="-530" visible="true" lat="43.99636327" lon="-72.33931387">
    <tag k="addr:city" v="Vershire"/>
    <tag k="addr:housenumber" v="1428"/>
    <tag k="addr:street" v="Rowell Road"/>
    <tag k="addr:state" v="VT"/>
    <tag k="ref:vcgi:esiteid" v="267321"/>
  </node>
  <node id="-531" visible="true" lat="43.97294725" lon="-72.35625533">
    <tag k="addr:city" v="Vershire"/>
    <tag k="addr:housenumber" v="8405"/>
    <tag k="addr:street" v="Vermont Route 113"/>
    <tag k="addr:state" v="VT"/>
    <tag k="ref:vcgi:esiteid" v="267322"/>
  </node>
  <node id="-532" visible="true" lat="43.97200576" lon="-72.35454074">
    <tag k="addr:city" v="Vershire"/>
    <tag k="addr:housenumber" v="8407"/>
    <tag k="addr:street" v="Vermont Route 113"/>
    <tag k="addr:state" v="VT"/>
    <tag k="ref:vcgi:esiteid" v="267323"/>
  </node>
  <node id="-537" visible="true" lat="43.98587459" lon="-72.36806191">
    <tag k="addr:city" v="Vershire"/>
    <tag k="addr:housenumber" v="9471"/>
    <tag k="addr:street" v="Vermont Route 113"/>
    <tag k="addr:state" v="VT"/>
    <tag k="ref:vcgi:esiteid" v="309161"/>
  </node>
  <node id="-538" visible="true" lat="43.98149652" lon="-72.37757709">
    <tag k="addr:city" v="Vershire"/>
    <tag k="addr:housenumber" v="637"/>
    <tag k="addr:street" v="McIver Road"/>
    <tag k="addr:state" v="VT"/>
    <tag k="ref:vcgi:esiteid" v="309162"/>
  </node>
  <node id="-544" visible="true" lat="43.91582102" lon="-72.31342974">
    <tag k="addr:city" v="Vershire"/>
    <tag k="addr:housenumber" v="551"/>
    <tag k="addr:street" v="Ayers Road"/>
    <tag k="addr:state" v="VT"/>
    <tag k="ref:vcgi:esiteid" v="309168"/>
  </node>
  <node id="-545" visible="true" lat="43.91667638" lon="-72.31008563">
    <tag k="addr:city" v="Vershire"/>
    <tag k="addr:housenumber" v="553"/>
    <tag k="addr:street" v="Ayers Road"/>
    <tag k="addr:state" v="VT"/>
    <tag k="ref:vcgi:esiteid" v="309169"/>
  </node>
  <node id="-549" visible="true" lat="44.00435111" lon="-72.38037984">
    <tag k="addr:city" v="Vershire"/>
    <tag k="addr:housenumber" v="948"/>
    <tag k="addr:street" v="Vershire Riding School Road"/>
    <tag k="addr:state" v="VT"/>
    <tag k="ref:vcgi:esiteid" v="325285"/>
  </node>
  <node id="-550" visible="true" lat="44.00341635" lon="-72.38101218">
    <tag k="addr:city" v="Vershire"/>
    <tag k="addr:housenumber" v="944"/>
    <tag k="addr:street" v="Vershire Riding School Road"/>
    <tag k="addr:state" v="VT"/>
    <tag k="ref:vcgi:esiteid" v="325286"/>
  </node>
  <node id="-551" visible="true" lat="44.00136386" lon="-72.37660323">
    <tag k="addr:city" v="Vershire"/>
    <tag k="addr:housenumber" v="775"/>
    <tag k="addr:street" v="Vershire Riding School Road"/>
    <tag k="addr:state" v="VT"/>
    <tag k="ref:vcgi:esiteid" v="325287"/>
  </node>
  <node id="-553" visible="true" lat="43.961564" lon="-72.30074399">
    <tag k="addr:city" v="Vershire"/>
    <tag k="addr:housenumber" v="5600"/>
    <tag k="addr:street" v="Vermont Route 113"/>
    <tag k="addr:state" v="VT"/>
    <tag k="ref:vcgi:esiteid" v="326899"/>
  </node>
  <node id="-556" visible="true" lat="43.97058283" lon="-72.32935263">
    <tag k="addr:city" v="Vershire"/>
    <tag k="addr:housenumber" v="7269"/>
    <tag k="addr:street" v="Vermont Route 113"/>
    <tag k="addr:state" v="VT"/>
    <tag k="ref:vcgi:esiteid" v="329258"/>
  </node>
  <node id="-557" visible="true" lat="43.9842782" lon="-72.36044213">
    <tag k="addr:city" v="Vershire"/>
    <tag k="addr:housenumber" v="9162"/>
    <tag k="addr:street" v="Vermont Route 113"/>
    <tag k="addr:state" v="VT"/>
    <tag k="ref:vcgi:esiteid" v="331928"/>
  </node>
  <node id="-562" visible="true" lat="43.95688431" lon="-72.35320474">
    <tag k="addr:city" v="Vershire"/>
    <tag k="addr:housenumber" v="888"/>
    <tag k="addr:street" v="Taylor Valley Road"/>
    <tag k="addr:state" v="VT"/>
    <tag k="ref:vcgi:esiteid" v="334768"/>
  </node>
  <node id="-563" visible="true" lat="43.96143735" lon="-72.3420321">
    <tag k="addr:city" v="Vershire"/>
    <tag k="addr:housenumber" v="275"/>
    <tag k="addr:street" v="Reed Road"/>
    <tag k="addr:state" v="VT"/>
    <tag k="ref:vcgi:esiteid" v="337632"/>
  </node>
  <node id="-564" visible="true" lat="43.94470964" lon="-72.26721328">
    <tag k="addr:city" v="Vershire"/>
    <tag k="addr:housenumber" v="3284"/>
    <tag k="addr:street" v="Vermont Route 113"/>
    <tag k="addr:state" v="VT"/>
    <tag k="ref:vcgi:esiteid" v="337806"/>
  </node>
  <node id="-565" visible="true" lat="43.92770052" lon="-72.28497033">
    <tag k="addr:city" v="Vershire"/>
    <tag k="addr:housenumber" v="1480"/>
    <tag k="addr:street" v="South Vershire Road"/>
    <tag k="addr:state" v="VT"/>
    <tag k="ref:vcgi:esiteid" v="337807"/>
  </node>
  <node id="-566" visible="true" lat="43.97622408" lon="-72.37622479">
    <tag k="addr:city" v="Vershire"/>
    <tag k="addr:housenumber" v="453"/>
    <tag k="addr:street" v="Private Rd 3"/>
    <tag k="addr:state" v="VT"/>
    <tag k="ref:vcgi:esiteid" v="338937"/>
  </node>
  <node id="-567" visible="true" lat="43.99598041" lon="-72.3648272">
    <tag k="addr:city" v="Vershire"/>
    <tag k="addr:housenumber" v="2510"/>
    <tag k="addr:street" v="Durgin Hill Road"/>
    <tag k="addr:state" v="VT"/>
    <tag k="ref:vcgi:esiteid" v="340800"/>
  </node>
  <node id="-568" visible="true" lat="43.94112372" lon="-72.26664256">
    <tag k="addr:city" v="Vershire"/>
    <tag k="addr:housenumber" v="3054"/>
    <tag k="addr:street" v="Vermont Route 113"/>
    <tag k="addr:state" v="VT"/>
    <tag k="ref:vcgi:esiteid" v="341360"/>
  </node>
  <node id="-569" visible="true" lat="43.97808114" lon="-72.31969622">
    <tag k="addr:city" v="Vershire"/>
    <tag k="addr:housenumber" v="6"/>
    <tag k="addr:street" v="Private Rd 4"/>
    <tag k="addr:state" v="VT"/>
    <tag k="ref:vcgi:esiteid" v="344361"/>
  </node>
  <node id="-570" visible="true" lat="43.9499896" lon="-72.2822413">
    <tag k="addr:city" v="Vershire"/>
    <tag k="addr:housenumber" v="668"/>
    <tag k="addr:street" v="Kingdom Road"/>
    <tag k="addr:state" v="VT"/>
    <tag k="ref:vcgi:esiteid" v="344388"/>
  </node>
  <node id="-571" visible="true" lat="43.91664841" lon="-72.28502794">
    <tag k="addr:city" v="Vershire"/>
    <tag k="addr:housenumber" v="1513"/>
    <tag k="addr:street" v="South Vershire Road"/>
    <tag k="addr:state" v="VT"/>
    <tag k="ref:vcgi:esiteid" v="345968"/>
  </node>
  <node id="-574" visible="true" lat="43.93156836" lon="-72.32115515">
    <tag k="addr:city" v="Vershire"/>
    <tag k="addr:housenumber" v="3335"/>
    <tag k="addr:street" v="Vershire Center Road"/>
    <tag k="addr:state" v="VT"/>
    <tag k="ref:vcgi:esiteid" v="450580"/>
  </node>
  <node id="-576" visible="true" lat="43.93801374" lon="-72.26561874">
    <tag k="addr:city" v="Vershire"/>
    <tag k="addr:housenumber" v="2816"/>
    <tag k="addr:street" v="Vermont Route 113"/>
    <tag k="addr:state" v="VT"/>
    <tag k="ref:vcgi:esiteid" v="453562"/>
  </node>
  <node id="-577" visible="true" lat="43.97011406" lon="-72.2483121">
    <tag k="addr:city" v="Vershire"/>
    <tag k="addr:housenumber" v="2524"/>
    <tag k="addr:street" v="Beaver Meadow Road"/>
    <tag k="addr:state" v="VT"/>
    <tag k="ref:vcgi:esiteid" v="454559"/>
  </node>
  <node id="-579" visible="true" lat="43.92157769" lon="-72.29324451">
    <tag k="addr:city" v="Vershire"/>
    <tag k="addr:housenumber" v="1886"/>
    <tag k="addr:street" v="South Vershire Road"/>
    <tag k="addr:state" v="VT"/>
    <tag k="ref:vcgi:esiteid" v="611354"/>
  </node>
  <node id="-580" visible="true" lat="43.99611205" lon="-72.36676776">
    <tag k="addr:city" v="Vershire"/>
    <tag k="addr:housenumber" v="689"/>
    <tag k="addr:street" v="Goose Green Road"/>
    <tag k="addr:state" v="VT"/>
    <tag k="ref:vcgi:esiteid" v="754448"/>
  </node>
  <node id="-581" visible="true" lat="43.97401102" lon="-72.32807974">
    <tag k="addr:city" v="Vershire"/>
    <tag k="addr:housenumber" v="359"/>
    <tag k="addr:street" v="Moon Meadow Drive"/>
    <tag k="addr:state" v="VT"/>
    <tag k="ref:vcgi:esiteid" v="754449"/>
  </node>
  <node id="-582" visible="true" lat="43.94579783" lon="-72.33103575">
    <tag k="addr:city" v="Vershire"/>
    <tag k="addr:housenumber" v="2266"/>
    <tag k="addr:street" v="Vershire Center Road"/>
    <tag k="addr:state" v="VT"/>
    <tag k="ref:vcgi:esiteid" v="756622"/>
  </node>
  <node id="-583" visible="true" lat="43.94399982" lon="-72.2700236">
    <tag k="addr:city" v="Vershire"/>
    <tag k="addr:housenumber" v="3295"/>
    <tag k="addr:street" v="Vermont Route 113"/>
    <tag k="addr:state" v="VT"/>
    <tag k="ref:vcgi:esiteid" v="756623"/>
  </node>
  <node id="-584" visible="true" lat="43.96242752" lon="-72.31392949">
    <tag k="addr:city" v="Vershire"/>
    <tag k="addr:housenumber" v="328"/>
    <tag k="addr:street" v="Darling Hill Road"/>
    <tag k="addr:state" v="VT"/>
    <tag k="ref:vcgi:esiteid" v="760846"/>
  </node>
  <node id="-585" visible="true" lat="43.9342067" lon="-72.26730366">
    <tag k="addr:city" v="Vershire"/>
    <tag k="addr:housenumber" v="2661"/>
    <tag k="addr:street" v="Vermont Route 113"/>
    <tag k="addr:state" v="VT"/>
    <tag k="ref:vcgi:esiteid" v="765494"/>
  </node>
  <node id="-586" visible="true" lat="43.98783808" lon="-72.3760166">
    <tag k="addr:city" v="Vershire"/>
    <tag k="addr:housenumber" v="9909"/>
    <tag k="addr:street" v="Vermont Route 113"/>
    <tag k="addr:state" v="VT"/>
    <tag k="ref:vcgi:esiteid" v="767485"/>
  </node>
  <node id="-587" visible="true" lat="43.98899672" lon="-72.37347936">
    <tag k="addr:city" v="Vershire"/>
    <tag k="addr:housenumber" v="9849"/>
    <tag k="addr:street" v="Vermont Route 113"/>
    <tag k="addr:state" v="VT"/>
    <tag k="ref:vcgi:esiteid" v="767486"/>
  </node>
  <node id="-588" visible="true" lat="43.91943858" lon="-72.31721436">
    <tag k="addr:city" v="Vershire"/>
    <tag k="addr:housenumber" v="182"/>
    <tag k="addr:street" v="Ayers Road"/>
    <tag k="addr:state" v="VT"/>
    <tag k="ref:vcgi:esiteid" v="767496"/>
  </node>
  <node id="-589" visible="true" lat="43.95729502" lon="-72.25458755">
    <tag k="addr:city" v="Vershire"/>
    <tag k="addr:housenumber" v="1574"/>
    <tag k="addr:street" v="Beaver Meadow Road"/>
    <tag k="addr:state" v="VT"/>
    <tag k="ref:vcgi:esiteid" v="767497"/>
  </node>
  <node id="-590" visible="true" lat="43.97909353" lon="-72.33389968">
    <tag k="addr:city" v="Vershire"/>
    <tag k="addr:housenumber" v="403"/>
    <tag k="addr:street" v="Durgin Hill Road"/>
    <tag k="addr:state" v="VT"/>
    <tag k="ref:vcgi:esiteid" v="767498"/>
  </node>
  <node id="-591" visible="true" lat="43.98180238" lon="-72.33634347">
    <tag k="addr:city" v="Vershire"/>
    <tag k="addr:housenumber" v="779"/>
    <tag k="addr:street" v="Durgin Hill Road"/>
    <tag k="addr:state" v="VT"/>
    <tag k="ref:vcgi:esiteid" v="767499"/>
  </node>
  <node id="-592" visible="true" lat="44.00027175" lon="-72.3665445">
    <tag k="addr:city" v="Vershire"/>
    <tag k="addr:housenumber" v="249"/>
    <tag k="addr:street" v="Vershire Riding School Road"/>
    <tag k="addr:state" v="VT"/>
    <tag k="ref:vcgi:esiteid" v="767500"/>
  </node>
  <node id="-595" visible="true" lat="43.97098695" lon="-72.31395798">
    <tag k="addr:city" v="Vershire"/>
    <tag k="addr:housenumber" v="6404"/>
    <tag k="addr:street" v="Vermont Route 113"/>
    <tag k="addr:state" v="VT"/>
    <tag k="ref:vcgi:esiteid" v="900446"/>
  </node>
  <node id="-596" visible="true" lat="43.92091748" lon="-72.31633742">
    <tag k="addr:city" v="Vershire"/>
    <tag k="addr:housenumber" v="103"/>
    <tag k="addr:street" v="Ayers Road"/>
    <tag k="addr:state" v="VT"/>
    <tag k="ref:vcgi:esiteid" v="1050719"/>
  </node>
  <node id="-597" visible="true" lat="43.91875214" lon="-72.28529399">
    <tag k="addr:city" v="Vershire"/>
    <tag k="addr:housenumber" v="1430"/>
    <tag k="addr:street" v="South Vershire Road"/>
    <tag k="addr:state" v="VT"/>
    <tag k="ref:vcgi:esiteid" v="1050720"/>
  </node>
  <node id="-598" visible="true" lat="43.93807773" lon="-72.30603459">
    <tag k="addr:city" v="Vershire"/>
    <tag k="addr:housenumber" v="1895"/>
    <tag k="addr:street" v="Parker Road"/>
    <tag k="addr:state" v="VT"/>
    <tag k="ref:vcgi:esiteid" v="1050721"/>
  </node>
  <node id="-599" visible="true" lat="43.95318814" lon="-72.33689724">
    <tag k="addr:city" v="Vershire"/>
    <tag k="addr:housenumber" v="87"/>
    <tag k="addr:street" v="Mountain School Road"/>
    <tag k="addr:state" v="VT"/>
    <tag k="ref:vcgi:esiteid" v="1050835"/>
  </node>
  <node id="-600" visible="true" lat="43.96607682" lon="-72.32963323">
    <tag k="addr:city" v="Vershire"/>
    <tag k="addr:housenumber" v="600"/>
    <tag k="addr:street" v="Mud Lane"/>
    <tag k="addr:state" v="VT"/>
    <tag k="ref:vcgi:esiteid" v="1050836"/>
  </node>
  <node id="-601" visible="true" lat="43.96859413" lon="-72.29390254">
    <tag k="addr:city" v="Vershire"/>
    <tag k="addr:housenumber" v="71"/>
    <tag k="addr:street" v="Parshley Road"/>
    <tag k="addr:state" v="VT"/>
    <tag k="ref:vcgi:esiteid" v="1050837"/>
  </node>
  <node id="-602" visible="true" lat="43.96960875" lon="-72.32351971">
    <tag k="addr:city" v="Vershire"/>
    <tag k="addr:housenumber" v="23"/>
    <tag k="addr:street" v="Vershire Center Road"/>
    <tag k="addr:state" v="VT"/>
    <tag k="ref:vcgi:esiteid" v="1050838"/>
  </node>
  <node id="-603" visible="true" lat="44.00134435" lon="-72.36609377">
    <tag k="addr:city" v="Vershire"/>
    <tag k="addr:housenumber" v="318"/>
    <tag k="addr:street" v="Vershire Riding School Road"/>
    <tag k="addr:state" v="VT"/>
    <tag k="ref:vcgi:esiteid" v="1050839"/>
  </node>
  <node id="-604" visible="true" lat="43.98185202" lon="-72.3629434">
    <tag k="addr:city" v="Vershire"/>
    <tag k="addr:housenumber" v="9105"/>
    <tag k="addr:street" v="Vermont Route 113"/>
    <tag k="addr:state" v="VT"/>
    <tag k="ref:vcgi:esiteid" v="1050841"/>
  </node>
  <node id="-605" visible="true" lat="43.9353217" lon="-72.32386279">
    <tag k="addr:city" v="Vershire"/>
    <tag k="addr:housenumber" v="3060"/>
    <tag k="addr:street" v="Vershire Center Road"/>
    <tag k="addr:state" v="VT"/>
    <tag k="ref:vcgi:esiteid" v="1050842"/>
  </node>
  <node id="-606" visible="true" lat="43.99127109" lon="-72.33916056">
    <tag k="addr:city" v="Vershire"/>
    <tag k="addr:housenumber" v="987"/>
    <tag k="addr:street" v="Rowell Road"/>
    <tag k="addr:state" v="VT"/>
    <tag k="ref:vcgi:esiteid" v="1050848"/>
  </node>
  <node id="-607" visible="true" lat="43.97540225" lon="-72.24459463">
    <tag k="addr:city" v="Vershire"/>
    <tag k="addr:housenumber" v="2830"/>
    <tag k="addr:street" v="Beaver Meadow Road"/>
    <tag k="addr:state" v="VT"/>
    <tag k="ref:vcgi:esiteid" v="1051590"/>
  </node>
</osm>
