<?xml version="1.0" encoding="UTF-8"?>
<osm version="0.6" generator="JOSM" upload="false">
  <node id="-100" visible="true" lat="44.59709167" lon="-71.84915924">
    <tag k="addr:city" v="Victory"/>
    <tag k="addr:housenumber" v="343"/>
    <tag k="addr:street" v="Victory Road"/>
    <tag k="addr:state" v="VT"/>
    <tag k="ref:vcgi:esiteid" v="267325"/>
  </node>
  <node id="-101" visible="true" lat="44.59561157" lon="-71.84310913">
    <tag k="addr:city" v="Victory"/>
    <tag k="addr:housenumber" v="697"/>
    <tag k="addr:street" v="Victory Road"/>
    <tag k="addr:state" v="VT"/>
    <tag k="ref:vcgi:esiteid" v="267326"/>
  </node>
  <node id="-102" visible="true" lat="44.58039474" lon="-71.79988098">
    <tag k="addr:city" v="Victory"/>
    <tag k="addr:housenumber" v="3434"/>
    <tag k="addr:street" v="Victory Road"/>
    <tag k="addr:state" v="VT"/>
    <tag k="ref:vcgi:esiteid" v="267327"/>
  </node>
  <node id="-115" visible="true" lat="44.57510757" lon="-71.78636169">
    <tag k="addr:city" v="Victory"/>
    <tag k="addr:housenumber" v="4176"/>
    <tag k="addr:street" v="Victory Road"/>
    <tag k="addr:state" v="VT"/>
    <tag k="ref:vcgi:esiteid" v="267340"/>
  </node>
  <node id="-119" visible="true" lat="44.574554" lon="-71.78704085">
    <tag k="addr:city" v="Victory"/>
    <tag k="addr:housenumber" v="4162"/>
    <tag k="addr:street" v="Victory Road"/>
    <tag k="addr:state" v="VT"/>
    <tag k="ref:vcgi:esiteid" v="267344"/>
  </node>
  <node id="-127" visible="true" lat="44.57204855" lon="-71.78187497">
    <tag k="addr:city" v="Victory"/>
    <tag k="addr:housenumber" v="211"/>
    <tag k="addr:street" v="Granby Road"/>
    <tag k="addr:state" v="VT"/>
    <tag k="ref:vcgi:esiteid" v="267352"/>
  </node>
  <node id="-128" visible="true" lat="44.5712738" lon="-71.77378845">
    <tag k="addr:city" v="Victory"/>
    <tag k="addr:housenumber" v="647"/>
    <tag k="addr:street" v="Granby Road"/>
    <tag k="addr:state" v="VT"/>
    <tag k="ref:vcgi:esiteid" v="267353"/>
  </node>
  <node id="-129" visible="true" lat="44.57066726" lon="-71.7680664">
    <tag k="addr:city" v="Victory"/>
    <tag k="addr:housenumber" v="945"/>
    <tag k="addr:street" v="Granby Road"/>
    <tag k="addr:state" v="VT"/>
    <tag k="ref:vcgi:esiteid" v="267355"/>
  </node>
  <node id="-130" visible="true" lat="44.57030765" lon="-71.77060246">
    <tag k="addr:city" v="Victory"/>
    <tag k="addr:housenumber" v="822"/>
    <tag k="addr:street" v="Granby Road"/>
    <tag k="addr:state" v="VT"/>
    <tag k="ref:vcgi:esiteid" v="267356"/>
  </node>
  <node id="-132" visible="true" lat="44.5707562" lon="-71.77975278">
    <tag k="addr:city" v="Victory"/>
    <tag k="addr:housenumber" v="451"/>
    <tag k="addr:street" v="Granby Road"/>
    <tag k="addr:state" v="VT"/>
    <tag k="ref:vcgi:esiteid" v="267358"/>
  </node>
  <node id="-133" visible="true" lat="44.57005691" lon="-71.77934265">
    <tag k="addr:city" v="Victory"/>
    <tag k="addr:housenumber" v="390"/>
    <tag k="addr:street" v="Granby Road"/>
    <tag k="addr:state" v="VT"/>
    <tag k="ref:vcgi:esiteid" v="267359"/>
  </node>
  <node id="-135" visible="true" lat="44.56908039" lon="-71.78044495">
    <tag k="addr:city" v="Victory"/>
    <tag k="addr:housenumber" v="142"/>
    <tag k="addr:street" v="Rod Lane"/>
    <tag k="addr:state" v="VT"/>
    <tag k="ref:vcgi:esiteid" v="267361"/>
  </node>
  <node id="-143" visible="true" lat="44.56594848" lon="-71.78826141">
    <tag k="addr:city" v="Victory"/>
    <tag k="addr:housenumber" v="1077"/>
    <tag k="addr:street" v="River Road"/>
    <tag k="addr:state" v="VT"/>
    <tag k="ref:vcgi:esiteid" v="267369"/>
  </node>
  <node id="-147" visible="true" lat="44.56204986" lon="-71.77666829">
    <tag k="addr:city" v="Victory"/>
    <tag k="addr:housenumber" v="1673"/>
    <tag k="addr:street" v="River Road"/>
    <tag k="addr:state" v="VT"/>
    <tag k="ref:vcgi:esiteid" v="267373"/>
  </node>
  <node id="-148" visible="true" lat="44.53372933" lon="-71.77149293">
    <tag k="addr:city" v="Victory"/>
    <tag k="addr:housenumber" v="1745"/>
    <tag k="addr:street" v="River Road"/>
    <tag k="addr:state" v="VT"/>
    <tag k="ref:vcgi:esiteid" v="267374"/>
  </node>
  <node id="-150" visible="true" lat="44.54962605" lon="-71.84537302">
    <tag k="addr:city" v="Victory"/>
    <tag k="addr:housenumber" v="2380"/>
    <tag k="addr:street" v="Victory Hill"/>
    <tag k="addr:state" v="VT"/>
    <tag k="ref:vcgi:esiteid" v="267376"/>
  </node>
  <node id="-171" visible="true" lat="44.50897216" lon="-71.84483337">
    <tag k="addr:city" v="Victory"/>
    <tag k="addr:housenumber" v="6985"/>
    <tag k="addr:street" v="River Road"/>
    <tag k="addr:state" v="VT"/>
    <tag k="ref:vcgi:esiteid" v="267397"/>
  </node>
  <node id="-176" visible="true" lat="44.59677023" lon="-71.82721986">
    <tag k="addr:city" v="Victory"/>
    <tag k="addr:housenumber" v="1502"/>
    <tag k="addr:street" v="Victory Road"/>
    <tag k="addr:state" v="VT"/>
    <tag k="ref:vcgi:esiteid" v="267402"/>
  </node>
  <node id="-177" visible="true" lat="44.59747314" lon="-71.84384155">
    <tag k="addr:city" v="Victory"/>
    <tag k="addr:housenumber" v="703"/>
    <tag k="addr:street" v="Victory Road"/>
    <tag k="addr:state" v="VT"/>
    <tag k="ref:vcgi:esiteid" v="267403"/>
  </node>
  <node id="-178" visible="true" lat="44.58532043" lon="-71.81604662">
    <tag k="addr:city" v="Victory"/>
    <tag k="addr:housenumber" v="2418"/>
    <tag k="addr:street" v="Victory Road"/>
    <tag k="addr:state" v="VT"/>
    <tag k="ref:vcgi:esiteid" v="267404"/>
  </node>
  <node id="-185" visible="true" lat="44.55090331" lon="-71.85236358">
    <tag k="addr:city" v="Victory"/>
    <tag k="addr:housenumber" v="3164"/>
    <tag k="addr:street" v="Victory Hill"/>
    <tag k="addr:state" v="VT"/>
    <tag k="ref:vcgi:esiteid" v="267413"/>
  </node>
  <node id="-189" visible="true" lat="44.56526349" lon="-71.76135015">
    <tag k="addr:city" v="Victory"/>
    <tag k="addr:housenumber" v="200"/>
    <tag k="addr:street" v="Serenity Way"/>
    <tag k="addr:state" v="VT"/>
    <tag k="ref:vcgi:esiteid" v="267417"/>
  </node>
  <node id="-190" visible="true" lat="44.56913082" lon="-71.7658505">
    <tag k="addr:city" v="Victory"/>
    <tag k="addr:housenumber" v="1000"/>
    <tag k="addr:street" v="Granby Road"/>
    <tag k="addr:state" v="VT"/>
    <tag k="ref:vcgi:esiteid" v="307074"/>
  </node>
  <node id="-191" visible="true" lat="44.56779255" lon="-71.76327128">
    <tag k="addr:city" v="Victory"/>
    <tag k="addr:housenumber" v="1152"/>
    <tag k="addr:street" v="Granby Road"/>
    <tag k="addr:state" v="VT"/>
    <tag k="ref:vcgi:esiteid" v="307075"/>
  </node>
  <node id="-192" visible="true" lat="44.56856498" lon="-71.76472353">
    <tag k="addr:city" v="Victory"/>
    <tag k="addr:housenumber" v="1036"/>
    <tag k="addr:street" v="Granby Road"/>
    <tag k="addr:state" v="VT"/>
    <tag k="ref:vcgi:esiteid" v="309984"/>
  </node>
  <node id="-194" visible="true" lat="44.56997263" lon="-71.76600245">
    <tag k="addr:city" v="Victory"/>
    <tag k="addr:housenumber" v="975"/>
    <tag k="addr:street" v="Granby Road"/>
    <tag k="addr:state" v="VT"/>
    <tag k="ref:vcgi:esiteid" v="326725"/>
  </node>
  <node id="-197" visible="true" lat="44.56480049" lon="-71.76051057">
    <tag k="addr:city" v="Victory"/>
    <tag k="addr:housenumber" v="201"/>
    <tag k="addr:street" v="Serenity Way"/>
    <tag k="addr:state" v="VT"/>
    <tag k="ref:vcgi:esiteid" v="339944"/>
  </node>
  <node id="-198" visible="true" lat="44.59720398" lon="-71.82973536">
    <tag k="addr:city" v="Victory"/>
    <tag k="addr:housenumber" v="1324"/>
    <tag k="addr:street" v="Victory Road"/>
    <tag k="addr:state" v="VT"/>
    <tag k="ref:vcgi:esiteid" v="340753"/>
  </node>
  <node id="-199" visible="true" lat="44.57437303" lon="-71.78382251">
    <tag k="addr:city" v="Victory"/>
    <tag k="addr:housenumber" v="9"/>
    <tag k="addr:street" v="Granby Road"/>
    <tag k="addr:state" v="VT"/>
    <tag k="ref:vcgi:esiteid" v="448168"/>
  </node>
  <node id="-200" visible="true" lat="44.52951886" lon="-71.85048465">
    <tag k="addr:city" v="Victory"/>
    <tag k="addr:housenumber" v="1444"/>
    <tag k="addr:street" v="Victory Hill"/>
    <tag k="addr:state" v="VT"/>
    <tag k="ref:vcgi:esiteid" v="452882"/>
  </node>
  <node id="-204" visible="true" lat="44.53408181" lon="-71.86325775">
    <tag k="addr:city" v="Victory"/>
    <tag k="addr:housenumber" v="1128"/>
    <tag k="addr:street" v="Masten Road"/>
    <tag k="addr:state" v="VT"/>
    <tag k="ref:vcgi:esiteid" v="760567"/>
  </node>
  <node id="-205" visible="true" lat="44.56910017" lon="-71.76834359">
    <tag k="addr:city" v="Victory"/>
    <tag k="addr:housenumber" v="964"/>
    <tag k="addr:street" v="Granby Road"/>
    <tag k="addr:state" v="VT"/>
    <tag k="ref:vcgi:esiteid" v="762393"/>
  </node>
  <node id="-207" visible="true" lat="44.53164813" lon="-71.86272165">
    <tag k="addr:city" v="Victory"/>
    <tag k="addr:housenumber" v="922"/>
    <tag k="addr:street" v="Masten Road"/>
    <tag k="addr:state" v="VT"/>
    <tag k="ref:vcgi:esiteid" v="1050044"/>
  </node>
</osm>
