<?xml version="1.0" encoding="UTF-8"?>
<osm version="0.6" generator="JOSM">
  <node id="-100" visible="true" lat="44.52780864" lon="-72.22431808">
    <tag k="addr:housenumber" v="71"/>
    <tag k="addr:street" v="Reynolds Road"/>
    <tag k="addr:state" v="VT"/>
    <tag k="ref:vcgi:esiteid" v="247897"/>
  </node>
  <node id="-161" visible="true" lat="44.50950455" lon="-72.27275083">
    <tag k="addr:housenumber" v="5424"/>
    <tag k="addr:street" v="Noyestar Road"/>
    <tag k="addr:state" v="VT"/>
    <tag k="ref:vcgi:esiteid" v="268459"/>
  </node>
  <node id="-168" visible="true" lat="44.50907278" lon="-72.27162876">
    <tag k="addr:housenumber" v="5344"/>
    <tag k="addr:street" v="Noyestar Road"/>
    <tag k="addr:state" v="VT"/>
    <tag k="ref:vcgi:esiteid" v="268466"/>
  </node>
  <node id="-169" visible="true" lat="44.50868167" lon="-72.27266333">
    <tag k="addr:housenumber" v="5371"/>
    <tag k="addr:street" v="Noyestar Road"/>
    <tag k="addr:state" v="VT"/>
    <tag k="ref:vcgi:esiteid" v="268467"/>
  </node>
  <node id="-176" visible="true" lat="44.50779588" lon="-72.27122342">
    <tag k="addr:housenumber" v="36"/>
    <tag k="addr:street" v="Bellavance Drive"/>
    <tag k="addr:state" v="VT"/>
    <tag k="ref:vcgi:esiteid" v="268474"/>
  </node>
  <node id="-183" visible="true" lat="44.50690283" lon="-72.27183327">
    <tag k="addr:housenumber" v="104"/>
    <tag k="addr:street" v="Bellavance Drive"/>
    <tag k="addr:state" v="VT"/>
    <tag k="ref:vcgi:esiteid" v="268481"/>
  </node>
  <node id="-191" visible="true" lat="44.50640106" lon="-72.27732086">
    <tag k="addr:housenumber" v="2538"/>
    <tag k="addr:street" v="Bayley Hazen Road"/>
    <tag k="addr:state" v="VT"/>
    <tag k="ref:vcgi:esiteid" v="268489"/>
  </node>
  <node id="-209" visible="true" lat="44.50492096" lon="-72.27794647">
    <tag k="addr:housenumber" v="2448"/>
    <tag k="addr:street" v="Bayley Hazen Road"/>
    <tag k="addr:state" v="VT"/>
    <tag k="ref:vcgi:esiteid" v="268507"/>
  </node>
  <node id="-219" visible="true" lat="44.50428604" lon="-72.28713987">
    <tag k="addr:housenumber" v="91"/>
    <tag k="addr:street" v="Hazen Lane"/>
    <tag k="addr:state" v="VT"/>
    <tag k="ref:vcgi:esiteid" v="268517"/>
  </node>
  <node id="-224" visible="true" lat="44.50381302" lon="-72.28615568">
    <tag k="addr:housenumber" v="183"/>
    <tag k="addr:street" v="Hazen Lane"/>
    <tag k="addr:state" v="VT"/>
    <tag k="ref:vcgi:esiteid" v="268522"/>
  </node>
  <node id="-228" visible="true" lat="44.50367313" lon="-72.28959861">
    <tag k="addr:housenumber" v="268"/>
    <tag k="addr:street" v="Stewart Road"/>
    <tag k="addr:state" v="VT"/>
    <tag k="ref:vcgi:esiteid" v="268526"/>
  </node>
  <node id="-236" visible="true" lat="44.50288301" lon="-72.28886356">
    <tag k="addr:housenumber" v="222"/>
    <tag k="addr:street" v="Stewart Road"/>
    <tag k="addr:state" v="VT"/>
    <tag k="ref:vcgi:esiteid" v="268534"/>
  </node>
  <node id="-238" visible="true" lat="44.50274276" lon="-72.28456115">
    <tag k="addr:housenumber" v="2067"/>
    <tag k="addr:street" v="Bayley Hazen Road"/>
    <tag k="addr:state" v="VT"/>
    <tag k="ref:vcgi:esiteid" v="268536"/>
  </node>
  <node id="-249" visible="true" lat="44.50190949" lon="-72.2863159">
    <tag k="addr:housenumber" v="70"/>
    <tag k="addr:street" v="Dow Drive"/>
    <tag k="addr:state" v="VT"/>
    <tag k="ref:vcgi:esiteid" v="268547"/>
  </node>
  <node id="-251" visible="true" lat="44.50168027" lon="-72.28725416">
    <tag k="addr:housenumber" v="98"/>
    <tag k="addr:street" v="Stewart Road"/>
    <tag k="addr:state" v="VT"/>
    <tag k="ref:vcgi:esiteid" v="268549"/>
  </node>
  <node id="-252" visible="true" lat="44.50127243" lon="-72.28597257">
    <tag k="addr:housenumber" v="27"/>
    <tag k="addr:street" v="Dow Drive"/>
    <tag k="addr:state" v="VT"/>
    <tag k="ref:vcgi:esiteid" v="268550"/>
  </node>
  <node id="-259" visible="true" lat="44.49831307" lon="-72.28746684">
    <tag k="addr:housenumber" v="1748"/>
    <tag k="addr:street" v="Bayley Hazen Road"/>
    <tag k="addr:state" v="VT"/>
    <tag k="ref:vcgi:esiteid" v="268558"/>
  </node>
  <node id="-260" visible="true" lat="44.49824905" lon="-72.2913208">
    <tag k="addr:housenumber" v="1601"/>
    <tag k="addr:street" v="Bayley Hazen Road"/>
    <tag k="addr:state" v="VT"/>
    <tag k="ref:vcgi:esiteid" v="268559"/>
  </node>
  <node id="-265" visible="true" lat="44.49713137" lon="-72.28871841">
    <tag k="addr:housenumber" v="1603"/>
    <tag k="addr:street" v="Bayley Hazen Road"/>
    <tag k="addr:state" v="VT"/>
    <tag k="ref:vcgi:esiteid" v="268564"/>
  </node>
  <node id="-268" visible="true" lat="44.49665994" lon="-72.29326448">
    <tag k="addr:housenumber" v="1937"/>
    <tag k="addr:street" v="Mountain View Road"/>
    <tag k="addr:state" v="VT"/>
    <tag k="ref:vcgi:esiteid" v="268567"/>
  </node>
  <node id="-271" visible="true" lat="44.4963437" lon="-72.29208867">
    <tag k="addr:housenumber" v="2057"/>
    <tag k="addr:street" v="Mountain View Road"/>
    <tag k="addr:state" v="VT"/>
    <tag k="ref:vcgi:esiteid" v="268570"/>
  </node>
  <node id="-273" visible="true" lat="44.49543103" lon="-72.2946398">
    <tag k="addr:housenumber" v="1908"/>
    <tag k="addr:street" v="Mountain View Road"/>
    <tag k="addr:state" v="VT"/>
    <tag k="ref:vcgi:esiteid" v="268572"/>
  </node>
  <node id="-275" visible="true" lat="44.4949549" lon="-72.29682015">
    <tag k="addr:housenumber" v="1790"/>
    <tag k="addr:street" v="Mountain View Road"/>
    <tag k="addr:state" v="VT"/>
    <tag k="ref:vcgi:esiteid" v="268574"/>
  </node>
  <node id="-276" visible="true" lat="44.49514733" lon="-72.28849577">
    <tag k="addr:housenumber" v="1504"/>
    <tag k="addr:street" v="Bayley Hazen Road"/>
    <tag k="addr:state" v="VT"/>
    <tag k="ref:vcgi:esiteid" v="268575"/>
  </node>
  <node id="-277" visible="true" lat="44.49497985" lon="-72.28965759">
    <tag k="addr:housenumber" v="1481"/>
    <tag k="addr:street" v="Bayley Hazen Road"/>
    <tag k="addr:state" v="VT"/>
    <tag k="ref:vcgi:esiteid" v="268576"/>
  </node>
  <node id="-282" visible="true" lat="44.49355697" lon="-72.29047393">
    <tag k="addr:housenumber" v="1377"/>
    <tag k="addr:street" v="Bayley Hazen Road"/>
    <tag k="addr:state" v="VT"/>
    <tag k="ref:vcgi:esiteid" v="268581"/>
  </node>
  <node id="-285" visible="true" lat="44.49249649" lon="-72.29034423">
    <tag k="addr:housenumber" v="1310"/>
    <tag k="addr:street" v="Bayley Hazen Road"/>
    <tag k="addr:state" v="VT"/>
    <tag k="ref:vcgi:esiteid" v="268584"/>
  </node>
  <node id="-286" visible="true" lat="44.49246215" lon="-72.29063415">
    <tag k="addr:housenumber" v="1301"/>
    <tag k="addr:street" v="Bayley Hazen Road"/>
    <tag k="addr:state" v="VT"/>
    <tag k="ref:vcgi:esiteid" v="268585"/>
  </node>
  <node id="-288" visible="true" lat="44.49188613" lon="-72.29064178">
    <tag k="addr:housenumber" v="1263"/>
    <tag k="addr:street" v="Bayley Hazen Road"/>
    <tag k="addr:state" v="VT"/>
    <tag k="ref:vcgi:esiteid" v="268587"/>
  </node>
  <node id="-293" visible="true" lat="44.49085235" lon="-72.288414">
    <tag k="addr:housenumber" v="1122"/>
    <tag k="addr:street" v="Bayley Hazen Road"/>
    <tag k="addr:state" v="VT"/>
    <tag k="ref:vcgi:esiteid" v="268592"/>
  </node>
  <node id="-300" visible="true" lat="44.48991394" lon="-72.29109191">
    <tag k="addr:housenumber" v="1123"/>
    <tag k="addr:street" v="Bayley Hazen Road"/>
    <tag k="addr:state" v="VT"/>
    <tag k="ref:vcgi:esiteid" v="268599"/>
  </node>
  <node id="-312" visible="true" lat="44.48616211" lon="-72.29214997">
    <tag k="addr:housenumber" v="857"/>
    <tag k="addr:street" v="Bayley Hazen Road"/>
    <tag k="addr:state" v="VT"/>
    <tag k="ref:vcgi:esiteid" v="268614"/>
  </node>
  <node id="-315" visible="true" lat="44.48475646" lon="-72.29238891">
    <tag k="addr:housenumber" v="761"/>
    <tag k="addr:street" v="Bayley Hazen Road"/>
    <tag k="addr:state" v="VT"/>
    <tag k="ref:vcgi:esiteid" v="268617"/>
  </node>
  <node id="-316" visible="true" lat="44.48458161" lon="-72.29088691">
    <tag k="addr:housenumber" v="774"/>
    <tag k="addr:street" v="Bayley Hazen Road"/>
    <tag k="addr:state" v="VT"/>
    <tag k="ref:vcgi:esiteid" v="268618"/>
  </node>
  <node id="-321" visible="true" lat="44.48401093" lon="-72.29350279">
    <tag k="addr:housenumber" v="85"/>
    <tag k="addr:street" v="Morrill Brook Road"/>
    <tag k="addr:state" v="VT"/>
    <tag k="ref:vcgi:esiteid" v="268623"/>
  </node>
  <node id="-322" visible="true" lat="44.4838562" lon="-72.29175567">
    <tag k="addr:housenumber" v="696"/>
    <tag k="addr:street" v="Bayley Hazen Road"/>
    <tag k="addr:state" v="VT"/>
    <tag k="ref:vcgi:esiteid" v="268624"/>
  </node>
  <node id="-323" visible="true" lat="44.48370194" lon="-72.2923889">
    <tag k="addr:housenumber" v="13"/>
    <tag k="addr:street" v="Morrill Brook Road"/>
    <tag k="addr:state" v="VT"/>
    <tag k="ref:vcgi:esiteid" v="268625"/>
  </node>
  <node id="-324" visible="true" lat="44.48326492" lon="-72.2919693">
    <tag k="addr:housenumber" v="656"/>
    <tag k="addr:street" v="Bayley Hazen Road"/>
    <tag k="addr:state" v="VT"/>
    <tag k="ref:vcgi:esiteid" v="268626"/>
  </node>
  <node id="-368" visible="true" lat="44.47156357" lon="-72.26826475">
    <tag k="addr:housenumber" v="37"/>
    <tag k="addr:street" v="Summerhill Road"/>
    <tag k="addr:state" v="VT"/>
    <tag k="ref:vcgi:esiteid" v="268671"/>
  </node>
  <node id="-369" visible="true" lat="44.47153307" lon="-72.2669683">
    <tag k="addr:housenumber" v="35"/>
    <tag k="addr:street" v="Stevens Hill West"/>
    <tag k="addr:state" v="VT"/>
    <tag k="ref:vcgi:esiteid" v="268672"/>
  </node>
  <node id="-374" visible="true" lat="44.47085267" lon="-72.26545725">
    <tag k="addr:housenumber" v="131"/>
    <tag k="addr:street" v="Stevens Hill West"/>
    <tag k="addr:state" v="VT"/>
    <tag k="ref:vcgi:esiteid" v="268677"/>
  </node>
  <node id="-377" visible="true" lat="44.47043823" lon="-72.26578319">
    <tag k="addr:housenumber" v="106"/>
    <tag k="addr:street" v="Stevens Hill West"/>
    <tag k="addr:state" v="VT"/>
    <tag k="ref:vcgi:esiteid" v="268680"/>
  </node>
  <node id="-382" visible="true" lat="44.46858596" lon="-72.2104187">
    <tag k="addr:housenumber" v="781"/>
    <tag k="addr:street" v="Rock Road"/>
    <tag k="addr:state" v="VT"/>
    <tag k="ref:vcgi:esiteid" v="268685"/>
  </node>
  <node id="-383" visible="true" lat="44.46869492" lon="-72.26669309">
    <tag k="addr:housenumber" v="36"/>
    <tag k="addr:street" v="Sawmill Road"/>
    <tag k="addr:state" v="VT"/>
    <tag k="ref:vcgi:esiteid" v="268686"/>
  </node>
  <node id="-384" visible="true" lat="44.46846604" lon="-72.22782895">
    <tag k="addr:housenumber" v="1436"/>
    <tag k="addr:street" v="Noyestar Road"/>
    <tag k="addr:state" v="VT"/>
    <tag k="ref:vcgi:esiteid" v="268687"/>
  </node>
  <node id="-387" visible="true" lat="44.46792221" lon="-72.20738983">
    <tag k="addr:housenumber" v="894"/>
    <tag k="addr:street" v="Rock Road"/>
    <tag k="addr:state" v="VT"/>
    <tag k="ref:vcgi:esiteid" v="268690"/>
  </node>
  <node id="-388" visible="true" lat="44.46797394" lon="-72.22776029">
    <tag k="addr:housenumber" v="1409"/>
    <tag k="addr:street" v="Noyestar Road"/>
    <tag k="addr:state" v="VT"/>
    <tag k="ref:vcgi:esiteid" v="268691"/>
  </node>
  <node id="-391" visible="true" lat="44.46721482" lon="-72.2260513">
    <tag k="addr:housenumber" v="1254"/>
    <tag k="addr:street" v="Noyestar Road"/>
    <tag k="addr:state" v="VT"/>
    <tag k="ref:vcgi:esiteid" v="268694"/>
  </node>
  <node id="-392" visible="true" lat="44.46702789" lon="-72.22632596">
    <tag k="addr:housenumber" v="1311"/>
    <tag k="addr:street" v="Noyestar Road"/>
    <tag k="addr:state" v="VT"/>
    <tag k="ref:vcgi:esiteid" v="268695"/>
  </node>
  <node id="-396" visible="true" lat="44.46573257" lon="-72.2040863">
    <tag k="addr:housenumber" v="362"/>
    <tag k="addr:street" v="Woodward Road"/>
    <tag k="addr:state" v="VT"/>
    <tag k="ref:vcgi:esiteid" v="268699"/>
  </node>
  <node id="-407" visible="true" lat="44.46327805" lon="-72.22518918">
    <tag k="addr:housenumber" v="1039"/>
    <tag k="addr:street" v="Noyestar Road"/>
    <tag k="addr:state" v="VT"/>
    <tag k="ref:vcgi:esiteid" v="268711"/>
  </node>
  <node id="-409" visible="true" lat="44.46269821" lon="-72.22395322">
    <tag k="addr:housenumber" v="983"/>
    <tag k="addr:street" v="Noyestar Road"/>
    <tag k="addr:state" v="VT"/>
    <tag k="ref:vcgi:esiteid" v="268713"/>
  </node>
  <node id="-413" visible="true" lat="44.46179864" lon="-72.22275996">
    <tag k="addr:housenumber" v="901"/>
    <tag k="addr:street" v="Noyestar Road"/>
    <tag k="addr:state" v="VT"/>
    <tag k="ref:vcgi:esiteid" v="268717"/>
  </node>
  <node id="-414" visible="true" lat="44.46181487" lon="-72.21604919">
    <tag k="addr:housenumber" v="293"/>
    <tag k="addr:street" v="Cobb Road"/>
    <tag k="addr:state" v="VT"/>
    <tag k="ref:vcgi:esiteid" v="268718"/>
  </node>
  <node id="-417" visible="true" lat="44.45952606" lon="-72.22099304">
    <tag k="addr:housenumber" v="705"/>
    <tag k="addr:street" v="Noyestar Road"/>
    <tag k="addr:state" v="VT"/>
    <tag k="ref:vcgi:esiteid" v="268721"/>
  </node>
  <node id="-418" visible="true" lat="44.45942085" lon="-72.18812964">
    <tag k="addr:housenumber" v="130"/>
    <tag k="addr:street" v="Windy Hill Road"/>
    <tag k="addr:state" v="VT"/>
    <tag k="ref:vcgi:esiteid" v="268722"/>
  </node>
  <node id="-420" visible="true" lat="44.45902839" lon="-72.18875574">
    <tag k="addr:housenumber" v="1783"/>
    <tag k="addr:street" v="Cahoon Farm Road"/>
    <tag k="addr:state" v="VT"/>
    <tag k="ref:vcgi:esiteid" v="268724"/>
  </node>
  <node id="-422" visible="true" lat="44.45880528" lon="-72.20581717">
    <tag k="addr:housenumber" v="333"/>
    <tag k="addr:street" v="Kittredge Lane"/>
    <tag k="addr:state" v="VT"/>
    <tag k="ref:vcgi:esiteid" v="268726"/>
  </node>
  <node id="-425" visible="true" lat="44.45828653" lon="-72.20251276">
    <tag k="addr:housenumber" v="331"/>
    <tag k="addr:street" v="Kittredge Lane"/>
    <tag k="addr:state" v="VT"/>
    <tag k="ref:vcgi:esiteid" v="268729"/>
  </node>
  <node id="-426" visible="true" lat="44.45761951" lon="-72.19530273">
    <tag k="addr:housenumber" v="1430"/>
    <tag k="addr:street" v="Cahoon Farm Road"/>
    <tag k="addr:state" v="VT"/>
    <tag k="ref:vcgi:esiteid" v="268730"/>
  </node>
  <node id="-430" visible="true" lat="44.45637881" lon="-72.19740378">
    <tag k="addr:housenumber" v="1292"/>
    <tag k="addr:street" v="Cahoon Farm Road"/>
    <tag k="addr:state" v="VT"/>
    <tag k="ref:vcgi:esiteid" v="268734"/>
  </node>
  <node id="-433" visible="true" lat="44.45573623" lon="-72.19846796">
    <tag k="addr:housenumber" v="1210"/>
    <tag k="addr:street" v="Cahoon Farm Road"/>
    <tag k="addr:state" v="VT"/>
    <tag k="ref:vcgi:esiteid" v="268737"/>
  </node>
  <node id="-438" visible="true" lat="44.45511725" lon="-72.20956247">
    <tag k="addr:housenumber" v="827"/>
    <tag k="addr:street" v="Cobb Road"/>
    <tag k="addr:state" v="VT"/>
    <tag k="ref:vcgi:esiteid" v="268742"/>
  </node>
  <node id="-441" visible="true" lat="44.45394134" lon="-72.21049499">
    <tag k="addr:housenumber" v="900"/>
    <tag k="addr:street" v="Cobb Road"/>
    <tag k="addr:state" v="VT"/>
    <tag k="ref:vcgi:esiteid" v="268745"/>
  </node>
  <node id="-442" visible="true" lat="44.45363235" lon="-72.20836639">
    <tag k="addr:housenumber" v="713"/>
    <tag k="addr:street" v="Cahoon Farm Road"/>
    <tag k="addr:state" v="VT"/>
    <tag k="ref:vcgi:esiteid" v="268746"/>
  </node>
  <node id="-444" visible="true" lat="44.45377929" lon="-72.25174534">
    <tag k="addr:housenumber" v="260"/>
    <tag k="addr:street" v="Greaves Road"/>
    <tag k="addr:state" v="VT"/>
    <tag k="ref:vcgi:esiteid" v="268748"/>
  </node>
  <node id="-446" visible="true" lat="44.45330731" lon="-72.25396221">
    <tag k="addr:housenumber" v="143"/>
    <tag k="addr:street" v="Greaves Road"/>
    <tag k="addr:state" v="VT"/>
    <tag k="ref:vcgi:esiteid" v="268750"/>
  </node>
  <node id="-448" visible="true" lat="44.45309066" lon="-72.21110534">
    <tag k="addr:housenumber" v="575"/>
    <tag k="addr:street" v="Cahoon Farm Road"/>
    <tag k="addr:state" v="VT"/>
    <tag k="ref:vcgi:esiteid" v="268752"/>
  </node>
  <node id="-449" visible="true" lat="44.45296859" lon="-72.20993041">
    <tag k="addr:housenumber" v="622"/>
    <tag k="addr:street" v="Cahoon Farm Road"/>
    <tag k="addr:state" v="VT"/>
    <tag k="ref:vcgi:esiteid" v="268753"/>
  </node>
  <node id="-452" visible="true" lat="44.45260238" lon="-72.21276092">
    <tag k="addr:housenumber" v="481"/>
    <tag k="addr:street" v="Cahoon Farm Road"/>
    <tag k="addr:state" v="VT"/>
    <tag k="ref:vcgi:esiteid" v="268756"/>
  </node>
  <node id="-453" visible="true" lat="44.45261181" lon="-72.25568526">
    <tag k="addr:housenumber" v="54"/>
    <tag k="addr:street" v="Greaves Road"/>
    <tag k="addr:state" v="VT"/>
    <tag k="ref:vcgi:esiteid" v="268757"/>
  </node>
  <node id="-454" visible="true" lat="44.45229969" lon="-72.222044">
    <tag k="addr:housenumber" v="12"/>
    <tag k="addr:street" v="Cahoon Farm Road"/>
    <tag k="addr:state" v="VT"/>
    <tag k="ref:vcgi:esiteid" v="268758"/>
  </node>
  <node id="-455" visible="true" lat="44.45225204" lon="-72.21923652">
    <tag k="addr:housenumber" v="150"/>
    <tag k="addr:street" v="Cahoon Farm Road"/>
    <tag k="addr:state" v="VT"/>
    <tag k="ref:vcgi:esiteid" v="268759"/>
  </node>
  <node id="-456" visible="true" lat="44.45224384" lon="-72.21778621">
    <tag k="addr:housenumber" v="232"/>
    <tag k="addr:street" v="Cahoon Farm Road"/>
    <tag k="addr:state" v="VT"/>
    <tag k="ref:vcgi:esiteid" v="268760"/>
  </node>
  <node id="-458" visible="true" lat="44.45191223" lon="-72.21123678">
    <tag k="addr:housenumber" v="544"/>
    <tag k="addr:street" v="Cahoon Farm Road"/>
    <tag k="addr:state" v="VT"/>
    <tag k="ref:vcgi:esiteid" v="268762"/>
  </node>
  <node id="-459" visible="true" lat="44.4519423" lon="-72.21590824">
    <tag k="addr:housenumber" v="324"/>
    <tag k="addr:street" v="Cahoon Farm Road"/>
    <tag k="addr:state" v="VT"/>
    <tag k="ref:vcgi:esiteid" v="268763"/>
  </node>
  <node id="-460" visible="true" lat="44.45191192" lon="-72.25727844">
    <tag k="addr:housenumber" v="32"/>
    <tag k="addr:street" v="Route 215"/>
    <tag k="addr:state" v="VT"/>
    <tag k="ref:vcgi:esiteid" v="268765"/>
  </node>
  <node id="-463" visible="true" lat="44.45133209" lon="-72.25770568">
    <tag k="addr:housenumber" v="86"/>
    <tag k="addr:street" v="Route 215"/>
    <tag k="addr:state" v="VT"/>
    <tag k="ref:vcgi:esiteid" v="268768"/>
  </node>
  <node id="-464" visible="true" lat="44.45129372" lon="-72.22249696">
    <tag k="addr:housenumber" v="116"/>
    <tag k="addr:street" v="Noyestar Road"/>
    <tag k="addr:state" v="VT"/>
    <tag k="ref:vcgi:esiteid" v="268769"/>
  </node>
  <node id="-465" visible="true" lat="44.45116893" lon="-72.22178377">
    <tag k="addr:housenumber" v="106"/>
    <tag k="addr:street" v="Noyestar Road"/>
    <tag k="addr:state" v="VT"/>
    <tag k="ref:vcgi:esiteid" v="268770"/>
  </node>
  <node id="-468" visible="true" lat="44.45116043" lon="-72.2230072">
    <tag k="addr:housenumber" v="109"/>
    <tag k="addr:street" v="Noyestar Road"/>
    <tag k="addr:state" v="VT"/>
    <tag k="ref:vcgi:esiteid" v="268773"/>
  </node>
  <node id="-469" visible="true" lat="44.45110702" lon="-72.25876617">
    <tag k="addr:housenumber" v="120"/>
    <tag k="addr:street" v="Route 215"/>
    <tag k="addr:state" v="VT"/>
    <tag k="ref:vcgi:esiteid" v="268774"/>
  </node>
  <node id="-474" visible="true" lat="44.45042037" lon="-72.25782775">
    <tag k="addr:housenumber" v="141"/>
    <tag k="addr:street" v="Route 215"/>
    <tag k="addr:state" v="VT"/>
    <tag k="ref:vcgi:esiteid" v="268779"/>
  </node>
  <node id="-475" visible="true" lat="44.45038223" lon="-72.25846862">
    <tag k="addr:housenumber" v="162"/>
    <tag k="addr:street" v="Route 215"/>
    <tag k="addr:state" v="VT"/>
    <tag k="ref:vcgi:esiteid" v="268780"/>
  </node>
  <node id="-477" visible="true" lat="44.45019864" lon="-72.22328772">
    <tag k="addr:housenumber" v="37"/>
    <tag k="addr:street" v="Noyestar Road"/>
    <tag k="addr:state" v="VT"/>
    <tag k="ref:vcgi:esiteid" v="268782"/>
  </node>
  <node id="-480" visible="true" lat="44.45000349" lon="-72.22341032">
    <tag k="addr:housenumber" v="23"/>
    <tag k="addr:street" v="Noyestar Road"/>
    <tag k="addr:state" v="VT"/>
    <tag k="ref:vcgi:esiteid" v="268785"/>
  </node>
  <node id="-481" visible="true" lat="44.44985698" lon="-72.22215666">
    <tag k="addr:housenumber" v="39"/>
    <tag k="addr:street" v="Audet Place"/>
    <tag k="addr:state" v="VT"/>
    <tag k="ref:vcgi:esiteid" v="268786"/>
  </node>
  <node id="-482" visible="true" lat="44.44978713" lon="-72.24399566">
    <tag k="addr:housenumber" v="99"/>
    <tag k="addr:street" v="Rowell Road"/>
    <tag k="addr:state" v="VT"/>
    <tag k="ref:vcgi:esiteid" v="268787"/>
  </node>
  <node id="-483" visible="true" lat="44.44974685" lon="-72.22284109">
    <tag k="addr:housenumber" v="5"/>
    <tag k="addr:street" v="Audet Place"/>
    <tag k="addr:state" v="VT"/>
    <tag k="ref:vcgi:esiteid" v="268788"/>
  </node>
  <node id="-484" visible="true" lat="44.44962224" lon="-72.22477554">
    <tag k="addr:housenumber" v="14"/>
    <tag k="addr:street" v="Brookside Drive"/>
    <tag k="addr:state" v="VT"/>
    <tag k="ref:vcgi:esiteid" v="268789"/>
  </node>
  <node id="-485" visible="true" lat="44.4496742" lon="-72.25848639">
    <tag k="addr:housenumber" v="207"/>
    <tag k="addr:street" v="Route 215"/>
    <tag k="addr:state" v="VT"/>
    <tag k="ref:vcgi:esiteid" v="268790"/>
  </node>
  <node id="-486" visible="true" lat="44.44939859" lon="-72.22270438">
    <tag k="addr:housenumber" v="30"/>
    <tag k="addr:street" v="Maple Lane"/>
    <tag k="addr:state" v="VT"/>
    <tag k="ref:vcgi:esiteid" v="268791"/>
  </node>
  <node id="-488" visible="true" lat="44.44948646" lon="-72.22207253">
    <tag k="addr:housenumber" v="35"/>
    <tag k="addr:street" v="Maple Lane"/>
    <tag k="addr:state" v="VT"/>
    <tag k="ref:vcgi:esiteid" v="268793"/>
  </node>
  <node id="-490" visible="true" lat="44.4494099" lon="-72.26064454">
    <tag k="addr:housenumber" v="308"/>
    <tag k="addr:street" v="Route 215"/>
    <tag k="addr:state" v="VT"/>
    <tag k="ref:vcgi:esiteid" v="268795"/>
  </node>
  <node id="-491" visible="true" lat="44.44914244" lon="-72.22562094">
    <tag k="addr:housenumber" v="40"/>
    <tag k="addr:street" v="Brookside Drive"/>
    <tag k="addr:state" v="VT"/>
    <tag k="ref:vcgi:esiteid" v="268796"/>
  </node>
  <node id="-492" visible="true" lat="44.44879873" lon="-72.22460935">
    <tag k="addr:housenumber" v="53"/>
    <tag k="addr:street" v="Brookside Drive"/>
    <tag k="addr:state" v="VT"/>
    <tag k="ref:vcgi:esiteid" v="268797"/>
  </node>
  <node id="-493" visible="true" lat="44.44913903" lon="-72.22121707">
    <tag k="addr:housenumber" v="135"/>
    <tag k="addr:street" v="Maple Lane"/>
    <tag k="addr:state" v="VT"/>
    <tag k="ref:vcgi:esiteid" v="268798"/>
  </node>
  <node id="-494" visible="true" lat="44.44895935" lon="-72.24264526">
    <tag k="addr:housenumber" v="201"/>
    <tag k="addr:street" v="Rowell Road"/>
    <tag k="addr:state" v="VT"/>
    <tag k="ref:vcgi:esiteid" v="268799"/>
  </node>
  <node id="-496" visible="true" lat="44.44876484" lon="-72.22706827">
    <tag k="addr:housenumber" v="172"/>
    <tag k="addr:street" v="Hillside Drive"/>
    <tag k="addr:state" v="VT"/>
    <tag k="ref:vcgi:esiteid" v="268802"/>
  </node>
  <node id="-498" visible="true" lat="44.44863725" lon="-72.22958509">
    <tag k="addr:housenumber" v="58"/>
    <tag k="addr:street" v="Hillside Drive"/>
    <tag k="addr:state" v="VT"/>
    <tag k="ref:vcgi:esiteid" v="268804"/>
  </node>
  <node id="-499" visible="true" lat="44.44885989" lon="-72.25959292">
    <tag k="addr:housenumber" v="287"/>
    <tag k="addr:street" v="Route 215"/>
    <tag k="addr:state" v="VT"/>
    <tag k="ref:vcgi:esiteid" v="268805"/>
  </node>
  <node id="-502" visible="true" lat="44.44827868" lon="-72.22805812">
    <tag k="addr:housenumber" v="152"/>
    <tag k="addr:street" v="Hillside Drive"/>
    <tag k="addr:state" v="VT"/>
    <tag k="ref:vcgi:esiteid" v="268808"/>
  </node>
  <node id="-504" visible="true" lat="44.44825893" lon="-72.22171344">
    <tag k="addr:housenumber" v="128"/>
    <tag k="addr:street" v="Maple Lane"/>
    <tag k="addr:state" v="VT"/>
    <tag k="ref:vcgi:esiteid" v="268810"/>
  </node>
  <node id="-506" visible="true" lat="44.44823363" lon="-72.21988652">
    <tag k="addr:housenumber" v="213"/>
    <tag k="addr:street" v="Maple Lane"/>
    <tag k="addr:state" v="VT"/>
    <tag k="ref:vcgi:esiteid" v="268814"/>
  </node>
  <node id="-507" visible="true" lat="44.44808934" lon="-72.25993792">
    <tag k="addr:housenumber" v="311"/>
    <tag k="addr:street" v="Route 215"/>
    <tag k="addr:state" v="VT"/>
    <tag k="ref:vcgi:esiteid" v="268815"/>
  </node>
  <node id="-510" visible="true" lat="44.44748808" lon="-72.26142551">
    <tag k="addr:housenumber" v="389"/>
    <tag k="addr:street" v="Route 215"/>
    <tag k="addr:state" v="VT"/>
    <tag k="ref:vcgi:esiteid" v="268818"/>
  </node>
  <node id="-511" visible="true" lat="44.44746931" lon="-72.21858969">
    <tag k="addr:housenumber" v="291"/>
    <tag k="addr:street" v="Maple Lane"/>
    <tag k="addr:state" v="VT"/>
    <tag k="ref:vcgi:esiteid" v="268819"/>
  </node>
  <node id="-513" visible="true" lat="44.44725645" lon="-72.24888322">
    <tag k="addr:housenumber" v="485"/>
    <tag k="addr:street" v="North Pond Road"/>
    <tag k="addr:state" v="VT"/>
    <tag k="ref:vcgi:esiteid" v="268821"/>
  </node>
  <node id="-515" visible="true" lat="44.4470389" lon="-72.24849702">
    <tag k="addr:housenumber" v="469"/>
    <tag k="addr:street" v="North Pond Road"/>
    <tag k="addr:state" v="VT"/>
    <tag k="ref:vcgi:esiteid" v="268823"/>
  </node>
  <node id="-516" visible="true" lat="44.44715062" lon="-72.26344746">
    <tag k="addr:housenumber" v="516"/>
    <tag k="addr:street" v="Route 215"/>
    <tag k="addr:state" v="VT"/>
    <tag k="ref:vcgi:esiteid" v="268824"/>
  </node>
  <node id="-517" visible="true" lat="44.44689559" lon="-72.24770355">
    <tag k="addr:housenumber" v="429"/>
    <tag k="addr:street" v="North Pond Road"/>
    <tag k="addr:state" v="VT"/>
    <tag k="ref:vcgi:esiteid" v="268825"/>
  </node>
  <node id="-520" visible="true" lat="44.44676632" lon="-72.24965996">
    <tag k="addr:housenumber" v="388"/>
    <tag k="addr:street" v="Lyford West Shore"/>
    <tag k="addr:state" v="VT"/>
    <tag k="ref:vcgi:esiteid" v="268828"/>
  </node>
  <node id="-521" visible="true" lat="44.4467376" lon="-72.24734579">
    <tag k="addr:housenumber" v="405"/>
    <tag k="addr:street" v="North Pond Road"/>
    <tag k="addr:state" v="VT"/>
    <tag k="ref:vcgi:esiteid" v="268829"/>
  </node>
  <node id="-522" visible="true" lat="44.44661507" lon="-72.25089806">
    <tag k="addr:housenumber" v="331"/>
    <tag k="addr:street" v="Lyford West Shore"/>
    <tag k="addr:state" v="VT"/>
    <tag k="ref:vcgi:esiteid" v="268830"/>
  </node>
  <node id="-524" visible="true" lat="44.44686263" lon="-72.25029178">
    <tag k="addr:housenumber" v="377"/>
    <tag k="addr:street" v="Lyford West Shore"/>
    <tag k="addr:state" v="VT"/>
    <tag k="ref:vcgi:esiteid" v="268832"/>
  </node>
  <node id="-525" visible="true" lat="44.44631786" lon="-72.24975304">
    <tag k="addr:housenumber" v="386"/>
    <tag k="addr:street" v="Lyford West Shore"/>
    <tag k="addr:state" v="VT"/>
    <tag k="ref:vcgi:esiteid" v="268833"/>
  </node>
  <node id="-526" visible="true" lat="44.44607887" lon="-72.20276483">
    <tag k="addr:housenumber" v="1568"/>
    <tag k="addr:street" v="Cobb Road"/>
    <tag k="addr:state" v="VT"/>
    <tag k="ref:vcgi:esiteid" v="268834"/>
  </node>
  <node id="-527" visible="true" lat="44.44613772" lon="-72.20628331">
    <tag k="addr:housenumber" v="1106"/>
    <tag k="addr:street" v="Maple Lane"/>
    <tag k="addr:state" v="VT"/>
    <tag k="ref:vcgi:esiteid" v="268835"/>
  </node>
  <node id="-528" visible="true" lat="44.44623184" lon="-72.24609375">
    <tag k="addr:housenumber" v="285"/>
    <tag k="addr:street" v="North Pond Road"/>
    <tag k="addr:state" v="VT"/>
    <tag k="ref:vcgi:esiteid" v="268836"/>
  </node>
  <node id="-529" visible="true" lat="44.4460714" lon="-72.20156686">
    <tag k="addr:housenumber" v="1619"/>
    <tag k="addr:street" v="Cobb Road"/>
    <tag k="addr:state" v="VT"/>
    <tag k="ref:vcgi:esiteid" v="268837"/>
  </node>
  <node id="-530" visible="true" lat="44.44612772" lon="-72.2513119">
    <tag k="addr:housenumber" v="300"/>
    <tag k="addr:street" v="Lyford West Shore"/>
    <tag k="addr:state" v="VT"/>
    <tag k="ref:vcgi:esiteid" v="268839"/>
  </node>
  <node id="-531" visible="true" lat="44.44590058" lon="-72.2516532">
    <tag k="addr:housenumber" v="264"/>
    <tag k="addr:street" v="Lyford West Shore"/>
    <tag k="addr:state" v="VT"/>
    <tag k="ref:vcgi:esiteid" v="268841"/>
  </node>
  <node id="-532" visible="true" lat="44.44582748" lon="-72.24588012">
    <tag k="addr:housenumber" v="257"/>
    <tag k="addr:street" v="North Pond Road"/>
    <tag k="addr:state" v="VT"/>
    <tag k="ref:vcgi:esiteid" v="268842"/>
  </node>
  <node id="-533" visible="true" lat="44.44571572" lon="-72.25212922">
    <tag k="addr:housenumber" v="248"/>
    <tag k="addr:street" v="Lyford West Shore"/>
    <tag k="addr:state" v="VT"/>
    <tag k="ref:vcgi:esiteid" v="268843"/>
  </node>
  <node id="-534" visible="true" lat="44.44550621" lon="-72.24548836">
    <tag k="addr:housenumber" v="233"/>
    <tag k="addr:street" v="North Pond Road"/>
    <tag k="addr:state" v="VT"/>
    <tag k="ref:vcgi:esiteid" v="268844"/>
  </node>
  <node id="-535" visible="true" lat="44.4454036" lon="-72.24523307">
    <tag k="addr:housenumber" v="221"/>
    <tag k="addr:street" v="North Pond Road"/>
    <tag k="addr:state" v="VT"/>
    <tag k="ref:vcgi:esiteid" v="268846"/>
  </node>
  <node id="-536" visible="true" lat="44.44530293" lon="-72.25228436">
    <tag k="addr:housenumber" v="228"/>
    <tag k="addr:street" v="Lyford West Shore"/>
    <tag k="addr:state" v="VT"/>
    <tag k="ref:vcgi:esiteid" v="268847"/>
  </node>
  <node id="-537" visible="true" lat="44.44523859" lon="-72.24507516">
    <tag k="addr:housenumber" v="217"/>
    <tag k="addr:street" v="North Pond Road"/>
    <tag k="addr:state" v="VT"/>
    <tag k="ref:vcgi:esiteid" v="268848"/>
  </node>
  <node id="-538" visible="true" lat="44.44515907" lon="-72.24477121">
    <tag k="addr:housenumber" v="213"/>
    <tag k="addr:street" v="North Pond Road"/>
    <tag k="addr:state" v="VT"/>
    <tag k="ref:vcgi:esiteid" v="268849"/>
  </node>
  <node id="-539" visible="true" lat="44.44505968" lon="-72.25251156">
    <tag k="addr:housenumber" v="208"/>
    <tag k="addr:street" v="Lyford West Shore"/>
    <tag k="addr:state" v="VT"/>
    <tag k="ref:vcgi:esiteid" v="268850"/>
  </node>
  <node id="-541" visible="true" lat="44.44440297" lon="-72.21021211">
    <tag k="addr:housenumber" v="933"/>
    <tag k="addr:street" v="Maple Lane"/>
    <tag k="addr:state" v="VT"/>
    <tag k="ref:vcgi:esiteid" v="268852"/>
  </node>
  <node id="-543" visible="true" lat="44.44403762" lon="-72.26525297">
    <tag k="addr:housenumber" v="719"/>
    <tag k="addr:street" v="Route 215"/>
    <tag k="addr:state" v="VT"/>
    <tag k="ref:vcgi:esiteid" v="268854"/>
  </node>
  <node id="-545" visible="true" lat="44.44338712" lon="-72.21068247">
    <tag k="addr:housenumber" v="799"/>
    <tag k="addr:street" v="Maple Lane"/>
    <tag k="addr:state" v="VT"/>
    <tag k="ref:vcgi:esiteid" v="268858"/>
  </node>
  <node id="-547" visible="true" lat="44.44321999" lon="-72.21138846">
    <tag k="addr:housenumber" v="763"/>
    <tag k="addr:street" v="Maple Lane"/>
    <tag k="addr:state" v="VT"/>
    <tag k="ref:vcgi:esiteid" v="268860"/>
  </node>
  <node id="-549" visible="true" lat="44.44324332" lon="-72.26616065">
    <tag k="addr:housenumber" v="21"/>
    <tag k="addr:street" v="Rivers Lane"/>
    <tag k="addr:state" v="VT"/>
    <tag k="ref:vcgi:esiteid" v="268863"/>
  </node>
  <node id="-551" visible="true" lat="44.44254293" lon="-72.21506026">
    <tag k="addr:housenumber" v="668"/>
    <tag k="addr:street" v="Maple Lane"/>
    <tag k="addr:state" v="VT"/>
    <tag k="ref:vcgi:esiteid" v="268865"/>
  </node>
  <node id="-553" visible="true" lat="44.44252395" lon="-72.20629882">
    <tag k="addr:housenumber" v="918"/>
    <tag k="addr:street" v="Maple Lane"/>
    <tag k="addr:state" v="VT"/>
    <tag k="ref:vcgi:esiteid" v="268867"/>
  </node>
  <node id="-590" visible="true" lat="44.50775459" lon="-72.27526091">
    <tag k="addr:housenumber" v="132"/>
    <tag k="addr:street" v="Archery Acres"/>
    <tag k="addr:state" v="VT"/>
    <tag k="ref:vcgi:esiteid" v="268904"/>
  </node>
  <node id="-594" visible="true" lat="44.48978709" lon="-72.29329492">
    <tag k="addr:housenumber" v="120"/>
    <tag k="addr:street" v="Farr View Road"/>
    <tag k="addr:state" v="VT"/>
    <tag k="ref:vcgi:esiteid" v="268908"/>
  </node>
  <node id="-595" visible="true" lat="44.48860773" lon="-72.29289992">
    <tag k="addr:housenumber" v="94"/>
    <tag k="addr:street" v="Farr View Road"/>
    <tag k="addr:state" v="VT"/>
    <tag k="ref:vcgi:esiteid" v="268909"/>
  </node>
  <node id="-612" visible="true" lat="44.45948947" lon="-72.1981849">
    <tag k="addr:housenumber" v="168"/>
    <tag k="addr:street" v="Kittredge Lane"/>
    <tag k="addr:state" v="VT"/>
    <tag k="ref:vcgi:esiteid" v="268927"/>
  </node>
  <node id="-613" visible="true" lat="44.45847825" lon="-72.21042872">
    <tag k="addr:housenumber" v="561"/>
    <tag k="addr:street" v="Cobb Road"/>
    <tag k="addr:state" v="VT"/>
    <tag k="ref:vcgi:esiteid" v="268929"/>
  </node>
  <node id="-614" visible="true" lat="44.458525" lon="-72.19345367">
    <tag k="addr:housenumber" v="1536"/>
    <tag k="addr:street" v="Cahoon Farm Road"/>
    <tag k="addr:state" v="VT"/>
    <tag k="ref:vcgi:esiteid" v="268930"/>
  </node>
  <node id="-617" visible="true" lat="44.45888421" lon="-72.19544447">
    <tag k="addr:housenumber" v="1489"/>
    <tag k="addr:street" v="Cahoon Farm Road"/>
    <tag k="addr:state" v="VT"/>
    <tag k="ref:vcgi:esiteid" v="268933"/>
  </node>
  <node id="-631" visible="true" lat="44.44604684" lon="-72.24458282">
    <tag k="addr:housenumber" v="179"/>
    <tag k="addr:street" v="North Pond Road"/>
    <tag k="addr:state" v="VT"/>
    <tag k="ref:vcgi:esiteid" v="268948"/>
  </node>
  <node id="-634" visible="true" lat="44.49985652" lon="-72.2852687">
    <tag k="addr:housenumber" v="1928"/>
    <tag k="addr:street" v="Bayley Hazen Road"/>
    <tag k="addr:state" v="VT"/>
    <tag k="ref:vcgi:esiteid" v="268952"/>
  </node>
  <node id="-643" visible="true" lat="44.45894166" lon="-72.1973957">
    <tag k="addr:housenumber" v="96"/>
    <tag k="addr:street" v="Kittredge Lane"/>
    <tag k="addr:state" v="VT"/>
    <tag k="ref:vcgi:esiteid" v="268961"/>
  </node>
  <node id="-646" visible="true" lat="44.46037778" lon="-72.20220818">
    <tag k="addr:housenumber" v="334"/>
    <tag k="addr:street" v="Kittredge Lane"/>
    <tag k="addr:state" v="VT"/>
    <tag k="ref:vcgi:esiteid" v="268964"/>
  </node>
  <node id="-652" visible="true" lat="44.45977622" lon="-72.22157083">
    <tag k="addr:housenumber" v="725"/>
    <tag k="addr:street" v="Noyestar Road"/>
    <tag k="addr:state" v="VT"/>
    <tag k="ref:vcgi:esiteid" v="268972"/>
  </node>
  <node id="-654" visible="true" lat="44.4469756" lon="-72.24808694">
    <tag k="addr:housenumber" v="449"/>
    <tag k="addr:street" v="North Pond Road"/>
    <tag k="addr:state" v="VT"/>
    <tag k="ref:vcgi:esiteid" v="268974"/>
  </node>
  <node id="-658" visible="true" lat="44.48827005" lon="-72.2941062">
    <tag k="addr:housenumber" v="153"/>
    <tag k="addr:street" v="Farr View Road"/>
    <tag k="addr:state" v="VT"/>
    <tag k="ref:vcgi:esiteid" v="305857"/>
  </node>
  <node id="-670" visible="true" lat="44.5055894" lon="-72.27438761">
    <tag k="addr:housenumber" v="329"/>
    <tag k="addr:street" v="Archery Acres"/>
    <tag k="addr:state" v="VT"/>
    <tag k="ref:vcgi:esiteid" v="307085"/>
  </node>
  <node id="-673" visible="true" lat="44.50453673" lon="-72.27486607">
    <tag k="addr:housenumber" v="364"/>
    <tag k="addr:street" v="Archery Acres"/>
    <tag k="addr:state" v="VT"/>
    <tag k="ref:vcgi:esiteid" v="309986"/>
  </node>
  <node id="-679" visible="true" lat="44.44550238" lon="-72.19815559">
    <tag k="addr:housenumber" v="1867"/>
    <tag k="addr:street" v="Cobb Road"/>
    <tag k="addr:state" v="VT"/>
    <tag k="ref:vcgi:esiteid" v="313789"/>
  </node>
  <node id="-691" visible="true" lat="44.49537032" lon="-72.2935031">
    <tag k="addr:housenumber" v="1948"/>
    <tag k="addr:street" v="Mountain View Road"/>
    <tag k="addr:state" v="VT"/>
    <tag k="ref:vcgi:esiteid" v="328290"/>
  </node>
  <node id="-696" visible="true" lat="44.45256222" lon="-72.21617893">
    <tag k="addr:housenumber" v="281"/>
    <tag k="addr:street" v="Cahoon Farm Road"/>
    <tag k="addr:state" v="VT"/>
    <tag k="ref:vcgi:esiteid" v="331009"/>
  </node>
  <node id="-702" visible="true" lat="44.45192575" lon="-72.21116616">
    <tag k="addr:housenumber" v="546"/>
    <tag k="addr:street" v="Cahoon Farm Road"/>
    <tag k="addr:state" v="VT"/>
    <tag k="ref:vcgi:esiteid" v="332911"/>
  </node>
  <node id="-708" visible="true" lat="44.50580982" lon="-72.27552943">
    <tag k="addr:housenumber" v="228"/>
    <tag k="addr:street" v="Archery Acres"/>
    <tag k="addr:state" v="VT"/>
    <tag k="ref:vcgi:esiteid" v="336998"/>
  </node>
  <node id="-711" visible="true" lat="44.44777597" lon="-72.20024473">
    <tag k="addr:housenumber" v="1411"/>
    <tag k="addr:street" v="Cobb Road"/>
    <tag k="addr:state" v="VT"/>
    <tag k="ref:vcgi:esiteid" v="337019"/>
  </node>
  <node id="-713" visible="true" lat="44.4652183" lon="-72.21425848">
    <tag k="addr:housenumber" v="135"/>
    <tag k="addr:street" v="London Lane"/>
    <tag k="addr:state" v="VT"/>
    <tag k="ref:vcgi:esiteid" v="337410"/>
  </node>
  <node id="-715" visible="true" lat="44.44268166" lon="-72.26508657">
    <tag k="addr:housenumber" v="96"/>
    <tag k="addr:street" v="Rivers Lane"/>
    <tag k="addr:state" v="VT"/>
    <tag k="ref:vcgi:esiteid" v="337868"/>
  </node>
  <node id="-723" visible="true" lat="44.45495072" lon="-72.1963502">
    <tag k="addr:housenumber" v="1240"/>
    <tag k="addr:street" v="Cahoon Farm Road"/>
    <tag k="addr:state" v="VT"/>
    <tag k="ref:vcgi:esiteid" v="340225"/>
  </node>
  <node id="-730" visible="true" lat="44.45724816" lon="-72.21330682">
    <tag k="addr:housenumber" v="556"/>
    <tag k="addr:street" v="Cobb Road"/>
    <tag k="addr:state" v="VT"/>
    <tag k="ref:vcgi:esiteid" v="342849"/>
  </node>
  <node id="-737" visible="true" lat="44.49838989" lon="-72.28818404">
    <tag k="addr:housenumber" v="1749"/>
    <tag k="addr:street" v="Bayley Hazen Road"/>
    <tag k="addr:state" v="VT"/>
    <tag k="ref:vcgi:esiteid" v="365167"/>
  </node>
  <node id="-738" visible="true" lat="44.44573262" lon="-72.21993422">
    <tag k="addr:housenumber" v="114"/>
    <tag k="addr:street" v="Frost Lane"/>
    <tag k="addr:state" v="VT"/>
    <tag k="ref:vcgi:esiteid" v="448232"/>
  </node>
  <node id="-739" visible="true" lat="44.50075764" lon="-72.28742589">
    <tag k="addr:housenumber" v="67"/>
    <tag k="addr:street" v="Clark Place"/>
    <tag k="addr:state" v="VT"/>
    <tag k="ref:vcgi:esiteid" v="448233"/>
  </node>
  <node id="-740" visible="true" lat="44.44310795" lon="-72.19754146">
    <tag k="addr:housenumber" v="83"/>
    <tag k="addr:street" v="Heritage Farm Road"/>
    <tag k="addr:state" v="VT"/>
    <tag k="ref:vcgi:esiteid" v="448234"/>
  </node>
  <node id="-749" visible="true" lat="44.4439645" lon="-72.25265223">
    <tag k="addr:housenumber" v="63"/>
    <tag k="addr:street" v="Loon Lane"/>
    <tag k="addr:state" v="VT"/>
    <tag k="ref:vcgi:esiteid" v="452743"/>
  </node>
  <node id="-750" visible="true" lat="44.44376749" lon="-72.2522808">
    <tag k="addr:housenumber" v="73"/>
    <tag k="addr:street" v="Loon Lane"/>
    <tag k="addr:state" v="VT"/>
    <tag k="ref:vcgi:esiteid" v="452744"/>
  </node>
  <node id="-751" visible="true" lat="44.44415695" lon="-72.25268067">
    <tag k="addr:housenumber" v="39"/>
    <tag k="addr:street" v="Loon Lane"/>
    <tag k="addr:state" v="VT"/>
    <tag k="ref:vcgi:esiteid" v="452745"/>
  </node>
  <node id="-752" visible="true" lat="44.44453372" lon="-72.2524956">
    <tag k="addr:housenumber" v="7"/>
    <tag k="addr:street" v="Loon Lane"/>
    <tag k="addr:state" v="VT"/>
    <tag k="ref:vcgi:esiteid" v="452746"/>
  </node>
  <node id="-757" visible="true" lat="44.44891795" lon="-72.22788932">
    <tag k="addr:housenumber" v="133"/>
    <tag k="addr:street" v="Hillside Drive"/>
    <tag k="addr:state" v="VT"/>
    <tag k="ref:vcgi:esiteid" v="452790"/>
  </node>
  <node id="-759" visible="true" lat="44.44588712" lon="-72.20063082">
    <tag k="addr:housenumber" v="1667"/>
    <tag k="addr:street" v="Cobb Road"/>
    <tag k="addr:state" v="VT"/>
    <tag k="ref:vcgi:esiteid" v="453203"/>
  </node>
  <node id="-762" visible="true" lat="44.45477914" lon="-72.19701823">
    <tag k="addr:housenumber" v="1238"/>
    <tag k="addr:street" v="Cahoon Farm Road"/>
    <tag k="addr:state" v="VT"/>
    <tag k="ref:vcgi:esiteid" v="610964"/>
  </node>
</osm>
