<?xml version="1.0" encoding="UTF-8"?>
<osm version="0.6" generator="JOSM">
  <node id="-225" visible="true" lat="43.47592926" lon="-72.97585296">
    <tag k="addr:city" v="Wallingford"/>
    <tag k="addr:housenumber" v="36"/>
    <tag k="addr:street" v="Nash Drive"/>
    <tag k="addr:state" v="VT"/>
    <tag k="ref:vcgi:esiteid" v="269106"/>
  </node>
  <node id="-227" visible="true" lat="43.475914" lon="-72.97550964">
    <tag k="addr:city" v="Wallingford"/>
    <tag k="addr:housenumber" v="50"/>
    <tag k="addr:street" v="Nash Drive"/>
    <tag k="addr:state" v="VT"/>
    <tag k="ref:vcgi:esiteid" v="269108"/>
  </node>
  <node id="-232" visible="true" lat="43.47591476" lon="-72.97627689">
    <tag k="addr:city" v="Wallingford"/>
    <tag k="addr:housenumber" v="14"/>
    <tag k="addr:street" v="Nash Drive"/>
    <tag k="addr:state" v="VT"/>
    <tag k="ref:vcgi:esiteid" v="269113"/>
  </node>
  <node id="-234" visible="true" lat="43.47588449" lon="-72.97512911">
    <tag k="addr:city" v="Wallingford"/>
    <tag k="addr:housenumber" v="80"/>
    <tag k="addr:street" v="Nash Drive"/>
    <tag k="addr:state" v="VT"/>
    <tag k="ref:vcgi:esiteid" v="269115"/>
  </node>
  <node id="-238" visible="true" lat="43.47564315" lon="-72.97750854">
    <tag k="addr:city" v="Wallingford"/>
    <tag k="addr:housenumber" v="44"/>
    <tag k="addr:street" v="Franklin Street"/>
    <tag k="addr:state" v="VT"/>
    <tag k="ref:vcgi:esiteid" v="269119"/>
  </node>
  <node id="-239" visible="true" lat="43.47569505" lon="-72.97796671">
    <tag k="addr:city" v="Wallingford"/>
    <tag k="addr:housenumber" v="68"/>
    <tag k="addr:street" v="Franklin Street"/>
    <tag k="addr:state" v="VT"/>
    <tag k="ref:vcgi:esiteid" v="269120"/>
  </node>
  <node id="-240" visible="true" lat="43.4756874" lon="-72.97775379">
    <tag k="addr:city" v="Wallingford"/>
    <tag k="addr:housenumber" v="58"/>
    <tag k="addr:street" v="Franklin Street"/>
    <tag k="addr:state" v="VT"/>
    <tag k="ref:vcgi:esiteid" v="269121"/>
  </node>
  <node id="-243" visible="true" lat="43.4756608" lon="-72.97731224">
    <tag k="addr:city" v="Wallingford"/>
    <tag k="addr:housenumber" v="34"/>
    <tag k="addr:street" v="Franklin Street"/>
    <tag k="addr:state" v="VT"/>
    <tag k="ref:vcgi:esiteid" v="269124"/>
  </node>
  <node id="-248" visible="true" lat="43.47537465" lon="-72.97772399">
    <tag k="addr:city" v="Wallingford"/>
    <tag k="addr:housenumber" v="55"/>
    <tag k="addr:street" v="Franklin Street"/>
    <tag k="addr:state" v="VT"/>
    <tag k="ref:vcgi:esiteid" v="269130"/>
  </node>
  <node id="-251" visible="true" lat="43.4755046" lon="-72.97551152">
    <tag k="addr:city" v="Wallingford"/>
    <tag k="addr:housenumber" v="59"/>
    <tag k="addr:street" v="Meacham Street"/>
    <tag k="addr:state" v="VT"/>
    <tag k="ref:vcgi:esiteid" v="269133"/>
  </node>
  <node id="-253" visible="true" lat="43.47551302" lon="-72.97523251">
    <tag k="addr:city" v="Wallingford"/>
    <tag k="addr:housenumber" v="69"/>
    <tag k="addr:street" v="Meacham Street"/>
    <tag k="addr:state" v="VT"/>
    <tag k="ref:vcgi:esiteid" v="269135"/>
  </node>
  <node id="-254" visible="true" lat="43.47535998" lon="-72.97749149">
    <tag k="addr:city" v="Wallingford"/>
    <tag k="addr:housenumber" v="41"/>
    <tag k="addr:street" v="Franklin Street"/>
    <tag k="addr:state" v="VT"/>
    <tag k="ref:vcgi:esiteid" v="269136"/>
  </node>
  <node id="-258" visible="true" lat="43.47532577" lon="-72.97819033">
    <tag k="addr:city" v="Wallingford"/>
    <tag k="addr:housenumber" v="250"/>
    <tag k="addr:street" v="Railroad Street"/>
    <tag k="addr:state" v="VT"/>
    <tag k="ref:vcgi:esiteid" v="269140"/>
  </node>
  <node id="-259" visible="true" lat="43.47529424" lon="-72.97722929">
    <tag k="addr:city" v="Wallingford"/>
    <tag k="addr:housenumber" v="25"/>
    <tag k="addr:street" v="Franklin Street"/>
    <tag k="addr:state" v="VT"/>
    <tag k="ref:vcgi:esiteid" v="269141"/>
  </node>
  <node id="-262" visible="true" lat="43.47521209" lon="-72.97733306">
    <tag k="addr:city" v="Wallingford"/>
    <tag k="addr:housenumber" v="35"/>
    <tag k="addr:street" v="Franklin Street"/>
    <tag k="addr:state" v="VT"/>
    <tag k="ref:vcgi:esiteid" v="269145"/>
  </node>
  <node id="-264" visible="true" lat="43.47525466" lon="-72.97566668">
    <tag k="addr:city" v="Wallingford"/>
    <tag k="addr:housenumber" v="48"/>
    <tag k="addr:street" v="Meacham Street"/>
    <tag k="addr:state" v="VT"/>
    <tag k="ref:vcgi:esiteid" v="269148"/>
  </node>
  <node id="-265" visible="true" lat="43.475238" lon="-72.97533626">
    <tag k="addr:city" v="Wallingford"/>
    <tag k="addr:housenumber" v="70"/>
    <tag k="addr:street" v="Meacham Street"/>
    <tag k="addr:state" v="VT"/>
    <tag k="ref:vcgi:esiteid" v="269150"/>
  </node>
  <node id="-266" visible="true" lat="43.47512817" lon="-72.97494506">
    <tag k="addr:city" v="Wallingford"/>
    <tag k="addr:housenumber" v="86"/>
    <tag k="addr:street" v="Meacham Street"/>
    <tag k="addr:state" v="VT"/>
    <tag k="ref:vcgi:esiteid" v="269151"/>
  </node>
  <node id="-267" visible="true" lat="43.47508159" lon="-72.97837738">
    <tag k="addr:city" v="Wallingford"/>
    <tag k="addr:housenumber" v="226"/>
    <tag k="addr:street" v="Railroad Street"/>
    <tag k="addr:state" v="VT"/>
    <tag k="ref:vcgi:esiteid" v="269152"/>
  </node>
  <node id="-273" visible="true" lat="43.47488967" lon="-72.97845405">
    <tag k="addr:city" v="Wallingford"/>
    <tag k="addr:housenumber" v="210"/>
    <tag k="addr:street" v="Railroad Street"/>
    <tag k="addr:state" v="VT"/>
    <tag k="ref:vcgi:esiteid" v="269158"/>
  </node>
  <node id="-277" visible="true" lat="43.474705" lon="-72.97700008">
    <tag k="addr:city" v="Wallingford"/>
    <tag k="addr:housenumber" v="209"/>
    <tag k="addr:street" v="North Main Street"/>
    <tag k="addr:state" v="VT"/>
    <tag k="ref:vcgi:esiteid" v="269163"/>
  </node>
  <node id="-281" visible="true" lat="43.47452924" lon="-72.97653592">
    <tag k="addr:city" v="Wallingford"/>
    <tag k="addr:housenumber" v="212"/>
    <tag k="addr:street" v="North Main Street"/>
    <tag k="addr:state" v="VT"/>
    <tag k="ref:vcgi:esiteid" v="269167"/>
  </node>
  <node id="-284" visible="true" lat="43.47454233" lon="-72.97867609">
    <tag k="addr:city" v="Wallingford"/>
    <tag k="addr:housenumber" v="184"/>
    <tag k="addr:street" v="Railroad Street"/>
    <tag k="addr:state" v="VT"/>
    <tag k="ref:vcgi:esiteid" v="269170"/>
  </node>
  <node id="-288" visible="true" lat="43.47445459" lon="-72.97873713">
    <tag k="addr:city" v="Wallingford"/>
    <tag k="addr:housenumber" v="176"/>
    <tag k="addr:street" v="Railroad Street"/>
    <tag k="addr:state" v="VT"/>
    <tag k="ref:vcgi:esiteid" v="269174"/>
  </node>
  <node id="-290" visible="true" lat="43.47444399" lon="-72.97703826">
    <tag k="addr:city" v="Wallingford"/>
    <tag k="addr:housenumber" v="187"/>
    <tag k="addr:street" v="North Main Street"/>
    <tag k="addr:state" v="VT"/>
    <tag k="ref:vcgi:esiteid" v="269176"/>
  </node>
  <node id="-294" visible="true" lat="43.47425484" lon="-72.97881069">
    <tag k="addr:city" v="Wallingford"/>
    <tag k="addr:housenumber" v="164"/>
    <tag k="addr:street" v="Railroad Street"/>
    <tag k="addr:state" v="VT"/>
    <tag k="ref:vcgi:esiteid" v="269180"/>
  </node>
  <node id="-303" visible="true" lat="43.47409422" lon="-72.97711834">
    <tag k="addr:city" v="Wallingford"/>
    <tag k="addr:housenumber" v="167"/>
    <tag k="addr:street" v="North Main Street"/>
    <tag k="addr:state" v="VT"/>
    <tag k="ref:vcgi:esiteid" v="269190"/>
  </node>
  <node id="-304" visible="true" lat="43.47408756" lon="-72.97886986">
    <tag k="addr:city" v="Wallingford"/>
    <tag k="addr:housenumber" v="150"/>
    <tag k="addr:street" v="Railroad Street"/>
    <tag k="addr:state" v="VT"/>
    <tag k="ref:vcgi:esiteid" v="269192"/>
  </node>
  <node id="-308" visible="true" lat="43.47396004" lon="-72.97787527">
    <tag k="addr:city" v="Wallingford"/>
    <tag k="addr:housenumber" v="48"/>
    <tag k="addr:street" v="Elm Street"/>
    <tag k="addr:state" v="VT"/>
    <tag k="ref:vcgi:esiteid" v="269196"/>
  </node>
  <node id="-309" visible="true" lat="43.47386932" lon="-72.9773178">
    <tag k="addr:city" v="Wallingford"/>
    <tag k="addr:housenumber" v="149"/>
    <tag k="addr:street" v="North Main Street"/>
    <tag k="addr:state" v="VT"/>
    <tag k="ref:vcgi:esiteid" v="269197"/>
  </node>
  <node id="-312" visible="true" lat="43.4739292" lon="-72.97853523">
    <tag k="addr:city" v="Wallingford"/>
    <tag k="addr:housenumber" v="78"/>
    <tag k="addr:street" v="Elm Street"/>
    <tag k="addr:state" v="VT"/>
    <tag k="ref:vcgi:esiteid" v="269200"/>
  </node>
  <node id="-313" visible="true" lat="43.47379684" lon="-72.97611236">
    <tag k="addr:city" v="Wallingford"/>
    <tag k="addr:housenumber" v="38"/>
    <tag k="addr:street" v="Hull Avenue"/>
    <tag k="addr:state" v="VT"/>
    <tag k="ref:vcgi:esiteid" v="269201"/>
  </node>
  <node id="-317" visible="true" lat="43.47385826" lon="-72.97582893">
    <tag k="addr:city" v="Wallingford"/>
    <tag k="addr:housenumber" v="52"/>
    <tag k="addr:street" v="Hull Avenue"/>
    <tag k="addr:state" v="VT"/>
    <tag k="ref:vcgi:esiteid" v="269205"/>
  </node>
  <node id="-323" visible="true" lat="43.47364152" lon="-72.97782277">
    <tag k="addr:city" v="Wallingford"/>
    <tag k="addr:housenumber" v="38"/>
    <tag k="addr:street" v="Elm Street"/>
    <tag k="addr:state" v="VT"/>
    <tag k="ref:vcgi:esiteid" v="269211"/>
  </node>
  <node id="-324" visible="true" lat="43.47372194" lon="-72.97903249">
    <tag k="addr:city" v="Wallingford"/>
    <tag k="addr:housenumber" v="108"/>
    <tag k="addr:street" v="Elm Street"/>
    <tag k="addr:state" v="VT"/>
    <tag k="ref:vcgi:esiteid" v="269212"/>
  </node>
  <node id="-325" visible="true" lat="43.4736737" lon="-72.97764896">
    <tag k="addr:city" v="Wallingford"/>
    <tag k="addr:housenumber" v="30"/>
    <tag k="addr:street" v="Elm Street"/>
    <tag k="addr:state" v="VT"/>
    <tag k="ref:vcgi:esiteid" v="269213"/>
  </node>
  <node id="-326" visible="true" lat="43.47369143" lon="-72.97815185">
    <tag k="addr:city" v="Wallingford"/>
    <tag k="addr:housenumber" v="58"/>
    <tag k="addr:street" v="Elm Street"/>
    <tag k="addr:state" v="VT"/>
    <tag k="ref:vcgi:esiteid" v="269214"/>
  </node>
  <node id="-327" visible="true" lat="43.47368146" lon="-72.97849219">
    <tag k="addr:city" v="Wallingford"/>
    <tag k="addr:housenumber" v="72"/>
    <tag k="addr:street" v="Elm Street"/>
    <tag k="addr:state" v="VT"/>
    <tag k="ref:vcgi:esiteid" v="269215"/>
  </node>
  <node id="-328" visible="true" lat="43.47368888" lon="-72.97876224">
    <tag k="addr:city" v="Wallingford"/>
    <tag k="addr:housenumber" v="88"/>
    <tag k="addr:street" v="Elm Street"/>
    <tag k="addr:state" v="VT"/>
    <tag k="ref:vcgi:esiteid" v="269216"/>
  </node>
  <node id="-330" visible="true" lat="43.47351369" lon="-72.97670071">
    <tag k="addr:city" v="Wallingford"/>
    <tag k="addr:housenumber" v="128"/>
    <tag k="addr:street" v="North Main Street"/>
    <tag k="addr:state" v="VT"/>
    <tag k="ref:vcgi:esiteid" v="269219"/>
  </node>
  <node id="-333" visible="true" lat="43.47335446" lon="-72.9786683">
    <tag k="addr:city" v="Wallingford"/>
    <tag k="addr:housenumber" v="85"/>
    <tag k="addr:street" v="Elm Street"/>
    <tag k="addr:state" v="VT"/>
    <tag k="ref:vcgi:esiteid" v="269222"/>
  </node>
  <node id="-334" visible="true" lat="43.47340774" lon="-72.97838592">
    <tag k="addr:city" v="Wallingford"/>
    <tag k="addr:housenumber" v="69"/>
    <tag k="addr:street" v="Elm Street"/>
    <tag k="addr:state" v="VT"/>
    <tag k="ref:vcgi:esiteid" v="269223"/>
  </node>
  <node id="-336" visible="true" lat="43.47336578" lon="-72.97917938">
    <tag k="addr:city" v="Wallingford"/>
    <tag k="addr:housenumber" v="111"/>
    <tag k="addr:street" v="Elm Street"/>
    <tag k="addr:state" v="VT"/>
    <tag k="ref:vcgi:esiteid" v="269226"/>
  </node>
  <node id="-337" visible="true" lat="43.47328961" lon="-72.97882089">
    <tag k="addr:city" v="Wallingford"/>
    <tag k="addr:housenumber" v="91"/>
    <tag k="addr:street" v="Elm Street"/>
    <tag k="addr:state" v="VT"/>
    <tag k="ref:vcgi:esiteid" v="269227"/>
  </node>
  <node id="-338" visible="true" lat="43.47329777" lon="-72.97722725">
    <tag k="addr:city" v="Wallingford"/>
    <tag k="addr:housenumber" v="113"/>
    <tag k="addr:street" v="North Main Street"/>
    <tag k="addr:state" v="VT"/>
    <tag k="ref:vcgi:esiteid" v="269228"/>
  </node>
  <node id="-340" visible="true" lat="43.47321862" lon="-72.97673361">
    <tag k="addr:city" v="Wallingford"/>
    <tag k="addr:housenumber" v="112"/>
    <tag k="addr:street" v="North Main Street"/>
    <tag k="addr:state" v="VT"/>
    <tag k="ref:vcgi:esiteid" v="269230"/>
  </node>
  <node id="-349" visible="true" lat="43.47307924" lon="-72.97735466">
    <tag k="addr:city" v="Wallingford"/>
    <tag k="addr:housenumber" v="99"/>
    <tag k="addr:street" v="North Main Street"/>
    <tag k="addr:state" v="VT"/>
    <tag k="ref:vcgi:esiteid" v="269239"/>
  </node>
  <node id="-350" visible="true" lat="43.47303504" lon="-72.97667934">
    <tag k="addr:city" v="Wallingford"/>
    <tag k="addr:housenumber" v="96"/>
    <tag k="addr:street" v="North Main Street"/>
    <tag k="addr:state" v="VT"/>
    <tag k="ref:vcgi:esiteid" v="269240"/>
  </node>
  <node id="-351" visible="true" lat="43.47306979" lon="-72.97910448">
    <tag k="addr:city" v="Wallingford"/>
    <tag k="addr:housenumber" v="76"/>
    <tag k="addr:street" v="Railroad Street"/>
    <tag k="addr:state" v="VT"/>
    <tag k="ref:vcgi:esiteid" v="269241"/>
  </node>
  <node id="-357" visible="true" lat="43.47288131" lon="-72.97824096">
    <tag k="addr:city" v="Wallingford"/>
    <tag k="addr:housenumber" v="59"/>
    <tag k="addr:street" v="Elm Street"/>
    <tag k="addr:state" v="VT"/>
    <tag k="ref:vcgi:esiteid" v="269247"/>
  </node>
  <node id="-360" visible="true" lat="43.47284015" lon="-72.97728822">
    <tag k="addr:city" v="Wallingford"/>
    <tag k="addr:housenumber" v="79"/>
    <tag k="addr:street" v="North Main Street"/>
    <tag k="addr:state" v="VT"/>
    <tag k="ref:vcgi:esiteid" v="269250"/>
  </node>
  <node id="-361" visible="true" lat="43.47278066" lon="-72.97861735">
    <tag k="addr:city" v="Wallingford"/>
    <tag k="addr:housenumber" v="62"/>
    <tag k="addr:street" v="Railroad Street"/>
    <tag k="addr:state" v="VT"/>
    <tag k="ref:vcgi:esiteid" v="269251"/>
  </node>
  <node id="-362" visible="true" lat="43.47275151" lon="-72.97907167">
    <tag k="addr:city" v="Wallingford"/>
    <tag k="addr:housenumber" v="60"/>
    <tag k="addr:street" v="Railroad Street"/>
    <tag k="addr:state" v="VT"/>
    <tag k="ref:vcgi:esiteid" v="269252"/>
  </node>
  <node id="-364" visible="true" lat="43.47276306" lon="-72.97429656">
    <tag k="addr:city" v="Wallingford"/>
    <tag k="addr:housenumber" v="103"/>
    <tag k="addr:street" v="Prospect Street"/>
    <tag k="addr:state" v="VT"/>
    <tag k="ref:vcgi:esiteid" v="269256"/>
  </node>
  <node id="-366" visible="true" lat="43.47270125" lon="-72.97677063">
    <tag k="addr:city" v="Wallingford"/>
    <tag k="addr:housenumber" v="74"/>
    <tag k="addr:street" v="North Main Street"/>
    <tag k="addr:state" v="VT"/>
    <tag k="ref:vcgi:esiteid" v="269258"/>
  </node>
  <node id="-372" visible="true" lat="43.47269832" lon="-72.97370889">
    <tag k="addr:city" v="Wallingford"/>
    <tag k="addr:housenumber" v="96"/>
    <tag k="addr:street" v="Prospect Street"/>
    <tag k="addr:state" v="VT"/>
    <tag k="ref:vcgi:esiteid" v="269265"/>
  </node>
  <node id="-377" visible="true" lat="43.47244494" lon="-72.97743302">
    <tag k="addr:city" v="Wallingford"/>
    <tag k="addr:housenumber" v="55"/>
    <tag k="addr:street" v="North Main Street"/>
    <tag k="addr:state" v="VT"/>
    <tag k="ref:vcgi:esiteid" v="269270"/>
  </node>
  <node id="-378" visible="true" lat="43.47250747" lon="-72.97306823">
    <tag k="addr:city" v="Wallingford"/>
    <tag k="addr:housenumber" v="71"/>
    <tag k="addr:street" v="Hillside Road"/>
    <tag k="addr:state" v="VT"/>
    <tag k="ref:vcgi:esiteid" v="269271"/>
  </node>
  <node id="-388" visible="true" lat="43.47244375" lon="-72.97437578">
    <tag k="addr:city" v="Wallingford"/>
    <tag k="addr:housenumber" v="63"/>
    <tag k="addr:street" v="Prospect Street"/>
    <tag k="addr:state" v="VT"/>
    <tag k="ref:vcgi:esiteid" v="269281"/>
  </node>
  <node id="-389" visible="true" lat="43.4720489" lon="-72.9773982">
    <tag k="addr:city" v="Wallingford"/>
    <tag k="addr:housenumber" v="27"/>
    <tag k="addr:street" v="North Main Street"/>
    <tag k="addr:state" v="VT"/>
    <tag k="ref:vcgi:esiteid" v="269282"/>
  </node>
  <node id="-393" visible="true" lat="43.47206031" lon="-72.97842436">
    <tag k="addr:city" v="Wallingford"/>
    <tag k="addr:housenumber" v="60"/>
    <tag k="addr:street" v="Depot Street"/>
    <tag k="addr:state" v="VT"/>
    <tag k="ref:vcgi:esiteid" v="269286"/>
  </node>
  <node id="-394" visible="true" lat="43.47220071" lon="-72.97399973">
    <tag k="addr:city" v="Wallingford"/>
    <tag k="addr:housenumber" v="56"/>
    <tag k="addr:street" v="Prospect Street"/>
    <tag k="addr:state" v="VT"/>
    <tag k="ref:vcgi:esiteid" v="269287"/>
  </node>
  <node id="-395" visible="true" lat="43.47222418" lon="-72.97502119">
    <tag k="addr:city" v="Wallingford"/>
    <tag k="addr:housenumber" v="44"/>
    <tag k="addr:street" v="Taft Terrace"/>
    <tag k="addr:state" v="VT"/>
    <tag k="ref:vcgi:esiteid" v="269288"/>
  </node>
  <node id="-396" visible="true" lat="43.47206371" lon="-72.97860851">
    <tag k="addr:city" v="Wallingford"/>
    <tag k="addr:housenumber" v="68"/>
    <tag k="addr:street" v="Depot Street"/>
    <tag k="addr:state" v="VT"/>
    <tag k="ref:vcgi:esiteid" v="269289"/>
  </node>
  <node id="-397" visible="true" lat="43.47208015" lon="-72.97879796">
    <tag k="addr:city" v="Wallingford"/>
    <tag k="addr:housenumber" v="76"/>
    <tag k="addr:street" v="Depot Street"/>
    <tag k="addr:state" v="VT"/>
    <tag k="ref:vcgi:esiteid" v="269290"/>
  </node>
  <node id="-398" visible="true" lat="43.47203751" lon="-72.97807566">
    <tag k="addr:city" v="Wallingford"/>
    <tag k="addr:housenumber" v="42"/>
    <tag k="addr:street" v="Depot Street"/>
    <tag k="addr:state" v="VT"/>
    <tag k="ref:vcgi:esiteid" v="269292"/>
  </node>
  <node id="-405" visible="true" lat="43.47191128" lon="-72.97326306">
    <tag k="addr:city" v="Wallingford"/>
    <tag k="addr:housenumber" v="49"/>
    <tag k="addr:street" v="Hillside Road"/>
    <tag k="addr:state" v="VT"/>
    <tag k="ref:vcgi:esiteid" v="269300"/>
  </node>
  <node id="-406" visible="true" lat="43.4719344" lon="-72.97521278">
    <tag k="addr:city" v="Wallingford"/>
    <tag k="addr:housenumber" v="30"/>
    <tag k="addr:street" v="Taft Terrace"/>
    <tag k="addr:state" v="VT"/>
    <tag k="ref:vcgi:esiteid" v="269301"/>
  </node>
  <node id="-410" visible="true" lat="43.47186747" lon="-72.9745641">
    <tag k="addr:city" v="Wallingford"/>
    <tag k="addr:housenumber" v="33"/>
    <tag k="addr:street" v="Prospect Street"/>
    <tag k="addr:state" v="VT"/>
    <tag k="ref:vcgi:esiteid" v="269306"/>
  </node>
  <node id="-417" visible="true" lat="43.47158813" lon="-72.97509002">
    <tag k="addr:city" v="Wallingford"/>
    <tag k="addr:housenumber" v="109"/>
    <tag k="addr:street" v="School Street"/>
    <tag k="addr:state" v="VT"/>
    <tag k="ref:vcgi:esiteid" v="269315"/>
  </node>
  <node id="-418" visible="true" lat="43.47164768" lon="-72.97253733">
    <tag k="addr:city" v="Wallingford"/>
    <tag k="addr:housenumber" v="40"/>
    <tag k="addr:street" v="Hillside Road"/>
    <tag k="addr:state" v="VT"/>
    <tag k="ref:vcgi:esiteid" v="269316"/>
  </node>
  <node id="-420" visible="true" lat="43.47153809" lon="-72.97467013">
    <tag k="addr:city" v="Wallingford"/>
    <tag k="addr:housenumber" v="135"/>
    <tag k="addr:street" v="School Street"/>
    <tag k="addr:state" v="VT"/>
    <tag k="ref:vcgi:esiteid" v="269318"/>
  </node>
  <node id="-421" visible="true" lat="43.47154919" lon="-72.97759804">
    <tag k="addr:city" v="Wallingford"/>
    <tag k="addr:housenumber" v="14"/>
    <tag k="addr:street" v="South Main Street"/>
    <tag k="addr:state" v="VT"/>
    <tag k="ref:vcgi:esiteid" v="269319"/>
  </node>
  <node id="-423" visible="true" lat="43.47160794" lon="-72.97419641">
    <tag k="addr:city" v="Wallingford"/>
    <tag k="addr:housenumber" v="12"/>
    <tag k="addr:street" v="Prospect Street"/>
    <tag k="addr:state" v="VT"/>
    <tag k="ref:vcgi:esiteid" v="269321"/>
  </node>
  <node id="-426" visible="true" lat="43.47127149" lon="-72.97697052">
    <tag k="addr:city" v="Wallingford"/>
    <tag k="addr:housenumber" v="19"/>
    <tag k="addr:street" v="South Main Street"/>
    <tag k="addr:state" v="VT"/>
    <tag k="ref:vcgi:esiteid" v="269324"/>
  </node>
  <node id="-429" visible="true" lat="43.47137225" lon="-72.97356856">
    <tag k="addr:city" v="Wallingford"/>
    <tag k="addr:housenumber" v="179"/>
    <tag k="addr:street" v="School Street"/>
    <tag k="addr:state" v="VT"/>
    <tag k="ref:vcgi:esiteid" v="269327"/>
  </node>
  <node id="-430" visible="true" lat="43.47144227" lon="-72.97424661">
    <tag k="addr:city" v="Wallingford"/>
    <tag k="addr:housenumber" v="145"/>
    <tag k="addr:street" v="School Street"/>
    <tag k="addr:state" v="VT"/>
    <tag k="ref:vcgi:esiteid" v="269328"/>
  </node>
  <node id="-432" visible="true" lat="43.47140171" lon="-72.97396593">
    <tag k="addr:city" v="Wallingford"/>
    <tag k="addr:housenumber" v="167"/>
    <tag k="addr:street" v="School Street"/>
    <tag k="addr:state" v="VT"/>
    <tag k="ref:vcgi:esiteid" v="269331"/>
  </node>
  <node id="-433" visible="true" lat="43.47128264" lon="-72.9775449">
    <tag k="addr:city" v="Wallingford"/>
    <tag k="addr:housenumber" v="28"/>
    <tag k="addr:street" v="South Main Street"/>
    <tag k="addr:state" v="VT"/>
    <tag k="ref:vcgi:esiteid" v="269332"/>
  </node>
  <node id="-434" visible="true" lat="43.47151577" lon="-72.97487959">
    <tag k="addr:city" v="Wallingford"/>
    <tag k="addr:housenumber" v="127"/>
    <tag k="addr:street" v="School Street"/>
    <tag k="addr:state" v="VT"/>
    <tag k="ref:vcgi:esiteid" v="269334"/>
  </node>
  <node id="-435" visible="true" lat="43.47124618" lon="-72.97551451">
    <tag k="addr:city" v="Wallingford"/>
    <tag k="addr:housenumber" v="94"/>
    <tag k="addr:street" v="School Street"/>
    <tag k="addr:state" v="VT"/>
    <tag k="ref:vcgi:esiteid" v="269335"/>
  </node>
  <node id="-436" visible="true" lat="43.47131363" lon="-72.9758477">
    <tag k="addr:city" v="Wallingford"/>
    <tag k="addr:housenumber" v="82"/>
    <tag k="addr:street" v="School Street"/>
    <tag k="addr:state" v="VT"/>
    <tag k="ref:vcgi:esiteid" v="269336"/>
  </node>
  <node id="-438" visible="true" lat="43.47105323" lon="-72.97958628">
    <tag k="addr:city" v="Wallingford"/>
    <tag k="addr:housenumber" v="123"/>
    <tag k="addr:street" v="Florence Avenue"/>
    <tag k="addr:state" v="VT"/>
    <tag k="ref:vcgi:esiteid" v="269338"/>
  </node>
  <node id="-439" visible="true" lat="43.4711035" lon="-72.97694888">
    <tag k="addr:city" v="Wallingford"/>
    <tag k="addr:housenumber" v="37"/>
    <tag k="addr:street" v="South Main Street"/>
    <tag k="addr:state" v="VT"/>
    <tag k="ref:vcgi:esiteid" v="269339"/>
  </node>
  <node id="-440" visible="true" lat="43.47116947" lon="-72.97755783">
    <tag k="addr:city" v="Wallingford"/>
    <tag k="addr:housenumber" v="40"/>
    <tag k="addr:street" v="South Main Street"/>
    <tag k="addr:state" v="VT"/>
    <tag k="ref:vcgi:esiteid" v="269340"/>
  </node>
  <node id="-442" visible="true" lat="43.47108311" lon="-72.97234032">
    <tag k="addr:city" v="Wallingford"/>
    <tag k="addr:housenumber" v="253"/>
    <tag k="addr:street" v="School Street"/>
    <tag k="addr:state" v="VT"/>
    <tag k="ref:vcgi:esiteid" v="269342"/>
  </node>
  <node id="-443" visible="true" lat="43.47109201" lon="-72.97622968">
    <tag k="addr:city" v="Wallingford"/>
    <tag k="addr:housenumber" v="64"/>
    <tag k="addr:street" v="School Street"/>
    <tag k="addr:state" v="VT"/>
    <tag k="ref:vcgi:esiteid" v="269343"/>
  </node>
  <node id="-445" visible="true" lat="43.47092735" lon="-72.9793574">
    <tag k="addr:city" v="Wallingford"/>
    <tag k="addr:housenumber" v="109"/>
    <tag k="addr:street" v="Florence Avenue"/>
    <tag k="addr:state" v="VT"/>
    <tag k="ref:vcgi:esiteid" v="269345"/>
  </node>
  <node id="-446" visible="true" lat="43.47093789" lon="-72.97453247">
    <tag k="addr:city" v="Wallingford"/>
    <tag k="addr:housenumber" v="150"/>
    <tag k="addr:street" v="School Street"/>
    <tag k="addr:state" v="VT"/>
    <tag k="ref:vcgi:esiteid" v="269346"/>
  </node>
  <node id="-448" visible="true" lat="43.4708074" lon="-72.97908858">
    <tag k="addr:city" v="Wallingford"/>
    <tag k="addr:housenumber" v="91"/>
    <tag k="addr:street" v="Florence Avenue"/>
    <tag k="addr:state" v="VT"/>
    <tag k="ref:vcgi:esiteid" v="269348"/>
  </node>
  <node id="-449" visible="true" lat="43.47097794" lon="-72.97754367">
    <tag k="addr:city" v="Wallingford"/>
    <tag k="addr:housenumber" v="52"/>
    <tag k="addr:street" v="South Main Street"/>
    <tag k="addr:state" v="VT"/>
    <tag k="ref:vcgi:esiteid" v="269349"/>
  </node>
  <node id="-455" visible="true" lat="43.47090627" lon="-72.97329452">
    <tag k="addr:city" v="Wallingford"/>
    <tag k="addr:housenumber" v="206"/>
    <tag k="addr:street" v="School Street"/>
    <tag k="addr:state" v="VT"/>
    <tag k="ref:vcgi:esiteid" v="269355"/>
  </node>
  <node id="-456" visible="true" lat="43.47085753" lon="-72.97708076">
    <tag k="addr:city" v="Wallingford"/>
    <tag k="addr:housenumber" v="57"/>
    <tag k="addr:street" v="South Main Street"/>
    <tag k="addr:state" v="VT"/>
    <tag k="ref:vcgi:esiteid" v="269356"/>
  </node>
  <node id="-457" visible="true" lat="43.47083166" lon="-72.9775831">
    <tag k="addr:city" v="Wallingford"/>
    <tag k="addr:housenumber" v="60"/>
    <tag k="addr:street" v="South Main Street"/>
    <tag k="addr:state" v="VT"/>
    <tag k="ref:vcgi:esiteid" v="269357"/>
  </node>
  <node id="-460" visible="true" lat="43.47084566" lon="-72.97294645">
    <tag k="addr:city" v="Wallingford"/>
    <tag k="addr:housenumber" v="224"/>
    <tag k="addr:street" v="School Street"/>
    <tag k="addr:state" v="VT"/>
    <tag k="ref:vcgi:esiteid" v="269360"/>
  </node>
  <node id="-463" visible="true" lat="43.47073546" lon="-72.97707313">
    <tag k="addr:city" v="Wallingford"/>
    <tag k="addr:housenumber" v="65"/>
    <tag k="addr:street" v="South Main Street"/>
    <tag k="addr:state" v="VT"/>
    <tag k="ref:vcgi:esiteid" v="269363"/>
  </node>
  <node id="-464" visible="true" lat="43.47071075" lon="-72.97841644">
    <tag k="addr:city" v="Wallingford"/>
    <tag k="addr:housenumber" v="58"/>
    <tag k="addr:street" v="Florence Avenue"/>
    <tag k="addr:state" v="VT"/>
    <tag k="ref:vcgi:esiteid" v="269364"/>
  </node>
  <node id="-466" visible="true" lat="43.47071071" lon="-72.97759763">
    <tag k="addr:city" v="Wallingford"/>
    <tag k="addr:housenumber" v="68"/>
    <tag k="addr:street" v="South Main Street"/>
    <tag k="addr:state" v="VT"/>
    <tag k="ref:vcgi:esiteid" v="269366"/>
  </node>
  <node id="-468" visible="true" lat="43.47052821" lon="-72.97865744">
    <tag k="addr:city" v="Wallingford"/>
    <tag k="addr:housenumber" v="65"/>
    <tag k="addr:street" v="Florence Avenue"/>
    <tag k="addr:state" v="VT"/>
    <tag k="ref:vcgi:esiteid" v="269368"/>
  </node>
  <node id="-470" visible="true" lat="43.47068927" lon="-72.97201157">
    <tag k="addr:city" v="Wallingford"/>
    <tag k="addr:housenumber" v="274"/>
    <tag k="addr:street" v="School Street"/>
    <tag k="addr:state" v="VT"/>
    <tag k="ref:vcgi:esiteid" v="269370"/>
  </node>
  <node id="-471" visible="true" lat="43.47057549" lon="-72.97763192">
    <tag k="addr:city" v="Wallingford"/>
    <tag k="addr:housenumber" v="74"/>
    <tag k="addr:street" v="South Main Street"/>
    <tag k="addr:state" v="VT"/>
    <tag k="ref:vcgi:esiteid" v="269371"/>
  </node>
  <node id="-473" visible="true" lat="43.47054732" lon="-72.97507197">
    <tag k="addr:city" v="Wallingford"/>
    <tag k="addr:housenumber" v="126"/>
    <tag k="addr:street" v="School Street"/>
    <tag k="addr:state" v="VT"/>
    <tag k="ref:vcgi:esiteid" v="269375"/>
  </node>
  <node id="-475" visible="true" lat="43.47049945" lon="-72.97801164">
    <tag k="addr:city" v="Wallingford"/>
    <tag k="addr:housenumber" v="34"/>
    <tag k="addr:street" v="Florence Avenue"/>
    <tag k="addr:state" v="VT"/>
    <tag k="ref:vcgi:esiteid" v="269378"/>
  </node>
  <node id="-477" visible="true" lat="43.47053345" lon="-72.977161">
    <tag k="addr:city" v="Wallingford"/>
    <tag k="addr:housenumber" v="83"/>
    <tag k="addr:street" v="South Main Street"/>
    <tag k="addr:state" v="VT"/>
    <tag k="ref:vcgi:esiteid" v="269380"/>
  </node>
  <node id="-478" visible="true" lat="43.47034854" lon="-72.9776178">
    <tag k="addr:city" v="Wallingford"/>
    <tag k="addr:housenumber" v="92"/>
    <tag k="addr:street" v="South Main Street"/>
    <tag k="addr:state" v="VT"/>
    <tag k="ref:vcgi:esiteid" v="269381"/>
  </node>
  <node id="-482" visible="true" lat="43.47037948" lon="-72.979479">
    <tag k="addr:city" v="Wallingford"/>
    <tag k="addr:housenumber" v="80"/>
    <tag k="addr:street" v="Shedd Place"/>
    <tag k="addr:state" v="VT"/>
    <tag k="ref:vcgi:esiteid" v="269385"/>
  </node>
  <node id="-483" visible="true" lat="43.470171" lon="-72.97845473">
    <tag k="addr:city" v="Wallingford"/>
    <tag k="addr:housenumber" v="27"/>
    <tag k="addr:street" v="Shedd Place"/>
    <tag k="addr:state" v="VT"/>
    <tag k="ref:vcgi:esiteid" v="269386"/>
  </node>
  <node id="-485" visible="true" lat="43.47025964" lon="-72.97896655">
    <tag k="addr:city" v="Wallingford"/>
    <tag k="addr:housenumber" v="24"/>
    <tag k="addr:street" v="Shedd Place"/>
    <tag k="addr:state" v="VT"/>
    <tag k="ref:vcgi:esiteid" v="269388"/>
  </node>
  <node id="-487" visible="true" lat="43.47024555" lon="-72.97066249">
    <tag k="addr:city" v="Wallingford"/>
    <tag k="addr:housenumber" v="360"/>
    <tag k="addr:street" v="School Street"/>
    <tag k="addr:state" v="VT"/>
    <tag k="ref:vcgi:esiteid" v="269390"/>
  </node>
  <node id="-488" visible="true" lat="43.47008338" lon="-72.9772913">
    <tag k="addr:city" v="Wallingford"/>
    <tag k="addr:housenumber" v="109"/>
    <tag k="addr:street" v="South Main Street"/>
    <tag k="addr:state" v="VT"/>
    <tag k="ref:vcgi:esiteid" v="269391"/>
  </node>
  <node id="-489" visible="true" lat="43.46988931" lon="-72.97956294">
    <tag k="addr:city" v="Wallingford"/>
    <tag k="addr:housenumber" v="81"/>
    <tag k="addr:street" v="Shedd Place"/>
    <tag k="addr:state" v="VT"/>
    <tag k="ref:vcgi:esiteid" v="269392"/>
  </node>
  <node id="-490" visible="true" lat="43.46986261" lon="-72.97894496">
    <tag k="addr:city" v="Wallingford"/>
    <tag k="addr:housenumber" v="51"/>
    <tag k="addr:street" v="Shedd Place"/>
    <tag k="addr:state" v="VT"/>
    <tag k="ref:vcgi:esiteid" v="269393"/>
  </node>
  <node id="-491" visible="true" lat="43.46995986" lon="-72.97787014">
    <tag k="addr:city" v="Wallingford"/>
    <tag k="addr:housenumber" v="122"/>
    <tag k="addr:street" v="South Main Street"/>
    <tag k="addr:state" v="VT"/>
    <tag k="ref:vcgi:esiteid" v="269394"/>
  </node>
  <node id="-495" visible="true" lat="43.46978666" lon="-72.97797996">
    <tag k="addr:city" v="Wallingford"/>
    <tag k="addr:housenumber" v="132"/>
    <tag k="addr:street" v="South Main Street"/>
    <tag k="addr:state" v="VT"/>
    <tag k="ref:vcgi:esiteid" v="269398"/>
  </node>
  <node id="-497" visible="true" lat="43.4696229" lon="-72.97737978">
    <tag k="addr:city" v="Wallingford"/>
    <tag k="addr:housenumber" v="159"/>
    <tag k="addr:street" v="South Main Street"/>
    <tag k="addr:state" v="VT"/>
    <tag k="ref:vcgi:esiteid" v="269401"/>
  </node>
  <node id="-500" visible="true" lat="43.46954996" lon="-72.97804035">
    <tag k="addr:city" v="Wallingford"/>
    <tag k="addr:housenumber" v="150"/>
    <tag k="addr:street" v="South Main Street"/>
    <tag k="addr:state" v="VT"/>
    <tag k="ref:vcgi:esiteid" v="269404"/>
  </node>
  <node id="-501" visible="true" lat="43.4698274" lon="-72.97009902">
    <tag k="addr:city" v="Wallingford"/>
    <tag k="addr:housenumber" v="412"/>
    <tag k="addr:street" v="School Street"/>
    <tag k="addr:state" v="VT"/>
    <tag k="ref:vcgi:esiteid" v="269405"/>
  </node>
  <node id="-504" visible="true" lat="43.46931127" lon="-72.97737776">
    <tag k="addr:city" v="Wallingford"/>
    <tag k="addr:housenumber" v="165"/>
    <tag k="addr:street" v="South Main Street"/>
    <tag k="addr:state" v="VT"/>
    <tag k="ref:vcgi:esiteid" v="269408"/>
  </node>
  <node id="-505" visible="true" lat="43.4693183" lon="-72.97816365">
    <tag k="addr:city" v="Wallingford"/>
    <tag k="addr:housenumber" v="168"/>
    <tag k="addr:street" v="South Main Street"/>
    <tag k="addr:state" v="VT"/>
    <tag k="ref:vcgi:esiteid" v="269409"/>
  </node>
  <node id="-506" visible="true" lat="43.46910343" lon="-72.97716229">
    <tag k="addr:city" v="Wallingford"/>
    <tag k="addr:housenumber" v="41"/>
    <tag k="addr:street" v="Church Street"/>
    <tag k="addr:state" v="VT"/>
    <tag k="ref:vcgi:esiteid" v="269411"/>
  </node>
  <node id="-508" visible="true" lat="43.46917348" lon="-72.97848245">
    <tag k="addr:city" v="Wallingford"/>
    <tag k="addr:housenumber" v="188"/>
    <tag k="addr:street" v="South Main Street"/>
    <tag k="addr:state" v="VT"/>
    <tag k="ref:vcgi:esiteid" v="269413"/>
  </node>
  <node id="-509" visible="true" lat="43.46893077" lon="-72.97753934">
    <tag k="addr:city" v="Wallingford"/>
    <tag k="addr:housenumber" v="189"/>
    <tag k="addr:street" v="South Main Street"/>
    <tag k="addr:state" v="VT"/>
    <tag k="ref:vcgi:esiteid" v="269414"/>
  </node>
  <node id="-510" visible="true" lat="43.46900181" lon="-72.97687884">
    <tag k="addr:city" v="Wallingford"/>
    <tag k="addr:housenumber" v="61"/>
    <tag k="addr:street" v="Church Street"/>
    <tag k="addr:state" v="VT"/>
    <tag k="ref:vcgi:esiteid" v="269415"/>
  </node>
  <node id="-515" visible="true" lat="43.46889076" lon="-72.97667786">
    <tag k="addr:city" v="Wallingford"/>
    <tag k="addr:housenumber" v="69"/>
    <tag k="addr:street" v="Church Street"/>
    <tag k="addr:state" v="VT"/>
    <tag k="ref:vcgi:esiteid" v="269420"/>
  </node>
  <node id="-516" visible="true" lat="43.46895415" lon="-72.97842687">
    <tag k="addr:city" v="Wallingford"/>
    <tag k="addr:housenumber" v="210"/>
    <tag k="addr:street" v="South Main Street"/>
    <tag k="addr:state" v="VT"/>
    <tag k="ref:vcgi:esiteid" v="269421"/>
  </node>
  <node id="-517" visible="true" lat="43.46875381" lon="-72.97714233">
    <tag k="addr:city" v="Wallingford"/>
    <tag k="addr:housenumber" v="48"/>
    <tag k="addr:street" v="Church Street"/>
    <tag k="addr:state" v="VT"/>
    <tag k="ref:vcgi:esiteid" v="269422"/>
  </node>
  <node id="-518" visible="true" lat="43.46863506" lon="-72.97781194">
    <tag k="addr:city" v="Wallingford"/>
    <tag k="addr:housenumber" v="205"/>
    <tag k="addr:street" v="South Main Street"/>
    <tag k="addr:state" v="VT"/>
    <tag k="ref:vcgi:esiteid" v="269423"/>
  </node>
  <node id="-519" visible="true" lat="43.46863975" lon="-72.97853886">
    <tag k="addr:city" v="Wallingford"/>
    <tag k="addr:housenumber" v="218"/>
    <tag k="addr:street" v="South Main Street"/>
    <tag k="addr:state" v="VT"/>
    <tag k="ref:vcgi:esiteid" v="269424"/>
  </node>
  <node id="-520" visible="true" lat="43.46859741" lon="-72.97549438">
    <tag k="addr:city" v="Wallingford"/>
    <tag k="addr:housenumber" v="31"/>
    <tag k="addr:street" v="High Street"/>
    <tag k="addr:state" v="VT"/>
    <tag k="ref:vcgi:esiteid" v="269425"/>
  </node>
  <node id="-521" visible="true" lat="43.46858215" lon="-72.9695816">
    <tag k="addr:city" v="Wallingford"/>
    <tag k="addr:housenumber" v="490"/>
    <tag k="addr:street" v="School Street"/>
    <tag k="addr:state" v="VT"/>
    <tag k="ref:vcgi:esiteid" v="269426"/>
  </node>
  <node id="-522" visible="true" lat="43.46857071" lon="-72.96837615">
    <tag k="addr:city" v="Wallingford"/>
    <tag k="addr:housenumber" v="516"/>
    <tag k="addr:street" v="School Street"/>
    <tag k="addr:state" v="VT"/>
    <tag k="ref:vcgi:esiteid" v="269427"/>
  </node>
  <node id="-525" visible="true" lat="43.46844101" lon="-72.97663116">
    <tag k="addr:city" v="Wallingford"/>
    <tag k="addr:housenumber" v="82"/>
    <tag k="addr:street" v="Church Street"/>
    <tag k="addr:state" v="VT"/>
    <tag k="ref:vcgi:esiteid" v="269430"/>
  </node>
  <node id="-526" visible="true" lat="43.46838094" lon="-72.97854432">
    <tag k="addr:city" v="Wallingford"/>
    <tag k="addr:housenumber" v="238"/>
    <tag k="addr:street" v="South Main Street"/>
    <tag k="addr:state" v="VT"/>
    <tag k="ref:vcgi:esiteid" v="269431"/>
  </node>
  <node id="-527" visible="true" lat="43.46833417" lon="-72.97769851">
    <tag k="addr:city" v="Wallingford"/>
    <tag k="addr:housenumber" v="229"/>
    <tag k="addr:street" v="South Main Street"/>
    <tag k="addr:state" v="VT"/>
    <tag k="ref:vcgi:esiteid" v="269432"/>
  </node>
  <node id="-528" visible="true" lat="43.46834831" lon="-72.97524094">
    <tag k="addr:city" v="Wallingford"/>
    <tag k="addr:housenumber" v="30"/>
    <tag k="addr:street" v="High Street"/>
    <tag k="addr:state" v="VT"/>
    <tag k="ref:vcgi:esiteid" v="269433"/>
  </node>
  <node id="-529" visible="true" lat="43.46831131" lon="-72.97633361">
    <tag k="addr:city" v="Wallingford"/>
    <tag k="addr:housenumber" v="98"/>
    <tag k="addr:street" v="Church Street"/>
    <tag k="addr:state" v="VT"/>
    <tag k="ref:vcgi:esiteid" v="269434"/>
  </node>
  <node id="-530" visible="true" lat="43.46825409" lon="-72.97611236">
    <tag k="addr:city" v="Wallingford"/>
    <tag k="addr:housenumber" v="110"/>
    <tag k="addr:street" v="Church Street"/>
    <tag k="addr:state" v="VT"/>
    <tag k="ref:vcgi:esiteid" v="269436"/>
  </node>
  <node id="-532" visible="true" lat="43.46813964" lon="-72.9758377">
    <tag k="addr:city" v="Wallingford"/>
    <tag k="addr:housenumber" v="126"/>
    <tag k="addr:street" v="Church Street"/>
    <tag k="addr:state" v="VT"/>
    <tag k="ref:vcgi:esiteid" v="269438"/>
  </node>
  <node id="-533" visible="true" lat="43.46812438" lon="-72.97803497">
    <tag k="addr:city" v="Wallingford"/>
    <tag k="addr:housenumber" v="247"/>
    <tag k="addr:street" v="South Main Street"/>
    <tag k="addr:state" v="VT"/>
    <tag k="ref:vcgi:esiteid" v="269439"/>
  </node>
  <node id="-535" visible="true" lat="43.46806701" lon="-72.97871518">
    <tag k="addr:city" v="Wallingford"/>
    <tag k="addr:housenumber" v="264"/>
    <tag k="addr:street" v="South Main Street"/>
    <tag k="addr:state" v="VT"/>
    <tag k="ref:vcgi:esiteid" v="269442"/>
  </node>
  <node id="-536" visible="true" lat="43.46794128" lon="-72.97541046">
    <tag k="addr:city" v="Wallingford"/>
    <tag k="addr:housenumber" v="152"/>
    <tag k="addr:street" v="Church Street"/>
    <tag k="addr:state" v="VT"/>
    <tag k="ref:vcgi:esiteid" v="269443"/>
  </node>
  <node id="-537" visible="true" lat="43.46798493" lon="-72.95818532">
    <tag k="addr:city" v="Wallingford"/>
    <tag k="addr:housenumber" v="207"/>
    <tag k="addr:street" v="East Street"/>
    <tag k="addr:state" v="VT"/>
    <tag k="ref:vcgi:esiteid" v="269444"/>
  </node>
  <node id="-538" visible="true" lat="43.46785354" lon="-72.97495269">
    <tag k="addr:city" v="Wallingford"/>
    <tag k="addr:housenumber" v="174"/>
    <tag k="addr:street" v="Church Street"/>
    <tag k="addr:state" v="VT"/>
    <tag k="ref:vcgi:esiteid" v="269445"/>
  </node>
  <node id="-539" visible="true" lat="43.46772072" lon="-72.97815722">
    <tag k="addr:city" v="Wallingford"/>
    <tag k="addr:housenumber" v="271"/>
    <tag k="addr:street" v="South Main Street"/>
    <tag k="addr:state" v="VT"/>
    <tag k="ref:vcgi:esiteid" v="269446"/>
  </node>
  <node id="-544" visible="true" lat="43.46766712" lon="-72.97892161">
    <tag k="addr:city" v="Wallingford"/>
    <tag k="addr:housenumber" v="294"/>
    <tag k="addr:street" v="South Main Street"/>
    <tag k="addr:state" v="VT"/>
    <tag k="ref:vcgi:esiteid" v="269451"/>
  </node>
  <node id="-545" visible="true" lat="43.46754077" lon="-72.97826957">
    <tag k="addr:city" v="Wallingford"/>
    <tag k="addr:housenumber" v="289"/>
    <tag k="addr:street" v="South Main Street"/>
    <tag k="addr:state" v="VT"/>
    <tag k="ref:vcgi:esiteid" v="269452"/>
  </node>
  <node id="-548" visible="true" lat="43.46731593" lon="-72.97832289">
    <tag k="addr:city" v="Wallingford"/>
    <tag k="addr:housenumber" v="299"/>
    <tag k="addr:street" v="South Main Street"/>
    <tag k="addr:state" v="VT"/>
    <tag k="ref:vcgi:esiteid" v="269456"/>
  </node>
  <node id="-552" visible="true" lat="43.46739197" lon="-72.9572525">
    <tag k="addr:city" v="Wallingford"/>
    <tag k="addr:housenumber" v="165"/>
    <tag k="addr:street" v="East Street"/>
    <tag k="addr:state" v="VT"/>
    <tag k="ref:vcgi:esiteid" v="269460"/>
  </node>
  <node id="-554" visible="true" lat="43.4672203" lon="-72.97908782">
    <tag k="addr:city" v="Wallingford"/>
    <tag k="addr:housenumber" v="322"/>
    <tag k="addr:street" v="South Main Street"/>
    <tag k="addr:state" v="VT"/>
    <tag k="ref:vcgi:esiteid" v="269462"/>
  </node>
  <node id="-558" visible="true" lat="43.46707916" lon="-72.95532226">
    <tag k="addr:city" v="Wallingford"/>
    <tag k="addr:housenumber" v="75"/>
    <tag k="addr:street" v="Roaring Brook Lane"/>
    <tag k="addr:state" v="VT"/>
    <tag k="ref:vcgi:esiteid" v="269466"/>
  </node>
  <node id="-559" visible="true" lat="43.46777381" lon="-72.91941843">
    <tag k="addr:city" v="Wallingford"/>
    <tag k="addr:housenumber" v="182"/>
    <tag k="addr:street" v="Mears Meadow Trail"/>
    <tag k="addr:state" v="VT"/>
    <tag k="ref:vcgi:esiteid" v="269467"/>
  </node>
  <node id="-560" visible="true" lat="43.46668266" lon="-72.91946233">
    <tag k="addr:city" v="Wallingford"/>
    <tag k="addr:housenumber" v="108"/>
    <tag k="addr:street" v="Mears Meadow Trail"/>
    <tag k="addr:state" v="VT"/>
    <tag k="ref:vcgi:esiteid" v="269468"/>
  </node>
  <node id="-563" visible="true" lat="43.46617889" lon="-72.97958374">
    <tag k="addr:city" v="Wallingford"/>
    <tag k="addr:housenumber" v="398"/>
    <tag k="addr:street" v="South Main Street"/>
    <tag k="addr:state" v="VT"/>
    <tag k="ref:vcgi:esiteid" v="269471"/>
  </node>
  <node id="-565" visible="true" lat="43.46623229" lon="-72.95479583">
    <tag k="addr:city" v="Wallingford"/>
    <tag k="addr:housenumber" v="132"/>
    <tag k="addr:street" v="Roaring Brook Lane"/>
    <tag k="addr:state" v="VT"/>
    <tag k="ref:vcgi:esiteid" v="269473"/>
  </node>
  <node id="-566" visible="true" lat="43.4662782" lon="-72.92119455">
    <tag k="addr:city" v="Wallingford"/>
    <tag k="addr:housenumber" v="444"/>
    <tag k="addr:street" v="Bear Mountain Road"/>
    <tag k="addr:state" v="VT"/>
    <tag k="ref:vcgi:esiteid" v="269474"/>
  </node>
  <node id="-567" visible="true" lat="43.46580505" lon="-72.97891235">
    <tag k="addr:city" v="Wallingford"/>
    <tag k="addr:housenumber" v="411"/>
    <tag k="addr:street" v="South Main Street"/>
    <tag k="addr:state" v="VT"/>
    <tag k="ref:vcgi:esiteid" v="269475"/>
  </node>
  <node id="-571" visible="true" lat="43.46544647" lon="-72.97914886">
    <tag k="addr:city" v="Wallingford"/>
    <tag k="addr:housenumber" v="443"/>
    <tag k="addr:street" v="South Main Street"/>
    <tag k="addr:state" v="VT"/>
    <tag k="ref:vcgi:esiteid" v="269480"/>
  </node>
  <node id="-572" visible="true" lat="43.46564483" lon="-72.91880035">
    <tag k="addr:city" v="Wallingford"/>
    <tag k="addr:housenumber" v="348"/>
    <tag k="addr:street" v="Bear Mountain Road"/>
    <tag k="addr:state" v="VT"/>
    <tag k="ref:vcgi:esiteid" v="269481"/>
  </node>
  <node id="-573" visible="true" lat="43.46525616" lon="-72.98240759">
    <tag k="addr:city" v="Wallingford"/>
    <tag k="addr:housenumber" v="482"/>
    <tag k="addr:street" v="Waldo Lane"/>
    <tag k="addr:state" v="VT"/>
    <tag k="ref:vcgi:esiteid" v="269482"/>
  </node>
  <node id="-574" visible="true" lat="43.46537017" lon="-72.92321777">
    <tag k="addr:city" v="Wallingford"/>
    <tag k="addr:housenumber" v="544"/>
    <tag k="addr:street" v="Bear Mountain Road"/>
    <tag k="addr:state" v="VT"/>
    <tag k="ref:vcgi:esiteid" v="269483"/>
  </node>
  <node id="-581" visible="true" lat="43.46467971" lon="-72.97805786">
    <tag k="addr:city" v="Wallingford"/>
    <tag k="addr:housenumber" v="23"/>
    <tag k="addr:street" v="Deerfield Drive"/>
    <tag k="addr:state" v="VT"/>
    <tag k="ref:vcgi:esiteid" v="269491"/>
  </node>
  <node id="-583" visible="true" lat="43.46458053" lon="-72.975708">
    <tag k="addr:city" v="Wallingford"/>
    <tag k="addr:housenumber" v="120"/>
    <tag k="addr:street" v="Carriage Road"/>
    <tag k="addr:state" v="VT"/>
    <tag k="ref:vcgi:esiteid" v="269493"/>
  </node>
  <node id="-585" visible="true" lat="43.46466115" lon="-72.92553673">
    <tag k="addr:city" v="Wallingford"/>
    <tag k="addr:housenumber" v="656"/>
    <tag k="addr:street" v="Bear Mountain Road"/>
    <tag k="addr:state" v="VT"/>
    <tag k="ref:vcgi:esiteid" v="269495"/>
  </node>
  <node id="-586" visible="true" lat="43.46437885" lon="-72.97668436">
    <tag k="addr:city" v="Wallingford"/>
    <tag k="addr:housenumber" v="131"/>
    <tag k="addr:street" v="Carriage Road"/>
    <tag k="addr:state" v="VT"/>
    <tag k="ref:vcgi:esiteid" v="269496"/>
  </node>
  <node id="-588" visible="true" lat="43.46429428" lon="-72.97807171">
    <tag k="addr:city" v="Wallingford"/>
    <tag k="addr:housenumber" v="69"/>
    <tag k="addr:street" v="Deerfield Drive"/>
    <tag k="addr:state" v="VT"/>
    <tag k="ref:vcgi:esiteid" v="269498"/>
  </node>
  <node id="-592" visible="true" lat="43.46390021" lon="-72.97811367">
    <tag k="addr:city" v="Wallingford"/>
    <tag k="addr:housenumber" v="91"/>
    <tag k="addr:street" v="Deerfield Drive"/>
    <tag k="addr:state" v="VT"/>
    <tag k="ref:vcgi:esiteid" v="269503"/>
  </node>
  <node id="-594" visible="true" lat="43.46371964" lon="-72.97575986">
    <tag k="addr:city" v="Wallingford"/>
    <tag k="addr:housenumber" v="80"/>
    <tag k="addr:street" v="Carriage Road"/>
    <tag k="addr:state" v="VT"/>
    <tag k="ref:vcgi:esiteid" v="269505"/>
  </node>
  <node id="-598" visible="true" lat="43.46366583" lon="-72.97651298">
    <tag k="addr:city" v="Wallingford"/>
    <tag k="addr:housenumber" v="73"/>
    <tag k="addr:street" v="Carriage Road"/>
    <tag k="addr:state" v="VT"/>
    <tag k="ref:vcgi:esiteid" v="269509"/>
  </node>
  <node id="-600" visible="true" lat="43.46379419" lon="-72.95539731">
    <tag k="addr:city" v="Wallingford"/>
    <tag k="addr:housenumber" v="1285"/>
    <tag k="addr:street" v="Church Street"/>
    <tag k="addr:state" v="VT"/>
    <tag k="ref:vcgi:esiteid" v="269511"/>
  </node>
  <node id="-604" visible="true" lat="43.4634801" lon="-72.97810135">
    <tag k="addr:city" v="Wallingford"/>
    <tag k="addr:housenumber" v="125"/>
    <tag k="addr:street" v="Deerfield Drive"/>
    <tag k="addr:state" v="VT"/>
    <tag k="ref:vcgi:esiteid" v="269515"/>
  </node>
  <node id="-607" visible="true" lat="43.46327717" lon="-72.95632191">
    <tag k="addr:city" v="Wallingford"/>
    <tag k="addr:housenumber" v="1195"/>
    <tag k="addr:street" v="Church Street"/>
    <tag k="addr:state" v="VT"/>
    <tag k="ref:vcgi:esiteid" v="269519"/>
  </node>
  <node id="-608" visible="true" lat="43.46323013" lon="-72.92752075">
    <tag k="addr:city" v="Wallingford"/>
    <tag k="addr:housenumber" v="808"/>
    <tag k="addr:street" v="Bear Mountain Road"/>
    <tag k="addr:state" v="VT"/>
    <tag k="ref:vcgi:esiteid" v="269520"/>
  </node>
  <node id="-609" visible="true" lat="43.46300137" lon="-72.95769967">
    <tag k="addr:city" v="Wallingford"/>
    <tag k="addr:housenumber" v="1132"/>
    <tag k="addr:street" v="Church Street"/>
    <tag k="addr:state" v="VT"/>
    <tag k="ref:vcgi:esiteid" v="269521"/>
  </node>
  <node id="-610" visible="true" lat="43.46305291" lon="-72.97821515">
    <tag k="addr:city" v="Wallingford"/>
    <tag k="addr:housenumber" v="155"/>
    <tag k="addr:street" v="Deerfield Drive"/>
    <tag k="addr:state" v="VT"/>
    <tag k="ref:vcgi:esiteid" v="269522"/>
  </node>
  <node id="-611" visible="true" lat="43.46313688" lon="-72.97697203">
    <tag k="addr:city" v="Wallingford"/>
    <tag k="addr:housenumber" v="87"/>
    <tag k="addr:street" v="Nottinghill Drive"/>
    <tag k="addr:state" v="VT"/>
    <tag k="ref:vcgi:esiteid" v="269523"/>
  </node>
  <node id="-612" visible="true" lat="43.46304348" lon="-72.95840323">
    <tag k="addr:city" v="Wallingford"/>
    <tag k="addr:housenumber" v="1094"/>
    <tag k="addr:street" v="Church Street"/>
    <tag k="addr:state" v="VT"/>
    <tag k="ref:vcgi:esiteid" v="269524"/>
  </node>
  <node id="-613" visible="true" lat="43.46288299" lon="-72.97472381">
    <tag k="addr:city" v="Wallingford"/>
    <tag k="addr:housenumber" v="73"/>
    <tag k="addr:street" v="Pembroke Road"/>
    <tag k="addr:state" v="VT"/>
    <tag k="ref:vcgi:esiteid" v="269525"/>
  </node>
  <node id="-615" visible="true" lat="43.46263679" lon="-72.95625509">
    <tag k="addr:city" v="Wallingford"/>
    <tag k="addr:housenumber" v="1206"/>
    <tag k="addr:street" v="Church Street"/>
    <tag k="addr:state" v="VT"/>
    <tag k="ref:vcgi:esiteid" v="269529"/>
  </node>
  <node id="-616" visible="true" lat="43.46239822" lon="-72.97620915">
    <tag k="addr:city" v="Wallingford"/>
    <tag k="addr:housenumber" v="38"/>
    <tag k="addr:street" v="Pembroke Road"/>
    <tag k="addr:state" v="VT"/>
    <tag k="ref:vcgi:esiteid" v="269530"/>
  </node>
  <node id="-617" visible="true" lat="43.4625301" lon="-72.97764322">
    <tag k="addr:city" v="Wallingford"/>
    <tag k="addr:housenumber" v="16"/>
    <tag k="addr:street" v="Wickham Lane"/>
    <tag k="addr:state" v="VT"/>
    <tag k="ref:vcgi:esiteid" v="269531"/>
  </node>
  <node id="-620" visible="true" lat="43.46237522" lon="-72.97700209">
    <tag k="addr:city" v="Wallingford"/>
    <tag k="addr:housenumber" v="29"/>
    <tag k="addr:street" v="Wickham Lane"/>
    <tag k="addr:state" v="VT"/>
    <tag k="ref:vcgi:esiteid" v="269534"/>
  </node>
  <node id="-621" visible="true" lat="43.46237564" lon="-72.95884704">
    <tag k="addr:city" v="Wallingford"/>
    <tag k="addr:housenumber" v="1060"/>
    <tag k="addr:street" v="Church Street"/>
    <tag k="addr:state" v="VT"/>
    <tag k="ref:vcgi:esiteid" v="269535"/>
  </node>
  <node id="-622" visible="true" lat="43.46238252" lon="-72.95718894">
    <tag k="addr:city" v="Wallingford"/>
    <tag k="addr:housenumber" v="1178"/>
    <tag k="addr:street" v="Church Street"/>
    <tag k="addr:state" v="VT"/>
    <tag k="ref:vcgi:esiteid" v="269536"/>
  </node>
  <node id="-623" visible="true" lat="43.46195698" lon="-72.98280301">
    <tag k="addr:city" v="Wallingford"/>
    <tag k="addr:housenumber" v="762"/>
    <tag k="addr:street" v="Waldo Lane"/>
    <tag k="addr:state" v="VT"/>
    <tag k="ref:vcgi:esiteid" v="269537"/>
  </node>
  <node id="-625" visible="true" lat="43.46217877" lon="-72.97530615">
    <tag k="addr:city" v="Wallingford"/>
    <tag k="addr:housenumber" v="107"/>
    <tag k="addr:street" v="Pembroke Road"/>
    <tag k="addr:state" v="VT"/>
    <tag k="ref:vcgi:esiteid" v="269539"/>
  </node>
  <node id="-626" visible="true" lat="43.46212298" lon="-72.97766706">
    <tag k="addr:city" v="Wallingford"/>
    <tag k="addr:housenumber" v="50"/>
    <tag k="addr:street" v="Wickham Lane"/>
    <tag k="addr:state" v="VT"/>
    <tag k="ref:vcgi:esiteid" v="269540"/>
  </node>
  <node id="-632" visible="true" lat="43.4617157" lon="-72.97772694">
    <tag k="addr:city" v="Wallingford"/>
    <tag k="addr:housenumber" v="74"/>
    <tag k="addr:street" v="Wickham Lane"/>
    <tag k="addr:state" v="VT"/>
    <tag k="ref:vcgi:esiteid" v="269546"/>
  </node>
  <node id="-633" visible="true" lat="43.46152859" lon="-72.97694136">
    <tag k="addr:city" v="Wallingford"/>
    <tag k="addr:housenumber" v="87"/>
    <tag k="addr:street" v="Wickham Lane"/>
    <tag k="addr:state" v="VT"/>
    <tag k="ref:vcgi:esiteid" v="269547"/>
  </node>
  <node id="-635" visible="true" lat="43.46138381" lon="-72.97588348">
    <tag k="addr:city" v="Wallingford"/>
    <tag k="addr:housenumber" v="160"/>
    <tag k="addr:street" v="Pembroke Road"/>
    <tag k="addr:state" v="VT"/>
    <tag k="ref:vcgi:esiteid" v="269549"/>
  </node>
  <node id="-636" visible="true" lat="43.46141782" lon="-72.9820912">
    <tag k="addr:city" v="Wallingford"/>
    <tag k="addr:housenumber" v="818"/>
    <tag k="addr:street" v="Waldo Lane"/>
    <tag k="addr:state" v="VT"/>
    <tag k="ref:vcgi:esiteid" v="269550"/>
  </node>
  <node id="-639" visible="true" lat="43.46129559" lon="-72.97771462">
    <tag k="addr:city" v="Wallingford"/>
    <tag k="addr:housenumber" v="102"/>
    <tag k="addr:street" v="Wickham Lane"/>
    <tag k="addr:state" v="VT"/>
    <tag k="ref:vcgi:esiteid" v="269553"/>
  </node>
  <node id="-640" visible="true" lat="43.46129608" lon="-72.97563934">
    <tag k="addr:city" v="Wallingford"/>
    <tag k="addr:housenumber" v="165"/>
    <tag k="addr:street" v="Pembroke Road"/>
    <tag k="addr:state" v="VT"/>
    <tag k="ref:vcgi:esiteid" v="269554"/>
  </node>
  <node id="-646" visible="true" lat="43.46089058" lon="-72.95175168">
    <tag k="addr:city" v="Wallingford"/>
    <tag k="addr:housenumber" v="1464"/>
    <tag k="addr:street" v="Church Street"/>
    <tag k="addr:state" v="VT"/>
    <tag k="ref:vcgi:esiteid" v="269560"/>
  </node>
  <node id="-648" visible="true" lat="43.46084213" lon="-72.97762298">
    <tag k="addr:city" v="Wallingford"/>
    <tag k="addr:housenumber" v="134"/>
    <tag k="addr:street" v="Wickham Lane"/>
    <tag k="addr:state" v="VT"/>
    <tag k="ref:vcgi:esiteid" v="269562"/>
  </node>
  <node id="-651" visible="true" lat="43.46055964" lon="-72.98256658">
    <tag k="addr:city" v="Wallingford"/>
    <tag k="addr:housenumber" v="866"/>
    <tag k="addr:street" v="Waldo Lane"/>
    <tag k="addr:state" v="VT"/>
    <tag k="ref:vcgi:esiteid" v="269565"/>
  </node>
  <node id="-652" visible="true" lat="43.46055602" lon="-72.97698211">
    <tag k="addr:city" v="Wallingford"/>
    <tag k="addr:housenumber" v="129"/>
    <tag k="addr:street" v="Wickham Lane"/>
    <tag k="addr:state" v="VT"/>
    <tag k="ref:vcgi:esiteid" v="269567"/>
  </node>
  <node id="-658" visible="true" lat="43.46071081" lon="-72.91957821">
    <tag k="addr:city" v="Wallingford"/>
    <tag k="addr:housenumber" v="5"/>
    <tag k="addr:street" v="Bear Mountain Road"/>
    <tag k="addr:state" v="VT"/>
    <tag k="ref:vcgi:esiteid" v="269573"/>
  </node>
  <node id="-660" visible="true" lat="43.45966327" lon="-72.97715201">
    <tag k="addr:city" v="Wallingford"/>
    <tag k="addr:housenumber" v="167"/>
    <tag k="addr:street" v="Wickham Lane"/>
    <tag k="addr:state" v="VT"/>
    <tag k="ref:vcgi:esiteid" v="269575"/>
  </node>
  <node id="-661" visible="true" lat="43.45989378" lon="-72.95098076">
    <tag k="addr:city" v="Wallingford"/>
    <tag k="addr:housenumber" v="1668"/>
    <tag k="addr:street" v="Vermont Route 140 East"/>
    <tag k="addr:state" v="VT"/>
    <tag k="ref:vcgi:esiteid" v="269576"/>
  </node>
  <node id="-664" visible="true" lat="43.46019807" lon="-72.94993053">
    <tag k="addr:city" v="Wallingford"/>
    <tag k="addr:housenumber" v="27"/>
    <tag k="addr:street" v="Van Wyck Road"/>
    <tag k="addr:state" v="VT"/>
    <tag k="ref:vcgi:esiteid" v="269579"/>
  </node>
  <node id="-670" visible="true" lat="43.45942244" lon="-72.94982751">
    <tag k="addr:city" v="Wallingford"/>
    <tag k="addr:housenumber" v="1739"/>
    <tag k="addr:street" v="Vermont Route 140 East"/>
    <tag k="addr:state" v="VT"/>
    <tag k="ref:vcgi:esiteid" v="269585"/>
  </node>
  <node id="-685" visible="true" lat="43.45691299" lon="-72.98451232">
    <tag k="addr:city" v="Wallingford"/>
    <tag k="addr:housenumber" v="41"/>
    <tag k="addr:street" v="Cook Drive"/>
    <tag k="addr:state" v="VT"/>
    <tag k="ref:vcgi:esiteid" v="269601"/>
  </node>
  <node id="-688" visible="true" lat="43.45680236" lon="-72.98770904">
    <tag k="addr:city" v="Wallingford"/>
    <tag k="addr:housenumber" v="204"/>
    <tag k="addr:street" v="Cook Drive"/>
    <tag k="addr:state" v="VT"/>
    <tag k="ref:vcgi:esiteid" v="269604"/>
  </node>
  <node id="-689" visible="true" lat="43.45681762" lon="-72.98330688">
    <tag k="addr:city" v="Wallingford"/>
    <tag k="addr:housenumber" v="1121"/>
    <tag k="addr:street" v="U.S. Route 7 South"/>
    <tag k="addr:state" v="VT"/>
    <tag k="ref:vcgi:esiteid" v="269605"/>
  </node>
  <node id="-691" visible="true" lat="43.45648054" lon="-72.98650189">
    <tag k="addr:city" v="Wallingford"/>
    <tag k="addr:housenumber" v="149"/>
    <tag k="addr:street" v="Cook Drive"/>
    <tag k="addr:state" v="VT"/>
    <tag k="ref:vcgi:esiteid" v="269607"/>
  </node>
  <node id="-692" visible="true" lat="43.45643115" lon="-72.98936036">
    <tag k="addr:city" v="Wallingford"/>
    <tag k="addr:housenumber" v="283"/>
    <tag k="addr:street" v="Cook Drive"/>
    <tag k="addr:state" v="VT"/>
    <tag k="ref:vcgi:esiteid" v="269608"/>
  </node>
  <node id="-693" visible="true" lat="43.45641899" lon="-72.98847781">
    <tag k="addr:city" v="Wallingford"/>
    <tag k="addr:housenumber" v="241"/>
    <tag k="addr:street" v="Cook Drive"/>
    <tag k="addr:state" v="VT"/>
    <tag k="ref:vcgi:esiteid" v="269609"/>
  </node>
  <node id="-695" visible="true" lat="43.45637663" lon="-72.94658658">
    <tag k="addr:city" v="Wallingford"/>
    <tag k="addr:housenumber" v="2016"/>
    <tag k="addr:street" v="Vermont Route 140 East"/>
    <tag k="addr:state" v="VT"/>
    <tag k="ref:vcgi:esiteid" v="269611"/>
  </node>
  <node id="-698" visible="true" lat="43.45521334" lon="-72.93919216">
    <tag k="addr:city" v="Wallingford"/>
    <tag k="addr:housenumber" v="282"/>
    <tag k="addr:street" v="Sugar Hill Road"/>
    <tag k="addr:state" v="VT"/>
    <tag k="ref:vcgi:esiteid" v="269615"/>
  </node>
  <node id="-699" visible="true" lat="43.45468392" lon="-72.98420805">
    <tag k="addr:city" v="Wallingford"/>
    <tag k="addr:housenumber" v="1253"/>
    <tag k="addr:street" v="U.S. Route 7 South"/>
    <tag k="addr:state" v="VT"/>
    <tag k="ref:vcgi:esiteid" v="269616"/>
  </node>
  <node id="-701" visible="true" lat="43.45518862" lon="-72.94558225">
    <tag k="addr:city" v="Wallingford"/>
    <tag k="addr:housenumber" v="2056"/>
    <tag k="addr:street" v="Vermont Route 140 East"/>
    <tag k="addr:state" v="VT"/>
    <tag k="ref:vcgi:esiteid" v="269618"/>
  </node>
  <node id="-703" visible="true" lat="43.45538965" lon="-72.94446961">
    <tag k="addr:city" v="Wallingford"/>
    <tag k="addr:housenumber" v="20"/>
    <tag k="addr:street" v="Sugar Hill Road"/>
    <tag k="addr:state" v="VT"/>
    <tag k="ref:vcgi:esiteid" v="269620"/>
  </node>
  <node id="-704" visible="true" lat="43.45477956" lon="-72.98545997">
    <tag k="addr:city" v="Wallingford"/>
    <tag k="addr:housenumber" v="1284"/>
    <tag k="addr:street" v="U.S. Route 7 South"/>
    <tag k="addr:state" v="VT"/>
    <tag k="ref:vcgi:esiteid" v="269621"/>
  </node>
  <node id="-705" visible="true" lat="43.45481491" lon="-72.98514557">
    <tag k="addr:city" v="Wallingford"/>
    <tag k="addr:housenumber" v="1282"/>
    <tag k="addr:street" v="U.S. Route 7 South"/>
    <tag k="addr:state" v="VT"/>
    <tag k="ref:vcgi:esiteid" v="269622"/>
  </node>
  <node id="-706" visible="true" lat="43.45492935" lon="-72.94417572">
    <tag k="addr:city" v="Wallingford"/>
    <tag k="addr:housenumber" v="68"/>
    <tag k="addr:street" v="White Rocks Picnic Road"/>
    <tag k="addr:state" v="VT"/>
    <tag k="ref:vcgi:esiteid" v="269623"/>
  </node>
  <node id="-710" visible="true" lat="43.45427717" lon="-72.98463093">
    <tag k="addr:city" v="Wallingford"/>
    <tag k="addr:housenumber" v="1281"/>
    <tag k="addr:street" v="U.S. Route 7 South"/>
    <tag k="addr:state" v="VT"/>
    <tag k="ref:vcgi:esiteid" v="269627"/>
  </node>
  <node id="-720" visible="true" lat="43.45396232" lon="-72.92748382">
    <tag k="addr:city" v="Wallingford"/>
    <tag k="addr:housenumber" v="921"/>
    <tag k="addr:street" v="Sugar Hill Road"/>
    <tag k="addr:state" v="VT"/>
    <tag k="ref:vcgi:esiteid" v="269637"/>
  </node>
  <node id="-721" visible="true" lat="43.45313631" lon="-72.98692614">
    <tag k="addr:city" v="Wallingford"/>
    <tag k="addr:housenumber" v="1374"/>
    <tag k="addr:street" v="U.S. Route 7 South"/>
    <tag k="addr:state" v="VT"/>
    <tag k="ref:vcgi:esiteid" v="269638"/>
  </node>
  <node id="-723" visible="true" lat="43.45389072" lon="-72.93378192">
    <tag k="addr:city" v="Wallingford"/>
    <tag k="addr:housenumber" v="580"/>
    <tag k="addr:street" v="Sugar Hill Road"/>
    <tag k="addr:state" v="VT"/>
    <tag k="ref:vcgi:esiteid" v="269640"/>
  </node>
  <node id="-725" visible="true" lat="43.45391947" lon="-72.93039731">
    <tag k="addr:city" v="Wallingford"/>
    <tag k="addr:housenumber" v="743"/>
    <tag k="addr:street" v="Sugar Hill Road"/>
    <tag k="addr:state" v="VT"/>
    <tag k="ref:vcgi:esiteid" v="269642"/>
  </node>
  <node id="-728" visible="true" lat="43.45347955" lon="-72.92854296">
    <tag k="addr:city" v="Wallingford"/>
    <tag k="addr:housenumber" v="843"/>
    <tag k="addr:street" v="Sugar Hill Road"/>
    <tag k="addr:state" v="VT"/>
    <tag k="ref:vcgi:esiteid" v="269645"/>
  </node>
  <node id="-732" visible="true" lat="43.4529457" lon="-72.985466">
    <tag k="addr:city" v="Wallingford"/>
    <tag k="addr:housenumber" v="1409"/>
    <tag k="addr:street" v="U.S. Route 7 South"/>
    <tag k="addr:state" v="VT"/>
    <tag k="ref:vcgi:esiteid" v="269649"/>
  </node>
  <node id="-734" visible="true" lat="43.45257603" lon="-72.98632442">
    <tag k="addr:city" v="Wallingford"/>
    <tag k="addr:housenumber" v="1436"/>
    <tag k="addr:street" v="U.S. Route 7 South"/>
    <tag k="addr:state" v="VT"/>
    <tag k="ref:vcgi:esiteid" v="269651"/>
  </node>
  <node id="-735" visible="true" lat="43.45260667" lon="-72.92950157">
    <tag k="addr:city" v="Wallingford"/>
    <tag k="addr:housenumber" v="800"/>
    <tag k="addr:street" v="Sugar Hill Road"/>
    <tag k="addr:state" v="VT"/>
    <tag k="ref:vcgi:esiteid" v="269652"/>
  </node>
  <node id="-736" visible="true" lat="43.45290334" lon="-72.93110211">
    <tag k="addr:city" v="Wallingford"/>
    <tag k="addr:housenumber" v="754"/>
    <tag k="addr:street" v="Sugar Hill Road"/>
    <tag k="addr:state" v="VT"/>
    <tag k="ref:vcgi:esiteid" v="269653"/>
  </node>
  <node id="-737" visible="true" lat="43.45268218" lon="-72.92837302">
    <tag k="addr:city" v="Wallingford"/>
    <tag k="addr:housenumber" v="860"/>
    <tag k="addr:street" v="Sugar Hill Road"/>
    <tag k="addr:state" v="VT"/>
    <tag k="ref:vcgi:esiteid" v="269654"/>
  </node>
  <node id="-746" visible="true" lat="43.45155334" lon="-72.9857788">
    <tag k="addr:city" v="Wallingford"/>
    <tag k="addr:housenumber" v="1505"/>
    <tag k="addr:street" v="U.S. Route 7 South"/>
    <tag k="addr:state" v="VT"/>
    <tag k="ref:vcgi:esiteid" v="269663"/>
  </node>
  <node id="-790" visible="true" lat="43.44849014" lon="-72.98986816">
    <tag k="addr:city" v="Wallingford"/>
    <tag k="addr:housenumber" v="1780"/>
    <tag k="addr:street" v="U.S. Route 7 South"/>
    <tag k="addr:state" v="VT"/>
    <tag k="ref:vcgi:esiteid" v="269709"/>
  </node>
  <node id="-791" visible="true" lat="43.44842147" lon="-72.98926544">
    <tag k="addr:city" v="Wallingford"/>
    <tag k="addr:housenumber" v="1774"/>
    <tag k="addr:street" v="U.S. Route 7 South"/>
    <tag k="addr:state" v="VT"/>
    <tag k="ref:vcgi:esiteid" v="269710"/>
  </node>
  <node id="-807" visible="true" lat="43.44635391" lon="-72.98316192">
    <tag k="addr:city" v="Wallingford"/>
    <tag k="addr:housenumber" v="328"/>
    <tag k="addr:street" v="Hartsboro Road"/>
    <tag k="addr:state" v="VT"/>
    <tag k="ref:vcgi:esiteid" v="269726"/>
  </node>
  <node id="-818" visible="true" lat="43.44483566" lon="-72.99034118">
    <tag k="addr:city" v="Wallingford"/>
    <tag k="addr:housenumber" v="2024"/>
    <tag k="addr:street" v="U.S. Route 7 South"/>
    <tag k="addr:state" v="VT"/>
    <tag k="ref:vcgi:esiteid" v="269737"/>
  </node>
  <node id="-824" visible="true" lat="43.44284057" lon="-72.99057006">
    <tag k="addr:city" v="Wallingford"/>
    <tag k="addr:housenumber" v="2162"/>
    <tag k="addr:street" v="U.S. Route 7 South"/>
    <tag k="addr:state" v="VT"/>
    <tag k="ref:vcgi:esiteid" v="269743"/>
  </node>
  <node id="-840" visible="true" lat="43.44204712" lon="-72.99047851">
    <tag k="addr:city" v="Wallingford"/>
    <tag k="addr:housenumber" v="2216"/>
    <tag k="addr:street" v="U.S. Route 7 South"/>
    <tag k="addr:state" v="VT"/>
    <tag k="ref:vcgi:esiteid" v="269759"/>
  </node>
  <node id="-844" visible="true" lat="43.44176458" lon="-72.98981388">
    <tag k="addr:city" v="Wallingford"/>
    <tag k="addr:housenumber" v="2251"/>
    <tag k="addr:street" v="U.S. Route 7 South"/>
    <tag k="addr:state" v="VT"/>
    <tag k="ref:vcgi:esiteid" v="269763"/>
  </node>
  <node id="-881" visible="true" lat="43.43589517" lon="-72.99044682">
    <tag k="addr:city" v="Wallingford"/>
    <tag k="addr:housenumber" v="2664"/>
    <tag k="addr:street" v="U.S. Route 7 South"/>
    <tag k="addr:state" v="VT"/>
    <tag k="ref:vcgi:esiteid" v="269800"/>
  </node>
  <node id="-890" visible="true" lat="43.43410491" lon="-72.99021911">
    <tag k="addr:city" v="Wallingford"/>
    <tag k="addr:housenumber" v="2780"/>
    <tag k="addr:street" v="U.S. Route 7 South"/>
    <tag k="addr:state" v="VT"/>
    <tag k="ref:vcgi:esiteid" v="269809"/>
  </node>
  <node id="-892" visible="true" lat="43.43395996" lon="-72.99017333">
    <tag k="addr:city" v="Wallingford"/>
    <tag k="addr:housenumber" v="2788"/>
    <tag k="addr:street" v="U.S. Route 7 South"/>
    <tag k="addr:state" v="VT"/>
    <tag k="ref:vcgi:esiteid" v="269811"/>
  </node>
  <node id="-898" visible="true" lat="43.43290081" lon="-72.9902445">
    <tag k="addr:city" v="Wallingford"/>
    <tag k="addr:housenumber" v="2870"/>
    <tag k="addr:street" v="U.S. Route 7 South"/>
    <tag k="addr:state" v="VT"/>
    <tag k="ref:vcgi:esiteid" v="269817"/>
  </node>
  <node id="-899" visible="true" lat="43.43255314" lon="-72.99030897">
    <tag k="addr:city" v="Wallingford"/>
    <tag k="addr:housenumber" v="2876"/>
    <tag k="addr:street" v="U.S. Route 7 South"/>
    <tag k="addr:state" v="VT"/>
    <tag k="ref:vcgi:esiteid" v="269818"/>
  </node>
  <node id="-914" visible="true" lat="43.43041992" lon="-72.98937225">
    <tag k="addr:city" v="Wallingford"/>
    <tag k="addr:housenumber" v="3036"/>
    <tag k="addr:street" v="U.S. Route 7 South"/>
    <tag k="addr:state" v="VT"/>
    <tag k="ref:vcgi:esiteid" v="269833"/>
  </node>
  <node id="-919" visible="true" lat="43.42950821" lon="-72.98900604">
    <tag k="addr:city" v="Wallingford"/>
    <tag k="addr:housenumber" v="3102"/>
    <tag k="addr:street" v="U.S. Route 7 South"/>
    <tag k="addr:state" v="VT"/>
    <tag k="ref:vcgi:esiteid" v="269838"/>
  </node>
  <node id="-922" visible="true" lat="43.42860794" lon="-72.98885345">
    <tag k="addr:city" v="Wallingford"/>
    <tag k="addr:housenumber" v="3164"/>
    <tag k="addr:street" v="U.S. Route 7 South"/>
    <tag k="addr:state" v="VT"/>
    <tag k="ref:vcgi:esiteid" v="269841"/>
  </node>
  <node id="-950" visible="true" lat="43.41851204" lon="-72.99128444">
    <tag k="addr:city" v="Wallingford"/>
    <tag k="addr:housenumber" v="3887"/>
    <tag k="addr:street" v="U.S. Route 7 South"/>
    <tag k="addr:state" v="VT"/>
    <tag k="ref:vcgi:esiteid" v="269871"/>
  </node>
  <node id="-955" visible="true" lat="43.41636584" lon="-72.99238625">
    <tag k="addr:city" v="Wallingford"/>
    <tag k="addr:housenumber" v="4061"/>
    <tag k="addr:street" v="U.S. Route 7 South"/>
    <tag k="addr:state" v="VT"/>
    <tag k="ref:vcgi:esiteid" v="269876"/>
  </node>
  <node id="-957" visible="true" lat="43.41446459" lon="-72.99190787">
    <tag k="addr:city" v="Wallingford"/>
    <tag k="addr:housenumber" v="4199"/>
    <tag k="addr:street" v="U.S. Route 7 South"/>
    <tag k="addr:state" v="VT"/>
    <tag k="ref:vcgi:esiteid" v="269878"/>
  </node>
  <node id="-959" visible="true" lat="43.41426467" lon="-72.99244689">
    <tag k="addr:city" v="Wallingford"/>
    <tag k="addr:housenumber" v="4210"/>
    <tag k="addr:street" v="U.S. Route 7 South"/>
    <tag k="addr:state" v="VT"/>
    <tag k="ref:vcgi:esiteid" v="269880"/>
  </node>
  <node id="-960" visible="true" lat="43.41424235" lon="-72.99194239">
    <tag k="addr:city" v="Wallingford"/>
    <tag k="addr:housenumber" v="4211"/>
    <tag k="addr:street" v="U.S. Route 7 South"/>
    <tag k="addr:state" v="VT"/>
    <tag k="ref:vcgi:esiteid" v="269881"/>
  </node>
  <node id="-961" visible="true" lat="43.41400909" lon="-72.9925003">
    <tag k="addr:city" v="Wallingford"/>
    <tag k="addr:housenumber" v="4228"/>
    <tag k="addr:street" v="U.S. Route 7 South"/>
    <tag k="addr:state" v="VT"/>
    <tag k="ref:vcgi:esiteid" v="269882"/>
  </node>
  <node id="-962" visible="true" lat="43.41367772" lon="-72.99251062">
    <tag k="addr:city" v="Wallingford"/>
    <tag k="addr:housenumber" v="4254"/>
    <tag k="addr:street" v="U.S. Route 7 South"/>
    <tag k="addr:state" v="VT"/>
    <tag k="ref:vcgi:esiteid" v="269883"/>
  </node>
  <node id="-964" visible="true" lat="43.41342275" lon="-72.99189413">
    <tag k="addr:city" v="Wallingford"/>
    <tag k="addr:housenumber" v="3620"/>
    <tag k="addr:street" v="Hartsboro Road"/>
    <tag k="addr:state" v="VT"/>
    <tag k="ref:vcgi:esiteid" v="269885"/>
  </node>
  <node id="-965" visible="true" lat="43.41301727" lon="-72.9921875">
    <tag k="addr:city" v="Wallingford"/>
    <tag k="addr:housenumber" v="4295"/>
    <tag k="addr:street" v="U.S. Route 7 South"/>
    <tag k="addr:state" v="VT"/>
    <tag k="ref:vcgi:esiteid" v="269886"/>
  </node>
  <node id="-966" visible="true" lat="43.41299819" lon="-72.99256134">
    <tag k="addr:city" v="Wallingford"/>
    <tag k="addr:housenumber" v="4298"/>
    <tag k="addr:street" v="U.S. Route 7 South"/>
    <tag k="addr:state" v="VT"/>
    <tag k="ref:vcgi:esiteid" v="269887"/>
  </node>
  <node id="-967" visible="true" lat="43.41295623" lon="-72.99169158">
    <tag k="addr:city" v="Wallingford"/>
    <tag k="addr:housenumber" v="3603"/>
    <tag k="addr:street" v="Hartsboro Road"/>
    <tag k="addr:state" v="VT"/>
    <tag k="ref:vcgi:esiteid" v="269888"/>
  </node>
  <node id="-970" visible="true" lat="43.41231536" lon="-72.99210357">
    <tag k="addr:city" v="Wallingford"/>
    <tag k="addr:housenumber" v="4343"/>
    <tag k="addr:street" v="U.S. Route 7 South"/>
    <tag k="addr:state" v="VT"/>
    <tag k="ref:vcgi:esiteid" v="269891"/>
  </node>
  <node id="-971" visible="true" lat="43.41220474" lon="-72.99272155">
    <tag k="addr:city" v="Wallingford"/>
    <tag k="addr:housenumber" v="4354"/>
    <tag k="addr:street" v="U.S. Route 7 South"/>
    <tag k="addr:state" v="VT"/>
    <tag k="ref:vcgi:esiteid" v="269892"/>
  </node>
  <node id="-977" visible="true" lat="43.4103012" lon="-72.99314117">
    <tag k="addr:city" v="Wallingford"/>
    <tag k="addr:housenumber" v="4394"/>
    <tag k="addr:street" v="U.S. Route 7 South"/>
    <tag k="addr:state" v="VT"/>
    <tag k="ref:vcgi:esiteid" v="269898"/>
  </node>
  <node id="-999" visible="true" lat="43.40238952" lon="-72.98941039">
    <tag k="addr:city" v="Wallingford"/>
    <tag k="addr:housenumber" v="764"/>
    <tag k="addr:street" v="Homer Stone Road"/>
    <tag k="addr:state" v="VT"/>
    <tag k="ref:vcgi:esiteid" v="269920"/>
  </node>
  <node id="-1000" visible="true" lat="43.40147781" lon="-72.99836731">
    <tag k="addr:city" v="Wallingford"/>
    <tag k="addr:housenumber" v="5172"/>
    <tag k="addr:street" v="U.S. Route 7 South"/>
    <tag k="addr:state" v="VT"/>
    <tag k="ref:vcgi:esiteid" v="269921"/>
  </node>
  <node id="-1001" visible="true" lat="43.40109807" lon="-72.98864984">
    <tag k="addr:city" v="Wallingford"/>
    <tag k="addr:housenumber" v="855"/>
    <tag k="addr:street" v="Homer Stone Road"/>
    <tag k="addr:state" v="VT"/>
    <tag k="ref:vcgi:esiteid" v="269922"/>
  </node>
  <node id="-1002" visible="true" lat="43.40069961" lon="-72.98950958">
    <tag k="addr:city" v="Wallingford"/>
    <tag k="addr:housenumber" v="880"/>
    <tag k="addr:street" v="Homer Stone Road"/>
    <tag k="addr:state" v="VT"/>
    <tag k="ref:vcgi:esiteid" v="269923"/>
  </node>
  <node id="-1003" visible="true" lat="43.39992142" lon="-72.99873352">
    <tag k="addr:city" v="Wallingford"/>
    <tag k="addr:housenumber" v="5280"/>
    <tag k="addr:street" v="U.S. Route 7 South"/>
    <tag k="addr:state" v="VT"/>
    <tag k="ref:vcgi:esiteid" v="269924"/>
  </node>
  <node id="-1004" visible="true" lat="43.39893302" lon="-72.9900243">
    <tag k="addr:city" v="Wallingford"/>
    <tag k="addr:housenumber" v="1018"/>
    <tag k="addr:street" v="Homer Stone Road"/>
    <tag k="addr:state" v="VT"/>
    <tag k="ref:vcgi:esiteid" v="269925"/>
  </node>
  <node id="-1005" visible="true" lat="43.39836241" lon="-72.99908601">
    <tag k="addr:city" v="Wallingford"/>
    <tag k="addr:housenumber" v="5372"/>
    <tag k="addr:street" v="U.S. Route 7 South"/>
    <tag k="addr:state" v="VT"/>
    <tag k="ref:vcgi:esiteid" v="269926"/>
  </node>
  <node id="-1006" visible="true" lat="43.39837349" lon="-72.99034232">
    <tag k="addr:city" v="Wallingford"/>
    <tag k="addr:housenumber" v="1056"/>
    <tag k="addr:street" v="Homer Stone Road"/>
    <tag k="addr:state" v="VT"/>
    <tag k="ref:vcgi:esiteid" v="269927"/>
  </node>
  <node id="-1007" visible="true" lat="43.39790185" lon="-72.99046449">
    <tag k="addr:city" v="Wallingford"/>
    <tag k="addr:housenumber" v="1096"/>
    <tag k="addr:street" v="Homer Stone Road"/>
    <tag k="addr:state" v="VT"/>
    <tag k="ref:vcgi:esiteid" v="269928"/>
  </node>
  <node id="-1016" visible="true" lat="43.47528721" lon="-72.97686796">
    <tag k="addr:city" v="Wallingford"/>
    <tag k="addr:housenumber" v="251"/>
    <tag k="addr:street" v="North Main Street"/>
    <tag k="addr:state" v="VT"/>
    <tag k="ref:vcgi:esiteid" v="269939"/>
  </node>
  <node id="-1017" visible="true" lat="43.47499053" lon="-72.97693415">
    <tag k="addr:city" v="Wallingford"/>
    <tag k="addr:housenumber" v="225"/>
    <tag k="addr:street" v="North Main Street"/>
    <tag k="addr:state" v="VT"/>
    <tag k="ref:vcgi:esiteid" v="269940"/>
  </node>
  <node id="-1018" visible="true" lat="43.47563171" lon="-72.97677612">
    <tag k="addr:city" v="Wallingford"/>
    <tag k="addr:housenumber" v="255"/>
    <tag k="addr:street" v="North Main Street"/>
    <tag k="addr:state" v="VT"/>
    <tag k="ref:vcgi:esiteid" v="269941"/>
  </node>
  <node id="-1019" visible="true" lat="43.47382836" lon="-72.97650714">
    <tag k="addr:city" v="Wallingford"/>
    <tag k="addr:housenumber" v="164"/>
    <tag k="addr:street" v="North Main Street"/>
    <tag k="addr:state" v="VT"/>
    <tag k="ref:vcgi:esiteid" v="269942"/>
  </node>
  <node id="-1020" visible="true" lat="43.47245319" lon="-72.97680389">
    <tag k="addr:city" v="Wallingford"/>
    <tag k="addr:housenumber" v="56"/>
    <tag k="addr:street" v="North Main Street"/>
    <tag k="addr:state" v="VT"/>
    <tag k="ref:vcgi:esiteid" v="269943"/>
  </node>
  <node id="-1021" visible="true" lat="43.47215782" lon="-72.97690722">
    <tag k="addr:city" v="Wallingford"/>
    <tag k="addr:housenumber" v="42"/>
    <tag k="addr:street" v="North Main Street"/>
    <tag k="addr:state" v="VT"/>
    <tag k="ref:vcgi:esiteid" v="269944"/>
  </node>
  <node id="-1022" visible="true" lat="43.4719392" lon="-72.97686385">
    <tag k="addr:city" v="Wallingford"/>
    <tag k="addr:housenumber" v="10"/>
    <tag k="addr:street" v="North Main Street"/>
    <tag k="addr:state" v="VT"/>
    <tag k="ref:vcgi:esiteid" v="269945"/>
  </node>
  <node id="-1024" visible="true" lat="43.47550335" lon="-72.97630803">
    <tag k="addr:city" v="Wallingford"/>
    <tag k="addr:housenumber" v="19"/>
    <tag k="addr:street" v="Meacham Street"/>
    <tag k="addr:state" v="VT"/>
    <tag k="ref:vcgi:esiteid" v="269947"/>
  </node>
  <node id="-1025" visible="true" lat="43.47513152" lon="-72.97626894">
    <tag k="addr:city" v="Wallingford"/>
    <tag k="addr:housenumber" v="238"/>
    <tag k="addr:street" v="North Main Street"/>
    <tag k="addr:state" v="VT"/>
    <tag k="ref:vcgi:esiteid" v="269948"/>
  </node>
  <node id="-1027" visible="true" lat="43.46883911" lon="-72.97631178">
    <tag k="addr:city" v="Wallingford"/>
    <tag k="addr:housenumber" v="93"/>
    <tag k="addr:street" v="Church Street"/>
    <tag k="addr:state" v="VT"/>
    <tag k="ref:vcgi:esiteid" v="269950"/>
  </node>
  <node id="-1039" visible="true" lat="43.47210551" lon="-72.97774761">
    <tag k="addr:city" v="Wallingford"/>
    <tag k="addr:housenumber" v="24"/>
    <tag k="addr:street" v="Depot Street"/>
    <tag k="addr:state" v="VT"/>
    <tag k="ref:vcgi:esiteid" v="269963"/>
  </node>
  <node id="-1042" visible="true" lat="43.41697063" lon="-72.99446176">
    <tag k="addr:city" v="Wallingford"/>
    <tag k="addr:housenumber" v="100"/>
    <tag k="addr:street" v="Dugway Road"/>
    <tag k="addr:state" v="VT"/>
    <tag k="ref:vcgi:esiteid" v="269966"/>
  </node>
  <node id="-1043" visible="true" lat="43.41529553" lon="-72.99290484">
    <tag k="addr:city" v="Wallingford"/>
    <tag k="addr:housenumber" v="31"/>
    <tag k="addr:street" v="Dugway Road"/>
    <tag k="addr:state" v="VT"/>
    <tag k="ref:vcgi:esiteid" v="269967"/>
  </node>
  <node id="-1045" visible="true" lat="43.45137023" lon="-72.98586273">
    <tag k="addr:city" v="Wallingford"/>
    <tag k="addr:housenumber" v="1509"/>
    <tag k="addr:street" v="U.S. Route 7 South"/>
    <tag k="addr:state" v="VT"/>
    <tag k="ref:vcgi:esiteid" v="269969"/>
  </node>
  <node id="-1061" visible="true" lat="43.4716072" lon="-72.97528839">
    <tag k="addr:city" v="Wallingford"/>
    <tag k="addr:housenumber" v="97"/>
    <tag k="addr:street" v="School Street"/>
    <tag k="addr:state" v="VT"/>
    <tag k="ref:vcgi:esiteid" v="269985"/>
  </node>
  <node id="-1074" visible="true" lat="43.46984159" lon="-72.97723623">
    <tag k="addr:city" v="Wallingford"/>
    <tag k="addr:housenumber" v="143"/>
    <tag k="addr:street" v="South Main Street"/>
    <tag k="addr:state" v="VT"/>
    <tag k="ref:vcgi:esiteid" v="270000"/>
  </node>
  <node id="-1075" visible="true" lat="43.46980285" lon="-72.97671508">
    <tag k="addr:city" v="Wallingford"/>
    <tag k="addr:housenumber" v="44"/>
    <tag k="addr:street" v="Mill Street"/>
    <tag k="addr:state" v="VT"/>
    <tag k="ref:vcgi:esiteid" v="270001"/>
  </node>
  <node id="-1077" visible="true" lat="43.46964034" lon="-72.97647361">
    <tag k="addr:city" v="Wallingford"/>
    <tag k="addr:housenumber" v="54"/>
    <tag k="addr:street" v="Mill Street"/>
    <tag k="addr:state" v="VT"/>
    <tag k="ref:vcgi:esiteid" v="270003"/>
  </node>
  <node id="-1079" visible="true" lat="43.46998567" lon="-72.97660141">
    <tag k="addr:city" v="Wallingford"/>
    <tag k="addr:housenumber" v="43"/>
    <tag k="addr:street" v="Mill Street"/>
    <tag k="addr:state" v="VT"/>
    <tag k="ref:vcgi:esiteid" v="270005"/>
  </node>
  <node id="-1080" visible="true" lat="43.46988558" lon="-72.9762656">
    <tag k="addr:city" v="Wallingford"/>
    <tag k="addr:housenumber" v="53"/>
    <tag k="addr:street" v="Mill Street"/>
    <tag k="addr:state" v="VT"/>
    <tag k="ref:vcgi:esiteid" v="270006"/>
  </node>
  <node id="-1092" visible="true" lat="43.4502235" lon="-72.87522866">
    <tag k="addr:city" v="Wallingford"/>
    <tag k="addr:housenumber" v="30"/>
    <tag k="addr:street" v="Village Street"/>
    <tag k="addr:state" v="VT"/>
    <tag k="ref:vcgi:esiteid" v="270020"/>
  </node>
  <node id="-1096" visible="true" lat="43.47258259" lon="-72.97904863">
    <tag k="addr:city" v="Wallingford"/>
    <tag k="addr:housenumber" v="36"/>
    <tag k="addr:street" v="Railroad Street"/>
    <tag k="addr:state" v="VT"/>
    <tag k="ref:vcgi:esiteid" v="270026"/>
  </node>
  <node id="-1097" visible="true" lat="43.47259208" lon="-72.97880573">
    <tag k="addr:city" v="Wallingford"/>
    <tag k="addr:housenumber" v="34"/>
    <tag k="addr:street" v="Railroad Street"/>
    <tag k="addr:state" v="VT"/>
    <tag k="ref:vcgi:esiteid" v="270027"/>
  </node>
  <node id="-1102" visible="true" lat="43.45703738" lon="-72.9822891">
    <tag k="addr:city" v="Wallingford"/>
    <tag k="addr:housenumber" v="1123"/>
    <tag k="addr:street" v="U.S. Route 7 South"/>
    <tag k="addr:state" v="VT"/>
    <tag k="ref:vcgi:esiteid" v="270033"/>
  </node>
  <node id="-1115" visible="true" lat="43.45507736" lon="-72.98417936">
    <tag k="addr:city" v="Wallingford"/>
    <tag k="addr:housenumber" v="1221"/>
    <tag k="addr:street" v="U.S. Route 7 South"/>
    <tag k="addr:state" v="VT"/>
    <tag k="ref:vcgi:esiteid" v="270046"/>
  </node>
  <node id="-1117" visible="true" lat="43.45412761" lon="-72.94520884">
    <tag k="addr:city" v="Wallingford"/>
    <tag k="addr:housenumber" v="126"/>
    <tag k="addr:street" v="White Rocks Picnic Road"/>
    <tag k="addr:state" v="VT"/>
    <tag k="ref:vcgi:esiteid" v="270048"/>
  </node>
  <node id="-1118" visible="true" lat="43.47367604" lon="-72.977265">
    <tag k="addr:city" v="Wallingford"/>
    <tag k="addr:housenumber" v="137"/>
    <tag k="addr:street" v="North Main Street"/>
    <tag k="addr:state" v="VT"/>
    <tag k="ref:vcgi:esiteid" v="270049"/>
  </node>
  <node id="-1132" visible="true" lat="43.45716334" lon="-72.98585099">
    <tag k="addr:city" v="Wallingford"/>
    <tag k="addr:housenumber" v="116"/>
    <tag k="addr:street" v="Cook Drive"/>
    <tag k="addr:state" v="VT"/>
    <tag k="ref:vcgi:esiteid" v="270064"/>
  </node>
  <node id="-1133" visible="true" lat="43.45358489" lon="-72.9455882">
    <tag k="addr:city" v="Wallingford"/>
    <tag k="addr:housenumber" v="140"/>
    <tag k="addr:street" v="White Rocks Picnic Road"/>
    <tag k="addr:state" v="VT"/>
    <tag k="ref:vcgi:esiteid" v="270065"/>
  </node>
  <node id="-1148" visible="true" lat="43.45312749" lon="-72.92916153">
    <tag k="addr:city" v="Wallingford"/>
    <tag k="addr:housenumber" v="848"/>
    <tag k="addr:street" v="Sugar Hill Road"/>
    <tag k="addr:state" v="VT"/>
    <tag k="ref:vcgi:esiteid" v="270082"/>
  </node>
  <node id="-1151" visible="true" lat="43.39996119" lon="-72.98954784">
    <tag k="addr:city" v="Wallingford"/>
    <tag k="addr:housenumber" v="932"/>
    <tag k="addr:street" v="Homer Stone Road"/>
    <tag k="addr:state" v="VT"/>
    <tag k="ref:vcgi:esiteid" v="270086"/>
  </node>
  <node id="-1152" visible="true" lat="43.4752949" lon="-72.97613955">
    <tag k="addr:city" v="Wallingford"/>
    <tag k="addr:housenumber" v="20"/>
    <tag k="addr:street" v="Meacham Street"/>
    <tag k="addr:state" v="VT"/>
    <tag k="ref:vcgi:esiteid" v="270087"/>
  </node>
  <node id="-1155" visible="true" lat="43.45446803" lon="-72.94460776">
    <tag k="addr:city" v="Wallingford"/>
    <tag k="addr:housenumber" v="96"/>
    <tag k="addr:street" v="White Rocks Picnic Road"/>
    <tag k="addr:state" v="VT"/>
    <tag k="ref:vcgi:esiteid" v="306152"/>
  </node>
  <node id="-1156" visible="true" lat="43.44209049" lon="-72.98983983">
    <tag k="addr:city" v="Wallingford"/>
    <tag k="addr:housenumber" v="2243"/>
    <tag k="addr:street" v="U.S. Route 7 South"/>
    <tag k="addr:state" v="VT"/>
    <tag k="ref:vcgi:esiteid" v="307161"/>
  </node>
  <node id="-1167" visible="true" lat="43.46785151" lon="-72.95999396">
    <tag k="addr:city" v="Wallingford"/>
    <tag k="addr:housenumber" v="275"/>
    <tag k="addr:street" v="East Street"/>
    <tag k="addr:state" v="VT"/>
    <tag k="ref:vcgi:esiteid" v="313891"/>
  </node>
  <node id="-1168" visible="true" lat="43.40141722" lon="-72.98952027">
    <tag k="addr:city" v="Wallingford"/>
    <tag k="addr:housenumber" v="814"/>
    <tag k="addr:street" v="Homer Stone Road"/>
    <tag k="addr:state" v="VT"/>
    <tag k="ref:vcgi:esiteid" v="315252"/>
  </node>
  <node id="-1170" visible="true" lat="43.45729773" lon="-72.98707423">
    <tag k="addr:city" v="Wallingford"/>
    <tag k="addr:housenumber" v="180"/>
    <tag k="addr:street" v="Cook Drive"/>
    <tag k="addr:state" v="VT"/>
    <tag k="ref:vcgi:esiteid" v="315455"/>
  </node>
  <node id="-1179" visible="true" lat="43.4562602" lon="-72.98345256">
    <tag k="addr:city" v="Wallingford"/>
    <tag k="addr:housenumber" v="1125"/>
    <tag k="addr:street" v="U.S. Route 7 South"/>
    <tag k="addr:state" v="VT"/>
    <tag k="ref:vcgi:esiteid" v="326495"/>
  </node>
  <node id="-1187" visible="true" lat="43.43144867" lon="-72.99052966">
    <tag k="addr:city" v="Wallingford"/>
    <tag k="addr:housenumber" v="2920"/>
    <tag k="addr:street" v="U.S. Route 7 South"/>
    <tag k="addr:state" v="VT"/>
    <tag k="ref:vcgi:esiteid" v="335052"/>
  </node>
  <node id="-1200" visible="true" lat="43.43943694" lon="-72.99238838">
    <tag k="addr:city" v="Wallingford"/>
    <tag k="addr:housenumber" v="2680"/>
    <tag k="addr:street" v="U.S. Route 7 South"/>
    <tag k="addr:state" v="VT"/>
    <tag k="ref:vcgi:esiteid" v="342939"/>
  </node>
  <node id="-1201" visible="true" lat="43.43606227" lon="-72.98963965">
    <tag k="addr:city" v="Wallingford"/>
    <tag k="addr:housenumber" v="2647"/>
    <tag k="addr:street" v="U.S. Route 7 South"/>
    <tag k="addr:state" v="VT"/>
    <tag k="ref:vcgi:esiteid" v="342940"/>
  </node>
  <node id="-1214" visible="true" lat="43.47556989" lon="-72.97606772">
    <tag k="addr:city" v="Wallingford"/>
    <tag k="addr:housenumber" v="25"/>
    <tag k="addr:street" v="Meacham Street"/>
    <tag k="addr:state" v="VT"/>
    <tag k="ref:vcgi:esiteid" v="450979"/>
  </node>
</osm>
