<?xml version="1.0" encoding="UTF-8"?>
<osm version="0.6" generator="JOSM">
  <node id="-166" visible="true" lat="44.15106156" lon="-73.23411738">
    <tag k="addr:city" v="Waltham"/>
    <tag k="addr:housenumber" v="16"/>
    <tag k="addr:street" v="High Manor Park"/>
    <tag k="addr:state" v="VT"/>
    <tag k="ref:vcgi:esiteid" v="270156"/>
  </node>
  <node id="-168" visible="true" lat="44.15088627" lon="-73.23414251">
    <tag k="addr:city" v="Waltham"/>
    <tag k="addr:housenumber" v="28"/>
    <tag k="addr:street" v="High Manor Park"/>
    <tag k="addr:state" v="VT"/>
    <tag k="ref:vcgi:esiteid" v="270158"/>
  </node>
  <node id="-170" visible="true" lat="44.1507932" lon="-73.23369344">
    <tag k="addr:city" v="Waltham"/>
    <tag k="addr:housenumber" v="33"/>
    <tag k="addr:street" v="High Manor Park"/>
    <tag k="addr:state" v="VT"/>
    <tag k="ref:vcgi:esiteid" v="270160"/>
  </node>
  <node id="-171" visible="true" lat="44.15072652" lon="-73.23415352">
    <tag k="addr:city" v="Waltham"/>
    <tag k="addr:housenumber" v="40"/>
    <tag k="addr:street" v="High Manor Park"/>
    <tag k="addr:state" v="VT"/>
    <tag k="ref:vcgi:esiteid" v="270161"/>
  </node>
  <node id="-172" visible="true" lat="44.15057646" lon="-73.23419418">
    <tag k="addr:city" v="Waltham"/>
    <tag k="addr:housenumber" v="50"/>
    <tag k="addr:street" v="High Manor Park"/>
    <tag k="addr:state" v="VT"/>
    <tag k="ref:vcgi:esiteid" v="270162"/>
  </node>
  <node id="-174" visible="true" lat="44.15039868" lon="-73.23421601">
    <tag k="addr:city" v="Waltham"/>
    <tag k="addr:housenumber" v="62"/>
    <tag k="addr:street" v="High Manor Park"/>
    <tag k="addr:state" v="VT"/>
    <tag k="ref:vcgi:esiteid" v="270164"/>
  </node>
  <node id="-177" visible="true" lat="44.15023418" lon="-73.23422125">
    <tag k="addr:city" v="Waltham"/>
    <tag k="addr:housenumber" v="80"/>
    <tag k="addr:street" v="High Manor Park"/>
    <tag k="addr:state" v="VT"/>
    <tag k="ref:vcgi:esiteid" v="270167"/>
  </node>
  <node id="-178" visible="true" lat="44.1500815" lon="-73.23425495">
    <tag k="addr:city" v="Waltham"/>
    <tag k="addr:housenumber" v="86"/>
    <tag k="addr:street" v="High Manor Park"/>
    <tag k="addr:state" v="VT"/>
    <tag k="ref:vcgi:esiteid" v="270168"/>
  </node>
  <node id="-179" visible="true" lat="44.14991593" lon="-73.23466954">
    <tag k="addr:city" v="Waltham"/>
    <tag k="addr:housenumber" v="230"/>
    <tag k="addr:street" v="High Manor Park"/>
    <tag k="addr:state" v="VT"/>
    <tag k="ref:vcgi:esiteid" v="270169"/>
  </node>
  <node id="-180" visible="true" lat="44.14993768" lon="-73.23493986">
    <tag k="addr:city" v="Waltham"/>
    <tag k="addr:housenumber" v="222"/>
    <tag k="addr:street" v="High Manor Park"/>
    <tag k="addr:state" v="VT"/>
    <tag k="ref:vcgi:esiteid" v="270170"/>
  </node>
  <node id="-181" visible="true" lat="44.1499861" lon="-73.23377179">
    <tag k="addr:city" v="Waltham"/>
    <tag k="addr:housenumber" v="93"/>
    <tag k="addr:street" v="High Manor Park"/>
    <tag k="addr:state" v="VT"/>
    <tag k="ref:vcgi:esiteid" v="270171"/>
  </node>
  <node id="-183" visible="true" lat="44.14992662" lon="-73.23426002">
    <tag k="addr:city" v="Waltham"/>
    <tag k="addr:housenumber" v="96"/>
    <tag k="addr:street" v="High Manor Park"/>
    <tag k="addr:state" v="VT"/>
    <tag k="ref:vcgi:esiteid" v="270173"/>
  </node>
  <node id="-185" visible="true" lat="44.14974827" lon="-73.23428006">
    <tag k="addr:city" v="Waltham"/>
    <tag k="addr:housenumber" v="108"/>
    <tag k="addr:street" v="High Manor Park"/>
    <tag k="addr:state" v="VT"/>
    <tag k="ref:vcgi:esiteid" v="270175"/>
  </node>
  <node id="-189" visible="true" lat="44.14957305" lon="-73.23427853">
    <tag k="addr:city" v="Waltham"/>
    <tag k="addr:housenumber" v="120"/>
    <tag k="addr:street" v="High Manor Park"/>
    <tag k="addr:state" v="VT"/>
    <tag k="ref:vcgi:esiteid" v="270179"/>
  </node>
  <node id="-211" visible="true" lat="44.14525222" lon="-73.24201202">
    <tag k="addr:city" v="Waltham"/>
    <tag k="addr:housenumber" v="1057"/>
    <tag k="addr:street" v="Maple Street"/>
    <tag k="addr:state" v="VT"/>
    <tag k="ref:vcgi:esiteid" v="270201"/>
  </node>
  <node id="-224" visible="true" lat="44.141241" lon="-73.23752201">
    <tag k="addr:city" v="Waltham"/>
    <tag k="addr:housenumber" v="918"/>
    <tag k="addr:street" v="Route 66"/>
    <tag k="addr:state" v="VT"/>
    <tag k="ref:vcgi:esiteid" v="270214"/>
  </node>
  <node id="-227" visible="true" lat="44.14031495" lon="-73.23751705">
    <tag k="addr:city" v="Waltham"/>
    <tag k="addr:housenumber" v="916"/>
    <tag k="addr:street" v="Route 66"/>
    <tag k="addr:state" v="VT"/>
    <tag k="ref:vcgi:esiteid" v="270217"/>
  </node>
  <node id="-229" visible="true" lat="44.13999686" lon="-73.24171638">
    <tag k="addr:city" v="Waltham"/>
    <tag k="addr:housenumber" v="1161"/>
    <tag k="addr:street" v="Route 66"/>
    <tag k="addr:state" v="VT"/>
    <tag k="ref:vcgi:esiteid" v="270219"/>
  </node>
  <node id="-230" visible="true" lat="44.13984551" lon="-73.2405956">
    <tag k="addr:city" v="Waltham"/>
    <tag k="addr:housenumber" v="1099"/>
    <tag k="addr:street" v="Route 66"/>
    <tag k="addr:state" v="VT"/>
    <tag k="ref:vcgi:esiteid" v="270220"/>
  </node>
  <node id="-233" visible="true" lat="44.1393013" lon="-73.23469543">
    <tag k="addr:city" v="Waltham"/>
    <tag k="addr:housenumber" v="821"/>
    <tag k="addr:street" v="Route 66"/>
    <tag k="addr:state" v="VT"/>
    <tag k="ref:vcgi:esiteid" v="270223"/>
  </node>
  <node id="-255" visible="true" lat="44.12897872" lon="-73.24375152">
    <tag k="addr:city" v="Waltham"/>
    <tag k="addr:housenumber" v="2183"/>
    <tag k="addr:street" v="Maple Street"/>
    <tag k="addr:state" v="VT"/>
    <tag k="ref:vcgi:esiteid" v="270245"/>
  </node>
  <node id="-313" visible="true" lat="44.1202119" lon="-73.24188239">
    <tag k="addr:city" v="Waltham"/>
    <tag k="addr:housenumber" v="2811"/>
    <tag k="addr:street" v="Maple Street"/>
    <tag k="addr:state" v="VT"/>
    <tag k="ref:vcgi:esiteid" v="448122"/>
  </node>
  <node id="-315" visible="true" lat="44.14241475" lon="-73.24667364">
    <tag k="addr:city" v="Waltham"/>
    <tag k="addr:housenumber" v="1248"/>
    <tag k="addr:street" v="Maple Street"/>
    <tag k="addr:state" v="VT"/>
    <tag k="ref:vcgi:esiteid" v="448509"/>
  </node>
  <node id="-318" visible="true" lat="44.16001773" lon="-73.21765728">
    <tag k="addr:city" v="Waltham"/>
    <tag k="addr:housenumber" v="23"/>
    <tag k="addr:street" v="Mossy Grove"/>
    <tag k="addr:state" v="VT"/>
    <tag k="ref:vcgi:esiteid" v="449639"/>
  </node>
  <node id="-326" visible="true" lat="44.14477372" lon="-73.21127165">
    <tag k="addr:city" v="Waltham"/>
    <tag k="addr:housenumber" v="160"/>
    <tag k="addr:street" v="Hidden Meadows Lane"/>
    <tag k="addr:state" v="VT"/>
    <tag k="ref:vcgi:esiteid" v="453059"/>
  </node>
  <node id="-327" visible="true" lat="44.14532767" lon="-73.21097345">
    <tag k="addr:city" v="Waltham"/>
    <tag k="addr:housenumber" v="152"/>
    <tag k="addr:street" v="Hidden Meadows Lane"/>
    <tag k="addr:state" v="VT"/>
    <tag k="ref:vcgi:esiteid" v="453060"/>
  </node>
  <node id="-329" visible="true" lat="44.12091143" lon="-73.24391448">
    <tag k="addr:city" v="Waltham"/>
    <tag k="addr:housenumber" v="2728"/>
    <tag k="addr:street" v="Maple Street"/>
    <tag k="addr:state" v="VT"/>
    <tag k="ref:vcgi:esiteid" v="453571"/>
  </node>
  <node id="-331" visible="true" lat="44.12692686" lon="-73.21336675">
    <tag k="addr:city" v="Waltham"/>
    <tag k="addr:housenumber" v="3289"/>
    <tag k="addr:street" v="Green Street"/>
    <tag k="addr:state" v="VT"/>
    <tag k="ref:vcgi:esiteid" v="454413"/>
  </node>
  <node id="-332" visible="true" lat="44.16138307" lon="-73.22584385">
    <tag k="addr:city" v="Waltham"/>
    <tag k="addr:housenumber" v="488"/>
    <tag k="addr:street" v="Plank Road"/>
    <tag k="addr:state" v="VT"/>
    <tag k="ref:vcgi:esiteid" v="617135"/>
  </node>
  <node id="-335" visible="true" lat="44.12371382" lon="-73.24098528">
    <tag k="addr:city" v="Waltham"/>
    <tag k="addr:housenumber" v="2695"/>
    <tag k="addr:street" v="Maple Street"/>
    <tag k="addr:state" v="VT"/>
    <tag k="ref:vcgi:esiteid" v="619533"/>
  </node>
  <node id="-336" visible="true" lat="44.14356741" lon="-73.21508133">
    <tag k="addr:city" v="Waltham"/>
    <tag k="addr:housenumber" v="232"/>
    <tag k="addr:street" v="Hidden Meadows Lane"/>
    <tag k="addr:state" v="VT"/>
    <tag k="ref:vcgi:esiteid" v="619534"/>
  </node>
  <node id="-337" visible="true" lat="44.10900691" lon="-73.22008064">
    <tag k="addr:city" v="Waltham"/>
    <tag k="addr:housenumber" v="2133"/>
    <tag k="addr:street" v="Vermont Route 17"/>
    <tag k="addr:state" v="VT"/>
    <tag k="ref:vcgi:esiteid" v="752765"/>
  </node>
  <node id="-338" visible="true" lat="44.16062943" lon="-73.22367145">
    <tag k="addr:city" v="Waltham"/>
    <tag k="addr:housenumber" v="620"/>
    <tag k="addr:street" v="Plank Road"/>
    <tag k="addr:state" v="VT"/>
    <tag k="ref:vcgi:esiteid" v="761192"/>
  </node>
  <node id="-339" visible="true" lat="44.16050569" lon="-73.22290583">
    <tag k="addr:city" v="Waltham"/>
    <tag k="addr:housenumber" v="622"/>
    <tag k="addr:street" v="Plank Road"/>
    <tag k="addr:state" v="VT"/>
    <tag k="ref:vcgi:esiteid" v="761193"/>
  </node>
  <node id="-340" visible="true" lat="44.16056297" lon="-73.2217554">
    <tag k="addr:city" v="Waltham"/>
    <tag k="addr:housenumber" v="718"/>
    <tag k="addr:street" v="Plank Road"/>
    <tag k="addr:state" v="VT"/>
    <tag k="ref:vcgi:esiteid" v="761194"/>
  </node>
  <node id="-341" visible="true" lat="44.15792387" lon="-73.22223923">
    <tag k="addr:city" v="Waltham"/>
    <tag k="addr:housenumber" v="720"/>
    <tag k="addr:street" v="Plank Road"/>
    <tag k="addr:state" v="VT"/>
    <tag k="ref:vcgi:esiteid" v="761195"/>
  </node>
  <node id="-342" visible="true" lat="44.13870198" lon="-73.22676331">
    <tag k="addr:city" v="Waltham"/>
    <tag k="addr:housenumber" v="361"/>
    <tag k="addr:street" v="Route 66"/>
    <tag k="addr:state" v="VT"/>
    <tag k="ref:vcgi:esiteid" v="1050135"/>
  </node>
</osm>
