<?xml version="1.0" encoding="UTF-8"?>
<osm version="0.6" generator="JOSM">
  <node id="-100" visible="true" lat="43.01348959" lon="-72.74680019">
    <tag k="addr:city" v="Wardsboro"/>
    <tag k="addr:housenumber" v="2059"/>
    <tag k="addr:street" v="Newfane Road"/>
    <tag k="addr:state" v="VT"/>
    <tag k="ref:vcgi:esiteid" v="174806"/>
  </node>
  <node id="-101" visible="true" lat="43.05265583" lon="-72.83739653">
    <tag k="addr:city" v="Wardsboro"/>
    <tag k="addr:housenumber" v="2"/>
    <tag k="addr:street" v="Hemlock Hill Road"/>
    <tag k="addr:state" v="VT"/>
    <tag k="ref:vcgi:esiteid" v="270291"/>
  </node>
  <node id="-115" visible="true" lat="43.0511856" lon="-72.78627777">
    <tag k="addr:city" v="Wardsboro"/>
    <tag k="addr:housenumber" v="34"/>
    <tag k="addr:street" v="Vermont Route 100"/>
    <tag k="addr:state" v="VT"/>
    <tag k="ref:vcgi:esiteid" v="270305"/>
  </node>
  <node id="-129" visible="true" lat="43.0503088" lon="-72.78774158">
    <tag k="addr:city" v="Wardsboro"/>
    <tag k="addr:housenumber" v="115"/>
    <tag k="addr:street" v="Peters Lane"/>
    <tag k="addr:state" v="VT"/>
    <tag k="ref:vcgi:esiteid" v="270319"/>
  </node>
  <node id="-133" visible="true" lat="43.05007718" lon="-72.83558072">
    <tag k="addr:city" v="Wardsboro"/>
    <tag k="addr:housenumber" v="673"/>
    <tag k="addr:street" v="Fay Boyden Road"/>
    <tag k="addr:state" v="VT"/>
    <tag k="ref:vcgi:esiteid" v="270323"/>
  </node>
  <node id="-149" visible="true" lat="43.05088835" lon="-72.75513438">
    <tag k="addr:city" v="Wardsboro"/>
    <tag k="addr:housenumber" v="245"/>
    <tag k="addr:street" v="Kidder Road"/>
    <tag k="addr:state" v="VT"/>
    <tag k="ref:vcgi:esiteid" v="270339"/>
  </node>
  <node id="-150" visible="true" lat="43.04948425" lon="-72.77265167">
    <tag k="addr:city" v="Wardsboro"/>
    <tag k="addr:housenumber" v="1098"/>
    <tag k="addr:street" v="East Hill Road"/>
    <tag k="addr:state" v="VT"/>
    <tag k="ref:vcgi:esiteid" v="270340"/>
  </node>
  <node id="-159" visible="true" lat="43.04930114" lon="-72.78595733">
    <tag k="addr:city" v="Wardsboro"/>
    <tag k="addr:housenumber" v="166"/>
    <tag k="addr:street" v="Vermont Route 100"/>
    <tag k="addr:state" v="VT"/>
    <tag k="ref:vcgi:esiteid" v="270349"/>
  </node>
  <node id="-160" visible="true" lat="43.05065944" lon="-72.75637979">
    <tag k="addr:city" v="Wardsboro"/>
    <tag k="addr:housenumber" v="165"/>
    <tag k="addr:street" v="Kidder Road"/>
    <tag k="addr:state" v="VT"/>
    <tag k="ref:vcgi:esiteid" v="270350"/>
  </node>
  <node id="-164" visible="true" lat="43.04906463" lon="-72.78636169">
    <tag k="addr:city" v="Wardsboro"/>
    <tag k="addr:housenumber" v="198"/>
    <tag k="addr:street" v="Vermont Route 100"/>
    <tag k="addr:state" v="VT"/>
    <tag k="ref:vcgi:esiteid" v="270354"/>
  </node>
  <node id="-173" visible="true" lat="43.05026105" lon="-72.75830522">
    <tag k="addr:city" v="Wardsboro"/>
    <tag k="addr:housenumber" v="63"/>
    <tag k="addr:street" v="Kidder Road"/>
    <tag k="addr:state" v="VT"/>
    <tag k="ref:vcgi:esiteid" v="270363"/>
  </node>
  <node id="-182" visible="true" lat="43.04853475" lon="-72.78632346">
    <tag k="addr:city" v="Wardsboro"/>
    <tag k="addr:housenumber" v="216"/>
    <tag k="addr:street" v="Vermont Route 100"/>
    <tag k="addr:state" v="VT"/>
    <tag k="ref:vcgi:esiteid" v="270372"/>
  </node>
  <node id="-234" visible="true" lat="43.04627609" lon="-72.7860794">
    <tag k="addr:city" v="Wardsboro"/>
    <tag k="addr:housenumber" v="375"/>
    <tag k="addr:street" v="Vermont Route 100"/>
    <tag k="addr:state" v="VT"/>
    <tag k="ref:vcgi:esiteid" v="270424"/>
  </node>
  <node id="-240" visible="true" lat="43.04583991" lon="-72.83007969">
    <tag k="addr:city" v="Wardsboro"/>
    <tag k="addr:housenumber" v="208"/>
    <tag k="addr:street" v="Maple Drive"/>
    <tag k="addr:state" v="VT"/>
    <tag k="ref:vcgi:esiteid" v="270430"/>
  </node>
  <node id="-248" visible="true" lat="43.045436" lon="-72.83086904">
    <tag k="addr:city" v="Wardsboro"/>
    <tag k="addr:housenumber" v="77"/>
    <tag k="addr:street" v="Shady Lane"/>
    <tag k="addr:state" v="VT"/>
    <tag k="ref:vcgi:esiteid" v="270438"/>
  </node>
  <node id="-286" visible="true" lat="43.04312803" lon="-72.84107997">
    <tag k="addr:city" v="Wardsboro"/>
    <tag k="addr:housenumber" v="37"/>
    <tag k="addr:street" v="Sawmill Road"/>
    <tag k="addr:state" v="VT"/>
    <tag k="ref:vcgi:esiteid" v="270477"/>
  </node>
  <node id="-287" visible="true" lat="43.04327392" lon="-72.7880249">
    <tag k="addr:city" v="Wardsboro"/>
    <tag k="addr:housenumber" v="606"/>
    <tag k="addr:street" v="Vermont Route 100"/>
    <tag k="addr:state" v="VT"/>
    <tag k="ref:vcgi:esiteid" v="270478"/>
  </node>
  <node id="-293" visible="true" lat="43.04288139" lon="-72.87323289">
    <tag k="addr:city" v="Wardsboro"/>
    <tag k="addr:housenumber" v="1495"/>
    <tag k="addr:street" v="Newell Hill Road"/>
    <tag k="addr:state" v="VT"/>
    <tag k="ref:vcgi:esiteid" v="270485"/>
  </node>
  <node id="-299" visible="true" lat="43.04257202" lon="-72.87268829">
    <tag k="addr:city" v="Wardsboro"/>
    <tag k="addr:housenumber" v="1475"/>
    <tag k="addr:street" v="Newell Hill Road"/>
    <tag k="addr:state" v="VT"/>
    <tag k="ref:vcgi:esiteid" v="270491"/>
  </node>
  <node id="-302" visible="true" lat="43.04264384" lon="-72.84123376">
    <tag k="addr:city" v="Wardsboro"/>
    <tag k="addr:housenumber" v="758"/>
    <tag k="addr:street" v="Sheldon Hill Road"/>
    <tag k="addr:state" v="VT"/>
    <tag k="ref:vcgi:esiteid" v="270494"/>
  </node>
  <node id="-316" visible="true" lat="43.04206198" lon="-72.87226134">
    <tag k="addr:city" v="Wardsboro"/>
    <tag k="addr:housenumber" v="1435"/>
    <tag k="addr:street" v="Newell Hill Road"/>
    <tag k="addr:state" v="VT"/>
    <tag k="ref:vcgi:esiteid" v="270508"/>
  </node>
  <node id="-329" visible="true" lat="43.04139463" lon="-72.87206882">
    <tag k="addr:city" v="Wardsboro"/>
    <tag k="addr:housenumber" v="1385"/>
    <tag k="addr:street" v="Newell Hill Road"/>
    <tag k="addr:state" v="VT"/>
    <tag k="ref:vcgi:esiteid" v="270521"/>
  </node>
  <node id="-338" visible="true" lat="43.04125595" lon="-72.78826141">
    <tag k="addr:city" v="Wardsboro"/>
    <tag k="addr:housenumber" v="743"/>
    <tag k="addr:street" v="Vermont Route 100"/>
    <tag k="addr:state" v="VT"/>
    <tag k="ref:vcgi:esiteid" v="270530"/>
  </node>
  <node id="-349" visible="true" lat="43.04086685" lon="-72.78864288">
    <tag k="addr:city" v="Wardsboro"/>
    <tag k="addr:housenumber" v="772"/>
    <tag k="addr:street" v="Vermont Route 100"/>
    <tag k="addr:state" v="VT"/>
    <tag k="ref:vcgi:esiteid" v="270543"/>
  </node>
  <node id="-355" visible="true" lat="43.04037251" lon="-72.87127454">
    <tag k="addr:city" v="Wardsboro"/>
    <tag k="addr:housenumber" v="1305"/>
    <tag k="addr:street" v="Newell Hill Road"/>
    <tag k="addr:state" v="VT"/>
    <tag k="ref:vcgi:esiteid" v="270549"/>
  </node>
  <node id="-365" visible="true" lat="43.03990554" lon="-72.83648681">
    <tag k="addr:city" v="Wardsboro"/>
    <tag k="addr:housenumber" v="373"/>
    <tag k="addr:street" v="Pams Hill Road"/>
    <tag k="addr:state" v="VT"/>
    <tag k="ref:vcgi:esiteid" v="270559"/>
  </node>
  <node id="-369" visible="true" lat="43.03981236" lon="-72.8137669">
    <tag k="addr:city" v="Wardsboro"/>
    <tag k="addr:housenumber" v="240"/>
    <tag k="addr:street" v="Melbourne Road"/>
    <tag k="addr:state" v="VT"/>
    <tag k="ref:vcgi:esiteid" v="270563"/>
  </node>
  <node id="-377" visible="true" lat="43.03902269" lon="-72.83598668">
    <tag k="addr:city" v="Wardsboro"/>
    <tag k="addr:housenumber" v="366"/>
    <tag k="addr:street" v="Pams Hill Road"/>
    <tag k="addr:state" v="VT"/>
    <tag k="ref:vcgi:esiteid" v="270573"/>
  </node>
  <node id="-379" visible="true" lat="43.03904493" lon="-72.83465088">
    <tag k="addr:city" v="Wardsboro"/>
    <tag k="addr:housenumber" v="388"/>
    <tag k="addr:street" v="Pams Hill Road"/>
    <tag k="addr:state" v="VT"/>
    <tag k="ref:vcgi:esiteid" v="270575"/>
  </node>
  <node id="-380" visible="true" lat="43.03945145" lon="-72.74104593">
    <tag k="addr:city" v="Wardsboro"/>
    <tag k="addr:housenumber" v="28"/>
    <tag k="addr:street" v="Kaiser Road"/>
    <tag k="addr:state" v="VT"/>
    <tag k="ref:vcgi:esiteid" v="270576"/>
  </node>
  <node id="-382" visible="true" lat="43.03897737" lon="-72.87222043">
    <tag k="addr:city" v="Wardsboro"/>
    <tag k="addr:housenumber" v="1193"/>
    <tag k="addr:street" v="Newell Hill Road"/>
    <tag k="addr:state" v="VT"/>
    <tag k="ref:vcgi:esiteid" v="270578"/>
  </node>
  <node id="-386" visible="true" lat="43.03861999" lon="-72.741333">
    <tag k="addr:city" v="Wardsboro"/>
    <tag k="addr:housenumber" v="3"/>
    <tag k="addr:street" v="Kaiser Road"/>
    <tag k="addr:state" v="VT"/>
    <tag k="ref:vcgi:esiteid" v="270583"/>
  </node>
  <node id="-389" visible="true" lat="43.03797531" lon="-72.79081726">
    <tag k="addr:city" v="Wardsboro"/>
    <tag k="addr:housenumber" v="260"/>
    <tag k="addr:street" v="South Wardsboro Road"/>
    <tag k="addr:state" v="VT"/>
    <tag k="ref:vcgi:esiteid" v="270587"/>
  </node>
  <node id="-392" visible="true" lat="43.03755187" lon="-72.78736877">
    <tag k="addr:city" v="Wardsboro"/>
    <tag k="addr:housenumber" v="35"/>
    <tag k="addr:street" v="Fairview Road"/>
    <tag k="addr:state" v="VT"/>
    <tag k="ref:vcgi:esiteid" v="270590"/>
  </node>
  <node id="-395" visible="true" lat="43.03911042" lon="-72.81852098">
    <tag k="addr:city" v="Wardsboro"/>
    <tag k="addr:housenumber" v="153"/>
    <tag k="addr:street" v="Lorchs Hill Road"/>
    <tag k="addr:state" v="VT"/>
    <tag k="ref:vcgi:esiteid" v="270593"/>
  </node>
  <node id="-398" visible="true" lat="43.03640234" lon="-72.86494473">
    <tag k="addr:city" v="Wardsboro"/>
    <tag k="addr:housenumber" v="850"/>
    <tag k="addr:street" v="Newell Hill Road"/>
    <tag k="addr:state" v="VT"/>
    <tag k="ref:vcgi:esiteid" v="270596"/>
  </node>
  <node id="-399" visible="true" lat="43.03676509" lon="-72.79047414">
    <tag k="addr:city" v="Wardsboro"/>
    <tag k="addr:housenumber" v="77"/>
    <tag k="addr:street" v="Dump Road"/>
    <tag k="addr:state" v="VT"/>
    <tag k="ref:vcgi:esiteid" v="270597"/>
  </node>
  <node id="-401" visible="true" lat="43.03606362" lon="-72.86460415">
    <tag k="addr:city" v="Wardsboro"/>
    <tag k="addr:housenumber" v="823"/>
    <tag k="addr:street" v="Newell Hill Road"/>
    <tag k="addr:state" v="VT"/>
    <tag k="ref:vcgi:esiteid" v="270599"/>
  </node>
  <node id="-402" visible="true" lat="43.03625488" lon="-72.78511047">
    <tag k="addr:city" v="Wardsboro"/>
    <tag k="addr:housenumber" v="560"/>
    <tag k="addr:street" v="South Wardsboro Road"/>
    <tag k="addr:state" v="VT"/>
    <tag k="ref:vcgi:esiteid" v="270600"/>
  </node>
  <node id="-403" visible="true" lat="43.03602138" lon="-72.84845771">
    <tag k="addr:city" v="Wardsboro"/>
    <tag k="addr:housenumber" v="4812"/>
    <tag k="addr:street" v="Vermont Route 100"/>
    <tag k="addr:state" v="VT"/>
    <tag k="ref:vcgi:esiteid" v="270601"/>
  </node>
  <node id="-405" visible="true" lat="43.03611374" lon="-72.784729">
    <tag k="addr:city" v="Wardsboro"/>
    <tag k="addr:housenumber" v="586"/>
    <tag k="addr:street" v="South Wardsboro Road"/>
    <tag k="addr:state" v="VT"/>
    <tag k="ref:vcgi:esiteid" v="270603"/>
  </node>
  <node id="-407" visible="true" lat="43.03586578" lon="-72.78421783">
    <tag k="addr:city" v="Wardsboro"/>
    <tag k="addr:housenumber" v="618"/>
    <tag k="addr:street" v="South Wardsboro Road"/>
    <tag k="addr:state" v="VT"/>
    <tag k="ref:vcgi:esiteid" v="270605"/>
  </node>
  <node id="-408" visible="true" lat="43.03578949" lon="-72.77953338">
    <tag k="addr:city" v="Wardsboro"/>
    <tag k="addr:housenumber" v="108"/>
    <tag k="addr:street" v="Shine Road"/>
    <tag k="addr:state" v="VT"/>
    <tag k="ref:vcgi:esiteid" v="270606"/>
  </node>
  <node id="-409" visible="true" lat="43.03548431" lon="-72.7827301">
    <tag k="addr:city" v="Wardsboro"/>
    <tag k="addr:housenumber" v="696"/>
    <tag k="addr:street" v="South Wardsboro Road"/>
    <tag k="addr:state" v="VT"/>
    <tag k="ref:vcgi:esiteid" v="270607"/>
  </node>
  <node id="-412" visible="true" lat="43.03523424" lon="-72.82876526">
    <tag k="addr:city" v="Wardsboro"/>
    <tag k="addr:housenumber" v="185"/>
    <tag k="addr:street" v="Lackey Hill Road"/>
    <tag k="addr:state" v="VT"/>
    <tag k="ref:vcgi:esiteid" v="270610"/>
  </node>
  <node id="-414" visible="true" lat="43.03544235" lon="-72.74060058">
    <tag k="addr:city" v="Wardsboro"/>
    <tag k="addr:housenumber" v="2036"/>
    <tag k="addr:street" v="Townshend Dam Road"/>
    <tag k="addr:state" v="VT"/>
    <tag k="ref:vcgi:esiteid" v="270612"/>
  </node>
  <node id="-415" visible="true" lat="43.03523254" lon="-72.81137085">
    <tag k="addr:city" v="Wardsboro"/>
    <tag k="addr:housenumber" v="2226"/>
    <tag k="addr:street" v="Vermont Route 100"/>
    <tag k="addr:state" v="VT"/>
    <tag k="ref:vcgi:esiteid" v="270613"/>
  </node>
  <node id="-420" visible="true" lat="43.03470301" lon="-72.84486672">
    <tag k="addr:city" v="Wardsboro"/>
    <tag k="addr:housenumber" v="80"/>
    <tag k="addr:street" v="Sheldon Hill Road"/>
    <tag k="addr:state" v="VT"/>
    <tag k="ref:vcgi:esiteid" v="270618"/>
  </node>
  <node id="-425" visible="true" lat="43.03428723" lon="-72.85988575">
    <tag k="addr:city" v="Wardsboro"/>
    <tag k="addr:housenumber" v="591"/>
    <tag k="addr:street" v="Newell Hill Road"/>
    <tag k="addr:state" v="VT"/>
    <tag k="ref:vcgi:esiteid" v="270623"/>
  </node>
  <node id="-428" visible="true" lat="43.03423309" lon="-72.85622406">
    <tag k="addr:city" v="Wardsboro"/>
    <tag k="addr:housenumber" v="378"/>
    <tag k="addr:street" v="Newell Hill Road"/>
    <tag k="addr:state" v="VT"/>
    <tag k="ref:vcgi:esiteid" v="270626"/>
  </node>
  <node id="-440" visible="true" lat="43.03382492" lon="-72.75025177">
    <tag k="addr:city" v="Wardsboro"/>
    <tag k="addr:housenumber" v="80"/>
    <tag k="addr:street" v="Bobcat Road"/>
    <tag k="addr:state" v="VT"/>
    <tag k="ref:vcgi:esiteid" v="270638"/>
  </node>
  <node id="-445" visible="true" lat="43.03342437" lon="-72.74275207">
    <tag k="addr:city" v="Wardsboro"/>
    <tag k="addr:housenumber" v="1821"/>
    <tag k="addr:street" v="Townshend Dam Road"/>
    <tag k="addr:state" v="VT"/>
    <tag k="ref:vcgi:esiteid" v="270643"/>
  </node>
  <node id="-446" visible="true" lat="43.03325271" lon="-72.74369812">
    <tag k="addr:city" v="Wardsboro"/>
    <tag k="addr:housenumber" v="1771"/>
    <tag k="addr:street" v="Townshend Dam Road"/>
    <tag k="addr:state" v="VT"/>
    <tag k="ref:vcgi:esiteid" v="270644"/>
  </node>
  <node id="-447" visible="true" lat="43.03320312" lon="-72.74419403">
    <tag k="addr:city" v="Wardsboro"/>
    <tag k="addr:housenumber" v="1747"/>
    <tag k="addr:street" v="Townshend Dam Road"/>
    <tag k="addr:state" v="VT"/>
    <tag k="ref:vcgi:esiteid" v="270645"/>
  </node>
  <node id="-449" visible="true" lat="43.03309631" lon="-72.7447586">
    <tag k="addr:city" v="Wardsboro"/>
    <tag k="addr:housenumber" v="1717"/>
    <tag k="addr:street" v="Townshend Dam Road"/>
    <tag k="addr:state" v="VT"/>
    <tag k="ref:vcgi:esiteid" v="270647"/>
  </node>
  <node id="-450" visible="true" lat="43.03308868" lon="-72.74604797">
    <tag k="addr:city" v="Wardsboro"/>
    <tag k="addr:housenumber" v="1651"/>
    <tag k="addr:street" v="Townshend Dam Road"/>
    <tag k="addr:state" v="VT"/>
    <tag k="ref:vcgi:esiteid" v="270648"/>
  </node>
  <node id="-452" visible="true" lat="43.03239289" lon="-72.74196336">
    <tag k="addr:city" v="Wardsboro"/>
    <tag k="addr:housenumber" v="1870"/>
    <tag k="addr:street" v="Townshend Dam Road"/>
    <tag k="addr:state" v="VT"/>
    <tag k="ref:vcgi:esiteid" v="270650"/>
  </node>
  <node id="-461" visible="true" lat="43.0324066" lon="-72.86856375">
    <tag k="addr:city" v="Wardsboro"/>
    <tag k="addr:housenumber" v="436"/>
    <tag k="addr:street" v="Boardman Loop"/>
    <tag k="addr:state" v="VT"/>
    <tag k="ref:vcgi:esiteid" v="270659"/>
  </node>
  <node id="-470" visible="true" lat="43.03221893" lon="-72.77513122">
    <tag k="addr:city" v="Wardsboro"/>
    <tag k="addr:housenumber" v="88"/>
    <tag k="addr:street" v="Hescock Hill Road"/>
    <tag k="addr:state" v="VT"/>
    <tag k="ref:vcgi:esiteid" v="270668"/>
  </node>
  <node id="-472" visible="true" lat="43.03219986" lon="-72.77790069">
    <tag k="addr:city" v="Wardsboro"/>
    <tag k="addr:housenumber" v="1048"/>
    <tag k="addr:street" v="South Wardsboro Road"/>
    <tag k="addr:state" v="VT"/>
    <tag k="ref:vcgi:esiteid" v="270670"/>
  </node>
  <node id="-477" visible="true" lat="43.03206533" lon="-72.75517059">
    <tag k="addr:city" v="Wardsboro"/>
    <tag k="addr:housenumber" v="357"/>
    <tag k="addr:street" v="Bobcat Road"/>
    <tag k="addr:state" v="VT"/>
    <tag k="ref:vcgi:esiteid" v="270675"/>
  </node>
  <node id="-478" visible="true" lat="43.03189468" lon="-72.80427551">
    <tag k="addr:city" v="Wardsboro"/>
    <tag k="addr:housenumber" v="415"/>
    <tag k="addr:street" v="Gilfeather Road"/>
    <tag k="addr:state" v="VT"/>
    <tag k="ref:vcgi:esiteid" v="270676"/>
  </node>
  <node id="-486" visible="true" lat="43.03162765" lon="-72.77793121">
    <tag k="addr:city" v="Wardsboro"/>
    <tag k="addr:housenumber" v="46"/>
    <tag k="addr:street" v="Howard Road"/>
    <tag k="addr:state" v="VT"/>
    <tag k="ref:vcgi:esiteid" v="270684"/>
  </node>
  <node id="-491" visible="true" lat="43.03151702" lon="-72.77718353">
    <tag k="addr:city" v="Wardsboro"/>
    <tag k="addr:housenumber" v="51"/>
    <tag k="addr:street" v="Howard Road"/>
    <tag k="addr:state" v="VT"/>
    <tag k="ref:vcgi:esiteid" v="270689"/>
  </node>
  <node id="-493" visible="true" lat="43.0314331" lon="-72.7591629">
    <tag k="addr:city" v="Wardsboro"/>
    <tag k="addr:housenumber" v="363"/>
    <tag k="addr:street" v="Bobcat Road"/>
    <tag k="addr:state" v="VT"/>
    <tag k="ref:vcgi:esiteid" v="270691"/>
  </node>
  <node id="-501" visible="true" lat="43.03087472" lon="-72.84999217">
    <tag k="addr:city" v="Wardsboro"/>
    <tag k="addr:housenumber" v="102"/>
    <tag k="addr:street" v="Smead Road"/>
    <tag k="addr:state" v="VT"/>
    <tag k="ref:vcgi:esiteid" v="270701"/>
  </node>
  <node id="-503" visible="true" lat="43.03075936" lon="-72.86675006">
    <tag k="addr:city" v="Wardsboro"/>
    <tag k="addr:housenumber" v="49"/>
    <tag k="addr:street" v="Robinson Lane"/>
    <tag k="addr:state" v="VT"/>
    <tag k="ref:vcgi:esiteid" v="270704"/>
  </node>
  <node id="-505" visible="true" lat="43.0306624" lon="-72.85059698">
    <tag k="addr:city" v="Wardsboro"/>
    <tag k="addr:housenumber" v="50"/>
    <tag k="addr:street" v="Smead Road"/>
    <tag k="addr:state" v="VT"/>
    <tag k="ref:vcgi:esiteid" v="270706"/>
  </node>
  <node id="-506" visible="true" lat="43.03073883" lon="-72.80290222">
    <tag k="addr:city" v="Wardsboro"/>
    <tag k="addr:housenumber" v="531"/>
    <tag k="addr:street" v="Gilfeather Road"/>
    <tag k="addr:state" v="VT"/>
    <tag k="ref:vcgi:esiteid" v="270707"/>
  </node>
  <node id="-511" visible="true" lat="43.03068161" lon="-72.77658844">
    <tag k="addr:city" v="Wardsboro"/>
    <tag k="addr:housenumber" v="121"/>
    <tag k="addr:street" v="Howard Road"/>
    <tag k="addr:state" v="VT"/>
    <tag k="ref:vcgi:esiteid" v="270712"/>
  </node>
  <node id="-515" visible="true" lat="43.0303603" lon="-72.81931135">
    <tag k="addr:city" v="Wardsboro"/>
    <tag k="addr:housenumber" v="2796"/>
    <tag k="addr:street" v="Vermont Route 100"/>
    <tag k="addr:state" v="VT"/>
    <tag k="ref:vcgi:esiteid" v="270716"/>
  </node>
  <node id="-516" visible="true" lat="43.03051757" lon="-72.7755661">
    <tag k="addr:city" v="Wardsboro"/>
    <tag k="addr:housenumber" v="1248"/>
    <tag k="addr:street" v="South Wardsboro Road"/>
    <tag k="addr:state" v="VT"/>
    <tag k="ref:vcgi:esiteid" v="270717"/>
  </node>
  <node id="-517" visible="true" lat="43.03039803" lon="-72.8506371">
    <tag k="addr:city" v="Wardsboro"/>
    <tag k="addr:housenumber" v="30"/>
    <tag k="addr:street" v="Smead Road"/>
    <tag k="addr:state" v="VT"/>
    <tag k="ref:vcgi:esiteid" v="270718"/>
  </node>
  <node id="-519" visible="true" lat="43.03039169" lon="-72.80256652">
    <tag k="addr:city" v="Wardsboro"/>
    <tag k="addr:housenumber" v="559"/>
    <tag k="addr:street" v="Gilfeather Road"/>
    <tag k="addr:state" v="VT"/>
    <tag k="ref:vcgi:esiteid" v="270720"/>
  </node>
  <node id="-524" visible="true" lat="43.03042035" lon="-72.77417816">
    <tag k="addr:city" v="Wardsboro"/>
    <tag k="addr:housenumber" v="113"/>
    <tag k="addr:street" v="Black Bear Ridge"/>
    <tag k="addr:state" v="VT"/>
    <tag k="ref:vcgi:esiteid" v="270725"/>
  </node>
  <node id="-529" visible="true" lat="43.02980804" lon="-72.82881164">
    <tag k="addr:city" v="Wardsboro"/>
    <tag k="addr:housenumber" v="504"/>
    <tag k="addr:street" v="Fitts Road"/>
    <tag k="addr:state" v="VT"/>
    <tag k="ref:vcgi:esiteid" v="270730"/>
  </node>
  <node id="-530" visible="true" lat="43.02971923" lon="-72.83600972">
    <tag k="addr:city" v="Wardsboro"/>
    <tag k="addr:housenumber" v="4027"/>
    <tag k="addr:street" v="Vermont Route 100"/>
    <tag k="addr:state" v="VT"/>
    <tag k="ref:vcgi:esiteid" v="270731"/>
  </node>
  <node id="-534" visible="true" lat="43.02976608" lon="-72.8026123">
    <tag k="addr:city" v="Wardsboro"/>
    <tag k="addr:housenumber" v="600"/>
    <tag k="addr:street" v="Gilfeather Road"/>
    <tag k="addr:state" v="VT"/>
    <tag k="ref:vcgi:esiteid" v="270735"/>
  </node>
  <node id="-535" visible="true" lat="43.02967706" lon="-72.83440795">
    <tag k="addr:city" v="Wardsboro"/>
    <tag k="addr:housenumber" v="4006"/>
    <tag k="addr:street" v="Vermont Route 100"/>
    <tag k="addr:state" v="VT"/>
    <tag k="ref:vcgi:esiteid" v="270736"/>
  </node>
  <node id="-537" visible="true" lat="43.02976989" lon="-72.77711486">
    <tag k="addr:city" v="Wardsboro"/>
    <tag k="addr:housenumber" v="167"/>
    <tag k="addr:street" v="Howard Road"/>
    <tag k="addr:state" v="VT"/>
    <tag k="ref:vcgi:esiteid" v="270738"/>
  </node>
  <node id="-544" visible="true" lat="43.0294609" lon="-72.77220916">
    <tag k="addr:city" v="Wardsboro"/>
    <tag k="addr:housenumber" v="203"/>
    <tag k="addr:street" v="Kent Road"/>
    <tag k="addr:state" v="VT"/>
    <tag k="ref:vcgi:esiteid" v="270746"/>
  </node>
  <node id="-550" visible="true" lat="43.0292778" lon="-72.77564239">
    <tag k="addr:city" v="Wardsboro"/>
    <tag k="addr:housenumber" v="32"/>
    <tag k="addr:street" v="Ayers Road"/>
    <tag k="addr:state" v="VT"/>
    <tag k="ref:vcgi:esiteid" v="270752"/>
  </node>
  <node id="-554" visible="true" lat="43.02896885" lon="-72.86536412">
    <tag k="addr:city" v="Wardsboro"/>
    <tag k="addr:housenumber" v="645"/>
    <tag k="addr:street" v="Stratton Arlington Road"/>
    <tag k="addr:state" v="VT"/>
    <tag k="ref:vcgi:esiteid" v="270756"/>
  </node>
  <node id="-555" visible="true" lat="43.02904891" lon="-72.80295562">
    <tag k="addr:city" v="Wardsboro"/>
    <tag k="addr:housenumber" v="730"/>
    <tag k="addr:street" v="Gilfeather Road"/>
    <tag k="addr:state" v="VT"/>
    <tag k="ref:vcgi:esiteid" v="270757"/>
  </node>
  <node id="-556" visible="true" lat="43.02880096" lon="-72.86859893">
    <tag k="addr:city" v="Wardsboro"/>
    <tag k="addr:housenumber" v="853"/>
    <tag k="addr:street" v="Stratton Arlington Road"/>
    <tag k="addr:state" v="VT"/>
    <tag k="ref:vcgi:esiteid" v="270758"/>
  </node>
  <node id="-557" visible="true" lat="43.02902984" lon="-72.77378845">
    <tag k="addr:city" v="Wardsboro"/>
    <tag k="addr:housenumber" v="117"/>
    <tag k="addr:street" v="Kent Road"/>
    <tag k="addr:state" v="VT"/>
    <tag k="ref:vcgi:esiteid" v="270759"/>
  </node>
  <node id="-558" visible="true" lat="43.02877044" lon="-72.86444091">
    <tag k="addr:city" v="Wardsboro"/>
    <tag k="addr:housenumber" v="615"/>
    <tag k="addr:street" v="Stratton Arlington Road"/>
    <tag k="addr:state" v="VT"/>
    <tag k="ref:vcgi:esiteid" v="270760"/>
  </node>
  <node id="-563" visible="true" lat="43.02860259" lon="-72.86598205">
    <tag k="addr:city" v="Wardsboro"/>
    <tag k="addr:housenumber" v="53"/>
    <tag k="addr:street" v="Scandia Village Road"/>
    <tag k="addr:state" v="VT"/>
    <tag k="ref:vcgi:esiteid" v="270765"/>
  </node>
  <node id="-564" visible="true" lat="43.02843475" lon="-72.86546325">
    <tag k="addr:city" v="Wardsboro"/>
    <tag k="addr:housenumber" v="81"/>
    <tag k="addr:street" v="Scandia Village Road"/>
    <tag k="addr:state" v="VT"/>
    <tag k="ref:vcgi:esiteid" v="270766"/>
  </node>
  <node id="-565" visible="true" lat="43.02859878" lon="-72.80243682">
    <tag k="addr:city" v="Wardsboro"/>
    <tag k="addr:housenumber" v="682"/>
    <tag k="addr:street" v="Gilfeather Road"/>
    <tag k="addr:state" v="VT"/>
    <tag k="ref:vcgi:esiteid" v="270767"/>
  </node>
  <node id="-568" visible="true" lat="43.02840804" lon="-72.84053039">
    <tag k="addr:city" v="Wardsboro"/>
    <tag k="addr:housenumber" v="679"/>
    <tag k="addr:street" v="Smead Road"/>
    <tag k="addr:state" v="VT"/>
    <tag k="ref:vcgi:esiteid" v="270770"/>
  </node>
  <node id="-569" visible="true" lat="43.02832189" lon="-72.85217761">
    <tag k="addr:city" v="Wardsboro"/>
    <tag k="addr:housenumber" v="5189"/>
    <tag k="addr:street" v="Vermont Route 100"/>
    <tag k="addr:state" v="VT"/>
    <tag k="ref:vcgi:esiteid" v="270771"/>
  </node>
  <node id="-570" visible="true" lat="43.02815591" lon="-72.86629123">
    <tag k="addr:city" v="Wardsboro"/>
    <tag k="addr:housenumber" v="58"/>
    <tag k="addr:street" v="Scandia Village Road"/>
    <tag k="addr:state" v="VT"/>
    <tag k="ref:vcgi:esiteid" v="270772"/>
  </node>
  <node id="-571" visible="true" lat="43.02828504" lon="-72.82514874">
    <tag k="addr:city" v="Wardsboro"/>
    <tag k="addr:housenumber" v="598"/>
    <tag k="addr:street" v="Fitts Road"/>
    <tag k="addr:state" v="VT"/>
    <tag k="ref:vcgi:esiteid" v="270773"/>
  </node>
  <node id="-572" visible="true" lat="43.02801232" lon="-72.84010645">
    <tag k="addr:city" v="Wardsboro"/>
    <tag k="addr:housenumber" v="715"/>
    <tag k="addr:street" v="Smead Road"/>
    <tag k="addr:state" v="VT"/>
    <tag k="ref:vcgi:esiteid" v="270774"/>
  </node>
  <node id="-573" visible="true" lat="43.02811366" lon="-72.77305843">
    <tag k="addr:city" v="Wardsboro"/>
    <tag k="addr:housenumber" v="112"/>
    <tag k="addr:street" v="Kent Road"/>
    <tag k="addr:state" v="VT"/>
    <tag k="ref:vcgi:esiteid" v="270775"/>
  </node>
  <node id="-575" visible="true" lat="43.02796606" lon="-72.8645456">
    <tag k="addr:city" v="Wardsboro"/>
    <tag k="addr:housenumber" v="145"/>
    <tag k="addr:street" v="Scandia Village Road"/>
    <tag k="addr:state" v="VT"/>
    <tag k="ref:vcgi:esiteid" v="270777"/>
  </node>
  <node id="-576" visible="true" lat="43.02809699" lon="-72.84088242">
    <tag k="addr:city" v="Wardsboro"/>
    <tag k="addr:housenumber" v="688"/>
    <tag k="addr:street" v="Smead Road"/>
    <tag k="addr:state" v="VT"/>
    <tag k="ref:vcgi:esiteid" v="270778"/>
  </node>
  <node id="-577" visible="true" lat="43.02786993" lon="-72.86574026">
    <tag k="addr:city" v="Wardsboro"/>
    <tag k="addr:housenumber" v="94"/>
    <tag k="addr:street" v="Scandia Village Road"/>
    <tag k="addr:state" v="VT"/>
    <tag k="ref:vcgi:esiteid" v="270779"/>
  </node>
  <node id="-580" visible="true" lat="43.0277516" lon="-72.83964206">
    <tag k="addr:city" v="Wardsboro"/>
    <tag k="addr:housenumber" v="751"/>
    <tag k="addr:street" v="Smead Road"/>
    <tag k="addr:state" v="VT"/>
    <tag k="ref:vcgi:esiteid" v="270782"/>
  </node>
  <node id="-581" visible="true" lat="43.02783202" lon="-72.7751251">
    <tag k="addr:city" v="Wardsboro"/>
    <tag k="addr:housenumber" v="1430"/>
    <tag k="addr:street" v="South Wardsboro Road"/>
    <tag k="addr:state" v="VT"/>
    <tag k="ref:vcgi:esiteid" v="270783"/>
  </node>
  <node id="-582" visible="true" lat="43.02774192" lon="-72.83155745">
    <tag k="addr:city" v="Wardsboro"/>
    <tag k="addr:housenumber" v="3761"/>
    <tag k="addr:street" v="Vermont Route 100"/>
    <tag k="addr:state" v="VT"/>
    <tag k="ref:vcgi:esiteid" v="270784"/>
  </node>
  <node id="-583" visible="true" lat="43.02760696" lon="-72.84040069">
    <tag k="addr:city" v="Wardsboro"/>
    <tag k="addr:housenumber" v="726"/>
    <tag k="addr:street" v="Smead Road"/>
    <tag k="addr:state" v="VT"/>
    <tag k="ref:vcgi:esiteid" v="270785"/>
  </node>
  <node id="-584" visible="true" lat="43.02742596" lon="-72.85317867">
    <tag k="addr:city" v="Wardsboro"/>
    <tag k="addr:housenumber" v="5236"/>
    <tag k="addr:street" v="Vermont Route 100"/>
    <tag k="addr:state" v="VT"/>
    <tag k="ref:vcgi:esiteid" v="270786"/>
  </node>
  <node id="-585" visible="true" lat="43.02739734" lon="-72.86675905">
    <tag k="addr:city" v="Wardsboro"/>
    <tag k="addr:housenumber" v="112"/>
    <tag k="addr:street" v="Scandia Village Road"/>
    <tag k="addr:state" v="VT"/>
    <tag k="ref:vcgi:esiteid" v="270787"/>
  </node>
  <node id="-586" visible="true" lat="43.02738767" lon="-72.86467134">
    <tag k="addr:city" v="Wardsboro"/>
    <tag k="addr:housenumber" v="154"/>
    <tag k="addr:street" v="Scandia Village Road"/>
    <tag k="addr:state" v="VT"/>
    <tag k="ref:vcgi:esiteid" v="270788"/>
  </node>
  <node id="-587" visible="true" lat="43.02727237" lon="-72.86415194">
    <tag k="addr:city" v="Wardsboro"/>
    <tag k="addr:housenumber" v="178"/>
    <tag k="addr:street" v="Scandia Village Road"/>
    <tag k="addr:state" v="VT"/>
    <tag k="ref:vcgi:esiteid" v="270789"/>
  </node>
  <node id="-588" visible="true" lat="43.02725533" lon="-72.839767">
    <tag k="addr:city" v="Wardsboro"/>
    <tag k="addr:housenumber" v="768"/>
    <tag k="addr:street" v="Smead Road"/>
    <tag k="addr:state" v="VT"/>
    <tag k="ref:vcgi:esiteid" v="270790"/>
  </node>
  <node id="-590" visible="true" lat="43.0271876" lon="-72.86351989">
    <tag k="addr:city" v="Wardsboro"/>
    <tag k="addr:housenumber" v="210"/>
    <tag k="addr:street" v="Scandia Village Road"/>
    <tag k="addr:state" v="VT"/>
    <tag k="ref:vcgi:esiteid" v="270792"/>
  </node>
  <node id="-593" visible="true" lat="43.02692667" lon="-72.81957343">
    <tag k="addr:city" v="Wardsboro"/>
    <tag k="addr:housenumber" v="3027"/>
    <tag k="addr:street" v="Vermont Route 100"/>
    <tag k="addr:state" v="VT"/>
    <tag k="ref:vcgi:esiteid" v="270795"/>
  </node>
  <node id="-595" visible="true" lat="43.02665329" lon="-72.83839416">
    <tag k="addr:city" v="Wardsboro"/>
    <tag k="addr:housenumber" v="845"/>
    <tag k="addr:street" v="Smead Road"/>
    <tag k="addr:state" v="VT"/>
    <tag k="ref:vcgi:esiteid" v="270797"/>
  </node>
  <node id="-596" visible="true" lat="43.02647018" lon="-72.85350036">
    <tag k="addr:city" v="Wardsboro"/>
    <tag k="addr:housenumber" v="5336"/>
    <tag k="addr:street" v="Vermont Route 100"/>
    <tag k="addr:state" v="VT"/>
    <tag k="ref:vcgi:esiteid" v="270798"/>
  </node>
  <node id="-599" visible="true" lat="43.02640064" lon="-72.83765177">
    <tag k="addr:city" v="Wardsboro"/>
    <tag k="addr:housenumber" v="883"/>
    <tag k="addr:street" v="Smead Road"/>
    <tag k="addr:state" v="VT"/>
    <tag k="ref:vcgi:esiteid" v="270801"/>
  </node>
  <node id="-600" visible="true" lat="43.02647018" lon="-72.80194854">
    <tag k="addr:city" v="Wardsboro"/>
    <tag k="addr:housenumber" v="832"/>
    <tag k="addr:street" v="Gilfeather Road"/>
    <tag k="addr:state" v="VT"/>
    <tag k="ref:vcgi:esiteid" v="270802"/>
  </node>
  <node id="-601" visible="true" lat="43.02616434" lon="-72.83619199">
    <tag k="addr:city" v="Wardsboro"/>
    <tag k="addr:housenumber" v="935"/>
    <tag k="addr:street" v="Smead Road"/>
    <tag k="addr:state" v="VT"/>
    <tag k="ref:vcgi:esiteid" v="270803"/>
  </node>
  <node id="-602" visible="true" lat="43.02616119" lon="-72.87212371">
    <tag k="addr:city" v="Wardsboro"/>
    <tag k="addr:housenumber" v="1085"/>
    <tag k="addr:street" v="Stratton Arlington Road"/>
    <tag k="addr:state" v="VT"/>
    <tag k="ref:vcgi:esiteid" v="270804"/>
  </node>
  <node id="-604" visible="true" lat="43.02586985" lon="-72.83812548">
    <tag k="addr:city" v="Wardsboro"/>
    <tag k="addr:housenumber" v="892"/>
    <tag k="addr:street" v="Smead Road"/>
    <tag k="addr:state" v="VT"/>
    <tag k="ref:vcgi:esiteid" v="270806"/>
  </node>
  <node id="-606" visible="true" lat="43.02579498" lon="-72.82606506">
    <tag k="addr:city" v="Wardsboro"/>
    <tag k="addr:housenumber" v="102"/>
    <tag k="addr:street" v="Black Piece Road"/>
    <tag k="addr:state" v="VT"/>
    <tag k="ref:vcgi:esiteid" v="270808"/>
  </node>
  <node id="-610" visible="true" lat="43.0255661" lon="-72.85408782">
    <tag k="addr:city" v="Wardsboro"/>
    <tag k="addr:housenumber" v="5436"/>
    <tag k="addr:street" v="Vermont Route 100"/>
    <tag k="addr:state" v="VT"/>
    <tag k="ref:vcgi:esiteid" v="270812"/>
  </node>
  <node id="-613" visible="true" lat="43.02556892" lon="-72.83118142">
    <tag k="addr:city" v="Wardsboro"/>
    <tag k="addr:housenumber" v="434"/>
    <tag k="addr:street" v="Lower Podunk Road"/>
    <tag k="addr:state" v="VT"/>
    <tag k="ref:vcgi:esiteid" v="270815"/>
  </node>
  <node id="-616" visible="true" lat="43.02514113" lon="-72.83601074">
    <tag k="addr:city" v="Wardsboro"/>
    <tag k="addr:housenumber" v="991"/>
    <tag k="addr:street" v="Smead Road"/>
    <tag k="addr:state" v="VT"/>
    <tag k="ref:vcgi:esiteid" v="270818"/>
  </node>
  <node id="-619" visible="true" lat="43.02511215" lon="-72.85388946">
    <tag k="addr:city" v="Wardsboro"/>
    <tag k="addr:housenumber" v="5440"/>
    <tag k="addr:street" v="Vermont Route 100"/>
    <tag k="addr:state" v="VT"/>
    <tag k="ref:vcgi:esiteid" v="270821"/>
  </node>
  <node id="-620" visible="true" lat="43.02515335" lon="-72.83662395">
    <tag k="addr:city" v="Wardsboro"/>
    <tag k="addr:housenumber" v="986"/>
    <tag k="addr:street" v="Smead Road"/>
    <tag k="addr:state" v="VT"/>
    <tag k="ref:vcgi:esiteid" v="270822"/>
  </node>
  <node id="-623" visible="true" lat="43.0245496" lon="-72.83713255">
    <tag k="addr:city" v="Wardsboro"/>
    <tag k="addr:housenumber" v="1008"/>
    <tag k="addr:street" v="Smead Road"/>
    <tag k="addr:state" v="VT"/>
    <tag k="ref:vcgi:esiteid" v="270825"/>
  </node>
  <node id="-625" visible="true" lat="43.02457809" lon="-72.77355194">
    <tag k="addr:city" v="Wardsboro"/>
    <tag k="addr:housenumber" v="1671"/>
    <tag k="addr:street" v="South Wardsboro Road"/>
    <tag k="addr:state" v="VT"/>
    <tag k="ref:vcgi:esiteid" v="270827"/>
  </node>
  <node id="-627" visible="true" lat="43.02414074" lon="-72.83532966">
    <tag k="addr:city" v="Wardsboro"/>
    <tag k="addr:housenumber" v="1079"/>
    <tag k="addr:street" v="Smead Road"/>
    <tag k="addr:state" v="VT"/>
    <tag k="ref:vcgi:esiteid" v="270829"/>
  </node>
  <node id="-630" visible="true" lat="43.02296447" lon="-72.83498382">
    <tag k="addr:city" v="Wardsboro"/>
    <tag k="addr:housenumber" v="1157"/>
    <tag k="addr:street" v="Smead Road"/>
    <tag k="addr:state" v="VT"/>
    <tag k="ref:vcgi:esiteid" v="270832"/>
  </node>
  <node id="-631" visible="true" lat="43.0225947" lon="-72.82994175">
    <tag k="addr:city" v="Wardsboro"/>
    <tag k="addr:housenumber" v="238"/>
    <tag k="addr:street" v="French Hill Road"/>
    <tag k="addr:state" v="VT"/>
    <tag k="ref:vcgi:esiteid" v="270833"/>
  </node>
  <node id="-632" visible="true" lat="43.02241516" lon="-72.83483123">
    <tag k="addr:city" v="Wardsboro"/>
    <tag k="addr:housenumber" v="1195"/>
    <tag k="addr:street" v="Smead Road"/>
    <tag k="addr:state" v="VT"/>
    <tag k="ref:vcgi:esiteid" v="270834"/>
  </node>
  <node id="-633" visible="true" lat="43.02208577" lon="-72.83004263">
    <tag k="addr:city" v="Wardsboro"/>
    <tag k="addr:housenumber" v="208"/>
    <tag k="addr:street" v="French Hill Road"/>
    <tag k="addr:state" v="VT"/>
    <tag k="ref:vcgi:esiteid" v="270835"/>
  </node>
  <node id="-635" visible="true" lat="43.02180862" lon="-72.86097717">
    <tag k="addr:city" v="Wardsboro"/>
    <tag k="addr:housenumber" v="6176"/>
    <tag k="addr:street" v="Vermont Route 100"/>
    <tag k="addr:state" v="VT"/>
    <tag k="ref:vcgi:esiteid" v="270837"/>
  </node>
  <node id="-637" visible="true" lat="43.02181243" lon="-72.83566284">
    <tag k="addr:city" v="Wardsboro"/>
    <tag k="addr:housenumber" v="1202"/>
    <tag k="addr:street" v="Smead Road"/>
    <tag k="addr:state" v="VT"/>
    <tag k="ref:vcgi:esiteid" v="270839"/>
  </node>
  <node id="-638" visible="true" lat="43.02173614" lon="-72.78636169">
    <tag k="addr:city" v="Wardsboro"/>
    <tag k="addr:housenumber" v="752"/>
    <tag k="addr:street" v="Finkel Road"/>
    <tag k="addr:state" v="VT"/>
    <tag k="ref:vcgi:esiteid" v="270840"/>
  </node>
  <node id="-639" visible="true" lat="43.0215589" lon="-72.8302679">
    <tag k="addr:city" v="Wardsboro"/>
    <tag k="addr:housenumber" v="162"/>
    <tag k="addr:street" v="French Hill Road"/>
    <tag k="addr:state" v="VT"/>
    <tag k="ref:vcgi:esiteid" v="270841"/>
  </node>
  <node id="-640" visible="true" lat="43.02141594" lon="-72.83102055">
    <tag k="addr:city" v="Wardsboro"/>
    <tag k="addr:housenumber" v="85"/>
    <tag k="addr:street" v="French Hill Road"/>
    <tag k="addr:state" v="VT"/>
    <tag k="ref:vcgi:esiteid" v="270842"/>
  </node>
  <node id="-641" visible="true" lat="43.02096939" lon="-72.85339355">
    <tag k="addr:city" v="Wardsboro"/>
    <tag k="addr:housenumber" v="5773"/>
    <tag k="addr:street" v="Vermont Route 100"/>
    <tag k="addr:state" v="VT"/>
    <tag k="ref:vcgi:esiteid" v="270843"/>
  </node>
  <node id="-642" visible="true" lat="43.02071745" lon="-72.83518494">
    <tag k="addr:city" v="Wardsboro"/>
    <tag k="addr:housenumber" v="1306"/>
    <tag k="addr:street" v="Smead Road"/>
    <tag k="addr:state" v="VT"/>
    <tag k="ref:vcgi:esiteid" v="270844"/>
  </node>
  <node id="-643" visible="true" lat="43.02083762" lon="-72.83109843">
    <tag k="addr:city" v="Wardsboro"/>
    <tag k="addr:housenumber" v="100"/>
    <tag k="addr:street" v="French Hill Road"/>
    <tag k="addr:state" v="VT"/>
    <tag k="ref:vcgi:esiteid" v="270845"/>
  </node>
  <node id="-644" visible="true" lat="43.02067565" lon="-72.83232879">
    <tag k="addr:city" v="Wardsboro"/>
    <tag k="addr:housenumber" v="86"/>
    <tag k="addr:street" v="Lower Podunk Road"/>
    <tag k="addr:state" v="VT"/>
    <tag k="ref:vcgi:esiteid" v="270846"/>
  </node>
  <node id="-645" visible="true" lat="43.02038899" lon="-72.83284638">
    <tag k="addr:city" v="Wardsboro"/>
    <tag k="addr:housenumber" v="71"/>
    <tag k="addr:street" v="Lower Podunk Road"/>
    <tag k="addr:state" v="VT"/>
    <tag k="ref:vcgi:esiteid" v="270847"/>
  </node>
  <node id="-646" visible="true" lat="43.02046015" lon="-72.831952">
    <tag k="addr:city" v="Wardsboro"/>
    <tag k="addr:housenumber" v="22"/>
    <tag k="addr:street" v="French Hill Road"/>
    <tag k="addr:state" v="VT"/>
    <tag k="ref:vcgi:esiteid" v="270848"/>
  </node>
  <node id="-647" visible="true" lat="43.02037585" lon="-72.83066105">
    <tag k="addr:city" v="Wardsboro"/>
    <tag k="addr:housenumber" v="114"/>
    <tag k="addr:street" v="French Hill Road"/>
    <tag k="addr:state" v="VT"/>
    <tag k="ref:vcgi:esiteid" v="270849"/>
  </node>
  <node id="-648" visible="true" lat="43.02018374" lon="-72.85519022">
    <tag k="addr:city" v="Wardsboro"/>
    <tag k="addr:housenumber" v="5805"/>
    <tag k="addr:street" v="Vermont Route 100"/>
    <tag k="addr:state" v="VT"/>
    <tag k="ref:vcgi:esiteid" v="270850"/>
  </node>
  <node id="-649" visible="true" lat="43.02023696" lon="-72.77654266">
    <tag k="addr:city" v="Wardsboro"/>
    <tag k="addr:housenumber" v="1970"/>
    <tag k="addr:street" v="South Wardsboro Road"/>
    <tag k="addr:state" v="VT"/>
    <tag k="ref:vcgi:esiteid" v="270851"/>
  </node>
  <node id="-650" visible="true" lat="43.0196125" lon="-72.83352542">
    <tag k="addr:city" v="Wardsboro"/>
    <tag k="addr:housenumber" v="1403"/>
    <tag k="addr:street" v="Smead Road"/>
    <tag k="addr:state" v="VT"/>
    <tag k="ref:vcgi:esiteid" v="270852"/>
  </node>
  <node id="-651" visible="true" lat="43.01946692" lon="-72.83162568">
    <tag k="addr:city" v="Wardsboro"/>
    <tag k="addr:housenumber" v="52"/>
    <tag k="addr:street" v="Joslin Hill Road"/>
    <tag k="addr:state" v="VT"/>
    <tag k="ref:vcgi:esiteid" v="270853"/>
  </node>
  <node id="-653" visible="true" lat="43.01959228" lon="-72.7767868">
    <tag k="addr:city" v="Wardsboro"/>
    <tag k="addr:housenumber" v="2068"/>
    <tag k="addr:street" v="South Wardsboro Road"/>
    <tag k="addr:state" v="VT"/>
    <tag k="ref:vcgi:esiteid" v="270855"/>
  </node>
  <node id="-655" visible="true" lat="43.01914478" lon="-72.83255013">
    <tag k="addr:city" v="Wardsboro"/>
    <tag k="addr:housenumber" v="28"/>
    <tag k="addr:street" v="Potter Road"/>
    <tag k="addr:state" v="VT"/>
    <tag k="ref:vcgi:esiteid" v="270857"/>
  </node>
  <node id="-656" visible="true" lat="43.01897049" lon="-72.83306884">
    <tag k="addr:city" v="Wardsboro"/>
    <tag k="addr:housenumber" v="26"/>
    <tag k="addr:street" v="Jencks Lane"/>
    <tag k="addr:state" v="VT"/>
    <tag k="ref:vcgi:esiteid" v="270858"/>
  </node>
  <node id="-657" visible="true" lat="43.01885715" lon="-72.83116691">
    <tag k="addr:city" v="Wardsboro"/>
    <tag k="addr:housenumber" v="98"/>
    <tag k="addr:street" v="Joslin Hill Road"/>
    <tag k="addr:state" v="VT"/>
    <tag k="ref:vcgi:esiteid" v="270859"/>
  </node>
  <node id="-658" visible="true" lat="43.01891326" lon="-72.79196929">
    <tag k="addr:city" v="Wardsboro"/>
    <tag k="addr:housenumber" v="213"/>
    <tag k="addr:street" v="Apple Tree Lane"/>
    <tag k="addr:state" v="VT"/>
    <tag k="ref:vcgi:esiteid" v="270860"/>
  </node>
  <node id="-659" visible="true" lat="43.0189476" lon="-72.75238799">
    <tag k="addr:city" v="Wardsboro"/>
    <tag k="addr:housenumber" v="491"/>
    <tag k="addr:street" v="Townshend Dam Road"/>
    <tag k="addr:state" v="VT"/>
    <tag k="ref:vcgi:esiteid" v="270861"/>
  </node>
  <node id="-660" visible="true" lat="43.01861487" lon="-72.83293842">
    <tag k="addr:city" v="Wardsboro"/>
    <tag k="addr:housenumber" v="54"/>
    <tag k="addr:street" v="Jencks Lane"/>
    <tag k="addr:state" v="VT"/>
    <tag k="ref:vcgi:esiteid" v="270862"/>
  </node>
  <node id="-662" visible="true" lat="43.01828765" lon="-72.8325119">
    <tag k="addr:city" v="Wardsboro"/>
    <tag k="addr:housenumber" v="77"/>
    <tag k="addr:street" v="Jencks Lane"/>
    <tag k="addr:state" v="VT"/>
    <tag k="ref:vcgi:esiteid" v="270864"/>
  </node>
  <node id="-663" visible="true" lat="43.01823043" lon="-72.80529785">
    <tag k="addr:city" v="Wardsboro"/>
    <tag k="addr:housenumber" v="1480"/>
    <tag k="addr:street" v="Gilfeather Road"/>
    <tag k="addr:state" v="VT"/>
    <tag k="ref:vcgi:esiteid" v="270865"/>
  </node>
  <node id="-664" visible="true" lat="43.01813797" lon="-72.83327325">
    <tag k="addr:city" v="Wardsboro"/>
    <tag k="addr:housenumber" v="2402"/>
    <tag k="addr:street" v="Upper Podunk Road"/>
    <tag k="addr:state" v="VT"/>
    <tag k="ref:vcgi:esiteid" v="270866"/>
  </node>
  <node id="-666" visible="true" lat="43.01781845" lon="-72.8330307">
    <tag k="addr:city" v="Wardsboro"/>
    <tag k="addr:housenumber" v="114"/>
    <tag k="addr:street" v="Jencks Lane"/>
    <tag k="addr:state" v="VT"/>
    <tag k="ref:vcgi:esiteid" v="270869"/>
  </node>
  <node id="-667" visible="true" lat="43.01779174" lon="-72.78988647">
    <tag k="addr:city" v="Wardsboro"/>
    <tag k="addr:housenumber" v="78"/>
    <tag k="addr:street" v="Apple Tree Lane"/>
    <tag k="addr:state" v="VT"/>
    <tag k="ref:vcgi:esiteid" v="270870"/>
  </node>
  <node id="-668" visible="true" lat="43.01758956" lon="-72.8326416">
    <tag k="addr:city" v="Wardsboro"/>
    <tag k="addr:housenumber" v="127"/>
    <tag k="addr:street" v="Jencks Lane"/>
    <tag k="addr:state" v="VT"/>
    <tag k="ref:vcgi:esiteid" v="270871"/>
  </node>
  <node id="-669" visible="true" lat="43.01753234" lon="-72.8331604">
    <tag k="addr:city" v="Wardsboro"/>
    <tag k="addr:housenumber" v="132"/>
    <tag k="addr:street" v="Jencks Lane"/>
    <tag k="addr:state" v="VT"/>
    <tag k="ref:vcgi:esiteid" v="270872"/>
  </node>
  <node id="-670" visible="true" lat="43.01709747" lon="-72.82248687">
    <tag k="addr:city" v="Wardsboro"/>
    <tag k="addr:housenumber" v="817"/>
    <tag k="addr:street" v="Potter Road"/>
    <tag k="addr:state" v="VT"/>
    <tag k="ref:vcgi:esiteid" v="270873"/>
  </node>
  <node id="-671" visible="true" lat="43.01699066" lon="-72.83480071">
    <tag k="addr:city" v="Wardsboro"/>
    <tag k="addr:housenumber" v="2270"/>
    <tag k="addr:street" v="Upper Podunk Road"/>
    <tag k="addr:state" v="VT"/>
    <tag k="ref:vcgi:esiteid" v="270874"/>
  </node>
  <node id="-673" visible="true" lat="43.01686477" lon="-72.78930664">
    <tag k="addr:city" v="Wardsboro"/>
    <tag k="addr:housenumber" v="379"/>
    <tag k="addr:street" v="Finkel Road"/>
    <tag k="addr:state" v="VT"/>
    <tag k="ref:vcgi:esiteid" v="270876"/>
  </node>
  <node id="-674" visible="true" lat="43.01669693" lon="-72.77922821">
    <tag k="addr:city" v="Wardsboro"/>
    <tag k="addr:housenumber" v="2299"/>
    <tag k="addr:street" v="South Wardsboro Road"/>
    <tag k="addr:state" v="VT"/>
    <tag k="ref:vcgi:esiteid" v="270877"/>
  </node>
  <node id="-675" visible="true" lat="43.01635742" lon="-72.82867431">
    <tag k="addr:city" v="Wardsboro"/>
    <tag k="addr:housenumber" v="303"/>
    <tag k="addr:street" v="Potter Road"/>
    <tag k="addr:state" v="VT"/>
    <tag k="ref:vcgi:esiteid" v="270878"/>
  </node>
  <node id="-676" visible="true" lat="43.01644516" lon="-72.75131225">
    <tag k="addr:city" v="Wardsboro"/>
    <tag k="addr:housenumber" v="301"/>
    <tag k="addr:street" v="Townshend Dam Road"/>
    <tag k="addr:state" v="VT"/>
    <tag k="ref:vcgi:esiteid" v="270879"/>
  </node>
  <node id="-679" visible="true" lat="43.01570129" lon="-72.82857513">
    <tag k="addr:city" v="Wardsboro"/>
    <tag k="addr:housenumber" v="342"/>
    <tag k="addr:street" v="Potter Road"/>
    <tag k="addr:state" v="VT"/>
    <tag k="ref:vcgi:esiteid" v="270882"/>
  </node>
  <node id="-682" visible="true" lat="43.01493072" lon="-72.82787322">
    <tag k="addr:city" v="Wardsboro"/>
    <tag k="addr:housenumber" v="406"/>
    <tag k="addr:street" v="Potter Road"/>
    <tag k="addr:state" v="VT"/>
    <tag k="ref:vcgi:esiteid" v="270885"/>
  </node>
  <node id="-683" visible="true" lat="43.01510238" lon="-72.7516098">
    <tag k="addr:city" v="Wardsboro"/>
    <tag k="addr:housenumber" v="223"/>
    <tag k="addr:street" v="Townshend Dam Road"/>
    <tag k="addr:state" v="VT"/>
    <tag k="ref:vcgi:esiteid" v="270886"/>
  </node>
  <node id="-684" visible="true" lat="43.01470947" lon="-72.83802795">
    <tag k="addr:city" v="Wardsboro"/>
    <tag k="addr:housenumber" v="2059"/>
    <tag k="addr:street" v="Upper Podunk Road"/>
    <tag k="addr:state" v="VT"/>
    <tag k="ref:vcgi:esiteid" v="270887"/>
  </node>
  <node id="-685" visible="true" lat="43.01450177" lon="-72.84710805">
    <tag k="addr:city" v="Wardsboro"/>
    <tag k="addr:housenumber" v="410"/>
    <tag k="addr:street" v="Terwilliger Hill Road"/>
    <tag k="addr:state" v="VT"/>
    <tag k="ref:vcgi:esiteid" v="270888"/>
  </node>
  <node id="-687" visible="true" lat="43.01403427" lon="-72.78541565">
    <tag k="addr:city" v="Wardsboro"/>
    <tag k="addr:housenumber" v="212"/>
    <tag k="addr:street" v="One Horse Lane"/>
    <tag k="addr:state" v="VT"/>
    <tag k="ref:vcgi:esiteid" v="270890"/>
  </node>
  <node id="-688" visible="true" lat="43.01363594" lon="-72.84897774">
    <tag k="addr:city" v="Wardsboro"/>
    <tag k="addr:housenumber" v="365"/>
    <tag k="addr:street" v="Terwilliger Hill Road"/>
    <tag k="addr:state" v="VT"/>
    <tag k="ref:vcgi:esiteid" v="270891"/>
  </node>
  <node id="-692" visible="true" lat="43.01324353" lon="-72.84354562">
    <tag k="addr:city" v="Wardsboro"/>
    <tag k="addr:housenumber" v="376"/>
    <tag k="addr:street" v="Terwilliger Hill Road"/>
    <tag k="addr:state" v="VT"/>
    <tag k="ref:vcgi:esiteid" v="270895"/>
  </node>
  <node id="-693" visible="true" lat="43.01328277" lon="-72.82563781">
    <tag k="addr:city" v="Wardsboro"/>
    <tag k="addr:housenumber" v="565"/>
    <tag k="addr:street" v="Potter Road"/>
    <tag k="addr:state" v="VT"/>
    <tag k="ref:vcgi:esiteid" v="270896"/>
  </node>
  <node id="-694" visible="true" lat="43.01309967" lon="-72.79689025">
    <tag k="addr:city" v="Wardsboro"/>
    <tag k="addr:housenumber" v="668"/>
    <tag k="addr:street" v="Cobb And Reed Road"/>
    <tag k="addr:state" v="VT"/>
    <tag k="ref:vcgi:esiteid" v="270897"/>
  </node>
  <node id="-695" visible="true" lat="43.01276779" lon="-72.78453063">
    <tag k="addr:city" v="Wardsboro"/>
    <tag k="addr:housenumber" v="2672"/>
    <tag k="addr:street" v="South Wardsboro Road"/>
    <tag k="addr:state" v="VT"/>
    <tag k="ref:vcgi:esiteid" v="270899"/>
  </node>
  <node id="-696" visible="true" lat="43.01263427" lon="-72.76068115">
    <tag k="addr:city" v="Wardsboro"/>
    <tag k="addr:housenumber" v="1329"/>
    <tag k="addr:street" v="Newfane Road"/>
    <tag k="addr:state" v="VT"/>
    <tag k="ref:vcgi:esiteid" v="270900"/>
  </node>
  <node id="-697" visible="true" lat="43.01222624" lon="-72.87355722">
    <tag k="addr:city" v="Wardsboro"/>
    <tag k="addr:housenumber" v="225"/>
    <tag k="addr:street" v="Meadowwood Lane"/>
    <tag k="addr:state" v="VT"/>
    <tag k="ref:vcgi:esiteid" v="270901"/>
  </node>
  <node id="-698" visible="true" lat="43.01247787" lon="-72.78619384">
    <tag k="addr:city" v="Wardsboro"/>
    <tag k="addr:housenumber" v="104"/>
    <tag k="addr:street" v="One Horse Lane"/>
    <tag k="addr:state" v="VT"/>
    <tag k="ref:vcgi:esiteid" v="270902"/>
  </node>
  <node id="-701" visible="true" lat="43.01243972" lon="-72.75253295">
    <tag k="addr:city" v="Wardsboro"/>
    <tag k="addr:housenumber" v="13"/>
    <tag k="addr:street" v="Townshend Dam Road"/>
    <tag k="addr:state" v="VT"/>
    <tag k="ref:vcgi:esiteid" v="270905"/>
  </node>
  <node id="-702" visible="true" lat="43.011035" lon="-72.87277747">
    <tag k="addr:city" v="Wardsboro"/>
    <tag k="addr:housenumber" v="224"/>
    <tag k="addr:street" v="Meadowwood Lane"/>
    <tag k="addr:state" v="VT"/>
    <tag k="ref:vcgi:esiteid" v="270906"/>
  </node>
  <node id="-703" visible="true" lat="43.01229426" lon="-72.85382708">
    <tag k="addr:city" v="Wardsboro"/>
    <tag k="addr:housenumber" v="399"/>
    <tag k="addr:street" v="Hardscrabble Road"/>
    <tag k="addr:state" v="VT"/>
    <tag k="ref:vcgi:esiteid" v="270907"/>
  </node>
  <node id="-705" visible="true" lat="43.01227951" lon="-72.78970336">
    <tag k="addr:city" v="Wardsboro"/>
    <tag k="addr:housenumber" v="55"/>
    <tag k="addr:street" v="Finkel Road"/>
    <tag k="addr:state" v="VT"/>
    <tag k="ref:vcgi:esiteid" v="270909"/>
  </node>
  <node id="-706" visible="true" lat="43.01218032" lon="-72.8206253">
    <tag k="addr:city" v="Wardsboro"/>
    <tag k="addr:housenumber" v="883"/>
    <tag k="addr:street" v="Potter Road"/>
    <tag k="addr:state" v="VT"/>
    <tag k="ref:vcgi:esiteid" v="270910"/>
  </node>
  <node id="-707" visible="true" lat="43.01204327" lon="-72.74695938">
    <tag k="addr:city" v="Wardsboro"/>
    <tag k="addr:housenumber" v="2050"/>
    <tag k="addr:street" v="Newfane Road"/>
    <tag k="addr:state" v="VT"/>
    <tag k="ref:vcgi:esiteid" v="270911"/>
  </node>
  <node id="-710" visible="true" lat="43.011661" lon="-72.85435439">
    <tag k="addr:city" v="Wardsboro"/>
    <tag k="addr:housenumber" v="351"/>
    <tag k="addr:street" v="Hardscrabble Road"/>
    <tag k="addr:state" v="VT"/>
    <tag k="ref:vcgi:esiteid" v="270914"/>
  </node>
  <node id="-711" visible="true" lat="43.01193618" lon="-72.79347229">
    <tag k="addr:city" v="Wardsboro"/>
    <tag k="addr:housenumber" v="494"/>
    <tag k="addr:street" v="Cobb And Reed Road"/>
    <tag k="addr:state" v="VT"/>
    <tag k="ref:vcgi:esiteid" v="270915"/>
  </node>
  <node id="-712" visible="true" lat="43.01177215" lon="-72.78933715">
    <tag k="addr:city" v="Wardsboro"/>
    <tag k="addr:housenumber" v="20"/>
    <tag k="addr:street" v="Finkel Road"/>
    <tag k="addr:state" v="VT"/>
    <tag k="ref:vcgi:esiteid" v="270916"/>
  </node>
  <node id="-717" visible="true" lat="43.01127628" lon="-72.85397601">
    <tag k="addr:city" v="Wardsboro"/>
    <tag k="addr:housenumber" v="342"/>
    <tag k="addr:street" v="Hardscrabble Road"/>
    <tag k="addr:state" v="VT"/>
    <tag k="ref:vcgi:esiteid" v="270921"/>
  </node>
  <node id="-719" visible="true" lat="43.01137542" lon="-72.7623825">
    <tag k="addr:city" v="Wardsboro"/>
    <tag k="addr:housenumber" v="87"/>
    <tag k="addr:street" v="Wacker Road"/>
    <tag k="addr:state" v="VT"/>
    <tag k="ref:vcgi:esiteid" v="270923"/>
  </node>
  <node id="-720" visible="true" lat="43.01112607" lon="-72.8547784">
    <tag k="addr:city" v="Wardsboro"/>
    <tag k="addr:housenumber" v="313"/>
    <tag k="addr:street" v="Hardscrabble Road"/>
    <tag k="addr:state" v="VT"/>
    <tag k="ref:vcgi:esiteid" v="270924"/>
  </node>
  <node id="-730" visible="true" lat="43.0108757" lon="-72.77315521">
    <tag k="addr:city" v="Wardsboro"/>
    <tag k="addr:housenumber" v="573"/>
    <tag k="addr:street" v="Newfane Road"/>
    <tag k="addr:state" v="VT"/>
    <tag k="ref:vcgi:esiteid" v="270934"/>
  </node>
  <node id="-733" visible="true" lat="43.01050447" lon="-72.8548395">
    <tag k="addr:city" v="Wardsboro"/>
    <tag k="addr:housenumber" v="271"/>
    <tag k="addr:street" v="Hardscrabble Road"/>
    <tag k="addr:state" v="VT"/>
    <tag k="ref:vcgi:esiteid" v="270937"/>
  </node>
  <node id="-735" visible="true" lat="43.01045989" lon="-72.86583709">
    <tag k="addr:city" v="Wardsboro"/>
    <tag k="addr:housenumber" v="6689"/>
    <tag k="addr:street" v="Vermont Route 100"/>
    <tag k="addr:state" v="VT"/>
    <tag k="ref:vcgi:esiteid" v="270939"/>
  </node>
  <node id="-737" visible="true" lat="43.01027679" lon="-72.85501098">
    <tag k="addr:city" v="Wardsboro"/>
    <tag k="addr:housenumber" v="251"/>
    <tag k="addr:street" v="Hardscrabble Road"/>
    <tag k="addr:state" v="VT"/>
    <tag k="ref:vcgi:esiteid" v="270941"/>
  </node>
  <node id="-738" visible="true" lat="43.01014709" lon="-72.85912323">
    <tag k="addr:city" v="Wardsboro"/>
    <tag k="addr:housenumber" v="249"/>
    <tag k="addr:street" v="Upper Podunk Road"/>
    <tag k="addr:state" v="VT"/>
    <tag k="ref:vcgi:esiteid" v="270942"/>
  </node>
  <node id="-742" visible="true" lat="43.00982826" lon="-72.85463958">
    <tag k="addr:city" v="Wardsboro"/>
    <tag k="addr:housenumber" v="218"/>
    <tag k="addr:street" v="Hardscrabble Road"/>
    <tag k="addr:state" v="VT"/>
    <tag k="ref:vcgi:esiteid" v="270947"/>
  </node>
  <node id="-744" visible="true" lat="43.00976968" lon="-72.87306573">
    <tag k="addr:city" v="Wardsboro"/>
    <tag k="addr:housenumber" v="7054"/>
    <tag k="addr:street" v="Vermont Route 100"/>
    <tag k="addr:state" v="VT"/>
    <tag k="ref:vcgi:esiteid" v="270949"/>
  </node>
  <node id="-750" visible="true" lat="43.00954437" lon="-72.85957336">
    <tag k="addr:city" v="Wardsboro"/>
    <tag k="addr:housenumber" v="286"/>
    <tag k="addr:street" v="Upper Podunk Road"/>
    <tag k="addr:state" v="VT"/>
    <tag k="ref:vcgi:esiteid" v="270955"/>
  </node>
  <node id="-753" visible="true" lat="43.00941469" lon="-72.85502152">
    <tag k="addr:city" v="Wardsboro"/>
    <tag k="addr:housenumber" v="203"/>
    <tag k="addr:street" v="Hardscrabble Road"/>
    <tag k="addr:state" v="VT"/>
    <tag k="ref:vcgi:esiteid" v="270958"/>
  </node>
  <node id="-754" visible="true" lat="43.00951385" lon="-72.84820556">
    <tag k="addr:city" v="Wardsboro"/>
    <tag k="addr:housenumber" v="1317"/>
    <tag k="addr:street" v="Upper Podunk Road"/>
    <tag k="addr:state" v="VT"/>
    <tag k="ref:vcgi:esiteid" v="270959"/>
  </node>
  <node id="-756" visible="true" lat="43.00942288" lon="-72.84046046">
    <tag k="addr:city" v="Wardsboro"/>
    <tag k="addr:housenumber" v="1650"/>
    <tag k="addr:street" v="Upper Podunk Road"/>
    <tag k="addr:state" v="VT"/>
    <tag k="ref:vcgi:esiteid" v="270961"/>
  </node>
  <node id="-757" visible="true" lat="43.00932537" lon="-72.87448419">
    <tag k="addr:city" v="Wardsboro"/>
    <tag k="addr:housenumber" v="7150"/>
    <tag k="addr:street" v="Vermont Route 100"/>
    <tag k="addr:state" v="VT"/>
    <tag k="ref:vcgi:esiteid" v="270962"/>
  </node>
  <node id="-758" visible="true" lat="43.00929256" lon="-72.87397797">
    <tag k="addr:city" v="Wardsboro"/>
    <tag k="addr:housenumber" v="7112"/>
    <tag k="addr:street" v="Vermont Route 100"/>
    <tag k="addr:state" v="VT"/>
    <tag k="ref:vcgi:esiteid" v="270963"/>
  </node>
  <node id="-759" visible="true" lat="43.00928506" lon="-72.8776952">
    <tag k="addr:city" v="Wardsboro"/>
    <tag k="addr:housenumber" v="7348"/>
    <tag k="addr:street" v="Vermont Route 100"/>
    <tag k="addr:state" v="VT"/>
    <tag k="ref:vcgi:esiteid" v="270964"/>
  </node>
  <node id="-761" visible="true" lat="43.00934754" lon="-72.7763037">
    <tag k="addr:city" v="Wardsboro"/>
    <tag k="addr:housenumber" v="428"/>
    <tag k="addr:street" v="Newfane Road"/>
    <tag k="addr:state" v="VT"/>
    <tag k="ref:vcgi:esiteid" v="270967"/>
  </node>
  <node id="-763" visible="true" lat="43.00911928" lon="-72.87647859">
    <tag k="addr:city" v="Wardsboro"/>
    <tag k="addr:housenumber" v="7224"/>
    <tag k="addr:street" v="Vermont Route 100"/>
    <tag k="addr:state" v="VT"/>
    <tag k="ref:vcgi:esiteid" v="270969"/>
  </node>
  <node id="-765" visible="true" lat="43.0092926" lon="-72.78683471">
    <tag k="addr:city" v="Wardsboro"/>
    <tag k="addr:housenumber" v="2937"/>
    <tag k="addr:street" v="Potter Road"/>
    <tag k="addr:state" v="VT"/>
    <tag k="ref:vcgi:esiteid" v="270971"/>
  </node>
  <node id="-766" visible="true" lat="43.00930404" lon="-72.7711029">
    <tag k="addr:city" v="Wardsboro"/>
    <tag k="addr:housenumber" v="705"/>
    <tag k="addr:street" v="Newfane Road"/>
    <tag k="addr:state" v="VT"/>
    <tag k="ref:vcgi:esiteid" v="270972"/>
  </node>
  <node id="-767" visible="true" lat="43.0087149" lon="-72.87103639">
    <tag k="addr:city" v="Wardsboro"/>
    <tag k="addr:housenumber" v="118"/>
    <tag k="addr:street" v="Turkwood Road"/>
    <tag k="addr:state" v="VT"/>
    <tag k="ref:vcgi:esiteid" v="270973"/>
  </node>
  <node id="-769" visible="true" lat="43.00843419" lon="-72.85916724">
    <tag k="addr:city" v="Wardsboro"/>
    <tag k="addr:housenumber" v="24"/>
    <tag k="addr:street" v="Ten Point Road"/>
    <tag k="addr:state" v="VT"/>
    <tag k="ref:vcgi:esiteid" v="270975"/>
  </node>
  <node id="-770" visible="true" lat="43.00848388" lon="-72.8513565">
    <tag k="addr:city" v="Wardsboro"/>
    <tag k="addr:housenumber" v="1143"/>
    <tag k="addr:street" v="Upper Podunk Road"/>
    <tag k="addr:state" v="VT"/>
    <tag k="ref:vcgi:esiteid" v="270976"/>
  </node>
  <node id="-771" visible="true" lat="43.0075496" lon="-72.84892165">
    <tag k="addr:city" v="Wardsboro"/>
    <tag k="addr:housenumber" v="1210"/>
    <tag k="addr:street" v="Upper Podunk Road"/>
    <tag k="addr:state" v="VT"/>
    <tag k="ref:vcgi:esiteid" v="270977"/>
  </node>
  <node id="-772" visible="true" lat="43.00812351" lon="-72.87604707">
    <tag k="addr:city" v="Wardsboro"/>
    <tag k="addr:housenumber" v="7277"/>
    <tag k="addr:street" v="Vermont Route 100"/>
    <tag k="addr:state" v="VT"/>
    <tag k="ref:vcgi:esiteid" v="270978"/>
  </node>
  <node id="-773" visible="true" lat="43.00673026" lon="-72.85041812">
    <tag k="addr:city" v="Wardsboro"/>
    <tag k="addr:housenumber" v="1144"/>
    <tag k="addr:street" v="Upper Podunk Road"/>
    <tag k="addr:state" v="VT"/>
    <tag k="ref:vcgi:esiteid" v="270979"/>
  </node>
  <node id="-774" visible="true" lat="43.00752923" lon="-72.8538614">
    <tag k="addr:city" v="Wardsboro"/>
    <tag k="addr:housenumber" v="73"/>
    <tag k="addr:street" v="Hardscrabble Road"/>
    <tag k="addr:state" v="VT"/>
    <tag k="ref:vcgi:esiteid" v="270980"/>
  </node>
  <node id="-775" visible="true" lat="43.00746106" lon="-72.85311743">
    <tag k="addr:city" v="Wardsboro"/>
    <tag k="addr:housenumber" v="19"/>
    <tag k="addr:street" v="Hardscrabble Road"/>
    <tag k="addr:state" v="VT"/>
    <tag k="ref:vcgi:esiteid" v="270981"/>
  </node>
  <node id="-776" visible="true" lat="43.0075531" lon="-72.77177429">
    <tag k="addr:city" v="Wardsboro"/>
    <tag k="addr:housenumber" v="219"/>
    <tag k="addr:street" v="East Dover Road"/>
    <tag k="addr:state" v="VT"/>
    <tag k="ref:vcgi:esiteid" v="270982"/>
  </node>
  <node id="-777" visible="true" lat="43.00727336" lon="-72.85775111">
    <tag k="addr:city" v="Wardsboro"/>
    <tag k="addr:housenumber" v="71"/>
    <tag k="addr:street" v="Ten Point Road"/>
    <tag k="addr:state" v="VT"/>
    <tag k="ref:vcgi:esiteid" v="270983"/>
  </node>
  <node id="-779" visible="true" lat="43.0066236" lon="-72.85621099">
    <tag k="addr:city" v="Wardsboro"/>
    <tag k="addr:housenumber" v="551"/>
    <tag k="addr:street" v="Upper Podunk Road"/>
    <tag k="addr:state" v="VT"/>
    <tag k="ref:vcgi:esiteid" v="270985"/>
  </node>
  <node id="-781" visible="true" lat="43.00541873" lon="-72.85575538">
    <tag k="addr:city" v="Wardsboro"/>
    <tag k="addr:housenumber" v="611"/>
    <tag k="addr:street" v="Upper Podunk Road"/>
    <tag k="addr:state" v="VT"/>
    <tag k="ref:vcgi:esiteid" v="270987"/>
  </node>
  <node id="-783" visible="true" lat="43.0053641" lon="-72.85714824">
    <tag k="addr:city" v="Wardsboro"/>
    <tag k="addr:housenumber" v="634"/>
    <tag k="addr:street" v="Upper Podunk Road"/>
    <tag k="addr:state" v="VT"/>
    <tag k="ref:vcgi:esiteid" v="270989"/>
  </node>
  <node id="-787" visible="true" lat="43.005144" lon="-72.85955696">
    <tag k="addr:city" v="Wardsboro"/>
    <tag k="addr:housenumber" v="267"/>
    <tag k="addr:street" v="Ten Point Road"/>
    <tag k="addr:state" v="VT"/>
    <tag k="ref:vcgi:esiteid" v="270993"/>
  </node>
  <node id="-795" visible="true" lat="43.00396728" lon="-72.77286529">
    <tag k="addr:city" v="Wardsboro"/>
    <tag k="addr:housenumber" v="553"/>
    <tag k="addr:street" v="East Dover Road"/>
    <tag k="addr:state" v="VT"/>
    <tag k="ref:vcgi:esiteid" v="271001"/>
  </node>
  <node id="-799" visible="true" lat="43.0025517" lon="-72.77540809">
    <tag k="addr:city" v="Wardsboro"/>
    <tag k="addr:housenumber" v="737"/>
    <tag k="addr:street" v="East Dover Road"/>
    <tag k="addr:state" v="VT"/>
    <tag k="ref:vcgi:esiteid" v="271005"/>
  </node>
  <node id="-803" visible="true" lat="43.00002428" lon="-72.7808937">
    <tag k="addr:city" v="Wardsboro"/>
    <tag k="addr:housenumber" v="1058"/>
    <tag k="addr:street" v="East Dover Road"/>
    <tag k="addr:state" v="VT"/>
    <tag k="ref:vcgi:esiteid" v="271009"/>
  </node>
  <node id="-810" visible="true" lat="42.99362243" lon="-72.77802637">
    <tag k="addr:city" v="Wardsboro"/>
    <tag k="addr:housenumber" v="1375"/>
    <tag k="addr:street" v="East Dover Road"/>
    <tag k="addr:state" v="VT"/>
    <tag k="ref:vcgi:esiteid" v="271016"/>
  </node>
  <node id="-814" visible="true" lat="42.99092102" lon="-72.77792358">
    <tag k="addr:city" v="Wardsboro"/>
    <tag k="addr:housenumber" v="1511"/>
    <tag k="addr:street" v="East Dover Road"/>
    <tag k="addr:state" v="VT"/>
    <tag k="ref:vcgi:esiteid" v="271020"/>
  </node>
  <node id="-824" visible="true" lat="43.04214096" lon="-72.7372589">
    <tag k="addr:city" v="Wardsboro"/>
    <tag k="addr:housenumber" v="2627"/>
    <tag k="addr:street" v="Townshend Dam Road"/>
    <tag k="addr:state" v="VT"/>
    <tag k="ref:vcgi:esiteid" v="271032"/>
  </node>
  <node id="-825" visible="true" lat="43.04064722" lon="-72.73834807">
    <tag k="addr:city" v="Wardsboro"/>
    <tag k="addr:housenumber" v="2489"/>
    <tag k="addr:street" v="Townshend Dam Road"/>
    <tag k="addr:state" v="VT"/>
    <tag k="ref:vcgi:esiteid" v="271033"/>
  </node>
  <node id="-826" visible="true" lat="43.04974746" lon="-72.78945159">
    <tag k="addr:city" v="Wardsboro"/>
    <tag k="addr:housenumber" v="640"/>
    <tag k="addr:street" v="Main Street"/>
    <tag k="addr:state" v="VT"/>
    <tag k="ref:vcgi:esiteid" v="271034"/>
  </node>
  <node id="-829" visible="true" lat="43.01793984" lon="-72.86155194">
    <tag k="addr:city" v="Wardsboro"/>
    <tag k="addr:housenumber" v="6220"/>
    <tag k="addr:street" v="Vermont Route 100"/>
    <tag k="addr:state" v="VT"/>
    <tag k="ref:vcgi:esiteid" v="271037"/>
  </node>
  <node id="-831" visible="true" lat="43.0163269" lon="-72.78064727">
    <tag k="addr:city" v="Wardsboro"/>
    <tag k="addr:housenumber" v="2370"/>
    <tag k="addr:street" v="South Wardsboro Road"/>
    <tag k="addr:state" v="VT"/>
    <tag k="ref:vcgi:esiteid" v="271040"/>
  </node>
  <node id="-832" visible="true" lat="43.02922058" lon="-72.75065612">
    <tag k="addr:city" v="Wardsboro"/>
    <tag k="addr:housenumber" v="1220"/>
    <tag k="addr:street" v="Townshend Dam Road"/>
    <tag k="addr:state" v="VT"/>
    <tag k="ref:vcgi:esiteid" v="271041"/>
  </node>
  <node id="-833" visible="true" lat="42.98952484" lon="-72.78571319">
    <tag k="addr:city" v="Wardsboro"/>
    <tag k="addr:housenumber" v="1333"/>
    <tag k="addr:street" v="Whites Hill Road"/>
    <tag k="addr:state" v="VT"/>
    <tag k="ref:vcgi:esiteid" v="271042"/>
  </node>
  <node id="-834" visible="true" lat="42.98760159" lon="-72.76373535">
    <tag k="addr:city" v="Wardsboro"/>
    <tag k="addr:housenumber" v="1214"/>
    <tag k="addr:street" v="Gault Road"/>
    <tag k="addr:state" v="VT"/>
    <tag k="ref:vcgi:esiteid" v="271043"/>
  </node>
  <node id="-835" visible="true" lat="43.02866054" lon="-72.86703926">
    <tag k="addr:city" v="Wardsboro"/>
    <tag k="addr:housenumber" v="20"/>
    <tag k="addr:street" v="Scandia Village Road"/>
    <tag k="addr:state" v="VT"/>
    <tag k="ref:vcgi:esiteid" v="271044"/>
  </node>
  <node id="-836" visible="true" lat="43.03107785" lon="-72.79517476">
    <tag k="addr:city" v="Wardsboro"/>
    <tag k="addr:housenumber" v="87"/>
    <tag k="addr:street" v="Dump Road"/>
    <tag k="addr:state" v="VT"/>
    <tag k="ref:vcgi:esiteid" v="271045"/>
  </node>
  <node id="-837" visible="true" lat="43.03531499" lon="-72.8156887">
    <tag k="addr:city" v="Wardsboro"/>
    <tag k="addr:housenumber" v="404"/>
    <tag k="addr:street" v="Bills Road"/>
    <tag k="addr:state" v="VT"/>
    <tag k="ref:vcgi:esiteid" v="271046"/>
  </node>
  <node id="-838" visible="true" lat="43.047175" lon="-72.7902737">
    <tag k="addr:city" v="Wardsboro"/>
    <tag k="addr:housenumber" v="460"/>
    <tag k="addr:street" v="Main Street"/>
    <tag k="addr:state" v="VT"/>
    <tag k="ref:vcgi:esiteid" v="271048"/>
  </node>
  <node id="-839" visible="true" lat="43.01813287" lon="-72.82964792">
    <tag k="addr:city" v="Wardsboro"/>
    <tag k="addr:housenumber" v="237"/>
    <tag k="addr:street" v="Potter Road"/>
    <tag k="addr:state" v="VT"/>
    <tag k="ref:vcgi:esiteid" v="271049"/>
  </node>
  <node id="-840" visible="true" lat="43.03122274" lon="-72.7765308">
    <tag k="addr:city" v="Wardsboro"/>
    <tag k="addr:housenumber" v="17"/>
    <tag k="addr:street" v="Howard Road"/>
    <tag k="addr:state" v="VT"/>
    <tag k="ref:vcgi:esiteid" v="271050"/>
  </node>
  <node id="-844" visible="true" lat="43.01105497" lon="-72.82204196">
    <tag k="addr:city" v="Wardsboro"/>
    <tag k="addr:housenumber" v="814"/>
    <tag k="addr:street" v="Potter Road"/>
    <tag k="addr:state" v="VT"/>
    <tag k="ref:vcgi:esiteid" v="271054"/>
  </node>
  <node id="-845" visible="true" lat="43.028657" lon="-72.77010224">
    <tag k="addr:city" v="Wardsboro"/>
    <tag k="addr:housenumber" v="24"/>
    <tag k="addr:street" v="Kent Road"/>
    <tag k="addr:state" v="VT"/>
    <tag k="ref:vcgi:esiteid" v="271055"/>
  </node>
  <node id="-846" visible="true" lat="43.01665234" lon="-72.82960194">
    <tag k="addr:city" v="Wardsboro"/>
    <tag k="addr:housenumber" v="256"/>
    <tag k="addr:street" v="Potter Road"/>
    <tag k="addr:state" v="VT"/>
    <tag k="ref:vcgi:esiteid" v="271056"/>
  </node>
  <node id="-847" visible="true" lat="43.04097059" lon="-72.83174289">
    <tag k="addr:city" v="Wardsboro"/>
    <tag k="addr:housenumber" v="1232"/>
    <tag k="addr:street" v="Sheldon Hill Road"/>
    <tag k="addr:state" v="VT"/>
    <tag k="ref:vcgi:esiteid" v="271058"/>
  </node>
  <node id="-850" visible="true" lat="43.00294074" lon="-72.77478447">
    <tag k="addr:city" v="Wardsboro"/>
    <tag k="addr:housenumber" v="599"/>
    <tag k="addr:street" v="East Dover Road"/>
    <tag k="addr:state" v="VT"/>
    <tag k="ref:vcgi:esiteid" v="271061"/>
  </node>
  <node id="-851" visible="true" lat="43.03319194" lon="-72.76390024">
    <tag k="addr:city" v="Wardsboro"/>
    <tag k="addr:housenumber" v="590"/>
    <tag k="addr:street" v="Bobcat Road"/>
    <tag k="addr:state" v="VT"/>
    <tag k="ref:vcgi:esiteid" v="271062"/>
  </node>
  <node id="-852" visible="true" lat="43.01854918" lon="-72.78905822">
    <tag k="addr:city" v="Wardsboro"/>
    <tag k="addr:housenumber" v="529"/>
    <tag k="addr:street" v="Finkel Road"/>
    <tag k="addr:state" v="VT"/>
    <tag k="ref:vcgi:esiteid" v="271063"/>
  </node>
  <node id="-853" visible="true" lat="43.00779338" lon="-72.85714756">
    <tag k="addr:city" v="Wardsboro"/>
    <tag k="addr:housenumber" v="499"/>
    <tag k="addr:street" v="Upper Podunk Road"/>
    <tag k="addr:state" v="VT"/>
    <tag k="ref:vcgi:esiteid" v="271064"/>
  </node>
  <node id="-855" visible="true" lat="43.03605076" lon="-72.86019935">
    <tag k="addr:city" v="Wardsboro"/>
    <tag k="addr:housenumber" v="590"/>
    <tag k="addr:street" v="Newell Hill Road"/>
    <tag k="addr:state" v="VT"/>
    <tag k="ref:vcgi:esiteid" v="271066"/>
  </node>
  <node id="-857" visible="true" lat="43.04357635" lon="-72.86973864">
    <tag k="addr:city" v="Wardsboro"/>
    <tag k="addr:housenumber" v="1364"/>
    <tag k="addr:street" v="Newell Hill Road"/>
    <tag k="addr:state" v="VT"/>
    <tag k="ref:vcgi:esiteid" v="271068"/>
  </node>
  <node id="-860" visible="true" lat="43.02841921" lon="-72.846588">
    <tag k="addr:city" v="Wardsboro"/>
    <tag k="addr:housenumber" v="334"/>
    <tag k="addr:street" v="Alzac Lane"/>
    <tag k="addr:state" v="VT"/>
    <tag k="ref:vcgi:esiteid" v="271071"/>
  </node>
  <node id="-864" visible="true" lat="43.02393681" lon="-72.83223962">
    <tag k="addr:city" v="Wardsboro"/>
    <tag k="addr:housenumber" v="175"/>
    <tag k="addr:street" v="Lower Podunk Road"/>
    <tag k="addr:state" v="VT"/>
    <tag k="ref:vcgi:esiteid" v="271075"/>
  </node>
  <node id="-865" visible="true" lat="43.00860508" lon="-72.85343783">
    <tag k="addr:city" v="Wardsboro"/>
    <tag k="addr:housenumber" v="86"/>
    <tag k="addr:street" v="Hardscrabble Road"/>
    <tag k="addr:state" v="VT"/>
    <tag k="ref:vcgi:esiteid" v="271076"/>
  </node>
  <node id="-866" visible="true" lat="43.01374119" lon="-72.83888901">
    <tag k="addr:city" v="Wardsboro"/>
    <tag k="addr:housenumber" v="1881"/>
    <tag k="addr:street" v="Upper Podunk Road"/>
    <tag k="addr:state" v="VT"/>
    <tag k="ref:vcgi:esiteid" v="271077"/>
  </node>
  <node id="-870" visible="true" lat="43.04397951" lon="-72.78756233">
    <tag k="addr:city" v="Wardsboro"/>
    <tag k="addr:housenumber" v="566"/>
    <tag k="addr:street" v="Vermont Route 100"/>
    <tag k="addr:state" v="VT"/>
    <tag k="ref:vcgi:esiteid" v="271082"/>
  </node>
  <node id="-878" visible="true" lat="43.0149757" lon="-72.86370861">
    <tag k="addr:city" v="Wardsboro"/>
    <tag k="addr:housenumber" v="6374"/>
    <tag k="addr:street" v="Vermont Route 100"/>
    <tag k="addr:state" v="VT"/>
    <tag k="ref:vcgi:esiteid" v="271090"/>
  </node>
  <node id="-880" visible="true" lat="43.03092572" lon="-72.77233564">
    <tag k="addr:city" v="Wardsboro"/>
    <tag k="addr:housenumber" v="282"/>
    <tag k="addr:street" v="Black Bear Ridge"/>
    <tag k="addr:state" v="VT"/>
    <tag k="ref:vcgi:esiteid" v="271092"/>
  </node>
  <node id="-881" visible="true" lat="43.04737604" lon="-72.8425759">
    <tag k="addr:city" v="Wardsboro"/>
    <tag k="addr:housenumber" v="27"/>
    <tag k="addr:street" v="Old Rd Nine"/>
    <tag k="addr:state" v="VT"/>
    <tag k="ref:vcgi:esiteid" v="271093"/>
  </node>
  <node id="-883" visible="true" lat="43.02861797" lon="-72.8699854">
    <tag k="addr:city" v="Wardsboro"/>
    <tag k="addr:housenumber" v="12"/>
    <tag k="addr:street" v="Boardman Loop"/>
    <tag k="addr:state" v="VT"/>
    <tag k="ref:vcgi:esiteid" v="271095"/>
  </node>
  <node id="-885" visible="true" lat="43.00698432" lon="-72.85638792">
    <tag k="addr:city" v="Wardsboro"/>
    <tag k="addr:housenumber" v="525"/>
    <tag k="addr:street" v="Upper Podunk Road"/>
    <tag k="addr:state" v="VT"/>
    <tag k="ref:vcgi:esiteid" v="271097"/>
  </node>
  <node id="-888" visible="true" lat="43.03109774" lon="-72.83315553">
    <tag k="addr:city" v="Wardsboro"/>
    <tag k="addr:housenumber" v="256"/>
    <tag k="addr:street" v="Fitts Road"/>
    <tag k="addr:state" v="VT"/>
    <tag k="ref:vcgi:esiteid" v="271100"/>
  </node>
  <node id="-899" visible="true" lat="43.00843022" lon="-72.85225947">
    <tag k="addr:city" v="Wardsboro"/>
    <tag k="addr:housenumber" v="1109"/>
    <tag k="addr:street" v="Upper Podunk Road"/>
    <tag k="addr:state" v="VT"/>
    <tag k="ref:vcgi:esiteid" v="271111"/>
  </node>
  <node id="-900" visible="true" lat="43.01687201" lon="-72.86602613">
    <tag k="addr:city" v="Wardsboro"/>
    <tag k="addr:housenumber" v="510"/>
    <tag k="addr:street" v="Streeter Road"/>
    <tag k="addr:state" v="VT"/>
    <tag k="ref:vcgi:esiteid" v="271112"/>
  </node>
  <node id="-904" visible="true" lat="42.99694915" lon="-72.76224328">
    <tag k="addr:city" v="Wardsboro"/>
    <tag k="addr:housenumber" v="565"/>
    <tag k="addr:street" v="Gault Road"/>
    <tag k="addr:state" v="VT"/>
    <tag k="ref:vcgi:esiteid" v="271116"/>
  </node>
  <node id="-910" visible="true" lat="43.01326852" lon="-72.84588422">
    <tag k="addr:city" v="Wardsboro"/>
    <tag k="addr:housenumber" v="374"/>
    <tag k="addr:street" v="Terwilliger Hill Road"/>
    <tag k="addr:state" v="VT"/>
    <tag k="ref:vcgi:esiteid" v="311772"/>
  </node>
  <node id="-923" visible="true" lat="43.03239069" lon="-72.86616336">
    <tag k="addr:city" v="Wardsboro"/>
    <tag k="addr:housenumber" v="164"/>
    <tag k="addr:street" v="Robinson Lane"/>
    <tag k="addr:state" v="VT"/>
    <tag k="ref:vcgi:esiteid" v="311789"/>
  </node>
  <node id="-926" visible="true" lat="43.01659182" lon="-72.79759129">
    <tag k="addr:city" v="Wardsboro"/>
    <tag k="addr:housenumber" v="2007"/>
    <tag k="addr:street" v="Gilfeather Road"/>
    <tag k="addr:state" v="VT"/>
    <tag k="ref:vcgi:esiteid" v="311792"/>
  </node>
  <node id="-927" visible="true" lat="43.03372031" lon="-72.84477483">
    <tag k="addr:city" v="Wardsboro"/>
    <tag k="addr:housenumber" v="10"/>
    <tag k="addr:street" v="Sheldon Hill Road"/>
    <tag k="addr:state" v="VT"/>
    <tag k="ref:vcgi:esiteid" v="327045"/>
  </node>
  <node id="-928" visible="true" lat="43.01692637" lon="-72.83139209">
    <tag k="addr:city" v="Wardsboro"/>
    <tag k="addr:housenumber" v="265"/>
    <tag k="addr:street" v="Jencks Lane"/>
    <tag k="addr:state" v="VT"/>
    <tag k="ref:vcgi:esiteid" v="328814"/>
  </node>
  <node id="-935" visible="true" lat="43.00352805" lon="-72.77354675">
    <tag k="addr:city" v="Wardsboro"/>
    <tag k="addr:housenumber" v="567"/>
    <tag k="addr:street" v="East Dover Road"/>
    <tag k="addr:state" v="VT"/>
    <tag k="ref:vcgi:esiteid" v="328821"/>
  </node>
  <node id="-947" visible="true" lat="43.01048831" lon="-72.84349545">
    <tag k="addr:city" v="Wardsboro"/>
    <tag k="addr:housenumber" v="1565"/>
    <tag k="addr:street" v="Upper Podunk Road"/>
    <tag k="addr:state" v="VT"/>
    <tag k="ref:vcgi:esiteid" v="331939"/>
  </node>
  <node id="-948" visible="true" lat="43.02977938" lon="-72.86595149">
    <tag k="addr:city" v="Wardsboro"/>
    <tag k="addr:housenumber" v="100"/>
    <tag k="addr:street" v="Robinson Lane"/>
    <tag k="addr:state" v="VT"/>
    <tag k="ref:vcgi:esiteid" v="333493"/>
  </node>
  <node id="-950" visible="true" lat="43.01027983" lon="-72.7854914">
    <tag k="addr:city" v="Wardsboro"/>
    <tag k="addr:housenumber" v="3032"/>
    <tag k="addr:street" v="Potter Road"/>
    <tag k="addr:state" v="VT"/>
    <tag k="ref:vcgi:esiteid" v="340007"/>
  </node>
  <node id="-953" visible="true" lat="43.03486715" lon="-72.781668">
    <tag k="addr:city" v="Wardsboro"/>
    <tag k="addr:housenumber" v="776"/>
    <tag k="addr:street" v="South Wardsboro Road"/>
    <tag k="addr:state" v="VT"/>
    <tag k="ref:vcgi:esiteid" v="340010"/>
  </node>
  <node id="-954" visible="true" lat="43.00513928" lon="-72.79320981">
    <tag k="addr:city" v="Wardsboro"/>
    <tag k="addr:housenumber" v="2480"/>
    <tag k="addr:street" v="Potter Road"/>
    <tag k="addr:state" v="VT"/>
    <tag k="ref:vcgi:esiteid" v="340635"/>
  </node>
  <node id="-955" visible="true" lat="43.0348112" lon="-72.79340461">
    <tag k="addr:city" v="Wardsboro"/>
    <tag k="addr:housenumber" v="86"/>
    <tag k="addr:street" v="Dump Road"/>
    <tag k="addr:state" v="VT"/>
    <tag k="ref:vcgi:esiteid" v="341006"/>
  </node>
  <node id="-956" visible="true" lat="43.03315031" lon="-72.77789141">
    <tag k="addr:city" v="Wardsboro"/>
    <tag k="addr:housenumber" v="1093"/>
    <tag k="addr:street" v="South Wardsboro Road"/>
    <tag k="addr:state" v="VT"/>
    <tag k="ref:vcgi:esiteid" v="342542"/>
  </node>
  <node id="-957" visible="true" lat="43.01188062" lon="-72.87609469">
    <tag k="addr:city" v="Wardsboro"/>
    <tag k="addr:housenumber" v="63"/>
    <tag k="addr:street" v="Meadowwood Lane"/>
    <tag k="addr:state" v="VT"/>
    <tag k="ref:vcgi:esiteid" v="342543"/>
  </node>
  <node id="-961" visible="true" lat="43.04612598" lon="-72.83331795">
    <tag k="addr:city" v="Wardsboro"/>
    <tag k="addr:housenumber" v="263"/>
    <tag k="addr:street" v="Fay Boyden Road"/>
    <tag k="addr:state" v="VT"/>
    <tag k="ref:vcgi:esiteid" v="344168"/>
  </node>
  <node id="-962" visible="true" lat="43.01001789" lon="-72.77810001">
    <tag k="addr:city" v="Wardsboro"/>
    <tag k="addr:housenumber" v="363"/>
    <tag k="addr:street" v="Newfane Road"/>
    <tag k="addr:state" v="VT"/>
    <tag k="ref:vcgi:esiteid" v="344194"/>
  </node>
  <node id="-965" visible="true" lat="43.02528304" lon="-72.83316694">
    <tag k="addr:city" v="Wardsboro"/>
    <tag k="addr:housenumber" v="399"/>
    <tag k="addr:street" v="Lower Podunk Road"/>
    <tag k="addr:state" v="VT"/>
    <tag k="ref:vcgi:esiteid" v="449628"/>
  </node>
  <node id="-970" visible="true" lat="43.05059437" lon="-72.76790377">
    <tag k="addr:city" v="Wardsboro"/>
    <tag k="addr:housenumber" v="1341"/>
    <tag k="addr:street" v="East Hill Road"/>
    <tag k="addr:state" v="VT"/>
    <tag k="ref:vcgi:esiteid" v="617176"/>
  </node>
  <node id="-971" visible="true" lat="43.00062711" lon="-72.76392434">
    <tag k="addr:city" v="Wardsboro"/>
    <tag k="addr:housenumber" v="227"/>
    <tag k="addr:street" v="Gault Road"/>
    <tag k="addr:state" v="VT"/>
    <tag k="ref:vcgi:esiteid" v="617177"/>
  </node>
  <node id="-972" visible="true" lat="43.0276538" lon="-72.86620296">
    <tag k="addr:city" v="Wardsboro"/>
    <tag k="addr:housenumber" v="98"/>
    <tag k="addr:street" v="Scandia Village Road"/>
    <tag k="addr:state" v="VT"/>
    <tag k="ref:vcgi:esiteid" v="618135"/>
  </node>
  <node id="-973" visible="true" lat="43.02022033" lon="-72.85859684">
    <tag k="addr:city" v="Wardsboro"/>
    <tag k="addr:housenumber" v="190"/>
    <tag k="addr:street" v="Aspen Lane"/>
    <tag k="addr:state" v="VT"/>
    <tag k="ref:vcgi:esiteid" v="618407"/>
  </node>
  <node id="-974" visible="true" lat="43.03457573" lon="-72.84267674">
    <tag k="addr:city" v="Wardsboro"/>
    <tag k="addr:housenumber" v="4468"/>
    <tag k="addr:street" v="Vermont Route 100"/>
    <tag k="addr:state" v="VT"/>
    <tag k="ref:vcgi:esiteid" v="618408"/>
  </node>
  <node id="-975" visible="true" lat="43.04308366" lon="-72.83987066">
    <tag k="addr:city" v="Wardsboro"/>
    <tag k="addr:housenumber" v="829"/>
    <tag k="addr:street" v="Sheldon Hill Road"/>
    <tag k="addr:state" v="VT"/>
    <tag k="ref:vcgi:esiteid" v="620519"/>
  </node>
  <node id="-976" visible="true" lat="43.03510778" lon="-72.81461892">
    <tag k="addr:city" v="Wardsboro"/>
    <tag k="addr:housenumber" v="399"/>
    <tag k="addr:street" v="Bills Road"/>
    <tag k="addr:state" v="VT"/>
    <tag k="ref:vcgi:esiteid" v="620520"/>
  </node>
  <node id="-977" visible="true" lat="43.01573941" lon="-72.86017781">
    <tag k="addr:city" v="Wardsboro"/>
    <tag k="addr:housenumber" v="6209"/>
    <tag k="addr:street" v="Vermont Route 100"/>
    <tag k="addr:state" v="VT"/>
    <tag k="ref:vcgi:esiteid" v="620521"/>
  </node>
  <node id="-978" visible="true" lat="43.02384803" lon="-72.82224817">
    <tag k="addr:city" v="Wardsboro"/>
    <tag k="addr:housenumber" v="200"/>
    <tag k="addr:street" v="Black Piece Road"/>
    <tag k="addr:state" v="VT"/>
    <tag k="ref:vcgi:esiteid" v="620808"/>
  </node>
  <node id="-981" visible="true" lat="43.04133108" lon="-72.78850509">
    <tag k="addr:city" v="Wardsboro"/>
    <tag k="addr:housenumber" v="740"/>
    <tag k="addr:street" v="Vermont Route 100"/>
    <tag k="addr:state" v="VT"/>
    <tag k="ref:vcgi:esiteid" v="750714"/>
  </node>
  <node id="-982" visible="true" lat="43.04973406" lon="-72.83849491">
    <tag k="addr:city" v="Wardsboro"/>
    <tag k="addr:housenumber" v="387"/>
    <tag k="addr:street" v="Susan Lynn Lane"/>
    <tag k="addr:state" v="VT"/>
    <tag k="ref:vcgi:esiteid" v="752989"/>
  </node>
  <node id="-983" visible="true" lat="43.04575593" lon="-72.84233958">
    <tag k="addr:city" v="Wardsboro"/>
    <tag k="addr:housenumber" v="86"/>
    <tag k="addr:street" v="Corey Circle"/>
    <tag k="addr:state" v="VT"/>
    <tag k="ref:vcgi:esiteid" v="753165"/>
  </node>
  <node id="-984" visible="true" lat="43.04730299" lon="-72.83268522">
    <tag k="addr:city" v="Wardsboro"/>
    <tag k="addr:housenumber" v="399"/>
    <tag k="addr:street" v="Oak Hill Road"/>
    <tag k="addr:state" v="VT"/>
    <tag k="ref:vcgi:esiteid" v="753166"/>
  </node>
  <node id="-986" visible="true" lat="43.04582438" lon="-72.84199939">
    <tag k="addr:city" v="Wardsboro"/>
    <tag k="addr:housenumber" v="76"/>
    <tag k="addr:street" v="Corey Circle"/>
    <tag k="addr:state" v="VT"/>
    <tag k="ref:vcgi:esiteid" v="753267"/>
  </node>
  <node id="-989" visible="true" lat="43.04094732" lon="-72.79624937">
    <tag k="addr:city" v="Wardsboro"/>
    <tag k="addr:housenumber" v="365"/>
    <tag k="addr:street" v="Fornuto Road"/>
    <tag k="addr:state" v="VT"/>
    <tag k="ref:vcgi:esiteid" v="755155"/>
  </node>
  <node id="-990" visible="true" lat="43.0351754" lon="-72.80967986">
    <tag k="addr:city" v="Wardsboro"/>
    <tag k="addr:housenumber" v="18"/>
    <tag k="addr:street" v="Bills Road"/>
    <tag k="addr:state" v="VT"/>
    <tag k="ref:vcgi:esiteid" v="756681"/>
  </node>
  <node id="-992" visible="true" lat="43.03949719" lon="-72.79206371">
    <tag k="addr:city" v="Wardsboro"/>
    <tag k="addr:housenumber" v="932"/>
    <tag k="addr:street" v="Vermont Route 100"/>
    <tag k="addr:state" v="VT"/>
    <tag k="ref:vcgi:esiteid" v="763584"/>
  </node>
  <node id="-993" visible="true" lat="43.03837194" lon="-72.79397179">
    <tag k="addr:city" v="Wardsboro"/>
    <tag k="addr:housenumber" v="1110"/>
    <tag k="addr:street" v="Vermont Route 100"/>
    <tag k="addr:state" v="VT"/>
    <tag k="ref:vcgi:esiteid" v="763585"/>
  </node>
  <node id="-994" visible="true" lat="42.99437229" lon="-72.77995689">
    <tag k="addr:city" v="Wardsboro"/>
    <tag k="addr:housenumber" v="1342"/>
    <tag k="addr:street" v="East Dover Road"/>
    <tag k="addr:state" v="VT"/>
    <tag k="ref:vcgi:esiteid" v="765333"/>
  </node>
  <node id="-996" visible="true" lat="43.0342043" lon="-72.85846473">
    <tag k="addr:city" v="Wardsboro"/>
    <tag k="addr:housenumber" v="503"/>
    <tag k="addr:street" v="Newell Hill Road"/>
    <tag k="addr:state" v="VT"/>
    <tag k="ref:vcgi:esiteid" v="900491"/>
  </node>
  <node id="-997" visible="true" lat="43.04806172" lon="-72.78656748">
    <tag k="addr:city" v="Wardsboro"/>
    <tag k="addr:housenumber" v="28"/>
    <tag k="addr:street" v="School Road"/>
    <tag k="addr:state" v="VT"/>
    <tag k="ref:vcgi:esiteid" v="1050291"/>
  </node>
  <node id="-998" visible="true" lat="43.03397291" lon="-72.81700192">
    <tag k="addr:city" v="Wardsboro"/>
    <tag k="addr:housenumber" v="2524"/>
    <tag k="addr:street" v="Vermont Route 100"/>
    <tag k="addr:state" v="VT"/>
    <tag k="ref:vcgi:esiteid" v="1050292"/>
  </node>
  <node id="-999" visible="true" lat="43.02813264" lon="-72.85262508">
    <tag k="addr:city" v="Wardsboro"/>
    <tag k="addr:housenumber" v="5217"/>
    <tag k="addr:street" v="Vermont Route 100"/>
    <tag k="addr:state" v="VT"/>
    <tag k="ref:vcgi:esiteid" v="1050293"/>
  </node>
  <node id="-1001" visible="true" lat="43.00374368" lon="-72.75407839">
    <tag k="addr:city" v="Wardsboro"/>
    <tag k="addr:housenumber" v="834"/>
    <tag k="addr:street" v="Silver Mine Road"/>
    <tag k="addr:state" v="VT"/>
    <tag k="ref:vcgi:esiteid" v="1051064"/>
  </node>
</osm>
