<?xml version="1.0" encoding="UTF-8"?>
<osm version="0.6" generator="JOSM">
  <node id="-214" visible="true" lat="44.1450208" lon="-72.84153421">
    <!-- conflict: "114 Vermont Route 100, Warren, VT" No match in OSM, but a different address exists <5m away: "114 VT Route 100, Warren, VT" -->
    <tag k="addr:city" v="Warren"/>
    <tag k="addr:housenumber" v="114"/>
    <tag k="addr:street" v="Vermont Route 100"/>
    <tag k="addr:state" v="VT"/>
    <tag k="ref:vcgi:esiteid" v="271234"/>
  </node>
  <node id="-420" visible="true" lat="44.13927326" lon="-72.89294801">
    <!-- conflict: "59 Mountainside Drive, Warren, VT" No match in OSM, but a different address exists <5m away: "59 Sugarbush Village Road, Warren, VT" -->
    <tag k="addr:city" v="Warren"/>
    <tag k="addr:housenumber" v="59"/>
    <tag k="addr:street" v="Mountainside Drive"/>
    <tag k="addr:state" v="VT"/>
    <tag k="ref:vcgi:esiteid" v="271474"/>
  </node>
  <node id="-423" visible="true" lat="44.13907322" lon="-72.89336539">
    <!-- conflict: "80 Sugarbush Village Drive, Warren, VT" Fuzzy match to "80 Sugarbush Village Road, Warren, VT" -->
    <tag k="addr:city" v="Warren"/>
    <tag k="addr:housenumber" v="80"/>
    <tag k="addr:street" v="Sugarbush Village Drive"/>
    <tag k="addr:state" v="VT"/>
    <tag k="ref:vcgi:esiteid" v="271478"/>
  </node>
  <node id="-430" visible="true" lat="44.1391052" lon="-72.89310995">
    <!-- conflict: "76 Sugarbush Village Drive, Warren, VT" Fuzzy match to "76 Sugarbush Village Road, Warren, VT" -->
    <tag k="addr:city" v="Warren"/>
    <tag k="addr:housenumber" v="76"/>
    <tag k="addr:street" v="Sugarbush Village Drive"/>
    <tag k="addr:state" v="VT"/>
    <tag k="ref:vcgi:esiteid" v="271486"/>
  </node>
  <node id="-437" visible="true" lat="44.13856877" lon="-72.88859915">
    <!-- conflict: "148 Sports Ctr Drive, Warren, VT" Fuzzy match to "148 Sports Center Drive, Warren, VT" -->
    <tag k="addr:city" v="Warren"/>
    <tag k="addr:housenumber" v="148"/>
    <tag k="addr:street" v="Sports Ctr Drive"/>
    <tag k="addr:state" v="VT"/>
    <tag k="ref:vcgi:esiteid" v="271493"/>
  </node>
  <node id="-505" visible="true" lat="44.13390909" lon="-72.84888462">
    <!-- conflict: "91 Huckleberry Lane, Warren, VT" No match in OSM, but a different address exists <5m away: "203 Powderhound Road, Warren, " -->
    <tag k="addr:city" v="Warren"/>
    <tag k="addr:housenumber" v="91"/>
    <tag k="addr:street" v="Huckleberry Lane"/>
    <tag k="addr:state" v="VT"/>
    <tag k="ref:vcgi:esiteid" v="271571"/>
  </node>
  <node id="-583" visible="true" lat="44.13047546" lon="-72.87263422">
    <!-- conflict: "1225 Golf Course Road, Warren, VT" Fuzzy match to "1225 Golf Course Road, Warren, " -->
    <tag k="addr:city" v="Warren"/>
    <tag k="addr:housenumber" v="1225"/>
    <tag k="addr:street" v="Golf Course Road"/>
    <tag k="addr:state" v="VT"/>
    <tag k="ref:vcgi:esiteid" v="271655"/>
  </node>
  <node id="-913" visible="true" lat="44.10869379" lon="-72.8192385">
    <!-- conflict: "42 Roxbury Mountain Road, Warren, VT" No match in OSM, but a different address exists <5m away: "42 Roxburry Mountain Road, Warren, VT" -->
    <tag k="addr:city" v="Warren"/>
    <tag k="addr:housenumber" v="42"/>
    <tag k="addr:street" v="Roxbury Mountain Road"/>
    <tag k="addr:state" v="VT"/>
    <tag k="ref:vcgi:esiteid" v="271996"/>
  </node>
  <node id="-919" visible="true" lat="44.10860505" lon="-72.85002294">
    <!-- conflict: "114 Martin Way, Warren, VT" No match in OSM, but a different address exists <5m away: "9 Murray Hill Road, Warren, VT" -->
    <tag k="addr:city" v="Warren"/>
    <tag k="addr:housenumber" v="114"/>
    <tag k="addr:street" v="Martin Way"/>
    <tag k="addr:state" v="VT"/>
    <tag k="ref:vcgi:esiteid" v="272003"/>
  </node>
  <node id="-923" visible="true" lat="44.10826245" lon="-72.85119149">
    <!-- conflict: "63 Martin Way, Warren, VT" No match in OSM, but a different address exists <5m away: "7 Murray Hill Road, Warren, VT" -->
    <tag k="addr:city" v="Warren"/>
    <tag k="addr:housenumber" v="63"/>
    <tag k="addr:street" v="Martin Way"/>
    <tag k="addr:state" v="VT"/>
    <tag k="ref:vcgi:esiteid" v="272007"/>
  </node>
  <node id="-927" visible="true" lat="44.1078855" lon="-72.85070639">
    <!-- conflict: "12 Martin Way, Warren, VT" No match in OSM, but a different address exists <5m away: "11 Murray Hill Road, Warren, VT" -->
    <tag k="addr:city" v="Warren"/>
    <tag k="addr:housenumber" v="12"/>
    <tag k="addr:street" v="Martin Way"/>
    <tag k="addr:state" v="VT"/>
    <tag k="ref:vcgi:esiteid" v="272011"/>
  </node>
  <node id="-1107" visible="true" lat="44.08942578" lon="-72.84912069">
    <!-- conflict: "267 Anne Burns Road, Warren, VT" No match in OSM, but a different address exists <5m away: " Anne Burns Road, Warren, VT" -->
    <tag k="addr:city" v="Warren"/>
    <tag k="addr:housenumber" v="267"/>
    <tag k="addr:street" v="Anne Burns Road"/>
    <tag k="addr:state" v="VT"/>
    <tag k="ref:vcgi:esiteid" v="272200"/>
  </node>
  <node id="-1651" visible="true" lat="44.14185786" lon="-72.89641498">
    <!-- conflict: "211 Upper Village Road, Warren, VT" No match in OSM, but a different address exists <5m away: " Upper Village Road, Warren, VT" -->
    <tag k="addr:city" v="Warren"/>
    <tag k="addr:housenumber" v="211"/>
    <tag k="addr:street" v="Upper Village Road"/>
    <tag k="addr:state" v="VT"/>
    <tag k="ref:vcgi:esiteid" v="445374"/>
  </node>
</osm>
