<?xml version="1.0" encoding="UTF-8"?>
<osm version="0.6" generator="JOSM">
  <node id="-100" visible="true" lat="44.94617964" lon="-71.84745074">
    <!-- conflict: "5377 Vermont Route 114 South, Warren's Gore, VT" Fuzzy match to "5377 Vermont Route 114 South, Norton, VT" -->
    <tag k="addr:city" v="Warren's Gore"/>
    <tag k="addr:housenumber" v="5377"/>
    <tag k="addr:street" v="Vermont Route 114 South"/>
    <tag k="addr:state" v="VT"/>
    <tag k="ref:vcgi:esiteid" v="182065"/>
  </node>
  <node id="-101" visible="true" lat="44.93801121" lon="-71.85576403">
    <!-- conflict: "4088 Vermont Route 114, Warren's Gore, VT" Fuzzy match to "4088 Vermont Route 114, Warrens Gore, VT" -->
    <tag k="addr:city" v="Warren's Gore"/>
    <tag k="addr:housenumber" v="4088"/>
    <tag k="addr:street" v="Vermont Route 114"/>
    <tag k="addr:state" v="VT"/>
    <tag k="ref:vcgi:esiteid" v="305332"/>
  </node>
  <node id="-102" visible="true" lat="44.93856533" lon="-71.86700471">
    <!-- conflict: "3944 Hurricane Brook Road, Warren's Gore, VT" No match in OSM, but a different address exists <5m away: "3944 Lake Station Road, Warrens Gore, VT" -->
    <tag k="addr:city" v="Warren's Gore"/>
    <tag k="addr:housenumber" v="3944"/>
    <tag k="addr:street" v="Hurricane Brook Road"/>
    <tag k="addr:state" v="VT"/>
    <tag k="ref:vcgi:esiteid" v="305333"/>
  </node>
  <node id="-103" visible="true" lat="44.93772695" lon="-71.86792547">
    <!-- conflict: "338 Sladyk Trail, Warren's Gore, VT" Fuzzy match to "338 Sladyk Trail, Warrens Gore, VT" -->
    <tag k="addr:city" v="Warren's Gore"/>
    <tag k="addr:housenumber" v="338"/>
    <tag k="addr:street" v="Sladyk Trail"/>
    <tag k="addr:state" v="VT"/>
    <tag k="ref:vcgi:esiteid" v="305334"/>
  </node>
  <node id="-104" visible="true" lat="44.93732229" lon="-71.8683724">
    <!-- conflict: "326 Sladyk Trail, Warren's Gore, VT" Fuzzy match to "326 Sladyk Trail, Warrens Gore, VT" -->
    <tag k="addr:city" v="Warren's Gore"/>
    <tag k="addr:housenumber" v="326"/>
    <tag k="addr:street" v="Sladyk Trail"/>
    <tag k="addr:state" v="VT"/>
    <tag k="ref:vcgi:esiteid" v="305335"/>
  </node>
  <node id="-105" visible="true" lat="44.93628288" lon="-71.88874305">
    <!-- conflict: "2149 Hurricane Brook Road, Warren's Gore, VT" Fuzzy match to "2149 Hurricane Brook Road, Warrens Gore, VT" -->
    <tag k="addr:city" v="Warren's Gore"/>
    <tag k="addr:housenumber" v="2149"/>
    <tag k="addr:street" v="Hurricane Brook Road"/>
    <tag k="addr:state" v="VT"/>
    <tag k="ref:vcgi:esiteid" v="305336"/>
  </node>
  <node id="-106" visible="true" lat="44.93701821" lon="-71.86898066">
    <!-- conflict: "296 Sladyk Trail, Warren's Gore, VT" Fuzzy match to "296 Sladyk Trail, Warrens Gore, VT" -->
    <tag k="addr:city" v="Warren's Gore"/>
    <tag k="addr:housenumber" v="296"/>
    <tag k="addr:street" v="Sladyk Trail"/>
    <tag k="addr:state" v="VT"/>
    <tag k="ref:vcgi:esiteid" v="305337"/>
  </node>
  <node id="-107" visible="true" lat="44.93501752" lon="-71.85926957">
    <!-- conflict: "3816 Vermont Route 114, Warren's Gore, VT" Fuzzy match to "3816 Vermont Route 114, Warrens Gore, VT" -->
    <tag k="addr:city" v="Warren's Gore"/>
    <tag k="addr:housenumber" v="3816"/>
    <tag k="addr:street" v="Vermont Route 114"/>
    <tag k="addr:state" v="VT"/>
    <tag k="ref:vcgi:esiteid" v="305338"/>
  </node>
  <node id="-108" visible="true" lat="44.93663978" lon="-71.86943734">
    <!-- conflict: "250 Sladyk Trail, Warren's Gore, VT" Fuzzy match to "250 Sladyk Trail, Warrens Gore, VT" -->
    <tag k="addr:city" v="Warren's Gore"/>
    <tag k="addr:housenumber" v="250"/>
    <tag k="addr:street" v="Sladyk Trail"/>
    <tag k="addr:state" v="VT"/>
    <tag k="ref:vcgi:esiteid" v="305339"/>
  </node>
  <node id="-109" visible="true" lat="44.93636989" lon="-71.86971516">
    <!-- conflict: "234 Sladyk Trail, Warren's Gore, VT" Fuzzy match to "234 Sladyk Trail, Warrens Gore, VT" -->
    <tag k="addr:city" v="Warren's Gore"/>
    <tag k="addr:housenumber" v="234"/>
    <tag k="addr:street" v="Sladyk Trail"/>
    <tag k="addr:state" v="VT"/>
    <tag k="ref:vcgi:esiteid" v="305340"/>
  </node>
  <node id="-110" visible="true" lat="44.93581683" lon="-71.86992413">
    <!-- conflict: "196 Sladyk Trail, Warren's Gore, VT" Fuzzy match to "196 Sladyk Trail, Warrens Gore, VT" -->
    <tag k="addr:city" v="Warren's Gore"/>
    <tag k="addr:housenumber" v="196"/>
    <tag k="addr:street" v="Sladyk Trail"/>
    <tag k="addr:state" v="VT"/>
    <tag k="ref:vcgi:esiteid" v="305341"/>
  </node>
  <node id="-111" visible="true" lat="44.93367191" lon="-71.86086517">
    <!-- conflict: "3700 Vermont Route 114, Warren's Gore, VT" Fuzzy match to "3700 Vermont Route 114, Warrens Gore, VT" -->
    <tag k="addr:city" v="Warren's Gore"/>
    <tag k="addr:housenumber" v="3700"/>
    <tag k="addr:street" v="Vermont Route 114"/>
    <tag k="addr:state" v="VT"/>
    <tag k="ref:vcgi:esiteid" v="305342"/>
  </node>
  <node id="-112" visible="true" lat="44.93538018" lon="-71.86997431">
    <!-- conflict: "154 Sladyk Trail, Warren's Gore, VT" Fuzzy match to "154 Sladyk Trail, Warrens Gore, VT" -->
    <tag k="addr:city" v="Warren's Gore"/>
    <tag k="addr:housenumber" v="154"/>
    <tag k="addr:street" v="Sladyk Trail"/>
    <tag k="addr:state" v="VT"/>
    <tag k="ref:vcgi:esiteid" v="305343"/>
  </node>
  <node id="-113" visible="true" lat="44.93517426" lon="-71.87008325">
    <!-- conflict: "150 Sladyk Trail, Warren's Gore, VT" Fuzzy match to "150 Sladyk Trail, Warrens Gore, VT" -->
    <tag k="addr:city" v="Warren's Gore"/>
    <tag k="addr:housenumber" v="150"/>
    <tag k="addr:street" v="Sladyk Trail"/>
    <tag k="addr:state" v="VT"/>
    <tag k="ref:vcgi:esiteid" v="305344"/>
  </node>
  <node id="-114" visible="true" lat="44.93500389" lon="-71.87051941">
    <!-- conflict: "146 Sladyk Trail, Warren's Gore, VT" Fuzzy match to "146 Sladyk Trail, Warrens Gore, VT" -->
    <tag k="addr:city" v="Warren's Gore"/>
    <tag k="addr:housenumber" v="146"/>
    <tag k="addr:street" v="Sladyk Trail"/>
    <tag k="addr:state" v="VT"/>
    <tag k="ref:vcgi:esiteid" v="305345"/>
  </node>
  <node id="-115" visible="true" lat="44.93455529" lon="-71.87095962">
    <!-- conflict: "94 Sladyk Trail, Warren's Gore, VT" Fuzzy match to "94 Sladyk Trail, Warrens Gore, VT" -->
    <tag k="addr:city" v="Warren's Gore"/>
    <tag k="addr:housenumber" v="94"/>
    <tag k="addr:street" v="Sladyk Trail"/>
    <tag k="addr:state" v="VT"/>
    <tag k="ref:vcgi:esiteid" v="305346"/>
  </node>
  <node id="-116" visible="true" lat="44.93425485" lon="-71.87132712">
    <!-- conflict: "90 Sladyk Trail, Warren's Gore, VT" Fuzzy match to "90 Sladyk Trail, Warrens Gore, VT" -->
    <tag k="addr:city" v="Warren's Gore"/>
    <tag k="addr:housenumber" v="90"/>
    <tag k="addr:street" v="Sladyk Trail"/>
    <tag k="addr:state" v="VT"/>
    <tag k="ref:vcgi:esiteid" v="305347"/>
  </node>
  <node id="-117" visible="true" lat="44.93385228" lon="-71.87177764">
    <!-- conflict: "86 Sladyk Trail, Warren's Gore, VT" Fuzzy match to "86 Sladyk Trail, Warrens Gore, VT" -->
    <tag k="addr:city" v="Warren's Gore"/>
    <tag k="addr:housenumber" v="86"/>
    <tag k="addr:street" v="Sladyk Trail"/>
    <tag k="addr:state" v="VT"/>
    <tag k="ref:vcgi:esiteid" v="305348"/>
  </node>
  <node id="-118" visible="true" lat="44.93208048" lon="-71.86964574">
    <!-- conflict: "2979 Vermont Route 114, Warren's Gore, VT" Fuzzy match to "2979 Vermont Route 114, Warren Gore;Warrens Gore, VT" -->
    <tag k="addr:city" v="Warren's Gore"/>
    <tag k="addr:housenumber" v="2979"/>
    <tag k="addr:street" v="Vermont Route 114"/>
    <tag k="addr:state" v="VT"/>
    <tag k="ref:vcgi:esiteid" v="305349"/>
  </node>
  <node id="-119" visible="true" lat="44.92948479" lon="-71.87346255">
    <!-- conflict: "2631 Vermont Route 114, Warren's Gore, VT" Fuzzy match to "2631 Vermont Route 114, Warrens Gore, VT" -->
    <tag k="addr:city" v="Warren's Gore"/>
    <tag k="addr:housenumber" v="2631"/>
    <tag k="addr:street" v="Vermont Route 114"/>
    <tag k="addr:state" v="VT"/>
    <tag k="ref:vcgi:esiteid" v="305350"/>
  </node>
  <node id="-120" visible="true" lat="44.92694425" lon="-71.87558029">
    <!-- conflict: "2975 Vermont Route 114, Warren's Gore, VT" Fuzzy match to "2975 Vermont Route 114, Warrens Gore, VT" -->
    <tag k="addr:city" v="Warren's Gore"/>
    <tag k="addr:housenumber" v="2975"/>
    <tag k="addr:street" v="Vermont Route 114"/>
    <tag k="addr:state" v="VT"/>
    <tag k="ref:vcgi:esiteid" v="305351"/>
  </node>
  <node id="-121" visible="true" lat="44.92740055" lon="-71.86960456">
    <!-- conflict: "109 Whistle Stop Road, Warren's Gore, VT" Fuzzy match to "109 Whistle Stop Road, Warrens Gore, VT" -->
    <tag k="addr:city" v="Warren's Gore"/>
    <tag k="addr:housenumber" v="109"/>
    <tag k="addr:street" v="Whistle Stop Road"/>
    <tag k="addr:state" v="VT"/>
    <tag k="ref:vcgi:esiteid" v="305352"/>
  </node>
  <node id="-122" visible="true" lat="44.92698129" lon="-71.87785869">
    <!-- conflict: "2971 Vermont Route 114, Warren's Gore, VT" Fuzzy match to "2971 Vermont Route 114, Warrens Gore, VT" -->
    <tag k="addr:city" v="Warren's Gore"/>
    <tag k="addr:housenumber" v="2971"/>
    <tag k="addr:street" v="Vermont Route 114"/>
    <tag k="addr:state" v="VT"/>
    <tag k="ref:vcgi:esiteid" v="305353"/>
  </node>
  <node id="-123" visible="true" lat="44.92684435" lon="-71.86978609">
    <!-- conflict: "77 Whistle Stop Road, Warren's Gore, VT" Fuzzy match to "77 Whistle Stop Road, Warren Gore, VT" -->
    <tag k="addr:city" v="Warren's Gore"/>
    <tag k="addr:housenumber" v="77"/>
    <tag k="addr:street" v="Whistle Stop Road"/>
    <tag k="addr:state" v="VT"/>
    <tag k="ref:vcgi:esiteid" v="305354"/>
  </node>
  <node id="-124" visible="true" lat="44.92651187" lon="-71.87018565">
    <!-- conflict: "51 Whistle Stop Road, Warren's Gore, VT" Fuzzy match to "51 Whistle Stop Road, Warren Gore, VT" -->
    <tag k="addr:city" v="Warren's Gore"/>
    <tag k="addr:housenumber" v="51"/>
    <tag k="addr:street" v="Whistle Stop Road"/>
    <tag k="addr:state" v="VT"/>
    <tag k="ref:vcgi:esiteid" v="305355"/>
  </node>
  <node id="-126" visible="true" lat="44.92596335" lon="-71.87140191">
    <!-- conflict: "104 Norton Lake Access Road, Warren's Gore, VT" Fuzzy match to "104 Norton Lake Access Road, Warren Gore, VT" -->
    <tag k="addr:city" v="Warren's Gore"/>
    <tag k="addr:housenumber" v="104"/>
    <tag k="addr:street" v="Norton Lake Access Road"/>
    <tag k="addr:state" v="VT"/>
    <tag k="ref:vcgi:esiteid" v="305357"/>
  </node>
  <node id="-127" visible="true" lat="44.92537662" lon="-71.87098107">
    <!-- conflict: "130 Norton Lake Access Road, Warren's Gore, VT" Fuzzy match to "130 Norton Lake Access Road, Warrens Gore, VT" -->
    <tag k="addr:city" v="Warren's Gore"/>
    <tag k="addr:housenumber" v="130"/>
    <tag k="addr:street" v="Norton Lake Access Road"/>
    <tag k="addr:state" v="VT"/>
    <tag k="ref:vcgi:esiteid" v="305358"/>
  </node>
  <node id="-128" visible="true" lat="44.92520521" lon="-71.87450904">
    <!-- conflict: "2967 Vermont Route 114, Warren's Gore, VT" Fuzzy match to "2967 Vermont Route 114, Warren Gore;Warrens Gore, VT" -->
    <tag k="addr:city" v="Warren's Gore"/>
    <tag k="addr:housenumber" v="2967"/>
    <tag k="addr:street" v="Vermont Route 114"/>
    <tag k="addr:state" v="VT"/>
    <tag k="ref:vcgi:esiteid" v="305359"/>
  </node>
  <node id="-129" visible="true" lat="44.9251821" lon="-71.87030708">
    <!-- conflict: "137 Norton Lake Access Road, Warren's Gore, VT" Fuzzy match to "137 Norton Lake Access Road, Warren Gore, VT" -->
    <tag k="addr:city" v="Warren's Gore"/>
    <tag k="addr:housenumber" v="137"/>
    <tag k="addr:street" v="Norton Lake Access Road"/>
    <tag k="addr:state" v="VT"/>
    <tag k="ref:vcgi:esiteid" v="305360"/>
  </node>
  <node id="-130" visible="true" lat="44.92471801" lon="-71.87576421">
    <!-- conflict: "2963 Vermont Route 114, Warren's Gore, VT" Fuzzy match to "2963 Vermont Route 114, Warrens Gore, VT" -->
    <tag k="addr:city" v="Warren's Gore"/>
    <tag k="addr:housenumber" v="2963"/>
    <tag k="addr:street" v="Vermont Route 114"/>
    <tag k="addr:state" v="VT"/>
    <tag k="ref:vcgi:esiteid" v="305361"/>
  </node>
  <node id="-131" visible="true" lat="44.92494582" lon="-71.87088508">
    <!-- conflict: "156 Norton Lake Access Road, Warren's Gore, VT" Fuzzy match to "156 Norton Lake Access Road, Warrens Gore, VT" -->
    <tag k="addr:city" v="Warren's Gore"/>
    <tag k="addr:housenumber" v="156"/>
    <tag k="addr:street" v="Norton Lake Access Road"/>
    <tag k="addr:state" v="VT"/>
    <tag k="ref:vcgi:esiteid" v="305362"/>
  </node>
  <node id="-132" visible="true" lat="44.92527025" lon="-71.8804908">
    <!-- conflict: "101 Sunrise Road, Warren's Gore, VT" Fuzzy match to "101 Sunrise Road, Warrens Gore, VT" -->
    <tag k="addr:city" v="Warren's Gore"/>
    <tag k="addr:housenumber" v="101"/>
    <tag k="addr:street" v="Sunrise Road"/>
    <tag k="addr:state" v="VT"/>
    <tag k="ref:vcgi:esiteid" v="305363"/>
  </node>
  <node id="-133" visible="true" lat="44.92472473" lon="-71.87929569">
    <!-- conflict: "165 Sunrise Road, Warren's Gore, VT" Fuzzy match to "165 Sunrise Road, Warrens Gore, VT" -->
    <tag k="addr:city" v="Warren's Gore"/>
    <tag k="addr:housenumber" v="165"/>
    <tag k="addr:street" v="Sunrise Road"/>
    <tag k="addr:state" v="VT"/>
    <tag k="ref:vcgi:esiteid" v="305364"/>
  </node>
  <node id="-134" visible="true" lat="44.92427533" lon="-71.87844376">
    <!-- conflict: "173 Sunrise Road, Warren's Gore, VT" Fuzzy match to "173 Sunrise Road, Warrens Gore, VT" -->
    <tag k="addr:city" v="Warren's Gore"/>
    <tag k="addr:housenumber" v="173"/>
    <tag k="addr:street" v="Sunrise Road"/>
    <tag k="addr:state" v="VT"/>
    <tag k="ref:vcgi:esiteid" v="305365"/>
  </node>
  <node id="-135" visible="true" lat="44.92388234" lon="-71.87130834">
    <!-- conflict: "224 Norton Lake Access Road, Warren's Gore, VT" Fuzzy match to "224 Norton Lake Access Road, Warrens Gore, VT" -->
    <tag k="addr:city" v="Warren's Gore"/>
    <tag k="addr:housenumber" v="224"/>
    <tag k="addr:street" v="Norton Lake Access Road"/>
    <tag k="addr:state" v="VT"/>
    <tag k="ref:vcgi:esiteid" v="305366"/>
  </node>
  <node id="-136" visible="true" lat="44.92396925" lon="-71.87065619">
    <!-- conflict: "213 Norton Lake Access Road, Warren's Gore, VT" Fuzzy match to "213 Norton Lake Access Road, Warrens Gore, VT" -->
    <tag k="addr:city" v="Warren's Gore"/>
    <tag k="addr:housenumber" v="213"/>
    <tag k="addr:street" v="Norton Lake Access Road"/>
    <tag k="addr:state" v="VT"/>
    <tag k="ref:vcgi:esiteid" v="305367"/>
  </node>
  <node id="-137" visible="true" lat="44.92271034" lon="-71.87907997">
    <!-- conflict: "289 Sunrise Road, Warren's Gore, VT" Fuzzy match to "289 Sunrise Road, Warren Gore, VT" -->
    <tag k="addr:city" v="Warren's Gore"/>
    <tag k="addr:housenumber" v="289"/>
    <tag k="addr:street" v="Sunrise Road"/>
    <tag k="addr:state" v="VT"/>
    <tag k="ref:vcgi:esiteid" v="305368"/>
  </node>
  <node id="-138" visible="true" lat="44.92166899" lon="-71.87990302">
    <!-- conflict: "1076 Hurricane Brook Road, Warren's Gore, VT" Fuzzy match to "1076 Hurricane Brook Road, Warrens Gore, VT" -->
    <tag k="addr:city" v="Warren's Gore"/>
    <tag k="addr:housenumber" v="1076"/>
    <tag k="addr:street" v="Hurricane Brook Road"/>
    <tag k="addr:state" v="VT"/>
    <tag k="ref:vcgi:esiteid" v="305369"/>
  </node>
  <node id="-139" visible="true" lat="44.92098328" lon="-71.8723572">
    <!-- conflict: "2679 Vermont Route 114, Warren's Gore, VT" Fuzzy match to "2679 Vermont Route 114, Warrens Gore, VT" -->
    <tag k="addr:city" v="Warren's Gore"/>
    <tag k="addr:housenumber" v="2679"/>
    <tag k="addr:street" v="Vermont Route 114"/>
    <tag k="addr:state" v="VT"/>
    <tag k="ref:vcgi:esiteid" v="305370"/>
  </node>
  <node id="-140" visible="true" lat="44.92120255" lon="-71.88092132">
    <!-- conflict: "1018 Hurricane Brook Road, Warren's Gore, VT" Fuzzy match to "1018 Hurricane Brook Road, Warrens Gore, VT" -->
    <tag k="addr:city" v="Warren's Gore"/>
    <tag k="addr:housenumber" v="1018"/>
    <tag k="addr:street" v="Hurricane Brook Road"/>
    <tag k="addr:state" v="VT"/>
    <tag k="ref:vcgi:esiteid" v="305371"/>
  </node>
  <node id="-141" visible="true" lat="44.92007026" lon="-71.88093926">
    <!-- conflict: "956 Hurricane Brook Road, Warren's Gore, VT" Fuzzy match to "956 Hurricane Brook Road, Warren Gore, VT" -->
    <tag k="addr:city" v="Warren's Gore"/>
    <tag k="addr:housenumber" v="956"/>
    <tag k="addr:street" v="Hurricane Brook Road"/>
    <tag k="addr:state" v="VT"/>
    <tag k="ref:vcgi:esiteid" v="305372"/>
  </node>
  <node id="-142" visible="true" lat="44.91799162" lon="-71.88122291">
    <!-- conflict: "808 Hurricane Brook Road, Warren's Gore, VT" Fuzzy match to "808 Hurricane Brook Road, Warren Gore;Warrens Gore, VT" -->
    <tag k="addr:city" v="Warren's Gore"/>
    <tag k="addr:housenumber" v="808"/>
    <tag k="addr:street" v="Hurricane Brook Road"/>
    <tag k="addr:state" v="VT"/>
    <tag k="ref:vcgi:esiteid" v="305373"/>
  </node>
  <node id="-143" visible="true" lat="44.91172925" lon="-71.87430946">
    <!-- conflict: "1984 Vermont Route 114, Warren's Gore, VT" No match in OSM, but a different address exists <5m away: " , Warren Gore, VT" -->
    <tag k="addr:city" v="Warren's Gore"/>
    <tag k="addr:housenumber" v="1984"/>
    <tag k="addr:street" v="Vermont Route 114"/>
    <tag k="addr:state" v="VT"/>
    <tag k="ref:vcgi:esiteid" v="305374"/>
  </node>
  <node id="-144" visible="true" lat="44.91043105" lon="-71.87704505">
    <!-- conflict: "62 Hurricane Brook Road, Warren's Gore, VT" Fuzzy match to "62 Hurricane Brook Road, Warrens Gore, VT" -->
    <tag k="addr:city" v="Warren's Gore"/>
    <tag k="addr:housenumber" v="62"/>
    <tag k="addr:street" v="Hurricane Brook Road"/>
    <tag k="addr:state" v="VT"/>
    <tag k="ref:vcgi:esiteid" v="305375"/>
  </node>
  <node id="-147" visible="true" lat="44.93053496" lon="-71.8711802">
    <!-- conflict: "2977 Vermont Route 114, Warren's Gore, VT" Fuzzy match to "2977 Vermont Route 114, Warrens Gore, VT" -->
    <tag k="addr:city" v="Warren's Gore"/>
    <tag k="addr:housenumber" v="2977"/>
    <tag k="addr:street" v="Vermont Route 114"/>
    <tag k="addr:state" v="VT"/>
    <tag k="ref:vcgi:esiteid" v="307632"/>
  </node>
  <node id="-148" visible="true" lat="44.92344301" lon="-71.87145424">
    <!-- conflict: "235 Norton Lake Access Road, Warren's Gore, VT" Fuzzy match to "235 Norton Lake Access Road, Warrens Gore, VT" -->
    <tag k="addr:city" v="Warren's Gore"/>
    <tag k="addr:housenumber" v="235"/>
    <tag k="addr:street" v="Norton Lake Access Road"/>
    <tag k="addr:state" v="VT"/>
    <tag k="ref:vcgi:esiteid" v="307633"/>
  </node>
  <node id="-152" visible="true" lat="44.88402231" lon="-71.87748078">
    <!-- conflict: "1530 Pine Brook Road, Warren's Gore, VT" Fuzzy match to "1530 Pine Brook Road, Warrens Gore, VT" -->
    <tag k="addr:city" v="Warren's Gore"/>
    <tag k="addr:housenumber" v="1530"/>
    <tag k="addr:street" v="Pine Brook Road"/>
    <tag k="addr:state" v="VT"/>
    <tag k="ref:vcgi:esiteid" v="341257"/>
  </node>
  <node id="-154" visible="true" lat="44.92736609" lon="-71.86946731">
    <!-- conflict: "111 Whistle Stop Road, Warren's Gore, VT" Fuzzy match to "111 Whistle Stop Road, Warrens Gore, VT" -->
    <tag k="addr:city" v="Warren's Gore"/>
    <tag k="addr:housenumber" v="111"/>
    <tag k="addr:street" v="Whistle Stop Road"/>
    <tag k="addr:state" v="VT"/>
    <tag k="ref:vcgi:esiteid" v="446942"/>
  </node>
  <node id="-155" visible="true" lat="44.92576687" lon="-71.87080971">
    <!-- conflict: "100 Norton Lake Access Road, Warren's Gore, VT" Fuzzy match to "100 Norton Lake Access Road, Warrens Gore, VT" -->
    <tag k="addr:city" v="Warren's Gore"/>
    <tag k="addr:housenumber" v="100"/>
    <tag k="addr:street" v="Norton Lake Access Road"/>
    <tag k="addr:state" v="VT"/>
    <tag k="ref:vcgi:esiteid" v="446954"/>
  </node>
  <node id="-156" visible="true" lat="44.92056101" lon="-71.88055738">
    <!-- conflict: "990 Hurricane Brook Road, Warren's Gore, VT" Fuzzy match to "990 Hurricane Brook Road, Warren Gore, VT" -->
    <tag k="addr:city" v="Warren's Gore"/>
    <tag k="addr:housenumber" v="990"/>
    <tag k="addr:street" v="Hurricane Brook Road"/>
    <tag k="addr:state" v="VT"/>
    <tag k="ref:vcgi:esiteid" v="449062"/>
  </node>
  <node id="-158" visible="true" lat="44.90603111" lon="-71.87722883">
    <!-- conflict: "1524 Vermont Route 114, Warren's Gore, VT" Fuzzy match to "1524 Vermont Route 114, Warrens Gore, VT" -->
    <tag k="addr:city" v="Warren's Gore"/>
    <tag k="addr:housenumber" v="1524"/>
    <tag k="addr:street" v="Vermont Route 114"/>
    <tag k="addr:state" v="VT"/>
    <tag k="ref:vcgi:esiteid" v="449067"/>
  </node>
  <node id="-161" visible="true" lat="44.93802925" lon="-71.88934277">
    <!-- conflict: "2289 Hurricane Brook Road, Warren's Gore, VT" Fuzzy match to "2289 Hurricane Brook Road, Warrens Gore, VT" -->
    <tag k="addr:city" v="Warren's Gore"/>
    <tag k="addr:housenumber" v="2289"/>
    <tag k="addr:street" v="Hurricane Brook Road"/>
    <tag k="addr:state" v="VT"/>
    <tag k="ref:vcgi:esiteid" v="453535"/>
  </node>
  <node id="-163" visible="true" lat="44.94329436" lon="-71.84938436">
    <!-- conflict: "4594 Vermont Route 114, Warren's Gore, VT" Fuzzy match to "4594 Vermont Route 114, Warrens Gore, VT" -->
    <tag k="addr:city" v="Warren's Gore"/>
    <tag k="addr:housenumber" v="4594"/>
    <tag k="addr:street" v="Vermont Route 114"/>
    <tag k="addr:state" v="VT"/>
    <tag k="ref:vcgi:esiteid" v="617771"/>
  </node>
  <node id="-164" visible="true" lat="44.93435825" lon="-71.8595009">
    <!-- conflict: "3734 Vermont Route 114, Warren's Gore, VT" Fuzzy match to "3734 Vermont Route 114, Warrens Gore, VT" -->
    <tag k="addr:city" v="Warren's Gore"/>
    <tag k="addr:housenumber" v="3734"/>
    <tag k="addr:street" v="Vermont Route 114"/>
    <tag k="addr:state" v="VT"/>
    <tag k="ref:vcgi:esiteid" v="617772"/>
  </node>
  <node id="-165" visible="true" lat="44.88930437" lon="-71.89381271">
    <!-- conflict: "64 Vermont Route 114, Warren's Gore, VT" Fuzzy match to "64 Vermont Route 114, Warrens Gore, VT" -->
    <tag k="addr:city" v="Warren's Gore"/>
    <tag k="addr:housenumber" v="64"/>
    <tag k="addr:street" v="Vermont Route 114"/>
    <tag k="addr:state" v="VT"/>
    <tag k="ref:vcgi:esiteid" v="617773"/>
  </node>
  <node id="-166" visible="true" lat="44.90918461" lon="-71.87506917">
    <!-- conflict: "1764 Vermont Route 114, Warren's Gore, VT" Fuzzy match to "1764 Vermont Route 114, Warrens Gore, VT" -->
    <tag k="addr:city" v="Warren's Gore"/>
    <tag k="addr:housenumber" v="1764"/>
    <tag k="addr:street" v="Vermont Route 114"/>
    <tag k="addr:state" v="VT"/>
    <tag k="ref:vcgi:esiteid" v="617774"/>
  </node>
  <node id="-167" visible="true" lat="44.94592137" lon="-71.84656334">
    <!-- conflict: "4736 Vermont Route 114, Warren's Gore, VT" Fuzzy match to "4736 Vermont Route 114, Warrens Gore, VT" -->
    <tag k="addr:city" v="Warren's Gore"/>
    <tag k="addr:housenumber" v="4736"/>
    <tag k="addr:street" v="Vermont Route 114"/>
    <tag k="addr:state" v="VT"/>
    <tag k="ref:vcgi:esiteid" v="620754"/>
  </node>
  <node id="-168" visible="true" lat="44.94303901" lon="-71.86021831">
    <!-- conflict: "2981 Vermont Route 114, Warren's Gore, VT" Fuzzy match to "2981 Vermont Route 114, Warrens Gore, VT" -->
    <tag k="addr:city" v="Warren's Gore"/>
    <tag k="addr:housenumber" v="2981"/>
    <tag k="addr:street" v="Vermont Route 114"/>
    <tag k="addr:state" v="VT"/>
    <tag k="ref:vcgi:esiteid" v="757988"/>
  </node>
</osm>
