<?xml version="1.0" encoding="UTF-8"?>
<osm version="0.6" generator="JOSM" upload="false">
  <node id="-187" visible="true" lat="44.14556725" lon="-72.87954962">
    <tag k="addr:city" v="Warren"/>
    <tag k="addr:housenumber" v="1840"/>
    <tag k="addr:street" v="Sugarbush Access Road"/>
    <tag k="addr:state" v="VT"/>
    <tag k="ref:vcgi:esiteid" v="271203"/>
  </node>
  <node id="-191" visible="true" lat="44.14556812" lon="-72.897742">
    <tag k="addr:city" v="Warren"/>
    <tag k="addr:housenumber" v="849"/>
    <tag k="addr:street" v="Upper Village Road"/>
    <tag k="addr:state" v="VT"/>
    <tag k="ref:vcgi:esiteid" v="271208"/>
  </node>
  <node id="-193" visible="true" lat="44.14544296" lon="-72.89585876">
    <tag k="addr:city" v="Warren"/>
    <tag k="addr:housenumber" v="650"/>
    <tag k="addr:street" v="Upper Village Road"/>
    <tag k="addr:state" v="VT"/>
    <tag k="ref:vcgi:esiteid" v="271210"/>
  </node>
  <node id="-199" visible="true" lat="44.14544441" lon="-72.87935012">
    <tag k="addr:city" v="Warren"/>
    <tag k="addr:housenumber" v="1838"/>
    <tag k="addr:street" v="Sugarbush Access Road"/>
    <tag k="addr:state" v="VT"/>
    <tag k="ref:vcgi:esiteid" v="271216"/>
  </node>
  <node id="-201" visible="true" lat="44.14537864" lon="-72.8754105">
    <tag k="addr:city" v="Warren"/>
    <tag k="addr:housenumber" v="1726"/>
    <tag k="addr:street" v="Sugarbush Access Road"/>
    <tag k="addr:state" v="VT"/>
    <tag k="ref:vcgi:esiteid" v="271218"/>
  </node>
  <node id="-216" visible="true" lat="44.14491658" lon="-72.8977314">
    <tag k="addr:city" v="Warren"/>
    <tag k="addr:housenumber" v="744"/>
    <tag k="addr:street" v="Upper Village Road"/>
    <tag k="addr:state" v="VT"/>
    <tag k="ref:vcgi:esiteid" v="271236"/>
  </node>
  <node id="-218" visible="true" lat="44.14477265" lon="-72.89563478">
    <tag k="addr:city" v="Warren"/>
    <tag k="addr:housenumber" v="105"/>
    <tag k="addr:street" v="Village Run Drive"/>
    <tag k="addr:state" v="VT"/>
    <tag k="ref:vcgi:esiteid" v="271238"/>
  </node>
  <node id="-233" visible="true" lat="44.14432551" lon="-72.89608245">
    <tag k="addr:city" v="Warren"/>
    <tag k="addr:housenumber" v="614"/>
    <tag k="addr:street" v="Upper Village Road"/>
    <tag k="addr:state" v="VT"/>
    <tag k="ref:vcgi:esiteid" v="271253"/>
  </node>
  <node id="-234" visible="true" lat="44.14435036" lon="-72.8973198">
    <tag k="addr:city" v="Warren"/>
    <tag k="addr:housenumber" v="613"/>
    <tag k="addr:street" v="Upper Village Road"/>
    <tag k="addr:state" v="VT"/>
    <tag k="ref:vcgi:esiteid" v="271254"/>
  </node>
  <node id="-250" visible="true" lat="44.14387649" lon="-72.89525058">
    <tag k="addr:city" v="Warren"/>
    <tag k="addr:housenumber" v="112"/>
    <tag k="addr:street" v="Village Run Drive"/>
    <tag k="addr:state" v="VT"/>
    <tag k="ref:vcgi:esiteid" v="271272"/>
  </node>
  <node id="-258" visible="true" lat="44.14389649" lon="-72.89801378">
    <tag k="addr:city" v="Warren"/>
    <tag k="addr:housenumber" v="567"/>
    <tag k="addr:street" v="Upper Village Road"/>
    <tag k="addr:state" v="VT"/>
    <tag k="ref:vcgi:esiteid" v="271282"/>
  </node>
  <node id="-266" visible="true" lat="44.14363416" lon="-72.89694465">
    <tag k="addr:city" v="Warren"/>
    <tag k="addr:housenumber" v="2"/>
    <tag k="addr:street" v="Village Run Drive"/>
    <tag k="addr:state" v="VT"/>
    <tag k="ref:vcgi:esiteid" v="271291"/>
  </node>
  <node id="-274" visible="true" lat="44.14379301" lon="-72.89095986">
    <tag k="addr:city" v="Warren"/>
    <tag k="addr:housenumber" v="30"/>
    <tag k="addr:street" v="Tower Hill"/>
    <tag k="addr:state" v="VT"/>
    <tag k="ref:vcgi:esiteid" v="271299"/>
  </node>
  <node id="-275" visible="true" lat="44.14372497" lon="-72.8986042">
    <tag k="addr:city" v="Warren"/>
    <tag k="addr:housenumber" v="527"/>
    <tag k="addr:street" v="Upper Village Road"/>
    <tag k="addr:state" v="VT"/>
    <tag k="ref:vcgi:esiteid" v="271301"/>
  </node>
  <node id="-279" visible="true" lat="44.14337109" lon="-72.89762464">
    <tag k="addr:city" v="Warren"/>
    <tag k="addr:housenumber" v="518"/>
    <tag k="addr:street" v="Upper Village Road"/>
    <tag k="addr:state" v="VT"/>
    <tag k="ref:vcgi:esiteid" v="271306"/>
  </node>
  <node id="-284" visible="true" lat="44.14324914" lon="-72.89590246">
    <tag k="addr:city" v="Warren"/>
    <tag k="addr:housenumber" v="366"/>
    <tag k="addr:street" v="Upper Village Road"/>
    <tag k="addr:state" v="VT"/>
    <tag k="ref:vcgi:esiteid" v="271311"/>
  </node>
  <node id="-286" visible="true" lat="44.14283904" lon="-72.89719079">
    <tag k="addr:city" v="Warren"/>
    <tag k="addr:housenumber" v="385"/>
    <tag k="addr:street" v="Upper Village Road"/>
    <tag k="addr:state" v="VT"/>
    <tag k="ref:vcgi:esiteid" v="271313"/>
  </node>
  <node id="-295" visible="true" lat="44.14273004" lon="-72.89652454">
    <tag k="addr:city" v="Warren"/>
    <tag k="addr:housenumber" v="357"/>
    <tag k="addr:street" v="Upper Village Road"/>
    <tag k="addr:state" v="VT"/>
    <tag k="ref:vcgi:esiteid" v="271324"/>
  </node>
  <node id="-299" visible="true" lat="44.14289617" lon="-72.89512173">
    <tag k="addr:city" v="Warren"/>
    <tag k="addr:housenumber" v="306"/>
    <tag k="addr:street" v="Upper Village Road"/>
    <tag k="addr:state" v="VT"/>
    <tag k="ref:vcgi:esiteid" v="271328"/>
  </node>
  <node id="-300" visible="true" lat="44.14234869" lon="-72.89419665">
    <tag k="addr:city" v="Warren"/>
    <tag k="addr:housenumber" v="274"/>
    <tag k="addr:street" v="Upper Village Road"/>
    <tag k="addr:state" v="VT"/>
    <tag k="ref:vcgi:esiteid" v="271329"/>
  </node>
  <node id="-302" visible="true" lat="44.1424822" lon="-72.89776102">
    <tag k="addr:city" v="Warren"/>
    <tag k="addr:housenumber" v="106"/>
    <tag k="addr:street" v="West Drive"/>
    <tag k="addr:state" v="VT"/>
    <tag k="ref:vcgi:esiteid" v="271331"/>
  </node>
  <node id="-304" visible="true" lat="44.14247981" lon="-72.88391664">
    <tag k="addr:city" v="Warren"/>
    <tag k="addr:housenumber" v="2197"/>
    <tag k="addr:street" v="Sugarbush Access Road"/>
    <tag k="addr:state" v="VT"/>
    <tag k="ref:vcgi:esiteid" v="271333"/>
  </node>
  <node id="-307" visible="true" lat="44.14234825" lon="-72.89589787">
    <tag k="addr:city" v="Warren"/>
    <tag k="addr:housenumber" v="15"/>
    <tag k="addr:street" v="West Drive"/>
    <tag k="addr:state" v="VT"/>
    <tag k="ref:vcgi:esiteid" v="271336"/>
  </node>
  <node id="-312" visible="true" lat="44.14237252" lon="-72.89537419">
    <tag k="addr:city" v="Warren"/>
    <tag k="addr:housenumber" v="269"/>
    <tag k="addr:street" v="Upper Village Road"/>
    <tag k="addr:state" v="VT"/>
    <tag k="ref:vcgi:esiteid" v="271343"/>
  </node>
  <node id="-316" visible="true" lat="44.14208354" lon="-72.89637761">
    <tag k="addr:city" v="Warren"/>
    <tag k="addr:housenumber" v="63"/>
    <tag k="addr:street" v="West Drive"/>
    <tag k="addr:state" v="VT"/>
    <tag k="ref:vcgi:esiteid" v="271348"/>
  </node>
  <node id="-317" visible="true" lat="44.14197762" lon="-72.89681347">
    <tag k="addr:city" v="Warren"/>
    <tag k="addr:housenumber" v="65"/>
    <tag k="addr:street" v="West Drive"/>
    <tag k="addr:state" v="VT"/>
    <tag k="ref:vcgi:esiteid" v="271349"/>
  </node>
  <node id="-318" visible="true" lat="44.14198179" lon="-72.89760198">
    <tag k="addr:city" v="Warren"/>
    <tag k="addr:housenumber" v="97"/>
    <tag k="addr:street" v="West Drive"/>
    <tag k="addr:state" v="VT"/>
    <tag k="ref:vcgi:esiteid" v="271350"/>
  </node>
  <node id="-329" visible="true" lat="44.14182271" lon="-72.89399527">
    <tag k="addr:city" v="Warren"/>
    <tag k="addr:housenumber" v="109"/>
    <tag k="addr:street" v="East Drive"/>
    <tag k="addr:state" v="VT"/>
    <tag k="ref:vcgi:esiteid" v="271363"/>
  </node>
  <node id="-330" visible="true" lat="44.1417158" lon="-72.89547178">
    <tag k="addr:city" v="Warren"/>
    <tag k="addr:housenumber" v="216"/>
    <tag k="addr:street" v="Upper Village Road"/>
    <tag k="addr:state" v="VT"/>
    <tag k="ref:vcgi:esiteid" v="271364"/>
  </node>
  <node id="-332" visible="true" lat="44.14157867" lon="-72.89459228">
    <tag k="addr:city" v="Warren"/>
    <tag k="addr:housenumber" v="73"/>
    <tag k="addr:street" v="East Drive"/>
    <tag k="addr:state" v="VT"/>
    <tag k="ref:vcgi:esiteid" v="271366"/>
  </node>
  <node id="-335" visible="true" lat="44.14143449" lon="-72.89358475">
    <tag k="addr:city" v="Warren"/>
    <tag k="addr:housenumber" v="122"/>
    <tag k="addr:street" v="East Drive"/>
    <tag k="addr:state" v="VT"/>
    <tag k="ref:vcgi:esiteid" v="271372"/>
  </node>
  <node id="-336" visible="true" lat="44.1413803" lon="-72.89618682">
    <tag k="addr:city" v="Warren"/>
    <tag k="addr:housenumber" v="174"/>
    <tag k="addr:street" v="Upper Village Road"/>
    <tag k="addr:state" v="VT"/>
    <tag k="ref:vcgi:esiteid" v="271373"/>
  </node>
  <node id="-337" visible="true" lat="44.14132014" lon="-72.89386275">
    <tag k="addr:city" v="Warren"/>
    <tag k="addr:housenumber" v="106"/>
    <tag k="addr:street" v="East Drive"/>
    <tag k="addr:state" v="VT"/>
    <tag k="ref:vcgi:esiteid" v="271374"/>
  </node>
  <node id="-341" visible="true" lat="44.14131773" lon="-72.8969227">
    <tag k="addr:city" v="Warren"/>
    <tag k="addr:housenumber" v="149"/>
    <tag k="addr:street" v="Upper Village Road"/>
    <tag k="addr:state" v="VT"/>
    <tag k="ref:vcgi:esiteid" v="271378"/>
  </node>
  <node id="-343" visible="true" lat="44.14122226" lon="-72.89419195">
    <tag k="addr:city" v="Warren"/>
    <tag k="addr:housenumber" v="90"/>
    <tag k="addr:street" v="East Drive"/>
    <tag k="addr:state" v="VT"/>
    <tag k="ref:vcgi:esiteid" v="271380"/>
  </node>
  <node id="-344" visible="true" lat="44.14108716" lon="-72.89471034">
    <tag k="addr:city" v="Warren"/>
    <tag k="addr:housenumber" v="66"/>
    <tag k="addr:street" v="East Drive"/>
    <tag k="addr:state" v="VT"/>
    <tag k="ref:vcgi:esiteid" v="271381"/>
  </node>
  <node id="-346" visible="true" lat="44.14144576" lon="-72.85106921">
    <tag k="addr:city" v="Warren"/>
    <tag k="addr:housenumber" v="190"/>
    <tag k="addr:street" v="Upper Pines Road"/>
    <tag k="addr:state" v="VT"/>
    <tag k="ref:vcgi:esiteid" v="271384"/>
  </node>
  <node id="-347" visible="true" lat="44.14102143" lon="-72.89503224">
    <tag k="addr:city" v="Warren"/>
    <tag k="addr:housenumber" v="50"/>
    <tag k="addr:street" v="East Drive"/>
    <tag k="addr:state" v="VT"/>
    <tag k="ref:vcgi:esiteid" v="271385"/>
  </node>
  <node id="-352" visible="true" lat="44.14110919" lon="-72.89339646">
    <tag k="addr:city" v="Warren"/>
    <tag k="addr:housenumber" v="668"/>
    <tag k="addr:street" v="Village Road"/>
    <tag k="addr:state" v="VT"/>
    <tag k="ref:vcgi:esiteid" v="271391"/>
  </node>
  <node id="-353" visible="true" lat="44.14089695" lon="-72.89603681">
    <tag k="addr:city" v="Warren"/>
    <tag k="addr:housenumber" v="103"/>
    <tag k="addr:street" v="Upper Village Road"/>
    <tag k="addr:state" v="VT"/>
    <tag k="ref:vcgi:esiteid" v="271392"/>
  </node>
  <node id="-355" visible="true" lat="44.14096709" lon="-72.89449885">
    <tag k="addr:city" v="Warren"/>
    <tag k="addr:housenumber" v="40"/>
    <tag k="addr:street" v="Upper Village Road"/>
    <tag k="addr:state" v="VT"/>
    <tag k="ref:vcgi:esiteid" v="271394"/>
  </node>
  <node id="-356" visible="true" lat="44.14101458" lon="-72.89406418">
    <tag k="addr:city" v="Warren"/>
    <tag k="addr:housenumber" v="14"/>
    <tag k="addr:street" v="Upper Village Road"/>
    <tag k="addr:state" v="VT"/>
    <tag k="ref:vcgi:esiteid" v="271395"/>
  </node>
  <node id="-361" visible="true" lat="44.14062784" lon="-72.89536044">
    <tag k="addr:city" v="Warren"/>
    <tag k="addr:housenumber" v="67"/>
    <tag k="addr:street" v="Upper Village Road"/>
    <tag k="addr:state" v="VT"/>
    <tag k="ref:vcgi:esiteid" v="271401"/>
  </node>
  <node id="-369" visible="true" lat="44.1405487" lon="-72.89496612">
    <tag k="addr:city" v="Warren"/>
    <tag k="addr:housenumber" v="45"/>
    <tag k="addr:street" v="Upper Village Road"/>
    <tag k="addr:state" v="VT"/>
    <tag k="ref:vcgi:esiteid" v="271409"/>
  </node>
  <node id="-387" visible="true" lat="44.13999514" lon="-72.88446361">
    <tag k="addr:city" v="Warren"/>
    <tag k="addr:housenumber" v="2367"/>
    <tag k="addr:street" v="Sugarbush Access Road"/>
    <tag k="addr:state" v="VT"/>
    <tag k="ref:vcgi:esiteid" v="271431"/>
  </node>
  <node id="-389" visible="true" lat="44.14003759" lon="-72.85585798">
    <tag k="addr:city" v="Warren"/>
    <tag k="addr:housenumber" v="527"/>
    <tag k="addr:street" v="Sugarbush Access Road"/>
    <tag k="addr:state" v="VT"/>
    <tag k="ref:vcgi:esiteid" v="271434"/>
  </node>
  <node id="-401" visible="true" lat="44.13950923" lon="-72.89350563">
    <tag k="addr:city" v="Warren"/>
    <tag k="addr:housenumber" v="205"/>
    <tag k="addr:street" v="Mountainside Drive"/>
    <tag k="addr:state" v="VT"/>
    <tag k="ref:vcgi:esiteid" v="271451"/>
  </node>
  <node id="-403" visible="true" lat="44.13971954" lon="-72.88616229">
    <tag k="addr:city" v="Warren"/>
    <tag k="addr:housenumber" v="2440"/>
    <tag k="addr:street" v="Sugarbush Access Road"/>
    <tag k="addr:state" v="VT"/>
    <tag k="ref:vcgi:esiteid" v="271454"/>
  </node>
  <node id="-436" visible="true" lat="44.1387956" lon="-72.84892119">
    <tag k="addr:city" v="Warren"/>
    <tag k="addr:housenumber" v="29"/>
    <tag k="addr:street" v="Christmas Tree Road"/>
    <tag k="addr:state" v="VT"/>
    <tag k="ref:vcgi:esiteid" v="271494"/>
  </node>
  <node id="-443" visible="true" lat="44.1382287" lon="-72.88313553">
    <tag k="addr:city" v="Warren"/>
    <tag k="addr:housenumber" v="202"/>
    <tag k="addr:street" v="Bridges Circle"/>
    <tag k="addr:state" v="VT"/>
    <tag k="ref:vcgi:esiteid" v="271502"/>
  </node>
  <node id="-454" visible="true" lat="44.13786532" lon="-72.84678634">
    <tag k="addr:city" v="Warren"/>
    <tag k="addr:housenumber" v="48"/>
    <tag k="addr:street" v="Sugarbush Access Road"/>
    <tag k="addr:state" v="VT"/>
    <tag k="ref:vcgi:esiteid" v="271513"/>
  </node>
  <node id="-457" visible="true" lat="44.13769082" lon="-72.8454581">
    <tag k="addr:city" v="Warren"/>
    <tag k="addr:housenumber" v="731"/>
    <tag k="addr:street" v="Vermont Route 100"/>
    <tag k="addr:state" v="VT"/>
    <tag k="ref:vcgi:esiteid" v="271517"/>
  </node>
  <node id="-460" visible="true" lat="44.13751915" lon="-72.84626933">
    <tag k="addr:city" v="Warren"/>
    <tag k="addr:housenumber" v="18"/>
    <tag k="addr:street" v="Sugarbush Access Road"/>
    <tag k="addr:state" v="VT"/>
    <tag k="ref:vcgi:esiteid" v="271520"/>
  </node>
  <node id="-484" visible="true" lat="44.13485833" lon="-72.84667696">
    <tag k="addr:city" v="Warren"/>
    <tag k="addr:housenumber" v="899"/>
    <tag k="addr:street" v="Vermont Route 100"/>
    <tag k="addr:state" v="VT"/>
    <tag k="ref:vcgi:esiteid" v="271552"/>
  </node>
  <node id="-500" visible="true" lat="44.13418747" lon="-72.84820063">
    <tag k="addr:city" v="Warren"/>
    <tag k="addr:housenumber" v="203"/>
    <tag k="addr:street" v="Powderhound Road"/>
    <tag k="addr:state" v="VT"/>
    <tag k="ref:vcgi:esiteid" v="271569"/>
  </node>
  <node id="-580" visible="true" lat="44.13047546" lon="-72.87263422">
    <!-- match: "1225 Golf Course Road, Warren, VT"  ignoring missing state when matching to "1225 Golf Course Road, Warren, " -->
    <tag k="addr:city" v="Warren"/>
    <tag k="addr:housenumber" v="1225"/>
    <tag k="addr:street" v="Golf Course Road"/>
    <tag k="addr:state" v="VT"/>
    <tag k="ref:vcgi:esiteid" v="271655"/>
  </node>
  <node id="-637" visible="true" lat="44.12828706" lon="-72.88001437">
    <tag k="addr:city" v="Warren"/>
    <tag k="addr:housenumber" v="64"/>
    <tag k="addr:street" v="Wildfire Drive"/>
    <tag k="addr:state" v="VT"/>
    <tag k="ref:vcgi:esiteid" v="271712"/>
  </node>
  <node id="-676" visible="true" lat="44.12435134" lon="-72.88263889">
    <tag k="addr:city" v="Warren"/>
    <tag k="addr:housenumber" v="1496"/>
    <tag k="addr:street" v="West Hill Road"/>
    <tag k="addr:state" v="VT"/>
    <tag k="ref:vcgi:esiteid" v="271753"/>
  </node>
  <node id="-699" visible="true" lat="44.12172771" lon="-72.81702948">
    <tag k="addr:city" v="Warren"/>
    <tag k="addr:housenumber" v="1019"/>
    <tag k="addr:street" v="Woods Road South"/>
    <tag k="addr:state" v="VT"/>
    <tag k="ref:vcgi:esiteid" v="271776"/>
  </node>
  <node id="-711" visible="true" lat="44.1209213" lon="-72.81493809">
    <tag k="addr:city" v="Warren"/>
    <tag k="addr:housenumber" v="58"/>
    <tag k="addr:street" v="Woods Road North"/>
    <tag k="addr:state" v="VT"/>
    <tag k="ref:vcgi:esiteid" v="271788"/>
  </node>
  <node id="-713" visible="true" lat="44.12059046" lon="-72.8202577">
    <tag k="addr:city" v="Warren"/>
    <tag k="addr:housenumber" v="888"/>
    <tag k="addr:street" v="Woods Road South"/>
    <tag k="addr:state" v="VT"/>
    <tag k="ref:vcgi:esiteid" v="271790"/>
  </node>
  <node id="-714" visible="true" lat="44.12041602" lon="-72.81630912">
    <tag k="addr:city" v="Warren"/>
    <tag k="addr:housenumber" v="352"/>
    <tag k="addr:street" v="Applewood Road"/>
    <tag k="addr:state" v="VT"/>
    <tag k="ref:vcgi:esiteid" v="271791"/>
  </node>
  <node id="-718" visible="true" lat="44.12031143" lon="-72.81479328">
    <tag k="addr:city" v="Warren"/>
    <tag k="addr:housenumber" v="70"/>
    <tag k="addr:street" v="Woods Road North"/>
    <tag k="addr:state" v="VT"/>
    <tag k="ref:vcgi:esiteid" v="271795"/>
  </node>
  <node id="-725" visible="true" lat="44.11946464" lon="-72.81463953">
    <tag k="addr:city" v="Warren"/>
    <tag k="addr:housenumber" v="94"/>
    <tag k="addr:street" v="Woods Road North"/>
    <tag k="addr:state" v="VT"/>
    <tag k="ref:vcgi:esiteid" v="271802"/>
  </node>
  <node id="-731" visible="true" lat="44.11822564" lon="-72.81828138">
    <tag k="addr:city" v="Warren"/>
    <tag k="addr:housenumber" v="171"/>
    <tag k="addr:street" v="Applewood Road"/>
    <tag k="addr:state" v="VT"/>
    <tag k="ref:vcgi:esiteid" v="271808"/>
  </node>
  <node id="-732" visible="true" lat="44.11800316" lon="-72.8313697">
    <tag k="addr:city" v="Warren"/>
    <tag k="addr:housenumber" v="127"/>
    <tag k="addr:street" v="Laflame Road"/>
    <tag k="addr:state" v="VT"/>
    <tag k="ref:vcgi:esiteid" v="271809"/>
  </node>
  <node id="-733" visible="true" lat="44.1179567" lon="-72.81437793">
    <tag k="addr:city" v="Warren"/>
    <tag k="addr:housenumber" v="5281"/>
    <tag k="addr:street" v="East Warren Road"/>
    <tag k="addr:state" v="VT"/>
    <tag k="ref:vcgi:esiteid" v="271810"/>
  </node>
  <node id="-734" visible="true" lat="44.11778071" lon="-72.82317463">
    <tag k="addr:city" v="Warren"/>
    <tag k="addr:housenumber" v="488"/>
    <tag k="addr:street" v="Woods Road South"/>
    <tag k="addr:state" v="VT"/>
    <tag k="ref:vcgi:esiteid" v="271811"/>
  </node>
  <node id="-740" visible="true" lat="44.11714314" lon="-72.83366705">
    <tag k="addr:city" v="Warren"/>
    <tag k="addr:housenumber" v="234"/>
    <tag k="addr:street" v="Old Orchard Way"/>
    <tag k="addr:state" v="VT"/>
    <tag k="ref:vcgi:esiteid" v="271818"/>
  </node>
  <node id="-741" visible="true" lat="44.1170844" lon="-72.8316109">
    <tag k="addr:city" v="Warren"/>
    <tag k="addr:housenumber" v="87"/>
    <tag k="addr:street" v="Laflame Road"/>
    <tag k="addr:state" v="VT"/>
    <tag k="ref:vcgi:esiteid" v="271819"/>
  </node>
  <node id="-744" visible="true" lat="44.11687926" lon="-72.81702447">
    <tag k="addr:city" v="Warren"/>
    <tag k="addr:housenumber" v="91"/>
    <tag k="addr:street" v="Applewood Road"/>
    <tag k="addr:state" v="VT"/>
    <tag k="ref:vcgi:esiteid" v="271822"/>
  </node>
  <node id="-745" visible="true" lat="44.11691484" lon="-72.82384554">
    <tag k="addr:city" v="Warren"/>
    <tag k="addr:housenumber" v="448"/>
    <tag k="addr:street" v="Woods Road South"/>
    <tag k="addr:state" v="VT"/>
    <tag k="ref:vcgi:esiteid" v="271823"/>
  </node>
  <node id="-751" visible="true" lat="44.11677248" lon="-72.83046002">
    <tag k="addr:city" v="Warren"/>
    <tag k="addr:housenumber" v="19"/>
    <tag k="addr:street" v="Laflame Road"/>
    <tag k="addr:state" v="VT"/>
    <tag k="ref:vcgi:esiteid" v="271829"/>
  </node>
  <node id="-756" visible="true" lat="44.11635839" lon="-72.83388107">
    <tag k="addr:city" v="Warren"/>
    <tag k="addr:housenumber" v="179"/>
    <tag k="addr:street" v="Old Orchard Way"/>
    <tag k="addr:state" v="VT"/>
    <tag k="ref:vcgi:esiteid" v="271834"/>
  </node>
  <node id="-757" visible="true" lat="44.11642764" lon="-72.85272994">
    <tag k="addr:city" v="Warren"/>
    <tag k="addr:housenumber" v="293"/>
    <tag k="addr:street" v="School Road"/>
    <tag k="addr:state" v="VT"/>
    <tag k="ref:vcgi:esiteid" v="271835"/>
  </node>
  <node id="-758" visible="true" lat="44.11628069" lon="-72.83210953">
    <tag k="addr:city" v="Warren"/>
    <tag k="addr:housenumber" v="126"/>
    <tag k="addr:street" v="Old Orchard Way"/>
    <tag k="addr:state" v="VT"/>
    <tag k="ref:vcgi:esiteid" v="271836"/>
  </node>
  <node id="-760" visible="true" lat="44.11624732" lon="-72.83068924">
    <tag k="addr:city" v="Warren"/>
    <tag k="addr:housenumber" v="56"/>
    <tag k="addr:street" v="Old Orchard Way"/>
    <tag k="addr:state" v="VT"/>
    <tag k="ref:vcgi:esiteid" v="271838"/>
  </node>
  <node id="-764" visible="true" lat="44.11594832" lon="-72.81476065">
    <tag k="addr:city" v="Warren"/>
    <tag k="addr:housenumber" v="25"/>
    <tag k="addr:street" v="Roth Road"/>
    <tag k="addr:state" v="VT"/>
    <tag k="ref:vcgi:esiteid" v="271843"/>
  </node>
  <node id="-765" visible="true" lat="44.11578403" lon="-72.83257675">
    <tag k="addr:city" v="Warren"/>
    <tag k="addr:housenumber" v="97"/>
    <tag k="addr:street" v="Old Orchard Way"/>
    <tag k="addr:state" v="VT"/>
    <tag k="ref:vcgi:esiteid" v="271844"/>
  </node>
  <node id="-770" visible="true" lat="44.11564569" lon="-72.83152179">
    <tag k="addr:city" v="Warren"/>
    <tag k="addr:housenumber" v="27"/>
    <tag k="addr:street" v="Old Orchard Way"/>
    <tag k="addr:state" v="VT"/>
    <tag k="ref:vcgi:esiteid" v="271849"/>
  </node>
  <node id="-771" visible="true" lat="44.11540609" lon="-72.85622884">
    <tag k="addr:city" v="Warren"/>
    <tag k="addr:housenumber" v="214"/>
    <tag k="addr:street" v="Main Street"/>
    <tag k="addr:state" v="VT"/>
    <tag k="ref:vcgi:esiteid" v="271850"/>
  </node>
  <node id="-773" visible="true" lat="44.11536019" lon="-72.85559341">
    <tag k="addr:city" v="Warren"/>
    <tag k="addr:housenumber" v="15"/>
    <tag k="addr:street" v="Brook Road"/>
    <tag k="addr:state" v="VT"/>
    <tag k="ref:vcgi:esiteid" v="271852"/>
  </node>
  <node id="-774" visible="true" lat="44.11524419" lon="-72.82506298">
    <tag k="addr:city" v="Warren"/>
    <tag k="addr:housenumber" v="270"/>
    <tag k="addr:street" v="Woods Road South"/>
    <tag k="addr:state" v="VT"/>
    <tag k="ref:vcgi:esiteid" v="271853"/>
  </node>
  <node id="-775" visible="true" lat="44.11517092" lon="-72.85415933">
    <tag k="addr:city" v="Warren"/>
    <tag k="addr:housenumber" v="95"/>
    <tag k="addr:street" v="Brook Road"/>
    <tag k="addr:state" v="VT"/>
    <tag k="ref:vcgi:esiteid" v="271854"/>
  </node>
  <node id="-776" visible="true" lat="44.11529409" lon="-72.85527325">
    <tag k="addr:city" v="Warren"/>
    <tag k="addr:housenumber" v="33"/>
    <tag k="addr:street" v="Brook Road"/>
    <tag k="addr:state" v="VT"/>
    <tag k="ref:vcgi:esiteid" v="271855"/>
  </node>
  <node id="-778" visible="true" lat="44.11502578" lon="-72.85519949">
    <tag k="addr:city" v="Warren"/>
    <tag k="addr:housenumber" v="40"/>
    <tag k="addr:street" v="Brook Road"/>
    <tag k="addr:state" v="VT"/>
    <tag k="ref:vcgi:esiteid" v="271857"/>
  </node>
  <node id="-781" visible="true" lat="44.11503648" lon="-72.85558525">
    <tag k="addr:city" v="Warren"/>
    <tag k="addr:housenumber" v="247"/>
    <tag k="addr:street" v="Main Street"/>
    <tag k="addr:state" v="VT"/>
    <tag k="ref:vcgi:esiteid" v="271860"/>
  </node>
  <node id="-782" visible="true" lat="44.11502876" lon="-72.84011414">
    <tag k="addr:city" v="Warren"/>
    <tag k="addr:housenumber" v="620"/>
    <tag k="addr:street" v="Dump Road"/>
    <tag k="addr:state" v="VT"/>
    <tag k="ref:vcgi:esiteid" v="271861"/>
  </node>
  <node id="-784" visible="true" lat="44.11482285" lon="-72.82607865">
    <tag k="addr:city" v="Warren"/>
    <tag k="addr:housenumber" v="268"/>
    <tag k="addr:street" v="Woods Road South"/>
    <tag k="addr:state" v="VT"/>
    <tag k="ref:vcgi:esiteid" v="271863"/>
  </node>
  <node id="-785" visible="true" lat="44.11478616" lon="-72.85456916">
    <tag k="addr:city" v="Warren"/>
    <tag k="addr:housenumber" v="76"/>
    <tag k="addr:street" v="Brook Road"/>
    <tag k="addr:state" v="VT"/>
    <tag k="ref:vcgi:esiteid" v="271864"/>
  </node>
  <node id="-786" visible="true" lat="44.11478479" lon="-72.85492182">
    <tag k="addr:city" v="Warren"/>
    <tag k="addr:housenumber" v="44"/>
    <tag k="addr:street" v="Brook Road"/>
    <tag k="addr:state" v="VT"/>
    <tag k="ref:vcgi:esiteid" v="271865"/>
  </node>
  <node id="-788" visible="true" lat="44.11476138" lon="-72.8560333">
    <tag k="addr:city" v="Warren"/>
    <tag k="addr:housenumber" v="266"/>
    <tag k="addr:street" v="Main Street"/>
    <tag k="addr:state" v="VT"/>
    <tag k="ref:vcgi:esiteid" v="271867"/>
  </node>
  <node id="-793" visible="true" lat="44.11467272" lon="-72.85339327">
    <tag k="addr:city" v="Warren"/>
    <tag k="addr:housenumber" v="141"/>
    <tag k="addr:street" v="Brook Road"/>
    <tag k="addr:state" v="VT"/>
    <tag k="ref:vcgi:esiteid" v="271872"/>
  </node>
  <node id="-794" visible="true" lat="44.11452163" lon="-72.85602136">
    <tag k="addr:city" v="Warren"/>
    <tag k="addr:housenumber" v="284"/>
    <tag k="addr:street" v="Main Street"/>
    <tag k="addr:state" v="VT"/>
    <tag k="ref:vcgi:esiteid" v="271873"/>
  </node>
  <node id="-796" visible="true" lat="44.11439217" lon="-72.85396054">
    <tag k="addr:city" v="Warren"/>
    <tag k="addr:housenumber" v="96"/>
    <tag k="addr:street" v="Flat Iron Road"/>
    <tag k="addr:state" v="VT"/>
    <tag k="ref:vcgi:esiteid" v="271875"/>
  </node>
  <node id="-800" visible="true" lat="44.11424659" lon="-72.84662733">
    <tag k="addr:city" v="Warren"/>
    <tag k="addr:housenumber" v="221"/>
    <tag k="addr:street" v="Dump Road"/>
    <tag k="addr:state" v="VT"/>
    <tag k="ref:vcgi:esiteid" v="271879"/>
  </node>
  <node id="-801" visible="true" lat="44.11429977" lon="-72.85520172">
    <tag k="addr:city" v="Warren"/>
    <tag k="addr:housenumber" v="43"/>
    <tag k="addr:street" v="Flat Iron Road"/>
    <tag k="addr:state" v="VT"/>
    <tag k="ref:vcgi:esiteid" v="271880"/>
  </node>
  <node id="-802" visible="true" lat="44.11416988" lon="-72.8544721">
    <tag k="addr:city" v="Warren"/>
    <tag k="addr:housenumber" v="70"/>
    <tag k="addr:street" v="Flat Iron Road"/>
    <tag k="addr:state" v="VT"/>
    <tag k="ref:vcgi:esiteid" v="271881"/>
  </node>
  <node id="-803" visible="true" lat="44.11422916" lon="-72.85301545">
    <tag k="addr:city" v="Warren"/>
    <tag k="addr:housenumber" v="166"/>
    <tag k="addr:street" v="Brook Road"/>
    <tag k="addr:state" v="VT"/>
    <tag k="ref:vcgi:esiteid" v="271882"/>
  </node>
  <node id="-805" visible="true" lat="44.11429285" lon="-72.85250473">
    <tag k="addr:city" v="Warren"/>
    <tag k="addr:housenumber" v="189"/>
    <tag k="addr:street" v="Brook Road"/>
    <tag k="addr:state" v="VT"/>
    <tag k="ref:vcgi:esiteid" v="271884"/>
  </node>
  <node id="-806" visible="true" lat="44.11409172" lon="-72.83760016">
    <tag k="addr:city" v="Warren"/>
    <tag k="addr:housenumber" v="690"/>
    <tag k="addr:street" v="Dump Road"/>
    <tag k="addr:state" v="VT"/>
    <tag k="ref:vcgi:esiteid" v="271885"/>
  </node>
  <node id="-808" visible="true" lat="44.11407823" lon="-72.85486603">
    <tag k="addr:city" v="Warren"/>
    <tag k="addr:housenumber" v="50"/>
    <tag k="addr:street" v="Flat Iron Road"/>
    <tag k="addr:state" v="VT"/>
    <tag k="ref:vcgi:esiteid" v="271887"/>
  </node>
  <node id="-810" visible="true" lat="44.11420086" lon="-72.85225241">
    <tag k="addr:city" v="Warren"/>
    <tag k="addr:housenumber" v="203"/>
    <tag k="addr:street" v="Brook Road"/>
    <tag k="addr:state" v="VT"/>
    <tag k="ref:vcgi:esiteid" v="271889"/>
  </node>
  <node id="-811" visible="true" lat="44.11411666" lon="-72.85582394">
    <tag k="addr:city" v="Warren"/>
    <tag k="addr:housenumber" v="314"/>
    <tag k="addr:street" v="Main Street"/>
    <tag k="addr:state" v="VT"/>
    <tag k="ref:vcgi:esiteid" v="271890"/>
  </node>
  <node id="-813" visible="true" lat="44.11401377" lon="-72.85151756">
    <tag k="addr:city" v="Warren"/>
    <tag k="addr:housenumber" v="18"/>
    <tag k="addr:street" v="Luce Pierce Road"/>
    <tag k="addr:state" v="VT"/>
    <tag k="ref:vcgi:esiteid" v="271892"/>
  </node>
  <node id="-814" visible="true" lat="44.11401616" lon="-72.85180679">
    <tag k="addr:city" v="Warren"/>
    <tag k="addr:housenumber" v="13"/>
    <tag k="addr:street" v="Luce Pierce Road"/>
    <tag k="addr:state" v="VT"/>
    <tag k="ref:vcgi:esiteid" v="271893"/>
  </node>
  <node id="-815" visible="true" lat="44.11388273" lon="-72.84721213">
    <tag k="addr:city" v="Warren"/>
    <tag k="addr:housenumber" v="199"/>
    <tag k="addr:street" v="Dump Road"/>
    <tag k="addr:state" v="VT"/>
    <tag k="ref:vcgi:esiteid" v="271895"/>
  </node>
  <node id="-818" visible="true" lat="44.113644" lon="-72.85134032">
    <tag k="addr:city" v="Warren"/>
    <tag k="addr:housenumber" v="251"/>
    <tag k="addr:street" v="Brook Road"/>
    <tag k="addr:state" v="VT"/>
    <tag k="ref:vcgi:esiteid" v="271898"/>
  </node>
  <node id="-820" visible="true" lat="44.1134975" lon="-72.85059639">
    <tag k="addr:city" v="Warren"/>
    <tag k="addr:housenumber" v="46"/>
    <tag k="addr:street" v="School Road"/>
    <tag k="addr:state" v="VT"/>
    <tag k="ref:vcgi:esiteid" v="271900"/>
  </node>
  <node id="-821" visible="true" lat="44.11367037" lon="-72.85526432">
    <tag k="addr:city" v="Warren"/>
    <tag k="addr:housenumber" v="339"/>
    <tag k="addr:street" v="Main Street"/>
    <tag k="addr:state" v="VT"/>
    <tag k="ref:vcgi:esiteid" v="271901"/>
  </node>
  <node id="-822" visible="true" lat="44.11361024" lon="-72.82706796">
    <tag k="addr:city" v="Warren"/>
    <tag k="addr:housenumber" v="138"/>
    <tag k="addr:street" v="Woods Road South"/>
    <tag k="addr:state" v="VT"/>
    <tag k="ref:vcgi:esiteid" v="271902"/>
  </node>
  <node id="-823" visible="true" lat="44.11362838" lon="-72.81717681">
    <tag k="addr:city" v="Warren"/>
    <tag k="addr:housenumber" v="5636"/>
    <tag k="addr:street" v="East Warren Road"/>
    <tag k="addr:state" v="VT"/>
    <tag k="ref:vcgi:esiteid" v="271903"/>
  </node>
  <node id="-824" visible="true" lat="44.1134669" lon="-72.85605984">
    <tag k="addr:city" v="Warren"/>
    <tag k="addr:housenumber" v="354"/>
    <tag k="addr:street" v="Main Street"/>
    <tag k="addr:state" v="VT"/>
    <tag k="ref:vcgi:esiteid" v="271904"/>
  </node>
  <node id="-826" visible="true" lat="44.11347387" lon="-72.85556315">
    <tag k="addr:city" v="Warren"/>
    <tag k="addr:housenumber" v="351"/>
    <tag k="addr:street" v="Main Street"/>
    <tag k="addr:state" v="VT"/>
    <tag k="ref:vcgi:esiteid" v="271906"/>
  </node>
  <node id="-827" visible="true" lat="44.11340053" lon="-72.85151433">
    <tag k="addr:city" v="Warren"/>
    <tag k="addr:housenumber" v="264"/>
    <tag k="addr:street" v="Brook Road"/>
    <tag k="addr:state" v="VT"/>
    <tag k="ref:vcgi:esiteid" v="271907"/>
  </node>
  <node id="-829" visible="true" lat="44.11326599" lon="-72.85612487">
    <tag k="addr:city" v="Warren"/>
    <tag k="addr:housenumber" v="374"/>
    <tag k="addr:street" v="Main Street"/>
    <tag k="addr:state" v="VT"/>
    <tag k="ref:vcgi:esiteid" v="271909"/>
  </node>
  <node id="-831" visible="true" lat="44.11328765" lon="-72.82768931">
    <tag k="addr:city" v="Warren"/>
    <tag k="addr:housenumber" v="106"/>
    <tag k="addr:street" v="Woods Road South"/>
    <tag k="addr:state" v="VT"/>
    <tag k="ref:vcgi:esiteid" v="271911"/>
  </node>
  <node id="-832" visible="true" lat="44.11308572" lon="-72.85120217">
    <tag k="addr:city" v="Warren"/>
    <tag k="addr:housenumber" v="294"/>
    <tag k="addr:street" v="Brook Road"/>
    <tag k="addr:state" v="VT"/>
    <tag k="ref:vcgi:esiteid" v="271912"/>
  </node>
  <node id="-833" visible="true" lat="44.113009" lon="-72.81611102">
    <tag k="addr:city" v="Warren"/>
    <tag k="addr:housenumber" v="5633"/>
    <tag k="addr:street" v="East Warren Road"/>
    <tag k="addr:state" v="VT"/>
    <tag k="ref:vcgi:esiteid" v="271913"/>
  </node>
  <node id="-835" visible="true" lat="44.11292836" lon="-72.85534794">
    <tag k="addr:city" v="Warren"/>
    <tag k="addr:housenumber" v="42"/>
    <tag k="addr:street" v="Cemetery Road"/>
    <tag k="addr:state" v="VT"/>
    <tag k="ref:vcgi:esiteid" v="271915"/>
  </node>
  <node id="-837" visible="true" lat="44.11296777" lon="-72.85618703">
    <tag k="addr:city" v="Warren"/>
    <tag k="addr:housenumber" v="392"/>
    <tag k="addr:street" v="Main Street"/>
    <tag k="addr:state" v="VT"/>
    <tag k="ref:vcgi:esiteid" v="271917"/>
  </node>
  <node id="-838" visible="true" lat="44.11296635" lon="-72.85028482">
    <tag k="addr:city" v="Warren"/>
    <tag k="addr:housenumber" v="9"/>
    <tag k="addr:street" v="Dump Road"/>
    <tag k="addr:state" v="VT"/>
    <tag k="ref:vcgi:esiteid" v="271918"/>
  </node>
  <node id="-840" visible="true" lat="44.11286709" lon="-72.84574116">
    <tag k="addr:city" v="Warren"/>
    <tag k="addr:housenumber" v="290"/>
    <tag k="addr:street" v="Dump Road"/>
    <tag k="addr:state" v="VT"/>
    <tag k="ref:vcgi:esiteid" v="271920"/>
  </node>
  <node id="-843" visible="true" lat="44.1128729" lon="-72.84949894">
    <tag k="addr:city" v="Warren"/>
    <tag k="addr:housenumber" v="49"/>
    <tag k="addr:street" v="Dump Road"/>
    <tag k="addr:state" v="VT"/>
    <tag k="ref:vcgi:esiteid" v="271923"/>
  </node>
  <node id="-844" visible="true" lat="44.11267265" lon="-72.85576331">
    <tag k="addr:city" v="Warren"/>
    <tag k="addr:housenumber" v="413"/>
    <tag k="addr:street" v="Main Street"/>
    <tag k="addr:state" v="VT"/>
    <tag k="ref:vcgi:esiteid" v="271924"/>
  </node>
  <node id="-845" visible="true" lat="44.11259989" lon="-72.82526555">
    <tag k="addr:city" v="Warren"/>
    <tag k="addr:housenumber" v="3215"/>
    <tag k="addr:street" v="Airport Road"/>
    <tag k="addr:state" v="VT"/>
    <tag k="ref:vcgi:esiteid" v="271925"/>
  </node>
  <node id="-846" visible="true" lat="44.11242908" lon="-72.85553222">
    <tag k="addr:city" v="Warren"/>
    <tag k="addr:housenumber" v="415"/>
    <tag k="addr:street" v="Main Street"/>
    <tag k="addr:state" v="VT"/>
    <tag k="ref:vcgi:esiteid" v="271926"/>
  </node>
  <node id="-847" visible="true" lat="44.11243863" lon="-72.85580752">
    <tag k="addr:city" v="Warren"/>
    <tag k="addr:housenumber" v="417"/>
    <tag k="addr:street" v="Main Street"/>
    <tag k="addr:state" v="VT"/>
    <tag k="ref:vcgi:esiteid" v="271927"/>
  </node>
  <node id="-850" visible="true" lat="44.11224888" lon="-72.84681646">
    <tag k="addr:city" v="Warren"/>
    <tag k="addr:housenumber" v="200"/>
    <tag k="addr:street" v="Dump Road"/>
    <tag k="addr:state" v="VT"/>
    <tag k="ref:vcgi:esiteid" v="271930"/>
  </node>
  <node id="-851" visible="true" lat="44.1122721" lon="-72.85636411">
    <tag k="addr:city" v="Warren"/>
    <tag k="addr:housenumber" v="440"/>
    <tag k="addr:street" v="Main Street"/>
    <tag k="addr:state" v="VT"/>
    <tag k="ref:vcgi:esiteid" v="271931"/>
  </node>
  <node id="-852" visible="true" lat="44.11218599" lon="-72.85595512">
    <tag k="addr:city" v="Warren"/>
    <tag k="addr:housenumber" v="439"/>
    <tag k="addr:street" v="Main Street"/>
    <tag k="addr:state" v="VT"/>
    <tag k="ref:vcgi:esiteid" v="271932"/>
  </node>
  <node id="-853" visible="true" lat="44.1123211" lon="-72.82842251">
    <tag k="addr:city" v="Warren"/>
    <tag k="addr:housenumber" v="3059"/>
    <tag k="addr:street" v="Airport Road"/>
    <tag k="addr:state" v="VT"/>
    <tag k="ref:vcgi:esiteid" v="271933"/>
  </node>
  <node id="-854" visible="true" lat="44.11217023" lon="-72.81651623">
    <tag k="addr:city" v="Warren"/>
    <tag k="addr:housenumber" v="5711"/>
    <tag k="addr:street" v="East Warren Road"/>
    <tag k="addr:state" v="VT"/>
    <tag k="ref:vcgi:esiteid" v="271934"/>
  </node>
  <node id="-857" visible="true" lat="44.11197279" lon="-72.8544694">
    <tag k="addr:city" v="Warren"/>
    <tag k="addr:housenumber" v="123"/>
    <tag k="addr:street" v="Cemetery Road"/>
    <tag k="addr:state" v="VT"/>
    <tag k="ref:vcgi:esiteid" v="271937"/>
  </node>
  <node id="-860" visible="true" lat="44.11208245" lon="-72.82777822">
    <tag k="addr:city" v="Warren"/>
    <tag k="addr:housenumber" v="3061"/>
    <tag k="addr:street" v="Airport Road"/>
    <tag k="addr:state" v="VT"/>
    <tag k="ref:vcgi:esiteid" v="271941"/>
  </node>
  <node id="-863" visible="true" lat="44.11191685" lon="-72.85587182">
    <tag k="addr:city" v="Warren"/>
    <tag k="addr:housenumber" v="19"/>
    <tag k="addr:street" v="Fuller Hill Road"/>
    <tag k="addr:state" v="VT"/>
    <tag k="ref:vcgi:esiteid" v="271944"/>
  </node>
  <node id="-868" visible="true" lat="44.11177472" lon="-72.85398446">
    <tag k="addr:city" v="Warren"/>
    <tag k="addr:housenumber" v="133"/>
    <tag k="addr:street" v="Fuller Hill Road"/>
    <tag k="addr:state" v="VT"/>
    <tag k="ref:vcgi:esiteid" v="271950"/>
  </node>
  <node id="-869" visible="true" lat="44.1114189" lon="-72.85605404">
    <tag k="addr:city" v="Warren"/>
    <tag k="addr:housenumber" v="40"/>
    <tag k="addr:street" v="Fuller Hill Road"/>
    <tag k="addr:state" v="VT"/>
    <tag k="ref:vcgi:esiteid" v="271951"/>
  </node>
  <node id="-871" visible="true" lat="44.1114398" lon="-72.8566683">
    <tag k="addr:city" v="Warren"/>
    <tag k="addr:housenumber" v="508"/>
    <tag k="addr:street" v="Main Street"/>
    <tag k="addr:state" v="VT"/>
    <tag k="ref:vcgi:esiteid" v="271953"/>
  </node>
  <node id="-872" visible="true" lat="44.11142123" lon="-72.85218864">
    <tag k="addr:city" v="Warren"/>
    <tag k="addr:housenumber" v="191"/>
    <tag k="addr:street" v="Fuller Hill Road"/>
    <tag k="addr:state" v="VT"/>
    <tag k="ref:vcgi:esiteid" v="271954"/>
  </node>
  <node id="-875" visible="true" lat="44.11118212" lon="-72.82695707">
    <tag k="addr:city" v="Warren"/>
    <tag k="addr:housenumber" v="3146"/>
    <tag k="addr:street" v="Airport Road"/>
    <tag k="addr:state" v="VT"/>
    <tag k="ref:vcgi:esiteid" v="271958"/>
  </node>
  <node id="-878" visible="true" lat="44.11114364" lon="-72.85393636">
    <tag k="addr:city" v="Warren"/>
    <tag k="addr:housenumber" v="159"/>
    <tag k="addr:street" v="Fuller Hill Road"/>
    <tag k="addr:state" v="VT"/>
    <tag k="ref:vcgi:esiteid" v="271962"/>
  </node>
  <node id="-881" visible="true" lat="44.11098218" lon="-72.85648215">
    <tag k="addr:city" v="Warren"/>
    <tag k="addr:housenumber" v="499"/>
    <tag k="addr:street" v="Main Street"/>
    <tag k="addr:state" v="VT"/>
    <tag k="ref:vcgi:esiteid" v="271965"/>
  </node>
  <node id="-882" visible="true" lat="44.11083187" lon="-72.85640928">
    <tag k="addr:city" v="Warren"/>
    <tag k="addr:housenumber" v="501"/>
    <tag k="addr:street" v="Main Street"/>
    <tag k="addr:state" v="VT"/>
    <tag k="ref:vcgi:esiteid" v="271966"/>
  </node>
  <node id="-883" visible="true" lat="44.11071418" lon="-72.83183485">
    <tag k="addr:city" v="Warren"/>
    <tag k="addr:housenumber" v="130"/>
    <tag k="addr:street" v="Elliott Farm Road"/>
    <tag k="addr:state" v="VT"/>
    <tag k="ref:vcgi:esiteid" v="271967"/>
  </node>
  <node id="-886" visible="true" lat="44.11053067" lon="-72.85262595">
    <tag k="addr:city" v="Warren"/>
    <tag k="addr:housenumber" v="225"/>
    <tag k="addr:street" v="Fuller Hill Road"/>
    <tag k="addr:state" v="VT"/>
    <tag k="ref:vcgi:esiteid" v="271971"/>
  </node>
  <node id="-888" visible="true" lat="44.11029646" lon="-72.85696303">
    <tag k="addr:city" v="Warren"/>
    <tag k="addr:housenumber" v="580"/>
    <tag k="addr:street" v="Main Street"/>
    <tag k="addr:state" v="VT"/>
    <tag k="ref:vcgi:esiteid" v="271973"/>
  </node>
  <node id="-889" visible="true" lat="44.11032853" lon="-72.85440541">
    <tag k="addr:city" v="Warren"/>
    <tag k="addr:housenumber" v="118"/>
    <tag k="addr:street" v="Fuller Hill Road"/>
    <tag k="addr:state" v="VT"/>
    <tag k="ref:vcgi:esiteid" v="271974"/>
  </node>
  <node id="-890" visible="true" lat="44.11017248" lon="-72.85653296">
    <tag k="addr:city" v="Warren"/>
    <tag k="addr:housenumber" v="565"/>
    <tag k="addr:street" v="Main Street"/>
    <tag k="addr:state" v="VT"/>
    <tag k="ref:vcgi:esiteid" v="271975"/>
  </node>
  <node id="-892" visible="true" lat="44.11031399" lon="-72.81648021">
    <tag k="addr:city" v="Warren"/>
    <tag k="addr:housenumber" v="181"/>
    <tag k="addr:street" v="Roxbury Mountain Road"/>
    <tag k="addr:state" v="VT"/>
    <tag k="ref:vcgi:esiteid" v="271977"/>
  </node>
  <node id="-893" visible="true" lat="44.10994006" lon="-72.85317042">
    <tag k="addr:city" v="Warren"/>
    <tag k="addr:housenumber" v="212"/>
    <tag k="addr:street" v="Fuller Hill Road"/>
    <tag k="addr:state" v="VT"/>
    <tag k="ref:vcgi:esiteid" v="271978"/>
  </node>
  <node id="-895" visible="true" lat="44.10958498" lon="-72.85698413">
    <tag k="addr:city" v="Warren"/>
    <tag k="addr:housenumber" v="630"/>
    <tag k="addr:street" v="Main Street"/>
    <tag k="addr:state" v="VT"/>
    <tag k="ref:vcgi:esiteid" v="271981"/>
  </node>
  <node id="-896" visible="true" lat="44.10952794" lon="-72.85542281">
    <tag k="addr:city" v="Warren"/>
    <tag k="addr:housenumber" v="601"/>
    <tag k="addr:street" v="Main Street"/>
    <tag k="addr:state" v="VT"/>
    <tag k="ref:vcgi:esiteid" v="271982"/>
  </node>
  <node id="-899" visible="true" lat="44.10938618" lon="-72.85668701">
    <tag k="addr:city" v="Warren"/>
    <tag k="addr:housenumber" v="641"/>
    <tag k="addr:street" v="Main Street"/>
    <tag k="addr:state" v="VT"/>
    <tag k="ref:vcgi:esiteid" v="271985"/>
  </node>
  <node id="-900" visible="true" lat="44.10933605" lon="-72.82659628">
    <tag k="addr:city" v="Warren"/>
    <tag k="addr:housenumber" v="119"/>
    <tag k="addr:street" v="Potato Lane"/>
    <tag k="addr:state" v="VT"/>
    <tag k="ref:vcgi:esiteid" v="271986"/>
  </node>
  <node id="-906" visible="true" lat="44.10904331" lon="-72.81685588">
    <tag k="addr:city" v="Warren"/>
    <tag k="addr:housenumber" v="149"/>
    <tag k="addr:street" v="Roxbury Mountain Road"/>
    <tag k="addr:state" v="VT"/>
    <tag k="ref:vcgi:esiteid" v="271992"/>
  </node>
  <node id="-907" visible="true" lat="44.10877326" lon="-72.82921235">
    <tag k="addr:city" v="Warren"/>
    <tag k="addr:housenumber" v="209"/>
    <tag k="addr:street" v="Potato Lane"/>
    <tag k="addr:state" v="VT"/>
    <tag k="ref:vcgi:esiteid" v="271993"/>
  </node>
  <node id="-912" visible="true" lat="44.10883258" lon="-72.81999671">
    <tag k="addr:city" v="Warren"/>
    <tag k="addr:housenumber" v="2322"/>
    <tag k="addr:street" v="Brook Road"/>
    <tag k="addr:state" v="VT"/>
    <tag k="ref:vcgi:esiteid" v="271999"/>
  </node>
  <node id="-914" visible="true" lat="44.10873233" lon="-72.81779873">
    <tag k="addr:city" v="Warren"/>
    <tag k="addr:housenumber" v="108"/>
    <tag k="addr:street" v="Roxbury Mountain Road"/>
    <tag k="addr:state" v="VT"/>
    <tag k="ref:vcgi:esiteid" v="272001"/>
  </node>
  <node id="-917" visible="true" lat="44.10862878" lon="-72.82075197">
    <tag k="addr:city" v="Warren"/>
    <tag k="addr:housenumber" v="2285"/>
    <tag k="addr:street" v="Brook Road"/>
    <tag k="addr:state" v="VT"/>
    <tag k="ref:vcgi:esiteid" v="272004"/>
  </node>
  <node id="-1040" visible="true" lat="44.09726102" lon="-72.8268131">
    <tag k="addr:city" v="Warren"/>
    <tag k="addr:housenumber" v="424"/>
    <tag k="addr:street" v="Plunkton Road"/>
    <tag k="addr:state" v="VT"/>
    <tag k="ref:vcgi:esiteid" v="272134"/>
  </node>
  <node id="-1106" visible="true" lat="44.0889661" lon="-72.85039304">
    <tag k="addr:city" v="Warren"/>
    <tag k="addr:housenumber" v="497"/>
    <tag k="addr:street" v="Anne Burns Road"/>
    <tag k="addr:state" v="VT"/>
    <tag k="ref:vcgi:esiteid" v="272203"/>
  </node>
  <node id="-1110" visible="true" lat="44.08822717" lon="-72.8513268">
    <tag k="addr:city" v="Warren"/>
    <tag k="addr:housenumber" v="517"/>
    <tag k="addr:street" v="Anne Burns Road"/>
    <tag k="addr:state" v="VT"/>
    <tag k="ref:vcgi:esiteid" v="272208"/>
  </node>
  <node id="-1207" visible="true" lat="44.07084185" lon="-72.83751459">
    <tag k="addr:city" v="Warren"/>
    <tag k="addr:housenumber" v="187"/>
    <tag k="addr:street" v="Buck Road"/>
    <tag k="addr:state" v="VT"/>
    <tag k="ref:vcgi:esiteid" v="272308"/>
  </node>
  <node id="-1208" visible="true" lat="44.07081211" lon="-72.83668136">
    <tag k="addr:city" v="Warren"/>
    <tag k="addr:housenumber" v="584"/>
    <tag k="addr:street" v="Rabbit Road"/>
    <tag k="addr:state" v="VT"/>
    <tag k="ref:vcgi:esiteid" v="272309"/>
  </node>
  <node id="-1212" visible="true" lat="44.07040405" lon="-72.82314799">
    <tag k="addr:city" v="Warren"/>
    <tag k="addr:housenumber" v="1340"/>
    <tag k="addr:street" v="Prickly Mountain Road"/>
    <tag k="addr:state" v="VT"/>
    <tag k="ref:vcgi:esiteid" v="272313"/>
  </node>
  <node id="-1214" visible="true" lat="44.06985884" lon="-72.83874073">
    <tag k="addr:city" v="Warren"/>
    <tag k="addr:housenumber" v="260"/>
    <tag k="addr:street" v="Doe Road"/>
    <tag k="addr:state" v="VT"/>
    <tag k="ref:vcgi:esiteid" v="272315"/>
  </node>
  <node id="-1215" visible="true" lat="44.06997628" lon="-72.84012494">
    <tag k="addr:city" v="Warren"/>
    <tag k="addr:housenumber" v="308"/>
    <tag k="addr:street" v="Fawn Road"/>
    <tag k="addr:state" v="VT"/>
    <tag k="ref:vcgi:esiteid" v="272316"/>
  </node>
  <node id="-1217" visible="true" lat="44.06952025" lon="-72.82978671">
    <tag k="addr:city" v="Warren"/>
    <tag k="addr:housenumber" v="215"/>
    <tag k="addr:street" v="Pine Street"/>
    <tag k="addr:state" v="VT"/>
    <tag k="ref:vcgi:esiteid" v="272318"/>
  </node>
  <node id="-1218" visible="true" lat="44.06956477" lon="-72.83936478">
    <tag k="addr:city" v="Warren"/>
    <tag k="addr:housenumber" v="314"/>
    <tag k="addr:street" v="Fawn Road"/>
    <tag k="addr:state" v="VT"/>
    <tag k="ref:vcgi:esiteid" v="272319"/>
  </node>
  <node id="-1219" visible="true" lat="44.06923384" lon="-72.8329047">
    <tag k="addr:city" v="Warren"/>
    <tag k="addr:housenumber" v="57"/>
    <tag k="addr:street" v="Maple Street"/>
    <tag k="addr:state" v="VT"/>
    <tag k="ref:vcgi:esiteid" v="272320"/>
  </node>
  <node id="-1220" visible="true" lat="44.06891706" lon="-72.83554757">
    <tag k="addr:city" v="Warren"/>
    <tag k="addr:housenumber" v="34"/>
    <tag k="addr:street" v="Birch Street"/>
    <tag k="addr:state" v="VT"/>
    <tag k="ref:vcgi:esiteid" v="272321"/>
  </node>
  <node id="-1221" visible="true" lat="44.0690317" lon="-72.83657373">
    <tag k="addr:city" v="Warren"/>
    <tag k="addr:housenumber" v="467"/>
    <tag k="addr:street" v="Rabbit Road"/>
    <tag k="addr:state" v="VT"/>
    <tag k="ref:vcgi:esiteid" v="272323"/>
  </node>
  <node id="-1222" visible="true" lat="44.06872796" lon="-72.83226517">
    <tag k="addr:city" v="Warren"/>
    <tag k="addr:housenumber" v="98"/>
    <tag k="addr:street" v="Maple Street"/>
    <tag k="addr:state" v="VT"/>
    <tag k="ref:vcgi:esiteid" v="272324"/>
  </node>
  <node id="-1223" visible="true" lat="44.06871058" lon="-72.8298852">
    <tag k="addr:city" v="Warren"/>
    <tag k="addr:housenumber" v="231"/>
    <tag k="addr:street" v="Maple Street"/>
    <tag k="addr:state" v="VT"/>
    <tag k="ref:vcgi:esiteid" v="272326"/>
  </node>
  <node id="-1225" visible="true" lat="44.06830596" lon="-72.83397674">
    <tag k="addr:city" v="Warren"/>
    <tag k="addr:housenumber" v="2711"/>
    <tag k="addr:street" v="Plunkton Road"/>
    <tag k="addr:state" v="VT"/>
    <tag k="ref:vcgi:esiteid" v="272328"/>
  </node>
  <node id="-1226" visible="true" lat="44.06827155" lon="-72.82271819">
    <tag k="addr:city" v="Warren"/>
    <tag k="addr:housenumber" v="1444"/>
    <tag k="addr:street" v="Prickly Mountain Road"/>
    <tag k="addr:state" v="VT"/>
    <tag k="ref:vcgi:esiteid" v="272329"/>
  </node>
  <node id="-1227" visible="true" lat="44.068118" lon="-72.83508055">
    <tag k="addr:city" v="Warren"/>
    <tag k="addr:housenumber" v="70"/>
    <tag k="addr:street" v="Tamarack Street"/>
    <tag k="addr:state" v="VT"/>
    <tag k="ref:vcgi:esiteid" v="272330"/>
  </node>
  <node id="-1228" visible="true" lat="44.06796023" lon="-72.83317063">
    <tag k="addr:city" v="Warren"/>
    <tag k="addr:housenumber" v="155"/>
    <tag k="addr:street" v="Tamarack Street"/>
    <tag k="addr:state" v="VT"/>
    <tag k="ref:vcgi:esiteid" v="272331"/>
  </node>
  <node id="-1229" visible="true" lat="44.06801828" lon="-72.83359923">
    <tag k="addr:city" v="Warren"/>
    <tag k="addr:housenumber" v="141"/>
    <tag k="addr:street" v="Tamarack Street"/>
    <tag k="addr:state" v="VT"/>
    <tag k="ref:vcgi:esiteid" v="272332"/>
  </node>
  <node id="-1231" visible="true" lat="44.06790665" lon="-72.8355716">
    <tag k="addr:city" v="Warren"/>
    <tag k="addr:housenumber" v="27"/>
    <tag k="addr:street" v="Elm Street"/>
    <tag k="addr:state" v="VT"/>
    <tag k="ref:vcgi:esiteid" v="272334"/>
  </node>
  <node id="-1233" visible="true" lat="44.0675893" lon="-72.83299761">
    <tag k="addr:city" v="Warren"/>
    <tag k="addr:housenumber" v="172"/>
    <tag k="addr:street" v="Tamarack Street"/>
    <tag k="addr:state" v="VT"/>
    <tag k="ref:vcgi:esiteid" v="272336"/>
  </node>
  <node id="-1234" visible="true" lat="44.0677263" lon="-72.83506952">
    <tag k="addr:city" v="Warren"/>
    <tag k="addr:housenumber" v="55"/>
    <tag k="addr:street" v="Elm Street"/>
    <tag k="addr:state" v="VT"/>
    <tag k="ref:vcgi:esiteid" v="272337"/>
  </node>
  <node id="-1235" visible="true" lat="44.06759992" lon="-72.83430518">
    <tag k="addr:city" v="Warren"/>
    <tag k="addr:housenumber" v="103"/>
    <tag k="addr:street" v="Elm Street"/>
    <tag k="addr:state" v="VT"/>
    <tag k="ref:vcgi:esiteid" v="272338"/>
  </node>
  <node id="-1237" visible="true" lat="44.06731164" lon="-72.8306165">
    <tag k="addr:city" v="Warren"/>
    <tag k="addr:housenumber" v="291"/>
    <tag k="addr:street" v="Tamarack Street"/>
    <tag k="addr:state" v="VT"/>
    <tag k="ref:vcgi:esiteid" v="272340"/>
  </node>
  <node id="-1238" visible="true" lat="44.06730677" lon="-72.83595152">
    <tag k="addr:city" v="Warren"/>
    <tag k="addr:housenumber" v="13"/>
    <tag k="addr:street" v="Oak Street"/>
    <tag k="addr:state" v="VT"/>
    <tag k="ref:vcgi:esiteid" v="272341"/>
  </node>
  <node id="-1239" visible="true" lat="44.0669322" lon="-72.83348005">
    <tag k="addr:city" v="Warren"/>
    <tag k="addr:housenumber" v="144"/>
    <tag k="addr:street" v="Elm Street"/>
    <tag k="addr:state" v="VT"/>
    <tag k="ref:vcgi:esiteid" v="272342"/>
  </node>
  <node id="-1241" visible="true" lat="44.06696282" lon="-72.83420308">
    <tag k="addr:city" v="Warren"/>
    <tag k="addr:housenumber" v="2802"/>
    <tag k="addr:street" v="Plunkton Road"/>
    <tag k="addr:state" v="VT"/>
    <tag k="ref:vcgi:esiteid" v="272344"/>
  </node>
  <node id="-1242" visible="true" lat="44.0670792" lon="-72.83513674">
    <tag k="addr:city" v="Warren"/>
    <tag k="addr:housenumber" v="57"/>
    <tag k="addr:street" v="Oak Street"/>
    <tag k="addr:state" v="VT"/>
    <tag k="ref:vcgi:esiteid" v="272345"/>
  </node>
  <node id="-1243" visible="true" lat="44.06684547" lon="-72.82118369">
    <tag k="addr:city" v="Warren"/>
    <tag k="addr:housenumber" v="1559"/>
    <tag k="addr:street" v="Prickly Mountain Road"/>
    <tag k="addr:state" v="VT"/>
    <tag k="ref:vcgi:esiteid" v="272346"/>
  </node>
  <node id="-1251" visible="true" lat="44.06572519" lon="-72.82080603">
    <tag k="addr:city" v="Warren"/>
    <tag k="addr:housenumber" v="1715"/>
    <tag k="addr:street" v="Prickly Mountain Road"/>
    <tag k="addr:state" v="VT"/>
    <tag k="ref:vcgi:esiteid" v="272354"/>
  </node>
  <node id="-1255" visible="true" lat="44.06650316" lon="-72.82817098">
    <tag k="addr:city" v="Warren"/>
    <tag k="addr:housenumber" v="137"/>
    <tag k="addr:street" v="Circle Road"/>
    <tag k="addr:state" v="VT"/>
    <tag k="ref:vcgi:esiteid" v="272358"/>
  </node>
  <node id="-1259" visible="true" lat="44.06510298" lon="-72.8236906">
    <tag k="addr:city" v="Warren"/>
    <tag k="addr:housenumber" v="309"/>
    <tag k="addr:street" v="Chatfield Road"/>
    <tag k="addr:state" v="VT"/>
    <tag k="ref:vcgi:esiteid" v="272362"/>
  </node>
  <node id="-1260" visible="true" lat="44.06485467" lon="-72.82358843">
    <tag k="addr:city" v="Warren"/>
    <tag k="addr:housenumber" v="319"/>
    <tag k="addr:street" v="Chatfield Road"/>
    <tag k="addr:state" v="VT"/>
    <tag k="ref:vcgi:esiteid" v="272363"/>
  </node>
  <node id="-1264" visible="true" lat="44.0644459" lon="-72.82385366">
    <tag k="addr:city" v="Warren"/>
    <tag k="addr:housenumber" v="351"/>
    <tag k="addr:street" v="Chatfield Road"/>
    <tag k="addr:state" v="VT"/>
    <tag k="ref:vcgi:esiteid" v="272367"/>
  </node>
  <node id="-1266" visible="true" lat="44.06449423" lon="-72.82248837">
    <tag k="addr:city" v="Warren"/>
    <tag k="addr:housenumber" v="1752"/>
    <tag k="addr:street" v="Prickly Mountain Road"/>
    <tag k="addr:state" v="VT"/>
    <tag k="ref:vcgi:esiteid" v="272369"/>
  </node>
  <node id="-1267" visible="true" lat="44.06413354" lon="-72.82942297">
    <tag k="addr:city" v="Warren"/>
    <tag k="addr:housenumber" v="363"/>
    <tag k="addr:street" v="Willow Street"/>
    <tag k="addr:state" v="VT"/>
    <tag k="ref:vcgi:esiteid" v="272370"/>
  </node>
  <node id="-1268" visible="true" lat="44.06380039" lon="-72.82406562">
    <tag k="addr:city" v="Warren"/>
    <tag k="addr:housenumber" v="395"/>
    <tag k="addr:street" v="Chatfield Road"/>
    <tag k="addr:state" v="VT"/>
    <tag k="ref:vcgi:esiteid" v="272371"/>
  </node>
  <node id="-1270" visible="true" lat="44.06209457" lon="-72.82959747">
    <tag k="addr:city" v="Warren"/>
    <tag k="addr:housenumber" v="72"/>
    <tag k="addr:street" v="Lake Road"/>
    <tag k="addr:state" v="VT"/>
    <tag k="ref:vcgi:esiteid" v="272373"/>
  </node>
  <node id="-1271" visible="true" lat="44.0621505" lon="-72.8261606">
    <tag k="addr:city" v="Warren"/>
    <tag k="addr:housenumber" v="90"/>
    <tag k="addr:street" v="Chatfield Road"/>
    <tag k="addr:state" v="VT"/>
    <tag k="ref:vcgi:esiteid" v="272374"/>
  </node>
  <node id="-1279" visible="true" lat="44.11844147" lon="-72.81391624">
    <tag k="addr:city" v="Warren"/>
    <tag k="addr:housenumber" v="5241"/>
    <tag k="addr:street" v="East Warren Road"/>
    <tag k="addr:state" v="VT"/>
    <tag k="ref:vcgi:esiteid" v="272383"/>
  </node>
  <node id="-1286" visible="true" lat="44.1437662" lon="-72.8960046">
    <tag k="addr:city" v="Warren"/>
    <tag k="addr:housenumber" v="94"/>
    <tag k="addr:street" v="Village Run Drive"/>
    <tag k="addr:state" v="VT"/>
    <tag k="ref:vcgi:esiteid" v="272390"/>
  </node>
  <node id="-1306" visible="true" lat="44.11461976" lon="-72.85559525">
    <tag k="addr:city" v="Warren"/>
    <tag k="addr:housenumber" v="275"/>
    <tag k="addr:street" v="Main Street"/>
    <tag k="addr:state" v="VT"/>
    <tag k="ref:vcgi:esiteid" v="272414"/>
  </node>
  <node id="-1309" visible="true" lat="44.06882159" lon="-72.83781338">
    <tag k="addr:city" v="Warren"/>
    <tag k="addr:housenumber" v="110"/>
    <tag k="addr:street" v="Fern Road"/>
    <tag k="addr:state" v="VT"/>
    <tag k="ref:vcgi:esiteid" v="272417"/>
  </node>
  <node id="-1315" visible="true" lat="44.11708325" lon="-72.83781631">
    <tag k="addr:city" v="Warren"/>
    <tag k="addr:housenumber" v="685"/>
    <tag k="addr:street" v="Dump Road"/>
    <tag k="addr:state" v="VT"/>
    <tag k="ref:vcgi:esiteid" v="272424"/>
  </node>
  <node id="-1320" visible="true" lat="44.14279048" lon="-72.89859804">
    <tag k="addr:city" v="Warren"/>
    <tag k="addr:housenumber" v="401"/>
    <tag k="addr:street" v="Upper Village Road"/>
    <tag k="addr:state" v="VT"/>
    <tag k="ref:vcgi:esiteid" v="272430"/>
  </node>
  <node id="-1326" visible="true" lat="44.11938359" lon="-72.82226429">
    <tag k="addr:city" v="Warren"/>
    <tag k="addr:housenumber" v="565"/>
    <tag k="addr:street" v="Woods Road South"/>
    <tag k="addr:state" v="VT"/>
    <tag k="ref:vcgi:esiteid" v="272436"/>
  </node>
  <node id="-1329" visible="true" lat="44.06927133" lon="-72.82368086">
    <tag k="addr:city" v="Warren"/>
    <tag k="addr:housenumber" v="1408"/>
    <tag k="addr:street" v="Prickly Mountain Road"/>
    <tag k="addr:state" v="VT"/>
    <tag k="ref:vcgi:esiteid" v="272439"/>
  </node>
  <node id="-1335" visible="true" lat="44.11685605" lon="-72.83289076">
    <tag k="addr:city" v="Warren"/>
    <tag k="addr:housenumber" v="172"/>
    <tag k="addr:street" v="Old Orchard Way"/>
    <tag k="addr:state" v="VT"/>
    <tag k="ref:vcgi:esiteid" v="272447"/>
  </node>
  <node id="-1339" visible="true" lat="44.06403587" lon="-72.82878405">
    <tag k="addr:city" v="Warren"/>
    <tag k="addr:housenumber" v="401"/>
    <tag k="addr:street" v="Willow Street"/>
    <tag k="addr:state" v="VT"/>
    <tag k="ref:vcgi:esiteid" v="272451"/>
  </node>
  <node id="-1341" visible="true" lat="44.06263629" lon="-72.81732098">
    <tag k="addr:city" v="Warren"/>
    <tag k="addr:housenumber" v="330"/>
    <tag k="addr:street" v="Rice Mountain Road"/>
    <tag k="addr:state" v="VT"/>
    <tag k="ref:vcgi:esiteid" v="272453"/>
  </node>
  <node id="-1364" visible="true" lat="44.1398954" lon="-72.89244397">
    <tag k="addr:city" v="Warren"/>
    <tag k="addr:housenumber" v="155"/>
    <tag k="addr:street" v="Mountainside Drive"/>
    <tag k="addr:state" v="VT"/>
    <tag k="ref:vcgi:esiteid" v="272481"/>
  </node>
  <node id="-1365" visible="true" lat="44.14103914" lon="-72.89649368">
    <tag k="addr:city" v="Warren"/>
    <tag k="addr:housenumber" v="127"/>
    <tag k="addr:street" v="Upper Village Road"/>
    <tag k="addr:state" v="VT"/>
    <tag k="ref:vcgi:esiteid" v="272482"/>
  </node>
  <node id="-1386" visible="true" lat="44.11504308" lon="-72.830217">
    <tag k="addr:city" v="Warren"/>
    <tag k="addr:housenumber" v="2747"/>
    <tag k="addr:street" v="Airport Road"/>
    <tag k="addr:state" v="VT"/>
    <tag k="ref:vcgi:esiteid" v="272504"/>
  </node>
  <node id="-1387" visible="true" lat="44.11534593" lon="-72.82998863">
    <tag k="addr:city" v="Warren"/>
    <tag k="addr:housenumber" v="2723"/>
    <tag k="addr:street" v="Airport Road"/>
    <tag k="addr:state" v="VT"/>
    <tag k="ref:vcgi:esiteid" v="272505"/>
  </node>
  <node id="-1388" visible="true" lat="44.11563743" lon="-72.82977925">
    <tag k="addr:city" v="Warren"/>
    <tag k="addr:housenumber" v="2699"/>
    <tag k="addr:street" v="Airport Road"/>
    <tag k="addr:state" v="VT"/>
    <tag k="ref:vcgi:esiteid" v="272506"/>
  </node>
  <node id="-1389" visible="true" lat="44.11590925" lon="-72.82957722">
    <tag k="addr:city" v="Warren"/>
    <tag k="addr:housenumber" v="2677"/>
    <tag k="addr:street" v="Airport Road"/>
    <tag k="addr:state" v="VT"/>
    <tag k="ref:vcgi:esiteid" v="272507"/>
  </node>
  <node id="-1390" visible="true" lat="44.11618296" lon="-72.82933637">
    <tag k="addr:city" v="Warren"/>
    <tag k="addr:housenumber" v="2653"/>
    <tag k="addr:street" v="Airport Road"/>
    <tag k="addr:state" v="VT"/>
    <tag k="ref:vcgi:esiteid" v="272508"/>
  </node>
  <node id="-1397" visible="true" lat="44.10146466" lon="-72.89807812">
    <tag k="addr:city" v="Warren"/>
    <tag k="addr:housenumber" v="200"/>
    <tag k="addr:street" v="Orion Road"/>
    <tag k="addr:state" v="VT"/>
    <tag k="ref:vcgi:esiteid" v="272515"/>
  </node>
  <node id="-1404" visible="true" lat="44.11612642" lon="-72.84281731">
    <tag k="addr:city" v="Warren"/>
    <tag k="addr:housenumber" v="139"/>
    <tag k="addr:street" v="Otter Lane"/>
    <tag k="addr:state" v="VT"/>
    <tag k="ref:vcgi:esiteid" v="272522"/>
  </node>
  <node id="-1411" visible="true" lat="44.12179038" lon="-72.8528707">
    <tag k="addr:city" v="Warren"/>
    <tag k="addr:housenumber" v="95"/>
    <tag k="addr:street" v="Riverwatch Lane"/>
    <tag k="addr:state" v="VT"/>
    <tag k="ref:vcgi:esiteid" v="272529"/>
  </node>
  <node id="-1432" visible="true" lat="44.1158848" lon="-72.84354986">
    <tag k="addr:city" v="Warren"/>
    <tag k="addr:housenumber" v="149"/>
    <tag k="addr:street" v="Otter Lane"/>
    <tag k="addr:state" v="VT"/>
    <tag k="ref:vcgi:esiteid" v="272552"/>
  </node>
  <node id="-1433" visible="true" lat="44.11627189" lon="-72.84111701">
    <tag k="addr:city" v="Warren"/>
    <tag k="addr:housenumber" v="192"/>
    <tag k="addr:street" v="Otter Lane"/>
    <tag k="addr:state" v="VT"/>
    <tag k="ref:vcgi:esiteid" v="272553"/>
  </node>
  <node id="-1442" visible="true" lat="44.10972703" lon="-72.83086522">
    <tag k="addr:city" v="Warren"/>
    <tag k="addr:housenumber" v="113"/>
    <tag k="addr:street" v="Elliott Farm Road"/>
    <tag k="addr:state" v="VT"/>
    <tag k="ref:vcgi:esiteid" v="272562"/>
  </node>
  <node id="-1448" visible="true" lat="44.06333842" lon="-72.82897925">
    <tag k="addr:city" v="Warren"/>
    <tag k="addr:housenumber" v="289"/>
    <tag k="addr:street" v="Beech Street"/>
    <tag k="addr:state" v="VT"/>
    <tag k="ref:vcgi:esiteid" v="272568"/>
  </node>
  <node id="-1468" visible="true" lat="44.06635516" lon="-72.82317122">
    <tag k="addr:city" v="Warren"/>
    <tag k="addr:housenumber" v="1516"/>
    <tag k="addr:street" v="Prickly Mountain Road"/>
    <tag k="addr:state" v="VT"/>
    <tag k="ref:vcgi:esiteid" v="272590"/>
  </node>
  <node id="-1478" visible="true" lat="44.06472078" lon="-72.82880668">
    <tag k="addr:city" v="Warren"/>
    <tag k="addr:housenumber" v="35"/>
    <tag k="addr:street" v="Circle Road"/>
    <tag k="addr:state" v="VT"/>
    <tag k="ref:vcgi:esiteid" v="272601"/>
  </node>
  <node id="-1479" visible="true" lat="44.11416965" lon="-72.82643744">
    <tag k="addr:city" v="Warren"/>
    <tag k="addr:housenumber" v="200"/>
    <tag k="addr:street" v="Woods Road South"/>
    <tag k="addr:state" v="VT"/>
    <tag k="ref:vcgi:esiteid" v="272602"/>
  </node>
  <node id="-1486" visible="true" lat="44.11454788" lon="-72.8565432">
    <tag k="addr:city" v="Warren"/>
    <tag k="addr:housenumber" v="290"/>
    <tag k="addr:street" v="Main Street"/>
    <tag k="addr:state" v="VT"/>
    <tag k="ref:vcgi:esiteid" v="272609"/>
  </node>
  <node id="-1495" visible="true" lat="44.141958" lon="-72.89485714">
    <tag k="addr:city" v="Warren"/>
    <tag k="addr:housenumber" v="258"/>
    <tag k="addr:street" v="Upper Village Road"/>
    <tag k="addr:state" v="VT"/>
    <tag k="ref:vcgi:esiteid" v="272618"/>
  </node>
  <node id="-1509" visible="true" lat="44.06380249" lon="-72.82259676">
    <tag k="addr:city" v="Warren"/>
    <tag k="addr:housenumber" v="1804"/>
    <tag k="addr:street" v="Prickly Mountain Road"/>
    <tag k="addr:state" v="VT"/>
    <tag k="ref:vcgi:esiteid" v="272632"/>
  </node>
  <node id="-1510" visible="true" lat="44.14105304" lon="-72.89373852">
    <tag k="addr:city" v="Warren"/>
    <tag k="addr:housenumber" v="8"/>
    <tag k="addr:street" v="Upper Village Road"/>
    <tag k="addr:state" v="VT"/>
    <tag k="ref:vcgi:esiteid" v="272633"/>
  </node>
  <node id="-1512" visible="true" lat="44.14337795" lon="-72.89103765">
    <tag k="addr:city" v="Warren"/>
    <tag k="addr:housenumber" v="54"/>
    <tag k="addr:street" v="Tower Hill"/>
    <tag k="addr:state" v="VT"/>
    <tag k="ref:vcgi:esiteid" v="272635"/>
  </node>
  <node id="-1557" visible="true" lat="44.13605082" lon="-72.89438756">
    <tag k="addr:city" v="Warren"/>
    <tag k="addr:housenumber" v="102"/>
    <tag k="addr:street" v="Forest Drive"/>
    <tag k="addr:state" v="VT"/>
    <tag k="ref:vcgi:esiteid" v="307163"/>
  </node>
  <node id="-1558" visible="true" lat="44.14455443" lon="-72.89917135">
    <tag k="addr:city" v="Warren"/>
    <tag k="addr:housenumber" v="767"/>
    <tag k="addr:street" v="Upper Village Road"/>
    <tag k="addr:state" v="VT"/>
    <tag k="ref:vcgi:esiteid" v="307239"/>
  </node>
  <node id="-1567" visible="true" lat="44.12126596" lon="-72.81785938">
    <tag k="addr:city" v="Warren"/>
    <tag k="addr:housenumber" v="984"/>
    <tag k="addr:street" v="Woods Road South"/>
    <tag k="addr:state" v="VT"/>
    <tag k="ref:vcgi:esiteid" v="329248"/>
  </node>
  <node id="-1574" visible="true" lat="44.06361352" lon="-72.82796734">
    <tag k="addr:city" v="Warren"/>
    <tag k="addr:housenumber" v="132"/>
    <tag k="addr:street" v="Lake Road"/>
    <tag k="addr:state" v="VT"/>
    <tag k="ref:vcgi:esiteid" v="332943"/>
  </node>
  <node id="-1624" visible="true" lat="44.06330678" lon="-72.82139056">
    <tag k="addr:city" v="Warren"/>
    <tag k="addr:housenumber" v="1815"/>
    <tag k="addr:street" v="Prickly Mountain Road"/>
    <tag k="addr:state" v="VT"/>
    <tag k="ref:vcgi:esiteid" v="340701"/>
  </node>
  <node id="-1626" visible="true" lat="44.14804749" lon="-72.89786383">
    <tag k="addr:city" v="Warren"/>
    <tag k="addr:housenumber" v="929"/>
    <tag k="addr:street" v="Upper Village Road"/>
    <tag k="addr:state" v="VT"/>
    <tag k="ref:vcgi:esiteid" v="340703"/>
  </node>
  <node id="-1634" visible="true" lat="44.1178095" lon="-72.83502705">
    <tag k="addr:city" v="Warren"/>
    <tag k="addr:housenumber" v="296"/>
    <tag k="addr:street" v="Old Orchard Way"/>
    <tag k="addr:state" v="VT"/>
    <tag k="ref:vcgi:esiteid" v="345764"/>
  </node>
  <node id="-1650" visible="true" lat="44.13529759" lon="-72.90012442">
    <tag k="addr:city" v="Warren"/>
    <tag k="addr:housenumber" v="230"/>
    <tag k="addr:street" v="Gate House Lane"/>
    <tag k="addr:state" v="VT"/>
    <tag k="ref:vcgi:esiteid" v="451053"/>
  </node>
  <node id="-1651" visible="true" lat="44.11038514" lon="-72.85545298">
    <tag k="addr:city" v="Warren"/>
    <tag k="addr:housenumber" v="116"/>
    <tag k="addr:street" v="Fuller Hill Road"/>
    <tag k="addr:state" v="VT"/>
    <tag k="ref:vcgi:esiteid" v="451054"/>
  </node>
  <node id="-1653" visible="true" lat="44.14608572" lon="-72.89628492">
    <tag k="addr:city" v="Warren"/>
    <tag k="addr:housenumber" v="890"/>
    <tag k="addr:street" v="Upper Village Road"/>
    <tag k="addr:state" v="VT"/>
    <tag k="ref:vcgi:esiteid" v="451492"/>
  </node>
  <node id="-1655" visible="true" lat="44.1104066" lon="-72.85377396">
    <tag k="addr:city" v="Warren"/>
    <tag k="addr:housenumber" v="158"/>
    <tag k="addr:street" v="Fuller Hill Road"/>
    <tag k="addr:state" v="VT"/>
    <tag k="ref:vcgi:esiteid" v="451978"/>
  </node>
</osm>
