<?xml version="1.0" encoding="UTF-8"?>
<osm version="0.6" generator="JOSM">
  <node id="-101" visible="true" lat="44.12908936" lon="-72.44528198">
    <tag k="addr:city" v="Washington"/>
    <tag k="addr:housenumber" v="1528"/>
    <tag k="addr:street" v="Lowery Road"/>
    <tag k="addr:state" v="VT"/>
    <tag k="ref:vcgi:esiteid" v="272676"/>
  </node>
  <node id="-109" visible="true" lat="44.12714547" lon="-72.45094939">
    <tag k="addr:city" v="Washington"/>
    <tag k="addr:housenumber" v="483"/>
    <tag k="addr:street" v="Lambert Road"/>
    <tag k="addr:state" v="VT"/>
    <tag k="ref:vcgi:esiteid" v="272684"/>
  </node>
  <node id="-110" visible="true" lat="44.12693324" lon="-72.44988283">
    <tag k="addr:city" v="Washington"/>
    <tag k="addr:housenumber" v="437"/>
    <tag k="addr:street" v="Lambert Road"/>
    <tag k="addr:state" v="VT"/>
    <tag k="ref:vcgi:esiteid" v="272685"/>
  </node>
  <node id="-119" visible="true" lat="44.12144339" lon="-72.42251912">
    <tag k="addr:city" v="Washington"/>
    <tag k="addr:housenumber" v="725"/>
    <tag k="addr:street" v="Creamery Road"/>
    <tag k="addr:state" v="VT"/>
    <tag k="ref:vcgi:esiteid" v="272694"/>
  </node>
  <node id="-123" visible="true" lat="44.12070298" lon="-72.421214">
    <tag k="addr:city" v="Washington"/>
    <tag k="addr:housenumber" v="700"/>
    <tag k="addr:street" v="Creamery Road"/>
    <tag k="addr:state" v="VT"/>
    <tag k="ref:vcgi:esiteid" v="272698"/>
  </node>
  <node id="-124" visible="true" lat="44.12084973" lon="-72.4237967">
    <tag k="addr:city" v="Washington"/>
    <tag k="addr:housenumber" v="625"/>
    <tag k="addr:street" v="Creamery Road"/>
    <tag k="addr:state" v="VT"/>
    <tag k="ref:vcgi:esiteid" v="272699"/>
  </node>
  <node id="-132" visible="true" lat="44.11950683" lon="-72.42536163">
    <tag k="addr:city" v="Washington"/>
    <tag k="addr:housenumber" v="512"/>
    <tag k="addr:street" v="Creamery Road"/>
    <tag k="addr:state" v="VT"/>
    <tag k="ref:vcgi:esiteid" v="272707"/>
  </node>
  <node id="-138" visible="true" lat="44.11867915" lon="-72.42663442">
    <tag k="addr:city" v="Washington"/>
    <tag k="addr:housenumber" v="410"/>
    <tag k="addr:street" v="Creamery Road"/>
    <tag k="addr:state" v="VT"/>
    <tag k="ref:vcgi:esiteid" v="272713"/>
  </node>
  <node id="-139" visible="true" lat="44.11858913" lon="-72.41390019">
    <tag k="addr:city" v="Washington"/>
    <tag k="addr:housenumber" v="775"/>
    <tag k="addr:street" v="Morrie Road"/>
    <tag k="addr:state" v="VT"/>
    <tag k="ref:vcgi:esiteid" v="272714"/>
  </node>
  <node id="-141" visible="true" lat="44.11823075" lon="-72.4130428">
    <tag k="addr:city" v="Washington"/>
    <tag k="addr:housenumber" v="798"/>
    <tag k="addr:street" v="Morrie Road"/>
    <tag k="addr:state" v="VT"/>
    <tag k="ref:vcgi:esiteid" v="272716"/>
  </node>
  <node id="-145" visible="true" lat="44.1180725" lon="-72.42739105">
    <tag k="addr:city" v="Washington"/>
    <tag k="addr:housenumber" v="380"/>
    <tag k="addr:street" v="Creamery Road"/>
    <tag k="addr:state" v="VT"/>
    <tag k="ref:vcgi:esiteid" v="272720"/>
  </node>
  <node id="-150" visible="true" lat="44.11732774" lon="-72.43203986">
    <tag k="addr:city" v="Washington"/>
    <tag k="addr:housenumber" v="45"/>
    <tag k="addr:street" v="Creamery Road"/>
    <tag k="addr:state" v="VT"/>
    <tag k="ref:vcgi:esiteid" v="272725"/>
  </node>
  <node id="-153" visible="true" lat="44.11696624" lon="-72.43382263">
    <tag k="addr:city" v="Washington"/>
    <tag k="addr:housenumber" v="2611"/>
    <tag k="addr:street" v="Lowery Road"/>
    <tag k="addr:state" v="VT"/>
    <tag k="ref:vcgi:esiteid" v="272728"/>
  </node>
  <node id="-155" visible="true" lat="44.1166395" lon="-72.42875087">
    <tag k="addr:city" v="Washington"/>
    <tag k="addr:housenumber" v="270"/>
    <tag k="addr:street" v="Creamery Road"/>
    <tag k="addr:state" v="VT"/>
    <tag k="ref:vcgi:esiteid" v="272730"/>
  </node>
  <node id="-162" visible="true" lat="44.11592864" lon="-72.42978668">
    <tag k="addr:city" v="Washington"/>
    <tag k="addr:housenumber" v="198"/>
    <tag k="addr:street" v="Creamery Road"/>
    <tag k="addr:state" v="VT"/>
    <tag k="ref:vcgi:esiteid" v="272737"/>
  </node>
  <node id="-166" visible="true" lat="44.11415237" lon="-72.41683359">
    <tag k="addr:city" v="Washington"/>
    <tag k="addr:housenumber" v="446"/>
    <tag k="addr:street" v="Morrie Road"/>
    <tag k="addr:state" v="VT"/>
    <tag k="ref:vcgi:esiteid" v="272741"/>
  </node>
  <node id="-199" visible="true" lat="44.11183166" lon="-72.4215393">
    <tag k="addr:city" v="Washington"/>
    <tag k="addr:housenumber" v="183"/>
    <tag k="addr:street" v="Morrie Road"/>
    <tag k="addr:state" v="VT"/>
    <tag k="ref:vcgi:esiteid" v="272775"/>
  </node>
  <node id="-222" visible="true" lat="44.10869918" lon="-72.43641943">
    <tag k="addr:city" v="Washington"/>
    <tag k="addr:housenumber" v="50"/>
    <tag k="addr:street" v="Firehouse Road"/>
    <tag k="addr:state" v="VT"/>
    <tag k="ref:vcgi:esiteid" v="272798"/>
  </node>
  <node id="-223" visible="true" lat="44.10850524" lon="-72.42028045">
    <tag k="addr:city" v="Washington"/>
    <tag k="addr:housenumber" v="577"/>
    <tag k="addr:street" v="Woodchuck Hollow Road"/>
    <tag k="addr:state" v="VT"/>
    <tag k="ref:vcgi:esiteid" v="272799"/>
  </node>
  <node id="-225" visible="true" lat="44.10837173" lon="-72.42211151">
    <tag k="addr:city" v="Washington"/>
    <tag k="addr:housenumber" v="27"/>
    <tag k="addr:street" v="Morrie Road"/>
    <tag k="addr:state" v="VT"/>
    <tag k="ref:vcgi:esiteid" v="272801"/>
  </node>
  <node id="-226" visible="true" lat="44.10838826" lon="-72.41938847">
    <tag k="addr:city" v="Washington"/>
    <tag k="addr:housenumber" v="634"/>
    <tag k="addr:street" v="Woodchuck Hollow Road"/>
    <tag k="addr:state" v="VT"/>
    <tag k="ref:vcgi:esiteid" v="272802"/>
  </node>
  <node id="-228" visible="true" lat="44.10814911" lon="-72.41974846">
    <tag k="addr:city" v="Washington"/>
    <tag k="addr:housenumber" v="584"/>
    <tag k="addr:street" v="Woodchuck Hollow Road"/>
    <tag k="addr:state" v="VT"/>
    <tag k="ref:vcgi:esiteid" v="272804"/>
  </node>
  <node id="-229" visible="true" lat="44.10821151" lon="-72.41361236">
    <tag k="addr:city" v="Washington"/>
    <tag k="addr:housenumber" v="901"/>
    <tag k="addr:street" v="Woodchuck Hollow Road"/>
    <tag k="addr:state" v="VT"/>
    <tag k="ref:vcgi:esiteid" v="272805"/>
  </node>
  <node id="-233" visible="true" lat="44.10799408" lon="-72.40644073">
    <tag k="addr:city" v="Washington"/>
    <tag k="addr:housenumber" v="1351"/>
    <tag k="addr:street" v="Woodchuck Hollow Road"/>
    <tag k="addr:state" v="VT"/>
    <tag k="ref:vcgi:esiteid" v="272809"/>
  </node>
  <node id="-235" visible="true" lat="44.10785293" lon="-72.42157745">
    <tag k="addr:city" v="Washington"/>
    <tag k="addr:housenumber" v="499"/>
    <tag k="addr:street" v="Woodchuck Hollow Road"/>
    <tag k="addr:state" v="VT"/>
    <tag k="ref:vcgi:esiteid" v="272811"/>
  </node>
  <node id="-236" visible="true" lat="44.10797137" lon="-72.43450703">
    <tag k="addr:city" v="Washington"/>
    <tag k="addr:housenumber" v="44"/>
    <tag k="addr:street" v="Firehouse Road"/>
    <tag k="addr:state" v="VT"/>
    <tag k="ref:vcgi:esiteid" v="272812"/>
  </node>
  <node id="-237" visible="true" lat="44.10764312" lon="-72.41005706">
    <tag k="addr:city" v="Washington"/>
    <tag k="addr:housenumber" v="1157"/>
    <tag k="addr:street" v="Woodchuck Hollow Road"/>
    <tag k="addr:state" v="VT"/>
    <tag k="ref:vcgi:esiteid" v="272814"/>
  </node>
  <node id="-238" visible="true" lat="44.10765838" lon="-72.43518066">
    <tag k="addr:city" v="Washington"/>
    <tag k="addr:housenumber" v="48"/>
    <tag k="addr:street" v="Firehouse Road"/>
    <tag k="addr:state" v="VT"/>
    <tag k="ref:vcgi:esiteid" v="272815"/>
  </node>
  <node id="-243" visible="true" lat="44.10742568" lon="-72.41210174">
    <tag k="addr:city" v="Washington"/>
    <tag k="addr:housenumber" v="1009"/>
    <tag k="addr:street" v="Woodchuck Hollow Road"/>
    <tag k="addr:state" v="VT"/>
    <tag k="ref:vcgi:esiteid" v="272821"/>
  </node>
  <node id="-246" visible="true" lat="44.10716143" lon="-72.4345249">
    <tag k="addr:city" v="Washington"/>
    <tag k="addr:housenumber" v="79"/>
    <tag k="addr:street" v="Firehouse Road"/>
    <tag k="addr:state" v="VT"/>
    <tag k="ref:vcgi:esiteid" v="272825"/>
  </node>
  <node id="-250" visible="true" lat="44.10707855" lon="-72.41431427">
    <tag k="addr:city" v="Washington"/>
    <tag k="addr:housenumber" v="64"/>
    <tag k="addr:street" v="Davis Lane"/>
    <tag k="addr:state" v="VT"/>
    <tag k="ref:vcgi:esiteid" v="272829"/>
  </node>
  <node id="-251" visible="true" lat="44.10707092" lon="-72.41277313">
    <tag k="addr:city" v="Washington"/>
    <tag k="addr:housenumber" v="1008"/>
    <tag k="addr:street" v="Woodchuck Hollow Road"/>
    <tag k="addr:state" v="VT"/>
    <tag k="ref:vcgi:esiteid" v="272830"/>
  </node>
  <node id="-253" visible="true" lat="44.1070671" lon="-72.42992401">
    <tag k="addr:city" v="Washington"/>
    <tag k="addr:housenumber" v="73"/>
    <tag k="addr:street" v="Fairgrounds Road"/>
    <tag k="addr:state" v="VT"/>
    <tag k="ref:vcgi:esiteid" v="272832"/>
  </node>
  <node id="-259" visible="true" lat="44.10673904" lon="-72.42964172">
    <tag k="addr:city" v="Washington"/>
    <tag k="addr:housenumber" v="56"/>
    <tag k="addr:street" v="Fairgrounds Road"/>
    <tag k="addr:state" v="VT"/>
    <tag k="ref:vcgi:esiteid" v="272838"/>
  </node>
  <node id="-262" visible="true" lat="44.10663986" lon="-72.41082">
    <tag k="addr:city" v="Washington"/>
    <tag k="addr:housenumber" v="1093"/>
    <tag k="addr:street" v="Woodchuck Hollow Road"/>
    <tag k="addr:state" v="VT"/>
    <tag k="ref:vcgi:esiteid" v="272841"/>
  </node>
  <node id="-263" visible="true" lat="44.10662841" lon="-72.43045806">
    <tag k="addr:city" v="Washington"/>
    <tag k="addr:housenumber" v="33"/>
    <tag k="addr:street" v="Woodchuck Hollow Road"/>
    <tag k="addr:state" v="VT"/>
    <tag k="ref:vcgi:esiteid" v="272842"/>
  </node>
  <node id="-266" visible="true" lat="44.10671091" lon="-72.42684199">
    <tag k="addr:city" v="Washington"/>
    <tag k="addr:housenumber" v="205"/>
    <tag k="addr:street" v="Woodchuck Hollow Road"/>
    <tag k="addr:state" v="VT"/>
    <tag k="ref:vcgi:esiteid" v="272845"/>
  </node>
  <node id="-269" visible="true" lat="44.10648345" lon="-72.41150665">
    <tag k="addr:city" v="Washington"/>
    <tag k="addr:housenumber" v="1082"/>
    <tag k="addr:street" v="Woodchuck Hollow Road"/>
    <tag k="addr:state" v="VT"/>
    <tag k="ref:vcgi:esiteid" v="272848"/>
  </node>
  <node id="-273" visible="true" lat="44.10658719" lon="-72.42841659">
    <tag k="addr:city" v="Washington"/>
    <tag k="addr:housenumber" v="117"/>
    <tag k="addr:street" v="Woodchuck Hollow Road"/>
    <tag k="addr:state" v="VT"/>
    <tag k="ref:vcgi:esiteid" v="272852"/>
  </node>
  <node id="-275" visible="true" lat="44.10629653" lon="-72.40892791">
    <tag k="addr:city" v="Washington"/>
    <tag k="addr:housenumber" v="1196"/>
    <tag k="addr:street" v="Woodchuck Hollow Road"/>
    <tag k="addr:state" v="VT"/>
    <tag k="ref:vcgi:esiteid" v="272855"/>
  </node>
  <node id="-276" visible="true" lat="44.10627746" lon="-72.4303894">
    <tag k="addr:city" v="Washington"/>
    <tag k="addr:housenumber" v="31"/>
    <tag k="addr:street" v="Woodchuck Hollow Road"/>
    <tag k="addr:state" v="VT"/>
    <tag k="ref:vcgi:esiteid" v="272856"/>
  </node>
  <node id="-277" visible="true" lat="44.1062575" lon="-72.40168729">
    <tag k="addr:city" v="Washington"/>
    <tag k="addr:housenumber" v="1560"/>
    <tag k="addr:street" v="Woodchuck Hollow Road"/>
    <tag k="addr:state" v="VT"/>
    <tag k="ref:vcgi:esiteid" v="272857"/>
  </node>
  <node id="-279" visible="true" lat="44.10625839" lon="-72.4307022">
    <tag k="addr:city" v="Washington"/>
    <tag k="addr:housenumber" v="29"/>
    <tag k="addr:street" v="Woodchuck Hollow Road"/>
    <tag k="addr:state" v="VT"/>
    <tag k="ref:vcgi:esiteid" v="272859"/>
  </node>
  <node id="-280" visible="true" lat="44.10625076" lon="-72.42814636">
    <tag k="addr:city" v="Washington"/>
    <tag k="addr:housenumber" v="141"/>
    <tag k="addr:street" v="Woodchuck Hollow Road"/>
    <tag k="addr:state" v="VT"/>
    <tag k="ref:vcgi:esiteid" v="272860"/>
  </node>
  <node id="-281" visible="true" lat="44.10617446" lon="-72.4102478">
    <tag k="addr:city" v="Washington"/>
    <tag k="addr:housenumber" v="1128"/>
    <tag k="addr:street" v="Woodchuck Hollow Road"/>
    <tag k="addr:state" v="VT"/>
    <tag k="ref:vcgi:esiteid" v="272861"/>
  </node>
  <node id="-282" visible="true" lat="44.10621737" lon="-72.42898308">
    <tag k="addr:city" v="Washington"/>
    <tag k="addr:housenumber" v="93"/>
    <tag k="addr:street" v="Woodchuck Hollow Road"/>
    <tag k="addr:state" v="VT"/>
    <tag k="ref:vcgi:esiteid" v="272862"/>
  </node>
  <node id="-283" visible="true" lat="44.10612487" lon="-72.40419006">
    <tag k="addr:city" v="Washington"/>
    <tag k="addr:housenumber" v="1420"/>
    <tag k="addr:street" v="Woodchuck Hollow Road"/>
    <tag k="addr:state" v="VT"/>
    <tag k="ref:vcgi:esiteid" v="272863"/>
  </node>
  <node id="-284" visible="true" lat="44.10622917" lon="-72.3975319">
    <tag k="addr:city" v="Washington"/>
    <tag k="addr:housenumber" v="1801"/>
    <tag k="addr:street" v="Woodchuck Hollow Road"/>
    <tag k="addr:state" v="VT"/>
    <tag k="ref:vcgi:esiteid" v="272864"/>
  </node>
  <node id="-286" visible="true" lat="44.10612581" lon="-72.43175709">
    <tag k="addr:city" v="Washington"/>
    <tag k="addr:housenumber" v="41"/>
    <tag k="addr:street" v="West Corinth Road"/>
    <tag k="addr:state" v="VT"/>
    <tag k="ref:vcgi:esiteid" v="272866"/>
  </node>
  <node id="-288" visible="true" lat="44.10591401" lon="-72.40593749">
    <tag k="addr:city" v="Washington"/>
    <tag k="addr:housenumber" v="1324"/>
    <tag k="addr:street" v="Woodchuck Hollow Road"/>
    <tag k="addr:state" v="VT"/>
    <tag k="ref:vcgi:esiteid" v="272868"/>
  </node>
  <node id="-289" visible="true" lat="44.10602561" lon="-72.43006228">
    <tag k="addr:city" v="Washington"/>
    <tag k="addr:housenumber" v="39"/>
    <tag k="addr:street" v="Woodchuck Hollow Road"/>
    <tag k="addr:state" v="VT"/>
    <tag k="ref:vcgi:esiteid" v="272869"/>
  </node>
  <node id="-291" visible="true" lat="44.10591888" lon="-72.42874145">
    <tag k="addr:city" v="Washington"/>
    <tag k="addr:housenumber" v="110"/>
    <tag k="addr:street" v="Woodchuck Hollow Road"/>
    <tag k="addr:state" v="VT"/>
    <tag k="ref:vcgi:esiteid" v="272872"/>
  </node>
  <node id="-295" visible="true" lat="44.10577011" lon="-72.43144989">
    <tag k="addr:city" v="Washington"/>
    <tag k="addr:housenumber" v="64"/>
    <tag k="addr:street" v="West Corinth Road"/>
    <tag k="addr:state" v="VT"/>
    <tag k="ref:vcgi:esiteid" v="272877"/>
  </node>
  <node id="-296" visible="true" lat="44.10576248" lon="-72.42562866">
    <tag k="addr:city" v="Washington"/>
    <tag k="addr:housenumber" v="157"/>
    <tag k="addr:street" v="Vermette Lane"/>
    <tag k="addr:state" v="VT"/>
    <tag k="ref:vcgi:esiteid" v="272878"/>
  </node>
  <node id="-297" visible="true" lat="44.1057434" lon="-72.43208313">
    <tag k="addr:city" v="Washington"/>
    <tag k="addr:housenumber" v="32"/>
    <tag k="addr:street" v="West Corinth Road"/>
    <tag k="addr:state" v="VT"/>
    <tag k="ref:vcgi:esiteid" v="272879"/>
  </node>
  <node id="-298" visible="true" lat="44.10573196" lon="-72.42461395">
    <tag k="addr:city" v="Washington"/>
    <tag k="addr:housenumber" v="209"/>
    <tag k="addr:street" v="Vermette Lane"/>
    <tag k="addr:state" v="VT"/>
    <tag k="ref:vcgi:esiteid" v="272880"/>
  </node>
  <node id="-299" visible="true" lat="44.10567474" lon="-72.4303894">
    <tag k="addr:city" v="Washington"/>
    <tag k="addr:housenumber" v="16"/>
    <tag k="addr:street" v="Woodchuck Hollow Road"/>
    <tag k="addr:state" v="VT"/>
    <tag k="ref:vcgi:esiteid" v="272881"/>
  </node>
  <node id="-302" visible="true" lat="44.10564422" lon="-72.43097686">
    <tag k="addr:city" v="Washington"/>
    <tag k="addr:housenumber" v="116"/>
    <tag k="addr:street" v="West Corinth Road"/>
    <tag k="addr:state" v="VT"/>
    <tag k="ref:vcgi:esiteid" v="272884"/>
  </node>
  <node id="-303" visible="true" lat="44.10560226" lon="-72.42386627">
    <tag k="addr:city" v="Washington"/>
    <tag k="addr:housenumber" v="247"/>
    <tag k="addr:street" v="Vermette Lane"/>
    <tag k="addr:state" v="VT"/>
    <tag k="ref:vcgi:esiteid" v="272885"/>
  </node>
  <node id="-305" visible="true" lat="44.10548106" lon="-72.42673553">
    <tag k="addr:city" v="Washington"/>
    <tag k="addr:housenumber" v="111"/>
    <tag k="addr:street" v="Vermette Lane"/>
    <tag k="addr:state" v="VT"/>
    <tag k="ref:vcgi:esiteid" v="272887"/>
  </node>
  <node id="-307" visible="true" lat="44.10523223" lon="-72.4228363">
    <tag k="addr:city" v="Washington"/>
    <tag k="addr:housenumber" v="289"/>
    <tag k="addr:street" v="Vermette Lane"/>
    <tag k="addr:state" v="VT"/>
    <tag k="ref:vcgi:esiteid" v="272889"/>
  </node>
  <node id="-309" visible="true" lat="44.10521316" lon="-72.42571258">
    <tag k="addr:city" v="Washington"/>
    <tag k="addr:housenumber" v="106"/>
    <tag k="addr:street" v="Vermette Lane"/>
    <tag k="addr:state" v="VT"/>
    <tag k="ref:vcgi:esiteid" v="272891"/>
  </node>
  <node id="-312" visible="true" lat="44.10477447" lon="-72.42378997">
    <tag k="addr:city" v="Washington"/>
    <tag k="addr:housenumber" v="330"/>
    <tag k="addr:street" v="Vermette Lane"/>
    <tag k="addr:state" v="VT"/>
    <tag k="ref:vcgi:esiteid" v="272894"/>
  </node>
  <node id="-314" visible="true" lat="44.10479908" lon="-72.42701692">
    <tag k="addr:city" v="Washington"/>
    <tag k="addr:housenumber" v="53"/>
    <tag k="addr:street" v="Vermette Lane"/>
    <tag k="addr:state" v="VT"/>
    <tag k="ref:vcgi:esiteid" v="272896"/>
  </node>
  <node id="-316" visible="true" lat="44.10459637" lon="-72.42611919">
    <tag k="addr:city" v="Washington"/>
    <tag k="addr:housenumber" v="60"/>
    <tag k="addr:street" v="Vermette Lane"/>
    <tag k="addr:state" v="VT"/>
    <tag k="ref:vcgi:esiteid" v="272898"/>
  </node>
  <node id="-317" visible="true" lat="44.10426712" lon="-72.42803192">
    <tag k="addr:city" v="Washington"/>
    <tag k="addr:housenumber" v="273"/>
    <tag k="addr:street" v="West Corinth Road"/>
    <tag k="addr:state" v="VT"/>
    <tag k="ref:vcgi:esiteid" v="272899"/>
  </node>
  <node id="-318" visible="true" lat="44.10414123" lon="-72.42734527">
    <tag k="addr:city" v="Washington"/>
    <tag k="addr:housenumber" v="13"/>
    <tag k="addr:street" v="Vermette Lane"/>
    <tag k="addr:state" v="VT"/>
    <tag k="ref:vcgi:esiteid" v="272900"/>
  </node>
  <node id="-322" visible="true" lat="44.10358047" lon="-72.42624664">
    <tag k="addr:city" v="Washington"/>
    <tag k="addr:housenumber" v="373"/>
    <tag k="addr:street" v="West Corinth Road"/>
    <tag k="addr:state" v="VT"/>
    <tag k="ref:vcgi:esiteid" v="272905"/>
  </node>
  <node id="-323" visible="true" lat="44.10356275" lon="-72.42719102">
    <tag k="addr:city" v="Washington"/>
    <tag k="addr:housenumber" v="338"/>
    <tag k="addr:street" v="West Corinth Road"/>
    <tag k="addr:state" v="VT"/>
    <tag k="ref:vcgi:esiteid" v="272906"/>
  </node>
  <node id="-324" visible="true" lat="44.10350392" lon="-72.43587664">
    <tag k="addr:city" v="Washington"/>
    <tag k="addr:housenumber" v="42"/>
    <tag k="addr:street" v="Carrier Road East"/>
    <tag k="addr:state" v="VT"/>
    <tag k="ref:vcgi:esiteid" v="272907"/>
  </node>
  <node id="-332" visible="true" lat="44.10313415" lon="-72.42539215">
    <tag k="addr:city" v="Washington"/>
    <tag k="addr:housenumber" v="423"/>
    <tag k="addr:street" v="West Corinth Road"/>
    <tag k="addr:state" v="VT"/>
    <tag k="ref:vcgi:esiteid" v="272915"/>
  </node>
  <node id="-334" visible="true" lat="44.10322098" lon="-72.42354868">
    <tag k="addr:city" v="Washington"/>
    <tag k="addr:housenumber" v="449"/>
    <tag k="addr:street" v="Vermette Lane"/>
    <tag k="addr:state" v="VT"/>
    <tag k="ref:vcgi:esiteid" v="272917"/>
  </node>
  <node id="-337" visible="true" lat="44.10282598" lon="-72.42575583">
    <tag k="addr:city" v="Washington"/>
    <tag k="addr:housenumber" v="440"/>
    <tag k="addr:street" v="West Corinth Road"/>
    <tag k="addr:state" v="VT"/>
    <tag k="ref:vcgi:esiteid" v="272920"/>
  </node>
  <node id="-338" visible="true" lat="44.10250091" lon="-72.42477416">
    <tag k="addr:city" v="Washington"/>
    <tag k="addr:housenumber" v="477"/>
    <tag k="addr:street" v="West Corinth Road"/>
    <tag k="addr:state" v="VT"/>
    <tag k="ref:vcgi:esiteid" v="272921"/>
  </node>
  <node id="-342" visible="true" lat="44.10232925" lon="-72.42518615">
    <tag k="addr:city" v="Washington"/>
    <tag k="addr:housenumber" v="474"/>
    <tag k="addr:street" v="West Corinth Road"/>
    <tag k="addr:state" v="VT"/>
    <tag k="ref:vcgi:esiteid" v="272925"/>
  </node>
  <node id="-345" visible="true" lat="44.10216522" lon="-72.42384338">
    <tag k="addr:city" v="Washington"/>
    <tag k="addr:housenumber" v="505"/>
    <tag k="addr:street" v="Vermette Lane"/>
    <tag k="addr:state" v="VT"/>
    <tag k="ref:vcgi:esiteid" v="272928"/>
  </node>
  <node id="-346" visible="true" lat="44.10189056" lon="-72.42471313">
    <tag k="addr:city" v="Washington"/>
    <tag k="addr:housenumber" v="512"/>
    <tag k="addr:street" v="West Corinth Road"/>
    <tag k="addr:state" v="VT"/>
    <tag k="ref:vcgi:esiteid" v="272929"/>
  </node>
  <node id="-351" visible="true" lat="44.10148362" lon="-72.42451051">
    <tag k="addr:city" v="Washington"/>
    <tag k="addr:housenumber" v="530"/>
    <tag k="addr:street" v="West Corinth Road"/>
    <tag k="addr:state" v="VT"/>
    <tag k="ref:vcgi:esiteid" v="272934"/>
  </node>
  <node id="-352" visible="true" lat="44.10158286" lon="-72.44919175">
    <tag k="addr:city" v="Washington"/>
    <tag k="addr:housenumber" v="524"/>
    <tag k="addr:street" v="Macdonald Road"/>
    <tag k="addr:state" v="VT"/>
    <tag k="ref:vcgi:esiteid" v="272935"/>
  </node>
  <node id="-353" visible="true" lat="44.10145751" lon="-72.45093834">
    <tag k="addr:city" v="Washington"/>
    <tag k="addr:housenumber" v="624"/>
    <tag k="addr:street" v="Macdonald Road"/>
    <tag k="addr:state" v="VT"/>
    <tag k="ref:vcgi:esiteid" v="272936"/>
  </node>
  <node id="-355" visible="true" lat="44.1013298" lon="-72.45034027">
    <tag k="addr:city" v="Washington"/>
    <tag k="addr:housenumber" v="564"/>
    <tag k="addr:street" v="Macdonald Road"/>
    <tag k="addr:state" v="VT"/>
    <tag k="ref:vcgi:esiteid" v="272938"/>
  </node>
  <node id="-357" visible="true" lat="44.10116343" lon="-72.45315593">
    <tag k="addr:city" v="Washington"/>
    <tag k="addr:housenumber" v="696"/>
    <tag k="addr:street" v="Macdonald Road"/>
    <tag k="addr:state" v="VT"/>
    <tag k="ref:vcgi:esiteid" v="272940"/>
  </node>
  <node id="-366" visible="true" lat="44.09920883" lon="-72.42442321">
    <tag k="addr:city" v="Washington"/>
    <tag k="addr:housenumber" v="745"/>
    <tag k="addr:street" v="West Corinth Road"/>
    <tag k="addr:state" v="VT"/>
    <tag k="ref:vcgi:esiteid" v="272949"/>
  </node>
  <node id="-370" visible="true" lat="44.09809493" lon="-72.42007446">
    <tag k="addr:city" v="Washington"/>
    <tag k="addr:housenumber" v="171"/>
    <tag k="addr:street" v="Plumb Lane"/>
    <tag k="addr:state" v="VT"/>
    <tag k="ref:vcgi:esiteid" v="272953"/>
  </node>
  <node id="-373" visible="true" lat="44.0976448" lon="-72.37187194">
    <tag k="addr:city" v="Washington"/>
    <tag k="addr:housenumber" v="3519"/>
    <tag k="addr:street" v="Woodchuck Hollow Road"/>
    <tag k="addr:state" v="VT"/>
    <tag k="ref:vcgi:esiteid" v="272956"/>
  </node>
  <node id="-374" visible="true" lat="44.09751892" lon="-72.42147064">
    <tag k="addr:city" v="Washington"/>
    <tag k="addr:housenumber" v="95"/>
    <tag k="addr:street" v="Plumb Lane"/>
    <tag k="addr:state" v="VT"/>
    <tag k="ref:vcgi:esiteid" v="272957"/>
  </node>
  <node id="-377" visible="true" lat="44.0974121" lon="-72.42206573">
    <tag k="addr:city" v="Washington"/>
    <tag k="addr:housenumber" v="55"/>
    <tag k="addr:street" v="Plumb Lane"/>
    <tag k="addr:state" v="VT"/>
    <tag k="ref:vcgi:esiteid" v="272960"/>
  </node>
  <node id="-383" visible="true" lat="44.09589767" lon="-72.37055969">
    <tag k="addr:city" v="Washington"/>
    <tag k="addr:housenumber" v="3653"/>
    <tag k="addr:street" v="Woodchuck Hollow Road"/>
    <tag k="addr:state" v="VT"/>
    <tag k="ref:vcgi:esiteid" v="272966"/>
  </node>
  <node id="-386" visible="true" lat="44.09477029" lon="-72.34886931">
    <tag k="addr:city" v="Washington"/>
    <tag k="addr:housenumber" v="3961"/>
    <tag k="addr:street" v="East Orange Road"/>
    <tag k="addr:state" v="VT"/>
    <tag k="ref:vcgi:esiteid" v="272970"/>
  </node>
  <node id="-387" visible="true" lat="44.09451181" lon="-72.34818162">
    <tag k="addr:city" v="Washington"/>
    <tag k="addr:housenumber" v="3976"/>
    <tag k="addr:street" v="East Orange Road"/>
    <tag k="addr:state" v="VT"/>
    <tag k="ref:vcgi:esiteid" v="272971"/>
  </node>
  <node id="-388" visible="true" lat="44.09450531" lon="-72.3685379">
    <tag k="addr:city" v="Washington"/>
    <tag k="addr:housenumber" v="643"/>
    <tag k="addr:street" v="Notch Road"/>
    <tag k="addr:state" v="VT"/>
    <tag k="ref:vcgi:esiteid" v="272972"/>
  </node>
  <node id="-390" visible="true" lat="44.09392616" lon="-72.3491135">
    <tag k="addr:city" v="Washington"/>
    <tag k="addr:housenumber" v="3918"/>
    <tag k="addr:street" v="East Orange Road"/>
    <tag k="addr:state" v="VT"/>
    <tag k="ref:vcgi:esiteid" v="272974"/>
  </node>
  <node id="-394" visible="true" lat="44.09359878" lon="-72.35044988">
    <tag k="addr:city" v="Washington"/>
    <tag k="addr:housenumber" v="3841"/>
    <tag k="addr:street" v="East Orange Road"/>
    <tag k="addr:state" v="VT"/>
    <tag k="ref:vcgi:esiteid" v="272978"/>
  </node>
  <node id="-395" visible="true" lat="44.09354391" lon="-72.3497545">
    <tag k="addr:city" v="Washington"/>
    <tag k="addr:housenumber" v="3854"/>
    <tag k="addr:street" v="East Orange Road"/>
    <tag k="addr:state" v="VT"/>
    <tag k="ref:vcgi:esiteid" v="272979"/>
  </node>
  <node id="-396" visible="true" lat="44.09213332" lon="-72.35097103">
    <tag k="addr:city" v="Washington"/>
    <tag k="addr:housenumber" v="3754"/>
    <tag k="addr:street" v="East Orange Road"/>
    <tag k="addr:state" v="VT"/>
    <tag k="ref:vcgi:esiteid" v="272981"/>
  </node>
  <node id="-398" visible="true" lat="44.09167861" lon="-72.35211181">
    <tag k="addr:city" v="Washington"/>
    <tag k="addr:housenumber" v="3693"/>
    <tag k="addr:street" v="East Orange Road"/>
    <tag k="addr:state" v="VT"/>
    <tag k="ref:vcgi:esiteid" v="272983"/>
  </node>
  <node id="-400" visible="true" lat="44.09156417" lon="-72.4155426">
    <tag k="addr:city" v="Washington"/>
    <tag k="addr:housenumber" v="1474"/>
    <tag k="addr:street" v="West Corinth Road"/>
    <tag k="addr:state" v="VT"/>
    <tag k="ref:vcgi:esiteid" v="272985"/>
  </node>
  <node id="-402" visible="true" lat="44.09121322" lon="-72.41612243">
    <tag k="addr:city" v="Washington"/>
    <tag k="addr:housenumber" v="1490"/>
    <tag k="addr:street" v="West Corinth Road"/>
    <tag k="addr:state" v="VT"/>
    <tag k="ref:vcgi:esiteid" v="272987"/>
  </node>
  <node id="-403" visible="true" lat="44.09115218" lon="-72.41524505">
    <tag k="addr:city" v="Washington"/>
    <tag k="addr:housenumber" v="1506"/>
    <tag k="addr:street" v="West Corinth Road"/>
    <tag k="addr:state" v="VT"/>
    <tag k="ref:vcgi:esiteid" v="272988"/>
  </node>
  <node id="-404" visible="true" lat="44.09104538" lon="-72.3528366">
    <tag k="addr:city" v="Washington"/>
    <tag k="addr:housenumber" v="3639"/>
    <tag k="addr:street" v="East Orange Road"/>
    <tag k="addr:state" v="VT"/>
    <tag k="ref:vcgi:esiteid" v="272989"/>
  </node>
  <node id="-407" visible="true" lat="44.09043996" lon="-72.45956535">
    <tag k="addr:city" v="Washington"/>
    <tag k="addr:housenumber" v="42"/>
    <tag k="addr:street" v="Richardson Road"/>
    <tag k="addr:state" v="VT"/>
    <tag k="ref:vcgi:esiteid" v="272992"/>
  </node>
  <node id="-408" visible="true" lat="44.09014892" lon="-72.41156768">
    <tag k="addr:city" v="Washington"/>
    <tag k="addr:housenumber" v="1685"/>
    <tag k="addr:street" v="West Corinth Road"/>
    <tag k="addr:state" v="VT"/>
    <tag k="ref:vcgi:esiteid" v="272993"/>
  </node>
  <node id="-411" visible="true" lat="44.08958816" lon="-72.35603332">
    <tag k="addr:city" v="Washington"/>
    <tag k="addr:housenumber" v="3433"/>
    <tag k="addr:street" v="East Orange Road"/>
    <tag k="addr:state" v="VT"/>
    <tag k="ref:vcgi:esiteid" v="272996"/>
  </node>
  <node id="-412" visible="true" lat="44.08953476" lon="-72.4139328">
    <tag k="addr:city" v="Washington"/>
    <tag k="addr:housenumber" v="1634"/>
    <tag k="addr:street" v="West Corinth Road"/>
    <tag k="addr:state" v="VT"/>
    <tag k="ref:vcgi:esiteid" v="272997"/>
  </node>
  <node id="-416" visible="true" lat="44.08785231" lon="-72.41058258">
    <tag k="addr:city" v="Washington"/>
    <tag k="addr:housenumber" v="1849"/>
    <tag k="addr:street" v="West Corinth Road"/>
    <tag k="addr:state" v="VT"/>
    <tag k="ref:vcgi:esiteid" v="273001"/>
  </node>
  <node id="-417" visible="true" lat="44.08714675" lon="-72.40956878">
    <tag k="addr:city" v="Washington"/>
    <tag k="addr:housenumber" v="20"/>
    <tag k="addr:street" v="East Orange Road"/>
    <tag k="addr:state" v="VT"/>
    <tag k="ref:vcgi:esiteid" v="273003"/>
  </node>
  <node id="-418" visible="true" lat="44.08707434" lon="-72.41046793">
    <tag k="addr:city" v="Washington"/>
    <tag k="addr:housenumber" v="1876"/>
    <tag k="addr:street" v="West Corinth Road"/>
    <tag k="addr:state" v="VT"/>
    <tag k="ref:vcgi:esiteid" v="273004"/>
  </node>
  <node id="-421" visible="true" lat="44.08651351" lon="-72.41003418">
    <tag k="addr:city" v="Washington"/>
    <tag k="addr:housenumber" v="1928"/>
    <tag k="addr:street" v="West Corinth Road"/>
    <tag k="addr:state" v="VT"/>
    <tag k="ref:vcgi:esiteid" v="273007"/>
  </node>
  <node id="-425" visible="true" lat="44.08505249" lon="-72.46414184">
    <tag k="addr:city" v="Washington"/>
    <tag k="addr:housenumber" v="455"/>
    <tag k="addr:street" v="Richardson Road"/>
    <tag k="addr:state" v="VT"/>
    <tag k="ref:vcgi:esiteid" v="273011"/>
  </node>
  <node id="-426" visible="true" lat="44.08469574" lon="-72.40547153">
    <tag k="addr:city" v="Washington"/>
    <tag k="addr:housenumber" v="2007"/>
    <tag k="addr:street" v="West Corinth Road"/>
    <tag k="addr:state" v="VT"/>
    <tag k="ref:vcgi:esiteid" v="273012"/>
  </node>
  <node id="-427" visible="true" lat="44.08372361" lon="-72.40702487">
    <tag k="addr:city" v="Washington"/>
    <tag k="addr:housenumber" v="2181"/>
    <tag k="addr:street" v="West Corinth Road"/>
    <tag k="addr:state" v="VT"/>
    <tag k="ref:vcgi:esiteid" v="273013"/>
  </node>
  <node id="-429" visible="true" lat="44.08325576" lon="-72.40718078">
    <tag k="addr:city" v="Washington"/>
    <tag k="addr:housenumber" v="2195"/>
    <tag k="addr:street" v="West Corinth Road"/>
    <tag k="addr:state" v="VT"/>
    <tag k="ref:vcgi:esiteid" v="273015"/>
  </node>
  <node id="-431" visible="true" lat="44.08283233" lon="-72.40670013">
    <tag k="addr:city" v="Washington"/>
    <tag k="addr:housenumber" v="2231"/>
    <tag k="addr:street" v="West Corinth Road"/>
    <tag k="addr:state" v="VT"/>
    <tag k="ref:vcgi:esiteid" v="273017"/>
  </node>
  <node id="-433" visible="true" lat="44.08219405" lon="-72.40625925">
    <tag k="addr:city" v="Washington"/>
    <tag k="addr:housenumber" v="2297"/>
    <tag k="addr:street" v="West Corinth Road"/>
    <tag k="addr:state" v="VT"/>
    <tag k="ref:vcgi:esiteid" v="273019"/>
  </node>
  <node id="-441" visible="true" lat="44.07620875" lon="-72.39597647">
    <tag k="addr:city" v="Washington"/>
    <tag k="addr:housenumber" v="405"/>
    <tag k="addr:street" v="Dow Road"/>
    <tag k="addr:state" v="VT"/>
    <tag k="ref:vcgi:esiteid" v="273027"/>
  </node>
  <node id="-442" visible="true" lat="44.07600752" lon="-72.39771823">
    <tag k="addr:city" v="Washington"/>
    <tag k="addr:housenumber" v="321"/>
    <tag k="addr:street" v="Dow Road"/>
    <tag k="addr:state" v="VT"/>
    <tag k="ref:vcgi:esiteid" v="273028"/>
  </node>
  <node id="-443" visible="true" lat="44.07577105" lon="-72.40247409">
    <tag k="addr:city" v="Washington"/>
    <tag k="addr:housenumber" v="2765"/>
    <tag k="addr:street" v="West Corinth Road"/>
    <tag k="addr:state" v="VT"/>
    <tag k="ref:vcgi:esiteid" v="273029"/>
  </node>
  <node id="-444" visible="true" lat="44.0750885" lon="-72.40309905">
    <tag k="addr:city" v="Washington"/>
    <tag k="addr:housenumber" v="2806"/>
    <tag k="addr:street" v="West Corinth Road"/>
    <tag k="addr:state" v="VT"/>
    <tag k="ref:vcgi:esiteid" v="273030"/>
  </node>
  <node id="-445" visible="true" lat="44.07430453" lon="-72.39946096">
    <tag k="addr:city" v="Washington"/>
    <tag k="addr:housenumber" v="208"/>
    <tag k="addr:street" v="Dow Road"/>
    <tag k="addr:state" v="VT"/>
    <tag k="ref:vcgi:esiteid" v="273031"/>
  </node>
  <node id="-448" visible="true" lat="44.07334224" lon="-72.4022917">
    <tag k="addr:city" v="Washington"/>
    <tag k="addr:housenumber" v="56"/>
    <tag k="addr:street" v="Dow Road"/>
    <tag k="addr:state" v="VT"/>
    <tag k="ref:vcgi:esiteid" v="273034"/>
  </node>
  <node id="-452" visible="true" lat="44.06779298" lon="-72.48434687">
    <tag k="addr:city" v="Washington"/>
    <tag k="addr:housenumber" v="1325"/>
    <tag k="addr:street" v="Poor Farm Road"/>
    <tag k="addr:state" v="VT"/>
    <tag k="ref:vcgi:esiteid" v="273038"/>
  </node>
  <node id="-453" visible="true" lat="44.06723418" lon="-72.48395452">
    <tag k="addr:city" v="Washington"/>
    <tag k="addr:housenumber" v="1267"/>
    <tag k="addr:street" v="Poor Farm Road"/>
    <tag k="addr:state" v="VT"/>
    <tag k="ref:vcgi:esiteid" v="273039"/>
  </node>
  <node id="-456" visible="true" lat="44.06399618" lon="-72.46814257">
    <tag k="addr:city" v="Washington"/>
    <tag k="addr:housenumber" v="59"/>
    <tag k="addr:street" v="Tilton Road"/>
    <tag k="addr:state" v="VT"/>
    <tag k="ref:vcgi:esiteid" v="273042"/>
  </node>
  <node id="-466" visible="true" lat="44.05916976" lon="-72.39585876">
    <tag k="addr:city" v="Washington"/>
    <tag k="addr:housenumber" v="3985"/>
    <tag k="addr:street" v="West Corinth Road"/>
    <tag k="addr:state" v="VT"/>
    <tag k="ref:vcgi:esiteid" v="273052"/>
  </node>
  <node id="-480" visible="true" lat="44.05412292" lon="-72.39968109">
    <tag k="addr:city" v="Washington"/>
    <tag k="addr:housenumber" v="288"/>
    <tag k="addr:street" v="Scales Hill Road"/>
    <tag k="addr:state" v="VT"/>
    <tag k="ref:vcgi:esiteid" v="273066"/>
  </node>
  <node id="-486" visible="true" lat="44.05221176" lon="-72.47338867">
    <tag k="addr:city" v="Washington"/>
    <tag k="addr:housenumber" v="86"/>
    <tag k="addr:street" v="Poor Farm Road"/>
    <tag k="addr:state" v="VT"/>
    <tag k="ref:vcgi:esiteid" v="273072"/>
  </node>
  <node id="-493" visible="true" lat="44.04937001" lon="-72.47949634">
    <tag k="addr:city" v="Washington"/>
    <tag k="addr:housenumber" v="385"/>
    <tag k="addr:street" v="Williamstown Road"/>
    <tag k="addr:state" v="VT"/>
    <tag k="ref:vcgi:esiteid" v="273080"/>
  </node>
  <node id="-502" visible="true" lat="44.04553705" lon="-72.47495036">
    <tag k="addr:city" v="Washington"/>
    <tag k="addr:housenumber" v="13"/>
    <tag k="addr:street" v="Williamstown Road"/>
    <tag k="addr:state" v="VT"/>
    <tag k="ref:vcgi:esiteid" v="273089"/>
  </node>
  <node id="-510" visible="true" lat="44.04383468" lon="-72.39631652">
    <tag k="addr:city" v="Washington"/>
    <tag k="addr:housenumber" v="918"/>
    <tag k="addr:street" v="Scales Hill Road"/>
    <tag k="addr:state" v="VT"/>
    <tag k="ref:vcgi:esiteid" v="273097"/>
  </node>
  <node id="-515" visible="true" lat="44.03951953" lon="-72.39322009">
    <tag k="addr:city" v="Washington"/>
    <tag k="addr:housenumber" v="1248"/>
    <tag k="addr:street" v="Scales Hill Road"/>
    <tag k="addr:state" v="VT"/>
    <tag k="ref:vcgi:esiteid" v="273102"/>
  </node>
  <node id="-517" visible="true" lat="44.03821945" lon="-72.3920288">
    <tag k="addr:city" v="Washington"/>
    <tag k="addr:housenumber" v="1340"/>
    <tag k="addr:street" v="Scales Hill Road"/>
    <tag k="addr:state" v="VT"/>
    <tag k="ref:vcgi:esiteid" v="273104"/>
  </node>
  <node id="-519" visible="true" lat="44.03707885" lon="-72.39554595">
    <tag k="addr:city" v="Washington"/>
    <tag k="addr:housenumber" v="1638"/>
    <tag k="addr:street" v="Scales Hill Road"/>
    <tag k="addr:state" v="VT"/>
    <tag k="ref:vcgi:esiteid" v="273106"/>
  </node>
  <node id="-521" visible="true" lat="44.0369606" lon="-72.40190124">
    <tag k="addr:city" v="Washington"/>
    <tag k="addr:housenumber" v="1956"/>
    <tag k="addr:street" v="Scales Hill Road"/>
    <tag k="addr:state" v="VT"/>
    <tag k="ref:vcgi:esiteid" v="273108"/>
  </node>
  <node id="-522" visible="true" lat="44.03605558" lon="-72.39892635">
    <tag k="addr:city" v="Washington"/>
    <tag k="addr:housenumber" v="1847"/>
    <tag k="addr:street" v="Scales Hill Road"/>
    <tag k="addr:state" v="VT"/>
    <tag k="ref:vcgi:esiteid" v="273109"/>
  </node>
  <node id="-528" visible="true" lat="44.03302216" lon="-72.38233236">
    <tag k="addr:city" v="Washington"/>
    <tag k="addr:housenumber" v="364"/>
    <tag k="addr:street" v="Clermont Road"/>
    <tag k="addr:state" v="VT"/>
    <tag k="ref:vcgi:esiteid" v="273115"/>
  </node>
  <node id="-529" visible="true" lat="44.03275255" lon="-72.39049062">
    <tag k="addr:city" v="Washington"/>
    <tag k="addr:housenumber" v="320"/>
    <tag k="addr:street" v="Sargent Road North"/>
    <tag k="addr:state" v="VT"/>
    <tag k="ref:vcgi:esiteid" v="273116"/>
  </node>
  <node id="-532" visible="true" lat="44.03105064" lon="-72.37528752">
    <tag k="addr:city" v="Washington"/>
    <tag k="addr:housenumber" v="770"/>
    <tag k="addr:street" v="Clermont Road"/>
    <tag k="addr:state" v="VT"/>
    <tag k="ref:vcgi:esiteid" v="273119"/>
  </node>
  <node id="-538" visible="true" lat="44.03013621" lon="-72.39991177">
    <tag k="addr:city" v="Washington"/>
    <tag k="addr:housenumber" v="371"/>
    <tag k="addr:street" v="Sargent Road"/>
    <tag k="addr:state" v="VT"/>
    <tag k="ref:vcgi:esiteid" v="273125"/>
  </node>
  <node id="-541" visible="true" lat="44.0293045" lon="-72.41277313">
    <tag k="addr:city" v="Washington"/>
    <tag k="addr:housenumber" v="72"/>
    <tag k="addr:street" v="White Hill Road"/>
    <tag k="addr:state" v="VT"/>
    <tag k="ref:vcgi:esiteid" v="273128"/>
  </node>
  <node id="-542" visible="true" lat="44.02873147" lon="-72.39747393">
    <tag k="addr:city" v="Washington"/>
    <tag k="addr:housenumber" v="541"/>
    <tag k="addr:street" v="Sargent Road"/>
    <tag k="addr:state" v="VT"/>
    <tag k="ref:vcgi:esiteid" v="273130"/>
  </node>
  <node id="-546" visible="true" lat="44.02804614" lon="-72.40838275">
    <tag k="addr:city" v="Washington"/>
    <tag k="addr:housenumber" v="6"/>
    <tag k="addr:street" v="Sargent Road"/>
    <tag k="addr:state" v="VT"/>
    <tag k="ref:vcgi:esiteid" v="273134"/>
  </node>
  <node id="-547" visible="true" lat="44.02803304" lon="-72.41323832">
    <tag k="addr:city" v="Washington"/>
    <tag k="addr:housenumber" v="13"/>
    <tag k="addr:street" v="White Hill Road"/>
    <tag k="addr:state" v="VT"/>
    <tag k="ref:vcgi:esiteid" v="273135"/>
  </node>
  <node id="-552" visible="true" lat="44.02565383" lon="-72.42053985">
    <tag k="addr:city" v="Washington"/>
    <tag k="addr:housenumber" v="3240"/>
    <tag k="addr:street" v="Scales Hill Road"/>
    <tag k="addr:state" v="VT"/>
    <tag k="ref:vcgi:esiteid" v="273140"/>
  </node>
  <node id="-553" visible="true" lat="44.02513193" lon="-72.41869958">
    <tag k="addr:city" v="Washington"/>
    <tag k="addr:housenumber" v="3238"/>
    <tag k="addr:street" v="Scales Hill Road"/>
    <tag k="addr:state" v="VT"/>
    <tag k="ref:vcgi:esiteid" v="273141"/>
  </node>
  <node id="-554" visible="true" lat="44.02487182" lon="-72.41965484">
    <tag k="addr:city" v="Washington"/>
    <tag k="addr:housenumber" v="3258"/>
    <tag k="addr:street" v="Scales Hill Road"/>
    <tag k="addr:state" v="VT"/>
    <tag k="ref:vcgi:esiteid" v="273142"/>
  </node>
  <node id="-555" visible="true" lat="44.02374267" lon="-72.42174529">
    <tag k="addr:city" v="Washington"/>
    <tag k="addr:housenumber" v="3380"/>
    <tag k="addr:street" v="Scales Hill Road"/>
    <tag k="addr:state" v="VT"/>
    <tag k="ref:vcgi:esiteid" v="273143"/>
  </node>
  <node id="-562" visible="true" lat="44.1076622" lon="-72.43251037">
    <tag k="addr:city" v="Washington"/>
    <tag k="addr:housenumber" v="40"/>
    <tag k="addr:street" v="School Lane"/>
    <tag k="addr:state" v="VT"/>
    <tag k="ref:vcgi:esiteid" v="273150"/>
  </node>
  <node id="-567" visible="true" lat="44.06609151" lon="-72.36399976">
    <tag k="addr:city" v="Washington"/>
    <tag k="addr:housenumber" v="1999"/>
    <tag k="addr:street" v="Beaver Brook Road"/>
    <tag k="addr:state" v="VT"/>
    <tag k="ref:vcgi:esiteid" v="273156"/>
  </node>
  <node id="-571" visible="true" lat="44.06041066" lon="-72.42267741">
    <tag k="addr:city" v="Washington"/>
    <tag k="addr:housenumber" v="2100"/>
    <tag k="addr:street" v="Pepper Road"/>
    <tag k="addr:state" v="VT"/>
    <tag k="ref:vcgi:esiteid" v="273161"/>
  </node>
  <node id="-588" visible="true" lat="44.03505152" lon="-72.38837615">
    <tag k="addr:city" v="Washington"/>
    <tag k="addr:housenumber" v="121"/>
    <tag k="addr:street" v="Clermont Road"/>
    <tag k="addr:state" v="VT"/>
    <tag k="ref:vcgi:esiteid" v="273180"/>
  </node>
  <node id="-589" visible="true" lat="44.03415209" lon="-72.37768759">
    <tag k="addr:city" v="Washington"/>
    <tag k="addr:housenumber" v="616"/>
    <tag k="addr:street" v="Clermont Road"/>
    <tag k="addr:state" v="VT"/>
    <tag k="ref:vcgi:esiteid" v="273181"/>
  </node>
  <node id="-590" visible="true" lat="44.02584901" lon="-72.41792327">
    <tag k="addr:city" v="Washington"/>
    <tag k="addr:housenumber" v="3182"/>
    <tag k="addr:street" v="Scales Hill Road"/>
    <tag k="addr:state" v="VT"/>
    <tag k="ref:vcgi:esiteid" v="273182"/>
  </node>
  <node id="-591" visible="true" lat="44.06119885" lon="-72.41110908">
    <tag k="addr:city" v="Washington"/>
    <tag k="addr:housenumber" v="1000"/>
    <tag k="addr:street" v="Jail House Road"/>
    <tag k="addr:state" v="VT"/>
    <tag k="ref:vcgi:esiteid" v="273183"/>
  </node>
  <node id="-596" visible="true" lat="44.04549701" lon="-72.47507672">
    <tag k="addr:city" v="Washington"/>
    <tag k="addr:housenumber" v="15"/>
    <tag k="addr:street" v="Williamstown Road"/>
    <tag k="addr:state" v="VT"/>
    <tag k="ref:vcgi:esiteid" v="273189"/>
  </node>
  <node id="-599" visible="true" lat="44.12049255" lon="-72.42404318">
    <tag k="addr:city" v="Washington"/>
    <tag k="addr:housenumber" v="621"/>
    <tag k="addr:street" v="Creamery Road"/>
    <tag k="addr:state" v="VT"/>
    <tag k="ref:vcgi:esiteid" v="273192"/>
  </node>
  <node id="-601" visible="true" lat="44.08737297" lon="-72.41111166">
    <tag k="addr:city" v="Washington"/>
    <tag k="addr:housenumber" v="1850"/>
    <tag k="addr:street" v="West Corinth Road"/>
    <tag k="addr:state" v="VT"/>
    <tag k="ref:vcgi:esiteid" v="273194"/>
  </node>
  <node id="-602" visible="true" lat="44.04958124" lon="-72.38755679">
    <tag k="addr:city" v="Washington"/>
    <tag k="addr:housenumber" v="45"/>
    <tag k="addr:street" v="State Forest Road"/>
    <tag k="addr:state" v="VT"/>
    <tag k="ref:vcgi:esiteid" v="273195"/>
  </node>
  <node id="-605" visible="true" lat="44.05509888" lon="-72.39465374">
    <tag k="addr:city" v="Washington"/>
    <tag k="addr:housenumber" v="4301"/>
    <tag k="addr:street" v="West Corinth Road"/>
    <tag k="addr:state" v="VT"/>
    <tag k="ref:vcgi:esiteid" v="273198"/>
  </node>
  <node id="-611" visible="true" lat="44.10120931" lon="-72.45210968">
    <tag k="addr:city" v="Washington"/>
    <tag k="addr:housenumber" v="694"/>
    <tag k="addr:street" v="Macdonald Road"/>
    <tag k="addr:state" v="VT"/>
    <tag k="ref:vcgi:esiteid" v="273204"/>
  </node>
  <node id="-613" visible="true" lat="44.09558213" lon="-72.34879253">
    <tag k="addr:city" v="Washington"/>
    <tag k="addr:housenumber" v="75"/>
    <tag k="addr:street" v="Notch End Road"/>
    <tag k="addr:state" v="VT"/>
    <tag k="ref:vcgi:esiteid" v="273207"/>
  </node>
  <node id="-614" visible="true" lat="44.09567947" lon="-72.3523257">
    <tag k="addr:city" v="Washington"/>
    <tag k="addr:housenumber" v="209"/>
    <tag k="addr:street" v="Hutchinson Way"/>
    <tag k="addr:state" v="VT"/>
    <tag k="ref:vcgi:esiteid" v="273208"/>
  </node>
  <node id="-615" visible="true" lat="44.07900997" lon="-72.3611798">
    <tag k="addr:city" v="Washington"/>
    <tag k="addr:housenumber" v="630"/>
    <tag k="addr:street" v="Denton Road"/>
    <tag k="addr:state" v="VT"/>
    <tag k="ref:vcgi:esiteid" v="273210"/>
  </node>
  <node id="-616" visible="true" lat="44.05501304" lon="-72.47143678">
    <tag k="addr:city" v="Washington"/>
    <tag k="addr:housenumber" v="130"/>
    <tag k="addr:street" v="Poor Farm Road"/>
    <tag k="addr:state" v="VT"/>
    <tag k="ref:vcgi:esiteid" v="273211"/>
  </node>
  <node id="-617" visible="true" lat="44.05137391" lon="-72.3773208">
    <tag k="addr:city" v="Washington"/>
    <tag k="addr:housenumber" v="5325"/>
    <tag k="addr:street" v="West Corinth Road"/>
    <tag k="addr:state" v="VT"/>
    <tag k="ref:vcgi:esiteid" v="273212"/>
  </node>
  <node id="-618" visible="true" lat="44.04772766" lon="-72.477644">
    <tag k="addr:city" v="Washington"/>
    <tag k="addr:housenumber" v="175"/>
    <tag k="addr:street" v="Williamstown Road"/>
    <tag k="addr:state" v="VT"/>
    <tag k="ref:vcgi:esiteid" v="273213"/>
  </node>
  <node id="-620" visible="true" lat="44.09864147" lon="-72.42307742">
    <tag k="addr:city" v="Washington"/>
    <tag k="addr:housenumber" v="799"/>
    <tag k="addr:street" v="West Corinth Road"/>
    <tag k="addr:state" v="VT"/>
    <tag k="ref:vcgi:esiteid" v="305672"/>
  </node>
  <node id="-628" visible="true" lat="44.08739249" lon="-72.39975307">
    <tag k="addr:city" v="Washington"/>
    <tag k="addr:housenumber" v="472"/>
    <tag k="addr:street" v="East Orange Road"/>
    <tag k="addr:state" v="VT"/>
    <tag k="ref:vcgi:esiteid" v="310004"/>
  </node>
  <node id="-633" visible="true" lat="44.09344733" lon="-72.35154562">
    <tag k="addr:city" v="Washington"/>
    <tag k="addr:housenumber" v="51"/>
    <tag k="addr:street" v="Hutchinson Way"/>
    <tag k="addr:state" v="VT"/>
    <tag k="ref:vcgi:esiteid" v="310009"/>
  </node>
  <node id="-634" visible="true" lat="44.09552977" lon="-72.35232963">
    <tag k="addr:city" v="Washington"/>
    <tag k="addr:housenumber" v="233"/>
    <tag k="addr:street" v="Hutchinson Way"/>
    <tag k="addr:state" v="VT"/>
    <tag k="ref:vcgi:esiteid" v="310010"/>
  </node>
  <node id="-639" visible="true" lat="44.11597677" lon="-72.43446348">
    <tag k="addr:city" v="Washington"/>
    <tag k="addr:housenumber" v="2544"/>
    <tag k="addr:street" v="Lowery Road"/>
    <tag k="addr:state" v="VT"/>
    <tag k="ref:vcgi:esiteid" v="310016"/>
  </node>
  <node id="-641" visible="true" lat="44.10283627" lon="-72.42802884">
    <tag k="addr:city" v="Washington"/>
    <tag k="addr:housenumber" v="272"/>
    <tag k="addr:street" v="West Corinth Road"/>
    <tag k="addr:state" v="VT"/>
    <tag k="ref:vcgi:esiteid" v="310018"/>
  </node>
  <node id="-643" visible="true" lat="44.07760231" lon="-72.403557">
    <tag k="addr:city" v="Washington"/>
    <tag k="addr:housenumber" v="2619"/>
    <tag k="addr:street" v="West Corinth Road"/>
    <tag k="addr:state" v="VT"/>
    <tag k="ref:vcgi:esiteid" v="310020"/>
  </node>
  <node id="-644" visible="true" lat="44.06428332" lon="-72.43111747">
    <tag k="addr:city" v="Washington"/>
    <tag k="addr:housenumber" v="2892"/>
    <tag k="addr:street" v="Hart Hollow Road"/>
    <tag k="addr:state" v="VT"/>
    <tag k="ref:vcgi:esiteid" v="310021"/>
  </node>
  <node id="-652" visible="true" lat="44.10104353" lon="-72.44882599">
    <tag k="addr:city" v="Washington"/>
    <tag k="addr:housenumber" v="487"/>
    <tag k="addr:street" v="Macdonald Road"/>
    <tag k="addr:state" v="VT"/>
    <tag k="ref:vcgi:esiteid" v="310029"/>
  </node>
  <node id="-653" visible="true" lat="44.09454054" lon="-72.47294113">
    <tag k="addr:city" v="Washington"/>
    <tag k="addr:housenumber" v="450"/>
    <tag k="addr:street" v="Poor Farm Road"/>
    <tag k="addr:state" v="VT"/>
    <tag k="ref:vcgi:esiteid" v="310030"/>
  </node>
  <node id="-655" visible="true" lat="44.10284084" lon="-72.43796057">
    <tag k="addr:city" v="Washington"/>
    <tag k="addr:housenumber" v="107"/>
    <tag k="addr:street" v="Carrier Road East"/>
    <tag k="addr:state" v="VT"/>
    <tag k="ref:vcgi:esiteid" v="310032"/>
  </node>
  <node id="-660" visible="true" lat="44.09655159" lon="-72.35063037">
    <tag k="addr:city" v="Washington"/>
    <tag k="addr:housenumber" v="195"/>
    <tag k="addr:street" v="Notch End Road"/>
    <tag k="addr:state" v="VT"/>
    <tag k="ref:vcgi:esiteid" v="315471"/>
  </node>
  <node id="-661" visible="true" lat="44.12301006" lon="-72.43989566">
    <tag k="addr:city" v="Washington"/>
    <tag k="addr:housenumber" v="2053"/>
    <tag k="addr:street" v="Lowery Road"/>
    <tag k="addr:state" v="VT"/>
    <tag k="ref:vcgi:esiteid" v="316740"/>
  </node>
  <node id="-666" visible="true" lat="44.09909194" lon="-72.42192334">
    <tag k="addr:city" v="Washington"/>
    <tag k="addr:housenumber" v="21"/>
    <tag k="addr:street" v="Plumb Lane"/>
    <tag k="addr:state" v="VT"/>
    <tag k="ref:vcgi:esiteid" v="345622"/>
  </node>
  <node id="-669" visible="true" lat="44.09713808" lon="-72.41980814">
    <tag k="addr:city" v="Washington"/>
    <tag k="addr:housenumber" v="108"/>
    <tag k="addr:street" v="Plumb Lane"/>
    <tag k="addr:state" v="VT"/>
    <tag k="ref:vcgi:esiteid" v="445438"/>
  </node>
  <node id="-671" visible="true" lat="44.10341222" lon="-72.42986656">
    <tag k="addr:city" v="Washington"/>
    <tag k="addr:housenumber" v="160"/>
    <tag k="addr:street" v="West Corinth Road"/>
    <tag k="addr:state" v="VT"/>
    <tag k="ref:vcgi:esiteid" v="446975"/>
  </node>
  <node id="-672" visible="true" lat="44.0999068" lon="-72.42362029">
    <tag k="addr:city" v="Washington"/>
    <tag k="addr:housenumber" v="661"/>
    <tag k="addr:street" v="West Corinth Road"/>
    <tag k="addr:state" v="VT"/>
    <tag k="ref:vcgi:esiteid" v="446976"/>
  </node>
  <node id="-673" visible="true" lat="44.10132849" lon="-72.4237176">
    <tag k="addr:city" v="Washington"/>
    <tag k="addr:housenumber" v="565"/>
    <tag k="addr:street" v="West Corinth Road"/>
    <tag k="addr:state" v="VT"/>
    <tag k="ref:vcgi:esiteid" v="446977"/>
  </node>
  <node id="-675" visible="true" lat="44.06373716" lon="-72.46888365">
    <tag k="addr:city" v="Washington"/>
    <tag k="addr:housenumber" v="77"/>
    <tag k="addr:street" v="Tilton Road"/>
    <tag k="addr:state" v="VT"/>
    <tag k="ref:vcgi:esiteid" v="447073"/>
  </node>
  <node id="-681" visible="true" lat="44.12709697" lon="-72.45051367">
    <tag k="addr:city" v="Washington"/>
    <tag k="addr:housenumber" v="449"/>
    <tag k="addr:street" v="Lambert Road"/>
    <tag k="addr:state" v="VT"/>
    <tag k="ref:vcgi:esiteid" v="447079"/>
  </node>
  <node id="-686" visible="true" lat="44.10614318" lon="-72.42635951">
    <tag k="addr:city" v="Washington"/>
    <tag k="addr:housenumber" v="228"/>
    <tag k="addr:street" v="Woodchuck Hollow Road"/>
    <tag k="addr:state" v="VT"/>
    <tag k="ref:vcgi:esiteid" v="447090"/>
  </node>
  <node id="-696" visible="true" lat="44.03491549" lon="-72.3914732">
    <tag k="addr:city" v="Washington"/>
    <tag k="addr:housenumber" v="196"/>
    <tag k="addr:street" v="Sargent Road North"/>
    <tag k="addr:state" v="VT"/>
    <tag k="ref:vcgi:esiteid" v="450631"/>
  </node>
  <node id="-699" visible="true" lat="44.0282169" lon="-72.41491776">
    <tag k="addr:city" v="Washington"/>
    <tag k="addr:housenumber" v="3030"/>
    <tag k="addr:street" v="Scales Hill Road"/>
    <tag k="addr:state" v="VT"/>
    <tag k="ref:vcgi:esiteid" v="451970"/>
  </node>
  <node id="-705" visible="true" lat="44.09669902" lon="-72.43524238">
    <tag k="addr:city" v="Washington"/>
    <tag k="addr:housenumber" v="488"/>
    <tag k="addr:street" v="Turnpike Road"/>
    <tag k="addr:state" v="VT"/>
    <tag k="ref:vcgi:esiteid" v="452693"/>
  </node>
  <node id="-706" visible="true" lat="44.07689551" lon="-72.39629094">
    <tag k="addr:city" v="Washington"/>
    <tag k="addr:housenumber" v="231"/>
    <tag k="addr:street" v="Blood Mountain Road"/>
    <tag k="addr:state" v="VT"/>
    <tag k="ref:vcgi:esiteid" v="453007"/>
  </node>
  <node id="-707" visible="true" lat="44.07664468" lon="-72.39541604">
    <tag k="addr:city" v="Washington"/>
    <tag k="addr:housenumber" v="149"/>
    <tag k="addr:street" v="Blood Mountain Road"/>
    <tag k="addr:state" v="VT"/>
    <tag k="ref:vcgi:esiteid" v="453008"/>
  </node>
  <node id="-708" visible="true" lat="44.07677226" lon="-72.39495338">
    <tag k="addr:city" v="Washington"/>
    <tag k="addr:housenumber" v="103"/>
    <tag k="addr:street" v="Blood Mountain Road"/>
    <tag k="addr:state" v="VT"/>
    <tag k="ref:vcgi:esiteid" v="453009"/>
  </node>
  <node id="-712" visible="true" lat="44.10564545" lon="-72.43999045">
    <tag k="addr:city" v="Washington"/>
    <tag k="addr:housenumber" v="128"/>
    <tag k="addr:street" v="Carrier Road"/>
    <tag k="addr:state" v="VT"/>
    <tag k="ref:vcgi:esiteid" v="453623"/>
  </node>
  <node id="-714" visible="true" lat="44.03627849" lon="-72.40020215">
    <tag k="addr:city" v="Washington"/>
    <tag k="addr:housenumber" v="1863"/>
    <tag k="addr:street" v="Scales Hill Road"/>
    <tag k="addr:state" v="VT"/>
    <tag k="ref:vcgi:esiteid" v="454238"/>
  </node>
  <node id="-726" visible="true" lat="44.08627793" lon="-72.46242193">
    <tag k="addr:city" v="Washington"/>
    <tag k="addr:housenumber" v="273"/>
    <tag k="addr:street" v="Richardson Road"/>
    <tag k="addr:state" v="VT"/>
    <tag k="ref:vcgi:esiteid" v="612826"/>
  </node>
  <node id="-728" visible="true" lat="44.10060463" lon="-72.45148483">
    <tag k="addr:city" v="Washington"/>
    <tag k="addr:housenumber" v="661"/>
    <tag k="addr:street" v="Macdonald Road"/>
    <tag k="addr:state" v="VT"/>
    <tag k="ref:vcgi:esiteid" v="614604"/>
  </node>
  <node id="-732" visible="true" lat="44.08778427" lon="-72.35736162">
    <tag k="addr:city" v="Washington"/>
    <tag k="addr:housenumber" v="95"/>
    <tag k="addr:street" v="Denton Road"/>
    <tag k="addr:state" v="VT"/>
    <tag k="ref:vcgi:esiteid" v="750477"/>
  </node>
</osm>
