<?xml version="1.0" encoding="UTF-8"?>
<osm version="0.6" generator="JOSM">
  <node id="-104" visible="true" lat="44.7526317" lon="-72.74676074">
    <tag k="addr:housenumber" v="21"/>
    <tag k="addr:street" v="Rogers Road"/>
    <tag k="addr:state" v="VT"/>
    <tag k="ref:vcgi:esiteid" v="276004"/>
  </node>
  <node id="-105" visible="true" lat="44.75232551" lon="-72.74517689">
    <tag k="addr:housenumber" v="1244"/>
    <tag k="addr:street" v="Smithville Road"/>
    <tag k="addr:state" v="VT"/>
    <tag k="ref:vcgi:esiteid" v="276005"/>
  </node>
  <node id="-120" visible="true" lat="44.73739063" lon="-72.74489987">
    <tag k="addr:housenumber" v="65"/>
    <tag k="addr:street" v="Smithville Road"/>
    <tag k="addr:state" v="VT"/>
    <tag k="ref:vcgi:esiteid" v="276020"/>
  </node>
  <node id="-144" visible="true" lat="44.72685455" lon="-72.74841009">
    <tag k="addr:housenumber" v="3414"/>
    <tag k="addr:street" v="Vermont Route 109"/>
    <tag k="addr:state" v="VT"/>
    <tag k="ref:vcgi:esiteid" v="276044"/>
  </node>
  <node id="-215" visible="true" lat="44.70953005" lon="-72.71609498">
    <tag k="addr:housenumber" v="2233"/>
    <tag k="addr:street" v="Codding Hollow Road"/>
    <tag k="addr:state" v="VT"/>
    <tag k="ref:vcgi:esiteid" v="276116"/>
  </node>
  <node id="-276" visible="true" lat="44.69381724" lon="-72.76562727">
    <tag k="addr:housenumber" v="46"/>
    <tag k="addr:street" v="Beals Hill Road"/>
    <tag k="addr:state" v="VT"/>
    <tag k="ref:vcgi:esiteid" v="276178"/>
  </node>
  <node id="-299" visible="true" lat="44.69035831" lon="-72.77046715">
    <tag k="addr:housenumber" v="58"/>
    <tag k="addr:street" v="Church Street"/>
    <tag k="addr:state" v="VT"/>
    <tag k="ref:vcgi:esiteid" v="276201"/>
  </node>
  <node id="-300" visible="true" lat="44.6904242" lon="-72.7701528">
    <tag k="addr:housenumber" v="36"/>
    <tag k="addr:street" v="Church Street"/>
    <tag k="addr:state" v="VT"/>
    <tag k="ref:vcgi:esiteid" v="276202"/>
  </node>
  <node id="-301" visible="true" lat="44.69009291" lon="-72.76963092">
    <tag k="addr:housenumber" v="21"/>
    <tag k="addr:street" v="Church Street"/>
    <tag k="addr:state" v="VT"/>
    <tag k="ref:vcgi:esiteid" v="276203"/>
  </node>
  <node id="-302" visible="true" lat="44.69007109" lon="-72.77153839">
    <tag k="addr:housenumber" v="6"/>
    <tag k="addr:street" v="Griffin Road"/>
    <tag k="addr:state" v="VT"/>
    <tag k="ref:vcgi:esiteid" v="276204"/>
  </node>
  <node id="-303" visible="true" lat="44.69005501" lon="-72.77006737">
    <tag k="addr:housenumber" v="37"/>
    <tag k="addr:street" v="Church Street"/>
    <tag k="addr:state" v="VT"/>
    <tag k="ref:vcgi:esiteid" v="276205"/>
  </node>
  <node id="-304" visible="true" lat="44.69002814" lon="-72.77067827">
    <tag k="addr:housenumber" v="71"/>
    <tag k="addr:street" v="Church Street"/>
    <tag k="addr:state" v="VT"/>
    <tag k="ref:vcgi:esiteid" v="276206"/>
  </node>
  <node id="-305" visible="true" lat="44.69005954" lon="-72.77034363">
    <tag k="addr:housenumber" v="53"/>
    <tag k="addr:street" v="Church Street"/>
    <tag k="addr:state" v="VT"/>
    <tag k="ref:vcgi:esiteid" v="276207"/>
  </node>
  <node id="-316" visible="true" lat="44.68864956" lon="-72.7688508">
    <tag k="addr:housenumber" v="29"/>
    <tag k="addr:street" v="Oakes Road"/>
    <tag k="addr:state" v="VT"/>
    <tag k="ref:vcgi:esiteid" v="276219"/>
  </node>
  <node id="-318" visible="true" lat="44.68879877" lon="-72.76797345">
    <tag k="addr:housenumber" v="59"/>
    <tag k="addr:street" v="Oakes Road"/>
    <tag k="addr:state" v="VT"/>
    <tag k="ref:vcgi:esiteid" v="276221"/>
  </node>
  <node id="-330" visible="true" lat="44.68521604" lon="-72.77014135">
    <tag k="addr:housenumber" v="6167"/>
    <tag k="addr:street" v="Plot Road"/>
    <tag k="addr:state" v="VT"/>
    <tag k="ref:vcgi:esiteid" v="276233"/>
  </node>
  <node id="-332" visible="true" lat="44.68530879" lon="-72.76930026">
    <tag k="addr:housenumber" v="6120"/>
    <tag k="addr:street" v="Plot Road"/>
    <tag k="addr:state" v="VT"/>
    <tag k="ref:vcgi:esiteid" v="276235"/>
  </node>
  <node id="-334" visible="true" lat="44.68518979" lon="-72.73514169">
    <tag k="addr:housenumber" v="539"/>
    <tag k="addr:street" v="Bacon Road"/>
    <tag k="addr:state" v="VT"/>
    <tag k="ref:vcgi:esiteid" v="276237"/>
  </node>
  <node id="-337" visible="true" lat="44.68306066" lon="-72.76751207">
    <tag k="addr:housenumber" v="5955"/>
    <tag k="addr:street" v="Plot Road"/>
    <tag k="addr:state" v="VT"/>
    <tag k="ref:vcgi:esiteid" v="276240"/>
  </node>
  <node id="-338" visible="true" lat="44.68280275" lon="-72.77067832">
    <tag k="addr:housenumber" v="11"/>
    <tag k="addr:street" v="Hogback Road"/>
    <tag k="addr:state" v="VT"/>
    <tag k="ref:vcgi:esiteid" v="276241"/>
  </node>
  <node id="-339" visible="true" lat="44.68278077" lon="-72.7356846">
    <tag k="addr:housenumber" v="311"/>
    <tag k="addr:street" v="Bacon Road"/>
    <tag k="addr:state" v="VT"/>
    <tag k="ref:vcgi:esiteid" v="276242"/>
  </node>
  <node id="-340" visible="true" lat="44.68232125" lon="-72.7330809">
    <tag k="addr:housenumber" v="344"/>
    <tag k="addr:street" v="Bacon Road"/>
    <tag k="addr:state" v="VT"/>
    <tag k="ref:vcgi:esiteid" v="276243"/>
  </node>
  <node id="-341" visible="true" lat="44.68158279" lon="-72.76566452">
    <tag k="addr:housenumber" v="5888"/>
    <tag k="addr:street" v="Plot Road"/>
    <tag k="addr:state" v="VT"/>
    <tag k="ref:vcgi:esiteid" v="276244"/>
  </node>
  <node id="-342" visible="true" lat="44.68173544" lon="-72.73620906">
    <tag k="addr:housenumber" v="281"/>
    <tag k="addr:street" v="Bacon Road"/>
    <tag k="addr:state" v="VT"/>
    <tag k="ref:vcgi:esiteid" v="276245"/>
  </node>
  <node id="-343" visible="true" lat="44.68066165" lon="-72.73506067">
    <tag k="addr:housenumber" v="238"/>
    <tag k="addr:street" v="Bacon Road"/>
    <tag k="addr:state" v="VT"/>
    <tag k="ref:vcgi:esiteid" v="276246"/>
  </node>
  <node id="-344" visible="true" lat="44.68060844" lon="-72.76479286">
    <tag k="addr:housenumber" v="5816"/>
    <tag k="addr:street" v="Plot Road"/>
    <tag k="addr:state" v="VT"/>
    <tag k="ref:vcgi:esiteid" v="276247"/>
  </node>
  <node id="-345" visible="true" lat="44.68054022" lon="-72.73695267">
    <tag k="addr:housenumber" v="211"/>
    <tag k="addr:street" v="Bacon Road"/>
    <tag k="addr:state" v="VT"/>
    <tag k="ref:vcgi:esiteid" v="276248"/>
  </node>
  <node id="-373" visible="true" lat="44.68172511" lon="-72.73700327">
    <tag k="addr:housenumber" v="261"/>
    <tag k="addr:street" v="Bacon Road"/>
    <tag k="addr:state" v="VT"/>
    <tag k="ref:vcgi:esiteid" v="276277"/>
  </node>
  <node id="-380" visible="true" lat="44.69275015" lon="-72.76761164">
    <tag k="addr:housenumber" v="40"/>
    <tag k="addr:street" v="Fox Hill Road"/>
    <tag k="addr:state" v="VT"/>
    <tag k="ref:vcgi:esiteid" v="276284"/>
  </node>
  <node id="-381" visible="true" lat="44.69191274" lon="-72.76814572">
    <tag k="addr:housenumber" v="200"/>
    <tag k="addr:street" v="Fox Hill Road"/>
    <tag k="addr:state" v="VT"/>
    <tag k="ref:vcgi:esiteid" v="276285"/>
  </node>
  <node id="-404" visible="true" lat="44.72980024" lon="-72.73860113">
    <tag k="addr:housenumber" v="1320"/>
    <tag k="addr:street" v="Clark Road"/>
    <tag k="addr:state" v="VT"/>
    <tag k="ref:vcgi:esiteid" v="276308"/>
  </node>
  <node id="-433" visible="true" lat="44.73680815" lon="-72.74514111">
    <tag k="addr:housenumber" v="45"/>
    <tag k="addr:street" v="Smithville Road"/>
    <tag k="addr:state" v="VT"/>
    <tag k="ref:vcgi:esiteid" v="448620"/>
  </node>
</osm>
