<?xml version="1.0" encoding="UTF-8"?>
<osm version="0.6" generator="JOSM">
  <node id="-100" visible="true" lat="44.75950894" lon="-72.74823598">
    <tag k="addr:city" v="Waterville"/>
    <tag k="addr:housenumber" v="446"/>
    <tag k="addr:street" v="Rogers Road"/>
    <tag k="addr:state" v="VT"/>
    <tag k="ref:vcgi:esiteid" v="276000"/>
  </node>
  <node id="-101" visible="true" lat="44.75663889" lon="-72.75549533">
    <tag k="addr:city" v="Waterville"/>
    <tag k="addr:housenumber" v="676"/>
    <tag k="addr:street" v="Shipman Road"/>
    <tag k="addr:state" v="VT"/>
    <tag k="ref:vcgi:esiteid" v="276001"/>
  </node>
  <node id="-102" visible="true" lat="44.75416744" lon="-72.75407779">
    <tag k="addr:city" v="Waterville"/>
    <tag k="addr:housenumber" v="537"/>
    <tag k="addr:street" v="Shipman Road"/>
    <tag k="addr:state" v="VT"/>
    <tag k="ref:vcgi:esiteid" v="276002"/>
  </node>
  <node id="-103" visible="true" lat="44.75299835" lon="-72.75287637">
    <tag k="addr:city" v="Waterville"/>
    <tag k="addr:housenumber" v="438"/>
    <tag k="addr:street" v="Shipman Road"/>
    <tag k="addr:state" v="VT"/>
    <tag k="ref:vcgi:esiteid" v="276003"/>
  </node>
  <node id="-106" visible="true" lat="44.75090664" lon="-72.75306012">
    <tag k="addr:city" v="Waterville"/>
    <tag k="addr:housenumber" v="297"/>
    <tag k="addr:street" v="Shipman Road"/>
    <tag k="addr:state" v="VT"/>
    <tag k="ref:vcgi:esiteid" v="276006"/>
  </node>
  <node id="-107" visible="true" lat="44.75028992" lon="-72.75149544">
    <tag k="addr:city" v="Waterville"/>
    <tag k="addr:housenumber" v="221"/>
    <tag k="addr:street" v="Shipman Road"/>
    <tag k="addr:state" v="VT"/>
    <tag k="ref:vcgi:esiteid" v="276007"/>
  </node>
  <node id="-108" visible="true" lat="44.74922547" lon="-72.74736614">
    <tag k="addr:city" v="Waterville"/>
    <tag k="addr:housenumber" v="961"/>
    <tag k="addr:street" v="Smithville Road"/>
    <tag k="addr:state" v="VT"/>
    <tag k="ref:vcgi:esiteid" v="276008"/>
  </node>
  <node id="-109" visible="true" lat="44.74803681" lon="-72.74670348">
    <tag k="addr:city" v="Waterville"/>
    <tag k="addr:housenumber" v="882"/>
    <tag k="addr:street" v="Smithville Road"/>
    <tag k="addr:state" v="VT"/>
    <tag k="ref:vcgi:esiteid" v="276009"/>
  </node>
  <node id="-110" visible="true" lat="44.74669455" lon="-72.74731218">
    <tag k="addr:city" v="Waterville"/>
    <tag k="addr:housenumber" v="775"/>
    <tag k="addr:street" v="Smithville Road"/>
    <tag k="addr:state" v="VT"/>
    <tag k="ref:vcgi:esiteid" v="276010"/>
  </node>
  <node id="-111" visible="true" lat="44.74575283" lon="-72.74712694">
    <tag k="addr:city" v="Waterville"/>
    <tag k="addr:housenumber" v="722"/>
    <tag k="addr:street" v="Smithville Road"/>
    <tag k="addr:state" v="VT"/>
    <tag k="ref:vcgi:esiteid" v="276011"/>
  </node>
  <node id="-112" visible="true" lat="44.74355698" lon="-72.74896249">
    <tag k="addr:city" v="Waterville"/>
    <tag k="addr:housenumber" v="543"/>
    <tag k="addr:street" v="Smithville Road"/>
    <tag k="addr:state" v="VT"/>
    <tag k="ref:vcgi:esiteid" v="276012"/>
  </node>
  <node id="-113" visible="true" lat="44.74072665" lon="-72.74853999">
    <tag k="addr:city" v="Waterville"/>
    <tag k="addr:housenumber" v="359"/>
    <tag k="addr:street" v="Smithville Road"/>
    <tag k="addr:state" v="VT"/>
    <tag k="ref:vcgi:esiteid" v="276013"/>
  </node>
  <node id="-114" visible="true" lat="44.7402916" lon="-72.7495118">
    <tag k="addr:city" v="Waterville"/>
    <tag k="addr:housenumber" v="669"/>
    <tag k="addr:street" v="Maxfield Road"/>
    <tag k="addr:state" v="VT"/>
    <tag k="ref:vcgi:esiteid" v="276014"/>
  </node>
  <node id="-115" visible="true" lat="44.74017647" lon="-72.74776435">
    <tag k="addr:city" v="Waterville"/>
    <tag k="addr:housenumber" v="307"/>
    <tag k="addr:street" v="Smithville Road"/>
    <tag k="addr:state" v="VT"/>
    <tag k="ref:vcgi:esiteid" v="276015"/>
  </node>
  <node id="-116" visible="true" lat="44.73968572" lon="-72.74856038">
    <tag k="addr:city" v="Waterville"/>
    <tag k="addr:housenumber" v="638"/>
    <tag k="addr:street" v="Maxfield Road"/>
    <tag k="addr:state" v="VT"/>
    <tag k="ref:vcgi:esiteid" v="276016"/>
  </node>
  <node id="-117" visible="true" lat="44.73932784" lon="-72.74671536">
    <tag k="addr:city" v="Waterville"/>
    <tag k="addr:housenumber" v="179"/>
    <tag k="addr:street" v="Smithville Road"/>
    <tag k="addr:state" v="VT"/>
    <tag k="ref:vcgi:esiteid" v="276017"/>
  </node>
  <node id="-118" visible="true" lat="44.73854358" lon="-72.75025097">
    <tag k="addr:city" v="Waterville"/>
    <tag k="addr:housenumber" v="565"/>
    <tag k="addr:street" v="Maxfield Road"/>
    <tag k="addr:state" v="VT"/>
    <tag k="ref:vcgi:esiteid" v="276018"/>
  </node>
  <node id="-119" visible="true" lat="44.7379201" lon="-72.74567757">
    <tag k="addr:city" v="Waterville"/>
    <tag k="addr:housenumber" v="93"/>
    <tag k="addr:street" v="Smithville Road"/>
    <tag k="addr:state" v="VT"/>
    <tag k="ref:vcgi:esiteid" v="276019"/>
  </node>
  <node id="-121" visible="true" lat="44.73731223" lon="-72.74381116">
    <tag k="addr:city" v="Waterville"/>
    <tag k="addr:housenumber" v="14"/>
    <tag k="addr:street" v="Smithville Road"/>
    <tag k="addr:state" v="VT"/>
    <tag k="ref:vcgi:esiteid" v="276021"/>
  </node>
  <node id="-122" visible="true" lat="44.73693085" lon="-72.7548066">
    <tag k="addr:city" v="Waterville"/>
    <tag k="addr:housenumber" v="427"/>
    <tag k="addr:street" v="Maxfield Road"/>
    <tag k="addr:state" v="VT"/>
    <tag k="ref:vcgi:esiteid" v="276022"/>
  </node>
  <node id="-123" visible="true" lat="44.73556137" lon="-72.75012215">
    <tag k="addr:city" v="Waterville"/>
    <tag k="addr:housenumber" v="351"/>
    <tag k="addr:street" v="Maxfield Road"/>
    <tag k="addr:state" v="VT"/>
    <tag k="ref:vcgi:esiteid" v="276023"/>
  </node>
  <node id="-124" visible="true" lat="44.7351019" lon="-72.74565654">
    <tag k="addr:city" v="Waterville"/>
    <tag k="addr:housenumber" v="4037"/>
    <tag k="addr:street" v="Vermont Route 109"/>
    <tag k="addr:state" v="VT"/>
    <tag k="ref:vcgi:esiteid" v="276024"/>
  </node>
  <node id="-125" visible="true" lat="44.7343563" lon="-72.75017894">
    <tag k="addr:city" v="Waterville"/>
    <tag k="addr:housenumber" v="272"/>
    <tag k="addr:street" v="Maxfield Road"/>
    <tag k="addr:state" v="VT"/>
    <tag k="ref:vcgi:esiteid" v="276025"/>
  </node>
  <node id="-126" visible="true" lat="44.73424008" lon="-72.74643091">
    <tag k="addr:city" v="Waterville"/>
    <tag k="addr:housenumber" v="3911"/>
    <tag k="addr:street" v="Vermont Route 109"/>
    <tag k="addr:state" v="VT"/>
    <tag k="ref:vcgi:esiteid" v="276026"/>
  </node>
  <node id="-127" visible="true" lat="44.73400501" lon="-72.75093033">
    <tag k="addr:city" v="Waterville"/>
    <tag k="addr:housenumber" v="245"/>
    <tag k="addr:street" v="Maxfield Road"/>
    <tag k="addr:state" v="VT"/>
    <tag k="ref:vcgi:esiteid" v="276027"/>
  </node>
  <node id="-128" visible="true" lat="44.73397631" lon="-72.75021626">
    <tag k="addr:city" v="Waterville"/>
    <tag k="addr:housenumber" v="242"/>
    <tag k="addr:street" v="Maxfield Road"/>
    <tag k="addr:state" v="VT"/>
    <tag k="ref:vcgi:esiteid" v="276028"/>
  </node>
  <node id="-129" visible="true" lat="44.73349363" lon="-72.74459476">
    <tag k="addr:city" v="Waterville"/>
    <tag k="addr:housenumber" v="3944"/>
    <tag k="addr:street" v="Vermont Route 109"/>
    <tag k="addr:state" v="VT"/>
    <tag k="ref:vcgi:esiteid" v="276029"/>
  </node>
  <node id="-130" visible="true" lat="44.73338444" lon="-72.74690883">
    <tag k="addr:city" v="Waterville"/>
    <tag k="addr:housenumber" v="3909"/>
    <tag k="addr:street" v="Vermont Route 109"/>
    <tag k="addr:state" v="VT"/>
    <tag k="ref:vcgi:esiteid" v="276030"/>
  </node>
  <node id="-131" visible="true" lat="44.73291486" lon="-72.74654676">
    <tag k="addr:city" v="Waterville"/>
    <tag k="addr:housenumber" v="3869"/>
    <tag k="addr:street" v="Vermont Route 109"/>
    <tag k="addr:state" v="VT"/>
    <tag k="ref:vcgi:esiteid" v="276031"/>
  </node>
  <node id="-132" visible="true" lat="44.73241981" lon="-72.74708421">
    <tag k="addr:city" v="Waterville"/>
    <tag k="addr:housenumber" v="3817"/>
    <tag k="addr:street" v="Vermont Route 109"/>
    <tag k="addr:state" v="VT"/>
    <tag k="ref:vcgi:esiteid" v="276032"/>
  </node>
  <node id="-133" visible="true" lat="44.73103854" lon="-72.7506885">
    <tag k="addr:city" v="Waterville"/>
    <tag k="addr:housenumber" v="161"/>
    <tag k="addr:street" v="Blood Road"/>
    <tag k="addr:state" v="VT"/>
    <tag k="ref:vcgi:esiteid" v="276033"/>
  </node>
  <node id="-134" visible="true" lat="44.73069443" lon="-72.7520223">
    <tag k="addr:city" v="Waterville"/>
    <tag k="addr:housenumber" v="226"/>
    <tag k="addr:street" v="Blood Road"/>
    <tag k="addr:state" v="VT"/>
    <tag k="ref:vcgi:esiteid" v="276034"/>
  </node>
  <node id="-135" visible="true" lat="44.73039722" lon="-72.74889706">
    <tag k="addr:city" v="Waterville"/>
    <tag k="addr:housenumber" v="3663"/>
    <tag k="addr:street" v="Vermont Route 109"/>
    <tag k="addr:state" v="VT"/>
    <tag k="ref:vcgi:esiteid" v="276035"/>
  </node>
  <node id="-136" visible="true" lat="44.73024214" lon="-72.78258037">
    <tag k="addr:city" v="Waterville"/>
    <tag k="addr:housenumber" v="2629"/>
    <tag k="addr:street" v="Lapland Road"/>
    <tag k="addr:state" v="VT"/>
    <tag k="ref:vcgi:esiteid" v="276036"/>
  </node>
  <node id="-137" visible="true" lat="44.72882237" lon="-72.74967472">
    <tag k="addr:city" v="Waterville"/>
    <tag k="addr:housenumber" v="3547"/>
    <tag k="addr:street" v="Vermont Route 109"/>
    <tag k="addr:state" v="VT"/>
    <tag k="ref:vcgi:esiteid" v="276037"/>
  </node>
  <node id="-138" visible="true" lat="44.72880936" lon="-72.75430306">
    <tag k="addr:city" v="Waterville"/>
    <tag k="addr:housenumber" v="402"/>
    <tag k="addr:street" v="Blood Road"/>
    <tag k="addr:state" v="VT"/>
    <tag k="ref:vcgi:esiteid" v="276038"/>
  </node>
  <node id="-139" visible="true" lat="44.72765245" lon="-72.78187952">
    <tag k="addr:city" v="Waterville"/>
    <tag k="addr:housenumber" v="2511"/>
    <tag k="addr:street" v="Lapland Road"/>
    <tag k="addr:state" v="VT"/>
    <tag k="ref:vcgi:esiteid" v="276039"/>
  </node>
  <node id="-140" visible="true" lat="44.72806093" lon="-72.75075144">
    <tag k="addr:city" v="Waterville"/>
    <tag k="addr:housenumber" v="54"/>
    <tag k="addr:street" v="Woodard Road"/>
    <tag k="addr:state" v="VT"/>
    <tag k="ref:vcgi:esiteid" v="276040"/>
  </node>
  <node id="-141" visible="true" lat="44.72750739" lon="-72.75100646">
    <tag k="addr:city" v="Waterville"/>
    <tag k="addr:housenumber" v="91"/>
    <tag k="addr:street" v="Woodard Road"/>
    <tag k="addr:state" v="VT"/>
    <tag k="ref:vcgi:esiteid" v="276041"/>
  </node>
  <node id="-142" visible="true" lat="44.72724954" lon="-72.77971977">
    <tag k="addr:city" v="Waterville"/>
    <tag k="addr:housenumber" v="2346"/>
    <tag k="addr:street" v="Lapland Road"/>
    <tag k="addr:state" v="VT"/>
    <tag k="ref:vcgi:esiteid" v="276042"/>
  </node>
  <node id="-143" visible="true" lat="44.72680486" lon="-72.74973832">
    <tag k="addr:city" v="Waterville"/>
    <tag k="addr:housenumber" v="3413"/>
    <tag k="addr:street" v="Vermont Route 109"/>
    <tag k="addr:state" v="VT"/>
    <tag k="ref:vcgi:esiteid" v="276043"/>
  </node>
  <node id="-145" visible="true" lat="44.72699027" lon="-72.77878581">
    <tag k="addr:city" v="Waterville"/>
    <tag k="addr:housenumber" v="2294"/>
    <tag k="addr:street" v="Lapland Road"/>
    <tag k="addr:state" v="VT"/>
    <tag k="ref:vcgi:esiteid" v="276045"/>
  </node>
  <node id="-146" visible="true" lat="44.72689549" lon="-72.750758">
    <tag k="addr:city" v="Waterville"/>
    <tag k="addr:housenumber" v="32"/>
    <tag k="addr:street" v="Barry Road"/>
    <tag k="addr:state" v="VT"/>
    <tag k="ref:vcgi:esiteid" v="276046"/>
  </node>
  <node id="-147" visible="true" lat="44.72625017" lon="-72.75079842">
    <tag k="addr:city" v="Waterville"/>
    <tag k="addr:housenumber" v="59"/>
    <tag k="addr:street" v="Barry Road"/>
    <tag k="addr:state" v="VT"/>
    <tag k="ref:vcgi:esiteid" v="276047"/>
  </node>
  <node id="-148" visible="true" lat="44.72522111" lon="-72.7496464">
    <tag k="addr:city" v="Waterville"/>
    <tag k="addr:housenumber" v="3251"/>
    <tag k="addr:street" v="Vermont Route 109"/>
    <tag k="addr:state" v="VT"/>
    <tag k="ref:vcgi:esiteid" v="276048"/>
  </node>
  <node id="-149" visible="true" lat="44.72456796" lon="-72.77917525">
    <tag k="addr:city" v="Waterville"/>
    <tag k="addr:housenumber" v="2127"/>
    <tag k="addr:street" v="Lapland Road"/>
    <tag k="addr:state" v="VT"/>
    <tag k="ref:vcgi:esiteid" v="276049"/>
  </node>
  <node id="-150" visible="true" lat="44.72453026" lon="-72.75035426">
    <tag k="addr:city" v="Waterville"/>
    <tag k="addr:housenumber" v="3177"/>
    <tag k="addr:street" v="Vermont Route 109"/>
    <tag k="addr:state" v="VT"/>
    <tag k="ref:vcgi:esiteid" v="276050"/>
  </node>
  <node id="-151" visible="true" lat="44.7241127" lon="-72.7781328">
    <tag k="addr:city" v="Waterville"/>
    <tag k="addr:housenumber" v="2114"/>
    <tag k="addr:street" v="Lapland Road"/>
    <tag k="addr:state" v="VT"/>
    <tag k="ref:vcgi:esiteid" v="276051"/>
  </node>
  <node id="-152" visible="true" lat="44.72365563" lon="-72.78007317">
    <tag k="addr:city" v="Waterville"/>
    <tag k="addr:housenumber" v="2019"/>
    <tag k="addr:street" v="Lapland Road"/>
    <tag k="addr:state" v="VT"/>
    <tag k="ref:vcgi:esiteid" v="276052"/>
  </node>
  <node id="-153" visible="true" lat="44.72264998" lon="-72.74971326">
    <tag k="addr:city" v="Waterville"/>
    <tag k="addr:housenumber" v="3109"/>
    <tag k="addr:street" v="Vermont Route 109"/>
    <tag k="addr:state" v="VT"/>
    <tag k="ref:vcgi:esiteid" v="276053"/>
  </node>
  <node id="-154" visible="true" lat="44.72159249" lon="-72.77697534">
    <tag k="addr:city" v="Waterville"/>
    <tag k="addr:housenumber" v="1928"/>
    <tag k="addr:street" v="Lapland Road"/>
    <tag k="addr:state" v="VT"/>
    <tag k="ref:vcgi:esiteid" v="276054"/>
  </node>
  <node id="-155" visible="true" lat="44.72120309" lon="-72.7502455">
    <tag k="addr:city" v="Waterville"/>
    <tag k="addr:housenumber" v="2953"/>
    <tag k="addr:street" v="Vermont Route 109"/>
    <tag k="addr:state" v="VT"/>
    <tag k="ref:vcgi:esiteid" v="276055"/>
  </node>
  <node id="-156" visible="true" lat="44.72098113" lon="-72.74901006">
    <tag k="addr:city" v="Waterville"/>
    <tag k="addr:housenumber" v="3010"/>
    <tag k="addr:street" v="Vermont Route 109"/>
    <tag k="addr:state" v="VT"/>
    <tag k="ref:vcgi:esiteid" v="276056"/>
  </node>
  <node id="-157" visible="true" lat="44.72065828" lon="-72.77826817">
    <tag k="addr:city" v="Waterville"/>
    <tag k="addr:housenumber" v="1884"/>
    <tag k="addr:street" v="Lapland Road"/>
    <tag k="addr:state" v="VT"/>
    <tag k="ref:vcgi:esiteid" v="276057"/>
  </node>
  <node id="-158" visible="true" lat="44.71854476" lon="-72.77761425">
    <tag k="addr:city" v="Waterville"/>
    <tag k="addr:housenumber" v="1728"/>
    <tag k="addr:street" v="Lapland Road"/>
    <tag k="addr:state" v="VT"/>
    <tag k="ref:vcgi:esiteid" v="276058"/>
  </node>
  <node id="-159" visible="true" lat="44.71856308" lon="-72.75199898">
    <tag k="addr:city" v="Waterville"/>
    <tag k="addr:housenumber" v="2803"/>
    <tag k="addr:street" v="Vermont Route 109"/>
    <tag k="addr:state" v="VT"/>
    <tag k="ref:vcgi:esiteid" v="276059"/>
  </node>
  <node id="-160" visible="true" lat="44.71811295" lon="-72.77820595">
    <tag k="addr:city" v="Waterville"/>
    <tag k="addr:housenumber" v="1703"/>
    <tag k="addr:street" v="Lapland Road"/>
    <tag k="addr:state" v="VT"/>
    <tag k="ref:vcgi:esiteid" v="276060"/>
  </node>
  <node id="-161" visible="true" lat="44.71814477" lon="-72.74062518">
    <tag k="addr:city" v="Waterville"/>
    <tag k="addr:housenumber" v="248"/>
    <tag k="addr:street" v="Clark Road"/>
    <tag k="addr:state" v="VT"/>
    <tag k="ref:vcgi:esiteid" v="276061"/>
  </node>
  <node id="-162" visible="true" lat="44.7177288" lon="-72.75256532">
    <tag k="addr:city" v="Waterville"/>
    <tag k="addr:housenumber" v="2755"/>
    <tag k="addr:street" v="Vermont Route 109"/>
    <tag k="addr:state" v="VT"/>
    <tag k="ref:vcgi:esiteid" v="276062"/>
  </node>
  <node id="-163" visible="true" lat="44.71749878" lon="-72.77712258">
    <tag k="addr:city" v="Waterville"/>
    <tag k="addr:housenumber" v="1646"/>
    <tag k="addr:street" v="Lapland Road"/>
    <tag k="addr:state" v="VT"/>
    <tag k="ref:vcgi:esiteid" v="276063"/>
  </node>
  <node id="-164" visible="true" lat="44.71686596" lon="-72.74186385">
    <tag k="addr:city" v="Waterville"/>
    <tag k="addr:housenumber" v="249"/>
    <tag k="addr:street" v="Clark Road"/>
    <tag k="addr:state" v="VT"/>
    <tag k="ref:vcgi:esiteid" v="276064"/>
  </node>
  <node id="-165" visible="true" lat="44.71628571" lon="-72.75831612">
    <tag k="addr:city" v="Waterville"/>
    <tag k="addr:housenumber" v="164"/>
    <tag k="addr:street" v="Cutting Hill"/>
    <tag k="addr:state" v="VT"/>
    <tag k="ref:vcgi:esiteid" v="276065"/>
  </node>
  <node id="-166" visible="true" lat="44.71595367" lon="-72.74072934">
    <tag k="addr:city" v="Waterville"/>
    <tag k="addr:housenumber" v="156"/>
    <tag k="addr:street" v="Clark Road"/>
    <tag k="addr:state" v="VT"/>
    <tag k="ref:vcgi:esiteid" v="276066"/>
  </node>
  <node id="-167" visible="true" lat="44.71546" lon="-72.75583393">
    <tag k="addr:city" v="Waterville"/>
    <tag k="addr:housenumber" v="96"/>
    <tag k="addr:street" v="Cutting Hill"/>
    <tag k="addr:state" v="VT"/>
    <tag k="ref:vcgi:esiteid" v="276067"/>
  </node>
  <node id="-168" visible="true" lat="44.71547881" lon="-72.7572929">
    <tag k="addr:city" v="Waterville"/>
    <tag k="addr:housenumber" v="154"/>
    <tag k="addr:street" v="Cutting Hill"/>
    <tag k="addr:state" v="VT"/>
    <tag k="ref:vcgi:esiteid" v="276068"/>
  </node>
  <node id="-169" visible="true" lat="44.71522364" lon="-72.7587152">
    <tag k="addr:city" v="Waterville"/>
    <tag k="addr:housenumber" v="166"/>
    <tag k="addr:street" v="Cutting Hill"/>
    <tag k="addr:state" v="VT"/>
    <tag k="ref:vcgi:esiteid" v="276069"/>
  </node>
  <node id="-170" visible="true" lat="44.71464281" lon="-72.7408325">
    <tag k="addr:city" v="Waterville"/>
    <tag k="addr:housenumber" v="102"/>
    <tag k="addr:street" v="Clark Road"/>
    <tag k="addr:state" v="VT"/>
    <tag k="ref:vcgi:esiteid" v="276070"/>
  </node>
  <node id="-171" visible="true" lat="44.71502261" lon="-72.75439918">
    <tag k="addr:city" v="Waterville"/>
    <tag k="addr:housenumber" v="2527"/>
    <tag k="addr:street" v="Vermont Route 109"/>
    <tag k="addr:state" v="VT"/>
    <tag k="ref:vcgi:esiteid" v="276071"/>
  </node>
  <node id="-172" visible="true" lat="44.7147547" lon="-72.75718947">
    <tag k="addr:city" v="Waterville"/>
    <tag k="addr:housenumber" v="181"/>
    <tag k="addr:street" v="Cutting Hill"/>
    <tag k="addr:state" v="VT"/>
    <tag k="ref:vcgi:esiteid" v="276072"/>
  </node>
  <node id="-173" visible="true" lat="44.714738" lon="-72.75820458">
    <tag k="addr:city" v="Waterville"/>
    <tag k="addr:housenumber" v="198"/>
    <tag k="addr:street" v="Cutting Hill"/>
    <tag k="addr:state" v="VT"/>
    <tag k="ref:vcgi:esiteid" v="276073"/>
  </node>
  <node id="-174" visible="true" lat="44.71501677" lon="-72.77419513">
    <tag k="addr:city" v="Waterville"/>
    <tag k="addr:housenumber" v="1428"/>
    <tag k="addr:street" v="Lapland Road"/>
    <tag k="addr:state" v="VT"/>
    <tag k="ref:vcgi:esiteid" v="276074"/>
  </node>
  <node id="-175" visible="true" lat="44.71418402" lon="-72.75626211">
    <tag k="addr:city" v="Waterville"/>
    <tag k="addr:housenumber" v="71"/>
    <tag k="addr:street" v="Cutting Hill"/>
    <tag k="addr:state" v="VT"/>
    <tag k="ref:vcgi:esiteid" v="276075"/>
  </node>
  <node id="-176" visible="true" lat="44.71431716" lon="-72.7470697">
    <tag k="addr:city" v="Waterville"/>
    <tag k="addr:housenumber" v="591"/>
    <tag k="addr:street" v="Codding Hollow Road"/>
    <tag k="addr:state" v="VT"/>
    <tag k="ref:vcgi:esiteid" v="276076"/>
  </node>
  <node id="-177" visible="true" lat="44.71404714" lon="-72.77404294">
    <tag k="addr:city" v="Waterville"/>
    <tag k="addr:housenumber" v="1380"/>
    <tag k="addr:street" v="Lapland Road"/>
    <tag k="addr:state" v="VT"/>
    <tag k="ref:vcgi:esiteid" v="276077"/>
  </node>
  <node id="-178" visible="true" lat="44.71438525" lon="-72.74016548">
    <tag k="addr:city" v="Waterville"/>
    <tag k="addr:housenumber" v="929"/>
    <tag k="addr:street" v="Codding Hollow Road"/>
    <tag k="addr:state" v="VT"/>
    <tag k="ref:vcgi:esiteid" v="276078"/>
  </node>
  <node id="-179" visible="true" lat="44.71384438" lon="-72.75723774">
    <tag k="addr:city" v="Waterville"/>
    <tag k="addr:housenumber" v="233"/>
    <tag k="addr:street" v="Cutting Hill"/>
    <tag k="addr:state" v="VT"/>
    <tag k="ref:vcgi:esiteid" v="276079"/>
  </node>
  <node id="-180" visible="true" lat="44.71387803" lon="-72.73982482">
    <tag k="addr:city" v="Waterville"/>
    <tag k="addr:housenumber" v="969"/>
    <tag k="addr:street" v="Codding Hollow Road"/>
    <tag k="addr:state" v="VT"/>
    <tag k="ref:vcgi:esiteid" v="276080"/>
  </node>
  <node id="-181" visible="true" lat="44.71378328" lon="-72.75500591">
    <tag k="addr:city" v="Waterville"/>
    <tag k="addr:housenumber" v="2442"/>
    <tag k="addr:street" v="Vermont Route 109"/>
    <tag k="addr:state" v="VT"/>
    <tag k="ref:vcgi:esiteid" v="276081"/>
  </node>
  <node id="-182" visible="true" lat="44.7133722" lon="-72.74087249">
    <tag k="addr:city" v="Waterville"/>
    <tag k="addr:housenumber" v="926"/>
    <tag k="addr:street" v="Codding Hollow Road"/>
    <tag k="addr:state" v="VT"/>
    <tag k="ref:vcgi:esiteid" v="276082"/>
  </node>
  <node id="-183" visible="true" lat="44.71343857" lon="-72.74161824">
    <tag k="addr:city" v="Waterville"/>
    <tag k="addr:housenumber" v="860"/>
    <tag k="addr:street" v="Codding Hollow Road"/>
    <tag k="addr:state" v="VT"/>
    <tag k="ref:vcgi:esiteid" v="276083"/>
  </node>
  <node id="-184" visible="true" lat="44.71389289" lon="-72.73889806">
    <tag k="addr:city" v="Waterville"/>
    <tag k="addr:housenumber" v="1027"/>
    <tag k="addr:street" v="Codding Hollow Road"/>
    <tag k="addr:state" v="VT"/>
    <tag k="ref:vcgi:esiteid" v="276085"/>
  </node>
  <node id="-185" visible="true" lat="44.71348953" lon="-72.75864419">
    <tag k="addr:city" v="Waterville"/>
    <tag k="addr:housenumber" v="232"/>
    <tag k="addr:street" v="Cutting Hill"/>
    <tag k="addr:state" v="VT"/>
    <tag k="ref:vcgi:esiteid" v="276086"/>
  </node>
  <node id="-186" visible="true" lat="44.71333004" lon="-72.75653163">
    <tag k="addr:city" v="Waterville"/>
    <tag k="addr:housenumber" v="2377"/>
    <tag k="addr:street" v="Vermont Route 109"/>
    <tag k="addr:state" v="VT"/>
    <tag k="ref:vcgi:esiteid" v="276087"/>
  </node>
  <node id="-187" visible="true" lat="44.71327579" lon="-72.73935516">
    <tag k="addr:city" v="Waterville"/>
    <tag k="addr:housenumber" v="1008"/>
    <tag k="addr:street" v="Codding Hollow Road"/>
    <tag k="addr:state" v="VT"/>
    <tag k="ref:vcgi:esiteid" v="276088"/>
  </node>
  <node id="-188" visible="true" lat="44.71319604" lon="-72.73885841">
    <tag k="addr:city" v="Waterville"/>
    <tag k="addr:housenumber" v="1028"/>
    <tag k="addr:street" v="Codding Hollow Road"/>
    <tag k="addr:state" v="VT"/>
    <tag k="ref:vcgi:esiteid" v="276089"/>
  </node>
  <node id="-189" visible="true" lat="44.71349479" lon="-72.73848482">
    <tag k="addr:city" v="Waterville"/>
    <tag k="addr:housenumber" v="1063"/>
    <tag k="addr:street" v="Codding Hollow Road"/>
    <tag k="addr:state" v="VT"/>
    <tag k="ref:vcgi:esiteid" v="276090"/>
  </node>
  <node id="-190" visible="true" lat="44.71261277" lon="-72.75680119">
    <tag k="addr:city" v="Waterville"/>
    <tag k="addr:housenumber" v="2326"/>
    <tag k="addr:street" v="Vermont Route 109"/>
    <tag k="addr:state" v="VT"/>
    <tag k="ref:vcgi:esiteid" v="276091"/>
  </node>
  <node id="-191" visible="true" lat="44.71265965" lon="-72.73794772">
    <tag k="addr:city" v="Waterville"/>
    <tag k="addr:housenumber" v="1078"/>
    <tag k="addr:street" v="Codding Hollow Road"/>
    <tag k="addr:state" v="VT"/>
    <tag k="ref:vcgi:esiteid" v="276092"/>
  </node>
  <node id="-192" visible="true" lat="44.71208572" lon="-72.73709115">
    <tag k="addr:city" v="Waterville"/>
    <tag k="addr:housenumber" v="1142"/>
    <tag k="addr:street" v="Codding Hollow Road"/>
    <tag k="addr:state" v="VT"/>
    <tag k="ref:vcgi:esiteid" v="276093"/>
  </node>
  <node id="-193" visible="true" lat="44.71186086" lon="-72.73660239">
    <tag k="addr:city" v="Waterville"/>
    <tag k="addr:housenumber" v="36"/>
    <tag k="addr:street" v="Hubbard Road"/>
    <tag k="addr:state" v="VT"/>
    <tag k="ref:vcgi:esiteid" v="276094"/>
  </node>
  <node id="-194" visible="true" lat="44.71181106" lon="-72.77442178">
    <tag k="addr:city" v="Waterville"/>
    <tag k="addr:housenumber" v="1233"/>
    <tag k="addr:street" v="Lapland Road"/>
    <tag k="addr:state" v="VT"/>
    <tag k="ref:vcgi:esiteid" v="276095"/>
  </node>
  <node id="-195" visible="true" lat="44.71166003" lon="-72.75899827">
    <tag k="addr:city" v="Waterville"/>
    <tag k="addr:housenumber" v="2225"/>
    <tag k="addr:street" v="Vermont Route 109"/>
    <tag k="addr:state" v="VT"/>
    <tag k="ref:vcgi:esiteid" v="276096"/>
  </node>
  <node id="-196" visible="true" lat="44.71198809" lon="-72.73410392">
    <tag k="addr:city" v="Waterville"/>
    <tag k="addr:housenumber" v="1271"/>
    <tag k="addr:street" v="Codding Hollow Road"/>
    <tag k="addr:state" v="VT"/>
    <tag k="ref:vcgi:esiteid" v="276097"/>
  </node>
  <node id="-197" visible="true" lat="44.71166611" lon="-72.75439462">
    <tag k="addr:city" v="Waterville"/>
    <tag k="addr:housenumber" v="201"/>
    <tag k="addr:street" v="Codding Hollow Road"/>
    <tag k="addr:state" v="VT"/>
    <tag k="ref:vcgi:esiteid" v="276098"/>
  </node>
  <node id="-198" visible="true" lat="44.71164703" lon="-72.75512704">
    <tag k="addr:city" v="Waterville"/>
    <tag k="addr:housenumber" v="161"/>
    <tag k="addr:street" v="Codding Hollow Road"/>
    <tag k="addr:state" v="VT"/>
    <tag k="ref:vcgi:esiteid" v="276099"/>
  </node>
  <node id="-199" visible="true" lat="44.71188949" lon="-72.7260683">
    <tag k="addr:city" v="Waterville"/>
    <tag k="addr:housenumber" v="1707"/>
    <tag k="addr:street" v="Codding Hollow Road"/>
    <tag k="addr:state" v="VT"/>
    <tag k="ref:vcgi:esiteid" v="276100"/>
  </node>
  <node id="-200" visible="true" lat="44.71150207" lon="-72.75962075">
    <tag k="addr:city" v="Waterville"/>
    <tag k="addr:housenumber" v="2177"/>
    <tag k="addr:street" v="Vermont Route 109"/>
    <tag k="addr:state" v="VT"/>
    <tag k="ref:vcgi:esiteid" v="276101"/>
  </node>
  <node id="-201" visible="true" lat="44.71144301" lon="-72.73999766">
    <tag k="addr:city" v="Waterville"/>
    <tag k="addr:housenumber" v="986"/>
    <tag k="addr:street" v="Codding Hollow Road"/>
    <tag k="addr:state" v="VT"/>
    <tag k="ref:vcgi:esiteid" v="276102"/>
  </node>
  <node id="-202" visible="true" lat="44.71161346" lon="-72.72514879">
    <tag k="addr:city" v="Waterville"/>
    <tag k="addr:housenumber" v="1741"/>
    <tag k="addr:street" v="Codding Hollow Road"/>
    <tag k="addr:state" v="VT"/>
    <tag k="ref:vcgi:esiteid" v="276103"/>
  </node>
  <node id="-203" visible="true" lat="44.71108957" lon="-72.72821373">
    <tag k="addr:city" v="Waterville"/>
    <tag k="addr:housenumber" v="1590"/>
    <tag k="addr:street" v="Codding Hollow Road"/>
    <tag k="addr:state" v="VT"/>
    <tag k="ref:vcgi:esiteid" v="276104"/>
  </node>
  <node id="-204" visible="true" lat="44.71113586" lon="-72.77271279">
    <tag k="addr:city" v="Waterville"/>
    <tag k="addr:housenumber" v="1154"/>
    <tag k="addr:street" v="Lapland Road"/>
    <tag k="addr:state" v="VT"/>
    <tag k="ref:vcgi:esiteid" v="276105"/>
  </node>
  <node id="-205" visible="true" lat="44.71109804" lon="-72.71874353">
    <tag k="addr:city" v="Waterville"/>
    <tag k="addr:housenumber" v="1959"/>
    <tag k="addr:street" v="Codding Hollow Road"/>
    <tag k="addr:state" v="VT"/>
    <tag k="ref:vcgi:esiteid" v="276106"/>
  </node>
  <node id="-206" visible="true" lat="44.71081162" lon="-72.7226487">
    <tag k="addr:city" v="Waterville"/>
    <tag k="addr:housenumber" v="1877"/>
    <tag k="addr:street" v="Codding Hollow Road"/>
    <tag k="addr:state" v="VT"/>
    <tag k="ref:vcgi:esiteid" v="276107"/>
  </node>
  <node id="-207" visible="true" lat="44.71085235" lon="-72.72364295">
    <tag k="addr:city" v="Waterville"/>
    <tag k="addr:housenumber" v="1825"/>
    <tag k="addr:street" v="Codding Hollow Road"/>
    <tag k="addr:state" v="VT"/>
    <tag k="ref:vcgi:esiteid" v="276108"/>
  </node>
  <node id="-208" visible="true" lat="44.71057086" lon="-72.73308424">
    <tag k="addr:city" v="Waterville"/>
    <tag k="addr:housenumber" v="22"/>
    <tag k="addr:street" v="Locke Road"/>
    <tag k="addr:state" v="VT"/>
    <tag k="ref:vcgi:esiteid" v="276109"/>
  </node>
  <node id="-209" visible="true" lat="44.71071243" lon="-72.73707589">
    <tag k="addr:city" v="Waterville"/>
    <tag k="addr:housenumber" v="128"/>
    <tag k="addr:street" v="Hubbard Road"/>
    <tag k="addr:state" v="VT"/>
    <tag k="ref:vcgi:esiteid" v="276110"/>
  </node>
  <node id="-210" visible="true" lat="44.71058273" lon="-72.75971993">
    <tag k="addr:city" v="Waterville"/>
    <tag k="addr:housenumber" v="2121"/>
    <tag k="addr:street" v="Vermont Route 109"/>
    <tag k="addr:state" v="VT"/>
    <tag k="ref:vcgi:esiteid" v="276111"/>
  </node>
  <node id="-211" visible="true" lat="44.71047779" lon="-72.77365892">
    <tag k="addr:city" v="Waterville"/>
    <tag k="addr:housenumber" v="1129"/>
    <tag k="addr:street" v="Lapland Road"/>
    <tag k="addr:state" v="VT"/>
    <tag k="ref:vcgi:esiteid" v="276112"/>
  </node>
  <node id="-212" visible="true" lat="44.71049118" lon="-72.73584756">
    <tag k="addr:city" v="Waterville"/>
    <tag k="addr:housenumber" v="107"/>
    <tag k="addr:street" v="Hubbard Road"/>
    <tag k="addr:state" v="VT"/>
    <tag k="ref:vcgi:esiteid" v="276113"/>
  </node>
  <node id="-213" visible="true" lat="44.71043396" lon="-72.73152932">
    <tag k="addr:city" v="Waterville"/>
    <tag k="addr:housenumber" v="84"/>
    <tag k="addr:street" v="Locke Road"/>
    <tag k="addr:state" v="VT"/>
    <tag k="ref:vcgi:esiteid" v="276114"/>
  </node>
  <node id="-214" visible="true" lat="44.71015796" lon="-72.75972345">
    <tag k="addr:city" v="Waterville"/>
    <tag k="addr:housenumber" v="2079"/>
    <tag k="addr:street" v="Vermont Route 109"/>
    <tag k="addr:state" v="VT"/>
    <tag k="ref:vcgi:esiteid" v="276115"/>
  </node>
  <node id="-216" visible="true" lat="44.70964834" lon="-72.77238264">
    <tag k="addr:city" v="Waterville"/>
    <tag k="addr:housenumber" v="1044"/>
    <tag k="addr:street" v="Lapland Road"/>
    <tag k="addr:state" v="VT"/>
    <tag k="ref:vcgi:esiteid" v="276117"/>
  </node>
  <node id="-217" visible="true" lat="44.70913438" lon="-72.71944377">
    <tag k="addr:city" v="Waterville"/>
    <tag k="addr:housenumber" v="2066"/>
    <tag k="addr:street" v="Codding Hollow Road"/>
    <tag k="addr:state" v="VT"/>
    <tag k="ref:vcgi:esiteid" v="276118"/>
  </node>
  <node id="-218" visible="true" lat="44.70881653" lon="-72.77229317">
    <tag k="addr:city" v="Waterville"/>
    <tag k="addr:housenumber" v="1001"/>
    <tag k="addr:street" v="Lapland Road"/>
    <tag k="addr:state" v="VT"/>
    <tag k="ref:vcgi:esiteid" v="276119"/>
  </node>
  <node id="-219" visible="true" lat="44.70848199" lon="-72.77144388">
    <tag k="addr:city" v="Waterville"/>
    <tag k="addr:housenumber" v="960"/>
    <tag k="addr:street" v="Lapland Road"/>
    <tag k="addr:state" v="VT"/>
    <tag k="ref:vcgi:esiteid" v="276120"/>
  </node>
  <node id="-220" visible="true" lat="44.70815641" lon="-72.75908726">
    <tag k="addr:city" v="Waterville"/>
    <tag k="addr:housenumber" v="1950"/>
    <tag k="addr:street" v="Vermont Route 109"/>
    <tag k="addr:state" v="VT"/>
    <tag k="ref:vcgi:esiteid" v="276121"/>
  </node>
  <node id="-221" visible="true" lat="44.70711501" lon="-72.77218178">
    <tag k="addr:city" v="Waterville"/>
    <tag k="addr:housenumber" v="863"/>
    <tag k="addr:street" v="Lapland Road"/>
    <tag k="addr:state" v="VT"/>
    <tag k="ref:vcgi:esiteid" v="276122"/>
  </node>
  <node id="-222" visible="true" lat="44.70672562" lon="-72.71942542">
    <tag k="addr:city" v="Waterville"/>
    <tag k="addr:housenumber" v="735"/>
    <tag k="addr:street" v="Locke Road"/>
    <tag k="addr:state" v="VT"/>
    <tag k="ref:vcgi:esiteid" v="276123"/>
  </node>
  <node id="-223" visible="true" lat="44.70680237" lon="-72.74774941">
    <tag k="addr:city" v="Waterville"/>
    <tag k="addr:housenumber" v="1404"/>
    <tag k="addr:street" v="Beals Hill Road"/>
    <tag k="addr:state" v="VT"/>
    <tag k="ref:vcgi:esiteid" v="276124"/>
  </node>
  <node id="-224" visible="true" lat="44.70587921" lon="-72.76120766">
    <tag k="addr:city" v="Waterville"/>
    <tag k="addr:housenumber" v="1765"/>
    <tag k="addr:street" v="Vermont Route 109"/>
    <tag k="addr:state" v="VT"/>
    <tag k="ref:vcgi:esiteid" v="276125"/>
  </node>
  <node id="-225" visible="true" lat="44.70598357" lon="-72.76995963">
    <tag k="addr:city" v="Waterville"/>
    <tag k="addr:housenumber" v="766"/>
    <tag k="addr:street" v="Lapland Road"/>
    <tag k="addr:state" v="VT"/>
    <tag k="ref:vcgi:esiteid" v="276126"/>
  </node>
  <node id="-226" visible="true" lat="44.70561218" lon="-72.76193246">
    <tag k="addr:city" v="Waterville"/>
    <tag k="addr:housenumber" v="1721"/>
    <tag k="addr:street" v="Vermont Route 109"/>
    <tag k="addr:state" v="VT"/>
    <tag k="ref:vcgi:esiteid" v="276127"/>
  </node>
  <node id="-227" visible="true" lat="44.7057155" lon="-72.76414942">
    <tag k="addr:city" v="Waterville"/>
    <tag k="addr:housenumber" v="1635"/>
    <tag k="addr:street" v="Vermont Route 109"/>
    <tag k="addr:state" v="VT"/>
    <tag k="ref:vcgi:esiteid" v="276128"/>
  </node>
  <node id="-228" visible="true" lat="44.70487213" lon="-72.76281747">
    <tag k="addr:city" v="Waterville"/>
    <tag k="addr:housenumber" v="1660"/>
    <tag k="addr:street" v="Vermont Route 109"/>
    <tag k="addr:state" v="VT"/>
    <tag k="ref:vcgi:esiteid" v="276129"/>
  </node>
  <node id="-229" visible="true" lat="44.70465242" lon="-72.76302734">
    <tag k="addr:city" v="Waterville"/>
    <tag k="addr:housenumber" v="1644"/>
    <tag k="addr:street" v="Vermont Route 109"/>
    <tag k="addr:state" v="VT"/>
    <tag k="ref:vcgi:esiteid" v="276130"/>
  </node>
  <node id="-230" visible="true" lat="44.70503035" lon="-72.75994846">
    <tag k="addr:city" v="Waterville"/>
    <tag k="addr:housenumber" v="129"/>
    <tag k="addr:street" v="Montgomery Road"/>
    <tag k="addr:state" v="VT"/>
    <tag k="ref:vcgi:esiteid" v="276131"/>
  </node>
  <node id="-231" visible="true" lat="44.70417732" lon="-72.76429561">
    <tag k="addr:city" v="Waterville"/>
    <tag k="addr:housenumber" v="1579"/>
    <tag k="addr:street" v="Vermont Route 109"/>
    <tag k="addr:state" v="VT"/>
    <tag k="ref:vcgi:esiteid" v="276132"/>
  </node>
  <node id="-232" visible="true" lat="44.70421687" lon="-72.76358057">
    <tag k="addr:city" v="Waterville"/>
    <tag k="addr:housenumber" v="1586"/>
    <tag k="addr:street" v="Vermont Route 109"/>
    <tag k="addr:state" v="VT"/>
    <tag k="ref:vcgi:esiteid" v="276133"/>
  </node>
  <node id="-233" visible="true" lat="44.70381467" lon="-72.77171646">
    <tag k="addr:city" v="Waterville"/>
    <tag k="addr:housenumber" v="50"/>
    <tag k="addr:street" v="Bradley Road"/>
    <tag k="addr:state" v="VT"/>
    <tag k="ref:vcgi:esiteid" v="276134"/>
  </node>
  <node id="-234" visible="true" lat="44.70345808" lon="-72.76915792">
    <tag k="addr:city" v="Waterville"/>
    <tag k="addr:housenumber" v="596"/>
    <tag k="addr:street" v="Lapland Road"/>
    <tag k="addr:state" v="VT"/>
    <tag k="ref:vcgi:esiteid" v="276135"/>
  </node>
  <node id="-235" visible="true" lat="44.70290756" lon="-72.76351937">
    <tag k="addr:city" v="Waterville"/>
    <tag k="addr:housenumber" v="1490"/>
    <tag k="addr:street" v="Vermont Route 109"/>
    <tag k="addr:state" v="VT"/>
    <tag k="ref:vcgi:esiteid" v="276136"/>
  </node>
  <node id="-236" visible="true" lat="44.70284293" lon="-72.75547834">
    <tag k="addr:city" v="Waterville"/>
    <tag k="addr:housenumber" v="857"/>
    <tag k="addr:street" v="Beals Hill Road"/>
    <tag k="addr:state" v="VT"/>
    <tag k="ref:vcgi:esiteid" v="276137"/>
  </node>
  <node id="-237" visible="true" lat="44.702365" lon="-72.76295546">
    <tag k="addr:city" v="Waterville"/>
    <tag k="addr:housenumber" v="1486"/>
    <tag k="addr:street" v="Vermont Route 109"/>
    <tag k="addr:state" v="VT"/>
    <tag k="ref:vcgi:esiteid" v="276138"/>
  </node>
  <node id="-238" visible="true" lat="44.70223618" lon="-72.77136239">
    <tag k="addr:city" v="Waterville"/>
    <tag k="addr:housenumber" v="92"/>
    <tag k="addr:street" v="Quinty Road"/>
    <tag k="addr:state" v="VT"/>
    <tag k="ref:vcgi:esiteid" v="276139"/>
  </node>
  <node id="-239" visible="true" lat="44.70208802" lon="-72.75525553">
    <tag k="addr:city" v="Waterville"/>
    <tag k="addr:housenumber" v="822"/>
    <tag k="addr:street" v="Beals Hill Road"/>
    <tag k="addr:state" v="VT"/>
    <tag k="ref:vcgi:esiteid" v="276140"/>
  </node>
  <node id="-240" visible="true" lat="44.70133209" lon="-72.76432046">
    <tag k="addr:city" v="Waterville"/>
    <tag k="addr:housenumber" v="1379"/>
    <tag k="addr:street" v="Vermont Route 109"/>
    <tag k="addr:state" v="VT"/>
    <tag k="ref:vcgi:esiteid" v="276141"/>
  </node>
  <node id="-241" visible="true" lat="44.70129013" lon="-72.76366433">
    <tag k="addr:city" v="Waterville"/>
    <tag k="addr:housenumber" v="1378"/>
    <tag k="addr:street" v="Vermont Route 109"/>
    <tag k="addr:state" v="VT"/>
    <tag k="ref:vcgi:esiteid" v="276142"/>
  </node>
  <node id="-242" visible="true" lat="44.70080475" lon="-72.77017959">
    <tag k="addr:city" v="Waterville"/>
    <tag k="addr:housenumber" v="423"/>
    <tag k="addr:street" v="Lapland Road"/>
    <tag k="addr:state" v="VT"/>
    <tag k="ref:vcgi:esiteid" v="276143"/>
  </node>
  <node id="-243" visible="true" lat="44.70080948" lon="-72.76471719">
    <tag k="addr:city" v="Waterville"/>
    <tag k="addr:housenumber" v="1299"/>
    <tag k="addr:street" v="Vermont Route 109"/>
    <tag k="addr:state" v="VT"/>
    <tag k="ref:vcgi:esiteid" v="276144"/>
  </node>
  <node id="-244" visible="true" lat="44.70069122" lon="-72.76408395">
    <tag k="addr:city" v="Waterville"/>
    <tag k="addr:housenumber" v="1336"/>
    <tag k="addr:street" v="Vermont Route 109"/>
    <tag k="addr:state" v="VT"/>
    <tag k="ref:vcgi:esiteid" v="276145"/>
  </node>
  <node id="-245" visible="true" lat="44.6997944" lon="-72.76648388">
    <tag k="addr:city" v="Waterville"/>
    <tag k="addr:housenumber" v="87"/>
    <tag k="addr:street" v="Burt Road"/>
    <tag k="addr:state" v="VT"/>
    <tag k="ref:vcgi:esiteid" v="276146"/>
  </node>
  <node id="-246" visible="true" lat="44.70012661" lon="-72.76473986">
    <tag k="addr:city" v="Waterville"/>
    <tag k="addr:housenumber" v="1297"/>
    <tag k="addr:street" v="Vermont Route 109"/>
    <tag k="addr:state" v="VT"/>
    <tag k="ref:vcgi:esiteid" v="276147"/>
  </node>
  <node id="-247" visible="true" lat="44.70031743" lon="-72.76406784">
    <tag k="addr:city" v="Waterville"/>
    <tag k="addr:housenumber" v="1302"/>
    <tag k="addr:street" v="Vermont Route 109"/>
    <tag k="addr:state" v="VT"/>
    <tag k="ref:vcgi:esiteid" v="276148"/>
  </node>
  <node id="-248" visible="true" lat="44.7001011" lon="-72.76915026">
    <tag k="addr:city" v="Waterville"/>
    <tag k="addr:housenumber" v="377"/>
    <tag k="addr:street" v="Lapland Road"/>
    <tag k="addr:state" v="VT"/>
    <tag k="ref:vcgi:esiteid" v="276149"/>
  </node>
  <node id="-249" visible="true" lat="44.70051022" lon="-72.766328">
    <tag k="addr:city" v="Waterville"/>
    <tag k="addr:housenumber" v="86"/>
    <tag k="addr:street" v="Burt Road"/>
    <tag k="addr:state" v="VT"/>
    <tag k="ref:vcgi:esiteid" v="276150"/>
  </node>
  <node id="-250" visible="true" lat="44.69966497" lon="-72.77241579">
    <tag k="addr:city" v="Waterville"/>
    <tag k="addr:housenumber" v="252"/>
    <tag k="addr:street" v="Quinty Road"/>
    <tag k="addr:state" v="VT"/>
    <tag k="ref:vcgi:esiteid" v="276151"/>
  </node>
  <node id="-251" visible="true" lat="44.6994105" lon="-72.76529509">
    <tag k="addr:city" v="Waterville"/>
    <tag k="addr:housenumber" v="35"/>
    <tag k="addr:street" v="Burt Road"/>
    <tag k="addr:state" v="VT"/>
    <tag k="ref:vcgi:esiteid" v="276152"/>
  </node>
  <node id="-252" visible="true" lat="44.69941074" lon="-72.75717324">
    <tag k="addr:city" v="Waterville"/>
    <tag k="addr:housenumber" v="598"/>
    <tag k="addr:street" v="Beals Hill Road"/>
    <tag k="addr:state" v="VT"/>
    <tag k="ref:vcgi:esiteid" v="276153"/>
  </node>
  <node id="-253" visible="true" lat="44.69914371" lon="-72.76469027">
    <tag k="addr:city" v="Waterville"/>
    <tag k="addr:housenumber" v="1228"/>
    <tag k="addr:street" v="Vermont Route 109"/>
    <tag k="addr:state" v="VT"/>
    <tag k="ref:vcgi:esiteid" v="276154"/>
  </node>
  <node id="-254" visible="true" lat="44.69888291" lon="-72.76528121">
    <tag k="addr:city" v="Waterville"/>
    <tag k="addr:housenumber" v="1211"/>
    <tag k="addr:street" v="Vermont Route 109"/>
    <tag k="addr:state" v="VT"/>
    <tag k="ref:vcgi:esiteid" v="276155"/>
  </node>
  <node id="-255" visible="true" lat="44.69939763" lon="-72.76172983">
    <tag k="addr:city" v="Waterville"/>
    <tag k="addr:housenumber" v="219"/>
    <tag k="addr:street" v="Beals Hill Road"/>
    <tag k="addr:state" v="VT"/>
    <tag k="ref:vcgi:esiteid" v="276156"/>
  </node>
  <node id="-256" visible="true" lat="44.69886398" lon="-72.76716622">
    <tag k="addr:city" v="Waterville"/>
    <tag k="addr:housenumber" v="220"/>
    <tag k="addr:street" v="Lapland Road"/>
    <tag k="addr:state" v="VT"/>
    <tag k="ref:vcgi:esiteid" v="276157"/>
  </node>
  <node id="-257" visible="true" lat="44.69878553" lon="-72.76482217">
    <tag k="addr:city" v="Waterville"/>
    <tag k="addr:housenumber" v="1202"/>
    <tag k="addr:street" v="Vermont Route 109"/>
    <tag k="addr:state" v="VT"/>
    <tag k="ref:vcgi:esiteid" v="276158"/>
  </node>
  <node id="-258" visible="true" lat="44.69837084" lon="-72.76483517">
    <tag k="addr:city" v="Waterville"/>
    <tag k="addr:housenumber" v="1174"/>
    <tag k="addr:street" v="Vermont Route 109"/>
    <tag k="addr:state" v="VT"/>
    <tag k="ref:vcgi:esiteid" v="276159"/>
  </node>
  <node id="-259" visible="true" lat="44.69816971" lon="-72.76553353">
    <tag k="addr:city" v="Waterville"/>
    <tag k="addr:housenumber" v="1173"/>
    <tag k="addr:street" v="Vermont Route 109"/>
    <tag k="addr:state" v="VT"/>
    <tag k="ref:vcgi:esiteid" v="276160"/>
  </node>
  <node id="-260" visible="true" lat="44.69761704" lon="-72.76495697">
    <tag k="addr:city" v="Waterville"/>
    <tag k="addr:housenumber" v="1124"/>
    <tag k="addr:street" v="Vermont Route 109"/>
    <tag k="addr:state" v="VT"/>
    <tag k="ref:vcgi:esiteid" v="276161"/>
  </node>
  <node id="-261" visible="true" lat="44.69708384" lon="-72.75815549">
    <tag k="addr:city" v="Waterville"/>
    <tag k="addr:housenumber" v="93"/>
    <tag k="addr:street" v="Page Hill Road"/>
    <tag k="addr:state" v="VT"/>
    <tag k="ref:vcgi:esiteid" v="276162"/>
  </node>
  <node id="-262" visible="true" lat="44.69712655" lon="-72.76572811">
    <tag k="addr:city" v="Waterville"/>
    <tag k="addr:housenumber" v="1079"/>
    <tag k="addr:street" v="Vermont Route 109"/>
    <tag k="addr:state" v="VT"/>
    <tag k="ref:vcgi:esiteid" v="276163"/>
  </node>
  <node id="-263" visible="true" lat="44.69656253" lon="-72.75591327">
    <tag k="addr:city" v="Waterville"/>
    <tag k="addr:housenumber" v="271"/>
    <tag k="addr:street" v="Page Hill Road"/>
    <tag k="addr:state" v="VT"/>
    <tag k="ref:vcgi:esiteid" v="276165"/>
  </node>
  <node id="-264" visible="true" lat="44.69600695" lon="-72.76040621">
    <tag k="addr:city" v="Waterville"/>
    <tag k="addr:housenumber" v="350"/>
    <tag k="addr:street" v="Beals Hill Road"/>
    <tag k="addr:state" v="VT"/>
    <tag k="ref:vcgi:esiteid" v="276166"/>
  </node>
  <node id="-265" visible="true" lat="44.69563548" lon="-72.76583152">
    <tag k="addr:city" v="Waterville"/>
    <tag k="addr:housenumber" v="36"/>
    <tag k="addr:street" v="Lapland Road"/>
    <tag k="addr:state" v="VT"/>
    <tag k="ref:vcgi:esiteid" v="276167"/>
  </node>
  <node id="-266" visible="true" lat="44.69560454" lon="-72.756887">
    <tag k="addr:city" v="Waterville"/>
    <tag k="addr:housenumber" v="234"/>
    <tag k="addr:street" v="Page Hill Road"/>
    <tag k="addr:state" v="VT"/>
    <tag k="ref:vcgi:esiteid" v="276168"/>
  </node>
  <node id="-267" visible="true" lat="44.69546433" lon="-72.76539726">
    <tag k="addr:city" v="Waterville"/>
    <tag k="addr:housenumber" v="972"/>
    <tag k="addr:street" v="Vermont Route 109"/>
    <tag k="addr:state" v="VT"/>
    <tag k="ref:vcgi:esiteid" v="276169"/>
  </node>
  <node id="-268" visible="true" lat="44.69528295" lon="-72.77404493">
    <tag k="addr:city" v="Waterville"/>
    <tag k="addr:housenumber" v="401"/>
    <tag k="addr:street" v="High Meadows"/>
    <tag k="addr:state" v="VT"/>
    <tag k="ref:vcgi:esiteid" v="276170"/>
  </node>
  <node id="-269" visible="true" lat="44.69502057" lon="-72.76545479">
    <tag k="addr:city" v="Waterville"/>
    <tag k="addr:housenumber" v="946"/>
    <tag k="addr:street" v="Vermont Route 109"/>
    <tag k="addr:state" v="VT"/>
    <tag k="ref:vcgi:esiteid" v="276171"/>
  </node>
  <node id="-270" visible="true" lat="44.69522189" lon="-72.75962171">
    <tag k="addr:city" v="Waterville"/>
    <tag k="addr:housenumber" v="759"/>
    <tag k="addr:street" v="Oakes Road"/>
    <tag k="addr:state" v="VT"/>
    <tag k="ref:vcgi:esiteid" v="276172"/>
  </node>
  <node id="-271" visible="true" lat="44.69521488" lon="-72.75456682">
    <tag k="addr:city" v="Waterville"/>
    <tag k="addr:housenumber" v="303"/>
    <tag k="addr:street" v="Page Hill Road"/>
    <tag k="addr:state" v="VT"/>
    <tag k="ref:vcgi:esiteid" v="276173"/>
  </node>
  <node id="-272" visible="true" lat="44.69460498" lon="-72.77179899">
    <tag k="addr:city" v="Waterville"/>
    <tag k="addr:housenumber" v="210"/>
    <tag k="addr:street" v="High Meadows"/>
    <tag k="addr:state" v="VT"/>
    <tag k="ref:vcgi:esiteid" v="276174"/>
  </node>
  <node id="-273" visible="true" lat="44.69453841" lon="-72.76329049">
    <tag k="addr:city" v="Waterville"/>
    <tag k="addr:housenumber" v="174"/>
    <tag k="addr:street" v="Beals Hill Road"/>
    <tag k="addr:state" v="VT"/>
    <tag k="ref:vcgi:esiteid" v="276175"/>
  </node>
  <node id="-274" visible="true" lat="44.69426371" lon="-72.7642407">
    <tag k="addr:city" v="Waterville"/>
    <tag k="addr:housenumber" v="112"/>
    <tag k="addr:street" v="Beals Hill Road"/>
    <tag k="addr:state" v="VT"/>
    <tag k="ref:vcgi:esiteid" v="276176"/>
  </node>
  <node id="-275" visible="true" lat="44.69430856" lon="-72.76590986">
    <tag k="addr:city" v="Waterville"/>
    <tag k="addr:housenumber" v="892"/>
    <tag k="addr:street" v="Vermont Route 109"/>
    <tag k="addr:state" v="VT"/>
    <tag k="ref:vcgi:esiteid" v="276177"/>
  </node>
  <node id="-277" visible="true" lat="44.69370709" lon="-72.76905941">
    <tag k="addr:city" v="Waterville"/>
    <tag k="addr:housenumber" v="179"/>
    <tag k="addr:street" v="Wetherell Road"/>
    <tag k="addr:state" v="VT"/>
    <tag k="ref:vcgi:esiteid" v="276179"/>
  </node>
  <node id="-279" visible="true" lat="44.69374637" lon="-72.76598148">
    <tag k="addr:city" v="Waterville"/>
    <tag k="addr:housenumber" v="852"/>
    <tag k="addr:street" v="Vermont Route 109"/>
    <tag k="addr:state" v="VT"/>
    <tag k="ref:vcgi:esiteid" v="276181"/>
  </node>
  <node id="-282" visible="true" lat="44.69305008" lon="-72.76796167">
    <tag k="addr:city" v="Waterville"/>
    <tag k="addr:housenumber" v="756"/>
    <tag k="addr:street" v="Vermont Route 109"/>
    <tag k="addr:state" v="VT"/>
    <tag k="ref:vcgi:esiteid" v="276184"/>
  </node>
  <node id="-283" visible="true" lat="44.69300461" lon="-72.78578194">
    <tag k="addr:city" v="Waterville"/>
    <tag k="addr:housenumber" v="642"/>
    <tag k="addr:street" v="Twiss Hill"/>
    <tag k="addr:state" v="VT"/>
    <tag k="ref:vcgi:esiteid" v="276185"/>
  </node>
  <node id="-285" visible="true" lat="44.69275605" lon="-72.77092711">
    <tag k="addr:city" v="Waterville"/>
    <tag k="addr:housenumber" v="59"/>
    <tag k="addr:street" v="Wetherell Road"/>
    <tag k="addr:state" v="VT"/>
    <tag k="ref:vcgi:esiteid" v="276187"/>
  </node>
  <node id="-286" visible="true" lat="44.69258118" lon="-72.75605782">
    <tag k="addr:city" v="Waterville"/>
    <tag k="addr:housenumber" v="978"/>
    <tag k="addr:street" v="Oakes Road"/>
    <tag k="addr:state" v="VT"/>
    <tag k="ref:vcgi:esiteid" v="276188"/>
  </node>
  <node id="-287" visible="true" lat="44.69234848" lon="-72.76029977">
    <tag k="addr:city" v="Waterville"/>
    <tag k="addr:housenumber" v="757"/>
    <tag k="addr:street" v="Oakes Road"/>
    <tag k="addr:state" v="VT"/>
    <tag k="ref:vcgi:esiteid" v="276189"/>
  </node>
  <node id="-288" visible="true" lat="44.69189022" lon="-72.78668088">
    <tag k="addr:city" v="Waterville"/>
    <tag k="addr:housenumber" v="704"/>
    <tag k="addr:street" v="Twiss Hill"/>
    <tag k="addr:state" v="VT"/>
    <tag k="ref:vcgi:esiteid" v="276190"/>
  </node>
  <node id="-290" visible="true" lat="44.69165802" lon="-72.75975045">
    <tag k="addr:city" v="Waterville"/>
    <tag k="addr:housenumber" v="716"/>
    <tag k="addr:street" v="Oakes Road"/>
    <tag k="addr:state" v="VT"/>
    <tag k="ref:vcgi:esiteid" v="276192"/>
  </node>
  <node id="-291" visible="true" lat="44.69158936" lon="-72.78538521">
    <tag k="addr:city" v="Waterville"/>
    <tag k="addr:housenumber" v="609"/>
    <tag k="addr:street" v="Twiss Hill"/>
    <tag k="addr:state" v="VT"/>
    <tag k="ref:vcgi:esiteid" v="276193"/>
  </node>
  <node id="-292" visible="true" lat="44.69151306" lon="-72.76950082">
    <tag k="addr:city" v="Waterville"/>
    <tag k="addr:housenumber" v="619"/>
    <tag k="addr:street" v="Vermont Route 109"/>
    <tag k="addr:state" v="VT"/>
    <tag k="ref:vcgi:esiteid" v="276194"/>
  </node>
  <node id="-307" visible="true" lat="44.68991074" lon="-72.76893491">
    <tag k="addr:city" v="Waterville"/>
    <tag k="addr:housenumber" v="504"/>
    <tag k="addr:street" v="Vermont Route 109"/>
    <tag k="addr:state" v="VT"/>
    <tag k="ref:vcgi:esiteid" v="276210"/>
  </node>
  <node id="-308" visible="true" lat="44.68977328" lon="-72.76055294">
    <tag k="addr:city" v="Waterville"/>
    <tag k="addr:housenumber" v="589"/>
    <tag k="addr:street" v="Oakes Road"/>
    <tag k="addr:state" v="VT"/>
    <tag k="ref:vcgi:esiteid" v="276211"/>
  </node>
  <node id="-310" visible="true" lat="44.68970471" lon="-72.76542639">
    <tag k="addr:city" v="Waterville"/>
    <tag k="addr:housenumber" v="169"/>
    <tag k="addr:street" v="Oakes Road"/>
    <tag k="addr:state" v="VT"/>
    <tag k="ref:vcgi:esiteid" v="276213"/>
  </node>
  <node id="-311" visible="true" lat="44.68944294" lon="-72.7699558">
    <tag k="addr:city" v="Waterville"/>
    <tag k="addr:housenumber" v="493"/>
    <tag k="addr:street" v="Vermont Route 109"/>
    <tag k="addr:state" v="VT"/>
    <tag k="ref:vcgi:esiteid" v="276214"/>
  </node>
  <node id="-312" visible="true" lat="44.68913269" lon="-72.76902016">
    <tag k="addr:city" v="Waterville"/>
    <tag k="addr:housenumber" v="454"/>
    <tag k="addr:street" v="Vermont Route 109"/>
    <tag k="addr:state" v="VT"/>
    <tag k="ref:vcgi:esiteid" v="276215"/>
  </node>
  <node id="-313" visible="true" lat="44.68904094" lon="-72.77990029">
    <tag k="addr:city" v="Waterville"/>
    <tag k="addr:housenumber" v="274"/>
    <tag k="addr:street" v="Twiss Hill"/>
    <tag k="addr:state" v="VT"/>
    <tag k="ref:vcgi:esiteid" v="276216"/>
  </node>
  <node id="-314" visible="true" lat="44.68887576" lon="-72.76894783">
    <tag k="addr:city" v="Waterville"/>
    <tag k="addr:housenumber" v="440"/>
    <tag k="addr:street" v="Vermont Route 109"/>
    <tag k="addr:state" v="VT"/>
    <tag k="ref:vcgi:esiteid" v="276217"/>
  </node>
  <node id="-315" visible="true" lat="44.68878555" lon="-72.76606759">
    <tag k="addr:city" v="Waterville"/>
    <tag k="addr:housenumber" v="159"/>
    <tag k="addr:street" v="Oakes Road"/>
    <tag k="addr:state" v="VT"/>
    <tag k="ref:vcgi:esiteid" v="276218"/>
  </node>
  <node id="-319" visible="true" lat="44.6886406" lon="-72.76686868">
    <tag k="addr:city" v="Waterville"/>
    <tag k="addr:housenumber" v="117"/>
    <tag k="addr:street" v="Oakes Road"/>
    <tag k="addr:state" v="VT"/>
    <tag k="ref:vcgi:esiteid" v="276222"/>
  </node>
  <node id="-320" visible="true" lat="44.68837738" lon="-72.76956185">
    <tag k="addr:city" v="Waterville"/>
    <tag k="addr:housenumber" v="399"/>
    <tag k="addr:street" v="Vermont Route 109"/>
    <tag k="addr:state" v="VT"/>
    <tag k="ref:vcgi:esiteid" v="276223"/>
  </node>
  <node id="-321" visible="true" lat="44.68828583" lon="-72.76911935">
    <tag k="addr:city" v="Waterville"/>
    <tag k="addr:housenumber" v="396"/>
    <tag k="addr:street" v="Vermont Route 109"/>
    <tag k="addr:state" v="VT"/>
    <tag k="ref:vcgi:esiteid" v="276224"/>
  </node>
  <node id="-322" visible="true" lat="44.68775376" lon="-72.77429966">
    <tag k="addr:city" v="Waterville"/>
    <tag k="addr:housenumber" v="236"/>
    <tag k="addr:street" v="Griffin Road"/>
    <tag k="addr:state" v="VT"/>
    <tag k="ref:vcgi:esiteid" v="276225"/>
  </node>
  <node id="-323" visible="true" lat="44.68744638" lon="-72.77399994">
    <tag k="addr:city" v="Waterville"/>
    <tag k="addr:housenumber" v="229"/>
    <tag k="addr:street" v="Griffin Road"/>
    <tag k="addr:state" v="VT"/>
    <tag k="ref:vcgi:esiteid" v="276226"/>
  </node>
  <node id="-324" visible="true" lat="44.6871006" lon="-72.76006078">
    <tag k="addr:city" v="Waterville"/>
    <tag k="addr:housenumber" v="41"/>
    <tag k="addr:street" v="Fletcher Road"/>
    <tag k="addr:state" v="VT"/>
    <tag k="ref:vcgi:esiteid" v="276227"/>
  </node>
  <node id="-325" visible="true" lat="44.68690033" lon="-72.76092776">
    <tag k="addr:city" v="Waterville"/>
    <tag k="addr:housenumber" v="54"/>
    <tag k="addr:street" v="Fletcher Road"/>
    <tag k="addr:state" v="VT"/>
    <tag k="ref:vcgi:esiteid" v="276228"/>
  </node>
  <node id="-326" visible="true" lat="44.68692017" lon="-72.76866921">
    <tag k="addr:city" v="Waterville"/>
    <tag k="addr:housenumber" v="310"/>
    <tag k="addr:street" v="Vermont Route 109"/>
    <tag k="addr:state" v="VT"/>
    <tag k="ref:vcgi:esiteid" v="276229"/>
  </node>
  <node id="-327" visible="true" lat="44.68676376" lon="-72.76945504">
    <tag k="addr:city" v="Waterville"/>
    <tag k="addr:housenumber" v="294"/>
    <tag k="addr:street" v="Vermont Route 109"/>
    <tag k="addr:state" v="VT"/>
    <tag k="ref:vcgi:esiteid" v="276230"/>
  </node>
  <node id="-328" visible="true" lat="44.68628947" lon="-72.77553678">
    <tag k="addr:city" v="Waterville"/>
    <tag k="addr:housenumber" v="347"/>
    <tag k="addr:street" v="Griffin Road"/>
    <tag k="addr:state" v="VT"/>
    <tag k="ref:vcgi:esiteid" v="276231"/>
  </node>
  <node id="-329" visible="true" lat="44.68580822" lon="-72.75849756">
    <tag k="addr:city" v="Waterville"/>
    <tag k="addr:housenumber" v="89"/>
    <tag k="addr:street" v="Fletcher Road"/>
    <tag k="addr:state" v="VT"/>
    <tag k="ref:vcgi:esiteid" v="276232"/>
  </node>
  <node id="-331" visible="true" lat="44.68521364" lon="-72.76082017">
    <tag k="addr:city" v="Waterville"/>
    <tag k="addr:housenumber" v="145"/>
    <tag k="addr:street" v="Fletcher Road"/>
    <tag k="addr:state" v="VT"/>
    <tag k="ref:vcgi:esiteid" v="276234"/>
  </node>
  <node id="-333" visible="true" lat="44.68518608" lon="-72.77085847">
    <tag k="addr:city" v="Waterville"/>
    <tag k="addr:housenumber" v="189"/>
    <tag k="addr:street" v="Vermont Route 109"/>
    <tag k="addr:state" v="VT"/>
    <tag k="ref:vcgi:esiteid" v="276236"/>
  </node>
  <node id="-346" visible="true" lat="44.67931366" lon="-72.74259194">
    <tag k="addr:city" v="Waterville"/>
    <tag k="addr:housenumber" v="4444"/>
    <tag k="addr:street" v="Plot Road"/>
    <tag k="addr:state" v="VT"/>
    <tag k="ref:vcgi:esiteid" v="276249"/>
  </node>
  <node id="-347" visible="true" lat="44.67890167" lon="-72.74391946">
    <tag k="addr:city" v="Waterville"/>
    <tag k="addr:housenumber" v="4508"/>
    <tag k="addr:street" v="Plot Road"/>
    <tag k="addr:state" v="VT"/>
    <tag k="ref:vcgi:esiteid" v="276250"/>
  </node>
  <node id="-348" visible="true" lat="44.67870712" lon="-72.74565133">
    <tag k="addr:city" v="Waterville"/>
    <tag k="addr:housenumber" v="4590"/>
    <tag k="addr:street" v="Plot Road"/>
    <tag k="addr:state" v="VT"/>
    <tag k="ref:vcgi:esiteid" v="276251"/>
  </node>
  <node id="-349" visible="true" lat="44.67858124" lon="-72.74103555">
    <tag k="addr:city" v="Waterville"/>
    <tag k="addr:housenumber" v="4366"/>
    <tag k="addr:street" v="Plot Road"/>
    <tag k="addr:state" v="VT"/>
    <tag k="ref:vcgi:esiteid" v="276252"/>
  </node>
  <node id="-350" visible="true" lat="44.67792572" lon="-72.74887249">
    <tag k="addr:city" v="Waterville"/>
    <tag k="addr:housenumber" v="4746"/>
    <tag k="addr:street" v="Plot Road"/>
    <tag k="addr:state" v="VT"/>
    <tag k="ref:vcgi:esiteid" v="276253"/>
  </node>
  <node id="-351" visible="true" lat="44.67789582" lon="-72.75098216">
    <tag k="addr:city" v="Waterville"/>
    <tag k="addr:housenumber" v="4852"/>
    <tag k="addr:street" v="Plot Road"/>
    <tag k="addr:state" v="VT"/>
    <tag k="ref:vcgi:esiteid" v="276254"/>
  </node>
  <node id="-352" visible="true" lat="44.67714601" lon="-72.75383529">
    <tag k="addr:city" v="Waterville"/>
    <tag k="addr:housenumber" v="5012"/>
    <tag k="addr:street" v="Plot Road"/>
    <tag k="addr:state" v="VT"/>
    <tag k="ref:vcgi:esiteid" v="276255"/>
  </node>
  <node id="-353" visible="true" lat="44.67693828" lon="-72.75116666">
    <tag k="addr:city" v="Waterville"/>
    <tag k="addr:housenumber" v="4881"/>
    <tag k="addr:street" v="Plot Road"/>
    <tag k="addr:state" v="VT"/>
    <tag k="ref:vcgi:esiteid" v="276256"/>
  </node>
  <node id="-354" visible="true" lat="44.74952006" lon="-72.74676003">
    <tag k="addr:city" v="Waterville"/>
    <tag k="addr:housenumber" v="966"/>
    <tag k="addr:street" v="Smithville Road"/>
    <tag k="addr:state" v="VT"/>
    <tag k="ref:vcgi:esiteid" v="276257"/>
  </node>
  <node id="-356" visible="true" lat="44.6879802" lon="-72.77715359">
    <tag k="addr:city" v="Waterville"/>
    <tag k="addr:housenumber" v="128"/>
    <tag k="addr:street" v="Twiss Hill"/>
    <tag k="addr:state" v="VT"/>
    <tag k="ref:vcgi:esiteid" v="276259"/>
  </node>
  <node id="-357" visible="true" lat="44.73341826" lon="-72.74990261">
    <tag k="addr:city" v="Waterville"/>
    <tag k="addr:housenumber" v="180"/>
    <tag k="addr:street" v="Maxfield Road"/>
    <tag k="addr:state" v="VT"/>
    <tag k="ref:vcgi:esiteid" v="276260"/>
  </node>
  <node id="-358" visible="true" lat="44.68938827" lon="-72.78244027">
    <tag k="addr:city" v="Waterville"/>
    <tag k="addr:housenumber" v="441"/>
    <tag k="addr:street" v="Twiss Hill"/>
    <tag k="addr:state" v="VT"/>
    <tag k="ref:vcgi:esiteid" v="276261"/>
  </node>
  <node id="-359" visible="true" lat="44.74905473" lon="-72.74680034">
    <tag k="addr:city" v="Waterville"/>
    <tag k="addr:housenumber" v="900"/>
    <tag k="addr:street" v="Smithville Road"/>
    <tag k="addr:state" v="VT"/>
    <tag k="ref:vcgi:esiteid" v="276262"/>
  </node>
  <node id="-360" visible="true" lat="44.71418408" lon="-72.74086682">
    <tag k="addr:city" v="Waterville"/>
    <tag k="addr:housenumber" v="40"/>
    <tag k="addr:street" v="Clark Road"/>
    <tag k="addr:state" v="VT"/>
    <tag k="ref:vcgi:esiteid" v="276263"/>
  </node>
  <node id="-363" visible="true" lat="44.71335953" lon="-72.73803347">
    <tag k="addr:city" v="Waterville"/>
    <tag k="addr:housenumber" v="1073"/>
    <tag k="addr:street" v="Codding Hollow Road"/>
    <tag k="addr:state" v="VT"/>
    <tag k="ref:vcgi:esiteid" v="276266"/>
  </node>
  <node id="-364" visible="true" lat="44.71401975" lon="-72.73923381">
    <tag k="addr:city" v="Waterville"/>
    <tag k="addr:housenumber" v="1019"/>
    <tag k="addr:street" v="Codding Hollow Road"/>
    <tag k="addr:state" v="VT"/>
    <tag k="ref:vcgi:esiteid" v="276267"/>
  </node>
  <node id="-365" visible="true" lat="44.7033706" lon="-72.7630536">
    <tag k="addr:city" v="Waterville"/>
    <tag k="addr:housenumber" v="1560"/>
    <tag k="addr:street" v="Vermont Route 109"/>
    <tag k="addr:state" v="VT"/>
    <tag k="ref:vcgi:esiteid" v="276268"/>
  </node>
  <node id="-366" visible="true" lat="44.74652072" lon="-72.74430365">
    <tag k="addr:city" v="Waterville"/>
    <tag k="addr:housenumber" v="770"/>
    <tag k="addr:street" v="Smithville Road"/>
    <tag k="addr:state" v="VT"/>
    <tag k="ref:vcgi:esiteid" v="276269"/>
  </node>
  <node id="-367" visible="true" lat="44.75129437" lon="-72.74663446">
    <tag k="addr:city" v="Waterville"/>
    <tag k="addr:housenumber" v="1116"/>
    <tag k="addr:street" v="Smithville Road"/>
    <tag k="addr:state" v="VT"/>
    <tag k="ref:vcgi:esiteid" v="276271"/>
  </node>
  <node id="-368" visible="true" lat="44.73531848" lon="-72.78056171">
    <tag k="addr:city" v="Waterville"/>
    <tag k="addr:housenumber" v="3030"/>
    <tag k="addr:street" v="Lapland Road"/>
    <tag k="addr:state" v="VT"/>
    <tag k="ref:vcgi:esiteid" v="276272"/>
  </node>
  <node id="-369" visible="true" lat="44.72848965" lon="-72.74121068">
    <tag k="addr:city" v="Waterville"/>
    <tag k="addr:housenumber" v="1085"/>
    <tag k="addr:street" v="Clark Road"/>
    <tag k="addr:state" v="VT"/>
    <tag k="ref:vcgi:esiteid" v="276273"/>
  </node>
  <node id="-370" visible="true" lat="44.71363268" lon="-72.74120615">
    <tag k="addr:city" v="Waterville"/>
    <tag k="addr:housenumber" v="898"/>
    <tag k="addr:street" v="Codding Hollow Road"/>
    <tag k="addr:state" v="VT"/>
    <tag k="ref:vcgi:esiteid" v="276274"/>
  </node>
  <node id="-371" visible="true" lat="44.71217604" lon="-72.73757581">
    <tag k="addr:city" v="Waterville"/>
    <tag k="addr:housenumber" v="1120"/>
    <tag k="addr:street" v="Codding Hollow Road"/>
    <tag k="addr:state" v="VT"/>
    <tag k="ref:vcgi:esiteid" v="276275"/>
  </node>
  <node id="-372" visible="true" lat="44.71425247" lon="-72.74772652">
    <tag k="addr:city" v="Waterville"/>
    <tag k="addr:housenumber" v="581"/>
    <tag k="addr:street" v="Codding Hollow Road"/>
    <tag k="addr:state" v="VT"/>
    <tag k="ref:vcgi:esiteid" v="276276"/>
  </node>
  <node id="-374" visible="true" lat="44.68750679" lon="-72.75719672">
    <tag k="addr:city" v="Waterville"/>
    <tag k="addr:housenumber" v="442"/>
    <tag k="addr:street" v="Oakes Road"/>
    <tag k="addr:state" v="VT"/>
    <tag k="ref:vcgi:esiteid" v="276278"/>
  </node>
  <node id="-376" visible="true" lat="44.69562357" lon="-72.76257197">
    <tag k="addr:city" v="Waterville"/>
    <tag k="addr:housenumber" v="210"/>
    <tag k="addr:street" v="Beals Hill Road"/>
    <tag k="addr:state" v="VT"/>
    <tag k="ref:vcgi:esiteid" v="276280"/>
  </node>
  <node id="-377" visible="true" lat="44.6959168" lon="-72.75921669">
    <tag k="addr:city" v="Waterville"/>
    <tag k="addr:housenumber" v="140"/>
    <tag k="addr:street" v="Page Hill Road"/>
    <tag k="addr:state" v="VT"/>
    <tag k="ref:vcgi:esiteid" v="276281"/>
  </node>
  <node id="-378" visible="true" lat="44.69783473" lon="-72.76660421">
    <tag k="addr:city" v="Waterville"/>
    <tag k="addr:housenumber" v="136"/>
    <tag k="addr:street" v="Lapland Road"/>
    <tag k="addr:state" v="VT"/>
    <tag k="ref:vcgi:esiteid" v="276282"/>
  </node>
  <node id="-379" visible="true" lat="44.68876171" lon="-72.76324216">
    <tag k="addr:city" v="Waterville"/>
    <tag k="addr:housenumber" v="319"/>
    <tag k="addr:street" v="Oakes Road"/>
    <tag k="addr:state" v="VT"/>
    <tag k="ref:vcgi:esiteid" v="276283"/>
  </node>
  <node id="-382" visible="true" lat="44.6773652" lon="-72.75534571">
    <tag k="addr:city" v="Waterville"/>
    <tag k="addr:housenumber" v="5080"/>
    <tag k="addr:street" v="Plot Road"/>
    <tag k="addr:state" v="VT"/>
    <tag k="ref:vcgi:esiteid" v="276286"/>
  </node>
  <node id="-383" visible="true" lat="44.69442146" lon="-72.76992607">
    <tag k="addr:city" v="Waterville"/>
    <tag k="addr:housenumber" v="99"/>
    <tag k="addr:street" v="Wetherell Road"/>
    <tag k="addr:state" v="VT"/>
    <tag k="ref:vcgi:esiteid" v="276287"/>
  </node>
  <node id="-384" visible="true" lat="44.712592" lon="-72.75613369">
    <tag k="addr:city" v="Waterville"/>
    <tag k="addr:housenumber" v="71"/>
    <tag k="addr:street" v="Codding Hollow Road"/>
    <tag k="addr:state" v="VT"/>
    <tag k="ref:vcgi:esiteid" v="276288"/>
  </node>
  <node id="-385" visible="true" lat="44.71641704" lon="-72.77745917">
    <tag k="addr:city" v="Waterville"/>
    <tag k="addr:housenumber" v="1605"/>
    <tag k="addr:street" v="Lapland Road"/>
    <tag k="addr:state" v="VT"/>
    <tag k="ref:vcgi:esiteid" v="276289"/>
  </node>
  <node id="-386" visible="true" lat="44.72138836" lon="-72.7789979">
    <tag k="addr:city" v="Waterville"/>
    <tag k="addr:housenumber" v="1953"/>
    <tag k="addr:street" v="Lapland Road"/>
    <tag k="addr:state" v="VT"/>
    <tag k="ref:vcgi:esiteid" v="276290"/>
  </node>
  <node id="-387" visible="true" lat="44.74273079" lon="-72.74933563">
    <tag k="addr:city" v="Waterville"/>
    <tag k="addr:housenumber" v="481"/>
    <tag k="addr:street" v="Smithville Road"/>
    <tag k="addr:state" v="VT"/>
    <tag k="ref:vcgi:esiteid" v="276291"/>
  </node>
  <node id="-388" visible="true" lat="44.71247152" lon="-72.77759726">
    <tag k="addr:city" v="Waterville"/>
    <tag k="addr:housenumber" v="1275"/>
    <tag k="addr:street" v="Lapland Road"/>
    <tag k="addr:state" v="VT"/>
    <tag k="ref:vcgi:esiteid" v="276292"/>
  </node>
  <node id="-389" visible="true" lat="44.70792494" lon="-72.77423344">
    <tag k="addr:city" v="Waterville"/>
    <tag k="addr:housenumber" v="943"/>
    <tag k="addr:street" v="Lapland Road"/>
    <tag k="addr:state" v="VT"/>
    <tag k="ref:vcgi:esiteid" v="276293"/>
  </node>
  <node id="-390" visible="true" lat="44.74476176" lon="-72.74877636">
    <tag k="addr:city" v="Waterville"/>
    <tag k="addr:housenumber" v="599"/>
    <tag k="addr:street" v="Smithville Road"/>
    <tag k="addr:state" v="VT"/>
    <tag k="ref:vcgi:esiteid" v="276294"/>
  </node>
  <node id="-391" visible="true" lat="44.70257474" lon="-72.76442451">
    <tag k="addr:city" v="Waterville"/>
    <tag k="addr:housenumber" v="1489"/>
    <tag k="addr:street" v="Vermont Route 109"/>
    <tag k="addr:state" v="VT"/>
    <tag k="ref:vcgi:esiteid" v="276295"/>
  </node>
  <node id="-392" visible="true" lat="44.70237796" lon="-72.76508799">
    <tag k="addr:city" v="Waterville"/>
    <tag k="addr:housenumber" v="1487"/>
    <tag k="addr:street" v="Vermont Route 109"/>
    <tag k="addr:state" v="VT"/>
    <tag k="ref:vcgi:esiteid" v="276296"/>
  </node>
  <node id="-393" visible="true" lat="44.71608359" lon="-72.77507303">
    <tag k="addr:city" v="Waterville"/>
    <tag k="addr:housenumber" v="1500"/>
    <tag k="addr:street" v="Lapland Road"/>
    <tag k="addr:state" v="VT"/>
    <tag k="ref:vcgi:esiteid" v="276297"/>
  </node>
  <node id="-394" visible="true" lat="44.71739342" lon="-72.77802175">
    <tag k="addr:city" v="Waterville"/>
    <tag k="addr:housenumber" v="1657"/>
    <tag k="addr:street" v="Lapland Road"/>
    <tag k="addr:state" v="VT"/>
    <tag k="ref:vcgi:esiteid" v="276298"/>
  </node>
  <node id="-395" visible="true" lat="44.71592407" lon="-72.7773163">
    <tag k="addr:city" v="Waterville"/>
    <tag k="addr:housenumber" v="1555"/>
    <tag k="addr:street" v="Lapland Road"/>
    <tag k="addr:state" v="VT"/>
    <tag k="ref:vcgi:esiteid" v="276299"/>
  </node>
  <node id="-396" visible="true" lat="44.719573" lon="-72.7788858">
    <tag k="addr:city" v="Waterville"/>
    <tag k="addr:housenumber" v="1801"/>
    <tag k="addr:street" v="Lapland Road"/>
    <tag k="addr:state" v="VT"/>
    <tag k="ref:vcgi:esiteid" v="276300"/>
  </node>
  <node id="-397" visible="true" lat="44.72197844" lon="-72.74087285">
    <tag k="addr:city" v="Waterville"/>
    <tag k="addr:housenumber" v="650"/>
    <tag k="addr:street" v="Clark Road"/>
    <tag k="addr:state" v="VT"/>
    <tag k="ref:vcgi:esiteid" v="276301"/>
  </node>
  <node id="-398" visible="true" lat="44.72379308" lon="-72.74065359">
    <tag k="addr:city" v="Waterville"/>
    <tag k="addr:housenumber" v="770"/>
    <tag k="addr:street" v="Clark Road"/>
    <tag k="addr:state" v="VT"/>
    <tag k="ref:vcgi:esiteid" v="276302"/>
  </node>
  <node id="-399" visible="true" lat="44.72479169" lon="-72.74122029">
    <tag k="addr:city" v="Waterville"/>
    <tag k="addr:housenumber" v="820"/>
    <tag k="addr:street" v="Clark Road"/>
    <tag k="addr:state" v="VT"/>
    <tag k="ref:vcgi:esiteid" v="276303"/>
  </node>
  <node id="-400" visible="true" lat="44.70833594" lon="-72.7625289">
    <tag k="addr:city" v="Waterville"/>
    <tag k="addr:housenumber" v="1835"/>
    <tag k="addr:street" v="Vermont Route 109"/>
    <tag k="addr:state" v="VT"/>
    <tag k="ref:vcgi:esiteid" v="276304"/>
  </node>
  <node id="-401" visible="true" lat="44.71045803" lon="-72.72915638">
    <tag k="addr:city" v="Waterville"/>
    <tag k="addr:housenumber" v="1500"/>
    <tag k="addr:street" v="Codding Hollow Road"/>
    <tag k="addr:state" v="VT"/>
    <tag k="ref:vcgi:esiteid" v="276305"/>
  </node>
  <node id="-402" visible="true" lat="44.74887115" lon="-72.74684315">
    <tag k="addr:city" v="Waterville"/>
    <tag k="addr:housenumber" v="890"/>
    <tag k="addr:street" v="Smithville Road"/>
    <tag k="addr:state" v="VT"/>
    <tag k="ref:vcgi:esiteid" v="276306"/>
  </node>
  <node id="-403" visible="true" lat="44.72738677" lon="-72.73692458">
    <tag k="addr:city" v="Waterville"/>
    <tag k="addr:housenumber" v="1100"/>
    <tag k="addr:street" v="Clark Road"/>
    <tag k="addr:state" v="VT"/>
    <tag k="ref:vcgi:esiteid" v="276307"/>
  </node>
  <node id="-405" visible="true" lat="44.71154228" lon="-72.73569009">
    <tag k="addr:city" v="Waterville"/>
    <tag k="addr:housenumber" v="1200"/>
    <tag k="addr:street" v="Codding Hollow Road"/>
    <tag k="addr:state" v="VT"/>
    <tag k="ref:vcgi:esiteid" v="276310"/>
  </node>
  <node id="-406" visible="true" lat="44.71189138" lon="-72.74475198">
    <tag k="addr:city" v="Waterville"/>
    <tag k="addr:housenumber" v="1680"/>
    <tag k="addr:street" v="Beals Hill Road"/>
    <tag k="addr:state" v="VT"/>
    <tag k="ref:vcgi:esiteid" v="276311"/>
  </node>
  <node id="-407" visible="true" lat="44.69944221" lon="-72.7688262">
    <tag k="addr:city" v="Waterville"/>
    <tag k="addr:housenumber" v="365"/>
    <tag k="addr:street" v="Lapland Road"/>
    <tag k="addr:state" v="VT"/>
    <tag k="ref:vcgi:esiteid" v="276312"/>
  </node>
  <node id="-408" visible="true" lat="44.74870602" lon="-72.74929879">
    <tag k="addr:city" v="Waterville"/>
    <tag k="addr:housenumber" v="125"/>
    <tag k="addr:street" v="Phyllis Lane"/>
    <tag k="addr:state" v="VT"/>
    <tag k="ref:vcgi:esiteid" v="276313"/>
  </node>
  <node id="-409" visible="true" lat="44.7493714" lon="-72.74922667">
    <tag k="addr:city" v="Waterville"/>
    <tag k="addr:housenumber" v="120"/>
    <tag k="addr:street" v="Phyllis Lane"/>
    <tag k="addr:state" v="VT"/>
    <tag k="ref:vcgi:esiteid" v="276314"/>
  </node>
  <node id="-410" visible="true" lat="44.67729288" lon="-72.75485785">
    <tag k="addr:city" v="Waterville"/>
    <tag k="addr:housenumber" v="5070"/>
    <tag k="addr:street" v="Plot Road"/>
    <tag k="addr:state" v="VT"/>
    <tag k="ref:vcgi:esiteid" v="276315"/>
  </node>
  <node id="-411" visible="true" lat="44.74910084" lon="-72.74964657">
    <tag k="addr:city" v="Waterville"/>
    <tag k="addr:housenumber" v="140"/>
    <tag k="addr:street" v="Phyllis Lane"/>
    <tag k="addr:state" v="VT"/>
    <tag k="ref:vcgi:esiteid" v="305506"/>
  </node>
  <node id="-413" visible="true" lat="44.7260327" lon="-72.74205779">
    <tag k="addr:city" v="Waterville"/>
    <tag k="addr:housenumber" v="900"/>
    <tag k="addr:street" v="Clark Road"/>
    <tag k="addr:state" v="VT"/>
    <tag k="ref:vcgi:esiteid" v="309990"/>
  </node>
  <node id="-414" visible="true" lat="44.69620226" lon="-72.76154665">
    <tag k="addr:city" v="Waterville"/>
    <tag k="addr:housenumber" v="330"/>
    <tag k="addr:street" v="Beals Hill Road"/>
    <tag k="addr:state" v="VT"/>
    <tag k="ref:vcgi:esiteid" v="313210"/>
  </node>
  <node id="-415" visible="true" lat="44.7223913" lon="-72.75321226">
    <tag k="addr:city" v="Waterville"/>
    <tag k="addr:housenumber" v="3145"/>
    <tag k="addr:street" v="Vermont Route 109"/>
    <tag k="addr:state" v="VT"/>
    <tag k="ref:vcgi:esiteid" v="313213"/>
  </node>
  <node id="-416" visible="true" lat="44.74383011" lon="-72.77362884">
    <tag k="addr:city" v="Waterville"/>
    <tag k="addr:housenumber" v="3600"/>
    <tag k="addr:street" v="Lapland Road"/>
    <tag k="addr:state" v="VT"/>
    <tag k="ref:vcgi:esiteid" v="313214"/>
  </node>
  <node id="-417" visible="true" lat="44.68711886" lon="-72.77799664">
    <tag k="addr:city" v="Waterville"/>
    <tag k="addr:housenumber" v="121"/>
    <tag k="addr:street" v="Twiss Hill"/>
    <tag k="addr:state" v="VT"/>
    <tag k="ref:vcgi:esiteid" v="313215"/>
  </node>
  <node id="-418" visible="true" lat="44.74951437" lon="-72.74880732">
    <tag k="addr:city" v="Waterville"/>
    <tag k="addr:housenumber" v="90"/>
    <tag k="addr:street" v="Phyllis Lane"/>
    <tag k="addr:state" v="VT"/>
    <tag k="ref:vcgi:esiteid" v="313629"/>
  </node>
  <node id="-419" visible="true" lat="44.74881852" lon="-72.75004364">
    <tag k="addr:city" v="Waterville"/>
    <tag k="addr:housenumber" v="135"/>
    <tag k="addr:street" v="Phyllis Lane"/>
    <tag k="addr:state" v="VT"/>
    <tag k="ref:vcgi:esiteid" v="313635"/>
  </node>
  <node id="-420" visible="true" lat="44.68814072" lon="-72.76305886">
    <tag k="addr:city" v="Waterville"/>
    <tag k="addr:housenumber" v="320"/>
    <tag k="addr:street" v="Oakes Road"/>
    <tag k="addr:state" v="VT"/>
    <tag k="ref:vcgi:esiteid" v="315335"/>
  </node>
  <node id="-421" visible="true" lat="44.71415732" lon="-72.75507774">
    <tag k="addr:city" v="Waterville"/>
    <tag k="addr:housenumber" v="2451"/>
    <tag k="addr:street" v="Vermont Route 109"/>
    <tag k="addr:state" v="VT"/>
    <tag k="ref:vcgi:esiteid" v="315911"/>
  </node>
  <node id="-423" visible="true" lat="44.72270684" lon="-72.75506098">
    <tag k="addr:city" v="Waterville"/>
    <tag k="addr:housenumber" v="2949"/>
    <tag k="addr:street" v="Vermont Route 109"/>
    <tag k="addr:state" v="VT"/>
    <tag k="ref:vcgi:esiteid" v="316743"/>
  </node>
  <node id="-424" visible="true" lat="44.7101043" lon="-72.72302147">
    <tag k="addr:city" v="Waterville"/>
    <tag k="addr:housenumber" v="1850"/>
    <tag k="addr:street" v="Codding Hollow Road"/>
    <tag k="addr:state" v="VT"/>
    <tag k="ref:vcgi:esiteid" v="316892"/>
  </node>
  <node id="-425" visible="true" lat="44.71263747" lon="-72.73570736">
    <tag k="addr:city" v="Waterville"/>
    <tag k="addr:housenumber" v="1179"/>
    <tag k="addr:street" v="Codding Hollow Road"/>
    <tag k="addr:state" v="VT"/>
    <tag k="ref:vcgi:esiteid" v="318114"/>
  </node>
  <node id="-426" visible="true" lat="44.72979986" lon="-72.77890595">
    <tag k="addr:city" v="Waterville"/>
    <tag k="addr:housenumber" v="2400"/>
    <tag k="addr:street" v="Lapland Road"/>
    <tag k="addr:state" v="VT"/>
    <tag k="ref:vcgi:esiteid" v="326551"/>
  </node>
  <node id="-427" visible="true" lat="44.68666675" lon="-72.77636765">
    <tag k="addr:city" v="Waterville"/>
    <tag k="addr:housenumber" v="360"/>
    <tag k="addr:street" v="Griffin Road"/>
    <tag k="addr:state" v="VT"/>
    <tag k="ref:vcgi:esiteid" v="331042"/>
  </node>
  <node id="-428" visible="true" lat="44.7029844" lon="-72.75341364">
    <tag k="addr:city" v="Waterville"/>
    <tag k="addr:housenumber" v="1000"/>
    <tag k="addr:street" v="Beals Hill Road"/>
    <tag k="addr:state" v="VT"/>
    <tag k="ref:vcgi:esiteid" v="331043"/>
  </node>
  <node id="-429" visible="true" lat="44.69556732" lon="-72.76673822">
    <tag k="addr:city" v="Waterville"/>
    <tag k="addr:housenumber" v="45"/>
    <tag k="addr:street" v="Lapland Road"/>
    <tag k="addr:state" v="VT"/>
    <tag k="ref:vcgi:esiteid" v="332053"/>
  </node>
  <node id="-430" visible="true" lat="44.73110761" lon="-72.78220238">
    <tag k="addr:city" v="Waterville"/>
    <tag k="addr:housenumber" v="2699"/>
    <tag k="addr:street" v="Lapland Road"/>
    <tag k="addr:state" v="VT"/>
    <tag k="ref:vcgi:esiteid" v="334872"/>
  </node>
  <node id="-431" visible="true" lat="44.70973649" lon="-72.7589016">
    <tag k="addr:city" v="Waterville"/>
    <tag k="addr:housenumber" v="2100"/>
    <tag k="addr:street" v="Vermont Route 109"/>
    <tag k="addr:state" v="VT"/>
    <tag k="ref:vcgi:esiteid" v="336595"/>
  </node>
  <node id="-432" visible="true" lat="44.68686946" lon="-72.75998906">
    <tag k="addr:city" v="Waterville"/>
    <tag k="addr:housenumber" v="61"/>
    <tag k="addr:street" v="Fletcher Road"/>
    <tag k="addr:state" v="VT"/>
    <tag k="ref:vcgi:esiteid" v="345867"/>
  </node>
  <node id="-434" visible="true" lat="44.68820334" lon="-72.76108119">
    <tag k="addr:city" v="Waterville"/>
    <tag k="addr:housenumber" v="411"/>
    <tag k="addr:street" v="Oakes Road"/>
    <tag k="addr:state" v="VT"/>
    <tag k="ref:vcgi:esiteid" v="448621"/>
  </node>
  <node id="-435" visible="true" lat="44.70989816" lon="-72.7175805">
    <tag k="addr:city" v="Waterville"/>
    <tag k="addr:housenumber" v="2101"/>
    <tag k="addr:street" v="Codding Hollow Road"/>
    <tag k="addr:state" v="VT"/>
    <tag k="ref:vcgi:esiteid" v="449496"/>
  </node>
  <node id="-436" visible="true" lat="44.7379833" lon="-72.78107706">
    <tag k="addr:city" v="Waterville"/>
    <tag k="addr:housenumber" v="3301"/>
    <tag k="addr:street" v="Lapland Road"/>
    <tag k="addr:state" v="VT"/>
    <tag k="ref:vcgi:esiteid" v="450597"/>
  </node>
  <node id="-438" visible="true" lat="44.73900021" lon="-72.78079202">
    <tag k="addr:city" v="Waterville"/>
    <tag k="addr:housenumber" v="3333"/>
    <tag k="addr:street" v="Lapland Road"/>
    <tag k="addr:state" v="VT"/>
    <tag k="ref:vcgi:esiteid" v="454538"/>
  </node>
  <node id="-439" visible="true" lat="44.71399554" lon="-72.77786938">
    <tag k="addr:city" v="Waterville"/>
    <tag k="addr:housenumber" v="1501"/>
    <tag k="addr:street" v="Lapland Road"/>
    <tag k="addr:state" v="VT"/>
    <tag k="ref:vcgi:esiteid" v="611789"/>
  </node>
  <node id="-440" visible="true" lat="44.70321523" lon="-72.76454682">
    <tag k="addr:city" v="Waterville"/>
    <tag k="addr:housenumber" v="1501"/>
    <tag k="addr:street" v="Vermont Route 109"/>
    <tag k="addr:state" v="VT"/>
    <tag k="ref:vcgi:esiteid" v="611790"/>
  </node>
  <node id="-441" visible="true" lat="44.68365351" lon="-72.73267158">
    <tag k="addr:city" v="Waterville"/>
    <tag k="addr:housenumber" v="400"/>
    <tag k="addr:street" v="Bacon Road"/>
    <tag k="addr:state" v="VT"/>
    <tag k="ref:vcgi:esiteid" v="617605"/>
  </node>
  <node id="-442" visible="true" lat="44.68978559" lon="-72.77825016">
    <tag k="addr:city" v="Waterville"/>
    <tag k="addr:housenumber" v="176"/>
    <tag k="addr:street" v="Twiss Hill"/>
    <tag k="addr:state" v="VT"/>
    <tag k="ref:vcgi:esiteid" v="620803"/>
  </node>
  <node id="-443" visible="true" lat="44.71277123" lon="-72.74428505">
    <tag k="addr:city" v="Waterville"/>
    <tag k="addr:housenumber" v="1746"/>
    <tag k="addr:street" v="Beals Hill Road"/>
    <tag k="addr:state" v="VT"/>
    <tag k="ref:vcgi:esiteid" v="655822"/>
  </node>
  <node id="-444" visible="true" lat="44.71136892" lon="-72.72902883">
    <tag k="addr:city" v="Waterville"/>
    <tag k="addr:housenumber" v="1545"/>
    <tag k="addr:street" v="Codding Hollow Road"/>
    <tag k="addr:state" v="VT"/>
    <tag k="ref:vcgi:esiteid" v="655823"/>
  </node>
  <node id="-445" visible="true" lat="44.71347561" lon="-72.73979256">
    <tag k="addr:city" v="Waterville"/>
    <tag k="addr:housenumber" v="978"/>
    <tag k="addr:street" v="Codding Hollow Road"/>
    <tag k="addr:state" v="VT"/>
    <tag k="ref:vcgi:esiteid" v="656001"/>
  </node>
  <node id="-446" visible="true" lat="44.73175298" lon="-72.74784492">
    <tag k="addr:city" v="Waterville"/>
    <tag k="addr:housenumber" v="33"/>
    <tag k="addr:street" v="Maxfield Road"/>
    <tag k="addr:state" v="VT"/>
    <tag k="ref:vcgi:esiteid" v="750827"/>
  </node>
  <node id="-447" visible="true" lat="44.73783175" lon="-72.78054317">
    <tag k="addr:city" v="Waterville"/>
    <tag k="addr:housenumber" v="3320"/>
    <tag k="addr:street" v="Lapland Road"/>
    <tag k="addr:state" v="VT"/>
    <tag k="ref:vcgi:esiteid" v="751753"/>
  </node>
  <node id="-448" visible="true" lat="44.68994759" lon="-72.76322872">
    <tag k="addr:city" v="Waterville"/>
    <tag k="addr:housenumber" v="351"/>
    <tag k="addr:street" v="Oakes Road"/>
    <tag k="addr:state" v="VT"/>
    <tag k="ref:vcgi:esiteid" v="753621"/>
  </node>
  <node id="-449" visible="true" lat="44.73869816" lon="-72.74884408">
    <tag k="addr:city" v="Waterville"/>
    <tag k="addr:housenumber" v="540"/>
    <tag k="addr:street" v="Maxfield Road"/>
    <tag k="addr:state" v="VT"/>
    <tag k="ref:vcgi:esiteid" v="753820"/>
  </node>
  <node id="-450" visible="true" lat="44.69005665" lon="-72.77276149">
    <tag k="addr:city" v="Waterville"/>
    <tag k="addr:housenumber" v="90"/>
    <tag k="addr:street" v="Griffin Road"/>
    <tag k="addr:state" v="VT"/>
    <tag k="ref:vcgi:esiteid" v="755895"/>
  </node>
  <node id="-451" visible="true" lat="44.71700758" lon="-72.74437158">
    <tag k="addr:city" v="Waterville"/>
    <tag k="addr:housenumber" v="301"/>
    <tag k="addr:street" v="Clark Road"/>
    <tag k="addr:state" v="VT"/>
    <tag k="ref:vcgi:esiteid" v="756050"/>
  </node>
  <node id="-454" visible="true" lat="44.68015241" lon="-72.75388364">
    <tag k="addr:city" v="Waterville"/>
    <tag k="addr:housenumber" v="5050"/>
    <tag k="addr:street" v="Plot Road"/>
    <tag k="addr:state" v="VT"/>
    <tag k="ref:vcgi:esiteid" v="758299"/>
  </node>
  <node id="-455" visible="true" lat="44.68519636" lon="-72.76307352">
    <tag k="addr:city" v="Waterville"/>
    <tag k="addr:housenumber" v="322"/>
    <tag k="addr:street" v="Oakes Road"/>
    <tag k="addr:state" v="VT"/>
    <tag k="ref:vcgi:esiteid" v="758787"/>
  </node>
  <node id="-456" visible="true" lat="44.68563348" lon="-72.77899725">
    <tag k="addr:city" v="Waterville"/>
    <tag k="addr:housenumber" v="464"/>
    <tag k="addr:street" v="Griffin Road"/>
    <tag k="addr:state" v="VT"/>
    <tag k="ref:vcgi:esiteid" v="758998"/>
  </node>
  <node id="-457" visible="true" lat="44.7090526" lon="-72.71383219">
    <tag k="addr:city" v="Waterville"/>
    <tag k="addr:housenumber" v="2337"/>
    <tag k="addr:street" v="Codding Hollow Road"/>
    <tag k="addr:state" v="VT"/>
    <tag k="ref:vcgi:esiteid" v="760196"/>
  </node>
  <node id="-458" visible="true" lat="44.7193756" lon="-72.77782132">
    <tag k="addr:city" v="Waterville"/>
    <tag k="addr:housenumber" v="1770"/>
    <tag k="addr:street" v="Lapland Road"/>
    <tag k="addr:state" v="VT"/>
    <tag k="ref:vcgi:esiteid" v="760964"/>
  </node>
  <node id="-459" visible="true" lat="44.72024696" lon="-72.77614196">
    <tag k="addr:city" v="Waterville"/>
    <tag k="addr:housenumber" v="1820"/>
    <tag k="addr:street" v="Lapland Road"/>
    <tag k="addr:state" v="VT"/>
    <tag k="ref:vcgi:esiteid" v="760965"/>
  </node>
  <node id="-460" visible="true" lat="44.72355665" lon="-72.74203455">
    <tag k="addr:city" v="Waterville"/>
    <tag k="addr:housenumber" v="805"/>
    <tag k="addr:street" v="Clark Road"/>
    <tag k="addr:state" v="VT"/>
    <tag k="ref:vcgi:esiteid" v="761314"/>
  </node>
  <node id="-461" visible="true" lat="44.72142947" lon="-72.74908235">
    <tag k="addr:city" v="Waterville"/>
    <tag k="addr:housenumber" v="3008"/>
    <tag k="addr:street" v="Vermont Route 109"/>
    <tag k="addr:state" v="VT"/>
    <tag k="ref:vcgi:esiteid" v="761971"/>
  </node>
  <node id="-462" visible="true" lat="44.69572394" lon="-72.7555589">
    <tag k="addr:city" v="Waterville"/>
    <tag k="addr:housenumber" v="301"/>
    <tag k="addr:street" v="Page Hill Road"/>
    <tag k="addr:state" v="VT"/>
    <tag k="ref:vcgi:esiteid" v="763700"/>
  </node>
  <node id="-463" visible="true" lat="44.69664111" lon="-72.75906028">
    <tag k="addr:city" v="Waterville"/>
    <tag k="addr:housenumber" v="100"/>
    <tag k="addr:street" v="Page Hill Road"/>
    <tag k="addr:state" v="VT"/>
    <tag k="ref:vcgi:esiteid" v="763826"/>
  </node>
  <node id="-464" visible="true" lat="44.71278939" lon="-72.77752946">
    <tag k="addr:city" v="Waterville"/>
    <tag k="addr:housenumber" v="1273"/>
    <tag k="addr:street" v="Lapland Road"/>
    <tag k="addr:state" v="VT"/>
    <tag k="ref:vcgi:esiteid" v="764152"/>
  </node>
  <node id="-465" visible="true" lat="44.70255558" lon="-72.76863854">
    <tag k="addr:city" v="Waterville"/>
    <tag k="addr:housenumber" v="554"/>
    <tag k="addr:street" v="Lapland Road"/>
    <tag k="addr:state" v="VT"/>
    <tag k="ref:vcgi:esiteid" v="766038"/>
  </node>
  <node id="-466" visible="true" lat="44.67763624" lon="-72.75450323">
    <tag k="addr:city" v="Waterville"/>
    <tag k="addr:housenumber" v="5048"/>
    <tag k="addr:street" v="Plot Road"/>
    <tag k="addr:state" v="VT"/>
    <tag k="ref:vcgi:esiteid" v="766152"/>
  </node>
  <node id="-468" visible="true" lat="44.74511627" lon="-72.74996005">
    <tag k="addr:city" v="Waterville"/>
    <tag k="addr:housenumber" v="757"/>
    <tag k="addr:street" v="Smithville Road"/>
    <tag k="addr:state" v="VT"/>
    <tag k="ref:vcgi:esiteid" v="766418"/>
  </node>
  <node id="-469" visible="true" lat="44.69054057" lon="-72.76651791">
    <tag k="addr:city" v="Waterville"/>
    <tag k="addr:housenumber" v="558"/>
    <tag k="addr:street" v="Vermont Route 109"/>
    <tag k="addr:state" v="VT"/>
    <tag k="ref:vcgi:esiteid" v="766502"/>
  </node>
  <node id="-470" visible="true" lat="44.73055747" lon="-72.75108576">
    <tag k="addr:city" v="Waterville"/>
    <tag k="addr:housenumber" v="199"/>
    <tag k="addr:street" v="Blood Road"/>
    <tag k="addr:state" v="VT"/>
    <tag k="ref:vcgi:esiteid" v="767798"/>
  </node>
  <node id="-471" visible="true" lat="44.71530817" lon="-72.77688253">
    <tag k="addr:city" v="Waterville"/>
    <tag k="addr:housenumber" v="1533"/>
    <tag k="addr:street" v="Lapland Road"/>
    <tag k="addr:state" v="VT"/>
    <tag k="ref:vcgi:esiteid" v="768200"/>
  </node>
  <node id="-472" visible="true" lat="44.6981367" lon="-72.75882876">
    <tag k="addr:city" v="Waterville"/>
    <tag k="addr:housenumber" v="490"/>
    <tag k="addr:street" v="Beals Hill Road"/>
    <tag k="addr:state" v="VT"/>
    <tag k="ref:vcgi:esiteid" v="768354"/>
  </node>
  <node id="-473" visible="true" lat="44.71583378" lon="-72.74125065">
    <tag k="addr:city" v="Waterville"/>
    <tag k="addr:housenumber" v="141"/>
    <tag k="addr:street" v="Clark Road"/>
    <tag k="addr:state" v="VT"/>
    <tag k="ref:vcgi:esiteid" v="768673"/>
  </node>
  <node id="-474" visible="true" lat="44.7483015" lon="-72.74411962">
    <tag k="addr:city" v="Waterville"/>
    <tag k="addr:housenumber" v="335"/>
    <tag k="addr:street" v="Florences Road"/>
    <tag k="addr:state" v="VT"/>
    <tag k="ref:vcgi:esiteid" v="768945"/>
  </node>
  <node id="-475" visible="true" lat="44.68801417" lon="-72.77486249">
    <tag k="addr:city" v="Waterville"/>
    <tag k="addr:housenumber" v="2"/>
    <tag k="addr:street" v="Twiss Hill"/>
    <tag k="addr:state" v="VT"/>
    <tag k="ref:vcgi:esiteid" v="769643"/>
  </node>
  <node id="-476" visible="true" lat="44.72301925" lon="-72.77839984">
    <tag k="addr:city" v="Waterville"/>
    <tag k="addr:housenumber" v="2100"/>
    <tag k="addr:street" v="Lapland Road"/>
    <tag k="addr:state" v="VT"/>
    <tag k="ref:vcgi:esiteid" v="900403"/>
  </node>
  <node id="-478" visible="true" lat="44.75702243" lon="-72.75751576">
    <tag k="addr:city" v="Waterville"/>
    <tag k="addr:housenumber" v="810"/>
    <tag k="addr:street" v="Shipman Road"/>
    <tag k="addr:state" v="VT"/>
    <tag k="ref:vcgi:esiteid" v="1050807"/>
  </node>
  <node id="-479" visible="true" lat="44.75438885" lon="-72.75363121">
    <tag k="addr:city" v="Waterville"/>
    <tag k="addr:housenumber" v="540"/>
    <tag k="addr:street" v="Shipman Road"/>
    <tag k="addr:state" v="VT"/>
    <tag k="ref:vcgi:esiteid" v="1050808"/>
  </node>
</osm>
