<?xml version="1.0" encoding="UTF-8"?>
<osm version="0.6" generator="JOSM">
  <node id="-114" visible="true" lat="44.42360562" lon="-72.72061731">
    <tag k="addr:housenumber" v="6620"/>
    <tag k="addr:street" v="Waterbury Stowe Road"/>
    <tag k="addr:state" v="VT"/>
    <tag k="ref:vcgi:esiteid" v="273218"/>
  </node>
  <node id="-115" visible="true" lat="44.42315648" lon="-72.72078392">
    <tag k="addr:housenumber" v="6584"/>
    <tag k="addr:street" v="Waterbury Stowe Road"/>
    <tag k="addr:state" v="VT"/>
    <tag k="ref:vcgi:esiteid" v="273219"/>
  </node>
  <node id="-116" visible="true" lat="44.42294924" lon="-72.72079832">
    <tag k="addr:housenumber" v="6580"/>
    <tag k="addr:street" v="Waterbury Stowe Road"/>
    <tag k="addr:state" v="VT"/>
    <tag k="ref:vcgi:esiteid" v="273220"/>
  </node>
  <node id="-117" visible="true" lat="44.42280798" lon="-72.72098361">
    <tag k="addr:housenumber" v="6576"/>
    <tag k="addr:street" v="Waterbury Stowe Road"/>
    <tag k="addr:state" v="VT"/>
    <tag k="ref:vcgi:esiteid" v="273221"/>
  </node>
  <node id="-118" visible="true" lat="44.42255563" lon="-72.72112224">
    <tag k="addr:housenumber" v="6572"/>
    <tag k="addr:street" v="Waterbury Stowe Road"/>
    <tag k="addr:state" v="VT"/>
    <tag k="ref:vcgi:esiteid" v="273222"/>
  </node>
  <node id="-119" visible="true" lat="44.42171473" lon="-72.7215695">
    <tag k="addr:housenumber" v="6466"/>
    <tag k="addr:street" v="Waterbury Stowe Road"/>
    <tag k="addr:state" v="VT"/>
    <tag k="ref:vcgi:esiteid" v="273223"/>
  </node>
  <node id="-120" visible="true" lat="44.42141655" lon="-72.72024922">
    <tag k="addr:housenumber" v="230"/>
    <tag k="addr:street" v="Russell Road"/>
    <tag k="addr:state" v="VT"/>
    <tag k="ref:vcgi:esiteid" v="273224"/>
  </node>
  <node id="-121" visible="true" lat="44.4210439" lon="-72.72310961">
    <tag k="addr:housenumber" v="3654"/>
    <tag k="addr:street" v="Gregg Hill Road"/>
    <tag k="addr:state" v="VT"/>
    <tag k="ref:vcgi:esiteid" v="273225"/>
  </node>
  <node id="-122" visible="true" lat="44.42089681" lon="-72.72139882">
    <tag k="addr:housenumber" v="115"/>
    <tag k="addr:street" v="Russell Road"/>
    <tag k="addr:state" v="VT"/>
    <tag k="ref:vcgi:esiteid" v="273226"/>
  </node>
  <node id="-126" visible="true" lat="44.4199188" lon="-72.72389126">
    <tag k="addr:housenumber" v="3540"/>
    <tag k="addr:street" v="Gregg Hill Road"/>
    <tag k="addr:state" v="VT"/>
    <tag k="ref:vcgi:esiteid" v="273230"/>
  </node>
  <node id="-141" visible="true" lat="44.41613601" lon="-72.72199559">
    <tag k="addr:housenumber" v="6058"/>
    <tag k="addr:street" v="Waterbury Stowe Road"/>
    <tag k="addr:state" v="VT"/>
    <tag k="ref:vcgi:esiteid" v="273245"/>
  </node>
  <node id="-143" visible="true" lat="44.41574019" lon="-72.7223863">
    <tag k="addr:housenumber" v="6065"/>
    <tag k="addr:street" v="Waterbury Stowe Road"/>
    <tag k="addr:state" v="VT"/>
    <tag k="ref:vcgi:esiteid" v="273247"/>
  </node>
  <node id="-146" visible="true" lat="44.41548312" lon="-72.7213078">
    <tag k="addr:housenumber" v="32"/>
    <tag k="addr:street" v="Ruby Raymond Road"/>
    <tag k="addr:state" v="VT"/>
    <tag k="ref:vcgi:esiteid" v="273250"/>
  </node>
  <node id="-150" visible="true" lat="44.41463669" lon="-72.72090922">
    <tag k="addr:housenumber" v="5950"/>
    <tag k="addr:street" v="Waterbury Stowe Road"/>
    <tag k="addr:state" v="VT"/>
    <tag k="ref:vcgi:esiteid" v="273254"/>
  </node>
  <node id="-153" visible="true" lat="44.41297147" lon="-72.72249987">
    <tag k="addr:housenumber" v="5809"/>
    <tag k="addr:street" v="Waterbury Stowe Road"/>
    <tag k="addr:state" v="VT"/>
    <tag k="ref:vcgi:esiteid" v="273257"/>
  </node>
  <node id="-156" visible="true" lat="44.41232911" lon="-72.72067068">
    <tag k="addr:housenumber" v="89"/>
    <tag k="addr:street" v="Burt Farm Lane"/>
    <tag k="addr:state" v="VT"/>
    <tag k="ref:vcgi:esiteid" v="273260"/>
  </node>
  <node id="-157" visible="true" lat="44.41219261" lon="-72.72211843">
    <tag k="addr:housenumber" v="5793"/>
    <tag k="addr:street" v="Waterbury Stowe Road"/>
    <tag k="addr:state" v="VT"/>
    <tag k="ref:vcgi:esiteid" v="273261"/>
  </node>
  <node id="-161" visible="true" lat="44.41152744" lon="-72.72391079">
    <tag k="addr:housenumber" v="5805"/>
    <tag k="addr:street" v="Waterbury Stowe Road"/>
    <tag k="addr:state" v="VT"/>
    <tag k="ref:vcgi:esiteid" v="273265"/>
  </node>
  <node id="-162" visible="true" lat="44.41121826" lon="-72.72254785">
    <tag k="addr:housenumber" v="5725"/>
    <tag k="addr:street" v="Waterbury Stowe Road"/>
    <tag k="addr:state" v="VT"/>
    <tag k="ref:vcgi:esiteid" v="273266"/>
  </node>
  <node id="-163" visible="true" lat="44.41116993" lon="-72.72033652">
    <tag k="addr:housenumber" v="60"/>
    <tag k="addr:street" v="Burt Farm Lane"/>
    <tag k="addr:state" v="VT"/>
    <tag k="ref:vcgi:esiteid" v="273267"/>
  </node>
  <node id="-164" visible="true" lat="44.4113262" lon="-72.71822433">
    <tag k="addr:housenumber" v="648"/>
    <tag k="addr:street" v="Spruce Haven"/>
    <tag k="addr:state" v="VT"/>
    <tag k="ref:vcgi:esiteid" v="273268"/>
  </node>
  <node id="-165" visible="true" lat="44.41101005" lon="-72.72183614">
    <tag k="addr:housenumber" v="5698"/>
    <tag k="addr:street" v="Waterbury Stowe Road"/>
    <tag k="addr:state" v="VT"/>
    <tag k="ref:vcgi:esiteid" v="273269"/>
  </node>
  <node id="-166" visible="true" lat="44.4110004" lon="-72.7214806">
    <tag k="addr:housenumber" v="61"/>
    <tag k="addr:street" v="Burt Farm Lane"/>
    <tag k="addr:state" v="VT"/>
    <tag k="ref:vcgi:esiteid" v="273270"/>
  </node>
  <node id="-168" visible="true" lat="44.411042" lon="-72.71879598">
    <tag k="addr:housenumber" v="668"/>
    <tag k="addr:street" v="Spruce Haven"/>
    <tag k="addr:state" v="VT"/>
    <tag k="ref:vcgi:esiteid" v="273272"/>
  </node>
  <node id="-170" visible="true" lat="44.41093821" lon="-72.71755144">
    <tag k="addr:housenumber" v="614"/>
    <tag k="addr:street" v="Spruce Haven"/>
    <tag k="addr:state" v="VT"/>
    <tag k="ref:vcgi:esiteid" v="273274"/>
  </node>
  <node id="-171" visible="true" lat="44.41063403" lon="-72.71677723">
    <tag k="addr:housenumber" v="12"/>
    <tag k="addr:street" v="North Spruce Haven"/>
    <tag k="addr:state" v="VT"/>
    <tag k="ref:vcgi:esiteid" v="273275"/>
  </node>
  <node id="-172" visible="true" lat="44.41043055" lon="-72.71790902">
    <tag k="addr:housenumber" v="621"/>
    <tag k="addr:street" v="Spruce Haven"/>
    <tag k="addr:state" v="VT"/>
    <tag k="ref:vcgi:esiteid" v="273276"/>
  </node>
  <node id="-173" visible="true" lat="44.41057999" lon="-72.71984923">
    <tag k="addr:housenumber" v="124"/>
    <tag k="addr:street" v="Spruce Haven"/>
    <tag k="addr:state" v="VT"/>
    <tag k="ref:vcgi:esiteid" v="273277"/>
  </node>
  <node id="-174" visible="true" lat="44.41056937" lon="-72.72264912">
    <tag k="addr:housenumber" v="5669"/>
    <tag k="addr:street" v="Waterbury Stowe Road"/>
    <tag k="addr:state" v="VT"/>
    <tag k="ref:vcgi:esiteid" v="273278"/>
  </node>
  <node id="-176" visible="true" lat="44.41031741" lon="-72.72051636">
    <tag k="addr:housenumber" v="84"/>
    <tag k="addr:street" v="Spruce Haven"/>
    <tag k="addr:state" v="VT"/>
    <tag k="ref:vcgi:esiteid" v="273280"/>
  </node>
  <node id="-177" visible="true" lat="44.41013945" lon="-72.7170054">
    <tag k="addr:housenumber" v="579"/>
    <tag k="addr:street" v="Spruce Haven"/>
    <tag k="addr:state" v="VT"/>
    <tag k="ref:vcgi:esiteid" v="273281"/>
  </node>
  <node id="-179" visible="true" lat="44.40997275" lon="-72.72240547">
    <tag k="addr:housenumber" v="5641"/>
    <tag k="addr:street" v="Waterbury Stowe Road"/>
    <tag k="addr:state" v="VT"/>
    <tag k="ref:vcgi:esiteid" v="273283"/>
  </node>
  <node id="-180" visible="true" lat="44.41008899" lon="-72.71859558">
    <tag k="addr:housenumber" v="215"/>
    <tag k="addr:street" v="Spruce Haven"/>
    <tag k="addr:state" v="VT"/>
    <tag k="ref:vcgi:esiteid" v="273284"/>
  </node>
  <node id="-181" visible="true" lat="44.40982384" lon="-72.71635976">
    <tag k="addr:housenumber" v="539"/>
    <tag k="addr:street" v="Spruce Haven"/>
    <tag k="addr:state" v="VT"/>
    <tag k="ref:vcgi:esiteid" v="273285"/>
  </node>
  <node id="-183" visible="true" lat="44.40956572" lon="-72.71993728">
    <tag k="addr:housenumber" v="220"/>
    <tag k="addr:street" v="Spruce Haven"/>
    <tag k="addr:state" v="VT"/>
    <tag k="ref:vcgi:esiteid" v="273287"/>
  </node>
  <node id="-184" visible="true" lat="44.40974227" lon="-72.71776574">
    <tag k="addr:housenumber" v="291"/>
    <tag k="addr:street" v="Spruce Haven"/>
    <tag k="addr:state" v="VT"/>
    <tag k="ref:vcgi:esiteid" v="273288"/>
  </node>
  <node id="-185" visible="true" lat="44.40948237" lon="-72.71867489">
    <tag k="addr:housenumber" v="236"/>
    <tag k="addr:street" v="Spruce Haven"/>
    <tag k="addr:state" v="VT"/>
    <tag k="ref:vcgi:esiteid" v="273289"/>
  </node>
  <node id="-186" visible="true" lat="44.4094964" lon="-72.71686009">
    <tag k="addr:housenumber" v="341"/>
    <tag k="addr:street" v="Spruce Haven"/>
    <tag k="addr:state" v="VT"/>
    <tag k="ref:vcgi:esiteid" v="273290"/>
  </node>
  <node id="-187" visible="true" lat="44.40931498" lon="-72.71801089">
    <tag k="addr:housenumber" v="272"/>
    <tag k="addr:street" v="Spruce Haven"/>
    <tag k="addr:state" v="VT"/>
    <tag k="ref:vcgi:esiteid" v="273291"/>
  </node>
  <node id="-199" visible="true" lat="44.40685203" lon="-72.7177773">
    <tag k="addr:housenumber" v="247"/>
    <tag k="addr:street" v="Beaver Pond Road"/>
    <tag k="addr:state" v="VT"/>
    <tag k="ref:vcgi:esiteid" v="273303"/>
  </node>
  <node id="-200" visible="true" lat="44.40644994" lon="-72.71138341">
    <tag k="addr:housenumber" v="1058"/>
    <tag k="addr:street" v="Maggies Way"/>
    <tag k="addr:state" v="VT"/>
    <tag k="ref:vcgi:esiteid" v="273304"/>
  </node>
  <node id="-201" visible="true" lat="44.40618755" lon="-72.71692876">
    <tag k="addr:housenumber" v="216"/>
    <tag k="addr:street" v="Beaver Pond Road"/>
    <tag k="addr:state" v="VT"/>
    <tag k="ref:vcgi:esiteid" v="273305"/>
  </node>
  <node id="-203" visible="true" lat="44.40574929" lon="-72.71334497">
    <tag k="addr:housenumber" v="977"/>
    <tag k="addr:street" v="Maggies Way"/>
    <tag k="addr:state" v="VT"/>
    <tag k="ref:vcgi:esiteid" v="273307"/>
  </node>
  <node id="-204" visible="true" lat="44.40570943" lon="-72.71199774">
    <tag k="addr:housenumber" v="970"/>
    <tag k="addr:street" v="Maggies Way"/>
    <tag k="addr:state" v="VT"/>
    <tag k="ref:vcgi:esiteid" v="273308"/>
  </node>
  <node id="-211" visible="true" lat="44.40464332" lon="-72.71984487">
    <tag k="addr:housenumber" v="5195"/>
    <tag k="addr:street" v="Waterbury Stowe Road"/>
    <tag k="addr:state" v="VT"/>
    <tag k="ref:vcgi:esiteid" v="273315"/>
  </node>
  <node id="-213" visible="true" lat="44.40457105" lon="-72.71236616">
    <tag k="addr:housenumber" v="900"/>
    <tag k="addr:street" v="Maggies Way"/>
    <tag k="addr:state" v="VT"/>
    <tag k="ref:vcgi:esiteid" v="273317"/>
  </node>
  <node id="-219" visible="true" lat="44.40385431" lon="-72.71750278">
    <tag k="addr:housenumber" v="24"/>
    <tag k="addr:street" v="Beaver Pond Road"/>
    <tag k="addr:state" v="VT"/>
    <tag k="ref:vcgi:esiteid" v="273323"/>
  </node>
  <node id="-220" visible="true" lat="44.4034955" lon="-72.71195067">
    <tag k="addr:housenumber" v="852"/>
    <tag k="addr:street" v="Maggies Way"/>
    <tag k="addr:state" v="VT"/>
    <tag k="ref:vcgi:esiteid" v="273324"/>
  </node>
  <node id="-221" visible="true" lat="44.4028753" lon="-72.71427642">
    <tag k="addr:housenumber" v="773"/>
    <tag k="addr:street" v="Maggies Way"/>
    <tag k="addr:state" v="VT"/>
    <tag k="ref:vcgi:esiteid" v="273325"/>
  </node>
  <node id="-222" visible="true" lat="44.40279925" lon="-72.72073744">
    <tag k="addr:housenumber" v="77"/>
    <tag k="addr:street" v="Bittersweet Lane"/>
    <tag k="addr:state" v="VT"/>
    <tag k="ref:vcgi:esiteid" v="273326"/>
  </node>
  <node id="-224" visible="true" lat="44.40198448" lon="-72.71831899">
    <tag k="addr:housenumber" v="5088"/>
    <tag k="addr:street" v="Waterbury Stowe Road"/>
    <tag k="addr:state" v="VT"/>
    <tag k="ref:vcgi:esiteid" v="273328"/>
  </node>
  <node id="-226" visible="true" lat="44.40145403" lon="-72.71450024">
    <tag k="addr:housenumber" v="665"/>
    <tag k="addr:street" v="Maggies Way"/>
    <tag k="addr:state" v="VT"/>
    <tag k="ref:vcgi:esiteid" v="273330"/>
  </node>
  <node id="-229" visible="true" lat="44.40143964" lon="-72.69609944">
    <tag k="addr:housenumber" v="1069"/>
    <tag k="addr:street" v="Barnes Hill Road"/>
    <tag k="addr:state" v="VT"/>
    <tag k="ref:vcgi:esiteid" v="273333"/>
  </node>
  <node id="-232" visible="true" lat="44.40045478" lon="-72.72497945">
    <tag k="addr:housenumber" v="513"/>
    <tag k="addr:street" v="Cabin Lane"/>
    <tag k="addr:state" v="VT"/>
    <tag k="ref:vcgi:esiteid" v="273336"/>
  </node>
  <node id="-233" visible="true" lat="44.4002119" lon="-72.71966454">
    <tag k="addr:housenumber" v="4951"/>
    <tag k="addr:street" v="Waterbury Stowe Road"/>
    <tag k="addr:state" v="VT"/>
    <tag k="ref:vcgi:esiteid" v="273337"/>
  </node>
  <node id="-235" visible="true" lat="44.40018803" lon="-72.7175717">
    <tag k="addr:housenumber" v="4940"/>
    <tag k="addr:street" v="Waterbury Stowe Road"/>
    <tag k="addr:state" v="VT"/>
    <tag k="ref:vcgi:esiteid" v="273339"/>
  </node>
  <node id="-250" visible="true" lat="44.3975785" lon="-72.71892934">
    <tag k="addr:housenumber" v="4706"/>
    <tag k="addr:street" v="Waterbury Stowe Road"/>
    <tag k="addr:state" v="VT"/>
    <tag k="ref:vcgi:esiteid" v="273354"/>
  </node>
  <node id="-251" visible="true" lat="44.39748555" lon="-72.71953089">
    <tag k="addr:housenumber" v="4715"/>
    <tag k="addr:street" v="Waterbury Stowe Road"/>
    <tag k="addr:state" v="VT"/>
    <tag k="ref:vcgi:esiteid" v="273355"/>
  </node>
  <node id="-253" visible="true" lat="44.39720735" lon="-72.71966661">
    <tag k="addr:housenumber" v="4711"/>
    <tag k="addr:street" v="Waterbury Stowe Road"/>
    <tag k="addr:state" v="VT"/>
    <tag k="ref:vcgi:esiteid" v="273357"/>
  </node>
  <node id="-256" visible="true" lat="44.3966593" lon="-72.71730325">
    <tag k="addr:housenumber" v="114"/>
    <tag k="addr:street" v="Wildflower Lane"/>
    <tag k="addr:state" v="VT"/>
    <tag k="ref:vcgi:esiteid" v="273360"/>
  </node>
  <node id="-258" visible="true" lat="44.39645698" lon="-72.71541219">
    <tag k="addr:housenumber" v="50"/>
    <tag k="addr:street" v="Appletree Lane"/>
    <tag k="addr:state" v="VT"/>
    <tag k="ref:vcgi:esiteid" v="273362"/>
  </node>
  <node id="-259" visible="true" lat="44.39632015" lon="-72.70153928">
    <tag k="addr:housenumber" v="637"/>
    <tag k="addr:street" v="Barnes Hill Road"/>
    <tag k="addr:state" v="VT"/>
    <tag k="ref:vcgi:esiteid" v="273363"/>
  </node>
  <node id="-260" visible="true" lat="44.3962281" lon="-72.71673208">
    <tag k="addr:housenumber" v="60"/>
    <tag k="addr:street" v="Appletree Lane"/>
    <tag k="addr:state" v="VT"/>
    <tag k="ref:vcgi:esiteid" v="273364"/>
  </node>
  <node id="-263" visible="true" lat="44.39594343" lon="-72.7159509">
    <tag k="addr:housenumber" v="48"/>
    <tag k="addr:street" v="Appletree Lane"/>
    <tag k="addr:state" v="VT"/>
    <tag k="ref:vcgi:esiteid" v="273367"/>
  </node>
  <node id="-264" visible="true" lat="44.39610823" lon="-72.7202781">
    <tag k="addr:housenumber" v="19"/>
    <tag k="addr:street" v="Cabin Lane"/>
    <tag k="addr:state" v="VT"/>
    <tag k="ref:vcgi:esiteid" v="273368"/>
  </node>
  <node id="-266" visible="true" lat="44.39583003" lon="-72.72082967">
    <tag k="addr:housenumber" v="15"/>
    <tag k="addr:street" v="Cabin Lane"/>
    <tag k="addr:state" v="VT"/>
    <tag k="ref:vcgi:esiteid" v="273370"/>
  </node>
  <node id="-268" visible="true" lat="44.39581568" lon="-72.71739955">
    <tag k="addr:housenumber" v="60"/>
    <tag k="addr:street" v="Wildflower Lane"/>
    <tag k="addr:state" v="VT"/>
    <tag k="ref:vcgi:esiteid" v="273372"/>
  </node>
  <node id="-270" visible="true" lat="44.39522823" lon="-72.71629517">
    <tag k="addr:housenumber" v="80"/>
    <tag k="addr:street" v="Appletree Lane"/>
    <tag k="addr:state" v="VT"/>
    <tag k="ref:vcgi:esiteid" v="273374"/>
  </node>
  <node id="-271" visible="true" lat="44.39505678" lon="-72.71514943">
    <tag k="addr:housenumber" v="33"/>
    <tag k="addr:street" v="Appletree Lane"/>
    <tag k="addr:state" v="VT"/>
    <tag k="ref:vcgi:esiteid" v="273375"/>
  </node>
  <node id="-272" visible="true" lat="44.39508155" lon="-72.70089235">
    <tag k="addr:housenumber" v="556"/>
    <tag k="addr:street" v="Barnes Hill Road"/>
    <tag k="addr:state" v="VT"/>
    <tag k="ref:vcgi:esiteid" v="273376"/>
  </node>
  <node id="-276" visible="true" lat="44.39478184" lon="-72.71652423">
    <tag k="addr:housenumber" v="122"/>
    <tag k="addr:street" v="Appletree Lane"/>
    <tag k="addr:state" v="VT"/>
    <tag k="ref:vcgi:esiteid" v="273381"/>
  </node>
  <node id="-277" visible="true" lat="44.39457866" lon="-72.70354041">
    <tag k="addr:housenumber" v="449"/>
    <tag k="addr:street" v="Barnes Hill Road"/>
    <tag k="addr:state" v="VT"/>
    <tag k="ref:vcgi:esiteid" v="273382"/>
  </node>
  <node id="-278" visible="true" lat="44.39442854" lon="-72.71504719">
    <tag k="addr:housenumber" v="193"/>
    <tag k="addr:street" v="Maggies Way"/>
    <tag k="addr:state" v="VT"/>
    <tag k="ref:vcgi:esiteid" v="273383"/>
  </node>
  <node id="-279" visible="true" lat="44.39440849" lon="-72.71417633">
    <tag k="addr:housenumber" v="192"/>
    <tag k="addr:street" v="Maggies Way"/>
    <tag k="addr:state" v="VT"/>
    <tag k="ref:vcgi:esiteid" v="273384"/>
  </node>
  <node id="-280" visible="true" lat="44.39431432" lon="-72.71787864">
    <tag k="addr:housenumber" v="4488"/>
    <tag k="addr:street" v="Waterbury Stowe Road"/>
    <tag k="addr:state" v="VT"/>
    <tag k="ref:vcgi:esiteid" v="273385"/>
  </node>
  <node id="-281" visible="true" lat="44.39400369" lon="-72.71638756">
    <tag k="addr:housenumber" v="160"/>
    <tag k="addr:street" v="Appletree Lane"/>
    <tag k="addr:state" v="VT"/>
    <tag k="ref:vcgi:esiteid" v="273386"/>
  </node>
  <node id="-282" visible="true" lat="44.39399001" lon="-72.70311327">
    <tag k="addr:housenumber" v="454"/>
    <tag k="addr:street" v="Barnes Hill Road"/>
    <tag k="addr:state" v="VT"/>
    <tag k="ref:vcgi:esiteid" v="273387"/>
  </node>
  <node id="-284" visible="true" lat="44.3939143" lon="-72.71527798">
    <tag k="addr:housenumber" v="135"/>
    <tag k="addr:street" v="Maggies Way"/>
    <tag k="addr:state" v="VT"/>
    <tag k="ref:vcgi:esiteid" v="273389"/>
  </node>
  <node id="-285" visible="true" lat="44.3939052" lon="-72.71426379">
    <tag k="addr:housenumber" v="170"/>
    <tag k="addr:street" v="Maggies Way"/>
    <tag k="addr:state" v="VT"/>
    <tag k="ref:vcgi:esiteid" v="273390"/>
  </node>
  <node id="-287" visible="true" lat="44.39380739" lon="-72.71337072">
    <tag k="addr:housenumber" v="248"/>
    <tag k="addr:street" v="Maggies Way"/>
    <tag k="addr:state" v="VT"/>
    <tag k="ref:vcgi:esiteid" v="273392"/>
  </node>
  <node id="-291" visible="true" lat="44.39349483" lon="-72.70714346">
    <tag k="addr:housenumber" v="118"/>
    <tag k="addr:street" v="Mountain View Drive"/>
    <tag k="addr:state" v="VT"/>
    <tag k="ref:vcgi:esiteid" v="273396"/>
  </node>
  <node id="-293" visible="true" lat="44.39337459" lon="-72.71521506">
    <tag k="addr:housenumber" v="103"/>
    <tag k="addr:street" v="Maggies Way"/>
    <tag k="addr:state" v="VT"/>
    <tag k="ref:vcgi:esiteid" v="273398"/>
  </node>
  <node id="-294" visible="true" lat="44.39325392" lon="-72.71851361">
    <tag k="addr:housenumber" v="4444"/>
    <tag k="addr:street" v="Waterbury Stowe Road"/>
    <tag k="addr:state" v="VT"/>
    <tag k="ref:vcgi:esiteid" v="273399"/>
  </node>
  <node id="-295" visible="true" lat="44.39339492" lon="-72.70452412">
    <tag k="addr:housenumber" v="371"/>
    <tag k="addr:street" v="Barnes Hill Road"/>
    <tag k="addr:state" v="VT"/>
    <tag k="ref:vcgi:esiteid" v="273400"/>
  </node>
  <node id="-296" visible="true" lat="44.39334649" lon="-72.70814461">
    <tag k="addr:housenumber" v="156"/>
    <tag k="addr:street" v="Mountain View Drive"/>
    <tag k="addr:state" v="VT"/>
    <tag k="ref:vcgi:esiteid" v="273401"/>
  </node>
  <node id="-297" visible="true" lat="44.39292509" lon="-72.70743303">
    <tag k="addr:housenumber" v="149"/>
    <tag k="addr:street" v="Mountain View Drive"/>
    <tag k="addr:state" v="VT"/>
    <tag k="ref:vcgi:esiteid" v="273402"/>
  </node>
  <node id="-298" visible="true" lat="44.39318947" lon="-72.70511697">
    <tag k="addr:housenumber" v="343"/>
    <tag k="addr:street" v="Barnes Hill Road"/>
    <tag k="addr:state" v="VT"/>
    <tag k="ref:vcgi:esiteid" v="273403"/>
  </node>
  <node id="-299" visible="true" lat="44.39305504" lon="-72.70874555">
    <tag k="addr:housenumber" v="184"/>
    <tag k="addr:street" v="Mountain View Drive"/>
    <tag k="addr:state" v="VT"/>
    <tag k="ref:vcgi:esiteid" v="273405"/>
  </node>
  <node id="-300" visible="true" lat="44.39288143" lon="-72.716608">
    <tag k="addr:housenumber" v="101"/>
    <tag k="addr:street" v="Guild Hill Road"/>
    <tag k="addr:state" v="VT"/>
    <tag k="ref:vcgi:esiteid" v="273406"/>
  </node>
  <node id="-302" visible="true" lat="44.39286358" lon="-72.71745924">
    <tag k="addr:housenumber" v="65"/>
    <tag k="addr:street" v="Guild Hill Road"/>
    <tag k="addr:state" v="VT"/>
    <tag k="ref:vcgi:esiteid" v="273408"/>
  </node>
  <node id="-303" visible="true" lat="44.39263284" lon="-72.70802373">
    <tag k="addr:housenumber" v="177"/>
    <tag k="addr:street" v="Mountain View Drive"/>
    <tag k="addr:state" v="VT"/>
    <tag k="ref:vcgi:esiteid" v="273410"/>
  </node>
  <node id="-304" visible="true" lat="44.39261188" lon="-72.70920663">
    <tag k="addr:housenumber" v="216"/>
    <tag k="addr:street" v="Mountain View Drive"/>
    <tag k="addr:state" v="VT"/>
    <tag k="ref:vcgi:esiteid" v="273411"/>
  </node>
  <node id="-305" visible="true" lat="44.39243571" lon="-72.71371739">
    <tag k="addr:housenumber" v="60"/>
    <tag k="addr:street" v="Maggies Way"/>
    <tag k="addr:state" v="VT"/>
    <tag k="ref:vcgi:esiteid" v="273412"/>
  </node>
  <node id="-306" visible="true" lat="44.39243843" lon="-72.70562261">
    <tag k="addr:housenumber" v="290"/>
    <tag k="addr:street" v="Barnes Hill Road"/>
    <tag k="addr:state" v="VT"/>
    <tag k="ref:vcgi:esiteid" v="273413"/>
  </node>
  <node id="-307" visible="true" lat="44.39261306" lon="-72.7065575">
    <tag k="addr:housenumber" v="1357"/>
    <tag k="addr:street" v="Maple Street"/>
    <tag k="addr:state" v="VT"/>
    <tag k="ref:vcgi:esiteid" v="273414"/>
  </node>
  <node id="-308" visible="true" lat="44.39238556" lon="-72.71561785">
    <tag k="addr:housenumber" v="63"/>
    <tag k="addr:street" v="Maggies Way"/>
    <tag k="addr:state" v="VT"/>
    <tag k="ref:vcgi:esiteid" v="273415"/>
  </node>
  <node id="-310" visible="true" lat="44.3922212" lon="-72.70961919">
    <tag k="addr:housenumber" v="248"/>
    <tag k="addr:street" v="Mountain View Drive"/>
    <tag k="addr:state" v="VT"/>
    <tag k="ref:vcgi:esiteid" v="273417"/>
  </node>
  <node id="-311" visible="true" lat="44.39227468" lon="-72.70833749">
    <tag k="addr:housenumber" v="231"/>
    <tag k="addr:street" v="Mountain View Drive"/>
    <tag k="addr:state" v="VT"/>
    <tag k="ref:vcgi:esiteid" v="273418"/>
  </node>
  <node id="-312" visible="true" lat="44.39235292" lon="-72.70715925">
    <tag k="addr:housenumber" v="1325"/>
    <tag k="addr:street" v="Maple Street"/>
    <tag k="addr:state" v="VT"/>
    <tag k="ref:vcgi:esiteid" v="273419"/>
  </node>
  <node id="-313" visible="true" lat="44.39201239" lon="-72.70749407">
    <tag k="addr:housenumber" v="1307"/>
    <tag k="addr:street" v="Maple Street"/>
    <tag k="addr:state" v="VT"/>
    <tag k="ref:vcgi:esiteid" v="273420"/>
  </node>
  <node id="-314" visible="true" lat="44.39181352" lon="-72.70977194">
    <tag k="addr:housenumber" v="286"/>
    <tag k="addr:street" v="Mountain View Drive"/>
    <tag k="addr:state" v="VT"/>
    <tag k="ref:vcgi:esiteid" v="273421"/>
  </node>
  <node id="-315" visible="true" lat="44.39169028" lon="-72.71379031">
    <tag k="addr:housenumber" v="279"/>
    <tag k="addr:street" v="Guild Hill Road"/>
    <tag k="addr:state" v="VT"/>
    <tag k="ref:vcgi:esiteid" v="273422"/>
  </node>
  <node id="-316" visible="true" lat="44.39142125" lon="-72.71000284">
    <tag k="addr:housenumber" v="310"/>
    <tag k="addr:street" v="Mountain View Drive"/>
    <tag k="addr:state" v="VT"/>
    <tag k="ref:vcgi:esiteid" v="273423"/>
  </node>
  <node id="-320" visible="true" lat="44.39114096" lon="-72.72471946">
    <tag k="addr:housenumber" v="294"/>
    <tag k="addr:street" v="Gregg Hill Road"/>
    <tag k="addr:state" v="VT"/>
    <tag k="ref:vcgi:esiteid" v="273428"/>
  </node>
  <node id="-321" visible="true" lat="44.39066454" lon="-72.71484166">
    <tag k="addr:housenumber" v="51"/>
    <tag k="addr:street" v="Vista Drive"/>
    <tag k="addr:state" v="VT"/>
    <tag k="ref:vcgi:esiteid" v="273430"/>
  </node>
  <node id="-322" visible="true" lat="44.3905191" lon="-72.72502069">
    <tag k="addr:housenumber" v="327"/>
    <tag k="addr:street" v="Gregg Hill Road"/>
    <tag k="addr:state" v="VT"/>
    <tag k="ref:vcgi:esiteid" v="273431"/>
  </node>
  <node id="-323" visible="true" lat="44.39061729" lon="-72.70865743">
    <tag k="addr:housenumber" v="1187"/>
    <tag k="addr:street" v="Maple Street"/>
    <tag k="addr:state" v="VT"/>
    <tag k="ref:vcgi:esiteid" v="273432"/>
  </node>
  <node id="-324" visible="true" lat="44.3904145" lon="-72.7113381">
    <tag k="addr:housenumber" v="419"/>
    <tag k="addr:street" v="Guild Hill Road"/>
    <tag k="addr:state" v="VT"/>
    <tag k="ref:vcgi:esiteid" v="273433"/>
  </node>
  <node id="-325" visible="true" lat="44.39026954" lon="-72.71353541">
    <tag k="addr:housenumber" v="334"/>
    <tag k="addr:street" v="Guild Hill Road"/>
    <tag k="addr:state" v="VT"/>
    <tag k="ref:vcgi:esiteid" v="273434"/>
  </node>
  <node id="-328" visible="true" lat="44.38992832" lon="-72.71131816">
    <tag k="addr:housenumber" v="428"/>
    <tag k="addr:street" v="Guild Hill Road"/>
    <tag k="addr:state" v="VT"/>
    <tag k="ref:vcgi:esiteid" v="273437"/>
  </node>
  <node id="-330" visible="true" lat="44.38989929" lon="-72.71598188">
    <tag k="addr:housenumber" v="118"/>
    <tag k="addr:street" v="Vista Drive"/>
    <tag k="addr:state" v="VT"/>
    <tag k="ref:vcgi:esiteid" v="273439"/>
  </node>
  <node id="-332" visible="true" lat="44.38965156" lon="-72.71473318">
    <tag k="addr:housenumber" v="91"/>
    <tag k="addr:street" v="Vista Drive"/>
    <tag k="addr:state" v="VT"/>
    <tag k="ref:vcgi:esiteid" v="273441"/>
  </node>
  <node id="-333" visible="true" lat="44.38952186" lon="-72.71033985">
    <tag k="addr:housenumber" v="502"/>
    <tag k="addr:street" v="Guild Hill Road"/>
    <tag k="addr:state" v="VT"/>
    <tag k="ref:vcgi:esiteid" v="273442"/>
  </node>
  <node id="-334" visible="true" lat="44.38926742" lon="-72.72158899">
    <tag k="addr:housenumber" v="137"/>
    <tag k="addr:street" v="Gregg Hill Road"/>
    <tag k="addr:state" v="VT"/>
    <tag k="ref:vcgi:esiteid" v="273443"/>
  </node>
  <node id="-335" visible="true" lat="44.38936774" lon="-72.71331677">
    <tag k="addr:housenumber" v="350"/>
    <tag k="addr:street" v="Guild Hill Road"/>
    <tag k="addr:state" v="VT"/>
    <tag k="ref:vcgi:esiteid" v="273445"/>
  </node>
  <node id="-336" visible="true" lat="44.38927768" lon="-72.70944055">
    <tag k="addr:housenumber" v="1075"/>
    <tag k="addr:street" v="Maple Street"/>
    <tag k="addr:state" v="VT"/>
    <tag k="ref:vcgi:esiteid" v="273446"/>
  </node>
  <node id="-337" visible="true" lat="44.38905647" lon="-72.71954733">
    <tag k="addr:housenumber" v="27"/>
    <tag k="addr:street" v="Gregg Hill Road"/>
    <tag k="addr:state" v="VT"/>
    <tag k="ref:vcgi:esiteid" v="273447"/>
  </node>
  <node id="-338" visible="true" lat="44.38878022" lon="-72.71550485">
    <tag k="addr:housenumber" v="182"/>
    <tag k="addr:street" v="Vista Drive"/>
    <tag k="addr:state" v="VT"/>
    <tag k="ref:vcgi:esiteid" v="273448"/>
  </node>
  <node id="-339" visible="true" lat="44.38867642" lon="-72.70998163">
    <tag k="addr:housenumber" v="1035"/>
    <tag k="addr:street" v="Maple Street"/>
    <tag k="addr:state" v="VT"/>
    <tag k="ref:vcgi:esiteid" v="273449"/>
  </node>
  <node id="-341" visible="true" lat="44.38832786" lon="-72.71001059">
    <tag k="addr:housenumber" v="1019"/>
    <tag k="addr:street" v="Maple Street"/>
    <tag k="addr:state" v="VT"/>
    <tag k="ref:vcgi:esiteid" v="273451"/>
  </node>
  <node id="-343" visible="true" lat="44.38771351" lon="-72.70983477">
    <tag k="addr:housenumber" v="967"/>
    <tag k="addr:street" v="Maple Street"/>
    <tag k="addr:state" v="VT"/>
    <tag k="ref:vcgi:esiteid" v="273454"/>
  </node>
  <node id="-346" visible="true" lat="44.3867084" lon="-72.70993378">
    <tag k="addr:housenumber" v="901"/>
    <tag k="addr:street" v="Maple Street"/>
    <tag k="addr:state" v="VT"/>
    <tag k="ref:vcgi:esiteid" v="273457"/>
  </node>
  <node id="-347" visible="true" lat="44.38661125" lon="-72.71915823">
    <tag k="addr:housenumber" v="3952"/>
    <tag k="addr:street" v="Waterbury Stowe Road"/>
    <tag k="addr:state" v="VT"/>
    <tag k="ref:vcgi:esiteid" v="273458"/>
  </node>
  <node id="-349" visible="true" lat="44.38586563" lon="-72.70936984">
    <tag k="addr:housenumber" v="846"/>
    <tag k="addr:street" v="Maple Street"/>
    <tag k="addr:state" v="VT"/>
    <tag k="ref:vcgi:esiteid" v="273460"/>
  </node>
  <node id="-351" visible="true" lat="44.38551805" lon="-72.70980081">
    <tag k="addr:housenumber" v="819"/>
    <tag k="addr:street" v="Maple Street"/>
    <tag k="addr:state" v="VT"/>
    <tag k="ref:vcgi:esiteid" v="273462"/>
  </node>
  <node id="-352" visible="true" lat="44.38540009" lon="-72.70925903">
    <tag k="addr:housenumber" v="808"/>
    <tag k="addr:street" v="Maple Street"/>
    <tag k="addr:state" v="VT"/>
    <tag k="ref:vcgi:esiteid" v="273463"/>
  </node>
  <node id="-353" visible="true" lat="44.3848379" lon="-72.70911001">
    <tag k="addr:housenumber" v="782"/>
    <tag k="addr:street" v="Maple Street"/>
    <tag k="addr:state" v="VT"/>
    <tag k="ref:vcgi:esiteid" v="273465"/>
  </node>
  <node id="-354" visible="true" lat="44.3849268" lon="-72.70969506">
    <tag k="addr:housenumber" v="775"/>
    <tag k="addr:street" v="Maple Street"/>
    <tag k="addr:state" v="VT"/>
    <tag k="ref:vcgi:esiteid" v="273466"/>
  </node>
  <node id="-355" visible="true" lat="44.38465599" lon="-72.7105364">
    <tag k="addr:housenumber" v="761"/>
    <tag k="addr:street" v="Maple Street"/>
    <tag k="addr:state" v="VT"/>
    <tag k="ref:vcgi:esiteid" v="273467"/>
  </node>
  <node id="-357" visible="true" lat="44.38463142" lon="-72.71738058">
    <tag k="addr:housenumber" v="436"/>
    <tag k="addr:street" v="Suss Drive"/>
    <tag k="addr:state" v="VT"/>
    <tag k="ref:vcgi:esiteid" v="273469"/>
  </node>
  <node id="-358" visible="true" lat="44.38443917" lon="-72.70903254">
    <tag k="addr:housenumber" v="754"/>
    <tag k="addr:street" v="Maple Street"/>
    <tag k="addr:state" v="VT"/>
    <tag k="ref:vcgi:esiteid" v="273470"/>
  </node>
  <node id="-360" visible="true" lat="44.38414499" lon="-72.72093268">
    <tag k="addr:housenumber" v="3801"/>
    <tag k="addr:street" v="Waterbury Stowe Road"/>
    <tag k="addr:state" v="VT"/>
    <tag k="ref:vcgi:esiteid" v="273472"/>
  </node>
  <node id="-361" visible="true" lat="44.38418319" lon="-72.72142291">
    <tag k="addr:housenumber" v="3781"/>
    <tag k="addr:street" v="Waterbury Stowe Road"/>
    <tag k="addr:state" v="VT"/>
    <tag k="ref:vcgi:esiteid" v="273473"/>
  </node>
  <node id="-362" visible="true" lat="44.38405636" lon="-72.7091697">
    <tag k="addr:housenumber" v="710"/>
    <tag k="addr:street" v="Maple Street"/>
    <tag k="addr:state" v="VT"/>
    <tag k="ref:vcgi:esiteid" v="273474"/>
  </node>
  <node id="-363" visible="true" lat="44.38401544" lon="-72.70983694">
    <tag k="addr:housenumber" v="709"/>
    <tag k="addr:street" v="Maple Street"/>
    <tag k="addr:state" v="VT"/>
    <tag k="ref:vcgi:esiteid" v="273475"/>
  </node>
  <node id="-365" visible="true" lat="44.38375614" lon="-72.71865441">
    <tag k="addr:housenumber" v="228"/>
    <tag k="addr:street" v="Suss Drive"/>
    <tag k="addr:state" v="VT"/>
    <tag k="ref:vcgi:esiteid" v="273477"/>
  </node>
  <node id="-366" visible="true" lat="44.38391195" lon="-72.71018583">
    <tag k="addr:housenumber" v="695"/>
    <tag k="addr:street" v="Maple Street"/>
    <tag k="addr:state" v="VT"/>
    <tag k="ref:vcgi:esiteid" v="273478"/>
  </node>
  <node id="-368" visible="true" lat="44.3836767" lon="-72.7210029">
    <tag k="addr:housenumber" v="3769"/>
    <tag k="addr:street" v="Waterbury Stowe Road"/>
    <tag k="addr:state" v="VT"/>
    <tag k="ref:vcgi:esiteid" v="273481"/>
  </node>
  <node id="-369" visible="true" lat="44.38369694" lon="-72.7095853">
    <tag k="addr:housenumber" v="694"/>
    <tag k="addr:street" v="Maple Street"/>
    <tag k="addr:state" v="VT"/>
    <tag k="ref:vcgi:esiteid" v="273482"/>
  </node>
  <node id="-370" visible="true" lat="44.38370043" lon="-72.71013416">
    <tag k="addr:housenumber" v="683"/>
    <tag k="addr:street" v="Maple Street"/>
    <tag k="addr:state" v="VT"/>
    <tag k="ref:vcgi:esiteid" v="273483"/>
  </node>
  <node id="-371" visible="true" lat="44.38357856" lon="-72.72197348">
    <tag k="addr:housenumber" v="181"/>
    <tag k="addr:street" v="Sunset Drive"/>
    <tag k="addr:state" v="VT"/>
    <tag k="ref:vcgi:esiteid" v="273484"/>
  </node>
  <node id="-382" visible="true" lat="44.38320472" lon="-72.72085959">
    <tag k="addr:housenumber" v="3737"/>
    <tag k="addr:street" v="Waterbury Stowe Road"/>
    <tag k="addr:state" v="VT"/>
    <tag k="ref:vcgi:esiteid" v="273496"/>
  </node>
  <node id="-383" visible="true" lat="44.38316581" lon="-72.72158795">
    <tag k="addr:housenumber" v="156"/>
    <tag k="addr:street" v="Sunset Drive"/>
    <tag k="addr:state" v="VT"/>
    <tag k="ref:vcgi:esiteid" v="273497"/>
  </node>
  <node id="-384" visible="true" lat="44.38306907" lon="-72.72230839">
    <tag k="addr:housenumber" v="151"/>
    <tag k="addr:street" v="Sunset Drive"/>
    <tag k="addr:state" v="VT"/>
    <tag k="ref:vcgi:esiteid" v="273498"/>
  </node>
  <node id="-386" visible="true" lat="44.38294069" lon="-72.70990219">
    <tag k="addr:housenumber" v="646"/>
    <tag k="addr:street" v="Maple Street"/>
    <tag k="addr:state" v="VT"/>
    <tag k="ref:vcgi:esiteid" v="273500"/>
  </node>
  <node id="-387" visible="true" lat="44.38314167" lon="-72.72045441">
    <tag k="addr:housenumber" v="3724"/>
    <tag k="addr:street" v="Waterbury Stowe Road"/>
    <tag k="addr:state" v="VT"/>
    <tag k="ref:vcgi:esiteid" v="273501"/>
  </node>
  <node id="-390" visible="true" lat="44.3828683" lon="-72.72159124">
    <tag k="addr:housenumber" v="90"/>
    <tag k="addr:street" v="Sunset Drive"/>
    <tag k="addr:state" v="VT"/>
    <tag k="ref:vcgi:esiteid" v="273505"/>
  </node>
  <node id="-393" visible="true" lat="44.38272407" lon="-72.72224051">
    <tag k="addr:housenumber" v="117"/>
    <tag k="addr:street" v="Sunset Drive"/>
    <tag k="addr:state" v="VT"/>
    <tag k="ref:vcgi:esiteid" v="273509"/>
  </node>
  <node id="-395" visible="true" lat="44.38250283" lon="-72.72092365">
    <tag k="addr:housenumber" v="80"/>
    <tag k="addr:street" v="Sunset Drive"/>
    <tag k="addr:state" v="VT"/>
    <tag k="ref:vcgi:esiteid" v="273512"/>
  </node>
  <node id="-396" visible="true" lat="44.38245735" lon="-72.7216311">
    <tag k="addr:housenumber" v="89"/>
    <tag k="addr:street" v="Sunset Drive"/>
    <tag k="addr:state" v="VT"/>
    <tag k="ref:vcgi:esiteid" v="273513"/>
  </node>
  <node id="-397" visible="true" lat="44.38236938" lon="-72.72246273">
    <tag k="addr:housenumber" v="115"/>
    <tag k="addr:street" v="Sunset Drive"/>
    <tag k="addr:state" v="VT"/>
    <tag k="ref:vcgi:esiteid" v="273515"/>
  </node>
  <node id="-398" visible="true" lat="44.3824715" lon="-72.7199768">
    <tag k="addr:housenumber" v="3682"/>
    <tag k="addr:street" v="Waterbury Stowe Road"/>
    <tag k="addr:state" v="VT"/>
    <tag k="ref:vcgi:esiteid" v="273516"/>
  </node>
  <node id="-399" visible="true" lat="44.38264414" lon="-72.71030812">
    <tag k="addr:housenumber" v="596"/>
    <tag k="addr:street" v="Maple Street"/>
    <tag k="addr:state" v="VT"/>
    <tag k="ref:vcgi:esiteid" v="273517"/>
  </node>
  <node id="-405" visible="true" lat="44.38225702" lon="-72.71102631">
    <tag k="addr:housenumber" v="576"/>
    <tag k="addr:street" v="Maple Street"/>
    <tag k="addr:state" v="VT"/>
    <tag k="ref:vcgi:esiteid" v="273523"/>
  </node>
  <node id="-410" visible="true" lat="44.38216558" lon="-72.72090858">
    <tag k="addr:housenumber" v="14"/>
    <tag k="addr:street" v="Sunset Drive"/>
    <tag k="addr:state" v="VT"/>
    <tag k="ref:vcgi:esiteid" v="273528"/>
  </node>
  <node id="-411" visible="true" lat="44.3821454" lon="-72.72169184">
    <tag k="addr:housenumber" v="51"/>
    <tag k="addr:street" v="Sunset Drive"/>
    <tag k="addr:state" v="VT"/>
    <tag k="ref:vcgi:esiteid" v="273530"/>
  </node>
  <node id="-413" visible="true" lat="44.38198637" lon="-72.70976362">
    <tag k="addr:housenumber" v="594"/>
    <tag k="addr:street" v="Maple Street"/>
    <tag k="addr:state" v="VT"/>
    <tag k="ref:vcgi:esiteid" v="273532"/>
  </node>
  <node id="-414" visible="true" lat="44.38188527" lon="-72.71130658">
    <tag k="addr:housenumber" v="550"/>
    <tag k="addr:street" v="Maple Street"/>
    <tag k="addr:state" v="VT"/>
    <tag k="ref:vcgi:esiteid" v="273533"/>
  </node>
  <node id="-416" visible="true" lat="44.38204748" lon="-72.72034953">
    <tag k="addr:housenumber" v="3650"/>
    <tag k="addr:street" v="Waterbury Stowe Road"/>
    <tag k="addr:state" v="VT"/>
    <tag k="ref:vcgi:esiteid" v="273535"/>
  </node>
  <node id="-417" visible="true" lat="44.38185319" lon="-72.72170574">
    <tag k="addr:housenumber" v="39"/>
    <tag k="addr:street" v="Sunset Drive"/>
    <tag k="addr:state" v="VT"/>
    <tag k="ref:vcgi:esiteid" v="273536"/>
  </node>
  <node id="-421" visible="true" lat="44.38170699" lon="-72.72023308">
    <tag k="addr:housenumber" v="3632"/>
    <tag k="addr:street" v="Waterbury Stowe Road"/>
    <tag k="addr:state" v="VT"/>
    <tag k="ref:vcgi:esiteid" v="273542"/>
  </node>
  <node id="-424" visible="true" lat="44.38181021" lon="-72.71219302">
    <tag k="addr:housenumber" v="511"/>
    <tag k="addr:street" v="Maple Street"/>
    <tag k="addr:state" v="VT"/>
    <tag k="ref:vcgi:esiteid" v="273545"/>
  </node>
  <node id="-425" visible="true" lat="44.3815323" lon="-72.72120776">
    <tag k="addr:housenumber" v="31"/>
    <tag k="addr:street" v="Sunset Drive"/>
    <tag k="addr:state" v="VT"/>
    <tag k="ref:vcgi:esiteid" v="273546"/>
  </node>
  <node id="-426" visible="true" lat="44.38163713" lon="-72.72090237">
    <tag k="addr:housenumber" v="3627"/>
    <tag k="addr:street" v="Waterbury Stowe Road"/>
    <tag k="addr:state" v="VT"/>
    <tag k="ref:vcgi:esiteid" v="273547"/>
  </node>
  <node id="-427" visible="true" lat="44.38165387" lon="-72.71243491">
    <tag k="addr:housenumber" v="491"/>
    <tag k="addr:street" v="Maple Street"/>
    <tag k="addr:state" v="VT"/>
    <tag k="ref:vcgi:esiteid" v="273548"/>
  </node>
  <node id="-430" visible="true" lat="44.38148831" lon="-72.71195985">
    <tag k="addr:housenumber" v="496"/>
    <tag k="addr:street" v="Maple Street"/>
    <tag k="addr:state" v="VT"/>
    <tag k="ref:vcgi:esiteid" v="273551"/>
  </node>
  <node id="-432" visible="true" lat="44.38136223" lon="-72.72082144">
    <tag k="addr:housenumber" v="3611"/>
    <tag k="addr:street" v="Waterbury Stowe Road"/>
    <tag k="addr:state" v="VT"/>
    <tag k="ref:vcgi:esiteid" v="273553"/>
  </node>
  <node id="-435" visible="true" lat="44.38148799" lon="-72.7105071">
    <tag k="addr:housenumber" v="67"/>
    <tag k="addr:street" v="Thatcher Meadow Lane"/>
    <tag k="addr:state" v="VT"/>
    <tag k="ref:vcgi:esiteid" v="273556"/>
  </node>
  <node id="-437" visible="true" lat="44.38126318" lon="-72.72015943">
    <tag k="addr:housenumber" v="3600"/>
    <tag k="addr:street" v="Waterbury Stowe Road"/>
    <tag k="addr:state" v="VT"/>
    <tag k="ref:vcgi:esiteid" v="273558"/>
  </node>
  <node id="-439" visible="true" lat="44.38122871" lon="-72.71274954">
    <tag k="addr:housenumber" v="465"/>
    <tag k="addr:street" v="Maple Street"/>
    <tag k="addr:state" v="VT"/>
    <tag k="ref:vcgi:esiteid" v="273560"/>
  </node>
  <node id="-441" visible="true" lat="44.38118675" lon="-72.72090536">
    <tag k="addr:housenumber" v="3595"/>
    <tag k="addr:street" v="Waterbury Stowe Road"/>
    <tag k="addr:state" v="VT"/>
    <tag k="ref:vcgi:esiteid" v="273562"/>
  </node>
  <node id="-447" visible="true" lat="44.38107818" lon="-72.71018231">
    <tag k="addr:housenumber" v="95"/>
    <tag k="addr:street" v="Thatcher Meadow Lane"/>
    <tag k="addr:state" v="VT"/>
    <tag k="ref:vcgi:esiteid" v="273568"/>
  </node>
  <node id="-450" visible="true" lat="44.3809482" lon="-72.71310293">
    <tag k="addr:housenumber" v="441"/>
    <tag k="addr:street" v="Maple Street"/>
    <tag k="addr:state" v="VT"/>
    <tag k="ref:vcgi:esiteid" v="273571"/>
  </node>
  <node id="-454" visible="true" lat="44.38084343" lon="-72.71096426">
    <tag k="addr:housenumber" v="78"/>
    <tag k="addr:street" v="Thatcher Meadow Lane"/>
    <tag k="addr:state" v="VT"/>
    <tag k="ref:vcgi:esiteid" v="273575"/>
  </node>
  <node id="-456" visible="true" lat="44.38077476" lon="-72.72039419">
    <tag k="addr:housenumber" v="3568"/>
    <tag k="addr:street" v="Waterbury Stowe Road"/>
    <tag k="addr:state" v="VT"/>
    <tag k="ref:vcgi:esiteid" v="273577"/>
  </node>
  <node id="-457" visible="true" lat="44.38079797" lon="-72.70985638">
    <tag k="addr:housenumber" v="115"/>
    <tag k="addr:street" v="Thatcher Meadow Lane"/>
    <tag k="addr:state" v="VT"/>
    <tag k="ref:vcgi:esiteid" v="273579"/>
  </node>
  <node id="-459" visible="true" lat="44.38074739" lon="-72.72407389">
    <tag k="addr:housenumber" v="63"/>
    <tag k="addr:street" v="North Lakeview Terrace"/>
    <tag k="addr:state" v="VT"/>
    <tag k="ref:vcgi:esiteid" v="273581"/>
  </node>
  <node id="-460" visible="true" lat="44.38066795" lon="-72.72046286">
    <tag k="addr:housenumber" v="3562"/>
    <tag k="addr:street" v="Waterbury Stowe Road"/>
    <tag k="addr:state" v="VT"/>
    <tag k="ref:vcgi:esiteid" v="273582"/>
  </node>
  <node id="-461" visible="true" lat="44.38060877" lon="-72.71365262">
    <tag k="addr:housenumber" v="417"/>
    <tag k="addr:street" v="Maple Street"/>
    <tag k="addr:state" v="VT"/>
    <tag k="ref:vcgi:esiteid" v="273583"/>
  </node>
  <node id="-463" visible="true" lat="44.38053447" lon="-72.70927567">
    <tag k="addr:housenumber" v="113"/>
    <tag k="addr:street" v="Thatcher Meadow Lane"/>
    <tag k="addr:state" v="VT"/>
    <tag k="ref:vcgi:esiteid" v="273586"/>
  </node>
  <node id="-465" visible="true" lat="44.38043144" lon="-72.7208901">
    <tag k="addr:housenumber" v="3537"/>
    <tag k="addr:street" v="Waterbury Stowe Road"/>
    <tag k="addr:state" v="VT"/>
    <tag k="ref:vcgi:esiteid" v="273588"/>
  </node>
  <node id="-468" visible="true" lat="44.38041802" lon="-72.72044275">
    <tag k="addr:housenumber" v="9"/>
    <tag k="addr:street" v="Hollow Road"/>
    <tag k="addr:state" v="VT"/>
    <tag k="ref:vcgi:esiteid" v="273591"/>
  </node>
  <node id="-469" visible="true" lat="44.38036162" lon="-72.72155489">
    <tag k="addr:housenumber" v="3521"/>
    <tag k="addr:street" v="Waterbury Stowe Road"/>
    <tag k="addr:state" v="VT"/>
    <tag k="ref:vcgi:esiteid" v="273592"/>
  </node>
  <node id="-471" visible="true" lat="44.3802067" lon="-72.70973962">
    <tag k="addr:housenumber" v="112"/>
    <tag k="addr:street" v="Thatcher Meadow Lane"/>
    <tag k="addr:state" v="VT"/>
    <tag k="ref:vcgi:esiteid" v="273594"/>
  </node>
  <node id="-478" visible="true" lat="44.38019856" lon="-72.72299939">
    <tag k="addr:housenumber" v="54"/>
    <tag k="addr:street" v="North Lakeview Terrace"/>
    <tag k="addr:state" v="VT"/>
    <tag k="ref:vcgi:esiteid" v="273602"/>
  </node>
  <node id="-480" visible="true" lat="44.37998058" lon="-72.72349179">
    <tag k="addr:housenumber" v="57"/>
    <tag k="addr:street" v="North Lakeview Terrace"/>
    <tag k="addr:state" v="VT"/>
    <tag k="ref:vcgi:esiteid" v="273604"/>
  </node>
  <node id="-481" visible="true" lat="44.3799546" lon="-72.72163016">
    <tag k="addr:housenumber" v="3487"/>
    <tag k="addr:street" v="Waterbury Stowe Road"/>
    <tag k="addr:state" v="VT"/>
    <tag k="ref:vcgi:esiteid" v="273605"/>
  </node>
  <node id="-484" visible="true" lat="44.37988975" lon="-72.72137839">
    <tag k="addr:housenumber" v="3485"/>
    <tag k="addr:street" v="Waterbury Stowe Road"/>
    <tag k="addr:state" v="VT"/>
    <tag k="ref:vcgi:esiteid" v="273608"/>
  </node>
  <node id="-488" visible="true" lat="44.37993359" lon="-72.72271186">
    <tag k="addr:housenumber" v="30"/>
    <tag k="addr:street" v="North Lakeview Terrace"/>
    <tag k="addr:state" v="VT"/>
    <tag k="ref:vcgi:esiteid" v="273612"/>
  </node>
  <node id="-489" visible="true" lat="44.37969279" lon="-72.72324665">
    <tag k="addr:housenumber" v="39"/>
    <tag k="addr:street" v="North Lakeview Terrace"/>
    <tag k="addr:state" v="VT"/>
    <tag k="ref:vcgi:esiteid" v="273613"/>
  </node>
  <node id="-490" visible="true" lat="44.37978294" lon="-72.71232992">
    <tag k="addr:housenumber" v="380"/>
    <tag k="addr:street" v="Maple Street"/>
    <tag k="addr:state" v="VT"/>
    <tag k="ref:vcgi:esiteid" v="273614"/>
  </node>
  <node id="-493" visible="true" lat="44.37964561" lon="-72.72156149">
    <tag k="addr:housenumber" v="3471"/>
    <tag k="addr:street" v="Waterbury Stowe Road"/>
    <tag k="addr:state" v="VT"/>
    <tag k="ref:vcgi:esiteid" v="273617"/>
  </node>
  <node id="-496" visible="true" lat="44.37955597" lon="-72.72025862">
    <tag k="addr:housenumber" v="58"/>
    <tag k="addr:street" v="Hollow Road"/>
    <tag k="addr:state" v="VT"/>
    <tag k="ref:vcgi:esiteid" v="273620"/>
  </node>
  <node id="-498" visible="true" lat="44.37943316" lon="-72.72305974">
    <tag k="addr:housenumber" v="54"/>
    <tag k="addr:street" v="Lakeview Terrace"/>
    <tag k="addr:state" v="VT"/>
    <tag k="ref:vcgi:esiteid" v="273623"/>
  </node>
  <node id="-500" visible="true" lat="44.37936332" lon="-72.72201163">
    <tag k="addr:housenumber" v="16"/>
    <tag k="addr:street" v="Lakeview Terrace"/>
    <tag k="addr:state" v="VT"/>
    <tag k="ref:vcgi:esiteid" v="273626"/>
  </node>
  <node id="-502" visible="true" lat="44.37929533" lon="-72.72141185">
    <tag k="addr:housenumber" v="3452"/>
    <tag k="addr:street" v="Waterbury Stowe Road"/>
    <tag k="addr:state" v="VT"/>
    <tag k="ref:vcgi:esiteid" v="273628"/>
  </node>
  <node id="-503" visible="true" lat="44.37930899" lon="-72.72333152">
    <tag k="addr:housenumber" v="68"/>
    <tag k="addr:street" v="Lakeview Terrace"/>
    <tag k="addr:state" v="VT"/>
    <tag k="ref:vcgi:esiteid" v="273629"/>
  </node>
  <node id="-505" visible="true" lat="44.37920395" lon="-72.72230912">
    <tag k="addr:housenumber" v="27"/>
    <tag k="addr:street" v="Lakeview Terrace"/>
    <tag k="addr:state" v="VT"/>
    <tag k="ref:vcgi:esiteid" v="273631"/>
  </node>
  <node id="-509" visible="true" lat="44.37911661" lon="-72.72284047">
    <tag k="addr:housenumber" v="65"/>
    <tag k="addr:street" v="Lakeview Terrace"/>
    <tag k="addr:state" v="VT"/>
    <tag k="ref:vcgi:esiteid" v="273635"/>
  </node>
  <node id="-510" visible="true" lat="44.37911155" lon="-72.71517569">
    <tag k="addr:housenumber" v="277"/>
    <tag k="addr:street" v="Maple Street"/>
    <tag k="addr:state" v="VT"/>
    <tag k="ref:vcgi:esiteid" v="273636"/>
  </node>
  <node id="-511" visible="true" lat="44.37917255" lon="-72.72362612">
    <tag k="addr:housenumber" v="90"/>
    <tag k="addr:street" v="Lakeview Terrace"/>
    <tag k="addr:state" v="VT"/>
    <tag k="ref:vcgi:esiteid" v="273637"/>
  </node>
  <node id="-512" visible="true" lat="44.37906578" lon="-72.72178274">
    <tag k="addr:housenumber" v="3438"/>
    <tag k="addr:street" v="Waterbury Stowe Road"/>
    <tag k="addr:state" v="VT"/>
    <tag k="ref:vcgi:esiteid" v="273638"/>
  </node>
  <node id="-513" visible="true" lat="44.37912309" lon="-72.71472995">
    <tag k="addr:housenumber" v="286"/>
    <tag k="addr:street" v="Maple Street"/>
    <tag k="addr:state" v="VT"/>
    <tag k="ref:vcgi:esiteid" v="273639"/>
  </node>
  <node id="-514" visible="true" lat="44.37914016" lon="-72.71572354">
    <tag k="addr:housenumber" v="253"/>
    <tag k="addr:street" v="Maple Street"/>
    <tag k="addr:state" v="VT"/>
    <tag k="ref:vcgi:esiteid" v="273640"/>
  </node>
  <node id="-516" visible="true" lat="44.3789424" lon="-72.72324745">
    <tag k="addr:housenumber" v="83"/>
    <tag k="addr:street" v="Lakeview Terrace"/>
    <tag k="addr:state" v="VT"/>
    <tag k="ref:vcgi:esiteid" v="273642"/>
  </node>
  <node id="-519" visible="true" lat="44.37881805" lon="-72.71496344">
    <tag k="addr:housenumber" v="268"/>
    <tag k="addr:street" v="Maple Street"/>
    <tag k="addr:state" v="VT"/>
    <tag k="ref:vcgi:esiteid" v="273645"/>
  </node>
  <node id="-520" visible="true" lat="44.37884453" lon="-72.72352225">
    <tag k="addr:housenumber" v="95"/>
    <tag k="addr:street" v="Lakeview Terrace"/>
    <tag k="addr:state" v="VT"/>
    <tag k="ref:vcgi:esiteid" v="273646"/>
  </node>
  <node id="-521" visible="true" lat="44.37882545" lon="-72.71555716">
    <tag k="addr:housenumber" v="249"/>
    <tag k="addr:street" v="Maple Street"/>
    <tag k="addr:state" v="VT"/>
    <tag k="ref:vcgi:esiteid" v="273647"/>
  </node>
  <node id="-527" visible="true" lat="44.37870352" lon="-72.7151286">
    <tag k="addr:housenumber" v="252"/>
    <tag k="addr:street" v="Maple Street"/>
    <tag k="addr:state" v="VT"/>
    <tag k="ref:vcgi:esiteid" v="273653"/>
  </node>
  <node id="-530" visible="true" lat="44.37865172" lon="-72.71577891">
    <tag k="addr:housenumber" v="233"/>
    <tag k="addr:street" v="Maple Street"/>
    <tag k="addr:state" v="VT"/>
    <tag k="ref:vcgi:esiteid" v="273656"/>
  </node>
  <node id="-533" visible="true" lat="44.37841346" lon="-72.71600729">
    <tag k="addr:housenumber" v="211"/>
    <tag k="addr:street" v="Maple Street"/>
    <tag k="addr:state" v="VT"/>
    <tag k="ref:vcgi:esiteid" v="273659"/>
  </node>
  <node id="-537" visible="true" lat="44.37833324" lon="-72.71619954">
    <tag k="addr:housenumber" v="201"/>
    <tag k="addr:street" v="Maple Street"/>
    <tag k="addr:state" v="VT"/>
    <tag k="ref:vcgi:esiteid" v="273664"/>
  </node>
  <node id="-538" visible="true" lat="44.37825123" lon="-72.71511586">
    <tag k="addr:housenumber" v="35"/>
    <tag k="addr:street" v="Loomis Hill Road"/>
    <tag k="addr:state" v="VT"/>
    <tag k="ref:vcgi:esiteid" v="273666"/>
  </node>
  <node id="-539" visible="true" lat="44.37820273" lon="-72.71284948">
    <tag k="addr:housenumber" v="91"/>
    <tag k="addr:street" v="Hunger Mountain Road"/>
    <tag k="addr:state" v="VT"/>
    <tag k="ref:vcgi:esiteid" v="273667"/>
  </node>
  <node id="-540" visible="true" lat="44.37817138" lon="-72.71576475">
    <tag k="addr:housenumber" v="204"/>
    <tag k="addr:street" v="Maple Street"/>
    <tag k="addr:state" v="VT"/>
    <tag k="ref:vcgi:esiteid" v="273668"/>
  </node>
  <node id="-541" visible="true" lat="44.37824772" lon="-72.71865634">
    <tag k="addr:housenumber" v="201"/>
    <tag k="addr:street" v="Hollow Road"/>
    <tag k="addr:state" v="VT"/>
    <tag k="ref:vcgi:esiteid" v="273669"/>
  </node>
  <node id="-543" visible="true" lat="44.37807585" lon="-72.71447529">
    <tag k="addr:housenumber" v="67"/>
    <tag k="addr:street" v="Loomis Hill Road"/>
    <tag k="addr:state" v="VT"/>
    <tag k="ref:vcgi:esiteid" v="273672"/>
  </node>
  <node id="-547" visible="true" lat="44.37786646" lon="-72.71674763">
    <tag k="addr:housenumber" v="165"/>
    <tag k="addr:street" v="Maple Street"/>
    <tag k="addr:state" v="VT"/>
    <tag k="ref:vcgi:esiteid" v="273676"/>
  </node>
  <node id="-548" visible="true" lat="44.37799378" lon="-72.71237212">
    <tag k="addr:housenumber" v="34"/>
    <tag k="addr:street" v="Hunger Mountain Road"/>
    <tag k="addr:state" v="VT"/>
    <tag k="ref:vcgi:esiteid" v="273678"/>
  </node>
  <node id="-549" visible="true" lat="44.37784126" lon="-72.71614462">
    <tag k="addr:housenumber" v="174"/>
    <tag k="addr:street" v="Maple Street"/>
    <tag k="addr:state" v="VT"/>
    <tag k="ref:vcgi:esiteid" v="273679"/>
  </node>
  <node id="-552" visible="true" lat="44.37781837" lon="-72.71479422">
    <tag k="addr:housenumber" v="62"/>
    <tag k="addr:street" v="Loomis Hill Road"/>
    <tag k="addr:state" v="VT"/>
    <tag k="ref:vcgi:esiteid" v="273682"/>
  </node>
  <node id="-553" visible="true" lat="44.37785454" lon="-72.71410854">
    <tag k="addr:housenumber" v="95"/>
    <tag k="addr:street" v="Loomis Hill Road"/>
    <tag k="addr:state" v="VT"/>
    <tag k="ref:vcgi:esiteid" v="273683"/>
  </node>
  <node id="-555" visible="true" lat="44.37766559" lon="-72.71904829">
    <tag k="addr:housenumber" v="205"/>
    <tag k="addr:street" v="Hollow Road"/>
    <tag k="addr:state" v="VT"/>
    <tag k="ref:vcgi:esiteid" v="273685"/>
  </node>
  <node id="-556" visible="true" lat="44.37770088" lon="-72.71368964">
    <tag k="addr:housenumber" v="133"/>
    <tag k="addr:street" v="Loomis Hill Road"/>
    <tag k="addr:state" v="VT"/>
    <tag k="ref:vcgi:esiteid" v="273686"/>
  </node>
  <node id="-557" visible="true" lat="44.37753258" lon="-72.71619167">
    <tag k="addr:housenumber" v="158"/>
    <tag k="addr:street" v="Maple Street"/>
    <tag k="addr:state" v="VT"/>
    <tag k="ref:vcgi:esiteid" v="273687"/>
  </node>
  <node id="-558" visible="true" lat="44.37779768" lon="-72.7131901">
    <tag k="addr:housenumber" v="141"/>
    <tag k="addr:street" v="Loomis Hill Road"/>
    <tag k="addr:state" v="VT"/>
    <tag k="ref:vcgi:esiteid" v="273688"/>
  </node>
  <node id="-562" visible="true" lat="44.37759858" lon="-72.72351505">
    <tag k="addr:housenumber" v="49"/>
    <tag k="addr:street" v="Howard Avenue"/>
    <tag k="addr:state" v="VT"/>
    <tag k="ref:vcgi:esiteid" v="273692"/>
  </node>
  <node id="-563" visible="true" lat="44.37759655" lon="-72.71329658">
    <tag k="addr:housenumber" v="137"/>
    <tag k="addr:street" v="Loomis Hill Road"/>
    <tag k="addr:state" v="VT"/>
    <tag k="ref:vcgi:esiteid" v="273693"/>
  </node>
  <node id="-564" visible="true" lat="44.37763267" lon="-72.71746887">
    <tag k="addr:housenumber" v="129"/>
    <tag k="addr:street" v="Maple Street"/>
    <tag k="addr:state" v="VT"/>
    <tag k="ref:vcgi:esiteid" v="273694"/>
  </node>
  <node id="-565" visible="true" lat="44.37759141" lon="-72.71264165">
    <tag k="addr:housenumber" v="17"/>
    <tag k="addr:street" v="Hunger Mountain Road"/>
    <tag k="addr:state" v="VT"/>
    <tag k="ref:vcgi:esiteid" v="273695"/>
  </node>
  <node id="-566" visible="true" lat="44.37747662" lon="-72.71197957">
    <tag k="addr:housenumber" v="32"/>
    <tag k="addr:street" v="Hunger Mountain Road"/>
    <tag k="addr:state" v="VT"/>
    <tag k="ref:vcgi:esiteid" v="273696"/>
  </node>
  <node id="-568" visible="true" lat="44.37750306" lon="-72.71306525">
    <tag k="addr:housenumber" v="145"/>
    <tag k="addr:street" v="Loomis Hill Road"/>
    <tag k="addr:state" v="VT"/>
    <tag k="ref:vcgi:esiteid" v="273699"/>
  </node>
  <node id="-569" visible="true" lat="44.37746108" lon="-72.72449043">
    <tag k="addr:housenumber" v="3250"/>
    <tag k="addr:street" v="Waterbury Stowe Road"/>
    <tag k="addr:state" v="VT"/>
    <tag k="ref:vcgi:esiteid" v="273700"/>
  </node>
  <node id="-571" visible="true" lat="44.37732616" lon="-72.71668363">
    <tag k="addr:housenumber" v="132"/>
    <tag k="addr:street" v="Maple Street"/>
    <tag k="addr:state" v="VT"/>
    <tag k="ref:vcgi:esiteid" v="273702"/>
  </node>
  <node id="-573" visible="true" lat="44.37735057" lon="-72.71275018">
    <tag k="addr:housenumber" v="11"/>
    <tag k="addr:street" v="Hunger Mountain Road"/>
    <tag k="addr:state" v="VT"/>
    <tag k="ref:vcgi:esiteid" v="273704"/>
  </node>
  <node id="-574" visible="true" lat="44.37736764" lon="-72.69617863">
    <tag k="addr:housenumber" v="425"/>
    <tag k="addr:street" v="Valley View Road"/>
    <tag k="addr:state" v="VT"/>
    <tag k="ref:vcgi:esiteid" v="273705"/>
  </node>
  <node id="-575" visible="true" lat="44.37724165" lon="-72.72344596">
    <tag k="addr:housenumber" v="56"/>
    <tag k="addr:street" v="Howard Avenue"/>
    <tag k="addr:state" v="VT"/>
    <tag k="ref:vcgi:esiteid" v="273706"/>
  </node>
  <node id="-576" visible="true" lat="44.37737639" lon="-72.72098541">
    <tag k="addr:housenumber" v="189"/>
    <tag k="addr:street" v="Howard Avenue"/>
    <tag k="addr:state" v="VT"/>
    <tag k="ref:vcgi:esiteid" v="273707"/>
  </node>
  <node id="-577" visible="true" lat="44.37725749" lon="-72.71741381">
    <tag k="addr:housenumber" v="109"/>
    <tag k="addr:street" v="Maple Street"/>
    <tag k="addr:state" v="VT"/>
    <tag k="ref:vcgi:esiteid" v="273708"/>
  </node>
  <node id="-579" visible="true" lat="44.37736228" lon="-72.70922721">
    <tag k="addr:housenumber" v="255"/>
    <tag k="addr:street" v="Loomis Hill Road"/>
    <tag k="addr:state" v="VT"/>
    <tag k="ref:vcgi:esiteid" v="273710"/>
  </node>
  <node id="-580" visible="true" lat="44.37710769" lon="-72.72241245">
    <tag k="addr:housenumber" v="108"/>
    <tag k="addr:street" v="Howard Avenue"/>
    <tag k="addr:state" v="VT"/>
    <tag k="ref:vcgi:esiteid" v="273711"/>
  </node>
  <node id="-582" visible="true" lat="44.37714226" lon="-72.71316269">
    <tag k="addr:housenumber" v="152"/>
    <tag k="addr:street" v="Loomis Hill Road"/>
    <tag k="addr:state" v="VT"/>
    <tag k="ref:vcgi:esiteid" v="273713"/>
  </node>
  <node id="-584" visible="true" lat="44.37714699" lon="-72.72286612">
    <tag k="addr:housenumber" v="98"/>
    <tag k="addr:street" v="Howard Avenue"/>
    <tag k="addr:state" v="VT"/>
    <tag k="ref:vcgi:esiteid" v="273715"/>
  </node>
  <node id="-585" visible="true" lat="44.37704245" lon="-72.71765176">
    <tag k="addr:housenumber" v="95"/>
    <tag k="addr:street" v="Maple Street"/>
    <tag k="addr:state" v="VT"/>
    <tag k="ref:vcgi:esiteid" v="273717"/>
  </node>
  <node id="-586" visible="true" lat="44.37708595" lon="-72.7212258">
    <tag k="addr:housenumber" v="8"/>
    <tag k="addr:street" v="Metayer Court"/>
    <tag k="addr:state" v="VT"/>
    <tag k="ref:vcgi:esiteid" v="273719"/>
  </node>
  <node id="-587" visible="true" lat="44.37713402" lon="-72.71200972">
    <tag k="addr:housenumber" v="205"/>
    <tag k="addr:street" v="Loomis Hill Road"/>
    <tag k="addr:state" v="VT"/>
    <tag k="ref:vcgi:esiteid" v="273720"/>
  </node>
  <node id="-588" visible="true" lat="44.37694292" lon="-72.72052783">
    <tag k="addr:housenumber" v="202"/>
    <tag k="addr:street" v="Howard Avenue"/>
    <tag k="addr:state" v="VT"/>
    <tag k="ref:vcgi:esiteid" v="273721"/>
  </node>
  <node id="-589" visible="true" lat="44.37711117" lon="-72.7187781">
    <tag k="addr:housenumber" v="297"/>
    <tag k="addr:street" v="Howard Avenue"/>
    <tag k="addr:state" v="VT"/>
    <tag k="ref:vcgi:esiteid" v="273722"/>
  </node>
  <node id="-590" visible="true" lat="44.37682679" lon="-72.720323">
    <tag k="addr:housenumber" v="216"/>
    <tag k="addr:street" v="Howard Avenue"/>
    <tag k="addr:state" v="VT"/>
    <tag k="ref:vcgi:esiteid" v="273723"/>
  </node>
  <node id="-592" visible="true" lat="44.37696388" lon="-72.7117272">
    <tag k="addr:housenumber" v="229"/>
    <tag k="addr:street" v="Loomis Hill Road"/>
    <tag k="addr:state" v="VT"/>
    <tag k="ref:vcgi:esiteid" v="273725"/>
  </node>
  <node id="-593" visible="true" lat="44.37698203" lon="-72.72085112">
    <tag k="addr:housenumber" v="15"/>
    <tag k="addr:street" v="Metayer Court"/>
    <tag k="addr:state" v="VT"/>
    <tag k="ref:vcgi:esiteid" v="273726"/>
  </node>
  <node id="-594" visible="true" lat="44.37687141" lon="-72.7193647">
    <tag k="addr:housenumber" v="264"/>
    <tag k="addr:street" v="Howard Avenue"/>
    <tag k="addr:state" v="VT"/>
    <tag k="ref:vcgi:esiteid" v="273727"/>
  </node>
  <node id="-595" visible="true" lat="44.37701088" lon="-72.71832148">
    <tag k="addr:housenumber" v="317"/>
    <tag k="addr:street" v="Howard Avenue"/>
    <tag k="addr:state" v="VT"/>
    <tag k="ref:vcgi:esiteid" v="273728"/>
  </node>
  <node id="-596" visible="true" lat="44.37686529" lon="-72.71983025">
    <tag k="addr:housenumber" v="244"/>
    <tag k="addr:street" v="Howard Avenue"/>
    <tag k="addr:state" v="VT"/>
    <tag k="ref:vcgi:esiteid" v="273729"/>
  </node>
  <node id="-597" visible="true" lat="44.37691854" lon="-72.71790711">
    <tag k="addr:housenumber" v="337"/>
    <tag k="addr:street" v="Howard Avenue"/>
    <tag k="addr:state" v="VT"/>
    <tag k="ref:vcgi:esiteid" v="273730"/>
  </node>
  <node id="-599" visible="true" lat="44.37673061" lon="-72.71253818">
    <tag k="addr:housenumber" v="190"/>
    <tag k="addr:street" v="Loomis Hill Road"/>
    <tag k="addr:state" v="VT"/>
    <tag k="ref:vcgi:esiteid" v="273732"/>
  </node>
  <node id="-600" visible="true" lat="44.37675142" lon="-72.72263959">
    <tag k="addr:housenumber" v="102"/>
    <tag k="addr:street" v="Howard Avenue"/>
    <tag k="addr:state" v="VT"/>
    <tag k="ref:vcgi:esiteid" v="273733"/>
  </node>
  <node id="-601" visible="true" lat="44.37672322" lon="-72.71745381">
    <tag k="addr:housenumber" v="76"/>
    <tag k="addr:street" v="Maple Street"/>
    <tag k="addr:state" v="VT"/>
    <tag k="ref:vcgi:esiteid" v="273734"/>
  </node>
  <node id="-603" visible="true" lat="44.37674972" lon="-72.71904992">
    <tag k="addr:housenumber" v="2013"/>
    <tag k="addr:street" v="Guptil Road"/>
    <tag k="addr:state" v="VT"/>
    <tag k="ref:vcgi:esiteid" v="273736"/>
  </node>
  <node id="-605" visible="true" lat="44.37668083" lon="-72.72207166">
    <tag k="addr:housenumber" v="78"/>
    <tag k="addr:street" v="Metayer Court"/>
    <tag k="addr:state" v="VT"/>
    <tag k="ref:vcgi:esiteid" v="273740"/>
  </node>
  <node id="-606" visible="true" lat="44.37655783" lon="-72.7190635">
    <tag k="addr:housenumber" v="2007"/>
    <tag k="addr:street" v="Guptil Road"/>
    <tag k="addr:state" v="VT"/>
    <tag k="ref:vcgi:esiteid" v="273741"/>
  </node>
  <node id="-608" visible="true" lat="44.37642301" lon="-72.71190958">
    <tag k="addr:housenumber" v="226"/>
    <tag k="addr:street" v="Loomis Hill Road"/>
    <tag k="addr:state" v="VT"/>
    <tag k="ref:vcgi:esiteid" v="273743"/>
  </node>
  <node id="-609" visible="true" lat="44.37655189" lon="-72.72169882">
    <tag k="addr:housenumber" v="67"/>
    <tag k="addr:street" v="Metayer Court"/>
    <tag k="addr:state" v="VT"/>
    <tag k="ref:vcgi:esiteid" v="273745"/>
  </node>
  <node id="-614" visible="true" lat="44.37642499" lon="-72.71982306">
    <tag k="addr:housenumber" v="224"/>
    <tag k="addr:street" v="Howard Avenue"/>
    <tag k="addr:state" v="VT"/>
    <tag k="ref:vcgi:esiteid" v="273750"/>
  </node>
  <node id="-616" visible="true" lat="44.37636328" lon="-72.71905377">
    <tag k="addr:housenumber" v="1989"/>
    <tag k="addr:street" v="Guptil Road"/>
    <tag k="addr:state" v="VT"/>
    <tag k="ref:vcgi:esiteid" v="273753"/>
  </node>
  <node id="-622" visible="true" lat="44.37625053" lon="-72.71793753">
    <tag k="addr:housenumber" v="32"/>
    <tag k="addr:street" v="Maple Street"/>
    <tag k="addr:state" v="VT"/>
    <tag k="ref:vcgi:esiteid" v="273759"/>
  </node>
  <node id="-623" visible="true" lat="44.37626142" lon="-72.72145384">
    <tag k="addr:housenumber" v="187"/>
    <tag k="addr:street" v="Metayer Court"/>
    <tag k="addr:state" v="VT"/>
    <tag k="ref:vcgi:esiteid" v="273760"/>
  </node>
  <node id="-625" visible="true" lat="44.37608311" lon="-72.71885892">
    <tag k="addr:housenumber" v="1971"/>
    <tag k="addr:street" v="Guptil Road"/>
    <tag k="addr:state" v="VT"/>
    <tag k="ref:vcgi:esiteid" v="273762"/>
  </node>
  <node id="-628" visible="true" lat="44.37597206" lon="-72.72185904">
    <tag k="addr:housenumber" v="119"/>
    <tag k="addr:street" v="Metayer Court"/>
    <tag k="addr:state" v="VT"/>
    <tag k="ref:vcgi:esiteid" v="273765"/>
  </node>
  <node id="-629" visible="true" lat="44.37602973" lon="-72.71803269">
    <tag k="addr:housenumber" v="2"/>
    <tag k="addr:street" v="Maple Street"/>
    <tag k="addr:state" v="VT"/>
    <tag k="ref:vcgi:esiteid" v="273766"/>
  </node>
  <node id="-631" visible="true" lat="44.37589181" lon="-72.71881232">
    <tag k="addr:housenumber" v="1953"/>
    <tag k="addr:street" v="Guptil Road"/>
    <tag k="addr:state" v="VT"/>
    <tag k="ref:vcgi:esiteid" v="273768"/>
  </node>
  <node id="-641" visible="true" lat="44.37529304" lon="-72.72636038">
    <tag k="addr:housenumber" v="3079"/>
    <tag k="addr:street" v="Waterbury Stowe Road"/>
    <tag k="addr:state" v="VT"/>
    <tag k="ref:vcgi:esiteid" v="273779"/>
  </node>
  <node id="-649" visible="true" lat="44.37475136" lon="-72.72536856">
    <tag k="addr:housenumber" v="3000"/>
    <tag k="addr:street" v="Waterbury Stowe Road"/>
    <tag k="addr:state" v="VT"/>
    <tag k="ref:vcgi:esiteid" v="273789"/>
  </node>
  <node id="-666" visible="true" lat="44.37422831" lon="-72.72839919">
    <tag k="addr:housenumber" v="2933"/>
    <tag k="addr:street" v="Waterbury Stowe Road"/>
    <tag k="addr:state" v="VT"/>
    <tag k="ref:vcgi:esiteid" v="273806"/>
  </node>
  <node id="-680" visible="true" lat="44.37350395" lon="-72.72810751">
    <tag k="addr:housenumber" v="2931"/>
    <tag k="addr:street" v="Waterbury Stowe Road"/>
    <tag k="addr:state" v="VT"/>
    <tag k="ref:vcgi:esiteid" v="273820"/>
  </node>
  <node id="-684" visible="true" lat="44.37322559" lon="-72.72594854">
    <tag k="addr:housenumber" v="2934"/>
    <tag k="addr:street" v="Waterbury Stowe Road"/>
    <tag k="addr:state" v="VT"/>
    <tag k="ref:vcgi:esiteid" v="273824"/>
  </node>
  <node id="-715" visible="true" lat="44.37123843" lon="-72.72644879">
    <tag k="addr:housenumber" v="2802"/>
    <tag k="addr:street" v="Waterbury Stowe Road"/>
    <tag k="addr:state" v="VT"/>
    <tag k="ref:vcgi:esiteid" v="273856"/>
  </node>
  <node id="-718" visible="true" lat="44.37073816" lon="-72.72599235">
    <tag k="addr:housenumber" v="73"/>
    <tag k="addr:street" v="McNeil Road"/>
    <tag k="addr:state" v="VT"/>
    <tag k="ref:vcgi:esiteid" v="273859"/>
  </node>
  <node id="-720" visible="true" lat="44.37055523" lon="-72.72604697">
    <tag k="addr:housenumber" v="71"/>
    <tag k="addr:street" v="McNeil Road"/>
    <tag k="addr:state" v="VT"/>
    <tag k="ref:vcgi:esiteid" v="273861"/>
  </node>
  <node id="-723" visible="true" lat="44.37044707" lon="-72.72797395">
    <tag k="addr:housenumber" v="2731"/>
    <tag k="addr:street" v="Waterbury Stowe Road"/>
    <tag k="addr:state" v="VT"/>
    <tag k="ref:vcgi:esiteid" v="273864"/>
  </node>
  <node id="-727" visible="true" lat="44.36977171" lon="-72.72828806">
    <tag k="addr:housenumber" v="2687"/>
    <tag k="addr:street" v="Waterbury Stowe Road"/>
    <tag k="addr:state" v="VT"/>
    <tag k="ref:vcgi:esiteid" v="273868"/>
  </node>
  <node id="-731" visible="true" lat="44.36940315" lon="-72.72637564">
    <tag k="addr:housenumber" v="75"/>
    <tag k="addr:street" v="East Wind Drive"/>
    <tag k="addr:state" v="VT"/>
    <tag k="ref:vcgi:esiteid" v="273872"/>
  </node>
  <node id="-737" visible="true" lat="44.369303" lon="-72.72371887">
    <tag k="addr:housenumber" v="684"/>
    <tag k="addr:street" v="East Wind Drive"/>
    <tag k="addr:state" v="VT"/>
    <tag k="ref:vcgi:esiteid" v="273878"/>
  </node>
  <node id="-742" visible="true" lat="44.3688675" lon="-72.73050429">
    <tag k="addr:housenumber" v="2597"/>
    <tag k="addr:street" v="Waterbury Stowe Road"/>
    <tag k="addr:state" v="VT"/>
    <tag k="ref:vcgi:esiteid" v="273883"/>
  </node>
  <node id="-743" visible="true" lat="44.36886371" lon="-72.72428128">
    <tag k="addr:housenumber" v="701"/>
    <tag k="addr:street" v="East Wind Drive"/>
    <tag k="addr:state" v="VT"/>
    <tag k="ref:vcgi:esiteid" v="273884"/>
  </node>
  <node id="-744" visible="true" lat="44.36900619" lon="-72.72576843">
    <tag k="addr:housenumber" v="160"/>
    <tag k="addr:street" v="East Wind Drive"/>
    <tag k="addr:state" v="VT"/>
    <tag k="ref:vcgi:esiteid" v="273885"/>
  </node>
  <node id="-747" visible="true" lat="44.36882596" lon="-72.72609597">
    <tag k="addr:housenumber" v="174"/>
    <tag k="addr:street" v="East Wind Drive"/>
    <tag k="addr:state" v="VT"/>
    <tag k="ref:vcgi:esiteid" v="273888"/>
  </node>
  <node id="-748" visible="true" lat="44.36889405" lon="-72.72585758">
    <tag k="addr:housenumber" v="168"/>
    <tag k="addr:street" v="East Wind Drive"/>
    <tag k="addr:state" v="VT"/>
    <tag k="ref:vcgi:esiteid" v="273889"/>
  </node>
  <node id="-750" visible="true" lat="44.3687351" lon="-72.72620606">
    <tag k="addr:housenumber" v="176"/>
    <tag k="addr:street" v="East Wind Drive"/>
    <tag k="addr:state" v="VT"/>
    <tag k="ref:vcgi:esiteid" v="273891"/>
  </node>
  <node id="-751" visible="true" lat="44.36852916" lon="-72.72356376">
    <tag k="addr:housenumber" v="665"/>
    <tag k="addr:street" v="East Wind Drive"/>
    <tag k="addr:state" v="VT"/>
    <tag k="ref:vcgi:esiteid" v="273893"/>
  </node>
  <node id="-752" visible="true" lat="44.36864858" lon="-72.7263483">
    <tag k="addr:housenumber" v="180"/>
    <tag k="addr:street" v="East Wind Drive"/>
    <tag k="addr:state" v="VT"/>
    <tag k="ref:vcgi:esiteid" v="273894"/>
  </node>
  <node id="-753" visible="true" lat="44.36864114" lon="-72.72547613">
    <tag k="addr:housenumber" v="191"/>
    <tag k="addr:street" v="East Wind Drive"/>
    <tag k="addr:state" v="VT"/>
    <tag k="ref:vcgi:esiteid" v="273895"/>
  </node>
  <node id="-756" visible="true" lat="44.36853283" lon="-72.72599118">
    <tag k="addr:housenumber" v="188"/>
    <tag k="addr:street" v="East Wind Drive"/>
    <tag k="addr:state" v="VT"/>
    <tag k="ref:vcgi:esiteid" v="273898"/>
  </node>
  <node id="-757" visible="true" lat="44.36854944" lon="-72.72530497">
    <tag k="addr:housenumber" v="203"/>
    <tag k="addr:street" v="East Wind Drive"/>
    <tag k="addr:state" v="VT"/>
    <tag k="ref:vcgi:esiteid" v="273899"/>
  </node>
  <node id="-759" visible="true" lat="44.36821803" lon="-72.72298213">
    <tag k="addr:housenumber" v="627"/>
    <tag k="addr:street" v="East Wind Drive"/>
    <tag k="addr:state" v="VT"/>
    <tag k="ref:vcgi:esiteid" v="273901"/>
  </node>
  <node id="-761" visible="true" lat="44.36841715" lon="-72.7258847">
    <tag k="addr:housenumber" v="198"/>
    <tag k="addr:street" v="East Wind Drive"/>
    <tag k="addr:state" v="VT"/>
    <tag k="ref:vcgi:esiteid" v="273903"/>
  </node>
  <node id="-762" visible="true" lat="44.36843234" lon="-72.72521045">
    <tag k="addr:housenumber" v="211"/>
    <tag k="addr:street" v="East Wind Drive"/>
    <tag k="addr:state" v="VT"/>
    <tag k="ref:vcgi:esiteid" v="273904"/>
  </node>
  <node id="-764" visible="true" lat="44.36833558" lon="-72.72577528">
    <tag k="addr:housenumber" v="206"/>
    <tag k="addr:street" v="East Wind Drive"/>
    <tag k="addr:state" v="VT"/>
    <tag k="ref:vcgi:esiteid" v="273906"/>
  </node>
  <node id="-766" visible="true" lat="44.36833073" lon="-72.72511524">
    <tag k="addr:housenumber" v="219"/>
    <tag k="addr:street" v="East Wind Drive"/>
    <tag k="addr:state" v="VT"/>
    <tag k="ref:vcgi:esiteid" v="273908"/>
  </node>
  <node id="-769" visible="true" lat="44.36823645" lon="-72.72561276">
    <tag k="addr:housenumber" v="216"/>
    <tag k="addr:street" v="East Wind Drive"/>
    <tag k="addr:state" v="VT"/>
    <tag k="ref:vcgi:esiteid" v="273911"/>
  </node>
  <node id="-770" visible="true" lat="44.36822438" lon="-72.72498954">
    <tag k="addr:housenumber" v="229"/>
    <tag k="addr:street" v="East Wind Drive"/>
    <tag k="addr:state" v="VT"/>
    <tag k="ref:vcgi:esiteid" v="273912"/>
  </node>
  <node id="-771" visible="true" lat="44.36811953" lon="-72.7255176">
    <tag k="addr:housenumber" v="228"/>
    <tag k="addr:street" v="East Wind Drive"/>
    <tag k="addr:state" v="VT"/>
    <tag k="ref:vcgi:esiteid" v="273913"/>
  </node>
  <node id="-772" visible="true" lat="44.36811418" lon="-72.72487266">
    <tag k="addr:housenumber" v="243"/>
    <tag k="addr:street" v="East Wind Drive"/>
    <tag k="addr:state" v="VT"/>
    <tag k="ref:vcgi:esiteid" v="273914"/>
  </node>
  <node id="-773" visible="true" lat="44.36791766" lon="-72.72178865">
    <tag k="addr:housenumber" v="543"/>
    <tag k="addr:street" v="East Wind Drive"/>
    <tag k="addr:state" v="VT"/>
    <tag k="ref:vcgi:esiteid" v="273915"/>
  </node>
  <node id="-774" visible="true" lat="44.36799936" lon="-72.7247049">
    <tag k="addr:housenumber" v="251"/>
    <tag k="addr:street" v="East Wind Drive"/>
    <tag k="addr:state" v="VT"/>
    <tag k="ref:vcgi:esiteid" v="273916"/>
  </node>
  <node id="-775" visible="true" lat="44.36800846" lon="-72.72537829">
    <tag k="addr:housenumber" v="238"/>
    <tag k="addr:street" v="East Wind Drive"/>
    <tag k="addr:state" v="VT"/>
    <tag k="ref:vcgi:esiteid" v="273917"/>
  </node>
  <node id="-776" visible="true" lat="44.36789823" lon="-72.72529072">
    <tag k="addr:housenumber" v="248"/>
    <tag k="addr:street" v="East Wind Drive"/>
    <tag k="addr:state" v="VT"/>
    <tag k="ref:vcgi:esiteid" v="273918"/>
  </node>
  <node id="-777" visible="true" lat="44.3679092" lon="-72.72459251">
    <tag k="addr:housenumber" v="261"/>
    <tag k="addr:street" v="East Wind Drive"/>
    <tag k="addr:state" v="VT"/>
    <tag k="ref:vcgi:esiteid" v="273919"/>
  </node>
  <node id="-778" visible="true" lat="44.36781764" lon="-72.72443992">
    <tag k="addr:housenumber" v="269"/>
    <tag k="addr:street" v="East Wind Drive"/>
    <tag k="addr:state" v="VT"/>
    <tag k="ref:vcgi:esiteid" v="273920"/>
  </node>
  <node id="-779" visible="true" lat="44.3677869" lon="-72.72516902">
    <tag k="addr:housenumber" v="256"/>
    <tag k="addr:street" v="East Wind Drive"/>
    <tag k="addr:state" v="VT"/>
    <tag k="ref:vcgi:esiteid" v="273921"/>
  </node>
  <node id="-780" visible="true" lat="44.36769377" lon="-72.72430113">
    <tag k="addr:housenumber" v="279"/>
    <tag k="addr:street" v="East Wind Drive"/>
    <tag k="addr:state" v="VT"/>
    <tag k="ref:vcgi:esiteid" v="273922"/>
  </node>
  <node id="-782" visible="true" lat="44.36766387" lon="-72.72501943">
    <tag k="addr:housenumber" v="268"/>
    <tag k="addr:street" v="East Wind Drive"/>
    <tag k="addr:state" v="VT"/>
    <tag k="ref:vcgi:esiteid" v="273924"/>
  </node>
  <node id="-783" visible="true" lat="44.36762052" lon="-72.72416119">
    <tag k="addr:housenumber" v="287"/>
    <tag k="addr:street" v="East Wind Drive"/>
    <tag k="addr:state" v="VT"/>
    <tag k="ref:vcgi:esiteid" v="273925"/>
  </node>
  <node id="-790" visible="true" lat="44.36715048" lon="-72.72338351">
    <tag k="addr:housenumber" v="339"/>
    <tag k="addr:street" v="East Wind Drive"/>
    <tag k="addr:state" v="VT"/>
    <tag k="ref:vcgi:esiteid" v="273932"/>
  </node>
  <node id="-794" visible="true" lat="44.36659553" lon="-72.7302056">
    <tag k="addr:housenumber" v="2439"/>
    <tag k="addr:street" v="Waterbury Stowe Road"/>
    <tag k="addr:state" v="VT"/>
    <tag k="ref:vcgi:esiteid" v="273936"/>
  </node>
  <node id="-818" visible="true" lat="44.3646275" lon="-72.73066023">
    <tag k="addr:housenumber" v="14"/>
    <tag k="addr:street" v="Stowebury"/>
    <tag k="addr:state" v="VT"/>
    <tag k="ref:vcgi:esiteid" v="273961"/>
  </node>
  <node id="-830" visible="true" lat="44.36419509" lon="-72.72980376">
    <tag k="addr:housenumber" v="81"/>
    <tag k="addr:street" v="Stowebury"/>
    <tag k="addr:state" v="VT"/>
    <tag k="ref:vcgi:esiteid" v="273973"/>
  </node>
  <node id="-834" visible="true" lat="44.36403746" lon="-72.73067236">
    <tag k="addr:housenumber" v="118"/>
    <tag k="addr:street" v="Stowebury"/>
    <tag k="addr:state" v="VT"/>
    <tag k="ref:vcgi:esiteid" v="273977"/>
  </node>
  <node id="-841" visible="true" lat="44.36367973" lon="-72.72987531">
    <tag k="addr:housenumber" v="133"/>
    <tag k="addr:street" v="Stowebury"/>
    <tag k="addr:state" v="VT"/>
    <tag k="ref:vcgi:esiteid" v="273984"/>
  </node>
  <node id="-857" visible="true" lat="44.36319282" lon="-72.7307244">
    <tag k="addr:housenumber" v="182"/>
    <tag k="addr:street" v="Stowebury"/>
    <tag k="addr:state" v="VT"/>
    <tag k="ref:vcgi:esiteid" v="274001"/>
  </node>
  <node id="-858" visible="true" lat="44.3631703" lon="-72.73134359">
    <tag k="addr:housenumber" v="190"/>
    <tag k="addr:street" v="Stowebury"/>
    <tag k="addr:state" v="VT"/>
    <tag k="ref:vcgi:esiteid" v="274002"/>
  </node>
  <node id="-860" visible="true" lat="44.36298045" lon="-72.73277731">
    <tag k="addr:housenumber" v="2161"/>
    <tag k="addr:street" v="Waterbury Stowe Road"/>
    <tag k="addr:state" v="VT"/>
    <tag k="ref:vcgi:esiteid" v="274004"/>
  </node>
  <node id="-861" visible="true" lat="44.36314622" lon="-72.7299591">
    <tag k="addr:housenumber" v="201"/>
    <tag k="addr:street" v="Stowebury"/>
    <tag k="addr:state" v="VT"/>
    <tag k="ref:vcgi:esiteid" v="274005"/>
  </node>
  <node id="-871" visible="true" lat="44.36269922" lon="-72.73070756">
    <tag k="addr:housenumber" v="194"/>
    <tag k="addr:street" v="Stowebury"/>
    <tag k="addr:state" v="VT"/>
    <tag k="ref:vcgi:esiteid" v="274015"/>
  </node>
  <node id="-877" visible="true" lat="44.3626151" lon="-72.73315286">
    <tag k="addr:housenumber" v="2129"/>
    <tag k="addr:street" v="Waterbury Stowe Road"/>
    <tag k="addr:state" v="VT"/>
    <tag k="ref:vcgi:esiteid" v="274021"/>
  </node>
  <node id="-885" visible="true" lat="44.36247336" lon="-72.73022978">
    <tag k="addr:housenumber" v="226"/>
    <tag k="addr:street" v="Stowebury"/>
    <tag k="addr:state" v="VT"/>
    <tag k="ref:vcgi:esiteid" v="274029"/>
  </node>
  <node id="-886" visible="true" lat="44.36246362" lon="-72.72908315">
    <tag k="addr:housenumber" v="320"/>
    <tag k="addr:street" v="Stowebury"/>
    <tag k="addr:state" v="VT"/>
    <tag k="ref:vcgi:esiteid" v="274030"/>
  </node>
  <node id="-894" visible="true" lat="44.36206559" lon="-72.729366">
    <tag k="addr:housenumber" v="292"/>
    <tag k="addr:street" v="Stowebury"/>
    <tag k="addr:state" v="VT"/>
    <tag k="ref:vcgi:esiteid" v="274038"/>
  </node>
  <node id="-973" visible="true" lat="44.36004365" lon="-72.7415678">
    <tag k="addr:housenumber" v="395"/>
    <tag k="addr:street" v="Countryside Road"/>
    <tag k="addr:state" v="VT"/>
    <tag k="ref:vcgi:esiteid" v="274124"/>
  </node>
  <node id="-993" visible="true" lat="44.35971448" lon="-72.74081018">
    <tag k="addr:housenumber" v="867"/>
    <tag k="addr:street" v="Countryside Road"/>
    <tag k="addr:state" v="VT"/>
    <tag k="ref:vcgi:esiteid" v="274144"/>
  </node>
  <node id="-1021" visible="true" lat="44.35921733" lon="-72.7416896">
    <tag k="addr:housenumber" v="419"/>
    <tag k="addr:street" v="Countryside Road"/>
    <tag k="addr:state" v="VT"/>
    <tag k="ref:vcgi:esiteid" v="274173"/>
  </node>
  <node id="-1036" visible="true" lat="44.3590417" lon="-72.74247801">
    <tag k="addr:housenumber" v="340"/>
    <tag k="addr:street" v="Countryside Road"/>
    <tag k="addr:state" v="VT"/>
    <tag k="ref:vcgi:esiteid" v="274188"/>
  </node>
  <node id="-1041" visible="true" lat="44.35895234" lon="-72.73236381">
    <tag k="addr:housenumber" v="1930"/>
    <tag k="addr:street" v="Waterbury Stowe Road"/>
    <tag k="addr:state" v="VT"/>
    <tag k="ref:vcgi:esiteid" v="274193"/>
  </node>
  <node id="-1046" visible="true" lat="44.35898481" lon="-72.73946857">
    <tag k="addr:housenumber" v="7"/>
    <tag k="addr:street" v="East Countryside Road"/>
    <tag k="addr:state" v="VT"/>
    <tag k="ref:vcgi:esiteid" v="274198"/>
  </node>
  <node id="-1051" visible="true" lat="44.35866294" lon="-72.74101922">
    <tag k="addr:housenumber" v="909"/>
    <tag k="addr:street" v="Countryside Road"/>
    <tag k="addr:state" v="VT"/>
    <tag k="ref:vcgi:esiteid" v="274203"/>
  </node>
  <node id="-1073" visible="true" lat="44.35806749" lon="-72.73287448">
    <tag k="addr:housenumber" v="1848"/>
    <tag k="addr:street" v="Waterbury Stowe Road"/>
    <tag k="addr:state" v="VT"/>
    <tag k="ref:vcgi:esiteid" v="274225"/>
  </node>
  <node id="-1075" visible="true" lat="44.35800111" lon="-72.73242718">
    <tag k="addr:housenumber" v="1850"/>
    <tag k="addr:street" v="Waterbury Stowe Road"/>
    <tag k="addr:state" v="VT"/>
    <tag k="ref:vcgi:esiteid" v="274228"/>
  </node>
  <node id="-1077" visible="true" lat="44.35810244" lon="-72.74082503">
    <tag k="addr:housenumber" v="741"/>
    <tag k="addr:street" v="Countryside Road"/>
    <tag k="addr:state" v="VT"/>
    <tag k="ref:vcgi:esiteid" v="274230"/>
  </node>
  <node id="-1078" visible="true" lat="44.35795143" lon="-72.73907096">
    <tag k="addr:housenumber" v="14"/>
    <tag k="addr:street" v="East Countryside Road"/>
    <tag k="addr:state" v="VT"/>
    <tag k="ref:vcgi:esiteid" v="274231"/>
  </node>
  <node id="-1086" visible="true" lat="44.35712856" lon="-72.7380044">
    <tag k="addr:housenumber" v="96"/>
    <tag k="addr:street" v="East Countryside Road"/>
    <tag k="addr:state" v="VT"/>
    <tag k="ref:vcgi:esiteid" v="274239"/>
  </node>
  <node id="-1088" visible="true" lat="44.35768591" lon="-72.73451935">
    <tag k="addr:housenumber" v="1769"/>
    <tag k="addr:street" v="Waterbury Stowe Road"/>
    <tag k="addr:state" v="VT"/>
    <tag k="ref:vcgi:esiteid" v="274241"/>
  </node>
  <node id="-1108" visible="true" lat="44.35688822" lon="-72.74139298">
    <tag k="addr:housenumber" v="558"/>
    <tag k="addr:street" v="Countryside Road"/>
    <tag k="addr:state" v="VT"/>
    <tag k="ref:vcgi:esiteid" v="274263"/>
  </node>
  <node id="-1110" visible="true" lat="44.35709433" lon="-72.73119728">
    <tag k="addr:housenumber" v="109"/>
    <tag k="addr:street" v="Viens Estate"/>
    <tag k="addr:state" v="VT"/>
    <tag k="ref:vcgi:esiteid" v="274265"/>
  </node>
  <node id="-1115" visible="true" lat="44.35667082" lon="-72.7389241">
    <tag k="addr:housenumber" v="56"/>
    <tag k="addr:street" v="South Countryside Road"/>
    <tag k="addr:state" v="VT"/>
    <tag k="ref:vcgi:esiteid" v="274270"/>
  </node>
  <node id="-1117" visible="true" lat="44.3564637" lon="-72.74260337">
    <tag k="addr:housenumber" v="586"/>
    <tag k="addr:street" v="Countryside Road"/>
    <tag k="addr:state" v="VT"/>
    <tag k="ref:vcgi:esiteid" v="274272"/>
  </node>
  <node id="-1120" visible="true" lat="44.35632502" lon="-72.72920568">
    <tag k="addr:housenumber" v="36"/>
    <tag k="addr:street" v="Viens Estate"/>
    <tag k="addr:state" v="VT"/>
    <tag k="ref:vcgi:esiteid" v="274275"/>
  </node>
  <node id="-1125" visible="true" lat="44.35605565" lon="-72.74102002">
    <tag k="addr:housenumber" v="626"/>
    <tag k="addr:street" v="Countryside Road"/>
    <tag k="addr:state" v="VT"/>
    <tag k="ref:vcgi:esiteid" v="274280"/>
  </node>
  <node id="-1133" visible="true" lat="44.35535135" lon="-72.73440273">
    <tag k="addr:housenumber" v="78"/>
    <tag k="addr:street" v="Guptil Road"/>
    <tag k="addr:state" v="VT"/>
    <tag k="ref:vcgi:esiteid" v="274288"/>
  </node>
  <node id="-1135" visible="true" lat="44.35522584" lon="-72.73191526">
    <tag k="addr:housenumber" v="179"/>
    <tag k="addr:street" v="Guptil Road"/>
    <tag k="addr:state" v="VT"/>
    <tag k="ref:vcgi:esiteid" v="274291"/>
  </node>
  <node id="-1139" visible="true" lat="44.3551912" lon="-72.74481484">
    <tag k="addr:housenumber" v="16"/>
    <tag k="addr:street" v="Meadow Crest Lane"/>
    <tag k="addr:state" v="VT"/>
    <tag k="ref:vcgi:esiteid" v="274295"/>
  </node>
  <node id="-1140" visible="true" lat="44.35514713" lon="-72.74429249">
    <tag k="addr:housenumber" v="18"/>
    <tag k="addr:street" v="Meadow Crest Lane"/>
    <tag k="addr:state" v="VT"/>
    <tag k="ref:vcgi:esiteid" v="274296"/>
  </node>
  <node id="-1149" visible="true" lat="44.35475716" lon="-72.73116617">
    <tag k="addr:housenumber" v="240"/>
    <tag k="addr:street" v="Guptil Road"/>
    <tag k="addr:state" v="VT"/>
    <tag k="ref:vcgi:esiteid" v="274305"/>
  </node>
  <node id="-1156" visible="true" lat="44.35461985" lon="-72.74490357">
    <tag k="addr:housenumber" v="14"/>
    <tag k="addr:street" v="Meadow Crest Lane"/>
    <tag k="addr:state" v="VT"/>
    <tag k="ref:vcgi:esiteid" v="274313"/>
  </node>
  <node id="-1159" visible="true" lat="44.35474187" lon="-72.73197379">
    <tag k="addr:housenumber" v="194"/>
    <tag k="addr:street" v="Guptil Road"/>
    <tag k="addr:state" v="VT"/>
    <tag k="ref:vcgi:esiteid" v="274316"/>
  </node>
  <node id="-1169" visible="true" lat="44.35438592" lon="-72.74495046">
    <tag k="addr:housenumber" v="12"/>
    <tag k="addr:street" v="Meadow Crest Lane"/>
    <tag k="addr:state" v="VT"/>
    <tag k="ref:vcgi:esiteid" v="274326"/>
  </node>
  <node id="-1175" visible="true" lat="44.35408534" lon="-72.7450219">
    <tag k="addr:housenumber" v="10"/>
    <tag k="addr:street" v="Meadow Crest Lane"/>
    <tag k="addr:state" v="VT"/>
    <tag k="ref:vcgi:esiteid" v="274332"/>
  </node>
  <node id="-1184" visible="true" lat="44.35352305" lon="-72.74463628">
    <tag k="addr:housenumber" v="9"/>
    <tag k="addr:street" v="Meadow Crest Lane"/>
    <tag k="addr:state" v="VT"/>
    <tag k="ref:vcgi:esiteid" v="274341"/>
  </node>
  <node id="-1185" visible="true" lat="44.35315967" lon="-72.74522879">
    <tag k="addr:housenumber" v="4"/>
    <tag k="addr:street" v="Meadow Crest Lane"/>
    <tag k="addr:state" v="VT"/>
    <tag k="ref:vcgi:esiteid" v="274342"/>
  </node>
  <node id="-1189" visible="true" lat="44.35290763" lon="-72.7447591">
    <tag k="addr:housenumber" v="5"/>
    <tag k="addr:street" v="Meadow Crest Lane"/>
    <tag k="addr:state" v="VT"/>
    <tag k="ref:vcgi:esiteid" v="274348"/>
  </node>
  <node id="-1194" visible="true" lat="44.35279354" lon="-72.74540407">
    <tag k="addr:housenumber" v="2"/>
    <tag k="addr:street" v="Meadow Crest Lane"/>
    <tag k="addr:state" v="VT"/>
    <tag k="ref:vcgi:esiteid" v="274353"/>
  </node>
  <node id="-1196" visible="true" lat="44.35291801" lon="-72.74017315">
    <tag k="addr:housenumber" v="1281"/>
    <tag k="addr:street" v="Waterbury Stowe Road"/>
    <tag k="addr:state" v="VT"/>
    <tag k="ref:vcgi:esiteid" v="274355"/>
  </node>
  <node id="-1198" visible="true" lat="44.35260572" lon="-72.7448346">
    <tag k="addr:housenumber" v="3"/>
    <tag k="addr:street" v="Meadow Crest Lane"/>
    <tag k="addr:state" v="VT"/>
    <tag k="ref:vcgi:esiteid" v="274357"/>
  </node>
  <node id="-1201" visible="true" lat="44.35233106" lon="-72.74503639">
    <tag k="addr:housenumber" v="1"/>
    <tag k="addr:street" v="Meadow Crest Lane"/>
    <tag k="addr:state" v="VT"/>
    <tag k="ref:vcgi:esiteid" v="274362"/>
  </node>
  <node id="-1204" visible="true" lat="44.35194532" lon="-72.73880579">
    <tag k="addr:housenumber" v="1320"/>
    <tag k="addr:street" v="Waterbury Stowe Road"/>
    <tag k="addr:state" v="VT"/>
    <tag k="ref:vcgi:esiteid" v="274365"/>
  </node>
  <node id="-1211" visible="true" lat="44.3516551" lon="-72.74520646">
    <tag k="addr:housenumber" v="192"/>
    <tag k="addr:street" v="Crossroad"/>
    <tag k="addr:state" v="VT"/>
    <tag k="ref:vcgi:esiteid" v="274372"/>
  </node>
  <node id="-1213" visible="true" lat="44.35127878" lon="-72.74499084">
    <tag k="addr:housenumber" v="174"/>
    <tag k="addr:street" v="Crossroad"/>
    <tag k="addr:state" v="VT"/>
    <tag k="ref:vcgi:esiteid" v="274374"/>
  </node>
  <node id="-1220" visible="true" lat="44.35082005" lon="-72.74545676">
    <tag k="addr:housenumber" v="163"/>
    <tag k="addr:street" v="Crossroad"/>
    <tag k="addr:state" v="VT"/>
    <tag k="ref:vcgi:esiteid" v="274381"/>
  </node>
  <node id="-1224" visible="true" lat="44.35059365" lon="-72.7419828">
    <tag k="addr:housenumber" v="1115"/>
    <tag k="addr:street" v="Waterbury Stowe Road"/>
    <tag k="addr:state" v="VT"/>
    <tag k="ref:vcgi:esiteid" v="274385"/>
  </node>
  <node id="-1227" visible="true" lat="44.3502885" lon="-72.74150337">
    <tag k="addr:housenumber" v="1144"/>
    <tag k="addr:street" v="Waterbury Stowe Road"/>
    <tag k="addr:state" v="VT"/>
    <tag k="ref:vcgi:esiteid" v="274388"/>
  </node>
  <node id="-1244" visible="true" lat="44.34962211" lon="-72.74155297">
    <tag k="addr:housenumber" v="46"/>
    <tag k="addr:street" v="Laurel Lane"/>
    <tag k="addr:state" v="VT"/>
    <tag k="ref:vcgi:esiteid" v="274409"/>
  </node>
  <node id="-1253" visible="true" lat="44.34940799" lon="-72.74127549">
    <tag k="addr:housenumber" v="62"/>
    <tag k="addr:street" v="Laurel Lane"/>
    <tag k="addr:state" v="VT"/>
    <tag k="ref:vcgi:esiteid" v="274420"/>
  </node>
  <node id="-1254" visible="true" lat="44.3492092" lon="-72.74163229">
    <tag k="addr:housenumber" v="60"/>
    <tag k="addr:street" v="Laurel Lane"/>
    <tag k="addr:state" v="VT"/>
    <tag k="ref:vcgi:esiteid" v="274421"/>
  </node>
  <node id="-1382" visible="true" lat="44.3436436" lon="-72.7579371">
    <tag k="addr:housenumber" v="5"/>
    <tag k="addr:street" v="Intervale Avenue"/>
    <tag k="addr:state" v="VT"/>
    <tag k="ref:vcgi:esiteid" v="274578"/>
  </node>
  <node id="-1389" visible="true" lat="44.34350309" lon="-72.75783843">
    <tag k="addr:housenumber" v="1"/>
    <tag k="addr:street" v="Intervale Avenue"/>
    <tag k="addr:state" v="VT"/>
    <tag k="ref:vcgi:esiteid" v="274586"/>
  </node>
  <node id="-1409" visible="true" lat="44.3429963" lon="-72.7585145">
    <tag k="addr:housenumber" v="19"/>
    <tag k="addr:street" v="Butler Street"/>
    <tag k="addr:state" v="VT"/>
    <tag k="ref:vcgi:esiteid" v="274609"/>
  </node>
  <node id="-1441" visible="true" lat="44.34226956" lon="-72.75985199">
    <tag k="addr:housenumber" v="53"/>
    <tag k="addr:street" v="North Main Street"/>
    <tag k="addr:state" v="VT"/>
    <tag k="ref:vcgi:esiteid" v="274646"/>
  </node>
  <node id="-1454" visible="true" lat="44.34212219" lon="-72.74803738">
    <tag k="addr:housenumber" v="92"/>
    <tag k="addr:street" v="Stowe Street"/>
    <tag k="addr:state" v="VT"/>
    <tag k="ref:vcgi:esiteid" v="274660"/>
  </node>
  <node id="-1474" visible="true" lat="44.34147761" lon="-72.75969085">
    <tag k="addr:housenumber" v="38"/>
    <tag k="addr:street" v="North Main Street"/>
    <tag k="addr:state" v="VT"/>
    <tag k="ref:vcgi:esiteid" v="274690"/>
  </node>
  <node id="-1570" visible="true" lat="44.33912306" lon="-72.75312006">
    <tag k="addr:housenumber" v="47"/>
    <tag k="addr:street" v="Stowe Street"/>
    <tag k="addr:state" v="VT"/>
    <tag k="ref:vcgi:esiteid" v="274807"/>
  </node>
  <node id="-1580" visible="true" lat="44.33910797" lon="-72.75788654">
    <tag k="addr:housenumber" v="22"/>
    <tag k="addr:street" v="North Main Street"/>
    <tag k="addr:state" v="VT"/>
    <tag k="ref:vcgi:esiteid" v="274818"/>
  </node>
  <node id="-1585" visible="true" lat="44.33902348" lon="-72.75803401">
    <tag k="addr:housenumber" v="2"/>
    <tag k="addr:street" v="Winooski Street"/>
    <tag k="addr:state" v="VT"/>
    <tag k="ref:vcgi:esiteid" v="274823"/>
  </node>
  <node id="-1589" visible="true" lat="44.33893725" lon="-72.75817216">
    <tag k="addr:housenumber" v="4"/>
    <tag k="addr:street" v="Winooski Street"/>
    <tag k="addr:state" v="VT"/>
    <tag k="ref:vcgi:esiteid" v="274828"/>
  </node>
  <node id="-1595" visible="true" lat="44.33885576" lon="-72.75836927">
    <tag k="addr:housenumber" v="6"/>
    <tag k="addr:street" v="Winooski Street"/>
    <tag k="addr:state" v="VT"/>
    <tag k="ref:vcgi:esiteid" v="274835"/>
  </node>
  <node id="-1601" visible="true" lat="44.33868186" lon="-72.75857512">
    <tag k="addr:housenumber" v="8"/>
    <tag k="addr:street" v="Winooski Street"/>
    <tag k="addr:state" v="VT"/>
    <tag k="ref:vcgi:esiteid" v="274841"/>
  </node>
  <node id="-1604" visible="true" lat="44.33854886" lon="-72.75872573">
    <tag k="addr:housenumber" v="10"/>
    <tag k="addr:street" v="Winooski Street"/>
    <tag k="addr:state" v="VT"/>
    <tag k="ref:vcgi:esiteid" v="274845"/>
  </node>
  <node id="-1609" visible="true" lat="44.3384535" lon="-72.75896987">
    <tag k="addr:housenumber" v="12"/>
    <tag k="addr:street" v="Winooski Street"/>
    <tag k="addr:state" v="VT"/>
    <tag k="ref:vcgi:esiteid" v="274851"/>
  </node>
  <node id="-1711" visible="true" lat="44.33624248" lon="-72.75535488">
    <tag k="addr:housenumber" v="51"/>
    <tag k="addr:street" v="South Main Street"/>
    <tag k="addr:state" v="VT"/>
    <tag k="ref:vcgi:esiteid" v="274979"/>
  </node>
  <node id="-1717" visible="true" lat="44.33614281" lon="-72.75500114">
    <tag k="addr:housenumber" v="55"/>
    <tag k="addr:street" v="South Main Street"/>
    <tag k="addr:state" v="VT"/>
    <tag k="ref:vcgi:esiteid" v="274986"/>
  </node>
  <node id="-1721" visible="true" lat="44.33592132" lon="-72.75482826">
    <tag k="addr:housenumber" v="57"/>
    <tag k="addr:street" v="South Main Street"/>
    <tag k="addr:state" v="VT"/>
    <tag k="ref:vcgi:esiteid" v="274990"/>
  </node>
  <node id="-1750" visible="true" lat="44.33507957" lon="-72.75174498">
    <tag k="addr:housenumber" v="1"/>
    <tag k="addr:street" v="Rotarian Place"/>
    <tag k="addr:state" v="VT"/>
    <tag k="ref:vcgi:esiteid" v="275030"/>
  </node>
  <node id="-1820" visible="true" lat="44.33141231" lon="-72.75171632">
    <tag k="addr:housenumber" v="166"/>
    <tag k="addr:street" v="Horseshoe Drive"/>
    <tag k="addr:state" v="VT"/>
    <tag k="ref:vcgi:esiteid" v="275136"/>
  </node>
  <node id="-1869" visible="true" lat="44.42262648" lon="-72.7201173">
    <tag k="addr:housenumber" v="251"/>
    <tag k="addr:street" v="Russell Road"/>
    <tag k="addr:state" v="VT"/>
    <tag k="ref:vcgi:esiteid" v="275207"/>
  </node>
  <node id="-1870" visible="true" lat="44.39726316" lon="-72.71729274">
    <tag k="addr:housenumber" v="120"/>
    <tag k="addr:street" v="Wildflower Lane"/>
    <tag k="addr:state" v="VT"/>
    <tag k="ref:vcgi:esiteid" v="275208"/>
  </node>
  <node id="-1871" visible="true" lat="44.39776096" lon="-72.71704916">
    <tag k="addr:housenumber" v="216"/>
    <tag k="addr:street" v="Wildflower Lane"/>
    <tag k="addr:state" v="VT"/>
    <tag k="ref:vcgi:esiteid" v="275209"/>
  </node>
  <node id="-1872" visible="true" lat="44.39850199" lon="-72.71778482">
    <tag k="addr:housenumber" v="235"/>
    <tag k="addr:street" v="Wildflower Lane"/>
    <tag k="addr:state" v="VT"/>
    <tag k="ref:vcgi:esiteid" v="275210"/>
  </node>
  <node id="-1873" visible="true" lat="44.39904282" lon="-72.71774083">
    <tag k="addr:housenumber" v="265"/>
    <tag k="addr:street" v="Wildflower Lane"/>
    <tag k="addr:state" v="VT"/>
    <tag k="ref:vcgi:esiteid" v="275211"/>
  </node>
  <node id="-1875" visible="true" lat="44.41429181" lon="-72.72260405">
    <tag k="addr:housenumber" v="85"/>
    <tag k="addr:street" v="Tayer Lane"/>
    <tag k="addr:state" v="VT"/>
    <tag k="ref:vcgi:esiteid" v="275213"/>
  </node>
  <node id="-1876" visible="true" lat="44.41416853" lon="-72.72263981">
    <tag k="addr:housenumber" v="93"/>
    <tag k="addr:street" v="Tayer Lane"/>
    <tag k="addr:state" v="VT"/>
    <tag k="ref:vcgi:esiteid" v="275214"/>
  </node>
  <node id="-1877" visible="true" lat="44.41465909" lon="-72.72315735">
    <tag k="addr:housenumber" v="80"/>
    <tag k="addr:street" v="Tayer Lane"/>
    <tag k="addr:state" v="VT"/>
    <tag k="ref:vcgi:esiteid" v="275215"/>
  </node>
  <node id="-1880" visible="true" lat="44.40764202" lon="-72.71264498">
    <tag k="addr:housenumber" v="1171"/>
    <tag k="addr:street" v="Maggies Way"/>
    <tag k="addr:state" v="VT"/>
    <tag k="ref:vcgi:esiteid" v="275218"/>
  </node>
  <node id="-1883" visible="true" lat="44.39518072" lon="-72.71822485">
    <tag k="addr:housenumber" v="52"/>
    <tag k="addr:street" v="Wildflower Lane"/>
    <tag k="addr:state" v="VT"/>
    <tag k="ref:vcgi:esiteid" v="275221"/>
  </node>
  <node id="-1884" visible="true" lat="44.39295056" lon="-72.70617325">
    <tag k="addr:housenumber" v="31"/>
    <tag k="addr:street" v="Mountain View Drive"/>
    <tag k="addr:state" v="VT"/>
    <tag k="ref:vcgi:esiteid" v="275222"/>
  </node>
  <node id="-1891" visible="true" lat="44.37801098" lon="-72.71008484">
    <tag k="addr:housenumber" v="251"/>
    <tag k="addr:street" v="Loomis Hill Road"/>
    <tag k="addr:state" v="VT"/>
    <tag k="ref:vcgi:esiteid" v="275229"/>
  </node>
  <node id="-1893" visible="true" lat="44.38206003" lon="-72.71048202">
    <tag k="addr:housenumber" v="592"/>
    <tag k="addr:street" v="Maple Street"/>
    <tag k="addr:state" v="VT"/>
    <tag k="ref:vcgi:esiteid" v="275231"/>
  </node>
  <node id="-1917" visible="true" lat="44.35725856" lon="-72.73973052">
    <tag k="addr:housenumber" v="754"/>
    <tag k="addr:street" v="Countryside Road"/>
    <tag k="addr:state" v="VT"/>
    <tag k="ref:vcgi:esiteid" v="275255"/>
  </node>
  <node id="-1918" visible="true" lat="44.35805146" lon="-72.73756032">
    <tag k="addr:housenumber" v="92"/>
    <tag k="addr:street" v="East Countryside Road"/>
    <tag k="addr:state" v="VT"/>
    <tag k="ref:vcgi:esiteid" v="275256"/>
  </node>
  <node id="-1939" visible="true" lat="44.37042073" lon="-72.72558927">
    <tag k="addr:housenumber" v="75"/>
    <tag k="addr:street" v="McNeil Road"/>
    <tag k="addr:state" v="VT"/>
    <tag k="ref:vcgi:esiteid" v="275277"/>
  </node>
  <node id="-1940" visible="true" lat="44.36781201" lon="-72.72724992">
    <tag k="addr:housenumber" v="62"/>
    <tag k="addr:street" v="Haskins Way"/>
    <tag k="addr:state" v="VT"/>
    <tag k="ref:vcgi:esiteid" v="275278"/>
  </node>
  <node id="-1984" visible="true" lat="44.35387121" lon="-72.74455138">
    <tag k="addr:housenumber" v="11"/>
    <tag k="addr:street" v="Meadow Crest Lane"/>
    <tag k="addr:state" v="VT"/>
    <tag k="ref:vcgi:esiteid" v="275324"/>
  </node>
  <node id="-1985" visible="true" lat="44.35343903" lon="-72.74512234">
    <tag k="addr:housenumber" v="6"/>
    <tag k="addr:street" v="Meadow Crest Lane"/>
    <tag k="addr:state" v="VT"/>
    <tag k="ref:vcgi:esiteid" v="275325"/>
  </node>
  <node id="-2005" visible="true" lat="44.3532241" lon="-72.74459164">
    <tag k="addr:housenumber" v="7"/>
    <tag k="addr:street" v="Meadow Crest Lane"/>
    <tag k="addr:state" v="VT"/>
    <tag k="ref:vcgi:esiteid" v="275345"/>
  </node>
  <node id="-2006" visible="true" lat="44.35373743" lon="-72.74510903">
    <tag k="addr:housenumber" v="8"/>
    <tag k="addr:street" v="Meadow Crest Lane"/>
    <tag k="addr:state" v="VT"/>
    <tag k="ref:vcgi:esiteid" v="275346"/>
  </node>
  <node id="-2007" visible="true" lat="44.35475514" lon="-72.74423488">
    <tag k="addr:housenumber" v="17"/>
    <tag k="addr:street" v="Meadow Crest Lane"/>
    <tag k="addr:state" v="VT"/>
    <tag k="ref:vcgi:esiteid" v="275347"/>
  </node>
  <node id="-2008" visible="true" lat="44.35441316" lon="-72.74442471">
    <tag k="addr:housenumber" v="15"/>
    <tag k="addr:street" v="Meadow Crest Lane"/>
    <tag k="addr:state" v="VT"/>
    <tag k="ref:vcgi:esiteid" v="275348"/>
  </node>
  <node id="-2009" visible="true" lat="44.35415798" lon="-72.74448997">
    <tag k="addr:housenumber" v="13"/>
    <tag k="addr:street" v="Meadow Crest Lane"/>
    <tag k="addr:state" v="VT"/>
    <tag k="ref:vcgi:esiteid" v="275349"/>
  </node>
  <node id="-2011" visible="true" lat="44.35899809" lon="-72.74067438">
    <tag k="addr:housenumber" v="895"/>
    <tag k="addr:street" v="Countryside Road"/>
    <tag k="addr:state" v="VT"/>
    <tag k="ref:vcgi:esiteid" v="275351"/>
  </node>
  <node id="-2020" visible="true" lat="44.36914394" lon="-72.72295368">
    <tag k="addr:housenumber" v="628"/>
    <tag k="addr:street" v="East Wind Drive"/>
    <tag k="addr:state" v="VT"/>
    <tag k="ref:vcgi:esiteid" v="275360"/>
  </node>
  <node id="-2021" visible="true" lat="44.41367634" lon="-72.72302179">
    <tag k="addr:housenumber" v="100"/>
    <tag k="addr:street" v="Tayer Lane"/>
    <tag k="addr:state" v="VT"/>
    <tag k="ref:vcgi:esiteid" v="275361"/>
  </node>
  <node id="-2022" visible="true" lat="44.36998799" lon="-72.72620422">
    <tag k="addr:housenumber" v="76"/>
    <tag k="addr:street" v="McNeil Road"/>
    <tag k="addr:state" v="VT"/>
    <tag k="ref:vcgi:esiteid" v="275362"/>
  </node>
  <node id="-2028" visible="true" lat="44.39033544" lon="-72.72093956">
    <tag k="addr:housenumber" v="120"/>
    <tag k="addr:street" v="Gregg Hill Road"/>
    <tag k="addr:state" v="VT"/>
    <tag k="ref:vcgi:esiteid" v="316550"/>
  </node>
  <node id="-2030" visible="true" lat="44.39106443" lon="-72.72330912">
    <tag k="addr:housenumber" v="111"/>
    <tag k="addr:street" v="Fuller Acres Drive"/>
    <tag k="addr:state" v="VT"/>
    <tag k="ref:vcgi:esiteid" v="316552"/>
  </node>
  <node id="-2042" visible="true" lat="44.35057312" lon="-72.74531207">
    <tag k="addr:housenumber" v="159"/>
    <tag k="addr:street" v="Crossroad"/>
    <tag k="addr:state" v="VT"/>
    <tag k="ref:vcgi:esiteid" v="316564"/>
  </node>
  <node id="-2043" visible="true" lat="44.35055961" lon="-72.74494833">
    <tag k="addr:housenumber" v="155"/>
    <tag k="addr:street" v="Crossroad"/>
    <tag k="addr:state" v="VT"/>
    <tag k="ref:vcgi:esiteid" v="316565"/>
  </node>
  <node id="-2052" visible="true" lat="44.37893818" lon="-72.70990869">
    <tag k="addr:housenumber" v="245"/>
    <tag k="addr:street" v="Loomis Hill Road"/>
    <tag k="addr:state" v="VT"/>
    <tag k="ref:vcgi:esiteid" v="316578"/>
  </node>
  <node id="-2053" visible="true" lat="44.37794131" lon="-72.71537801">
    <tag k="addr:housenumber" v="26"/>
    <tag k="addr:street" v="Loomis Hill Road"/>
    <tag k="addr:state" v="VT"/>
    <tag k="ref:vcgi:esiteid" v="316579"/>
  </node>
  <node id="-2054" visible="true" lat="44.40651105" lon="-72.71480821">
    <tag k="addr:housenumber" v="1049"/>
    <tag k="addr:street" v="Maggies Way"/>
    <tag k="addr:state" v="VT"/>
    <tag k="ref:vcgi:esiteid" v="316581"/>
  </node>
  <node id="-2055" visible="true" lat="44.41468067" lon="-72.72244278">
    <tag k="addr:housenumber" v="15"/>
    <tag k="addr:street" v="Tayer Lane"/>
    <tag k="addr:state" v="VT"/>
    <tag k="ref:vcgi:esiteid" v="316582"/>
  </node>
  <node id="-2062" visible="true" lat="44.40481441" lon="-72.71592817">
    <tag k="addr:housenumber" v="76"/>
    <tag k="addr:street" v="Beaver Pond Road"/>
    <tag k="addr:state" v="VT"/>
    <tag k="ref:vcgi:esiteid" v="316589"/>
  </node>
  <node id="-2063" visible="true" lat="44.40415175" lon="-72.71609824">
    <tag k="addr:housenumber" v="74"/>
    <tag k="addr:street" v="Beaver Pond Road"/>
    <tag k="addr:state" v="VT"/>
    <tag k="ref:vcgi:esiteid" v="316590"/>
  </node>
  <node id="-2064" visible="true" lat="44.40385333" lon="-72.71401146">
    <tag k="addr:housenumber" v="861"/>
    <tag k="addr:street" v="Maggies Way"/>
    <tag k="addr:state" v="VT"/>
    <tag k="ref:vcgi:esiteid" v="316591"/>
  </node>
  <node id="-2087" visible="true" lat="44.36306322" lon="-72.72884051">
    <tag k="addr:housenumber" v="325"/>
    <tag k="addr:street" v="Stowebury"/>
    <tag k="addr:state" v="VT"/>
    <tag k="ref:vcgi:esiteid" v="316616"/>
  </node>
  <node id="-2089" visible="true" lat="44.35681851" lon="-72.74528773">
    <tag k="addr:housenumber" v="196"/>
    <tag k="addr:street" v="Countryside Road"/>
    <tag k="addr:state" v="VT"/>
    <tag k="ref:vcgi:esiteid" v="316618"/>
  </node>
  <node id="-2090" visible="true" lat="44.35681961" lon="-72.73741704">
    <tag k="addr:housenumber" v="280"/>
    <tag k="addr:street" v="East Countryside Road"/>
    <tag k="addr:state" v="VT"/>
    <tag k="ref:vcgi:esiteid" v="316619"/>
  </node>
  <node id="-2092" visible="true" lat="44.36757902" lon="-72.72489801">
    <tag k="addr:housenumber" v="274"/>
    <tag k="addr:street" v="East Wind Drive"/>
    <tag k="addr:state" v="VT"/>
    <tag k="ref:vcgi:esiteid" v="316621"/>
  </node>
  <node id="-2093" visible="true" lat="44.36744274" lon="-72.72473996">
    <tag k="addr:housenumber" v="294"/>
    <tag k="addr:street" v="East Wind Drive"/>
    <tag k="addr:state" v="VT"/>
    <tag k="ref:vcgi:esiteid" v="316622"/>
  </node>
  <node id="-2096" visible="true" lat="44.37268454" lon="-72.72489133">
    <tag k="addr:housenumber" v="261"/>
    <tag k="addr:street" v="Keltan Heights"/>
    <tag k="addr:state" v="VT"/>
    <tag k="ref:vcgi:esiteid" v="316625"/>
  </node>
  <node id="-2141" visible="true" lat="44.38403398" lon="-72.72159865">
    <tag k="addr:housenumber" v="184"/>
    <tag k="addr:street" v="Sunset Drive"/>
    <tag k="addr:state" v="VT"/>
    <tag k="ref:vcgi:esiteid" v="316675"/>
  </node>
  <node id="-2167" visible="true" lat="44.40569859" lon="-72.71515045">
    <tag k="addr:housenumber" v="1045"/>
    <tag k="addr:street" v="Maggies Way"/>
    <tag k="addr:state" v="VT"/>
    <tag k="ref:vcgi:esiteid" v="329683"/>
  </node>
  <node id="-2168" visible="true" lat="44.40814609" lon="-72.71882078">
    <tag k="addr:housenumber" v="5430"/>
    <tag k="addr:street" v="Waterbury Stowe Road"/>
    <tag k="addr:state" v="VT"/>
    <tag k="ref:vcgi:esiteid" v="329684"/>
  </node>
  <node id="-2175" visible="true" lat="44.3671508" lon="-72.72614758">
    <tag k="addr:housenumber" v="70"/>
    <tag k="addr:street" v="Haskins Way"/>
    <tag k="addr:state" v="VT"/>
    <tag k="ref:vcgi:esiteid" v="329691"/>
  </node>
  <node id="-2176" visible="true" lat="44.39073794" lon="-72.71586043">
    <tag k="addr:housenumber" v="81"/>
    <tag k="addr:street" v="Coopers Landing"/>
    <tag k="addr:state" v="VT"/>
    <tag k="ref:vcgi:esiteid" v="329692"/>
  </node>
  <node id="-2177" visible="true" lat="44.37287402" lon="-72.72691795">
    <tag k="addr:housenumber" v="2927"/>
    <tag k="addr:street" v="Waterbury Stowe Road"/>
    <tag k="addr:state" v="VT"/>
    <tag k="ref:vcgi:esiteid" v="329693"/>
  </node>
  <node id="-2206" visible="true" lat="44.33021409" lon="-72.75043202">
    <tag k="addr:housenumber" v="45"/>
    <tag k="addr:street" v="State Drive"/>
    <tag k="addr:state" v="VT"/>
    <tag k="ref:vcgi:esiteid" v="341658"/>
  </node>
  <node id="-2217" visible="true" lat="44.33192076" lon="-72.75414656">
    <tag k="addr:housenumber" v="280"/>
    <tag k="addr:street" v="State Drive"/>
    <tag k="addr:state" v="VT"/>
    <tag k="ref:vcgi:esiteid" v="449246"/>
  </node>
  <node id="-2227" visible="true" lat="44.39149292" lon="-72.71615543">
    <tag k="addr:housenumber" v="15"/>
    <tag k="addr:street" v="Coopers Landing"/>
    <tag k="addr:state" v="VT"/>
    <tag k="ref:vcgi:esiteid" v="449280"/>
  </node>
  <node id="-2228" visible="true" lat="44.39085107" lon="-72.7171121">
    <tag k="addr:housenumber" v="76"/>
    <tag k="addr:street" v="Coopers Landing"/>
    <tag k="addr:state" v="VT"/>
    <tag k="ref:vcgi:esiteid" v="449281"/>
  </node>
  <node id="-2259" visible="true" lat="44.40697508" lon="-72.71311033">
    <tag k="addr:housenumber" v="1063"/>
    <tag k="addr:street" v="Maggies Way"/>
    <tag k="addr:state" v="VT"/>
    <tag k="ref:vcgi:esiteid" v="450799"/>
  </node>
  <node id="-2263" visible="true" lat="44.3810807" lon="-72.72103273">
    <tag k="addr:housenumber" v="3589"/>
    <tag k="addr:street" v="Waterbury Stowe Road"/>
    <tag k="addr:state" v="VT"/>
    <tag k="ref:vcgi:esiteid" v="450803"/>
  </node>
  <node id="-2267" visible="true" lat="44.36764259" lon="-72.72581243">
    <tag k="addr:housenumber" v="74"/>
    <tag k="addr:street" v="Haskins Way"/>
    <tag k="addr:state" v="VT"/>
    <tag k="ref:vcgi:esiteid" v="450808"/>
  </node>
  <node id="-2279" visible="true" lat="44.39166083" lon="-72.71698123">
    <tag k="addr:housenumber" v="50"/>
    <tag k="addr:street" v="Coopers Landing"/>
    <tag k="addr:state" v="VT"/>
    <tag k="ref:vcgi:esiteid" v="450822"/>
  </node>
  <node id="-2280" visible="true" lat="44.35785461" lon="-72.73667101">
    <tag k="addr:housenumber" v="215"/>
    <tag k="addr:street" v="East Countryside Road"/>
    <tag k="addr:state" v="VT"/>
    <tag k="ref:vcgi:esiteid" v="450823"/>
  </node>
  <node id="-2283" visible="true" lat="44.36026896" lon="-72.74222911">
    <tag k="addr:housenumber" v="377"/>
    <tag k="addr:street" v="Countryside Road"/>
    <tag k="addr:state" v="VT"/>
    <tag k="ref:vcgi:esiteid" v="451687"/>
  </node>
  <node id="-2334" visible="true" lat="44.39462861" lon="-72.72005287">
    <tag k="addr:housenumber" v="11"/>
    <tag k="addr:street" v="Cabin Lane"/>
    <tag k="addr:state" v="VT"/>
    <tag k="ref:vcgi:esiteid" v="454315"/>
  </node>
  <node id="-2335" visible="true" lat="44.37720722" lon="-72.71768792">
    <tag k="addr:housenumber" v="99"/>
    <tag k="addr:street" v="Maple Street"/>
    <tag k="addr:state" v="VT"/>
    <tag k="ref:vcgi:esiteid" v="454317"/>
  </node>
  <node id="-2418" visible="true" lat="44.398431" lon="-72.68093936">
    <tag k="addr:housenumber" v="1127"/>
    <tag k="addr:street" v="Sweet Road"/>
    <tag k="addr:state" v="VT"/>
    <tag k="ref:vcgi:esiteid" v="612979"/>
  </node>
  <node id="-2420" visible="true" lat="44.37892164" lon="-72.71316137">
    <tag k="addr:housenumber" v="312"/>
    <tag k="addr:street" v="Maple Street"/>
    <tag k="addr:state" v="VT"/>
    <tag k="ref:vcgi:esiteid" v="613141"/>
  </node>
  <node id="-2425" visible="true" lat="44.39135464" lon="-72.71313882">
    <tag k="addr:housenumber" v="317"/>
    <tag k="addr:street" v="Guild Hill Road"/>
    <tag k="addr:state" v="VT"/>
    <tag k="ref:vcgi:esiteid" v="613457"/>
  </node>
  <node id="-2464" visible="true" lat="44.34279543" lon="-72.75998201">
    <tag k="addr:housenumber" v="2"/>
    <tag k="addr:street" v="Butler Street"/>
    <tag k="addr:state" v="VT"/>
    <tag k="ref:vcgi:esiteid" v="750940"/>
  </node>
</osm>
