<?xml version="1.0" encoding="UTF-8"?>
<osm version="0.6" generator="JOSM" upload="false">
  <node id="-179" visible="true" lat="44.40277887" lon="-71.92771601">
    <tag k="addr:city" v="Waterford"/>
    <tag k="addr:housenumber" v="276"/>
    <tag k="addr:street" v="Duck Pond Road"/>
    <tag k="addr:state" v="VT"/>
    <tag k="ref:vcgi:esiteid" v="275448"/>
  </node>
  <node id="-182" visible="true" lat="44.40199279" lon="-71.9225769">
    <tag k="addr:city" v="Waterford"/>
    <tag k="addr:housenumber" v="2745"/>
    <tag k="addr:street" v="Vermont Route 18"/>
    <tag k="addr:state" v="VT"/>
    <tag k="ref:vcgi:esiteid" v="275452"/>
  </node>
  <node id="-186" visible="true" lat="44.40151214" lon="-71.9219284">
    <tag k="addr:city" v="Waterford"/>
    <tag k="addr:housenumber" v="2777"/>
    <tag k="addr:street" v="Vermont Route 18"/>
    <tag k="addr:state" v="VT"/>
    <tag k="ref:vcgi:esiteid" v="275456"/>
  </node>
  <node id="-188" visible="true" lat="44.40107741" lon="-71.92228218">
    <tag k="addr:city" v="Waterford"/>
    <tag k="addr:housenumber" v="2797"/>
    <tag k="addr:street" v="Vermont Route 18"/>
    <tag k="addr:state" v="VT"/>
    <tag k="ref:vcgi:esiteid" v="275458"/>
  </node>
  <node id="-194" visible="true" lat="44.40028983" lon="-71.92672771">
    <tag k="addr:city" v="Waterford"/>
    <tag k="addr:housenumber" v="301"/>
    <tag k="addr:street" v="Duck Pond Road"/>
    <tag k="addr:state" v="VT"/>
    <tag k="ref:vcgi:esiteid" v="275464"/>
  </node>
  <node id="-200" visible="true" lat="44.40017192" lon="-71.92162575">
    <tag k="addr:city" v="Waterford"/>
    <tag k="addr:housenumber" v="2887"/>
    <tag k="addr:street" v="Vermont Route 18"/>
    <tag k="addr:state" v="VT"/>
    <tag k="ref:vcgi:esiteid" v="275470"/>
  </node>
  <node id="-202" visible="true" lat="44.39968811" lon="-71.92546959">
    <tag k="addr:city" v="Waterford"/>
    <tag k="addr:housenumber" v="173"/>
    <tag k="addr:street" v="Duck Pond Road"/>
    <tag k="addr:state" v="VT"/>
    <tag k="ref:vcgi:esiteid" v="275472"/>
  </node>
  <node id="-206" visible="true" lat="44.3995393" lon="-71.92056078">
    <tag k="addr:city" v="Waterford"/>
    <tag k="addr:housenumber" v="2929"/>
    <tag k="addr:street" v="Vermont Route 18"/>
    <tag k="addr:state" v="VT"/>
    <tag k="ref:vcgi:esiteid" v="275476"/>
  </node>
  <node id="-209" visible="true" lat="44.3990924" lon="-71.92128119">
    <tag k="addr:city" v="Waterford"/>
    <tag k="addr:housenumber" v="2931"/>
    <tag k="addr:street" v="Vermont Route 18"/>
    <tag k="addr:state" v="VT"/>
    <tag k="ref:vcgi:esiteid" v="275479"/>
  </node>
  <node id="-217" visible="true" lat="44.39825893" lon="-71.91709494">
    <tag k="addr:city" v="Waterford"/>
    <tag k="addr:housenumber" v="202"/>
    <tag k="addr:street" v="Stonybrook Road"/>
    <tag k="addr:state" v="VT"/>
    <tag k="ref:vcgi:esiteid" v="275487"/>
  </node>
  <node id="-218" visible="true" lat="44.3984642" lon="-71.92129516">
    <tag k="addr:city" v="Waterford"/>
    <tag k="addr:housenumber" v="2991"/>
    <tag k="addr:street" v="Vermont Route 18"/>
    <tag k="addr:state" v="VT"/>
    <tag k="ref:vcgi:esiteid" v="275488"/>
  </node>
  <node id="-219" visible="true" lat="44.398637" lon="-71.95594707">
    <tag k="addr:city" v="Waterford"/>
    <tag k="addr:housenumber" v="107"/>
    <tag k="addr:street" v="Davis Lane"/>
    <tag k="addr:state" v="VT"/>
    <tag k="ref:vcgi:esiteid" v="275489"/>
  </node>
  <node id="-221" visible="true" lat="44.39799825" lon="-71.91810359">
    <tag k="addr:city" v="Waterford"/>
    <tag k="addr:housenumber" v="274"/>
    <tag k="addr:street" v="Stonybrook Road"/>
    <tag k="addr:state" v="VT"/>
    <tag k="ref:vcgi:esiteid" v="275491"/>
  </node>
  <node id="-222" visible="true" lat="44.39796447" lon="-71.9163742">
    <tag k="addr:city" v="Waterford"/>
    <tag k="addr:housenumber" v="237"/>
    <tag k="addr:street" v="Stonybrook Road"/>
    <tag k="addr:state" v="VT"/>
    <tag k="ref:vcgi:esiteid" v="275492"/>
  </node>
  <node id="-223" visible="true" lat="44.39755894" lon="-71.91694035">
    <tag k="addr:city" v="Waterford"/>
    <tag k="addr:housenumber" v="243"/>
    <tag k="addr:street" v="Stonybrook Road"/>
    <tag k="addr:state" v="VT"/>
    <tag k="ref:vcgi:esiteid" v="275493"/>
  </node>
  <node id="-224" visible="true" lat="44.39750518" lon="-71.92254197">
    <tag k="addr:city" v="Waterford"/>
    <tag k="addr:housenumber" v="3036"/>
    <tag k="addr:street" v="Vermont Route 18"/>
    <tag k="addr:state" v="VT"/>
    <tag k="ref:vcgi:esiteid" v="275494"/>
  </node>
  <node id="-231" visible="true" lat="44.3970074" lon="-71.92249716">
    <tag k="addr:city" v="Waterford"/>
    <tag k="addr:housenumber" v="3078"/>
    <tag k="addr:street" v="Vermont Route 18"/>
    <tag k="addr:state" v="VT"/>
    <tag k="ref:vcgi:esiteid" v="275501"/>
  </node>
  <node id="-232" visible="true" lat="44.39737765" lon="-71.95580996">
    <tag k="addr:city" v="Waterford"/>
    <tag k="addr:housenumber" v="120"/>
    <tag k="addr:street" v="Davis Lane"/>
    <tag k="addr:state" v="VT"/>
    <tag k="ref:vcgi:esiteid" v="275502"/>
  </node>
  <node id="-233" visible="true" lat="44.39688956" lon="-71.91737015">
    <tag k="addr:city" v="Waterford"/>
    <tag k="addr:housenumber" v="292"/>
    <tag k="addr:street" v="Stonybrook Road"/>
    <tag k="addr:state" v="VT"/>
    <tag k="ref:vcgi:esiteid" v="275503"/>
  </node>
  <node id="-234" visible="true" lat="44.39649721" lon="-71.92131471">
    <tag k="addr:city" v="Waterford"/>
    <tag k="addr:housenumber" v="3095"/>
    <tag k="addr:street" v="Vermont Route 18"/>
    <tag k="addr:state" v="VT"/>
    <tag k="ref:vcgi:esiteid" v="275504"/>
  </node>
  <node id="-235" visible="true" lat="44.39674377" lon="-71.92137908">
    <tag k="addr:city" v="Waterford"/>
    <tag k="addr:housenumber" v="3097"/>
    <tag k="addr:street" v="Vermont Route 18"/>
    <tag k="addr:state" v="VT"/>
    <tag k="ref:vcgi:esiteid" v="275505"/>
  </node>
  <node id="-236" visible="true" lat="44.39663818" lon="-71.95655776">
    <tag k="addr:city" v="Waterford"/>
    <tag k="addr:housenumber" v="85"/>
    <tag k="addr:street" v="Davis Lane"/>
    <tag k="addr:state" v="VT"/>
    <tag k="ref:vcgi:esiteid" v="275506"/>
  </node>
  <node id="-239" visible="true" lat="44.39592794" lon="-71.92132696">
    <tag k="addr:city" v="Waterford"/>
    <tag k="addr:housenumber" v="3141"/>
    <tag k="addr:street" v="Vermont Route 18"/>
    <tag k="addr:state" v="VT"/>
    <tag k="ref:vcgi:esiteid" v="275509"/>
  </node>
  <node id="-242" visible="true" lat="44.39552117" lon="-71.92153772">
    <tag k="addr:city" v="Waterford"/>
    <tag k="addr:housenumber" v="3179"/>
    <tag k="addr:street" v="Vermont Route 18"/>
    <tag k="addr:state" v="VT"/>
    <tag k="ref:vcgi:esiteid" v="275512"/>
  </node>
  <node id="-243" visible="true" lat="44.39586412" lon="-71.95914783">
    <tag k="addr:city" v="Waterford"/>
    <tag k="addr:housenumber" v="838"/>
    <tag k="addr:street" v="Daniels Farm Road"/>
    <tag k="addr:state" v="VT"/>
    <tag k="ref:vcgi:esiteid" v="275513"/>
  </node>
  <node id="-249" visible="true" lat="44.39495156" lon="-71.95950167">
    <tag k="addr:city" v="Waterford"/>
    <tag k="addr:housenumber" v="852"/>
    <tag k="addr:street" v="Daniels Farm Road"/>
    <tag k="addr:state" v="VT"/>
    <tag k="ref:vcgi:esiteid" v="275519"/>
  </node>
  <node id="-255" visible="true" lat="44.3945509" lon="-71.92983006">
    <tag k="addr:city" v="Waterford"/>
    <tag k="addr:housenumber" v="755"/>
    <tag k="addr:street" v="Duck Pond Road"/>
    <tag k="addr:state" v="VT"/>
    <tag k="ref:vcgi:esiteid" v="275525"/>
  </node>
  <node id="-256" visible="true" lat="44.39455215" lon="-71.95589263">
    <tag k="addr:city" v="Waterford"/>
    <tag k="addr:housenumber" v="682"/>
    <tag k="addr:street" v="Daniels Farm Road"/>
    <tag k="addr:state" v="VT"/>
    <tag k="ref:vcgi:esiteid" v="275526"/>
  </node>
  <node id="-258" visible="true" lat="44.39426751" lon="-71.95853513">
    <tag k="addr:city" v="Waterford"/>
    <tag k="addr:housenumber" v="795"/>
    <tag k="addr:street" v="Daniels Farm Road"/>
    <tag k="addr:state" v="VT"/>
    <tag k="ref:vcgi:esiteid" v="275528"/>
  </node>
  <node id="-259" visible="true" lat="44.39323574" lon="-71.96018629">
    <tag k="addr:city" v="Waterford"/>
    <tag k="addr:housenumber" v="883"/>
    <tag k="addr:street" v="Daniels Farm Road"/>
    <tag k="addr:state" v="VT"/>
    <tag k="ref:vcgi:esiteid" v="275529"/>
  </node>
  <node id="-269" visible="true" lat="44.39365345" lon="-71.92894437">
    <tag k="addr:city" v="Waterford"/>
    <tag k="addr:housenumber" v="835"/>
    <tag k="addr:street" v="Duck Pond Road"/>
    <tag k="addr:state" v="VT"/>
    <tag k="ref:vcgi:esiteid" v="275539"/>
  </node>
  <node id="-271" visible="true" lat="44.39362766" lon="-71.96056435">
    <tag k="addr:city" v="Waterford"/>
    <tag k="addr:housenumber" v="923"/>
    <tag k="addr:street" v="Daniels Farm Road"/>
    <tag k="addr:state" v="VT"/>
    <tag k="ref:vcgi:esiteid" v="275541"/>
  </node>
  <node id="-274" visible="true" lat="44.39287185" lon="-71.93119048">
    <tag k="addr:city" v="Waterford"/>
    <tag k="addr:housenumber" v="869"/>
    <tag k="addr:street" v="Duck Pond Road"/>
    <tag k="addr:state" v="VT"/>
    <tag k="ref:vcgi:esiteid" v="275544"/>
  </node>
  <node id="-281" visible="true" lat="44.39205939" lon="-71.93206599">
    <tag k="addr:city" v="Waterford"/>
    <tag k="addr:housenumber" v="931"/>
    <tag k="addr:street" v="Duck Pond Road"/>
    <tag k="addr:state" v="VT"/>
    <tag k="ref:vcgi:esiteid" v="275552"/>
  </node>
  <node id="-283" visible="true" lat="44.39212427" lon="-71.96132318">
    <tag k="addr:city" v="Waterford"/>
    <tag k="addr:housenumber" v="1089"/>
    <tag k="addr:street" v="Daniels Farm Road"/>
    <tag k="addr:state" v="VT"/>
    <tag k="ref:vcgi:esiteid" v="275554"/>
  </node>
  <node id="-288" visible="true" lat="44.39146045" lon="-71.93573004">
    <tag k="addr:city" v="Waterford"/>
    <tag k="addr:housenumber" v="1099"/>
    <tag k="addr:street" v="Duck Pond Road"/>
    <tag k="addr:state" v="VT"/>
    <tag k="ref:vcgi:esiteid" v="275560"/>
  </node>
  <node id="-289" visible="true" lat="44.39172567" lon="-71.96389817">
    <tag k="addr:city" v="Waterford"/>
    <tag k="addr:housenumber" v="1149"/>
    <tag k="addr:street" v="Daniels Farm Road"/>
    <tag k="addr:state" v="VT"/>
    <tag k="ref:vcgi:esiteid" v="275561"/>
  </node>
  <node id="-290" visible="true" lat="44.39139938" lon="-71.94113159">
    <tag k="addr:city" v="Waterford"/>
    <tag k="addr:housenumber" v="1348"/>
    <tag k="addr:street" v="Duck Pond Road"/>
    <tag k="addr:state" v="VT"/>
    <tag k="ref:vcgi:esiteid" v="275562"/>
  </node>
  <node id="-293" visible="true" lat="44.39083411" lon="-71.96628647">
    <tag k="addr:city" v="Waterford"/>
    <tag k="addr:housenumber" v="1269"/>
    <tag k="addr:street" v="Daniels Farm Road"/>
    <tag k="addr:state" v="VT"/>
    <tag k="ref:vcgi:esiteid" v="275565"/>
  </node>
  <node id="-294" visible="true" lat="44.3908361" lon="-71.96840283">
    <tag k="addr:city" v="Waterford"/>
    <tag k="addr:housenumber" v="1354"/>
    <tag k="addr:street" v="Daniels Farm Road"/>
    <tag k="addr:state" v="VT"/>
    <tag k="ref:vcgi:esiteid" v="275566"/>
  </node>
  <node id="-296" visible="true" lat="44.39072418" lon="-71.93971252">
    <tag k="addr:city" v="Waterford"/>
    <tag k="addr:housenumber" v="1329"/>
    <tag k="addr:street" v="Duck Pond Road"/>
    <tag k="addr:state" v="VT"/>
    <tag k="ref:vcgi:esiteid" v="275568"/>
  </node>
  <node id="-297" visible="true" lat="44.39060211" lon="-71.94062042">
    <tag k="addr:city" v="Waterford"/>
    <tag k="addr:housenumber" v="1349"/>
    <tag k="addr:street" v="Duck Pond Road"/>
    <tag k="addr:state" v="VT"/>
    <tag k="ref:vcgi:esiteid" v="275569"/>
  </node>
  <node id="-298" visible="true" lat="44.39058303" lon="-71.94204711">
    <tag k="addr:city" v="Waterford"/>
    <tag k="addr:housenumber" v="1435"/>
    <tag k="addr:street" v="Duck Pond Road"/>
    <tag k="addr:state" v="VT"/>
    <tag k="ref:vcgi:esiteid" v="275570"/>
  </node>
  <node id="-299" visible="true" lat="44.39067138" lon="-71.96757758">
    <tag k="addr:city" v="Waterford"/>
    <tag k="addr:housenumber" v="1337"/>
    <tag k="addr:street" v="Daniels Farm Road"/>
    <tag k="addr:state" v="VT"/>
    <tag k="ref:vcgi:esiteid" v="275571"/>
  </node>
  <node id="-301" visible="true" lat="44.39047805" lon="-71.94141589">
    <tag k="addr:city" v="Waterford"/>
    <tag k="addr:housenumber" v="1413"/>
    <tag k="addr:street" v="Duck Pond Road"/>
    <tag k="addr:state" v="VT"/>
    <tag k="ref:vcgi:esiteid" v="275573"/>
  </node>
  <node id="-304" visible="true" lat="44.38990717" lon="-71.94246539">
    <tag k="addr:city" v="Waterford"/>
    <tag k="addr:housenumber" v="1535"/>
    <tag k="addr:street" v="Remick Road"/>
    <tag k="addr:state" v="VT"/>
    <tag k="ref:vcgi:esiteid" v="275576"/>
  </node>
  <node id="-309" visible="true" lat="44.38971498" lon="-71.94660205">
    <tag k="addr:city" v="Waterford"/>
    <tag k="addr:housenumber" v="71"/>
    <tag k="addr:street" v="Daniels Farm Road"/>
    <tag k="addr:state" v="VT"/>
    <tag k="ref:vcgi:esiteid" v="275581"/>
  </node>
  <node id="-312" visible="true" lat="44.38938833" lon="-71.94365778">
    <tag k="addr:city" v="Waterford"/>
    <tag k="addr:housenumber" v="1583"/>
    <tag k="addr:street" v="Remick Road"/>
    <tag k="addr:state" v="VT"/>
    <tag k="ref:vcgi:esiteid" v="275584"/>
  </node>
  <node id="-315" visible="true" lat="44.38951688" lon="-71.93956028">
    <tag k="addr:city" v="Waterford"/>
    <tag k="addr:housenumber" v="1375"/>
    <tag k="addr:street" v="Remick Road"/>
    <tag k="addr:state" v="VT"/>
    <tag k="ref:vcgi:esiteid" v="275587"/>
  </node>
  <node id="-320" visible="true" lat="44.38914188" lon="-71.94523443">
    <tag k="addr:city" v="Waterford"/>
    <tag k="addr:housenumber" v="1625"/>
    <tag k="addr:street" v="Duck Pond Road"/>
    <tag k="addr:state" v="VT"/>
    <tag k="ref:vcgi:esiteid" v="275592"/>
  </node>
  <node id="-321" visible="true" lat="44.38900756" lon="-71.92588043">
    <tag k="addr:city" v="Waterford"/>
    <tag k="addr:housenumber" v="138"/>
    <tag k="addr:street" v="Green School Road"/>
    <tag k="addr:state" v="VT"/>
    <tag k="ref:vcgi:esiteid" v="275593"/>
  </node>
  <node id="-322" visible="true" lat="44.38887023" lon="-71.92571258">
    <tag k="addr:city" v="Waterford"/>
    <tag k="addr:housenumber" v="136"/>
    <tag k="addr:street" v="Green School Road"/>
    <tag k="addr:state" v="VT"/>
    <tag k="ref:vcgi:esiteid" v="275594"/>
  </node>
  <node id="-328" visible="true" lat="44.38824462" lon="-71.93763732">
    <tag k="addr:city" v="Waterford"/>
    <tag k="addr:housenumber" v="195"/>
    <tag k="addr:street" v="Cortland Hill Road"/>
    <tag k="addr:state" v="VT"/>
    <tag k="ref:vcgi:esiteid" v="275600"/>
  </node>
  <node id="-330" visible="true" lat="44.38802007" lon="-71.93321037">
    <tag k="addr:city" v="Waterford"/>
    <tag k="addr:housenumber" v="985"/>
    <tag k="addr:street" v="Remick Road"/>
    <tag k="addr:state" v="VT"/>
    <tag k="ref:vcgi:esiteid" v="275602"/>
  </node>
  <node id="-331" visible="true" lat="44.38793945" lon="-71.93582916">
    <tag k="addr:city" v="Waterford"/>
    <tag k="addr:housenumber" v="128"/>
    <tag k="addr:street" v="Woodland Road"/>
    <tag k="addr:state" v="VT"/>
    <tag k="ref:vcgi:esiteid" v="275603"/>
  </node>
  <node id="-332" visible="true" lat="44.38780975" lon="-71.93465423">
    <tag k="addr:city" v="Waterford"/>
    <tag k="addr:housenumber" v="127"/>
    <tag k="addr:street" v="Woodland Road"/>
    <tag k="addr:state" v="VT"/>
    <tag k="ref:vcgi:esiteid" v="275604"/>
  </node>
  <node id="-333" visible="true" lat="44.38779067" lon="-71.94707489">
    <tag k="addr:city" v="Waterford"/>
    <tag k="addr:housenumber" v="1747"/>
    <tag k="addr:street" v="Duck Pond Road"/>
    <tag k="addr:state" v="VT"/>
    <tag k="ref:vcgi:esiteid" v="275605"/>
  </node>
  <node id="-335" visible="true" lat="44.38744401" lon="-71.93728024">
    <tag k="addr:city" v="Waterford"/>
    <tag k="addr:housenumber" v="94"/>
    <tag k="addr:street" v="Spruce Road"/>
    <tag k="addr:state" v="VT"/>
    <tag k="ref:vcgi:esiteid" v="275607"/>
  </node>
  <node id="-336" visible="true" lat="44.38717026" lon="-71.93515027">
    <tag k="addr:city" v="Waterford"/>
    <tag k="addr:housenumber" v="171"/>
    <tag k="addr:street" v="Woodland Road"/>
    <tag k="addr:state" v="VT"/>
    <tag k="ref:vcgi:esiteid" v="275608"/>
  </node>
  <node id="-337" visible="true" lat="44.38727614" lon="-71.93622216">
    <tag k="addr:city" v="Waterford"/>
    <tag k="addr:housenumber" v="196"/>
    <tag k="addr:street" v="Woodland Road"/>
    <tag k="addr:state" v="VT"/>
    <tag k="ref:vcgi:esiteid" v="275609"/>
  </node>
  <node id="-338" visible="true" lat="44.38714934" lon="-71.93874252">
    <tag k="addr:city" v="Waterford"/>
    <tag k="addr:housenumber" v="134"/>
    <tag k="addr:street" v="Spruce Road"/>
    <tag k="addr:state" v="VT"/>
    <tag k="ref:vcgi:esiteid" v="275610"/>
  </node>
  <node id="-339" visible="true" lat="44.38689698" lon="-71.93755033">
    <tag k="addr:city" v="Waterford"/>
    <tag k="addr:housenumber" v="115"/>
    <tag k="addr:street" v="Spruce Road"/>
    <tag k="addr:state" v="VT"/>
    <tag k="ref:vcgi:esiteid" v="275611"/>
  </node>
  <node id="-340" visible="true" lat="44.38661467" lon="-71.93612767">
    <tag k="addr:city" v="Waterford"/>
    <tag k="addr:housenumber" v="225"/>
    <tag k="addr:street" v="Woodland Road"/>
    <tag k="addr:state" v="VT"/>
    <tag k="ref:vcgi:esiteid" v="275612"/>
  </node>
  <node id="-344" visible="true" lat="44.38653848" lon="-71.93275786">
    <tag k="addr:city" v="Waterford"/>
    <tag k="addr:housenumber" v="908"/>
    <tag k="addr:street" v="Remick Road"/>
    <tag k="addr:state" v="VT"/>
    <tag k="ref:vcgi:esiteid" v="275616"/>
  </node>
  <node id="-345" visible="true" lat="44.38631539" lon="-71.93756495">
    <tag k="addr:city" v="Waterford"/>
    <tag k="addr:housenumber" v="286"/>
    <tag k="addr:street" v="Woodland Road"/>
    <tag k="addr:state" v="VT"/>
    <tag k="ref:vcgi:esiteid" v="275617"/>
  </node>
  <node id="-348" visible="true" lat="44.38607981" lon="-71.93694314">
    <tag k="addr:city" v="Waterford"/>
    <tag k="addr:housenumber" v="285"/>
    <tag k="addr:street" v="Woodland Road"/>
    <tag k="addr:state" v="VT"/>
    <tag k="ref:vcgi:esiteid" v="275620"/>
  </node>
  <node id="-349" visible="true" lat="44.38599014" lon="-71.92652893">
    <tag k="addr:city" v="Waterford"/>
    <tag k="addr:housenumber" v="231"/>
    <tag k="addr:street" v="Green School Road"/>
    <tag k="addr:state" v="VT"/>
    <tag k="ref:vcgi:esiteid" v="275621"/>
  </node>
  <node id="-352" visible="true" lat="44.38576889" lon="-71.96793365">
    <tag k="addr:city" v="Waterford"/>
    <tag k="addr:housenumber" v="269"/>
    <tag k="addr:street" v="Suitor Road"/>
    <tag k="addr:state" v="VT"/>
    <tag k="ref:vcgi:esiteid" v="275625"/>
  </node>
  <node id="-353" visible="true" lat="44.38562232" lon="-71.94133797">
    <tag k="addr:city" v="Waterford"/>
    <tag k="addr:housenumber" v="450"/>
    <tag k="addr:street" v="Woodland Road"/>
    <tag k="addr:state" v="VT"/>
    <tag k="ref:vcgi:esiteid" v="275626"/>
  </node>
  <node id="-354" visible="true" lat="44.38557933" lon="-71.93887293">
    <tag k="addr:city" v="Waterford"/>
    <tag k="addr:housenumber" v="356"/>
    <tag k="addr:street" v="Woodland Road"/>
    <tag k="addr:state" v="VT"/>
    <tag k="ref:vcgi:esiteid" v="275627"/>
  </node>
  <node id="-355" visible="true" lat="44.38534578" lon="-71.93774599">
    <tag k="addr:city" v="Waterford"/>
    <tag k="addr:housenumber" v="345"/>
    <tag k="addr:street" v="Woodland Road"/>
    <tag k="addr:state" v="VT"/>
    <tag k="ref:vcgi:esiteid" v="275628"/>
  </node>
  <node id="-358" visible="true" lat="44.3850277" lon="-71.95836122">
    <tag k="addr:city" v="Waterford"/>
    <tag k="addr:housenumber" v="158"/>
    <tag k="addr:street" v="Blodgett Farm Road"/>
    <tag k="addr:state" v="VT"/>
    <tag k="ref:vcgi:esiteid" v="275631"/>
  </node>
  <node id="-359" visible="true" lat="44.38484547" lon="-71.93228018">
    <tag k="addr:city" v="Waterford"/>
    <tag k="addr:housenumber" v="570"/>
    <tag k="addr:street" v="Green School Road"/>
    <tag k="addr:state" v="VT"/>
    <tag k="ref:vcgi:esiteid" v="275632"/>
  </node>
  <node id="-362" visible="true" lat="44.3844694" lon="-71.95767381">
    <tag k="addr:city" v="Waterford"/>
    <tag k="addr:housenumber" v="98"/>
    <tag k="addr:street" v="Blodgett Farm Road"/>
    <tag k="addr:state" v="VT"/>
    <tag k="ref:vcgi:esiteid" v="275635"/>
  </node>
  <node id="-369" visible="true" lat="44.38309319" lon="-71.95717323">
    <tag k="addr:city" v="Waterford"/>
    <tag k="addr:housenumber" v="2374"/>
    <tag k="addr:street" v="Duck Pond Road"/>
    <tag k="addr:state" v="VT"/>
    <tag k="ref:vcgi:esiteid" v="275643"/>
  </node>
  <node id="-370" visible="true" lat="44.38279083" lon="-71.95709155">
    <tag k="addr:city" v="Waterford"/>
    <tag k="addr:housenumber" v="2394"/>
    <tag k="addr:street" v="Duck Pond Road"/>
    <tag k="addr:state" v="VT"/>
    <tag k="ref:vcgi:esiteid" v="275644"/>
  </node>
  <node id="-391" visible="true" lat="44.37903213" lon="-71.97116851">
    <tag k="addr:city" v="Waterford"/>
    <tag k="addr:housenumber" v="751"/>
    <tag k="addr:street" v="Suitor Road"/>
    <tag k="addr:state" v="VT"/>
    <tag k="ref:vcgi:esiteid" v="275667"/>
  </node>
  <node id="-396" visible="true" lat="44.37839006" lon="-71.95367767">
    <tag k="addr:city" v="Waterford"/>
    <tag k="addr:housenumber" v="2727"/>
    <tag k="addr:street" v="Duck Pond Road"/>
    <tag k="addr:state" v="VT"/>
    <tag k="ref:vcgi:esiteid" v="275672"/>
  </node>
  <node id="-413" visible="true" lat="44.3742752" lon="-71.9528656">
    <tag k="addr:city" v="Waterford"/>
    <tag k="addr:housenumber" v="2884"/>
    <tag k="addr:street" v="Duck Pond Road"/>
    <tag k="addr:state" v="VT"/>
    <tag k="ref:vcgi:esiteid" v="275691"/>
  </node>
  <node id="-426" visible="true" lat="44.37267684" lon="-71.95056915">
    <tag k="addr:city" v="Waterford"/>
    <tag k="addr:housenumber" v="3160"/>
    <tag k="addr:street" v="Duck Pond Road"/>
    <tag k="addr:state" v="VT"/>
    <tag k="ref:vcgi:esiteid" v="275704"/>
  </node>
  <node id="-431" visible="true" lat="44.37103845" lon="-71.94852341">
    <tag k="addr:city" v="Waterford"/>
    <tag k="addr:housenumber" v="3309"/>
    <tag k="addr:street" v="Duck Pond Road"/>
    <tag k="addr:state" v="VT"/>
    <tag k="ref:vcgi:esiteid" v="275709"/>
  </node>
  <node id="-436" visible="true" lat="44.37052429" lon="-71.94941466">
    <tag k="addr:city" v="Waterford"/>
    <tag k="addr:housenumber" v="3340"/>
    <tag k="addr:street" v="Duck Pond Road"/>
    <tag k="addr:state" v="VT"/>
    <tag k="ref:vcgi:esiteid" v="275714"/>
  </node>
  <node id="-437" visible="true" lat="44.37043557" lon="-71.94511298">
    <tag k="addr:city" v="Waterford"/>
    <tag k="addr:housenumber" v="1174"/>
    <tag k="addr:street" v="Kidder Road"/>
    <tag k="addr:state" v="VT"/>
    <tag k="ref:vcgi:esiteid" v="275715"/>
  </node>
  <node id="-440" visible="true" lat="44.36951843" lon="-71.94600032">
    <tag k="addr:city" v="Waterford"/>
    <tag k="addr:housenumber" v="1242"/>
    <tag k="addr:street" v="Kidder Road"/>
    <tag k="addr:state" v="VT"/>
    <tag k="ref:vcgi:esiteid" v="275718"/>
  </node>
  <node id="-448" visible="true" lat="44.36874896" lon="-71.94740252">
    <tag k="addr:city" v="Waterford"/>
    <tag k="addr:housenumber" v="3497"/>
    <tag k="addr:street" v="Duck Pond Road"/>
    <tag k="addr:state" v="VT"/>
    <tag k="ref:vcgi:esiteid" v="275728"/>
  </node>
  <node id="-450" visible="true" lat="44.3683997" lon="-71.94669584">
    <tag k="addr:city" v="Waterford"/>
    <tag k="addr:housenumber" v="3517"/>
    <tag k="addr:street" v="Duck Pond Road"/>
    <tag k="addr:state" v="VT"/>
    <tag k="ref:vcgi:esiteid" v="275730"/>
  </node>
  <node id="-465" visible="true" lat="44.36506041" lon="-71.94914455">
    <tag k="addr:city" v="Waterford"/>
    <tag k="addr:housenumber" v="3772"/>
    <tag k="addr:street" v="Duck Pond Road"/>
    <tag k="addr:state" v="VT"/>
    <tag k="ref:vcgi:esiteid" v="275745"/>
  </node>
  <node id="-467" visible="true" lat="44.36474923" lon="-71.94936835">
    <tag k="addr:city" v="Waterford"/>
    <tag k="addr:housenumber" v="3796"/>
    <tag k="addr:street" v="Duck Pond Road"/>
    <tag k="addr:state" v="VT"/>
    <tag k="ref:vcgi:esiteid" v="275747"/>
  </node>
  <node id="-473" visible="true" lat="44.36225407" lon="-71.9509302">
    <tag k="addr:city" v="Waterford"/>
    <tag k="addr:housenumber" v="4002"/>
    <tag k="addr:street" v="Duck Pond Road"/>
    <tag k="addr:state" v="VT"/>
    <tag k="ref:vcgi:esiteid" v="275753"/>
  </node>
  <node id="-507" visible="true" lat="44.35572386" lon="-71.90770841">
    <tag k="addr:city" v="Waterford"/>
    <tag k="addr:housenumber" v="437"/>
    <tag k="addr:street" v="Maple Street"/>
    <tag k="addr:state" v="VT"/>
    <tag k="ref:vcgi:esiteid" v="275787"/>
  </node>
  <node id="-509" visible="true" lat="44.35546875" lon="-71.9086914">
    <tag k="addr:city" v="Waterford"/>
    <tag k="addr:housenumber" v="470"/>
    <tag k="addr:street" v="Maple Street"/>
    <tag k="addr:state" v="VT"/>
    <tag k="ref:vcgi:esiteid" v="275789"/>
  </node>
  <node id="-511" visible="true" lat="44.35494232" lon="-71.90720367">
    <tag k="addr:city" v="Waterford"/>
    <tag k="addr:housenumber" v="48"/>
    <tag k="addr:street" v="Lower Waterford Road"/>
    <tag k="addr:state" v="VT"/>
    <tag k="ref:vcgi:esiteid" v="275792"/>
  </node>
  <node id="-514" visible="true" lat="44.3548918" lon="-71.90766044">
    <tag k="addr:city" v="Waterford"/>
    <tag k="addr:housenumber" v="74"/>
    <tag k="addr:street" v="Lower Waterford Road"/>
    <tag k="addr:state" v="VT"/>
    <tag k="ref:vcgi:esiteid" v="275795"/>
  </node>
  <node id="-516" visible="true" lat="44.3545227" lon="-71.90864562">
    <tag k="addr:city" v="Waterford"/>
    <tag k="addr:housenumber" v="164"/>
    <tag k="addr:street" v="Lower Waterford Road"/>
    <tag k="addr:state" v="VT"/>
    <tag k="ref:vcgi:esiteid" v="275797"/>
  </node>
  <node id="-517" visible="true" lat="44.3545013" lon="-71.9073581">
    <tag k="addr:city" v="Waterford"/>
    <tag k="addr:housenumber" v="63"/>
    <tag k="addr:street" v="Lower Waterford Road"/>
    <tag k="addr:state" v="VT"/>
    <tag k="ref:vcgi:esiteid" v="275798"/>
  </node>
  <node id="-520" visible="true" lat="44.35418593" lon="-71.91023297">
    <tag k="addr:city" v="Waterford"/>
    <tag k="addr:housenumber" v="188"/>
    <tag k="addr:street" v="Lower Waterford Road"/>
    <tag k="addr:state" v="VT"/>
    <tag k="ref:vcgi:esiteid" v="275801"/>
  </node>
  <node id="-521" visible="true" lat="44.3543085" lon="-71.90798963">
    <tag k="addr:city" v="Waterford"/>
    <tag k="addr:housenumber" v="123"/>
    <tag k="addr:street" v="Lower Waterford Road"/>
    <tag k="addr:state" v="VT"/>
    <tag k="ref:vcgi:esiteid" v="275802"/>
  </node>
  <node id="-522" visible="true" lat="44.35423326" lon="-71.90825948">
    <tag k="addr:city" v="Waterford"/>
    <tag k="addr:housenumber" v="139"/>
    <tag k="addr:street" v="Lower Waterford Road"/>
    <tag k="addr:state" v="VT"/>
    <tag k="ref:vcgi:esiteid" v="275803"/>
  </node>
  <node id="-523" visible="true" lat="44.35414589" lon="-71.90722459">
    <tag k="addr:city" v="Waterford"/>
    <tag k="addr:housenumber" v="571"/>
    <tag k="addr:street" v="Maple Street"/>
    <tag k="addr:state" v="VT"/>
    <tag k="ref:vcgi:esiteid" v="275804"/>
  </node>
  <node id="-525" visible="true" lat="44.35408777" lon="-71.90900444">
    <tag k="addr:city" v="Waterford"/>
    <tag k="addr:housenumber" v="173"/>
    <tag k="addr:street" v="Lower Waterford Road"/>
    <tag k="addr:state" v="VT"/>
    <tag k="ref:vcgi:esiteid" v="275806"/>
  </node>
  <node id="-526" visible="true" lat="44.3536717" lon="-71.90729259">
    <tag k="addr:city" v="Waterford"/>
    <tag k="addr:housenumber" v="588"/>
    <tag k="addr:street" v="Maple Street"/>
    <tag k="addr:state" v="VT"/>
    <tag k="ref:vcgi:esiteid" v="275807"/>
  </node>
  <node id="-527" visible="true" lat="44.35327387" lon="-71.90701162">
    <tag k="addr:city" v="Waterford"/>
    <tag k="addr:housenumber" v="614"/>
    <tag k="addr:street" v="Maple Street"/>
    <tag k="addr:state" v="VT"/>
    <tag k="ref:vcgi:esiteid" v="275808"/>
  </node>
  <node id="-530" visible="true" lat="44.35279464" lon="-71.91615295">
    <tag k="addr:city" v="Waterford"/>
    <tag k="addr:housenumber" v="506"/>
    <tag k="addr:street" v="Lower Waterford Road"/>
    <tag k="addr:state" v="VT"/>
    <tag k="ref:vcgi:esiteid" v="275811"/>
  </node>
  <node id="-531" visible="true" lat="44.35224533" lon="-71.91777038">
    <tag k="addr:city" v="Waterford"/>
    <tag k="addr:housenumber" v="598"/>
    <tag k="addr:street" v="Lower Waterford Road"/>
    <tag k="addr:state" v="VT"/>
    <tag k="ref:vcgi:esiteid" v="275812"/>
  </node>
  <node id="-532" visible="true" lat="44.35192528" lon="-71.89774821">
    <tag k="addr:city" v="Waterford"/>
    <tag k="addr:housenumber" v="103"/>
    <tag k="addr:street" v="Whittemore Lane"/>
    <tag k="addr:state" v="VT"/>
    <tag k="ref:vcgi:esiteid" v="275813"/>
  </node>
  <node id="-533" visible="true" lat="44.35182772" lon="-71.89919075">
    <tag k="addr:city" v="Waterford"/>
    <tag k="addr:housenumber" v="71"/>
    <tag k="addr:street" v="Whittemore Lane"/>
    <tag k="addr:state" v="VT"/>
    <tag k="ref:vcgi:esiteid" v="275814"/>
  </node>
  <node id="-534" visible="true" lat="44.3511502" lon="-71.89821277">
    <tag k="addr:city" v="Waterford"/>
    <tag k="addr:housenumber" v="55"/>
    <tag k="addr:street" v="Whittemore Lane"/>
    <tag k="addr:state" v="VT"/>
    <tag k="ref:vcgi:esiteid" v="275815"/>
  </node>
  <node id="-535" visible="true" lat="44.35115174" lon="-71.89741829">
    <tag k="addr:city" v="Waterford"/>
    <tag k="addr:housenumber" v="36"/>
    <tag k="addr:street" v="Whittemore Lane"/>
    <tag k="addr:state" v="VT"/>
    <tag k="ref:vcgi:esiteid" v="275816"/>
  </node>
  <node id="-539" visible="true" lat="44.35073468" lon="-71.91922592">
    <tag k="addr:city" v="Waterford"/>
    <tag k="addr:housenumber" v="728"/>
    <tag k="addr:street" v="Lower Waterford Road"/>
    <tag k="addr:state" v="VT"/>
    <tag k="ref:vcgi:esiteid" v="275820"/>
  </node>
  <node id="-544" visible="true" lat="44.34970432" lon="-71.92222245">
    <tag k="addr:city" v="Waterford"/>
    <tag k="addr:housenumber" v="864"/>
    <tag k="addr:street" v="Lower Waterford Road"/>
    <tag k="addr:state" v="VT"/>
    <tag k="ref:vcgi:esiteid" v="275825"/>
  </node>
  <node id="-545" visible="true" lat="44.3497337" lon="-71.92095602">
    <tag k="addr:city" v="Waterford"/>
    <tag k="addr:housenumber" v="828"/>
    <tag k="addr:street" v="Lower Waterford Road"/>
    <tag k="addr:state" v="VT"/>
    <tag k="ref:vcgi:esiteid" v="275826"/>
  </node>
  <node id="-548" visible="true" lat="44.34941847" lon="-71.92174695">
    <tag k="addr:city" v="Waterford"/>
    <tag k="addr:housenumber" v="862"/>
    <tag k="addr:street" v="Lower Waterford Road"/>
    <tag k="addr:state" v="VT"/>
    <tag k="ref:vcgi:esiteid" v="275829"/>
  </node>
  <node id="-552" visible="true" lat="44.34933778" lon="-71.92011652">
    <tag k="addr:city" v="Waterford"/>
    <tag k="addr:housenumber" v="843"/>
    <tag k="addr:street" v="Lower Waterford Road"/>
    <tag k="addr:state" v="VT"/>
    <tag k="ref:vcgi:esiteid" v="275833"/>
  </node>
  <node id="-553" visible="true" lat="44.34907197" lon="-71.92211844">
    <tag k="addr:city" v="Waterford"/>
    <tag k="addr:housenumber" v="914"/>
    <tag k="addr:street" v="Lower Waterford Road"/>
    <tag k="addr:state" v="VT"/>
    <tag k="ref:vcgi:esiteid" v="275835"/>
  </node>
  <node id="-554" visible="true" lat="44.34997566" lon="-71.91771885">
    <tag k="addr:city" v="Waterford"/>
    <tag k="addr:housenumber" v="719"/>
    <tag k="addr:street" v="Lower Waterford Road"/>
    <tag k="addr:state" v="VT"/>
    <tag k="ref:vcgi:esiteid" v="275836"/>
  </node>
  <node id="-556" visible="true" lat="44.34848462" lon="-71.92286922">
    <tag k="addr:city" v="Waterford"/>
    <tag k="addr:housenumber" v="976"/>
    <tag k="addr:street" v="Lower Waterford Road"/>
    <tag k="addr:state" v="VT"/>
    <tag k="ref:vcgi:esiteid" v="275838"/>
  </node>
  <node id="-557" visible="true" lat="44.34795254" lon="-71.92266199">
    <tag k="addr:city" v="Waterford"/>
    <tag k="addr:housenumber" v="979"/>
    <tag k="addr:street" v="Lower Waterford Road"/>
    <tag k="addr:state" v="VT"/>
    <tag k="ref:vcgi:esiteid" v="275839"/>
  </node>
  <node id="-564" visible="true" lat="44.34577796" lon="-71.88947258">
    <tag k="addr:city" v="Waterford"/>
    <tag k="addr:housenumber" v="66"/>
    <tag k="addr:street" v="Riverside Cemetery Road"/>
    <tag k="addr:state" v="VT"/>
    <tag k="ref:vcgi:esiteid" v="275846"/>
  </node>
  <node id="-565" visible="true" lat="44.34632702" lon="-71.92582694">
    <tag k="addr:city" v="Waterford"/>
    <tag k="addr:housenumber" v="1187"/>
    <tag k="addr:street" v="Lower Waterford Road"/>
    <tag k="addr:state" v="VT"/>
    <tag k="ref:vcgi:esiteid" v="275847"/>
  </node>
  <node id="-568" visible="true" lat="44.34564029" lon="-71.92828239">
    <tag k="addr:city" v="Waterford"/>
    <tag k="addr:housenumber" v="1298"/>
    <tag k="addr:street" v="Lower Waterford Road"/>
    <tag k="addr:state" v="VT"/>
    <tag k="ref:vcgi:esiteid" v="275850"/>
  </node>
  <node id="-570" visible="true" lat="44.3453065" lon="-71.92787827">
    <tag k="addr:city" v="Waterford"/>
    <tag k="addr:housenumber" v="1299"/>
    <tag k="addr:street" v="Lower Waterford Road"/>
    <tag k="addr:state" v="VT"/>
    <tag k="ref:vcgi:esiteid" v="275852"/>
  </node>
  <node id="-571" visible="true" lat="44.34389877" lon="-71.95485687">
    <tag k="addr:city" v="Waterford"/>
    <tag k="addr:housenumber" v="236"/>
    <tag k="addr:street" v="Chamberlain Lane"/>
    <tag k="addr:state" v="VT"/>
    <tag k="ref:vcgi:esiteid" v="275853"/>
  </node>
  <node id="-573" visible="true" lat="44.34338327" lon="-71.95597851">
    <tag k="addr:city" v="Waterford"/>
    <tag k="addr:housenumber" v="271"/>
    <tag k="addr:street" v="Chamberlain Lane"/>
    <tag k="addr:state" v="VT"/>
    <tag k="ref:vcgi:esiteid" v="275855"/>
  </node>
  <node id="-577" visible="true" lat="44.34292149" lon="-71.95100165">
    <tag k="addr:city" v="Waterford"/>
    <tag k="addr:housenumber" v="5492"/>
    <tag k="addr:street" v="Duck Pond Road"/>
    <tag k="addr:state" v="VT"/>
    <tag k="ref:vcgi:esiteid" v="275859"/>
  </node>
  <node id="-579" visible="true" lat="44.34206466" lon="-71.95541286">
    <tag k="addr:city" v="Waterford"/>
    <tag k="addr:housenumber" v="153"/>
    <tag k="addr:street" v="Chamberlain Lane"/>
    <tag k="addr:state" v="VT"/>
    <tag k="ref:vcgi:esiteid" v="275861"/>
  </node>
  <node id="-581" visible="true" lat="44.3419609" lon="-71.97614288">
    <tag k="addr:city" v="Waterford"/>
    <tag k="addr:housenumber" v="80"/>
    <tag k="addr:street" v="Birch Tree Lane"/>
    <tag k="addr:state" v="VT"/>
    <tag k="ref:vcgi:esiteid" v="275863"/>
  </node>
  <node id="-584" visible="true" lat="44.34142029" lon="-71.97473682">
    <tag k="addr:city" v="Waterford"/>
    <tag k="addr:housenumber" v="90"/>
    <tag k="addr:street" v="Birch Tree Lane"/>
    <tag k="addr:state" v="VT"/>
    <tag k="ref:vcgi:esiteid" v="275866"/>
  </node>
  <node id="-585" visible="true" lat="44.34195332" lon="-71.93446782">
    <tag k="addr:city" v="Waterford"/>
    <tag k="addr:housenumber" v="1757"/>
    <tag k="addr:street" v="Lower Waterford Road"/>
    <tag k="addr:state" v="VT"/>
    <tag k="ref:vcgi:esiteid" v="275867"/>
  </node>
  <node id="-590" visible="true" lat="44.33989581" lon="-71.96901032">
    <tag k="addr:city" v="Waterford"/>
    <tag k="addr:housenumber" v="3672"/>
    <tag k="addr:street" v="Lower Waterford Road"/>
    <tag k="addr:state" v="VT"/>
    <tag k="ref:vcgi:esiteid" v="275872"/>
  </node>
  <node id="-593" visible="true" lat="44.33925593" lon="-71.95491033">
    <tag k="addr:city" v="Waterford"/>
    <tag k="addr:housenumber" v="2859"/>
    <tag k="addr:street" v="Lower Waterford Road"/>
    <tag k="addr:state" v="VT"/>
    <tag k="ref:vcgi:esiteid" v="275875"/>
  </node>
  <node id="-594" visible="true" lat="44.33897399" lon="-71.97286224">
    <tag k="addr:city" v="Waterford"/>
    <tag k="addr:housenumber" v="300"/>
    <tag k="addr:street" v="Birch Tree Lane"/>
    <tag k="addr:state" v="VT"/>
    <tag k="ref:vcgi:esiteid" v="275876"/>
  </node>
  <node id="-595" visible="true" lat="44.33880702" lon="-71.96949838">
    <tag k="addr:city" v="Waterford"/>
    <tag k="addr:housenumber" v="3585"/>
    <tag k="addr:street" v="Lower Waterford Road"/>
    <tag k="addr:state" v="VT"/>
    <tag k="ref:vcgi:esiteid" v="275877"/>
  </node>
  <node id="-596" visible="true" lat="44.33838997" lon="-71.970522">
    <tag k="addr:city" v="Waterford"/>
    <tag k="addr:housenumber" v="3587"/>
    <tag k="addr:street" v="Lower Waterford Road"/>
    <tag k="addr:state" v="VT"/>
    <tag k="ref:vcgi:esiteid" v="275878"/>
  </node>
  <node id="-597" visible="true" lat="44.33811776" lon="-71.96805166">
    <tag k="addr:city" v="Waterford"/>
    <tag k="addr:housenumber" v="3433"/>
    <tag k="addr:street" v="Lower Waterford Road"/>
    <tag k="addr:state" v="VT"/>
    <tag k="ref:vcgi:esiteid" v="275879"/>
  </node>
  <node id="-598" visible="true" lat="44.33815566" lon="-71.96708645">
    <tag k="addr:city" v="Waterford"/>
    <tag k="addr:housenumber" v="3303"/>
    <tag k="addr:street" v="Lower Waterford Road"/>
    <tag k="addr:state" v="VT"/>
    <tag k="ref:vcgi:esiteid" v="275880"/>
  </node>
  <node id="-609" visible="true" lat="44.35373025" lon="-71.91059308">
    <tag k="addr:city" v="Waterford"/>
    <tag k="addr:housenumber" v="225"/>
    <tag k="addr:street" v="Lower Waterford Road"/>
    <tag k="addr:state" v="VT"/>
    <tag k="ref:vcgi:esiteid" v="275892"/>
  </node>
  <node id="-613" visible="true" lat="44.36125564" lon="-71.95166015">
    <tag k="addr:city" v="Waterford"/>
    <tag k="addr:housenumber" v="4058"/>
    <tag k="addr:street" v="Duck Pond Road"/>
    <tag k="addr:state" v="VT"/>
    <tag k="ref:vcgi:esiteid" v="275896"/>
  </node>
  <node id="-614" visible="true" lat="44.36079354" lon="-71.95182643">
    <tag k="addr:city" v="Waterford"/>
    <tag k="addr:housenumber" v="4096"/>
    <tag k="addr:street" v="Duck Pond Road"/>
    <tag k="addr:state" v="VT"/>
    <tag k="ref:vcgi:esiteid" v="275897"/>
  </node>
  <node id="-615" visible="true" lat="44.35903389" lon="-71.95321695">
    <tag k="addr:city" v="Waterford"/>
    <tag k="addr:housenumber" v="4235"/>
    <tag k="addr:street" v="Duck Pond Road"/>
    <tag k="addr:state" v="VT"/>
    <tag k="ref:vcgi:esiteid" v="275898"/>
  </node>
  <node id="-616" visible="true" lat="44.34257911" lon="-71.93439643">
    <tag k="addr:city" v="Waterford"/>
    <tag k="addr:housenumber" v="1640"/>
    <tag k="addr:street" v="Lower Waterford Road"/>
    <tag k="addr:state" v="VT"/>
    <tag k="ref:vcgi:esiteid" v="275899"/>
  </node>
  <node id="-617" visible="true" lat="44.3420562" lon="-71.93545354">
    <tag k="addr:city" v="Waterford"/>
    <tag k="addr:housenumber" v="1718"/>
    <tag k="addr:street" v="Lower Waterford Road"/>
    <tag k="addr:state" v="VT"/>
    <tag k="ref:vcgi:esiteid" v="275900"/>
  </node>
  <node id="-618" visible="true" lat="44.34039945" lon="-71.93891526">
    <tag k="addr:city" v="Waterford"/>
    <tag k="addr:housenumber" v="1944"/>
    <tag k="addr:street" v="Lower Waterford Road"/>
    <tag k="addr:state" v="VT"/>
    <tag k="ref:vcgi:esiteid" v="275901"/>
  </node>
  <node id="-619" visible="true" lat="44.34034647" lon="-71.9551763">
    <tag k="addr:city" v="Waterford"/>
    <tag k="addr:housenumber" v="25"/>
    <tag k="addr:street" v="Chamberlain Lane"/>
    <tag k="addr:state" v="VT"/>
    <tag k="ref:vcgi:esiteid" v="275902"/>
  </node>
  <node id="-622" visible="true" lat="44.34152437" lon="-71.93692673">
    <tag k="addr:city" v="Waterford"/>
    <tag k="addr:housenumber" v="1794"/>
    <tag k="addr:street" v="Lower Waterford Road"/>
    <tag k="addr:state" v="VT"/>
    <tag k="ref:vcgi:esiteid" v="275905"/>
  </node>
  <node id="-623" visible="true" lat="44.35970626" lon="-71.95196971">
    <tag k="addr:city" v="Waterford"/>
    <tag k="addr:housenumber" v="4159"/>
    <tag k="addr:street" v="Duck Pond Road"/>
    <tag k="addr:state" v="VT"/>
    <tag k="ref:vcgi:esiteid" v="275906"/>
  </node>
  <node id="-630" visible="true" lat="44.33908575" lon="-71.94331887">
    <tag k="addr:city" v="Waterford"/>
    <tag k="addr:housenumber" v="2191"/>
    <tag k="addr:street" v="Lower Waterford Road"/>
    <tag k="addr:state" v="VT"/>
    <tag k="ref:vcgi:esiteid" v="275913"/>
  </node>
  <node id="-631" visible="true" lat="44.3575568" lon="-71.95750007">
    <tag k="addr:city" v="Waterford"/>
    <tag k="addr:housenumber" v="4450"/>
    <tag k="addr:street" v="Duck Pond Road"/>
    <tag k="addr:state" v="VT"/>
    <tag k="ref:vcgi:esiteid" v="275914"/>
  </node>
  <node id="-632" visible="true" lat="44.3968912" lon="-71.94126938">
    <tag k="addr:city" v="Waterford"/>
    <tag k="addr:housenumber" v="945"/>
    <tag k="addr:street" v="Knotty Lane"/>
    <tag k="addr:state" v="VT"/>
    <tag k="ref:vcgi:esiteid" v="275915"/>
  </node>
  <node id="-640" visible="true" lat="44.39132262" lon="-71.96730776">
    <tag k="addr:city" v="Waterford"/>
    <tag k="addr:housenumber" v="1304"/>
    <tag k="addr:street" v="Daniels Farm Road"/>
    <tag k="addr:state" v="VT"/>
    <tag k="ref:vcgi:esiteid" v="275923"/>
  </node>
  <node id="-647" visible="true" lat="44.34326733" lon="-71.93114603">
    <tag k="addr:city" v="Waterford"/>
    <tag k="addr:housenumber" v="1511"/>
    <tag k="addr:street" v="Lower Waterford Road"/>
    <tag k="addr:state" v="VT"/>
    <tag k="ref:vcgi:esiteid" v="275930"/>
  </node>
  <node id="-650" visible="true" lat="44.39710095" lon="-71.95242149">
    <tag k="addr:city" v="Waterford"/>
    <tag k="addr:housenumber" v="223"/>
    <tag k="addr:street" v="Knotty Lane"/>
    <tag k="addr:state" v="VT"/>
    <tag k="ref:vcgi:esiteid" v="275933"/>
  </node>
  <node id="-655" visible="true" lat="44.39935161" lon="-71.92755724">
    <tag k="addr:city" v="Waterford"/>
    <tag k="addr:housenumber" v="366"/>
    <tag k="addr:street" v="Duck Pond Road"/>
    <tag k="addr:state" v="VT"/>
    <tag k="ref:vcgi:esiteid" v="275938"/>
  </node>
  <node id="-657" visible="true" lat="44.35053743" lon="-71.94977269">
    <tag k="addr:city" v="Waterford"/>
    <tag k="addr:housenumber" v="5075"/>
    <tag k="addr:street" v="Duck Pond Road"/>
    <tag k="addr:state" v="VT"/>
    <tag k="ref:vcgi:esiteid" v="275940"/>
  </node>
  <node id="-660" visible="true" lat="44.356033" lon="-71.95246455">
    <tag k="addr:city" v="Waterford"/>
    <tag k="addr:housenumber" v="4613"/>
    <tag k="addr:street" v="Duck Pond Road"/>
    <tag k="addr:state" v="VT"/>
    <tag k="ref:vcgi:esiteid" v="275943"/>
  </node>
  <node id="-664" visible="true" lat="44.39898355" lon="-71.93222892">
    <tag k="addr:city" v="Waterford"/>
    <tag k="addr:housenumber" v="367"/>
    <tag k="addr:street" v="Fenoff Heights Lane"/>
    <tag k="addr:state" v="VT"/>
    <tag k="ref:vcgi:esiteid" v="275947"/>
  </node>
  <node id="-665" visible="true" lat="44.39862458" lon="-71.93453224">
    <tag k="addr:city" v="Waterford"/>
    <tag k="addr:housenumber" v="438"/>
    <tag k="addr:street" v="Fenoff Heights Lane"/>
    <tag k="addr:state" v="VT"/>
    <tag k="ref:vcgi:esiteid" v="275948"/>
  </node>
  <node id="-675" visible="true" lat="44.392923" lon="-71.96511608">
    <tag k="addr:city" v="Waterford"/>
    <tag k="addr:housenumber" v="1204"/>
    <tag k="addr:street" v="Daniels Farm Road"/>
    <tag k="addr:state" v="VT"/>
    <tag k="ref:vcgi:esiteid" v="275958"/>
  </node>
  <node id="-681" visible="true" lat="44.39299998" lon="-71.92832264">
    <tag k="addr:city" v="Waterford"/>
    <tag k="addr:housenumber" v="839"/>
    <tag k="addr:street" v="Duck Pond Road"/>
    <tag k="addr:state" v="VT"/>
    <tag k="ref:vcgi:esiteid" v="275964"/>
  </node>
  <node id="-683" visible="true" lat="44.34086546" lon="-71.954002">
    <tag k="addr:city" v="Waterford"/>
    <tag k="addr:housenumber" v="38"/>
    <tag k="addr:street" v="Chamberlain Lane"/>
    <tag k="addr:state" v="VT"/>
    <tag k="ref:vcgi:esiteid" v="275966"/>
  </node>
  <node id="-695" visible="true" lat="44.35433405" lon="-71.95225848">
    <tag k="addr:city" v="Waterford"/>
    <tag k="addr:housenumber" v="4727"/>
    <tag k="addr:street" v="Duck Pond Road"/>
    <tag k="addr:state" v="VT"/>
    <tag k="ref:vcgi:esiteid" v="275982"/>
  </node>
  <node id="-696" visible="true" lat="44.35479155" lon="-71.95257389">
    <tag k="addr:city" v="Waterford"/>
    <tag k="addr:housenumber" v="4711"/>
    <tag k="addr:street" v="Duck Pond Road"/>
    <tag k="addr:state" v="VT"/>
    <tag k="ref:vcgi:esiteid" v="275983"/>
  </node>
  <node id="-703" visible="true" lat="44.33849043" lon="-71.95820042">
    <tag k="addr:city" v="Waterford"/>
    <tag k="addr:housenumber" v="3041"/>
    <tag k="addr:street" v="Lower Waterford Road"/>
    <tag k="addr:state" v="VT"/>
    <tag k="ref:vcgi:esiteid" v="275990"/>
  </node>
  <node id="-705" visible="true" lat="44.35690905" lon="-71.95417477">
    <tag k="addr:city" v="Waterford"/>
    <tag k="addr:housenumber" v="4503"/>
    <tag k="addr:street" v="Duck Pond Road"/>
    <tag k="addr:state" v="VT"/>
    <tag k="ref:vcgi:esiteid" v="275992"/>
  </node>
  <node id="-716" visible="true" lat="44.39160934" lon="-71.96679324">
    <tag k="addr:city" v="Waterford"/>
    <tag k="addr:housenumber" v="1262"/>
    <tag k="addr:street" v="Daniels Farm Road"/>
    <tag k="addr:state" v="VT"/>
    <tag k="ref:vcgi:esiteid" v="307809"/>
  </node>
  <node id="-717" visible="true" lat="44.37154022" lon="-71.94632991">
    <tag k="addr:city" v="Waterford"/>
    <tag k="addr:housenumber" v="3339"/>
    <tag k="addr:street" v="Duck Pond Road"/>
    <tag k="addr:state" v="VT"/>
    <tag k="ref:vcgi:esiteid" v="309988"/>
  </node>
  <node id="-736" visible="true" lat="44.3619949" lon="-71.95102221">
    <tag k="addr:city" v="Waterford"/>
    <tag k="addr:housenumber" v="4020"/>
    <tag k="addr:street" v="Duck Pond Road"/>
    <tag k="addr:state" v="VT"/>
    <tag k="ref:vcgi:esiteid" v="334974"/>
  </node>
  <node id="-737" visible="true" lat="44.36512936" lon="-71.94824426">
    <tag k="addr:city" v="Waterford"/>
    <tag k="addr:housenumber" v="3741"/>
    <tag k="addr:street" v="Duck Pond Road"/>
    <tag k="addr:state" v="VT"/>
    <tag k="ref:vcgi:esiteid" v="335143"/>
  </node>
  <node id="-739" visible="true" lat="44.3983489" lon="-71.93169712">
    <tag k="addr:city" v="Waterford"/>
    <tag k="addr:housenumber" v="289"/>
    <tag k="addr:street" v="Fenoff Heights Lane"/>
    <tag k="addr:state" v="VT"/>
    <tag k="ref:vcgi:esiteid" v="336698"/>
  </node>
  <node id="-743" visible="true" lat="44.39673828" lon="-71.95448753">
    <tag k="addr:city" v="Waterford"/>
    <tag k="addr:housenumber" v="1743"/>
    <tag k="addr:street" v="Slate Ledge Road"/>
    <tag k="addr:state" v="VT"/>
    <tag k="ref:vcgi:esiteid" v="338561"/>
  </node>
  <node id="-744" visible="true" lat="44.39428707" lon="-71.95925978">
    <tag k="addr:city" v="Waterford"/>
    <tag k="addr:housenumber" v="861"/>
    <tag k="addr:street" v="Daniels Farm Road"/>
    <tag k="addr:state" v="VT"/>
    <tag k="ref:vcgi:esiteid" v="339273"/>
  </node>
  <node id="-747" visible="true" lat="44.35091859" lon="-71.88891572">
    <tag k="addr:city" v="Waterford"/>
    <tag k="addr:housenumber" v="18"/>
    <tag k="addr:street" v="Aldrich Mountain Lane"/>
    <tag k="addr:state" v="VT"/>
    <tag k="ref:vcgi:esiteid" v="341374"/>
  </node>
  <node id="-762" visible="true" lat="44.38516677" lon="-71.95850839">
    <tag k="addr:city" v="Waterford"/>
    <tag k="addr:housenumber" v="160"/>
    <tag k="addr:street" v="Blodgett Farm Road"/>
    <tag k="addr:state" v="VT"/>
    <tag k="ref:vcgi:esiteid" v="446831"/>
  </node>
  <node id="-764" visible="true" lat="44.33908241" lon="-71.9357729">
    <tag k="addr:city" v="Waterford"/>
    <tag k="addr:housenumber" v="1931"/>
    <tag k="addr:street" v="Lower Waterford Road"/>
    <tag k="addr:state" v="VT"/>
    <tag k="ref:vcgi:esiteid" v="448389"/>
  </node>
  <node id="-769" visible="true" lat="44.34235308" lon="-71.95383299">
    <tag k="addr:city" v="Waterford"/>
    <tag k="addr:housenumber" v="120"/>
    <tag k="addr:street" v="Chamberlain Lane"/>
    <tag k="addr:state" v="VT"/>
    <tag k="ref:vcgi:esiteid" v="454036"/>
  </node>
  <node id="-770" visible="true" lat="44.38430507" lon="-71.95566043">
    <tag k="addr:city" v="Waterford"/>
    <tag k="addr:housenumber" v="2177"/>
    <tag k="addr:street" v="Duck Pond Road"/>
    <tag k="addr:state" v="VT"/>
    <tag k="ref:vcgi:esiteid" v="454945"/>
  </node>
  <node id="-771" visible="true" lat="44.38528017" lon="-71.9690176">
    <tag k="addr:city" v="Waterford"/>
    <tag k="addr:housenumber" v="320"/>
    <tag k="addr:street" v="Suitor Road"/>
    <tag k="addr:state" v="VT"/>
    <tag k="ref:vcgi:esiteid" v="455046"/>
  </node>
  <node id="-772" visible="true" lat="44.3841083" lon="-71.97048253">
    <tag k="addr:city" v="Waterford"/>
    <tag k="addr:housenumber" v="420"/>
    <tag k="addr:street" v="Suitor Road"/>
    <tag k="addr:state" v="VT"/>
    <tag k="ref:vcgi:esiteid" v="455047"/>
  </node>
  <node id="-773" visible="true" lat="44.34140856" lon="-71.93233443">
    <tag k="addr:city" v="Waterford"/>
    <tag k="addr:housenumber" v="1619"/>
    <tag k="addr:street" v="Lower Waterford Road"/>
    <tag k="addr:state" v="VT"/>
    <tag k="ref:vcgi:esiteid" v="455358"/>
  </node>
  <node id="-776" visible="true" lat="44.39055824" lon="-71.94716269">
    <tag k="addr:city" v="Waterford"/>
    <tag k="addr:housenumber" v="104"/>
    <tag k="addr:street" v="Daniels Farm Road"/>
    <tag k="addr:state" v="VT"/>
    <tag k="ref:vcgi:esiteid" v="611059"/>
  </node>
</osm>
