<?xml version="1.0" encoding="UTF-8"?>
<osm version="0.6" generator="JOSM" upload="false">
  <node id="-373" visible="true" lat="43.41187781" lon="-72.40511981">
    <!-- conflict: "72 Freedom Drive, , VT" No match in OSM, but a different address exists <5m away: "5499 U.S. Route 5, Weathersfield, VT" -->
    <tag k="addr:housenumber" v="72"/>
    <tag k="addr:street" v="Freedom Drive"/>
    <tag k="addr:state" v="VT"/>
    <tag k="ref:vcgi:esiteid" v="276592"/>
  </node>
  <node id="-416" visible="true" lat="43.41047819" lon="-72.40600937">
    <!-- conflict: "5431 U.S. Route 5, , VT" No match in OSM, but a different address exists <5m away: "5431 Route 5, Weathersfield, VT" -->
    <tag k="addr:housenumber" v="5431"/>
    <tag k="addr:street" v="U.S. Route 5"/>
    <tag k="addr:state" v="VT"/>
    <tag k="ref:vcgi:esiteid" v="276638"/>
  </node>
  <node id="-514" visible="true" lat="43.40716454" lon="-72.40728252">
    <!-- conflict: "5181 U.S. Route 5, , VT" No match in OSM, but a different address exists <5m away: "5181 US-5, Ascutney, VT" -->
    <tag k="addr:housenumber" v="5181"/>
    <tag k="addr:street" v="U.S. Route 5"/>
    <tag k="addr:state" v="VT"/>
    <tag k="ref:vcgi:esiteid" v="276744"/>
  </node>
  <node id="-517" visible="true" lat="43.40714638" lon="-72.50657557">
    <!-- conflict: "6569 Vermont Route 131, , VT" No match in OSM, but a different address exists <5m away: "6569 Vt Route 131, Weathersfield, VT" -->
    <tag k="addr:housenumber" v="6569"/>
    <tag k="addr:street" v="Vermont Route 131"/>
    <tag k="addr:state" v="VT"/>
    <tag k="ref:vcgi:esiteid" v="276747"/>
  </node>
  <node id="-533" visible="true" lat="43.40594629" lon="-72.40560491">
    <!-- conflict: "86 Vermont Route 12, , VT" No match in OSM, but a different address exists <5m away: "86 Vt Route 12, Weathersfield, VT" -->
    <tag k="addr:housenumber" v="86"/>
    <tag k="addr:street" v="Vermont Route 12"/>
    <tag k="addr:state" v="VT"/>
    <tag k="ref:vcgi:esiteid" v="276764"/>
  </node>
  <node id="-540" visible="true" lat="43.40565872" lon="-72.50594329">
    <!-- conflict: "6648 Vermont Route 131, , VT" No match in OSM, but a different address exists <5m away: "6648 Vt Route 131, Weathersfield, VT" -->
    <tag k="addr:housenumber" v="6648"/>
    <tag k="addr:street" v="Vermont Route 131"/>
    <tag k="addr:state" v="VT"/>
    <tag k="ref:vcgi:esiteid" v="276772"/>
  </node>
  <node id="-542" visible="true" lat="43.4056384" lon="-72.4048943">
    <!-- conflict: "120 Vermont Route 12, , VT" No match in OSM, but a different address exists <5m away: "120 Vt Route 12, Weathersfield, VT" -->
    <tag k="addr:housenumber" v="120"/>
    <tag k="addr:street" v="Vermont Route 12"/>
    <tag k="addr:state" v="VT"/>
    <tag k="ref:vcgi:esiteid" v="276774"/>
  </node>
  <node id="-554" visible="true" lat="43.40455053" lon="-72.50699315">
    <!-- conflict: "6741 Vermont Route 131, , VT" No match in OSM, but a different address exists <5m away: "6741 Vt Route 131, Weathersfield, VT" -->
    <tag k="addr:housenumber" v="6741"/>
    <tag k="addr:street" v="Vermont Route 131"/>
    <tag k="addr:state" v="VT"/>
    <tag k="ref:vcgi:esiteid" v="276786"/>
  </node>
  <node id="-568" visible="true" lat="43.4035761" lon="-72.50738697">
    <!-- conflict: "6801 Vermont Route 131, , VT" No match in OSM, but a different address exists <5m away: "6801 Vt Route 131, Weathersfield, VT" -->
    <tag k="addr:housenumber" v="6801"/>
    <tag k="addr:street" v="Vermont Route 131"/>
    <tag k="addr:state" v="VT"/>
    <tag k="ref:vcgi:esiteid" v="276800"/>
  </node>
  <node id="-569" visible="true" lat="43.40354397" lon="-72.5070532">
    <!-- conflict: "6800 Vermont Route 131, , VT" No match in OSM, but a different address exists <5m away: "6800 Vt Route 131, Weathersfield, VT" -->
    <tag k="addr:housenumber" v="6800"/>
    <tag k="addr:street" v="Vermont Route 131"/>
    <tag k="addr:state" v="VT"/>
    <tag k="ref:vcgi:esiteid" v="276801"/>
  </node>
  <node id="-582" visible="true" lat="43.40251746" lon="-72.50728339">
    <!-- conflict: "6870 Vermont Route 131, , VT" No match in OSM, but a different address exists <5m away: "6870 Vt Route 131, Weathersfield, VT" -->
    <tag k="addr:housenumber" v="6870"/>
    <tag k="addr:street" v="Vermont Route 131"/>
    <tag k="addr:state" v="VT"/>
    <tag k="ref:vcgi:esiteid" v="276815"/>
  </node>
  <node id="-606" visible="true" lat="43.40115938" lon="-72.51237759">
    <!-- conflict: "7197 Vermont Route 131, , VT" No match in OSM, but a different address exists <5m away: "7197 Vt Route 131, Weathersfield, VT" -->
    <tag k="addr:housenumber" v="7197"/>
    <tag k="addr:street" v="Vermont Route 131"/>
    <tag k="addr:state" v="VT"/>
    <tag k="ref:vcgi:esiteid" v="276839"/>
  </node>
  <node id="-613" visible="true" lat="43.40092368" lon="-72.51351282">
    <!-- conflict: "7259 Vermont Route 131, , VT" No match in OSM, but a different address exists <5m away: "7259 Vt Route 131, Weathersfield, VT" -->
    <tag k="addr:housenumber" v="7259"/>
    <tag k="addr:street" v="Vermont Route 131"/>
    <tag k="addr:state" v="VT"/>
    <tag k="ref:vcgi:esiteid" v="276846"/>
  </node>
  <node id="-617" visible="true" lat="43.40064239" lon="-72.51164245">
    <!-- conflict: "7164 Vermont Route 131, , VT" No match in OSM, but a different address exists <5m away: "7164 Vt Route 131, Weathersfield, VT" -->
    <tag k="addr:housenumber" v="7164"/>
    <tag k="addr:street" v="Vermont Route 131"/>
    <tag k="addr:state" v="VT"/>
    <tag k="ref:vcgi:esiteid" v="276850"/>
  </node>
  <node id="-618" visible="true" lat="43.40063476" lon="-72.51237487">
    <!-- conflict: "7206 Vermont Route 131, , VT" No match in OSM, but a different address exists <5m away: "7206 Vt Route 131, Weathersfield, VT" -->
    <tag k="addr:housenumber" v="7206"/>
    <tag k="addr:street" v="Vermont Route 131"/>
    <tag k="addr:state" v="VT"/>
    <tag k="ref:vcgi:esiteid" v="276851"/>
  </node>
  <node id="-622" visible="true" lat="43.40037253" lon="-72.51236751">
    <!-- conflict: "7212 Vermont Route 131, , VT" No match in OSM, but a different address exists <5m away: "7212 Vt Route 131, Weathersfield, VT" -->
    <tag k="addr:housenumber" v="7212"/>
    <tag k="addr:street" v="Vermont Route 131"/>
    <tag k="addr:state" v="VT"/>
    <tag k="ref:vcgi:esiteid" v="276855"/>
  </node>
  <node id="-630" visible="true" lat="43.39972292" lon="-72.51509141">
    <!-- conflict: "4276 Vermont Route 106, , VT" No match in OSM, but a different address exists <5m away: "4276 Vt Route 106, Weathersfield, VT" -->
    <tag k="addr:housenumber" v="4276"/>
    <tag k="addr:street" v="Vermont Route 106"/>
    <tag k="addr:state" v="VT"/>
    <tag k="ref:vcgi:esiteid" v="276864"/>
  </node>
  <node id="-631" visible="true" lat="43.3997116" lon="-72.51734924">
    <!-- conflict: "7469 Vermont Route 131, , VT" No match in OSM, but a different address exists <5m away: "7469 Vt Route 131, Weathersfield, VT" -->
    <tag k="addr:housenumber" v="7469"/>
    <tag k="addr:street" v="Vermont Route 131"/>
    <tag k="addr:state" v="VT"/>
    <tag k="ref:vcgi:esiteid" v="276865"/>
  </node>
  <node id="-637" visible="true" lat="43.39933451" lon="-72.51268428">
    <!-- conflict: "50 Elk Ridge, , VT" No match in OSM, but a different address exists <5m away: "7228 Vt Route 131, Weathersfield, VT" -->
    <tag k="addr:housenumber" v="50"/>
    <tag k="addr:street" v="Elk Ridge"/>
    <tag k="addr:state" v="VT"/>
    <tag k="ref:vcgi:esiteid" v="276875"/>
  </node>
  <node id="-647" visible="true" lat="43.39888381" lon="-72.51705169">
    <!-- conflict: "7452 Vermont Route 131, , VT" No match in OSM, but a different address exists <5m away: "7452 Vt Route 131, Weathersfield, VT" -->
    <tag k="addr:housenumber" v="7452"/>
    <tag k="addr:street" v="Vermont Route 131"/>
    <tag k="addr:state" v="VT"/>
    <tag k="ref:vcgi:esiteid" v="276890"/>
  </node>
  <node id="-659" visible="true" lat="43.39824676" lon="-72.51445007">
    <!-- conflict: "4173 Vermont Route 106, , VT" No match in OSM, but a different address exists <5m away: "4173 Vt Route 106, Weathersfield, VT" -->
    <tag k="addr:housenumber" v="4173"/>
    <tag k="addr:street" v="Vermont Route 106"/>
    <tag k="addr:state" v="VT"/>
    <tag k="ref:vcgi:esiteid" v="276902"/>
  </node>
  <node id="-663" visible="true" lat="43.39804077" lon="-72.51441192">
    <!-- conflict: "4159 Vermont Route 106, , VT" No match in OSM, but a different address exists <5m away: "4159 Vt Route 106, Weathersfield, VT" -->
    <tag k="addr:housenumber" v="4159"/>
    <tag k="addr:street" v="Vermont Route 106"/>
    <tag k="addr:state" v="VT"/>
    <tag k="ref:vcgi:esiteid" v="276906"/>
  </node>
  <node id="-814" visible="true" lat="43.37748342" lon="-72.50907664">
    <!-- conflict: "2666 Vermont Route 106, , VT" No match in OSM, but a different address exists <5m away: "2666 Vt Route 106, Weathersfield, VT" -->
    <tag k="addr:housenumber" v="2666"/>
    <tag k="addr:street" v="Vermont Route 106"/>
    <tag k="addr:state" v="VT"/>
    <tag k="ref:vcgi:esiteid" v="277059"/>
  </node>
  <node id="-817" visible="true" lat="43.37684815" lon="-72.50925303">
    <!-- conflict: "2602 Vermont Route 106, , VT" No match in OSM, but a different address exists <5m away: "2602 Vt Route 106, Weathersfield, VT" -->
    <tag k="addr:housenumber" v="2602"/>
    <tag k="addr:street" v="Vermont Route 106"/>
    <tag k="addr:state" v="VT"/>
    <tag k="ref:vcgi:esiteid" v="277062"/>
  </node>
  <node id="-832" visible="true" lat="43.37463672" lon="-72.50287628">
    <!-- conflict: "114 Oak Road, , VT" No match in OSM, but a different address exists <5m away: "646 Stoughton Pond Road, Weathersfield, VT" -->
    <tag k="addr:housenumber" v="114"/>
    <tag k="addr:street" v="Oak Road"/>
    <tag k="addr:state" v="VT"/>
    <tag k="ref:vcgi:esiteid" v="277077"/>
  </node>
  <node id="-853" visible="true" lat="43.37375072" lon="-72.50291762">
    <!-- conflict: "20 Oak Road, , VT" No match in OSM, but a different address exists <5m away: "554 Stoughton Pond Road, Weathersfield, VT" -->
    <tag k="addr:housenumber" v="20"/>
    <tag k="addr:street" v="Oak Road"/>
    <tag k="addr:state" v="VT"/>
    <tag k="ref:vcgi:esiteid" v="277099"/>
  </node>
  <node id="-865" visible="true" lat="43.37339401" lon="-72.50299835">
    <!-- conflict: "8 Oak Road, , VT" No match in OSM, but a different address exists <5m away: "542 Stoughton Pond Road, Weathersfield, VT" -->
    <tag k="addr:housenumber" v="8"/>
    <tag k="addr:street" v="Oak Road"/>
    <tag k="addr:state" v="VT"/>
    <tag k="ref:vcgi:esiteid" v="277111"/>
  </node>
  <node id="-953" visible="true" lat="43.36922212" lon="-72.51761228">
    <!-- conflict: "1862 Vermont Route 106, , VT" No match in OSM, but a different address exists <5m away: "1862 VT-106, Perkinsville, VT" -->
    <tag k="addr:housenumber" v="1862"/>
    <tag k="addr:street" v="Vermont Route 106"/>
    <tag k="addr:state" v="VT"/>
    <tag k="ref:vcgi:esiteid" v="277199"/>
  </node>
  <node id="-1019" visible="true" lat="43.36203007" lon="-72.52105356">
    <!-- conflict: "1342 Vermont Route 106, , VT" No match in OSM, but a different address exists <5m away: "1342 VT-106, Perkinsville, VT" -->
    <tag k="addr:housenumber" v="1342"/>
    <tag k="addr:street" v="Vermont Route 106"/>
    <tag k="addr:state" v="VT"/>
    <tag k="ref:vcgi:esiteid" v="277269"/>
  </node>
  <node id="-1114" visible="true" lat="43.35400413" lon="-72.40738051">
    <!-- conflict: "1102 U.S. Route 5, , VT" No match in OSM, but a different address exists <5m away: "1102 Route 5, Weathersfield, VT" -->
    <tag k="addr:housenumber" v="1102"/>
    <tag k="addr:street" v="U.S. Route 5"/>
    <tag k="addr:state" v="VT"/>
    <tag k="ref:vcgi:esiteid" v="277368"/>
  </node>
  <node id="-1284" visible="true" lat="43.34304761" lon="-72.48008728">
    <!-- conflict: "322 Stone Hill Farm Road, , VT" No match in OSM, but a different address exists <5m away: "322 Carley Road, Weathersfield, VT" -->
    <tag k="addr:housenumber" v="322"/>
    <tag k="addr:street" v="Stone Hill Farm Road"/>
    <tag k="addr:state" v="VT"/>
    <tag k="ref:vcgi:esiteid" v="277543"/>
  </node>
  <node id="-1383" visible="true" lat="43.3984309" lon="-72.51512468">
    <!-- conflict: "4192 Vermont Route 106, , VT" No match in OSM, but a different address exists <5m away: "4192 Vt Route 106, Weathersfield, VT" -->
    <tag k="addr:housenumber" v="4192"/>
    <tag k="addr:street" v="Vermont Route 106"/>
    <tag k="addr:state" v="VT"/>
    <tag k="ref:vcgi:esiteid" v="277642"/>
  </node>
  <node id="-1414" visible="true" lat="43.39989234" lon="-72.51882811">
    <!-- conflict: "7505 Vermont Route 131, , VT" No match in OSM, but a different address exists <5m away: "7505 Vt Route 131, Weathersfield, VT" -->
    <tag k="addr:housenumber" v="7505"/>
    <tag k="addr:street" v="Vermont Route 131"/>
    <tag k="addr:state" v="VT"/>
    <tag k="ref:vcgi:esiteid" v="277674"/>
  </node>
  <node id="-1464" visible="true" lat="43.40130864" lon="-72.41607604">
    <!-- conflict: "540 Vermont Route 131, , VT" No match in OSM, but a different address exists <5m away: "540 State Route 131, Ascutney, " -->
    <tag k="addr:housenumber" v="540"/>
    <tag k="addr:street" v="Vermont Route 131"/>
    <tag k="addr:state" v="VT"/>
    <tag k="ref:vcgi:esiteid" v="277726"/>
  </node>
  <node id="-1466" visible="true" lat="43.39870581" lon="-72.51640541">
    <!-- conflict: "4196 Vermont Route 106, , VT" No match in OSM, but a different address exists <5m away: "4196 Vt Route 106, Weathersfield, VT" -->
    <tag k="addr:housenumber" v="4196"/>
    <tag k="addr:street" v="Vermont Route 106"/>
    <tag k="addr:state" v="VT"/>
    <tag k="ref:vcgi:esiteid" v="277728"/>
  </node>
  <node id="-1559" visible="true" lat="43.39781135" lon="-72.51697837">
    <!-- conflict: "7470 Vermont Route 131, , VT" No match in OSM, but a different address exists <5m away: "7470 Vt Route 131, Weathersfield, VT" -->
    <tag k="addr:housenumber" v="7470"/>
    <tag k="addr:street" v="Vermont Route 131"/>
    <tag k="addr:state" v="VT"/>
    <tag k="ref:vcgi:esiteid" v="277822"/>
  </node>
  <node id="-1568" visible="true" lat="43.40445282" lon="-72.50704721">
    <!-- conflict: "6743 Vermont Route 131, , VT" No match in OSM, but a different address exists <5m away: "6743 Vt Route 131, Weathersfield, VT" -->
    <tag k="addr:housenumber" v="6743"/>
    <tag k="addr:street" v="Vermont Route 131"/>
    <tag k="addr:state" v="VT"/>
    <tag k="ref:vcgi:esiteid" v="277831"/>
  </node>
  <node id="-1602" visible="true" lat="43.40021731" lon="-72.51663196">
    <!-- conflict: "7409 Vermont Route 131, , VT" No match in OSM, but a different address exists <5m away: "7409 Vt Route 131, Weathersfield, VT" -->
    <tag k="addr:housenumber" v="7409"/>
    <tag k="addr:street" v="Vermont Route 131"/>
    <tag k="addr:state" v="VT"/>
    <tag k="ref:vcgi:esiteid" v="326700"/>
  </node>
</osm>
