<?xml version="1.0" encoding="UTF-8"?>
<osm version="0.6" generator="JOSM">
  <node id="-158" visible="true" lat="43.42377853" lon="-72.40106964">
    <tag k="addr:city" v="Weathersfield"/>
    <tag k="addr:housenumber" v="6377"/>
    <tag k="addr:street" v="U.S. Route 5"/>
    <tag k="addr:state" v="VT"/>
    <tag k="ref:vcgi:esiteid" v="276376"/>
  </node>
  <node id="-162" visible="true" lat="43.42354157" lon="-72.40272633">
    <tag k="addr:city" v="Weathersfield"/>
    <tag k="addr:housenumber" v="139"/>
    <tag k="addr:street" v="Running Bear Trail"/>
    <tag k="addr:state" v="VT"/>
    <tag k="ref:vcgi:esiteid" v="276380"/>
  </node>
  <node id="-164" visible="true" lat="43.42343521" lon="-72.40205383">
    <tag k="addr:city" v="Weathersfield"/>
    <tag k="addr:housenumber" v="69"/>
    <tag k="addr:street" v="Back Mountain Road"/>
    <tag k="addr:state" v="VT"/>
    <tag k="ref:vcgi:esiteid" v="276382"/>
  </node>
  <node id="-172" visible="true" lat="43.42247772" lon="-72.40272521">
    <tag k="addr:city" v="Weathersfield"/>
    <tag k="addr:housenumber" v="6248"/>
    <tag k="addr:street" v="U.S. Route 5"/>
    <tag k="addr:state" v="VT"/>
    <tag k="ref:vcgi:esiteid" v="276390"/>
  </node>
  <node id="-176" visible="true" lat="43.42188236" lon="-72.40423668">
    <tag k="addr:city" v="Weathersfield"/>
    <tag k="addr:housenumber" v="91"/>
    <tag k="addr:street" v="Country Pine Street"/>
    <tag k="addr:state" v="VT"/>
    <tag k="ref:vcgi:esiteid" v="276394"/>
  </node>
  <node id="-180" visible="true" lat="43.42169607" lon="-72.40429419">
    <tag k="addr:city" v="Weathersfield"/>
    <tag k="addr:housenumber" v="90"/>
    <tag k="addr:street" v="Country Pine Street"/>
    <tag k="addr:state" v="VT"/>
    <tag k="ref:vcgi:esiteid" v="276398"/>
  </node>
  <node id="-190" visible="true" lat="43.42112731" lon="-72.40281677">
    <tag k="addr:city" v="Weathersfield"/>
    <tag k="addr:housenumber" v="6176"/>
    <tag k="addr:street" v="U.S. Route 5"/>
    <tag k="addr:state" v="VT"/>
    <tag k="ref:vcgi:esiteid" v="276408"/>
  </node>
  <node id="-191" visible="true" lat="43.42102914" lon="-72.40548338">
    <tag k="addr:city" v="Weathersfield"/>
    <tag k="addr:housenumber" v="71"/>
    <tag k="addr:street" v="Country Skyline Boulevard"/>
    <tag k="addr:state" v="VT"/>
    <tag k="ref:vcgi:esiteid" v="276409"/>
  </node>
  <node id="-196" visible="true" lat="43.42010814" lon="-72.40329981">
    <tag k="addr:city" v="Weathersfield"/>
    <tag k="addr:housenumber" v="6106"/>
    <tag k="addr:street" v="U.S. Route 5"/>
    <tag k="addr:state" v="VT"/>
    <tag k="ref:vcgi:esiteid" v="276414"/>
  </node>
  <node id="-202" visible="true" lat="43.41950374" lon="-72.40729248">
    <tag k="addr:city" v="Weathersfield"/>
    <tag k="addr:housenumber" v="167"/>
    <tag k="addr:street" v="Thrasher Road"/>
    <tag k="addr:state" v="VT"/>
    <tag k="ref:vcgi:esiteid" v="276420"/>
  </node>
  <node id="-208" visible="true" lat="43.41936492" lon="-72.40370178">
    <tag k="addr:city" v="Weathersfield"/>
    <tag k="addr:housenumber" v="6046"/>
    <tag k="addr:street" v="U.S. Route 5"/>
    <tag k="addr:state" v="VT"/>
    <tag k="ref:vcgi:esiteid" v="276426"/>
  </node>
  <node id="-214" visible="true" lat="43.41919149" lon="-72.40225937">
    <tag k="addr:city" v="Weathersfield"/>
    <tag k="addr:housenumber" v="81"/>
    <tag k="addr:street" v="Red Maple Lane"/>
    <tag k="addr:state" v="VT"/>
    <tag k="ref:vcgi:esiteid" v="276432"/>
  </node>
  <node id="-215" visible="true" lat="43.41905975" lon="-72.40882873">
    <tag k="addr:city" v="Weathersfield"/>
    <tag k="addr:housenumber" v="253"/>
    <tag k="addr:street" v="Thrasher Road"/>
    <tag k="addr:state" v="VT"/>
    <tag k="ref:vcgi:esiteid" v="276433"/>
  </node>
  <node id="-216" visible="true" lat="43.41904334" lon="-72.40263476">
    <tag k="addr:city" v="Weathersfield"/>
    <tag k="addr:housenumber" v="6035"/>
    <tag k="addr:street" v="U.S. Route 5"/>
    <tag k="addr:state" v="VT"/>
    <tag k="ref:vcgi:esiteid" v="276434"/>
  </node>
  <node id="-224" visible="true" lat="43.41867446" lon="-72.40175628">
    <tag k="addr:city" v="Weathersfield"/>
    <tag k="addr:housenumber" v="61"/>
    <tag k="addr:street" v="Red Maple Lane"/>
    <tag k="addr:state" v="VT"/>
    <tag k="ref:vcgi:esiteid" v="276442"/>
  </node>
  <node id="-229" visible="true" lat="43.4184731" lon="-72.40326256">
    <tag k="addr:city" v="Weathersfield"/>
    <tag k="addr:housenumber" v="5991"/>
    <tag k="addr:street" v="U.S. Route 5"/>
    <tag k="addr:state" v="VT"/>
    <tag k="ref:vcgi:esiteid" v="276448"/>
  </node>
  <node id="-230" visible="true" lat="43.41833105" lon="-72.40172491">
    <tag k="addr:city" v="Weathersfield"/>
    <tag k="addr:housenumber" v="49"/>
    <tag k="addr:street" v="Red Maple Lane"/>
    <tag k="addr:state" v="VT"/>
    <tag k="ref:vcgi:esiteid" v="276449"/>
  </node>
  <node id="-244" visible="true" lat="43.41770935" lon="-72.40306854">
    <tag k="addr:city" v="Weathersfield"/>
    <tag k="addr:housenumber" v="17"/>
    <tag k="addr:street" v="Sunset Boulevard"/>
    <tag k="addr:state" v="VT"/>
    <tag k="ref:vcgi:esiteid" v="276463"/>
  </node>
  <node id="-245" visible="true" lat="43.41761513" lon="-72.40228925">
    <tag k="addr:city" v="Weathersfield"/>
    <tag k="addr:housenumber" v="85"/>
    <tag k="addr:street" v="Cherry Lane"/>
    <tag k="addr:state" v="VT"/>
    <tag k="ref:vcgi:esiteid" v="276464"/>
  </node>
  <node id="-247" visible="true" lat="43.4176712" lon="-72.41134643">
    <tag k="addr:city" v="Weathersfield"/>
    <tag k="addr:housenumber" v="293"/>
    <tag k="addr:street" v="Thrasher Road"/>
    <tag k="addr:state" v="VT"/>
    <tag k="ref:vcgi:esiteid" v="276466"/>
  </node>
  <node id="-253" visible="true" lat="43.41742302" lon="-72.40584354">
    <tag k="addr:city" v="Weathersfield"/>
    <tag k="addr:housenumber" v="91"/>
    <tag k="addr:street" v="Thrasher Road"/>
    <tag k="addr:state" v="VT"/>
    <tag k="ref:vcgi:esiteid" v="276472"/>
  </node>
  <node id="-254" visible="true" lat="43.41740417" lon="-72.40715026">
    <tag k="addr:city" v="Weathersfield"/>
    <tag k="addr:housenumber" v="155"/>
    <tag k="addr:street" v="Thrasher Road"/>
    <tag k="addr:state" v="VT"/>
    <tag k="ref:vcgi:esiteid" v="276473"/>
  </node>
  <node id="-258" visible="true" lat="43.4172554" lon="-72.40812683">
    <tag k="addr:city" v="Weathersfield"/>
    <tag k="addr:housenumber" v="203"/>
    <tag k="addr:street" v="Thrasher Road"/>
    <tag k="addr:state" v="VT"/>
    <tag k="ref:vcgi:esiteid" v="276477"/>
  </node>
  <node id="-259" visible="true" lat="43.41719436" lon="-72.40312194">
    <tag k="addr:city" v="Weathersfield"/>
    <tag k="addr:housenumber" v="53"/>
    <tag k="addr:street" v="Sunset Boulevard"/>
    <tag k="addr:state" v="VT"/>
    <tag k="ref:vcgi:esiteid" v="276478"/>
  </node>
  <node id="-261" visible="true" lat="43.4171524" lon="-72.40244293">
    <tag k="addr:city" v="Weathersfield"/>
    <tag k="addr:housenumber" v="56"/>
    <tag k="addr:street" v="Sunset Boulevard"/>
    <tag k="addr:state" v="VT"/>
    <tag k="ref:vcgi:esiteid" v="276480"/>
  </node>
  <node id="-269" visible="true" lat="43.4166395" lon="-72.40715173">
    <tag k="addr:city" v="Weathersfield"/>
    <tag k="addr:housenumber" v="170"/>
    <tag k="addr:street" v="Thrasher Road"/>
    <tag k="addr:state" v="VT"/>
    <tag k="ref:vcgi:esiteid" v="276488"/>
  </node>
  <node id="-272" visible="true" lat="43.41679763" lon="-72.41059112">
    <tag k="addr:city" v="Weathersfield"/>
    <tag k="addr:housenumber" v="331"/>
    <tag k="addr:street" v="Thrasher Road"/>
    <tag k="addr:state" v="VT"/>
    <tag k="ref:vcgi:esiteid" v="276491"/>
  </node>
  <node id="-296" visible="true" lat="43.41561126" lon="-72.40533447">
    <tag k="addr:city" v="Weathersfield"/>
    <tag k="addr:housenumber" v="5782"/>
    <tag k="addr:street" v="U.S. Route 5"/>
    <tag k="addr:state" v="VT"/>
    <tag k="ref:vcgi:esiteid" v="276515"/>
  </node>
  <node id="-303" visible="true" lat="43.4152839" lon="-72.40450875">
    <tag k="addr:city" v="Weathersfield"/>
    <tag k="addr:housenumber" v="5771"/>
    <tag k="addr:street" v="U.S. Route 5"/>
    <tag k="addr:state" v="VT"/>
    <tag k="ref:vcgi:esiteid" v="276522"/>
  </node>
  <node id="-305" visible="true" lat="43.41508001" lon="-72.40456703">
    <tag k="addr:city" v="Weathersfield"/>
    <tag k="addr:housenumber" v="5755"/>
    <tag k="addr:street" v="U.S. Route 5"/>
    <tag k="addr:state" v="VT"/>
    <tag k="ref:vcgi:esiteid" v="276524"/>
  </node>
  <node id="-306" visible="true" lat="43.41500473" lon="-72.40264129">
    <tag k="addr:city" v="Weathersfield"/>
    <tag k="addr:housenumber" v="199"/>
    <tag k="addr:street" v="Sunset Boulevard"/>
    <tag k="addr:state" v="VT"/>
    <tag k="ref:vcgi:esiteid" v="276525"/>
  </node>
  <node id="-309" visible="true" lat="43.41484832" lon="-72.40453338">
    <tag k="addr:city" v="Weathersfield"/>
    <tag k="addr:housenumber" v="5743"/>
    <tag k="addr:street" v="U.S. Route 5"/>
    <tag k="addr:state" v="VT"/>
    <tag k="ref:vcgi:esiteid" v="276528"/>
  </node>
  <node id="-314" visible="true" lat="43.41468042" lon="-72.40472615">
    <tag k="addr:city" v="Weathersfield"/>
    <tag k="addr:housenumber" v="5725"/>
    <tag k="addr:street" v="U.S. Route 5"/>
    <tag k="addr:state" v="VT"/>
    <tag k="ref:vcgi:esiteid" v="276533"/>
  </node>
  <node id="-315" visible="true" lat="43.41455564" lon="-72.40564944">
    <tag k="addr:city" v="Weathersfield"/>
    <tag k="addr:housenumber" v="5712"/>
    <tag k="addr:street" v="U.S. Route 5"/>
    <tag k="addr:state" v="VT"/>
    <tag k="ref:vcgi:esiteid" v="276534"/>
  </node>
  <node id="-316" visible="true" lat="43.41458892" lon="-72.40227508">
    <tag k="addr:city" v="Weathersfield"/>
    <tag k="addr:housenumber" v="231"/>
    <tag k="addr:street" v="Sunset Boulevard"/>
    <tag k="addr:state" v="VT"/>
    <tag k="ref:vcgi:esiteid" v="276535"/>
  </node>
  <node id="-320" visible="true" lat="43.41438421" lon="-72.4062226">
    <tag k="addr:city" v="Weathersfield"/>
    <tag k="addr:housenumber" v="5698"/>
    <tag k="addr:street" v="U.S. Route 5"/>
    <tag k="addr:state" v="VT"/>
    <tag k="ref:vcgi:esiteid" v="276539"/>
  </node>
  <node id="-324" visible="true" lat="43.41451724" lon="-72.40488412">
    <tag k="addr:city" v="Weathersfield"/>
    <tag k="addr:housenumber" v="20"/>
    <tag k="addr:street" v="Fire House Lane"/>
    <tag k="addr:state" v="VT"/>
    <tag k="ref:vcgi:esiteid" v="276543"/>
  </node>
  <node id="-325" visible="true" lat="43.41417266" lon="-72.40300799">
    <tag k="addr:city" v="Weathersfield"/>
    <tag k="addr:housenumber" v="55"/>
    <tag k="addr:street" v="Fire House Lane"/>
    <tag k="addr:state" v="VT"/>
    <tag k="ref:vcgi:esiteid" v="276544"/>
  </node>
  <node id="-326" visible="true" lat="43.41432952" lon="-72.40401458">
    <tag k="addr:city" v="Weathersfield"/>
    <tag k="addr:housenumber" v="60"/>
    <tag k="addr:street" v="Fire House Lane"/>
    <tag k="addr:state" v="VT"/>
    <tag k="ref:vcgi:esiteid" v="276545"/>
  </node>
  <node id="-328" visible="true" lat="43.41410642" lon="-72.40568559">
    <tag k="addr:city" v="Weathersfield"/>
    <tag k="addr:housenumber" v="5684"/>
    <tag k="addr:street" v="U.S. Route 5"/>
    <tag k="addr:state" v="VT"/>
    <tag k="ref:vcgi:esiteid" v="276547"/>
  </node>
  <node id="-330" visible="true" lat="43.41398438" lon="-72.40442219">
    <tag k="addr:city" v="Weathersfield"/>
    <tag k="addr:housenumber" v="47"/>
    <tag k="addr:street" v="Fire House Lane"/>
    <tag k="addr:state" v="VT"/>
    <tag k="ref:vcgi:esiteid" v="276549"/>
  </node>
  <node id="-336" visible="true" lat="43.4138169" lon="-72.40517134">
    <tag k="addr:city" v="Weathersfield"/>
    <tag k="addr:housenumber" v="5661"/>
    <tag k="addr:street" v="U.S. Route 5"/>
    <tag k="addr:state" v="VT"/>
    <tag k="ref:vcgi:esiteid" v="276555"/>
  </node>
  <node id="-337" visible="true" lat="43.41364571" lon="-72.40586877">
    <tag k="addr:city" v="Weathersfield"/>
    <tag k="addr:housenumber" v="5648"/>
    <tag k="addr:street" v="U.S. Route 5"/>
    <tag k="addr:state" v="VT"/>
    <tag k="ref:vcgi:esiteid" v="276556"/>
  </node>
  <node id="-346" visible="true" lat="43.41310084" lon="-72.40731634">
    <tag k="addr:city" v="Weathersfield"/>
    <tag k="addr:housenumber" v="65"/>
    <tag k="addr:street" v="Riley Drive"/>
    <tag k="addr:state" v="VT"/>
    <tag k="ref:vcgi:esiteid" v="276565"/>
  </node>
  <node id="-349" visible="true" lat="43.41294325" lon="-72.40632648">
    <tag k="addr:city" v="Weathersfield"/>
    <tag k="addr:housenumber" v="17"/>
    <tag k="addr:street" v="Riley Drive"/>
    <tag k="addr:state" v="VT"/>
    <tag k="ref:vcgi:esiteid" v="276568"/>
  </node>
  <node id="-356" visible="true" lat="43.41268157" lon="-72.40548706">
    <tag k="addr:city" v="Weathersfield"/>
    <tag k="addr:housenumber" v="5585"/>
    <tag k="addr:street" v="U.S. Route 5"/>
    <tag k="addr:state" v="VT"/>
    <tag k="ref:vcgi:esiteid" v="276575"/>
  </node>
  <node id="-360" visible="true" lat="43.41248271" lon="-72.40748509">
    <tag k="addr:city" v="Weathersfield"/>
    <tag k="addr:housenumber" v="82"/>
    <tag k="addr:street" v="Riley Drive"/>
    <tag k="addr:state" v="VT"/>
    <tag k="ref:vcgi:esiteid" v="276579"/>
  </node>
  <node id="-381" visible="true" lat="43.41152891" lon="-72.40796682">
    <tag k="addr:city" v="Weathersfield"/>
    <tag k="addr:housenumber" v="73"/>
    <tag k="addr:street" v="Schoolhouse Road"/>
    <tag k="addr:state" v="VT"/>
    <tag k="ref:vcgi:esiteid" v="276601"/>
  </node>
  <node id="-384" visible="true" lat="43.41159139" lon="-72.40876704">
    <tag k="addr:city" v="Weathersfield"/>
    <tag k="addr:housenumber" v="115"/>
    <tag k="addr:street" v="Schoolhouse Road"/>
    <tag k="addr:state" v="VT"/>
    <tag k="ref:vcgi:esiteid" v="276604"/>
  </node>
  <node id="-389" visible="true" lat="43.41137876" lon="-72.40999529">
    <tag k="addr:city" v="Weathersfield"/>
    <tag k="addr:housenumber" v="135"/>
    <tag k="addr:street" v="Schoolhouse Road"/>
    <tag k="addr:state" v="VT"/>
    <tag k="ref:vcgi:esiteid" v="276609"/>
  </node>
  <node id="-397" visible="true" lat="43.41107174" lon="-72.40743404">
    <tag k="addr:city" v="Weathersfield"/>
    <tag k="addr:housenumber" v="50"/>
    <tag k="addr:street" v="Schoolhouse Road"/>
    <tag k="addr:state" v="VT"/>
    <tag k="ref:vcgi:esiteid" v="276617"/>
  </node>
  <node id="-401" visible="true" lat="43.41094207" lon="-72.40806579">
    <tag k="addr:city" v="Weathersfield"/>
    <tag k="addr:housenumber" v="25"/>
    <tag k="addr:street" v="Martin Street"/>
    <tag k="addr:state" v="VT"/>
    <tag k="ref:vcgi:esiteid" v="276621"/>
  </node>
  <node id="-404" visible="true" lat="43.41088485" lon="-72.40458679">
    <tag k="addr:city" v="Weathersfield"/>
    <tag k="addr:housenumber" v="20"/>
    <tag k="addr:street" v="Turner Place"/>
    <tag k="addr:state" v="VT"/>
    <tag k="ref:vcgi:esiteid" v="276625"/>
  </node>
  <node id="-405" visible="true" lat="43.41091622" lon="-72.40892563">
    <tag k="addr:city" v="Weathersfield"/>
    <tag k="addr:housenumber" v="30"/>
    <tag k="addr:street" v="Jenness Road"/>
    <tag k="addr:state" v="VT"/>
    <tag k="ref:vcgi:esiteid" v="276626"/>
  </node>
  <node id="-407" visible="true" lat="43.41077229" lon="-72.40724701">
    <tag k="addr:city" v="Weathersfield"/>
    <tag k="addr:housenumber" v="34"/>
    <tag k="addr:street" v="Schoolhouse Road"/>
    <tag k="addr:state" v="VT"/>
    <tag k="ref:vcgi:esiteid" v="276628"/>
  </node>
  <node id="-410" visible="true" lat="43.41057842" lon="-72.4072928">
    <tag k="addr:city" v="Weathersfield"/>
    <tag k="addr:housenumber" v="5430"/>
    <tag k="addr:street" v="U.S. Route 5"/>
    <tag k="addr:state" v="VT"/>
    <tag k="ref:vcgi:esiteid" v="276632"/>
  </node>
  <node id="-416" visible="true" lat="43.41047819" lon="-72.40600937">
    <tag k="addr:city" v="Weathersfield"/>
    <tag k="addr:housenumber" v="5431"/>
    <tag k="addr:street" v="U.S. Route 5"/>
    <tag k="addr:state" v="VT"/>
    <tag k="ref:vcgi:esiteid" v="276638"/>
  </node>
  <node id="-418" visible="true" lat="43.41052439" lon="-72.40816741">
    <tag k="addr:city" v="Weathersfield"/>
    <tag k="addr:housenumber" v="55"/>
    <tag k="addr:street" v="Martin Street"/>
    <tag k="addr:state" v="VT"/>
    <tag k="ref:vcgi:esiteid" v="276640"/>
  </node>
  <node id="-420" visible="true" lat="43.41044998" lon="-72.40245818">
    <tag k="addr:city" v="Weathersfield"/>
    <tag k="addr:housenumber" v="211"/>
    <tag k="addr:street" v="Tillman Drive"/>
    <tag k="addr:state" v="VT"/>
    <tag k="ref:vcgi:esiteid" v="276642"/>
  </node>
  <node id="-422" visible="true" lat="43.41048516" lon="-72.40904007">
    <tag k="addr:city" v="Weathersfield"/>
    <tag k="addr:housenumber" v="56"/>
    <tag k="addr:street" v="Jenness Road"/>
    <tag k="addr:state" v="VT"/>
    <tag k="ref:vcgi:esiteid" v="276644"/>
  </node>
  <node id="-423" visible="true" lat="43.41034841" lon="-72.40736352">
    <tag k="addr:city" v="Weathersfield"/>
    <tag k="addr:housenumber" v="5410"/>
    <tag k="addr:street" v="U.S. Route 5"/>
    <tag k="addr:state" v="VT"/>
    <tag k="ref:vcgi:esiteid" v="276645"/>
  </node>
  <node id="-424" visible="true" lat="43.41039657" lon="-72.40462493">
    <tag k="addr:city" v="Weathersfield"/>
    <tag k="addr:housenumber" v="54"/>
    <tag k="addr:street" v="Turner Place"/>
    <tag k="addr:state" v="VT"/>
    <tag k="ref:vcgi:esiteid" v="276646"/>
  </node>
  <node id="-434" visible="true" lat="43.41008217" lon="-72.40913929">
    <tag k="addr:city" v="Weathersfield"/>
    <tag k="addr:housenumber" v="86"/>
    <tag k="addr:street" v="Jenness Road"/>
    <tag k="addr:state" v="VT"/>
    <tag k="ref:vcgi:esiteid" v="276656"/>
  </node>
  <node id="-435" visible="true" lat="43.40999603" lon="-72.40491485">
    <tag k="addr:city" v="Weathersfield"/>
    <tag k="addr:housenumber" v="90"/>
    <tag k="addr:street" v="Turner Place"/>
    <tag k="addr:state" v="VT"/>
    <tag k="ref:vcgi:esiteid" v="276658"/>
  </node>
  <node id="-439" visible="true" lat="43.40974426" lon="-72.40844726">
    <tag k="addr:city" v="Weathersfield"/>
    <tag k="addr:housenumber" v="101"/>
    <tag k="addr:street" v="Martin Street"/>
    <tag k="addr:state" v="VT"/>
    <tag k="ref:vcgi:esiteid" v="276664"/>
  </node>
  <node id="-440" visible="true" lat="43.40966415" lon="-72.40930175">
    <tag k="addr:city" v="Weathersfield"/>
    <tag k="addr:housenumber" v="90"/>
    <tag k="addr:street" v="Jenness Road"/>
    <tag k="addr:state" v="VT"/>
    <tag k="ref:vcgi:esiteid" v="276665"/>
  </node>
  <node id="-448" visible="true" lat="43.40950012" lon="-72.40676117">
    <tag k="addr:city" v="Weathersfield"/>
    <tag k="addr:housenumber" v="5357"/>
    <tag k="addr:street" v="U.S. Route 5"/>
    <tag k="addr:state" v="VT"/>
    <tag k="ref:vcgi:esiteid" v="276674"/>
  </node>
  <node id="-449" visible="true" lat="43.40942716" lon="-72.40952419">
    <tag k="addr:city" v="Weathersfield"/>
    <tag k="addr:housenumber" v="94"/>
    <tag k="addr:street" v="Village View Lane"/>
    <tag k="addr:state" v="VT"/>
    <tag k="ref:vcgi:esiteid" v="276676"/>
  </node>
  <node id="-453" visible="true" lat="43.409296" lon="-72.40955146">
    <tag k="addr:city" v="Weathersfield"/>
    <tag k="addr:housenumber" v="86"/>
    <tag k="addr:street" v="Village View Lane"/>
    <tag k="addr:state" v="VT"/>
    <tag k="ref:vcgi:esiteid" v="276680"/>
  </node>
  <node id="-454" visible="true" lat="43.40933369" lon="-72.40870223">
    <tag k="addr:city" v="Weathersfield"/>
    <tag k="addr:housenumber" v="125"/>
    <tag k="addr:street" v="Hastings Drive"/>
    <tag k="addr:state" v="VT"/>
    <tag k="ref:vcgi:esiteid" v="276681"/>
  </node>
  <node id="-455" visible="true" lat="43.40924453" lon="-72.40234374">
    <tag k="addr:city" v="Weathersfield"/>
    <tag k="addr:housenumber" v="250"/>
    <tag k="addr:street" v="Garden Way"/>
    <tag k="addr:state" v="VT"/>
    <tag k="ref:vcgi:esiteid" v="276682"/>
  </node>
  <node id="-456" visible="true" lat="43.40903835" lon="-72.40565291">
    <tag k="addr:city" v="Weathersfield"/>
    <tag k="addr:housenumber" v="81"/>
    <tag k="addr:street" v="Garden Way"/>
    <tag k="addr:state" v="VT"/>
    <tag k="ref:vcgi:esiteid" v="276683"/>
  </node>
  <node id="-457" visible="true" lat="43.40918828" lon="-72.40957541">
    <tag k="addr:city" v="Weathersfield"/>
    <tag k="addr:housenumber" v="78"/>
    <tag k="addr:street" v="Village View Lane"/>
    <tag k="addr:state" v="VT"/>
    <tag k="ref:vcgi:esiteid" v="276684"/>
  </node>
  <node id="-458" visible="true" lat="43.40924879" lon="-72.40871856">
    <tag k="addr:city" v="Weathersfield"/>
    <tag k="addr:housenumber" v="117"/>
    <tag k="addr:street" v="Hastings Drive"/>
    <tag k="addr:state" v="VT"/>
    <tag k="ref:vcgi:esiteid" v="276685"/>
  </node>
  <node id="-459" visible="true" lat="43.40915298" lon="-72.40872192">
    <tag k="addr:city" v="Weathersfield"/>
    <tag k="addr:housenumber" v="115"/>
    <tag k="addr:street" v="Hastings Drive"/>
    <tag k="addr:state" v="VT"/>
    <tag k="ref:vcgi:esiteid" v="276686"/>
  </node>
  <node id="-460" visible="true" lat="43.40905618" lon="-72.40958524">
    <tag k="addr:city" v="Weathersfield"/>
    <tag k="addr:housenumber" v="68"/>
    <tag k="addr:street" v="Village View Lane"/>
    <tag k="addr:state" v="VT"/>
    <tag k="ref:vcgi:esiteid" v="276687"/>
  </node>
  <node id="-461" visible="true" lat="43.40907287" lon="-72.40873718">
    <tag k="addr:city" v="Weathersfield"/>
    <tag k="addr:housenumber" v="109"/>
    <tag k="addr:street" v="Hastings Drive"/>
    <tag k="addr:state" v="VT"/>
    <tag k="ref:vcgi:esiteid" v="276688"/>
  </node>
  <node id="-462" visible="true" lat="43.40904235" lon="-72.41313171">
    <tag k="addr:city" v="Weathersfield"/>
    <tag k="addr:housenumber" v="267"/>
    <tag k="addr:street" v="Cemetery Road"/>
    <tag k="addr:state" v="VT"/>
    <tag k="ref:vcgi:esiteid" v="276690"/>
  </node>
  <node id="-464" visible="true" lat="43.40901184" lon="-72.4087677">
    <tag k="addr:city" v="Weathersfield"/>
    <tag k="addr:housenumber" v="105"/>
    <tag k="addr:street" v="Hastings Drive"/>
    <tag k="addr:state" v="VT"/>
    <tag k="ref:vcgi:esiteid" v="276692"/>
  </node>
  <node id="-466" visible="true" lat="43.40893979" lon="-72.40956674">
    <tag k="addr:city" v="Weathersfield"/>
    <tag k="addr:housenumber" v="60"/>
    <tag k="addr:street" v="Village View Lane"/>
    <tag k="addr:state" v="VT"/>
    <tag k="ref:vcgi:esiteid" v="276694"/>
  </node>
  <node id="-467" visible="true" lat="43.4089508" lon="-72.40697479">
    <tag k="addr:city" v="Weathersfield"/>
    <tag k="addr:housenumber" v="5317"/>
    <tag k="addr:street" v="U.S. Route 5"/>
    <tag k="addr:state" v="VT"/>
    <tag k="ref:vcgi:esiteid" v="276695"/>
  </node>
  <node id="-468" visible="true" lat="43.40893463" lon="-72.40881127">
    <tag k="addr:city" v="Weathersfield"/>
    <tag k="addr:housenumber" v="99"/>
    <tag k="addr:street" v="Hastings Drive"/>
    <tag k="addr:state" v="VT"/>
    <tag k="ref:vcgi:esiteid" v="276696"/>
  </node>
  <node id="-470" visible="true" lat="43.40884591" lon="-72.40880908">
    <tag k="addr:city" v="Weathersfield"/>
    <tag k="addr:housenumber" v="69"/>
    <tag k="addr:street" v="Hastings Drive"/>
    <tag k="addr:state" v="VT"/>
    <tag k="ref:vcgi:esiteid" v="276698"/>
  </node>
  <node id="-471" visible="true" lat="43.4087839" lon="-72.40769975">
    <tag k="addr:city" v="Weathersfield"/>
    <tag k="addr:housenumber" v="5302"/>
    <tag k="addr:street" v="U.S. Route 5"/>
    <tag k="addr:state" v="VT"/>
    <tag k="ref:vcgi:esiteid" v="276699"/>
  </node>
  <node id="-474" visible="true" lat="43.40856266" lon="-72.40239093">
    <tag k="addr:city" v="Weathersfield"/>
    <tag k="addr:housenumber" v="241"/>
    <tag k="addr:street" v="Garden Way"/>
    <tag k="addr:state" v="VT"/>
    <tag k="ref:vcgi:esiteid" v="276702"/>
  </node>
  <node id="-475" visible="true" lat="43.40867233" lon="-72.41254425">
    <tag k="addr:city" v="Weathersfield"/>
    <tag k="addr:housenumber" v="227"/>
    <tag k="addr:street" v="Cemetery Road"/>
    <tag k="addr:state" v="VT"/>
    <tag k="ref:vcgi:esiteid" v="276703"/>
  </node>
  <node id="-476" visible="true" lat="43.40864944" lon="-72.40707397">
    <tag k="addr:city" v="Weathersfield"/>
    <tag k="addr:housenumber" v="5295"/>
    <tag k="addr:street" v="U.S. Route 5"/>
    <tag k="addr:state" v="VT"/>
    <tag k="ref:vcgi:esiteid" v="276704"/>
  </node>
  <node id="-478" visible="true" lat="43.40858267" lon="-72.40888883">
    <tag k="addr:city" v="Weathersfield"/>
    <tag k="addr:housenumber" v="10"/>
    <tag k="addr:street" v="Village View Lane"/>
    <tag k="addr:state" v="VT"/>
    <tag k="ref:vcgi:esiteid" v="276706"/>
  </node>
  <node id="-480" visible="true" lat="43.40843521" lon="-72.40894188">
    <tag k="addr:city" v="Weathersfield"/>
    <tag k="addr:housenumber" v="14"/>
    <tag k="addr:street" v="Village View Lane"/>
    <tag k="addr:state" v="VT"/>
    <tag k="ref:vcgi:esiteid" v="276708"/>
  </node>
  <node id="-481" visible="true" lat="43.40849685" lon="-72.40646362">
    <tag k="addr:city" v="Weathersfield"/>
    <tag k="addr:housenumber" v="5285"/>
    <tag k="addr:street" v="U.S. Route 5"/>
    <tag k="addr:state" v="VT"/>
    <tag k="ref:vcgi:esiteid" v="276709"/>
  </node>
  <node id="-484" visible="true" lat="43.40829068" lon="-72.41323657">
    <tag k="addr:city" v="Weathersfield"/>
    <tag k="addr:housenumber" v="246"/>
    <tag k="addr:street" v="Cemetery Road"/>
    <tag k="addr:state" v="VT"/>
    <tag k="ref:vcgi:esiteid" v="276713"/>
  </node>
  <node id="-488" visible="true" lat="43.40819493" lon="-72.40788085">
    <tag k="addr:city" v="Weathersfield"/>
    <tag k="addr:housenumber" v="5268"/>
    <tag k="addr:street" v="U.S. Route 5"/>
    <tag k="addr:state" v="VT"/>
    <tag k="ref:vcgi:esiteid" v="276717"/>
  </node>
  <node id="-492" visible="true" lat="43.40816585" lon="-72.40707372">
    <tag k="addr:city" v="Weathersfield"/>
    <tag k="addr:housenumber" v="5259"/>
    <tag k="addr:street" v="U.S. Route 5"/>
    <tag k="addr:state" v="VT"/>
    <tag k="ref:vcgi:esiteid" v="276721"/>
  </node>
  <node id="-493" visible="true" lat="43.40804672" lon="-72.51081085">
    <tag k="addr:city" v="Weathersfield"/>
    <tag k="addr:housenumber" v="235"/>
    <tag k="addr:street" v="Amsden School Road"/>
    <tag k="addr:state" v="VT"/>
    <tag k="ref:vcgi:esiteid" v="276722"/>
  </node>
  <node id="-494" visible="true" lat="43.40792846" lon="-72.4072647">
    <tag k="addr:city" v="Weathersfield"/>
    <tag k="addr:housenumber" v="5243"/>
    <tag k="addr:street" v="U.S. Route 5"/>
    <tag k="addr:state" v="VT"/>
    <tag k="ref:vcgi:esiteid" v="276724"/>
  </node>
  <node id="-498" visible="true" lat="43.40789397" lon="-72.40813704">
    <tag k="addr:city" v="Weathersfield"/>
    <tag k="addr:housenumber" v="5236"/>
    <tag k="addr:street" v="U.S. Route 5"/>
    <tag k="addr:state" v="VT"/>
    <tag k="ref:vcgi:esiteid" v="276728"/>
  </node>
  <node id="-501" visible="true" lat="43.40772628" lon="-72.40727233">
    <tag k="addr:city" v="Weathersfield"/>
    <tag k="addr:housenumber" v="5231"/>
    <tag k="addr:street" v="U.S. Route 5"/>
    <tag k="addr:state" v="VT"/>
    <tag k="ref:vcgi:esiteid" v="276731"/>
  </node>
  <node id="-502" visible="true" lat="43.40747576" lon="-72.4081364">
    <tag k="addr:city" v="Weathersfield"/>
    <tag k="addr:housenumber" v="38"/>
    <tag k="addr:street" v="Ascutney Park Road"/>
    <tag k="addr:state" v="VT"/>
    <tag k="ref:vcgi:esiteid" v="276732"/>
  </node>
  <node id="-504" visible="true" lat="43.40752792" lon="-72.41196441">
    <tag k="addr:city" v="Weathersfield"/>
    <tag k="addr:housenumber" v="154"/>
    <tag k="addr:street" v="Cemetery Road"/>
    <tag k="addr:state" v="VT"/>
    <tag k="ref:vcgi:esiteid" v="276734"/>
  </node>
  <node id="-507" visible="true" lat="43.40737301" lon="-72.41248171">
    <tag k="addr:city" v="Weathersfield"/>
    <tag k="addr:housenumber" v="168"/>
    <tag k="addr:street" v="Cemetery Road"/>
    <tag k="addr:state" v="VT"/>
    <tag k="ref:vcgi:esiteid" v="276737"/>
  </node>
  <node id="-508" visible="true" lat="43.40742111" lon="-72.40723419">
    <tag k="addr:city" v="Weathersfield"/>
    <tag k="addr:housenumber" v="5207"/>
    <tag k="addr:street" v="U.S. Route 5"/>
    <tag k="addr:state" v="VT"/>
    <tag k="ref:vcgi:esiteid" v="276738"/>
  </node>
  <node id="-510" visible="true" lat="43.40738296" lon="-72.4070053">
    <tag k="addr:city" v="Weathersfield"/>
    <tag k="addr:housenumber" v="5209"/>
    <tag k="addr:street" v="U.S. Route 5"/>
    <tag k="addr:state" v="VT"/>
    <tag k="ref:vcgi:esiteid" v="276740"/>
  </node>
  <node id="-513" visible="true" lat="43.40719669" lon="-72.40800394">
    <tag k="addr:city" v="Weathersfield"/>
    <tag k="addr:housenumber" v="20"/>
    <tag k="addr:street" v="Ascutney Park Road"/>
    <tag k="addr:state" v="VT"/>
    <tag k="ref:vcgi:esiteid" v="276743"/>
  </node>
  <node id="-516" visible="true" lat="43.40701446" lon="-72.4080584">
    <tag k="addr:city" v="Weathersfield"/>
    <tag k="addr:housenumber" v="6"/>
    <tag k="addr:street" v="Ascutney Park Road"/>
    <tag k="addr:state" v="VT"/>
    <tag k="ref:vcgi:esiteid" v="276746"/>
  </node>
  <node id="-518" visible="true" lat="43.40700531" lon="-72.50862884">
    <tag k="addr:city" v="Weathersfield"/>
    <tag k="addr:housenumber" v="285"/>
    <tag k="addr:street" v="Amsden School Road"/>
    <tag k="addr:state" v="VT"/>
    <tag k="ref:vcgi:esiteid" v="276748"/>
  </node>
  <node id="-520" visible="true" lat="43.40681747" lon="-72.41045711">
    <tag k="addr:city" v="Weathersfield"/>
    <tag k="addr:housenumber" v="73"/>
    <tag k="addr:street" v="Cemetery Road"/>
    <tag k="addr:state" v="VT"/>
    <tag k="ref:vcgi:esiteid" v="276750"/>
  </node>
  <node id="-522" visible="true" lat="43.40682419" lon="-72.40716329">
    <tag k="addr:city" v="Weathersfield"/>
    <tag k="addr:housenumber" v="5157"/>
    <tag k="addr:street" v="U.S. Route 5"/>
    <tag k="addr:state" v="VT"/>
    <tag k="ref:vcgi:esiteid" v="276753"/>
  </node>
  <node id="-523" visible="true" lat="43.40671309" lon="-72.40918361">
    <tag k="addr:city" v="Weathersfield"/>
    <tag k="addr:housenumber" v="81"/>
    <tag k="addr:street" v="Ascutney Store Road"/>
    <tag k="addr:state" v="VT"/>
    <tag k="ref:vcgi:esiteid" v="276754"/>
  </node>
  <node id="-524" visible="true" lat="43.40665148" lon="-72.41119079">
    <tag k="addr:city" v="Weathersfield"/>
    <tag k="addr:housenumber" v="86"/>
    <tag k="addr:street" v="Cemetery Road"/>
    <tag k="addr:state" v="VT"/>
    <tag k="ref:vcgi:esiteid" v="276755"/>
  </node>
  <node id="-527" visible="true" lat="43.4066658" lon="-72.50780487">
    <tag k="addr:city" v="Weathersfield"/>
    <tag k="addr:housenumber" v="333"/>
    <tag k="addr:street" v="Amsden School Road"/>
    <tag k="addr:state" v="VT"/>
    <tag k="ref:vcgi:esiteid" v="276758"/>
  </node>
  <node id="-534" visible="true" lat="43.40570836" lon="-72.50666111">
    <tag k="addr:city" v="Weathersfield"/>
    <tag k="addr:housenumber" v="405"/>
    <tag k="addr:street" v="Amsden School Road"/>
    <tag k="addr:state" v="VT"/>
    <tag k="ref:vcgi:esiteid" v="276765"/>
  </node>
  <node id="-538" visible="true" lat="43.40569257" lon="-72.40654754">
    <tag k="addr:city" v="Weathersfield"/>
    <tag k="addr:housenumber" v="5087"/>
    <tag k="addr:street" v="U.S. Route 5"/>
    <tag k="addr:state" v="VT"/>
    <tag k="ref:vcgi:esiteid" v="276770"/>
  </node>
  <node id="-543" visible="true" lat="43.40552437" lon="-72.40647827">
    <tag k="addr:city" v="Weathersfield"/>
    <tag k="addr:housenumber" v="5075"/>
    <tag k="addr:street" v="U.S. Route 5"/>
    <tag k="addr:state" v="VT"/>
    <tag k="ref:vcgi:esiteid" v="276775"/>
  </node>
  <node id="-547" visible="true" lat="43.40542062" lon="-72.5056424">
    <tag k="addr:city" v="Weathersfield"/>
    <tag k="addr:housenumber" v="137"/>
    <tag k="addr:street" v="Amsden Hollow Road"/>
    <tag k="addr:state" v="VT"/>
    <tag k="ref:vcgi:esiteid" v="276779"/>
  </node>
  <node id="-548" visible="true" lat="43.40505599" lon="-72.40425109">
    <tag k="addr:city" v="Weathersfield"/>
    <tag k="addr:housenumber" v="24"/>
    <tag k="addr:street" v="Old Bridge Road"/>
    <tag k="addr:state" v="VT"/>
    <tag k="ref:vcgi:esiteid" v="276780"/>
  </node>
  <node id="-549" visible="true" lat="43.40489959" lon="-72.40380859">
    <tag k="addr:city" v="Weathersfield"/>
    <tag k="addr:housenumber" v="46"/>
    <tag k="addr:street" v="Old Bridge Road"/>
    <tag k="addr:state" v="VT"/>
    <tag k="ref:vcgi:esiteid" v="276781"/>
  </node>
  <node id="-555" visible="true" lat="43.40451822" lon="-72.50590891">
    <tag k="addr:city" v="Weathersfield"/>
    <tag k="addr:housenumber" v="89"/>
    <tag k="addr:street" v="Amsden Hollow Road"/>
    <tag k="addr:state" v="VT"/>
    <tag k="ref:vcgi:esiteid" v="276787"/>
  </node>
  <node id="-557" visible="true" lat="43.40438461" lon="-72.40237426">
    <tag k="addr:city" v="Weathersfield"/>
    <tag k="addr:housenumber" v="142"/>
    <tag k="addr:street" v="Old Bridge Road"/>
    <tag k="addr:state" v="VT"/>
    <tag k="ref:vcgi:esiteid" v="276789"/>
  </node>
  <node id="-558" visible="true" lat="43.40437295" lon="-72.5064664">
    <tag k="addr:city" v="Weathersfield"/>
    <tag k="addr:housenumber" v="62"/>
    <tag k="addr:street" v="Amsden Hollow Road"/>
    <tag k="addr:state" v="VT"/>
    <tag k="ref:vcgi:esiteid" v="276790"/>
  </node>
  <node id="-565" visible="true" lat="43.4037858" lon="-72.50653872">
    <tag k="addr:city" v="Weathersfield"/>
    <tag k="addr:housenumber" v="31"/>
    <tag k="addr:street" v="Amsden Hollow Road"/>
    <tag k="addr:state" v="VT"/>
    <tag k="ref:vcgi:esiteid" v="276797"/>
  </node>
  <node id="-573" visible="true" lat="43.40312194" lon="-72.40577697">
    <tag k="addr:city" v="Weathersfield"/>
    <tag k="addr:housenumber" v="4905"/>
    <tag k="addr:street" v="U.S. Route 5"/>
    <tag k="addr:state" v="VT"/>
    <tag k="ref:vcgi:esiteid" v="276806"/>
  </node>
  <node id="-574" visible="true" lat="43.40298526" lon="-72.41111925">
    <tag k="addr:city" v="Weathersfield"/>
    <tag k="addr:housenumber" v="220"/>
    <tag k="addr:street" v="Hidden Glen Road"/>
    <tag k="addr:state" v="VT"/>
    <tag k="ref:vcgi:esiteid" v="276807"/>
  </node>
  <node id="-575" visible="true" lat="43.40295028" lon="-72.40679168">
    <tag k="addr:city" v="Weathersfield"/>
    <tag k="addr:housenumber" v="24"/>
    <tag k="addr:street" v="Hidden Glen Road"/>
    <tag k="addr:state" v="VT"/>
    <tag k="ref:vcgi:esiteid" v="276808"/>
  </node>
  <node id="-587" visible="true" lat="43.4021759" lon="-72.41108703">
    <tag k="addr:city" v="Weathersfield"/>
    <tag k="addr:housenumber" v="156"/>
    <tag k="addr:street" v="Tenney Hill Road"/>
    <tag k="addr:state" v="VT"/>
    <tag k="ref:vcgi:esiteid" v="276820"/>
  </node>
  <node id="-596" visible="true" lat="43.40179443" lon="-72.41191101">
    <tag k="addr:city" v="Weathersfield"/>
    <tag k="addr:housenumber" v="167"/>
    <tag k="addr:street" v="Tenney Hill Road"/>
    <tag k="addr:state" v="VT"/>
    <tag k="ref:vcgi:esiteid" v="276829"/>
  </node>
  <node id="-602" visible="true" lat="43.40137481" lon="-72.40614318">
    <tag k="addr:city" v="Weathersfield"/>
    <tag k="addr:housenumber" v="4792"/>
    <tag k="addr:street" v="U.S. Route 5"/>
    <tag k="addr:state" v="VT"/>
    <tag k="ref:vcgi:esiteid" v="276835"/>
  </node>
  <node id="-626" visible="true" lat="43.4000028" lon="-72.41151167">
    <tag k="addr:city" v="Weathersfield"/>
    <tag k="addr:housenumber" v="305"/>
    <tag k="addr:street" v="Tenney Hill Road"/>
    <tag k="addr:state" v="VT"/>
    <tag k="ref:vcgi:esiteid" v="276860"/>
  </node>
  <node id="-636" visible="true" lat="43.39936828" lon="-72.41079711">
    <tag k="addr:city" v="Weathersfield"/>
    <tag k="addr:housenumber" v="412"/>
    <tag k="addr:street" v="Tenney Hill Road"/>
    <tag k="addr:state" v="VT"/>
    <tag k="ref:vcgi:esiteid" v="276874"/>
  </node>
  <node id="-639" visible="true" lat="43.39916373" lon="-72.41146377">
    <tag k="addr:city" v="Weathersfield"/>
    <tag k="addr:housenumber" v="353"/>
    <tag k="addr:street" v="Tenney Hill Road"/>
    <tag k="addr:state" v="VT"/>
    <tag k="ref:vcgi:esiteid" v="276880"/>
  </node>
  <node id="-644" visible="true" lat="43.39887618" lon="-72.41149902">
    <tag k="addr:city" v="Weathersfield"/>
    <tag k="addr:housenumber" v="381"/>
    <tag k="addr:street" v="Tenney Hill Road"/>
    <tag k="addr:state" v="VT"/>
    <tag k="ref:vcgi:esiteid" v="276887"/>
  </node>
  <node id="-661" visible="true" lat="43.39817428" lon="-72.41040039">
    <tag k="addr:city" v="Weathersfield"/>
    <tag k="addr:housenumber" v="38"/>
    <tag k="addr:street" v="Lawrence Farm Road"/>
    <tag k="addr:state" v="VT"/>
    <tag k="ref:vcgi:esiteid" v="276904"/>
  </node>
  <node id="-664" visible="true" lat="43.39790725" lon="-72.40921783">
    <tag k="addr:city" v="Weathersfield"/>
    <tag k="addr:housenumber" v="96"/>
    <tag k="addr:street" v="Lawrence Farm Road"/>
    <tag k="addr:state" v="VT"/>
    <tag k="ref:vcgi:esiteid" v="276907"/>
  </node>
  <node id="-665" visible="true" lat="43.39787674" lon="-72.51525116">
    <tag k="addr:city" v="Weathersfield"/>
    <tag k="addr:housenumber" v="35"/>
    <tag k="addr:street" v="Black River Road"/>
    <tag k="addr:state" v="VT"/>
    <tag k="ref:vcgi:esiteid" v="276908"/>
  </node>
  <node id="-671" visible="true" lat="43.39794429" lon="-72.40811863">
    <tag k="addr:city" v="Weathersfield"/>
    <tag k="addr:housenumber" v="160"/>
    <tag k="addr:street" v="Lawrence Farm Road"/>
    <tag k="addr:state" v="VT"/>
    <tag k="ref:vcgi:esiteid" v="276914"/>
  </node>
  <node id="-672" visible="true" lat="43.39760589" lon="-72.4099884">
    <tag k="addr:city" v="Weathersfield"/>
    <tag k="addr:housenumber" v="69"/>
    <tag k="addr:street" v="Lawrence Farm Road"/>
    <tag k="addr:state" v="VT"/>
    <tag k="ref:vcgi:esiteid" v="276915"/>
  </node>
  <node id="-676" visible="true" lat="43.39755249" lon="-72.51592254">
    <tag k="addr:city" v="Weathersfield"/>
    <tag k="addr:housenumber" v="48"/>
    <tag k="addr:street" v="Black River Road"/>
    <tag k="addr:state" v="VT"/>
    <tag k="ref:vcgi:esiteid" v="276919"/>
  </node>
  <node id="-677" visible="true" lat="43.39752813" lon="-72.40785532">
    <tag k="addr:city" v="Weathersfield"/>
    <tag k="addr:housenumber" v="162"/>
    <tag k="addr:street" v="Lawrence Farm Road"/>
    <tag k="addr:state" v="VT"/>
    <tag k="ref:vcgi:esiteid" v="276920"/>
  </node>
  <node id="-679" visible="true" lat="43.3972969" lon="-72.51544189">
    <tag k="addr:city" v="Weathersfield"/>
    <tag k="addr:housenumber" v="18"/>
    <tag k="addr:street" v="Black River Road"/>
    <tag k="addr:state" v="VT"/>
    <tag k="ref:vcgi:esiteid" v="276922"/>
  </node>
  <node id="-681" visible="true" lat="43.39721179" lon="-72.41047082">
    <tag k="addr:city" v="Weathersfield"/>
    <tag k="addr:housenumber" v="496"/>
    <tag k="addr:street" v="Tenney Hill Road"/>
    <tag k="addr:state" v="VT"/>
    <tag k="ref:vcgi:esiteid" v="276924"/>
  </node>
  <node id="-682" visible="true" lat="43.39720573" lon="-72.40853984">
    <tag k="addr:city" v="Weathersfield"/>
    <tag k="addr:housenumber" v="149"/>
    <tag k="addr:street" v="Lawrence Farm Road"/>
    <tag k="addr:state" v="VT"/>
    <tag k="ref:vcgi:esiteid" v="276925"/>
  </node>
  <node id="-683" visible="true" lat="43.39714612" lon="-72.40973675">
    <tag k="addr:city" v="Weathersfield"/>
    <tag k="addr:housenumber" v="836"/>
    <tag k="addr:street" v="Tenney Hill Road"/>
    <tag k="addr:state" v="VT"/>
    <tag k="ref:vcgi:esiteid" v="276926"/>
  </node>
  <node id="-684" visible="true" lat="43.39710235" lon="-72.41187286">
    <tag k="addr:city" v="Weathersfield"/>
    <tag k="addr:housenumber" v="507"/>
    <tag k="addr:street" v="Tenney Hill Road"/>
    <tag k="addr:state" v="VT"/>
    <tag k="ref:vcgi:esiteid" v="276927"/>
  </node>
  <node id="-690" visible="true" lat="43.39705527" lon="-72.4111983">
    <tag k="addr:city" v="Weathersfield"/>
    <tag k="addr:housenumber" v="514"/>
    <tag k="addr:street" v="Tenney Hill Road"/>
    <tag k="addr:state" v="VT"/>
    <tag k="ref:vcgi:esiteid" v="276933"/>
  </node>
  <node id="-695" visible="true" lat="43.39673802" lon="-72.41054737">
    <tag k="addr:city" v="Weathersfield"/>
    <tag k="addr:housenumber" v="522"/>
    <tag k="addr:street" v="Tenney Hill Road"/>
    <tag k="addr:state" v="VT"/>
    <tag k="ref:vcgi:esiteid" v="276938"/>
  </node>
  <node id="-698" visible="true" lat="43.39649804" lon="-72.4099101">
    <tag k="addr:city" v="Weathersfield"/>
    <tag k="addr:housenumber" v="804"/>
    <tag k="addr:street" v="Tenney Hill Road"/>
    <tag k="addr:state" v="VT"/>
    <tag k="ref:vcgi:esiteid" v="276941"/>
  </node>
  <node id="-825" visible="true" lat="43.37552464" lon="-72.50841033">
    <tag k="addr:city" v="Weathersfield"/>
    <tag k="addr:housenumber" v="2"/>
    <tag k="addr:street" v="Stoughton Pond Road"/>
    <tag k="addr:state" v="VT"/>
    <tag k="ref:vcgi:esiteid" v="277070"/>
  </node>
  <node id="-835" visible="true" lat="43.37453322" lon="-72.53837072">
    <tag k="addr:city" v="Weathersfield"/>
    <tag k="addr:housenumber" v="1147"/>
    <tag k="addr:street" v="Quarry Road"/>
    <tag k="addr:state" v="VT"/>
    <tag k="ref:vcgi:esiteid" v="277080"/>
  </node>
  <node id="-836" visible="true" lat="43.37450173" lon="-72.53882936">
    <tag k="addr:city" v="Weathersfield"/>
    <tag k="addr:housenumber" v="1161"/>
    <tag k="addr:street" v="Quarry Road"/>
    <tag k="addr:state" v="VT"/>
    <tag k="ref:vcgi:esiteid" v="277081"/>
  </node>
  <node id="-838" visible="true" lat="43.37446975" lon="-72.51134491">
    <tag k="addr:city" v="Weathersfield"/>
    <tag k="addr:housenumber" v="81"/>
    <tag k="addr:street" v="Stoughton Pond Road"/>
    <tag k="addr:state" v="VT"/>
    <tag k="ref:vcgi:esiteid" v="277083"/>
  </node>
  <node id="-841" visible="true" lat="43.37434009" lon="-72.53868739">
    <tag k="addr:city" v="Weathersfield"/>
    <tag k="addr:housenumber" v="1145"/>
    <tag k="addr:street" v="Quarry Road"/>
    <tag k="addr:state" v="VT"/>
    <tag k="ref:vcgi:esiteid" v="277086"/>
  </node>
  <node id="-843" visible="true" lat="43.37430191" lon="-72.50456237">
    <tag k="addr:city" v="Weathersfield"/>
    <tag k="addr:housenumber" v="133"/>
    <tag k="addr:street" v="Pine Hill Road"/>
    <tag k="addr:state" v="VT"/>
    <tag k="ref:vcgi:esiteid" v="277089"/>
  </node>
  <node id="-847" visible="true" lat="43.37409591" lon="-72.51150512">
    <tag k="addr:city" v="Weathersfield"/>
    <tag k="addr:housenumber" v="32"/>
    <tag k="addr:street" v="Mill Road"/>
    <tag k="addr:state" v="VT"/>
    <tag k="ref:vcgi:esiteid" v="277093"/>
  </node>
  <node id="-851" visible="true" lat="43.3738233" lon="-72.50397474">
    <tag k="addr:city" v="Weathersfield"/>
    <tag k="addr:housenumber" v="440"/>
    <tag k="addr:street" v="Stoughton Pond Road"/>
    <tag k="addr:state" v="VT"/>
    <tag k="ref:vcgi:esiteid" v="277097"/>
  </node>
  <node id="-856" visible="true" lat="43.37365155" lon="-72.50939639">
    <tag k="addr:city" v="Weathersfield"/>
    <tag k="addr:housenumber" v="154"/>
    <tag k="addr:street" v="Stoughton Pond Road"/>
    <tag k="addr:state" v="VT"/>
    <tag k="ref:vcgi:esiteid" v="277102"/>
  </node>
  <node id="-862" visible="true" lat="43.37350845" lon="-72.51197814">
    <tag k="addr:city" v="Weathersfield"/>
    <tag k="addr:housenumber" v="70"/>
    <tag k="addr:street" v="Mill Road"/>
    <tag k="addr:state" v="VT"/>
    <tag k="ref:vcgi:esiteid" v="277108"/>
  </node>
  <node id="-863" visible="true" lat="43.37341271" lon="-72.50971417">
    <tag k="addr:city" v="Weathersfield"/>
    <tag k="addr:housenumber" v="143"/>
    <tag k="addr:street" v="Stoughton Pond Road"/>
    <tag k="addr:state" v="VT"/>
    <tag k="ref:vcgi:esiteid" v="277109"/>
  </node>
  <node id="-866" visible="true" lat="43.37338638" lon="-72.50168609">
    <tag k="addr:city" v="Weathersfield"/>
    <tag k="addr:housenumber" v="571"/>
    <tag k="addr:street" v="Stoughton Pond Road"/>
    <tag k="addr:state" v="VT"/>
    <tag k="ref:vcgi:esiteid" v="277112"/>
  </node>
  <node id="-869" visible="true" lat="43.37308996" lon="-72.50707865">
    <tag k="addr:city" v="Weathersfield"/>
    <tag k="addr:housenumber" v="276"/>
    <tag k="addr:street" v="Stoughton Pond Road"/>
    <tag k="addr:state" v="VT"/>
    <tag k="ref:vcgi:esiteid" v="277115"/>
  </node>
  <node id="-873" visible="true" lat="43.37300911" lon="-72.50640035">
    <tag k="addr:city" v="Weathersfield"/>
    <tag k="addr:housenumber" v="306"/>
    <tag k="addr:street" v="Stoughton Pond Road"/>
    <tag k="addr:state" v="VT"/>
    <tag k="ref:vcgi:esiteid" v="277119"/>
  </node>
  <node id="-874" visible="true" lat="43.37298583" lon="-72.51204681">
    <tag k="addr:city" v="Weathersfield"/>
    <tag k="addr:housenumber" v="104"/>
    <tag k="addr:street" v="Mill Road"/>
    <tag k="addr:state" v="VT"/>
    <tag k="ref:vcgi:esiteid" v="277120"/>
  </node>
  <node id="-875" visible="true" lat="43.37290518" lon="-72.50487358">
    <tag k="addr:city" v="Weathersfield"/>
    <tag k="addr:housenumber" v="384"/>
    <tag k="addr:street" v="Stoughton Pond Road"/>
    <tag k="addr:state" v="VT"/>
    <tag k="ref:vcgi:esiteid" v="277121"/>
  </node>
  <node id="-876" visible="true" lat="43.37280386" lon="-72.50580561">
    <tag k="addr:city" v="Weathersfield"/>
    <tag k="addr:housenumber" v="336"/>
    <tag k="addr:street" v="Stoughton Pond Road"/>
    <tag k="addr:state" v="VT"/>
    <tag k="ref:vcgi:esiteid" v="277122"/>
  </node>
  <node id="-878" visible="true" lat="43.37274932" lon="-72.50776672">
    <tag k="addr:city" v="Weathersfield"/>
    <tag k="addr:housenumber" v="251"/>
    <tag k="addr:street" v="Stoughton Pond Road"/>
    <tag k="addr:state" v="VT"/>
    <tag k="ref:vcgi:esiteid" v="277124"/>
  </node>
  <node id="-880" visible="true" lat="43.37264419" lon="-72.50354447">
    <tag k="addr:city" v="Weathersfield"/>
    <tag k="addr:housenumber" v="464"/>
    <tag k="addr:street" v="Stoughton Pond Road"/>
    <tag k="addr:state" v="VT"/>
    <tag k="ref:vcgi:esiteid" v="277126"/>
  </node>
  <node id="-886" visible="true" lat="43.37241661" lon="-72.50637587">
    <tag k="addr:city" v="Weathersfield"/>
    <tag k="addr:housenumber" v="327"/>
    <tag k="addr:street" v="Stoughton Pond Road"/>
    <tag k="addr:state" v="VT"/>
    <tag k="ref:vcgi:esiteid" v="277132"/>
  </node>
  <node id="-887" visible="true" lat="43.372406" lon="-72.50106811">
    <tag k="addr:city" v="Weathersfield"/>
    <tag k="addr:housenumber" v="501"/>
    <tag k="addr:street" v="Stoughton Pond Road"/>
    <tag k="addr:state" v="VT"/>
    <tag k="ref:vcgi:esiteid" v="277133"/>
  </node>
  <node id="-890" visible="true" lat="43.37225723" lon="-72.50526428">
    <tag k="addr:city" v="Weathersfield"/>
    <tag k="addr:housenumber" v="379"/>
    <tag k="addr:street" v="Stoughton Pond Road"/>
    <tag k="addr:state" v="VT"/>
    <tag k="ref:vcgi:esiteid" v="277136"/>
  </node>
  <node id="-891" visible="true" lat="43.37214839" lon="-72.50091623">
    <tag k="addr:city" v="Weathersfield"/>
    <tag k="addr:housenumber" v="503"/>
    <tag k="addr:street" v="Stoughton Pond Road"/>
    <tag k="addr:state" v="VT"/>
    <tag k="ref:vcgi:esiteid" v="277137"/>
  </node>
  <node id="-914" visible="true" lat="43.37114334" lon="-72.50215148">
    <tag k="addr:city" v="Weathersfield"/>
    <tag k="addr:housenumber" v="483"/>
    <tag k="addr:street" v="Stoughton Pond Road"/>
    <tag k="addr:state" v="VT"/>
    <tag k="ref:vcgi:esiteid" v="277160"/>
  </node>
  <node id="-929" visible="true" lat="43.37022687" lon="-72.46180407">
    <tag k="addr:city" v="Weathersfield"/>
    <tag k="addr:housenumber" v="2540"/>
    <tag k="addr:street" v="Skyline Drive"/>
    <tag k="addr:state" v="VT"/>
    <tag k="ref:vcgi:esiteid" v="277175"/>
  </node>
  <node id="-935" visible="true" lat="43.36997386" lon="-72.45845912">
    <tag k="addr:city" v="Weathersfield"/>
    <tag k="addr:housenumber" v="815"/>
    <tag k="addr:street" v="Meadow Lane"/>
    <tag k="addr:state" v="VT"/>
    <tag k="ref:vcgi:esiteid" v="277181"/>
  </node>
  <node id="-943" visible="true" lat="43.36954388" lon="-72.46281331">
    <tag k="addr:city" v="Weathersfield"/>
    <tag k="addr:housenumber" v="22"/>
    <tag k="addr:street" v="Meadow Lane"/>
    <tag k="addr:state" v="VT"/>
    <tag k="ref:vcgi:esiteid" v="277189"/>
  </node>
  <node id="-952" visible="true" lat="43.36916448" lon="-72.46337324">
    <tag k="addr:city" v="Weathersfield"/>
    <tag k="addr:housenumber" v="19"/>
    <tag k="addr:street" v="Meadow Lane"/>
    <tag k="addr:state" v="VT"/>
    <tag k="ref:vcgi:esiteid" v="277198"/>
  </node>
  <node id="-954" visible="true" lat="43.36873781" lon="-72.45916253">
    <tag k="addr:city" v="Weathersfield"/>
    <tag k="addr:housenumber" v="713"/>
    <tag k="addr:street" v="Meadow Lane"/>
    <tag k="addr:state" v="VT"/>
    <tag k="ref:vcgi:esiteid" v="277200"/>
  </node>
  <node id="-955" visible="true" lat="43.36869382" lon="-72.46195221">
    <tag k="addr:city" v="Weathersfield"/>
    <tag k="addr:housenumber" v="84"/>
    <tag k="addr:street" v="Meadow Lane"/>
    <tag k="addr:state" v="VT"/>
    <tag k="ref:vcgi:esiteid" v="277201"/>
  </node>
  <node id="-957" visible="true" lat="43.36857938" lon="-72.45641326">
    <tag k="addr:city" v="Weathersfield"/>
    <tag k="addr:housenumber" v="2106"/>
    <tag k="addr:street" v="Skyline Drive"/>
    <tag k="addr:state" v="VT"/>
    <tag k="ref:vcgi:esiteid" v="277203"/>
  </node>
  <node id="-959" visible="true" lat="43.36851839" lon="-72.46277608">
    <tag k="addr:city" v="Weathersfield"/>
    <tag k="addr:housenumber" v="87"/>
    <tag k="addr:street" v="Meadow Lane"/>
    <tag k="addr:state" v="VT"/>
    <tag k="ref:vcgi:esiteid" v="277205"/>
  </node>
  <node id="-968" visible="true" lat="43.36789655" lon="-72.46205902">
    <tag k="addr:city" v="Weathersfield"/>
    <tag k="addr:housenumber" v="132"/>
    <tag k="addr:street" v="Meadow Lane"/>
    <tag k="addr:state" v="VT"/>
    <tag k="ref:vcgi:esiteid" v="277214"/>
  </node>
  <node id="-969" visible="true" lat="43.3678131" lon="-72.5094757">
    <tag k="addr:city" v="Weathersfield"/>
    <tag k="addr:housenumber" v="412"/>
    <tag k="addr:street" v="Maple Street"/>
    <tag k="addr:state" v="VT"/>
    <tag k="ref:vcgi:esiteid" v="277215"/>
  </node>
  <node id="-970" visible="true" lat="43.36779403" lon="-72.51105499">
    <tag k="addr:city" v="Weathersfield"/>
    <tag k="addr:housenumber" v="339"/>
    <tag k="addr:street" v="Maple Street"/>
    <tag k="addr:state" v="VT"/>
    <tag k="ref:vcgi:esiteid" v="277216"/>
  </node>
  <node id="-972" visible="true" lat="43.36763194" lon="-72.46275344">
    <tag k="addr:city" v="Weathersfield"/>
    <tag k="addr:housenumber" v="153"/>
    <tag k="addr:street" v="Meadow Lane"/>
    <tag k="addr:state" v="VT"/>
    <tag k="ref:vcgi:esiteid" v="277218"/>
  </node>
  <node id="-974" visible="true" lat="43.36739842" lon="-72.45194211">
    <tag k="addr:city" v="Weathersfield"/>
    <tag k="addr:housenumber" v="262"/>
    <tag k="addr:street" v="Cooks Pond Road"/>
    <tag k="addr:state" v="VT"/>
    <tag k="ref:vcgi:esiteid" v="277220"/>
  </node>
  <node id="-976" visible="true" lat="43.36733111" lon="-72.46222243">
    <tag k="addr:city" v="Weathersfield"/>
    <tag k="addr:housenumber" v="170"/>
    <tag k="addr:street" v="Meadow Lane"/>
    <tag k="addr:state" v="VT"/>
    <tag k="ref:vcgi:esiteid" v="277222"/>
  </node>
  <node id="-978" visible="true" lat="43.36721372" lon="-72.45584106">
    <tag k="addr:city" v="Weathersfield"/>
    <tag k="addr:housenumber" v="1906"/>
    <tag k="addr:street" v="Skyline Drive"/>
    <tag k="addr:state" v="VT"/>
    <tag k="ref:vcgi:esiteid" v="277224"/>
  </node>
  <node id="-979" visible="true" lat="43.36698532" lon="-72.50888824">
    <tag k="addr:city" v="Weathersfield"/>
    <tag k="addr:housenumber" v="465"/>
    <tag k="addr:street" v="Maple Street"/>
    <tag k="addr:state" v="VT"/>
    <tag k="ref:vcgi:esiteid" v="277225"/>
  </node>
  <node id="-982" visible="true" lat="43.36651611" lon="-72.50783538">
    <tag k="addr:city" v="Weathersfield"/>
    <tag k="addr:housenumber" v="529"/>
    <tag k="addr:street" v="Maple Street"/>
    <tag k="addr:state" v="VT"/>
    <tag k="ref:vcgi:esiteid" v="277228"/>
  </node>
  <node id="-984" visible="true" lat="43.36624908" lon="-72.50679779">
    <tag k="addr:city" v="Weathersfield"/>
    <tag k="addr:housenumber" v="581"/>
    <tag k="addr:street" v="Maple Street"/>
    <tag k="addr:state" v="VT"/>
    <tag k="ref:vcgi:esiteid" v="277230"/>
  </node>
  <node id="-985" visible="true" lat="43.36616134" lon="-72.50516509">
    <tag k="addr:city" v="Weathersfield"/>
    <tag k="addr:housenumber" v="660"/>
    <tag k="addr:street" v="Maple Street"/>
    <tag k="addr:state" v="VT"/>
    <tag k="ref:vcgi:esiteid" v="277231"/>
  </node>
  <node id="-987" visible="true" lat="43.36573028" lon="-72.50305938">
    <tag k="addr:city" v="Weathersfield"/>
    <tag k="addr:housenumber" v="766"/>
    <tag k="addr:street" v="Maple Street"/>
    <tag k="addr:state" v="VT"/>
    <tag k="ref:vcgi:esiteid" v="277235"/>
  </node>
  <node id="-989" visible="true" lat="43.3650517" lon="-72.50477915">
    <tag k="addr:city" v="Weathersfield"/>
    <tag k="addr:housenumber" v="703"/>
    <tag k="addr:street" v="Maple Street"/>
    <tag k="addr:state" v="VT"/>
    <tag k="ref:vcgi:esiteid" v="277237"/>
  </node>
  <node id="-992" visible="true" lat="43.36513603" lon="-72.45104024">
    <tag k="addr:city" v="Weathersfield"/>
    <tag k="addr:housenumber" v="103"/>
    <tag k="addr:street" v="Cooks Pond Road"/>
    <tag k="addr:state" v="VT"/>
    <tag k="ref:vcgi:esiteid" v="277240"/>
  </node>
  <node id="-993" visible="true" lat="43.36506223" lon="-72.4536972">
    <tag k="addr:city" v="Weathersfield"/>
    <tag k="addr:housenumber" v="1760"/>
    <tag k="addr:street" v="Skyline Drive"/>
    <tag k="addr:state" v="VT"/>
    <tag k="ref:vcgi:esiteid" v="277241"/>
  </node>
  <node id="-994" visible="true" lat="43.36484479" lon="-72.45233154">
    <tag k="addr:city" v="Weathersfield"/>
    <tag k="addr:housenumber" v="78"/>
    <tag k="addr:street" v="Cooks Pond Road"/>
    <tag k="addr:state" v="VT"/>
    <tag k="ref:vcgi:esiteid" v="277242"/>
  </node>
  <node id="-997" visible="true" lat="43.3647364" lon="-72.50238265">
    <tag k="addr:city" v="Weathersfield"/>
    <tag k="addr:housenumber" v="10"/>
    <tag k="addr:street" v="Drumlin Road"/>
    <tag k="addr:state" v="VT"/>
    <tag k="ref:vcgi:esiteid" v="277245"/>
  </node>
  <node id="-1000" visible="true" lat="43.36416715" lon="-72.45109599">
    <tag k="addr:city" v="Weathersfield"/>
    <tag k="addr:housenumber" v="37"/>
    <tag k="addr:street" v="Cooks Pond Road"/>
    <tag k="addr:state" v="VT"/>
    <tag k="ref:vcgi:esiteid" v="277249"/>
  </node>
  <node id="-1003" visible="true" lat="43.36361264" lon="-72.45298004">
    <tag k="addr:city" v="Weathersfield"/>
    <tag k="addr:housenumber" v="1672"/>
    <tag k="addr:street" v="Skyline Drive"/>
    <tag k="addr:state" v="VT"/>
    <tag k="ref:vcgi:esiteid" v="277253"/>
  </node>
  <node id="-1010" visible="true" lat="43.36281156" lon="-72.45339965">
    <tag k="addr:city" v="Weathersfield"/>
    <tag k="addr:housenumber" v="1646"/>
    <tag k="addr:street" v="Skyline Drive"/>
    <tag k="addr:state" v="VT"/>
    <tag k="ref:vcgi:esiteid" v="277260"/>
  </node>
  <node id="-1014" visible="true" lat="43.36266026" lon="-72.504496">
    <tag k="addr:city" v="Weathersfield"/>
    <tag k="addr:housenumber" v="237"/>
    <tag k="addr:street" v="Drumlin Road"/>
    <tag k="addr:state" v="VT"/>
    <tag k="ref:vcgi:esiteid" v="277264"/>
  </node>
  <node id="-1015" visible="true" lat="43.36249494" lon="-72.45001983">
    <tag k="addr:city" v="Weathersfield"/>
    <tag k="addr:housenumber" v="1513"/>
    <tag k="addr:street" v="Skyline Drive"/>
    <tag k="addr:state" v="VT"/>
    <tag k="ref:vcgi:esiteid" v="277265"/>
  </node>
  <node id="-1022" visible="true" lat="43.36178159" lon="-72.45133209">
    <tag k="addr:city" v="Weathersfield"/>
    <tag k="addr:housenumber" v="1572"/>
    <tag k="addr:street" v="Skyline Drive"/>
    <tag k="addr:state" v="VT"/>
    <tag k="ref:vcgi:esiteid" v="277272"/>
  </node>
  <node id="-1024" visible="true" lat="43.36180011" lon="-72.4435795">
    <tag k="addr:city" v="Weathersfield"/>
    <tag k="addr:housenumber" v="420"/>
    <tag k="addr:street" v="Divoll Pasture Road"/>
    <tag k="addr:state" v="VT"/>
    <tag k="ref:vcgi:esiteid" v="277274"/>
  </node>
  <node id="-1027" visible="true" lat="43.36142504" lon="-72.44246501">
    <tag k="addr:city" v="Weathersfield"/>
    <tag k="addr:housenumber" v="403"/>
    <tag k="addr:street" v="Divoll Pasture Road"/>
    <tag k="addr:state" v="VT"/>
    <tag k="ref:vcgi:esiteid" v="277277"/>
  </node>
  <node id="-1037" visible="true" lat="43.36037015" lon="-72.45000457">
    <tag k="addr:city" v="Weathersfield"/>
    <tag k="addr:housenumber" v="1376"/>
    <tag k="addr:street" v="Skyline Drive"/>
    <tag k="addr:state" v="VT"/>
    <tag k="ref:vcgi:esiteid" v="277287"/>
  </node>
  <node id="-1040" visible="true" lat="43.36001157" lon="-72.4490509">
    <tag k="addr:city" v="Weathersfield"/>
    <tag k="addr:housenumber" v="1337"/>
    <tag k="addr:street" v="Skyline Drive"/>
    <tag k="addr:state" v="VT"/>
    <tag k="ref:vcgi:esiteid" v="277290"/>
  </node>
  <node id="-1045" visible="true" lat="43.35962485" lon="-72.44374701">
    <tag k="addr:city" v="Weathersfield"/>
    <tag k="addr:housenumber" v="268"/>
    <tag k="addr:street" v="Divoll Pasture Road"/>
    <tag k="addr:state" v="VT"/>
    <tag k="ref:vcgi:esiteid" v="277295"/>
  </node>
  <node id="-1048" visible="true" lat="43.3591501" lon="-72.44277737">
    <tag k="addr:city" v="Weathersfield"/>
    <tag k="addr:housenumber" v="237"/>
    <tag k="addr:street" v="Divoll Pasture Road"/>
    <tag k="addr:state" v="VT"/>
    <tag k="ref:vcgi:esiteid" v="277298"/>
  </node>
  <node id="-1051" visible="true" lat="43.35873365" lon="-72.44344329">
    <tag k="addr:city" v="Weathersfield"/>
    <tag k="addr:housenumber" v="214"/>
    <tag k="addr:street" v="Divoll Pasture Road"/>
    <tag k="addr:state" v="VT"/>
    <tag k="ref:vcgi:esiteid" v="277301"/>
  </node>
  <node id="-1056" visible="true" lat="43.35834073" lon="-72.44926452">
    <tag k="addr:city" v="Weathersfield"/>
    <tag k="addr:housenumber" v="1230"/>
    <tag k="addr:street" v="Skyline Drive"/>
    <tag k="addr:state" v="VT"/>
    <tag k="ref:vcgi:esiteid" v="277306"/>
  </node>
  <node id="-1063" visible="true" lat="43.35780286" lon="-72.44274902">
    <tag k="addr:city" v="Weathersfield"/>
    <tag k="addr:housenumber" v="151"/>
    <tag k="addr:street" v="Divoll Pasture Road"/>
    <tag k="addr:state" v="VT"/>
    <tag k="ref:vcgi:esiteid" v="277313"/>
  </node>
  <node id="-1065" visible="true" lat="43.35768461" lon="-72.44363403">
    <tag k="addr:city" v="Weathersfield"/>
    <tag k="addr:housenumber" v="136"/>
    <tag k="addr:street" v="Divoll Pasture Road"/>
    <tag k="addr:state" v="VT"/>
    <tag k="ref:vcgi:esiteid" v="277315"/>
  </node>
  <node id="-1068" visible="true" lat="43.35699677" lon="-72.54265202">
    <tag k="addr:city" v="Weathersfield"/>
    <tag k="addr:housenumber" v="1020"/>
    <tag k="addr:street" v="Baltimore Road"/>
    <tag k="addr:state" v="VT"/>
    <tag k="ref:vcgi:esiteid" v="277318"/>
  </node>
  <node id="-1082" visible="true" lat="43.35590696" lon="-72.43980407">
    <tag k="addr:city" v="Weathersfield"/>
    <tag k="addr:housenumber" v="358"/>
    <tag k="addr:street" v="Downer Hill Road"/>
    <tag k="addr:state" v="VT"/>
    <tag k="ref:vcgi:esiteid" v="277332"/>
  </node>
  <node id="-1083" visible="true" lat="43.35587262" lon="-72.43905639">
    <tag k="addr:city" v="Weathersfield"/>
    <tag k="addr:housenumber" v="318"/>
    <tag k="addr:street" v="Downer Hill Road"/>
    <tag k="addr:state" v="VT"/>
    <tag k="ref:vcgi:esiteid" v="277333"/>
  </node>
  <node id="-1084" visible="true" lat="43.35587347" lon="-72.43538744">
    <tag k="addr:city" v="Weathersfield"/>
    <tag k="addr:housenumber" v="129"/>
    <tag k="addr:street" v="Downer Hill Road"/>
    <tag k="addr:state" v="VT"/>
    <tag k="ref:vcgi:esiteid" v="277334"/>
  </node>
  <node id="-1085" visible="true" lat="43.35580781" lon="-72.43301526">
    <tag k="addr:city" v="Weathersfield"/>
    <tag k="addr:housenumber" v="13"/>
    <tag k="addr:street" v="Downer Hill Road"/>
    <tag k="addr:state" v="VT"/>
    <tag k="ref:vcgi:esiteid" v="277335"/>
  </node>
  <node id="-1086" visible="true" lat="43.35565137" lon="-72.42964172">
    <tag k="addr:city" v="Weathersfield"/>
    <tag k="addr:housenumber" v="1293"/>
    <tag k="addr:street" v="Bowen Hill Road"/>
    <tag k="addr:state" v="VT"/>
    <tag k="ref:vcgi:esiteid" v="277336"/>
  </node>
  <node id="-1089" visible="true" lat="43.35562848" lon="-72.44178771">
    <tag k="addr:city" v="Weathersfield"/>
    <tag k="addr:housenumber" v="460"/>
    <tag k="addr:street" v="Downer Hill Road"/>
    <tag k="addr:state" v="VT"/>
    <tag k="ref:vcgi:esiteid" v="277339"/>
  </node>
  <node id="-1093" visible="true" lat="43.35515427" lon="-72.43555715">
    <tag k="addr:city" v="Weathersfield"/>
    <tag k="addr:housenumber" v="144"/>
    <tag k="addr:street" v="Downer Hill Road"/>
    <tag k="addr:state" v="VT"/>
    <tag k="ref:vcgi:esiteid" v="277343"/>
  </node>
  <node id="-1099" visible="true" lat="43.35496747" lon="-72.43442255">
    <tag k="addr:city" v="Weathersfield"/>
    <tag k="addr:housenumber" v="78"/>
    <tag k="addr:street" v="Downer Hill Road"/>
    <tag k="addr:state" v="VT"/>
    <tag k="ref:vcgi:esiteid" v="277350"/>
  </node>
  <node id="-1132" visible="true" lat="43.35343503" lon="-72.43504333">
    <tag k="addr:city" v="Weathersfield"/>
    <tag k="addr:housenumber" v="1637"/>
    <tag k="addr:street" v="Bowen Hill Road"/>
    <tag k="addr:state" v="VT"/>
    <tag k="ref:vcgi:esiteid" v="277388"/>
  </node>
  <node id="-1154" visible="true" lat="43.35234403" lon="-72.43675231">
    <tag k="addr:city" v="Weathersfield"/>
    <tag k="addr:housenumber" v="1749"/>
    <tag k="addr:street" v="Bowen Hill Road"/>
    <tag k="addr:state" v="VT"/>
    <tag k="ref:vcgi:esiteid" v="277410"/>
  </node>
  <node id="-1290" visible="true" lat="43.42208099" lon="-72.40512085">
    <tag k="addr:city" v="Weathersfield"/>
    <tag k="addr:housenumber" v="66"/>
    <tag k="addr:street" v="Country Skyline Boulevard"/>
    <tag k="addr:state" v="VT"/>
    <tag k="ref:vcgi:esiteid" v="277549"/>
  </node>
  <node id="-1291" visible="true" lat="43.42192077" lon="-72.4052124">
    <tag k="addr:city" v="Weathersfield"/>
    <tag k="addr:housenumber" v="67"/>
    <tag k="addr:street" v="Country Skyline Boulevard"/>
    <tag k="addr:state" v="VT"/>
    <tag k="ref:vcgi:esiteid" v="277550"/>
  </node>
  <node id="-1292" visible="true" lat="43.42182922" lon="-72.40471649">
    <tag k="addr:city" v="Weathersfield"/>
    <tag k="addr:housenumber" v="65"/>
    <tag k="addr:street" v="Country Skyline Boulevard"/>
    <tag k="addr:state" v="VT"/>
    <tag k="ref:vcgi:esiteid" v="277551"/>
  </node>
  <node id="-1293" visible="true" lat="43.42171478" lon="-72.4046936">
    <tag k="addr:city" v="Weathersfield"/>
    <tag k="addr:housenumber" v="64"/>
    <tag k="addr:street" v="Country Skyline Boulevard"/>
    <tag k="addr:state" v="VT"/>
    <tag k="ref:vcgi:esiteid" v="277552"/>
  </node>
  <node id="-1294" visible="true" lat="43.42170333" lon="-72.4037857">
    <tag k="addr:city" v="Weathersfield"/>
    <tag k="addr:housenumber" v="82"/>
    <tag k="addr:street" v="Hill Top Boulevard"/>
    <tag k="addr:state" v="VT"/>
    <tag k="ref:vcgi:esiteid" v="277553"/>
  </node>
  <node id="-1295" visible="true" lat="43.42170333" lon="-72.40275573">
    <tag k="addr:city" v="Weathersfield"/>
    <tag k="addr:housenumber" v="6220"/>
    <tag k="addr:street" v="U.S. Route 5"/>
    <tag k="addr:state" v="VT"/>
    <tag k="ref:vcgi:esiteid" v="277554"/>
  </node>
  <node id="-1296" visible="true" lat="43.42165374" lon="-72.40518951">
    <tag k="addr:city" v="Weathersfield"/>
    <tag k="addr:housenumber" v="68"/>
    <tag k="addr:street" v="Country Skyline Boulevard"/>
    <tag k="addr:state" v="VT"/>
    <tag k="ref:vcgi:esiteid" v="277555"/>
  </node>
  <node id="-1297" visible="true" lat="43.42155075" lon="-72.40473938">
    <tag k="addr:city" v="Weathersfield"/>
    <tag k="addr:housenumber" v="63"/>
    <tag k="addr:street" v="Country Skyline Boulevard"/>
    <tag k="addr:state" v="VT"/>
    <tag k="ref:vcgi:esiteid" v="277556"/>
  </node>
  <node id="-1298" visible="true" lat="43.42148208" lon="-72.40385437">
    <tag k="addr:city" v="Weathersfield"/>
    <tag k="addr:housenumber" v="81"/>
    <tag k="addr:street" v="Hill Top Boulevard"/>
    <tag k="addr:state" v="VT"/>
    <tag k="ref:vcgi:esiteid" v="277557"/>
  </node>
  <node id="-1299" visible="true" lat="43.42134094" lon="-72.40534973">
    <tag k="addr:city" v="Weathersfield"/>
    <tag k="addr:housenumber" v="69"/>
    <tag k="addr:street" v="Country Skyline Boulevard"/>
    <tag k="addr:state" v="VT"/>
    <tag k="ref:vcgi:esiteid" v="277558"/>
  </node>
  <node id="-1300" visible="true" lat="43.42141569" lon="-72.40442483">
    <tag k="addr:city" v="Weathersfield"/>
    <tag k="addr:housenumber" v="89"/>
    <tag k="addr:street" v="First Street"/>
    <tag k="addr:state" v="VT"/>
    <tag k="ref:vcgi:esiteid" v="277559"/>
  </node>
  <node id="-1301" visible="true" lat="43.42133712" lon="-72.40388488">
    <tag k="addr:city" v="Weathersfield"/>
    <tag k="addr:housenumber" v="80"/>
    <tag k="addr:street" v="Hill Top Boulevard"/>
    <tag k="addr:state" v="VT"/>
    <tag k="ref:vcgi:esiteid" v="277560"/>
  </node>
  <node id="-1302" visible="true" lat="43.42123412" lon="-72.40540313">
    <tag k="addr:city" v="Weathersfield"/>
    <tag k="addr:housenumber" v="70"/>
    <tag k="addr:street" v="Country Skyline Boulevard"/>
    <tag k="addr:state" v="VT"/>
    <tag k="ref:vcgi:esiteid" v="277561"/>
  </node>
  <node id="-1303" visible="true" lat="43.42122268" lon="-72.40499877">
    <tag k="addr:city" v="Weathersfield"/>
    <tag k="addr:housenumber" v="62"/>
    <tag k="addr:street" v="Country Skyline Boulevard"/>
    <tag k="addr:state" v="VT"/>
    <tag k="ref:vcgi:esiteid" v="277562"/>
  </node>
  <node id="-1304" visible="true" lat="43.42114639" lon="-72.40389251">
    <tag k="addr:city" v="Weathersfield"/>
    <tag k="addr:housenumber" v="79"/>
    <tag k="addr:street" v="Hill Top Boulevard"/>
    <tag k="addr:state" v="VT"/>
    <tag k="ref:vcgi:esiteid" v="277563"/>
  </node>
  <node id="-1305" visible="true" lat="43.4210357" lon="-72.40500564">
    <tag k="addr:city" v="Weathersfield"/>
    <tag k="addr:housenumber" v="61"/>
    <tag k="addr:street" v="Country Skyline Boulevard"/>
    <tag k="addr:state" v="VT"/>
    <tag k="ref:vcgi:esiteid" v="277564"/>
  </node>
  <node id="-1306" visible="true" lat="43.42100143" lon="-72.40393829">
    <tag k="addr:city" v="Weathersfield"/>
    <tag k="addr:housenumber" v="78"/>
    <tag k="addr:street" v="Hill Top Boulevard"/>
    <tag k="addr:state" v="VT"/>
    <tag k="ref:vcgi:esiteid" v="277565"/>
  </node>
  <node id="-1307" visible="true" lat="43.42086584" lon="-72.40554933">
    <tag k="addr:city" v="Weathersfield"/>
    <tag k="addr:housenumber" v="72"/>
    <tag k="addr:street" v="Country Skyline Boulevard"/>
    <tag k="addr:state" v="VT"/>
    <tag k="ref:vcgi:esiteid" v="277566"/>
  </node>
  <node id="-1308" visible="true" lat="43.42084925" lon="-72.40440015">
    <tag k="addr:city" v="Weathersfield"/>
    <tag k="addr:housenumber" v="54"/>
    <tag k="addr:street" v="Hill Top Boulevard"/>
    <tag k="addr:state" v="VT"/>
    <tag k="ref:vcgi:esiteid" v="277567"/>
  </node>
  <node id="-1309" visible="true" lat="43.42088658" lon="-72.40504538">
    <tag k="addr:city" v="Weathersfield"/>
    <tag k="addr:housenumber" v="60"/>
    <tag k="addr:street" v="Country Skyline Boulevard"/>
    <tag k="addr:state" v="VT"/>
    <tag k="ref:vcgi:esiteid" v="277568"/>
  </node>
  <node id="-1310" visible="true" lat="43.42085647" lon="-72.40393066">
    <tag k="addr:city" v="Weathersfield"/>
    <tag k="addr:housenumber" v="77"/>
    <tag k="addr:street" v="Hill Top Boulevard"/>
    <tag k="addr:state" v="VT"/>
    <tag k="ref:vcgi:esiteid" v="277569"/>
  </node>
  <node id="-1311" visible="true" lat="43.42074203" lon="-72.40556335">
    <tag k="addr:city" v="Weathersfield"/>
    <tag k="addr:housenumber" v="73"/>
    <tag k="addr:street" v="Country Skyline Boulevard"/>
    <tag k="addr:state" v="VT"/>
    <tag k="ref:vcgi:esiteid" v="277570"/>
  </node>
  <node id="-1312" visible="true" lat="43.42065475" lon="-72.4044153">
    <tag k="addr:city" v="Weathersfield"/>
    <tag k="addr:housenumber" v="53"/>
    <tag k="addr:street" v="Hill Top Boulevard"/>
    <tag k="addr:state" v="VT"/>
    <tag k="ref:vcgi:esiteid" v="277571"/>
  </node>
  <node id="-1313" visible="true" lat="43.42071151" lon="-72.40509796">
    <tag k="addr:city" v="Weathersfield"/>
    <tag k="addr:housenumber" v="59"/>
    <tag k="addr:street" v="Country Skyline Boulevard"/>
    <tag k="addr:state" v="VT"/>
    <tag k="ref:vcgi:esiteid" v="277572"/>
  </node>
  <node id="-1314" visible="true" lat="43.42056683" lon="-72.40564848">
    <tag k="addr:city" v="Weathersfield"/>
    <tag k="addr:housenumber" v="74"/>
    <tag k="addr:street" v="Country Skyline Boulevard"/>
    <tag k="addr:state" v="VT"/>
    <tag k="ref:vcgi:esiteid" v="277573"/>
  </node>
  <node id="-1315" visible="true" lat="43.42059326" lon="-72.40519714">
    <tag k="addr:city" v="Weathersfield"/>
    <tag k="addr:housenumber" v="58"/>
    <tag k="addr:street" v="Country Skyline Boulevard"/>
    <tag k="addr:state" v="VT"/>
    <tag k="ref:vcgi:esiteid" v="277574"/>
  </node>
  <node id="-1316" visible="true" lat="43.42054748" lon="-72.40454101">
    <tag k="addr:city" v="Weathersfield"/>
    <tag k="addr:housenumber" v="52"/>
    <tag k="addr:street" v="Hill Top Boulevard"/>
    <tag k="addr:state" v="VT"/>
    <tag k="ref:vcgi:esiteid" v="277575"/>
  </node>
  <node id="-1317" visible="true" lat="43.420475" lon="-72.40409851">
    <tag k="addr:city" v="Weathersfield"/>
    <tag k="addr:housenumber" v="47"/>
    <tag k="addr:street" v="Hill Top Boulevard"/>
    <tag k="addr:state" v="VT"/>
    <tag k="ref:vcgi:esiteid" v="277576"/>
  </node>
  <node id="-1318" visible="true" lat="43.42038141" lon="-72.40573294">
    <tag k="addr:city" v="Weathersfield"/>
    <tag k="addr:housenumber" v="75"/>
    <tag k="addr:street" v="Country Skyline Boulevard"/>
    <tag k="addr:state" v="VT"/>
    <tag k="ref:vcgi:esiteid" v="277577"/>
  </node>
  <node id="-1319" visible="true" lat="43.42044448" lon="-72.40525054">
    <tag k="addr:city" v="Weathersfield"/>
    <tag k="addr:housenumber" v="57"/>
    <tag k="addr:street" v="Country Skyline Boulevard"/>
    <tag k="addr:state" v="VT"/>
    <tag k="ref:vcgi:esiteid" v="277578"/>
  </node>
  <node id="-1320" visible="true" lat="43.42039489" lon="-72.40458679">
    <tag k="addr:city" v="Weathersfield"/>
    <tag k="addr:housenumber" v="51"/>
    <tag k="addr:street" v="Hill Top Boulevard"/>
    <tag k="addr:state" v="VT"/>
    <tag k="ref:vcgi:esiteid" v="277579"/>
  </node>
  <node id="-1321" visible="true" lat="43.42036056" lon="-72.40414428">
    <tag k="addr:city" v="Weathersfield"/>
    <tag k="addr:housenumber" v="46"/>
    <tag k="addr:street" v="Hill Top Boulevard"/>
    <tag k="addr:state" v="VT"/>
    <tag k="ref:vcgi:esiteid" v="277580"/>
  </node>
  <node id="-1322" visible="true" lat="43.42032241" lon="-72.40528106">
    <tag k="addr:city" v="Weathersfield"/>
    <tag k="addr:housenumber" v="56"/>
    <tag k="addr:street" v="Country Skyline Boulevard"/>
    <tag k="addr:state" v="VT"/>
    <tag k="ref:vcgi:esiteid" v="277581"/>
  </node>
  <node id="-1323" visible="true" lat="43.42024022" lon="-72.40575805">
    <tag k="addr:city" v="Weathersfield"/>
    <tag k="addr:housenumber" v="76"/>
    <tag k="addr:street" v="Country Skyline Boulevard"/>
    <tag k="addr:state" v="VT"/>
    <tag k="ref:vcgi:esiteid" v="277582"/>
  </node>
  <node id="-1324" visible="true" lat="43.42025375" lon="-72.40464019">
    <tag k="addr:city" v="Weathersfield"/>
    <tag k="addr:housenumber" v="50"/>
    <tag k="addr:street" v="Hill Top Boulevard"/>
    <tag k="addr:state" v="VT"/>
    <tag k="ref:vcgi:esiteid" v="277583"/>
  </node>
  <node id="-1325" visible="true" lat="43.42016601" lon="-72.40538024">
    <tag k="addr:city" v="Weathersfield"/>
    <tag k="addr:housenumber" v="55"/>
    <tag k="addr:street" v="Country Skyline Boulevard"/>
    <tag k="addr:state" v="VT"/>
    <tag k="ref:vcgi:esiteid" v="277584"/>
  </node>
  <node id="-1326" visible="true" lat="43.42020435" lon="-72.4041638">
    <tag k="addr:city" v="Weathersfield"/>
    <tag k="addr:housenumber" v="45"/>
    <tag k="addr:street" v="Hill Top Boulevard"/>
    <tag k="addr:state" v="VT"/>
    <tag k="ref:vcgi:esiteid" v="277585"/>
  </node>
  <node id="-1327" visible="true" lat="43.42008209" lon="-72.40470886">
    <tag k="addr:city" v="Weathersfield"/>
    <tag k="addr:housenumber" v="49"/>
    <tag k="addr:street" v="Hill Top Boulevard"/>
    <tag k="addr:state" v="VT"/>
    <tag k="ref:vcgi:esiteid" v="277586"/>
  </node>
  <node id="-1328" visible="true" lat="43.42003631" lon="-72.40422058">
    <tag k="addr:city" v="Weathersfield"/>
    <tag k="addr:housenumber" v="44"/>
    <tag k="addr:street" v="Hill Top Boulevard"/>
    <tag k="addr:state" v="VT"/>
    <tag k="ref:vcgi:esiteid" v="277587"/>
  </node>
  <node id="-1329" visible="true" lat="43.41987991" lon="-72.40480804">
    <tag k="addr:city" v="Weathersfield"/>
    <tag k="addr:housenumber" v="48"/>
    <tag k="addr:street" v="Hill Top Boulevard"/>
    <tag k="addr:state" v="VT"/>
    <tag k="ref:vcgi:esiteid" v="277588"/>
  </node>
  <node id="-1330" visible="true" lat="43.41986465" lon="-72.40431976">
    <tag k="addr:city" v="Weathersfield"/>
    <tag k="addr:housenumber" v="43"/>
    <tag k="addr:street" v="Hill Top Boulevard"/>
    <tag k="addr:state" v="VT"/>
    <tag k="ref:vcgi:esiteid" v="277589"/>
  </node>
  <node id="-1331" visible="true" lat="43.41975021" lon="-72.40432739">
    <tag k="addr:city" v="Weathersfield"/>
    <tag k="addr:housenumber" v="42"/>
    <tag k="addr:street" v="Hill Top Boulevard"/>
    <tag k="addr:state" v="VT"/>
    <tag k="ref:vcgi:esiteid" v="277590"/>
  </node>
  <node id="-1332" visible="true" lat="43.41974445" lon="-72.40552229">
    <tag k="addr:city" v="Weathersfield"/>
    <tag k="addr:housenumber" v="15"/>
    <tag k="addr:street" v="Water Avenue"/>
    <tag k="addr:state" v="VT"/>
    <tag k="ref:vcgi:esiteid" v="277591"/>
  </node>
  <node id="-1333" visible="true" lat="43.41964128" lon="-72.40528033">
    <tag k="addr:city" v="Weathersfield"/>
    <tag k="addr:housenumber" v="14"/>
    <tag k="addr:street" v="Water Avenue"/>
    <tag k="addr:state" v="VT"/>
    <tag k="ref:vcgi:esiteid" v="277592"/>
  </node>
  <node id="-1334" visible="true" lat="43.41960525" lon="-72.40480804">
    <tag k="addr:city" v="Weathersfield"/>
    <tag k="addr:housenumber" v="7"/>
    <tag k="addr:street" v="Stardust Circle"/>
    <tag k="addr:state" v="VT"/>
    <tag k="ref:vcgi:esiteid" v="277593"/>
  </node>
  <node id="-1335" visible="true" lat="43.41951751" lon="-72.40589141">
    <tag k="addr:city" v="Weathersfield"/>
    <tag k="addr:housenumber" v="18"/>
    <tag k="addr:street" v="Water Avenue"/>
    <tag k="addr:state" v="VT"/>
    <tag k="ref:vcgi:esiteid" v="277594"/>
  </node>
  <node id="-1336" visible="true" lat="43.41947937" lon="-72.40438079">
    <tag k="addr:city" v="Weathersfield"/>
    <tag k="addr:housenumber" v="6"/>
    <tag k="addr:street" v="Stardust Circle"/>
    <tag k="addr:state" v="VT"/>
    <tag k="ref:vcgi:esiteid" v="277595"/>
  </node>
  <node id="-1337" visible="true" lat="43.41937918" lon="-72.40564897">
    <tag k="addr:city" v="Weathersfield"/>
    <tag k="addr:housenumber" v="17"/>
    <tag k="addr:street" v="Water Avenue"/>
    <tag k="addr:state" v="VT"/>
    <tag k="ref:vcgi:esiteid" v="277596"/>
  </node>
  <node id="-1338" visible="true" lat="43.41941452" lon="-72.40486907">
    <tag k="addr:city" v="Weathersfield"/>
    <tag k="addr:housenumber" v="8"/>
    <tag k="addr:street" v="Stardust Circle"/>
    <tag k="addr:state" v="VT"/>
    <tag k="ref:vcgi:esiteid" v="277597"/>
  </node>
  <node id="-1339" visible="true" lat="43.4192183" lon="-72.40487134">
    <tag k="addr:city" v="Weathersfield"/>
    <tag k="addr:housenumber" v="9"/>
    <tag k="addr:street" v="Stardust Circle"/>
    <tag k="addr:state" v="VT"/>
    <tag k="ref:vcgi:esiteid" v="277598"/>
  </node>
  <node id="-1340" visible="true" lat="43.41924667" lon="-72.40435028">
    <tag k="addr:city" v="Weathersfield"/>
    <tag k="addr:housenumber" v="5"/>
    <tag k="addr:street" v="Stardust Circle"/>
    <tag k="addr:state" v="VT"/>
    <tag k="ref:vcgi:esiteid" v="277599"/>
  </node>
  <node id="-1341" visible="true" lat="43.41925363" lon="-72.40610224">
    <tag k="addr:city" v="Weathersfield"/>
    <tag k="addr:housenumber" v="22"/>
    <tag k="addr:street" v="Greenleaf Avenue"/>
    <tag k="addr:state" v="VT"/>
    <tag k="ref:vcgi:esiteid" v="277600"/>
  </node>
  <node id="-1342" visible="true" lat="43.41902933" lon="-72.40491673">
    <tag k="addr:city" v="Weathersfield"/>
    <tag k="addr:housenumber" v="10"/>
    <tag k="addr:street" v="Stardust Circle"/>
    <tag k="addr:state" v="VT"/>
    <tag k="ref:vcgi:esiteid" v="277601"/>
  </node>
  <node id="-1343" visible="true" lat="43.41914748" lon="-72.40586838">
    <tag k="addr:city" v="Weathersfield"/>
    <tag k="addr:housenumber" v="21"/>
    <tag k="addr:street" v="Greenleaf Avenue"/>
    <tag k="addr:state" v="VT"/>
    <tag k="ref:vcgi:esiteid" v="277602"/>
  </node>
  <node id="-1344" visible="true" lat="43.41907119" lon="-72.40441131">
    <tag k="addr:city" v="Weathersfield"/>
    <tag k="addr:housenumber" v="4"/>
    <tag k="addr:street" v="Stardust Circle"/>
    <tag k="addr:state" v="VT"/>
    <tag k="ref:vcgi:esiteid" v="277603"/>
  </node>
  <node id="-1345" visible="true" lat="43.41903305" lon="-72.40639495">
    <tag k="addr:city" v="Weathersfield"/>
    <tag k="addr:housenumber" v="27"/>
    <tag k="addr:street" v="Greenleaf Avenue"/>
    <tag k="addr:state" v="VT"/>
    <tag k="ref:vcgi:esiteid" v="277604"/>
  </node>
  <node id="-1346" visible="true" lat="43.41884035" lon="-72.40494521">
    <tag k="addr:city" v="Weathersfield"/>
    <tag k="addr:housenumber" v="11"/>
    <tag k="addr:street" v="Stardust Circle"/>
    <tag k="addr:state" v="VT"/>
    <tag k="ref:vcgi:esiteid" v="277605"/>
  </node>
  <node id="-1347" visible="true" lat="43.41891308" lon="-72.40618472">
    <tag k="addr:city" v="Weathersfield"/>
    <tag k="addr:housenumber" v="26"/>
    <tag k="addr:street" v="Greenleaf Avenue"/>
    <tag k="addr:state" v="VT"/>
    <tag k="ref:vcgi:esiteid" v="277606"/>
  </node>
  <node id="-1348" visible="true" lat="43.41901225" lon="-72.40563022">
    <tag k="addr:city" v="Weathersfield"/>
    <tag k="addr:housenumber" v="20"/>
    <tag k="addr:street" v="Greenleaf Avenue"/>
    <tag k="addr:state" v="VT"/>
    <tag k="ref:vcgi:esiteid" v="277607"/>
  </node>
  <node id="-1349" visible="true" lat="43.41891479" lon="-72.40442657">
    <tag k="addr:city" v="Weathersfield"/>
    <tag k="addr:housenumber" v="3"/>
    <tag k="addr:street" v="Stardust Circle"/>
    <tag k="addr:state" v="VT"/>
    <tag k="ref:vcgi:esiteid" v="277608"/>
  </node>
  <node id="-1350" visible="true" lat="43.4187958" lon="-72.40597329">
    <tag k="addr:city" v="Weathersfield"/>
    <tag k="addr:housenumber" v="25"/>
    <tag k="addr:street" v="Greenleaf Avenue"/>
    <tag k="addr:state" v="VT"/>
    <tag k="ref:vcgi:esiteid" v="277609"/>
  </node>
  <node id="-1351" visible="true" lat="43.41880798" lon="-72.40541076">
    <tag k="addr:city" v="Weathersfield"/>
    <tag k="addr:housenumber" v="19"/>
    <tag k="addr:street" v="Greenleaf Avenue"/>
    <tag k="addr:state" v="VT"/>
    <tag k="ref:vcgi:esiteid" v="277610"/>
  </node>
  <node id="-1352" visible="true" lat="43.41868587" lon="-72.40575387">
    <tag k="addr:city" v="Weathersfield"/>
    <tag k="addr:housenumber" v="24"/>
    <tag k="addr:street" v="Greenleaf Avenue"/>
    <tag k="addr:state" v="VT"/>
    <tag k="ref:vcgi:esiteid" v="277611"/>
  </node>
  <node id="-1353" visible="true" lat="43.41871459" lon="-72.40662221">
    <tag k="addr:city" v="Weathersfield"/>
    <tag k="addr:housenumber" v="33"/>
    <tag k="addr:street" v="Blue Sky Avenue"/>
    <tag k="addr:state" v="VT"/>
    <tag k="ref:vcgi:esiteid" v="277612"/>
  </node>
  <node id="-1354" visible="true" lat="43.41870002" lon="-72.40444189">
    <tag k="addr:city" v="Weathersfield"/>
    <tag k="addr:housenumber" v="2"/>
    <tag k="addr:street" v="Stardust Circle"/>
    <tag k="addr:state" v="VT"/>
    <tag k="ref:vcgi:esiteid" v="277613"/>
  </node>
  <node id="-1355" visible="true" lat="43.41865136" lon="-72.40496242">
    <tag k="addr:city" v="Weathersfield"/>
    <tag k="addr:housenumber" v="12"/>
    <tag k="addr:street" v="Stardust Circle"/>
    <tag k="addr:state" v="VT"/>
    <tag k="ref:vcgi:esiteid" v="277614"/>
  </node>
  <node id="-1356" visible="true" lat="43.41857527" lon="-72.40555924">
    <tag k="addr:city" v="Weathersfield"/>
    <tag k="addr:housenumber" v="23"/>
    <tag k="addr:street" v="Greenleaf Avenue"/>
    <tag k="addr:state" v="VT"/>
    <tag k="ref:vcgi:esiteid" v="277615"/>
  </node>
  <node id="-1357" visible="true" lat="43.41862743" lon="-72.40637356">
    <tag k="addr:city" v="Weathersfield"/>
    <tag k="addr:housenumber" v="32"/>
    <tag k="addr:street" v="Blue Sky Avenue"/>
    <tag k="addr:state" v="VT"/>
    <tag k="ref:vcgi:esiteid" v="277616"/>
  </node>
  <node id="-1358" visible="true" lat="43.41846466" lon="-72.40498352">
    <tag k="addr:city" v="Weathersfield"/>
    <tag k="addr:housenumber" v="13"/>
    <tag k="addr:street" v="Stardust Circle"/>
    <tag k="addr:state" v="VT"/>
    <tag k="ref:vcgi:esiteid" v="277617"/>
  </node>
  <node id="-1359" visible="true" lat="43.41852447" lon="-72.40613811">
    <tag k="addr:city" v="Weathersfield"/>
    <tag k="addr:housenumber" v="31"/>
    <tag k="addr:street" v="Blue Sky Avenue"/>
    <tag k="addr:state" v="VT"/>
    <tag k="ref:vcgi:esiteid" v="277618"/>
  </node>
  <node id="-1360" visible="true" lat="43.41842505" lon="-72.40677085">
    <tag k="addr:city" v="Weathersfield"/>
    <tag k="addr:housenumber" v="40"/>
    <tag k="addr:street" v="Blue Sky Avenue"/>
    <tag k="addr:state" v="VT"/>
    <tag k="ref:vcgi:esiteid" v="277619"/>
  </node>
  <node id="-1361" visible="true" lat="43.4184661" lon="-72.40452304">
    <tag k="addr:city" v="Weathersfield"/>
    <tag k="addr:housenumber" v="1"/>
    <tag k="addr:street" v="Stardust Circle"/>
    <tag k="addr:state" v="VT"/>
    <tag k="ref:vcgi:esiteid" v="277620"/>
  </node>
  <node id="-1362" visible="true" lat="43.41832797" lon="-72.40657521">
    <tag k="addr:city" v="Weathersfield"/>
    <tag k="addr:housenumber" v="39"/>
    <tag k="addr:street" v="Blue Sky Avenue"/>
    <tag k="addr:state" v="VT"/>
    <tag k="ref:vcgi:esiteid" v="277621"/>
  </node>
  <node id="-1363" visible="true" lat="43.41836454" lon="-72.40592674">
    <tag k="addr:city" v="Weathersfield"/>
    <tag k="addr:housenumber" v="30"/>
    <tag k="addr:street" v="Blue Sky Avenue"/>
    <tag k="addr:state" v="VT"/>
    <tag k="ref:vcgi:esiteid" v="277622"/>
  </node>
  <node id="-1364" visible="true" lat="43.41824099" lon="-72.4063977">
    <tag k="addr:city" v="Weathersfield"/>
    <tag k="addr:housenumber" v="38"/>
    <tag k="addr:street" v="Blue Sky Avenue"/>
    <tag k="addr:state" v="VT"/>
    <tag k="ref:vcgi:esiteid" v="277623"/>
  </node>
  <node id="-1365" visible="true" lat="43.41827397" lon="-72.40570705">
    <tag k="addr:city" v="Weathersfield"/>
    <tag k="addr:housenumber" v="29"/>
    <tag k="addr:street" v="Blue Sky Avenue"/>
    <tag k="addr:state" v="VT"/>
    <tag k="ref:vcgi:esiteid" v="277624"/>
  </node>
  <node id="-1366" visible="true" lat="43.4182718" lon="-72.40515616">
    <tag k="addr:city" v="Weathersfield"/>
    <tag k="addr:housenumber" v="41"/>
    <tag k="addr:street" v="Stardust Circle"/>
    <tag k="addr:state" v="VT"/>
    <tag k="ref:vcgi:esiteid" v="277625"/>
  </node>
  <node id="-1367" visible="true" lat="43.41814158" lon="-72.40620282">
    <tag k="addr:city" v="Weathersfield"/>
    <tag k="addr:housenumber" v="37"/>
    <tag k="addr:street" v="Blue Sky Avenue"/>
    <tag k="addr:state" v="VT"/>
    <tag k="ref:vcgi:esiteid" v="277626"/>
  </node>
  <node id="-1368" visible="true" lat="43.41819167" lon="-72.40556626">
    <tag k="addr:city" v="Weathersfield"/>
    <tag k="addr:housenumber" v="28"/>
    <tag k="addr:street" v="Blue Sky Avenue"/>
    <tag k="addr:state" v="VT"/>
    <tag k="ref:vcgi:esiteid" v="277627"/>
  </node>
  <node id="-1370" visible="true" lat="43.41805648" lon="-72.4068222">
    <tag k="addr:city" v="Weathersfield"/>
    <tag k="addr:housenumber" v="86"/>
    <tag k="addr:street" v="Trails End"/>
    <tag k="addr:state" v="VT"/>
    <tag k="ref:vcgi:esiteid" v="277629"/>
  </node>
  <node id="-1372" visible="true" lat="43.41800308" lon="-72.40664672">
    <tag k="addr:city" v="Weathersfield"/>
    <tag k="addr:housenumber" v="87"/>
    <tag k="addr:street" v="Trails End"/>
    <tag k="addr:state" v="VT"/>
    <tag k="ref:vcgi:esiteid" v="277631"/>
  </node>
  <node id="-1374" visible="true" lat="43.41795349" lon="-72.40634155">
    <tag k="addr:city" v="Weathersfield"/>
    <tag k="addr:housenumber" v="88"/>
    <tag k="addr:street" v="Trails End"/>
    <tag k="addr:state" v="VT"/>
    <tag k="ref:vcgi:esiteid" v="277633"/>
  </node>
  <node id="-1378" visible="true" lat="43.41746902" lon="-72.40641784">
    <tag k="addr:city" v="Weathersfield"/>
    <tag k="addr:housenumber" v="83"/>
    <tag k="addr:street" v="Trails End"/>
    <tag k="addr:state" v="VT"/>
    <tag k="ref:vcgi:esiteid" v="277637"/>
  </node>
  <node id="-1387" visible="true" lat="43.36330366" lon="-72.45196533">
    <tag k="addr:city" v="Weathersfield"/>
    <tag k="addr:housenumber" v="1618"/>
    <tag k="addr:street" v="Skyline Drive"/>
    <tag k="addr:state" v="VT"/>
    <tag k="ref:vcgi:esiteid" v="277646"/>
  </node>
  <node id="-1390" visible="true" lat="43.40846592" lon="-72.40705199">
    <tag k="addr:city" v="Weathersfield"/>
    <tag k="addr:housenumber" v="5281"/>
    <tag k="addr:street" v="U.S. Route 5"/>
    <tag k="addr:state" v="VT"/>
    <tag k="ref:vcgi:esiteid" v="277649"/>
  </node>
  <node id="-1392" visible="true" lat="43.37391496" lon="-72.50532853">
    <tag k="addr:city" v="Weathersfield"/>
    <tag k="addr:housenumber" v="124"/>
    <tag k="addr:street" v="Pine Hill Road"/>
    <tag k="addr:state" v="VT"/>
    <tag k="ref:vcgi:esiteid" v="277651"/>
  </node>
  <node id="-1398" visible="true" lat="43.42338359" lon="-72.40287878">
    <tag k="addr:city" v="Weathersfield"/>
    <tag k="addr:housenumber" v="137"/>
    <tag k="addr:street" v="Running Bear Trail"/>
    <tag k="addr:state" v="VT"/>
    <tag k="ref:vcgi:esiteid" v="277658"/>
  </node>
  <node id="-1399" visible="true" lat="43.42369788" lon="-72.40308859">
    <tag k="addr:city" v="Weathersfield"/>
    <tag k="addr:housenumber" v="163"/>
    <tag k="addr:street" v="Running Bear Trail"/>
    <tag k="addr:state" v="VT"/>
    <tag k="ref:vcgi:esiteid" v="277659"/>
  </node>
  <node id="-1400" visible="true" lat="43.42285505" lon="-72.40558293">
    <tag k="addr:city" v="Weathersfield"/>
    <tag k="addr:housenumber" v="315"/>
    <tag k="addr:street" v="Running Bear Trail"/>
    <tag k="addr:state" v="VT"/>
    <tag k="ref:vcgi:esiteid" v="277660"/>
  </node>
  <node id="-1401" visible="true" lat="43.42274962" lon="-72.40564741">
    <tag k="addr:city" v="Weathersfield"/>
    <tag k="addr:housenumber" v="329"/>
    <tag k="addr:street" v="Running Bear Trail"/>
    <tag k="addr:state" v="VT"/>
    <tag k="ref:vcgi:esiteid" v="277661"/>
  </node>
  <node id="-1402" visible="true" lat="43.42265202" lon="-72.40571187">
    <tag k="addr:city" v="Weathersfield"/>
    <tag k="addr:housenumber" v="341"/>
    <tag k="addr:street" v="Running Bear Trail"/>
    <tag k="addr:state" v="VT"/>
    <tag k="ref:vcgi:esiteid" v="277662"/>
  </node>
  <node id="-1403" visible="true" lat="43.42252708" lon="-72.40579246">
    <tag k="addr:city" v="Weathersfield"/>
    <tag k="addr:housenumber" v="349"/>
    <tag k="addr:street" v="Running Bear Trail"/>
    <tag k="addr:state" v="VT"/>
    <tag k="ref:vcgi:esiteid" v="277663"/>
  </node>
  <node id="-1404" visible="true" lat="43.42240214" lon="-72.40586768">
    <tag k="addr:city" v="Weathersfield"/>
    <tag k="addr:housenumber" v="355"/>
    <tag k="addr:street" v="Running Bear Trail"/>
    <tag k="addr:state" v="VT"/>
    <tag k="ref:vcgi:esiteid" v="277664"/>
  </node>
  <node id="-1405" visible="true" lat="43.42228499" lon="-72.40592682">
    <tag k="addr:city" v="Weathersfield"/>
    <tag k="addr:housenumber" v="365"/>
    <tag k="addr:street" v="Running Bear Trail"/>
    <tag k="addr:state" v="VT"/>
    <tag k="ref:vcgi:esiteid" v="277665"/>
  </node>
  <node id="-1406" visible="true" lat="43.42216786" lon="-72.40599667">
    <tag k="addr:city" v="Weathersfield"/>
    <tag k="addr:housenumber" v="381"/>
    <tag k="addr:street" v="Running Bear Trail"/>
    <tag k="addr:state" v="VT"/>
    <tag k="ref:vcgi:esiteid" v="277666"/>
  </node>
  <node id="-1407" visible="true" lat="43.42203119" lon="-72.40606119">
    <tag k="addr:city" v="Weathersfield"/>
    <tag k="addr:housenumber" v="387"/>
    <tag k="addr:street" v="Running Bear Trail"/>
    <tag k="addr:state" v="VT"/>
    <tag k="ref:vcgi:esiteid" v="277667"/>
  </node>
  <node id="-1408" visible="true" lat="43.42186328" lon="-72.40613648">
    <tag k="addr:city" v="Weathersfield"/>
    <tag k="addr:housenumber" v="393"/>
    <tag k="addr:street" v="Running Bear Trail"/>
    <tag k="addr:state" v="VT"/>
    <tag k="ref:vcgi:esiteid" v="277668"/>
  </node>
  <node id="-1409" visible="true" lat="43.42173482" lon="-72.40620982">
    <tag k="addr:city" v="Weathersfield"/>
    <tag k="addr:housenumber" v="407"/>
    <tag k="addr:street" v="Running Bear Trail"/>
    <tag k="addr:state" v="VT"/>
    <tag k="ref:vcgi:esiteid" v="277669"/>
  </node>
  <node id="-1431" visible="true" lat="43.41260154" lon="-72.40891195">
    <tag k="addr:city" v="Weathersfield"/>
    <tag k="addr:housenumber" v="200"/>
    <tag k="addr:street" v="Riley Drive"/>
    <tag k="addr:state" v="VT"/>
    <tag k="ref:vcgi:esiteid" v="277693"/>
  </node>
  <node id="-1432" visible="true" lat="43.41227247" lon="-72.40902669">
    <tag k="addr:city" v="Weathersfield"/>
    <tag k="addr:housenumber" v="218"/>
    <tag k="addr:street" v="Riley Drive"/>
    <tag k="addr:state" v="VT"/>
    <tag k="ref:vcgi:esiteid" v="277694"/>
  </node>
  <node id="-1433" visible="true" lat="43.41312055" lon="-72.40814482">
    <tag k="addr:city" v="Weathersfield"/>
    <tag k="addr:housenumber" v="105"/>
    <tag k="addr:street" v="Riley Drive"/>
    <tag k="addr:state" v="VT"/>
    <tag k="ref:vcgi:esiteid" v="277695"/>
  </node>
  <node id="-1442" visible="true" lat="43.36397564" lon="-72.50307854">
    <tag k="addr:city" v="Weathersfield"/>
    <tag k="addr:housenumber" v="24"/>
    <tag k="addr:street" v="Pine Pitch Road"/>
    <tag k="addr:state" v="VT"/>
    <tag k="ref:vcgi:esiteid" v="277704"/>
  </node>
  <node id="-1443" visible="true" lat="43.3629945" lon="-72.50224559">
    <tag k="addr:city" v="Weathersfield"/>
    <tag k="addr:housenumber" v="51"/>
    <tag k="addr:street" v="Pine Pitch Road"/>
    <tag k="addr:state" v="VT"/>
    <tag k="ref:vcgi:esiteid" v="277705"/>
  </node>
  <node id="-1454" visible="true" lat="43.36319589" lon="-72.50297347">
    <tag k="addr:city" v="Weathersfield"/>
    <tag k="addr:housenumber" v="190"/>
    <tag k="addr:street" v="Drumlin Road"/>
    <tag k="addr:state" v="VT"/>
    <tag k="ref:vcgi:esiteid" v="277716"/>
  </node>
  <node id="-1455" visible="true" lat="43.35993599" lon="-72.5427452">
    <tag k="addr:city" v="Weathersfield"/>
    <tag k="addr:housenumber" v="1175"/>
    <tag k="addr:street" v="Baltimore Road"/>
    <tag k="addr:state" v="VT"/>
    <tag k="ref:vcgi:esiteid" v="277717"/>
  </node>
  <node id="-1458" visible="true" lat="43.35898201" lon="-72.44852312">
    <tag k="addr:city" v="Weathersfield"/>
    <tag k="addr:housenumber" v="1325"/>
    <tag k="addr:street" v="Skyline Drive"/>
    <tag k="addr:state" v="VT"/>
    <tag k="ref:vcgi:esiteid" v="277720"/>
  </node>
  <node id="-1463" visible="true" lat="43.41240184" lon="-72.4065151">
    <tag k="addr:city" v="Weathersfield"/>
    <tag k="addr:housenumber" v="14"/>
    <tag k="addr:street" v="Riley Drive"/>
    <tag k="addr:state" v="VT"/>
    <tag k="ref:vcgi:esiteid" v="277725"/>
  </node>
  <node id="-1467" visible="true" lat="43.36716025" lon="-72.51027075">
    <tag k="addr:city" v="Weathersfield"/>
    <tag k="addr:housenumber" v="425"/>
    <tag k="addr:street" v="Maple Street"/>
    <tag k="addr:state" v="VT"/>
    <tag k="ref:vcgi:esiteid" v="277729"/>
  </node>
  <node id="-1470" visible="true" lat="43.41301731" lon="-72.40946923">
    <tag k="addr:city" v="Weathersfield"/>
    <tag k="addr:housenumber" v="185"/>
    <tag k="addr:street" v="Riley Drive"/>
    <tag k="addr:state" v="VT"/>
    <tag k="ref:vcgi:esiteid" v="277732"/>
  </node>
  <node id="-1476" visible="true" lat="43.37457847" lon="-72.50514029">
    <tag k="addr:city" v="Weathersfield"/>
    <tag k="addr:housenumber" v="180"/>
    <tag k="addr:street" v="Pine Hill Road"/>
    <tag k="addr:state" v="VT"/>
    <tag k="ref:vcgi:esiteid" v="277738"/>
  </node>
  <node id="-1482" visible="true" lat="43.41861746" lon="-72.40226431">
    <tag k="addr:city" v="Weathersfield"/>
    <tag k="addr:housenumber" v="50"/>
    <tag k="addr:street" v="Red Maple Lane"/>
    <tag k="addr:state" v="VT"/>
    <tag k="ref:vcgi:esiteid" v="277744"/>
  </node>
  <node id="-1489" visible="true" lat="43.41267607" lon="-72.40962392">
    <tag k="addr:city" v="Weathersfield"/>
    <tag k="addr:housenumber" v="203"/>
    <tag k="addr:street" v="Riley Drive"/>
    <tag k="addr:state" v="VT"/>
    <tag k="ref:vcgi:esiteid" v="277751"/>
  </node>
  <node id="-1491" visible="true" lat="43.40652139" lon="-72.4061011">
    <tag k="addr:city" v="Weathersfield"/>
    <tag k="addr:housenumber" v="5159"/>
    <tag k="addr:street" v="U.S. Route 5"/>
    <tag k="addr:state" v="VT"/>
    <tag k="ref:vcgi:esiteid" v="277753"/>
  </node>
  <node id="-1494" visible="true" lat="43.39890947" lon="-72.41069364">
    <tag k="addr:city" v="Weathersfield"/>
    <tag k="addr:housenumber" v="410"/>
    <tag k="addr:street" v="Tenney Hill Road"/>
    <tag k="addr:state" v="VT"/>
    <tag k="ref:vcgi:esiteid" v="277756"/>
  </node>
  <node id="-1500" visible="true" lat="43.41929757" lon="-72.40542782">
    <tag k="addr:city" v="Weathersfield"/>
    <tag k="addr:housenumber" v="16"/>
    <tag k="addr:street" v="Water Avenue"/>
    <tag k="addr:state" v="VT"/>
    <tag k="ref:vcgi:esiteid" v="277762"/>
  </node>
  <node id="-1501" visible="true" lat="43.40978084" lon="-72.40284683">
    <tag k="addr:city" v="Weathersfield"/>
    <tag k="addr:housenumber" v="130"/>
    <tag k="addr:street" v="Garden Way"/>
    <tag k="addr:state" v="VT"/>
    <tag k="ref:vcgi:esiteid" v="277763"/>
  </node>
  <node id="-1512" visible="true" lat="43.35280717" lon="-72.43506324">
    <tag k="addr:city" v="Weathersfield"/>
    <tag k="addr:housenumber" v="1662"/>
    <tag k="addr:street" v="Bowen Hill Road"/>
    <tag k="addr:state" v="VT"/>
    <tag k="ref:vcgi:esiteid" v="277774"/>
  </node>
  <node id="-1516" visible="true" lat="43.41971763" lon="-72.40363437">
    <tag k="addr:city" v="Weathersfield"/>
    <tag k="addr:housenumber" v="6076"/>
    <tag k="addr:street" v="U.S. Route 5"/>
    <tag k="addr:state" v="VT"/>
    <tag k="ref:vcgi:esiteid" v="277778"/>
  </node>
  <node id="-1517" visible="true" lat="43.41982287" lon="-72.40357837">
    <tag k="addr:city" v="Weathersfield"/>
    <tag k="addr:housenumber" v="6078"/>
    <tag k="addr:street" v="U.S. Route 5"/>
    <tag k="addr:state" v="VT"/>
    <tag k="ref:vcgi:esiteid" v="277779"/>
  </node>
  <node id="-1518" visible="true" lat="43.35860957" lon="-72.44129212">
    <tag k="addr:city" v="Weathersfield"/>
    <tag k="addr:housenumber" v="441"/>
    <tag k="addr:street" v="Downer Hill Road"/>
    <tag k="addr:state" v="VT"/>
    <tag k="ref:vcgi:esiteid" v="277780"/>
  </node>
  <node id="-1520" visible="true" lat="43.41469259" lon="-72.40696036">
    <tag k="addr:city" v="Weathersfield"/>
    <tag k="addr:housenumber" v="5722"/>
    <tag k="addr:street" v="U.S. Route 5"/>
    <tag k="addr:state" v="VT"/>
    <tag k="ref:vcgi:esiteid" v="277782"/>
  </node>
  <node id="-1524" visible="true" lat="43.39998279" lon="-72.50930663">
    <tag k="addr:city" v="Weathersfield"/>
    <tag k="addr:housenumber" v="37"/>
    <tag k="addr:street" v="Branch Brook Road"/>
    <tag k="addr:state" v="VT"/>
    <tag k="ref:vcgi:esiteid" v="277786"/>
  </node>
  <node id="-1529" visible="true" lat="43.35905637" lon="-72.45206554">
    <tag k="addr:city" v="Weathersfield"/>
    <tag k="addr:housenumber" v="1232"/>
    <tag k="addr:street" v="Skyline Drive"/>
    <tag k="addr:state" v="VT"/>
    <tag k="ref:vcgi:esiteid" v="277792"/>
  </node>
  <node id="-1537" visible="true" lat="43.41203306" lon="-72.40729307">
    <tag k="addr:city" v="Weathersfield"/>
    <tag k="addr:housenumber" v="64"/>
    <tag k="addr:street" v="Riley Drive"/>
    <tag k="addr:state" v="VT"/>
    <tag k="ref:vcgi:esiteid" v="277800"/>
  </node>
  <node id="-1547" visible="true" lat="43.36611354" lon="-72.44993669">
    <tag k="addr:city" v="Weathersfield"/>
    <tag k="addr:housenumber" v="191"/>
    <tag k="addr:street" v="Cooks Pond Road"/>
    <tag k="addr:state" v="VT"/>
    <tag k="ref:vcgi:esiteid" v="277810"/>
  </node>
  <node id="-1550" visible="true" lat="43.40825831" lon="-72.4034746">
    <tag k="addr:city" v="Weathersfield"/>
    <tag k="addr:housenumber" v="207"/>
    <tag k="addr:street" v="Garden Way"/>
    <tag k="addr:state" v="VT"/>
    <tag k="ref:vcgi:esiteid" v="277813"/>
  </node>
  <node id="-1562" visible="true" lat="43.4123423" lon="-72.40973369">
    <tag k="addr:city" v="Weathersfield"/>
    <tag k="addr:housenumber" v="235"/>
    <tag k="addr:street" v="Riley Drive"/>
    <tag k="addr:state" v="VT"/>
    <tag k="ref:vcgi:esiteid" v="277825"/>
  </node>
  <node id="-1565" visible="true" lat="43.36392503" lon="-72.50171638">
    <tag k="addr:city" v="Weathersfield"/>
    <tag k="addr:housenumber" v="50"/>
    <tag k="addr:street" v="Pine Pitch Road"/>
    <tag k="addr:state" v="VT"/>
    <tag k="ref:vcgi:esiteid" v="277828"/>
  </node>
  <node id="-1569" visible="true" lat="43.40347259" lon="-72.51573561">
    <tag k="addr:city" v="Weathersfield"/>
    <tag k="addr:housenumber" v="43"/>
    <tag k="addr:street" v="Apple Ridge Road"/>
    <tag k="addr:state" v="VT"/>
    <tag k="ref:vcgi:esiteid" v="305556"/>
  </node>
  <node id="-1572" visible="true" lat="43.39979173" lon="-72.5084262">
    <tag k="addr:city" v="Weathersfield"/>
    <tag k="addr:housenumber" v="85"/>
    <tag k="addr:street" v="Branch Brook Road"/>
    <tag k="addr:state" v="VT"/>
    <tag k="ref:vcgi:esiteid" v="306130"/>
  </node>
  <node id="-1574" visible="true" lat="43.36114883" lon="-72.44923959">
    <tag k="addr:city" v="Weathersfield"/>
    <tag k="addr:housenumber" v="1445"/>
    <tag k="addr:street" v="Skyline Drive"/>
    <tag k="addr:state" v="VT"/>
    <tag k="ref:vcgi:esiteid" v="306847"/>
  </node>
  <node id="-1575" visible="true" lat="43.36749649" lon="-72.45323373">
    <tag k="addr:city" v="Weathersfield"/>
    <tag k="addr:housenumber" v="1913"/>
    <tag k="addr:street" v="Skyline Drive"/>
    <tag k="addr:state" v="VT"/>
    <tag k="ref:vcgi:esiteid" v="306848"/>
  </node>
  <node id="-1579" visible="true" lat="43.4018846" lon="-72.51647998">
    <tag k="addr:city" v="Weathersfield"/>
    <tag k="addr:housenumber" v="24"/>
    <tag k="addr:street" v="Apple Ridge Road"/>
    <tag k="addr:state" v="VT"/>
    <tag k="ref:vcgi:esiteid" v="307594"/>
  </node>
  <node id="-1587" visible="true" lat="43.42837829" lon="-72.39866433">
    <tag k="addr:city" v="Weathersfield"/>
    <tag k="addr:housenumber" v="6685"/>
    <tag k="addr:street" v="U.S. Route 5"/>
    <tag k="addr:state" v="VT"/>
    <tag k="ref:vcgi:esiteid" v="315255"/>
  </node>
  <node id="-1598" visible="true" lat="43.37328916" lon="-72.53812288">
    <tag k="addr:city" v="Weathersfield"/>
    <tag k="addr:housenumber" v="998"/>
    <tag k="addr:street" v="Quarry Road"/>
    <tag k="addr:state" v="VT"/>
    <tag k="ref:vcgi:esiteid" v="326482"/>
  </node>
  <node id="-1607" visible="true" lat="43.40927589" lon="-72.40470815">
    <tag k="addr:city" v="Weathersfield"/>
    <tag k="addr:housenumber" v="133"/>
    <tag k="addr:street" v="Garden Way"/>
    <tag k="addr:state" v="VT"/>
    <tag k="ref:vcgi:esiteid" v="329426"/>
  </node>
  <node id="-1608" visible="true" lat="43.40941232" lon="-72.40553114">
    <tag k="addr:city" v="Weathersfield"/>
    <tag k="addr:housenumber" v="93"/>
    <tag k="addr:street" v="Garden Way"/>
    <tag k="addr:state" v="VT"/>
    <tag k="ref:vcgi:esiteid" v="329427"/>
  </node>
  <node id="-1618" visible="true" lat="43.42136383" lon="-72.40304773">
    <tag k="addr:city" v="Weathersfield"/>
    <tag k="addr:housenumber" v="6178"/>
    <tag k="addr:street" v="U.S. Route 5"/>
    <tag k="addr:state" v="VT"/>
    <tag k="ref:vcgi:esiteid" v="336348"/>
  </node>
  <node id="-1629" visible="true" lat="43.36162867" lon="-72.50179426">
    <tag k="addr:city" v="Weathersfield"/>
    <tag k="addr:housenumber" v="81"/>
    <tag k="addr:street" v="Grouse Lane"/>
    <tag k="addr:state" v="VT"/>
    <tag k="ref:vcgi:esiteid" v="341067"/>
  </node>
  <node id="-1633" visible="true" lat="43.36303448" lon="-72.45064765">
    <tag k="addr:city" v="Weathersfield"/>
    <tag k="addr:housenumber" v="1577"/>
    <tag k="addr:street" v="Skyline Drive"/>
    <tag k="addr:state" v="VT"/>
    <tag k="ref:vcgi:esiteid" v="342206"/>
  </node>
  <node id="-1634" visible="true" lat="43.40729781" lon="-72.40143465">
    <tag k="addr:city" v="Weathersfield"/>
    <tag k="addr:housenumber" v="22"/>
    <tag k="addr:street" v="Old Bridge Road"/>
    <tag k="addr:state" v="VT"/>
    <tag k="ref:vcgi:esiteid" v="342527"/>
  </node>
  <node id="-1637" visible="true" lat="43.40192822" lon="-72.40788602">
    <tag k="addr:city" v="Weathersfield"/>
    <tag k="addr:housenumber" v="4840"/>
    <tag k="addr:street" v="U.S. Route 5"/>
    <tag k="addr:state" v="VT"/>
    <tag k="ref:vcgi:esiteid" v="345873"/>
  </node>
  <node id="-1649" visible="true" lat="43.4116928" lon="-72.40822513">
    <tag k="addr:city" v="Weathersfield"/>
    <tag k="addr:housenumber" v="75"/>
    <tag k="addr:street" v="Schoolhouse Road"/>
    <tag k="addr:state" v="VT"/>
    <tag k="ref:vcgi:esiteid" v="450535"/>
  </node>
  <node id="-1680" visible="true" lat="43.40761959" lon="-72.40599027">
    <tag k="addr:city" v="Weathersfield"/>
    <tag k="addr:housenumber" v="5287"/>
    <tag k="addr:street" v="U.S. Route 5"/>
    <tag k="addr:state" v="VT"/>
    <tag k="ref:vcgi:esiteid" v="750828"/>
  </node>
</osm>
