<?xml version="1.0" encoding="UTF-8"?>
<osm version="0.6" generator="JOSM" upload="false">
  <node id="-108" visible="true" lat="44.91978055" lon="-72.41386306">
    <tag k="addr:housenumber" v="233"/>
    <tag k="addr:street" v="Forest Haven Road"/>
    <tag k="addr:state" v="VT"/>
    <tag k="ref:vcgi:esiteid" v="280919"/>
  </node>
  <node id="-110" visible="true" lat="44.91943203" lon="-72.41509169">
    <tag k="addr:housenumber" v="232"/>
    <tag k="addr:street" v="Forest Haven Road"/>
    <tag k="addr:state" v="VT"/>
    <tag k="ref:vcgi:esiteid" v="280921"/>
  </node>
  <node id="-116" visible="true" lat="44.91638183" lon="-72.42402648">
    <tag k="addr:housenumber" v="1102"/>
    <tag k="addr:street" v="Kennison Road"/>
    <tag k="addr:state" v="VT"/>
    <tag k="ref:vcgi:esiteid" v="280927"/>
  </node>
  <node id="-119" visible="true" lat="44.91569802" lon="-72.43101229">
    <tag k="addr:housenumber" v="1867"/>
    <tag k="addr:street" v="North Hill Road"/>
    <tag k="addr:state" v="VT"/>
    <tag k="ref:vcgi:esiteid" v="280930"/>
  </node>
  <node id="-133" visible="true" lat="44.90634261" lon="-72.43158226">
    <tag k="addr:housenumber" v="1249"/>
    <tag k="addr:street" v="North Hill Road"/>
    <tag k="addr:state" v="VT"/>
    <tag k="ref:vcgi:esiteid" v="280946"/>
  </node>
  <node id="-137" visible="true" lat="44.90283322" lon="-72.43641231">
    <tag k="addr:housenumber" v="245"/>
    <tag k="addr:street" v="Kingdom Mountain Road"/>
    <tag k="addr:state" v="VT"/>
    <tag k="ref:vcgi:esiteid" v="280950"/>
  </node>
  <node id="-138" visible="true" lat="44.90192223" lon="-72.42571705">
    <tag k="addr:housenumber" v="397"/>
    <tag k="addr:street" v="Deslandes Road"/>
    <tag k="addr:state" v="VT"/>
    <tag k="ref:vcgi:esiteid" v="280951"/>
  </node>
  <node id="-139" visible="true" lat="44.90133826" lon="-72.44521137">
    <tag k="addr:housenumber" v="725"/>
    <tag k="addr:street" v="Kingdom Mountain Road"/>
    <tag k="addr:state" v="VT"/>
    <tag k="ref:vcgi:esiteid" v="280952"/>
  </node>
  <node id="-140" visible="true" lat="44.90118596" lon="-72.42373767">
    <tag k="addr:housenumber" v="352"/>
    <tag k="addr:street" v="Deslandes Road"/>
    <tag k="addr:state" v="VT"/>
    <tag k="ref:vcgi:esiteid" v="280953"/>
  </node>
  <node id="-143" visible="true" lat="44.89724731" lon="-72.41377258">
    <tag k="addr:housenumber" v="204"/>
    <tag k="addr:street" v="Vermont Route 100"/>
    <tag k="addr:state" v="VT"/>
    <tag k="ref:vcgi:esiteid" v="280956"/>
  </node>
  <node id="-145" visible="true" lat="44.89665222" lon="-72.41413116">
    <tag k="addr:housenumber" v="264"/>
    <tag k="addr:street" v="Vermont Route 100"/>
    <tag k="addr:state" v="VT"/>
    <tag k="ref:vcgi:esiteid" v="280958"/>
  </node>
  <node id="-147" visible="true" lat="44.8957251" lon="-72.52125714">
    <tag k="addr:housenumber" v="1074"/>
    <tag k="addr:street" v="Vermont Route 242"/>
    <tag k="addr:state" v="VT"/>
    <tag k="ref:vcgi:esiteid" v="280960"/>
  </node>
  <node id="-149" visible="true" lat="44.89516608" lon="-72.4173022">
    <tag k="addr:housenumber" v="460"/>
    <tag k="addr:street" v="Vermont Route 100"/>
    <tag k="addr:state" v="VT"/>
    <tag k="ref:vcgi:esiteid" v="280962"/>
  </node>
  <node id="-203" visible="true" lat="44.89190041" lon="-72.4243656">
    <tag k="addr:housenumber" v="864"/>
    <tag k="addr:street" v="Vermont Route 100"/>
    <tag k="addr:state" v="VT"/>
    <tag k="ref:vcgi:esiteid" v="281019"/>
  </node>
  <node id="-220" visible="true" lat="44.89124679" lon="-72.42575836">
    <tag k="addr:housenumber" v="948"/>
    <tag k="addr:street" v="Vermont Route 100"/>
    <tag k="addr:state" v="VT"/>
    <tag k="ref:vcgi:esiteid" v="281036"/>
  </node>
  <node id="-223" visible="true" lat="44.89100767" lon="-72.42508194">
    <tag k="addr:housenumber" v="929"/>
    <tag k="addr:street" v="Vermont Route 100"/>
    <tag k="addr:state" v="VT"/>
    <tag k="ref:vcgi:esiteid" v="281039"/>
  </node>
  <node id="-229" visible="true" lat="44.89090169" lon="-72.42368142">
    <tag k="addr:housenumber" v="855"/>
    <tag k="addr:street" v="Vermont Route 100"/>
    <tag k="addr:state" v="VT"/>
    <tag k="ref:vcgi:esiteid" v="281045"/>
  </node>
  <node id="-243" visible="true" lat="44.89056396" lon="-72.42626953">
    <tag k="addr:housenumber" v="999"/>
    <tag k="addr:street" v="Vermont Route 100"/>
    <tag k="addr:state" v="VT"/>
    <tag k="ref:vcgi:esiteid" v="281059"/>
  </node>
  <node id="-246" visible="true" lat="44.89040562" lon="-72.4365386">
    <tag k="addr:housenumber" v="219"/>
    <tag k="addr:street" v="Ballground Road"/>
    <tag k="addr:state" v="VT"/>
    <tag k="ref:vcgi:esiteid" v="281062"/>
  </node>
  <node id="-248" visible="true" lat="44.89043873" lon="-72.42982257">
    <tag k="addr:housenumber" v="38"/>
    <tag k="addr:street" v="School Street"/>
    <tag k="addr:state" v="VT"/>
    <tag k="ref:vcgi:esiteid" v="281064"/>
  </node>
  <node id="-252" visible="true" lat="44.89028549" lon="-72.42762756">
    <tag k="addr:housenumber" v="1060"/>
    <tag k="addr:street" v="Vermont Route 100"/>
    <tag k="addr:state" v="VT"/>
    <tag k="ref:vcgi:esiteid" v="281068"/>
  </node>
  <node id="-268" visible="true" lat="44.88893508" lon="-72.42837524">
    <tag k="addr:housenumber" v="1167"/>
    <tag k="addr:street" v="Vermont Route 100"/>
    <tag k="addr:state" v="VT"/>
    <tag k="ref:vcgi:esiteid" v="281085"/>
  </node>
  <node id="-277" visible="true" lat="44.88790355" lon="-72.53477657">
    <tag k="addr:housenumber" v="195"/>
    <tag k="addr:street" v="Vermont Route 242"/>
    <tag k="addr:state" v="VT"/>
    <tag k="ref:vcgi:esiteid" v="281094"/>
  </node>
  <node id="-280" visible="true" lat="44.88711048" lon="-72.42948839">
    <tag k="addr:housenumber" v="1290"/>
    <tag k="addr:street" v="Vermont Route 100"/>
    <tag k="addr:state" v="VT"/>
    <tag k="ref:vcgi:esiteid" v="281097"/>
  </node>
  <node id="-291" visible="true" lat="44.88226094" lon="-72.53105868">
    <tag k="addr:housenumber" v="903"/>
    <tag k="addr:street" v="Fisher Road"/>
    <tag k="addr:state" v="VT"/>
    <tag k="ref:vcgi:esiteid" v="281108"/>
  </node>
  <node id="-292" visible="true" lat="44.88197715" lon="-72.43516365">
    <tag k="addr:housenumber" v="258"/>
    <tag k="addr:street" v="Carmel Road"/>
    <tag k="addr:state" v="VT"/>
    <tag k="ref:vcgi:esiteid" v="281109"/>
  </node>
  <node id="-293" visible="true" lat="44.88331112" lon="-72.52506184">
    <tag k="addr:housenumber" v="905"/>
    <tag k="addr:street" v="Fisher Road"/>
    <tag k="addr:state" v="VT"/>
    <tag k="ref:vcgi:esiteid" v="281110"/>
  </node>
  <node id="-294" visible="true" lat="44.88066389" lon="-72.53124274">
    <tag k="addr:housenumber" v="902"/>
    <tag k="addr:street" v="Fisher Road"/>
    <tag k="addr:state" v="VT"/>
    <tag k="ref:vcgi:esiteid" v="281111"/>
  </node>
  <node id="-296" visible="true" lat="44.8799583" lon="-72.53556949">
    <tag k="addr:housenumber" v="650"/>
    <tag k="addr:street" v="Fisher Road"/>
    <tag k="addr:state" v="VT"/>
    <tag k="ref:vcgi:esiteid" v="281113"/>
  </node>
  <node id="-299" visible="true" lat="44.87913131" lon="-72.41748046">
    <tag k="addr:housenumber" v="659"/>
    <tag k="addr:street" v="Cemetery Road"/>
    <tag k="addr:state" v="VT"/>
    <tag k="ref:vcgi:esiteid" v="281116"/>
  </node>
  <node id="-300" visible="true" lat="44.88185481" lon="-72.43506769">
    <tag k="addr:housenumber" v="260"/>
    <tag k="addr:street" v="Carmel Road"/>
    <tag k="addr:state" v="VT"/>
    <tag k="ref:vcgi:esiteid" v="281117"/>
  </node>
  <node id="-305" visible="true" lat="44.87509536" lon="-72.43162536">
    <tag k="addr:housenumber" v="2134"/>
    <tag k="addr:street" v="Vermont Route 100"/>
    <tag k="addr:state" v="VT"/>
    <tag k="ref:vcgi:esiteid" v="281122"/>
  </node>
  <node id="-308" visible="true" lat="44.87458419" lon="-72.43074798">
    <tag k="addr:housenumber" v="2167"/>
    <tag k="addr:street" v="Vermont Route 100"/>
    <tag k="addr:state" v="VT"/>
    <tag k="ref:vcgi:esiteid" v="281125"/>
  </node>
  <node id="-309" visible="true" lat="44.87405588" lon="-72.45189242">
    <tag k="addr:housenumber" v="434"/>
    <tag k="addr:street" v="Kettle Farm Road"/>
    <tag k="addr:state" v="VT"/>
    <tag k="ref:vcgi:esiteid" v="281126"/>
  </node>
  <node id="-311" visible="true" lat="44.87073766" lon="-72.44545596">
    <tag k="addr:housenumber" v="272"/>
    <tag k="addr:street" v="Balance Rock Road"/>
    <tag k="addr:state" v="VT"/>
    <tag k="ref:vcgi:esiteid" v="281128"/>
  </node>
  <node id="-316" visible="true" lat="44.86969889" lon="-72.46054787">
    <tag k="addr:housenumber" v="550"/>
    <tag k="addr:street" v="Corrow Basin Road"/>
    <tag k="addr:state" v="VT"/>
    <tag k="ref:vcgi:esiteid" v="281133"/>
  </node>
  <node id="-322" visible="true" lat="44.86847685" lon="-72.41836477">
    <tag k="addr:housenumber" v="142"/>
    <tag k="addr:street" v="Fuller Road"/>
    <tag k="addr:state" v="VT"/>
    <tag k="ref:vcgi:esiteid" v="281139"/>
  </node>
  <node id="-341" visible="true" lat="44.86411141" lon="-72.44637279">
    <tag k="addr:housenumber" v="275"/>
    <tag k="addr:street" v="Taft Brook Road"/>
    <tag k="addr:state" v="VT"/>
    <tag k="ref:vcgi:esiteid" v="281160"/>
  </node>
  <node id="-343" visible="true" lat="44.86306669" lon="-72.43412869">
    <tag k="addr:housenumber" v="2998"/>
    <tag k="addr:street" v="Vermont Route 100"/>
    <tag k="addr:state" v="VT"/>
    <tag k="ref:vcgi:esiteid" v="281162"/>
  </node>
  <node id="-344" visible="true" lat="44.8627051" lon="-72.43309208">
    <tag k="addr:housenumber" v="2987"/>
    <tag k="addr:street" v="Vermont Route 100"/>
    <tag k="addr:state" v="VT"/>
    <tag k="ref:vcgi:esiteid" v="281163"/>
  </node>
  <node id="-346" visible="true" lat="44.86218643" lon="-72.45742797">
    <tag k="addr:housenumber" v="1137"/>
    <tag k="addr:street" v="Balance Rock Road"/>
    <tag k="addr:state" v="VT"/>
    <tag k="ref:vcgi:esiteid" v="281165"/>
  </node>
  <node id="-349" visible="true" lat="44.86141649" lon="-72.43110667">
    <tag k="addr:housenumber" v="178"/>
    <tag k="addr:street" v="Peaceful Ridge Drive"/>
    <tag k="addr:state" v="VT"/>
    <tag k="ref:vcgi:esiteid" v="281168"/>
  </node>
  <node id="-350" visible="true" lat="44.86120224" lon="-72.43549346">
    <tag k="addr:housenumber" v="3102"/>
    <tag k="addr:street" v="Vermont Route 100"/>
    <tag k="addr:state" v="VT"/>
    <tag k="ref:vcgi:esiteid" v="281169"/>
  </node>
  <node id="-351" visible="true" lat="44.85986709" lon="-72.45037078">
    <tag k="addr:housenumber" v="1281"/>
    <tag k="addr:street" v="Buck Hill Road"/>
    <tag k="addr:state" v="VT"/>
    <tag k="ref:vcgi:esiteid" v="281170"/>
  </node>
  <node id="-352" visible="true" lat="44.85889053" lon="-72.41180419">
    <tag k="addr:housenumber" v="2452"/>
    <tag k="addr:street" v="Loop Road"/>
    <tag k="addr:state" v="VT"/>
    <tag k="ref:vcgi:esiteid" v="281171"/>
  </node>
  <node id="-359" visible="true" lat="44.85383011" lon="-72.46060008">
    <tag k="addr:housenumber" v="86"/>
    <tag k="addr:street" v="Circle Road"/>
    <tag k="addr:state" v="VT"/>
    <tag k="ref:vcgi:esiteid" v="281178"/>
  </node>
  <node id="-361" visible="true" lat="44.85325082" lon="-72.46008416">
    <tag k="addr:housenumber" v="7"/>
    <tag k="addr:street" v="Circle Road"/>
    <tag k="addr:state" v="VT"/>
    <tag k="ref:vcgi:esiteid" v="281180"/>
  </node>
  <node id="-366" visible="true" lat="44.85121536" lon="-72.43378448">
    <tag k="addr:housenumber" v="3809"/>
    <tag k="addr:street" v="Vermont Route 100"/>
    <tag k="addr:state" v="VT"/>
    <tag k="ref:vcgi:esiteid" v="281185"/>
  </node>
  <node id="-369" visible="true" lat="44.84583282" lon="-72.44191742">
    <tag k="addr:housenumber" v="571"/>
    <tag k="addr:street" v="Sniderbrook Road"/>
    <tag k="addr:state" v="VT"/>
    <tag k="ref:vcgi:esiteid" v="281188"/>
  </node>
  <node id="-372" visible="true" lat="44.84482574" lon="-72.4803009">
    <tag k="addr:housenumber" v="2872"/>
    <tag k="addr:street" v="Balance Rock Road"/>
    <tag k="addr:state" v="VT"/>
    <tag k="ref:vcgi:esiteid" v="281191"/>
  </node>
  <node id="-376" visible="true" lat="44.84370422" lon="-72.47994995">
    <tag k="addr:housenumber" v="2849"/>
    <tag k="addr:street" v="Balance Rock Road"/>
    <tag k="addr:state" v="VT"/>
    <tag k="ref:vcgi:esiteid" v="281195"/>
  </node>
  <node id="-379" visible="true" lat="44.84307861" lon="-72.48207092">
    <tag k="addr:housenumber" v="2948"/>
    <tag k="addr:street" v="Balance Rock Road"/>
    <tag k="addr:state" v="VT"/>
    <tag k="ref:vcgi:esiteid" v="281198"/>
  </node>
  <node id="-385" visible="true" lat="44.84003532" lon="-72.52998952">
    <tag k="addr:housenumber" v="1269"/>
    <tag k="addr:street" v="Route 58"/>
    <tag k="addr:state" v="VT"/>
    <tag k="ref:vcgi:esiteid" v="281204"/>
  </node>
  <node id="-388" visible="true" lat="44.83924304" lon="-72.43567069">
    <tag k="addr:housenumber" v="4656"/>
    <tag k="addr:street" v="Vermont Route 100"/>
    <tag k="addr:state" v="VT"/>
    <tag k="ref:vcgi:esiteid" v="281207"/>
  </node>
  <node id="-400" visible="true" lat="44.83523977" lon="-72.50776542">
    <tag k="addr:housenumber" v="1302"/>
    <tag k="addr:street" v="Monteith Road"/>
    <tag k="addr:state" v="VT"/>
    <tag k="ref:vcgi:esiteid" v="281219"/>
  </node>
  <node id="-403" visible="true" lat="44.90267535" lon="-72.43914623">
    <tag k="addr:housenumber" v="387"/>
    <tag k="addr:street" v="Kingdom Mountain Road"/>
    <tag k="addr:state" v="VT"/>
    <tag k="ref:vcgi:esiteid" v="281222"/>
  </node>
  <node id="-409" visible="true" lat="44.89085347" lon="-72.43495232">
    <tag k="addr:housenumber" v="169"/>
    <tag k="addr:street" v="Ballground Road"/>
    <tag k="addr:state" v="VT"/>
    <tag k="ref:vcgi:esiteid" v="281228"/>
  </node>
  <node id="-424" visible="true" lat="44.8585884" lon="-72.44821581">
    <tag k="addr:housenumber" v="1348"/>
    <tag k="addr:street" v="Buck Hill Road"/>
    <tag k="addr:state" v="VT"/>
    <tag k="ref:vcgi:esiteid" v="281244"/>
  </node>
  <node id="-425" visible="true" lat="44.85727747" lon="-72.44960687">
    <tag k="addr:housenumber" v="1462"/>
    <tag k="addr:street" v="Buck Hill Road"/>
    <tag k="addr:state" v="VT"/>
    <tag k="ref:vcgi:esiteid" v="281245"/>
  </node>
  <node id="-429" visible="true" lat="44.89920197" lon="-72.42397936">
    <tag k="addr:housenumber" v="272"/>
    <tag k="addr:street" v="Deslandes Road"/>
    <tag k="addr:state" v="VT"/>
    <tag k="ref:vcgi:esiteid" v="281249"/>
  </node>
  <node id="-433" visible="true" lat="44.91861238" lon="-72.42299255">
    <tag k="addr:housenumber" v="1409"/>
    <tag k="addr:street" v="Kennison Road"/>
    <tag k="addr:state" v="VT"/>
    <tag k="ref:vcgi:esiteid" v="281254"/>
  </node>
  <node id="-437" visible="true" lat="44.88843887" lon="-72.44185657">
    <tag k="addr:housenumber" v="237"/>
    <tag k="addr:street" v="Crawford Trail"/>
    <tag k="addr:state" v="VT"/>
    <tag k="ref:vcgi:esiteid" v="326217"/>
  </node>
  <node id="-438" visible="true" lat="44.88769954" lon="-72.44562646">
    <tag k="addr:housenumber" v="440"/>
    <tag k="addr:street" v="Crawford Trail"/>
    <tag k="addr:state" v="VT"/>
    <tag k="ref:vcgi:esiteid" v="326218"/>
  </node>
  <node id="-439" visible="true" lat="44.88144472" lon="-72.44911054">
    <tag k="addr:housenumber" v="922"/>
    <tag k="addr:street" v="Crawford Trail"/>
    <tag k="addr:state" v="VT"/>
    <tag k="ref:vcgi:esiteid" v="326219"/>
  </node>
  <node id="-442" visible="true" lat="44.90311945" lon="-72.44056916">
    <tag k="addr:housenumber" v="454"/>
    <tag k="addr:street" v="Kingdom Mountain Road"/>
    <tag k="addr:state" v="VT"/>
    <tag k="ref:vcgi:esiteid" v="326573"/>
  </node>
  <node id="-444" visible="true" lat="44.87953178" lon="-72.44971194">
    <tag k="addr:housenumber" v="1200"/>
    <tag k="addr:street" v="Carmel Road"/>
    <tag k="addr:state" v="VT"/>
    <tag k="ref:vcgi:esiteid" v="326575"/>
  </node>
  <node id="-449" visible="true" lat="44.92436591" lon="-72.52606876">
    <tag k="addr:housenumber" v="1838"/>
    <tag k="addr:street" v="Work Road"/>
    <tag k="addr:state" v="VT"/>
    <tag k="ref:vcgi:esiteid" v="340437"/>
  </node>
  <node id="-450" visible="true" lat="44.92580206" lon="-72.52778063">
    <tag k="addr:housenumber" v="1378"/>
    <tag k="addr:street" v="Work Road"/>
    <tag k="addr:state" v="VT"/>
    <tag k="ref:vcgi:esiteid" v="340438"/>
  </node>
  <node id="-451" visible="true" lat="44.92557635" lon="-72.51638846">
    <tag k="addr:housenumber" v="446"/>
    <tag k="addr:street" v="Work Road"/>
    <tag k="addr:state" v="VT"/>
    <tag k="ref:vcgi:esiteid" v="340442"/>
  </node>
  <node id="-452" visible="true" lat="44.92029299" lon="-72.51186788">
    <tag k="addr:housenumber" v="823"/>
    <tag k="addr:street" v="Work Road"/>
    <tag k="addr:state" v="VT"/>
    <tag k="ref:vcgi:esiteid" v="340443"/>
  </node>
  <node id="-453" visible="true" lat="44.92009264" lon="-72.51181879">
    <tag k="addr:housenumber" v="825"/>
    <tag k="addr:street" v="Work Road"/>
    <tag k="addr:state" v="VT"/>
    <tag k="ref:vcgi:esiteid" v="340444"/>
  </node>
  <node id="-454" visible="true" lat="44.8790733" lon="-72.44178852">
    <tag k="addr:housenumber" v="790"/>
    <tag k="addr:street" v="Carmel Road"/>
    <tag k="addr:state" v="VT"/>
    <tag k="ref:vcgi:esiteid" v="340754"/>
  </node>
  <node id="-459" visible="true" lat="44.91970534" lon="-72.42924623">
    <tag k="addr:housenumber" v="2124"/>
    <tag k="addr:street" v="North Hill Road"/>
    <tag k="addr:state" v="VT"/>
    <tag k="ref:vcgi:esiteid" v="343428"/>
  </node>
  <node id="-463" visible="true" lat="44.862708" lon="-72.4294138">
    <tag k="addr:housenumber" v="187"/>
    <tag k="addr:street" v="Peaceful Ridge Drive"/>
    <tag k="addr:state" v="VT"/>
    <tag k="ref:vcgi:esiteid" v="343432"/>
  </node>
  <node id="-464" visible="true" lat="44.86504872" lon="-72.43294537">
    <tag k="addr:housenumber" v="2841"/>
    <tag k="addr:street" v="Vermont Route 100"/>
    <tag k="addr:state" v="VT"/>
    <tag k="ref:vcgi:esiteid" v="344362"/>
  </node>
  <node id="-465" visible="true" lat="44.84697249" lon="-72.464905">
    <tag k="addr:housenumber" v="2482"/>
    <tag k="addr:street" v="Buck Hill Road"/>
    <tag k="addr:state" v="VT"/>
    <tag k="ref:vcgi:esiteid" v="344364"/>
  </node>
  <node id="-466" visible="true" lat="44.86458284" lon="-72.42032616">
    <tag k="addr:housenumber" v="226"/>
    <tag k="addr:street" v="Mineral Spring Road"/>
    <tag k="addr:state" v="VT"/>
    <tag k="ref:vcgi:esiteid" v="344427"/>
  </node>
  <node id="-468" visible="true" lat="44.87029972" lon="-72.43505847">
    <tag k="addr:housenumber" v="220"/>
    <tag k="addr:street" v="Buck Hill Road"/>
    <tag k="addr:state" v="VT"/>
    <tag k="ref:vcgi:esiteid" v="345920"/>
  </node>
  <node id="-469" visible="true" lat="44.86376571" lon="-72.42992787">
    <tag k="addr:housenumber" v="127"/>
    <tag k="addr:street" v="Peaceful Ridge Drive"/>
    <tag k="addr:state" v="VT"/>
    <tag k="ref:vcgi:esiteid" v="345921"/>
  </node>
  <node id="-471" visible="true" lat="44.83441464" lon="-72.50898073">
    <tag k="addr:housenumber" v="21"/>
    <tag k="addr:street" v="Route 58"/>
    <tag k="addr:state" v="VT"/>
    <tag k="ref:vcgi:esiteid" v="365446"/>
  </node>
  <node id="-473" visible="true" lat="44.90570398" lon="-72.43081211">
    <tag k="addr:housenumber" v="1202"/>
    <tag k="addr:street" v="North Hill Road"/>
    <tag k="addr:state" v="VT"/>
    <tag k="ref:vcgi:esiteid" v="446628"/>
  </node>
  <node id="-475" visible="true" lat="44.87910283" lon="-72.43719912">
    <tag k="addr:housenumber" v="542"/>
    <tag k="addr:street" v="Carmel Road"/>
    <tag k="addr:state" v="VT"/>
    <tag k="ref:vcgi:esiteid" v="448281"/>
  </node>
  <node id="-476" visible="true" lat="44.86857785" lon="-72.44386169">
    <tag k="addr:housenumber" v="239"/>
    <tag k="addr:street" v="Balance Rock Road"/>
    <tag k="addr:state" v="VT"/>
    <tag k="ref:vcgi:esiteid" v="448308"/>
  </node>
  <node id="-483" visible="true" lat="44.90595529" lon="-72.42735655">
    <tag k="addr:housenumber" v="1248"/>
    <tag k="addr:street" v="North Hill Road"/>
    <tag k="addr:state" v="VT"/>
    <tag k="ref:vcgi:esiteid" v="454920"/>
  </node>
  <node id="-485" visible="true" lat="44.87081577" lon="-72.44333421">
    <tag k="addr:housenumber" v="226"/>
    <tag k="addr:street" v="Balance Rock Road"/>
    <tag k="addr:state" v="VT"/>
    <tag k="ref:vcgi:esiteid" v="611415"/>
  </node>
  <node id="-488" visible="true" lat="44.92176236" lon="-72.43099726">
    <tag k="addr:housenumber" v="37"/>
    <tag k="addr:street" v="Bonnies Way"/>
    <tag k="addr:state" v="VT"/>
    <tag k="ref:vcgi:esiteid" v="612734"/>
  </node>
  <node id="-489" visible="true" lat="44.92027454" lon="-72.41708299">
    <tag k="addr:housenumber" v="126"/>
    <tag k="addr:street" v="Forest Haven Road"/>
    <tag k="addr:state" v="VT"/>
    <tag k="ref:vcgi:esiteid" v="612736"/>
  </node>
  <node id="-492" visible="true" lat="44.8977394" lon="-72.5293328">
    <tag k="addr:housenumber" v="383"/>
    <tag k="addr:street" v="Enzian Drive"/>
    <tag k="addr:state" v="VT"/>
    <tag k="ref:vcgi:esiteid" v="612739"/>
  </node>
  <node id="-493" visible="true" lat="44.90142073" lon="-72.44317">
    <tag k="addr:housenumber" v="633"/>
    <tag k="addr:street" v="Kingdom Mountain Road"/>
    <tag k="addr:state" v="VT"/>
    <tag k="ref:vcgi:esiteid" v="612740"/>
  </node>
  <node id="-502" visible="true" lat="44.84428144" lon="-72.47285885">
    <tag k="addr:housenumber" v="254"/>
    <tag k="addr:street" v="Legal Trail 4"/>
    <tag k="addr:state" v="VT"/>
    <tag k="ref:vcgi:esiteid" v="612758"/>
  </node>
  <node id="-503" visible="true" lat="44.91342093" lon="-72.42399103">
    <tag k="addr:housenumber" v="919"/>
    <tag k="addr:street" v="Kennison Road"/>
    <tag k="addr:state" v="VT"/>
    <tag k="ref:vcgi:esiteid" v="618199"/>
  </node>
  <node id="-504" visible="true" lat="44.85406871" lon="-72.44187957">
    <tag k="addr:housenumber" v="372"/>
    <tag k="addr:street" v="Sniderbrook Road"/>
    <tag k="addr:state" v="VT"/>
    <tag k="ref:vcgi:esiteid" v="618210"/>
  </node>
  <node id="-505" visible="true" lat="44.90732805" lon="-72.41798965">
    <tag k="addr:housenumber" v="377"/>
    <tag k="addr:street" v="Kennison Road"/>
    <tag k="addr:state" v="VT"/>
    <tag k="ref:vcgi:esiteid" v="618403"/>
  </node>
  <node id="-506" visible="true" lat="44.89422428" lon="-72.43102077">
    <tag k="addr:housenumber" v="392"/>
    <tag k="addr:street" v="North Hill Road"/>
    <tag k="addr:state" v="VT"/>
    <tag k="ref:vcgi:esiteid" v="618404"/>
  </node>
  <node id="-508" visible="true" lat="44.90036445" lon="-72.4300156">
    <tag k="addr:housenumber" v="812"/>
    <tag k="addr:street" v="North Hill Road"/>
    <tag k="addr:state" v="VT"/>
    <tag k="ref:vcgi:esiteid" v="655663"/>
  </node>
  <node id="-509" visible="true" lat="44.88802805" lon="-72.4164789">
    <tag k="addr:housenumber" v="450"/>
    <tag k="addr:street" v="Loop Road"/>
    <tag k="addr:state" v="VT"/>
    <tag k="ref:vcgi:esiteid" v="753578"/>
  </node>
  <node id="-511" visible="true" lat="44.89252291" lon="-72.44497304">
    <tag k="addr:housenumber" v="654"/>
    <tag k="addr:street" v="Ballground Road"/>
    <tag k="addr:state" v="VT"/>
    <tag k="ref:vcgi:esiteid" v="754140"/>
  </node>
  <node id="-512" visible="true" lat="44.88277685" lon="-72.43096695">
    <tag k="addr:housenumber" v="52"/>
    <tag k="addr:street" v="Freedom Drive"/>
    <tag k="addr:state" v="VT"/>
    <tag k="ref:vcgi:esiteid" v="754141"/>
  </node>
  <node id="-513" visible="true" lat="44.86873695" lon="-72.46063546">
    <tag k="addr:housenumber" v="589"/>
    <tag k="addr:street" v="Corrow Basin Road"/>
    <tag k="addr:state" v="VT"/>
    <tag k="ref:vcgi:esiteid" v="754958"/>
  </node>
  <node id="-514" visible="true" lat="44.87467624" lon="-72.45528638">
    <tag k="addr:housenumber" v="615"/>
    <tag k="addr:street" v="Kettle Farm Road"/>
    <tag k="addr:state" v="VT"/>
    <tag k="ref:vcgi:esiteid" v="755586"/>
  </node>
  <node id="-515" visible="true" lat="44.89743286" lon="-72.52089785">
    <tag k="addr:housenumber" v="1179"/>
    <tag k="addr:street" v="Vermont Route 242"/>
    <tag k="addr:state" v="VT"/>
    <tag k="ref:vcgi:esiteid" v="756554"/>
  </node>
  <node id="-516" visible="true" lat="44.92367999" lon="-72.43040308">
    <tag k="addr:housenumber" v="2107"/>
    <tag k="addr:street" v="Kennison Road"/>
    <tag k="addr:state" v="VT"/>
    <tag k="ref:vcgi:esiteid" v="756743"/>
  </node>
  <node id="-517" visible="true" lat="44.87354034" lon="-72.43301836">
    <tag k="addr:housenumber" v="2276"/>
    <tag k="addr:street" v="Vermont Route 100"/>
    <tag k="addr:state" v="VT"/>
    <tag k="ref:vcgi:esiteid" v="758315"/>
  </node>
  <node id="-518" visible="true" lat="44.85583122" lon="-72.43655487">
    <tag k="addr:housenumber" v="3520"/>
    <tag k="addr:street" v="Vermont Route 100"/>
    <tag k="addr:state" v="VT"/>
    <tag k="ref:vcgi:esiteid" v="759198"/>
  </node>
  <node id="-519" visible="true" lat="44.85983967" lon="-72.4483036">
    <tag k="addr:housenumber" v="1288"/>
    <tag k="addr:street" v="Buck Hill Road"/>
    <tag k="addr:state" v="VT"/>
    <tag k="ref:vcgi:esiteid" v="760480"/>
  </node>
  <node id="-520" visible="true" lat="44.87628204" lon="-72.43233276">
    <tag k="addr:housenumber" v="2060"/>
    <tag k="addr:street" v="Vermont Route 100"/>
    <tag k="addr:state" v="VT"/>
    <tag k="ref:vcgi:esiteid" v="760481"/>
  </node>
  <node id="-521" visible="true" lat="44.91130305" lon="-72.42787959">
    <tag k="addr:housenumber" v="296"/>
    <tag k="addr:street" v="Reservoir Road"/>
    <tag k="addr:state" v="VT"/>
    <tag k="ref:vcgi:esiteid" v="761196"/>
  </node>
  <node id="-522" visible="true" lat="44.91100326" lon="-72.42947167">
    <tag k="addr:housenumber" v="386"/>
    <tag k="addr:street" v="Reservoir Road"/>
    <tag k="addr:state" v="VT"/>
    <tag k="ref:vcgi:esiteid" v="761197"/>
  </node>
  <node id="-523" visible="true" lat="44.85770093" lon="-72.43297281">
    <tag k="addr:housenumber" v="3375"/>
    <tag k="addr:street" v="Vermont Route 100"/>
    <tag k="addr:state" v="VT"/>
    <tag k="ref:vcgi:esiteid" v="761692"/>
  </node>
  <node id="-524" visible="true" lat="44.85152139" lon="-72.40594566">
    <tag k="addr:housenumber" v="5065"/>
    <tag k="addr:street" v="Loop Road"/>
    <tag k="addr:state" v="VT"/>
    <tag k="ref:vcgi:esiteid" v="762084"/>
  </node>
  <node id="-525" visible="true" lat="44.84459338" lon="-72.40574091">
    <tag k="addr:housenumber" v="132"/>
    <tag k="addr:street" v="Carter Road"/>
    <tag k="addr:state" v="VT"/>
    <tag k="ref:vcgi:esiteid" v="762085"/>
  </node>
  <node id="-526" visible="true" lat="44.87069307" lon="-72.44780274">
    <tag k="addr:housenumber" v="154"/>
    <tag k="addr:street" v="Kettle Farm Road"/>
    <tag k="addr:state" v="VT"/>
    <tag k="ref:vcgi:esiteid" v="763134"/>
  </node>
  <node id="-527" visible="true" lat="44.89251819" lon="-72.44905284">
    <tag k="addr:housenumber" v="798"/>
    <tag k="addr:street" v="Ballground Road"/>
    <tag k="addr:state" v="VT"/>
    <tag k="ref:vcgi:esiteid" v="763420"/>
  </node>
  <node id="-528" visible="true" lat="44.89225919" lon="-72.45023879">
    <tag k="addr:housenumber" v="862"/>
    <tag k="addr:street" v="Ballground Road"/>
    <tag k="addr:state" v="VT"/>
    <tag k="ref:vcgi:esiteid" v="763421"/>
  </node>
  <node id="-529" visible="true" lat="44.85710999" lon="-72.43786788">
    <tag k="addr:housenumber" v="3518"/>
    <tag k="addr:street" v="Vermont Route 100"/>
    <tag k="addr:state" v="VT"/>
    <tag k="ref:vcgi:esiteid" v="763958"/>
  </node>
  <node id="-530" visible="true" lat="44.89348506" lon="-72.42426303">
    <tag k="addr:housenumber" v="79"/>
    <tag k="addr:street" v="Sugarhouse Road"/>
    <tag k="addr:state" v="VT"/>
    <tag k="ref:vcgi:esiteid" v="764939"/>
  </node>
  <node id="-531" visible="true" lat="44.89039873" lon="-72.5343744">
    <tag k="addr:housenumber" v="127"/>
    <tag k="addr:street" v="Waldhof Drive"/>
    <tag k="addr:state" v="VT"/>
    <tag k="ref:vcgi:esiteid" v="768251"/>
  </node>
  <node id="-532" visible="true" lat="44.91385652" lon="-72.51018646">
    <tag k="addr:housenumber" v="2571"/>
    <tag k="addr:street" v="Vermont Route 242"/>
    <tag k="addr:state" v="VT"/>
    <tag k="ref:vcgi:esiteid" v="800152"/>
  </node>
  <node id="-535" visible="true" lat="44.8424805" lon="-72.47144993">
    <tag k="addr:housenumber" v="322"/>
    <tag k="addr:street" v="Legal Trail 4"/>
    <tag k="addr:state" v="VT"/>
    <tag k="ref:vcgi:esiteid" v="900261"/>
  </node>
  <node id="-537" visible="true" lat="44.8436161" lon="-72.45701761">
    <tag k="addr:housenumber" v="462"/>
    <tag k="addr:street" v="Trumpass Road"/>
    <tag k="addr:state" v="VT"/>
    <tag k="ref:vcgi:esiteid" v="900263"/>
  </node>
  <node id="-546" visible="true" lat="44.88383221" lon="-72.49528563">
    <tag k="addr:housenumber" v="2783"/>
    <tag k="addr:street" v="Corrow Basin Road"/>
    <tag k="addr:state" v="VT"/>
    <tag k="ref:vcgi:esiteid" v="900282"/>
  </node>
  <node id="-550" visible="true" lat="44.92096648" lon="-72.42993253">
    <tag k="addr:housenumber" v="38"/>
    <tag k="addr:street" v="Bonnies Way"/>
    <tag k="addr:state" v="VT"/>
    <tag k="ref:vcgi:esiteid" v="900289"/>
  </node>
  <node id="-551" visible="true" lat="44.92077347" lon="-72.43131468">
    <tag k="addr:housenumber" v="16"/>
    <tag k="addr:street" v="Bonnies Way"/>
    <tag k="addr:state" v="VT"/>
    <tag k="ref:vcgi:esiteid" v="900291"/>
  </node>
</osm>
