<?xml version="1.0" encoding="UTF-8"?>
<osm version="0.6" generator="JOSM">
  <node id="-170" visible="true" lat="44.63563191" lon="-73.02037936">
    <tag k="addr:city" v="Westford"/>
    <tag k="addr:housenumber" v="22"/>
    <tag k="addr:street" v="Westford Milton Road"/>
    <tag k="addr:state" v="VT"/>
    <tag k="ref:vcgi:esiteid" v="281324"/>
  </node>
  <node id="-172" visible="true" lat="44.63556769" lon="-73.02317995">
    <tag k="addr:city" v="Westford"/>
    <tag k="addr:housenumber" v="62"/>
    <tag k="addr:street" v="Westford Milton Road"/>
    <tag k="addr:state" v="VT"/>
    <tag k="ref:vcgi:esiteid" v="281326"/>
  </node>
  <node id="-191" visible="true" lat="44.63247237" lon="-73.04745359">
    <tag k="addr:city" v="Westford"/>
    <tag k="addr:housenumber" v="334"/>
    <tag k="addr:street" v="Westford Milton Road"/>
    <tag k="addr:state" v="VT"/>
    <tag k="ref:vcgi:esiteid" v="281345"/>
  </node>
  <node id="-192" visible="true" lat="44.63168319" lon="-73.04727344">
    <tag k="addr:city" v="Westford"/>
    <tag k="addr:housenumber" v="10"/>
    <tag k="addr:street" v="Pidgeon Lane"/>
    <tag k="addr:state" v="VT"/>
    <tag k="ref:vcgi:esiteid" v="281346"/>
  </node>
  <node id="-193" visible="true" lat="44.63219016" lon="-73.04672001">
    <tag k="addr:city" v="Westford"/>
    <tag k="addr:housenumber" v="2"/>
    <tag k="addr:street" v="Pidgeon Lane"/>
    <tag k="addr:state" v="VT"/>
    <tag k="ref:vcgi:esiteid" v="281347"/>
  </node>
  <node id="-195" visible="true" lat="44.63167656" lon="-73.04627303">
    <tag k="addr:city" v="Westford"/>
    <tag k="addr:housenumber" v="322"/>
    <tag k="addr:street" v="Westford Milton Road"/>
    <tag k="addr:state" v="VT"/>
    <tag k="ref:vcgi:esiteid" v="281349"/>
  </node>
  <node id="-197" visible="true" lat="44.63147585" lon="-73.04522278">
    <tag k="addr:city" v="Westford"/>
    <tag k="addr:housenumber" v="310"/>
    <tag k="addr:street" v="Westford Milton Road"/>
    <tag k="addr:state" v="VT"/>
    <tag k="ref:vcgi:esiteid" v="281351"/>
  </node>
  <node id="-198" visible="true" lat="44.63154968" lon="-73.04367294">
    <tag k="addr:city" v="Westford"/>
    <tag k="addr:housenumber" v="297"/>
    <tag k="addr:street" v="Westford Milton Road"/>
    <tag k="addr:state" v="VT"/>
    <tag k="ref:vcgi:esiteid" v="281352"/>
  </node>
  <node id="-199" visible="true" lat="44.63209038" lon="-73.04457931">
    <tag k="addr:city" v="Westford"/>
    <tag k="addr:housenumber" v="307"/>
    <tag k="addr:street" v="Westford Milton Road"/>
    <tag k="addr:state" v="VT"/>
    <tag k="ref:vcgi:esiteid" v="281353"/>
  </node>
  <node id="-200" visible="true" lat="44.63252517" lon="-73.04567277">
    <tag k="addr:city" v="Westford"/>
    <tag k="addr:housenumber" v="315"/>
    <tag k="addr:street" v="Westford Milton Road"/>
    <tag k="addr:state" v="VT"/>
    <tag k="ref:vcgi:esiteid" v="281354"/>
  </node>
  <node id="-317" visible="true" lat="44.6274236" lon="-73.01563007">
    <tag k="addr:city" v="Westford"/>
    <tag k="addr:housenumber" v="46"/>
    <tag k="addr:street" v="Bouffard Lane"/>
    <tag k="addr:state" v="VT"/>
    <tag k="ref:vcgi:esiteid" v="281473"/>
  </node>
  <node id="-325" visible="true" lat="44.63033641" lon="-73.01997192">
    <tag k="addr:city" v="Westford"/>
    <tag k="addr:housenumber" v="9"/>
    <tag k="addr:street" v="Phillips Lane"/>
    <tag k="addr:state" v="VT"/>
    <tag k="ref:vcgi:esiteid" v="281481"/>
  </node>
  <node id="-347" visible="true" lat="44.62744827" lon="-73.04137603">
    <tag k="addr:city" v="Westford"/>
    <tag k="addr:housenumber" v="22"/>
    <tag k="addr:street" v="Penny Lane"/>
    <tag k="addr:state" v="VT"/>
    <tag k="ref:vcgi:esiteid" v="281505"/>
  </node>
  <node id="-348" visible="true" lat="44.62775649" lon="-73.04014722">
    <tag k="addr:city" v="Westford"/>
    <tag k="addr:housenumber" v="34"/>
    <tag k="addr:street" v="Penny Lane"/>
    <tag k="addr:state" v="VT"/>
    <tag k="ref:vcgi:esiteid" v="281506"/>
  </node>
  <node id="-367" visible="true" lat="44.62489531" lon="-73.02016341">
    <tag k="addr:city" v="Westford"/>
    <tag k="addr:housenumber" v="851"/>
    <tag k="addr:street" v="Woods Hollow Road"/>
    <tag k="addr:state" v="VT"/>
    <tag k="ref:vcgi:esiteid" v="281525"/>
  </node>
  <node id="-375" visible="true" lat="44.62613183" lon="-73.01463705">
    <tag k="addr:city" v="Westford"/>
    <tag k="addr:housenumber" v="57"/>
    <tag k="addr:street" v="Bouffard Lane"/>
    <tag k="addr:state" v="VT"/>
    <tag k="ref:vcgi:esiteid" v="281533"/>
  </node>
  <node id="-377" visible="true" lat="44.62602869" lon="-73.01722879">
    <tag k="addr:city" v="Westford"/>
    <tag k="addr:housenumber" v="31"/>
    <tag k="addr:street" v="Bouffard Lane"/>
    <tag k="addr:state" v="VT"/>
    <tag k="ref:vcgi:esiteid" v="281535"/>
  </node>
  <node id="-384" visible="true" lat="44.6239157" lon="-73.00800805">
    <tag k="addr:city" v="Westford"/>
    <tag k="addr:housenumber" v="158"/>
    <tag k="addr:street" v="Huntley Road"/>
    <tag k="addr:state" v="VT"/>
    <tag k="ref:vcgi:esiteid" v="281542"/>
  </node>
  <node id="-387" visible="true" lat="44.62314806" lon="-73.00843344">
    <tag k="addr:city" v="Westford"/>
    <tag k="addr:housenumber" v="140"/>
    <tag k="addr:street" v="Huntley Road"/>
    <tag k="addr:state" v="VT"/>
    <tag k="ref:vcgi:esiteid" v="281545"/>
  </node>
  <node id="-388" visible="true" lat="44.62290772" lon="-73.00593486">
    <tag k="addr:city" v="Westford"/>
    <tag k="addr:housenumber" v="152"/>
    <tag k="addr:street" v="Huntley Road"/>
    <tag k="addr:state" v="VT"/>
    <tag k="ref:vcgi:esiteid" v="281546"/>
  </node>
  <node id="-394" visible="true" lat="44.62459245" lon="-73.00098837">
    <tag k="addr:city" v="Westford"/>
    <tag k="addr:housenumber" v="201"/>
    <tag k="addr:street" v="Huntley Road"/>
    <tag k="addr:state" v="VT"/>
    <tag k="ref:vcgi:esiteid" v="281552"/>
  </node>
  <node id="-428" visible="true" lat="44.62179217" lon="-72.99578736">
    <tag k="addr:city" v="Westford"/>
    <tag k="addr:housenumber" v="156"/>
    <tag k="addr:street" v="Cambridge Road"/>
    <tag k="addr:state" v="VT"/>
    <tag k="ref:vcgi:esiteid" v="281587"/>
  </node>
  <node id="-431" visible="true" lat="44.62242336" lon="-73.00433035">
    <tag k="addr:city" v="Westford"/>
    <tag k="addr:housenumber" v="143"/>
    <tag k="addr:street" v="Huntley Road"/>
    <tag k="addr:state" v="VT"/>
    <tag k="ref:vcgi:esiteid" v="281590"/>
  </node>
  <node id="-436" visible="true" lat="44.61896424" lon="-73.00732479">
    <tag k="addr:city" v="Westford"/>
    <tag k="addr:housenumber" v="98"/>
    <tag k="addr:street" v="Huntley Road"/>
    <tag k="addr:state" v="VT"/>
    <tag k="ref:vcgi:esiteid" v="281595"/>
  </node>
  <node id="-437" visible="true" lat="44.62146426" lon="-73.00798667">
    <tag k="addr:city" v="Westford"/>
    <tag k="addr:housenumber" v="138"/>
    <tag k="addr:street" v="Huntley Road"/>
    <tag k="addr:state" v="VT"/>
    <tag k="ref:vcgi:esiteid" v="281596"/>
  </node>
  <node id="-443" visible="true" lat="44.6198456" lon="-73.01595771">
    <tag k="addr:city" v="Westford"/>
    <tag k="addr:housenumber" v="3"/>
    <tag k="addr:street" v="Bixby Hill Lane"/>
    <tag k="addr:state" v="VT"/>
    <tag k="ref:vcgi:esiteid" v="281602"/>
  </node>
  <node id="-471" visible="true" lat="44.61673954" lon="-73.04515149">
    <tag k="addr:city" v="Westford"/>
    <tag k="addr:housenumber" v="1502"/>
    <tag k="addr:street" v="Old Stage Road"/>
    <tag k="addr:state" v="VT"/>
    <tag k="ref:vcgi:esiteid" v="281630"/>
  </node>
  <node id="-472" visible="true" lat="44.61575087" lon="-73.04635833">
    <tag k="addr:city" v="Westford"/>
    <tag k="addr:housenumber" v="1486"/>
    <tag k="addr:street" v="Old Stage Road"/>
    <tag k="addr:state" v="VT"/>
    <tag k="ref:vcgi:esiteid" v="281631"/>
  </node>
  <node id="-474" visible="true" lat="44.61471101" lon="-73.04392444">
    <tag k="addr:city" v="Westford"/>
    <tag k="addr:housenumber" v="1481"/>
    <tag k="addr:street" v="Old Stage Road"/>
    <tag k="addr:state" v="VT"/>
    <tag k="ref:vcgi:esiteid" v="281633"/>
  </node>
  <node id="-475" visible="true" lat="44.61551242" lon="-73.0436359">
    <tag k="addr:city" v="Westford"/>
    <tag k="addr:housenumber" v="1489"/>
    <tag k="addr:street" v="Old Stage Road"/>
    <tag k="addr:state" v="VT"/>
    <tag k="ref:vcgi:esiteid" v="281634"/>
  </node>
  <node id="-476" visible="true" lat="44.61602244" lon="-73.04333664">
    <tag k="addr:city" v="Westford"/>
    <tag k="addr:housenumber" v="1501"/>
    <tag k="addr:street" v="Old Stage Road"/>
    <tag k="addr:state" v="VT"/>
    <tag k="ref:vcgi:esiteid" v="281635"/>
  </node>
  <node id="-477" visible="true" lat="44.61662785" lon="-73.04340629">
    <tag k="addr:city" v="Westford"/>
    <tag k="addr:housenumber" v="1511"/>
    <tag k="addr:street" v="Old Stage Road"/>
    <tag k="addr:state" v="VT"/>
    <tag k="ref:vcgi:esiteid" v="281636"/>
  </node>
  <node id="-478" visible="true" lat="44.61462038" lon="-73.04255552">
    <tag k="addr:city" v="Westford"/>
    <tag k="addr:housenumber" v="16"/>
    <tag k="addr:street" v="Birch Ridge Road"/>
    <tag k="addr:state" v="VT"/>
    <tag k="ref:vcgi:esiteid" v="281637"/>
  </node>
  <node id="-479" visible="true" lat="44.61441305" lon="-73.04168955">
    <tag k="addr:city" v="Westford"/>
    <tag k="addr:housenumber" v="34"/>
    <tag k="addr:street" v="Birch Ridge Road"/>
    <tag k="addr:state" v="VT"/>
    <tag k="ref:vcgi:esiteid" v="281638"/>
  </node>
  <node id="-480" visible="true" lat="44.61503527" lon="-73.04062327">
    <tag k="addr:city" v="Westford"/>
    <tag k="addr:housenumber" v="54"/>
    <tag k="addr:street" v="Birch Ridge Road"/>
    <tag k="addr:state" v="VT"/>
    <tag k="ref:vcgi:esiteid" v="281639"/>
  </node>
  <node id="-481" visible="true" lat="44.61550384" lon="-73.04062761">
    <tag k="addr:city" v="Westford"/>
    <tag k="addr:housenumber" v="62"/>
    <tag k="addr:street" v="Birch Ridge Road"/>
    <tag k="addr:state" v="VT"/>
    <tag k="ref:vcgi:esiteid" v="281640"/>
  </node>
  <node id="-482" visible="true" lat="44.61605801" lon="-73.04065676">
    <tag k="addr:city" v="Westford"/>
    <tag k="addr:housenumber" v="70"/>
    <tag k="addr:street" v="Birch Ridge Road"/>
    <tag k="addr:state" v="VT"/>
    <tag k="ref:vcgi:esiteid" v="281641"/>
  </node>
  <node id="-484" visible="true" lat="44.61683569" lon="-73.04055196">
    <tag k="addr:city" v="Westford"/>
    <tag k="addr:housenumber" v="82"/>
    <tag k="addr:street" v="Birch Ridge Road"/>
    <tag k="addr:state" v="VT"/>
    <tag k="ref:vcgi:esiteid" v="281643"/>
  </node>
  <node id="-486" visible="true" lat="44.6181155" lon="-73.04060384">
    <tag k="addr:city" v="Westford"/>
    <tag k="addr:housenumber" v="100"/>
    <tag k="addr:street" v="Birch Ridge Road"/>
    <tag k="addr:state" v="VT"/>
    <tag k="ref:vcgi:esiteid" v="281645"/>
  </node>
  <node id="-487" visible="true" lat="44.61768719" lon="-73.03933573">
    <tag k="addr:city" v="Westford"/>
    <tag k="addr:housenumber" v="20"/>
    <tag k="addr:street" v="Sunset Ridge"/>
    <tag k="addr:state" v="VT"/>
    <tag k="ref:vcgi:esiteid" v="281646"/>
  </node>
  <node id="-488" visible="true" lat="44.61634373" lon="-73.03945131">
    <tag k="addr:city" v="Westford"/>
    <tag k="addr:housenumber" v="7"/>
    <tag k="addr:street" v="Sunset Ridge"/>
    <tag k="addr:state" v="VT"/>
    <tag k="ref:vcgi:esiteid" v="281647"/>
  </node>
  <node id="-489" visible="true" lat="44.61565654" lon="-73.03975697">
    <tag k="addr:city" v="Westford"/>
    <tag k="addr:housenumber" v="65"/>
    <tag k="addr:street" v="Birch Ridge Road"/>
    <tag k="addr:state" v="VT"/>
    <tag k="ref:vcgi:esiteid" v="281648"/>
  </node>
  <node id="-490" visible="true" lat="44.61502785" lon="-73.03977514">
    <tag k="addr:city" v="Westford"/>
    <tag k="addr:housenumber" v="63"/>
    <tag k="addr:street" v="Birch Ridge Road"/>
    <tag k="addr:state" v="VT"/>
    <tag k="ref:vcgi:esiteid" v="281649"/>
  </node>
  <node id="-491" visible="true" lat="44.61413393" lon="-73.04029489">
    <tag k="addr:city" v="Westford"/>
    <tag k="addr:housenumber" v="45"/>
    <tag k="addr:street" v="Birch Ridge Road"/>
    <tag k="addr:state" v="VT"/>
    <tag k="ref:vcgi:esiteid" v="281650"/>
  </node>
  <node id="-504" visible="true" lat="44.61457051" lon="-73.01506558">
    <tag k="addr:city" v="Westford"/>
    <tag k="addr:housenumber" v="2"/>
    <tag k="addr:street" v="Post Road"/>
    <tag k="addr:state" v="VT"/>
    <tag k="ref:vcgi:esiteid" v="281663"/>
  </node>
  <node id="-505" visible="true" lat="44.61513572" lon="-73.01518258">
    <tag k="addr:city" v="Westford"/>
    <tag k="addr:housenumber" v="5"/>
    <tag k="addr:street" v="Post Road"/>
    <tag k="addr:state" v="VT"/>
    <tag k="ref:vcgi:esiteid" v="281664"/>
  </node>
  <node id="-508" visible="true" lat="44.61783141" lon="-73.00787761">
    <tag k="addr:city" v="Westford"/>
    <tag k="addr:housenumber" v="80"/>
    <tag k="addr:street" v="Huntley Road"/>
    <tag k="addr:state" v="VT"/>
    <tag k="ref:vcgi:esiteid" v="281667"/>
  </node>
  <node id="-606" visible="true" lat="44.61234033" lon="-73.01286183">
    <tag k="addr:city" v="Westford"/>
    <tag k="addr:housenumber" v="24"/>
    <tag k="addr:street" v="White Church Lane"/>
    <tag k="addr:state" v="VT"/>
    <tag k="ref:vcgi:esiteid" v="281766"/>
  </node>
  <node id="-607" visible="true" lat="44.61131165" lon="-73.01343311">
    <tag k="addr:city" v="Westford"/>
    <tag k="addr:housenumber" v="21"/>
    <tag k="addr:street" v="Brookside Road"/>
    <tag k="addr:state" v="VT"/>
    <tag k="ref:vcgi:esiteid" v="281767"/>
  </node>
  <node id="-608" visible="true" lat="44.61031044" lon="-73.01393161">
    <tag k="addr:city" v="Westford"/>
    <tag k="addr:housenumber" v="33"/>
    <tag k="addr:street" v="Brookside Road"/>
    <tag k="addr:state" v="VT"/>
    <tag k="ref:vcgi:esiteid" v="281768"/>
  </node>
  <node id="-609" visible="true" lat="44.61010904" lon="-73.01439716">
    <tag k="addr:city" v="Westford"/>
    <tag k="addr:housenumber" v="37"/>
    <tag k="addr:street" v="Brookside Road"/>
    <tag k="addr:state" v="VT"/>
    <tag k="ref:vcgi:esiteid" v="281769"/>
  </node>
  <node id="-610" visible="true" lat="44.61063797" lon="-73.01273485">
    <tag k="addr:city" v="Westford"/>
    <tag k="addr:housenumber" v="22"/>
    <tag k="addr:street" v="Brookside Road"/>
    <tag k="addr:state" v="VT"/>
    <tag k="ref:vcgi:esiteid" v="281770"/>
  </node>
  <node id="-617" visible="true" lat="44.61129308" lon="-73.00936462">
    <tag k="addr:city" v="Westford"/>
    <tag k="addr:housenumber" v="4"/>
    <tag k="addr:street" v="Common Road"/>
    <tag k="addr:state" v="VT"/>
    <tag k="ref:vcgi:esiteid" v="281777"/>
  </node>
  <node id="-628" visible="true" lat="44.613492" lon="-73.04430508">
    <tag k="addr:city" v="Westford"/>
    <tag k="addr:housenumber" v="1"/>
    <tag k="addr:street" v="Birch Ridge Road"/>
    <tag k="addr:state" v="VT"/>
    <tag k="ref:vcgi:esiteid" v="281789"/>
  </node>
  <node id="-630" visible="true" lat="44.61304929" lon="-73.04246889">
    <tag k="addr:city" v="Westford"/>
    <tag k="addr:housenumber" v="25"/>
    <tag k="addr:street" v="Birch Ridge Road"/>
    <tag k="addr:state" v="VT"/>
    <tag k="ref:vcgi:esiteid" v="281791"/>
  </node>
  <node id="-631" visible="true" lat="44.61284791" lon="-73.04155499">
    <tag k="addr:city" v="Westford"/>
    <tag k="addr:housenumber" v="29"/>
    <tag k="addr:street" v="Birch Ridge Road"/>
    <tag k="addr:state" v="VT"/>
    <tag k="ref:vcgi:esiteid" v="281792"/>
  </node>
  <node id="-632" visible="true" lat="44.612751" lon="-73.04029807">
    <tag k="addr:city" v="Westford"/>
    <tag k="addr:housenumber" v="10"/>
    <tag k="addr:street" v="Forest Lane"/>
    <tag k="addr:state" v="VT"/>
    <tag k="ref:vcgi:esiteid" v="281793"/>
  </node>
  <node id="-633" visible="true" lat="44.61325987" lon="-73.04023878">
    <tag k="addr:city" v="Westford"/>
    <tag k="addr:housenumber" v="4"/>
    <tag k="addr:street" v="Forest Lane"/>
    <tag k="addr:state" v="VT"/>
    <tag k="ref:vcgi:esiteid" v="281794"/>
  </node>
  <node id="-634" visible="true" lat="44.61227172" lon="-73.04014162">
    <tag k="addr:city" v="Westford"/>
    <tag k="addr:housenumber" v="18"/>
    <tag k="addr:street" v="Forest Lane"/>
    <tag k="addr:state" v="VT"/>
    <tag k="ref:vcgi:esiteid" v="281795"/>
  </node>
  <node id="-635" visible="true" lat="44.61162327" lon="-73.04071161">
    <tag k="addr:city" v="Westford"/>
    <tag k="addr:housenumber" v="24"/>
    <tag k="addr:street" v="Forest Lane"/>
    <tag k="addr:state" v="VT"/>
    <tag k="ref:vcgi:esiteid" v="281796"/>
  </node>
  <node id="-637" visible="true" lat="44.61155141" lon="-73.04620696">
    <tag k="addr:city" v="Westford"/>
    <tag k="addr:housenumber" v="1458"/>
    <tag k="addr:street" v="Old Stage Road"/>
    <tag k="addr:state" v="VT"/>
    <tag k="ref:vcgi:esiteid" v="281798"/>
  </node>
  <node id="-639" visible="true" lat="44.6141009" lon="-73.04603885">
    <tag k="addr:city" v="Westford"/>
    <tag k="addr:housenumber" v="1472"/>
    <tag k="addr:street" v="Old Stage Road"/>
    <tag k="addr:state" v="VT"/>
    <tag k="ref:vcgi:esiteid" v="281800"/>
  </node>
  <node id="-643" visible="true" lat="44.60791096" lon="-73.04746076">
    <tag k="addr:city" v="Westford"/>
    <tag k="addr:housenumber" v="17"/>
    <tag k="addr:street" v="Rogers Road"/>
    <tag k="addr:state" v="VT"/>
    <tag k="ref:vcgi:esiteid" v="281804"/>
  </node>
  <node id="-646" visible="true" lat="44.60861375" lon="-73.01524092">
    <tag k="addr:city" v="Westford"/>
    <tag k="addr:housenumber" v="62"/>
    <tag k="addr:street" v="Brookside Road"/>
    <tag k="addr:state" v="VT"/>
    <tag k="ref:vcgi:esiteid" v="281807"/>
  </node>
  <node id="-649" visible="true" lat="44.60989604" lon="-73.01464027">
    <tag k="addr:city" v="Westford"/>
    <tag k="addr:housenumber" v="41"/>
    <tag k="addr:street" v="Brookside Road"/>
    <tag k="addr:state" v="VT"/>
    <tag k="ref:vcgi:esiteid" v="281810"/>
  </node>
  <node id="-651" visible="true" lat="44.60923559" lon="-73.01325049">
    <tag k="addr:city" v="Westford"/>
    <tag k="addr:housenumber" v="32"/>
    <tag k="addr:street" v="Brookside Road"/>
    <tag k="addr:state" v="VT"/>
    <tag k="ref:vcgi:esiteid" v="281812"/>
  </node>
  <node id="-742" visible="true" lat="44.60373144" lon="-73.045848">
    <tag k="addr:city" v="Westford"/>
    <tag k="addr:housenumber" v="121"/>
    <tag k="addr:street" v="Manley Road"/>
    <tag k="addr:state" v="VT"/>
    <tag k="ref:vcgi:esiteid" v="281904"/>
  </node>
  <node id="-743" visible="true" lat="44.60536426" lon="-73.04823676">
    <tag k="addr:city" v="Westford"/>
    <tag k="addr:housenumber" v="1380"/>
    <tag k="addr:street" v="Old Stage Road"/>
    <tag k="addr:state" v="VT"/>
    <tag k="ref:vcgi:esiteid" v="281905"/>
  </node>
  <node id="-841" visible="true" lat="44.59633817" lon="-73.03922619">
    <tag k="addr:city" v="Westford"/>
    <tag k="addr:housenumber" v="385"/>
    <tag k="addr:street" v="Woods Hollow Road"/>
    <tag k="addr:state" v="VT"/>
    <tag k="ref:vcgi:esiteid" v="282005"/>
  </node>
  <node id="-843" visible="true" lat="44.59468353" lon="-73.04029258">
    <tag k="addr:city" v="Westford"/>
    <tag k="addr:housenumber" v="355"/>
    <tag k="addr:street" v="Woods Hollow Road"/>
    <tag k="addr:state" v="VT"/>
    <tag k="ref:vcgi:esiteid" v="282007"/>
  </node>
  <node id="-844" visible="true" lat="44.59411376" lon="-73.04074116">
    <tag k="addr:city" v="Westford"/>
    <tag k="addr:housenumber" v="349"/>
    <tag k="addr:street" v="Woods Hollow Road"/>
    <tag k="addr:state" v="VT"/>
    <tag k="ref:vcgi:esiteid" v="282008"/>
  </node>
  <node id="-865" visible="true" lat="44.59355314" lon="-73.04207156">
    <tag k="addr:city" v="Westford"/>
    <tag k="addr:housenumber" v="336"/>
    <tag k="addr:street" v="Woods Hollow Road"/>
    <tag k="addr:state" v="VT"/>
    <tag k="ref:vcgi:esiteid" v="282029"/>
  </node>
  <node id="-868" visible="true" lat="44.59359527" lon="-73.04041645">
    <tag k="addr:city" v="Westford"/>
    <tag k="addr:housenumber" v="91"/>
    <tag k="addr:street" v="Maple Tree Lane"/>
    <tag k="addr:state" v="VT"/>
    <tag k="ref:vcgi:esiteid" v="282032"/>
  </node>
  <node id="-872" visible="true" lat="44.58961783" lon="-73.03680493">
    <tag k="addr:city" v="Westford"/>
    <tag k="addr:housenumber" v="25"/>
    <tag k="addr:street" v="Maple Tree Lane"/>
    <tag k="addr:state" v="VT"/>
    <tag k="ref:vcgi:esiteid" v="282036"/>
  </node>
  <node id="-874" visible="true" lat="44.58981989" lon="-73.0375825">
    <tag k="addr:city" v="Westford"/>
    <tag k="addr:housenumber" v="34"/>
    <tag k="addr:street" v="Maple Tree Lane"/>
    <tag k="addr:state" v="VT"/>
    <tag k="ref:vcgi:esiteid" v="282038"/>
  </node>
  <node id="-900" visible="true" lat="44.58552739" lon="-72.98276728">
    <tag k="addr:city" v="Westford"/>
    <tag k="addr:housenumber" v="111"/>
    <tag k="addr:street" v="Machia Hill Road"/>
    <tag k="addr:state" v="VT"/>
    <tag k="ref:vcgi:esiteid" v="282064"/>
  </node>
  <node id="-905" visible="true" lat="44.5862204" lon="-72.98644342">
    <tag k="addr:city" v="Westford"/>
    <tag k="addr:housenumber" v="74"/>
    <tag k="addr:street" v="Machia Hill Road"/>
    <tag k="addr:state" v="VT"/>
    <tag k="ref:vcgi:esiteid" v="282069"/>
  </node>
  <node id="-910" visible="true" lat="44.58654208" lon="-72.99360306">
    <tag k="addr:city" v="Westford"/>
    <tag k="addr:housenumber" v="1003"/>
    <tag k="addr:street" v="Osgood Hill Road"/>
    <tag k="addr:state" v="VT"/>
    <tag k="ref:vcgi:esiteid" v="282076"/>
  </node>
  <node id="-911" visible="true" lat="44.5856041" lon="-72.99191087">
    <tag k="addr:city" v="Westford"/>
    <tag k="addr:housenumber" v="19"/>
    <tag k="addr:street" v="Machia Hill Road"/>
    <tag k="addr:state" v="VT"/>
    <tag k="ref:vcgi:esiteid" v="282077"/>
  </node>
  <node id="-912" visible="true" lat="44.58549259" lon="-72.99292248">
    <tag k="addr:city" v="Westford"/>
    <tag k="addr:housenumber" v="1"/>
    <tag k="addr:street" v="Machia Hill Road"/>
    <tag k="addr:state" v="VT"/>
    <tag k="ref:vcgi:esiteid" v="282078"/>
  </node>
  <node id="-920" visible="true" lat="44.58621691" lon="-73.01208031">
    <tag k="addr:city" v="Westford"/>
    <tag k="addr:housenumber" v="29"/>
    <tag k="addr:street" v="Maple Ridge Lane"/>
    <tag k="addr:state" v="VT"/>
    <tag k="ref:vcgi:esiteid" v="282086"/>
  </node>
  <node id="-922" visible="true" lat="44.58568785" lon="-73.01409078">
    <tag k="addr:city" v="Westford"/>
    <tag k="addr:housenumber" v="11"/>
    <tag k="addr:street" v="Maple Ridge Lane"/>
    <tag k="addr:state" v="VT"/>
    <tag k="ref:vcgi:esiteid" v="282088"/>
  </node>
  <node id="-927" visible="true" lat="44.58822079" lon="-73.03616032">
    <tag k="addr:city" v="Westford"/>
    <tag k="addr:housenumber" v="5"/>
    <tag k="addr:street" v="Maple Tree Lane"/>
    <tag k="addr:state" v="VT"/>
    <tag k="ref:vcgi:esiteid" v="282094"/>
  </node>
  <node id="-928" visible="true" lat="44.5889781" lon="-73.034304">
    <tag k="addr:city" v="Westford"/>
    <tag k="addr:housenumber" v="405"/>
    <tag k="addr:street" v="Brookside Road"/>
    <tag k="addr:state" v="VT"/>
    <tag k="ref:vcgi:esiteid" v="282095"/>
  </node>
  <node id="-931" visible="true" lat="44.58809835" lon="-73.03667899">
    <tag k="addr:city" v="Westford"/>
    <tag k="addr:housenumber" v="2"/>
    <tag k="addr:street" v="Maple Tree Lane"/>
    <tag k="addr:state" v="VT"/>
    <tag k="ref:vcgi:esiteid" v="282098"/>
  </node>
  <node id="-935" visible="true" lat="44.58781097" lon="-73.04427327">
    <tag k="addr:city" v="Westford"/>
    <tag k="addr:housenumber" v="249"/>
    <tag k="addr:street" v="Woods Hollow Road"/>
    <tag k="addr:state" v="VT"/>
    <tag k="ref:vcgi:esiteid" v="282102"/>
  </node>
  <node id="-938" visible="true" lat="44.58565196" lon="-73.04643616">
    <tag k="addr:city" v="Westford"/>
    <tag k="addr:housenumber" v="211"/>
    <tag k="addr:street" v="Woods Hollow Road"/>
    <tag k="addr:state" v="VT"/>
    <tag k="ref:vcgi:esiteid" v="282105"/>
  </node>
  <node id="-940" visible="true" lat="44.58546597" lon="-73.04349972">
    <tag k="addr:city" v="Westford"/>
    <tag k="addr:housenumber" v="39"/>
    <tag k="addr:street" v="Phelps Road"/>
    <tag k="addr:state" v="VT"/>
    <tag k="ref:vcgi:esiteid" v="282107"/>
  </node>
  <node id="-941" visible="true" lat="44.58657473" lon="-73.04466956">
    <tag k="addr:city" v="Westford"/>
    <tag k="addr:housenumber" v="231"/>
    <tag k="addr:street" v="Woods Hollow Road"/>
    <tag k="addr:state" v="VT"/>
    <tag k="ref:vcgi:esiteid" v="282108"/>
  </node>
  <node id="-974" visible="true" lat="44.58489342" lon="-73.04850811">
    <tag k="addr:city" v="Westford"/>
    <tag k="addr:housenumber" v="186"/>
    <tag k="addr:street" v="Woods Hollow Road"/>
    <tag k="addr:state" v="VT"/>
    <tag k="ref:vcgi:esiteid" v="282141"/>
  </node>
  <node id="-975" visible="true" lat="44.58481948" lon="-73.04724399">
    <tag k="addr:city" v="Westford"/>
    <tag k="addr:housenumber" v="189"/>
    <tag k="addr:street" v="Woods Hollow Road"/>
    <tag k="addr:state" v="VT"/>
    <tag k="ref:vcgi:esiteid" v="282142"/>
  </node>
  <node id="-977" visible="true" lat="44.58410743" lon="-73.04736925">
    <tag k="addr:city" v="Westford"/>
    <tag k="addr:housenumber" v="181"/>
    <tag k="addr:street" v="Woods Hollow Road"/>
    <tag k="addr:state" v="VT"/>
    <tag k="ref:vcgi:esiteid" v="282144"/>
  </node>
  <node id="-978" visible="true" lat="44.58352928" lon="-73.04816743">
    <tag k="addr:city" v="Westford"/>
    <tag k="addr:housenumber" v="175"/>
    <tag k="addr:street" v="Woods Hollow Road"/>
    <tag k="addr:state" v="VT"/>
    <tag k="ref:vcgi:esiteid" v="282145"/>
  </node>
  <node id="-981" visible="true" lat="44.58438474" lon="-73.03892376">
    <tag k="addr:city" v="Westford"/>
    <tag k="addr:housenumber" v="501"/>
    <tag k="addr:street" v="Pettingill Road"/>
    <tag k="addr:state" v="VT"/>
    <tag k="ref:vcgi:esiteid" v="282148"/>
  </node>
  <node id="-983" visible="true" lat="44.58384465" lon="-73.03954248">
    <tag k="addr:city" v="Westford"/>
    <tag k="addr:housenumber" v="475"/>
    <tag k="addr:street" v="Pettingill Road"/>
    <tag k="addr:state" v="VT"/>
    <tag k="ref:vcgi:esiteid" v="282150"/>
  </node>
  <node id="-996" visible="true" lat="44.58487252" lon="-72.99425262">
    <tag k="addr:city" v="Westford"/>
    <tag k="addr:housenumber" v="6"/>
    <tag k="addr:street" v="Beaver Pond Road"/>
    <tag k="addr:state" v="VT"/>
    <tag k="ref:vcgi:esiteid" v="282163"/>
  </node>
  <node id="-998" visible="true" lat="44.58426197" lon="-72.99272016">
    <tag k="addr:city" v="Westford"/>
    <tag k="addr:housenumber" v="967"/>
    <tag k="addr:street" v="Osgood Hill Road"/>
    <tag k="addr:state" v="VT"/>
    <tag k="ref:vcgi:esiteid" v="282165"/>
  </node>
  <node id="-999" visible="true" lat="44.58525634" lon="-72.98872236">
    <tag k="addr:city" v="Westford"/>
    <tag k="addr:housenumber" v="53"/>
    <tag k="addr:street" v="Machia Hill Road"/>
    <tag k="addr:state" v="VT"/>
    <tag k="ref:vcgi:esiteid" v="282166"/>
  </node>
  <node id="-1000" visible="true" lat="44.58518036" lon="-72.98994959">
    <tag k="addr:city" v="Westford"/>
    <tag k="addr:housenumber" v="18"/>
    <tag k="addr:street" v="Bushey Lane"/>
    <tag k="addr:state" v="VT"/>
    <tag k="ref:vcgi:esiteid" v="282167"/>
  </node>
  <node id="-1013" visible="true" lat="44.58411473" lon="-72.98573819">
    <tag k="addr:city" v="Westford"/>
    <tag k="addr:housenumber" v="21"/>
    <tag k="addr:street" v="Stewart Hill"/>
    <tag k="addr:state" v="VT"/>
    <tag k="ref:vcgi:esiteid" v="282180"/>
  </node>
  <node id="-1015" visible="true" lat="44.58501221" lon="-72.98432231">
    <tag k="addr:city" v="Westford"/>
    <tag k="addr:housenumber" v="97"/>
    <tag k="addr:street" v="Machia Hill Road"/>
    <tag k="addr:state" v="VT"/>
    <tag k="ref:vcgi:esiteid" v="282182"/>
  </node>
  <node id="-1031" visible="true" lat="44.57793909" lon="-73.02161013">
    <tag k="addr:city" v="Westford"/>
    <tag k="addr:housenumber" v="32"/>
    <tag k="addr:street" v="Castle Hill Lane"/>
    <tag k="addr:state" v="VT"/>
    <tag k="ref:vcgi:esiteid" v="282198"/>
  </node>
  <node id="-1032" visible="true" lat="44.57697551" lon="-73.0211298">
    <tag k="addr:city" v="Westford"/>
    <tag k="addr:housenumber" v="10"/>
    <tag k="addr:street" v="Castle Hill Lane"/>
    <tag k="addr:state" v="VT"/>
    <tag k="ref:vcgi:esiteid" v="282199"/>
  </node>
  <node id="-1034" visible="true" lat="44.57836742" lon="-73.04131479">
    <tag k="addr:city" v="Westford"/>
    <tag k="addr:housenumber" v="403"/>
    <tag k="addr:street" v="Pettingill Road"/>
    <tag k="addr:state" v="VT"/>
    <tag k="ref:vcgi:esiteid" v="282201"/>
  </node>
  <node id="-1082" visible="true" lat="44.57396149" lon="-73.04131389">
    <tag k="addr:city" v="Westford"/>
    <tag k="addr:housenumber" v="339"/>
    <tag k="addr:street" v="Pettingill Road"/>
    <tag k="addr:state" v="VT"/>
    <tag k="ref:vcgi:esiteid" v="282249"/>
  </node>
  <node id="-1100" visible="true" lat="44.56906892" lon="-73.04150034">
    <tag k="addr:city" v="Westford"/>
    <tag k="addr:housenumber" v="268"/>
    <tag k="addr:street" v="Pettingill Road"/>
    <tag k="addr:state" v="VT"/>
    <tag k="ref:vcgi:esiteid" v="282267"/>
  </node>
  <node id="-1130" visible="true" lat="44.5652119" lon="-73.04143258">
    <tag k="addr:city" v="Westford"/>
    <tag k="addr:housenumber" v="205"/>
    <tag k="addr:street" v="Pettingill Road"/>
    <tag k="addr:state" v="VT"/>
    <tag k="ref:vcgi:esiteid" v="282299"/>
  </node>
  <node id="-1143" visible="true" lat="44.56305102" lon="-73.02195668">
    <tag k="addr:city" v="Westford"/>
    <tag k="addr:housenumber" v="42"/>
    <tag k="addr:street" v="Stygles Lane"/>
    <tag k="addr:state" v="VT"/>
    <tag k="ref:vcgi:esiteid" v="282313"/>
  </node>
  <node id="-1156" visible="true" lat="44.56238369" lon="-73.04215389">
    <tag k="addr:city" v="Westford"/>
    <tag k="addr:housenumber" v="173"/>
    <tag k="addr:street" v="Pettingill Road"/>
    <tag k="addr:state" v="VT"/>
    <tag k="ref:vcgi:esiteid" v="282326"/>
  </node>
  <node id="-1167" visible="true" lat="44.63705809" lon="-73.0208906">
    <tag k="addr:city" v="Westford"/>
    <tag k="addr:housenumber" v="9"/>
    <tag k="addr:street" v="Richards Way"/>
    <tag k="addr:state" v="VT"/>
    <tag k="ref:vcgi:esiteid" v="282338"/>
  </node>
  <node id="-1174" visible="true" lat="44.58286563" lon="-73.04812484">
    <tag k="addr:city" v="Westford"/>
    <tag k="addr:housenumber" v="167"/>
    <tag k="addr:street" v="Woods Hollow Road"/>
    <tag k="addr:state" v="VT"/>
    <tag k="ref:vcgi:esiteid" v="282345"/>
  </node>
  <node id="-1175" visible="true" lat="44.57910916" lon="-73.04087422">
    <tag k="addr:city" v="Westford"/>
    <tag k="addr:housenumber" v="417"/>
    <tag k="addr:street" v="Pettingill Road"/>
    <tag k="addr:state" v="VT"/>
    <tag k="ref:vcgi:esiteid" v="282346"/>
  </node>
  <node id="-1176" visible="true" lat="44.56343594" lon="-73.04168457">
    <tag k="addr:city" v="Westford"/>
    <tag k="addr:housenumber" v="175"/>
    <tag k="addr:street" v="Pettingill Road"/>
    <tag k="addr:state" v="VT"/>
    <tag k="ref:vcgi:esiteid" v="282347"/>
  </node>
  <node id="-1186" visible="true" lat="44.58640233" lon="-72.98919571">
    <tag k="addr:city" v="Westford"/>
    <tag k="addr:housenumber" v="42"/>
    <tag k="addr:street" v="Machia Hill Road"/>
    <tag k="addr:state" v="VT"/>
    <tag k="ref:vcgi:esiteid" v="282357"/>
  </node>
  <node id="-1189" visible="true" lat="44.61231654" lon="-73.00884319">
    <tag k="addr:city" v="Westford"/>
    <tag k="addr:housenumber" v="2"/>
    <tag k="addr:street" v="Cambridge Road"/>
    <tag k="addr:state" v="VT"/>
    <tag k="ref:vcgi:esiteid" v="282360"/>
  </node>
  <node id="-1212" visible="true" lat="44.61055549" lon="-73.01365619">
    <tag k="addr:city" v="Westford"/>
    <tag k="addr:housenumber" v="29"/>
    <tag k="addr:street" v="Brookside Road"/>
    <tag k="addr:state" v="VT"/>
    <tag k="ref:vcgi:esiteid" v="282392"/>
  </node>
  <node id="-1235" visible="true" lat="44.58650377" lon="-72.99343928">
    <tag k="addr:city" v="Westford"/>
    <tag k="addr:housenumber" v="1001"/>
    <tag k="addr:street" v="Osgood Hill Road"/>
    <tag k="addr:state" v="VT"/>
    <tag k="ref:vcgi:esiteid" v="282415"/>
  </node>
  <node id="-1241" visible="true" lat="44.61504613" lon="-73.01515687">
    <tag k="addr:city" v="Westford"/>
    <tag k="addr:housenumber" v="3"/>
    <tag k="addr:street" v="Post Road"/>
    <tag k="addr:state" v="VT"/>
    <tag k="ref:vcgi:esiteid" v="312511"/>
  </node>
  <node id="-1242" visible="true" lat="44.61688168" lon="-73.00977745">
    <tag k="addr:city" v="Westford"/>
    <tag k="addr:housenumber" v="55"/>
    <tag k="addr:street" v="Pearwood Lane"/>
    <tag k="addr:state" v="VT"/>
    <tag k="ref:vcgi:esiteid" v="312512"/>
  </node>
  <node id="-1243" visible="true" lat="44.62007428" lon="-73.00814866">
    <tag k="addr:city" v="Westford"/>
    <tag k="addr:housenumber" v="104"/>
    <tag k="addr:street" v="Huntley Road"/>
    <tag k="addr:state" v="VT"/>
    <tag k="ref:vcgi:esiteid" v="312513"/>
  </node>
  <node id="-1246" visible="true" lat="44.63997296" lon="-73.0192358">
    <tag k="addr:city" v="Westford"/>
    <tag k="addr:housenumber" v="31"/>
    <tag k="addr:street" v="Mathieu Road"/>
    <tag k="addr:state" v="VT"/>
    <tag k="ref:vcgi:esiteid" v="313620"/>
  </node>
  <node id="-1249" visible="true" lat="44.63973178" lon="-73.01436847">
    <tag k="addr:city" v="Westford"/>
    <tag k="addr:housenumber" v="1"/>
    <tag k="addr:street" v="River Bend Lane"/>
    <tag k="addr:state" v="VT"/>
    <tag k="ref:vcgi:esiteid" v="317902"/>
  </node>
  <node id="-1255" visible="true" lat="44.59530703" lon="-73.04171808">
    <tag k="addr:city" v="Westford"/>
    <tag k="addr:housenumber" v="350"/>
    <tag k="addr:street" v="Woods Hollow Road"/>
    <tag k="addr:state" v="VT"/>
    <tag k="ref:vcgi:esiteid" v="318102"/>
  </node>
  <node id="-1268" visible="true" lat="44.62130667" lon="-73.00318964">
    <tag k="addr:city" v="Westford"/>
    <tag k="addr:housenumber" v="10"/>
    <tag k="addr:street" v="Drinkwine Lane"/>
    <tag k="addr:state" v="VT"/>
    <tag k="ref:vcgi:esiteid" v="325306"/>
  </node>
  <node id="-1306" visible="true" lat="44.6118688" lon="-73.01329054">
    <tag k="addr:city" v="Westford"/>
    <tag k="addr:housenumber" v="22"/>
    <tag k="addr:street" v="White Church Lane"/>
    <tag k="addr:state" v="VT"/>
    <tag k="ref:vcgi:esiteid" v="332482"/>
  </node>
  <node id="-1314" visible="true" lat="44.62977308" lon="-73.04212466">
    <tag k="addr:city" v="Westford"/>
    <tag k="addr:housenumber" v="1699"/>
    <tag k="addr:street" v="Old Stage Road"/>
    <tag k="addr:state" v="VT"/>
    <tag k="ref:vcgi:esiteid" v="335597"/>
  </node>
  <node id="-1336" visible="true" lat="44.63879531" lon="-73.0202296">
    <tag k="addr:city" v="Westford"/>
    <tag k="addr:housenumber" v="36"/>
    <tag k="addr:street" v="Richards Way"/>
    <tag k="addr:state" v="VT"/>
    <tag k="ref:vcgi:esiteid" v="449194"/>
  </node>
  <node id="-1347" visible="true" lat="44.58500659" lon="-73.04265702">
    <tag k="addr:city" v="Westford"/>
    <tag k="addr:housenumber" v="34"/>
    <tag k="addr:street" v="Phelps Road"/>
    <tag k="addr:state" v="VT"/>
    <tag k="ref:vcgi:esiteid" v="449264"/>
  </node>
  <node id="-1359" visible="true" lat="44.62869284" lon="-73.01826124">
    <tag k="addr:city" v="Westford"/>
    <tag k="addr:housenumber" v="2001"/>
    <tag k="addr:street" v="Vermont Route 128"/>
    <tag k="addr:state" v="VT"/>
    <tag k="ref:vcgi:esiteid" v="610850"/>
  </node>
  <node id="-1365" visible="true" lat="44.63601479" lon="-73.02358884">
    <tag k="addr:city" v="Westford"/>
    <tag k="addr:housenumber" v="63"/>
    <tag k="addr:street" v="Westford Milton Road"/>
    <tag k="addr:state" v="VT"/>
    <tag k="ref:vcgi:esiteid" v="611608"/>
  </node>
  <node id="-1367" visible="true" lat="44.60889278" lon="-73.0154592">
    <tag k="addr:city" v="Westford"/>
    <tag k="addr:housenumber" v="51"/>
    <tag k="addr:street" v="Brookside Road"/>
    <tag k="addr:state" v="VT"/>
    <tag k="ref:vcgi:esiteid" v="614554"/>
  </node>
</osm>
