<?xml version="1.0" encoding="UTF-8"?>
<osm version="0.6" generator="JOSM" upload="false">
  <node id="-100" visible="true" lat="43.26344571" lon="-72.81933624">
    <tag k="addr:city" v="Weston"/>
    <tag k="addr:housenumber" v="5"/>
    <tag k="addr:street" v="Shaw Knoll Road"/>
    <tag k="addr:state" v="VT"/>
    <tag k="ref:vcgi:esiteid" v="139327"/>
  </node>
  <node id="-101" visible="true" lat="43.25033229" lon="-72.79740043">
    <tag k="addr:city" v="Weston"/>
    <tag k="addr:housenumber" v="7587"/>
    <tag k="addr:street" v="Vermont Route 100"/>
    <tag k="addr:state" v="VT"/>
    <tag k="ref:vcgi:esiteid" v="140667"/>
  </node>
  <node id="-109" visible="true" lat="43.353731" lon="-72.76610691">
    <tag k="addr:city" v="Weston"/>
    <tag k="addr:housenumber" v="44"/>
    <tag k="addr:street" v="Slawson Road"/>
    <tag k="addr:state" v="VT"/>
    <tag k="ref:vcgi:esiteid" v="284580"/>
  </node>
  <node id="-113" visible="true" lat="43.35161788" lon="-72.76794109">
    <tag k="addr:city" v="Weston"/>
    <tag k="addr:housenumber" v="5"/>
    <tag k="addr:street" v="Slawson Road"/>
    <tag k="addr:state" v="VT"/>
    <tag k="ref:vcgi:esiteid" v="284584"/>
  </node>
  <node id="-114" visible="true" lat="43.35142615" lon="-72.76033761">
    <tag k="addr:city" v="Weston"/>
    <tag k="addr:housenumber" v="1766"/>
    <tag k="addr:street" v="Vermont Route 100"/>
    <tag k="addr:state" v="VT"/>
    <tag k="ref:vcgi:esiteid" v="284585"/>
  </node>
  <node id="-116" visible="true" lat="43.35150361" lon="-72.76877024">
    <tag k="addr:city" v="Weston"/>
    <tag k="addr:housenumber" v="2"/>
    <tag k="addr:street" v="Slawson Road"/>
    <tag k="addr:state" v="VT"/>
    <tag k="ref:vcgi:esiteid" v="284587"/>
  </node>
  <node id="-117" visible="true" lat="43.35128784" lon="-72.76111603">
    <tag k="addr:city" v="Weston"/>
    <tag k="addr:housenumber" v="1756"/>
    <tag k="addr:street" v="Vermont Route 100"/>
    <tag k="addr:state" v="VT"/>
    <tag k="ref:vcgi:esiteid" v="284588"/>
  </node>
  <node id="-118" visible="true" lat="43.35123253" lon="-72.76405708">
    <tag k="addr:city" v="Weston"/>
    <tag k="addr:housenumber" v="1727"/>
    <tag k="addr:street" v="Vermont Route 100"/>
    <tag k="addr:state" v="VT"/>
    <tag k="ref:vcgi:esiteid" v="284589"/>
  </node>
  <node id="-120" visible="true" lat="43.35093971" lon="-72.82018693">
    <tag k="addr:city" v="Weston"/>
    <tag k="addr:housenumber" v="685"/>
    <tag k="addr:street" v="Greendale Road"/>
    <tag k="addr:state" v="VT"/>
    <tag k="ref:vcgi:esiteid" v="284591"/>
  </node>
  <node id="-124" visible="true" lat="43.34851074" lon="-72.77339172">
    <tag k="addr:city" v="Weston"/>
    <tag k="addr:housenumber" v="1600"/>
    <tag k="addr:street" v="Vermont Route 100"/>
    <tag k="addr:state" v="VT"/>
    <tag k="ref:vcgi:esiteid" v="284596"/>
  </node>
  <node id="-128" visible="true" lat="43.34564208" lon="-72.78895058">
    <tag k="addr:city" v="Weston"/>
    <tag k="addr:housenumber" v="18"/>
    <tag k="addr:street" v="Ettinger Road"/>
    <tag k="addr:state" v="VT"/>
    <tag k="ref:vcgi:esiteid" v="284600"/>
  </node>
  <node id="-129" visible="true" lat="43.3450794" lon="-72.77786773">
    <tag k="addr:city" v="Weston"/>
    <tag k="addr:housenumber" v="1536"/>
    <tag k="addr:street" v="Vermont Route 100"/>
    <tag k="addr:state" v="VT"/>
    <tag k="ref:vcgi:esiteid" v="284602"/>
  </node>
  <node id="-131" visible="true" lat="43.34453768" lon="-72.77919466">
    <tag k="addr:city" v="Weston"/>
    <tag k="addr:housenumber" v="1520"/>
    <tag k="addr:street" v="Vermont Route 100"/>
    <tag k="addr:state" v="VT"/>
    <tag k="ref:vcgi:esiteid" v="284604"/>
  </node>
  <node id="-138" visible="true" lat="43.3424415" lon="-72.78789299">
    <tag k="addr:city" v="Weston"/>
    <tag k="addr:housenumber" v="79"/>
    <tag k="addr:street" v="Vermont Route 155"/>
    <tag k="addr:state" v="VT"/>
    <tag k="ref:vcgi:esiteid" v="284611"/>
  </node>
  <node id="-139" visible="true" lat="43.3418541" lon="-72.78279114">
    <tag k="addr:city" v="Weston"/>
    <tag k="addr:housenumber" v="1468"/>
    <tag k="addr:street" v="Vermont Route 100"/>
    <tag k="addr:state" v="VT"/>
    <tag k="ref:vcgi:esiteid" v="284612"/>
  </node>
  <node id="-140" visible="true" lat="43.34079205" lon="-72.82804657">
    <tag k="addr:city" v="Weston"/>
    <tag k="addr:housenumber" v="286"/>
    <tag k="addr:street" v="Jenny Coolidge Road"/>
    <tag k="addr:state" v="VT"/>
    <tag k="ref:vcgi:esiteid" v="284613"/>
  </node>
  <node id="-141" visible="true" lat="43.33982509" lon="-72.80980443">
    <tag k="addr:city" v="Weston"/>
    <tag k="addr:housenumber" v="431"/>
    <tag k="addr:street" v="Greendale Road"/>
    <tag k="addr:state" v="VT"/>
    <tag k="ref:vcgi:esiteid" v="284614"/>
  </node>
  <node id="-143" visible="true" lat="43.3388171" lon="-72.80901667">
    <tag k="addr:city" v="Weston"/>
    <tag k="addr:housenumber" v="420"/>
    <tag k="addr:street" v="Greendale Road"/>
    <tag k="addr:state" v="VT"/>
    <tag k="ref:vcgi:esiteid" v="284616"/>
  </node>
  <node id="-152" visible="true" lat="43.33387564" lon="-72.79205226">
    <tag k="addr:city" v="Weston"/>
    <tag k="addr:housenumber" v="272"/>
    <tag k="addr:street" v="Old County Road"/>
    <tag k="addr:state" v="VT"/>
    <tag k="ref:vcgi:esiteid" v="284626"/>
  </node>
  <node id="-161" visible="true" lat="43.32886799" lon="-72.78264163">
    <tag k="addr:city" v="Weston"/>
    <tag k="addr:housenumber" v="38"/>
    <tag k="addr:street" v="Stevens Loop"/>
    <tag k="addr:state" v="VT"/>
    <tag k="ref:vcgi:esiteid" v="284635"/>
  </node>
  <node id="-163" visible="true" lat="43.32817852" lon="-72.76933168">
    <tag k="addr:city" v="Weston"/>
    <tag k="addr:housenumber" v="192"/>
    <tag k="addr:street" v="Felton Road"/>
    <tag k="addr:state" v="VT"/>
    <tag k="ref:vcgi:esiteid" v="284638"/>
  </node>
  <node id="-166" visible="true" lat="43.32662576" lon="-72.81593317">
    <tag k="addr:city" v="Weston"/>
    <tag k="addr:housenumber" v="457"/>
    <tag k="addr:street" v="Moses Pond Road"/>
    <tag k="addr:state" v="VT"/>
    <tag k="ref:vcgi:esiteid" v="284641"/>
  </node>
  <node id="-168" visible="true" lat="43.32594329" lon="-72.81731516">
    <tag k="addr:city" v="Weston"/>
    <tag k="addr:housenumber" v="468"/>
    <tag k="addr:street" v="Moses Pond Road"/>
    <tag k="addr:state" v="VT"/>
    <tag k="ref:vcgi:esiteid" v="284643"/>
  </node>
  <node id="-172" visible="true" lat="43.32507128" lon="-72.81553781">
    <tag k="addr:city" v="Weston"/>
    <tag k="addr:housenumber" v="446"/>
    <tag k="addr:street" v="Moses Pond Road"/>
    <tag k="addr:state" v="VT"/>
    <tag k="ref:vcgi:esiteid" v="284647"/>
  </node>
  <node id="-173" visible="true" lat="43.32486578" lon="-72.81498493">
    <tag k="addr:city" v="Weston"/>
    <tag k="addr:housenumber" v="440"/>
    <tag k="addr:street" v="Moses Pond Road"/>
    <tag k="addr:state" v="VT"/>
    <tag k="ref:vcgi:esiteid" v="284648"/>
  </node>
  <node id="-179" visible="true" lat="43.32288973" lon="-72.78310487">
    <tag k="addr:city" v="Weston"/>
    <tag k="addr:housenumber" v="1166"/>
    <tag k="addr:street" v="Vermont Route 100"/>
    <tag k="addr:state" v="VT"/>
    <tag k="ref:vcgi:esiteid" v="284654"/>
  </node>
  <node id="-182" visible="true" lat="43.32215065" lon="-72.79506825">
    <tag k="addr:city" v="Weston"/>
    <tag k="addr:housenumber" v="121"/>
    <tag k="addr:street" v="Greendale Road"/>
    <tag k="addr:state" v="VT"/>
    <tag k="ref:vcgi:esiteid" v="284657"/>
  </node>
  <node id="-183" visible="true" lat="43.32148316" lon="-72.78440875">
    <tag k="addr:city" v="Weston"/>
    <tag k="addr:housenumber" v="1138"/>
    <tag k="addr:street" v="Vermont Route 100"/>
    <tag k="addr:state" v="VT"/>
    <tag k="ref:vcgi:esiteid" v="284658"/>
  </node>
  <node id="-186" visible="true" lat="43.3209533" lon="-72.82706274">
    <tag k="addr:city" v="Weston"/>
    <tag k="addr:housenumber" v="150"/>
    <tag k="addr:street" v="Turner Road"/>
    <tag k="addr:state" v="VT"/>
    <tag k="ref:vcgi:esiteid" v="284661"/>
  </node>
  <node id="-190" visible="true" lat="43.31980027" lon="-72.82495574">
    <tag k="addr:city" v="Weston"/>
    <tag k="addr:housenumber" v="151"/>
    <tag k="addr:street" v="Turner Road"/>
    <tag k="addr:state" v="VT"/>
    <tag k="ref:vcgi:esiteid" v="284665"/>
  </node>
  <node id="-191" visible="true" lat="43.31954722" lon="-72.78563791">
    <tag k="addr:city" v="Weston"/>
    <tag k="addr:housenumber" v="1100"/>
    <tag k="addr:street" v="Vermont Route 100"/>
    <tag k="addr:state" v="VT"/>
    <tag k="ref:vcgi:esiteid" v="284666"/>
  </node>
  <node id="-192" visible="true" lat="43.31935037" lon="-72.82769301">
    <tag k="addr:city" v="Weston"/>
    <tag k="addr:housenumber" v="124"/>
    <tag k="addr:street" v="Turner Road"/>
    <tag k="addr:state" v="VT"/>
    <tag k="ref:vcgi:esiteid" v="284667"/>
  </node>
  <node id="-197" visible="true" lat="43.31841676" lon="-72.78598398">
    <tag k="addr:city" v="Weston"/>
    <tag k="addr:housenumber" v="1087"/>
    <tag k="addr:street" v="Vermont Route 100"/>
    <tag k="addr:state" v="VT"/>
    <tag k="ref:vcgi:esiteid" v="284672"/>
  </node>
  <node id="-198" visible="true" lat="43.31828904" lon="-72.79494144">
    <tag k="addr:city" v="Weston"/>
    <tag k="addr:housenumber" v="96"/>
    <tag k="addr:street" v="Greendale Road"/>
    <tag k="addr:state" v="VT"/>
    <tag k="ref:vcgi:esiteid" v="284673"/>
  </node>
  <node id="-201" visible="true" lat="43.31789941" lon="-72.78815599">
    <tag k="addr:city" v="Weston"/>
    <tag k="addr:housenumber" v="12"/>
    <tag k="addr:street" v="Old County Road"/>
    <tag k="addr:state" v="VT"/>
    <tag k="ref:vcgi:esiteid" v="284676"/>
  </node>
  <node id="-203" visible="true" lat="43.31860466" lon="-72.80991579">
    <tag k="addr:city" v="Weston"/>
    <tag k="addr:housenumber" v="31"/>
    <tag k="addr:street" v="Peabody Hill Road"/>
    <tag k="addr:state" v="VT"/>
    <tag k="ref:vcgi:esiteid" v="284678"/>
  </node>
  <node id="-204" visible="true" lat="43.31770475" lon="-72.78828521">
    <tag k="addr:city" v="Weston"/>
    <tag k="addr:housenumber" v="2"/>
    <tag k="addr:street" v="Old County Road"/>
    <tag k="addr:state" v="VT"/>
    <tag k="ref:vcgi:esiteid" v="284679"/>
  </node>
  <node id="-207" visible="true" lat="43.31749573" lon="-72.82790223">
    <tag k="addr:city" v="Weston"/>
    <tag k="addr:housenumber" v="94"/>
    <tag k="addr:street" v="Turner Road"/>
    <tag k="addr:state" v="VT"/>
    <tag k="ref:vcgi:esiteid" v="284682"/>
  </node>
  <node id="-209" visible="true" lat="43.31647878" lon="-72.82608751">
    <tag k="addr:city" v="Weston"/>
    <tag k="addr:housenumber" v="87"/>
    <tag k="addr:street" v="Turner Road"/>
    <tag k="addr:state" v="VT"/>
    <tag k="ref:vcgi:esiteid" v="284684"/>
  </node>
  <node id="-212" visible="true" lat="43.31586307" lon="-72.79206891">
    <tag k="addr:city" v="Weston"/>
    <tag k="addr:housenumber" v="416"/>
    <tag k="addr:street" v="Lawrence Hill Road"/>
    <tag k="addr:state" v="VT"/>
    <tag k="ref:vcgi:esiteid" v="284687"/>
  </node>
  <node id="-214" visible="true" lat="43.31471918" lon="-72.79069903">
    <tag k="addr:city" v="Weston"/>
    <tag k="addr:housenumber" v="405"/>
    <tag k="addr:street" v="Lawrence Hill Road"/>
    <tag k="addr:state" v="VT"/>
    <tag k="ref:vcgi:esiteid" v="284690"/>
  </node>
  <node id="-215" visible="true" lat="43.31433777" lon="-72.79087037">
    <tag k="addr:city" v="Weston"/>
    <tag k="addr:housenumber" v="401"/>
    <tag k="addr:street" v="Lawrence Hill Road"/>
    <tag k="addr:state" v="VT"/>
    <tag k="ref:vcgi:esiteid" v="284691"/>
  </node>
  <node id="-217" visible="true" lat="43.31363778" lon="-72.79373891">
    <tag k="addr:city" v="Weston"/>
    <tag k="addr:housenumber" v="370"/>
    <tag k="addr:street" v="Lawrence Hill Road"/>
    <tag k="addr:state" v="VT"/>
    <tag k="ref:vcgi:esiteid" v="284693"/>
  </node>
  <node id="-218" visible="true" lat="43.31370639" lon="-72.79336638">
    <tag k="addr:city" v="Weston"/>
    <tag k="addr:housenumber" v="372"/>
    <tag k="addr:street" v="Lawrence Hill Road"/>
    <tag k="addr:state" v="VT"/>
    <tag k="ref:vcgi:esiteid" v="284694"/>
  </node>
  <node id="-220" visible="true" lat="43.31335543" lon="-72.79462428">
    <tag k="addr:city" v="Weston"/>
    <tag k="addr:housenumber" v="352"/>
    <tag k="addr:street" v="Lawrence Hill Road"/>
    <tag k="addr:state" v="VT"/>
    <tag k="ref:vcgi:esiteid" v="284696"/>
  </node>
  <node id="-221" visible="true" lat="43.31315194" lon="-72.78798336">
    <tag k="addr:city" v="Weston"/>
    <tag k="addr:housenumber" v="1010"/>
    <tag k="addr:street" v="Vermont Route 100"/>
    <tag k="addr:state" v="VT"/>
    <tag k="ref:vcgi:esiteid" v="284697"/>
  </node>
  <node id="-222" visible="true" lat="43.31308214" lon="-72.83073626">
    <tag k="addr:city" v="Weston"/>
    <tag k="addr:housenumber" v="453"/>
    <tag k="addr:street" v="Trout Club Road"/>
    <tag k="addr:state" v="VT"/>
    <tag k="ref:vcgi:esiteid" v="284698"/>
  </node>
  <node id="-225" visible="true" lat="43.31309131" lon="-72.79198807">
    <tag k="addr:city" v="Weston"/>
    <tag k="addr:housenumber" v="385"/>
    <tag k="addr:street" v="Lawrence Hill Road"/>
    <tag k="addr:state" v="VT"/>
    <tag k="ref:vcgi:esiteid" v="284701"/>
  </node>
  <node id="-231" visible="true" lat="43.31202396" lon="-72.79422186">
    <tag k="addr:city" v="Weston"/>
    <tag k="addr:housenumber" v="349"/>
    <tag k="addr:street" v="Lawrence Hill Road"/>
    <tag k="addr:state" v="VT"/>
    <tag k="ref:vcgi:esiteid" v="284708"/>
  </node>
  <node id="-241" visible="true" lat="43.31108872" lon="-72.78754676">
    <tag k="addr:city" v="Weston"/>
    <tag k="addr:housenumber" v="982"/>
    <tag k="addr:street" v="Vermont Route 100"/>
    <tag k="addr:state" v="VT"/>
    <tag k="ref:vcgi:esiteid" v="284718"/>
  </node>
  <node id="-243" visible="true" lat="43.31082056" lon="-72.78593452">
    <tag k="addr:city" v="Weston"/>
    <tag k="addr:housenumber" v="22"/>
    <tag k="addr:street" v="Maple Hill Road"/>
    <tag k="addr:state" v="VT"/>
    <tag k="ref:vcgi:esiteid" v="284720"/>
  </node>
  <node id="-253" visible="true" lat="43.30904217" lon="-72.84615549">
    <tag k="addr:city" v="Weston"/>
    <tag k="addr:housenumber" v="232"/>
    <tag k="addr:street" v="Jaquith Road"/>
    <tag k="addr:state" v="VT"/>
    <tag k="ref:vcgi:esiteid" v="284731"/>
  </node>
  <node id="-254" visible="true" lat="43.30891251" lon="-72.77735299">
    <tag k="addr:city" v="Weston"/>
    <tag k="addr:housenumber" v="63"/>
    <tag k="addr:street" v="Bailey Road"/>
    <tag k="addr:state" v="VT"/>
    <tag k="ref:vcgi:esiteid" v="284732"/>
  </node>
  <node id="-263" visible="true" lat="43.30789683" lon="-72.7768684">
    <tag k="addr:city" v="Weston"/>
    <tag k="addr:housenumber" v="61"/>
    <tag k="addr:street" v="Bailey Road"/>
    <tag k="addr:state" v="VT"/>
    <tag k="ref:vcgi:esiteid" v="284741"/>
  </node>
  <node id="-266" visible="true" lat="43.30702014" lon="-72.77139102">
    <tag k="addr:city" v="Weston"/>
    <tag k="addr:housenumber" v="196"/>
    <tag k="addr:street" v="Burton Road"/>
    <tag k="addr:state" v="VT"/>
    <tag k="ref:vcgi:esiteid" v="284744"/>
  </node>
  <node id="-274" visible="true" lat="43.30577855" lon="-72.7726691">
    <tag k="addr:city" v="Weston"/>
    <tag k="addr:housenumber" v="179"/>
    <tag k="addr:street" v="Burton Road"/>
    <tag k="addr:state" v="VT"/>
    <tag k="ref:vcgi:esiteid" v="284752"/>
  </node>
  <node id="-286" visible="true" lat="43.30467252" lon="-72.80608097">
    <tag k="addr:city" v="Weston"/>
    <tag k="addr:housenumber" v="86"/>
    <tag k="addr:street" v="Parker Lane"/>
    <tag k="addr:state" v="VT"/>
    <tag k="ref:vcgi:esiteid" v="284765"/>
  </node>
  <node id="-288" visible="true" lat="43.3045645" lon="-72.78643581">
    <tag k="addr:city" v="Weston"/>
    <tag k="addr:housenumber" v="886"/>
    <tag k="addr:street" v="Vermont Route 100"/>
    <tag k="addr:state" v="VT"/>
    <tag k="ref:vcgi:esiteid" v="284767"/>
  </node>
  <node id="-302" visible="true" lat="43.30259795" lon="-72.81421683">
    <tag k="addr:city" v="Weston"/>
    <tag k="addr:housenumber" v="206"/>
    <tag k="addr:street" v="Trout Club Road"/>
    <tag k="addr:state" v="VT"/>
    <tag k="ref:vcgi:esiteid" v="284781"/>
  </node>
  <node id="-312" visible="true" lat="43.30167122" lon="-72.81059804">
    <tag k="addr:city" v="Weston"/>
    <tag k="addr:housenumber" v="183"/>
    <tag k="addr:street" v="Trout Club Road"/>
    <tag k="addr:state" v="VT"/>
    <tag k="ref:vcgi:esiteid" v="284792"/>
  </node>
  <node id="-314" visible="true" lat="43.30157697" lon="-72.77547682">
    <tag k="addr:city" v="Weston"/>
    <tag k="addr:housenumber" v="139"/>
    <tag k="addr:street" v="Burton Road"/>
    <tag k="addr:state" v="VT"/>
    <tag k="ref:vcgi:esiteid" v="284794"/>
  </node>
  <node id="-315" visible="true" lat="43.30114524" lon="-72.8486642">
    <tag k="addr:city" v="Weston"/>
    <tag k="addr:housenumber" v="123"/>
    <tag k="addr:street" v="Jaquith Road"/>
    <tag k="addr:state" v="VT"/>
    <tag k="ref:vcgi:esiteid" v="284796"/>
  </node>
  <node id="-316" visible="true" lat="43.30127984" lon="-72.8447431">
    <tag k="addr:city" v="Weston"/>
    <tag k="addr:housenumber" v="108"/>
    <tag k="addr:street" v="Jaquith Road"/>
    <tag k="addr:state" v="VT"/>
    <tag k="ref:vcgi:esiteid" v="284797"/>
  </node>
  <node id="-317" visible="true" lat="43.30137573" lon="-72.80383618">
    <tag k="addr:city" v="Weston"/>
    <tag k="addr:housenumber" v="38"/>
    <tag k="addr:street" v="Parker Lane"/>
    <tag k="addr:state" v="VT"/>
    <tag k="ref:vcgi:esiteid" v="284798"/>
  </node>
  <node id="-319" visible="true" lat="43.30081217" lon="-72.8112729">
    <tag k="addr:city" v="Weston"/>
    <tag k="addr:housenumber" v="180"/>
    <tag k="addr:street" v="Trout Club Road"/>
    <tag k="addr:state" v="VT"/>
    <tag k="ref:vcgi:esiteid" v="284800"/>
  </node>
  <node id="-323" visible="true" lat="43.29991816" lon="-72.79556667">
    <tag k="addr:city" v="Weston"/>
    <tag k="addr:housenumber" v="177"/>
    <tag k="addr:street" v="Lawrence Hill Road"/>
    <tag k="addr:state" v="VT"/>
    <tag k="ref:vcgi:esiteid" v="284804"/>
  </node>
  <node id="-325" visible="true" lat="43.29981223" lon="-72.79789796">
    <tag k="addr:city" v="Weston"/>
    <tag k="addr:housenumber" v="162"/>
    <tag k="addr:street" v="Lawrence Hill Road"/>
    <tag k="addr:state" v="VT"/>
    <tag k="ref:vcgi:esiteid" v="284806"/>
  </node>
  <node id="-334" visible="true" lat="43.29674433" lon="-72.79461562">
    <tag k="addr:city" v="Weston"/>
    <tag k="addr:housenumber" v="18"/>
    <tag k="addr:street" v="Wildes Way"/>
    <tag k="addr:state" v="VT"/>
    <tag k="ref:vcgi:esiteid" v="284816"/>
  </node>
  <node id="-336" visible="true" lat="43.29813491" lon="-72.79631859">
    <tag k="addr:city" v="Weston"/>
    <tag k="addr:housenumber" v="20"/>
    <tag k="addr:street" v="Wildes Way"/>
    <tag k="addr:state" v="VT"/>
    <tag k="ref:vcgi:esiteid" v="284818"/>
  </node>
  <node id="-338" visible="true" lat="43.29672012" lon="-72.78177663">
    <tag k="addr:city" v="Weston"/>
    <tag k="addr:housenumber" v="80"/>
    <tag k="addr:street" v="Chester Mountain Road"/>
    <tag k="addr:state" v="VT"/>
    <tag k="ref:vcgi:esiteid" v="284820"/>
  </node>
  <node id="-344" visible="true" lat="43.29550374" lon="-72.78212198">
    <tag k="addr:city" v="Weston"/>
    <tag k="addr:housenumber" v="85"/>
    <tag k="addr:street" v="Chester Mountain Road"/>
    <tag k="addr:state" v="VT"/>
    <tag k="ref:vcgi:esiteid" v="284826"/>
  </node>
  <node id="-349" visible="true" lat="43.2955364" lon="-72.78355074">
    <tag k="addr:city" v="Weston"/>
    <tag k="addr:housenumber" v="67"/>
    <tag k="addr:street" v="Chester Mountain Road"/>
    <tag k="addr:state" v="VT"/>
    <tag k="ref:vcgi:esiteid" v="284832"/>
  </node>
  <node id="-350" visible="true" lat="43.29545692" lon="-72.78562739">
    <tag k="addr:city" v="Weston"/>
    <tag k="addr:housenumber" v="46"/>
    <tag k="addr:street" v="Chester Mountain Road"/>
    <tag k="addr:state" v="VT"/>
    <tag k="ref:vcgi:esiteid" v="284833"/>
  </node>
  <node id="-353" visible="true" lat="43.29509081" lon="-72.78413191">
    <tag k="addr:city" v="Weston"/>
    <tag k="addr:housenumber" v="57"/>
    <tag k="addr:street" v="Chester Mountain Road"/>
    <tag k="addr:state" v="VT"/>
    <tag k="ref:vcgi:esiteid" v="284837"/>
  </node>
  <node id="-356" visible="true" lat="43.29495475" lon="-72.77885447">
    <tag k="addr:city" v="Weston"/>
    <tag k="addr:housenumber" v="125"/>
    <tag k="addr:street" v="Chester Mountain Road"/>
    <tag k="addr:state" v="VT"/>
    <tag k="ref:vcgi:esiteid" v="284840"/>
  </node>
  <node id="-358" visible="true" lat="43.2947731" lon="-72.78762817">
    <tag k="addr:city" v="Weston"/>
    <tag k="addr:housenumber" v="24"/>
    <tag k="addr:street" v="Chester Mountain Road"/>
    <tag k="addr:state" v="VT"/>
    <tag k="ref:vcgi:esiteid" v="284843"/>
  </node>
  <node id="-361" visible="true" lat="43.29427049" lon="-72.78751186">
    <tag k="addr:city" v="Weston"/>
    <tag k="addr:housenumber" v="23"/>
    <tag k="addr:street" v="Chester Mountain Road"/>
    <tag k="addr:state" v="VT"/>
    <tag k="ref:vcgi:esiteid" v="284846"/>
  </node>
  <node id="-363" visible="true" lat="43.29430727" lon="-72.78911163">
    <tag k="addr:city" v="Weston"/>
    <tag k="addr:housenumber" v="725"/>
    <tag k="addr:street" v="Main Street"/>
    <tag k="addr:state" v="VT"/>
    <tag k="ref:vcgi:esiteid" v="284848"/>
  </node>
  <node id="-365" visible="true" lat="43.29410261" lon="-72.78976316">
    <tag k="addr:city" v="Weston"/>
    <tag k="addr:housenumber" v="722"/>
    <tag k="addr:street" v="Main Street"/>
    <tag k="addr:state" v="VT"/>
    <tag k="ref:vcgi:esiteid" v="284850"/>
  </node>
  <node id="-367" visible="true" lat="43.29402341" lon="-72.80176623">
    <tag k="addr:city" v="Weston"/>
    <tag k="addr:housenumber" v="39"/>
    <tag k="addr:street" v="Landgrove Road"/>
    <tag k="addr:state" v="VT"/>
    <tag k="ref:vcgi:esiteid" v="284852"/>
  </node>
  <node id="-368" visible="true" lat="43.29397956" lon="-72.78913915">
    <tag k="addr:city" v="Weston"/>
    <tag k="addr:housenumber" v="719"/>
    <tag k="addr:street" v="Main Street"/>
    <tag k="addr:state" v="VT"/>
    <tag k="ref:vcgi:esiteid" v="284853"/>
  </node>
  <node id="-371" visible="true" lat="43.29367171" lon="-72.80715132">
    <tag k="addr:city" v="Weston"/>
    <tag k="addr:housenumber" v="111"/>
    <tag k="addr:street" v="Landgrove Road"/>
    <tag k="addr:state" v="VT"/>
    <tag k="ref:vcgi:esiteid" v="284856"/>
  </node>
  <node id="-374" visible="true" lat="43.29330069" lon="-72.79682607">
    <tag k="addr:city" v="Weston"/>
    <tag k="addr:housenumber" v="53"/>
    <tag k="addr:street" v="Lawrence Hill Road"/>
    <tag k="addr:state" v="VT"/>
    <tag k="ref:vcgi:esiteid" v="284860"/>
  </node>
  <node id="-389" visible="true" lat="43.29235076" lon="-72.79561374">
    <tag k="addr:city" v="Weston"/>
    <tag k="addr:housenumber" v="39"/>
    <tag k="addr:street" v="Lawrence Hill Road"/>
    <tag k="addr:state" v="VT"/>
    <tag k="ref:vcgi:esiteid" v="284875"/>
  </node>
  <node id="-393" visible="true" lat="43.29223435" lon="-72.80018165">
    <tag k="addr:city" v="Weston"/>
    <tag k="addr:housenumber" v="40"/>
    <tag k="addr:street" v="Landgrove Road"/>
    <tag k="addr:state" v="VT"/>
    <tag k="ref:vcgi:esiteid" v="284880"/>
  </node>
  <node id="-397" visible="true" lat="43.29174248" lon="-72.8041871">
    <tag k="addr:city" v="Weston"/>
    <tag k="addr:housenumber" v="83"/>
    <tag k="addr:street" v="Landgrove Road"/>
    <tag k="addr:state" v="VT"/>
    <tag k="ref:vcgi:esiteid" v="284884"/>
  </node>
  <node id="-407" visible="true" lat="43.2911911" lon="-72.81932068">
    <tag k="addr:city" v="Weston"/>
    <tag k="addr:housenumber" v="255"/>
    <tag k="addr:street" v="Landgrove Road"/>
    <tag k="addr:state" v="VT"/>
    <tag k="ref:vcgi:esiteid" v="284895"/>
  </node>
  <node id="-411" visible="true" lat="43.29103479" lon="-72.81817309">
    <tag k="addr:city" v="Weston"/>
    <tag k="addr:housenumber" v="245"/>
    <tag k="addr:street" v="Landgrove Road"/>
    <tag k="addr:state" v="VT"/>
    <tag k="ref:vcgi:esiteid" v="284899"/>
  </node>
  <node id="-414" visible="true" lat="43.29092617" lon="-72.79969154">
    <tag k="addr:city" v="Weston"/>
    <tag k="addr:housenumber" v="54"/>
    <tag k="addr:street" v="Landgrove Road"/>
    <tag k="addr:state" v="VT"/>
    <tag k="ref:vcgi:esiteid" v="284902"/>
  </node>
  <node id="-422" visible="true" lat="43.29079203" lon="-72.809327">
    <tag k="addr:city" v="Weston"/>
    <tag k="addr:housenumber" v="141"/>
    <tag k="addr:street" v="Landgrove Road"/>
    <tag k="addr:state" v="VT"/>
    <tag k="ref:vcgi:esiteid" v="284911"/>
  </node>
  <node id="-425" visible="true" lat="43.29027857" lon="-72.81187347">
    <tag k="addr:city" v="Weston"/>
    <tag k="addr:housenumber" v="169"/>
    <tag k="addr:street" v="Landgrove Road"/>
    <tag k="addr:state" v="VT"/>
    <tag k="ref:vcgi:esiteid" v="284914"/>
  </node>
  <node id="-431" visible="true" lat="43.28989796" lon="-72.81764441">
    <tag k="addr:city" v="Weston"/>
    <tag k="addr:housenumber" v="236"/>
    <tag k="addr:street" v="Landgrove Road"/>
    <tag k="addr:state" v="VT"/>
    <tag k="ref:vcgi:esiteid" v="284920"/>
  </node>
  <node id="-434" visible="true" lat="43.28978928" lon="-72.8083689">
    <tag k="addr:city" v="Weston"/>
    <tag k="addr:housenumber" v="136"/>
    <tag k="addr:street" v="Landgrove Road"/>
    <tag k="addr:state" v="VT"/>
    <tag k="ref:vcgi:esiteid" v="284923"/>
  </node>
  <node id="-448" visible="true" lat="43.288044" lon="-72.81544214">
    <tag k="addr:city" v="Weston"/>
    <tag k="addr:housenumber" v="40"/>
    <tag k="addr:street" v="Holden Hill Road"/>
    <tag k="addr:state" v="VT"/>
    <tag k="ref:vcgi:esiteid" v="284937"/>
  </node>
  <node id="-449" visible="true" lat="43.28797907" lon="-72.81730714">
    <tag k="addr:city" v="Weston"/>
    <tag k="addr:housenumber" v="31"/>
    <tag k="addr:street" v="Holden Hill Road"/>
    <tag k="addr:state" v="VT"/>
    <tag k="ref:vcgi:esiteid" v="284938"/>
  </node>
  <node id="-453" visible="true" lat="43.2875249" lon="-72.80532827">
    <tag k="addr:city" v="Weston"/>
    <tag k="addr:housenumber" v="51"/>
    <tag k="addr:street" v="Morgan Hill Road"/>
    <tag k="addr:state" v="VT"/>
    <tag k="ref:vcgi:esiteid" v="284942"/>
  </node>
  <node id="-454" visible="true" lat="43.2864247" lon="-72.81574579">
    <tag k="addr:city" v="Weston"/>
    <tag k="addr:housenumber" v="48"/>
    <tag k="addr:street" v="Holden Hill Road"/>
    <tag k="addr:state" v="VT"/>
    <tag k="ref:vcgi:esiteid" v="284944"/>
  </node>
  <node id="-456" visible="true" lat="43.28615209" lon="-72.80553251">
    <tag k="addr:city" v="Weston"/>
    <tag k="addr:housenumber" v="75"/>
    <tag k="addr:street" v="Morgan Hill Road"/>
    <tag k="addr:state" v="VT"/>
    <tag k="ref:vcgi:esiteid" v="284946"/>
  </node>
  <node id="-458" visible="true" lat="43.28546215" lon="-72.81825841">
    <tag k="addr:city" v="Weston"/>
    <tag k="addr:housenumber" v="79"/>
    <tag k="addr:street" v="Holden Hill Road"/>
    <tag k="addr:state" v="VT"/>
    <tag k="ref:vcgi:esiteid" v="284948"/>
  </node>
  <node id="-460" visible="true" lat="43.28474833" lon="-72.81633567">
    <tag k="addr:city" v="Weston"/>
    <tag k="addr:housenumber" v="80"/>
    <tag k="addr:street" v="Holden Hill Road"/>
    <tag k="addr:state" v="VT"/>
    <tag k="ref:vcgi:esiteid" v="284950"/>
  </node>
  <node id="-462" visible="true" lat="43.28428853" lon="-72.79073988">
    <tag k="addr:city" v="Weston"/>
    <tag k="addr:housenumber" v="38"/>
    <tag k="addr:street" v="Piper Hill Road"/>
    <tag k="addr:state" v="VT"/>
    <tag k="ref:vcgi:esiteid" v="284952"/>
  </node>
  <node id="-463" visible="true" lat="43.28388902" lon="-72.81572922">
    <tag k="addr:city" v="Weston"/>
    <tag k="addr:housenumber" v="96"/>
    <tag k="addr:street" v="Holden Hill Road"/>
    <tag k="addr:state" v="VT"/>
    <tag k="ref:vcgi:esiteid" v="284953"/>
  </node>
  <node id="-465" visible="true" lat="43.28340443" lon="-72.81723608">
    <tag k="addr:city" v="Weston"/>
    <tag k="addr:housenumber" v="99"/>
    <tag k="addr:street" v="Holden Hill Road"/>
    <tag k="addr:state" v="VT"/>
    <tag k="ref:vcgi:esiteid" v="284955"/>
  </node>
  <node id="-468" visible="true" lat="43.28256293" lon="-72.80517827">
    <tag k="addr:city" v="Weston"/>
    <tag k="addr:housenumber" v="125"/>
    <tag k="addr:street" v="Morgan Hill Road"/>
    <tag k="addr:state" v="VT"/>
    <tag k="ref:vcgi:esiteid" v="284958"/>
  </node>
  <node id="-470" visible="true" lat="43.28189751" lon="-72.81719309">
    <tag k="addr:city" v="Weston"/>
    <tag k="addr:housenumber" v="123"/>
    <tag k="addr:street" v="Holden Hill Road"/>
    <tag k="addr:state" v="VT"/>
    <tag k="ref:vcgi:esiteid" v="284960"/>
  </node>
  <node id="-476" visible="true" lat="43.27963494" lon="-72.81860679">
    <tag k="addr:city" v="Weston"/>
    <tag k="addr:housenumber" v="155"/>
    <tag k="addr:street" v="Holden Hill Road"/>
    <tag k="addr:state" v="VT"/>
    <tag k="ref:vcgi:esiteid" v="284967"/>
  </node>
  <node id="-478" visible="true" lat="43.27954866" lon="-72.81286972">
    <tag k="addr:city" v="Weston"/>
    <tag k="addr:housenumber" v="146"/>
    <tag k="addr:street" v="Holden Hill Road"/>
    <tag k="addr:state" v="VT"/>
    <tag k="ref:vcgi:esiteid" v="284969"/>
  </node>
  <node id="-479" visible="true" lat="43.2787136" lon="-72.81712509">
    <tag k="addr:city" v="Weston"/>
    <tag k="addr:housenumber" v="170"/>
    <tag k="addr:street" v="Holden Hill Road"/>
    <tag k="addr:state" v="VT"/>
    <tag k="ref:vcgi:esiteid" v="284970"/>
  </node>
  <node id="-481" visible="true" lat="43.27796079" lon="-72.81105422">
    <tag k="addr:city" v="Weston"/>
    <tag k="addr:housenumber" v="148"/>
    <tag k="addr:street" v="Holden Hill Road"/>
    <tag k="addr:state" v="VT"/>
    <tag k="ref:vcgi:esiteid" v="284972"/>
  </node>
  <node id="-482" visible="true" lat="43.2776778" lon="-72.8180079">
    <tag k="addr:city" v="Weston"/>
    <tag k="addr:housenumber" v="185"/>
    <tag k="addr:street" v="Holden Hill Road"/>
    <tag k="addr:state" v="VT"/>
    <tag k="ref:vcgi:esiteid" v="284973"/>
  </node>
  <node id="-483" visible="true" lat="43.27764469" lon="-72.816901">
    <tag k="addr:city" v="Weston"/>
    <tag k="addr:housenumber" v="186"/>
    <tag k="addr:street" v="Holden Hill Road"/>
    <tag k="addr:state" v="VT"/>
    <tag k="ref:vcgi:esiteid" v="284974"/>
  </node>
  <node id="-485" visible="true" lat="43.27638729" lon="-72.78964546">
    <tag k="addr:city" v="Weston"/>
    <tag k="addr:housenumber" v="440"/>
    <tag k="addr:street" v="Vermont Route 100"/>
    <tag k="addr:state" v="VT"/>
    <tag k="ref:vcgi:esiteid" v="284976"/>
  </node>
  <node id="-487" visible="true" lat="43.27621449" lon="-72.81723376">
    <tag k="addr:city" v="Weston"/>
    <tag k="addr:housenumber" v="208"/>
    <tag k="addr:street" v="Holden Hill Road"/>
    <tag k="addr:state" v="VT"/>
    <tag k="ref:vcgi:esiteid" v="284978"/>
  </node>
  <node id="-488" visible="true" lat="43.27614746" lon="-72.81798554">
    <tag k="addr:city" v="Weston"/>
    <tag k="addr:housenumber" v="209"/>
    <tag k="addr:street" v="Holden Hill Road"/>
    <tag k="addr:state" v="VT"/>
    <tag k="ref:vcgi:esiteid" v="284979"/>
  </node>
  <node id="-489" visible="true" lat="43.27590859" lon="-72.81749447">
    <tag k="addr:city" v="Weston"/>
    <tag k="addr:housenumber" v="210"/>
    <tag k="addr:street" v="Holden Hill Road"/>
    <tag k="addr:state" v="VT"/>
    <tag k="ref:vcgi:esiteid" v="284980"/>
  </node>
  <node id="-492" visible="true" lat="43.27504381" lon="-72.81731241">
    <tag k="addr:city" v="Weston"/>
    <tag k="addr:housenumber" v="222"/>
    <tag k="addr:street" v="Holden Hill Road"/>
    <tag k="addr:state" v="VT"/>
    <tag k="ref:vcgi:esiteid" v="284983"/>
  </node>
  <node id="-495" visible="true" lat="43.27340694" lon="-72.81666354">
    <tag k="addr:city" v="Weston"/>
    <tag k="addr:housenumber" v="246"/>
    <tag k="addr:street" v="Holden Hill Road"/>
    <tag k="addr:state" v="VT"/>
    <tag k="ref:vcgi:esiteid" v="284988"/>
  </node>
  <node id="-504" visible="true" lat="43.27168729" lon="-72.817292">
    <tag k="addr:city" v="Weston"/>
    <tag k="addr:housenumber" v="270"/>
    <tag k="addr:street" v="Holden Hill Road"/>
    <tag k="addr:state" v="VT"/>
    <tag k="ref:vcgi:esiteid" v="284998"/>
  </node>
  <node id="-507" visible="true" lat="43.27137145" lon="-72.77799944">
    <tag k="addr:city" v="Weston"/>
    <tag k="addr:housenumber" v="128"/>
    <tag k="addr:street" v="Dale Road"/>
    <tag k="addr:state" v="VT"/>
    <tag k="ref:vcgi:esiteid" v="285002"/>
  </node>
  <node id="-508" visible="true" lat="43.27102306" lon="-72.77951365">
    <tag k="addr:city" v="Weston"/>
    <tag k="addr:housenumber" v="100"/>
    <tag k="addr:street" v="Dale Road"/>
    <tag k="addr:state" v="VT"/>
    <tag k="ref:vcgi:esiteid" v="285003"/>
  </node>
  <node id="-520" visible="true" lat="43.26906392" lon="-72.8176908">
    <tag k="addr:city" v="Weston"/>
    <tag k="addr:housenumber" v="306"/>
    <tag k="addr:street" v="Holden Hill Road"/>
    <tag k="addr:state" v="VT"/>
    <tag k="ref:vcgi:esiteid" v="285015"/>
  </node>
  <node id="-525" visible="true" lat="43.26857949" lon="-72.77024571">
    <tag k="addr:city" v="Weston"/>
    <tag k="addr:housenumber" v="204"/>
    <tag k="addr:street" v="Dale Road"/>
    <tag k="addr:state" v="VT"/>
    <tag k="ref:vcgi:esiteid" v="285020"/>
  </node>
  <node id="-539" visible="true" lat="43.26657147" lon="-72.78758592">
    <tag k="addr:city" v="Weston"/>
    <tag k="addr:housenumber" v="287"/>
    <tag k="addr:street" v="Vermont Route 100"/>
    <tag k="addr:state" v="VT"/>
    <tag k="ref:vcgi:esiteid" v="285034"/>
  </node>
  <node id="-556" visible="true" lat="43.26414292" lon="-72.78644043">
    <tag k="addr:city" v="Weston"/>
    <tag k="addr:housenumber" v="255"/>
    <tag k="addr:street" v="Vermont Route 100"/>
    <tag k="addr:state" v="VT"/>
    <tag k="ref:vcgi:esiteid" v="285051"/>
  </node>
  <node id="-558" visible="true" lat="43.26384407" lon="-72.787564">
    <tag k="addr:city" v="Weston"/>
    <tag k="addr:housenumber" v="252"/>
    <tag k="addr:street" v="Vermont Route 100"/>
    <tag k="addr:state" v="VT"/>
    <tag k="ref:vcgi:esiteid" v="285053"/>
  </node>
  <node id="-566" visible="true" lat="43.26258752" lon="-72.78681594">
    <tag k="addr:city" v="Weston"/>
    <tag k="addr:housenumber" v="231"/>
    <tag k="addr:street" v="Vermont Route 100"/>
    <tag k="addr:state" v="VT"/>
    <tag k="ref:vcgi:esiteid" v="285061"/>
  </node>
  <node id="-571" visible="true" lat="43.26156311" lon="-72.7766134">
    <tag k="addr:city" v="Weston"/>
    <tag k="addr:housenumber" v="443"/>
    <tag k="addr:street" v="Piper Hill Road"/>
    <tag k="addr:state" v="VT"/>
    <tag k="ref:vcgi:esiteid" v="285066"/>
  </node>
  <node id="-580" visible="true" lat="43.25985742" lon="-72.80862191">
    <tag k="addr:city" v="Weston"/>
    <tag k="addr:housenumber" v="495"/>
    <tag k="addr:street" v="Holden Hill Road"/>
    <tag k="addr:state" v="VT"/>
    <tag k="ref:vcgi:esiteid" v="285075"/>
  </node>
  <node id="-583" visible="true" lat="43.25974013" lon="-72.78931554">
    <tag k="addr:city" v="Weston"/>
    <tag k="addr:housenumber" v="192"/>
    <tag k="addr:street" v="Vermont Route 100"/>
    <tag k="addr:state" v="VT"/>
    <tag k="ref:vcgi:esiteid" v="285078"/>
  </node>
  <node id="-584" visible="true" lat="43.25954238" lon="-72.76811513">
    <tag k="addr:city" v="Weston"/>
    <tag k="addr:housenumber" v="254"/>
    <tag k="addr:street" v="Old Tavern Road"/>
    <tag k="addr:state" v="VT"/>
    <tag k="ref:vcgi:esiteid" v="285079"/>
  </node>
  <node id="-585" visible="true" lat="43.25943169" lon="-72.76123282">
    <tag k="addr:city" v="Weston"/>
    <tag k="addr:housenumber" v="326"/>
    <tag k="addr:street" v="Old Tavern Road"/>
    <tag k="addr:state" v="VT"/>
    <tag k="ref:vcgi:esiteid" v="285080"/>
  </node>
  <node id="-587" visible="true" lat="43.25893986" lon="-72.76718775">
    <tag k="addr:city" v="Weston"/>
    <tag k="addr:housenumber" v="266"/>
    <tag k="addr:street" v="Old Tavern Road"/>
    <tag k="addr:state" v="VT"/>
    <tag k="ref:vcgi:esiteid" v="285082"/>
  </node>
  <node id="-589" visible="true" lat="43.25885202" lon="-72.77272754">
    <tag k="addr:city" v="Weston"/>
    <tag k="addr:housenumber" v="205"/>
    <tag k="addr:street" v="Old Tavern Road"/>
    <tag k="addr:state" v="VT"/>
    <tag k="ref:vcgi:esiteid" v="285084"/>
  </node>
  <node id="-590" visible="true" lat="43.25868797" lon="-72.80880225">
    <tag k="addr:city" v="Weston"/>
    <tag k="addr:housenumber" v="19"/>
    <tag k="addr:street" v="Hells Peak Road"/>
    <tag k="addr:state" v="VT"/>
    <tag k="ref:vcgi:esiteid" v="285085"/>
  </node>
  <node id="-591" visible="true" lat="43.25868231" lon="-72.7733153">
    <tag k="addr:city" v="Weston"/>
    <tag k="addr:housenumber" v="197"/>
    <tag k="addr:street" v="Old Tavern Road"/>
    <tag k="addr:state" v="VT"/>
    <tag k="ref:vcgi:esiteid" v="285086"/>
  </node>
  <node id="-592" visible="true" lat="43.25866705" lon="-72.78923377">
    <tag k="addr:city" v="Weston"/>
    <tag k="addr:housenumber" v="168"/>
    <tag k="addr:street" v="Vermont Route 100"/>
    <tag k="addr:state" v="VT"/>
    <tag k="ref:vcgi:esiteid" v="285087"/>
  </node>
  <node id="-593" visible="true" lat="43.25862045" lon="-72.77123509">
    <tag k="addr:city" v="Weston"/>
    <tag k="addr:housenumber" v="217"/>
    <tag k="addr:street" v="Old Tavern Road"/>
    <tag k="addr:state" v="VT"/>
    <tag k="ref:vcgi:esiteid" v="285088"/>
  </node>
  <node id="-594" visible="true" lat="43.25860997" lon="-72.76062437">
    <tag k="addr:city" v="Weston"/>
    <tag k="addr:housenumber" v="12"/>
    <tag k="addr:street" v="Rogers Lane"/>
    <tag k="addr:state" v="VT"/>
    <tag k="ref:vcgi:esiteid" v="285089"/>
  </node>
  <node id="-596" visible="true" lat="43.25853153" lon="-72.76959786">
    <tag k="addr:city" v="Weston"/>
    <tag k="addr:housenumber" v="239"/>
    <tag k="addr:street" v="Old Tavern Road"/>
    <tag k="addr:state" v="VT"/>
    <tag k="ref:vcgi:esiteid" v="285091"/>
  </node>
  <node id="-597" visible="true" lat="43.25841531" lon="-72.77390206">
    <tag k="addr:city" v="Weston"/>
    <tag k="addr:housenumber" v="187"/>
    <tag k="addr:street" v="Old Tavern Road"/>
    <tag k="addr:state" v="VT"/>
    <tag k="ref:vcgi:esiteid" v="285092"/>
  </node>
  <node id="-602" visible="true" lat="43.2583031" lon="-72.76188216">
    <tag k="addr:city" v="Weston"/>
    <tag k="addr:housenumber" v="321"/>
    <tag k="addr:street" v="Old Tavern Road"/>
    <tag k="addr:state" v="VT"/>
    <tag k="ref:vcgi:esiteid" v="285097"/>
  </node>
  <node id="-603" visible="true" lat="43.2582876" lon="-72.76626904">
    <tag k="addr:city" v="Weston"/>
    <tag k="addr:housenumber" v="275"/>
    <tag k="addr:street" v="Old Tavern Road"/>
    <tag k="addr:state" v="VT"/>
    <tag k="ref:vcgi:esiteid" v="285098"/>
  </node>
  <node id="-604" visible="true" lat="43.25826826" lon="-72.7644001">
    <tag k="addr:city" v="Weston"/>
    <tag k="addr:housenumber" v="295"/>
    <tag k="addr:street" v="Old Tavern Road"/>
    <tag k="addr:state" v="VT"/>
    <tag k="ref:vcgi:esiteid" v="285099"/>
  </node>
  <node id="-605" visible="true" lat="43.25827598" lon="-72.76337669">
    <tag k="addr:city" v="Weston"/>
    <tag k="addr:housenumber" v="303"/>
    <tag k="addr:street" v="Old Tavern Road"/>
    <tag k="addr:state" v="VT"/>
    <tag k="ref:vcgi:esiteid" v="285100"/>
  </node>
  <node id="-606" visible="true" lat="43.25819635" lon="-72.78554143">
    <tag k="addr:city" v="Weston"/>
    <tag k="addr:housenumber" v="26"/>
    <tag k="addr:street" v="Alans Way"/>
    <tag k="addr:state" v="VT"/>
    <tag k="ref:vcgi:esiteid" v="285101"/>
  </node>
  <node id="-607" visible="true" lat="43.25809476" lon="-72.775406">
    <tag k="addr:city" v="Weston"/>
    <tag k="addr:housenumber" v="177"/>
    <tag k="addr:street" v="Old Tavern Road"/>
    <tag k="addr:state" v="VT"/>
    <tag k="ref:vcgi:esiteid" v="285102"/>
  </node>
  <node id="-608" visible="true" lat="43.25787149" lon="-72.80674604">
    <tag k="addr:city" v="Weston"/>
    <tag k="addr:housenumber" v="28"/>
    <tag k="addr:street" v="Hells Peak Road"/>
    <tag k="addr:state" v="VT"/>
    <tag k="ref:vcgi:esiteid" v="285103"/>
  </node>
  <node id="-612" visible="true" lat="43.25751872" lon="-72.75997587">
    <tag k="addr:city" v="Weston"/>
    <tag k="addr:housenumber" v="16"/>
    <tag k="addr:street" v="Rogers Lane"/>
    <tag k="addr:state" v="VT"/>
    <tag k="ref:vcgi:esiteid" v="285107"/>
  </node>
  <node id="-615" visible="true" lat="43.25663771" lon="-72.8080177">
    <tag k="addr:city" v="Weston"/>
    <tag k="addr:housenumber" v="39"/>
    <tag k="addr:street" v="Hells Peak Road"/>
    <tag k="addr:state" v="VT"/>
    <tag k="ref:vcgi:esiteid" v="285110"/>
  </node>
  <node id="-625" visible="true" lat="43.25600052" lon="-72.81027222">
    <tag k="addr:city" v="Weston"/>
    <tag k="addr:housenumber" v="37"/>
    <tag k="addr:street" v="Hells Peak Road"/>
    <tag k="addr:state" v="VT"/>
    <tag k="ref:vcgi:esiteid" v="285120"/>
  </node>
  <node id="-629" visible="true" lat="43.25554666" lon="-72.79275919">
    <tag k="addr:city" v="Weston"/>
    <tag k="addr:housenumber" v="106"/>
    <tag k="addr:street" v="Vermont Route 100"/>
    <tag k="addr:state" v="VT"/>
    <tag k="ref:vcgi:esiteid" v="285124"/>
  </node>
  <node id="-636" visible="true" lat="43.25510972" lon="-72.77317086">
    <tag k="addr:city" v="Weston"/>
    <tag k="addr:housenumber" v="542"/>
    <tag k="addr:street" v="Piper Hill Road"/>
    <tag k="addr:state" v="VT"/>
    <tag k="ref:vcgi:esiteid" v="285131"/>
  </node>
  <node id="-639" visible="true" lat="43.25428694" lon="-72.79139831">
    <tag k="addr:city" v="Weston"/>
    <tag k="addr:housenumber" v="16"/>
    <tag k="addr:street" v="Fields Road"/>
    <tag k="addr:state" v="VT"/>
    <tag k="ref:vcgi:esiteid" v="285134"/>
  </node>
  <node id="-646" visible="true" lat="43.25325584" lon="-72.80537948">
    <tag k="addr:city" v="Weston"/>
    <tag k="addr:housenumber" v="98"/>
    <tag k="addr:street" v="Hells Peak Road"/>
    <tag k="addr:state" v="VT"/>
    <tag k="ref:vcgi:esiteid" v="285142"/>
  </node>
  <node id="-647" visible="true" lat="43.25309359" lon="-72.80745067">
    <tag k="addr:city" v="Weston"/>
    <tag k="addr:housenumber" v="85"/>
    <tag k="addr:street" v="Hells Peak Road"/>
    <tag k="addr:state" v="VT"/>
    <tag k="ref:vcgi:esiteid" v="285143"/>
  </node>
  <node id="-649" visible="true" lat="43.25174261" lon="-72.80028142">
    <tag k="addr:city" v="Weston"/>
    <tag k="addr:housenumber" v="315"/>
    <tag k="addr:street" v="Hobart Road"/>
    <tag k="addr:state" v="VT"/>
    <tag k="ref:vcgi:esiteid" v="285145"/>
  </node>
  <node id="-650" visible="true" lat="43.25105668" lon="-72.7885023">
    <tag k="addr:city" v="Weston"/>
    <tag k="addr:housenumber" v="82"/>
    <tag k="addr:street" v="Boynton Road"/>
    <tag k="addr:state" v="VT"/>
    <tag k="ref:vcgi:esiteid" v="285146"/>
  </node>
  <node id="-652" visible="true" lat="43.24923886" lon="-72.78636803">
    <tag k="addr:city" v="Weston"/>
    <tag k="addr:housenumber" v="116"/>
    <tag k="addr:street" v="Boynton Road"/>
    <tag k="addr:state" v="VT"/>
    <tag k="ref:vcgi:esiteid" v="285148"/>
  </node>
  <node id="-659" visible="true" lat="43.27798276" lon="-72.78105259">
    <tag k="addr:city" v="Weston"/>
    <tag k="addr:housenumber" v="172"/>
    <tag k="addr:street" v="Piper Hill Road"/>
    <tag k="addr:state" v="VT"/>
    <tag k="ref:vcgi:esiteid" v="285157"/>
  </node>
  <node id="-662" visible="true" lat="43.31331604" lon="-72.78964083">
    <tag k="addr:city" v="Weston"/>
    <tag k="addr:housenumber" v="25"/>
    <tag k="addr:street" v="Benson Lane"/>
    <tag k="addr:state" v="VT"/>
    <tag k="ref:vcgi:esiteid" v="285160"/>
  </node>
  <node id="-666" visible="true" lat="43.29298864" lon="-72.81459336">
    <tag k="addr:city" v="Weston"/>
    <tag k="addr:housenumber" v="215"/>
    <tag k="addr:street" v="Landgrove Road"/>
    <tag k="addr:state" v="VT"/>
    <tag k="ref:vcgi:esiteid" v="285164"/>
  </node>
  <node id="-672" visible="true" lat="43.31587897" lon="-72.82931157">
    <tag k="addr:city" v="Weston"/>
    <tag k="addr:housenumber" v="74"/>
    <tag k="addr:street" v="Turner Road"/>
    <tag k="addr:state" v="VT"/>
    <tag k="ref:vcgi:esiteid" v="285170"/>
  </node>
  <node id="-673" visible="true" lat="43.30231874" lon="-72.84446165">
    <tag k="addr:city" v="Weston"/>
    <tag k="addr:housenumber" v="110"/>
    <tag k="addr:street" v="Jaquith Road"/>
    <tag k="addr:state" v="VT"/>
    <tag k="ref:vcgi:esiteid" v="285171"/>
  </node>
  <node id="-674" visible="true" lat="43.27315425" lon="-72.78066417">
    <tag k="addr:city" v="Weston"/>
    <tag k="addr:housenumber" v="90"/>
    <tag k="addr:street" v="Dale Road"/>
    <tag k="addr:state" v="VT"/>
    <tag k="ref:vcgi:esiteid" v="285172"/>
  </node>
  <node id="-675" visible="true" lat="43.26309019" lon="-72.80230149">
    <tag k="addr:city" v="Weston"/>
    <tag k="addr:housenumber" v="176"/>
    <tag k="addr:street" v="Highland View Road"/>
    <tag k="addr:state" v="VT"/>
    <tag k="ref:vcgi:esiteid" v="285173"/>
  </node>
  <node id="-677" visible="true" lat="43.28879104" lon="-72.81416927">
    <tag k="addr:city" v="Weston"/>
    <tag k="addr:housenumber" v="8"/>
    <tag k="addr:street" v="Holden Hill Road"/>
    <tag k="addr:state" v="VT"/>
    <tag k="ref:vcgi:esiteid" v="285175"/>
  </node>
  <node id="-680" visible="true" lat="43.2892599" lon="-72.81129669">
    <tag k="addr:city" v="Weston"/>
    <tag k="addr:housenumber" v="170"/>
    <tag k="addr:street" v="Landgrove Road"/>
    <tag k="addr:state" v="VT"/>
    <tag k="ref:vcgi:esiteid" v="285178"/>
  </node>
  <node id="-681" visible="true" lat="43.26587147" lon="-72.80691643">
    <tag k="addr:city" v="Weston"/>
    <tag k="addr:housenumber" v="140"/>
    <tag k="addr:street" v="Summit Trail Road"/>
    <tag k="addr:state" v="VT"/>
    <tag k="ref:vcgi:esiteid" v="285179"/>
  </node>
  <node id="-685" visible="true" lat="43.25519213" lon="-72.76041325">
    <tag k="addr:city" v="Weston"/>
    <tag k="addr:housenumber" v="23"/>
    <tag k="addr:street" v="Rogers Lane"/>
    <tag k="addr:state" v="VT"/>
    <tag k="ref:vcgi:esiteid" v="285183"/>
  </node>
  <node id="-695" visible="true" lat="43.26679755" lon="-72.76817232">
    <tag k="addr:city" v="Weston"/>
    <tag k="addr:housenumber" v="231"/>
    <tag k="addr:street" v="Dale Road"/>
    <tag k="addr:state" v="VT"/>
    <tag k="ref:vcgi:esiteid" v="285193"/>
  </node>
  <node id="-699" visible="true" lat="43.30143155" lon="-72.78967103">
    <tag k="addr:city" v="Weston"/>
    <tag k="addr:housenumber" v="770"/>
    <tag k="addr:street" v="Vermont Route 100"/>
    <tag k="addr:state" v="VT"/>
    <tag k="ref:vcgi:esiteid" v="285197"/>
  </node>
  <node id="-700" visible="true" lat="43.27030312" lon="-72.77857064">
    <tag k="addr:city" v="Weston"/>
    <tag k="addr:housenumber" v="115"/>
    <tag k="addr:street" v="Dale Road"/>
    <tag k="addr:state" v="VT"/>
    <tag k="ref:vcgi:esiteid" v="307420"/>
  </node>
  <node id="-705" visible="true" lat="43.30308167" lon="-72.77188288">
    <tag k="addr:city" v="Weston"/>
    <tag k="addr:housenumber" v="33"/>
    <tag k="addr:street" v="Obed Moore Road"/>
    <tag k="addr:state" v="VT"/>
    <tag k="ref:vcgi:esiteid" v="315340"/>
  </node>
  <node id="-706" visible="true" lat="43.2883821" lon="-72.80475648">
    <tag k="addr:city" v="Weston"/>
    <tag k="addr:housenumber" v="44"/>
    <tag k="addr:street" v="Morgan Hill Road"/>
    <tag k="addr:state" v="VT"/>
    <tag k="ref:vcgi:esiteid" v="317506"/>
  </node>
  <node id="-707" visible="true" lat="43.28814475" lon="-72.80483513">
    <tag k="addr:city" v="Weston"/>
    <tag k="addr:housenumber" v="46"/>
    <tag k="addr:street" v="Morgan Hill Road"/>
    <tag k="addr:state" v="VT"/>
    <tag k="ref:vcgi:esiteid" v="317507"/>
  </node>
  <node id="-708" visible="true" lat="43.28787433" lon="-72.80482752">
    <tag k="addr:city" v="Weston"/>
    <tag k="addr:housenumber" v="52"/>
    <tag k="addr:street" v="Morgan Hill Road"/>
    <tag k="addr:state" v="VT"/>
    <tag k="ref:vcgi:esiteid" v="317508"/>
  </node>
  <node id="-709" visible="true" lat="43.27657072" lon="-72.81523262">
    <tag k="addr:city" v="Weston"/>
    <tag k="addr:housenumber" v="194"/>
    <tag k="addr:street" v="Holden Hill Road"/>
    <tag k="addr:state" v="VT"/>
    <tag k="ref:vcgi:esiteid" v="318251"/>
  </node>
  <node id="-710" visible="true" lat="43.27529819" lon="-72.81530555">
    <tag k="addr:city" v="Weston"/>
    <tag k="addr:housenumber" v="196"/>
    <tag k="addr:street" v="Holden Hill Road"/>
    <tag k="addr:state" v="VT"/>
    <tag k="ref:vcgi:esiteid" v="318252"/>
  </node>
  <node id="-713" visible="true" lat="43.29846767" lon="-72.79511796">
    <tag k="addr:city" v="Weston"/>
    <tag k="addr:housenumber" v="14"/>
    <tag k="addr:street" v="Wildes Way"/>
    <tag k="addr:state" v="VT"/>
    <tag k="ref:vcgi:esiteid" v="336069"/>
  </node>
  <node id="-714" visible="true" lat="43.25894018" lon="-72.78062557">
    <tag k="addr:city" v="Weston"/>
    <tag k="addr:housenumber" v="126"/>
    <tag k="addr:street" v="Old Tavern Road"/>
    <tag k="addr:state" v="VT"/>
    <tag k="ref:vcgi:esiteid" v="336566"/>
  </node>
  <node id="-717" visible="true" lat="43.25968399" lon="-72.77089767">
    <tag k="addr:city" v="Weston"/>
    <tag k="addr:housenumber" v="226"/>
    <tag k="addr:street" v="Old Tavern Road"/>
    <tag k="addr:state" v="VT"/>
    <tag k="ref:vcgi:esiteid" v="338520"/>
  </node>
  <node id="-718" visible="true" lat="43.29199025" lon="-72.80095413">
    <tag k="addr:city" v="Weston"/>
    <tag k="addr:housenumber" v="52"/>
    <tag k="addr:street" v="Landgrove Road"/>
    <tag k="addr:state" v="VT"/>
    <tag k="ref:vcgi:esiteid" v="341805"/>
  </node>
  <node id="-720" visible="true" lat="43.25987118" lon="-72.77306743">
    <tag k="addr:city" v="Weston"/>
    <tag k="addr:housenumber" v="210"/>
    <tag k="addr:street" v="Old Tavern Road"/>
    <tag k="addr:state" v="VT"/>
    <tag k="ref:vcgi:esiteid" v="345868"/>
  </node>
  <node id="-721" visible="true" lat="43.3323032" lon="-72.80310572">
    <tag k="addr:city" v="Weston"/>
    <tag k="addr:housenumber" v="304"/>
    <tag k="addr:street" v="Greendale Road"/>
    <tag k="addr:state" v="VT"/>
    <tag k="ref:vcgi:esiteid" v="451121"/>
  </node>
  <node id="-722" visible="true" lat="43.27383658" lon="-72.8179555">
    <tag k="addr:city" v="Weston"/>
    <tag k="addr:housenumber" v="239"/>
    <tag k="addr:street" v="Holden Hill Road"/>
    <tag k="addr:state" v="VT"/>
    <tag k="ref:vcgi:esiteid" v="451124"/>
  </node>
  <node id="-727" visible="true" lat="43.29446972" lon="-72.78132948">
    <tag k="addr:city" v="Weston"/>
    <tag k="addr:housenumber" v="93"/>
    <tag k="addr:street" v="Chester Mountain Road"/>
    <tag k="addr:state" v="VT"/>
    <tag k="ref:vcgi:esiteid" v="616583"/>
  </node>
  <node id="-728" visible="true" lat="43.29385328" lon="-72.77516132">
    <tag k="addr:city" v="Weston"/>
    <tag k="addr:housenumber" v="163"/>
    <tag k="addr:street" v="Chester Mountain Road"/>
    <tag k="addr:state" v="VT"/>
    <tag k="ref:vcgi:esiteid" v="617042"/>
  </node>
  <node id="-729" visible="true" lat="43.28189235" lon="-72.81644652">
    <tag k="addr:city" v="Weston"/>
    <tag k="addr:housenumber" v="124"/>
    <tag k="addr:street" v="Holden Hill Road"/>
    <tag k="addr:state" v="VT"/>
    <tag k="ref:vcgi:esiteid" v="617043"/>
  </node>
  <node id="-730" visible="true" lat="43.28931546" lon="-72.80476838">
    <tag k="addr:city" v="Weston"/>
    <tag k="addr:housenumber" v="30"/>
    <tag k="addr:street" v="Morgan Hill Road"/>
    <tag k="addr:state" v="VT"/>
    <tag k="ref:vcgi:esiteid" v="617044"/>
  </node>
  <node id="-731" visible="true" lat="43.27087259" lon="-72.78041326">
    <tag k="addr:city" v="Weston"/>
    <tag k="addr:housenumber" v="93"/>
    <tag k="addr:street" v="Dale Road"/>
    <tag k="addr:state" v="VT"/>
    <tag k="ref:vcgi:esiteid" v="617045"/>
  </node>
  <node id="-732" visible="true" lat="43.35455836" lon="-72.76234849">
    <tag k="addr:city" v="Weston"/>
    <tag k="addr:housenumber" v="1722"/>
    <tag k="addr:street" v="Vermont Route 100"/>
    <tag k="addr:state" v="VT"/>
    <tag k="ref:vcgi:esiteid" v="617118"/>
  </node>
  <node id="-733" visible="true" lat="43.32431541" lon="-72.77988371">
    <tag k="addr:city" v="Weston"/>
    <tag k="addr:housenumber" v="50"/>
    <tag k="addr:street" v="Felton Road"/>
    <tag k="addr:state" v="VT"/>
    <tag k="ref:vcgi:esiteid" v="617940"/>
  </node>
  <node id="-815" visible="true" lat="43.26582084" lon="-72.77293126">
    <tag k="addr:city" v="Weston"/>
    <tag k="addr:housenumber" v="386"/>
    <tag k="addr:street" v="Piper Hill Road"/>
    <tag k="addr:state" v="VT"/>
    <tag k="ref:vcgi:esiteid" v="619193"/>
  </node>
  <node id="-838" visible="true" lat="43.26876276" lon="-72.78819966">
    <tag k="addr:city" v="Weston"/>
    <tag k="addr:housenumber" v="329"/>
    <tag k="addr:street" v="Vermont Route 100"/>
    <tag k="addr:state" v="VT"/>
    <tag k="ref:vcgi:esiteid" v="750536"/>
  </node>
  <node id="-841" visible="true" lat="43.33959134" lon="-72.81255113">
    <tag k="addr:city" v="Weston"/>
    <tag k="addr:housenumber" v="11"/>
    <tag k="addr:street" v="Jenny Coolidge Road"/>
    <tag k="addr:state" v="VT"/>
    <tag k="ref:vcgi:esiteid" v="752040"/>
  </node>
  <node id="-842" visible="true" lat="43.2914058" lon="-72.79539464">
    <tag k="addr:city" v="Weston"/>
    <tag k="addr:housenumber" v="26"/>
    <tag k="addr:street" v="Lawrence Hill Road"/>
    <tag k="addr:state" v="VT"/>
    <tag k="ref:vcgi:esiteid" v="752041"/>
  </node>
  <node id="-844" visible="true" lat="43.34272733" lon="-72.78082148">
    <tag k="addr:city" v="Weston"/>
    <tag k="addr:housenumber" v="7"/>
    <tag k="addr:street" v="Cider Mill Road"/>
    <tag k="addr:state" v="VT"/>
    <tag k="ref:vcgi:esiteid" v="752183"/>
  </node>
  <node id="-845" visible="true" lat="43.29343273" lon="-72.7889624">
    <tag k="addr:city" v="Weston"/>
    <tag k="addr:housenumber" v="705"/>
    <tag k="addr:street" v="Main Street"/>
    <tag k="addr:state" v="VT"/>
    <tag k="ref:vcgi:esiteid" v="753200"/>
  </node>
  <node id="-846" visible="true" lat="43.26136886" lon="-72.80264123">
    <tag k="addr:city" v="Weston"/>
    <tag k="addr:housenumber" v="178"/>
    <tag k="addr:street" v="Highland View Road"/>
    <tag k="addr:state" v="VT"/>
    <tag k="ref:vcgi:esiteid" v="756161"/>
  </node>
  <node id="-847" visible="true" lat="43.26342495" lon="-72.77825637">
    <tag k="addr:city" v="Weston"/>
    <tag k="addr:housenumber" v="415"/>
    <tag k="addr:street" v="Piper Hill Road"/>
    <tag k="addr:state" v="VT"/>
    <tag k="ref:vcgi:esiteid" v="756388"/>
  </node>
  <node id="-848" visible="true" lat="43.26320408" lon="-72.77572848">
    <tag k="addr:city" v="Weston"/>
    <tag k="addr:housenumber" v="420"/>
    <tag k="addr:street" v="Piper Hill Road"/>
    <tag k="addr:state" v="VT"/>
    <tag k="ref:vcgi:esiteid" v="756389"/>
  </node>
  <node id="-849" visible="true" lat="43.26125563" lon="-72.80898135">
    <tag k="addr:city" v="Weston"/>
    <tag k="addr:housenumber" v="480"/>
    <tag k="addr:street" v="Holden Hill Road"/>
    <tag k="addr:state" v="VT"/>
    <tag k="ref:vcgi:esiteid" v="756390"/>
  </node>
  <node id="-850" visible="true" lat="43.25956986" lon="-72.80389107">
    <tag k="addr:city" v="Weston"/>
    <tag k="addr:housenumber" v="197"/>
    <tag k="addr:street" v="Highland View Road"/>
    <tag k="addr:state" v="VT"/>
    <tag k="ref:vcgi:esiteid" v="759227"/>
  </node>
  <node id="-851" visible="true" lat="43.27671137" lon="-72.7816451">
    <tag k="addr:city" v="Weston"/>
    <tag k="addr:housenumber" v="173"/>
    <tag k="addr:street" v="Piper Hill Road"/>
    <tag k="addr:state" v="VT"/>
    <tag k="ref:vcgi:esiteid" v="760776"/>
  </node>
  <node id="-853" visible="true" lat="43.2609435" lon="-72.77561277">
    <tag k="addr:city" v="Weston"/>
    <tag k="addr:housenumber" v="452"/>
    <tag k="addr:street" v="Piper Hill Road"/>
    <tag k="addr:state" v="VT"/>
    <tag k="ref:vcgi:esiteid" v="761369"/>
  </node>
  <node id="-854" visible="true" lat="43.25896546" lon="-72.7776319">
    <tag k="addr:city" v="Weston"/>
    <tag k="addr:housenumber" v="463"/>
    <tag k="addr:street" v="Piper Hill Road"/>
    <tag k="addr:state" v="VT"/>
    <tag k="ref:vcgi:esiteid" v="761370"/>
  </node>
  <node id="-855" visible="true" lat="43.26763098" lon="-72.80716444">
    <tag k="addr:city" v="Weston"/>
    <tag k="addr:housenumber" v="114"/>
    <tag k="addr:street" v="Summit Trail Road"/>
    <tag k="addr:state" v="VT"/>
    <tag k="ref:vcgi:esiteid" v="761467"/>
  </node>
  <node id="-856" visible="true" lat="43.29647557" lon="-72.78685643">
    <tag k="addr:city" v="Weston"/>
    <tag k="addr:housenumber" v="763"/>
    <tag k="addr:street" v="Vermont Route 100"/>
    <tag k="addr:state" v="VT"/>
    <tag k="ref:vcgi:esiteid" v="761893"/>
  </node>
  <node id="-857" visible="true" lat="43.26497674" lon="-72.77704054">
    <tag k="addr:city" v="Weston"/>
    <tag k="addr:housenumber" v="401"/>
    <tag k="addr:street" v="Piper Hill Road"/>
    <tag k="addr:state" v="VT"/>
    <tag k="ref:vcgi:esiteid" v="764061"/>
  </node>
  <node id="-858" visible="true" lat="43.26703921" lon="-72.7753959">
    <tag k="addr:city" v="Weston"/>
    <tag k="addr:housenumber" v="364"/>
    <tag k="addr:street" v="Piper Hill Road"/>
    <tag k="addr:state" v="VT"/>
    <tag k="ref:vcgi:esiteid" v="764325"/>
  </node>
  <node id="-859" visible="true" lat="43.32792199" lon="-72.79180991">
    <tag k="addr:city" v="Weston"/>
    <tag k="addr:housenumber" v="168"/>
    <tag k="addr:street" v="Old County Road"/>
    <tag k="addr:state" v="VT"/>
    <tag k="ref:vcgi:esiteid" v="765930"/>
  </node>
  <node id="-860" visible="true" lat="43.35504576" lon="-72.77013443">
    <tag k="addr:city" v="Weston"/>
    <tag k="addr:housenumber" v="107"/>
    <tag k="addr:street" v="Slawson Road"/>
    <tag k="addr:state" v="VT"/>
    <tag k="ref:vcgi:esiteid" v="768729"/>
  </node>
  <node id="-861" visible="true" lat="43.25287307" lon="-72.78614313">
    <tag k="addr:city" v="Weston"/>
    <tag k="addr:housenumber" v="33"/>
    <tag k="addr:street" v="Casper Lane"/>
    <tag k="addr:state" v="VT"/>
    <tag k="ref:vcgi:esiteid" v="768899"/>
  </node>
  <node id="-862" visible="true" lat="43.26887555" lon="-72.77609321">
    <tag k="addr:city" v="Weston"/>
    <tag k="addr:housenumber" v="333"/>
    <tag k="addr:street" v="Piper Hill Road"/>
    <tag k="addr:state" v="VT"/>
    <tag k="ref:vcgi:esiteid" v="768923"/>
  </node>
  <node id="-863" visible="true" lat="43.26307346" lon="-72.81278455">
    <tag k="addr:city" v="Weston"/>
    <tag k="addr:housenumber" v="427"/>
    <tag k="addr:street" v="Holden Hill Road"/>
    <tag k="addr:state" v="VT"/>
    <tag k="ref:vcgi:esiteid" v="800018"/>
  </node>
  <node id="-864" visible="true" lat="43.36253724" lon="-72.79488565">
    <tag k="addr:city" v="Weston"/>
    <tag k="addr:housenumber" v="392"/>
    <tag k="addr:street" v="Vermont Route 155"/>
    <tag k="addr:state" v="VT"/>
    <tag k="ref:vcgi:esiteid" v="800157"/>
  </node>
  <node id="-865" visible="true" lat="43.25399437" lon="-72.79163609">
    <tag k="addr:city" v="Weston"/>
    <tag k="addr:housenumber" v="18"/>
    <tag k="addr:street" v="Fields Road"/>
    <tag k="addr:state" v="VT"/>
    <tag k="ref:vcgi:esiteid" v="1050328"/>
  </node>
  <node id="-866" visible="true" lat="43.30046023" lon="-72.78642656">
    <tag k="addr:city" v="Weston"/>
    <tag k="addr:housenumber" v="826"/>
    <tag k="addr:street" v="Vermont Route 100"/>
    <tag k="addr:state" v="VT"/>
    <tag k="ref:vcgi:esiteid" v="1050329"/>
  </node>
  <node id="-867" visible="true" lat="43.31660354" lon="-72.79087323">
    <tag k="addr:city" v="Weston"/>
    <tag k="addr:housenumber" v="424"/>
    <tag k="addr:street" v="Lawrence Hill Road"/>
    <tag k="addr:state" v="VT"/>
    <tag k="ref:vcgi:esiteid" v="1050330"/>
  </node>
</osm>
