<?xml version="1.0" encoding="UTF-8"?>
<osm version="0.6" generator="JOSM">
  <node id="-100" visible="true" lat="44.83752825" lon="-72.40459477">
    <tag k="addr:city" v="Westfield"/>
    <tag k="addr:housenumber" v="255"/>
    <tag k="addr:street" v="Mountain Drive"/>
    <tag k="addr:state" v="VT"/>
    <tag k="ref:vcgi:esiteid" v="142064"/>
  </node>
  <node id="-101" visible="true" lat="44.90603615" lon="-72.4110535">
    <tag k="addr:city" v="Westfield"/>
    <tag k="addr:housenumber" v="22"/>
    <tag k="addr:street" v="Kennison Road"/>
    <tag k="addr:state" v="VT"/>
    <tag k="ref:vcgi:esiteid" v="280912"/>
  </node>
  <node id="-102" visible="true" lat="44.90571139" lon="-72.41116699">
    <tag k="addr:city" v="Westfield"/>
    <tag k="addr:housenumber" v="11"/>
    <tag k="addr:street" v="Kennison Road"/>
    <tag k="addr:state" v="VT"/>
    <tag k="ref:vcgi:esiteid" v="280913"/>
  </node>
  <node id="-103" visible="true" lat="44.92458879" lon="-72.43236794">
    <tag k="addr:city" v="Westfield"/>
    <tag k="addr:housenumber" v="2269"/>
    <tag k="addr:street" v="Kennison Road"/>
    <tag k="addr:state" v="VT"/>
    <tag k="ref:vcgi:esiteid" v="280914"/>
  </node>
  <node id="-104" visible="true" lat="44.9241333" lon="-72.42170715">
    <tag k="addr:city" v="Westfield"/>
    <tag k="addr:housenumber" v="1788"/>
    <tag k="addr:street" v="Kennison Road"/>
    <tag k="addr:state" v="VT"/>
    <tag k="ref:vcgi:esiteid" v="280915"/>
  </node>
  <node id="-105" visible="true" lat="44.9234974" lon="-72.42660745">
    <tag k="addr:city" v="Westfield"/>
    <tag k="addr:housenumber" v="1955"/>
    <tag k="addr:street" v="Kennison Road"/>
    <tag k="addr:state" v="VT"/>
    <tag k="ref:vcgi:esiteid" v="280916"/>
  </node>
  <node id="-106" visible="true" lat="44.92359904" lon="-72.41875513">
    <tag k="addr:city" v="Westfield"/>
    <tag k="addr:housenumber" v="1588"/>
    <tag k="addr:street" v="Kennison Road"/>
    <tag k="addr:state" v="VT"/>
    <tag k="ref:vcgi:esiteid" v="280917"/>
  </node>
  <node id="-107" visible="true" lat="44.92202856" lon="-72.43269443">
    <tag k="addr:city" v="Westfield"/>
    <tag k="addr:housenumber" v="2359"/>
    <tag k="addr:street" v="North Hill Road"/>
    <tag k="addr:state" v="VT"/>
    <tag k="ref:vcgi:esiteid" v="280918"/>
  </node>
  <node id="-109" visible="true" lat="44.9198211" lon="-72.43206585">
    <tag k="addr:city" v="Westfield"/>
    <tag k="addr:housenumber" v="2145"/>
    <tag k="addr:street" v="North Hill Road"/>
    <tag k="addr:state" v="VT"/>
    <tag k="ref:vcgi:esiteid" v="280920"/>
  </node>
  <node id="-111" visible="true" lat="44.91941452" lon="-72.42092895">
    <tag k="addr:city" v="Westfield"/>
    <tag k="addr:housenumber" v="1393"/>
    <tag k="addr:street" v="Kennison Road"/>
    <tag k="addr:state" v="VT"/>
    <tag k="ref:vcgi:esiteid" v="280922"/>
  </node>
  <node id="-112" visible="true" lat="44.91920821" lon="-72.41949752">
    <tag k="addr:city" v="Westfield"/>
    <tag k="addr:housenumber" v="1418"/>
    <tag k="addr:street" v="Kennison Road"/>
    <tag k="addr:state" v="VT"/>
    <tag k="ref:vcgi:esiteid" v="280923"/>
  </node>
  <node id="-113" visible="true" lat="44.91876983" lon="-72.42066955">
    <tag k="addr:city" v="Westfield"/>
    <tag k="addr:housenumber" v="1362"/>
    <tag k="addr:street" v="Kennison Road"/>
    <tag k="addr:state" v="VT"/>
    <tag k="ref:vcgi:esiteid" v="280924"/>
  </node>
  <node id="-114" visible="true" lat="44.91828536" lon="-72.42507934">
    <tag k="addr:city" v="Westfield"/>
    <tag k="addr:housenumber" v="1135"/>
    <tag k="addr:street" v="Kennison Road"/>
    <tag k="addr:state" v="VT"/>
    <tag k="ref:vcgi:esiteid" v="280925"/>
  </node>
  <node id="-115" visible="true" lat="44.91715223" lon="-72.43183351">
    <tag k="addr:city" v="Westfield"/>
    <tag k="addr:housenumber" v="2023"/>
    <tag k="addr:street" v="North Hill Road"/>
    <tag k="addr:state" v="VT"/>
    <tag k="ref:vcgi:esiteid" v="280926"/>
  </node>
  <node id="-117" visible="true" lat="44.91590499" lon="-72.42471313">
    <tag k="addr:city" v="Westfield"/>
    <tag k="addr:housenumber" v="1067"/>
    <tag k="addr:street" v="Kennison Road"/>
    <tag k="addr:state" v="VT"/>
    <tag k="ref:vcgi:esiteid" v="280928"/>
  </node>
  <node id="-118" visible="true" lat="44.91551208" lon="-72.42961883">
    <tag k="addr:city" v="Westfield"/>
    <tag k="addr:housenumber" v="1864"/>
    <tag k="addr:street" v="North Hill Road"/>
    <tag k="addr:state" v="VT"/>
    <tag k="ref:vcgi:esiteid" v="280929"/>
  </node>
  <node id="-120" visible="true" lat="44.91458511" lon="-72.43029785">
    <tag k="addr:city" v="Westfield"/>
    <tag k="addr:housenumber" v="1810"/>
    <tag k="addr:street" v="North Hill Road"/>
    <tag k="addr:state" v="VT"/>
    <tag k="ref:vcgi:esiteid" v="280932"/>
  </node>
  <node id="-121" visible="true" lat="44.91380284" lon="-72.43086033">
    <tag k="addr:city" v="Westfield"/>
    <tag k="addr:housenumber" v="1763"/>
    <tag k="addr:street" v="North Hill Road"/>
    <tag k="addr:state" v="VT"/>
    <tag k="ref:vcgi:esiteid" v="280933"/>
  </node>
  <node id="-122" visible="true" lat="44.9117149" lon="-72.42981071">
    <tag k="addr:city" v="Westfield"/>
    <tag k="addr:housenumber" v="1612"/>
    <tag k="addr:street" v="North Hill Road"/>
    <tag k="addr:state" v="VT"/>
    <tag k="ref:vcgi:esiteid" v="280934"/>
  </node>
  <node id="-123" visible="true" lat="44.91099363" lon="-72.43049885">
    <tag k="addr:city" v="Westfield"/>
    <tag k="addr:housenumber" v="444"/>
    <tag k="addr:street" v="Reservoir Road"/>
    <tag k="addr:state" v="VT"/>
    <tag k="ref:vcgi:esiteid" v="280935"/>
  </node>
  <node id="-124" visible="true" lat="44.91088867" lon="-72.43123626">
    <tag k="addr:city" v="Westfield"/>
    <tag k="addr:housenumber" v="1571"/>
    <tag k="addr:street" v="North Hill Road"/>
    <tag k="addr:state" v="VT"/>
    <tag k="ref:vcgi:esiteid" v="280936"/>
  </node>
  <node id="-125" visible="true" lat="44.91044954" lon="-72.43030028">
    <tag k="addr:city" v="Westfield"/>
    <tag k="addr:housenumber" v="1552"/>
    <tag k="addr:street" v="North Hill Road"/>
    <tag k="addr:state" v="VT"/>
    <tag k="ref:vcgi:esiteid" v="280938"/>
  </node>
  <node id="-126" visible="true" lat="44.90994644" lon="-72.43230438">
    <tag k="addr:city" v="Westfield"/>
    <tag k="addr:housenumber" v="1453"/>
    <tag k="addr:street" v="North Hill Road"/>
    <tag k="addr:state" v="VT"/>
    <tag k="ref:vcgi:esiteid" v="280939"/>
  </node>
  <node id="-127" visible="true" lat="44.90887412" lon="-72.41702231">
    <tag k="addr:city" v="Westfield"/>
    <tag k="addr:housenumber" v="340"/>
    <tag k="addr:street" v="Kennison Road"/>
    <tag k="addr:state" v="VT"/>
    <tag k="ref:vcgi:esiteid" v="280940"/>
  </node>
  <node id="-128" visible="true" lat="44.90866851" lon="-72.43176269">
    <tag k="addr:city" v="Westfield"/>
    <tag k="addr:housenumber" v="1395"/>
    <tag k="addr:street" v="North Hill Road"/>
    <tag k="addr:state" v="VT"/>
    <tag k="ref:vcgi:esiteid" v="280941"/>
  </node>
  <node id="-129" visible="true" lat="44.90760993" lon="-72.41860084">
    <tag k="addr:city" v="Westfield"/>
    <tag k="addr:housenumber" v="379"/>
    <tag k="addr:street" v="Kennison Road"/>
    <tag k="addr:state" v="VT"/>
    <tag k="ref:vcgi:esiteid" v="280942"/>
  </node>
  <node id="-130" visible="true" lat="44.90729692" lon="-72.41428078">
    <tag k="addr:city" v="Westfield"/>
    <tag k="addr:housenumber" v="192"/>
    <tag k="addr:street" v="Kennison Road"/>
    <tag k="addr:state" v="VT"/>
    <tag k="ref:vcgi:esiteid" v="280943"/>
  </node>
  <node id="-131" visible="true" lat="44.90661224" lon="-72.41416647">
    <tag k="addr:city" v="Westfield"/>
    <tag k="addr:housenumber" v="171"/>
    <tag k="addr:street" v="Kennison Road"/>
    <tag k="addr:state" v="VT"/>
    <tag k="ref:vcgi:esiteid" v="280944"/>
  </node>
  <node id="-132" visible="true" lat="44.90670292" lon="-72.412952">
    <tag k="addr:city" v="Westfield"/>
    <tag k="addr:housenumber" v="104"/>
    <tag k="addr:street" v="Kennison Road"/>
    <tag k="addr:state" v="VT"/>
    <tag k="ref:vcgi:esiteid" v="280945"/>
  </node>
  <node id="-134" visible="true" lat="44.90637076" lon="-72.41360376">
    <tag k="addr:city" v="Westfield"/>
    <tag k="addr:housenumber" v="143"/>
    <tag k="addr:street" v="Kennison Road"/>
    <tag k="addr:state" v="VT"/>
    <tag k="ref:vcgi:esiteid" v="280947"/>
  </node>
  <node id="-135" visible="true" lat="44.90628741" lon="-72.411779">
    <tag k="addr:city" v="Westfield"/>
    <tag k="addr:housenumber" v="50"/>
    <tag k="addr:street" v="Kennison Road"/>
    <tag k="addr:state" v="VT"/>
    <tag k="ref:vcgi:esiteid" v="280948"/>
  </node>
  <node id="-136" visible="true" lat="44.90449612" lon="-72.4314462">
    <tag k="addr:city" v="Westfield"/>
    <tag k="addr:housenumber" v="1111"/>
    <tag k="addr:street" v="North Hill Road"/>
    <tag k="addr:state" v="VT"/>
    <tag k="ref:vcgi:esiteid" v="280949"/>
  </node>
  <node id="-141" visible="true" lat="44.89949983" lon="-72.43126799">
    <tag k="addr:city" v="Westfield"/>
    <tag k="addr:housenumber" v="753"/>
    <tag k="addr:street" v="North Hill Road"/>
    <tag k="addr:state" v="VT"/>
    <tag k="ref:vcgi:esiteid" v="280954"/>
  </node>
  <node id="-142" visible="true" lat="44.89844691" lon="-72.43061468">
    <tag k="addr:city" v="Westfield"/>
    <tag k="addr:housenumber" v="682"/>
    <tag k="addr:street" v="North Hill Road"/>
    <tag k="addr:state" v="VT"/>
    <tag k="ref:vcgi:esiteid" v="280955"/>
  </node>
  <node id="-144" visible="true" lat="44.89712958" lon="-72.43162637">
    <tag k="addr:city" v="Westfield"/>
    <tag k="addr:housenumber" v="581"/>
    <tag k="addr:street" v="North Hill Road"/>
    <tag k="addr:state" v="VT"/>
    <tag k="ref:vcgi:esiteid" v="280957"/>
  </node>
  <node id="-146" visible="true" lat="44.89589188" lon="-72.43095007">
    <tag k="addr:city" v="Westfield"/>
    <tag k="addr:housenumber" v="492"/>
    <tag k="addr:street" v="North Hill Road"/>
    <tag k="addr:state" v="VT"/>
    <tag k="ref:vcgi:esiteid" v="280959"/>
  </node>
  <node id="-148" visible="true" lat="44.89546657" lon="-72.43401806">
    <tag k="addr:city" v="Westfield"/>
    <tag k="addr:housenumber" v="122"/>
    <tag k="addr:street" v="Bessette Road"/>
    <tag k="addr:state" v="VT"/>
    <tag k="ref:vcgi:esiteid" v="280961"/>
  </node>
  <node id="-150" visible="true" lat="44.89483612" lon="-72.43095709">
    <tag k="addr:city" v="Westfield"/>
    <tag k="addr:housenumber" v="452"/>
    <tag k="addr:street" v="North Hill Road"/>
    <tag k="addr:state" v="VT"/>
    <tag k="ref:vcgi:esiteid" v="280963"/>
  </node>
  <node id="-151" visible="true" lat="44.89478116" lon="-72.52770858">
    <tag k="addr:city" v="Westfield"/>
    <tag k="addr:housenumber" v="143"/>
    <tag k="addr:street" v="Enzian Drive"/>
    <tag k="addr:state" v="VT"/>
    <tag k="ref:vcgi:esiteid" v="280964"/>
  </node>
  <node id="-152" visible="true" lat="44.89451863" lon="-72.43115429">
    <tag k="addr:city" v="Westfield"/>
    <tag k="addr:housenumber" v="420"/>
    <tag k="addr:street" v="North Hill Road"/>
    <tag k="addr:state" v="VT"/>
    <tag k="ref:vcgi:esiteid" v="280965"/>
  </node>
  <node id="-154" visible="true" lat="44.89396787" lon="-72.43103792">
    <tag k="addr:city" v="Westfield"/>
    <tag k="addr:housenumber" v="390"/>
    <tag k="addr:street" v="North Hill Road"/>
    <tag k="addr:state" v="VT"/>
    <tag k="ref:vcgi:esiteid" v="280967"/>
  </node>
  <node id="-155" visible="true" lat="44.8942203" lon="-72.52743637">
    <tag k="addr:city" v="Westfield"/>
    <tag k="addr:housenumber" v="97"/>
    <tag k="addr:street" v="Enzian Drive"/>
    <tag k="addr:state" v="VT"/>
    <tag k="ref:vcgi:esiteid" v="280968"/>
  </node>
  <node id="-156" visible="true" lat="44.89410781" lon="-72.5317459">
    <tag k="addr:city" v="Westfield"/>
    <tag k="addr:housenumber" v="131"/>
    <tag k="addr:street" v="Park Drive"/>
    <tag k="addr:state" v="VT"/>
    <tag k="ref:vcgi:esiteid" v="280969"/>
  </node>
  <node id="-157" visible="true" lat="44.89410907" lon="-72.52662576">
    <tag k="addr:city" v="Westfield"/>
    <tag k="addr:housenumber" v="82"/>
    <tag k="addr:street" v="Enzian Drive"/>
    <tag k="addr:state" v="VT"/>
    <tag k="ref:vcgi:esiteid" v="280970"/>
  </node>
  <node id="-158" visible="true" lat="44.89397284" lon="-72.53093852">
    <tag k="addr:city" v="Westfield"/>
    <tag k="addr:housenumber" v="112"/>
    <tag k="addr:street" v="Park Drive"/>
    <tag k="addr:state" v="VT"/>
    <tag k="ref:vcgi:esiteid" v="280971"/>
  </node>
  <node id="-159" visible="true" lat="44.89424117" lon="-72.42273633">
    <tag k="addr:city" v="Westfield"/>
    <tag k="addr:housenumber" v="95"/>
    <tag k="addr:street" v="Sugarhouse Road"/>
    <tag k="addr:state" v="VT"/>
    <tag k="ref:vcgi:esiteid" v="280972"/>
  </node>
  <node id="-160" visible="true" lat="44.8938617" lon="-72.52820794">
    <tag k="addr:city" v="Westfield"/>
    <tag k="addr:housenumber" v="70"/>
    <tag k="addr:street" v="Birch Road"/>
    <tag k="addr:state" v="VT"/>
    <tag k="ref:vcgi:esiteid" v="280973"/>
  </node>
  <node id="-161" visible="true" lat="44.89380168" lon="-72.5304274">
    <tag k="addr:city" v="Westfield"/>
    <tag k="addr:housenumber" v="74"/>
    <tag k="addr:street" v="Park Drive"/>
    <tag k="addr:state" v="VT"/>
    <tag k="ref:vcgi:esiteid" v="280974"/>
  </node>
  <node id="-162" visible="true" lat="44.89369953" lon="-72.41807298">
    <tag k="addr:city" v="Westfield"/>
    <tag k="addr:housenumber" v="41"/>
    <tag k="addr:street" v="Loop Road"/>
    <tag k="addr:state" v="VT"/>
    <tag k="ref:vcgi:esiteid" v="280975"/>
  </node>
  <node id="-163" visible="true" lat="44.89359803" lon="-72.52720574">
    <tag k="addr:city" v="Westfield"/>
    <tag k="addr:housenumber" v="65"/>
    <tag k="addr:street" v="Enzian Drive"/>
    <tag k="addr:state" v="VT"/>
    <tag k="ref:vcgi:esiteid" v="280976"/>
  </node>
  <node id="-164" visible="true" lat="44.89356615" lon="-72.52877725">
    <tag k="addr:city" v="Westfield"/>
    <tag k="addr:housenumber" v="100"/>
    <tag k="addr:street" v="Birch Road"/>
    <tag k="addr:state" v="VT"/>
    <tag k="ref:vcgi:esiteid" v="280977"/>
  </node>
  <node id="-165" visible="true" lat="44.89360415" lon="-72.5332038">
    <tag k="addr:city" v="Westfield"/>
    <tag k="addr:housenumber" v="156"/>
    <tag k="addr:street" v="Highland Drive"/>
    <tag k="addr:state" v="VT"/>
    <tag k="ref:vcgi:esiteid" v="280978"/>
  </node>
  <node id="-166" visible="true" lat="44.89359072" lon="-72.53516078">
    <tag k="addr:city" v="Westfield"/>
    <tag k="addr:housenumber" v="196"/>
    <tag k="addr:street" v="Highland Drive"/>
    <tag k="addr:state" v="VT"/>
    <tag k="ref:vcgi:esiteid" v="280979"/>
  </node>
  <node id="-167" visible="true" lat="44.89349776" lon="-72.42277829">
    <tag k="addr:city" v="Westfield"/>
    <tag k="addr:housenumber" v="62"/>
    <tag k="addr:street" v="Sugarhouse Road"/>
    <tag k="addr:state" v="VT"/>
    <tag k="ref:vcgi:esiteid" v="280980"/>
  </node>
  <node id="-168" visible="true" lat="44.89345288" lon="-72.53399869">
    <tag k="addr:city" v="Westfield"/>
    <tag k="addr:housenumber" v="192"/>
    <tag k="addr:street" v="Highland Drive"/>
    <tag k="addr:state" v="VT"/>
    <tag k="ref:vcgi:esiteid" v="280981"/>
  </node>
  <node id="-169" visible="true" lat="44.89340071" lon="-72.53147453">
    <tag k="addr:city" v="Westfield"/>
    <tag k="addr:housenumber" v="69"/>
    <tag k="addr:street" v="Park Drive"/>
    <tag k="addr:state" v="VT"/>
    <tag k="ref:vcgi:esiteid" v="280982"/>
  </node>
  <node id="-170" visible="true" lat="44.89336966" lon="-72.5279824">
    <tag k="addr:city" v="Westfield"/>
    <tag k="addr:housenumber" v="71"/>
    <tag k="addr:street" v="Birch Road"/>
    <tag k="addr:state" v="VT"/>
    <tag k="ref:vcgi:esiteid" v="280983"/>
  </node>
  <node id="-171" visible="true" lat="44.89351559" lon="-72.43169582">
    <tag k="addr:city" v="Westfield"/>
    <tag k="addr:housenumber" v="335"/>
    <tag k="addr:street" v="North Hill Road"/>
    <tag k="addr:state" v="VT"/>
    <tag k="ref:vcgi:esiteid" v="280984"/>
  </node>
  <node id="-172" visible="true" lat="44.89336767" lon="-72.52968226">
    <tag k="addr:city" v="Westfield"/>
    <tag k="addr:housenumber" v="146"/>
    <tag k="addr:street" v="Birch Road"/>
    <tag k="addr:state" v="VT"/>
    <tag k="ref:vcgi:esiteid" v="280985"/>
  </node>
  <node id="-173" visible="true" lat="44.89323169" lon="-72.53264163">
    <tag k="addr:city" v="Westfield"/>
    <tag k="addr:housenumber" v="118"/>
    <tag k="addr:street" v="Highland Drive"/>
    <tag k="addr:state" v="VT"/>
    <tag k="ref:vcgi:esiteid" v="280986"/>
  </node>
  <node id="-174" visible="true" lat="44.8932088" lon="-72.53200839">
    <tag k="addr:city" v="Westfield"/>
    <tag k="addr:housenumber" v="92"/>
    <tag k="addr:street" v="Highland Drive"/>
    <tag k="addr:state" v="VT"/>
    <tag k="ref:vcgi:esiteid" v="280987"/>
  </node>
  <node id="-175" visible="true" lat="44.89311197" lon="-72.53494418">
    <tag k="addr:city" v="Westfield"/>
    <tag k="addr:housenumber" v="221"/>
    <tag k="addr:street" v="Highland Drive"/>
    <tag k="addr:state" v="VT"/>
    <tag k="ref:vcgi:esiteid" v="280988"/>
  </node>
  <node id="-176" visible="true" lat="44.8931427" lon="-72.42241668">
    <tag k="addr:city" v="Westfield"/>
    <tag k="addr:housenumber" v="36"/>
    <tag k="addr:street" v="Sugarhouse Road"/>
    <tag k="addr:state" v="VT"/>
    <tag k="ref:vcgi:esiteid" v="280989"/>
  </node>
  <node id="-177" visible="true" lat="44.89311599" lon="-72.53726959">
    <tag k="addr:city" v="Westfield"/>
    <tag k="addr:housenumber" v="345"/>
    <tag k="addr:street" v="Highland Drive"/>
    <tag k="addr:state" v="VT"/>
    <tag k="ref:vcgi:esiteid" v="280990"/>
  </node>
  <node id="-178" visible="true" lat="44.89293693" lon="-72.52858694">
    <tag k="addr:city" v="Westfield"/>
    <tag k="addr:housenumber" v="107"/>
    <tag k="addr:street" v="Birch Road"/>
    <tag k="addr:state" v="VT"/>
    <tag k="ref:vcgi:esiteid" v="280991"/>
  </node>
  <node id="-179" visible="true" lat="44.89293233" lon="-72.53601323">
    <tag k="addr:city" v="Westfield"/>
    <tag k="addr:housenumber" v="279"/>
    <tag k="addr:street" v="Highland Drive"/>
    <tag k="addr:state" v="VT"/>
    <tag k="ref:vcgi:esiteid" v="280992"/>
  </node>
  <node id="-180" visible="true" lat="44.89270757" lon="-72.41802893">
    <tag k="addr:city" v="Westfield"/>
    <tag k="addr:housenumber" v="117"/>
    <tag k="addr:street" v="Loop Road"/>
    <tag k="addr:state" v="VT"/>
    <tag k="ref:vcgi:esiteid" v="280994"/>
  </node>
  <node id="-181" visible="true" lat="44.89238793" lon="-72.53570244">
    <tag k="addr:city" v="Westfield"/>
    <tag k="addr:housenumber" v="118"/>
    <tag k="addr:street" v="Edelweiss Circle"/>
    <tag k="addr:state" v="VT"/>
    <tag k="ref:vcgi:esiteid" v="280995"/>
  </node>
  <node id="-182" visible="true" lat="44.89238967" lon="-72.53423081">
    <tag k="addr:city" v="Westfield"/>
    <tag k="addr:housenumber" v="43"/>
    <tag k="addr:street" v="Edelweiss Circle"/>
    <tag k="addr:state" v="VT"/>
    <tag k="ref:vcgi:esiteid" v="280996"/>
  </node>
  <node id="-184" visible="true" lat="44.89236104" lon="-72.53690663">
    <tag k="addr:city" v="Westfield"/>
    <tag k="addr:housenumber" v="59"/>
    <tag k="addr:street" v="Van De Kamer Road"/>
    <tag k="addr:state" v="VT"/>
    <tag k="ref:vcgi:esiteid" v="280999"/>
  </node>
  <node id="-186" visible="true" lat="44.89243679" lon="-72.5346815">
    <tag k="addr:city" v="Westfield"/>
    <tag k="addr:housenumber" v="65"/>
    <tag k="addr:street" v="Edelweiss Circle"/>
    <tag k="addr:state" v="VT"/>
    <tag k="ref:vcgi:esiteid" v="281001"/>
  </node>
  <node id="-188" visible="true" lat="44.89225387" lon="-72.4346466">
    <tag k="addr:city" v="Westfield"/>
    <tag k="addr:housenumber" v="348"/>
    <tag k="addr:street" v="School Street"/>
    <tag k="addr:state" v="VT"/>
    <tag k="ref:vcgi:esiteid" v="281004"/>
  </node>
  <node id="-189" visible="true" lat="44.89212685" lon="-72.53085404">
    <tag k="addr:city" v="Westfield"/>
    <tag k="addr:housenumber" v="225"/>
    <tag k="addr:street" v="Birch Road"/>
    <tag k="addr:state" v="VT"/>
    <tag k="ref:vcgi:esiteid" v="281005"/>
  </node>
  <node id="-190" visible="true" lat="44.89212912" lon="-72.43012097">
    <tag k="addr:city" v="Westfield"/>
    <tag k="addr:housenumber" v="233"/>
    <tag k="addr:street" v="North Hill Road"/>
    <tag k="addr:state" v="VT"/>
    <tag k="ref:vcgi:esiteid" v="281006"/>
  </node>
  <node id="-191" visible="true" lat="44.8921567" lon="-72.53513128">
    <tag k="addr:city" v="Westfield"/>
    <tag k="addr:housenumber" v="133"/>
    <tag k="addr:street" v="Edelweiss Circle"/>
    <tag k="addr:state" v="VT"/>
    <tag k="ref:vcgi:esiteid" v="281007"/>
  </node>
  <node id="-192" visible="true" lat="44.89213562" lon="-72.42865753">
    <tag k="addr:city" v="Westfield"/>
    <tag k="addr:housenumber" v="258"/>
    <tag k="addr:street" v="North Hill Road"/>
    <tag k="addr:state" v="VT"/>
    <tag k="ref:vcgi:esiteid" v="281008"/>
  </node>
  <node id="-193" visible="true" lat="44.89213943" lon="-72.53157806">
    <tag k="addr:city" v="Westfield"/>
    <tag k="addr:housenumber" v="264"/>
    <tag k="addr:street" v="Birch Road"/>
    <tag k="addr:state" v="VT"/>
    <tag k="ref:vcgi:esiteid" v="281009"/>
  </node>
  <node id="-194" visible="true" lat="44.89220667" lon="-72.43525321">
    <tag k="addr:city" v="Westfield"/>
    <tag k="addr:housenumber" v="384"/>
    <tag k="addr:street" v="School Street"/>
    <tag k="addr:state" v="VT"/>
    <tag k="ref:vcgi:esiteid" v="281010"/>
  </node>
  <node id="-195" visible="true" lat="44.89213295" lon="-72.43395705">
    <tag k="addr:city" v="Westfield"/>
    <tag k="addr:housenumber" v="320"/>
    <tag k="addr:street" v="School Street"/>
    <tag k="addr:state" v="VT"/>
    <tag k="ref:vcgi:esiteid" v="281011"/>
  </node>
  <node id="-196" visible="true" lat="44.89192096" lon="-72.53051652">
    <tag k="addr:city" v="Westfield"/>
    <tag k="addr:housenumber" v="201"/>
    <tag k="addr:street" v="Birch Road"/>
    <tag k="addr:state" v="VT"/>
    <tag k="ref:vcgi:esiteid" v="281012"/>
  </node>
  <node id="-199" visible="true" lat="44.89196895" lon="-72.53567439">
    <tag k="addr:city" v="Westfield"/>
    <tag k="addr:housenumber" v="150"/>
    <tag k="addr:street" v="Edelweiss Circle"/>
    <tag k="addr:state" v="VT"/>
    <tag k="ref:vcgi:esiteid" v="281015"/>
  </node>
  <node id="-200" visible="true" lat="44.89191319" lon="-72.53195609">
    <tag k="addr:city" v="Westfield"/>
    <tag k="addr:housenumber" v="285"/>
    <tag k="addr:street" v="Birch Road"/>
    <tag k="addr:state" v="VT"/>
    <tag k="ref:vcgi:esiteid" v="281016"/>
  </node>
  <node id="-201" visible="true" lat="44.89195444" lon="-72.43088751">
    <tag k="addr:city" v="Westfield"/>
    <tag k="addr:housenumber" v="245"/>
    <tag k="addr:street" v="North Hill Road"/>
    <tag k="addr:state" v="VT"/>
    <tag k="ref:vcgi:esiteid" v="281017"/>
  </node>
  <node id="-202" visible="true" lat="44.89195712" lon="-72.4292215">
    <tag k="addr:city" v="Westfield"/>
    <tag k="addr:housenumber" v="202"/>
    <tag k="addr:street" v="North Hill Road"/>
    <tag k="addr:state" v="VT"/>
    <tag k="ref:vcgi:esiteid" v="281018"/>
  </node>
  <node id="-205" visible="true" lat="44.89171307" lon="-72.5343366">
    <tag k="addr:city" v="Westfield"/>
    <tag k="addr:housenumber" v="30"/>
    <tag k="addr:street" v="Christmas Road"/>
    <tag k="addr:state" v="VT"/>
    <tag k="ref:vcgi:esiteid" v="281021"/>
  </node>
  <node id="-206" visible="true" lat="44.89170025" lon="-72.53634192">
    <tag k="addr:city" v="Westfield"/>
    <tag k="addr:housenumber" v="92"/>
    <tag k="addr:street" v="Christmas Road"/>
    <tag k="addr:state" v="VT"/>
    <tag k="ref:vcgi:esiteid" v="281022"/>
  </node>
  <node id="-207" visible="true" lat="44.89159202" lon="-72.53115009">
    <tag k="addr:city" v="Westfield"/>
    <tag k="addr:housenumber" v="125"/>
    <tag k="addr:street" v="Evergreen Lane"/>
    <tag k="addr:state" v="VT"/>
    <tag k="ref:vcgi:esiteid" v="281023"/>
  </node>
  <node id="-208" visible="true" lat="44.891366" lon="-72.42888081">
    <tag k="addr:city" v="Westfield"/>
    <tag k="addr:housenumber" v="170"/>
    <tag k="addr:street" v="North Hill Road"/>
    <tag k="addr:state" v="VT"/>
    <tag k="ref:vcgi:esiteid" v="281024"/>
  </node>
  <node id="-210" visible="true" lat="44.89153305" lon="-72.53175283">
    <tag k="addr:city" v="Westfield"/>
    <tag k="addr:housenumber" v="123"/>
    <tag k="addr:street" v="Evergreen Lane"/>
    <tag k="addr:state" v="VT"/>
    <tag k="ref:vcgi:esiteid" v="281026"/>
  </node>
  <node id="-211" visible="true" lat="44.89143546" lon="-72.53694775">
    <tag k="addr:city" v="Westfield"/>
    <tag k="addr:housenumber" v="170"/>
    <tag k="addr:street" v="Christmas Road"/>
    <tag k="addr:state" v="VT"/>
    <tag k="ref:vcgi:esiteid" v="281027"/>
  </node>
  <node id="-212" visible="true" lat="44.89153565" lon="-72.53234067">
    <tag k="addr:city" v="Westfield"/>
    <tag k="addr:housenumber" v="85"/>
    <tag k="addr:street" v="Evergreen Lane"/>
    <tag k="addr:state" v="VT"/>
    <tag k="ref:vcgi:esiteid" v="281028"/>
  </node>
  <node id="-213" visible="true" lat="44.89149275" lon="-72.4377336">
    <tag k="addr:city" v="Westfield"/>
    <tag k="addr:housenumber" v="252"/>
    <tag k="addr:street" v="Ballground Road"/>
    <tag k="addr:state" v="VT"/>
    <tag k="ref:vcgi:esiteid" v="281029"/>
  </node>
  <node id="-214" visible="true" lat="44.89144515" lon="-72.43284607">
    <tag k="addr:city" v="Westfield"/>
    <tag k="addr:housenumber" v="200"/>
    <tag k="addr:street" v="School Street"/>
    <tag k="addr:state" v="VT"/>
    <tag k="ref:vcgi:esiteid" v="281030"/>
  </node>
  <node id="-215" visible="true" lat="44.8914561" lon="-72.53067597">
    <tag k="addr:city" v="Westfield"/>
    <tag k="addr:housenumber" v="150"/>
    <tag k="addr:street" v="Evergreen Lane"/>
    <tag k="addr:state" v="VT"/>
    <tag k="ref:vcgi:esiteid" v="281031"/>
  </node>
  <node id="-216" visible="true" lat="44.89141911" lon="-72.53282149">
    <tag k="addr:city" v="Westfield"/>
    <tag k="addr:housenumber" v="73"/>
    <tag k="addr:street" v="Evergreen Lane"/>
    <tag k="addr:state" v="VT"/>
    <tag k="ref:vcgi:esiteid" v="281032"/>
  </node>
  <node id="-217" visible="true" lat="44.89117518" lon="-72.53515766">
    <tag k="addr:city" v="Westfield"/>
    <tag k="addr:housenumber" v="53"/>
    <tag k="addr:street" v="Christmas Road"/>
    <tag k="addr:state" v="VT"/>
    <tag k="ref:vcgi:esiteid" v="281033"/>
  </node>
  <node id="-219" visible="true" lat="44.89139762" lon="-72.53345066">
    <tag k="addr:city" v="Westfield"/>
    <tag k="addr:housenumber" v="21"/>
    <tag k="addr:street" v="Evergreen Lane"/>
    <tag k="addr:state" v="VT"/>
    <tag k="ref:vcgi:esiteid" v="281035"/>
  </node>
  <node id="-221" visible="true" lat="44.89136792" lon="-72.53575234">
    <tag k="addr:city" v="Westfield"/>
    <tag k="addr:housenumber" v="73"/>
    <tag k="addr:street" v="Christmas Road"/>
    <tag k="addr:state" v="VT"/>
    <tag k="ref:vcgi:esiteid" v="281037"/>
  </node>
  <node id="-222" visible="true" lat="44.89115524" lon="-72.53457641">
    <tag k="addr:city" v="Westfield"/>
    <tag k="addr:housenumber" v="27"/>
    <tag k="addr:street" v="Christmas Road"/>
    <tag k="addr:state" v="VT"/>
    <tag k="ref:vcgi:esiteid" v="281038"/>
  </node>
  <node id="-224" visible="true" lat="44.89111709" lon="-72.53160095">
    <tag k="addr:city" v="Westfield"/>
    <tag k="addr:housenumber" v="92"/>
    <tag k="addr:street" v="Evergreen Lane"/>
    <tag k="addr:state" v="VT"/>
    <tag k="ref:vcgi:esiteid" v="281040"/>
  </node>
  <node id="-225" visible="true" lat="44.89100795" lon="-72.53361167">
    <tag k="addr:city" v="Westfield"/>
    <tag k="addr:housenumber" v="14"/>
    <tag k="addr:street" v="Evergreen Lane"/>
    <tag k="addr:state" v="VT"/>
    <tag k="ref:vcgi:esiteid" v="281041"/>
  </node>
  <node id="-228" visible="true" lat="44.89091919" lon="-72.53261102">
    <tag k="addr:city" v="Westfield"/>
    <tag k="addr:housenumber" v="52"/>
    <tag k="addr:street" v="Evergreen Lane"/>
    <tag k="addr:state" v="VT"/>
    <tag k="ref:vcgi:esiteid" v="281044"/>
  </node>
  <node id="-230" visible="true" lat="44.89101886" lon="-72.5305001">
    <tag k="addr:city" v="Westfield"/>
    <tag k="addr:housenumber" v="174"/>
    <tag k="addr:street" v="Karnten Road"/>
    <tag k="addr:state" v="VT"/>
    <tag k="ref:vcgi:esiteid" v="281046"/>
  </node>
  <node id="-231" visible="true" lat="44.8909645" lon="-72.53212737">
    <tag k="addr:city" v="Westfield"/>
    <tag k="addr:housenumber" v="90"/>
    <tag k="addr:street" v="Evergreen Lane"/>
    <tag k="addr:state" v="VT"/>
    <tag k="ref:vcgi:esiteid" v="281047"/>
  </node>
  <node id="-234" visible="true" lat="44.89086913" lon="-72.53720855">
    <tag k="addr:city" v="Westfield"/>
    <tag k="addr:housenumber" v="167"/>
    <tag k="addr:street" v="Christmas Road"/>
    <tag k="addr:state" v="VT"/>
    <tag k="ref:vcgi:esiteid" v="281050"/>
  </node>
  <node id="-235" visible="true" lat="44.89090792" lon="-72.53654336">
    <tag k="addr:city" v="Westfield"/>
    <tag k="addr:housenumber" v="169"/>
    <tag k="addr:street" v="Christmas Road"/>
    <tag k="addr:state" v="VT"/>
    <tag k="ref:vcgi:esiteid" v="281051"/>
  </node>
  <node id="-236" visible="true" lat="44.89066369" lon="-72.43314378">
    <tag k="addr:city" v="Westfield"/>
    <tag k="addr:housenumber" v="221"/>
    <tag k="addr:street" v="School Street"/>
    <tag k="addr:state" v="VT"/>
    <tag k="ref:vcgi:esiteid" v="281052"/>
  </node>
  <node id="-237" visible="true" lat="44.89068582" lon="-72.53789161">
    <tag k="addr:city" v="Westfield"/>
    <tag k="addr:housenumber" v="219"/>
    <tag k="addr:street" v="Christmas Road"/>
    <tag k="addr:state" v="VT"/>
    <tag k="ref:vcgi:esiteid" v="281053"/>
  </node>
  <node id="-238" visible="true" lat="44.89083288" lon="-72.42864866">
    <tag k="addr:city" v="Westfield"/>
    <tag k="addr:housenumber" v="116"/>
    <tag k="addr:street" v="North Hill Road"/>
    <tag k="addr:state" v="VT"/>
    <tag k="ref:vcgi:esiteid" v="281054"/>
  </node>
  <node id="-239" visible="true" lat="44.89069121" lon="-72.4317892">
    <tag k="addr:city" v="Westfield"/>
    <tag k="addr:housenumber" v="170"/>
    <tag k="addr:street" v="School Street"/>
    <tag k="addr:state" v="VT"/>
    <tag k="ref:vcgi:esiteid" v="281055"/>
  </node>
  <node id="-241" visible="true" lat="44.89064591" lon="-72.53455746">
    <tag k="addr:city" v="Westfield"/>
    <tag k="addr:housenumber" v="155"/>
    <tag k="addr:street" v="Waldhof Drive"/>
    <tag k="addr:state" v="VT"/>
    <tag k="ref:vcgi:esiteid" v="281057"/>
  </node>
  <node id="-244" visible="true" lat="44.89045137" lon="-72.42904582">
    <tag k="addr:city" v="Westfield"/>
    <tag k="addr:housenumber" v="107"/>
    <tag k="addr:street" v="North Hill Road"/>
    <tag k="addr:state" v="VT"/>
    <tag k="ref:vcgi:esiteid" v="281060"/>
  </node>
  <node id="-245" visible="true" lat="44.89038525" lon="-72.53179008">
    <tag k="addr:city" v="Westfield"/>
    <tag k="addr:housenumber" v="100"/>
    <tag k="addr:street" v="Karnten Road"/>
    <tag k="addr:state" v="VT"/>
    <tag k="ref:vcgi:esiteid" v="281061"/>
  </node>
  <node id="-249" visible="true" lat="44.89042102" lon="-72.41842907">
    <tag k="addr:city" v="Westfield"/>
    <tag k="addr:housenumber" v="266"/>
    <tag k="addr:street" v="Loop Road"/>
    <tag k="addr:state" v="VT"/>
    <tag k="ref:vcgi:esiteid" v="281065"/>
  </node>
  <node id="-250" visible="true" lat="44.89040374" lon="-72.53338623">
    <tag k="addr:city" v="Westfield"/>
    <tag k="addr:housenumber" v="47"/>
    <tag k="addr:street" v="Karnten Road"/>
    <tag k="addr:state" v="VT"/>
    <tag k="ref:vcgi:esiteid" v="281066"/>
  </node>
  <node id="-251" visible="true" lat="44.89043819" lon="-72.42852367">
    <tag k="addr:city" v="Westfield"/>
    <tag k="addr:housenumber" v="90"/>
    <tag k="addr:street" v="North Hill Road"/>
    <tag k="addr:state" v="VT"/>
    <tag k="ref:vcgi:esiteid" v="281067"/>
  </node>
  <node id="-253" visible="true" lat="44.89035188" lon="-72.43038688">
    <tag k="addr:city" v="Westfield"/>
    <tag k="addr:housenumber" v="84"/>
    <tag k="addr:street" v="School Street"/>
    <tag k="addr:state" v="VT"/>
    <tag k="ref:vcgi:esiteid" v="281069"/>
  </node>
  <node id="-255" visible="true" lat="44.89012171" lon="-72.53270107">
    <tag k="addr:city" v="Westfield"/>
    <tag k="addr:housenumber" v="50"/>
    <tag k="addr:street" v="Karnten Road"/>
    <tag k="addr:state" v="VT"/>
    <tag k="ref:vcgi:esiteid" v="281071"/>
  </node>
  <node id="-256" visible="true" lat="44.89016919" lon="-72.42832583">
    <tag k="addr:city" v="Westfield"/>
    <tag k="addr:housenumber" v="72"/>
    <tag k="addr:street" v="North Hill Road"/>
    <tag k="addr:state" v="VT"/>
    <tag k="ref:vcgi:esiteid" v="281072"/>
  </node>
  <node id="-257" visible="true" lat="44.8899903" lon="-72.43031637">
    <tag k="addr:city" v="Westfield"/>
    <tag k="addr:housenumber" v="71"/>
    <tag k="addr:street" v="School Street"/>
    <tag k="addr:state" v="VT"/>
    <tag k="ref:vcgi:esiteid" v="281073"/>
  </node>
  <node id="-259" visible="true" lat="44.88989673" lon="-72.53334956">
    <tag k="addr:city" v="Westfield"/>
    <tag k="addr:housenumber" v="18"/>
    <tag k="addr:street" v="Karnten Road"/>
    <tag k="addr:state" v="VT"/>
    <tag k="ref:vcgi:esiteid" v="281075"/>
  </node>
  <node id="-260" visible="true" lat="44.88985026" lon="-72.42900743">
    <tag k="addr:city" v="Westfield"/>
    <tag k="addr:housenumber" v="59"/>
    <tag k="addr:street" v="North Hill Road"/>
    <tag k="addr:state" v="VT"/>
    <tag k="ref:vcgi:esiteid" v="281076"/>
  </node>
  <node id="-262" visible="true" lat="44.88972997" lon="-72.45176965">
    <tag k="addr:city" v="Westfield"/>
    <tag k="addr:housenumber" v="987"/>
    <tag k="addr:street" v="Ballground Road"/>
    <tag k="addr:state" v="VT"/>
    <tag k="ref:vcgi:esiteid" v="281078"/>
  </node>
  <node id="-264" visible="true" lat="44.88951492" lon="-72.42900848">
    <tag k="addr:city" v="Westfield"/>
    <tag k="addr:housenumber" v="31"/>
    <tag k="addr:street" v="North Hill Road"/>
    <tag k="addr:state" v="VT"/>
    <tag k="ref:vcgi:esiteid" v="281080"/>
  </node>
  <node id="-281" visible="true" lat="44.8869154" lon="-72.4160845">
    <tag k="addr:city" v="Westfield"/>
    <tag k="addr:housenumber" v="536"/>
    <tag k="addr:street" v="Loop Road"/>
    <tag k="addr:state" v="VT"/>
    <tag k="ref:vcgi:esiteid" v="281098"/>
  </node>
  <node id="-286" visible="true" lat="44.88568593" lon="-72.41412737">
    <tag k="addr:city" v="Westfield"/>
    <tag k="addr:housenumber" v="649"/>
    <tag k="addr:street" v="Loop Road"/>
    <tag k="addr:state" v="VT"/>
    <tag k="ref:vcgi:esiteid" v="281103"/>
  </node>
  <node id="-288" visible="true" lat="44.88503566" lon="-72.41504264">
    <tag k="addr:city" v="Westfield"/>
    <tag k="addr:housenumber" v="668"/>
    <tag k="addr:street" v="Loop Road"/>
    <tag k="addr:state" v="VT"/>
    <tag k="ref:vcgi:esiteid" v="281105"/>
  </node>
  <node id="-295" visible="true" lat="44.88046518" lon="-72.42226049">
    <tag k="addr:city" v="Westfield"/>
    <tag k="addr:housenumber" v="399"/>
    <tag k="addr:street" v="Cemetery Road"/>
    <tag k="addr:state" v="VT"/>
    <tag k="ref:vcgi:esiteid" v="281112"/>
  </node>
  <node id="-298" visible="true" lat="44.87951895" lon="-72.42990891">
    <tag k="addr:city" v="Westfield"/>
    <tag k="addr:housenumber" v="22"/>
    <tag k="addr:street" v="Cemetery Road"/>
    <tag k="addr:state" v="VT"/>
    <tag k="ref:vcgi:esiteid" v="281115"/>
  </node>
  <node id="-301" visible="true" lat="44.87864125" lon="-72.4200501">
    <tag k="addr:city" v="Westfield"/>
    <tag k="addr:housenumber" v="548"/>
    <tag k="addr:street" v="Cemetery Road"/>
    <tag k="addr:state" v="VT"/>
    <tag k="ref:vcgi:esiteid" v="281118"/>
  </node>
  <node id="-302" visible="true" lat="44.87799545" lon="-72.4147024">
    <tag k="addr:city" v="Westfield"/>
    <tag k="addr:housenumber" v="1195"/>
    <tag k="addr:street" v="Loop Road"/>
    <tag k="addr:state" v="VT"/>
    <tag k="ref:vcgi:esiteid" v="281119"/>
  </node>
  <node id="-303" visible="true" lat="44.87612152" lon="-72.45077514">
    <tag k="addr:city" v="Westfield"/>
    <tag k="addr:housenumber" v="394"/>
    <tag k="addr:street" v="Kettle Farm Road"/>
    <tag k="addr:state" v="VT"/>
    <tag k="ref:vcgi:esiteid" v="281120"/>
  </node>
  <node id="-304" visible="true" lat="44.87593078" lon="-72.47247314">
    <tag k="addr:city" v="Westfield"/>
    <tag k="addr:housenumber" v="1436"/>
    <tag k="addr:street" v="Corrow Basin Road"/>
    <tag k="addr:state" v="VT"/>
    <tag k="ref:vcgi:esiteid" v="281121"/>
  </node>
  <node id="-307" visible="true" lat="44.87457609" lon="-72.41650642">
    <tag k="addr:city" v="Westfield"/>
    <tag k="addr:housenumber" v="1334"/>
    <tag k="addr:street" v="Loop Road"/>
    <tag k="addr:state" v="VT"/>
    <tag k="ref:vcgi:esiteid" v="281124"/>
  </node>
  <node id="-310" visible="true" lat="44.87245178" lon="-72.45005035">
    <tag k="addr:city" v="Westfield"/>
    <tag k="addr:housenumber" v="268"/>
    <tag k="addr:street" v="Kettle Farm Road"/>
    <tag k="addr:state" v="VT"/>
    <tag k="ref:vcgi:esiteid" v="281127"/>
  </node>
  <node id="-312" visible="true" lat="44.87076187" lon="-72.4506073">
    <tag k="addr:city" v="Westfield"/>
    <tag k="addr:housenumber" v="179"/>
    <tag k="addr:street" v="Kettle Farm Road"/>
    <tag k="addr:state" v="VT"/>
    <tag k="ref:vcgi:esiteid" v="281129"/>
  </node>
  <node id="-313" visible="true" lat="44.87046432" lon="-72.46959686">
    <tag k="addr:city" v="Westfield"/>
    <tag k="addr:housenumber" v="1027"/>
    <tag k="addr:street" v="Corrow Basin Road"/>
    <tag k="addr:state" v="VT"/>
    <tag k="ref:vcgi:esiteid" v="281130"/>
  </node>
  <node id="-314" visible="true" lat="44.87114484" lon="-72.46363652">
    <tag k="addr:city" v="Westfield"/>
    <tag k="addr:housenumber" v="698"/>
    <tag k="addr:street" v="Corrow Basin Road"/>
    <tag k="addr:state" v="VT"/>
    <tag k="ref:vcgi:esiteid" v="281131"/>
  </node>
  <node id="-317" visible="true" lat="44.86913626" lon="-72.41623535">
    <tag k="addr:city" v="Westfield"/>
    <tag k="addr:housenumber" v="1784"/>
    <tag k="addr:street" v="Loop Road"/>
    <tag k="addr:state" v="VT"/>
    <tag k="ref:vcgi:esiteid" v="281134"/>
  </node>
  <node id="-318" visible="true" lat="44.86923217" lon="-72.46470642">
    <tag k="addr:city" v="Westfield"/>
    <tag k="addr:housenumber" v="729"/>
    <tag k="addr:street" v="Corrow Basin Road"/>
    <tag k="addr:state" v="VT"/>
    <tag k="ref:vcgi:esiteid" v="281135"/>
  </node>
  <node id="-320" visible="true" lat="44.86892318" lon="-72.4545288">
    <tag k="addr:city" v="Westfield"/>
    <tag k="addr:housenumber" v="236"/>
    <tag k="addr:street" v="Corrow Basin Road"/>
    <tag k="addr:state" v="VT"/>
    <tag k="ref:vcgi:esiteid" v="281137"/>
  </node>
  <node id="-321" visible="true" lat="44.86841837" lon="-72.44971899">
    <tag k="addr:city" v="Westfield"/>
    <tag k="addr:housenumber" v="27"/>
    <tag k="addr:street" v="Kettle Farm Road"/>
    <tag k="addr:state" v="VT"/>
    <tag k="ref:vcgi:esiteid" v="281138"/>
  </node>
  <node id="-323" visible="true" lat="44.8680438" lon="-72.46248769">
    <tag k="addr:city" v="Westfield"/>
    <tag k="addr:housenumber" v="599"/>
    <tag k="addr:street" v="Corrow Basin Road"/>
    <tag k="addr:state" v="VT"/>
    <tag k="ref:vcgi:esiteid" v="281140"/>
  </node>
  <node id="-324" visible="true" lat="44.86795118" lon="-72.41492766">
    <tag k="addr:city" v="Westfield"/>
    <tag k="addr:housenumber" v="1885"/>
    <tag k="addr:street" v="Loop Road"/>
    <tag k="addr:state" v="VT"/>
    <tag k="ref:vcgi:esiteid" v="281141"/>
  </node>
  <node id="-325" visible="true" lat="44.86788177" lon="-72.4167633">
    <tag k="addr:city" v="Westfield"/>
    <tag k="addr:housenumber" v="69"/>
    <tag k="addr:street" v="Fuller Road"/>
    <tag k="addr:state" v="VT"/>
    <tag k="ref:vcgi:esiteid" v="281142"/>
  </node>
  <node id="-327" visible="true" lat="44.86726379" lon="-72.45419311">
    <tag k="addr:city" v="Westfield"/>
    <tag k="addr:housenumber" v="179"/>
    <tag k="addr:street" v="Corrow Basin Road"/>
    <tag k="addr:state" v="VT"/>
    <tag k="ref:vcgi:esiteid" v="281144"/>
  </node>
  <node id="-328" visible="true" lat="44.86693573" lon="-72.45113372">
    <tag k="addr:city" v="Westfield"/>
    <tag k="addr:housenumber" v="31"/>
    <tag k="addr:street" v="Corrow Basin Road"/>
    <tag k="addr:state" v="VT"/>
    <tag k="ref:vcgi:esiteid" v="281145"/>
  </node>
  <node id="-330" visible="true" lat="44.8658339" lon="-72.45099969">
    <tag k="addr:city" v="Westfield"/>
    <tag k="addr:housenumber" v="721"/>
    <tag k="addr:street" v="Balance Rock Road"/>
    <tag k="addr:state" v="VT"/>
    <tag k="ref:vcgi:esiteid" v="281147"/>
  </node>
  <node id="-331" visible="true" lat="44.86575525" lon="-72.45193026">
    <tag k="addr:city" v="Westfield"/>
    <tag k="addr:housenumber" v="756"/>
    <tag k="addr:street" v="Balance Rock Road"/>
    <tag k="addr:state" v="VT"/>
    <tag k="ref:vcgi:esiteid" v="281148"/>
  </node>
  <node id="-332" visible="true" lat="44.86554336" lon="-72.44165039">
    <tag k="addr:city" v="Westfield"/>
    <tag k="addr:housenumber" v="716"/>
    <tag k="addr:street" v="Buck Hill Road"/>
    <tag k="addr:state" v="VT"/>
    <tag k="ref:vcgi:esiteid" v="281149"/>
  </node>
  <node id="-333" visible="true" lat="44.86544637" lon="-72.45231352">
    <tag k="addr:city" v="Westfield"/>
    <tag k="addr:housenumber" v="784"/>
    <tag k="addr:street" v="Balance Rock Road"/>
    <tag k="addr:state" v="VT"/>
    <tag k="ref:vcgi:esiteid" v="281150"/>
  </node>
  <node id="-335" visible="true" lat="44.86495924" lon="-72.45288359">
    <tag k="addr:city" v="Westfield"/>
    <tag k="addr:housenumber" v="848"/>
    <tag k="addr:street" v="Balance Rock Road"/>
    <tag k="addr:state" v="VT"/>
    <tag k="ref:vcgi:esiteid" v="281153"/>
  </node>
  <node id="-336" visible="true" lat="44.8645338" lon="-72.44335046">
    <tag k="addr:city" v="Westfield"/>
    <tag k="addr:housenumber" v="851"/>
    <tag k="addr:street" v="Buck Hill Road"/>
    <tag k="addr:state" v="VT"/>
    <tag k="ref:vcgi:esiteid" v="281154"/>
  </node>
  <node id="-338" visible="true" lat="44.86409847" lon="-72.41301801">
    <tag k="addr:city" v="Westfield"/>
    <tag k="addr:housenumber" v="2191"/>
    <tag k="addr:street" v="Loop Road"/>
    <tag k="addr:state" v="VT"/>
    <tag k="ref:vcgi:esiteid" v="281156"/>
  </node>
  <node id="-340" visible="true" lat="44.86373688" lon="-72.44207513">
    <tag k="addr:city" v="Westfield"/>
    <tag k="addr:housenumber" v="834"/>
    <tag k="addr:street" v="Buck Hill Road"/>
    <tag k="addr:state" v="VT"/>
    <tag k="ref:vcgi:esiteid" v="281159"/>
  </node>
  <node id="-342" visible="true" lat="44.8629837" lon="-72.44548797">
    <tag k="addr:city" v="Westfield"/>
    <tag k="addr:housenumber" v="981"/>
    <tag k="addr:street" v="Buck Hill Road"/>
    <tag k="addr:state" v="VT"/>
    <tag k="ref:vcgi:esiteid" v="281161"/>
  </node>
  <node id="-345" visible="true" lat="44.86230468" lon="-72.44228362">
    <tag k="addr:city" v="Westfield"/>
    <tag k="addr:housenumber" v="906"/>
    <tag k="addr:street" v="Buck Hill Road"/>
    <tag k="addr:state" v="VT"/>
    <tag k="ref:vcgi:esiteid" v="281164"/>
  </node>
  <node id="-348" visible="true" lat="44.86201554" lon="-72.44749172">
    <tag k="addr:city" v="Westfield"/>
    <tag k="addr:housenumber" v="1103"/>
    <tag k="addr:street" v="Buck Hill Road"/>
    <tag k="addr:state" v="VT"/>
    <tag k="ref:vcgi:esiteid" v="281167"/>
  </node>
  <node id="-354" visible="true" lat="44.85635375" lon="-72.45223999">
    <tag k="addr:city" v="Westfield"/>
    <tag k="addr:housenumber" v="1579"/>
    <tag k="addr:street" v="Buck Hill Road"/>
    <tag k="addr:state" v="VT"/>
    <tag k="ref:vcgi:esiteid" v="281173"/>
  </node>
  <node id="-357" visible="true" lat="44.85448745" lon="-72.45422386">
    <tag k="addr:city" v="Westfield"/>
    <tag k="addr:housenumber" v="1715"/>
    <tag k="addr:street" v="Buck Hill Road"/>
    <tag k="addr:state" v="VT"/>
    <tag k="ref:vcgi:esiteid" v="281176"/>
  </node>
  <node id="-358" visible="true" lat="44.85439667" lon="-72.45217151">
    <tag k="addr:city" v="Westfield"/>
    <tag k="addr:housenumber" v="1257"/>
    <tag k="addr:street" v="Sniderbrook Road"/>
    <tag k="addr:state" v="VT"/>
    <tag k="ref:vcgi:esiteid" v="281177"/>
  </node>
  <node id="-360" visible="true" lat="44.85327911" lon="-72.46135711">
    <tag k="addr:city" v="Westfield"/>
    <tag k="addr:housenumber" v="94"/>
    <tag k="addr:street" v="Circle Road"/>
    <tag k="addr:state" v="VT"/>
    <tag k="ref:vcgi:esiteid" v="281179"/>
  </node>
  <node id="-362" visible="true" lat="44.8529663" lon="-72.46025085">
    <tag k="addr:city" v="Westfield"/>
    <tag k="addr:housenumber" v="2024"/>
    <tag k="addr:street" v="Buck Hill Road"/>
    <tag k="addr:state" v="VT"/>
    <tag k="ref:vcgi:esiteid" v="281181"/>
  </node>
  <node id="-363" visible="true" lat="44.85147507" lon="-72.45121301">
    <tag k="addr:city" v="Westfield"/>
    <tag k="addr:housenumber" v="973"/>
    <tag k="addr:street" v="Sniderbrook Road"/>
    <tag k="addr:state" v="VT"/>
    <tag k="ref:vcgi:esiteid" v="281182"/>
  </node>
  <node id="-365" visible="true" lat="44.85126113" lon="-72.45644378">
    <tag k="addr:city" v="Westfield"/>
    <tag k="addr:housenumber" v="1947"/>
    <tag k="addr:street" v="Buck Hill Road"/>
    <tag k="addr:state" v="VT"/>
    <tag k="ref:vcgi:esiteid" v="281184"/>
  </node>
  <node id="-367" visible="true" lat="44.85048796" lon="-72.44053096">
    <tag k="addr:city" v="Westfield"/>
    <tag k="addr:housenumber" v="439"/>
    <tag k="addr:street" v="Sniderbrook Road"/>
    <tag k="addr:state" v="VT"/>
    <tag k="ref:vcgi:esiteid" v="281186"/>
  </node>
  <node id="-368" visible="true" lat="44.84903332" lon="-72.46450004">
    <tag k="addr:city" v="Westfield"/>
    <tag k="addr:housenumber" v="2366"/>
    <tag k="addr:street" v="Buck Hill Road"/>
    <tag k="addr:state" v="VT"/>
    <tag k="ref:vcgi:esiteid" v="281187"/>
  </node>
  <node id="-371" visible="true" lat="44.84498596" lon="-72.45639038">
    <tag k="addr:city" v="Westfield"/>
    <tag k="addr:housenumber" v="377"/>
    <tag k="addr:street" v="Trumpass Road"/>
    <tag k="addr:state" v="VT"/>
    <tag k="ref:vcgi:esiteid" v="281190"/>
  </node>
  <node id="-374" visible="true" lat="44.84454518" lon="-72.45421486">
    <tag k="addr:city" v="Westfield"/>
    <tag k="addr:housenumber" v="421"/>
    <tag k="addr:street" v="Trumpass Road"/>
    <tag k="addr:state" v="VT"/>
    <tag k="ref:vcgi:esiteid" v="281193"/>
  </node>
  <node id="-375" visible="true" lat="44.84417724" lon="-72.45533752">
    <tag k="addr:city" v="Westfield"/>
    <tag k="addr:housenumber" v="429"/>
    <tag k="addr:street" v="Trumpass Road"/>
    <tag k="addr:state" v="VT"/>
    <tag k="ref:vcgi:esiteid" v="281194"/>
  </node>
  <node id="-377" visible="true" lat="44.84355188" lon="-72.46358911">
    <tag k="addr:city" v="Westfield"/>
    <tag k="addr:housenumber" v="2704"/>
    <tag k="addr:street" v="Buck Hill Road"/>
    <tag k="addr:state" v="VT"/>
    <tag k="ref:vcgi:esiteid" v="281196"/>
  </node>
  <node id="-378" visible="true" lat="44.84322056" lon="-72.46350496">
    <tag k="addr:city" v="Westfield"/>
    <tag k="addr:housenumber" v="2728"/>
    <tag k="addr:street" v="Buck Hill Road"/>
    <tag k="addr:state" v="VT"/>
    <tag k="ref:vcgi:esiteid" v="281197"/>
  </node>
  <node id="-380" visible="true" lat="44.84281166" lon="-72.46433306">
    <tag k="addr:city" v="Westfield"/>
    <tag k="addr:housenumber" v="2780"/>
    <tag k="addr:street" v="Buck Hill Road"/>
    <tag k="addr:state" v="VT"/>
    <tag k="ref:vcgi:esiteid" v="281199"/>
  </node>
  <node id="-381" visible="true" lat="44.84199356" lon="-72.45845164">
    <tag k="addr:city" v="Westfield"/>
    <tag k="addr:housenumber" v="216"/>
    <tag k="addr:street" v="Field Side Lane"/>
    <tag k="addr:state" v="VT"/>
    <tag k="ref:vcgi:esiteid" v="281200"/>
  </node>
  <node id="-382" visible="true" lat="44.84091186" lon="-72.45263671">
    <tag k="addr:city" v="Westfield"/>
    <tag k="addr:housenumber" v="659"/>
    <tag k="addr:street" v="Trumpass Road"/>
    <tag k="addr:state" v="VT"/>
    <tag k="ref:vcgi:esiteid" v="281201"/>
  </node>
  <node id="-383" visible="true" lat="44.83999252" lon="-72.45835876">
    <tag k="addr:city" v="Westfield"/>
    <tag k="addr:housenumber" v="364"/>
    <tag k="addr:street" v="Field Side Lane"/>
    <tag k="addr:state" v="VT"/>
    <tag k="ref:vcgi:esiteid" v="281202"/>
  </node>
  <node id="-384" visible="true" lat="44.83984375" lon="-72.48718261">
    <tag k="addr:city" v="Westfield"/>
    <tag k="addr:housenumber" v="215"/>
    <tag k="addr:street" v="Monteith Road"/>
    <tag k="addr:state" v="VT"/>
    <tag k="ref:vcgi:esiteid" v="281203"/>
  </node>
  <node id="-386" visible="true" lat="44.83915635" lon="-72.48460231">
    <tag k="addr:city" v="Westfield"/>
    <tag k="addr:housenumber" v="3248"/>
    <tag k="addr:street" v="Balance Rock Road"/>
    <tag k="addr:state" v="VT"/>
    <tag k="ref:vcgi:esiteid" v="281205"/>
  </node>
  <node id="-387" visible="true" lat="44.84013171" lon="-72.46447088">
    <tag k="addr:city" v="Westfield"/>
    <tag k="addr:housenumber" v="3010"/>
    <tag k="addr:street" v="Buck Hill Road"/>
    <tag k="addr:state" v="VT"/>
    <tag k="ref:vcgi:esiteid" v="281206"/>
  </node>
  <node id="-389" visible="true" lat="44.83909031" lon="-72.46442917">
    <tag k="addr:city" v="Westfield"/>
    <tag k="addr:housenumber" v="3032"/>
    <tag k="addr:street" v="Buck Hill Road"/>
    <tag k="addr:state" v="VT"/>
    <tag k="ref:vcgi:esiteid" v="281208"/>
  </node>
  <node id="-390" visible="true" lat="44.83815383" lon="-72.49349975">
    <tag k="addr:city" v="Westfield"/>
    <tag k="addr:housenumber" v="560"/>
    <tag k="addr:street" v="Monteith Road"/>
    <tag k="addr:state" v="VT"/>
    <tag k="ref:vcgi:esiteid" v="281209"/>
  </node>
  <node id="-391" visible="true" lat="44.83770137" lon="-72.45455201">
    <tag k="addr:city" v="Westfield"/>
    <tag k="addr:housenumber" v="872"/>
    <tag k="addr:street" v="Trumpass Road"/>
    <tag k="addr:state" v="VT"/>
    <tag k="ref:vcgi:esiteid" v="281210"/>
  </node>
  <node id="-392" visible="true" lat="44.83765818" lon="-72.48322698">
    <tag k="addr:city" v="Westfield"/>
    <tag k="addr:housenumber" v="3355"/>
    <tag k="addr:street" v="Balance Rock Road"/>
    <tag k="addr:state" v="VT"/>
    <tag k="ref:vcgi:esiteid" v="281211"/>
  </node>
  <node id="-394" visible="true" lat="44.83732441" lon="-72.50353872">
    <tag k="addr:city" v="Westfield"/>
    <tag k="addr:housenumber" v="1006"/>
    <tag k="addr:street" v="Monteith Road"/>
    <tag k="addr:state" v="VT"/>
    <tag k="ref:vcgi:esiteid" v="281213"/>
  </node>
  <node id="-395" visible="true" lat="44.83711242" lon="-72.49163818">
    <tag k="addr:city" v="Westfield"/>
    <tag k="addr:housenumber" v="499"/>
    <tag k="addr:street" v="Monteith Road"/>
    <tag k="addr:state" v="VT"/>
    <tag k="ref:vcgi:esiteid" v="281214"/>
  </node>
  <node id="-396" visible="true" lat="44.83734428" lon="-72.46850891">
    <tag k="addr:city" v="Westfield"/>
    <tag k="addr:housenumber" v="3044"/>
    <tag k="addr:street" v="Buck Hill Road"/>
    <tag k="addr:state" v="VT"/>
    <tag k="ref:vcgi:esiteid" v="281215"/>
  </node>
  <node id="-398" visible="true" lat="44.8360982" lon="-72.50463298">
    <tag k="addr:city" v="Westfield"/>
    <tag k="addr:housenumber" v="1164"/>
    <tag k="addr:street" v="Monteith Road"/>
    <tag k="addr:state" v="VT"/>
    <tag k="ref:vcgi:esiteid" v="281217"/>
  </node>
  <node id="-399" visible="true" lat="44.8353256" lon="-72.4818631">
    <tag k="addr:city" v="Westfield"/>
    <tag k="addr:housenumber" v="3551"/>
    <tag k="addr:street" v="Balance Rock Road"/>
    <tag k="addr:state" v="VT"/>
    <tag k="ref:vcgi:esiteid" v="281218"/>
  </node>
  <node id="-401" visible="true" lat="44.91435243" lon="-72.42430778">
    <tag k="addr:city" v="Westfield"/>
    <tag k="addr:housenumber" v="945"/>
    <tag k="addr:street" v="Kennison Road"/>
    <tag k="addr:state" v="VT"/>
    <tag k="ref:vcgi:esiteid" v="281220"/>
  </node>
  <node id="-402" visible="true" lat="44.90654605" lon="-72.41235224">
    <tag k="addr:city" v="Westfield"/>
    <tag k="addr:housenumber" v="72"/>
    <tag k="addr:street" v="Kennison Road"/>
    <tag k="addr:state" v="VT"/>
    <tag k="ref:vcgi:esiteid" v="281221"/>
  </node>
  <node id="-404" visible="true" lat="44.87407023" lon="-72.45356486">
    <tag k="addr:city" v="Westfield"/>
    <tag k="addr:housenumber" v="481"/>
    <tag k="addr:street" v="Kettle Farm Road"/>
    <tag k="addr:state" v="VT"/>
    <tag k="ref:vcgi:esiteid" v="281223"/>
  </node>
  <node id="-405" visible="true" lat="44.86111401" lon="-72.4500803">
    <tag k="addr:city" v="Westfield"/>
    <tag k="addr:housenumber" v="1177"/>
    <tag k="addr:street" v="Buck Hill Road"/>
    <tag k="addr:state" v="VT"/>
    <tag k="ref:vcgi:esiteid" v="281224"/>
  </node>
  <node id="-407" visible="true" lat="44.89162129" lon="-72.43857308">
    <tag k="addr:city" v="Westfield"/>
    <tag k="addr:housenumber" v="282"/>
    <tag k="addr:street" v="Ballground Road"/>
    <tag k="addr:state" v="VT"/>
    <tag k="ref:vcgi:esiteid" v="281226"/>
  </node>
  <node id="-408" visible="true" lat="44.90107094" lon="-72.43135829">
    <tag k="addr:city" v="Westfield"/>
    <tag k="addr:housenumber" v="881"/>
    <tag k="addr:street" v="North Hill Road"/>
    <tag k="addr:state" v="VT"/>
    <tag k="ref:vcgi:esiteid" v="281227"/>
  </node>
  <node id="-410" visible="true" lat="44.87616682" lon="-72.41644334">
    <tag k="addr:city" v="Westfield"/>
    <tag k="addr:housenumber" v="1264"/>
    <tag k="addr:street" v="Loop Road"/>
    <tag k="addr:state" v="VT"/>
    <tag k="ref:vcgi:esiteid" v="281229"/>
  </node>
  <node id="-411" visible="true" lat="44.87901886" lon="-72.42372663">
    <tag k="addr:city" v="Westfield"/>
    <tag k="addr:housenumber" v="328"/>
    <tag k="addr:street" v="Cemetery Road"/>
    <tag k="addr:state" v="VT"/>
    <tag k="ref:vcgi:esiteid" v="281230"/>
  </node>
  <node id="-412" visible="true" lat="44.84778476" lon="-72.46368759">
    <tag k="addr:city" v="Westfield"/>
    <tag k="addr:housenumber" v="2446"/>
    <tag k="addr:street" v="Buck Hill Road"/>
    <tag k="addr:state" v="VT"/>
    <tag k="ref:vcgi:esiteid" v="281232"/>
  </node>
  <node id="-413" visible="true" lat="44.84034265" lon="-72.48307517">
    <tag k="addr:city" v="Westfield"/>
    <tag k="addr:housenumber" v="3149"/>
    <tag k="addr:street" v="Balance Rock Road"/>
    <tag k="addr:state" v="VT"/>
    <tag k="ref:vcgi:esiteid" v="281233"/>
  </node>
  <node id="-416" visible="true" lat="44.90270345" lon="-72.43157608">
    <tag k="addr:city" v="Westfield"/>
    <tag k="addr:housenumber" v="973"/>
    <tag k="addr:street" v="North Hill Road"/>
    <tag k="addr:state" v="VT"/>
    <tag k="ref:vcgi:esiteid" v="281236"/>
  </node>
  <node id="-417" visible="true" lat="44.86263343" lon="-72.41593386">
    <tag k="addr:city" v="Westfield"/>
    <tag k="addr:housenumber" v="2258"/>
    <tag k="addr:street" v="Loop Road"/>
    <tag k="addr:state" v="VT"/>
    <tag k="ref:vcgi:esiteid" v="281237"/>
  </node>
  <node id="-420" visible="true" lat="44.89221625" lon="-72.44338277">
    <tag k="addr:city" v="Westfield"/>
    <tag k="addr:housenumber" v="534"/>
    <tag k="addr:street" v="Ballground Road"/>
    <tag k="addr:state" v="VT"/>
    <tag k="ref:vcgi:esiteid" v="281240"/>
  </node>
  <node id="-421" visible="true" lat="44.84132388" lon="-72.46423248">
    <tag k="addr:city" v="Westfield"/>
    <tag k="addr:housenumber" v="2872"/>
    <tag k="addr:street" v="Buck Hill Road"/>
    <tag k="addr:state" v="VT"/>
    <tag k="ref:vcgi:esiteid" v="281241"/>
  </node>
  <node id="-422" visible="true" lat="44.86593878" lon="-72.45088469">
    <tag k="addr:city" v="Westfield"/>
    <tag k="addr:housenumber" v="719"/>
    <tag k="addr:street" v="Balance Rock Road"/>
    <tag k="addr:state" v="VT"/>
    <tag k="ref:vcgi:esiteid" v="281242"/>
  </node>
  <node id="-423" visible="true" lat="44.84950863" lon="-72.46172649">
    <tag k="addr:city" v="Westfield"/>
    <tag k="addr:housenumber" v="2286"/>
    <tag k="addr:street" v="Buck Hill Road"/>
    <tag k="addr:state" v="VT"/>
    <tag k="ref:vcgi:esiteid" v="281243"/>
  </node>
  <node id="-426" visible="true" lat="44.88034977" lon="-72.41669253">
    <tag k="addr:city" v="Westfield"/>
    <tag k="addr:housenumber" v="960"/>
    <tag k="addr:street" v="Loop Road"/>
    <tag k="addr:state" v="VT"/>
    <tag k="ref:vcgi:esiteid" v="281246"/>
  </node>
  <node id="-428" visible="true" lat="44.89538696" lon="-72.43106686">
    <tag k="addr:city" v="Westfield"/>
    <tag k="addr:housenumber" v="474"/>
    <tag k="addr:street" v="North Hill Road"/>
    <tag k="addr:state" v="VT"/>
    <tag k="ref:vcgi:esiteid" v="281248"/>
  </node>
  <node id="-432" visible="true" lat="44.90132294" lon="-72.42973009">
    <tag k="addr:city" v="Westfield"/>
    <tag k="addr:housenumber" v="850"/>
    <tag k="addr:street" v="North Hill Road"/>
    <tag k="addr:state" v="VT"/>
    <tag k="ref:vcgi:esiteid" v="281252"/>
  </node>
  <node id="-433" visible="true" lat="44.91210559" lon="-72.42422777">
    <tag k="addr:city" v="Westfield"/>
    <tag k="addr:housenumber" v="815"/>
    <tag k="addr:street" v="Kennison Road"/>
    <tag k="addr:state" v="VT"/>
    <tag k="ref:vcgi:esiteid" v="281253"/>
  </node>
  <node id="-435" visible="true" lat="44.85792068" lon="-72.40704004">
    <tag k="addr:city" v="Westfield"/>
    <tag k="addr:housenumber" v="2770"/>
    <tag k="addr:street" v="Loop Road"/>
    <tag k="addr:state" v="VT"/>
    <tag k="ref:vcgi:esiteid" v="311139"/>
  </node>
  <node id="-436" visible="true" lat="44.89675423" lon="-72.5277436">
    <tag k="addr:city" v="Westfield"/>
    <tag k="addr:housenumber" v="282"/>
    <tag k="addr:street" v="Enzian Drive"/>
    <tag k="addr:state" v="VT"/>
    <tag k="ref:vcgi:esiteid" v="316893"/>
  </node>
  <node id="-437" visible="true" lat="44.88979546" lon="-72.53612634">
    <tag k="addr:city" v="Westfield"/>
    <tag k="addr:housenumber" v="113"/>
    <tag k="addr:street" v="Waldhof Drive"/>
    <tag k="addr:state" v="VT"/>
    <tag k="ref:vcgi:esiteid" v="318047"/>
  </node>
  <node id="-442" visible="true" lat="44.89141651" lon="-72.43702343">
    <tag k="addr:city" v="Westfield"/>
    <tag k="addr:housenumber" v="212"/>
    <tag k="addr:street" v="Ballground Road"/>
    <tag k="addr:state" v="VT"/>
    <tag k="ref:vcgi:esiteid" v="326305"/>
  </node>
  <node id="-444" visible="true" lat="44.86877948" lon="-72.45849698">
    <tag k="addr:city" v="Westfield"/>
    <tag k="addr:housenumber" v="421"/>
    <tag k="addr:street" v="Corrow Basin Road"/>
    <tag k="addr:state" v="VT"/>
    <tag k="ref:vcgi:esiteid" v="326574"/>
  </node>
  <node id="-446" visible="true" lat="44.89187024" lon="-72.44150298">
    <tag k="addr:city" v="Westfield"/>
    <tag k="addr:housenumber" v="400"/>
    <tag k="addr:street" v="Ballground Road"/>
    <tag k="addr:state" v="VT"/>
    <tag k="ref:vcgi:esiteid" v="326576"/>
  </node>
  <node id="-447" visible="true" lat="44.85044237" lon="-72.46104877">
    <tag k="addr:city" v="Westfield"/>
    <tag k="addr:housenumber" v="2258"/>
    <tag k="addr:street" v="Buck Hill Road"/>
    <tag k="addr:state" v="VT"/>
    <tag k="ref:vcgi:esiteid" v="332753"/>
  </node>
  <node id="-448" visible="true" lat="44.87920077" lon="-72.42872275">
    <tag k="addr:city" v="Westfield"/>
    <tag k="addr:housenumber" v="66"/>
    <tag k="addr:street" v="Cemetery Road"/>
    <tag k="addr:state" v="VT"/>
    <tag k="ref:vcgi:esiteid" v="335757"/>
  </node>
  <node id="-456" visible="true" lat="44.8644463" lon="-72.45224273">
    <tag k="addr:city" v="Westfield"/>
    <tag k="addr:housenumber" v="845"/>
    <tag k="addr:street" v="Balance Rock Road"/>
    <tag k="addr:state" v="VT"/>
    <tag k="ref:vcgi:esiteid" v="341361"/>
  </node>
  <node id="-457" visible="true" lat="44.89263561" lon="-72.4477407">
    <tag k="addr:city" v="Westfield"/>
    <tag k="addr:housenumber" v="748"/>
    <tag k="addr:street" v="Ballground Road"/>
    <tag k="addr:state" v="VT"/>
    <tag k="ref:vcgi:esiteid" v="342414"/>
  </node>
  <node id="-459" visible="true" lat="44.89286413" lon="-72.46025482">
    <tag k="addr:city" v="Westfield"/>
    <tag k="addr:housenumber" v="1383"/>
    <tag k="addr:street" v="Ballground Road"/>
    <tag k="addr:state" v="VT"/>
    <tag k="ref:vcgi:esiteid" v="343427"/>
  </node>
  <node id="-461" visible="true" lat="44.88949383" lon="-72.45367069">
    <tag k="addr:city" v="Westfield"/>
    <tag k="addr:housenumber" v="989"/>
    <tag k="addr:street" v="Ballground Road"/>
    <tag k="addr:state" v="VT"/>
    <tag k="ref:vcgi:esiteid" v="343429"/>
  </node>
  <node id="-462" visible="true" lat="44.85069436" lon="-72.44249313">
    <tag k="addr:city" v="Westfield"/>
    <tag k="addr:housenumber" v="560"/>
    <tag k="addr:street" v="Sniderbrook Road"/>
    <tag k="addr:state" v="VT"/>
    <tag k="ref:vcgi:esiteid" v="343430"/>
  </node>
  <node id="-463" visible="true" lat="44.85049097" lon="-72.44877339">
    <tag k="addr:city" v="Westfield"/>
    <tag k="addr:housenumber" v="923"/>
    <tag k="addr:street" v="Sniderbrook Road"/>
    <tag k="addr:state" v="VT"/>
    <tag k="ref:vcgi:esiteid" v="343431"/>
  </node>
  <node id="-468" visible="true" lat="44.84960545" lon="-72.45898636">
    <tag k="addr:city" v="Westfield"/>
    <tag k="addr:housenumber" v="2227"/>
    <tag k="addr:street" v="Buck Hill Road"/>
    <tag k="addr:state" v="VT"/>
    <tag k="ref:vcgi:esiteid" v="345586"/>
  </node>
  <node id="-471" visible="true" lat="44.86674623" lon="-72.44264315">
    <tag k="addr:city" v="Westfield"/>
    <tag k="addr:housenumber" v="709"/>
    <tag k="addr:street" v="Buck Hill Road"/>
    <tag k="addr:state" v="VT"/>
    <tag k="ref:vcgi:esiteid" v="365164"/>
  </node>
  <node id="-472" visible="true" lat="44.87913077" lon="-72.42660748">
    <tag k="addr:city" v="Westfield"/>
    <tag k="addr:housenumber" v="160"/>
    <tag k="addr:street" v="Cemetery Road"/>
    <tag k="addr:state" v="VT"/>
    <tag k="ref:vcgi:esiteid" v="446627"/>
  </node>
  <node id="-474" visible="true" lat="44.8846678" lon="-72.41385449">
    <tag k="addr:city" v="Westfield"/>
    <tag k="addr:housenumber" v="715"/>
    <tag k="addr:street" v="Loop Road"/>
    <tag k="addr:state" v="VT"/>
    <tag k="ref:vcgi:esiteid" v="447117"/>
  </node>
  <node id="-477" visible="true" lat="44.86865835" lon="-72.44207666">
    <tag k="addr:city" v="Westfield"/>
    <tag k="addr:housenumber" v="123"/>
    <tag k="addr:street" v="Balance Rock Road"/>
    <tag k="addr:state" v="VT"/>
    <tag k="ref:vcgi:esiteid" v="448309"/>
  </node>
  <node id="-478" visible="true" lat="44.92609217" lon="-72.42641614">
    <tag k="addr:city" v="Westfield"/>
    <tag k="addr:housenumber" v="1990"/>
    <tag k="addr:street" v="Kennison Road"/>
    <tag k="addr:state" v="VT"/>
    <tag k="ref:vcgi:esiteid" v="448603"/>
  </node>
  <node id="-479" visible="true" lat="44.89153582" lon="-72.43952178">
    <tag k="addr:city" v="Westfield"/>
    <tag k="addr:housenumber" v="318"/>
    <tag k="addr:street" v="Ballground Road"/>
    <tag k="addr:state" v="VT"/>
    <tag k="ref:vcgi:esiteid" v="448972"/>
  </node>
  <node id="-480" visible="true" lat="44.89760151" lon="-72.42883236">
    <tag k="addr:city" v="Westfield"/>
    <tag k="addr:housenumber" v="632"/>
    <tag k="addr:street" v="North Hill Road"/>
    <tag k="addr:state" v="VT"/>
    <tag k="ref:vcgi:esiteid" v="451450"/>
  </node>
  <node id="-481" visible="true" lat="44.88496381" lon="-72.41404929">
    <tag k="addr:city" v="Westfield"/>
    <tag k="addr:housenumber" v="701"/>
    <tag k="addr:street" v="Loop Road"/>
    <tag k="addr:state" v="VT"/>
    <tag k="ref:vcgi:esiteid" v="452838"/>
  </node>
  <node id="-482" visible="true" lat="44.8939133" lon="-72.45820766">
    <tag k="addr:city" v="Westfield"/>
    <tag k="addr:housenumber" v="1328"/>
    <tag k="addr:street" v="Ballground Road"/>
    <tag k="addr:state" v="VT"/>
    <tag k="ref:vcgi:esiteid" v="453021"/>
  </node>
  <node id="-486" visible="true" lat="44.92504305" lon="-72.43309978">
    <tag k="addr:city" v="Westfield"/>
    <tag k="addr:housenumber" v="2583"/>
    <tag k="addr:street" v="North Hill Road"/>
    <tag k="addr:state" v="VT"/>
    <tag k="ref:vcgi:esiteid" v="611594"/>
  </node>
  <node id="-487" visible="true" lat="44.9195964" lon="-72.43016878">
    <tag k="addr:city" v="Westfield"/>
    <tag k="addr:housenumber" v="2208"/>
    <tag k="addr:street" v="North Hill Road"/>
    <tag k="addr:state" v="VT"/>
    <tag k="ref:vcgi:esiteid" v="612732"/>
  </node>
  <node id="-490" visible="true" lat="44.89653361" lon="-72.52870913">
    <tag k="addr:city" v="Westfield"/>
    <tag k="addr:housenumber" v="279"/>
    <tag k="addr:street" v="Enzian Drive"/>
    <tag k="addr:state" v="VT"/>
    <tag k="ref:vcgi:esiteid" v="612737"/>
  </node>
  <node id="-491" visible="true" lat="44.897886" lon="-72.52866291">
    <tag k="addr:city" v="Westfield"/>
    <tag k="addr:housenumber" v="378"/>
    <tag k="addr:street" v="Enzian Drive"/>
    <tag k="addr:state" v="VT"/>
    <tag k="ref:vcgi:esiteid" v="612738"/>
  </node>
  <node id="-500" visible="true" lat="44.84666025" lon="-72.4616244">
    <tag k="addr:city" v="Westfield"/>
    <tag k="addr:housenumber" v="92"/>
    <tag k="addr:street" v="Trumpass Road"/>
    <tag k="addr:state" v="VT"/>
    <tag k="ref:vcgi:esiteid" v="612756"/>
  </node>
  <node id="-543" visible="true" lat="44.86952222" lon="-72.43978651">
    <tag k="addr:city" v="Westfield"/>
    <tag k="addr:housenumber" v="399"/>
    <tag k="addr:street" v="Buck Hill Road"/>
    <tag k="addr:state" v="VT"/>
    <tag k="ref:vcgi:esiteid" v="900280"/>
  </node>
</osm>
