<?xml version="1.0" encoding="UTF-8"?>
<osm version="0.6" generator="JOSM">
  <node id="-101" visible="true" lat="43.52617333" lon="-72.46182671">
    <tag k="addr:housenumber" v="347"/>
    <tag k="addr:street" v="Bronson Road"/>
    <tag k="addr:state" v="VT"/>
    <tag k="ref:vcgi:esiteid" v="126378"/>
  </node>
  <node id="-106" visible="true" lat="43.52912902" lon="-72.50322723">
    <tag k="addr:housenumber" v="286"/>
    <tag k="addr:street" v="Dugdale Road"/>
    <tag k="addr:state" v="VT"/>
    <tag k="ref:vcgi:esiteid" v="280181"/>
  </node>
  <node id="-109" visible="true" lat="43.52670288" lon="-72.50196075">
    <tag k="addr:housenumber" v="118"/>
    <tag k="addr:street" v="Dugdale Road"/>
    <tag k="addr:state" v="VT"/>
    <tag k="ref:vcgi:esiteid" v="280184"/>
  </node>
  <node id="-110" visible="true" lat="43.52667999" lon="-72.46543884">
    <tag k="addr:housenumber" v="149"/>
    <tag k="addr:street" v="Bronson Road"/>
    <tag k="addr:state" v="VT"/>
    <tag k="ref:vcgi:esiteid" v="280185"/>
  </node>
  <node id="-112" visible="true" lat="43.52534164" lon="-72.49782174">
    <tag k="addr:housenumber" v="71"/>
    <tag k="addr:street" v="Kings Highway"/>
    <tag k="addr:state" v="VT"/>
    <tag k="ref:vcgi:esiteid" v="280187"/>
  </node>
  <node id="-113" visible="true" lat="43.52500477" lon="-72.49849778">
    <tag k="addr:housenumber" v="69"/>
    <tag k="addr:street" v="Kings Highway"/>
    <tag k="addr:state" v="VT"/>
    <tag k="ref:vcgi:esiteid" v="280188"/>
  </node>
  <node id="-114" visible="true" lat="43.52461145" lon="-72.45720674">
    <tag k="addr:housenumber" v="4541"/>
    <tag k="addr:street" v="Brownsville Hartland Road"/>
    <tag k="addr:state" v="VT"/>
    <tag k="ref:vcgi:esiteid" v="280189"/>
  </node>
  <node id="-115" visible="true" lat="43.52426147" lon="-72.52002716">
    <tag k="addr:housenumber" v="5106"/>
    <tag k="addr:street" v="Rush Meadow Road"/>
    <tag k="addr:state" v="VT"/>
    <tag k="ref:vcgi:esiteid" v="280190"/>
  </node>
  <node id="-116" visible="true" lat="43.52399353" lon="-72.45670646">
    <tag k="addr:housenumber" v="4502"/>
    <tag k="addr:street" v="Brownsville Hartland Road"/>
    <tag k="addr:state" v="VT"/>
    <tag k="ref:vcgi:esiteid" v="280191"/>
  </node>
  <node id="-117" visible="true" lat="43.52393522" lon="-72.46855922">
    <tag k="addr:housenumber" v="656"/>
    <tag k="addr:street" v="Morrison Road"/>
    <tag k="addr:state" v="VT"/>
    <tag k="ref:vcgi:esiteid" v="280192"/>
  </node>
  <node id="-118" visible="true" lat="43.52342605" lon="-72.46847534">
    <tag k="addr:housenumber" v="624"/>
    <tag k="addr:street" v="Morrison Road"/>
    <tag k="addr:state" v="VT"/>
    <tag k="ref:vcgi:esiteid" v="280193"/>
  </node>
  <node id="-119" visible="true" lat="43.52260208" lon="-72.51597595">
    <tag k="addr:housenumber" v="376"/>
    <tag k="addr:street" v="Duling Road"/>
    <tag k="addr:state" v="VT"/>
    <tag k="ref:vcgi:esiteid" v="280194"/>
  </node>
  <node id="-120" visible="true" lat="43.52242758" lon="-72.46890578">
    <tag k="addr:housenumber" v="567"/>
    <tag k="addr:street" v="Morrison Road"/>
    <tag k="addr:state" v="VT"/>
    <tag k="ref:vcgi:esiteid" v="280195"/>
  </node>
  <node id="-121" visible="true" lat="43.52245712" lon="-72.49492645">
    <tag k="addr:housenumber" v="268"/>
    <tag k="addr:street" v="Kings Highway"/>
    <tag k="addr:state" v="VT"/>
    <tag k="ref:vcgi:esiteid" v="280196"/>
  </node>
  <node id="-122" visible="true" lat="43.52240238" lon="-72.52234167">
    <tag k="addr:housenumber" v="43"/>
    <tag k="addr:street" v="Duling Road"/>
    <tag k="addr:state" v="VT"/>
    <tag k="ref:vcgi:esiteid" v="280197"/>
  </node>
  <node id="-123" visible="true" lat="43.52227783" lon="-72.4706726">
    <tag k="addr:housenumber" v="515"/>
    <tag k="addr:street" v="Morrison Road"/>
    <tag k="addr:state" v="VT"/>
    <tag k="ref:vcgi:esiteid" v="280198"/>
  </node>
  <node id="-124" visible="true" lat="43.5214474" lon="-72.52362112">
    <tag k="addr:housenumber" v="4777"/>
    <tag k="addr:street" v="Rush Meadow Road"/>
    <tag k="addr:state" v="VT"/>
    <tag k="ref:vcgi:esiteid" v="280199"/>
  </node>
  <node id="-126" visible="true" lat="43.5202294" lon="-72.49225071">
    <tag k="addr:housenumber" v="1768"/>
    <tag k="addr:street" v="Blood Hill Road"/>
    <tag k="addr:state" v="VT"/>
    <tag k="ref:vcgi:esiteid" v="280201"/>
  </node>
  <node id="-127" visible="true" lat="43.51911341" lon="-72.46661804">
    <tag k="addr:housenumber" v="287"/>
    <tag k="addr:street" v="Morrison Road"/>
    <tag k="addr:state" v="VT"/>
    <tag k="ref:vcgi:esiteid" v="280202"/>
  </node>
  <node id="-128" visible="true" lat="43.51890122" lon="-72.49212908">
    <tag k="addr:housenumber" v="1662"/>
    <tag k="addr:street" v="Blood Hill Road"/>
    <tag k="addr:state" v="VT"/>
    <tag k="ref:vcgi:esiteid" v="280203"/>
  </node>
  <node id="-129" visible="true" lat="43.51896859" lon="-72.45414171">
    <tag k="addr:housenumber" v="211"/>
    <tag k="addr:street" v="Farm Road"/>
    <tag k="addr:state" v="VT"/>
    <tag k="ref:vcgi:esiteid" v="280204"/>
  </node>
  <node id="-130" visible="true" lat="43.51849365" lon="-72.50086212">
    <tag k="addr:housenumber" v="1851"/>
    <tag k="addr:street" v="Silver Hill Road"/>
    <tag k="addr:state" v="VT"/>
    <tag k="ref:vcgi:esiteid" v="280205"/>
  </node>
  <node id="-131" visible="true" lat="43.51852193" lon="-72.4553898">
    <tag k="addr:housenumber" v="147"/>
    <tag k="addr:street" v="Farm Road"/>
    <tag k="addr:state" v="VT"/>
    <tag k="ref:vcgi:esiteid" v="280206"/>
  </node>
  <node id="-132" visible="true" lat="43.51841924" lon="-72.45098067">
    <tag k="addr:housenumber" v="363"/>
    <tag k="addr:street" v="Farm Road"/>
    <tag k="addr:state" v="VT"/>
    <tag k="ref:vcgi:esiteid" v="280207"/>
  </node>
  <node id="-133" visible="true" lat="43.51836776" lon="-72.45220184">
    <tag k="addr:housenumber" v="305"/>
    <tag k="addr:street" v="Farm Road"/>
    <tag k="addr:state" v="VT"/>
    <tag k="ref:vcgi:esiteid" v="280208"/>
  </node>
  <node id="-134" visible="true" lat="43.51811981" lon="-72.4592514">
    <tag k="addr:housenumber" v="4049"/>
    <tag k="addr:street" v="Brownsville Hartland Road"/>
    <tag k="addr:state" v="VT"/>
    <tag k="ref:vcgi:esiteid" v="280209"/>
  </node>
  <node id="-135" visible="true" lat="43.51586353" lon="-72.45235489">
    <tag k="addr:housenumber" v="320"/>
    <tag k="addr:street" v="Farm Road"/>
    <tag k="addr:state" v="VT"/>
    <tag k="ref:vcgi:esiteid" v="280210"/>
  </node>
  <node id="-136" visible="true" lat="43.51746749" lon="-72.48928833">
    <tag k="addr:housenumber" v="1376"/>
    <tag k="addr:street" v="Blood Hill Road"/>
    <tag k="addr:state" v="VT"/>
    <tag k="ref:vcgi:esiteid" v="280211"/>
  </node>
  <node id="-137" visible="true" lat="43.51745605" lon="-72.49227905">
    <tag k="addr:housenumber" v="1610"/>
    <tag k="addr:street" v="Blood Hill Road"/>
    <tag k="addr:state" v="VT"/>
    <tag k="ref:vcgi:esiteid" v="280212"/>
  </node>
  <node id="-138" visible="true" lat="43.51704625" lon="-72.49276128">
    <tag k="addr:housenumber" v="1525"/>
    <tag k="addr:street" v="Blood Hill Road"/>
    <tag k="addr:state" v="VT"/>
    <tag k="ref:vcgi:esiteid" v="280213"/>
  </node>
  <node id="-139" visible="true" lat="43.516819" lon="-72.48934936">
    <tag k="addr:housenumber" v="1373"/>
    <tag k="addr:street" v="Blood Hill Road"/>
    <tag k="addr:state" v="VT"/>
    <tag k="ref:vcgi:esiteid" v="280214"/>
  </node>
  <node id="-140" visible="true" lat="43.51624271" lon="-72.51683393">
    <tag k="addr:housenumber" v="4112"/>
    <tag k="addr:street" v="Rush Meadow Road"/>
    <tag k="addr:state" v="VT"/>
    <tag k="ref:vcgi:esiteid" v="280215"/>
  </node>
  <node id="-141" visible="true" lat="43.51573944" lon="-72.51687622">
    <tag k="addr:housenumber" v="4110"/>
    <tag k="addr:street" v="Rush Meadow Road"/>
    <tag k="addr:state" v="VT"/>
    <tag k="ref:vcgi:esiteid" v="280216"/>
  </node>
  <node id="-142" visible="true" lat="43.51533508" lon="-72.52114105">
    <tag k="addr:housenumber" v="4281"/>
    <tag k="addr:street" v="Rush Meadow Road"/>
    <tag k="addr:state" v="VT"/>
    <tag k="ref:vcgi:esiteid" v="280217"/>
  </node>
  <node id="-143" visible="true" lat="43.51495925" lon="-72.50222344">
    <tag k="addr:housenumber" v="957"/>
    <tag k="addr:street" v="Bryant Road"/>
    <tag k="addr:state" v="VT"/>
    <tag k="ref:vcgi:esiteid" v="280218"/>
  </node>
  <node id="-144" visible="true" lat="43.51427352" lon="-72.46537871">
    <tag k="addr:housenumber" v="3596"/>
    <tag k="addr:street" v="Brownsville Hartland Road"/>
    <tag k="addr:state" v="VT"/>
    <tag k="ref:vcgi:esiteid" v="280219"/>
  </node>
  <node id="-146" visible="true" lat="43.51324463" lon="-72.46684265">
    <tag k="addr:housenumber" v="3538"/>
    <tag k="addr:street" v="Brownsville Hartland Road"/>
    <tag k="addr:state" v="VT"/>
    <tag k="ref:vcgi:esiteid" v="280221"/>
  </node>
  <node id="-148" visible="true" lat="43.51324367" lon="-72.46967266">
    <tag k="addr:housenumber" v="3431"/>
    <tag k="addr:street" v="Brownsville Hartland Road"/>
    <tag k="addr:state" v="VT"/>
    <tag k="ref:vcgi:esiteid" v="280223"/>
  </node>
  <node id="-149" visible="true" lat="43.51288223" lon="-72.50421142">
    <tag k="addr:housenumber" v="673"/>
    <tag k="addr:street" v="Bryant Road"/>
    <tag k="addr:state" v="VT"/>
    <tag k="ref:vcgi:esiteid" v="280224"/>
  </node>
  <node id="-153" visible="true" lat="43.51200866" lon="-72.47031402">
    <tag k="addr:housenumber" v="3328"/>
    <tag k="addr:street" v="Brownsville Hartland Road"/>
    <tag k="addr:state" v="VT"/>
    <tag k="ref:vcgi:esiteid" v="280228"/>
  </node>
  <node id="-157" visible="true" lat="43.51146394" lon="-72.47336876">
    <tag k="addr:housenumber" v="90"/>
    <tag k="addr:street" v="Cross Road"/>
    <tag k="addr:state" v="VT"/>
    <tag k="ref:vcgi:esiteid" v="280232"/>
  </node>
  <node id="-162" visible="true" lat="43.51015472" lon="-72.47293853">
    <tag k="addr:housenumber" v="27"/>
    <tag k="addr:street" v="Cross Road"/>
    <tag k="addr:state" v="VT"/>
    <tag k="ref:vcgi:esiteid" v="280238"/>
  </node>
  <node id="-166" visible="true" lat="43.51018636" lon="-72.51083043">
    <tag k="addr:housenumber" v="337"/>
    <tag k="addr:street" v="Bryant Road"/>
    <tag k="addr:state" v="VT"/>
    <tag k="ref:vcgi:esiteid" v="280242"/>
  </node>
  <node id="-170" visible="true" lat="43.50912857" lon="-72.47625732">
    <tag k="addr:housenumber" v="209"/>
    <tag k="addr:street" v="Cross Road"/>
    <tag k="addr:state" v="VT"/>
    <tag k="ref:vcgi:esiteid" v="280246"/>
  </node>
  <node id="-173" visible="true" lat="43.50889819" lon="-72.45404103">
    <tag k="addr:housenumber" v="299"/>
    <tag k="addr:street" v="Weeden Hill Road"/>
    <tag k="addr:state" v="VT"/>
    <tag k="ref:vcgi:esiteid" v="280249"/>
  </node>
  <node id="-174" visible="true" lat="43.50848388" lon="-72.45223236">
    <tag k="addr:housenumber" v="401"/>
    <tag k="addr:street" v="Weeden Hill Road"/>
    <tag k="addr:state" v="VT"/>
    <tag k="ref:vcgi:esiteid" v="280250"/>
  </node>
  <node id="-175" visible="true" lat="43.50854945" lon="-72.4734233">
    <tag k="addr:housenumber" v="3052"/>
    <tag k="addr:street" v="Brownsville Hartland Road"/>
    <tag k="addr:state" v="VT"/>
    <tag k="ref:vcgi:esiteid" v="280251"/>
  </node>
  <node id="-178" visible="true" lat="43.50788087" lon="-72.47443788">
    <tag k="addr:housenumber" v="2983"/>
    <tag k="addr:street" v="Brownsville Hartland Road"/>
    <tag k="addr:state" v="VT"/>
    <tag k="ref:vcgi:esiteid" v="280254"/>
  </node>
  <node id="-181" visible="true" lat="43.50763702" lon="-72.47316741">
    <tag k="addr:housenumber" v="37"/>
    <tag k="addr:street" v="Yodel Valley Road"/>
    <tag k="addr:state" v="VT"/>
    <tag k="ref:vcgi:esiteid" v="280257"/>
  </node>
  <node id="-182" visible="true" lat="43.50723649" lon="-72.47294734">
    <tag k="addr:housenumber" v="46"/>
    <tag k="addr:street" v="Yodel Valley Road"/>
    <tag k="addr:state" v="VT"/>
    <tag k="ref:vcgi:esiteid" v="280258"/>
  </node>
  <node id="-185" visible="true" lat="43.50671768" lon="-72.47337341">
    <tag k="addr:housenumber" v="2934"/>
    <tag k="addr:street" v="Brownsville Hartland Road"/>
    <tag k="addr:state" v="VT"/>
    <tag k="ref:vcgi:esiteid" v="280261"/>
  </node>
  <node id="-187" visible="true" lat="43.5065422" lon="-72.49117279">
    <tag k="addr:housenumber" v="853"/>
    <tag k="addr:street" v="Silver Hill Road"/>
    <tag k="addr:state" v="VT"/>
    <tag k="ref:vcgi:esiteid" v="280263"/>
  </node>
  <node id="-189" visible="true" lat="43.50631713" lon="-72.47329711">
    <tag k="addr:housenumber" v="2894"/>
    <tag k="addr:street" v="Brownsville Hartland Road"/>
    <tag k="addr:state" v="VT"/>
    <tag k="ref:vcgi:esiteid" v="280265"/>
  </node>
  <node id="-190" visible="true" lat="43.50581741" lon="-72.49026489">
    <tag k="addr:housenumber" v="781"/>
    <tag k="addr:street" v="Silver Hill Road"/>
    <tag k="addr:state" v="VT"/>
    <tag k="ref:vcgi:esiteid" v="280266"/>
  </node>
  <node id="-194" visible="true" lat="43.50564372" lon="-72.49307576">
    <tag k="addr:housenumber" v="251"/>
    <tag k="addr:street" v="Cowshed Trail"/>
    <tag k="addr:state" v="VT"/>
    <tag k="ref:vcgi:esiteid" v="280270"/>
  </node>
  <node id="-197" visible="true" lat="43.50555972" lon="-72.47522177">
    <tag k="addr:housenumber" v="2775"/>
    <tag k="addr:street" v="Brownsville Hartland Road"/>
    <tag k="addr:state" v="VT"/>
    <tag k="ref:vcgi:esiteid" v="280273"/>
  </node>
  <node id="-200" visible="true" lat="43.50476455" lon="-72.47546386">
    <tag k="addr:housenumber" v="2749"/>
    <tag k="addr:street" v="Brownsville Hartland Road"/>
    <tag k="addr:state" v="VT"/>
    <tag k="ref:vcgi:esiteid" v="280276"/>
  </node>
  <node id="-206" visible="true" lat="43.50305938" lon="-72.47638702">
    <tag k="addr:housenumber" v="2625"/>
    <tag k="addr:street" v="Brownsville Hartland Road"/>
    <tag k="addr:state" v="VT"/>
    <tag k="ref:vcgi:esiteid" v="280282"/>
  </node>
  <node id="-209" visible="true" lat="43.50247955" lon="-72.47660064">
    <tag k="addr:housenumber" v="2607"/>
    <tag k="addr:street" v="Brownsville Hartland Road"/>
    <tag k="addr:state" v="VT"/>
    <tag k="ref:vcgi:esiteid" v="280286"/>
  </node>
  <node id="-212" visible="true" lat="43.50093078" lon="-72.47847747">
    <tag k="addr:housenumber" v="2395"/>
    <tag k="addr:street" v="Brownsville Hartland Road"/>
    <tag k="addr:state" v="VT"/>
    <tag k="ref:vcgi:esiteid" v="280289"/>
  </node>
  <node id="-215" visible="true" lat="43.49997329" lon="-72.47961425">
    <tag k="addr:housenumber" v="2343"/>
    <tag k="addr:street" v="Brownsville Hartland Road"/>
    <tag k="addr:state" v="VT"/>
    <tag k="ref:vcgi:esiteid" v="280292"/>
  </node>
  <node id="-218" visible="true" lat="43.49866867" lon="-72.48011016">
    <tag k="addr:housenumber" v="2253"/>
    <tag k="addr:street" v="Brownsville Hartland Road"/>
    <tag k="addr:state" v="VT"/>
    <tag k="ref:vcgi:esiteid" v="280295"/>
  </node>
  <node id="-221" visible="true" lat="43.49801635" lon="-72.4803009">
    <tag k="addr:housenumber" v="15"/>
    <tag k="addr:street" v="Silver Hill Road"/>
    <tag k="addr:state" v="VT"/>
    <tag k="ref:vcgi:esiteid" v="280298"/>
  </node>
  <node id="-227" visible="true" lat="43.49692153" lon="-72.47983551">
    <tag k="addr:housenumber" v="2134"/>
    <tag k="addr:street" v="Brownsville Hartland Road"/>
    <tag k="addr:state" v="VT"/>
    <tag k="ref:vcgi:esiteid" v="280304"/>
  </node>
  <node id="-234" visible="true" lat="43.4955101" lon="-72.48625183">
    <tag k="addr:housenumber" v="371"/>
    <tag k="addr:street" v="Knob Hill Road"/>
    <tag k="addr:state" v="VT"/>
    <tag k="ref:vcgi:esiteid" v="280311"/>
  </node>
  <node id="-260" visible="true" lat="43.49123763" lon="-72.48717498">
    <tag k="addr:housenumber" v="663"/>
    <tag k="addr:street" v="South Knob Hill Road"/>
    <tag k="addr:state" v="VT"/>
    <tag k="ref:vcgi:esiteid" v="280339"/>
  </node>
  <node id="-270" visible="true" lat="43.4895817" lon="-72.49624842">
    <tag k="addr:housenumber" v="1360"/>
    <tag k="addr:street" v="Sheddsville Road"/>
    <tag k="addr:state" v="VT"/>
    <tag k="ref:vcgi:esiteid" v="280349"/>
  </node>
  <node id="-272" visible="true" lat="43.48954488" lon="-72.49379408">
    <tag k="addr:housenumber" v="974"/>
    <tag k="addr:street" v="Cemetery Road"/>
    <tag k="addr:state" v="VT"/>
    <tag k="ref:vcgi:esiteid" v="280351"/>
  </node>
  <node id="-273" visible="true" lat="43.48947477" lon="-72.49835968">
    <tag k="addr:housenumber" v="1398"/>
    <tag k="addr:street" v="Banister Road"/>
    <tag k="addr:state" v="VT"/>
    <tag k="ref:vcgi:esiteid" v="280352"/>
  </node>
  <node id="-276" visible="true" lat="43.48902329" lon="-72.49707352">
    <tag k="addr:housenumber" v="1393"/>
    <tag k="addr:street" v="Sheddsville Road"/>
    <tag k="addr:state" v="VT"/>
    <tag k="ref:vcgi:esiteid" v="280355"/>
  </node>
  <node id="-278" visible="true" lat="43.48888199" lon="-72.49207745">
    <tag k="addr:housenumber" v="873"/>
    <tag k="addr:street" v="Cemetery Road"/>
    <tag k="addr:state" v="VT"/>
    <tag k="ref:vcgi:esiteid" v="280357"/>
  </node>
  <node id="-282" visible="true" lat="43.48799133" lon="-72.48603057">
    <tag k="addr:housenumber" v="538"/>
    <tag k="addr:street" v="Cemetery Road"/>
    <tag k="addr:state" v="VT"/>
    <tag k="ref:vcgi:esiteid" v="280361"/>
  </node>
  <node id="-284" visible="true" lat="43.4873619" lon="-72.49330902">
    <tag k="addr:housenumber" v="1140"/>
    <tag k="addr:street" v="Sheddsville Road"/>
    <tag k="addr:state" v="VT"/>
    <tag k="ref:vcgi:esiteid" v="280363"/>
  </node>
  <node id="-285" visible="true" lat="43.48720931" lon="-72.48185729">
    <tag k="addr:housenumber" v="344"/>
    <tag k="addr:street" v="Cemetery Road"/>
    <tag k="addr:state" v="VT"/>
    <tag k="ref:vcgi:esiteid" v="280364"/>
  </node>
  <node id="-287" visible="true" lat="43.48690032" lon="-72.48112487">
    <tag k="addr:housenumber" v="304"/>
    <tag k="addr:street" v="Cemetery Road"/>
    <tag k="addr:state" v="VT"/>
    <tag k="ref:vcgi:esiteid" v="280366"/>
  </node>
  <node id="-289" visible="true" lat="43.48675537" lon="-72.4923706">
    <tag k="addr:housenumber" v="1084"/>
    <tag k="addr:street" v="Sheddsville Road"/>
    <tag k="addr:state" v="VT"/>
    <tag k="ref:vcgi:esiteid" v="280368"/>
  </node>
  <node id="-291" visible="true" lat="43.48662948" lon="-72.48161316">
    <tag k="addr:housenumber" v="325"/>
    <tag k="addr:street" v="Cemetery Road"/>
    <tag k="addr:state" v="VT"/>
    <tag k="ref:vcgi:esiteid" v="280370"/>
  </node>
  <node id="-292" visible="true" lat="43.48659133" lon="-72.48470306">
    <tag k="addr:housenumber" v="477"/>
    <tag k="addr:street" v="Cemetery Road"/>
    <tag k="addr:state" v="VT"/>
    <tag k="ref:vcgi:esiteid" v="280371"/>
  </node>
  <node id="-294" visible="true" lat="43.48661687" lon="-72.45998262">
    <tag k="addr:housenumber" v="747"/>
    <tag k="addr:street" v="Coon Club Road"/>
    <tag k="addr:state" v="VT"/>
    <tag k="ref:vcgi:esiteid" v="280373"/>
  </node>
  <node id="-295" visible="true" lat="43.48614993" lon="-72.46219973">
    <tag k="addr:housenumber" v="745"/>
    <tag k="addr:street" v="Coon Club Road"/>
    <tag k="addr:state" v="VT"/>
    <tag k="ref:vcgi:esiteid" v="280374"/>
  </node>
  <node id="-300" visible="true" lat="43.48500061" lon="-72.45993041">
    <tag k="addr:housenumber" v="893"/>
    <tag k="addr:street" v="Coon Club Road"/>
    <tag k="addr:state" v="VT"/>
    <tag k="ref:vcgi:esiteid" v="280379"/>
  </node>
  <node id="-303" visible="true" lat="43.48465347" lon="-72.47149658">
    <tag k="addr:housenumber" v="307"/>
    <tag k="addr:street" v="Coon Club Road"/>
    <tag k="addr:state" v="VT"/>
    <tag k="ref:vcgi:esiteid" v="280382"/>
  </node>
  <node id="-304" visible="true" lat="43.48449696" lon="-72.47304927">
    <tag k="addr:housenumber" v="193"/>
    <tag k="addr:street" v="Coon Club Road"/>
    <tag k="addr:state" v="VT"/>
    <tag k="ref:vcgi:esiteid" v="280383"/>
  </node>
  <node id="-306" visible="true" lat="43.48414422" lon="-72.47302139">
    <tag k="addr:housenumber" v="191"/>
    <tag k="addr:street" v="Coon Club Road"/>
    <tag k="addr:state" v="VT"/>
    <tag k="ref:vcgi:esiteid" v="280385"/>
  </node>
  <node id="-307" visible="true" lat="43.48408126" lon="-72.46399688">
    <tag k="addr:housenumber" v="692"/>
    <tag k="addr:street" v="Coon Club Road"/>
    <tag k="addr:state" v="VT"/>
    <tag k="ref:vcgi:esiteid" v="280386"/>
  </node>
  <node id="-308" visible="true" lat="43.48391503" lon="-72.47489647">
    <tag k="addr:housenumber" v="125"/>
    <tag k="addr:street" v="Coon Club Road"/>
    <tag k="addr:state" v="VT"/>
    <tag k="ref:vcgi:esiteid" v="280387"/>
  </node>
  <node id="-310" visible="true" lat="43.48363876" lon="-72.47359466">
    <tag k="addr:housenumber" v="188"/>
    <tag k="addr:street" v="Coon Club Road"/>
    <tag k="addr:state" v="VT"/>
    <tag k="ref:vcgi:esiteid" v="280389"/>
  </node>
  <node id="-311" visible="true" lat="43.48363113" lon="-72.46685028">
    <tag k="addr:housenumber" v="553"/>
    <tag k="addr:street" v="Coon Club Road"/>
    <tag k="addr:state" v="VT"/>
    <tag k="ref:vcgi:esiteid" v="280390"/>
  </node>
  <node id="-312" visible="true" lat="43.48346328" lon="-72.46932983">
    <tag k="addr:housenumber" v="403"/>
    <tag k="addr:street" v="Coon Club Road"/>
    <tag k="addr:state" v="VT"/>
    <tag k="ref:vcgi:esiteid" v="280391"/>
  </node>
  <node id="-313" visible="true" lat="43.4833641" lon="-72.45430755">
    <tag k="addr:housenumber" v="1280"/>
    <tag k="addr:street" v="Coon Club Road"/>
    <tag k="addr:state" v="VT"/>
    <tag k="ref:vcgi:esiteid" v="280392"/>
  </node>
  <node id="-316" visible="true" lat="43.4832344" lon="-72.46092987">
    <tag k="addr:housenumber" v="889"/>
    <tag k="addr:street" v="Coon Club Road"/>
    <tag k="addr:state" v="VT"/>
    <tag k="ref:vcgi:esiteid" v="280395"/>
  </node>
  <node id="-317" visible="true" lat="43.48331271" lon="-72.45791072">
    <tag k="addr:housenumber" v="1081"/>
    <tag k="addr:street" v="Coon Club Road"/>
    <tag k="addr:state" v="VT"/>
    <tag k="ref:vcgi:esiteid" v="280396"/>
  </node>
  <node id="-318" visible="true" lat="43.48305511" lon="-72.47545623">
    <tag k="addr:housenumber" v="1083"/>
    <tag k="addr:street" v="Brownsville Hartland Road"/>
    <tag k="addr:state" v="VT"/>
    <tag k="ref:vcgi:esiteid" v="280397"/>
  </node>
  <node id="-323" visible="true" lat="43.48273664" lon="-72.46856066">
    <tag k="addr:housenumber" v="454"/>
    <tag k="addr:street" v="Coon Club Road"/>
    <tag k="addr:state" v="VT"/>
    <tag k="ref:vcgi:esiteid" v="280402"/>
  </node>
  <node id="-325" visible="true" lat="43.48262405" lon="-72.47000885">
    <tag k="addr:housenumber" v="374"/>
    <tag k="addr:street" v="Coon Club Road"/>
    <tag k="addr:state" v="VT"/>
    <tag k="ref:vcgi:esiteid" v="280404"/>
  </node>
  <node id="-326" visible="true" lat="43.48252105" lon="-72.4577713">
    <tag k="addr:housenumber" v="1074"/>
    <tag k="addr:street" v="Coon Club Road"/>
    <tag k="addr:state" v="VT"/>
    <tag k="ref:vcgi:esiteid" v="280405"/>
  </node>
  <node id="-327" visible="true" lat="43.48243713" lon="-72.47405242">
    <tag k="addr:housenumber" v="52"/>
    <tag k="addr:street" v="Coon Club Road"/>
    <tag k="addr:state" v="VT"/>
    <tag k="ref:vcgi:esiteid" v="280406"/>
  </node>
  <node id="-328" visible="true" lat="43.48219246" lon="-72.46012344">
    <tag k="addr:housenumber" v="962"/>
    <tag k="addr:street" v="Coon Club Road"/>
    <tag k="addr:state" v="VT"/>
    <tag k="ref:vcgi:esiteid" v="280407"/>
  </node>
  <node id="-331" visible="true" lat="43.48191833" lon="-72.46501159">
    <tag k="addr:housenumber" v="75"/>
    <tag k="addr:street" v="Edson Burke Road"/>
    <tag k="addr:state" v="VT"/>
    <tag k="ref:vcgi:esiteid" v="280410"/>
  </node>
  <node id="-332" visible="true" lat="43.48179816" lon="-72.47468677">
    <tag k="addr:housenumber" v="20"/>
    <tag k="addr:street" v="Sheddsville Road"/>
    <tag k="addr:state" v="VT"/>
    <tag k="ref:vcgi:esiteid" v="280411"/>
  </node>
  <node id="-333" visible="true" lat="43.48153474" lon="-72.47395181">
    <tag k="addr:housenumber" v="960"/>
    <tag k="addr:street" v="Brownsville Hartland Road"/>
    <tag k="addr:state" v="VT"/>
    <tag k="ref:vcgi:esiteid" v="280412"/>
  </node>
  <node id="-334" visible="true" lat="43.48154449" lon="-72.45870208">
    <tag k="addr:housenumber" v="75"/>
    <tag k="addr:street" v="Trafton Road"/>
    <tag k="addr:state" v="VT"/>
    <tag k="ref:vcgi:esiteid" v="280413"/>
  </node>
  <node id="-337" visible="true" lat="43.48096847" lon="-72.47459411">
    <tag k="addr:housenumber" v="893"/>
    <tag k="addr:street" v="Brownsville Hartland Road"/>
    <tag k="addr:state" v="VT"/>
    <tag k="ref:vcgi:esiteid" v="280416"/>
  </node>
  <node id="-338" visible="true" lat="43.48088073" lon="-72.47351074">
    <tag k="addr:housenumber" v="906"/>
    <tag k="addr:street" v="Brownsville Hartland Road"/>
    <tag k="addr:state" v="VT"/>
    <tag k="ref:vcgi:esiteid" v="280418"/>
  </node>
  <node id="-340" visible="true" lat="43.48075866" lon="-72.45742797">
    <tag k="addr:housenumber" v="13"/>
    <tag k="addr:street" v="Trafton Road"/>
    <tag k="addr:state" v="VT"/>
    <tag k="ref:vcgi:esiteid" v="280420"/>
  </node>
  <node id="-341" visible="true" lat="43.48073196" lon="-72.45887756">
    <tag k="addr:housenumber" v="129"/>
    <tag k="addr:street" v="Trafton Road"/>
    <tag k="addr:state" v="VT"/>
    <tag k="ref:vcgi:esiteid" v="280421"/>
  </node>
  <node id="-345" visible="true" lat="43.48034668" lon="-72.47332763">
    <tag k="addr:housenumber" v="870"/>
    <tag k="addr:street" v="Brownsville Hartland Road"/>
    <tag k="addr:state" v="VT"/>
    <tag k="ref:vcgi:esiteid" v="280425"/>
  </node>
  <node id="-348" visible="true" lat="43.48019027" lon="-72.47318267">
    <tag k="addr:housenumber" v="868"/>
    <tag k="addr:street" v="Brownsville Hartland Road"/>
    <tag k="addr:state" v="VT"/>
    <tag k="ref:vcgi:esiteid" v="280428"/>
  </node>
  <node id="-351" visible="true" lat="43.47927856" lon="-72.45933532">
    <tag k="addr:housenumber" v="207"/>
    <tag k="addr:street" v="Trafton Road"/>
    <tag k="addr:state" v="VT"/>
    <tag k="ref:vcgi:esiteid" v="280431"/>
  </node>
  <node id="-355" visible="true" lat="43.47871398" lon="-72.47277831">
    <tag k="addr:housenumber" v="752"/>
    <tag k="addr:street" v="Brownsville Hartland Road"/>
    <tag k="addr:state" v="VT"/>
    <tag k="ref:vcgi:esiteid" v="280435"/>
  </node>
  <node id="-356" visible="true" lat="43.4786148" lon="-72.47346496">
    <tag k="addr:housenumber" v="755"/>
    <tag k="addr:street" v="Brownsville Hartland Road"/>
    <tag k="addr:state" v="VT"/>
    <tag k="ref:vcgi:esiteid" v="280436"/>
  </node>
  <node id="-365" visible="true" lat="43.47710418" lon="-72.45710754">
    <tag k="addr:housenumber" v="127"/>
    <tag k="addr:street" v="Old Barn Lane"/>
    <tag k="addr:state" v="VT"/>
    <tag k="ref:vcgi:esiteid" v="280445"/>
  </node>
  <node id="-366" visible="true" lat="43.47701257" lon="-72.47320444">
    <tag k="addr:housenumber" v="637"/>
    <tag k="addr:street" v="Brownsville Hartland Road"/>
    <tag k="addr:state" v="VT"/>
    <tag k="ref:vcgi:esiteid" v="280446"/>
  </node>
  <node id="-369" visible="true" lat="43.47615051" lon="-72.45576476">
    <tag k="addr:housenumber" v="278"/>
    <tag k="addr:street" v="Old Barn Lane"/>
    <tag k="addr:state" v="VT"/>
    <tag k="ref:vcgi:esiteid" v="280449"/>
  </node>
  <node id="-373" visible="true" lat="43.47593688" lon="-72.45697784">
    <tag k="addr:housenumber" v="214"/>
    <tag k="addr:street" v="Old Barn Lane"/>
    <tag k="addr:state" v="VT"/>
    <tag k="ref:vcgi:esiteid" v="280453"/>
  </node>
  <node id="-382" visible="true" lat="43.4748764" lon="-72.45888519">
    <tag k="addr:housenumber" v="84"/>
    <tag k="addr:street" v="Old Barn Lane"/>
    <tag k="addr:state" v="VT"/>
    <tag k="ref:vcgi:esiteid" v="280464"/>
  </node>
  <node id="-385" visible="true" lat="43.47435379" lon="-72.46091461">
    <tag k="addr:housenumber" v="285"/>
    <tag k="addr:street" v="Pierce Hill Road"/>
    <tag k="addr:state" v="VT"/>
    <tag k="ref:vcgi:esiteid" v="280468"/>
  </node>
  <node id="-389" visible="true" lat="43.47401809" lon="-72.45924377">
    <tag k="addr:housenumber" v="178"/>
    <tag k="addr:street" v="Pierce Hill Road"/>
    <tag k="addr:state" v="VT"/>
    <tag k="ref:vcgi:esiteid" v="280472"/>
  </node>
  <node id="-390" visible="true" lat="43.47401046" lon="-72.45994567">
    <tag k="addr:housenumber" v="202"/>
    <tag k="addr:street" v="Pierce Hill Road"/>
    <tag k="addr:state" v="VT"/>
    <tag k="ref:vcgi:esiteid" v="280473"/>
  </node>
  <node id="-395" visible="true" lat="43.4734383" lon="-72.47302793">
    <tag k="addr:housenumber" v="393"/>
    <tag k="addr:street" v="Brownsville Hartland Road"/>
    <tag k="addr:state" v="VT"/>
    <tag k="ref:vcgi:esiteid" v="280478"/>
  </node>
  <node id="-401" visible="true" lat="43.47297096" lon="-72.46002087">
    <tag k="addr:housenumber" v="123"/>
    <tag k="addr:street" v="Pierce Hill Road"/>
    <tag k="addr:state" v="VT"/>
    <tag k="ref:vcgi:esiteid" v="280484"/>
  </node>
  <node id="-403" visible="true" lat="43.47278976" lon="-72.47264099">
    <tag k="addr:housenumber" v="347"/>
    <tag k="addr:street" v="Brownsville Hartland Road"/>
    <tag k="addr:state" v="VT"/>
    <tag k="ref:vcgi:esiteid" v="280486"/>
  </node>
  <node id="-404" visible="true" lat="43.47269821" lon="-72.47799682">
    <tag k="addr:housenumber" v="375"/>
    <tag k="addr:street" v="Brownsville Hartland Road"/>
    <tag k="addr:state" v="VT"/>
    <tag k="ref:vcgi:esiteid" v="280487"/>
  </node>
  <node id="-407" visible="true" lat="43.47259521" lon="-72.46781158">
    <tag k="addr:housenumber" v="457"/>
    <tag k="addr:street" v="Strawberry Hill Road"/>
    <tag k="addr:state" v="VT"/>
    <tag k="ref:vcgi:esiteid" v="280490"/>
  </node>
  <node id="-408" visible="true" lat="43.47238922" lon="-72.45933532">
    <tag k="addr:housenumber" v="98"/>
    <tag k="addr:street" v="Pierce Hill Road"/>
    <tag k="addr:state" v="VT"/>
    <tag k="ref:vcgi:esiteid" v="280491"/>
  </node>
  <node id="-417" visible="true" lat="43.47155761" lon="-72.4637146">
    <tag k="addr:housenumber" v="219"/>
    <tag k="addr:street" v="Brook Road"/>
    <tag k="addr:state" v="VT"/>
    <tag k="ref:vcgi:esiteid" v="280500"/>
  </node>
  <node id="-418" visible="true" lat="43.47150802" lon="-72.47397613">
    <tag k="addr:housenumber" v="267"/>
    <tag k="addr:street" v="Brownsville Hartland Road"/>
    <tag k="addr:state" v="VT"/>
    <tag k="ref:vcgi:esiteid" v="280501"/>
  </node>
  <node id="-421" visible="true" lat="43.47147077" lon="-72.46196961">
    <tag k="addr:housenumber" v="347"/>
    <tag k="addr:street" v="Brook Road"/>
    <tag k="addr:state" v="VT"/>
    <tag k="ref:vcgi:esiteid" v="280504"/>
  </node>
  <node id="-422" visible="true" lat="43.47138214" lon="-72.46729278">
    <tag k="addr:housenumber" v="362"/>
    <tag k="addr:street" v="Strawberry Hill Road"/>
    <tag k="addr:state" v="VT"/>
    <tag k="ref:vcgi:esiteid" v="280505"/>
  </node>
  <node id="-427" visible="true" lat="43.47077941" lon="-72.4682312">
    <tag k="addr:housenumber" v="317"/>
    <tag k="addr:street" v="Strawberry Hill Road"/>
    <tag k="addr:state" v="VT"/>
    <tag k="ref:vcgi:esiteid" v="280510"/>
  </node>
  <node id="-432" visible="true" lat="43.47015575" lon="-72.46504866">
    <tag k="addr:housenumber" v="176"/>
    <tag k="addr:street" v="Brook Road"/>
    <tag k="addr:state" v="VT"/>
    <tag k="ref:vcgi:esiteid" v="280516"/>
  </node>
  <node id="-437" visible="true" lat="43.46979522" lon="-72.46772766">
    <tag k="addr:housenumber" v="252"/>
    <tag k="addr:street" v="Strawberry Hill Road"/>
    <tag k="addr:state" v="VT"/>
    <tag k="ref:vcgi:esiteid" v="280521"/>
  </node>
  <node id="-439" visible="true" lat="43.46950149" lon="-72.47096252">
    <tag k="addr:housenumber" v="108"/>
    <tag k="addr:street" v="Brownsville Hartland Road"/>
    <tag k="addr:state" v="VT"/>
    <tag k="ref:vcgi:esiteid" v="280523"/>
  </node>
  <node id="-442" visible="true" lat="43.46900176" lon="-72.47164154">
    <tag k="addr:housenumber" v="81"/>
    <tag k="addr:street" v="Brownsville Hartland Road"/>
    <tag k="addr:state" v="VT"/>
    <tag k="ref:vcgi:esiteid" v="280526"/>
  </node>
  <node id="-443" visible="true" lat="43.46891021" lon="-72.46900176">
    <tag k="addr:housenumber" v="160"/>
    <tag k="addr:street" v="Strawberry Hill Road"/>
    <tag k="addr:state" v="VT"/>
    <tag k="ref:vcgi:esiteid" v="280527"/>
  </node>
  <node id="-444" visible="true" lat="43.46884918" lon="-72.47111511">
    <tag k="addr:housenumber" v="66"/>
    <tag k="addr:street" v="Brownsville Hartland Road"/>
    <tag k="addr:state" v="VT"/>
    <tag k="ref:vcgi:esiteid" v="280528"/>
  </node>
  <node id="-446" visible="true" lat="43.46878814" lon="-72.46611785">
    <tag k="addr:housenumber" v="46"/>
    <tag k="addr:street" v="Brook Road"/>
    <tag k="addr:state" v="VT"/>
    <tag k="ref:vcgi:esiteid" v="280530"/>
  </node>
  <node id="-449" visible="true" lat="43.4686203" lon="-72.47148132">
    <tag k="addr:housenumber" v="53"/>
    <tag k="addr:street" v="Brownsville Hartland Road"/>
    <tag k="addr:state" v="VT"/>
    <tag k="ref:vcgi:esiteid" v="280534"/>
  </node>
  <node id="-457" visible="true" lat="43.46820793" lon="-72.47081778">
    <tag k="addr:housenumber" v="22"/>
    <tag k="addr:street" v="Brownsville Hartland Road"/>
    <tag k="addr:state" v="VT"/>
    <tag k="ref:vcgi:esiteid" v="280544"/>
  </node>
  <node id="-458" visible="true" lat="43.46823669" lon="-72.47024482">
    <tag k="addr:housenumber" v="924"/>
    <tag k="addr:street" v="Vermont Route 44"/>
    <tag k="addr:state" v="VT"/>
    <tag k="ref:vcgi:esiteid" v="280545"/>
  </node>
  <node id="-461" visible="true" lat="43.46818059" lon="-72.47138211">
    <tag k="addr:housenumber" v="19"/>
    <tag k="addr:street" v="Brownsville Hartland Road"/>
    <tag k="addr:state" v="VT"/>
    <tag k="ref:vcgi:esiteid" v="280548"/>
  </node>
  <node id="-463" visible="true" lat="43.46804595" lon="-72.46980994">
    <tag k="addr:housenumber" v="898"/>
    <tag k="addr:street" v="Vermont Route 44"/>
    <tag k="addr:state" v="VT"/>
    <tag k="ref:vcgi:esiteid" v="280550"/>
  </node>
  <node id="-464" visible="true" lat="43.46793151" lon="-72.47004645">
    <tag k="addr:housenumber" v="908"/>
    <tag k="addr:street" v="Vermont Route 44"/>
    <tag k="addr:state" v="VT"/>
    <tag k="ref:vcgi:esiteid" v="280551"/>
  </node>
  <node id="-465" visible="true" lat="43.46790313" lon="-72.47155761">
    <tag k="addr:housenumber" v="978"/>
    <tag k="addr:street" v="Vermont Route 44"/>
    <tag k="addr:state" v="VT"/>
    <tag k="ref:vcgi:esiteid" v="280552"/>
  </node>
  <node id="-470" visible="true" lat="43.46774672" lon="-72.47188566">
    <tag k="addr:housenumber" v="994"/>
    <tag k="addr:street" v="Vermont Route 44"/>
    <tag k="addr:state" v="VT"/>
    <tag k="ref:vcgi:esiteid" v="280557"/>
  </node>
  <node id="-471" visible="true" lat="43.4676352" lon="-72.47205027">
    <tag k="addr:housenumber" v="1004"/>
    <tag k="addr:street" v="Vermont Route 44"/>
    <tag k="addr:state" v="VT"/>
    <tag k="ref:vcgi:esiteid" v="280559"/>
  </node>
  <node id="-475" visible="true" lat="43.46753967" lon="-72.46849711">
    <tag k="addr:housenumber" v="827"/>
    <tag k="addr:street" v="Vermont Route 44"/>
    <tag k="addr:state" v="VT"/>
    <tag k="ref:vcgi:esiteid" v="280563"/>
  </node>
  <node id="-477" visible="true" lat="43.46733794" lon="-72.46939703">
    <tag k="addr:housenumber" v="871"/>
    <tag k="addr:street" v="Vermont Route 44"/>
    <tag k="addr:state" v="VT"/>
    <tag k="ref:vcgi:esiteid" v="280565"/>
  </node>
  <node id="-479" visible="true" lat="43.46746826" lon="-72.46791076">
    <tag k="addr:housenumber" v="803"/>
    <tag k="addr:street" v="Vermont Route 44"/>
    <tag k="addr:state" v="VT"/>
    <tag k="ref:vcgi:esiteid" v="280567"/>
  </node>
  <node id="-481" visible="true" lat="43.46743392" lon="-72.47173309">
    <tag k="addr:housenumber" v="1003"/>
    <tag k="addr:street" v="Vermont Route 44"/>
    <tag k="addr:state" v="VT"/>
    <tag k="ref:vcgi:esiteid" v="280569"/>
  </node>
  <node id="-482" visible="true" lat="43.4673767" lon="-72.469841">
    <tag k="addr:housenumber" v="889"/>
    <tag k="addr:street" v="Vermont Route 44"/>
    <tag k="addr:state" v="VT"/>
    <tag k="ref:vcgi:esiteid" v="280570"/>
  </node>
  <node id="-483" visible="true" lat="43.46743477" lon="-72.47256465">
    <tag k="addr:housenumber" v="1042"/>
    <tag k="addr:street" v="Vermont Route 44"/>
    <tag k="addr:state" v="VT"/>
    <tag k="ref:vcgi:esiteid" v="280571"/>
  </node>
  <node id="-487" visible="true" lat="43.46722116" lon="-72.47287528">
    <tag k="addr:housenumber" v="1060"/>
    <tag k="addr:street" v="Vermont Route 44"/>
    <tag k="addr:state" v="VT"/>
    <tag k="ref:vcgi:esiteid" v="280575"/>
  </node>
  <node id="-488" visible="true" lat="43.46707153" lon="-72.4724884">
    <tag k="addr:housenumber" v="1049"/>
    <tag k="addr:street" v="Vermont Route 44"/>
    <tag k="addr:state" v="VT"/>
    <tag k="ref:vcgi:esiteid" v="280576"/>
  </node>
  <node id="-493" visible="true" lat="43.46670915" lon="-72.46102074">
    <tag k="addr:housenumber" v="107"/>
    <tag k="addr:street" v="Ski Tow Road"/>
    <tag k="addr:state" v="VT"/>
    <tag k="ref:vcgi:esiteid" v="280581"/>
  </node>
  <node id="-497" visible="true" lat="43.46625885" lon="-72.46941517">
    <tag k="addr:housenumber" v="389"/>
    <tag k="addr:street" v="Hotel Road"/>
    <tag k="addr:state" v="VT"/>
    <tag k="ref:vcgi:esiteid" v="280586"/>
  </node>
  <node id="-500" visible="true" lat="43.46613862" lon="-72.46613844">
    <tag k="addr:housenumber" v="223"/>
    <tag k="addr:street" v="Hotel Road"/>
    <tag k="addr:state" v="VT"/>
    <tag k="ref:vcgi:esiteid" v="280589"/>
  </node>
  <node id="-501" visible="true" lat="43.46598664" lon="-72.47088416">
    <tag k="addr:housenumber" v="485"/>
    <tag k="addr:street" v="Hotel Road"/>
    <tag k="addr:state" v="VT"/>
    <tag k="ref:vcgi:esiteid" v="280590"/>
  </node>
  <node id="-502" visible="true" lat="43.46563339" lon="-72.46266174">
    <tag k="addr:housenumber" v="104"/>
    <tag k="addr:street" v="Deer Run Road"/>
    <tag k="addr:state" v="VT"/>
    <tag k="ref:vcgi:esiteid" v="280593"/>
  </node>
  <node id="-513" visible="true" lat="43.46517944" lon="-72.46791076">
    <tag k="addr:housenumber" v="295"/>
    <tag k="addr:street" v="Hotel Road"/>
    <tag k="addr:state" v="VT"/>
    <tag k="ref:vcgi:esiteid" v="280605"/>
  </node>
  <node id="-514" visible="true" lat="43.46517181" lon="-72.46289062">
    <tag k="addr:housenumber" v="138"/>
    <tag k="addr:street" v="Deer Run Road"/>
    <tag k="addr:state" v="VT"/>
    <tag k="ref:vcgi:esiteid" v="280606"/>
  </node>
  <node id="-519" visible="true" lat="43.46481704" lon="-72.47056579">
    <tag k="addr:housenumber" v="282"/>
    <tag k="addr:street" v="Skyhawk Lane"/>
    <tag k="addr:state" v="VT"/>
    <tag k="ref:vcgi:esiteid" v="280611"/>
  </node>
  <node id="-522" visible="true" lat="43.46477126" lon="-72.46328735">
    <tag k="addr:housenumber" v="174"/>
    <tag k="addr:street" v="Deer Run Road"/>
    <tag k="addr:state" v="VT"/>
    <tag k="ref:vcgi:esiteid" v="280614"/>
  </node>
  <node id="-523" visible="true" lat="43.46482116" lon="-72.47160443">
    <tag k="addr:housenumber" v="308"/>
    <tag k="addr:street" v="Skyhawk Lane"/>
    <tag k="addr:state" v="VT"/>
    <tag k="ref:vcgi:esiteid" v="280615"/>
  </node>
  <node id="-529" visible="true" lat="43.46410857" lon="-72.47224102">
    <tag k="addr:housenumber" v="337"/>
    <tag k="addr:street" v="Skyhawk Lane"/>
    <tag k="addr:state" v="VT"/>
    <tag k="ref:vcgi:esiteid" v="280621"/>
  </node>
  <node id="-530" visible="true" lat="43.46414947" lon="-72.47066497">
    <tag k="addr:housenumber" v="264"/>
    <tag k="addr:street" v="Skyhawk Lane"/>
    <tag k="addr:state" v="VT"/>
    <tag k="ref:vcgi:esiteid" v="280622"/>
  </node>
  <node id="-538" visible="true" lat="43.46372601" lon="-72.47381008">
    <tag k="addr:housenumber" v="434"/>
    <tag k="addr:street" v="Skyhawk Lane"/>
    <tag k="addr:state" v="VT"/>
    <tag k="ref:vcgi:esiteid" v="280631"/>
  </node>
  <node id="-541" visible="true" lat="43.46347808" lon="-72.47312927">
    <tag k="addr:housenumber" v="409"/>
    <tag k="addr:street" v="Skyhawk Lane"/>
    <tag k="addr:state" v="VT"/>
    <tag k="ref:vcgi:esiteid" v="280634"/>
  </node>
  <node id="-543" visible="true" lat="43.46354421" lon="-72.47201682">
    <tag k="addr:housenumber" v="201"/>
    <tag k="addr:street" v="Skyhawk Lane"/>
    <tag k="addr:state" v="VT"/>
    <tag k="ref:vcgi:esiteid" v="280636"/>
  </node>
  <node id="-544" visible="true" lat="43.4630661" lon="-72.47608184">
    <tag k="addr:housenumber" v="1383"/>
    <tag k="addr:street" v="Vermont Route 44"/>
    <tag k="addr:state" v="VT"/>
    <tag k="ref:vcgi:esiteid" v="280637"/>
  </node>
  <node id="-547" visible="true" lat="43.46278954" lon="-72.47360131">
    <tag k="addr:housenumber" v="465"/>
    <tag k="addr:street" v="Skyhawk Lane"/>
    <tag k="addr:state" v="VT"/>
    <tag k="ref:vcgi:esiteid" v="280641"/>
  </node>
  <node id="-550" visible="true" lat="43.46300593" lon="-72.47238853">
    <tag k="addr:housenumber" v="859"/>
    <tag k="addr:street" v="Skyhawk Lane"/>
    <tag k="addr:state" v="VT"/>
    <tag k="ref:vcgi:esiteid" v="280644"/>
  </node>
  <node id="-551" visible="true" lat="43.46285204" lon="-72.4745856">
    <tag k="addr:housenumber" v="488"/>
    <tag k="addr:street" v="Skyhawk Lane"/>
    <tag k="addr:state" v="VT"/>
    <tag k="ref:vcgi:esiteid" v="280645"/>
  </node>
  <node id="-553" visible="true" lat="43.46282954" lon="-72.46754343">
    <tag k="addr:housenumber" v="543"/>
    <tag k="addr:street" v="Ski Tow Road"/>
    <tag k="addr:state" v="VT"/>
    <tag k="ref:vcgi:esiteid" v="280647"/>
  </node>
  <node id="-554" visible="true" lat="43.46273755" lon="-72.46878976">
    <tag k="addr:housenumber" v="586"/>
    <tag k="addr:street" v="Ski Tow Road"/>
    <tag k="addr:state" v="VT"/>
    <tag k="ref:vcgi:esiteid" v="280648"/>
  </node>
  <node id="-556" visible="true" lat="43.46260833" lon="-72.47570037">
    <tag k="addr:housenumber" v="1407"/>
    <tag k="addr:street" v="Vermont Route 44"/>
    <tag k="addr:state" v="VT"/>
    <tag k="ref:vcgi:esiteid" v="280650"/>
  </node>
  <node id="-558" visible="true" lat="43.46254726" lon="-72.47801751">
    <tag k="addr:housenumber" v="1478"/>
    <tag k="addr:street" v="Vermont Route 44"/>
    <tag k="addr:state" v="VT"/>
    <tag k="ref:vcgi:esiteid" v="280653"/>
  </node>
  <node id="-559" visible="true" lat="43.46235865" lon="-72.47841376">
    <tag k="addr:housenumber" v="1496"/>
    <tag k="addr:street" v="Vermont Route 44"/>
    <tag k="addr:state" v="VT"/>
    <tag k="ref:vcgi:esiteid" v="280654"/>
  </node>
  <node id="-560" visible="true" lat="43.46249512" lon="-72.47682041">
    <tag k="addr:housenumber" v="1427"/>
    <tag k="addr:street" v="Vermont Route 44"/>
    <tag k="addr:state" v="VT"/>
    <tag k="ref:vcgi:esiteid" v="280655"/>
  </node>
  <node id="-561" visible="true" lat="43.46249008" lon="-72.47262573">
    <tag k="addr:housenumber" v="845"/>
    <tag k="addr:street" v="Skyhawk Lane"/>
    <tag k="addr:state" v="VT"/>
    <tag k="ref:vcgi:esiteid" v="280656"/>
  </node>
  <node id="-563" visible="true" lat="43.46234217" lon="-72.47083716">
    <tag k="addr:housenumber" v="157"/>
    <tag k="addr:street" v="Skyhawk Lane"/>
    <tag k="addr:state" v="VT"/>
    <tag k="ref:vcgi:esiteid" v="280658"/>
  </node>
  <node id="-564" visible="true" lat="43.46226119" lon="-72.47356414">
    <tag k="addr:housenumber" v="527"/>
    <tag k="addr:street" v="Skyhawk Lane"/>
    <tag k="addr:state" v="VT"/>
    <tag k="ref:vcgi:esiteid" v="280659"/>
  </node>
  <node id="-566" visible="true" lat="43.46216104" lon="-72.47269328">
    <tag k="addr:housenumber" v="817"/>
    <tag k="addr:street" v="Skyhawk Lane"/>
    <tag k="addr:state" v="VT"/>
    <tag k="ref:vcgi:esiteid" v="280661"/>
  </node>
  <node id="-567" visible="true" lat="43.4620552" lon="-72.47116851">
    <tag k="addr:housenumber" v="842"/>
    <tag k="addr:street" v="Skyhawk Lane"/>
    <tag k="addr:state" v="VT"/>
    <tag k="ref:vcgi:esiteid" v="280662"/>
  </node>
  <node id="-568" visible="true" lat="43.4620764" lon="-72.47473761">
    <tag k="addr:housenumber" v="16"/>
    <tag k="addr:street" v="Mountainside Drive"/>
    <tag k="addr:state" v="VT"/>
    <tag k="ref:vcgi:esiteid" v="280663"/>
  </node>
  <node id="-570" visible="true" lat="43.46174715" lon="-72.47130022">
    <tag k="addr:housenumber" v="840"/>
    <tag k="addr:street" v="Skyhawk Lane"/>
    <tag k="addr:state" v="VT"/>
    <tag k="ref:vcgi:esiteid" v="280665"/>
  </node>
  <node id="-572" visible="true" lat="43.4617958" lon="-72.46807861">
    <tag k="addr:housenumber" v="127"/>
    <tag k="addr:street" v="Mountains Edge Road"/>
    <tag k="addr:state" v="VT"/>
    <tag k="ref:vcgi:esiteid" v="280668"/>
  </node>
  <node id="-574" visible="true" lat="43.46158218" lon="-72.47345733">
    <tag k="addr:housenumber" v="581"/>
    <tag k="addr:street" v="Skyhawk Lane"/>
    <tag k="addr:state" v="VT"/>
    <tag k="ref:vcgi:esiteid" v="280672"/>
  </node>
  <node id="-575" visible="true" lat="43.46154403" lon="-72.46875762">
    <tag k="addr:housenumber" v="95"/>
    <tag k="addr:street" v="Mountains Edge Road"/>
    <tag k="addr:state" v="VT"/>
    <tag k="ref:vcgi:esiteid" v="280673"/>
  </node>
  <node id="-577" visible="true" lat="43.46136856" lon="-72.48363494">
    <tag k="addr:housenumber" v="1804"/>
    <tag k="addr:street" v="Vermont Route 44"/>
    <tag k="addr:state" v="VT"/>
    <tag k="ref:vcgi:esiteid" v="280675"/>
  </node>
  <node id="-578" visible="true" lat="43.46126556" lon="-72.46826171">
    <tag k="addr:housenumber" v="108"/>
    <tag k="addr:street" v="Mountains Edge Road"/>
    <tag k="addr:state" v="VT"/>
    <tag k="ref:vcgi:esiteid" v="280676"/>
  </node>
  <node id="-580" visible="true" lat="43.46083214" lon="-72.47825839">
    <tag k="addr:housenumber" v="74"/>
    <tag k="addr:street" v="Johnson Road"/>
    <tag k="addr:state" v="VT"/>
    <tag k="ref:vcgi:esiteid" v="280679"/>
  </node>
  <node id="-582" visible="true" lat="43.46091461" lon="-72.46749115">
    <tag k="addr:housenumber" v="74"/>
    <tag k="addr:street" v="Mountains Edge Road"/>
    <tag k="addr:state" v="VT"/>
    <tag k="ref:vcgi:esiteid" v="280683"/>
  </node>
  <node id="-583" visible="true" lat="43.46074294" lon="-72.47228241">
    <tag k="addr:housenumber" v="695"/>
    <tag k="addr:street" v="Skyhawk Lane"/>
    <tag k="addr:state" v="VT"/>
    <tag k="ref:vcgi:esiteid" v="280685"/>
  </node>
  <node id="-584" visible="true" lat="43.46059417" lon="-72.48175811">
    <tag k="addr:housenumber" v="1737"/>
    <tag k="addr:street" v="Vermont Route 44"/>
    <tag k="addr:state" v="VT"/>
    <tag k="ref:vcgi:esiteid" v="280687"/>
  </node>
  <node id="-585" visible="true" lat="43.46056809" lon="-72.48022668">
    <tag k="addr:housenumber" v="1605"/>
    <tag k="addr:street" v="Vermont Route 44"/>
    <tag k="addr:state" v="VT"/>
    <tag k="ref:vcgi:esiteid" v="280688"/>
  </node>
  <node id="-587" visible="true" lat="43.46038436" lon="-72.46788787">
    <tag k="addr:housenumber" v="72"/>
    <tag k="addr:street" v="Mountains Edge Road"/>
    <tag k="addr:state" v="VT"/>
    <tag k="ref:vcgi:esiteid" v="280690"/>
  </node>
  <node id="-589" visible="true" lat="43.46031952" lon="-72.4845581">
    <tag k="addr:housenumber" v="46"/>
    <tag k="addr:street" v="Hannah Road"/>
    <tag k="addr:state" v="VT"/>
    <tag k="ref:vcgi:esiteid" v="280693"/>
  </node>
  <node id="-590" visible="true" lat="43.460289" lon="-72.4712677">
    <tag k="addr:housenumber" v="720"/>
    <tag k="addr:street" v="Skyhawk Lane"/>
    <tag k="addr:state" v="VT"/>
    <tag k="ref:vcgi:esiteid" v="280694"/>
  </node>
  <node id="-591" visible="true" lat="43.46026992" lon="-72.46957397">
    <tag k="addr:housenumber" v="789"/>
    <tag k="addr:street" v="Ski Tow Road"/>
    <tag k="addr:state" v="VT"/>
    <tag k="ref:vcgi:esiteid" v="280695"/>
  </node>
  <node id="-593" visible="true" lat="43.46017074" lon="-72.4720993">
    <tag k="addr:housenumber" v="716"/>
    <tag k="addr:street" v="Skyhawk Lane"/>
    <tag k="addr:state" v="VT"/>
    <tag k="ref:vcgi:esiteid" v="280697"/>
  </node>
  <node id="-594" visible="true" lat="43.46012115" lon="-72.48413848">
    <tag k="addr:housenumber" v="25"/>
    <tag k="addr:street" v="Hannah Road"/>
    <tag k="addr:state" v="VT"/>
    <tag k="ref:vcgi:esiteid" v="280698"/>
  </node>
  <node id="-595" visible="true" lat="43.45998763" lon="-72.47039794">
    <tag k="addr:housenumber" v="814"/>
    <tag k="addr:street" v="Ski Tow Road"/>
    <tag k="addr:state" v="VT"/>
    <tag k="ref:vcgi:esiteid" v="280699"/>
  </node>
  <node id="-596" visible="true" lat="43.45997619" lon="-72.46844482">
    <tag k="addr:housenumber" v="70"/>
    <tag k="addr:street" v="Mountains Edge Road"/>
    <tag k="addr:state" v="VT"/>
    <tag k="ref:vcgi:esiteid" v="280700"/>
  </node>
  <node id="-597" visible="true" lat="43.45989608" lon="-72.46954345">
    <tag k="addr:housenumber" v="815"/>
    <tag k="addr:street" v="Ski Tow Road"/>
    <tag k="addr:state" v="VT"/>
    <tag k="ref:vcgi:esiteid" v="280701"/>
  </node>
  <node id="-598" visible="true" lat="43.45995323" lon="-72.48321423">
    <tag k="addr:housenumber" v="105"/>
    <tag k="addr:street" v="Lemire Road"/>
    <tag k="addr:state" v="VT"/>
    <tag k="ref:vcgi:esiteid" v="280702"/>
  </node>
  <node id="-599" visible="true" lat="43.45975112" lon="-72.47100129">
    <tag k="addr:housenumber" v="30"/>
    <tag k="addr:street" v="Village Lane"/>
    <tag k="addr:state" v="VT"/>
    <tag k="ref:vcgi:esiteid" v="280703"/>
  </node>
  <node id="-603" visible="true" lat="43.45948791" lon="-72.46984863">
    <tag k="addr:housenumber" v="845"/>
    <tag k="addr:street" v="Ski Tow Road"/>
    <tag k="addr:state" v="VT"/>
    <tag k="ref:vcgi:esiteid" v="280707"/>
  </node>
  <node id="-604" visible="true" lat="43.45943451" lon="-72.48690032">
    <tag k="addr:housenumber" v="2015"/>
    <tag k="addr:street" v="Vermont Route 44"/>
    <tag k="addr:state" v="VT"/>
    <tag k="ref:vcgi:esiteid" v="280708"/>
  </node>
  <node id="-605" visible="true" lat="43.45936965" lon="-72.47135925">
    <tag k="addr:housenumber" v="64"/>
    <tag k="addr:street" v="Village Lane"/>
    <tag k="addr:state" v="VT"/>
    <tag k="ref:vcgi:esiteid" v="280709"/>
  </node>
  <node id="-606" visible="true" lat="43.45935821" lon="-72.47444915">
    <tag k="addr:housenumber" v="212"/>
    <tag k="addr:street" v="Mountainside Drive"/>
    <tag k="addr:state" v="VT"/>
    <tag k="ref:vcgi:esiteid" v="280710"/>
  </node>
  <node id="-607" visible="true" lat="43.45929424" lon="-72.47191942">
    <tag k="addr:housenumber" v="124"/>
    <tag k="addr:street" v="Village Lane"/>
    <tag k="addr:state" v="VT"/>
    <tag k="ref:vcgi:esiteid" v="280711"/>
  </node>
  <node id="-608" visible="true" lat="43.45919036" lon="-72.46982574">
    <tag k="addr:housenumber" v="865"/>
    <tag k="addr:street" v="Ski Tow Road"/>
    <tag k="addr:state" v="VT"/>
    <tag k="ref:vcgi:esiteid" v="280712"/>
  </node>
  <node id="-609" visible="true" lat="43.45921917" lon="-72.47057663">
    <tag k="addr:housenumber" v="872"/>
    <tag k="addr:street" v="Ski Tow Road"/>
    <tag k="addr:state" v="VT"/>
    <tag k="ref:vcgi:esiteid" v="280713"/>
  </node>
  <node id="-611" visible="true" lat="43.45928793" lon="-72.47266327">
    <tag k="addr:housenumber" v="138"/>
    <tag k="addr:street" v="Village Lane"/>
    <tag k="addr:state" v="VT"/>
    <tag k="ref:vcgi:esiteid" v="280715"/>
  </node>
  <node id="-612" visible="true" lat="43.4590646" lon="-72.4675009">
    <tag k="addr:housenumber" v="1195"/>
    <tag k="addr:street" v="Ski Tow Road"/>
    <tag k="addr:state" v="VT"/>
    <tag k="ref:vcgi:esiteid" v="280716"/>
  </node>
  <node id="-613" visible="true" lat="43.45898145" lon="-72.4698861">
    <tag k="addr:housenumber" v="883"/>
    <tag k="addr:street" v="Ski Tow Road"/>
    <tag k="addr:state" v="VT"/>
    <tag k="ref:vcgi:esiteid" v="280717"/>
  </node>
  <node id="-614" visible="true" lat="43.45889663" lon="-72.47113037">
    <tag k="addr:housenumber" v="59"/>
    <tag k="addr:street" v="Village Lane"/>
    <tag k="addr:state" v="VT"/>
    <tag k="ref:vcgi:esiteid" v="280718"/>
  </node>
  <node id="-615" visible="true" lat="43.45898986" lon="-72.46807905">
    <tag k="addr:housenumber" v="1193"/>
    <tag k="addr:street" v="Ski Tow Road"/>
    <tag k="addr:state" v="VT"/>
    <tag k="ref:vcgi:esiteid" v="280719"/>
  </node>
  <node id="-617" visible="true" lat="43.45858295" lon="-72.47000277">
    <tag k="addr:housenumber" v="905"/>
    <tag k="addr:street" v="Ski Tow Road"/>
    <tag k="addr:state" v="VT"/>
    <tag k="ref:vcgi:esiteid" v="280721"/>
  </node>
  <node id="-619" visible="true" lat="43.45861303" lon="-72.46829193">
    <tag k="addr:housenumber" v="1191"/>
    <tag k="addr:street" v="Ski Tow Road"/>
    <tag k="addr:state" v="VT"/>
    <tag k="ref:vcgi:esiteid" v="280723"/>
  </node>
  <node id="-620" visible="true" lat="43.45845794" lon="-72.46754455">
    <tag k="addr:housenumber" v="1196"/>
    <tag k="addr:street" v="Ski Tow Road"/>
    <tag k="addr:state" v="VT"/>
    <tag k="ref:vcgi:esiteid" v="280724"/>
  </node>
  <node id="-621" visible="true" lat="43.45839533" lon="-72.4708061">
    <tag k="addr:housenumber" v="922"/>
    <tag k="addr:street" v="Ski Tow Road"/>
    <tag k="addr:state" v="VT"/>
    <tag k="ref:vcgi:esiteid" v="280725"/>
  </node>
  <node id="-622" visible="true" lat="43.45840569" lon="-72.46874501">
    <tag k="addr:housenumber" v="1177"/>
    <tag k="addr:street" v="Ski Tow Road"/>
    <tag k="addr:state" v="VT"/>
    <tag k="ref:vcgi:esiteid" v="280726"/>
  </node>
  <node id="-623" visible="true" lat="43.45830154" lon="-72.47006225">
    <tag k="addr:housenumber" v="929"/>
    <tag k="addr:street" v="Ski Tow Road"/>
    <tag k="addr:state" v="VT"/>
    <tag k="ref:vcgi:esiteid" v="280727"/>
  </node>
  <node id="-624" visible="true" lat="43.45830154" lon="-72.48685455">
    <tag k="addr:housenumber" v="138"/>
    <tag k="addr:street" v="Coaching Lane"/>
    <tag k="addr:state" v="VT"/>
    <tag k="ref:vcgi:esiteid" v="280728"/>
  </node>
  <node id="-625" visible="true" lat="43.45813176" lon="-72.46876956">
    <tag k="addr:housenumber" v="1159"/>
    <tag k="addr:street" v="Ski Tow Road"/>
    <tag k="addr:state" v="VT"/>
    <tag k="ref:vcgi:esiteid" v="280729"/>
  </node>
  <node id="-626" visible="true" lat="43.45806586" lon="-72.47150525">
    <tag k="addr:housenumber" v="279"/>
    <tag k="addr:street" v="Village Lane"/>
    <tag k="addr:state" v="VT"/>
    <tag k="ref:vcgi:esiteid" v="280730"/>
  </node>
  <node id="-627" visible="true" lat="43.4579182" lon="-72.46828836">
    <tag k="addr:housenumber" v="1154"/>
    <tag k="addr:street" v="Ski Tow Road"/>
    <tag k="addr:state" v="VT"/>
    <tag k="ref:vcgi:esiteid" v="280731"/>
  </node>
  <node id="-628" visible="true" lat="43.45775604" lon="-72.47090911">
    <tag k="addr:housenumber" v="968"/>
    <tag k="addr:street" v="Ski Tow Road"/>
    <tag k="addr:state" v="VT"/>
    <tag k="ref:vcgi:esiteid" v="280732"/>
  </node>
  <node id="-629" visible="true" lat="43.45785363" lon="-72.46904201">
    <tag k="addr:housenumber" v="1129"/>
    <tag k="addr:street" v="Ski Tow Road"/>
    <tag k="addr:state" v="VT"/>
    <tag k="ref:vcgi:esiteid" v="280733"/>
  </node>
  <node id="-630" visible="true" lat="43.45771847" lon="-72.46850623">
    <tag k="addr:housenumber" v="1144"/>
    <tag k="addr:street" v="Ski Tow Road"/>
    <tag k="addr:state" v="VT"/>
    <tag k="ref:vcgi:esiteid" v="280734"/>
  </node>
  <node id="-631" visible="true" lat="43.45768737" lon="-72.4727478">
    <tag k="addr:housenumber" v="230"/>
    <tag k="addr:street" v="Village Lane"/>
    <tag k="addr:state" v="VT"/>
    <tag k="ref:vcgi:esiteid" v="280735"/>
  </node>
  <node id="-632" visible="true" lat="43.45767705" lon="-72.47004154">
    <tag k="addr:housenumber" v="975"/>
    <tag k="addr:street" v="Ski Tow Road"/>
    <tag k="addr:state" v="VT"/>
    <tag k="ref:vcgi:esiteid" v="280736"/>
  </node>
  <node id="-633" visible="true" lat="43.45741952" lon="-72.46861252">
    <tag k="addr:housenumber" v="1122"/>
    <tag k="addr:street" v="Ski Tow Road"/>
    <tag k="addr:state" v="VT"/>
    <tag k="ref:vcgi:esiteid" v="280737"/>
  </node>
  <node id="-635" visible="true" lat="43.45729783" lon="-72.47008627">
    <tag k="addr:housenumber" v="999"/>
    <tag k="addr:street" v="Ski Tow Road"/>
    <tag k="addr:state" v="VT"/>
    <tag k="ref:vcgi:esiteid" v="280739"/>
  </node>
  <node id="-636" visible="true" lat="43.45723724" lon="-72.47180938">
    <tag k="addr:housenumber" v="290"/>
    <tag k="addr:street" v="Village Lane"/>
    <tag k="addr:state" v="VT"/>
    <tag k="ref:vcgi:esiteid" v="280740"/>
  </node>
  <node id="-637" visible="true" lat="43.4571762" lon="-72.46922302">
    <tag k="addr:housenumber" v="1087"/>
    <tag k="addr:street" v="Ski Tow Road"/>
    <tag k="addr:state" v="VT"/>
    <tag k="ref:vcgi:esiteid" v="280741"/>
  </node>
  <node id="-639" visible="true" lat="43.45708465" lon="-72.46887207">
    <tag k="addr:housenumber" v="1090"/>
    <tag k="addr:street" v="Ski Tow Road"/>
    <tag k="addr:state" v="VT"/>
    <tag k="ref:vcgi:esiteid" v="280743"/>
  </node>
  <node id="-640" visible="true" lat="43.45703506" lon="-72.48731994">
    <tag k="addr:housenumber" v="220"/>
    <tag k="addr:street" v="Coaching Lane"/>
    <tag k="addr:state" v="VT"/>
    <tag k="ref:vcgi:esiteid" v="280744"/>
  </node>
  <node id="-641" visible="true" lat="43.45658216" lon="-72.46983337">
    <tag k="addr:housenumber" v="1034"/>
    <tag k="addr:street" v="Ski Tow Road"/>
    <tag k="addr:state" v="VT"/>
    <tag k="ref:vcgi:esiteid" v="280745"/>
  </node>
  <node id="-645" visible="true" lat="43.45602035" lon="-72.48471832">
    <tag k="addr:housenumber" v="275"/>
    <tag k="addr:street" v="Coaching Lane"/>
    <tag k="addr:state" v="VT"/>
    <tag k="ref:vcgi:esiteid" v="280749"/>
  </node>
  <node id="-647" visible="true" lat="43.45576095" lon="-72.48397064">
    <tag k="addr:housenumber" v="277"/>
    <tag k="addr:street" v="Coaching Lane"/>
    <tag k="addr:state" v="VT"/>
    <tag k="ref:vcgi:esiteid" v="280751"/>
  </node>
  <node id="-648" visible="true" lat="43.45570373" lon="-72.48627471">
    <tag k="addr:housenumber" v="337"/>
    <tag k="addr:street" v="Coaching Lane"/>
    <tag k="addr:state" v="VT"/>
    <tag k="ref:vcgi:esiteid" v="280752"/>
  </node>
  <node id="-653" visible="true" lat="43.45496176" lon="-72.48710022">
    <tag k="addr:housenumber" v="400"/>
    <tag k="addr:street" v="Coaching Lane"/>
    <tag k="addr:state" v="VT"/>
    <tag k="ref:vcgi:esiteid" v="280757"/>
  </node>
  <node id="-655" visible="true" lat="43.45468906" lon="-72.48662875">
    <tag k="addr:housenumber" v="398"/>
    <tag k="addr:street" v="Coaching Lane"/>
    <tag k="addr:state" v="VT"/>
    <tag k="ref:vcgi:esiteid" v="280759"/>
  </node>
  <node id="-663" visible="true" lat="43.45386505" lon="-72.51735687">
    <tag k="addr:housenumber" v="144"/>
    <tag k="addr:street" v="Churchill Road"/>
    <tag k="addr:state" v="VT"/>
    <tag k="ref:vcgi:esiteid" v="280767"/>
  </node>
  <node id="-668" visible="true" lat="43.45313262" lon="-72.48563385">
    <tag k="addr:housenumber" v="506"/>
    <tag k="addr:street" v="Coaching Lane"/>
    <tag k="addr:state" v="VT"/>
    <tag k="ref:vcgi:esiteid" v="280773"/>
  </node>
  <node id="-670" visible="true" lat="43.4527893" lon="-72.51810455">
    <tag k="addr:housenumber" v="148"/>
    <tag k="addr:street" v="Churchill Road"/>
    <tag k="addr:state" v="VT"/>
    <tag k="ref:vcgi:esiteid" v="280775"/>
  </node>
  <node id="-671" visible="true" lat="43.4526062" lon="-72.51784515">
    <tag k="addr:housenumber" v="146"/>
    <tag k="addr:street" v="Churchill Road"/>
    <tag k="addr:state" v="VT"/>
    <tag k="ref:vcgi:esiteid" v="280776"/>
  </node>
  <node id="-673" visible="true" lat="43.45134353" lon="-72.52100372">
    <tag k="addr:housenumber" v="567"/>
    <tag k="addr:street" v="Churchill Road"/>
    <tag k="addr:state" v="VT"/>
    <tag k="ref:vcgi:esiteid" v="280778"/>
  </node>
  <node id="-674" visible="true" lat="43.45106124" lon="-72.49736785">
    <tag k="addr:housenumber" v="133"/>
    <tag k="addr:street" v="Yale Heights Road"/>
    <tag k="addr:state" v="VT"/>
    <tag k="ref:vcgi:esiteid" v="280779"/>
  </node>
  <node id="-676" visible="true" lat="43.45096206" lon="-72.52213287">
    <tag k="addr:housenumber" v="614"/>
    <tag k="addr:street" v="Churchill Road"/>
    <tag k="addr:state" v="VT"/>
    <tag k="ref:vcgi:esiteid" v="280781"/>
  </node>
  <node id="-678" visible="true" lat="43.45077514" lon="-72.48395538">
    <tag k="addr:housenumber" v="688"/>
    <tag k="addr:street" v="Coaching Lane"/>
    <tag k="addr:state" v="VT"/>
    <tag k="ref:vcgi:esiteid" v="280783"/>
  </node>
  <node id="-679" visible="true" lat="43.45071712" lon="-72.48105614">
    <tag k="addr:housenumber" v="701"/>
    <tag k="addr:street" v="Coaching Lane"/>
    <tag k="addr:state" v="VT"/>
    <tag k="ref:vcgi:esiteid" v="280784"/>
  </node>
  <node id="-680" visible="true" lat="43.45057678" lon="-72.4990921">
    <tag k="addr:housenumber" v="173"/>
    <tag k="addr:street" v="Yale Heights Road"/>
    <tag k="addr:state" v="VT"/>
    <tag k="ref:vcgi:esiteid" v="280785"/>
  </node>
  <node id="-682" visible="true" lat="43.45026016" lon="-72.52117919">
    <tag k="addr:housenumber" v="663"/>
    <tag k="addr:street" v="Churchill Road"/>
    <tag k="addr:state" v="VT"/>
    <tag k="ref:vcgi:esiteid" v="280787"/>
  </node>
  <node id="-684" visible="true" lat="43.44986345" lon="-72.52535254">
    <tag k="addr:housenumber" v="694"/>
    <tag k="addr:street" v="Churchill Road"/>
    <tag k="addr:state" v="VT"/>
    <tag k="ref:vcgi:esiteid" v="280789"/>
  </node>
  <node id="-685" visible="true" lat="43.44988632" lon="-72.50131988">
    <tag k="addr:housenumber" v="294"/>
    <tag k="addr:street" v="Yale Heights Road"/>
    <tag k="addr:state" v="VT"/>
    <tag k="ref:vcgi:esiteid" v="280790"/>
  </node>
  <node id="-686" visible="true" lat="43.4494295" lon="-72.52351908">
    <tag k="addr:housenumber" v="692"/>
    <tag k="addr:street" v="Churchill Road"/>
    <tag k="addr:state" v="VT"/>
    <tag k="ref:vcgi:esiteid" v="280791"/>
  </node>
  <node id="-688" visible="true" lat="43.44932742" lon="-72.49814497">
    <tag k="addr:housenumber" v="103"/>
    <tag k="addr:street" v="Olmsted Drive"/>
    <tag k="addr:state" v="VT"/>
    <tag k="ref:vcgi:esiteid" v="280793"/>
  </node>
  <node id="-689" visible="true" lat="43.44910812" lon="-72.50009155">
    <tag k="addr:housenumber" v="295"/>
    <tag k="addr:street" v="Yale Heights Road"/>
    <tag k="addr:state" v="VT"/>
    <tag k="ref:vcgi:esiteid" v="280794"/>
  </node>
  <node id="-694" visible="true" lat="43.44760306" lon="-72.50005349">
    <tag k="addr:housenumber" v="423"/>
    <tag k="addr:street" v="Yale Heights Road"/>
    <tag k="addr:state" v="VT"/>
    <tag k="ref:vcgi:esiteid" v="280799"/>
  </node>
  <node id="-697" visible="true" lat="43.44656753" lon="-72.49922943">
    <tag k="addr:housenumber" v="503"/>
    <tag k="addr:street" v="Yale Heights Road"/>
    <tag k="addr:state" v="VT"/>
    <tag k="ref:vcgi:esiteid" v="280802"/>
  </node>
  <node id="-699" visible="true" lat="43.44338607" lon="-72.48809051">
    <tag k="addr:housenumber" v="865"/>
    <tag k="addr:street" v="Kimball Farm Road"/>
    <tag k="addr:state" v="VT"/>
    <tag k="ref:vcgi:esiteid" v="280804"/>
  </node>
  <node id="-701" visible="true" lat="43.44288055" lon="-72.49051339">
    <tag k="addr:housenumber" v="846"/>
    <tag k="addr:street" v="Kimball Farm Road"/>
    <tag k="addr:state" v="VT"/>
    <tag k="ref:vcgi:esiteid" v="280806"/>
  </node>
  <node id="-702" visible="true" lat="43.44258502" lon="-72.51401407">
    <tag k="addr:housenumber" v="1403"/>
    <tag k="addr:street" v="Churchill Road"/>
    <tag k="addr:state" v="VT"/>
    <tag k="ref:vcgi:esiteid" v="280807"/>
  </node>
  <node id="-703" visible="true" lat="43.51547622" lon="-72.46240997">
    <tag k="addr:housenumber" v="3738"/>
    <tag k="addr:street" v="Brownsville Hartland Road"/>
    <tag k="addr:state" v="VT"/>
    <tag k="ref:vcgi:esiteid" v="280809"/>
  </node>
  <node id="-709" visible="true" lat="43.52666238" lon="-72.49186774">
    <tag k="addr:housenumber" v="2217"/>
    <tag k="addr:street" v="Blood Hill Road"/>
    <tag k="addr:state" v="VT"/>
    <tag k="ref:vcgi:esiteid" v="280815"/>
  </node>
  <node id="-710" visible="true" lat="43.52684911" lon="-72.49170156">
    <tag k="addr:housenumber" v="2221"/>
    <tag k="addr:street" v="Blood Hill Road"/>
    <tag k="addr:state" v="VT"/>
    <tag k="ref:vcgi:esiteid" v="280816"/>
  </node>
  <node id="-711" visible="true" lat="43.52603149" lon="-72.46468353">
    <tag k="addr:housenumber" v="190"/>
    <tag k="addr:street" v="Bronson Road"/>
    <tag k="addr:state" v="VT"/>
    <tag k="ref:vcgi:esiteid" v="280817"/>
  </node>
  <node id="-712" visible="true" lat="43.52585983" lon="-72.46237182">
    <tag k="addr:housenumber" v="344"/>
    <tag k="addr:street" v="Bronson Road"/>
    <tag k="addr:state" v="VT"/>
    <tag k="ref:vcgi:esiteid" v="280818"/>
  </node>
  <node id="-713" visible="true" lat="43.52628036" lon="-72.46204917">
    <tag k="addr:housenumber" v="345"/>
    <tag k="addr:street" v="Bronson Road"/>
    <tag k="addr:state" v="VT"/>
    <tag k="ref:vcgi:esiteid" v="280819"/>
  </node>
  <node id="-719" visible="true" lat="43.48749132" lon="-72.48160563">
    <tag k="addr:housenumber" v="346"/>
    <tag k="addr:street" v="Cemetery Road"/>
    <tag k="addr:state" v="VT"/>
    <tag k="ref:vcgi:esiteid" v="280825"/>
  </node>
  <node id="-720" visible="true" lat="43.44914618" lon="-72.49910517">
    <tag k="addr:housenumber" v="128"/>
    <tag k="addr:street" v="Olmsted Drive"/>
    <tag k="addr:state" v="VT"/>
    <tag k="ref:vcgi:esiteid" v="280826"/>
  </node>
  <node id="-721" visible="true" lat="43.4487231" lon="-72.49862517">
    <tag k="addr:housenumber" v="123"/>
    <tag k="addr:street" v="Olmsted Drive"/>
    <tag k="addr:state" v="VT"/>
    <tag k="ref:vcgi:esiteid" v="280827"/>
  </node>
  <node id="-722" visible="true" lat="43.49650108" lon="-72.48654362">
    <tag k="addr:housenumber" v="65"/>
    <tag k="addr:street" v="Clough Road"/>
    <tag k="addr:state" v="VT"/>
    <tag k="ref:vcgi:esiteid" v="280828"/>
  </node>
  <node id="-723" visible="true" lat="43.49616055" lon="-72.48760885">
    <tag k="addr:housenumber" v="9"/>
    <tag k="addr:street" v="Clough Road"/>
    <tag k="addr:state" v="VT"/>
    <tag k="ref:vcgi:esiteid" v="280829"/>
  </node>
  <node id="-731" visible="true" lat="43.4617958" lon="-72.484375">
    <tag k="addr:housenumber" v="1790"/>
    <tag k="addr:street" v="Vermont Route 44"/>
    <tag k="addr:state" v="VT"/>
    <tag k="ref:vcgi:esiteid" v="280837"/>
  </node>
  <node id="-732" visible="true" lat="43.46133422" lon="-72.48622131">
    <tag k="addr:housenumber" v="609"/>
    <tag k="addr:street" v="Harrington Road"/>
    <tag k="addr:state" v="VT"/>
    <tag k="ref:vcgi:esiteid" v="280839"/>
  </node>
  <node id="-735" visible="true" lat="43.47187909" lon="-72.46504542">
    <tag k="addr:housenumber" v="217"/>
    <tag k="addr:street" v="Brook Road"/>
    <tag k="addr:state" v="VT"/>
    <tag k="ref:vcgi:esiteid" v="280842"/>
  </node>
  <node id="-736" visible="true" lat="43.44479161" lon="-72.49804688">
    <tag k="addr:housenumber" v="563"/>
    <tag k="addr:street" v="Yale Heights Road"/>
    <tag k="addr:state" v="VT"/>
    <tag k="ref:vcgi:esiteid" v="280843"/>
  </node>
  <node id="-743" visible="true" lat="43.5048062" lon="-72.49317652">
    <tag k="addr:housenumber" v="317"/>
    <tag k="addr:street" v="Cowshed Trail"/>
    <tag k="addr:state" v="VT"/>
    <tag k="ref:vcgi:esiteid" v="280850"/>
  </node>
  <node id="-748" visible="true" lat="43.51179559" lon="-72.46676278">
    <tag k="addr:housenumber" v="3482"/>
    <tag k="addr:street" v="Brownsville Hartland Road"/>
    <tag k="addr:state" v="VT"/>
    <tag k="ref:vcgi:esiteid" v="280855"/>
  </node>
  <node id="-749" visible="true" lat="43.44291283" lon="-72.49956089">
    <tag k="addr:housenumber" v="890"/>
    <tag k="addr:street" v="Yale Heights Road"/>
    <tag k="addr:state" v="VT"/>
    <tag k="ref:vcgi:esiteid" v="280856"/>
  </node>
  <node id="-752" visible="true" lat="43.45832116" lon="-72.4677414">
    <tag k="addr:housenumber" v="1192"/>
    <tag k="addr:street" v="Ski Tow Road"/>
    <tag k="addr:state" v="VT"/>
    <tag k="ref:vcgi:esiteid" v="280859"/>
  </node>
  <node id="-753" visible="true" lat="43.50903507" lon="-72.49618532">
    <tag k="addr:housenumber" v="1123"/>
    <tag k="addr:street" v="Silver Hill Road"/>
    <tag k="addr:state" v="VT"/>
    <tag k="ref:vcgi:esiteid" v="280860"/>
  </node>
  <node id="-756" visible="true" lat="43.51206493" lon="-72.47240238">
    <tag k="addr:housenumber" v="88"/>
    <tag k="addr:street" v="Cross Road"/>
    <tag k="addr:state" v="VT"/>
    <tag k="ref:vcgi:esiteid" v="280863"/>
  </node>
  <node id="-757" visible="true" lat="43.47529243" lon="-72.47215627">
    <tag k="addr:housenumber" v="504"/>
    <tag k="addr:street" v="Brownsville Hartland Road"/>
    <tag k="addr:state" v="VT"/>
    <tag k="ref:vcgi:esiteid" v="280864"/>
  </node>
  <node id="-761" visible="true" lat="43.51813972" lon="-72.48677012">
    <tag k="addr:housenumber" v="151"/>
    <tag k="addr:street" v="Parrish View Road"/>
    <tag k="addr:state" v="VT"/>
    <tag k="ref:vcgi:esiteid" v="280868"/>
  </node>
  <node id="-766" visible="true" lat="43.47800843" lon="-72.47251136">
    <tag k="addr:housenumber" v="740"/>
    <tag k="addr:street" v="Brownsville Hartland Road"/>
    <tag k="addr:state" v="VT"/>
    <tag k="ref:vcgi:esiteid" v="280873"/>
  </node>
  <node id="-769" visible="true" lat="43.49415029" lon="-72.48617073">
    <tag k="addr:housenumber" v="445"/>
    <tag k="addr:street" v="Knob Hill Road"/>
    <tag k="addr:state" v="VT"/>
    <tag k="ref:vcgi:esiteid" v="280876"/>
  </node>
  <node id="-770" visible="true" lat="43.47452756" lon="-72.47181013">
    <tag k="addr:housenumber" v="412"/>
    <tag k="addr:street" v="Brownsville Hartland Road"/>
    <tag k="addr:state" v="VT"/>
    <tag k="ref:vcgi:esiteid" v="280877"/>
  </node>
  <node id="-775" visible="true" lat="43.51696926" lon="-72.52379022">
    <tag k="addr:housenumber" v="4377"/>
    <tag k="addr:street" v="Rush Meadow Road"/>
    <tag k="addr:state" v="VT"/>
    <tag k="ref:vcgi:esiteid" v="280882"/>
  </node>
  <node id="-777" visible="true" lat="43.48684239" lon="-72.4865845">
    <tag k="addr:housenumber" v="567"/>
    <tag k="addr:street" v="Cemetery Road"/>
    <tag k="addr:state" v="VT"/>
    <tag k="ref:vcgi:esiteid" v="280884"/>
  </node>
  <node id="-778" visible="true" lat="43.46149894" lon="-72.47428166">
    <tag k="addr:housenumber" v="556"/>
    <tag k="addr:street" v="Skyhawk Lane"/>
    <tag k="addr:state" v="VT"/>
    <tag k="ref:vcgi:esiteid" v="280885"/>
  </node>
  <node id="-779" visible="true" lat="43.4609947" lon="-72.47380259">
    <tag k="addr:housenumber" v="612"/>
    <tag k="addr:street" v="Skyhawk Lane"/>
    <tag k="addr:state" v="VT"/>
    <tag k="ref:vcgi:esiteid" v="280886"/>
  </node>
  <node id="-780" visible="true" lat="43.4580639" lon="-72.47071304">
    <tag k="addr:housenumber" v="940"/>
    <tag k="addr:street" v="Ski Tow Road"/>
    <tag k="addr:state" v="VT"/>
    <tag k="ref:vcgi:esiteid" v="280887"/>
  </node>
  <node id="-782" visible="true" lat="43.51674548" lon="-72.48512682">
    <tag k="addr:housenumber" v="122"/>
    <tag k="addr:street" v="Parrish View Road"/>
    <tag k="addr:state" v="VT"/>
    <tag k="ref:vcgi:esiteid" v="280889"/>
  </node>
  <node id="-784" visible="true" lat="43.45795235" lon="-72.47011053">
    <tag k="addr:housenumber" v="951"/>
    <tag k="addr:street" v="Ski Tow Road"/>
    <tag k="addr:state" v="VT"/>
    <tag k="ref:vcgi:esiteid" v="280892"/>
  </node>
  <node id="-786" visible="true" lat="43.51537266" lon="-72.48586986">
    <tag k="addr:housenumber" v="84"/>
    <tag k="addr:street" v="Parrish View Road"/>
    <tag k="addr:state" v="VT"/>
    <tag k="ref:vcgi:esiteid" v="280894"/>
  </node>
  <node id="-787" visible="true" lat="43.46325041" lon="-72.4743021">
    <tag k="addr:housenumber" v="460"/>
    <tag k="addr:street" v="Skyhawk Lane"/>
    <tag k="addr:state" v="VT"/>
    <tag k="ref:vcgi:esiteid" v="280895"/>
  </node>
  <node id="-788" visible="true" lat="43.46370858" lon="-72.47258091">
    <tag k="addr:housenumber" v="399"/>
    <tag k="addr:street" v="Skyhawk Lane"/>
    <tag k="addr:state" v="VT"/>
    <tag k="ref:vcgi:esiteid" v="280896"/>
  </node>
  <node id="-792" visible="true" lat="43.46396614" lon="-72.47338133">
    <tag k="addr:housenumber" v="400"/>
    <tag k="addr:street" v="Skyhawk Lane"/>
    <tag k="addr:state" v="VT"/>
    <tag k="ref:vcgi:esiteid" v="280900"/>
  </node>
  <node id="-794" visible="true" lat="43.46449659" lon="-72.47295254">
    <tag k="addr:housenumber" v="384"/>
    <tag k="addr:street" v="Skyhawk Lane"/>
    <tag k="addr:state" v="VT"/>
    <tag k="ref:vcgi:esiteid" v="280902"/>
  </node>
  <node id="-795" visible="true" lat="43.51846048" lon="-72.5244242">
    <tag k="addr:housenumber" v="4677"/>
    <tag k="addr:street" v="Rush Meadow Road"/>
    <tag k="addr:state" v="VT"/>
    <tag k="ref:vcgi:esiteid" v="280903"/>
  </node>
  <node id="-798" visible="true" lat="43.48907122" lon="-72.48831013">
    <tag k="addr:housenumber" v="123"/>
    <tag k="addr:street" v="South Knob Hill Road"/>
    <tag k="addr:state" v="VT"/>
    <tag k="ref:vcgi:esiteid" v="280907"/>
  </node>
  <node id="-799" visible="true" lat="43.45873208" lon="-72.47312124">
    <tag k="addr:housenumber" v="148"/>
    <tag k="addr:street" v="Village Lane"/>
    <tag k="addr:state" v="VT"/>
    <tag k="ref:vcgi:esiteid" v="280908"/>
  </node>
  <node id="-801" visible="true" lat="43.46132306" lon="-72.47217272">
    <tag k="addr:housenumber" v="777"/>
    <tag k="addr:street" v="Skyhawk Lane"/>
    <tag k="addr:state" v="VT"/>
    <tag k="ref:vcgi:esiteid" v="280910"/>
  </node>
  <node id="-802" visible="true" lat="43.52400372" lon="-72.51633196">
    <tag k="addr:housenumber" v="331"/>
    <tag k="addr:street" v="Duling Road"/>
    <tag k="addr:state" v="VT"/>
    <tag k="ref:vcgi:esiteid" v="280911"/>
  </node>
  <node id="-805" visible="true" lat="43.48988861" lon="-72.48729385">
    <tag k="addr:housenumber" v="120"/>
    <tag k="addr:street" v="South Knob Hill Road"/>
    <tag k="addr:state" v="VT"/>
    <tag k="ref:vcgi:esiteid" v="305501"/>
  </node>
  <node id="-808" visible="true" lat="43.44331288" lon="-72.50432574">
    <tag k="addr:housenumber" v="860"/>
    <tag k="addr:street" v="Yale Heights Road"/>
    <tag k="addr:state" v="VT"/>
    <tag k="ref:vcgi:esiteid" v="306853"/>
  </node>
  <node id="-811" visible="true" lat="43.51682455" lon="-72.48689165">
    <tag k="addr:housenumber" v="131"/>
    <tag k="addr:street" v="Parrish View Road"/>
    <tag k="addr:state" v="VT"/>
    <tag k="ref:vcgi:esiteid" v="311811"/>
  </node>
  <node id="-814" visible="true" lat="43.48800033" lon="-72.48969945">
    <tag k="addr:housenumber" v="743"/>
    <tag k="addr:street" v="Cemetery Road"/>
    <tag k="addr:state" v="VT"/>
    <tag k="ref:vcgi:esiteid" v="313896"/>
  </node>
  <node id="-815" visible="true" lat="43.45691504" lon="-72.47147379">
    <tag k="addr:housenumber" v="292"/>
    <tag k="addr:street" v="Village Lane"/>
    <tag k="addr:state" v="VT"/>
    <tag k="ref:vcgi:esiteid" v="313897"/>
  </node>
  <node id="-821" visible="true" lat="43.47442378" lon="-72.46001034">
    <tag k="addr:housenumber" v="222"/>
    <tag k="addr:street" v="Pierce Hill Road"/>
    <tag k="addr:state" v="VT"/>
    <tag k="ref:vcgi:esiteid" v="317520"/>
  </node>
  <node id="-825" visible="true" lat="43.45781238" lon="-72.47204725">
    <tag k="addr:housenumber" v="280"/>
    <tag k="addr:street" v="Village Lane"/>
    <tag k="addr:state" v="VT"/>
    <tag k="ref:vcgi:esiteid" v="331045"/>
  </node>
  <node id="-827" visible="true" lat="43.46207378" lon="-72.47565784">
    <tag k="addr:housenumber" v="40"/>
    <tag k="addr:street" v="Mountainside Drive"/>
    <tag k="addr:state" v="VT"/>
    <tag k="ref:vcgi:esiteid" v="337944"/>
  </node>
  <node id="-828" visible="true" lat="43.48572513" lon="-72.4871234">
    <tag k="addr:housenumber" v="579"/>
    <tag k="addr:street" v="Cemetery Road"/>
    <tag k="addr:state" v="VT"/>
    <tag k="ref:vcgi:esiteid" v="337953"/>
  </node>
  <node id="-832" visible="true" lat="43.52392936" lon="-72.52325642">
    <tag k="addr:housenumber" v="4964"/>
    <tag k="addr:street" v="Rush Meadow Road"/>
    <tag k="addr:state" v="VT"/>
    <tag k="ref:vcgi:esiteid" v="342207"/>
  </node>
  <node id="-835" visible="true" lat="43.48570748" lon="-72.48375299">
    <tag k="addr:housenumber" v="411"/>
    <tag k="addr:street" v="Cemetery Road"/>
    <tag k="addr:state" v="VT"/>
    <tag k="ref:vcgi:esiteid" v="345638"/>
  </node>
  <node id="-838" visible="true" lat="43.44917017" lon="-72.48114865">
    <tag k="addr:housenumber" v="881"/>
    <tag k="addr:street" v="Coaching Lane"/>
    <tag k="addr:state" v="VT"/>
    <tag k="ref:vcgi:esiteid" v="446516"/>
  </node>
  <node id="-855" visible="true" lat="43.51552108" lon="-72.51759719">
    <tag k="addr:housenumber" v="4108"/>
    <tag k="addr:street" v="Rush Meadow Road"/>
    <tag k="addr:state" v="VT"/>
    <tag k="ref:vcgi:esiteid" v="450238"/>
  </node>
  <node id="-868" visible="true" lat="43.46303274" lon="-72.46598295">
    <tag k="addr:housenumber" v="547"/>
    <tag k="addr:street" v="Ski Tow Road"/>
    <tag k="addr:state" v="VT"/>
    <tag k="ref:vcgi:esiteid" v="613601"/>
  </node>
  <node id="-896" visible="true" lat="43.46003826" lon="-72.47437708">
    <tag k="addr:housenumber" v="191"/>
    <tag k="addr:street" v="Mountainside Drive"/>
    <tag k="addr:state" v="VT"/>
    <tag k="ref:vcgi:esiteid" v="618286"/>
  </node>
  <node id="-908" visible="true" lat="43.46798912" lon="-72.46356522">
    <tag k="addr:housenumber" v="138"/>
    <tag k="addr:street" v="Hotel Road"/>
    <tag k="addr:state" v="VT"/>
    <tag k="ref:vcgi:esiteid" v="753173"/>
  </node>
  <node id="-921" visible="true" lat="43.50905215" lon="-72.49455707">
    <tag k="addr:housenumber" v="1121"/>
    <tag k="addr:street" v="Silver Hill Road"/>
    <tag k="addr:state" v="VT"/>
    <tag k="ref:vcgi:esiteid" v="759603"/>
  </node>
</osm>
