<?xml version="1.0" encoding="UTF-8"?>
<osm version="0.6" generator="JOSM">
  <node id="-102" visible="true" lat="43.89671136" lon="-72.26020337">
    <!-- conflict: "1257 West Fairlee Road, West Fairlee, VT" Fuzzy match to "1257 West Fairlee Road, Thetford, VT" -->
    <tag k="addr:city" v="West Fairlee"/>
    <tag k="addr:housenumber" v="1257"/>
    <tag k="addr:street" v="West Fairlee Road"/>
    <tag k="addr:state" v="VT"/>
    <tag k="ref:vcgi:esiteid" v="258472"/>
  </node>
  <node id="-107" visible="true" lat="43.93766645" lon="-72.26486039">
    <!-- conflict: "2816 Vermont Route 113, West Fairlee, VT" No match in OSM, but a different address exists <5m away: "2816 Vt Route 113, West Fairlee, VT" -->
    <tag k="addr:city" v="West Fairlee"/>
    <tag k="addr:housenumber" v="2816"/>
    <tag k="addr:street" v="Vermont Route 113"/>
    <tag k="addr:state" v="VT"/>
    <tag k="ref:vcgi:esiteid" v="267188"/>
  </node>
  <node id="-130" visible="true" lat="43.9736433" lon="-72.20225217">
    <!-- conflict: "2095 Wild Hill Road, West Fairlee, VT" No match in OSM, but a different address exists <5m away: "69 Tebbetts Notch Road, West Fairlee, VT" -->
    <tag k="addr:city" v="West Fairlee"/>
    <tag k="addr:housenumber" v="2095"/>
    <tag k="addr:street" v="Wild Hill Road"/>
    <tag k="addr:state" v="VT"/>
    <tag k="ref:vcgi:esiteid" v="278701"/>
  </node>
  <node id="-256" visible="true" lat="43.91502443" lon="-72.23728015">
    <!-- conflict: "60 Manley Hill Road, West Fairlee, VT" No match in OSM, but a different address exists <5m away: "1793 Robinson Road, West Fairlee, VT" -->
    <tag k="addr:city" v="West Fairlee"/>
    <tag k="addr:housenumber" v="60"/>
    <tag k="addr:street" v="Manley Hill Road"/>
    <tag k="addr:state" v="VT"/>
    <tag k="ref:vcgi:esiteid" v="278833"/>
  </node>
  <node id="-302" visible="true" lat="43.90992041" lon="-72.26206169">
    <!-- conflict: "894 Vermont Route 113, West Fairlee, VT" No match in OSM, but a different address exists <5m away: "894 VT-113, West Fairlee, VT" -->
    <tag k="addr:city" v="West Fairlee"/>
    <tag k="addr:housenumber" v="894"/>
    <tag k="addr:street" v="Vermont Route 113"/>
    <tag k="addr:state" v="VT"/>
    <tag k="ref:vcgi:esiteid" v="278885"/>
  </node>
  <node id="-315" visible="true" lat="43.90896828" lon="-72.26364293">
    <!-- conflict: "35 Beanville Road, West Fairlee, VT" No match in OSM, but a different address exists <5m away: "41 Beanville Road, West Fairlee, VT" -->
    <tag k="addr:city" v="West Fairlee"/>
    <tag k="addr:housenumber" v="35"/>
    <tag k="addr:street" v="Beanville Road"/>
    <tag k="addr:state" v="VT"/>
    <tag k="ref:vcgi:esiteid" v="278900"/>
  </node>
  <node id="-333" visible="true" lat="43.90822595" lon="-72.2632317">
    <!-- conflict: "773 Vermont Route 113, West Fairlee, VT" No match in OSM, but a different address exists <5m away: "739 Vermont Route 113, West Fairlee, VT" -->
    <tag k="addr:city" v="West Fairlee"/>
    <tag k="addr:housenumber" v="773"/>
    <tag k="addr:street" v="Vermont Route 113"/>
    <tag k="addr:state" v="VT"/>
    <tag k="ref:vcgi:esiteid" v="278919"/>
  </node>
  <node id="-335" visible="true" lat="43.90828096" lon="-72.26242544">
    <!-- conflict: "794 Vermont Route 113, West Fairlee, VT" No match in OSM, but a different address exists <5m away: "774 Vermont Route 113, West Fairlee, VT" -->
    <tag k="addr:city" v="West Fairlee"/>
    <tag k="addr:housenumber" v="794"/>
    <tag k="addr:street" v="Vermont Route 113"/>
    <tag k="addr:state" v="VT"/>
    <tag k="ref:vcgi:esiteid" v="278921"/>
  </node>
  <node id="-336" visible="true" lat="43.90789749" lon="-72.26233272">
    <!-- conflict: "784 Vermont Route 113, West Fairlee, VT" No match in OSM, but a different address exists <5m away: "746 Vermont Route 113, West Fairlee, VT" -->
    <tag k="addr:city" v="West Fairlee"/>
    <tag k="addr:housenumber" v="784"/>
    <tag k="addr:street" v="Vermont Route 113"/>
    <tag k="addr:state" v="VT"/>
    <tag k="ref:vcgi:esiteid" v="278923"/>
  </node>
  <node id="-341" visible="true" lat="43.90646188" lon="-72.26397557">
    <!-- conflict: "653 Vermont Route 113, West Fairlee, VT" No match in OSM, but a different address exists <5m away: "653 Vt Route 113, West Fairlee, VT" -->
    <tag k="addr:city" v="West Fairlee"/>
    <tag k="addr:housenumber" v="653"/>
    <tag k="addr:street" v="Vermont Route 113"/>
    <tag k="addr:state" v="VT"/>
    <tag k="ref:vcgi:esiteid" v="278928"/>
  </node>
  <node id="-347" visible="true" lat="43.90473629" lon="-72.2625692">
    <!-- conflict: "534 Vermont Route 113, West Fairlee, VT" No match in OSM, but a different address exists <5m away: "534 Vt Route 113, West Fairlee, VT" -->
    <tag k="addr:city" v="West Fairlee"/>
    <tag k="addr:housenumber" v="534"/>
    <tag k="addr:street" v="Vermont Route 113"/>
    <tag k="addr:state" v="VT"/>
    <tag k="ref:vcgi:esiteid" v="278934"/>
  </node>
  <node id="-348" visible="true" lat="43.90436935" lon="-72.26236724">
    <!-- conflict: "514 Vermont Route 113, West Fairlee, VT" No match in OSM, but a different address exists <5m away: "514 Vt Route 113, West Fairlee, VT" -->
    <tag k="addr:city" v="West Fairlee"/>
    <tag k="addr:housenumber" v="514"/>
    <tag k="addr:street" v="Vermont Route 113"/>
    <tag k="addr:state" v="VT"/>
    <tag k="ref:vcgi:esiteid" v="278935"/>
  </node>
  <node id="-358" visible="true" lat="43.89870668" lon="-72.26344381">
    <!-- conflict: "133 Vermont Route 113, West Fairlee, VT" No match in OSM, but a different address exists <5m away: "133 Vt Route 113, West Fairlee, VT" -->
    <tag k="addr:city" v="West Fairlee"/>
    <tag k="addr:housenumber" v="133"/>
    <tag k="addr:street" v="Vermont Route 113"/>
    <tag k="addr:state" v="VT"/>
    <tag k="ref:vcgi:esiteid" v="278946"/>
  </node>
  <node id="-360" visible="true" lat="43.89797174" lon="-72.26189299">
    <!-- conflict: "42 Vermont Route 113, West Fairlee, VT" No match in OSM, but a different address exists <5m away: "42 Vt Route 113, West Fairlee, VT" -->
    <tag k="addr:city" v="West Fairlee"/>
    <tag k="addr:housenumber" v="42"/>
    <tag k="addr:street" v="Vermont Route 113"/>
    <tag k="addr:state" v="VT"/>
    <tag k="ref:vcgi:esiteid" v="278948"/>
  </node>
  <node id="-382" visible="true" lat="43.88990345" lon="-72.23191869">
    <!-- conflict: "4073 Vermont Route 244, West Fairlee, VT" No match in OSM, but a different address exists <5m away: "4073 VT Route 244, West Fairlee, VT" -->
    <tag k="addr:city" v="West Fairlee"/>
    <tag k="addr:housenumber" v="4073"/>
    <tag k="addr:street" v="Vermont Route 244"/>
    <tag k="addr:state" v="VT"/>
    <tag k="ref:vcgi:esiteid" v="278970"/>
  </node>
  <node id="-413" visible="true" lat="43.89380662" lon="-72.24822152">
    <!-- conflict: "644 West Fairlee Road, West Fairlee, VT" No match in OSM, but a different address exists <5m away: "640 West Fairlee Road, West Fairlee, VT" -->
    <tag k="addr:city" v="West Fairlee"/>
    <tag k="addr:housenumber" v="644"/>
    <tag k="addr:street" v="West Fairlee Road"/>
    <tag k="addr:state" v="VT"/>
    <tag k="ref:vcgi:esiteid" v="279009"/>
  </node>
  <node id="-418" visible="true" lat="43.90751329" lon="-72.26316545">
    <!-- conflict: "755 Vermont Route 113, West Fairlee, VT" No match in OSM, but a different address exists <5m away: "715 Vermont Route 113, West Fairlee, VT" -->
    <tag k="addr:city" v="West Fairlee"/>
    <tag k="addr:housenumber" v="755"/>
    <tag k="addr:street" v="Vermont Route 113"/>
    <tag k="addr:state" v="VT"/>
    <tag k="ref:vcgi:esiteid" v="279015"/>
  </node>
  <node id="-427" visible="true" lat="43.90820303" lon="-72.2493105">
    <!-- conflict: "838 Mill Street, West Fairlee, VT" No match in OSM, but a different address exists <5m away: "838 Robinson Road, West Fairlee, VT" -->
    <tag k="addr:city" v="West Fairlee"/>
    <tag k="addr:housenumber" v="838"/>
    <tag k="addr:street" v="Mill Street"/>
    <tag k="addr:state" v="VT"/>
    <tag k="ref:vcgi:esiteid" v="279024"/>
  </node>
  <node id="-457" visible="true" lat="43.91327285" lon="-72.26440429">
    <!-- conflict: "21 Austin Road Extension, West Fairlee, VT" No match in OSM, but a different address exists <5m away: "50 Austin Road, West Fairlee, VT" -->
    <tag k="addr:city" v="West Fairlee"/>
    <tag k="addr:housenumber" v="21"/>
    <tag k="addr:street" v="Austin Road Extension"/>
    <tag k="addr:state" v="VT"/>
    <tag k="ref:vcgi:esiteid" v="326520"/>
  </node>
  <node id="-485" visible="true" lat="43.89331825" lon="-72.21873409">
    <!-- conflict: "3295 Vermont Route 244, West Fairlee, VT" No match in OSM, but a different address exists <5m away: "3295 VT Route 244, West Fairlee, VT" -->
    <tag k="addr:city" v="West Fairlee"/>
    <tag k="addr:housenumber" v="3295"/>
    <tag k="addr:street" v="Vermont Route 244"/>
    <tag k="addr:state" v="VT"/>
    <tag k="ref:vcgi:esiteid" v="448009"/>
  </node>
  <node id="-490" visible="true" lat="43.89043761" lon="-72.22686162">
    <!-- conflict: "3795 Vermont Route 244, West Fairlee, VT" No match in OSM, but a different address exists <5m away: "3795 VT Route 244, West Fairlee, VT" -->
    <tag k="addr:city" v="West Fairlee"/>
    <tag k="addr:housenumber" v="3795"/>
    <tag k="addr:street" v="Vermont Route 244"/>
    <tag k="addr:state" v="VT"/>
    <tag k="ref:vcgi:esiteid" v="450539"/>
  </node>
  <node id="-491" visible="true" lat="43.89035444" lon="-72.22818326">
    <!-- conflict: "3873 Vermont Route 244, West Fairlee, VT" No match in OSM, but a different address exists <5m away: "3873 VT Route 244, West Fairlee, VT" -->
    <tag k="addr:city" v="West Fairlee"/>
    <tag k="addr:housenumber" v="3873"/>
    <tag k="addr:street" v="Vermont Route 244"/>
    <tag k="addr:state" v="VT"/>
    <tag k="ref:vcgi:esiteid" v="450540"/>
  </node>
  <node id="-492" visible="true" lat="43.89167022" lon="-72.22821844">
    <!-- conflict: "3878 Vermont Route 244, West Fairlee, VT" No match in OSM, but a different address exists <5m away: "3878 VT Route 244, West Fairlee, VT" -->
    <tag k="addr:city" v="West Fairlee"/>
    <tag k="addr:housenumber" v="3878"/>
    <tag k="addr:street" v="Vermont Route 244"/>
    <tag k="addr:state" v="VT"/>
    <tag k="ref:vcgi:esiteid" v="450541"/>
  </node>
  <node id="-504" visible="true" lat="43.92658449" lon="-72.20407127">
    <!-- conflict: "1916 Blood Brook Road, West Fairlee, VT" No match in OSM, but a different address exists <5m away: "1876 Blood Brook Road, West Fairlee, VT" -->
    <tag k="addr:city" v="West Fairlee"/>
    <tag k="addr:housenumber" v="1916"/>
    <tag k="addr:street" v="Blood Brook Road"/>
    <tag k="addr:state" v="VT"/>
    <tag k="ref:vcgi:esiteid" v="454303"/>
  </node>
  <node id="-507" visible="true" lat="43.95084623" lon="-72.25636839">
    <!-- conflict: "1099 Beaver Meadow Road, West Fairlee, VT" Fuzzy match to "1099 Beaver Meadow Road, Vershire, VT" -->
    <tag k="addr:city" v="West Fairlee"/>
    <tag k="addr:housenumber" v="1099"/>
    <tag k="addr:street" v="Beaver Meadow Road"/>
    <tag k="addr:state" v="VT"/>
    <tag k="ref:vcgi:esiteid" v="454379"/>
  </node>
  <node id="-516" visible="true" lat="43.90912245" lon="-72.26374351">
    <!-- conflict: "37 Beanville Road, West Fairlee, VT" No match in OSM, but a different address exists <5m away: "51 Beanville Road, West Fairlee, VT" -->
    <tag k="addr:city" v="West Fairlee"/>
    <tag k="addr:housenumber" v="37"/>
    <tag k="addr:street" v="Beanville Road"/>
    <tag k="addr:state" v="VT"/>
    <tag k="ref:vcgi:esiteid" v="611001"/>
  </node>
  <node id="-583" visible="true" lat="43.89587467" lon="-72.25673755">
    <!-- conflict: "1091 West Fairlee Road, West Fairlee, VT" Fuzzy match to "1091 West Fairlee Road, Thetford;West Fairlee, VT" -->
    <tag k="addr:city" v="West Fairlee"/>
    <tag k="addr:housenumber" v="1091"/>
    <tag k="addr:street" v="West Fairlee Road"/>
    <tag k="addr:state" v="VT"/>
    <tag k="ref:vcgi:esiteid" v="750856"/>
  </node>
  <node id="-585" visible="true" lat="43.89564505" lon="-72.25626427">
    <!-- conflict: "1067 West Fairlee Road, West Fairlee, VT" Fuzzy match to "1067 West Fairlee Road, Thetford, VT" -->
    <tag k="addr:city" v="West Fairlee"/>
    <tag k="addr:housenumber" v="1067"/>
    <tag k="addr:street" v="West Fairlee Road"/>
    <tag k="addr:state" v="VT"/>
    <tag k="ref:vcgi:esiteid" v="750858"/>
  </node>
  <node id="-586" visible="true" lat="43.89545073" lon="-72.25559326">
    <!-- conflict: "1051 West Fairlee Road, West Fairlee, VT" Fuzzy match to "1051 West Fairlee Road, Thetford;West Fairlee, VT" -->
    <tag k="addr:city" v="West Fairlee"/>
    <tag k="addr:housenumber" v="1051"/>
    <tag k="addr:street" v="West Fairlee Road"/>
    <tag k="addr:state" v="VT"/>
    <tag k="ref:vcgi:esiteid" v="750859"/>
  </node>
  <node id="-587" visible="true" lat="43.89472264" lon="-72.25255342">
    <!-- conflict: "865 West Fairlee Road, West Fairlee, VT" Fuzzy match to "865 West Fairlee Road, Thetford, VT" -->
    <tag k="addr:city" v="West Fairlee"/>
    <tag k="addr:housenumber" v="865"/>
    <tag k="addr:street" v="West Fairlee Road"/>
    <tag k="addr:state" v="VT"/>
    <tag k="ref:vcgi:esiteid" v="750860"/>
  </node>
  <node id="-588" visible="true" lat="43.89462196" lon="-72.25224758">
    <!-- conflict: "859 West Fairlee Road, West Fairlee, VT" Fuzzy match to "859 West Fairlee Road, Thetford;West Fairlee, VT" -->
    <tag k="addr:city" v="West Fairlee"/>
    <tag k="addr:housenumber" v="859"/>
    <tag k="addr:street" v="West Fairlee Road"/>
    <tag k="addr:state" v="VT"/>
    <tag k="ref:vcgi:esiteid" v="750861"/>
  </node>
  <node id="-589" visible="true" lat="43.8943844" lon="-72.25141871">
    <!-- conflict: "799 West Fairlee Road, West Fairlee, VT" Fuzzy match to "799 West Fairlee Road, Thetford;West Fairlee, VT" -->
    <tag k="addr:city" v="West Fairlee"/>
    <tag k="addr:housenumber" v="799"/>
    <tag k="addr:street" v="West Fairlee Road"/>
    <tag k="addr:state" v="VT"/>
    <tag k="ref:vcgi:esiteid" v="750862"/>
  </node>
  <node id="-590" visible="true" lat="43.89385158" lon="-72.24951425">
    <!-- conflict: "703 West Fairlee Road, West Fairlee, VT" Fuzzy match to "703 West Fairlee Road, Thetford;West Fairlee, VT" -->
    <tag k="addr:city" v="West Fairlee"/>
    <tag k="addr:housenumber" v="703"/>
    <tag k="addr:street" v="West Fairlee Road"/>
    <tag k="addr:state" v="VT"/>
    <tag k="ref:vcgi:esiteid" v="750863"/>
  </node>
  <node id="-591" visible="true" lat="43.89370028" lon="-72.24893202">
    <!-- conflict: "671 West Fairlee Road, West Fairlee, VT" Fuzzy match to "671 West Fairlee Road, Thetford;West Fairlee, VT" -->
    <tag k="addr:city" v="West Fairlee"/>
    <tag k="addr:housenumber" v="671"/>
    <tag k="addr:street" v="West Fairlee Road"/>
    <tag k="addr:state" v="VT"/>
    <tag k="ref:vcgi:esiteid" v="750864"/>
  </node>
  <node id="-592" visible="true" lat="43.89349872" lon="-72.24824133">
    <!-- conflict: "643 West Fairlee Road, West Fairlee, VT" Fuzzy match to "643 West Fairlee Road, Thetford;West Fairlee, VT" -->
    <tag k="addr:city" v="West Fairlee"/>
    <tag k="addr:housenumber" v="643"/>
    <tag k="addr:street" v="West Fairlee Road"/>
    <tag k="addr:state" v="VT"/>
    <tag k="ref:vcgi:esiteid" v="750865"/>
  </node>
</osm>
