<?xml version="1.0" encoding="UTF-8"?>
<osm version="0.6" generator="JOSM">
  <node id="-100" visible="true" lat="43.40819535" lon="-73.23738584">
    <tag k="addr:city" v="West Pawlet"/>
    <tag k="addr:housenumber" v="670"/>
    <tag k="addr:street" v="Vermont Route 149"/>
    <tag k="addr:state" v="VT"/>
    <tag k="ref:vcgi:esiteid" v="185122"/>
  </node>
  <node id="-102" visible="true" lat="43.40687912" lon="-73.20629608">
    <tag k="addr:city" v="West Pawlet"/>
    <tag k="addr:housenumber" v="1686"/>
    <tag k="addr:street" v="North Pawlet Road"/>
    <tag k="addr:state" v="VT"/>
    <tag k="ref:vcgi:esiteid" v="185124"/>
  </node>
  <node id="-114" visible="true" lat="43.40536377" lon="-73.2454997">
    <tag k="addr:city" v="West Pawlet"/>
    <tag k="addr:housenumber" v="1018"/>
    <tag k="addr:street" v="Vermont Route 149"/>
    <tag k="addr:state" v="VT"/>
    <tag k="ref:vcgi:esiteid" v="185137"/>
  </node>
  <node id="-119" visible="true" lat="43.40447622" lon="-73.20759437">
    <tag k="addr:city" v="West Pawlet"/>
    <tag k="addr:housenumber" v="1523"/>
    <tag k="addr:street" v="North Pawlet Road"/>
    <tag k="addr:state" v="VT"/>
    <tag k="ref:vcgi:esiteid" v="185143"/>
  </node>
  <node id="-120" visible="true" lat="43.40442924" lon="-73.24047398">
    <tag k="addr:city" v="West Pawlet"/>
    <tag k="addr:housenumber" v="720"/>
    <tag k="addr:street" v="Vermont Route 149"/>
    <tag k="addr:state" v="VT"/>
    <tag k="ref:vcgi:esiteid" v="185144"/>
  </node>
  <node id="-121" visible="true" lat="43.40380876" lon="-73.23850182">
    <tag k="addr:city" v="West Pawlet"/>
    <tag k="addr:housenumber" v="668"/>
    <tag k="addr:street" v="Vermont Route 149"/>
    <tag k="addr:state" v="VT"/>
    <tag k="ref:vcgi:esiteid" v="185145"/>
  </node>
  <node id="-124" visible="true" lat="43.40359309" lon="-73.2056255">
    <tag k="addr:city" v="West Pawlet"/>
    <tag k="addr:housenumber" v="1434"/>
    <tag k="addr:street" v="North Pawlet Road"/>
    <tag k="addr:state" v="VT"/>
    <tag k="ref:vcgi:esiteid" v="185148"/>
  </node>
  <node id="-125" visible="true" lat="43.40335464" lon="-73.19516754">
    <tag k="addr:city" v="West Pawlet"/>
    <tag k="addr:housenumber" v="532"/>
    <tag k="addr:street" v="Rees Road"/>
    <tag k="addr:state" v="VT"/>
    <tag k="ref:vcgi:esiteid" v="185151"/>
  </node>
  <node id="-128" visible="true" lat="43.40307235" lon="-73.19940948">
    <tag k="addr:city" v="West Pawlet"/>
    <tag k="addr:housenumber" v="415"/>
    <tag k="addr:street" v="Rees Road"/>
    <tag k="addr:state" v="VT"/>
    <tag k="ref:vcgi:esiteid" v="185154"/>
  </node>
  <node id="-130" visible="true" lat="43.40283584" lon="-73.22595977">
    <tag k="addr:city" v="West Pawlet"/>
    <tag k="addr:housenumber" v="378"/>
    <tag k="addr:street" v="Vermont Route 30"/>
    <tag k="addr:state" v="VT"/>
    <tag k="ref:vcgi:esiteid" v="185156"/>
  </node>
  <node id="-131" visible="true" lat="43.40297343" lon="-73.20156887">
    <tag k="addr:city" v="West Pawlet"/>
    <tag k="addr:housenumber" v="221"/>
    <tag k="addr:street" v="Rees Road"/>
    <tag k="addr:state" v="VT"/>
    <tag k="ref:vcgi:esiteid" v="185157"/>
  </node>
  <node id="-142" visible="true" lat="43.40170288" lon="-73.20637512">
    <tag k="addr:city" v="West Pawlet"/>
    <tag k="addr:housenumber" v="1336"/>
    <tag k="addr:street" v="North Pawlet Road"/>
    <tag k="addr:state" v="VT"/>
    <tag k="ref:vcgi:esiteid" v="185170"/>
  </node>
  <node id="-143" visible="true" lat="43.40005254" lon="-73.24075124">
    <tag k="addr:city" v="West Pawlet"/>
    <tag k="addr:housenumber" v="1202"/>
    <tag k="addr:street" v="Buttons Falls Road"/>
    <tag k="addr:state" v="VT"/>
    <tag k="ref:vcgi:esiteid" v="185171"/>
  </node>
  <node id="-144" visible="true" lat="43.39991558" lon="-73.24712716">
    <tag k="addr:city" v="West Pawlet"/>
    <tag k="addr:housenumber" v="1482"/>
    <tag k="addr:street" v="Buttons Falls Road"/>
    <tag k="addr:state" v="VT"/>
    <tag k="ref:vcgi:esiteid" v="185172"/>
  </node>
  <node id="-145" visible="true" lat="43.4005507" lon="-73.24326339">
    <tag k="addr:city" v="West Pawlet"/>
    <tag k="addr:housenumber" v="1308"/>
    <tag k="addr:street" v="Buttons Falls Road"/>
    <tag k="addr:state" v="VT"/>
    <tag k="ref:vcgi:esiteid" v="185175"/>
  </node>
  <node id="-146" visible="true" lat="43.39956438" lon="-73.25096847">
    <tag k="addr:city" v="West Pawlet"/>
    <tag k="addr:housenumber" v="1677"/>
    <tag k="addr:street" v="Buttons Falls Road"/>
    <tag k="addr:state" v="VT"/>
    <tag k="ref:vcgi:esiteid" v="185176"/>
  </node>
  <node id="-147" visible="true" lat="43.39948702" lon="-73.24680351">
    <tag k="addr:city" v="West Pawlet"/>
    <tag k="addr:housenumber" v="1469"/>
    <tag k="addr:street" v="Buttons Falls Road"/>
    <tag k="addr:state" v="VT"/>
    <tag k="ref:vcgi:esiteid" v="185177"/>
  </node>
  <node id="-148" visible="true" lat="43.39895499" lon="-73.20667123">
    <tag k="addr:city" v="West Pawlet"/>
    <tag k="addr:housenumber" v="1143"/>
    <tag k="addr:street" v="North Pawlet Road"/>
    <tag k="addr:state" v="VT"/>
    <tag k="ref:vcgi:esiteid" v="185179"/>
  </node>
  <node id="-149" visible="true" lat="43.39846211" lon="-73.23917504">
    <tag k="addr:city" v="West Pawlet"/>
    <tag k="addr:housenumber" v="1066"/>
    <tag k="addr:street" v="Buttons Falls Road"/>
    <tag k="addr:state" v="VT"/>
    <tag k="ref:vcgi:esiteid" v="185180"/>
  </node>
  <node id="-151" visible="true" lat="43.39839394" lon="-73.23352175">
    <tag k="addr:city" v="West Pawlet"/>
    <tag k="addr:housenumber" v="730"/>
    <tag k="addr:street" v="Buttons Falls Road"/>
    <tag k="addr:state" v="VT"/>
    <tag k="ref:vcgi:esiteid" v="185182"/>
  </node>
  <node id="-152" visible="true" lat="43.39814563" lon="-73.24436763">
    <tag k="addr:city" v="West Pawlet"/>
    <tag k="addr:housenumber" v="1325"/>
    <tag k="addr:street" v="Buttons Falls Road"/>
    <tag k="addr:state" v="VT"/>
    <tag k="ref:vcgi:esiteid" v="185183"/>
  </node>
  <node id="-153" visible="true" lat="43.39836376" lon="-73.20722792">
    <tag k="addr:city" v="West Pawlet"/>
    <tag k="addr:housenumber" v="1119"/>
    <tag k="addr:street" v="North Pawlet Road"/>
    <tag k="addr:state" v="VT"/>
    <tag k="ref:vcgi:esiteid" v="185185"/>
  </node>
  <node id="-155" visible="true" lat="43.39794412" lon="-73.21255618">
    <tag k="addr:city" v="West Pawlet"/>
    <tag k="addr:housenumber" v="1121"/>
    <tag k="addr:street" v="North Pawlet Road"/>
    <tag k="addr:state" v="VT"/>
    <tag k="ref:vcgi:esiteid" v="185188"/>
  </node>
  <node id="-156" visible="true" lat="43.39765714" lon="-73.23842715">
    <tag k="addr:city" v="West Pawlet"/>
    <tag k="addr:housenumber" v="1007"/>
    <tag k="addr:street" v="Buttons Falls Road"/>
    <tag k="addr:state" v="VT"/>
    <tag k="ref:vcgi:esiteid" v="185189"/>
  </node>
  <node id="-157" visible="true" lat="43.39783624" lon="-73.20581624">
    <tag k="addr:city" v="West Pawlet"/>
    <tag k="addr:housenumber" v="1058"/>
    <tag k="addr:street" v="North Pawlet Road"/>
    <tag k="addr:state" v="VT"/>
    <tag k="ref:vcgi:esiteid" v="185191"/>
  </node>
  <node id="-158" visible="true" lat="43.39743068" lon="-73.20940886">
    <tag k="addr:city" v="West Pawlet"/>
    <tag k="addr:housenumber" v="1041"/>
    <tag k="addr:street" v="North Pawlet Road"/>
    <tag k="addr:state" v="VT"/>
    <tag k="ref:vcgi:esiteid" v="185192"/>
  </node>
  <node id="-159" visible="true" lat="43.39677429" lon="-73.24049377">
    <tag k="addr:city" v="West Pawlet"/>
    <tag k="addr:housenumber" v="1133"/>
    <tag k="addr:street" v="Buttons Falls Road"/>
    <tag k="addr:state" v="VT"/>
    <tag k="ref:vcgi:esiteid" v="185193"/>
  </node>
  <node id="-160" visible="true" lat="43.39655308" lon="-73.23447314">
    <tag k="addr:city" v="West Pawlet"/>
    <tag k="addr:housenumber" v="87"/>
    <tag k="addr:street" v="Glebeland Drive"/>
    <tag k="addr:state" v="VT"/>
    <tag k="ref:vcgi:esiteid" v="185196"/>
  </node>
  <node id="-161" visible="true" lat="43.39574813" lon="-73.23509979">
    <tag k="addr:city" v="West Pawlet"/>
    <tag k="addr:housenumber" v="170"/>
    <tag k="addr:street" v="Glebeland Drive"/>
    <tag k="addr:state" v="VT"/>
    <tag k="ref:vcgi:esiteid" v="185197"/>
  </node>
  <node id="-162" visible="true" lat="43.39540055" lon="-73.23243767">
    <tag k="addr:city" v="West Pawlet"/>
    <tag k="addr:housenumber" v="539"/>
    <tag k="addr:street" v="Buttons Falls Road"/>
    <tag k="addr:state" v="VT"/>
    <tag k="ref:vcgi:esiteid" v="185200"/>
  </node>
  <node id="-163" visible="true" lat="43.39503747" lon="-73.2345807">
    <tag k="addr:city" v="West Pawlet"/>
    <tag k="addr:housenumber" v="213"/>
    <tag k="addr:street" v="Glebeland Drive"/>
    <tag k="addr:state" v="VT"/>
    <tag k="ref:vcgi:esiteid" v="185201"/>
  </node>
  <node id="-164" visible="true" lat="43.39507145" lon="-73.23041239">
    <tag k="addr:city" v="West Pawlet"/>
    <tag k="addr:housenumber" v="518"/>
    <tag k="addr:street" v="Buttons Falls Road"/>
    <tag k="addr:state" v="VT"/>
    <tag k="ref:vcgi:esiteid" v="185202"/>
  </node>
  <node id="-166" visible="true" lat="43.39501889" lon="-73.2329019">
    <tag k="addr:city" v="West Pawlet"/>
    <tag k="addr:housenumber" v="541"/>
    <tag k="addr:street" v="Buttons Falls Road"/>
    <tag k="addr:state" v="VT"/>
    <tag k="ref:vcgi:esiteid" v="185205"/>
  </node>
  <node id="-167" visible="true" lat="43.39482371" lon="-73.22949972">
    <tag k="addr:city" v="West Pawlet"/>
    <tag k="addr:housenumber" v="440"/>
    <tag k="addr:street" v="Buttons Falls Road"/>
    <tag k="addr:state" v="VT"/>
    <tag k="ref:vcgi:esiteid" v="185207"/>
  </node>
  <node id="-168" visible="true" lat="43.39458672" lon="-73.22887849">
    <tag k="addr:city" v="West Pawlet"/>
    <tag k="addr:housenumber" v="374"/>
    <tag k="addr:street" v="Buttons Falls Road"/>
    <tag k="addr:state" v="VT"/>
    <tag k="ref:vcgi:esiteid" v="185208"/>
  </node>
  <node id="-170" visible="true" lat="43.39391724" lon="-73.2254073">
    <tag k="addr:city" v="West Pawlet"/>
    <tag k="addr:housenumber" v="228"/>
    <tag k="addr:street" v="Buttons Falls Road"/>
    <tag k="addr:state" v="VT"/>
    <tag k="ref:vcgi:esiteid" v="185210"/>
  </node>
  <node id="-172" visible="true" lat="43.39357586" lon="-73.23780013">
    <tag k="addr:city" v="West Pawlet"/>
    <tag k="addr:housenumber" v="443"/>
    <tag k="addr:street" v="Glebeland Drive"/>
    <tag k="addr:state" v="VT"/>
    <tag k="ref:vcgi:esiteid" v="185213"/>
  </node>
  <node id="-174" visible="true" lat="43.3930116" lon="-73.22916641">
    <tag k="addr:city" v="West Pawlet"/>
    <tag k="addr:housenumber" v="1057"/>
    <tag k="addr:street" v="Briar Hill Road"/>
    <tag k="addr:state" v="VT"/>
    <tag k="ref:vcgi:esiteid" v="185216"/>
  </node>
  <node id="-177" visible="true" lat="43.3923312" lon="-73.22924622">
    <tag k="addr:city" v="West Pawlet"/>
    <tag k="addr:housenumber" v="999"/>
    <tag k="addr:street" v="Briar Hill Road"/>
    <tag k="addr:state" v="VT"/>
    <tag k="ref:vcgi:esiteid" v="185221"/>
  </node>
  <node id="-178" visible="true" lat="43.39246453" lon="-73.20685106">
    <tag k="addr:city" v="West Pawlet"/>
    <tag k="addr:housenumber" v="685"/>
    <tag k="addr:street" v="North Pawlet Road"/>
    <tag k="addr:state" v="VT"/>
    <tag k="ref:vcgi:esiteid" v="185222"/>
  </node>
  <node id="-179" visible="true" lat="43.39067709" lon="-73.20621471">
    <tag k="addr:city" v="West Pawlet"/>
    <tag k="addr:housenumber" v="561"/>
    <tag k="addr:street" v="North Pawlet Road"/>
    <tag k="addr:state" v="VT"/>
    <tag k="ref:vcgi:esiteid" v="185225"/>
  </node>
  <node id="-180" visible="true" lat="43.39023386" lon="-73.2289071">
    <tag k="addr:city" v="West Pawlet"/>
    <tag k="addr:housenumber" v="980"/>
    <tag k="addr:street" v="Briar Hill Road"/>
    <tag k="addr:state" v="VT"/>
    <tag k="ref:vcgi:esiteid" v="185226"/>
  </node>
  <node id="-181" visible="true" lat="43.39031546" lon="-73.22133571">
    <tag k="addr:city" v="West Pawlet"/>
    <tag k="addr:housenumber" v="1290"/>
    <tag k="addr:street" v="Vermont Route 30"/>
    <tag k="addr:state" v="VT"/>
    <tag k="ref:vcgi:esiteid" v="185227"/>
  </node>
  <node id="-182" visible="true" lat="43.38998159" lon="-73.20447378">
    <tag k="addr:city" v="West Pawlet"/>
    <tag k="addr:housenumber" v="45"/>
    <tag k="addr:street" v="Cleveland Hill Lane"/>
    <tag k="addr:state" v="VT"/>
    <tag k="ref:vcgi:esiteid" v="185229"/>
  </node>
  <node id="-183" visible="true" lat="43.3899359" lon="-73.20472522">
    <tag k="addr:city" v="West Pawlet"/>
    <tag k="addr:housenumber" v="33"/>
    <tag k="addr:street" v="Cleveland Hill Lane"/>
    <tag k="addr:state" v="VT"/>
    <tag k="ref:vcgi:esiteid" v="185230"/>
  </node>
  <node id="-184" visible="true" lat="43.38991609" lon="-73.20498567">
    <tag k="addr:city" v="West Pawlet"/>
    <tag k="addr:housenumber" v="23"/>
    <tag k="addr:street" v="Cleveland Hill Lane"/>
    <tag k="addr:state" v="VT"/>
    <tag k="ref:vcgi:esiteid" v="185231"/>
  </node>
  <node id="-186" visible="true" lat="43.38936024" lon="-73.22980545">
    <tag k="addr:city" v="West Pawlet"/>
    <tag k="addr:housenumber" v="822"/>
    <tag k="addr:street" v="Briar Hill Road"/>
    <tag k="addr:state" v="VT"/>
    <tag k="ref:vcgi:esiteid" v="185233"/>
  </node>
  <node id="-187" visible="true" lat="43.38933076" lon="-73.20554141">
    <tag k="addr:city" v="West Pawlet"/>
    <tag k="addr:housenumber" v="457"/>
    <tag k="addr:street" v="North Pawlet Road"/>
    <tag k="addr:state" v="VT"/>
    <tag k="ref:vcgi:esiteid" v="185234"/>
  </node>
  <node id="-188" visible="true" lat="43.38868429" lon="-73.20487703">
    <tag k="addr:city" v="West Pawlet"/>
    <tag k="addr:housenumber" v="408"/>
    <tag k="addr:street" v="North Pawlet Road"/>
    <tag k="addr:state" v="VT"/>
    <tag k="ref:vcgi:esiteid" v="185236"/>
  </node>
  <node id="-189" visible="true" lat="43.38869603" lon="-73.20346345">
    <tag k="addr:city" v="West Pawlet"/>
    <tag k="addr:housenumber" v="394"/>
    <tag k="addr:street" v="North Pawlet Road"/>
    <tag k="addr:state" v="VT"/>
    <tag k="ref:vcgi:esiteid" v="185237"/>
  </node>
  <node id="-190" visible="true" lat="43.38844247" lon="-73.20344547">
    <tag k="addr:city" v="West Pawlet"/>
    <tag k="addr:housenumber" v="396"/>
    <tag k="addr:street" v="North Pawlet Road"/>
    <tag k="addr:state" v="VT"/>
    <tag k="ref:vcgi:esiteid" v="185239"/>
  </node>
  <node id="-191" visible="true" lat="43.38817165" lon="-73.23054925">
    <tag k="addr:city" v="West Pawlet"/>
    <tag k="addr:housenumber" v="718"/>
    <tag k="addr:street" v="Briar Hill Road"/>
    <tag k="addr:state" v="VT"/>
    <tag k="ref:vcgi:esiteid" v="185241"/>
  </node>
  <node id="-192" visible="true" lat="43.3864223" lon="-73.20273029">
    <tag k="addr:city" v="West Pawlet"/>
    <tag k="addr:housenumber" v="274"/>
    <tag k="addr:street" v="North Pawlet Road"/>
    <tag k="addr:state" v="VT"/>
    <tag k="ref:vcgi:esiteid" v="185248"/>
  </node>
  <node id="-193" visible="true" lat="43.38537167" lon="-73.20389732">
    <tag k="addr:city" v="West Pawlet"/>
    <tag k="addr:housenumber" v="178"/>
    <tag k="addr:street" v="North Pawlet Road"/>
    <tag k="addr:state" v="VT"/>
    <tag k="ref:vcgi:esiteid" v="185250"/>
  </node>
  <node id="-195" visible="true" lat="43.38458252" lon="-73.20451355">
    <tag k="addr:city" v="West Pawlet"/>
    <tag k="addr:housenumber" v="127"/>
    <tag k="addr:street" v="North Pawlet Road"/>
    <tag k="addr:state" v="VT"/>
    <tag k="ref:vcgi:esiteid" v="185254"/>
  </node>
  <node id="-196" visible="true" lat="43.38450531" lon="-73.20369943">
    <tag k="addr:city" v="West Pawlet"/>
    <tag k="addr:housenumber" v="148"/>
    <tag k="addr:street" v="North Pawlet Road"/>
    <tag k="addr:state" v="VT"/>
    <tag k="ref:vcgi:esiteid" v="185256"/>
  </node>
  <node id="-197" visible="true" lat="43.3841097" lon="-73.23287959">
    <tag k="addr:city" v="West Pawlet"/>
    <tag k="addr:housenumber" v="422"/>
    <tag k="addr:street" v="Briar Hill Road"/>
    <tag k="addr:state" v="VT"/>
    <tag k="ref:vcgi:esiteid" v="185257"/>
  </node>
  <node id="-198" visible="true" lat="43.38380583" lon="-73.22600489">
    <tag k="addr:city" v="West Pawlet"/>
    <tag k="addr:housenumber" v="5584"/>
    <tag k="addr:street" v="Vermont Route 153"/>
    <tag k="addr:state" v="VT"/>
    <tag k="ref:vcgi:esiteid" v="185259"/>
  </node>
  <node id="-202" visible="true" lat="43.38328292" lon="-73.22709499">
    <tag k="addr:city" v="West Pawlet"/>
    <tag k="addr:housenumber" v="5525"/>
    <tag k="addr:street" v="Vermont Route 153"/>
    <tag k="addr:state" v="VT"/>
    <tag k="ref:vcgi:esiteid" v="185263"/>
  </node>
  <node id="-205" visible="true" lat="43.38310241" lon="-73.20481109">
    <tag k="addr:city" v="West Pawlet"/>
    <tag k="addr:housenumber" v="2299"/>
    <tag k="addr:street" v="Vermont Route 30"/>
    <tag k="addr:state" v="VT"/>
    <tag k="ref:vcgi:esiteid" v="185266"/>
  </node>
  <node id="-209" visible="true" lat="43.38197765" lon="-73.24943796">
    <tag k="addr:city" v="West Pawlet"/>
    <tag k="addr:housenumber" v="1698"/>
    <tag k="addr:street" v="Warren Switch Road"/>
    <tag k="addr:state" v="VT"/>
    <tag k="ref:vcgi:esiteid" v="185272"/>
  </node>
  <node id="-211" visible="true" lat="43.38138101" lon="-73.2270765">
    <tag k="addr:city" v="West Pawlet"/>
    <tag k="addr:housenumber" v="5385"/>
    <tag k="addr:street" v="Vermont Route 153"/>
    <tag k="addr:state" v="VT"/>
    <tag k="ref:vcgi:esiteid" v="185276"/>
  </node>
  <node id="-212" visible="true" lat="43.38117038" lon="-73.24386798">
    <tag k="addr:city" v="West Pawlet"/>
    <tag k="addr:housenumber" v="1244"/>
    <tag k="addr:street" v="Warren Switch Road"/>
    <tag k="addr:state" v="VT"/>
    <tag k="ref:vcgi:esiteid" v="185277"/>
  </node>
  <node id="-213" visible="true" lat="43.3812652" lon="-73.20646832">
    <tag k="addr:city" v="West Pawlet"/>
    <tag k="addr:housenumber" v="2456"/>
    <tag k="addr:street" v="Vermont Route 30"/>
    <tag k="addr:state" v="VT"/>
    <tag k="ref:vcgi:esiteid" v="185278"/>
  </node>
  <node id="-214" visible="true" lat="43.38091183" lon="-73.24254839">
    <tag k="addr:city" v="West Pawlet"/>
    <tag k="addr:housenumber" v="1192"/>
    <tag k="addr:street" v="Warren Switch Road"/>
    <tag k="addr:state" v="VT"/>
    <tag k="ref:vcgi:esiteid" v="185279"/>
  </node>
  <node id="-215" visible="true" lat="43.38075175" lon="-73.22609825">
    <tag k="addr:city" v="West Pawlet"/>
    <tag k="addr:housenumber" v="5360"/>
    <tag k="addr:street" v="Vermont Route 153"/>
    <tag k="addr:state" v="VT"/>
    <tag k="ref:vcgi:esiteid" v="185280"/>
  </node>
  <node id="-216" visible="true" lat="43.38043985" lon="-73.22382629">
    <tag k="addr:city" v="West Pawlet"/>
    <tag k="addr:housenumber" v="5362"/>
    <tag k="addr:street" v="Vermont Route 153"/>
    <tag k="addr:state" v="VT"/>
    <tag k="ref:vcgi:esiteid" v="185283"/>
  </node>
  <node id="-217" visible="true" lat="43.38012097" lon="-73.22596651">
    <tag k="addr:city" v="West Pawlet"/>
    <tag k="addr:housenumber" v="5316"/>
    <tag k="addr:street" v="Vermont Route 153"/>
    <tag k="addr:state" v="VT"/>
    <tag k="ref:vcgi:esiteid" v="185287"/>
  </node>
  <node id="-218" visible="true" lat="43.37990897" lon="-73.22330254">
    <tag k="addr:city" v="West Pawlet"/>
    <tag k="addr:housenumber" v="5510"/>
    <tag k="addr:street" v="Vermont Route 153"/>
    <tag k="addr:state" v="VT"/>
    <tag k="ref:vcgi:esiteid" v="185289"/>
  </node>
  <node id="-219" visible="true" lat="43.37974123" lon="-73.2407938">
    <tag k="addr:city" v="West Pawlet"/>
    <tag k="addr:housenumber" v="1059"/>
    <tag k="addr:street" v="Warren Switch Road"/>
    <tag k="addr:state" v="VT"/>
    <tag k="ref:vcgi:esiteid" v="185291"/>
  </node>
  <node id="-220" visible="true" lat="43.37942658" lon="-73.25117557">
    <tag k="addr:city" v="West Pawlet"/>
    <tag k="addr:housenumber" v="1696"/>
    <tag k="addr:street" v="Warren Switch Road"/>
    <tag k="addr:state" v="VT"/>
    <tag k="ref:vcgi:esiteid" v="185293"/>
  </node>
  <node id="-221" visible="true" lat="43.37951345" lon="-73.22556641">
    <tag k="addr:city" v="West Pawlet"/>
    <tag k="addr:housenumber" v="5254"/>
    <tag k="addr:street" v="Vermont Route 153"/>
    <tag k="addr:state" v="VT"/>
    <tag k="ref:vcgi:esiteid" v="185295"/>
  </node>
  <node id="-223" visible="true" lat="43.38015654" lon="-73.23763549">
    <tag k="addr:city" v="West Pawlet"/>
    <tag k="addr:housenumber" v="906"/>
    <tag k="addr:street" v="Warren Switch Road"/>
    <tag k="addr:state" v="VT"/>
    <tag k="ref:vcgi:esiteid" v="185298"/>
  </node>
  <node id="-224" visible="true" lat="43.37881039" lon="-73.22554558">
    <tag k="addr:city" v="West Pawlet"/>
    <tag k="addr:housenumber" v="5234"/>
    <tag k="addr:street" v="Vermont Route 153"/>
    <tag k="addr:state" v="VT"/>
    <tag k="ref:vcgi:esiteid" v="185299"/>
  </node>
  <node id="-225" visible="true" lat="43.37475327" lon="-73.23962943">
    <tag k="addr:city" v="West Pawlet"/>
    <tag k="addr:housenumber" v="929"/>
    <tag k="addr:street" v="Warren Switch Road"/>
    <tag k="addr:state" v="VT"/>
    <tag k="ref:vcgi:esiteid" v="185300"/>
  </node>
  <node id="-226" visible="true" lat="43.3784752" lon="-73.22391788">
    <tag k="addr:city" v="West Pawlet"/>
    <tag k="addr:housenumber" v="5180"/>
    <tag k="addr:street" v="Vermont Route 153"/>
    <tag k="addr:state" v="VT"/>
    <tag k="ref:vcgi:esiteid" v="185301"/>
  </node>
  <node id="-228" visible="true" lat="43.37777688" lon="-73.25090382">
    <tag k="addr:city" v="West Pawlet"/>
    <tag k="addr:housenumber" v="1671"/>
    <tag k="addr:street" v="Warren Switch Road"/>
    <tag k="addr:state" v="VT"/>
    <tag k="ref:vcgi:esiteid" v="185303"/>
  </node>
  <node id="-229" visible="true" lat="43.37750649" lon="-73.2498078">
    <tag k="addr:city" v="West Pawlet"/>
    <tag k="addr:housenumber" v="1589"/>
    <tag k="addr:street" v="Warren Switch Road"/>
    <tag k="addr:state" v="VT"/>
    <tag k="ref:vcgi:esiteid" v="185305"/>
  </node>
  <node id="-230" visible="true" lat="43.37704503" lon="-73.23468106">
    <tag k="addr:city" v="West Pawlet"/>
    <tag k="addr:housenumber" v="631"/>
    <tag k="addr:street" v="Warren Switch Road"/>
    <tag k="addr:state" v="VT"/>
    <tag k="ref:vcgi:esiteid" v="185310"/>
  </node>
  <node id="-231" visible="true" lat="43.37654826" lon="-73.23407515">
    <tag k="addr:city" v="West Pawlet"/>
    <tag k="addr:housenumber" v="588"/>
    <tag k="addr:street" v="Warren Switch Road"/>
    <tag k="addr:state" v="VT"/>
    <tag k="ref:vcgi:esiteid" v="185312"/>
  </node>
  <node id="-232" visible="true" lat="43.37627159" lon="-73.23540777">
    <tag k="addr:city" v="West Pawlet"/>
    <tag k="addr:housenumber" v="587"/>
    <tag k="addr:street" v="Warren Switch Road"/>
    <tag k="addr:state" v="VT"/>
    <tag k="ref:vcgi:esiteid" v="185316"/>
  </node>
  <node id="-233" visible="true" lat="43.37579722" lon="-73.23676748">
    <tag k="addr:city" v="West Pawlet"/>
    <tag k="addr:housenumber" v="589"/>
    <tag k="addr:street" v="Warren Switch Road"/>
    <tag k="addr:state" v="VT"/>
    <tag k="ref:vcgi:esiteid" v="185320"/>
  </node>
  <node id="-236" visible="true" lat="43.37373007" lon="-73.22979585">
    <tag k="addr:city" v="West Pawlet"/>
    <tag k="addr:housenumber" v="4779"/>
    <tag k="addr:street" v="Vermont Route 153"/>
    <tag k="addr:state" v="VT"/>
    <tag k="ref:vcgi:esiteid" v="185332"/>
  </node>
  <node id="-237" visible="true" lat="43.37288505" lon="-73.25071431">
    <tag k="addr:city" v="West Pawlet"/>
    <tag k="addr:housenumber" v="1585"/>
    <tag k="addr:street" v="Warren Switch Road"/>
    <tag k="addr:state" v="VT"/>
    <tag k="ref:vcgi:esiteid" v="185337"/>
  </node>
  <node id="-238" visible="true" lat="43.37315159" lon="-73.22637657">
    <tag k="addr:city" v="West Pawlet"/>
    <tag k="addr:housenumber" v="1428"/>
    <tag k="addr:street" v="River Road"/>
    <tag k="addr:state" v="VT"/>
    <tag k="ref:vcgi:esiteid" v="185338"/>
  </node>
  <node id="-239" visible="true" lat="43.37232315" lon="-73.23041894">
    <tag k="addr:city" v="West Pawlet"/>
    <tag k="addr:housenumber" v="4670"/>
    <tag k="addr:street" v="Vermont Route 153"/>
    <tag k="addr:state" v="VT"/>
    <tag k="ref:vcgi:esiteid" v="185348"/>
  </node>
  <node id="-240" visible="true" lat="43.37221655" lon="-73.20907913">
    <tag k="addr:city" v="West Pawlet"/>
    <tag k="addr:housenumber" v="540"/>
    <tag k="addr:street" v="River Road"/>
    <tag k="addr:state" v="VT"/>
    <tag k="ref:vcgi:esiteid" v="185350"/>
  </node>
  <node id="-241" visible="true" lat="43.37198401" lon="-73.22375223">
    <tag k="addr:city" v="West Pawlet"/>
    <tag k="addr:housenumber" v="1275"/>
    <tag k="addr:street" v="River Road"/>
    <tag k="addr:state" v="VT"/>
    <tag k="ref:vcgi:esiteid" v="185352"/>
  </node>
  <node id="-242" visible="true" lat="43.37192138" lon="-73.23148643">
    <tag k="addr:city" v="West Pawlet"/>
    <tag k="addr:housenumber" v="4623"/>
    <tag k="addr:street" v="Vermont Route 153"/>
    <tag k="addr:state" v="VT"/>
    <tag k="ref:vcgi:esiteid" v="185353"/>
  </node>
  <node id="-243" visible="true" lat="43.37197413" lon="-73.22123128">
    <tag k="addr:city" v="West Pawlet"/>
    <tag k="addr:housenumber" v="1130"/>
    <tag k="addr:street" v="River Road"/>
    <tag k="addr:state" v="VT"/>
    <tag k="ref:vcgi:esiteid" v="185354"/>
  </node>
  <node id="-244" visible="true" lat="43.37107311" lon="-73.21311488">
    <tag k="addr:city" v="West Pawlet"/>
    <tag k="addr:housenumber" v="722"/>
    <tag k="addr:street" v="River Road"/>
    <tag k="addr:state" v="VT"/>
    <tag k="ref:vcgi:esiteid" v="185364"/>
  </node>
  <node id="-245" visible="true" lat="43.37029821" lon="-73.23268289">
    <tag k="addr:city" v="West Pawlet"/>
    <tag k="addr:housenumber" v="4492"/>
    <tag k="addr:street" v="Vermont Route 153"/>
    <tag k="addr:state" v="VT"/>
    <tag k="ref:vcgi:esiteid" v="185367"/>
  </node>
  <node id="-246" visible="true" lat="43.3700589" lon="-73.21733076">
    <tag k="addr:city" v="West Pawlet"/>
    <tag k="addr:housenumber" v="90"/>
    <tag k="addr:street" v="Betts Bridge Road"/>
    <tag k="addr:state" v="VT"/>
    <tag k="ref:vcgi:esiteid" v="185372"/>
  </node>
  <node id="-247" visible="true" lat="43.36983839" lon="-73.23633003">
    <tag k="addr:city" v="West Pawlet"/>
    <tag k="addr:housenumber" v="100"/>
    <tag k="addr:street" v="Warren Switch Road"/>
    <tag k="addr:state" v="VT"/>
    <tag k="ref:vcgi:esiteid" v="185375"/>
  </node>
  <node id="-248" visible="true" lat="43.36909103" lon="-73.23503875">
    <tag k="addr:city" v="West Pawlet"/>
    <tag k="addr:housenumber" v="9"/>
    <tag k="addr:street" v="Warren Switch Road"/>
    <tag k="addr:state" v="VT"/>
    <tag k="ref:vcgi:esiteid" v="185384"/>
  </node>
  <node id="-249" visible="true" lat="43.36902446" lon="-73.22972233">
    <tag k="addr:city" v="West Pawlet"/>
    <tag k="addr:housenumber" v="4514"/>
    <tag k="addr:street" v="Vermont Route 153"/>
    <tag k="addr:state" v="VT"/>
    <tag k="ref:vcgi:esiteid" v="185386"/>
  </node>
  <node id="-250" visible="true" lat="43.3689742" lon="-73.21839401">
    <tag k="addr:city" v="West Pawlet"/>
    <tag k="addr:housenumber" v="186"/>
    <tag k="addr:street" v="Betts Bridge Road"/>
    <tag k="addr:state" v="VT"/>
    <tag k="ref:vcgi:esiteid" v="185387"/>
  </node>
  <node id="-251" visible="true" lat="43.36830467" lon="-73.23419414">
    <tag k="addr:city" v="West Pawlet"/>
    <tag k="addr:housenumber" v="4296"/>
    <tag k="addr:street" v="Vermont Route 153"/>
    <tag k="addr:state" v="VT"/>
    <tag k="ref:vcgi:esiteid" v="185391"/>
  </node>
  <node id="-252" visible="true" lat="43.36833301" lon="-73.21732282">
    <tag k="addr:city" v="West Pawlet"/>
    <tag k="addr:housenumber" v="183"/>
    <tag k="addr:street" v="Betts Bridge Road"/>
    <tag k="addr:state" v="VT"/>
    <tag k="ref:vcgi:esiteid" v="185392"/>
  </node>
  <node id="-253" visible="true" lat="43.36782659" lon="-73.2341168">
    <tag k="addr:city" v="West Pawlet"/>
    <tag k="addr:housenumber" v="4268"/>
    <tag k="addr:street" v="Vermont Route 153"/>
    <tag k="addr:state" v="VT"/>
    <tag k="ref:vcgi:esiteid" v="185394"/>
  </node>
  <node id="-254" visible="true" lat="43.36610961" lon="-73.23549974">
    <tag k="addr:city" v="West Pawlet"/>
    <tag k="addr:housenumber" v="4140"/>
    <tag k="addr:street" v="Vermont Route 153"/>
    <tag k="addr:state" v="VT"/>
    <tag k="ref:vcgi:esiteid" v="185395"/>
  </node>
  <node id="-255" visible="true" lat="43.36576919" lon="-73.2237219">
    <tag k="addr:city" v="West Pawlet"/>
    <tag k="addr:housenumber" v="488"/>
    <tag k="addr:street" v="Betts Bridge Road"/>
    <tag k="addr:state" v="VT"/>
    <tag k="ref:vcgi:esiteid" v="185396"/>
  </node>
  <node id="-256" visible="true" lat="43.36537353" lon="-73.2375708">
    <tag k="addr:city" v="West Pawlet"/>
    <tag k="addr:housenumber" v="4021"/>
    <tag k="addr:street" v="Vermont Route 153"/>
    <tag k="addr:state" v="VT"/>
    <tag k="ref:vcgi:esiteid" v="185398"/>
  </node>
  <node id="-257" visible="true" lat="43.3638916" lon="-73.23825836">
    <tag k="addr:city" v="West Pawlet"/>
    <tag k="addr:housenumber" v="3934"/>
    <tag k="addr:street" v="Vermont Route 153"/>
    <tag k="addr:state" v="VT"/>
    <tag k="ref:vcgi:esiteid" v="185406"/>
  </node>
  <node id="-258" visible="true" lat="43.36354446" lon="-73.23315429">
    <tag k="addr:city" v="West Pawlet"/>
    <tag k="addr:housenumber" v="1712"/>
    <tag k="addr:street" v="Betts Bridge Road"/>
    <tag k="addr:state" v="VT"/>
    <tag k="ref:vcgi:esiteid" v="185408"/>
  </node>
  <node id="-259" visible="true" lat="43.36327568" lon="-73.24014168">
    <tag k="addr:city" v="West Pawlet"/>
    <tag k="addr:housenumber" v="3831"/>
    <tag k="addr:street" v="Vermont Route 153"/>
    <tag k="addr:state" v="VT"/>
    <tag k="ref:vcgi:esiteid" v="185409"/>
  </node>
  <node id="-260" visible="true" lat="43.36311869" lon="-73.24020967">
    <tag k="addr:city" v="West Pawlet"/>
    <tag k="addr:housenumber" v="3821"/>
    <tag k="addr:street" v="Vermont Route 153"/>
    <tag k="addr:state" v="VT"/>
    <tag k="ref:vcgi:esiteid" v="185410"/>
  </node>
  <node id="-261" visible="true" lat="43.36301803" lon="-73.23779296">
    <tag k="addr:city" v="West Pawlet"/>
    <tag k="addr:housenumber" v="3936"/>
    <tag k="addr:street" v="Vermont Route 153"/>
    <tag k="addr:state" v="VT"/>
    <tag k="ref:vcgi:esiteid" v="185414"/>
  </node>
  <node id="-262" visible="true" lat="43.36286562" lon="-73.24037061">
    <tag k="addr:city" v="West Pawlet"/>
    <tag k="addr:housenumber" v="3805"/>
    <tag k="addr:street" v="Vermont Route 153"/>
    <tag k="addr:state" v="VT"/>
    <tag k="ref:vcgi:esiteid" v="185415"/>
  </node>
  <node id="-263" visible="true" lat="43.36254752" lon="-73.24108285">
    <tag k="addr:city" v="West Pawlet"/>
    <tag k="addr:housenumber" v="3751"/>
    <tag k="addr:street" v="Vermont Route 153"/>
    <tag k="addr:state" v="VT"/>
    <tag k="ref:vcgi:esiteid" v="185420"/>
  </node>
  <node id="-264" visible="true" lat="43.36247503" lon="-73.24042007">
    <tag k="addr:city" v="West Pawlet"/>
    <tag k="addr:housenumber" v="3778"/>
    <tag k="addr:street" v="Vermont Route 153"/>
    <tag k="addr:state" v="VT"/>
    <tag k="ref:vcgi:esiteid" v="185421"/>
  </node>
  <node id="-265" visible="true" lat="43.36184003" lon="-73.24603926">
    <tag k="addr:city" v="West Pawlet"/>
    <tag k="addr:housenumber" v="3463"/>
    <tag k="addr:street" v="Vermont Route 153"/>
    <tag k="addr:state" v="VT"/>
    <tag k="ref:vcgi:esiteid" v="185424"/>
  </node>
  <node id="-266" visible="true" lat="43.36190224" lon="-73.23611008">
    <tag k="addr:city" v="West Pawlet"/>
    <tag k="addr:housenumber" v="1729"/>
    <tag k="addr:street" v="Betts Bridge Road"/>
    <tag k="addr:state" v="VT"/>
    <tag k="ref:vcgi:esiteid" v="185425"/>
  </node>
  <node id="-267" visible="true" lat="43.36224161" lon="-73.24248716">
    <tag k="addr:city" v="West Pawlet"/>
    <tag k="addr:housenumber" v="3677"/>
    <tag k="addr:street" v="Vermont Route 153"/>
    <tag k="addr:state" v="VT"/>
    <tag k="ref:vcgi:esiteid" v="185426"/>
  </node>
  <node id="-268" visible="true" lat="43.36170196" lon="-73.24697875">
    <tag k="addr:city" v="West Pawlet"/>
    <tag k="addr:housenumber" v="3461"/>
    <tag k="addr:street" v="Vermont Route 153"/>
    <tag k="addr:state" v="VT"/>
    <tag k="ref:vcgi:esiteid" v="185427"/>
  </node>
  <node id="-269" visible="true" lat="43.36157065" lon="-73.24151131">
    <tag k="addr:city" v="West Pawlet"/>
    <tag k="addr:housenumber" v="3714"/>
    <tag k="addr:street" v="Vermont Route 153"/>
    <tag k="addr:state" v="VT"/>
    <tag k="ref:vcgi:esiteid" v="185429"/>
  </node>
  <node id="-270" visible="true" lat="43.3613298" lon="-73.24439279">
    <tag k="addr:city" v="West Pawlet"/>
    <tag k="addr:housenumber" v="3537"/>
    <tag k="addr:street" v="Vermont Route 153"/>
    <tag k="addr:state" v="VT"/>
    <tag k="ref:vcgi:esiteid" v="185430"/>
  </node>
  <node id="-271" visible="true" lat="43.36131668" lon="-73.24332427">
    <tag k="addr:city" v="West Pawlet"/>
    <tag k="addr:housenumber" v="3615"/>
    <tag k="addr:street" v="Vermont Route 153"/>
    <tag k="addr:state" v="VT"/>
    <tag k="ref:vcgi:esiteid" v="185432"/>
  </node>
  <node id="-272" visible="true" lat="43.36116986" lon="-73.24277364">
    <tag k="addr:city" v="West Pawlet"/>
    <tag k="addr:housenumber" v="3632"/>
    <tag k="addr:street" v="Vermont Route 153"/>
    <tag k="addr:state" v="VT"/>
    <tag k="ref:vcgi:esiteid" v="185434"/>
  </node>
  <node id="-273" visible="true" lat="43.36104364" lon="-73.24302488">
    <tag k="addr:city" v="West Pawlet"/>
    <tag k="addr:housenumber" v="3618"/>
    <tag k="addr:street" v="Vermont Route 153"/>
    <tag k="addr:state" v="VT"/>
    <tag k="ref:vcgi:esiteid" v="185435"/>
  </node>
  <node id="-274" visible="true" lat="43.36092538" lon="-73.24508218">
    <tag k="addr:city" v="West Pawlet"/>
    <tag k="addr:housenumber" v="3519"/>
    <tag k="addr:street" v="Vermont Route 153"/>
    <tag k="addr:state" v="VT"/>
    <tag k="ref:vcgi:esiteid" v="185437"/>
  </node>
  <node id="-275" visible="true" lat="43.36080693" lon="-73.24366544">
    <tag k="addr:city" v="West Pawlet"/>
    <tag k="addr:housenumber" v="3584"/>
    <tag k="addr:street" v="Vermont Route 153"/>
    <tag k="addr:state" v="VT"/>
    <tag k="ref:vcgi:esiteid" v="185438"/>
  </node>
  <node id="-276" visible="true" lat="43.360764" lon="-73.24531486">
    <tag k="addr:city" v="West Pawlet"/>
    <tag k="addr:housenumber" v="3503"/>
    <tag k="addr:street" v="Vermont Route 153"/>
    <tag k="addr:state" v="VT"/>
    <tag k="ref:vcgi:esiteid" v="185440"/>
  </node>
  <node id="-277" visible="true" lat="43.3607295" lon="-73.24472687">
    <tag k="addr:city" v="West Pawlet"/>
    <tag k="addr:housenumber" v="3530"/>
    <tag k="addr:street" v="Vermont Route 153"/>
    <tag k="addr:state" v="VT"/>
    <tag k="ref:vcgi:esiteid" v="185441"/>
  </node>
  <node id="-278" visible="true" lat="43.36062757" lon="-73.24486053">
    <tag k="addr:city" v="West Pawlet"/>
    <tag k="addr:housenumber" v="3518"/>
    <tag k="addr:street" v="Vermont Route 153"/>
    <tag k="addr:state" v="VT"/>
    <tag k="ref:vcgi:esiteid" v="185442"/>
  </node>
  <node id="-279" visible="true" lat="43.36048889" lon="-73.24512481">
    <tag k="addr:city" v="West Pawlet"/>
    <tag k="addr:housenumber" v="3502"/>
    <tag k="addr:street" v="Vermont Route 153"/>
    <tag k="addr:state" v="VT"/>
    <tag k="ref:vcgi:esiteid" v="185443"/>
  </node>
  <node id="-280" visible="true" lat="43.36040398" lon="-73.24530576">
    <tag k="addr:city" v="West Pawlet"/>
    <tag k="addr:housenumber" v="3490"/>
    <tag k="addr:street" v="Vermont Route 153"/>
    <tag k="addr:state" v="VT"/>
    <tag k="ref:vcgi:esiteid" v="185444"/>
  </node>
  <node id="-281" visible="true" lat="43.36021981" lon="-73.24546876">
    <tag k="addr:city" v="West Pawlet"/>
    <tag k="addr:housenumber" v="3474"/>
    <tag k="addr:street" v="Vermont Route 153"/>
    <tag k="addr:state" v="VT"/>
    <tag k="ref:vcgi:esiteid" v="185446"/>
  </node>
  <node id="-282" visible="true" lat="43.36012268" lon="-73.23658752">
    <tag k="addr:city" v="West Pawlet"/>
    <tag k="addr:housenumber" v="1631"/>
    <tag k="addr:street" v="Betts Bridge Road"/>
    <tag k="addr:state" v="VT"/>
    <tag k="ref:vcgi:esiteid" v="185447"/>
  </node>
  <node id="-283" visible="true" lat="43.36012165" lon="-73.22569885">
    <tag k="addr:city" v="West Pawlet"/>
    <tag k="addr:housenumber" v="278"/>
    <tag k="addr:street" v="Betts Bridge Extension"/>
    <tag k="addr:state" v="VT"/>
    <tag k="ref:vcgi:esiteid" v="185448"/>
  </node>
  <node id="-284" visible="true" lat="43.35961633" lon="-73.24549585">
    <tag k="addr:city" v="West Pawlet"/>
    <tag k="addr:housenumber" v="3424"/>
    <tag k="addr:street" v="Vermont Route 153"/>
    <tag k="addr:state" v="VT"/>
    <tag k="ref:vcgi:esiteid" v="185451"/>
  </node>
  <node id="-285" visible="true" lat="43.35925957" lon="-73.24584924">
    <tag k="addr:city" v="West Pawlet"/>
    <tag k="addr:housenumber" v="3406"/>
    <tag k="addr:street" v="Vermont Route 153"/>
    <tag k="addr:state" v="VT"/>
    <tag k="ref:vcgi:esiteid" v="185455"/>
  </node>
  <node id="-286" visible="true" lat="43.35922017" lon="-73.2485796">
    <tag k="addr:city" v="West Pawlet"/>
    <tag k="addr:housenumber" v="3307"/>
    <tag k="addr:street" v="Vermont Route 153"/>
    <tag k="addr:state" v="VT"/>
    <tag k="ref:vcgi:esiteid" v="185457"/>
  </node>
  <node id="-287" visible="true" lat="43.35879135" lon="-73.22933959">
    <tag k="addr:city" v="West Pawlet"/>
    <tag k="addr:housenumber" v="1096"/>
    <tag k="addr:street" v="Betts Bridge Road"/>
    <tag k="addr:state" v="VT"/>
    <tag k="ref:vcgi:esiteid" v="185462"/>
  </node>
  <node id="-288" visible="true" lat="43.3586112" lon="-73.22653357">
    <tag k="addr:city" v="West Pawlet"/>
    <tag k="addr:housenumber" v="177"/>
    <tag k="addr:street" v="Betts Bridge Extension"/>
    <tag k="addr:state" v="VT"/>
    <tag k="ref:vcgi:esiteid" v="185463"/>
  </node>
  <node id="-289" visible="true" lat="43.35842298" lon="-73.23226067">
    <tag k="addr:city" v="West Pawlet"/>
    <tag k="addr:housenumber" v="1258"/>
    <tag k="addr:street" v="Betts Bridge Road"/>
    <tag k="addr:state" v="VT"/>
    <tag k="ref:vcgi:esiteid" v="185467"/>
  </node>
  <node id="-290" visible="true" lat="43.35794147" lon="-73.25030531">
    <tag k="addr:city" v="West Pawlet"/>
    <tag k="addr:housenumber" v="3173"/>
    <tag k="addr:street" v="Vermont Route 153"/>
    <tag k="addr:state" v="VT"/>
    <tag k="ref:vcgi:esiteid" v="185469"/>
  </node>
  <node id="-291" visible="true" lat="43.35784912" lon="-73.2255249">
    <tag k="addr:city" v="West Pawlet"/>
    <tag k="addr:housenumber" v="176"/>
    <tag k="addr:street" v="Betts Bridge Extension"/>
    <tag k="addr:state" v="VT"/>
    <tag k="ref:vcgi:esiteid" v="185472"/>
  </node>
  <node id="-292" visible="true" lat="43.35716044" lon="-73.25095743">
    <tag k="addr:city" v="West Pawlet"/>
    <tag k="addr:housenumber" v="3121"/>
    <tag k="addr:street" v="Vermont Route 153"/>
    <tag k="addr:state" v="VT"/>
    <tag k="ref:vcgi:esiteid" v="185475"/>
  </node>
  <node id="-293" visible="true" lat="43.3573988" lon="-73.22794082">
    <tag k="addr:city" v="West Pawlet"/>
    <tag k="addr:housenumber" v="1167"/>
    <tag k="addr:street" v="Betts Bridge Road"/>
    <tag k="addr:state" v="VT"/>
    <tag k="ref:vcgi:esiteid" v="185477"/>
  </node>
  <node id="-294" visible="true" lat="43.35701655" lon="-73.25074667">
    <tag k="addr:city" v="West Pawlet"/>
    <tag k="addr:housenumber" v="3109"/>
    <tag k="addr:street" v="Vermont Route 153"/>
    <tag k="addr:state" v="VT"/>
    <tag k="ref:vcgi:esiteid" v="185480"/>
  </node>
  <node id="-295" visible="true" lat="43.35678439" lon="-73.25142035">
    <tag k="addr:city" v="West Pawlet"/>
    <tag k="addr:housenumber" v="65"/>
    <tag k="addr:street" v="Euclid Street"/>
    <tag k="addr:state" v="VT"/>
    <tag k="ref:vcgi:esiteid" v="185482"/>
  </node>
  <node id="-296" visible="true" lat="43.35683857" lon="-73.25070284">
    <tag k="addr:city" v="West Pawlet"/>
    <tag k="addr:housenumber" v="3099"/>
    <tag k="addr:street" v="Vermont Route 153"/>
    <tag k="addr:state" v="VT"/>
    <tag k="ref:vcgi:esiteid" v="185483"/>
  </node>
  <node id="-297" visible="true" lat="43.35667163" lon="-73.23321204">
    <tag k="addr:city" v="West Pawlet"/>
    <tag k="addr:housenumber" v="1323"/>
    <tag k="addr:street" v="Betts Bridge Road"/>
    <tag k="addr:state" v="VT"/>
    <tag k="ref:vcgi:esiteid" v="185484"/>
  </node>
  <node id="-298" visible="true" lat="43.35678823" lon="-73.22791193">
    <tag k="addr:city" v="West Pawlet"/>
    <tag k="addr:housenumber" v="1169"/>
    <tag k="addr:street" v="Betts Bridge Road"/>
    <tag k="addr:state" v="VT"/>
    <tag k="ref:vcgi:esiteid" v="185486"/>
  </node>
  <node id="-299" visible="true" lat="43.35660906" lon="-73.25149567">
    <tag k="addr:city" v="West Pawlet"/>
    <tag k="addr:housenumber" v="55"/>
    <tag k="addr:street" v="Euclid Street"/>
    <tag k="addr:state" v="VT"/>
    <tag k="ref:vcgi:esiteid" v="185487"/>
  </node>
  <node id="-300" visible="true" lat="43.35668274" lon="-73.25082436">
    <tag k="addr:city" v="West Pawlet"/>
    <tag k="addr:housenumber" v="3087"/>
    <tag k="addr:street" v="Vermont Route 153"/>
    <tag k="addr:state" v="VT"/>
    <tag k="ref:vcgi:esiteid" v="185488"/>
  </node>
  <node id="-301" visible="true" lat="43.3564949" lon="-73.25092315">
    <tag k="addr:city" v="West Pawlet"/>
    <tag k="addr:housenumber" v="3075"/>
    <tag k="addr:street" v="Vermont Route 153"/>
    <tag k="addr:state" v="VT"/>
    <tag k="ref:vcgi:esiteid" v="185489"/>
  </node>
  <node id="-302" visible="true" lat="43.35640805" lon="-73.25154109">
    <tag k="addr:city" v="West Pawlet"/>
    <tag k="addr:housenumber" v="39"/>
    <tag k="addr:street" v="Euclid Street"/>
    <tag k="addr:state" v="VT"/>
    <tag k="ref:vcgi:esiteid" v="185491"/>
  </node>
  <node id="-303" visible="true" lat="43.35636597" lon="-73.25099282">
    <tag k="addr:city" v="West Pawlet"/>
    <tag k="addr:housenumber" v="3065"/>
    <tag k="addr:street" v="Vermont Route 153"/>
    <tag k="addr:state" v="VT"/>
    <tag k="ref:vcgi:esiteid" v="185492"/>
  </node>
  <node id="-304" visible="true" lat="43.35625319" lon="-73.25168991">
    <tag k="addr:city" v="West Pawlet"/>
    <tag k="addr:housenumber" v="25"/>
    <tag k="addr:street" v="Euclid Street"/>
    <tag k="addr:state" v="VT"/>
    <tag k="ref:vcgi:esiteid" v="185493"/>
  </node>
  <node id="-305" visible="true" lat="43.35614645" lon="-73.25030428">
    <tag k="addr:city" v="West Pawlet"/>
    <tag k="addr:housenumber" v="3082"/>
    <tag k="addr:street" v="Vermont Route 153"/>
    <tag k="addr:state" v="VT"/>
    <tag k="ref:vcgi:esiteid" v="185495"/>
  </node>
  <node id="-306" visible="true" lat="43.35602809" lon="-73.25119628">
    <tag k="addr:city" v="West Pawlet"/>
    <tag k="addr:housenumber" v="3043"/>
    <tag k="addr:street" v="Vermont Route 153"/>
    <tag k="addr:state" v="VT"/>
    <tag k="ref:vcgi:esiteid" v="185496"/>
  </node>
  <node id="-307" visible="true" lat="43.35608688" lon="-73.25071247">
    <tag k="addr:city" v="West Pawlet"/>
    <tag k="addr:housenumber" v="3048"/>
    <tag k="addr:street" v="Vermont Route 153"/>
    <tag k="addr:state" v="VT"/>
    <tag k="ref:vcgi:esiteid" v="185497"/>
  </node>
  <node id="-308" visible="true" lat="43.35590362" lon="-73.25129699">
    <tag k="addr:city" v="West Pawlet"/>
    <tag k="addr:housenumber" v="3029"/>
    <tag k="addr:street" v="Vermont Route 153"/>
    <tag k="addr:state" v="VT"/>
    <tag k="ref:vcgi:esiteid" v="185499"/>
  </node>
  <node id="-309" visible="true" lat="43.35575349" lon="-73.25095575">
    <tag k="addr:city" v="West Pawlet"/>
    <tag k="addr:housenumber" v="3026"/>
    <tag k="addr:street" v="Vermont Route 153"/>
    <tag k="addr:state" v="VT"/>
    <tag k="ref:vcgi:esiteid" v="185501"/>
  </node>
  <node id="-310" visible="true" lat="43.35560981" lon="-73.25101685">
    <tag k="addr:city" v="West Pawlet"/>
    <tag k="addr:housenumber" v="3016"/>
    <tag k="addr:street" v="Vermont Route 153"/>
    <tag k="addr:state" v="VT"/>
    <tag k="ref:vcgi:esiteid" v="185502"/>
  </node>
  <node id="-311" visible="true" lat="43.35548421" lon="-73.25105678">
    <tag k="addr:city" v="West Pawlet"/>
    <tag k="addr:housenumber" v="3010"/>
    <tag k="addr:street" v="Vermont Route 153"/>
    <tag k="addr:state" v="VT"/>
    <tag k="ref:vcgi:esiteid" v="185504"/>
  </node>
  <node id="-312" visible="true" lat="43.35541468" lon="-73.25045821">
    <tag k="addr:city" v="West Pawlet"/>
    <tag k="addr:housenumber" v="43"/>
    <tag k="addr:street" v="New Street"/>
    <tag k="addr:state" v="VT"/>
    <tag k="ref:vcgi:esiteid" v="185505"/>
  </node>
  <node id="-313" visible="true" lat="43.35547728" lon="-73.25187459">
    <tag k="addr:city" v="West Pawlet"/>
    <tag k="addr:housenumber" v="2987"/>
    <tag k="addr:street" v="Vermont Route 153"/>
    <tag k="addr:state" v="VT"/>
    <tag k="ref:vcgi:esiteid" v="185507"/>
  </node>
  <node id="-314" visible="true" lat="43.3552754" lon="-73.25047593">
    <tag k="addr:city" v="West Pawlet"/>
    <tag k="addr:housenumber" v="55"/>
    <tag k="addr:street" v="New Street"/>
    <tag k="addr:state" v="VT"/>
    <tag k="ref:vcgi:esiteid" v="185509"/>
  </node>
  <node id="-315" visible="true" lat="43.35521058" lon="-73.25133123">
    <tag k="addr:city" v="West Pawlet"/>
    <tag k="addr:housenumber" v="2984"/>
    <tag k="addr:street" v="Vermont Route 153"/>
    <tag k="addr:state" v="VT"/>
    <tag k="ref:vcgi:esiteid" v="185510"/>
  </node>
  <node id="-316" visible="true" lat="43.35510824" lon="-73.25054339">
    <tag k="addr:city" v="West Pawlet"/>
    <tag k="addr:housenumber" v="63"/>
    <tag k="addr:street" v="New Street"/>
    <tag k="addr:state" v="VT"/>
    <tag k="ref:vcgi:esiteid" v="185511"/>
  </node>
  <node id="-317" visible="true" lat="43.35514428" lon="-73.2508996">
    <tag k="addr:city" v="West Pawlet"/>
    <tag k="addr:housenumber" v="68"/>
    <tag k="addr:street" v="New Street"/>
    <tag k="addr:state" v="VT"/>
    <tag k="ref:vcgi:esiteid" v="185512"/>
  </node>
  <node id="-318" visible="true" lat="43.35505104" lon="-73.252765">
    <tag k="addr:city" v="West Pawlet"/>
    <tag k="addr:housenumber" v="2957"/>
    <tag k="addr:street" v="Vermont Route 153"/>
    <tag k="addr:state" v="VT"/>
    <tag k="ref:vcgi:esiteid" v="185513"/>
  </node>
  <node id="-319" visible="true" lat="43.35509602" lon="-73.25187984">
    <tag k="addr:city" v="West Pawlet"/>
    <tag k="addr:housenumber" v="2963"/>
    <tag k="addr:street" v="Vermont Route 153"/>
    <tag k="addr:state" v="VT"/>
    <tag k="ref:vcgi:esiteid" v="185514"/>
  </node>
  <node id="-320" visible="true" lat="43.35501331" lon="-73.25140972">
    <tag k="addr:city" v="West Pawlet"/>
    <tag k="addr:housenumber" v="2970"/>
    <tag k="addr:street" v="Vermont Route 153"/>
    <tag k="addr:state" v="VT"/>
    <tag k="ref:vcgi:esiteid" v="185515"/>
  </node>
  <node id="-321" visible="true" lat="43.35495773" lon="-73.25096832">
    <tag k="addr:city" v="West Pawlet"/>
    <tag k="addr:housenumber" v="78"/>
    <tag k="addr:street" v="New Street"/>
    <tag k="addr:state" v="VT"/>
    <tag k="ref:vcgi:esiteid" v="185516"/>
  </node>
  <node id="-322" visible="true" lat="43.35494959" lon="-73.25057178">
    <tag k="addr:city" v="West Pawlet"/>
    <tag k="addr:housenumber" v="77"/>
    <tag k="addr:street" v="New Street"/>
    <tag k="addr:state" v="VT"/>
    <tag k="ref:vcgi:esiteid" v="185518"/>
  </node>
  <node id="-323" visible="true" lat="43.35478816" lon="-73.25100591">
    <tag k="addr:city" v="West Pawlet"/>
    <tag k="addr:housenumber" v="92"/>
    <tag k="addr:street" v="New Street"/>
    <tag k="addr:state" v="VT"/>
    <tag k="ref:vcgi:esiteid" v="185521"/>
  </node>
  <node id="-324" visible="true" lat="43.35475795" lon="-73.25062502">
    <tag k="addr:city" v="West Pawlet"/>
    <tag k="addr:housenumber" v="91"/>
    <tag k="addr:street" v="New Street"/>
    <tag k="addr:state" v="VT"/>
    <tag k="ref:vcgi:esiteid" v="185522"/>
  </node>
  <node id="-325" visible="true" lat="43.35468146" lon="-73.25156588">
    <tag k="addr:city" v="West Pawlet"/>
    <tag k="addr:housenumber" v="2946"/>
    <tag k="addr:street" v="Vermont Route 153"/>
    <tag k="addr:state" v="VT"/>
    <tag k="ref:vcgi:esiteid" v="185525"/>
  </node>
  <node id="-326" visible="true" lat="43.35466689" lon="-73.25104013">
    <tag k="addr:city" v="West Pawlet"/>
    <tag k="addr:housenumber" v="100"/>
    <tag k="addr:street" v="New Street"/>
    <tag k="addr:state" v="VT"/>
    <tag k="ref:vcgi:esiteid" v="185526"/>
  </node>
  <node id="-327" visible="true" lat="43.35462266" lon="-73.2506271">
    <tag k="addr:city" v="West Pawlet"/>
    <tag k="addr:housenumber" v="111"/>
    <tag k="addr:street" v="New Street"/>
    <tag k="addr:state" v="VT"/>
    <tag k="ref:vcgi:esiteid" v="185527"/>
  </node>
  <node id="-328" visible="true" lat="43.35451079" lon="-73.25155623">
    <tag k="addr:city" v="West Pawlet"/>
    <tag k="addr:housenumber" v="2934"/>
    <tag k="addr:street" v="Vermont Route 153"/>
    <tag k="addr:state" v="VT"/>
    <tag k="ref:vcgi:esiteid" v="185528"/>
  </node>
  <node id="-329" visible="true" lat="43.35454141" lon="-73.25006738">
    <tag k="addr:city" v="West Pawlet"/>
    <tag k="addr:housenumber" v="27"/>
    <tag k="addr:street" v="Spruce Street"/>
    <tag k="addr:state" v="VT"/>
    <tag k="ref:vcgi:esiteid" v="185529"/>
  </node>
  <node id="-330" visible="true" lat="43.35443496" lon="-73.25108337">
    <tag k="addr:city" v="West Pawlet"/>
    <tag k="addr:housenumber" v="118"/>
    <tag k="addr:street" v="New Street"/>
    <tag k="addr:state" v="VT"/>
    <tag k="ref:vcgi:esiteid" v="185530"/>
  </node>
  <node id="-331" visible="true" lat="43.35440289" lon="-73.2527908">
    <tag k="addr:city" v="West Pawlet"/>
    <tag k="addr:housenumber" v="2921"/>
    <tag k="addr:street" v="Vermont Route 153"/>
    <tag k="addr:state" v="VT"/>
    <tag k="ref:vcgi:esiteid" v="185531"/>
  </node>
  <node id="-332" visible="true" lat="43.35429822" lon="-73.25209598">
    <tag k="addr:city" v="West Pawlet"/>
    <tag k="addr:housenumber" v="2911"/>
    <tag k="addr:street" v="Vermont Route 153"/>
    <tag k="addr:state" v="VT"/>
    <tag k="ref:vcgi:esiteid" v="185535"/>
  </node>
  <node id="-333" visible="true" lat="43.35431394" lon="-73.25312825">
    <tag k="addr:city" v="West Pawlet"/>
    <tag k="addr:housenumber" v="66"/>
    <tag k="addr:street" v="Railroad Avenue"/>
    <tag k="addr:state" v="VT"/>
    <tag k="ref:vcgi:esiteid" v="185536"/>
  </node>
  <node id="-334" visible="true" lat="43.35427472" lon="-73.25173696">
    <tag k="addr:city" v="West Pawlet"/>
    <tag k="addr:housenumber" v="2912"/>
    <tag k="addr:street" v="Vermont Route 153"/>
    <tag k="addr:state" v="VT"/>
    <tag k="ref:vcgi:esiteid" v="185537"/>
  </node>
  <node id="-335" visible="true" lat="43.35424774" lon="-73.25069592">
    <tag k="addr:city" v="West Pawlet"/>
    <tag k="addr:housenumber" v="131"/>
    <tag k="addr:street" v="New Street"/>
    <tag k="addr:state" v="VT"/>
    <tag k="ref:vcgi:esiteid" v="185538"/>
  </node>
  <node id="-336" visible="true" lat="43.35398483" lon="-73.25128173">
    <tag k="addr:city" v="West Pawlet"/>
    <tag k="addr:housenumber" v="150"/>
    <tag k="addr:street" v="New Street"/>
    <tag k="addr:state" v="VT"/>
    <tag k="ref:vcgi:esiteid" v="185540"/>
  </node>
  <node id="-337" visible="true" lat="43.35400814" lon="-73.25231849">
    <tag k="addr:city" v="West Pawlet"/>
    <tag k="addr:housenumber" v="2887"/>
    <tag k="addr:street" v="Vermont Route 153"/>
    <tag k="addr:state" v="VT"/>
    <tag k="ref:vcgi:esiteid" v="185542"/>
  </node>
  <node id="-338" visible="true" lat="43.35390091" lon="-73.2508469">
    <tag k="addr:city" v="West Pawlet"/>
    <tag k="addr:housenumber" v="149"/>
    <tag k="addr:street" v="New Street"/>
    <tag k="addr:state" v="VT"/>
    <tag k="ref:vcgi:esiteid" v="185543"/>
  </node>
  <node id="-339" visible="true" lat="43.35398071" lon="-73.25287631">
    <tag k="addr:city" v="West Pawlet"/>
    <tag k="addr:housenumber" v="42"/>
    <tag k="addr:street" v="Railroad Avenue"/>
    <tag k="addr:state" v="VT"/>
    <tag k="ref:vcgi:esiteid" v="185544"/>
  </node>
  <node id="-340" visible="true" lat="43.35388327" lon="-73.25158648">
    <tag k="addr:city" v="West Pawlet"/>
    <tag k="addr:housenumber" v="2888"/>
    <tag k="addr:street" v="Vermont Route 153"/>
    <tag k="addr:state" v="VT"/>
    <tag k="ref:vcgi:esiteid" v="185545"/>
  </node>
  <node id="-341" visible="true" lat="43.35383608" lon="-73.25312544">
    <tag k="addr:city" v="West Pawlet"/>
    <tag k="addr:housenumber" v="49"/>
    <tag k="addr:street" v="Railroad Avenue"/>
    <tag k="addr:state" v="VT"/>
    <tag k="ref:vcgi:esiteid" v="185546"/>
  </node>
  <node id="-342" visible="true" lat="43.35376218" lon="-73.25087349">
    <tag k="addr:city" v="West Pawlet"/>
    <tag k="addr:housenumber" v="159"/>
    <tag k="addr:street" v="New Street"/>
    <tag k="addr:state" v="VT"/>
    <tag k="ref:vcgi:esiteid" v="185547"/>
  </node>
  <node id="-343" visible="true" lat="43.35371017" lon="-73.25132751">
    <tag k="addr:city" v="West Pawlet"/>
    <tag k="addr:housenumber" v="172"/>
    <tag k="addr:street" v="New Street"/>
    <tag k="addr:state" v="VT"/>
    <tag k="ref:vcgi:esiteid" v="185548"/>
  </node>
  <node id="-344" visible="true" lat="43.35359163" lon="-73.25101557">
    <tag k="addr:city" v="West Pawlet"/>
    <tag k="addr:housenumber" v="169"/>
    <tag k="addr:street" v="New Street"/>
    <tag k="addr:state" v="VT"/>
    <tag k="ref:vcgi:esiteid" v="185550"/>
  </node>
  <node id="-345" visible="true" lat="43.35361605" lon="-73.2518077">
    <tag k="addr:city" v="West Pawlet"/>
    <tag k="addr:housenumber" v="2866"/>
    <tag k="addr:street" v="Vermont Route 153"/>
    <tag k="addr:state" v="VT"/>
    <tag k="ref:vcgi:esiteid" v="185551"/>
  </node>
  <node id="-346" visible="true" lat="43.35353695" lon="-73.25278463">
    <tag k="addr:city" v="West Pawlet"/>
    <tag k="addr:housenumber" v="21"/>
    <tag k="addr:street" v="Railroad Avenue"/>
    <tag k="addr:state" v="VT"/>
    <tag k="ref:vcgi:esiteid" v="185552"/>
  </node>
  <node id="-347" visible="true" lat="43.35320844" lon="-73.25191094">
    <tag k="addr:city" v="West Pawlet"/>
    <tag k="addr:housenumber" v="2849"/>
    <tag k="addr:street" v="Vermont Route 153"/>
    <tag k="addr:state" v="VT"/>
    <tag k="ref:vcgi:esiteid" v="185554"/>
  </node>
  <node id="-348" visible="true" lat="43.35325053" lon="-73.25200913">
    <tag k="addr:city" v="West Pawlet"/>
    <tag k="addr:housenumber" v="13"/>
    <tag k="addr:street" v="Egg Street"/>
    <tag k="addr:state" v="VT"/>
    <tag k="ref:vcgi:esiteid" v="185555"/>
  </node>
  <node id="-349" visible="true" lat="43.35316779" lon="-73.25238714">
    <tag k="addr:city" v="West Pawlet"/>
    <tag k="addr:housenumber" v="39"/>
    <tag k="addr:street" v="Egg Street"/>
    <tag k="addr:state" v="VT"/>
    <tag k="ref:vcgi:esiteid" v="185556"/>
  </node>
  <node id="-350" visible="true" lat="43.35325925" lon="-73.25091696">
    <tag k="addr:city" v="West Pawlet"/>
    <tag k="addr:housenumber" v="2806"/>
    <tag k="addr:street" v="Vermont Route 153"/>
    <tag k="addr:state" v="VT"/>
    <tag k="ref:vcgi:esiteid" v="185557"/>
  </node>
  <node id="-351" visible="true" lat="43.35304114" lon="-73.25148944">
    <tag k="addr:city" v="West Pawlet"/>
    <tag k="addr:housenumber" v="2825"/>
    <tag k="addr:street" v="Vermont Route 153"/>
    <tag k="addr:state" v="VT"/>
    <tag k="ref:vcgi:esiteid" v="185558"/>
  </node>
  <node id="-352" visible="true" lat="43.35306169" lon="-73.25314833">
    <tag k="addr:city" v="West Pawlet"/>
    <tag k="addr:housenumber" v="72"/>
    <tag k="addr:street" v="Egg Street"/>
    <tag k="addr:state" v="VT"/>
    <tag k="ref:vcgi:esiteid" v="185559"/>
  </node>
  <node id="-353" visible="true" lat="43.35296134" lon="-73.2513705">
    <tag k="addr:city" v="West Pawlet"/>
    <tag k="addr:housenumber" v="2815"/>
    <tag k="addr:street" v="Vermont Route 153"/>
    <tag k="addr:state" v="VT"/>
    <tag k="ref:vcgi:esiteid" v="185561"/>
  </node>
  <node id="-354" visible="true" lat="43.35298435" lon="-73.25079106">
    <tag k="addr:city" v="West Pawlet"/>
    <tag k="addr:housenumber" v="2792"/>
    <tag k="addr:street" v="Vermont Route 153"/>
    <tag k="addr:state" v="VT"/>
    <tag k="ref:vcgi:esiteid" v="185562"/>
  </node>
  <node id="-355" visible="true" lat="43.35288335" lon="-73.25123078">
    <tag k="addr:city" v="West Pawlet"/>
    <tag k="addr:housenumber" v="2807"/>
    <tag k="addr:street" v="Vermont Route 153"/>
    <tag k="addr:state" v="VT"/>
    <tag k="ref:vcgi:esiteid" v="185563"/>
  </node>
  <node id="-356" visible="true" lat="43.35283249" lon="-73.25277372">
    <tag k="addr:city" v="West Pawlet"/>
    <tag k="addr:housenumber" v="73"/>
    <tag k="addr:street" v="Egg Street"/>
    <tag k="addr:state" v="VT"/>
    <tag k="ref:vcgi:esiteid" v="185564"/>
  </node>
  <node id="-357" visible="true" lat="43.35276399" lon="-73.25104796">
    <tag k="addr:city" v="West Pawlet"/>
    <tag k="addr:housenumber" v="2795"/>
    <tag k="addr:street" v="Vermont Route 153"/>
    <tag k="addr:state" v="VT"/>
    <tag k="ref:vcgi:esiteid" v="185565"/>
  </node>
  <node id="-358" visible="true" lat="43.35271689" lon="-73.25295888">
    <tag k="addr:city" v="West Pawlet"/>
    <tag k="addr:housenumber" v="83"/>
    <tag k="addr:street" v="Egg Street"/>
    <tag k="addr:state" v="VT"/>
    <tag k="ref:vcgi:esiteid" v="185566"/>
  </node>
  <node id="-359" visible="true" lat="43.35273014" lon="-73.25051236">
    <tag k="addr:city" v="West Pawlet"/>
    <tag k="addr:housenumber" v="2772"/>
    <tag k="addr:street" v="Vermont Route 153"/>
    <tag k="addr:state" v="VT"/>
    <tag k="ref:vcgi:esiteid" v="185568"/>
  </node>
  <node id="-360" visible="true" lat="43.35247253" lon="-73.25076519">
    <tag k="addr:city" v="West Pawlet"/>
    <tag k="addr:housenumber" v="2771"/>
    <tag k="addr:street" v="Vermont Route 153"/>
    <tag k="addr:state" v="VT"/>
    <tag k="ref:vcgi:esiteid" v="185570"/>
  </node>
  <node id="-361" visible="true" lat="43.35254807" lon="-73.25031783">
    <tag k="addr:city" v="West Pawlet"/>
    <tag k="addr:housenumber" v="2756"/>
    <tag k="addr:street" v="Vermont Route 153"/>
    <tag k="addr:state" v="VT"/>
    <tag k="ref:vcgi:esiteid" v="185571"/>
  </node>
  <node id="-362" visible="true" lat="43.35235775" lon="-73.25065113">
    <tag k="addr:city" v="West Pawlet"/>
    <tag k="addr:housenumber" v="2757"/>
    <tag k="addr:street" v="Vermont Route 153"/>
    <tag k="addr:state" v="VT"/>
    <tag k="ref:vcgi:esiteid" v="185572"/>
  </node>
  <node id="-363" visible="true" lat="43.3524294" lon="-73.24900291">
    <tag k="addr:city" v="West Pawlet"/>
    <tag k="addr:housenumber" v="61"/>
    <tag k="addr:street" v="Nelson Terrace"/>
    <tag k="addr:state" v="VT"/>
    <tag k="ref:vcgi:esiteid" v="185574"/>
  </node>
  <node id="-364" visible="true" lat="43.35237793" lon="-73.24949613">
    <tag k="addr:city" v="West Pawlet"/>
    <tag k="addr:housenumber" v="37"/>
    <tag k="addr:street" v="Nelson Terrace"/>
    <tag k="addr:state" v="VT"/>
    <tag k="ref:vcgi:esiteid" v="185575"/>
  </node>
  <node id="-365" visible="true" lat="43.35223063" lon="-73.25052103">
    <tag k="addr:city" v="West Pawlet"/>
    <tag k="addr:housenumber" v="2749"/>
    <tag k="addr:street" v="Vermont Route 153"/>
    <tag k="addr:state" v="VT"/>
    <tag k="ref:vcgi:esiteid" v="185576"/>
  </node>
  <node id="-366" visible="true" lat="43.35234919" lon="-73.25012499">
    <tag k="addr:city" v="West Pawlet"/>
    <tag k="addr:housenumber" v="2736"/>
    <tag k="addr:street" v="Vermont Route 153"/>
    <tag k="addr:state" v="VT"/>
    <tag k="ref:vcgi:esiteid" v="185577"/>
  </node>
  <node id="-367" visible="true" lat="43.35207599" lon="-73.25044918">
    <tag k="addr:city" v="West Pawlet"/>
    <tag k="addr:housenumber" v="2735"/>
    <tag k="addr:street" v="Vermont Route 153"/>
    <tag k="addr:state" v="VT"/>
    <tag k="ref:vcgi:esiteid" v="185580"/>
  </node>
  <node id="-368" visible="true" lat="43.35218205" lon="-73.24994514">
    <tag k="addr:city" v="West Pawlet"/>
    <tag k="addr:housenumber" v="2724"/>
    <tag k="addr:street" v="Vermont Route 153"/>
    <tag k="addr:state" v="VT"/>
    <tag k="ref:vcgi:esiteid" v="185581"/>
  </node>
  <node id="-369" visible="true" lat="43.35208694" lon="-73.24933033">
    <tag k="addr:city" v="West Pawlet"/>
    <tag k="addr:housenumber" v="34"/>
    <tag k="addr:street" v="Nelson Terrace"/>
    <tag k="addr:state" v="VT"/>
    <tag k="ref:vcgi:esiteid" v="185582"/>
  </node>
  <node id="-370" visible="true" lat="43.35198974" lon="-73.24978637">
    <tag k="addr:city" v="West Pawlet"/>
    <tag k="addr:housenumber" v="2710"/>
    <tag k="addr:street" v="Vermont Route 153"/>
    <tag k="addr:state" v="VT"/>
    <tag k="ref:vcgi:esiteid" v="185583"/>
  </node>
  <node id="-371" visible="true" lat="43.3519164" lon="-73.25033954">
    <tag k="addr:city" v="West Pawlet"/>
    <tag k="addr:housenumber" v="2719"/>
    <tag k="addr:street" v="Vermont Route 153"/>
    <tag k="addr:state" v="VT"/>
    <tag k="ref:vcgi:esiteid" v="185584"/>
  </node>
  <node id="-372" visible="true" lat="43.35175648" lon="-73.25021296">
    <tag k="addr:city" v="West Pawlet"/>
    <tag k="addr:housenumber" v="2709"/>
    <tag k="addr:street" v="Vermont Route 153"/>
    <tag k="addr:state" v="VT"/>
    <tag k="ref:vcgi:esiteid" v="185586"/>
  </node>
  <node id="-373" visible="true" lat="43.35177459" lon="-73.24965329">
    <tag k="addr:city" v="West Pawlet"/>
    <tag k="addr:housenumber" v="2690"/>
    <tag k="addr:street" v="Vermont Route 153"/>
    <tag k="addr:state" v="VT"/>
    <tag k="ref:vcgi:esiteid" v="185588"/>
  </node>
  <node id="-374" visible="true" lat="43.35163475" lon="-73.24952383">
    <tag k="addr:city" v="West Pawlet"/>
    <tag k="addr:housenumber" v="2682"/>
    <tag k="addr:street" v="Vermont Route 153"/>
    <tag k="addr:state" v="VT"/>
    <tag k="ref:vcgi:esiteid" v="185589"/>
  </node>
  <node id="-375" visible="true" lat="43.35157301" lon="-73.25000197">
    <tag k="addr:city" v="West Pawlet"/>
    <tag k="addr:housenumber" v="2689"/>
    <tag k="addr:street" v="Vermont Route 153"/>
    <tag k="addr:state" v="VT"/>
    <tag k="ref:vcgi:esiteid" v="185590"/>
  </node>
  <node id="-376" visible="true" lat="43.35138779" lon="-73.24991883">
    <tag k="addr:city" v="West Pawlet"/>
    <tag k="addr:housenumber" v="2675"/>
    <tag k="addr:street" v="Vermont Route 153"/>
    <tag k="addr:state" v="VT"/>
    <tag k="ref:vcgi:esiteid" v="185592"/>
  </node>
  <node id="-377" visible="true" lat="43.35126273" lon="-73.24939195">
    <tag k="addr:city" v="West Pawlet"/>
    <tag k="addr:housenumber" v="2658"/>
    <tag k="addr:street" v="Vermont Route 153"/>
    <tag k="addr:state" v="VT"/>
    <tag k="ref:vcgi:esiteid" v="185594"/>
  </node>
  <node id="-378" visible="true" lat="43.35114387" lon="-73.24982117">
    <tag k="addr:city" v="West Pawlet"/>
    <tag k="addr:housenumber" v="2657"/>
    <tag k="addr:street" v="Vermont Route 153"/>
    <tag k="addr:state" v="VT"/>
    <tag k="ref:vcgi:esiteid" v="185595"/>
  </node>
  <node id="-379" visible="true" lat="43.35113303" lon="-73.24940956">
    <tag k="addr:city" v="West Pawlet"/>
    <tag k="addr:housenumber" v="2648"/>
    <tag k="addr:street" v="Vermont Route 153"/>
    <tag k="addr:state" v="VT"/>
    <tag k="ref:vcgi:esiteid" v="185596"/>
  </node>
  <node id="-380" visible="true" lat="43.35095666" lon="-73.24978948">
    <tag k="addr:city" v="West Pawlet"/>
    <tag k="addr:housenumber" v="2641"/>
    <tag k="addr:street" v="Vermont Route 153"/>
    <tag k="addr:state" v="VT"/>
    <tag k="ref:vcgi:esiteid" v="185597"/>
  </node>
  <node id="-381" visible="true" lat="43.35077966" lon="-73.24974454">
    <tag k="addr:city" v="West Pawlet"/>
    <tag k="addr:housenumber" v="2631"/>
    <tag k="addr:street" v="Vermont Route 153"/>
    <tag k="addr:state" v="VT"/>
    <tag k="ref:vcgi:esiteid" v="185598"/>
  </node>
  <node id="-382" visible="true" lat="43.35031798" lon="-73.24975258">
    <tag k="addr:city" v="West Pawlet"/>
    <tag k="addr:housenumber" v="2597"/>
    <tag k="addr:street" v="Vermont Route 153"/>
    <tag k="addr:state" v="VT"/>
    <tag k="ref:vcgi:esiteid" v="185600"/>
  </node>
  <node id="-383" visible="true" lat="43.35011884" lon="-73.25038158">
    <tag k="addr:city" v="West Pawlet"/>
    <tag k="addr:housenumber" v="2589"/>
    <tag k="addr:street" v="Vermont Route 153"/>
    <tag k="addr:state" v="VT"/>
    <tag k="ref:vcgi:esiteid" v="185602"/>
  </node>
  <node id="-384" visible="true" lat="43.34910935" lon="-73.24973624">
    <tag k="addr:city" v="West Pawlet"/>
    <tag k="addr:housenumber" v="2585"/>
    <tag k="addr:street" v="Vermont Route 153"/>
    <tag k="addr:state" v="VT"/>
    <tag k="ref:vcgi:esiteid" v="185605"/>
  </node>
  <node id="-385" visible="true" lat="43.34725407" lon="-73.24877636">
    <tag k="addr:city" v="West Pawlet"/>
    <tag k="addr:housenumber" v="2391"/>
    <tag k="addr:street" v="Vermont Route 153"/>
    <tag k="addr:state" v="VT"/>
    <tag k="ref:vcgi:esiteid" v="185634"/>
  </node>
  <node id="-386" visible="true" lat="43.34747121" lon="-73.24779317">
    <tag k="addr:city" v="West Pawlet"/>
    <tag k="addr:housenumber" v="2378"/>
    <tag k="addr:street" v="Vermont Route 153"/>
    <tag k="addr:state" v="VT"/>
    <tag k="ref:vcgi:esiteid" v="185635"/>
  </node>
  <node id="-387" visible="true" lat="43.34671909" lon="-73.2471732">
    <tag k="addr:city" v="West Pawlet"/>
    <tag k="addr:housenumber" v="2312"/>
    <tag k="addr:street" v="Vermont Route 153"/>
    <tag k="addr:state" v="VT"/>
    <tag k="ref:vcgi:esiteid" v="185655"/>
  </node>
  <node id="-388" visible="true" lat="43.34635674" lon="-73.24556896">
    <tag k="addr:city" v="West Pawlet"/>
    <tag k="addr:housenumber" v="2220"/>
    <tag k="addr:street" v="Vermont Route 153"/>
    <tag k="addr:state" v="VT"/>
    <tag k="ref:vcgi:esiteid" v="185658"/>
  </node>
  <node id="-389" visible="true" lat="43.34469174" lon="-73.23055914">
    <tag k="addr:city" v="West Pawlet"/>
    <tag k="addr:housenumber" v="812"/>
    <tag k="addr:street" v="Heatherington Road"/>
    <tag k="addr:state" v="VT"/>
    <tag k="ref:vcgi:esiteid" v="185697"/>
  </node>
  <node id="-390" visible="true" lat="43.34442581" lon="-73.24443457">
    <tag k="addr:city" v="West Pawlet"/>
    <tag k="addr:housenumber" v="2090"/>
    <tag k="addr:street" v="Vermont Route 153"/>
    <tag k="addr:state" v="VT"/>
    <tag k="ref:vcgi:esiteid" v="185699"/>
  </node>
  <node id="-391" visible="true" lat="43.34269283" lon="-73.23414858">
    <tag k="addr:city" v="West Pawlet"/>
    <tag k="addr:housenumber" v="907"/>
    <tag k="addr:street" v="Heatherington Road"/>
    <tag k="addr:state" v="VT"/>
    <tag k="ref:vcgi:esiteid" v="185717"/>
  </node>
  <node id="-392" visible="true" lat="43.34212493" lon="-73.232872">
    <tag k="addr:city" v="West Pawlet"/>
    <tag k="addr:housenumber" v="864"/>
    <tag k="addr:street" v="Heatherington Road"/>
    <tag k="addr:state" v="VT"/>
    <tag k="ref:vcgi:esiteid" v="185722"/>
  </node>
  <node id="-393" visible="true" lat="43.34043502" lon="-73.23225402">
    <tag k="addr:city" v="West Pawlet"/>
    <tag k="addr:housenumber" v="690"/>
    <tag k="addr:street" v="Heatherington Road"/>
    <tag k="addr:state" v="VT"/>
    <tag k="ref:vcgi:esiteid" v="185731"/>
  </node>
  <node id="-394" visible="true" lat="43.33990478" lon="-73.24394226">
    <tag k="addr:city" v="West Pawlet"/>
    <tag k="addr:housenumber" v="1807"/>
    <tag k="addr:street" v="Vermont Route 153"/>
    <tag k="addr:state" v="VT"/>
    <tag k="ref:vcgi:esiteid" v="185735"/>
  </node>
  <node id="-395" visible="true" lat="43.33780708" lon="-73.21746541">
    <tag k="addr:city" v="West Pawlet"/>
    <tag k="addr:housenumber" v="1060"/>
    <tag k="addr:street" v="Bauer Road"/>
    <tag k="addr:state" v="VT"/>
    <tag k="ref:vcgi:esiteid" v="185748"/>
  </node>
  <node id="-396" visible="true" lat="43.33679925" lon="-73.23562069">
    <tag k="addr:city" v="West Pawlet"/>
    <tag k="addr:housenumber" v="35"/>
    <tag k="addr:street" v="Bauer Road"/>
    <tag k="addr:state" v="VT"/>
    <tag k="ref:vcgi:esiteid" v="185753"/>
  </node>
  <node id="-397" visible="true" lat="43.33628155" lon="-73.23383618">
    <tag k="addr:city" v="West Pawlet"/>
    <tag k="addr:housenumber" v="134"/>
    <tag k="addr:street" v="Bauer Road"/>
    <tag k="addr:state" v="VT"/>
    <tag k="ref:vcgi:esiteid" v="185755"/>
  </node>
  <node id="-398" visible="true" lat="43.33591842" lon="-73.22717285">
    <tag k="addr:city" v="West Pawlet"/>
    <tag k="addr:housenumber" v="477"/>
    <tag k="addr:street" v="Bauer Road"/>
    <tag k="addr:state" v="VT"/>
    <tag k="ref:vcgi:esiteid" v="185756"/>
  </node>
  <node id="-399" visible="true" lat="43.33569664" lon="-73.23161923">
    <tag k="addr:city" v="West Pawlet"/>
    <tag k="addr:housenumber" v="242"/>
    <tag k="addr:street" v="Bauer Road"/>
    <tag k="addr:state" v="VT"/>
    <tag k="ref:vcgi:esiteid" v="185757"/>
  </node>
  <node id="-400" visible="true" lat="43.33510136" lon="-73.22935857">
    <tag k="addr:city" v="West Pawlet"/>
    <tag k="addr:housenumber" v="362"/>
    <tag k="addr:street" v="Bauer Road"/>
    <tag k="addr:state" v="VT"/>
    <tag k="ref:vcgi:esiteid" v="185763"/>
  </node>
  <node id="-401" visible="true" lat="43.33440489" lon="-73.24018082">
    <tag k="addr:city" v="West Pawlet"/>
    <tag k="addr:housenumber" v="182"/>
    <tag k="addr:street" v="Heatherington Road"/>
    <tag k="addr:state" v="VT"/>
    <tag k="ref:vcgi:esiteid" v="185765"/>
  </node>
  <node id="-402" visible="true" lat="43.33421285" lon="-73.24403349">
    <tag k="addr:city" v="West Pawlet"/>
    <tag k="addr:housenumber" v="1429"/>
    <tag k="addr:street" v="Vermont Route 153"/>
    <tag k="addr:state" v="VT"/>
    <tag k="ref:vcgi:esiteid" v="185766"/>
  </node>
  <node id="-403" visible="true" lat="43.33314049" lon="-73.24392124">
    <tag k="addr:city" v="West Pawlet"/>
    <tag k="addr:housenumber" v="1333"/>
    <tag k="addr:street" v="Vermont Route 153"/>
    <tag k="addr:state" v="VT"/>
    <tag k="ref:vcgi:esiteid" v="185772"/>
  </node>
  <node id="-404" visible="true" lat="43.33293148" lon="-73.24305189">
    <tag k="addr:city" v="West Pawlet"/>
    <tag k="addr:housenumber" v="1322"/>
    <tag k="addr:street" v="Vermont Route 153"/>
    <tag k="addr:state" v="VT"/>
    <tag k="ref:vcgi:esiteid" v="185775"/>
  </node>
  <node id="-405" visible="true" lat="43.33241912" lon="-73.24408637">
    <tag k="addr:city" v="West Pawlet"/>
    <tag k="addr:housenumber" v="1287"/>
    <tag k="addr:street" v="Vermont Route 153"/>
    <tag k="addr:state" v="VT"/>
    <tag k="ref:vcgi:esiteid" v="185776"/>
  </node>
  <node id="-406" visible="true" lat="43.33161926" lon="-73.24369812">
    <tag k="addr:city" v="West Pawlet"/>
    <tag k="addr:housenumber" v="1231"/>
    <tag k="addr:street" v="Vermont Route 153"/>
    <tag k="addr:state" v="VT"/>
    <tag k="ref:vcgi:esiteid" v="185778"/>
  </node>
  <node id="-407" visible="true" lat="43.33038711" lon="-73.24240875">
    <tag k="addr:city" v="West Pawlet"/>
    <tag k="addr:housenumber" v="978"/>
    <tag k="addr:street" v="Vermont Route 153"/>
    <tag k="addr:state" v="VT"/>
    <tag k="ref:vcgi:esiteid" v="185783"/>
  </node>
  <node id="-408" visible="true" lat="43.32977148" lon="-73.20952301">
    <tag k="addr:city" v="West Pawlet"/>
    <tag k="addr:housenumber" v="2090"/>
    <tag k="addr:street" v="Clark Road"/>
    <tag k="addr:state" v="VT"/>
    <tag k="ref:vcgi:esiteid" v="185789"/>
  </node>
  <node id="-409" visible="true" lat="43.32887015" lon="-73.23872687">
    <tag k="addr:city" v="West Pawlet"/>
    <tag k="addr:housenumber" v="980"/>
    <tag k="addr:street" v="Vermont Route 153"/>
    <tag k="addr:state" v="VT"/>
    <tag k="ref:vcgi:esiteid" v="185798"/>
  </node>
  <node id="-410" visible="true" lat="43.32722198" lon="-73.24378816">
    <tag k="addr:city" v="West Pawlet"/>
    <tag k="addr:housenumber" v="933"/>
    <tag k="addr:street" v="Vermont Route 153"/>
    <tag k="addr:state" v="VT"/>
    <tag k="ref:vcgi:esiteid" v="185807"/>
  </node>
  <node id="-411" visible="true" lat="43.32682716" lon="-73.24386788">
    <tag k="addr:city" v="West Pawlet"/>
    <tag k="addr:housenumber" v="897"/>
    <tag k="addr:street" v="Vermont Route 153"/>
    <tag k="addr:state" v="VT"/>
    <tag k="ref:vcgi:esiteid" v="185810"/>
  </node>
  <node id="-412" visible="true" lat="43.32665814" lon="-73.21790785">
    <tag k="addr:city" v="West Pawlet"/>
    <tag k="addr:housenumber" v="1539"/>
    <tag k="addr:street" v="Clark Road"/>
    <tag k="addr:state" v="VT"/>
    <tag k="ref:vcgi:esiteid" v="185813"/>
  </node>
  <node id="-413" visible="true" lat="43.32647858" lon="-73.21556148">
    <tag k="addr:city" v="West Pawlet"/>
    <tag k="addr:housenumber" v="1654"/>
    <tag k="addr:street" v="Clark Road"/>
    <tag k="addr:state" v="VT"/>
    <tag k="ref:vcgi:esiteid" v="185814"/>
  </node>
  <node id="-414" visible="true" lat="43.32616738" lon="-73.21945491">
    <tag k="addr:city" v="West Pawlet"/>
    <tag k="addr:housenumber" v="1483"/>
    <tag k="addr:street" v="Clark Road"/>
    <tag k="addr:state" v="VT"/>
    <tag k="ref:vcgi:esiteid" v="185815"/>
  </node>
  <node id="-415" visible="true" lat="43.32574206" lon="-73.22081371">
    <tag k="addr:city" v="West Pawlet"/>
    <tag k="addr:housenumber" v="1399"/>
    <tag k="addr:street" v="Clark Road"/>
    <tag k="addr:state" v="VT"/>
    <tag k="ref:vcgi:esiteid" v="185817"/>
  </node>
  <node id="-416" visible="true" lat="43.32549692" lon="-73.22054376">
    <tag k="addr:city" v="West Pawlet"/>
    <tag k="addr:housenumber" v="1397"/>
    <tag k="addr:street" v="Clark Road"/>
    <tag k="addr:state" v="VT"/>
    <tag k="ref:vcgi:esiteid" v="185818"/>
  </node>
  <node id="-417" visible="true" lat="43.32549688" lon="-73.21678405">
    <tag k="addr:city" v="West Pawlet"/>
    <tag k="addr:housenumber" v="95"/>
    <tag k="addr:street" v="Hi Go Road"/>
    <tag k="addr:state" v="VT"/>
    <tag k="ref:vcgi:esiteid" v="185819"/>
  </node>
  <node id="-418" visible="true" lat="43.32491683" lon="-73.22353362">
    <tag k="addr:city" v="West Pawlet"/>
    <tag k="addr:housenumber" v="1313"/>
    <tag k="addr:street" v="Clark Road"/>
    <tag k="addr:state" v="VT"/>
    <tag k="ref:vcgi:esiteid" v="185824"/>
  </node>
  <node id="-419" visible="true" lat="43.32434812" lon="-73.25054441">
    <tag k="addr:city" v="West Pawlet"/>
    <tag k="addr:housenumber" v="368"/>
    <tag k="addr:street" v="Sawmill Road"/>
    <tag k="addr:state" v="VT"/>
    <tag k="ref:vcgi:esiteid" v="185827"/>
  </node>
  <node id="-420" visible="true" lat="43.32433782" lon="-73.21803278">
    <tag k="addr:city" v="West Pawlet"/>
    <tag k="addr:housenumber" v="86"/>
    <tag k="addr:street" v="Hi Go Road"/>
    <tag k="addr:state" v="VT"/>
    <tag k="ref:vcgi:esiteid" v="185829"/>
  </node>
  <node id="-421" visible="true" lat="43.32301604" lon="-73.24734296">
    <tag k="addr:city" v="West Pawlet"/>
    <tag k="addr:housenumber" v="191"/>
    <tag k="addr:street" v="Sawmill Road"/>
    <tag k="addr:state" v="VT"/>
    <tag k="ref:vcgi:esiteid" v="185834"/>
  </node>
  <node id="-422" visible="true" lat="43.32368511" lon="-73.24309247">
    <tag k="addr:city" v="West Pawlet"/>
    <tag k="addr:housenumber" v="662"/>
    <tag k="addr:street" v="Vermont Route 153"/>
    <tag k="addr:state" v="VT"/>
    <tag k="ref:vcgi:esiteid" v="185835"/>
  </node>
  <node id="-423" visible="true" lat="43.32237792" lon="-73.22902117">
    <tag k="addr:city" v="West Pawlet"/>
    <tag k="addr:housenumber" v="863"/>
    <tag k="addr:street" v="Clark Road"/>
    <tag k="addr:state" v="VT"/>
    <tag k="ref:vcgi:esiteid" v="185838"/>
  </node>
  <node id="-424" visible="true" lat="43.32244935" lon="-73.22970898">
    <tag k="addr:city" v="West Pawlet"/>
    <tag k="addr:housenumber" v="861"/>
    <tag k="addr:street" v="Clark Road"/>
    <tag k="addr:state" v="VT"/>
    <tag k="ref:vcgi:esiteid" v="185839"/>
  </node>
  <node id="-425" visible="true" lat="43.32182138" lon="-73.24162918">
    <tag k="addr:city" v="West Pawlet"/>
    <tag k="addr:housenumber" v="115"/>
    <tag k="addr:street" v="Clark Road"/>
    <tag k="addr:state" v="VT"/>
    <tag k="ref:vcgi:esiteid" v="185841"/>
  </node>
  <node id="-426" visible="true" lat="43.32104908" lon="-73.23989959">
    <tag k="addr:city" v="West Pawlet"/>
    <tag k="addr:housenumber" v="206"/>
    <tag k="addr:street" v="Clark Road"/>
    <tag k="addr:state" v="VT"/>
    <tag k="ref:vcgi:esiteid" v="185844"/>
  </node>
  <node id="-427" visible="true" lat="43.32070462" lon="-73.23942207">
    <tag k="addr:city" v="West Pawlet"/>
    <tag k="addr:housenumber" v="232"/>
    <tag k="addr:street" v="Clark Road"/>
    <tag k="addr:state" v="VT"/>
    <tag k="ref:vcgi:esiteid" v="185845"/>
  </node>
  <node id="-428" visible="true" lat="43.31959859" lon="-73.23725908">
    <tag k="addr:city" v="West Pawlet"/>
    <tag k="addr:housenumber" v="317"/>
    <tag k="addr:street" v="Edwards Lane East"/>
    <tag k="addr:state" v="VT"/>
    <tag k="ref:vcgi:esiteid" v="185849"/>
  </node>
  <node id="-429" visible="true" lat="43.31883621" lon="-73.2434616">
    <tag k="addr:city" v="West Pawlet"/>
    <tag k="addr:housenumber" v="349"/>
    <tag k="addr:street" v="Vermont Route 153"/>
    <tag k="addr:state" v="VT"/>
    <tag k="ref:vcgi:esiteid" v="185852"/>
  </node>
  <node id="-430" visible="true" lat="43.31846488" lon="-73.23688472">
    <tag k="addr:city" v="West Pawlet"/>
    <tag k="addr:housenumber" v="316"/>
    <tag k="addr:street" v="Edwards Lane East"/>
    <tag k="addr:state" v="VT"/>
    <tag k="ref:vcgi:esiteid" v="185854"/>
  </node>
  <node id="-431" visible="true" lat="43.31799697" lon="-73.24317932">
    <tag k="addr:city" v="West Pawlet"/>
    <tag k="addr:housenumber" v="289"/>
    <tag k="addr:street" v="Vermont Route 153"/>
    <tag k="addr:state" v="VT"/>
    <tag k="ref:vcgi:esiteid" v="185856"/>
  </node>
  <node id="-432" visible="true" lat="43.31587219" lon="-73.2432022">
    <tag k="addr:city" v="West Pawlet"/>
    <tag k="addr:housenumber" v="131"/>
    <tag k="addr:street" v="Vermont Route 153"/>
    <tag k="addr:state" v="VT"/>
    <tag k="ref:vcgi:esiteid" v="185865"/>
  </node>
  <node id="-433" visible="true" lat="43.31482141" lon="-73.24543975">
    <tag k="addr:city" v="West Pawlet"/>
    <tag k="addr:housenumber" v="327"/>
    <tag k="addr:street" v="Edwards Lane West"/>
    <tag k="addr:state" v="VT"/>
    <tag k="ref:vcgi:esiteid" v="185870"/>
  </node>
  <node id="-435" visible="true" lat="43.38572867" lon="-73.2236894">
    <tag k="addr:city" v="West Pawlet"/>
    <tag k="addr:housenumber" v="5788"/>
    <tag k="addr:street" v="Vermont Route 153"/>
    <tag k="addr:state" v="VT"/>
    <tag k="ref:vcgi:esiteid" v="185887"/>
  </node>
  <node id="-436" visible="true" lat="43.37945556" lon="-73.20811462">
    <tag k="addr:city" v="West Pawlet"/>
    <tag k="addr:housenumber" v="2634"/>
    <tag k="addr:street" v="Vermont Route 30"/>
    <tag k="addr:state" v="VT"/>
    <tag k="ref:vcgi:esiteid" v="185888"/>
  </node>
  <node id="-437" visible="true" lat="43.3165768" lon="-73.23652931">
    <tag k="addr:city" v="West Pawlet"/>
    <tag k="addr:housenumber" v="314"/>
    <tag k="addr:street" v="Edwards Lane East"/>
    <tag k="addr:state" v="VT"/>
    <tag k="ref:vcgi:esiteid" v="185891"/>
  </node>
  <node id="-438" visible="true" lat="43.32899355" lon="-73.24584105">
    <tag k="addr:city" v="West Pawlet"/>
    <tag k="addr:housenumber" v="1035"/>
    <tag k="addr:street" v="Vermont Route 153"/>
    <tag k="addr:state" v="VT"/>
    <tag k="ref:vcgi:esiteid" v="185904"/>
  </node>
  <node id="-439" visible="true" lat="43.35604165" lon="-73.25070284">
    <tag k="addr:city" v="West Pawlet"/>
    <tag k="addr:housenumber" v="3046"/>
    <tag k="addr:street" v="Vermont Route 153"/>
    <tag k="addr:state" v="VT"/>
    <tag k="ref:vcgi:esiteid" v="185906"/>
  </node>
  <node id="-440" visible="true" lat="43.35297932" lon="-73.2525986">
    <tag k="addr:city" v="West Pawlet"/>
    <tag k="addr:housenumber" v="61"/>
    <tag k="addr:street" v="Egg Street"/>
    <tag k="addr:state" v="VT"/>
    <tag k="ref:vcgi:esiteid" v="185908"/>
  </node>
  <node id="-441" visible="true" lat="43.33838692" lon="-73.24243463">
    <tag k="addr:city" v="West Pawlet"/>
    <tag k="addr:housenumber" v="1594"/>
    <tag k="addr:street" v="Vermont Route 153"/>
    <tag k="addr:state" v="VT"/>
    <tag k="ref:vcgi:esiteid" v="185911"/>
  </node>
  <node id="-442" visible="true" lat="43.35312233" lon="-73.25171804">
    <tag k="addr:city" v="West Pawlet"/>
    <tag k="addr:housenumber" v="2841"/>
    <tag k="addr:street" v="Vermont Route 153"/>
    <tag k="addr:state" v="VT"/>
    <tag k="ref:vcgi:esiteid" v="185919"/>
  </node>
  <node id="-443" visible="true" lat="43.37046933" lon="-73.21259289">
    <tag k="addr:city" v="West Pawlet"/>
    <tag k="addr:housenumber" v="671"/>
    <tag k="addr:street" v="River Road"/>
    <tag k="addr:state" v="VT"/>
    <tag k="ref:vcgi:esiteid" v="185920"/>
  </node>
  <node id="-445" visible="true" lat="43.39023951" lon="-73.24511682">
    <tag k="addr:city" v="West Pawlet"/>
    <tag k="addr:housenumber" v="467"/>
    <tag k="addr:street" v="Somich Hill Road"/>
    <tag k="addr:state" v="VT"/>
    <tag k="ref:vcgi:esiteid" v="185924"/>
  </node>
  <node id="-446" visible="true" lat="43.39506432" lon="-73.21055354">
    <tag k="addr:city" v="West Pawlet"/>
    <tag k="addr:housenumber" v="825"/>
    <tag k="addr:street" v="North Pawlet Road"/>
    <tag k="addr:state" v="VT"/>
    <tag k="ref:vcgi:esiteid" v="185926"/>
  </node>
  <node id="-447" visible="true" lat="43.33721447" lon="-73.2411411">
    <tag k="addr:city" v="West Pawlet"/>
    <tag k="addr:housenumber" v="1592"/>
    <tag k="addr:street" v="Vermont Route 153"/>
    <tag k="addr:state" v="VT"/>
    <tag k="ref:vcgi:esiteid" v="185927"/>
  </node>
  <node id="-448" visible="true" lat="43.34191649" lon="-73.2434529">
    <tag k="addr:city" v="West Pawlet"/>
    <tag k="addr:housenumber" v="1806"/>
    <tag k="addr:street" v="Vermont Route 153"/>
    <tag k="addr:state" v="VT"/>
    <tag k="ref:vcgi:esiteid" v="185928"/>
  </node>
  <node id="-449" visible="true" lat="43.39588713" lon="-73.23039035">
    <tag k="addr:city" v="West Pawlet"/>
    <tag k="addr:housenumber" v="538"/>
    <tag k="addr:street" v="Buttons Falls Road"/>
    <tag k="addr:state" v="VT"/>
    <tag k="ref:vcgi:esiteid" v="185931"/>
  </node>
  <node id="-450" visible="true" lat="43.39648975" lon="-73.23063139">
    <tag k="addr:city" v="West Pawlet"/>
    <tag k="addr:housenumber" v="578"/>
    <tag k="addr:street" v="Buttons Falls Road"/>
    <tag k="addr:state" v="VT"/>
    <tag k="ref:vcgi:esiteid" v="185932"/>
  </node>
  <node id="-451" visible="true" lat="43.39607572" lon="-73.22670445">
    <tag k="addr:city" v="West Pawlet"/>
    <tag k="addr:housenumber" v="438"/>
    <tag k="addr:street" v="Buttons Falls Road"/>
    <tag k="addr:state" v="VT"/>
    <tag k="ref:vcgi:esiteid" v="185933"/>
  </node>
  <node id="-452" visible="true" lat="43.40068325" lon="-73.20654884">
    <tag k="addr:city" v="West Pawlet"/>
    <tag k="addr:housenumber" v="1222"/>
    <tag k="addr:street" v="North Pawlet Road"/>
    <tag k="addr:state" v="VT"/>
    <tag k="ref:vcgi:esiteid" v="185934"/>
  </node>
  <node id="-453" visible="true" lat="43.37874899" lon="-73.23291712">
    <tag k="addr:city" v="West Pawlet"/>
    <tag k="addr:housenumber" v="4"/>
    <tag k="addr:street" v="Briar Hill Road"/>
    <tag k="addr:state" v="VT"/>
    <tag k="ref:vcgi:esiteid" v="185937"/>
  </node>
  <node id="-454" visible="true" lat="43.39669294" lon="-73.23179587">
    <tag k="addr:city" v="West Pawlet"/>
    <tag k="addr:housenumber" v="654"/>
    <tag k="addr:street" v="Buttons Falls Road"/>
    <tag k="addr:state" v="VT"/>
    <tag k="ref:vcgi:esiteid" v="185945"/>
  </node>
  <node id="-455" visible="true" lat="43.33630113" lon="-73.23527692">
    <tag k="addr:city" v="West Pawlet"/>
    <tag k="addr:housenumber" v="40"/>
    <tag k="addr:street" v="Bauer Road"/>
    <tag k="addr:state" v="VT"/>
    <tag k="ref:vcgi:esiteid" v="185946"/>
  </node>
  <node id="-456" visible="true" lat="43.33649082" lon="-73.23253389">
    <tag k="addr:city" v="West Pawlet"/>
    <tag k="addr:housenumber" v="177"/>
    <tag k="addr:street" v="Bauer Road"/>
    <tag k="addr:state" v="VT"/>
    <tag k="ref:vcgi:esiteid" v="185947"/>
  </node>
  <node id="-457" visible="true" lat="43.31891313" lon="-73.23457925">
    <tag k="addr:city" v="West Pawlet"/>
    <tag k="addr:housenumber" v="522"/>
    <tag k="addr:street" v="Clark Road"/>
    <tag k="addr:state" v="VT"/>
    <tag k="ref:vcgi:esiteid" v="185948"/>
  </node>
  <node id="-459" visible="true" lat="43.36532862" lon="-73.23591034">
    <tag k="addr:city" v="West Pawlet"/>
    <tag k="addr:housenumber" v="1925"/>
    <tag k="addr:street" v="Betts Bridge Road"/>
    <tag k="addr:state" v="VT"/>
    <tag k="ref:vcgi:esiteid" v="307050"/>
  </node>
  <node id="-461" visible="true" lat="43.38994868" lon="-73.23103918">
    <tag k="addr:city" v="West Pawlet"/>
    <tag k="addr:housenumber" v="773"/>
    <tag k="addr:street" v="Briar Hill Road"/>
    <tag k="addr:state" v="VT"/>
    <tag k="ref:vcgi:esiteid" v="339434"/>
  </node>
  <node id="-462" visible="true" lat="43.3940367" lon="-73.22945185">
    <tag k="addr:city" v="West Pawlet"/>
    <tag k="addr:housenumber" v="411"/>
    <tag k="addr:street" v="Buttons Falls Road"/>
    <tag k="addr:state" v="VT"/>
    <tag k="ref:vcgi:esiteid" v="339435"/>
  </node>
  <node id="-464" visible="true" lat="43.39694764" lon="-73.23230479">
    <tag k="addr:city" v="West Pawlet"/>
    <tag k="addr:housenumber" v="690"/>
    <tag k="addr:street" v="Buttons Falls Road"/>
    <tag k="addr:state" v="VT"/>
    <tag k="ref:vcgi:esiteid" v="339437"/>
  </node>
  <node id="-465" visible="true" lat="43.31864593" lon="-73.24829057">
    <tag k="addr:city" v="West Pawlet"/>
    <tag k="addr:housenumber" v="610"/>
    <tag k="addr:street" v="Edwards Lane West"/>
    <tag k="addr:state" v="VT"/>
    <tag k="ref:vcgi:esiteid" v="339438"/>
  </node>
  <node id="-466" visible="true" lat="43.38734314" lon="-73.20382166">
    <tag k="addr:city" v="West Pawlet"/>
    <tag k="addr:housenumber" v="300"/>
    <tag k="addr:street" v="North Pawlet Road"/>
    <tag k="addr:state" v="VT"/>
    <tag k="ref:vcgi:esiteid" v="341215"/>
  </node>
  <node id="-467" visible="true" lat="43.38805695" lon="-73.20642228">
    <tag k="addr:city" v="West Pawlet"/>
    <tag k="addr:housenumber" v="383"/>
    <tag k="addr:street" v="North Pawlet Road"/>
    <tag k="addr:state" v="VT"/>
    <tag k="ref:vcgi:esiteid" v="446392"/>
  </node>
  <node id="-468" visible="true" lat="43.33719993" lon="-73.22979175">
    <tag k="addr:city" v="West Pawlet"/>
    <tag k="addr:housenumber" v="327"/>
    <tag k="addr:street" v="Bauer Road"/>
    <tag k="addr:state" v="VT"/>
    <tag k="ref:vcgi:esiteid" v="446393"/>
  </node>
  <node id="-469" visible="true" lat="43.3227388" lon="-73.24389579">
    <tag k="addr:city" v="West Pawlet"/>
    <tag k="addr:housenumber" v="617"/>
    <tag k="addr:street" v="Vermont Route 153"/>
    <tag k="addr:state" v="VT"/>
    <tag k="ref:vcgi:esiteid" v="446396"/>
  </node>
  <node id="-471" visible="true" lat="43.38372472" lon="-73.23902589">
    <tag k="addr:city" v="West Pawlet"/>
    <tag k="addr:housenumber" v="1060"/>
    <tag k="addr:street" v="Warren Switch Road"/>
    <tag k="addr:state" v="VT"/>
    <tag k="ref:vcgi:esiteid" v="447933"/>
  </node>
  <node id="-472" visible="true" lat="43.38841756" lon="-73.22617769">
    <tag k="addr:city" v="West Pawlet"/>
    <tag k="addr:housenumber" v="540"/>
    <tag k="addr:street" v="Briar Hill Road"/>
    <tag k="addr:state" v="VT"/>
    <tag k="ref:vcgi:esiteid" v="447934"/>
  </node>
  <node id="-473" visible="true" lat="43.3763552" lon="-73.20780576">
    <tag k="addr:city" v="West Pawlet"/>
    <tag k="addr:housenumber" v="292"/>
    <tag k="addr:street" v="River Road"/>
    <tag k="addr:state" v="VT"/>
    <tag k="ref:vcgi:esiteid" v="449577"/>
  </node>
  <node id="-474" visible="true" lat="43.38054338" lon="-73.234837">
    <tag k="addr:city" v="West Pawlet"/>
    <tag k="addr:housenumber" v="100"/>
    <tag k="addr:street" v="Briar Hill Road"/>
    <tag k="addr:state" v="VT"/>
    <tag k="ref:vcgi:esiteid" v="452336"/>
  </node>
  <node id="-475" visible="true" lat="43.35771704" lon="-73.23172679">
    <tag k="addr:city" v="West Pawlet"/>
    <tag k="addr:housenumber" v="1256"/>
    <tag k="addr:street" v="Betts Bridge Road"/>
    <tag k="addr:state" v="VT"/>
    <tag k="ref:vcgi:esiteid" v="620430"/>
  </node>
  <node id="-476" visible="true" lat="43.35784013" lon="-73.2328511">
    <tag k="addr:city" v="West Pawlet"/>
    <tag k="addr:housenumber" v="1382"/>
    <tag k="addr:street" v="Betts Bridge Road"/>
    <tag k="addr:state" v="VT"/>
    <tag k="ref:vcgi:esiteid" v="620431"/>
  </node>
  <node id="-477" visible="true" lat="43.35831741" lon="-73.2500145">
    <tag k="addr:city" v="West Pawlet"/>
    <tag k="addr:housenumber" v="3175"/>
    <tag k="addr:street" v="Vermont Route 153"/>
    <tag k="addr:state" v="VT"/>
    <tag k="ref:vcgi:esiteid" v="620523"/>
  </node>
  <node id="-478" visible="true" lat="43.37478048" lon="-73.23354382">
    <tag k="addr:city" v="West Pawlet"/>
    <tag k="addr:housenumber" v="526"/>
    <tag k="addr:street" v="Warren Switch Road"/>
    <tag k="addr:state" v="VT"/>
    <tag k="ref:vcgi:esiteid" v="620787"/>
  </node>
  <node id="-479" visible="true" lat="43.33590825" lon="-73.23710384">
    <tag k="addr:city" v="West Pawlet"/>
    <tag k="addr:housenumber" v="358"/>
    <tag k="addr:street" v="Heatherington Road"/>
    <tag k="addr:state" v="VT"/>
    <tag k="ref:vcgi:esiteid" v="655414"/>
  </node>
  <node id="-480" visible="true" lat="43.35406806" lon="-73.25075457">
    <tag k="addr:city" v="West Pawlet"/>
    <tag k="addr:housenumber" v="137"/>
    <tag k="addr:street" v="New Street"/>
    <tag k="addr:state" v="VT"/>
    <tag k="ref:vcgi:esiteid" v="655415"/>
  </node>
  <node id="-482" visible="true" lat="43.37727636" lon="-73.22627882">
    <tag k="addr:city" v="West Pawlet"/>
    <tag k="addr:housenumber" v="5037"/>
    <tag k="addr:street" v="Vermont Route 153"/>
    <tag k="addr:state" v="VT"/>
    <tag k="ref:vcgi:esiteid" v="655418"/>
  </node>
  <node id="-483" visible="true" lat="43.40528235" lon="-73.22473158">
    <tag k="addr:city" v="West Pawlet"/>
    <tag k="addr:housenumber" v="205"/>
    <tag k="addr:street" v="Vermont Route 30"/>
    <tag k="addr:state" v="VT"/>
    <tag k="ref:vcgi:esiteid" v="751553"/>
  </node>
  <node id="-484" visible="true" lat="43.40178801" lon="-73.2013919">
    <tag k="addr:city" v="West Pawlet"/>
    <tag k="addr:housenumber" v="221A"/>
    <tag k="addr:street" v="Rees Road"/>
    <tag k="addr:state" v="VT"/>
    <tag k="ref:vcgi:esiteid" v="757326"/>
  </node>
  <node id="-486" visible="true" lat="43.38001138" lon="-73.23950639">
    <tag k="addr:city" v="West Pawlet"/>
    <tag k="addr:housenumber" v="1004"/>
    <tag k="addr:street" v="Warren Switch Road"/>
    <tag k="addr:state" v="VT"/>
    <tag k="ref:vcgi:esiteid" v="759561"/>
  </node>
  <node id="-487" visible="true" lat="43.35318333" lon="-73.2513203">
    <tag k="addr:city" v="West Pawlet"/>
    <tag k="addr:housenumber" v="2824"/>
    <tag k="addr:street" v="Vermont Route 153"/>
    <tag k="addr:state" v="VT"/>
    <tag k="ref:vcgi:esiteid" v="761600"/>
  </node>
  <node id="-488" visible="true" lat="43.39387628" lon="-73.2285504">
    <tag k="addr:city" v="West Pawlet"/>
    <tag k="addr:housenumber" v="375"/>
    <tag k="addr:street" v="Buttons Falls Road"/>
    <tag k="addr:state" v="VT"/>
    <tag k="ref:vcgi:esiteid" v="761952"/>
  </node>
  <node id="-489" visible="true" lat="43.38030664" lon="-73.24345058">
    <tag k="addr:city" v="West Pawlet"/>
    <tag k="addr:housenumber" v="1205"/>
    <tag k="addr:street" v="Warren Switch Road"/>
    <tag k="addr:state" v="VT"/>
    <tag k="ref:vcgi:esiteid" v="765833"/>
  </node>
  <node id="-490" visible="true" lat="43.38186649" lon="-73.24223218">
    <tag k="addr:city" v="West Pawlet"/>
    <tag k="addr:housenumber" v="1144"/>
    <tag k="addr:street" v="Warren Switch Road"/>
    <tag k="addr:state" v="VT"/>
    <tag k="ref:vcgi:esiteid" v="765834"/>
  </node>
  <node id="-494" visible="true" lat="43.33563267" lon="-73.233587">
    <tag k="addr:city" v="West Pawlet"/>
    <tag k="addr:housenumber" v="174"/>
    <tag k="addr:street" v="Bauer Road"/>
    <tag k="addr:state" v="VT"/>
    <tag k="ref:vcgi:esiteid" v="765840"/>
  </node>
  <node id="-495" visible="true" lat="43.33193925" lon="-73.22722408">
    <tag k="addr:city" v="West Pawlet"/>
    <tag k="addr:housenumber" v="468"/>
    <tag k="addr:street" v="Bauer Road"/>
    <tag k="addr:state" v="VT"/>
    <tag k="ref:vcgi:esiteid" v="765841"/>
  </node>
  <node id="-496" visible="true" lat="43.31491744" lon="-73.25173127">
    <tag k="addr:city" v="West Pawlet"/>
    <tag k="addr:housenumber" v="639"/>
    <tag k="addr:street" v="Edwards Lane West"/>
    <tag k="addr:state" v="VT"/>
    <tag k="ref:vcgi:esiteid" v="765842"/>
  </node>
  <node id="-497" visible="true" lat="43.31860565" lon="-73.25142772">
    <tag k="addr:city" v="West Pawlet"/>
    <tag k="addr:housenumber" v="640"/>
    <tag k="addr:street" v="Edwards Lane West"/>
    <tag k="addr:state" v="VT"/>
    <tag k="ref:vcgi:esiteid" v="765844"/>
  </node>
  <node id="-499" visible="true" lat="43.38494103" lon="-73.20480869">
    <tag k="addr:city" v="West Pawlet"/>
    <tag k="addr:housenumber" v="159"/>
    <tag k="addr:street" v="North Pawlet Road"/>
    <tag k="addr:state" v="VT"/>
    <tag k="ref:vcgi:esiteid" v="765846"/>
  </node>
  <node id="-500" visible="true" lat="43.34983353" lon="-73.21069225">
    <tag k="addr:city" v="West Pawlet"/>
    <tag k="addr:housenumber" v="810"/>
    <tag k="addr:street" v="Heatherington Road"/>
    <tag k="addr:state" v="VT"/>
    <tag k="ref:vcgi:esiteid" v="765909"/>
  </node>
  <node id="-501" visible="true" lat="43.37526577" lon="-73.23838032">
    <tag k="addr:city" v="West Pawlet"/>
    <tag k="addr:housenumber" v="591"/>
    <tag k="addr:street" v="Warren Switch Road"/>
    <tag k="addr:state" v="VT"/>
    <tag k="ref:vcgi:esiteid" v="766095"/>
  </node>
  <node id="-504" visible="true" lat="43.34580186" lon="-73.23397012">
    <tag k="addr:city" v="West Pawlet"/>
    <tag k="addr:housenumber" v="910"/>
    <tag k="addr:street" v="Heatherington Road"/>
    <tag k="addr:state" v="VT"/>
    <tag k="ref:vcgi:esiteid" v="768780"/>
  </node>
  <node id="-505" visible="true" lat="43.40727249" lon="-73.24225415">
    <tag k="addr:city" v="West Pawlet"/>
    <tag k="addr:housenumber" v="1030"/>
    <tag k="addr:street" v="Vermont Route 149"/>
    <tag k="addr:state" v="VT"/>
    <tag k="ref:vcgi:esiteid" v="768808"/>
  </node>
  <node id="-506" visible="true" lat="43.38782402" lon="-73.21935585">
    <tag k="addr:city" v="West Pawlet"/>
    <tag k="addr:housenumber" v="1480"/>
    <tag k="addr:street" v="Vermont Route 30"/>
    <tag k="addr:state" v="VT"/>
    <tag k="ref:vcgi:esiteid" v="770969"/>
  </node>
</osm>
