<?xml version="1.0" encoding="UTF-8"?>
<osm version="0.6" generator="JOSM" upload="false">
  <node id="-101" visible="true" lat="43.67094123" lon="-73.36239236">
    <tag k="addr:city" v="West Haven"/>
    <tag k="addr:housenumber" v="1365"/>
    <tag k="addr:street" v="Burr Road"/>
    <tag k="addr:state" v="VT"/>
    <tag k="ref:vcgi:esiteid" v="279037"/>
  </node>
  <node id="-103" visible="true" lat="43.66791027" lon="-73.31691423">
    <tag k="addr:city" v="West Haven"/>
    <tag k="addr:housenumber" v="1027"/>
    <tag k="addr:street" v="Stage Road"/>
    <tag k="addr:state" v="VT"/>
    <tag k="ref:vcgi:esiteid" v="279040"/>
  </node>
  <node id="-108" visible="true" lat="43.66633287" lon="-73.3350156">
    <tag k="addr:city" v="West Haven"/>
    <tag k="addr:housenumber" v="959"/>
    <tag k="addr:street" v="Best Road"/>
    <tag k="addr:state" v="VT"/>
    <tag k="ref:vcgi:esiteid" v="279045"/>
  </node>
  <node id="-110" visible="true" lat="43.66339111" lon="-73.33449521">
    <tag k="addr:city" v="West Haven"/>
    <tag k="addr:housenumber" v="758"/>
    <tag k="addr:street" v="Best Road"/>
    <tag k="addr:state" v="VT"/>
    <tag k="ref:vcgi:esiteid" v="279047"/>
  </node>
  <node id="-113" visible="true" lat="43.66231435" lon="-73.35839509">
    <tag k="addr:city" v="West Haven"/>
    <tag k="addr:housenumber" v="696"/>
    <tag k="addr:street" v="Burr Road"/>
    <tag k="addr:state" v="VT"/>
    <tag k="ref:vcgi:esiteid" v="279050"/>
  </node>
  <node id="-114" visible="true" lat="43.6616732" lon="-73.3888407">
    <tag k="addr:city" v="West Haven"/>
    <tag k="addr:housenumber" v="1148"/>
    <tag k="addr:street" v="Cold Springs Road"/>
    <tag k="addr:state" v="VT"/>
    <tag k="ref:vcgi:esiteid" v="279051"/>
  </node>
  <node id="-115" visible="true" lat="43.65991555" lon="-73.373395">
    <tag k="addr:city" v="West Haven"/>
    <tag k="addr:housenumber" v="665"/>
    <tag k="addr:street" v="Pettis Road"/>
    <tag k="addr:state" v="VT"/>
    <tag k="ref:vcgi:esiteid" v="279052"/>
  </node>
  <node id="-116" visible="true" lat="43.65934569" lon="-73.35958845">
    <tag k="addr:city" v="West Haven"/>
    <tag k="addr:housenumber" v="480"/>
    <tag k="addr:street" v="Burr Road"/>
    <tag k="addr:state" v="VT"/>
    <tag k="ref:vcgi:esiteid" v="279053"/>
  </node>
  <node id="-118" visible="true" lat="43.65828561" lon="-73.37109622">
    <tag k="addr:city" v="West Haven"/>
    <tag k="addr:housenumber" v="506"/>
    <tag k="addr:street" v="Pettis Road"/>
    <tag k="addr:state" v="VT"/>
    <tag k="ref:vcgi:esiteid" v="279055"/>
  </node>
  <node id="-119" visible="true" lat="43.65845493" lon="-73.32027088">
    <tag k="addr:city" v="West Haven"/>
    <tag k="addr:housenumber" v="305"/>
    <tag k="addr:street" v="Stage Road"/>
    <tag k="addr:state" v="VT"/>
    <tag k="ref:vcgi:esiteid" v="279056"/>
  </node>
  <node id="-120" visible="true" lat="43.65779996" lon="-73.36256989">
    <tag k="addr:city" v="West Haven"/>
    <tag k="addr:housenumber" v="327"/>
    <tag k="addr:street" v="Burr Road"/>
    <tag k="addr:state" v="VT"/>
    <tag k="ref:vcgi:esiteid" v="279057"/>
  </node>
  <node id="-122" visible="true" lat="43.6568745" lon="-73.37101239">
    <tag k="addr:city" v="West Haven"/>
    <tag k="addr:housenumber" v="441"/>
    <tag k="addr:street" v="Pettis Road"/>
    <tag k="addr:state" v="VT"/>
    <tag k="ref:vcgi:esiteid" v="279059"/>
  </node>
  <node id="-124" visible="true" lat="43.6542874" lon="-73.32151323">
    <tag k="addr:city" v="West Haven"/>
    <tag k="addr:housenumber" v="40"/>
    <tag k="addr:street" v="Stage Road"/>
    <tag k="addr:state" v="VT"/>
    <tag k="ref:vcgi:esiteid" v="279061"/>
  </node>
  <node id="-125" visible="true" lat="43.65379099" lon="-73.33003848">
    <tag k="addr:city" v="West Haven"/>
    <tag k="addr:housenumber" v="2442"/>
    <tag k="addr:street" v="Main Road"/>
    <tag k="addr:state" v="VT"/>
    <tag k="ref:vcgi:esiteid" v="279062"/>
  </node>
  <node id="-126" visible="true" lat="43.65374411" lon="-73.33144657">
    <tag k="addr:city" v="West Haven"/>
    <tag k="addr:housenumber" v="17"/>
    <tag k="addr:street" v="Best Road"/>
    <tag k="addr:state" v="VT"/>
    <tag k="ref:vcgi:esiteid" v="279063"/>
  </node>
  <node id="-127" visible="true" lat="43.65348221" lon="-73.35602704">
    <tag k="addr:city" v="West Haven"/>
    <tag k="addr:housenumber" v="3824"/>
    <tag k="addr:street" v="Main Road"/>
    <tag k="addr:state" v="VT"/>
    <tag k="ref:vcgi:esiteid" v="279064"/>
  </node>
  <node id="-128" visible="true" lat="43.65349386" lon="-73.33794747">
    <tag k="addr:city" v="West Haven"/>
    <tag k="addr:housenumber" v="2826"/>
    <tag k="addr:street" v="Main Road"/>
    <tag k="addr:state" v="VT"/>
    <tag k="ref:vcgi:esiteid" v="279065"/>
  </node>
  <node id="-130" visible="true" lat="43.65256908" lon="-73.3370854">
    <tag k="addr:city" v="West Haven"/>
    <tag k="addr:housenumber" v="2813"/>
    <tag k="addr:street" v="Main Road"/>
    <tag k="addr:state" v="VT"/>
    <tag k="ref:vcgi:esiteid" v="279067"/>
  </node>
  <node id="-131" visible="true" lat="43.65245484" lon="-73.3402419">
    <tag k="addr:city" v="West Haven"/>
    <tag k="addr:housenumber" v="2972"/>
    <tag k="addr:street" v="Main Road"/>
    <tag k="addr:state" v="VT"/>
    <tag k="ref:vcgi:esiteid" v="279068"/>
  </node>
  <node id="-132" visible="true" lat="43.65242712" lon="-73.3364652">
    <tag k="addr:city" v="West Haven"/>
    <tag k="addr:housenumber" v="2745"/>
    <tag k="addr:street" v="Main Road"/>
    <tag k="addr:state" v="VT"/>
    <tag k="ref:vcgi:esiteid" v="279069"/>
  </node>
  <node id="-133" visible="true" lat="43.65221856" lon="-73.34693944">
    <tag k="addr:city" v="West Haven"/>
    <tag k="addr:housenumber" v="59"/>
    <tag k="addr:street" v="North Road"/>
    <tag k="addr:state" v="VT"/>
    <tag k="ref:vcgi:esiteid" v="279070"/>
  </node>
  <node id="-134" visible="true" lat="43.6516195" lon="-73.35266956">
    <tag k="addr:city" v="West Haven"/>
    <tag k="addr:housenumber" v="3615"/>
    <tag k="addr:street" v="Main Road"/>
    <tag k="addr:state" v="VT"/>
    <tag k="ref:vcgi:esiteid" v="279071"/>
  </node>
  <node id="-135" visible="true" lat="43.65180364" lon="-73.33858291">
    <tag k="addr:city" v="West Haven"/>
    <tag k="addr:housenumber" v="2919"/>
    <tag k="addr:street" v="Main Road"/>
    <tag k="addr:state" v="VT"/>
    <tag k="ref:vcgi:esiteid" v="279072"/>
  </node>
  <node id="-136" visible="true" lat="43.65161843" lon="-73.35012579">
    <tag k="addr:city" v="West Haven"/>
    <tag k="addr:housenumber" v="3490"/>
    <tag k="addr:street" v="Main Road"/>
    <tag k="addr:state" v="VT"/>
    <tag k="ref:vcgi:esiteid" v="279073"/>
  </node>
  <node id="-137" visible="true" lat="43.6516766" lon="-73.34867264">
    <tag k="addr:city" v="West Haven"/>
    <tag k="addr:housenumber" v="3416"/>
    <tag k="addr:street" v="Main Road"/>
    <tag k="addr:state" v="VT"/>
    <tag k="ref:vcgi:esiteid" v="279074"/>
  </node>
  <node id="-138" visible="true" lat="43.65163762" lon="-73.34807759">
    <tag k="addr:city" v="West Haven"/>
    <tag k="addr:housenumber" v="3386"/>
    <tag k="addr:street" v="Main Road"/>
    <tag k="addr:state" v="VT"/>
    <tag k="ref:vcgi:esiteid" v="279075"/>
  </node>
  <node id="-141" visible="true" lat="43.6511936" lon="-73.35083638">
    <tag k="addr:city" v="West Haven"/>
    <tag k="addr:housenumber" v="3529"/>
    <tag k="addr:street" v="Main Road"/>
    <tag k="addr:state" v="VT"/>
    <tag k="ref:vcgi:esiteid" v="279078"/>
  </node>
  <node id="-142" visible="true" lat="43.65113059" lon="-73.3418864">
    <tag k="addr:city" v="West Haven"/>
    <tag k="addr:housenumber" v="3087"/>
    <tag k="addr:street" v="Main Road"/>
    <tag k="addr:state" v="VT"/>
    <tag k="ref:vcgi:esiteid" v="279079"/>
  </node>
  <node id="-143" visible="true" lat="43.65113559" lon="-73.3469478">
    <tag k="addr:city" v="West Haven"/>
    <tag k="addr:housenumber" v="15"/>
    <tag k="addr:street" v="Book Road"/>
    <tag k="addr:state" v="VT"/>
    <tag k="ref:vcgi:esiteid" v="279080"/>
  </node>
  <node id="-145" visible="true" lat="43.65055734" lon="-73.34746407">
    <tag k="addr:city" v="West Haven"/>
    <tag k="addr:housenumber" v="48"/>
    <tag k="addr:street" v="Book Road"/>
    <tag k="addr:state" v="VT"/>
    <tag k="ref:vcgi:esiteid" v="279082"/>
  </node>
  <node id="-146" visible="true" lat="43.65022949" lon="-73.34689903">
    <tag k="addr:city" v="West Haven"/>
    <tag k="addr:housenumber" v="73"/>
    <tag k="addr:street" v="Book Road"/>
    <tag k="addr:state" v="VT"/>
    <tag k="ref:vcgi:esiteid" v="279083"/>
  </node>
  <node id="-147" visible="true" lat="43.65023216" lon="-73.33879171">
    <tag k="addr:city" v="West Haven"/>
    <tag k="addr:housenumber" v="2965"/>
    <tag k="addr:street" v="Main Road"/>
    <tag k="addr:state" v="VT"/>
    <tag k="ref:vcgi:esiteid" v="279084"/>
  </node>
  <node id="-148" visible="true" lat="43.64973356" lon="-73.38059207">
    <tag k="addr:city" v="West Haven"/>
    <tag k="addr:housenumber" v="5090"/>
    <tag k="addr:street" v="Main Road"/>
    <tag k="addr:state" v="VT"/>
    <tag k="ref:vcgi:esiteid" v="279085"/>
  </node>
  <node id="-149" visible="true" lat="43.64937157" lon="-73.36927993">
    <tag k="addr:city" v="West Haven"/>
    <tag k="addr:housenumber" v="165"/>
    <tag k="addr:street" v="Charron Road"/>
    <tag k="addr:state" v="VT"/>
    <tag k="ref:vcgi:esiteid" v="279086"/>
  </node>
  <node id="-150" visible="true" lat="43.64916861" lon="-73.34689843">
    <tag k="addr:city" v="West Haven"/>
    <tag k="addr:housenumber" v="151"/>
    <tag k="addr:street" v="Book Road"/>
    <tag k="addr:state" v="VT"/>
    <tag k="ref:vcgi:esiteid" v="279087"/>
  </node>
  <node id="-152" visible="true" lat="43.64662357" lon="-73.40154039">
    <tag k="addr:city" v="West Haven"/>
    <tag k="addr:housenumber" v="370"/>
    <tag k="addr:street" v="Adams Road"/>
    <tag k="addr:state" v="VT"/>
    <tag k="ref:vcgi:esiteid" v="279089"/>
  </node>
  <node id="-153" visible="true" lat="43.64581287" lon="-73.41055551">
    <tag k="addr:city" v="West Haven"/>
    <tag k="addr:housenumber" v="1041"/>
    <tag k="addr:street" v="Adams Road"/>
    <tag k="addr:state" v="VT"/>
    <tag k="ref:vcgi:esiteid" v="279090"/>
  </node>
  <node id="-158" visible="true" lat="43.6427242" lon="-73.39284856">
    <tag k="addr:city" v="West Haven"/>
    <tag k="addr:housenumber" v="140"/>
    <tag k="addr:street" v="Ghost Hollow Road"/>
    <tag k="addr:state" v="VT"/>
    <tag k="ref:vcgi:esiteid" v="279095"/>
  </node>
  <node id="-160" visible="true" lat="43.64230426" lon="-73.39805888">
    <tag k="addr:city" v="West Haven"/>
    <tag k="addr:housenumber" v="15"/>
    <tag k="addr:street" v="Adams Road"/>
    <tag k="addr:state" v="VT"/>
    <tag k="ref:vcgi:esiteid" v="279097"/>
  </node>
  <node id="-161" visible="true" lat="43.64242419" lon="-73.32372829">
    <tag k="addr:city" v="West Haven"/>
    <tag k="addr:housenumber" v="724"/>
    <tag k="addr:street" v="River Road"/>
    <tag k="addr:state" v="VT"/>
    <tag k="ref:vcgi:esiteid" v="279098"/>
  </node>
  <node id="-163" visible="true" lat="43.64206852" lon="-73.31108202">
    <tag k="addr:city" v="West Haven"/>
    <tag k="addr:housenumber" v="832"/>
    <tag k="addr:street" v="Main Road"/>
    <tag k="addr:state" v="VT"/>
    <tag k="ref:vcgi:esiteid" v="279100"/>
  </node>
  <node id="-164" visible="true" lat="43.64144574" lon="-73.3149286">
    <tag k="addr:city" v="West Haven"/>
    <tag k="addr:housenumber" v="162"/>
    <tag k="addr:street" v="Ledgemere Drive"/>
    <tag k="addr:state" v="VT"/>
    <tag k="ref:vcgi:esiteid" v="279101"/>
  </node>
  <node id="-165" visible="true" lat="43.64170161" lon="-73.31131294">
    <tag k="addr:city" v="West Haven"/>
    <tag k="addr:housenumber" v="824"/>
    <tag k="addr:street" v="Main Road"/>
    <tag k="addr:state" v="VT"/>
    <tag k="ref:vcgi:esiteid" v="279102"/>
  </node>
  <node id="-166" visible="true" lat="43.64128619" lon="-73.3128069">
    <tag k="addr:city" v="West Haven"/>
    <tag k="addr:housenumber" v="25"/>
    <tag k="addr:street" v="Ledgemere Drive"/>
    <tag k="addr:state" v="VT"/>
    <tag k="ref:vcgi:esiteid" v="279103"/>
  </node>
  <node id="-167" visible="true" lat="43.64192382" lon="-73.31184318">
    <tag k="addr:city" v="West Haven"/>
    <tag k="addr:housenumber" v="834"/>
    <tag k="addr:street" v="Main Road"/>
    <tag k="addr:state" v="VT"/>
    <tag k="ref:vcgi:esiteid" v="279104"/>
  </node>
  <node id="-168" visible="true" lat="43.64060933" lon="-73.31196201">
    <tag k="addr:city" v="West Haven"/>
    <tag k="addr:housenumber" v="825"/>
    <tag k="addr:street" v="Main Road"/>
    <tag k="addr:state" v="VT"/>
    <tag k="ref:vcgi:esiteid" v="279105"/>
  </node>
  <node id="-169" visible="true" lat="43.64040872" lon="-73.3113689">
    <tag k="addr:city" v="West Haven"/>
    <tag k="addr:housenumber" v="36"/>
    <tag k="addr:street" v="Hackadam Road"/>
    <tag k="addr:state" v="VT"/>
    <tag k="ref:vcgi:esiteid" v="279106"/>
  </node>
  <node id="-170" visible="true" lat="43.64031549" lon="-73.30396331">
    <tag k="addr:city" v="West Haven"/>
    <tag k="addr:housenumber" v="380"/>
    <tag k="addr:street" v="Main Road"/>
    <tag k="addr:state" v="VT"/>
    <tag k="ref:vcgi:esiteid" v="279107"/>
  </node>
  <node id="-171" visible="true" lat="43.63944057" lon="-73.40602349">
    <tag k="addr:city" v="West Haven"/>
    <tag k="addr:housenumber" v="6614"/>
    <tag k="addr:street" v="Main Road"/>
    <tag k="addr:state" v="VT"/>
    <tag k="ref:vcgi:esiteid" v="279108"/>
  </node>
  <node id="-172" visible="true" lat="43.63951458" lon="-73.34948347">
    <tag k="addr:city" v="West Haven"/>
    <tag k="addr:housenumber" v="858"/>
    <tag k="addr:street" v="Book Road"/>
    <tag k="addr:state" v="VT"/>
    <tag k="ref:vcgi:esiteid" v="279109"/>
  </node>
  <node id="-173" visible="true" lat="43.63971356" lon="-73.30789652">
    <tag k="addr:city" v="West Haven"/>
    <tag k="addr:housenumber" v="592"/>
    <tag k="addr:street" v="Main Road"/>
    <tag k="addr:state" v="VT"/>
    <tag k="ref:vcgi:esiteid" v="279110"/>
  </node>
  <node id="-174" visible="true" lat="43.6396825" lon="-73.31759719">
    <tag k="addr:city" v="West Haven"/>
    <tag k="addr:housenumber" v="440"/>
    <tag k="addr:street" v="Hackadam Road"/>
    <tag k="addr:state" v="VT"/>
    <tag k="ref:vcgi:esiteid" v="279111"/>
  </node>
  <node id="-175" visible="true" lat="43.638767" lon="-73.39212399">
    <tag k="addr:city" v="West Haven"/>
    <tag k="addr:housenumber" v="444"/>
    <tag k="addr:street" v="Ghost Hollow Road"/>
    <tag k="addr:state" v="VT"/>
    <tag k="ref:vcgi:esiteid" v="279112"/>
  </node>
  <node id="-176" visible="true" lat="43.63914238" lon="-73.32329042">
    <tag k="addr:city" v="West Haven"/>
    <tag k="addr:housenumber" v="1002"/>
    <tag k="addr:street" v="River Road"/>
    <tag k="addr:state" v="VT"/>
    <tag k="ref:vcgi:esiteid" v="279113"/>
  </node>
  <node id="-177" visible="true" lat="43.63890028" lon="-73.34976358">
    <tag k="addr:city" v="West Haven"/>
    <tag k="addr:housenumber" v="894"/>
    <tag k="addr:street" v="Book Road"/>
    <tag k="addr:state" v="VT"/>
    <tag k="ref:vcgi:esiteid" v="279114"/>
  </node>
  <node id="-178" visible="true" lat="43.63856737" lon="-73.40456442">
    <tag k="addr:city" v="West Haven"/>
    <tag k="addr:housenumber" v="59"/>
    <tag k="addr:street" v="Weston Hollow Road"/>
    <tag k="addr:state" v="VT"/>
    <tag k="ref:vcgi:esiteid" v="279115"/>
  </node>
  <node id="-179" visible="true" lat="43.6392033" lon="-73.3007752">
    <tag k="addr:city" v="West Haven"/>
    <tag k="addr:housenumber" v="232"/>
    <tag k="addr:street" v="Main Road"/>
    <tag k="addr:state" v="VT"/>
    <tag k="ref:vcgi:esiteid" v="279116"/>
  </node>
  <node id="-180" visible="true" lat="43.63911647" lon="-73.31971927">
    <tag k="addr:city" v="West Haven"/>
    <tag k="addr:housenumber" v="576"/>
    <tag k="addr:street" v="Hackadam Road"/>
    <tag k="addr:state" v="VT"/>
    <tag k="ref:vcgi:esiteid" v="279117"/>
  </node>
  <node id="-181" visible="true" lat="43.63882522" lon="-73.30655356">
    <tag k="addr:city" v="West Haven"/>
    <tag k="addr:housenumber" v="523"/>
    <tag k="addr:street" v="Main Road"/>
    <tag k="addr:state" v="VT"/>
    <tag k="ref:vcgi:esiteid" v="279118"/>
  </node>
  <node id="-182" visible="true" lat="43.63846219" lon="-73.30947748">
    <tag k="addr:city" v="West Haven"/>
    <tag k="addr:housenumber" v="647"/>
    <tag k="addr:street" v="Main Road"/>
    <tag k="addr:state" v="VT"/>
    <tag k="ref:vcgi:esiteid" v="279119"/>
  </node>
  <node id="-185" visible="true" lat="43.63829085" lon="-73.32219987">
    <tag k="addr:city" v="West Haven"/>
    <tag k="addr:housenumber" v="698"/>
    <tag k="addr:street" v="Hackadam Road"/>
    <tag k="addr:state" v="VT"/>
    <tag k="ref:vcgi:esiteid" v="279122"/>
  </node>
  <node id="-186" visible="true" lat="43.63790158" lon="-73.34927351">
    <tag k="addr:city" v="West Haven"/>
    <tag k="addr:housenumber" v="976"/>
    <tag k="addr:street" v="Book Road"/>
    <tag k="addr:state" v="VT"/>
    <tag k="ref:vcgi:esiteid" v="279123"/>
  </node>
  <node id="-187" visible="true" lat="43.6379045" lon="-73.31313601">
    <tag k="addr:city" v="West Haven"/>
    <tag k="addr:housenumber" v="203"/>
    <tag k="addr:street" v="Hackadam Road"/>
    <tag k="addr:state" v="VT"/>
    <tag k="ref:vcgi:esiteid" v="279124"/>
  </node>
  <node id="-189" visible="true" lat="43.63712692" lon="-73.40908813">
    <tag k="addr:city" v="West Haven"/>
    <tag k="addr:housenumber" v="6827"/>
    <tag k="addr:street" v="Main Road"/>
    <tag k="addr:state" v="VT"/>
    <tag k="ref:vcgi:esiteid" v="279126"/>
  </node>
  <node id="-190" visible="true" lat="43.63665221" lon="-73.41291998">
    <tag k="addr:city" v="West Haven"/>
    <tag k="addr:housenumber" v="7038"/>
    <tag k="addr:street" v="Main Road"/>
    <tag k="addr:state" v="VT"/>
    <tag k="ref:vcgi:esiteid" v="279127"/>
  </node>
  <node id="-191" visible="true" lat="43.63713381" lon="-73.32396822">
    <tag k="addr:city" v="West Haven"/>
    <tag k="addr:housenumber" v="848"/>
    <tag k="addr:street" v="Hackadam Road"/>
    <tag k="addr:state" v="VT"/>
    <tag k="ref:vcgi:esiteid" v="279128"/>
  </node>
  <node id="-192" visible="true" lat="43.63601108" lon="-73.38686751">
    <tag k="addr:city" v="West Haven"/>
    <tag k="addr:housenumber" v="131"/>
    <tag k="addr:street" v="Sisco Road"/>
    <tag k="addr:state" v="VT"/>
    <tag k="ref:vcgi:esiteid" v="279129"/>
  </node>
  <node id="-193" visible="true" lat="43.63631303" lon="-73.3248526">
    <tag k="addr:city" v="West Haven"/>
    <tag k="addr:housenumber" v="910"/>
    <tag k="addr:street" v="Hackadam Road"/>
    <tag k="addr:state" v="VT"/>
    <tag k="ref:vcgi:esiteid" v="279130"/>
  </node>
  <node id="-194" visible="true" lat="43.63641137" lon="-73.29944264">
    <tag k="addr:city" v="West Haven"/>
    <tag k="addr:housenumber" v="122"/>
    <tag k="addr:street" v="Main Road"/>
    <tag k="addr:state" v="VT"/>
    <tag k="ref:vcgi:esiteid" v="279131"/>
  </node>
  <node id="-195" visible="true" lat="43.63571378" lon="-73.30217559">
    <tag k="addr:city" v="West Haven"/>
    <tag k="addr:housenumber" v="92"/>
    <tag k="addr:street" v="Doran Road"/>
    <tag k="addr:state" v="VT"/>
    <tag k="ref:vcgi:esiteid" v="279132"/>
  </node>
  <node id="-196" visible="true" lat="43.63516616" lon="-73.34875488">
    <tag k="addr:city" v="West Haven"/>
    <tag k="addr:housenumber" v="1157"/>
    <tag k="addr:street" v="Book Road"/>
    <tag k="addr:state" v="VT"/>
    <tag k="ref:vcgi:esiteid" v="279133"/>
  </node>
  <node id="-197" visible="true" lat="43.63518478" lon="-73.299783">
    <tag k="addr:city" v="West Haven"/>
    <tag k="addr:housenumber" v="115"/>
    <tag k="addr:street" v="Main Road"/>
    <tag k="addr:state" v="VT"/>
    <tag k="ref:vcgi:esiteid" v="279134"/>
  </node>
  <node id="-198" visible="true" lat="43.63453293" lon="-73.32796868">
    <tag k="addr:city" v="West Haven"/>
    <tag k="addr:housenumber" v="1100"/>
    <tag k="addr:street" v="Hackadam Road"/>
    <tag k="addr:state" v="VT"/>
    <tag k="ref:vcgi:esiteid" v="279135"/>
  </node>
  <node id="-199" visible="true" lat="43.63353891" lon="-73.41648662">
    <tag k="addr:city" v="West Haven"/>
    <tag k="addr:housenumber" v="7295"/>
    <tag k="addr:street" v="Main Road"/>
    <tag k="addr:state" v="VT"/>
    <tag k="ref:vcgi:esiteid" v="279136"/>
  </node>
  <node id="-200" visible="true" lat="43.63409201" lon="-73.33154801">
    <tag k="addr:city" v="West Haven"/>
    <tag k="addr:housenumber" v="1302"/>
    <tag k="addr:street" v="Hackadam Road"/>
    <tag k="addr:state" v="VT"/>
    <tag k="ref:vcgi:esiteid" v="279137"/>
  </node>
  <node id="-201" visible="true" lat="43.63446122" lon="-73.3293962">
    <tag k="addr:city" v="West Haven"/>
    <tag k="addr:housenumber" v="1200"/>
    <tag k="addr:street" v="Hackadam Road"/>
    <tag k="addr:state" v="VT"/>
    <tag k="ref:vcgi:esiteid" v="279138"/>
  </node>
  <node id="-202" visible="true" lat="43.6334489" lon="-73.33296286">
    <tag k="addr:city" v="West Haven"/>
    <tag k="addr:housenumber" v="1386"/>
    <tag k="addr:street" v="Hackadam Road"/>
    <tag k="addr:state" v="VT"/>
    <tag k="ref:vcgi:esiteid" v="279139"/>
  </node>
  <node id="-204" visible="true" lat="43.63288" lon="-73.34946677">
    <tag k="addr:city" v="West Haven"/>
    <tag k="addr:housenumber" v="1318"/>
    <tag k="addr:street" v="Book Road"/>
    <tag k="addr:state" v="VT"/>
    <tag k="ref:vcgi:esiteid" v="279141"/>
  </node>
  <node id="-205" visible="true" lat="43.63276589" lon="-73.31023">
    <tag k="addr:city" v="West Haven"/>
    <tag k="addr:housenumber" v="550"/>
    <tag k="addr:street" v="Doran Road"/>
    <tag k="addr:state" v="VT"/>
    <tag k="ref:vcgi:esiteid" v="279142"/>
  </node>
  <node id="-206" visible="true" lat="43.63179126" lon="-73.41791385">
    <tag k="addr:city" v="West Haven"/>
    <tag k="addr:housenumber" v="7477"/>
    <tag k="addr:street" v="Main Road"/>
    <tag k="addr:state" v="VT"/>
    <tag k="ref:vcgi:esiteid" v="279143"/>
  </node>
  <node id="-207" visible="true" lat="43.63225974" lon="-73.34945218">
    <tag k="addr:city" v="West Haven"/>
    <tag k="addr:housenumber" v="1368"/>
    <tag k="addr:street" v="Book Road"/>
    <tag k="addr:state" v="VT"/>
    <tag k="ref:vcgi:esiteid" v="279144"/>
  </node>
  <node id="-208" visible="true" lat="43.63208115" lon="-73.33366128">
    <tag k="addr:city" v="West Haven"/>
    <tag k="addr:housenumber" v="1487"/>
    <tag k="addr:street" v="Hackadam Road"/>
    <tag k="addr:state" v="VT"/>
    <tag k="ref:vcgi:esiteid" v="279145"/>
  </node>
  <node id="-209" visible="true" lat="43.63168795" lon="-73.30768416">
    <tag k="addr:city" v="West Haven"/>
    <tag k="addr:housenumber" v="511"/>
    <tag k="addr:street" v="Doran Road"/>
    <tag k="addr:state" v="VT"/>
    <tag k="ref:vcgi:esiteid" v="279146"/>
  </node>
  <node id="-210" visible="true" lat="43.6312086" lon="-73.34966383">
    <tag k="addr:city" v="West Haven"/>
    <tag k="addr:housenumber" v="1434"/>
    <tag k="addr:street" v="Book Road"/>
    <tag k="addr:state" v="VT"/>
    <tag k="ref:vcgi:esiteid" v="279147"/>
  </node>
  <node id="-211" visible="true" lat="43.63125127" lon="-73.30876547">
    <tag k="addr:city" v="West Haven"/>
    <tag k="addr:housenumber" v="603"/>
    <tag k="addr:street" v="Doran Road"/>
    <tag k="addr:state" v="VT"/>
    <tag k="ref:vcgi:esiteid" v="279148"/>
  </node>
  <node id="-212" visible="true" lat="43.63023561" lon="-73.40739328">
    <tag k="addr:city" v="West Haven"/>
    <tag k="addr:housenumber" v="671"/>
    <tag k="addr:street" v="Weston Hollow Road"/>
    <tag k="addr:state" v="VT"/>
    <tag k="ref:vcgi:esiteid" v="279149"/>
  </node>
  <node id="-213" visible="true" lat="43.63022656" lon="-73.38223291">
    <tag k="addr:city" v="West Haven"/>
    <tag k="addr:housenumber" v="1280"/>
    <tag k="addr:street" v="Ghost Hollow Road"/>
    <tag k="addr:state" v="VT"/>
    <tag k="ref:vcgi:esiteid" v="279150"/>
  </node>
  <node id="-214" visible="true" lat="43.63055856" lon="-73.31028082">
    <tag k="addr:city" v="West Haven"/>
    <tag k="addr:housenumber" v="650"/>
    <tag k="addr:street" v="Doran Road"/>
    <tag k="addr:state" v="VT"/>
    <tag k="ref:vcgi:esiteid" v="279151"/>
  </node>
  <node id="-217" visible="true" lat="43.62651786" lon="-73.4169829">
    <tag k="addr:city" v="West Haven"/>
    <tag k="addr:housenumber" v="7998"/>
    <tag k="addr:street" v="Main Road"/>
    <tag k="addr:state" v="VT"/>
    <tag k="ref:vcgi:esiteid" v="279154"/>
  </node>
  <node id="-219" visible="true" lat="43.58361019" lon="-73.42111457">
    <tag k="addr:city" v="West Haven"/>
    <tag k="addr:housenumber" v="1923"/>
    <tag k="addr:street" v="Gallick Road"/>
    <tag k="addr:state" v="VT"/>
    <tag k="ref:vcgi:esiteid" v="279157"/>
  </node>
  <node id="-221" visible="true" lat="43.63925158" lon="-73.32184844">
    <tag k="addr:city" v="West Haven"/>
    <tag k="addr:housenumber" v="995"/>
    <tag k="addr:street" v="River Road"/>
    <tag k="addr:state" v="VT"/>
    <tag k="ref:vcgi:esiteid" v="279159"/>
  </node>
  <node id="-223" visible="true" lat="43.63896013" lon="-73.3484357">
    <tag k="addr:city" v="West Haven"/>
    <tag k="addr:housenumber" v="895"/>
    <tag k="addr:street" v="Book Road"/>
    <tag k="addr:state" v="VT"/>
    <tag k="ref:vcgi:esiteid" v="279161"/>
  </node>
  <node id="-227" visible="true" lat="43.65603285" lon="-73.32390723">
    <tag k="addr:city" v="West Haven"/>
    <tag k="addr:housenumber" v="2082"/>
    <tag k="addr:street" v="Main Road"/>
    <tag k="addr:state" v="VT"/>
    <tag k="ref:vcgi:esiteid" v="279165"/>
  </node>
  <node id="-229" visible="true" lat="43.65290321" lon="-73.36625819">
    <tag k="addr:city" v="West Haven"/>
    <tag k="addr:housenumber" v="3876"/>
    <tag k="addr:street" v="Main Road"/>
    <tag k="addr:state" v="VT"/>
    <tag k="ref:vcgi:esiteid" v="279167"/>
  </node>
  <node id="-230" visible="true" lat="43.64258513" lon="-73.32314132">
    <tag k="addr:city" v="West Haven"/>
    <tag k="addr:housenumber" v="727"/>
    <tag k="addr:street" v="River Road"/>
    <tag k="addr:state" v="VT"/>
    <tag k="ref:vcgi:esiteid" v="279168"/>
  </node>
  <node id="-231" visible="true" lat="43.65275803" lon="-73.33473297">
    <tag k="addr:city" v="West Haven"/>
    <tag k="addr:housenumber" v="2721"/>
    <tag k="addr:street" v="Main Road"/>
    <tag k="addr:state" v="VT"/>
    <tag k="ref:vcgi:esiteid" v="317652"/>
  </node>
  <node id="-233" visible="true" lat="43.65628935" lon="-73.39227131">
    <tag k="addr:city" v="West Haven"/>
    <tag k="addr:housenumber" v="811"/>
    <tag k="addr:street" v="Cold Springs Road"/>
    <tag k="addr:state" v="VT"/>
    <tag k="ref:vcgi:esiteid" v="326299"/>
  </node>
  <node id="-234" visible="true" lat="43.64389208" lon="-73.32083377">
    <tag k="addr:city" v="West Haven"/>
    <tag k="addr:housenumber" v="510"/>
    <tag k="addr:street" v="River Road"/>
    <tag k="addr:state" v="VT"/>
    <tag k="ref:vcgi:esiteid" v="326300"/>
  </node>
  <node id="-235" visible="true" lat="43.65449139" lon="-73.34270647">
    <tag k="addr:city" v="West Haven"/>
    <tag k="addr:housenumber" v="2992"/>
    <tag k="addr:street" v="Main Road"/>
    <tag k="addr:state" v="VT"/>
    <tag k="ref:vcgi:esiteid" v="326302"/>
  </node>
  <node id="-236" visible="true" lat="43.65144406" lon="-73.35761707">
    <tag k="addr:city" v="West Haven"/>
    <tag k="addr:housenumber" v="3845"/>
    <tag k="addr:street" v="Main Road"/>
    <tag k="addr:state" v="VT"/>
    <tag k="ref:vcgi:esiteid" v="333265"/>
  </node>
  <node id="-237" visible="true" lat="43.637203" lon="-73.40999594">
    <tag k="addr:city" v="West Haven"/>
    <tag k="addr:housenumber" v="6869"/>
    <tag k="addr:street" v="Main Road"/>
    <tag k="addr:state" v="VT"/>
    <tag k="ref:vcgi:esiteid" v="343647"/>
  </node>
  <node id="-242" visible="true" lat="43.65240778" lon="-73.34667679">
    <tag k="addr:city" v="West Haven"/>
    <tag k="addr:housenumber" v="63"/>
    <tag k="addr:street" v="North Road"/>
    <tag k="addr:state" v="VT"/>
    <tag k="ref:vcgi:esiteid" v="453251"/>
  </node>
  <node id="-244" visible="true" lat="43.63998131" lon="-73.32327065">
    <tag k="addr:city" v="West Haven"/>
    <tag k="addr:housenumber" v="900"/>
    <tag k="addr:street" v="River Road"/>
    <tag k="addr:state" v="VT"/>
    <tag k="ref:vcgi:esiteid" v="454725"/>
  </node>
</osm>
