<?xml version="1.0" encoding="UTF-8"?>
<osm version="0.6" generator="JOSM">
  <node id="-146" visible="true" lat="44.78372798" lon="-72.07380008">
    <!-- conflict: "280 Vermont Route 5A, Westmore, VT" No match in OSM, but a different address exists <5m away: "280 State Route 5A, , " -->
    <tag k="addr:city" v="Westmore"/>
    <tag k="addr:housenumber" v="280"/>
    <tag k="addr:street" v="Vermont Route 5A"/>
    <tag k="addr:state" v="VT"/>
    <tag k="ref:vcgi:esiteid" v="284029"/>
  </node>
  <node id="-239" visible="true" lat="44.77407988" lon="-72.05937418">
    <!-- conflict: "1322 Vermont Route 5A, Westmore, VT" No match in OSM, but a different address exists <5m away: "1322 Vt Route 5A, Westmore, VT" -->
    <tag k="addr:city" v="Westmore"/>
    <tag k="addr:housenumber" v="1322"/>
    <tag k="addr:street" v="Vermont Route 5A"/>
    <tag k="addr:state" v="VT"/>
    <tag k="ref:vcgi:esiteid" v="284124"/>
  </node>
  <node id="-242" visible="true" lat="44.77393579" lon="-72.05809578">
    <!-- conflict: "1343 Vermont Route 5A, Westmore, VT" No match in OSM, but a different address exists <5m away: "1343 Vt Route 5A, Westmore, VT" -->
    <tag k="addr:city" v="Westmore"/>
    <tag k="addr:housenumber" v="1343"/>
    <tag k="addr:street" v="Vermont Route 5A"/>
    <tag k="addr:state" v="VT"/>
    <tag k="ref:vcgi:esiteid" v="284127"/>
  </node>
  <node id="-247" visible="true" lat="44.7735952" lon="-72.05845237">
    <!-- conflict: "1372 Vermont Route 5A, Westmore, VT" No match in OSM, but a different address exists <5m away: "1372 Vt Route 5A, Westmore, VT" -->
    <tag k="addr:city" v="Westmore"/>
    <tag k="addr:housenumber" v="1372"/>
    <tag k="addr:street" v="Vermont Route 5A"/>
    <tag k="addr:state" v="VT"/>
    <tag k="ref:vcgi:esiteid" v="284132"/>
  </node>
  <node id="-261" visible="true" lat="44.77272558" lon="-72.05681661">
    <!-- conflict: "1461 Vermont Route 5A, Westmore, VT" No match in OSM, but a different address exists <5m away: "1461 Vt Route 5A, Westmore, VT" -->
    <tag k="addr:city" v="Westmore"/>
    <tag k="addr:housenumber" v="1461"/>
    <tag k="addr:street" v="Vermont Route 5A"/>
    <tag k="addr:state" v="VT"/>
    <tag k="ref:vcgi:esiteid" v="284147"/>
  </node>
  <node id="-263" visible="true" lat="44.77249949" lon="-72.05781673">
    <!-- conflict: "1456 Vermont Route 5A, Westmore, VT" No match in OSM, but a different address exists <5m away: "1450 Vt Route 5A, Westmore, VT" -->
    <tag k="addr:city" v="Westmore"/>
    <tag k="addr:housenumber" v="1456"/>
    <tag k="addr:street" v="Vermont Route 5A"/>
    <tag k="addr:state" v="VT"/>
    <tag k="ref:vcgi:esiteid" v="284149"/>
  </node>
  <node id="-266" visible="true" lat="44.77247488" lon="-72.05655757">
    <!-- conflict: "1481 Vermont Route 5A, Westmore, VT" No match in OSM, but a different address exists <5m away: "1481 Vt Route 5A, Westmore, VT" -->
    <tag k="addr:city" v="Westmore"/>
    <tag k="addr:housenumber" v="1481"/>
    <tag k="addr:street" v="Vermont Route 5A"/>
    <tag k="addr:state" v="VT"/>
    <tag k="ref:vcgi:esiteid" v="284152"/>
  </node>
  <node id="-267" visible="true" lat="44.77229627" lon="-72.05568577">
    <!-- conflict: "1535 Vermont Route 5A, Westmore, VT" No match in OSM, but a different address exists <5m away: "1535 Vt Route 5A, Westmore, VT" -->
    <tag k="addr:city" v="Westmore"/>
    <tag k="addr:housenumber" v="1535"/>
    <tag k="addr:street" v="Vermont Route 5A"/>
    <tag k="addr:state" v="VT"/>
    <tag k="ref:vcgi:esiteid" v="284153"/>
  </node>
  <node id="-275" visible="true" lat="44.77196371" lon="-72.05728756">
    <!-- conflict: "1498 Vermont Route 5A, Westmore, VT" No match in OSM, but a different address exists <5m away: "1498 Vt Route 5A, Westmore, VT" -->
    <tag k="addr:city" v="Westmore"/>
    <tag k="addr:housenumber" v="1498"/>
    <tag k="addr:street" v="Vermont Route 5A"/>
    <tag k="addr:state" v="VT"/>
    <tag k="ref:vcgi:esiteid" v="284161"/>
  </node>
  <node id="-324" visible="true" lat="44.76672894" lon="-72.05153541">
    <!-- conflict: "1935 Vermont Route 5A, Westmore, VT" No match in OSM, but a different address exists <5m away: "1935 Vt Route 5A, Westmore, VT" -->
    <tag k="addr:city" v="Westmore"/>
    <tag k="addr:housenumber" v="1935"/>
    <tag k="addr:street" v="Vermont Route 5A"/>
    <tag k="addr:state" v="VT"/>
    <tag k="ref:vcgi:esiteid" v="284213"/>
  </node>
  <node id="-342" visible="true" lat="44.7637175" lon="-72.05007516">
    <!-- conflict: "150 Long Pond Road, Westmore, VT" No match in OSM, but a different address exists <5m away: "202 Long Pond Road, Westmore, VT" -->
    <tag k="addr:city" v="Westmore"/>
    <tag k="addr:housenumber" v="150"/>
    <tag k="addr:street" v="Long Pond Road"/>
    <tag k="addr:state" v="VT"/>
    <tag k="ref:vcgi:esiteid" v="284235"/>
  </node>
  <node id="-359" visible="true" lat="44.76153183" lon="-72.10227203">
    <!-- conflict: "1347 Cook Road, Westmore, VT" No match in OSM, but a different address exists <5m away: "1347 Cooks Road, Westmore, VT" -->
    <tag k="addr:city" v="Westmore"/>
    <tag k="addr:housenumber" v="1347"/>
    <tag k="addr:street" v="Cook Road"/>
    <tag k="addr:state" v="VT"/>
    <tag k="ref:vcgi:esiteid" v="284252"/>
  </node>
  <node id="-379" visible="true" lat="44.76013966" lon="-72.10214854">
    <!-- conflict: "1400 Cook Road, Westmore, VT" No match in OSM, but a different address exists <5m away: "1400 Cooks Road, Westmore, VT" -->
    <tag k="addr:city" v="Westmore"/>
    <tag k="addr:housenumber" v="1400"/>
    <tag k="addr:street" v="Cook Road"/>
    <tag k="addr:state" v="VT"/>
    <tag k="ref:vcgi:esiteid" v="284274"/>
  </node>
  <node id="-388" visible="true" lat="44.7591794" lon="-72.09950439">
    <!-- conflict: "1548 Cook Road, Westmore, VT" No match in OSM, but a different address exists <5m away: "1548 Cooks Road, Westmore, VT" -->
    <tag k="addr:city" v="Westmore"/>
    <tag k="addr:housenumber" v="1548"/>
    <tag k="addr:street" v="Cook Road"/>
    <tag k="addr:state" v="VT"/>
    <tag k="ref:vcgi:esiteid" v="284283"/>
  </node>
  <node id="-435" visible="true" lat="44.75588529" lon="-72.05169267">
    <!-- conflict: "2665 Vermont Route 5A, Westmore, VT" No match in OSM, but a different address exists <5m away: "2665 Vt Route 5A, Westmore, VT" -->
    <tag k="addr:city" v="Westmore"/>
    <tag k="addr:housenumber" v="2665"/>
    <tag k="addr:street" v="Vermont Route 5A"/>
    <tag k="addr:state" v="VT"/>
    <tag k="ref:vcgi:esiteid" v="284331"/>
  </node>
  <node id="-442" visible="true" lat="44.75552412" lon="-72.05189407">
    <!-- conflict: "2711 Vermont Route 5A, Westmore, VT" No match in OSM, but a different address exists <5m away: "2711 Vt Route 5A, Westmore, VT" -->
    <tag k="addr:city" v="Westmore"/>
    <tag k="addr:housenumber" v="2711"/>
    <tag k="addr:street" v="Vermont Route 5A"/>
    <tag k="addr:state" v="VT"/>
    <tag k="ref:vcgi:esiteid" v="284338"/>
  </node>
  <node id="-443" visible="true" lat="44.75495399" lon="-72.05442281">
    <!-- conflict: "466 Old 5a Road, Westmore, VT" Fuzzy match to "466 Old 5A Road, Westmore, VT" -->
    <tag k="addr:city" v="Westmore"/>
    <tag k="addr:housenumber" v="466"/>
    <tag k="addr:street" v="Old 5a Road"/>
    <tag k="addr:state" v="VT"/>
    <tag k="ref:vcgi:esiteid" v="284339"/>
  </node>
  <node id="-446" visible="true" lat="44.75450349" lon="-72.05422651">
    <!-- conflict: "520 Old 5a Road, Westmore, VT" Fuzzy match to "520 Old 5A Road, Westmore, VT" -->
    <tag k="addr:city" v="Westmore"/>
    <tag k="addr:housenumber" v="520"/>
    <tag k="addr:street" v="Old 5a Road"/>
    <tag k="addr:state" v="VT"/>
    <tag k="ref:vcgi:esiteid" v="284343"/>
  </node>
  <node id="-451" visible="true" lat="44.75477229" lon="-72.05387678">
    <!-- conflict: "492 Old 5a Road, Westmore, VT" Fuzzy match to "492 Old 5A Road, Westmore, VT" -->
    <tag k="addr:city" v="Westmore"/>
    <tag k="addr:housenumber" v="492"/>
    <tag k="addr:street" v="Old 5a Road"/>
    <tag k="addr:state" v="VT"/>
    <tag k="ref:vcgi:esiteid" v="284348"/>
  </node>
  <node id="-452" visible="true" lat="44.75491416" lon="-72.05165641">
    <!-- conflict: "2797 Vermont Route 5A, Westmore, VT" No match in OSM, but a different address exists <5m away: "2797 Vt Route 5A, Westmore, VT" -->
    <tag k="addr:city" v="Westmore"/>
    <tag k="addr:housenumber" v="2797"/>
    <tag k="addr:street" v="Vermont Route 5A"/>
    <tag k="addr:state" v="VT"/>
    <tag k="ref:vcgi:esiteid" v="284349"/>
  </node>
  <node id="-457" visible="true" lat="44.75419462" lon="-72.05405156">
    <!-- conflict: "530 Old 5a Road, Westmore, VT" Fuzzy match to "530 Old 5A Road, Westmore, VT" -->
    <tag k="addr:city" v="Westmore"/>
    <tag k="addr:housenumber" v="530"/>
    <tag k="addr:street" v="Old 5a Road"/>
    <tag k="addr:state" v="VT"/>
    <tag k="ref:vcgi:esiteid" v="284354"/>
  </node>
  <node id="-458" visible="true" lat="44.75372391" lon="-72.05405675">
    <!-- conflict: "542 Old 5a Road, Westmore, VT" Fuzzy match to "542 Old 5A Road, Westmore, VT" -->
    <tag k="addr:city" v="Westmore"/>
    <tag k="addr:housenumber" v="542"/>
    <tag k="addr:street" v="Old 5a Road"/>
    <tag k="addr:state" v="VT"/>
    <tag k="ref:vcgi:esiteid" v="284356"/>
  </node>
  <node id="-468" visible="true" lat="44.75085421" lon="-72.05345366">
    <!-- conflict: "696 Old 5a Road, Westmore, VT" Fuzzy match to "696 Old 5A Road, Westmore, VT" -->
    <tag k="addr:city" v="Westmore"/>
    <tag k="addr:housenumber" v="696"/>
    <tag k="addr:street" v="Old 5a Road"/>
    <tag k="addr:state" v="VT"/>
    <tag k="ref:vcgi:esiteid" v="284368"/>
  </node>
  <node id="-470" visible="true" lat="44.7499019" lon="-72.0527283">
    <!-- conflict: "762 Old 5a Road, Westmore, VT" Fuzzy match to "762 Old 5A Road, Westmore, VT" -->
    <tag k="addr:city" v="Westmore"/>
    <tag k="addr:housenumber" v="762"/>
    <tag k="addr:street" v="Old 5a Road"/>
    <tag k="addr:state" v="VT"/>
    <tag k="ref:vcgi:esiteid" v="284370"/>
  </node>
  <node id="-471" visible="true" lat="44.74948175" lon="-72.05265749">
    <!-- conflict: "844 Old 5a Road, Westmore, VT" Fuzzy match to "844 Old 5A Road, Westmore, VT" -->
    <tag k="addr:city" v="Westmore"/>
    <tag k="addr:housenumber" v="844"/>
    <tag k="addr:street" v="Old 5a Road"/>
    <tag k="addr:state" v="VT"/>
    <tag k="ref:vcgi:esiteid" v="284371"/>
  </node>
  <node id="-506" visible="true" lat="44.73292314" lon="-72.07479929">
    <!-- conflict: "390 Wilderness Way, Westmore, VT" No match in OSM, but a different address exists <5m away: "390 Big Valley Lane, Westmore, VT" -->
    <tag k="addr:city" v="Westmore"/>
    <tag k="addr:housenumber" v="390"/>
    <tag k="addr:street" v="Wilderness Way"/>
    <tag k="addr:state" v="VT"/>
    <tag k="ref:vcgi:esiteid" v="284407"/>
  </node>
  <node id="-511" visible="true" lat="44.72094528" lon="-72.03118272">
    <!-- conflict: "5378 Vermont Route 5A, Westmore, VT" No match in OSM, but a different address exists <5m away: "5378 Vt Route 5A, Westmore, VT" -->
    <tag k="addr:city" v="Westmore"/>
    <tag k="addr:housenumber" v="5378"/>
    <tag k="addr:street" v="Vermont Route 5A"/>
    <tag k="addr:state" v="VT"/>
    <tag k="ref:vcgi:esiteid" v="284414"/>
  </node>
  <node id="-512" visible="true" lat="44.72035154" lon="-72.0308685">
    <!-- conflict: "5422 Vermont Route 5A, Westmore, VT" No match in OSM, but a different address exists <5m away: "5422 Vt Route 5A, Westmore, VT" -->
    <tag k="addr:city" v="Westmore"/>
    <tag k="addr:housenumber" v="5422"/>
    <tag k="addr:street" v="Vermont Route 5A"/>
    <tag k="addr:state" v="VT"/>
    <tag k="ref:vcgi:esiteid" v="284415"/>
  </node>
  <node id="-514" visible="true" lat="44.7187991" lon="-72.03011509">
    <!-- conflict: "5556 Vermont Route 5A, Westmore, VT" No match in OSM, but a different address exists <5m away: "5556 Vt Route 5A, Westmore, VT" -->
    <tag k="addr:city" v="Westmore"/>
    <tag k="addr:housenumber" v="5556"/>
    <tag k="addr:street" v="Vermont Route 5A"/>
    <tag k="addr:state" v="VT"/>
    <tag k="ref:vcgi:esiteid" v="284417"/>
  </node>
  <node id="-515" visible="true" lat="44.72001998" lon="-72.03070756">
    <!-- conflict: "5456 Vermont Route 5A, Westmore, VT" No match in OSM, but a different address exists <5m away: "5456 Vt Route 5A, Westmore, VT" -->
    <tag k="addr:city" v="Westmore"/>
    <tag k="addr:housenumber" v="5456"/>
    <tag k="addr:street" v="Vermont Route 5A"/>
    <tag k="addr:state" v="VT"/>
    <tag k="ref:vcgi:esiteid" v="284418"/>
  </node>
  <node id="-516" visible="true" lat="44.71971982" lon="-72.03007121">
    <!-- conflict: "5481 Vermont Route 5A, Westmore, VT" No match in OSM, but a different address exists <5m away: "5481 Vt Route 5A, Westmore, VT" -->
    <tag k="addr:city" v="Westmore"/>
    <tag k="addr:housenumber" v="5481"/>
    <tag k="addr:street" v="Vermont Route 5A"/>
    <tag k="addr:state" v="VT"/>
    <tag k="ref:vcgi:esiteid" v="284419"/>
  </node>
  <node id="-517" visible="true" lat="44.71950651" lon="-72.03027794">
    <!-- conflict: "5506 Vermont Route 5A, Westmore, VT" No match in OSM, but a different address exists <5m away: "5506 Vt Route 5A, Westmore, VT" -->
    <tag k="addr:city" v="Westmore"/>
    <tag k="addr:housenumber" v="5506"/>
    <tag k="addr:street" v="Vermont Route 5A"/>
    <tag k="addr:state" v="VT"/>
    <tag k="ref:vcgi:esiteid" v="284420"/>
  </node>
  <node id="-519" visible="true" lat="44.7190958" lon="-72.03018587">
    <!-- conflict: "5522 Vermont Route 5A, Westmore, VT" No match in OSM, but a different address exists <5m away: "5532 Vt Route 5A, Westmore, VT" -->
    <tag k="addr:city" v="Westmore"/>
    <tag k="addr:housenumber" v="5522"/>
    <tag k="addr:street" v="Vermont Route 5A"/>
    <tag k="addr:state" v="VT"/>
    <tag k="ref:vcgi:esiteid" v="284422"/>
  </node>
  <node id="-550" visible="true" lat="44.75773227" lon="-72.051528">
    <!-- conflict: "2539 Vermont Route 5A, Westmore, VT" No match in OSM, but a different address exists <5m away: "2539 Vt Route 5A, Westmore, VT" -->
    <tag k="addr:city" v="Westmore"/>
    <tag k="addr:housenumber" v="2539"/>
    <tag k="addr:street" v="Vermont Route 5A"/>
    <tag k="addr:state" v="VT"/>
    <tag k="ref:vcgi:esiteid" v="284457"/>
  </node>
  <node id="-551" visible="true" lat="44.75347954" lon="-72.05369591">
    <!-- conflict: "562 Old 5a Road, Westmore, VT" Fuzzy match to "562 Old 5A Road, Westmore, VT" -->
    <tag k="addr:city" v="Westmore"/>
    <tag k="addr:housenumber" v="562"/>
    <tag k="addr:street" v="Old 5a Road"/>
    <tag k="addr:state" v="VT"/>
    <tag k="ref:vcgi:esiteid" v="284458"/>
  </node>
  <node id="-552" visible="true" lat="44.75140023" lon="-72.05365275">
    <!-- conflict: "610 Old 5a Road, Westmore, VT" Fuzzy match to "610 Old 5A Road, Westmore, VT" -->
    <tag k="addr:city" v="Westmore"/>
    <tag k="addr:housenumber" v="610"/>
    <tag k="addr:street" v="Old 5a Road"/>
    <tag k="addr:state" v="VT"/>
    <tag k="ref:vcgi:esiteid" v="284459"/>
  </node>
  <node id="-559" visible="true" lat="44.74789502" lon="-72.05024593">
    <!-- conflict: "3239 Vermont Route 5A, Westmore, VT" No match in OSM, but a different address exists <5m away: "3239 Vt Route 5A, Westmore, VT" -->
    <tag k="addr:city" v="Westmore"/>
    <tag k="addr:housenumber" v="3239"/>
    <tag k="addr:street" v="Vermont Route 5A"/>
    <tag k="addr:state" v="VT"/>
    <tag k="ref:vcgi:esiteid" v="284466"/>
  </node>
  <node id="-568" visible="true" lat="44.75274055" lon="-72.05391029">
    <!-- conflict: "576 Old 5a Road, Westmore, VT" Fuzzy match to "576 Old 5A Road, Westmore, VT" -->
    <tag k="addr:city" v="Westmore"/>
    <tag k="addr:housenumber" v="576"/>
    <tag k="addr:street" v="Old 5a Road"/>
    <tag k="addr:state" v="VT"/>
    <tag k="ref:vcgi:esiteid" v="284477"/>
  </node>
  <node id="-592" visible="true" lat="44.76610994" lon="-72.05342242">
    <!-- conflict: "32 Haven Loop, Westmore, VT" No match in OSM, but a different address exists <5m away: "1976 Vermont Route 5A, Westmore, VT" -->
    <tag k="addr:city" v="Westmore"/>
    <tag k="addr:housenumber" v="32"/>
    <tag k="addr:street" v="Haven Loop"/>
    <tag k="addr:state" v="VT"/>
    <tag k="ref:vcgi:esiteid" v="284501"/>
  </node>
  <node id="-600" visible="true" lat="44.75528436" lon="-72.05465312">
    <!-- conflict: "452 Old 5a Road, Westmore, VT" Fuzzy match to "452 Old 5A Road, Westmore, VT" -->
    <tag k="addr:city" v="Westmore"/>
    <tag k="addr:housenumber" v="452"/>
    <tag k="addr:street" v="Old 5a Road"/>
    <tag k="addr:state" v="VT"/>
    <tag k="ref:vcgi:esiteid" v="284510"/>
  </node>
  <node id="-601" visible="true" lat="44.75350314" lon="-72.05303221">
    <!-- conflict: "565 Old 5a Road, Westmore, VT" Fuzzy match to "565 Old 5A Road, Westmore, VT" -->
    <tag k="addr:city" v="Westmore"/>
    <tag k="addr:housenumber" v="565"/>
    <tag k="addr:street" v="Old 5a Road"/>
    <tag k="addr:state" v="VT"/>
    <tag k="ref:vcgi:esiteid" v="284511"/>
  </node>
  <node id="-630" visible="true" lat="44.76623783" lon="-72.05346066">
    <!-- conflict: "28 Haven Loop, Westmore, VT" No match in OSM, but a different address exists <5m away: "1950 Vermont Route 5A, Westmore, VT" -->
    <tag k="addr:city" v="Westmore"/>
    <tag k="addr:housenumber" v="28"/>
    <tag k="addr:street" v="Haven Loop"/>
    <tag k="addr:state" v="VT"/>
    <tag k="ref:vcgi:esiteid" v="284545"/>
  </node>
  <node id="-631" visible="true" lat="44.76597834" lon="-72.05342063">
    <!-- conflict: "36 Haven Loop, Westmore, VT" No match in OSM, but a different address exists <5m away: "1952 Vermont Route 5A, Westmore, VT" -->
    <tag k="addr:city" v="Westmore"/>
    <tag k="addr:housenumber" v="36"/>
    <tag k="addr:street" v="Haven Loop"/>
    <tag k="addr:state" v="VT"/>
    <tag k="ref:vcgi:esiteid" v="284546"/>
  </node>
  <node id="-632" visible="true" lat="44.7658746" lon="-72.05331342">
    <!-- conflict: "40 Haven Loop, Westmore, VT" No match in OSM, but a different address exists <5m away: "1954 Vermont Route 5A, Westmore, VT" -->
    <tag k="addr:city" v="Westmore"/>
    <tag k="addr:housenumber" v="40"/>
    <tag k="addr:street" v="Haven Loop"/>
    <tag k="addr:state" v="VT"/>
    <tag k="ref:vcgi:esiteid" v="284547"/>
  </node>
  <node id="-633" visible="true" lat="44.76587778" lon="-72.05317894">
    <!-- conflict: "44 Haven Loop, Westmore, VT" No match in OSM, but a different address exists <5m away: "1956 Vermont Route 5A, Westmore, VT" -->
    <tag k="addr:city" v="Westmore"/>
    <tag k="addr:housenumber" v="44"/>
    <tag k="addr:street" v="Haven Loop"/>
    <tag k="addr:state" v="VT"/>
    <tag k="ref:vcgi:esiteid" v="284548"/>
  </node>
  <node id="-634" visible="true" lat="44.76587398" lon="-72.05308256">
    <!-- conflict: "48 Haven Loop, Westmore, VT" No match in OSM, but a different address exists <5m away: "1958 Vermont Route 5A, Westmore, VT" -->
    <tag k="addr:city" v="Westmore"/>
    <tag k="addr:housenumber" v="48"/>
    <tag k="addr:street" v="Haven Loop"/>
    <tag k="addr:state" v="VT"/>
    <tag k="ref:vcgi:esiteid" v="284549"/>
  </node>
  <node id="-643" visible="true" lat="44.76083143" lon="-72.10160817">
    <!-- conflict: "1351 Cook Road, Westmore, VT" No match in OSM, but a different address exists <5m away: "1351 Cooks Road, Westmore, VT" -->
    <tag k="addr:city" v="Westmore"/>
    <tag k="addr:housenumber" v="1351"/>
    <tag k="addr:street" v="Cook Road"/>
    <tag k="addr:state" v="VT"/>
    <tag k="ref:vcgi:esiteid" v="284571"/>
  </node>
  <node id="-645" visible="true" lat="44.74273769" lon="-72.0847087">
    <!-- conflict: "1404 Lakeview Road, Westmore, VT" No match in OSM, but a different address exists <5m away: "1350 Lakeview Road, Westmore, VT" -->
    <tag k="addr:city" v="Westmore"/>
    <tag k="addr:housenumber" v="1404"/>
    <tag k="addr:street" v="Lakeview Road"/>
    <tag k="addr:state" v="VT"/>
    <tag k="ref:vcgi:esiteid" v="326246"/>
  </node>
  <node id="-660" visible="true" lat="44.75207696" lon="-72.05328437">
    <!-- conflict: "584 Old 5a Road, Westmore, VT" Fuzzy match to "584 Old 5A Road, Westmore, VT" -->
    <tag k="addr:city" v="Westmore"/>
    <tag k="addr:housenumber" v="584"/>
    <tag k="addr:street" v="Old 5a Road"/>
    <tag k="addr:state" v="VT"/>
    <tag k="ref:vcgi:esiteid" v="329100"/>
  </node>
  <node id="-667" visible="true" lat="44.74795862" lon="-72.09187605">
    <!-- conflict: "77 Stevens Lane, Westmore, VT" No match in OSM, but a different address exists <5m away: "277 Stevens Lane, Westmore, VT" -->
    <tag k="addr:city" v="Westmore"/>
    <tag k="addr:housenumber" v="77"/>
    <tag k="addr:street" v="Stevens Lane"/>
    <tag k="addr:state" v="VT"/>
    <tag k="ref:vcgi:esiteid" v="340967"/>
  </node>
  <node id="-676" visible="true" lat="44.72109646" lon="-72.03124281">
    <!-- conflict: "5374 Vermont Route 5A, Westmore, VT" No match in OSM, but a different address exists <5m away: "5374 Vt Route 5A, Westmore, VT" -->
    <tag k="addr:city" v="Westmore"/>
    <tag k="addr:housenumber" v="5374"/>
    <tag k="addr:street" v="Vermont Route 5A"/>
    <tag k="addr:state" v="VT"/>
    <tag k="ref:vcgi:esiteid" v="448689"/>
  </node>
  <node id="-679" visible="true" lat="44.75943" lon="-72.10063766">
    <!-- conflict: "1482 Cook Road, Westmore, VT" No match in OSM, but a different address exists <5m away: "1482 Cooks Road, Westmore, VT" -->
    <tag k="addr:city" v="Westmore"/>
    <tag k="addr:housenumber" v="1482"/>
    <tag k="addr:street" v="Cook Road"/>
    <tag k="addr:state" v="VT"/>
    <tag k="ref:vcgi:esiteid" v="449614"/>
  </node>
  <node id="-690" visible="true" lat="44.7619334" lon="-72.10237587">
    <!-- conflict: "1323 Cook Road, Westmore, VT" No match in OSM, but a different address exists <5m away: "1323 Cooks Road, Westmore, VT" -->
    <tag k="addr:city" v="Westmore"/>
    <tag k="addr:housenumber" v="1323"/>
    <tag k="addr:street" v="Cook Road"/>
    <tag k="addr:state" v="VT"/>
    <tag k="ref:vcgi:esiteid" v="612436"/>
  </node>
</osm>
