<?xml version="1.0" encoding="UTF-8"?>
<osm version="0.6" generator="JOSM">
  <node id="-101" visible="true" lat="43.12665939" lon="-72.55384063">
    <tag k="addr:city" v="Westminster"/>
    <tag k="addr:housenumber" v="1740"/>
    <tag k="addr:street" v="Bemis Hill Road"/>
    <tag k="addr:state" v="VT"/>
    <tag k="ref:vcgi:esiteid" v="282417"/>
  </node>
  <node id="-185" visible="true" lat="43.12211227" lon="-72.43632507">
    <tag k="addr:city" v="Westminster"/>
    <tag k="addr:housenumber" v="7892"/>
    <tag k="addr:street" v="U.S. Route 5"/>
    <tag k="addr:state" v="VT"/>
    <tag k="ref:vcgi:esiteid" v="282508"/>
  </node>
  <node id="-367" visible="true" lat="43.1170845" lon="-72.52364349">
    <tag k="addr:city" v="Westminster"/>
    <tag k="addr:housenumber" v="233"/>
    <tag k="addr:street" v="Saunders Road"/>
    <tag k="addr:state" v="VT"/>
    <tag k="ref:vcgi:esiteid" v="282697"/>
  </node>
  <node id="-403" visible="true" lat="43.11570265" lon="-72.52329228">
    <tag k="addr:city" v="Westminster"/>
    <tag k="addr:housenumber" v="169"/>
    <tag k="addr:street" v="Saunders Road"/>
    <tag k="addr:state" v="VT"/>
    <tag k="ref:vcgi:esiteid" v="282733"/>
  </node>
  <node id="-422" visible="true" lat="43.11378734" lon="-72.49408978">
    <tag k="addr:city" v="Westminster"/>
    <tag k="addr:housenumber" v="1505"/>
    <tag k="addr:street" v="Davidson Hill Road"/>
    <tag k="addr:state" v="VT"/>
    <tag k="ref:vcgi:esiteid" v="282752"/>
  </node>
  <node id="-441" visible="true" lat="43.11209967" lon="-72.43953204">
    <tag k="addr:city" v="Westminster"/>
    <tag k="addr:housenumber" v="7190"/>
    <tag k="addr:street" v="U.S. Route 5"/>
    <tag k="addr:state" v="VT"/>
    <tag k="ref:vcgi:esiteid" v="282771"/>
  </node>
  <node id="-445" visible="true" lat="43.11079823" lon="-72.43900054">
    <tag k="addr:city" v="Westminster"/>
    <tag k="addr:housenumber" v="61"/>
    <tag k="addr:street" v="Potter Industrial Drive"/>
    <tag k="addr:state" v="VT"/>
    <tag k="ref:vcgi:esiteid" v="282775"/>
  </node>
  <node id="-447" visible="true" lat="43.11145019" lon="-72.50274658">
    <tag k="addr:city" v="Westminster"/>
    <tag k="addr:housenumber" v="350"/>
    <tag k="addr:street" v="Villers Road"/>
    <tag k="addr:state" v="VT"/>
    <tag k="ref:vcgi:esiteid" v="282777"/>
  </node>
  <node id="-449" visible="true" lat="43.11106042" lon="-72.44049022">
    <tag k="addr:city" v="Westminster"/>
    <tag k="addr:housenumber" v="30"/>
    <tag k="addr:street" v="Potter Industrial Drive"/>
    <tag k="addr:state" v="VT"/>
    <tag k="ref:vcgi:esiteid" v="282779"/>
  </node>
  <node id="-454" visible="true" lat="43.10994386" lon="-72.43970246">
    <tag k="addr:city" v="Westminster"/>
    <tag k="addr:housenumber" v="125"/>
    <tag k="addr:street" v="Potter Industrial Drive"/>
    <tag k="addr:state" v="VT"/>
    <tag k="ref:vcgi:esiteid" v="282784"/>
  </node>
  <node id="-456" visible="true" lat="43.11028671" lon="-72.44287109">
    <tag k="addr:city" v="Westminster"/>
    <tag k="addr:housenumber" v="38"/>
    <tag k="addr:street" v="Rogstad Lane"/>
    <tag k="addr:state" v="VT"/>
    <tag k="ref:vcgi:esiteid" v="282786"/>
  </node>
  <node id="-461" visible="true" lat="43.11006164" lon="-72.49320983">
    <tag k="addr:city" v="Westminster"/>
    <tag k="addr:housenumber" v="1845"/>
    <tag k="addr:street" v="Davidson Hill Road"/>
    <tag k="addr:state" v="VT"/>
    <tag k="ref:vcgi:esiteid" v="282791"/>
  </node>
  <node id="-462" visible="true" lat="43.10996627" lon="-72.44222259">
    <tag k="addr:city" v="Westminster"/>
    <tag k="addr:housenumber" v="31"/>
    <tag k="addr:street" v="Rogstad Lane"/>
    <tag k="addr:state" v="VT"/>
    <tag k="ref:vcgi:esiteid" v="282792"/>
  </node>
  <node id="-465" visible="true" lat="43.10987854" lon="-72.49893951">
    <tag k="addr:city" v="Westminster"/>
    <tag k="addr:housenumber" v="312"/>
    <tag k="addr:street" v="Villers Road"/>
    <tag k="addr:state" v="VT"/>
    <tag k="ref:vcgi:esiteid" v="282795"/>
  </node>
  <node id="-471" visible="true" lat="43.10903549" lon="-72.49321746">
    <tag k="addr:city" v="Westminster"/>
    <tag k="addr:housenumber" v="1909"/>
    <tag k="addr:street" v="Davidson Hill Road"/>
    <tag k="addr:state" v="VT"/>
    <tag k="ref:vcgi:esiteid" v="282801"/>
  </node>
  <node id="-478" visible="true" lat="43.10954573" lon="-72.44150161">
    <tag k="addr:city" v="Westminster"/>
    <tag k="addr:housenumber" v="6896"/>
    <tag k="addr:street" v="U.S. Route 5"/>
    <tag k="addr:state" v="VT"/>
    <tag k="ref:vcgi:esiteid" v="282808"/>
  </node>
  <node id="-486" visible="true" lat="43.10700607" lon="-72.45614624">
    <tag k="addr:city" v="Westminster"/>
    <tag k="addr:housenumber" v="1303"/>
    <tag k="addr:street" v="Back Westminster Road"/>
    <tag k="addr:state" v="VT"/>
    <tag k="ref:vcgi:esiteid" v="282816"/>
  </node>
  <node id="-487" visible="true" lat="43.10699081" lon="-72.45692443">
    <tag k="addr:city" v="Westminster"/>
    <tag k="addr:housenumber" v="44"/>
    <tag k="addr:street" v="Birchview Heights"/>
    <tag k="addr:state" v="VT"/>
    <tag k="ref:vcgi:esiteid" v="282817"/>
  </node>
  <node id="-489" visible="true" lat="43.10648063" lon="-72.45597709">
    <tag k="addr:city" v="Westminster"/>
    <tag k="addr:housenumber" v="1261"/>
    <tag k="addr:street" v="Back Westminster Road"/>
    <tag k="addr:state" v="VT"/>
    <tag k="ref:vcgi:esiteid" v="282819"/>
  </node>
  <node id="-491" visible="true" lat="43.10606384" lon="-72.45741271">
    <tag k="addr:city" v="Westminster"/>
    <tag k="addr:housenumber" v="325"/>
    <tag k="addr:street" v="Birchview Heights"/>
    <tag k="addr:state" v="VT"/>
    <tag k="ref:vcgi:esiteid" v="282821"/>
  </node>
  <node id="-492" visible="true" lat="43.10598754" lon="-72.45800018">
    <tag k="addr:city" v="Westminster"/>
    <tag k="addr:housenumber" v="303"/>
    <tag k="addr:street" v="Birchview Heights"/>
    <tag k="addr:state" v="VT"/>
    <tag k="ref:vcgi:esiteid" v="282822"/>
  </node>
  <node id="-493" visible="true" lat="43.10593779" lon="-72.48780142">
    <tag k="addr:city" v="Westminster"/>
    <tag k="addr:housenumber" v="2261"/>
    <tag k="addr:street" v="Davidson Hill Road"/>
    <tag k="addr:state" v="VT"/>
    <tag k="ref:vcgi:esiteid" v="282823"/>
  </node>
  <node id="-495" visible="true" lat="43.10554885" lon="-72.45744323">
    <tag k="addr:city" v="Westminster"/>
    <tag k="addr:housenumber" v="320"/>
    <tag k="addr:street" v="Birchview Heights"/>
    <tag k="addr:state" v="VT"/>
    <tag k="ref:vcgi:esiteid" v="282825"/>
  </node>
  <node id="-497" visible="true" lat="43.10537333" lon="-72.4572293">
    <tag k="addr:city" v="Westminster"/>
    <tag k="addr:housenumber" v="182"/>
    <tag k="addr:street" v="Birchview Heights"/>
    <tag k="addr:state" v="VT"/>
    <tag k="ref:vcgi:esiteid" v="282827"/>
  </node>
  <node id="-498" visible="true" lat="43.10530471" lon="-72.44325256">
    <tag k="addr:city" v="Westminster"/>
    <tag k="addr:housenumber" v="6643"/>
    <tag k="addr:street" v="U.S. Route 5"/>
    <tag k="addr:state" v="VT"/>
    <tag k="ref:vcgi:esiteid" v="282828"/>
  </node>
  <node id="-499" visible="true" lat="43.10512542" lon="-72.45786285">
    <tag k="addr:city" v="Westminster"/>
    <tag k="addr:housenumber" v="220"/>
    <tag k="addr:street" v="Birchview Heights"/>
    <tag k="addr:state" v="VT"/>
    <tag k="ref:vcgi:esiteid" v="282829"/>
  </node>
  <node id="-500" visible="true" lat="43.10509109" lon="-72.45599365">
    <tag k="addr:city" v="Westminster"/>
    <tag k="addr:housenumber" v="1139"/>
    <tag k="addr:street" v="Back Westminster Road"/>
    <tag k="addr:state" v="VT"/>
    <tag k="ref:vcgi:esiteid" v="282830"/>
  </node>
  <node id="-501" visible="true" lat="43.10506057" lon="-72.45845031">
    <tag k="addr:city" v="Westminster"/>
    <tag k="addr:housenumber" v="249"/>
    <tag k="addr:street" v="Birchview Heights"/>
    <tag k="addr:state" v="VT"/>
    <tag k="ref:vcgi:esiteid" v="282831"/>
  </node>
  <node id="-506" visible="true" lat="43.10459136" lon="-72.44345855">
    <tag k="addr:city" v="Westminster"/>
    <tag k="addr:housenumber" v="6595"/>
    <tag k="addr:street" v="U.S. Route 5"/>
    <tag k="addr:state" v="VT"/>
    <tag k="ref:vcgi:esiteid" v="282836"/>
  </node>
  <node id="-513" visible="true" lat="43.10383987" lon="-72.45596313">
    <tag k="addr:city" v="Westminster"/>
    <tag k="addr:housenumber" v="1043"/>
    <tag k="addr:street" v="Back Westminster Road"/>
    <tag k="addr:state" v="VT"/>
    <tag k="ref:vcgi:esiteid" v="282843"/>
  </node>
  <node id="-515" visible="true" lat="43.10350036" lon="-72.4440689">
    <tag k="addr:city" v="Westminster"/>
    <tag k="addr:housenumber" v="75"/>
    <tag k="addr:street" v="Deep Root Drive"/>
    <tag k="addr:state" v="VT"/>
    <tag k="ref:vcgi:esiteid" v="282845"/>
  </node>
  <node id="-516" visible="true" lat="43.10347747" lon="-72.44477844">
    <tag k="addr:city" v="Westminster"/>
    <tag k="addr:housenumber" v="102"/>
    <tag k="addr:street" v="Deep Root Drive"/>
    <tag k="addr:state" v="VT"/>
    <tag k="ref:vcgi:esiteid" v="282846"/>
  </node>
  <node id="-518" visible="true" lat="43.10247802" lon="-72.45749664">
    <tag k="addr:city" v="Westminster"/>
    <tag k="addr:housenumber" v="983"/>
    <tag k="addr:street" v="Back Westminster Road"/>
    <tag k="addr:state" v="VT"/>
    <tag k="ref:vcgi:esiteid" v="282848"/>
  </node>
  <node id="-521" visible="true" lat="43.10150909" lon="-72.45352172">
    <tag k="addr:city" v="Westminster"/>
    <tag k="addr:housenumber" v="713"/>
    <tag k="addr:street" v="Henwood Hill Road"/>
    <tag k="addr:state" v="VT"/>
    <tag k="ref:vcgi:esiteid" v="282851"/>
  </node>
  <node id="-522" visible="true" lat="43.10123062" lon="-72.44441986">
    <tag k="addr:city" v="Westminster"/>
    <tag k="addr:housenumber" v="6365"/>
    <tag k="addr:street" v="U.S. Route 5"/>
    <tag k="addr:state" v="VT"/>
    <tag k="ref:vcgi:esiteid" v="282852"/>
  </node>
  <node id="-524" visible="true" lat="43.10098266" lon="-72.45537567">
    <tag k="addr:city" v="Westminster"/>
    <tag k="addr:housenumber" v="877"/>
    <tag k="addr:street" v="Back Westminster Road"/>
    <tag k="addr:state" v="VT"/>
    <tag k="ref:vcgi:esiteid" v="282854"/>
  </node>
  <node id="-525" visible="true" lat="43.10029602" lon="-72.45619201">
    <tag k="addr:city" v="Westminster"/>
    <tag k="addr:housenumber" v="837"/>
    <tag k="addr:street" v="Back Westminster Road"/>
    <tag k="addr:state" v="VT"/>
    <tag k="ref:vcgi:esiteid" v="282855"/>
  </node>
  <node id="-528" visible="true" lat="43.09949493" lon="-72.4497528">
    <tag k="addr:city" v="Westminster"/>
    <tag k="addr:housenumber" v="446"/>
    <tag k="addr:street" v="Henwood Hill Road"/>
    <tag k="addr:state" v="VT"/>
    <tag k="ref:vcgi:esiteid" v="282859"/>
  </node>
  <node id="-529" visible="true" lat="43.09942626" lon="-72.44406127">
    <tag k="addr:city" v="Westminster"/>
    <tag k="addr:housenumber" v="6243"/>
    <tag k="addr:street" v="U.S. Route 5"/>
    <tag k="addr:state" v="VT"/>
    <tag k="ref:vcgi:esiteid" v="282860"/>
  </node>
  <node id="-536" visible="true" lat="43.09831825" lon="-72.44290073">
    <tag k="addr:city" v="Westminster"/>
    <tag k="addr:housenumber" v="6156"/>
    <tag k="addr:street" v="U.S. Route 5"/>
    <tag k="addr:state" v="VT"/>
    <tag k="ref:vcgi:esiteid" v="282867"/>
  </node>
  <node id="-538" visible="true" lat="43.09778213" lon="-72.44950103">
    <tag k="addr:city" v="Westminster"/>
    <tag k="addr:housenumber" v="326"/>
    <tag k="addr:street" v="Henwood Hill Road"/>
    <tag k="addr:state" v="VT"/>
    <tag k="ref:vcgi:esiteid" v="282869"/>
  </node>
  <node id="-539" visible="true" lat="43.09768453" lon="-72.44400352">
    <tag k="addr:city" v="Westminster"/>
    <tag k="addr:housenumber" v="6109"/>
    <tag k="addr:street" v="U.S. Route 5"/>
    <tag k="addr:state" v="VT"/>
    <tag k="ref:vcgi:esiteid" v="282870"/>
  </node>
  <node id="-540" visible="true" lat="43.09775829" lon="-72.48791534">
    <tag k="addr:city" v="Westminster"/>
    <tag k="addr:housenumber" v="475"/>
    <tag k="addr:street" v="Goat Hill"/>
    <tag k="addr:state" v="VT"/>
    <tag k="ref:vcgi:esiteid" v="282871"/>
  </node>
  <node id="-549" visible="true" lat="43.09651565" lon="-72.44429779">
    <tag k="addr:city" v="Westminster"/>
    <tag k="addr:housenumber" v="6023"/>
    <tag k="addr:street" v="U.S. Route 5"/>
    <tag k="addr:state" v="VT"/>
    <tag k="ref:vcgi:esiteid" v="282880"/>
  </node>
  <node id="-554" visible="true" lat="43.09605576" lon="-72.44447601">
    <tag k="addr:city" v="Westminster"/>
    <tag k="addr:housenumber" v="5983"/>
    <tag k="addr:street" v="U.S. Route 5"/>
    <tag k="addr:state" v="VT"/>
    <tag k="ref:vcgi:esiteid" v="282885"/>
  </node>
  <node id="-564" visible="true" lat="43.09442138" lon="-72.44595337">
    <tag k="addr:city" v="Westminster"/>
    <tag k="addr:housenumber" v="54"/>
    <tag k="addr:street" v="Buck Drive"/>
    <tag k="addr:state" v="VT"/>
    <tag k="ref:vcgi:esiteid" v="282896"/>
  </node>
  <node id="-565" visible="true" lat="43.09429931" lon="-72.44650268">
    <tag k="addr:city" v="Westminster"/>
    <tag k="addr:housenumber" v="78"/>
    <tag k="addr:street" v="Buck Drive"/>
    <tag k="addr:state" v="VT"/>
    <tag k="ref:vcgi:esiteid" v="282897"/>
  </node>
  <node id="-568" visible="true" lat="43.09407863" lon="-72.44753152">
    <tag k="addr:city" v="Westminster"/>
    <tag k="addr:housenumber" v="126"/>
    <tag k="addr:street" v="Buck Drive"/>
    <tag k="addr:state" v="VT"/>
    <tag k="ref:vcgi:esiteid" v="282900"/>
  </node>
  <node id="-572" visible="true" lat="43.09347713" lon="-72.44676465">
    <tag k="addr:city" v="Westminster"/>
    <tag k="addr:housenumber" v="91"/>
    <tag k="addr:street" v="Buck Drive"/>
    <tag k="addr:state" v="VT"/>
    <tag k="ref:vcgi:esiteid" v="282904"/>
  </node>
  <node id="-588" visible="true" lat="43.09262036" lon="-72.48777262">
    <tag k="addr:city" v="Westminster"/>
    <tag k="addr:housenumber" v="120"/>
    <tag k="addr:street" v="Goat Hill"/>
    <tag k="addr:state" v="VT"/>
    <tag k="ref:vcgi:esiteid" v="282920"/>
  </node>
  <node id="-589" visible="true" lat="43.09276946" lon="-72.48854317">
    <tag k="addr:city" v="Westminster"/>
    <tag k="addr:housenumber" v="111"/>
    <tag k="addr:street" v="Goat Hill"/>
    <tag k="addr:state" v="VT"/>
    <tag k="ref:vcgi:esiteid" v="282921"/>
  </node>
  <node id="-595" visible="true" lat="43.09233197" lon="-72.44357645">
    <tag k="addr:city" v="Westminster"/>
    <tag k="addr:housenumber" v="30"/>
    <tag k="addr:street" v="Westminster Housing"/>
    <tag k="addr:state" v="VT"/>
    <tag k="ref:vcgi:esiteid" v="282927"/>
  </node>
  <node id="-598" visible="true" lat="43.09206771" lon="-72.4441452">
    <tag k="addr:city" v="Westminster"/>
    <tag k="addr:housenumber" v="46"/>
    <tag k="addr:street" v="Westminster Housing"/>
    <tag k="addr:state" v="VT"/>
    <tag k="ref:vcgi:esiteid" v="282930"/>
  </node>
  <node id="-601" visible="true" lat="43.09203714" lon="-72.44323444">
    <tag k="addr:city" v="Westminster"/>
    <tag k="addr:housenumber" v="17"/>
    <tag k="addr:street" v="Westminster Housing"/>
    <tag k="addr:state" v="VT"/>
    <tag k="ref:vcgi:esiteid" v="282933"/>
  </node>
  <node id="-609" visible="true" lat="43.09169387" lon="-72.44249725">
    <tag k="addr:city" v="Westminster"/>
    <tag k="addr:housenumber" v="5685"/>
    <tag k="addr:street" v="U.S. Route 5"/>
    <tag k="addr:state" v="VT"/>
    <tag k="ref:vcgi:esiteid" v="282941"/>
  </node>
  <node id="-642" visible="true" lat="43.09018085" lon="-72.44684441">
    <tag k="addr:city" v="Westminster"/>
    <tag k="addr:housenumber" v="5699"/>
    <tag k="addr:street" v="U.S. Route 5"/>
    <tag k="addr:state" v="VT"/>
    <tag k="ref:vcgi:esiteid" v="282974"/>
  </node>
  <node id="-653" visible="true" lat="43.08952505" lon="-72.43935809">
    <tag k="addr:city" v="Westminster"/>
    <tag k="addr:housenumber" v="5413"/>
    <tag k="addr:street" v="U.S. Route 5"/>
    <tag k="addr:state" v="VT"/>
    <tag k="ref:vcgi:esiteid" v="282987"/>
  </node>
  <node id="-658" visible="true" lat="43.08917999" lon="-72.44096374">
    <tag k="addr:city" v="Westminster"/>
    <tag k="addr:housenumber" v="84"/>
    <tag k="addr:street" v="Graves Road"/>
    <tag k="addr:state" v="VT"/>
    <tag k="ref:vcgi:esiteid" v="282992"/>
  </node>
  <node id="-662" visible="true" lat="43.08885011" lon="-72.43920307">
    <tag k="addr:city" v="Westminster"/>
    <tag k="addr:housenumber" v="5371"/>
    <tag k="addr:street" v="U.S. Route 5"/>
    <tag k="addr:state" v="VT"/>
    <tag k="ref:vcgi:esiteid" v="282996"/>
  </node>
  <node id="-663" visible="true" lat="43.08818432" lon="-72.44041345">
    <tag k="addr:city" v="Westminster"/>
    <tag k="addr:housenumber" v="85"/>
    <tag k="addr:street" v="Graves Road"/>
    <tag k="addr:state" v="VT"/>
    <tag k="ref:vcgi:esiteid" v="282997"/>
  </node>
  <node id="-664" visible="true" lat="43.08869367" lon="-72.45552889">
    <tag k="addr:city" v="Westminster"/>
    <tag k="addr:housenumber" v="1308"/>
    <tag k="addr:street" v="Westminster Heights Road"/>
    <tag k="addr:state" v="VT"/>
    <tag k="ref:vcgi:esiteid" v="282998"/>
  </node>
  <node id="-666" visible="true" lat="43.08869882" lon="-72.43881704">
    <tag k="addr:city" v="Westminster"/>
    <tag k="addr:housenumber" v="5362"/>
    <tag k="addr:street" v="U.S. Route 5"/>
    <tag k="addr:state" v="VT"/>
    <tag k="ref:vcgi:esiteid" v="283000"/>
  </node>
  <node id="-669" visible="true" lat="43.08838869" lon="-72.45003925">
    <tag k="addr:city" v="Westminster"/>
    <tag k="addr:housenumber" v="481"/>
    <tag k="addr:street" v="Valley Brook Drive"/>
    <tag k="addr:state" v="VT"/>
    <tag k="ref:vcgi:esiteid" v="283003"/>
  </node>
  <node id="-671" visible="true" lat="43.08848879" lon="-72.43884373">
    <tag k="addr:city" v="Westminster"/>
    <tag k="addr:housenumber" v="5344"/>
    <tag k="addr:street" v="U.S. Route 5"/>
    <tag k="addr:state" v="VT"/>
    <tag k="ref:vcgi:esiteid" v="283005"/>
  </node>
  <node id="-672" visible="true" lat="43.08819431" lon="-72.44972396">
    <tag k="addr:city" v="Westminster"/>
    <tag k="addr:housenumber" v="484"/>
    <tag k="addr:street" v="Valley Brook Drive"/>
    <tag k="addr:state" v="VT"/>
    <tag k="ref:vcgi:esiteid" v="283006"/>
  </node>
  <node id="-673" visible="true" lat="43.08809084" lon="-72.45119235">
    <tag k="addr:city" v="Westminster"/>
    <tag k="addr:housenumber" v="413"/>
    <tag k="addr:street" v="Valley Brook Drive"/>
    <tag k="addr:state" v="VT"/>
    <tag k="ref:vcgi:esiteid" v="283007"/>
  </node>
  <node id="-675" visible="true" lat="43.0878774" lon="-72.45234394">
    <tag k="addr:city" v="Westminster"/>
    <tag k="addr:housenumber" v="330"/>
    <tag k="addr:street" v="Valley Brook Drive"/>
    <tag k="addr:state" v="VT"/>
    <tag k="ref:vcgi:esiteid" v="283009"/>
  </node>
  <node id="-679" visible="true" lat="43.08782196" lon="-72.45170593">
    <tag k="addr:city" v="Westminster"/>
    <tag k="addr:housenumber" v="382"/>
    <tag k="addr:street" v="Valley Brook Drive"/>
    <tag k="addr:state" v="VT"/>
    <tag k="ref:vcgi:esiteid" v="283013"/>
  </node>
  <node id="-681" visible="true" lat="43.08768627" lon="-72.45297461">
    <tag k="addr:city" v="Westminster"/>
    <tag k="addr:housenumber" v="292"/>
    <tag k="addr:street" v="Valley Brook Drive"/>
    <tag k="addr:state" v="VT"/>
    <tag k="ref:vcgi:esiteid" v="283015"/>
  </node>
  <node id="-682" visible="true" lat="43.08769663" lon="-72.45371293">
    <tag k="addr:city" v="Westminster"/>
    <tag k="addr:housenumber" v="266"/>
    <tag k="addr:street" v="Valley Brook Drive"/>
    <tag k="addr:state" v="VT"/>
    <tag k="ref:vcgi:esiteid" v="283016"/>
  </node>
  <node id="-683" visible="true" lat="43.08765665" lon="-72.43941566">
    <tag k="addr:city" v="Westminster"/>
    <tag k="addr:housenumber" v="5287"/>
    <tag k="addr:street" v="U.S. Route 5"/>
    <tag k="addr:state" v="VT"/>
    <tag k="ref:vcgi:esiteid" v="283017"/>
  </node>
  <node id="-687" visible="true" lat="43.08755089" lon="-72.43865971">
    <tag k="addr:city" v="Westminster"/>
    <tag k="addr:housenumber" v="5276"/>
    <tag k="addr:street" v="U.S. Route 5"/>
    <tag k="addr:state" v="VT"/>
    <tag k="ref:vcgi:esiteid" v="283021"/>
  </node>
  <node id="-688" visible="true" lat="43.08742141" lon="-72.45466613">
    <tag k="addr:city" v="Westminster"/>
    <tag k="addr:housenumber" v="208"/>
    <tag k="addr:street" v="Valley Brook Drive"/>
    <tag k="addr:state" v="VT"/>
    <tag k="ref:vcgi:esiteid" v="283022"/>
  </node>
  <node id="-690" visible="true" lat="43.0874776" lon="-72.4779008">
    <tag k="addr:city" v="Westminster"/>
    <tag k="addr:housenumber" v="99"/>
    <tag k="addr:street" v="Beakins Hill"/>
    <tag k="addr:state" v="VT"/>
    <tag k="ref:vcgi:esiteid" v="283024"/>
  </node>
  <node id="-691" visible="true" lat="43.08727356" lon="-72.45666977">
    <tag k="addr:city" v="Westminster"/>
    <tag k="addr:housenumber" v="91"/>
    <tag k="addr:street" v="Valley Brook Drive"/>
    <tag k="addr:state" v="VT"/>
    <tag k="ref:vcgi:esiteid" v="283025"/>
  </node>
  <node id="-693" visible="true" lat="43.08733556" lon="-72.45554301">
    <tag k="addr:city" v="Westminster"/>
    <tag k="addr:housenumber" v="161"/>
    <tag k="addr:street" v="Valley Brook Drive"/>
    <tag k="addr:state" v="VT"/>
    <tag k="ref:vcgi:esiteid" v="283027"/>
  </node>
  <node id="-694" visible="true" lat="43.08715593" lon="-72.45707468">
    <tag k="addr:city" v="Westminster"/>
    <tag k="addr:housenumber" v="83"/>
    <tag k="addr:street" v="Valley Brook Drive"/>
    <tag k="addr:state" v="VT"/>
    <tag k="ref:vcgi:esiteid" v="283028"/>
  </node>
  <node id="-696" visible="true" lat="43.08708465" lon="-72.45782654">
    <tag k="addr:city" v="Westminster"/>
    <tag k="addr:housenumber" v="23"/>
    <tag k="addr:street" v="Valley Brook Drive"/>
    <tag k="addr:state" v="VT"/>
    <tag k="ref:vcgi:esiteid" v="283030"/>
  </node>
  <node id="-699" visible="true" lat="43.08691495" lon="-72.43940646">
    <tag k="addr:city" v="Westminster"/>
    <tag k="addr:housenumber" v="5235"/>
    <tag k="addr:street" v="U.S. Route 5"/>
    <tag k="addr:state" v="VT"/>
    <tag k="ref:vcgi:esiteid" v="283033"/>
  </node>
  <node id="-705" visible="true" lat="43.08643085" lon="-72.45656327">
    <tag k="addr:city" v="Westminster"/>
    <tag k="addr:housenumber" v="746"/>
    <tag k="addr:street" v="Sand Hill Road"/>
    <tag k="addr:state" v="VT"/>
    <tag k="ref:vcgi:esiteid" v="283039"/>
  </node>
  <node id="-707" visible="true" lat="43.08654888" lon="-72.45702913">
    <tag k="addr:city" v="Westminster"/>
    <tag k="addr:housenumber" v="772"/>
    <tag k="addr:street" v="Sand Hill Road"/>
    <tag k="addr:state" v="VT"/>
    <tag k="ref:vcgi:esiteid" v="283041"/>
  </node>
  <node id="-708" visible="true" lat="43.08640215" lon="-72.45540686">
    <tag k="addr:city" v="Westminster"/>
    <tag k="addr:housenumber" v="23"/>
    <tag k="addr:street" v="Armory Lane"/>
    <tag k="addr:state" v="VT"/>
    <tag k="ref:vcgi:esiteid" v="283042"/>
  </node>
  <node id="-711" visible="true" lat="43.08623491" lon="-72.43928833">
    <tag k="addr:city" v="Westminster"/>
    <tag k="addr:housenumber" v="5187"/>
    <tag k="addr:street" v="U.S. Route 5"/>
    <tag k="addr:state" v="VT"/>
    <tag k="ref:vcgi:esiteid" v="283045"/>
  </node>
  <node id="-712" visible="true" lat="43.08621597" lon="-72.4387207">
    <tag k="addr:city" v="Westminster"/>
    <tag k="addr:housenumber" v="5190"/>
    <tag k="addr:street" v="U.S. Route 5"/>
    <tag k="addr:state" v="VT"/>
    <tag k="ref:vcgi:esiteid" v="283046"/>
  </node>
  <node id="-713" visible="true" lat="43.08613519" lon="-72.47880259">
    <tag k="addr:city" v="Westminster"/>
    <tag k="addr:housenumber" v="169"/>
    <tag k="addr:street" v="Beakins Hill"/>
    <tag k="addr:state" v="VT"/>
    <tag k="ref:vcgi:esiteid" v="283047"/>
  </node>
  <node id="-714" visible="true" lat="43.08606585" lon="-72.43940232">
    <tag k="addr:city" v="Westminster"/>
    <tag k="addr:housenumber" v="5181"/>
    <tag k="addr:street" v="U.S. Route 5"/>
    <tag k="addr:state" v="VT"/>
    <tag k="ref:vcgi:esiteid" v="283048"/>
  </node>
  <node id="-715" visible="true" lat="43.08597957" lon="-72.45831759">
    <tag k="addr:city" v="Westminster"/>
    <tag k="addr:housenumber" v="1058"/>
    <tag k="addr:street" v="Westminster Heights Road"/>
    <tag k="addr:state" v="VT"/>
    <tag k="ref:vcgi:esiteid" v="283049"/>
  </node>
  <node id="-717" visible="true" lat="43.08583394" lon="-72.45689653">
    <tag k="addr:city" v="Westminster"/>
    <tag k="addr:housenumber" v="757"/>
    <tag k="addr:street" v="Sand Hill Road"/>
    <tag k="addr:state" v="VT"/>
    <tag k="ref:vcgi:esiteid" v="283052"/>
  </node>
  <node id="-720" visible="true" lat="43.08554842" lon="-72.43949184">
    <tag k="addr:city" v="Westminster"/>
    <tag k="addr:housenumber" v="5137"/>
    <tag k="addr:street" v="U.S. Route 5"/>
    <tag k="addr:state" v="VT"/>
    <tag k="ref:vcgi:esiteid" v="283056"/>
  </node>
  <node id="-726" visible="true" lat="43.08522794" lon="-72.45952898">
    <tag k="addr:city" v="Westminster"/>
    <tag k="addr:housenumber" v="962"/>
    <tag k="addr:street" v="Westminster Heights Road"/>
    <tag k="addr:state" v="VT"/>
    <tag k="ref:vcgi:esiteid" v="283062"/>
  </node>
  <node id="-729" visible="true" lat="43.08500191" lon="-72.43997949">
    <tag k="addr:city" v="Westminster"/>
    <tag k="addr:housenumber" v="5091"/>
    <tag k="addr:street" v="U.S. Route 5"/>
    <tag k="addr:state" v="VT"/>
    <tag k="ref:vcgi:esiteid" v="283065"/>
  </node>
  <node id="-730" visible="true" lat="43.08505628" lon="-72.45971402">
    <tag k="addr:city" v="Westminster"/>
    <tag k="addr:housenumber" v="946"/>
    <tag k="addr:street" v="Westminster Heights Road"/>
    <tag k="addr:state" v="VT"/>
    <tag k="ref:vcgi:esiteid" v="283066"/>
  </node>
  <node id="-731" visible="true" lat="43.08496856" lon="-72.44290923">
    <tag k="addr:city" v="Westminster"/>
    <tag k="addr:housenumber" v="5003"/>
    <tag k="addr:street" v="U.S. Route 5"/>
    <tag k="addr:state" v="VT"/>
    <tag k="ref:vcgi:esiteid" v="283067"/>
  </node>
  <node id="-733" visible="true" lat="43.08481597" lon="-72.44021606">
    <tag k="addr:city" v="Westminster"/>
    <tag k="addr:housenumber" v="5069"/>
    <tag k="addr:street" v="U.S. Route 5"/>
    <tag k="addr:state" v="VT"/>
    <tag k="ref:vcgi:esiteid" v="283069"/>
  </node>
  <node id="-736" visible="true" lat="43.08451877" lon="-72.44055852">
    <tag k="addr:city" v="Westminster"/>
    <tag k="addr:housenumber" v="5041"/>
    <tag k="addr:street" v="U.S. Route 5"/>
    <tag k="addr:state" v="VT"/>
    <tag k="ref:vcgi:esiteid" v="283072"/>
  </node>
  <node id="-739" visible="true" lat="43.08420783" lon="-72.43979622">
    <tag k="addr:city" v="Westminster"/>
    <tag k="addr:housenumber" v="5052"/>
    <tag k="addr:street" v="U.S. Route 5"/>
    <tag k="addr:state" v="VT"/>
    <tag k="ref:vcgi:esiteid" v="283075"/>
  </node>
  <node id="-740" visible="true" lat="43.08406043" lon="-72.44001626">
    <tag k="addr:city" v="Westminster"/>
    <tag k="addr:housenumber" v="5028"/>
    <tag k="addr:street" v="U.S. Route 5"/>
    <tag k="addr:state" v="VT"/>
    <tag k="ref:vcgi:esiteid" v="283076"/>
  </node>
  <node id="-742" visible="true" lat="43.08393543" lon="-72.44114322">
    <tag k="addr:city" v="Westminster"/>
    <tag k="addr:housenumber" v="4987"/>
    <tag k="addr:street" v="U.S. Route 5"/>
    <tag k="addr:state" v="VT"/>
    <tag k="ref:vcgi:esiteid" v="283078"/>
  </node>
  <node id="-744" visible="true" lat="43.08355874" lon="-72.44157402">
    <tag k="addr:city" v="Westminster"/>
    <tag k="addr:housenumber" v="4961"/>
    <tag k="addr:street" v="U.S. Route 5"/>
    <tag k="addr:state" v="VT"/>
    <tag k="ref:vcgi:esiteid" v="283080"/>
  </node>
  <node id="-745" visible="true" lat="43.0833435" lon="-72.44068145">
    <tag k="addr:city" v="Westminster"/>
    <tag k="addr:housenumber" v="4976"/>
    <tag k="addr:street" v="U.S. Route 5"/>
    <tag k="addr:state" v="VT"/>
    <tag k="ref:vcgi:esiteid" v="283082"/>
  </node>
  <node id="-748" visible="true" lat="43.08316426" lon="-72.44205661">
    <tag k="addr:city" v="Westminster"/>
    <tag k="addr:housenumber" v="4923"/>
    <tag k="addr:street" v="U.S. Route 5"/>
    <tag k="addr:state" v="VT"/>
    <tag k="ref:vcgi:esiteid" v="283085"/>
  </node>
  <node id="-755" visible="true" lat="43.08261108" lon="-72.46094512">
    <tag k="addr:city" v="Westminster"/>
    <tag k="addr:housenumber" v="770"/>
    <tag k="addr:street" v="Westminster Heights Road"/>
    <tag k="addr:state" v="VT"/>
    <tag k="ref:vcgi:esiteid" v="283092"/>
  </node>
  <node id="-758" visible="true" lat="43.08247147" lon="-72.44152574">
    <tag k="addr:city" v="Westminster"/>
    <tag k="addr:housenumber" v="4878"/>
    <tag k="addr:street" v="U.S. Route 5"/>
    <tag k="addr:state" v="VT"/>
    <tag k="ref:vcgi:esiteid" v="283095"/>
  </node>
  <node id="-759" visible="true" lat="43.08183669" lon="-72.46134185">
    <tag k="addr:city" v="Westminster"/>
    <tag k="addr:housenumber" v="714"/>
    <tag k="addr:street" v="Westminster Heights Road"/>
    <tag k="addr:state" v="VT"/>
    <tag k="ref:vcgi:esiteid" v="283096"/>
  </node>
  <node id="-761" visible="true" lat="43.0811119" lon="-72.46134948">
    <tag k="addr:city" v="Westminster"/>
    <tag k="addr:housenumber" v="662"/>
    <tag k="addr:street" v="Westminster Heights Road"/>
    <tag k="addr:state" v="VT"/>
    <tag k="ref:vcgi:esiteid" v="283098"/>
  </node>
  <node id="-767" visible="true" lat="43.08030319" lon="-72.46218872">
    <tag k="addr:city" v="Westminster"/>
    <tag k="addr:housenumber" v="596"/>
    <tag k="addr:street" v="Westminster Heights Road"/>
    <tag k="addr:state" v="VT"/>
    <tag k="ref:vcgi:esiteid" v="283104"/>
  </node>
  <node id="-771" visible="true" lat="43.0799179" lon="-72.44462585">
    <tag k="addr:city" v="Westminster"/>
    <tag k="addr:housenumber" v="4668"/>
    <tag k="addr:street" v="U.S. Route 5"/>
    <tag k="addr:state" v="VT"/>
    <tag k="ref:vcgi:esiteid" v="283108"/>
  </node>
  <node id="-774" visible="true" lat="43.07930061" lon="-72.44390435">
    <tag k="addr:city" v="Westminster"/>
    <tag k="addr:housenumber" v="4650"/>
    <tag k="addr:street" v="U.S. Route 5"/>
    <tag k="addr:state" v="VT"/>
    <tag k="ref:vcgi:esiteid" v="283111"/>
  </node>
  <node id="-776" visible="true" lat="43.07929611" lon="-72.46315002">
    <tag k="addr:city" v="Westminster"/>
    <tag k="addr:housenumber" v="515"/>
    <tag k="addr:street" v="Westminster Heights Road"/>
    <tag k="addr:state" v="VT"/>
    <tag k="ref:vcgi:esiteid" v="283113"/>
  </node>
  <node id="-780" visible="true" lat="43.0788269" lon="-72.44687652">
    <tag k="addr:city" v="Westminster"/>
    <tag k="addr:housenumber" v="4533"/>
    <tag k="addr:street" v="U.S. Route 5"/>
    <tag k="addr:state" v="VT"/>
    <tag k="ref:vcgi:esiteid" v="283117"/>
  </node>
  <node id="-783" visible="true" lat="43.07863998" lon="-72.44615173">
    <tag k="addr:city" v="Westminster"/>
    <tag k="addr:housenumber" v="4548"/>
    <tag k="addr:street" v="U.S. Route 5"/>
    <tag k="addr:state" v="VT"/>
    <tag k="ref:vcgi:esiteid" v="283120"/>
  </node>
  <node id="-784" visible="true" lat="43.07853317" lon="-72.46258544">
    <tag k="addr:city" v="Westminster"/>
    <tag k="addr:housenumber" v="480"/>
    <tag k="addr:street" v="Westminster Heights Road"/>
    <tag k="addr:state" v="VT"/>
    <tag k="ref:vcgi:esiteid" v="283121"/>
  </node>
  <node id="-791" visible="true" lat="43.07793045" lon="-72.44688415">
    <tag k="addr:city" v="Westminster"/>
    <tag k="addr:housenumber" v="4486"/>
    <tag k="addr:street" v="U.S. Route 5"/>
    <tag k="addr:state" v="VT"/>
    <tag k="ref:vcgi:esiteid" v="283128"/>
  </node>
  <node id="-799" visible="true" lat="43.07741546" lon="-72.46385955">
    <tag k="addr:city" v="Westminster"/>
    <tag k="addr:housenumber" v="376"/>
    <tag k="addr:street" v="Westminster Heights Road"/>
    <tag k="addr:state" v="VT"/>
    <tag k="ref:vcgi:esiteid" v="283136"/>
  </node>
  <node id="-801" visible="true" lat="43.07725524" lon="-72.53729248">
    <tag k="addr:city" v="Westminster"/>
    <tag k="addr:housenumber" v="4348"/>
    <tag k="addr:street" v="Westminster West Road"/>
    <tag k="addr:state" v="VT"/>
    <tag k="ref:vcgi:esiteid" v="283138"/>
  </node>
  <node id="-805" visible="true" lat="43.07691192" lon="-72.46401214">
    <tag k="addr:city" v="Westminster"/>
    <tag k="addr:housenumber" v="342"/>
    <tag k="addr:street" v="Westminster Heights Road"/>
    <tag k="addr:state" v="VT"/>
    <tag k="ref:vcgi:esiteid" v="283143"/>
  </node>
  <node id="-808" visible="true" lat="43.07633729" lon="-72.5374323">
    <tag k="addr:city" v="Westminster"/>
    <tag k="addr:housenumber" v="4234"/>
    <tag k="addr:street" v="Westminster West Road"/>
    <tag k="addr:state" v="VT"/>
    <tag k="ref:vcgi:esiteid" v="283146"/>
  </node>
  <node id="-809" visible="true" lat="43.07616304" lon="-72.449862">
    <tag k="addr:city" v="Westminster"/>
    <tag k="addr:housenumber" v="4295"/>
    <tag k="addr:street" v="U.S. Route 5"/>
    <tag k="addr:state" v="VT"/>
    <tag k="ref:vcgi:esiteid" v="283147"/>
  </node>
  <node id="-811" visible="true" lat="43.07587051" lon="-72.44916534">
    <tag k="addr:city" v="Westminster"/>
    <tag k="addr:housenumber" v="4304"/>
    <tag k="addr:street" v="U.S. Route 5"/>
    <tag k="addr:state" v="VT"/>
    <tag k="ref:vcgi:esiteid" v="283149"/>
  </node>
  <node id="-812" visible="true" lat="43.07585907" lon="-72.45006561">
    <tag k="addr:city" v="Westminster"/>
    <tag k="addr:housenumber" v="4273"/>
    <tag k="addr:street" v="U.S. Route 5"/>
    <tag k="addr:state" v="VT"/>
    <tag k="ref:vcgi:esiteid" v="283150"/>
  </node>
  <node id="-813" visible="true" lat="43.07575607" lon="-72.53585052">
    <tag k="addr:city" v="Westminster"/>
    <tag k="addr:housenumber" v="153"/>
    <tag k="addr:street" v="Dorsch Hill"/>
    <tag k="addr:state" v="VT"/>
    <tag k="ref:vcgi:esiteid" v="283151"/>
  </node>
  <node id="-814" visible="true" lat="43.07574844" lon="-72.53967285">
    <tag k="addr:city" v="Westminster"/>
    <tag k="addr:housenumber" v="621"/>
    <tag k="addr:street" v="South Goddard Road"/>
    <tag k="addr:state" v="VT"/>
    <tag k="ref:vcgi:esiteid" v="283152"/>
  </node>
  <node id="-816" visible="true" lat="43.07564163" lon="-72.44960784">
    <tag k="addr:city" v="Westminster"/>
    <tag k="addr:housenumber" v="4276"/>
    <tag k="addr:street" v="U.S. Route 5"/>
    <tag k="addr:state" v="VT"/>
    <tag k="ref:vcgi:esiteid" v="283154"/>
  </node>
  <node id="-818" visible="true" lat="43.07556915" lon="-72.45048522">
    <tag k="addr:city" v="Westminster"/>
    <tag k="addr:housenumber" v="4245"/>
    <tag k="addr:street" v="U.S. Route 5"/>
    <tag k="addr:state" v="VT"/>
    <tag k="ref:vcgi:esiteid" v="283156"/>
  </node>
  <node id="-820" visible="true" lat="43.07547378" lon="-72.44976806">
    <tag k="addr:city" v="Westminster"/>
    <tag k="addr:housenumber" v="4262"/>
    <tag k="addr:street" v="U.S. Route 5"/>
    <tag k="addr:state" v="VT"/>
    <tag k="ref:vcgi:esiteid" v="283158"/>
  </node>
  <node id="-823" visible="true" lat="43.07554459" lon="-72.47172157">
    <tag k="addr:city" v="Westminster"/>
    <tag k="addr:housenumber" v="50"/>
    <tag k="addr:street" v="Cold Spring Hill"/>
    <tag k="addr:state" v="VT"/>
    <tag k="ref:vcgi:esiteid" v="283161"/>
  </node>
  <node id="-826" visible="true" lat="43.07518522" lon="-72.45125638">
    <tag k="addr:city" v="Westminster"/>
    <tag k="addr:housenumber" v="4203"/>
    <tag k="addr:street" v="U.S. Route 5"/>
    <tag k="addr:state" v="VT"/>
    <tag k="ref:vcgi:esiteid" v="283164"/>
  </node>
  <node id="-827" visible="true" lat="43.07499313" lon="-72.44997406">
    <tag k="addr:city" v="Westminster"/>
    <tag k="addr:housenumber" v="25"/>
    <tag k="addr:street" v="Hackett Lane"/>
    <tag k="addr:state" v="VT"/>
    <tag k="ref:vcgi:esiteid" v="283165"/>
  </node>
  <node id="-831" visible="true" lat="43.07460784" lon="-72.45030975">
    <tag k="addr:city" v="Westminster"/>
    <tag k="addr:housenumber" v="4198"/>
    <tag k="addr:street" v="U.S. Route 5"/>
    <tag k="addr:state" v="VT"/>
    <tag k="ref:vcgi:esiteid" v="283169"/>
  </node>
  <node id="-833" visible="true" lat="43.0744667" lon="-72.44902038">
    <tag k="addr:city" v="Westminster"/>
    <tag k="addr:housenumber" v="89"/>
    <tag k="addr:street" v="Hackett Lane"/>
    <tag k="addr:state" v="VT"/>
    <tag k="ref:vcgi:esiteid" v="283171"/>
  </node>
  <node id="-834" visible="true" lat="43.07440948" lon="-72.53793335">
    <tag k="addr:city" v="Westminster"/>
    <tag k="addr:housenumber" v="78"/>
    <tag k="addr:street" v="Dorsch Hill"/>
    <tag k="addr:state" v="VT"/>
    <tag k="ref:vcgi:esiteid" v="283172"/>
  </node>
  <node id="-835" visible="true" lat="43.07421874" lon="-72.44855499">
    <tag k="addr:city" v="Westminster"/>
    <tag k="addr:housenumber" v="111"/>
    <tag k="addr:street" v="Hackett Lane"/>
    <tag k="addr:state" v="VT"/>
    <tag k="ref:vcgi:esiteid" v="283173"/>
  </node>
  <node id="-840" visible="true" lat="43.07388687" lon="-72.53624725">
    <tag k="addr:city" v="Westminster"/>
    <tag k="addr:housenumber" v="238"/>
    <tag k="addr:street" v="Dorsch Hill"/>
    <tag k="addr:state" v="VT"/>
    <tag k="ref:vcgi:esiteid" v="283178"/>
  </node>
  <node id="-844" visible="true" lat="43.07369585" lon="-72.47099475">
    <tag k="addr:city" v="Westminster"/>
    <tag k="addr:housenumber" v="23"/>
    <tag k="addr:street" v="Cold Spring Hill"/>
    <tag k="addr:state" v="VT"/>
    <tag k="ref:vcgi:esiteid" v="283182"/>
  </node>
  <node id="-850" visible="true" lat="43.07331792" lon="-72.5348022">
    <tag k="addr:city" v="Westminster"/>
    <tag k="addr:housenumber" v="329"/>
    <tag k="addr:street" v="Dorsch Hill"/>
    <tag k="addr:state" v="VT"/>
    <tag k="ref:vcgi:esiteid" v="283188"/>
  </node>
  <node id="-854" visible="true" lat="43.07304382" lon="-72.53908538">
    <tag k="addr:city" v="Westminster"/>
    <tag k="addr:housenumber" v="4004"/>
    <tag k="addr:street" v="Westminster West Road"/>
    <tag k="addr:state" v="VT"/>
    <tag k="ref:vcgi:esiteid" v="283192"/>
  </node>
  <node id="-859" visible="true" lat="43.07289123" lon="-72.47245788">
    <tag k="addr:city" v="Westminster"/>
    <tag k="addr:housenumber" v="119"/>
    <tag k="addr:street" v="Cold Spring Hill"/>
    <tag k="addr:state" v="VT"/>
    <tag k="ref:vcgi:esiteid" v="283197"/>
  </node>
  <node id="-870" visible="true" lat="43.07215881" lon="-72.45496368">
    <tag k="addr:city" v="Westminster"/>
    <tag k="addr:housenumber" v="47"/>
    <tag k="addr:street" v="Old Cemetery Road"/>
    <tag k="addr:state" v="VT"/>
    <tag k="ref:vcgi:esiteid" v="283208"/>
  </node>
  <node id="-872" visible="true" lat="43.07205581" lon="-72.54064941">
    <tag k="addr:city" v="Westminster"/>
    <tag k="addr:housenumber" v="3913"/>
    <tag k="addr:street" v="Westminster West Road"/>
    <tag k="addr:state" v="VT"/>
    <tag k="ref:vcgi:esiteid" v="283210"/>
  </node>
  <node id="-875" visible="true" lat="43.0719223" lon="-72.5362091">
    <tag k="addr:city" v="Westminster"/>
    <tag k="addr:housenumber" v="410"/>
    <tag k="addr:street" v="Dorsch Hill"/>
    <tag k="addr:state" v="VT"/>
    <tag k="ref:vcgi:esiteid" v="283213"/>
  </node>
  <node id="-877" visible="true" lat="43.07183838" lon="-72.45368194">
    <tag k="addr:city" v="Westminster"/>
    <tag k="addr:housenumber" v="58"/>
    <tag k="addr:street" v="Shattuck Road"/>
    <tag k="addr:state" v="VT"/>
    <tag k="ref:vcgi:esiteid" v="283215"/>
  </node>
  <node id="-879" visible="true" lat="43.07172775" lon="-72.45456695">
    <tag k="addr:city" v="Westminster"/>
    <tag k="addr:housenumber" v="48"/>
    <tag k="addr:street" v="Old Cemetery Road"/>
    <tag k="addr:state" v="VT"/>
    <tag k="ref:vcgi:esiteid" v="283217"/>
  </node>
  <node id="-880" visible="true" lat="43.07177584" lon="-72.46471971">
    <tag k="addr:city" v="Westminster"/>
    <tag k="addr:housenumber" v="410"/>
    <tag k="addr:street" v="School Street"/>
    <tag k="addr:state" v="VT"/>
    <tag k="ref:vcgi:esiteid" v="283218"/>
  </node>
  <node id="-883" visible="true" lat="43.07160186" lon="-72.46516418">
    <tag k="addr:city" v="Westminster"/>
    <tag k="addr:housenumber" v="12"/>
    <tag k="addr:street" v="Thompson Road"/>
    <tag k="addr:state" v="VT"/>
    <tag k="ref:vcgi:esiteid" v="283221"/>
  </node>
  <node id="-885" visible="true" lat="43.07146453" lon="-72.46401977">
    <tag k="addr:city" v="Westminster"/>
    <tag k="addr:housenumber" v="374"/>
    <tag k="addr:street" v="School Street"/>
    <tag k="addr:state" v="VT"/>
    <tag k="ref:vcgi:esiteid" v="283223"/>
  </node>
  <node id="-886" visible="true" lat="43.07145258" lon="-72.4652638">
    <tag k="addr:city" v="Westminster"/>
    <tag k="addr:housenumber" v="26"/>
    <tag k="addr:street" v="Thompson Road"/>
    <tag k="addr:state" v="VT"/>
    <tag k="ref:vcgi:esiteid" v="283224"/>
  </node>
  <node id="-894" visible="true" lat="43.07136498" lon="-72.46479431">
    <tag k="addr:city" v="Westminster"/>
    <tag k="addr:housenumber" v="25"/>
    <tag k="addr:street" v="Thompson Road"/>
    <tag k="addr:state" v="VT"/>
    <tag k="ref:vcgi:esiteid" v="283232"/>
  </node>
  <node id="-895" visible="true" lat="43.07123184" lon="-72.4551239">
    <tag k="addr:city" v="Westminster"/>
    <tag k="addr:housenumber" v="13"/>
    <tag k="addr:street" v="Old Cemetery Road"/>
    <tag k="addr:state" v="VT"/>
    <tag k="ref:vcgi:esiteid" v="283233"/>
  </node>
  <node id="-897" visible="true" lat="43.07111358" lon="-72.45406341">
    <tag k="addr:city" v="Westminster"/>
    <tag k="addr:housenumber" v="3892"/>
    <tag k="addr:street" v="U.S. Route 5"/>
    <tag k="addr:state" v="VT"/>
    <tag k="ref:vcgi:esiteid" v="283235"/>
  </node>
  <node id="-900" visible="true" lat="43.07107466" lon="-72.45537937">
    <tag k="addr:city" v="Westminster"/>
    <tag k="addr:housenumber" v="3849"/>
    <tag k="addr:street" v="U.S. Route 5"/>
    <tag k="addr:state" v="VT"/>
    <tag k="ref:vcgi:esiteid" v="283238"/>
  </node>
  <node id="-903" visible="true" lat="43.07099151" lon="-72.45455169">
    <tag k="addr:city" v="Westminster"/>
    <tag k="addr:housenumber" v="3870"/>
    <tag k="addr:street" v="U.S. Route 5"/>
    <tag k="addr:state" v="VT"/>
    <tag k="ref:vcgi:esiteid" v="283241"/>
  </node>
  <node id="-905" visible="true" lat="43.07083521" lon="-72.46757618">
    <tag k="addr:city" v="Westminster"/>
    <tag k="addr:housenumber" v="111"/>
    <tag k="addr:street" v="Kurn Hattin Road"/>
    <tag k="addr:state" v="VT"/>
    <tag k="ref:vcgi:esiteid" v="283243"/>
  </node>
  <node id="-906" visible="true" lat="43.07095718" lon="-72.46569061">
    <tag k="addr:city" v="Westminster"/>
    <tag k="addr:housenumber" v="66"/>
    <tag k="addr:street" v="Thompson Road"/>
    <tag k="addr:state" v="VT"/>
    <tag k="ref:vcgi:esiteid" v="283244"/>
  </node>
  <node id="-908" visible="true" lat="43.0707817" lon="-72.45573425">
    <tag k="addr:city" v="Westminster"/>
    <tag k="addr:housenumber" v="17"/>
    <tag k="addr:street" v="Welcome Drive"/>
    <tag k="addr:state" v="VT"/>
    <tag k="ref:vcgi:esiteid" v="283246"/>
  </node>
  <node id="-910" visible="true" lat="43.07059097" lon="-72.45598602">
    <tag k="addr:city" v="Westminster"/>
    <tag k="addr:housenumber" v="3801"/>
    <tag k="addr:street" v="U.S. Route 5"/>
    <tag k="addr:state" v="VT"/>
    <tag k="ref:vcgi:esiteid" v="283248"/>
  </node>
  <node id="-911" visible="true" lat="43.07058715" lon="-72.54434966">
    <tag k="addr:city" v="Westminster"/>
    <tag k="addr:housenumber" v="90"/>
    <tag k="addr:street" v="Wright Way"/>
    <tag k="addr:state" v="VT"/>
    <tag k="ref:vcgi:esiteid" v="283249"/>
  </node>
  <node id="-915" visible="true" lat="43.07050704" lon="-72.45509338">
    <tag k="addr:city" v="Westminster"/>
    <tag k="addr:housenumber" v="3826"/>
    <tag k="addr:street" v="U.S. Route 5"/>
    <tag k="addr:state" v="VT"/>
    <tag k="ref:vcgi:esiteid" v="283253"/>
  </node>
  <node id="-918" visible="true" lat="43.07032012" lon="-72.54068756">
    <tag k="addr:city" v="Westminster"/>
    <tag k="addr:housenumber" v="3796"/>
    <tag k="addr:street" v="Westminster West Road"/>
    <tag k="addr:state" v="VT"/>
    <tag k="ref:vcgi:esiteid" v="283256"/>
  </node>
  <node id="-919" visible="true" lat="43.07028017" lon="-72.46368082">
    <tag k="addr:city" v="Westminster"/>
    <tag k="addr:housenumber" v="301"/>
    <tag k="addr:street" v="School Street"/>
    <tag k="addr:state" v="VT"/>
    <tag k="ref:vcgi:esiteid" v="283257"/>
  </node>
  <node id="-920" visible="true" lat="43.07029724" lon="-72.45533752">
    <tag k="addr:city" v="Westminster"/>
    <tag k="addr:housenumber" v="3806"/>
    <tag k="addr:street" v="U.S. Route 5"/>
    <tag k="addr:state" v="VT"/>
    <tag k="ref:vcgi:esiteid" v="283258"/>
  </node>
  <node id="-924" visible="true" lat="43.07011795" lon="-72.45656585">
    <tag k="addr:city" v="Westminster"/>
    <tag k="addr:housenumber" v="3759"/>
    <tag k="addr:street" v="U.S. Route 5"/>
    <tag k="addr:state" v="VT"/>
    <tag k="ref:vcgi:esiteid" v="283262"/>
  </node>
  <node id="-926" visible="true" lat="43.07006454" lon="-72.45561981">
    <tag k="addr:city" v="Westminster"/>
    <tag k="addr:housenumber" v="3784"/>
    <tag k="addr:street" v="U.S. Route 5"/>
    <tag k="addr:state" v="VT"/>
    <tag k="ref:vcgi:esiteid" v="283264"/>
  </node>
  <node id="-927" visible="true" lat="43.06988906" lon="-72.4567337">
    <tag k="addr:city" v="Westminster"/>
    <tag k="addr:housenumber" v="3741"/>
    <tag k="addr:street" v="U.S. Route 5"/>
    <tag k="addr:state" v="VT"/>
    <tag k="ref:vcgi:esiteid" v="283265"/>
  </node>
  <node id="-928" visible="true" lat="43.06986999" lon="-72.53890228">
    <tag k="addr:city" v="Westminster"/>
    <tag k="addr:housenumber" v="219"/>
    <tag k="addr:street" v="Gregg Road"/>
    <tag k="addr:state" v="VT"/>
    <tag k="ref:vcgi:esiteid" v="283266"/>
  </node>
  <node id="-929" visible="true" lat="43.06986999" lon="-72.46230316">
    <tag k="addr:city" v="Westminster"/>
    <tag k="addr:housenumber" v="235"/>
    <tag k="addr:street" v="School Street"/>
    <tag k="addr:state" v="VT"/>
    <tag k="ref:vcgi:esiteid" v="283267"/>
  </node>
  <node id="-931" visible="true" lat="43.0697937" lon="-72.45581817">
    <tag k="addr:city" v="Westminster"/>
    <tag k="addr:housenumber" v="3766"/>
    <tag k="addr:street" v="U.S. Route 5"/>
    <tag k="addr:state" v="VT"/>
    <tag k="ref:vcgi:esiteid" v="283269"/>
  </node>
  <node id="-933" visible="true" lat="43.06973648" lon="-72.45693206">
    <tag k="addr:city" v="Westminster"/>
    <tag k="addr:housenumber" v="3725"/>
    <tag k="addr:street" v="U.S. Route 5"/>
    <tag k="addr:state" v="VT"/>
    <tag k="ref:vcgi:esiteid" v="283271"/>
  </node>
  <node id="-937" visible="true" lat="43.06953811" lon="-72.4571228">
    <tag k="addr:city" v="Westminster"/>
    <tag k="addr:housenumber" v="3709"/>
    <tag k="addr:street" v="U.S. Route 5"/>
    <tag k="addr:state" v="VT"/>
    <tag k="ref:vcgi:esiteid" v="283275"/>
  </node>
  <node id="-938" visible="true" lat="43.06946945" lon="-72.45610046">
    <tag k="addr:city" v="Westminster"/>
    <tag k="addr:housenumber" v="3738"/>
    <tag k="addr:street" v="U.S. Route 5"/>
    <tag k="addr:state" v="VT"/>
    <tag k="ref:vcgi:esiteid" v="283276"/>
  </node>
  <node id="-941" visible="true" lat="43.06947513" lon="-72.54412755">
    <tag k="addr:city" v="Westminster"/>
    <tag k="addr:housenumber" v="100"/>
    <tag k="addr:street" v="Wright Way"/>
    <tag k="addr:state" v="VT"/>
    <tag k="ref:vcgi:esiteid" v="283279"/>
  </node>
  <node id="-943" visible="true" lat="43.06939315" lon="-72.54164123">
    <tag k="addr:city" v="Westminster"/>
    <tag k="addr:housenumber" v="33"/>
    <tag k="addr:street" v="Wright Way"/>
    <tag k="addr:state" v="VT"/>
    <tag k="ref:vcgi:esiteid" v="283281"/>
  </node>
  <node id="-944" visible="true" lat="43.06930923" lon="-72.46314239">
    <tag k="addr:city" v="Westminster"/>
    <tag k="addr:housenumber" v="76"/>
    <tag k="addr:street" v="Jennison Drive"/>
    <tag k="addr:state" v="VT"/>
    <tag k="ref:vcgi:esiteid" v="283282"/>
  </node>
  <node id="-945" visible="true" lat="43.06929016" lon="-72.54060363">
    <tag k="addr:city" v="Westminster"/>
    <tag k="addr:housenumber" v="3724"/>
    <tag k="addr:street" v="Westminster West Road"/>
    <tag k="addr:state" v="VT"/>
    <tag k="ref:vcgi:esiteid" v="283283"/>
  </node>
  <node id="-948" visible="true" lat="43.06923294" lon="-72.45650482">
    <tag k="addr:city" v="Westminster"/>
    <tag k="addr:housenumber" v="3712"/>
    <tag k="addr:street" v="U.S. Route 5"/>
    <tag k="addr:state" v="VT"/>
    <tag k="ref:vcgi:esiteid" v="283286"/>
  </node>
  <node id="-949" visible="true" lat="43.06921005" lon="-72.45757293">
    <tag k="addr:city" v="Westminster"/>
    <tag k="addr:housenumber" v="3677"/>
    <tag k="addr:street" v="U.S. Route 5"/>
    <tag k="addr:state" v="VT"/>
    <tag k="ref:vcgi:esiteid" v="283287"/>
  </node>
  <node id="-950" visible="true" lat="43.06910705" lon="-72.46004486">
    <tag k="addr:city" v="Westminster"/>
    <tag k="addr:housenumber" v="116"/>
    <tag k="addr:street" v="School Street"/>
    <tag k="addr:state" v="VT"/>
    <tag k="ref:vcgi:esiteid" v="283288"/>
  </node>
  <node id="-952" visible="true" lat="43.06896591" lon="-72.45677185">
    <tag k="addr:city" v="Westminster"/>
    <tag k="addr:housenumber" v="3690"/>
    <tag k="addr:street" v="U.S. Route 5"/>
    <tag k="addr:state" v="VT"/>
    <tag k="ref:vcgi:esiteid" v="283290"/>
  </node>
  <node id="-953" visible="true" lat="43.06893539" lon="-72.46365356">
    <tag k="addr:city" v="Westminster"/>
    <tag k="addr:housenumber" v="114"/>
    <tag k="addr:street" v="Jennison Drive"/>
    <tag k="addr:state" v="VT"/>
    <tag k="ref:vcgi:esiteid" v="283291"/>
  </node>
  <node id="-957" visible="true" lat="43.0688591" lon="-72.45787048">
    <tag k="addr:city" v="Westminster"/>
    <tag k="addr:housenumber" v="3651"/>
    <tag k="addr:street" v="U.S. Route 5"/>
    <tag k="addr:state" v="VT"/>
    <tag k="ref:vcgi:esiteid" v="283295"/>
  </node>
  <node id="-958" visible="true" lat="43.06880187" lon="-72.46058654">
    <tag k="addr:city" v="Westminster"/>
    <tag k="addr:housenumber" v="121"/>
    <tag k="addr:street" v="School Street"/>
    <tag k="addr:state" v="VT"/>
    <tag k="ref:vcgi:esiteid" v="283296"/>
  </node>
  <node id="-960" visible="true" lat="43.0687561" lon="-72.45963287">
    <tag k="addr:city" v="Westminster"/>
    <tag k="addr:housenumber" v="82"/>
    <tag k="addr:street" v="School Street"/>
    <tag k="addr:state" v="VT"/>
    <tag k="ref:vcgi:esiteid" v="283298"/>
  </node>
  <node id="-961" visible="true" lat="43.06872558" lon="-72.54364776">
    <tag k="addr:city" v="Westminster"/>
    <tag k="addr:housenumber" v="160"/>
    <tag k="addr:street" v="Wright Way"/>
    <tag k="addr:state" v="VT"/>
    <tag k="ref:vcgi:esiteid" v="283299"/>
  </node>
  <node id="-962" visible="true" lat="43.0686798" lon="-72.45946502">
    <tag k="addr:city" v="Westminster"/>
    <tag k="addr:housenumber" v="74"/>
    <tag k="addr:street" v="School Street"/>
    <tag k="addr:state" v="VT"/>
    <tag k="ref:vcgi:esiteid" v="283300"/>
  </node>
  <node id="-963" visible="true" lat="43.06862643" lon="-72.45690042">
    <tag k="addr:city" v="Westminster"/>
    <tag k="addr:housenumber" v="3658"/>
    <tag k="addr:street" v="U.S. Route 5"/>
    <tag k="addr:state" v="VT"/>
    <tag k="ref:vcgi:esiteid" v="283301"/>
  </node>
  <node id="-964" visible="true" lat="43.06860732" lon="-72.45935821">
    <tag k="addr:city" v="Westminster"/>
    <tag k="addr:housenumber" v="66"/>
    <tag k="addr:street" v="School Street"/>
    <tag k="addr:state" v="VT"/>
    <tag k="ref:vcgi:esiteid" v="283302"/>
  </node>
  <node id="-965" visible="true" lat="43.06855773" lon="-72.46033477">
    <tag k="addr:city" v="Westminster"/>
    <tag k="addr:housenumber" v="103"/>
    <tag k="addr:street" v="School Street"/>
    <tag k="addr:state" v="VT"/>
    <tag k="ref:vcgi:esiteid" v="283303"/>
  </node>
  <node id="-966" visible="true" lat="43.06860089" lon="-72.45830801">
    <tag k="addr:city" v="Westminster"/>
    <tag k="addr:housenumber" v="3619"/>
    <tag k="addr:street" v="U.S. Route 5"/>
    <tag k="addr:state" v="VT"/>
    <tag k="ref:vcgi:esiteid" v="283304"/>
  </node>
  <node id="-967" visible="true" lat="43.06850051" lon="-72.45734405">
    <tag k="addr:city" v="Westminster"/>
    <tag k="addr:housenumber" v="3646"/>
    <tag k="addr:street" v="U.S. Route 5"/>
    <tag k="addr:state" v="VT"/>
    <tag k="ref:vcgi:esiteid" v="283305"/>
  </node>
  <node id="-968" visible="true" lat="43.06846237" lon="-72.45987701">
    <tag k="addr:city" v="Westminster"/>
    <tag k="addr:housenumber" v="79"/>
    <tag k="addr:street" v="School Street"/>
    <tag k="addr:state" v="VT"/>
    <tag k="ref:vcgi:esiteid" v="283306"/>
  </node>
  <node id="-969" visible="true" lat="43.06841278" lon="-72.46409606">
    <tag k="addr:city" v="Westminster"/>
    <tag k="addr:housenumber" v="128"/>
    <tag k="addr:street" v="Jennison Drive"/>
    <tag k="addr:state" v="VT"/>
    <tag k="ref:vcgi:esiteid" v="283307"/>
  </node>
  <node id="-971" visible="true" lat="43.06832122" lon="-72.45761871">
    <tag k="addr:city" v="Westminster"/>
    <tag k="addr:housenumber" v="3628"/>
    <tag k="addr:street" v="U.S. Route 5"/>
    <tag k="addr:state" v="VT"/>
    <tag k="ref:vcgi:esiteid" v="283309"/>
  </node>
  <node id="-972" visible="true" lat="43.06828308" lon="-72.46045684">
    <tag k="addr:city" v="Westminster"/>
    <tag k="addr:housenumber" v="97"/>
    <tag k="addr:street" v="School Street"/>
    <tag k="addr:state" v="VT"/>
    <tag k="ref:vcgi:esiteid" v="283310"/>
  </node>
  <node id="-973" visible="true" lat="43.0682106" lon="-72.45866394">
    <tag k="addr:city" v="Westminster"/>
    <tag k="addr:housenumber" v="22"/>
    <tag k="addr:street" v="School Street"/>
    <tag k="addr:state" v="VT"/>
    <tag k="ref:vcgi:esiteid" v="283311"/>
  </node>
  <node id="-975" visible="true" lat="43.06803893" lon="-72.45779418">
    <tag k="addr:city" v="Westminster"/>
    <tag k="addr:housenumber" v="3608"/>
    <tag k="addr:street" v="U.S. Route 5"/>
    <tag k="addr:state" v="VT"/>
    <tag k="ref:vcgi:esiteid" v="283313"/>
  </node>
  <node id="-978" visible="true" lat="43.0678749" lon="-72.45910644">
    <tag k="addr:city" v="Westminster"/>
    <tag k="addr:housenumber" v="3557"/>
    <tag k="addr:street" v="U.S. Route 5"/>
    <tag k="addr:state" v="VT"/>
    <tag k="ref:vcgi:esiteid" v="283316"/>
  </node>
  <node id="-979" visible="true" lat="43.06781005" lon="-72.45801544">
    <tag k="addr:city" v="Westminster"/>
    <tag k="addr:housenumber" v="23"/>
    <tag k="addr:street" v="Grout Avenue"/>
    <tag k="addr:state" v="VT"/>
    <tag k="ref:vcgi:esiteid" v="283317"/>
  </node>
  <node id="-982" visible="true" lat="43.06757354" lon="-72.45944976">
    <tag k="addr:city" v="Westminster"/>
    <tag k="addr:housenumber" v="3531"/>
    <tag k="addr:street" v="U.S. Route 5"/>
    <tag k="addr:state" v="VT"/>
    <tag k="ref:vcgi:esiteid" v="283320"/>
  </node>
  <node id="-984" visible="true" lat="43.06755447" lon="-72.45830535">
    <tag k="addr:city" v="Westminster"/>
    <tag k="addr:housenumber" v="24"/>
    <tag k="addr:street" v="Grout Avenue"/>
    <tag k="addr:state" v="VT"/>
    <tag k="ref:vcgi:esiteid" v="283322"/>
  </node>
  <node id="-985" visible="true" lat="43.06737899" lon="-72.54090881">
    <tag k="addr:city" v="Westminster"/>
    <tag k="addr:housenumber" v="12"/>
    <tag k="addr:street" v="Gregg Road"/>
    <tag k="addr:state" v="VT"/>
    <tag k="ref:vcgi:esiteid" v="283323"/>
  </node>
  <node id="-988" visible="true" lat="43.06733478" lon="-72.54157261">
    <tag k="addr:city" v="Westminster"/>
    <tag k="addr:housenumber" v="3581"/>
    <tag k="addr:street" v="Westminster West Road"/>
    <tag k="addr:state" v="VT"/>
    <tag k="ref:vcgi:esiteid" v="283326"/>
  </node>
  <node id="-989" visible="true" lat="43.06722259" lon="-72.45964813">
    <tag k="addr:city" v="Westminster"/>
    <tag k="addr:housenumber" v="3505"/>
    <tag k="addr:street" v="U.S. Route 5"/>
    <tag k="addr:state" v="VT"/>
    <tag k="ref:vcgi:esiteid" v="283327"/>
  </node>
  <node id="-990" visible="true" lat="43.06741546" lon="-72.45694365">
    <tag k="addr:city" v="Westminster"/>
    <tag k="addr:housenumber" v="103"/>
    <tag k="addr:street" v="Grout Avenue"/>
    <tag k="addr:state" v="VT"/>
    <tag k="ref:vcgi:esiteid" v="283328"/>
  </node>
  <node id="-991" visible="true" lat="43.06702041" lon="-72.54035949">
    <tag k="addr:city" v="Westminster"/>
    <tag k="addr:housenumber" v="40"/>
    <tag k="addr:street" v="Gregg Road"/>
    <tag k="addr:state" v="VT"/>
    <tag k="ref:vcgi:esiteid" v="283329"/>
  </node>
  <node id="-992" visible="true" lat="43.06701278" lon="-72.46013641">
    <tag k="addr:city" v="Westminster"/>
    <tag k="addr:housenumber" v="3479"/>
    <tag k="addr:street" v="U.S. Route 5"/>
    <tag k="addr:state" v="VT"/>
    <tag k="ref:vcgi:esiteid" v="283330"/>
  </node>
  <node id="-994" visible="true" lat="43.06699468" lon="-72.46582873">
    <tag k="addr:city" v="Westminster"/>
    <tag k="addr:housenumber" v="251"/>
    <tag k="addr:street" v="Cox Road"/>
    <tag k="addr:state" v="VT"/>
    <tag k="ref:vcgi:esiteid" v="283332"/>
  </node>
  <node id="-995" visible="true" lat="43.06691742" lon="-72.45652008">
    <tag k="addr:city" v="Westminster"/>
    <tag k="addr:housenumber" v="121"/>
    <tag k="addr:street" v="Grout Avenue"/>
    <tag k="addr:state" v="VT"/>
    <tag k="ref:vcgi:esiteid" v="283333"/>
  </node>
  <node id="-996" visible="true" lat="43.06690979" lon="-72.45897674">
    <tag k="addr:city" v="Westminster"/>
    <tag k="addr:housenumber" v="3510"/>
    <tag k="addr:street" v="U.S. Route 5"/>
    <tag k="addr:state" v="VT"/>
    <tag k="ref:vcgi:esiteid" v="283334"/>
  </node>
  <node id="-997" visible="true" lat="43.06690597" lon="-72.54091644">
    <tag k="addr:city" v="Westminster"/>
    <tag k="addr:housenumber" v="3560"/>
    <tag k="addr:street" v="Westminster West Road"/>
    <tag k="addr:state" v="VT"/>
    <tag k="ref:vcgi:esiteid" v="283335"/>
  </node>
  <node id="-998" visible="true" lat="43.06679153" lon="-72.45623779">
    <tag k="addr:city" v="Westminster"/>
    <tag k="addr:housenumber" v="139"/>
    <tag k="addr:street" v="Grout Avenue"/>
    <tag k="addr:state" v="VT"/>
    <tag k="ref:vcgi:esiteid" v="283336"/>
  </node>
  <node id="-1000" visible="true" lat="43.06646324" lon="-72.45959424">
    <tag k="addr:city" v="Westminster"/>
    <tag k="addr:housenumber" v="3470"/>
    <tag k="addr:street" v="U.S. Route 5"/>
    <tag k="addr:state" v="VT"/>
    <tag k="ref:vcgi:esiteid" v="283338"/>
  </node>
  <node id="-1001" visible="true" lat="43.06651687" lon="-72.54095458">
    <tag k="addr:city" v="Westminster"/>
    <tag k="addr:housenumber" v="3532"/>
    <tag k="addr:street" v="Westminster West Road"/>
    <tag k="addr:state" v="VT"/>
    <tag k="ref:vcgi:esiteid" v="283339"/>
  </node>
  <node id="-1002" visible="true" lat="43.06646728" lon="-72.46055602">
    <tag k="addr:city" v="Westminster"/>
    <tag k="addr:housenumber" v="3435"/>
    <tag k="addr:street" v="U.S. Route 5"/>
    <tag k="addr:state" v="VT"/>
    <tag k="ref:vcgi:esiteid" v="283340"/>
  </node>
  <node id="-1003" visible="true" lat="43.06642913" lon="-72.54154968">
    <tag k="addr:city" v="Westminster"/>
    <tag k="addr:housenumber" v="3523"/>
    <tag k="addr:street" v="Westminster West Road"/>
    <tag k="addr:state" v="VT"/>
    <tag k="ref:vcgi:esiteid" v="283341"/>
  </node>
  <node id="-1006" visible="true" lat="43.06614685" lon="-72.54095459">
    <tag k="addr:city" v="Westminster"/>
    <tag k="addr:housenumber" v="3506"/>
    <tag k="addr:street" v="Westminster West Road"/>
    <tag k="addr:state" v="VT"/>
    <tag k="ref:vcgi:esiteid" v="283345"/>
  </node>
  <node id="-1007" visible="true" lat="43.06613922" lon="-72.46012878">
    <tag k="addr:city" v="Westminster"/>
    <tag k="addr:housenumber" v="3432"/>
    <tag k="addr:street" v="U.S. Route 5"/>
    <tag k="addr:state" v="VT"/>
    <tag k="ref:vcgi:esiteid" v="283346"/>
  </node>
  <node id="-1009" visible="true" lat="43.06605529" lon="-72.45487213">
    <tag k="addr:city" v="Westminster"/>
    <tag k="addr:housenumber" v="219"/>
    <tag k="addr:street" v="Grout Avenue"/>
    <tag k="addr:state" v="VT"/>
    <tag k="ref:vcgi:esiteid" v="283348"/>
  </node>
  <node id="-1010" visible="true" lat="43.06605529" lon="-72.46110534">
    <tag k="addr:city" v="Westminster"/>
    <tag k="addr:housenumber" v="3395"/>
    <tag k="addr:street" v="U.S. Route 5"/>
    <tag k="addr:state" v="VT"/>
    <tag k="ref:vcgi:esiteid" v="283349"/>
  </node>
  <node id="-1017" visible="true" lat="43.06565856" lon="-72.46052551">
    <tag k="addr:city" v="Westminster"/>
    <tag k="addr:housenumber" v="3392"/>
    <tag k="addr:street" v="U.S. Route 5"/>
    <tag k="addr:state" v="VT"/>
    <tag k="ref:vcgi:esiteid" v="283358"/>
  </node>
  <node id="-1018" visible="true" lat="43.06576143" lon="-72.54171222">
    <tag k="addr:city" v="Westminster"/>
    <tag k="addr:housenumber" v="3473"/>
    <tag k="addr:street" v="Westminster West Road"/>
    <tag k="addr:state" v="VT"/>
    <tag k="ref:vcgi:esiteid" v="283359"/>
  </node>
  <node id="-1021" visible="true" lat="43.06550598" lon="-72.54159545">
    <tag k="addr:city" v="Westminster"/>
    <tag k="addr:housenumber" v="3463"/>
    <tag k="addr:street" v="Westminster West Road"/>
    <tag k="addr:state" v="VT"/>
    <tag k="ref:vcgi:esiteid" v="283362"/>
  </node>
  <node id="-1025" visible="true" lat="43.06540298" lon="-72.46198272">
    <tag k="addr:city" v="Westminster"/>
    <tag k="addr:housenumber" v="26"/>
    <tag k="addr:street" v="Cox Road"/>
    <tag k="addr:state" v="VT"/>
    <tag k="ref:vcgi:esiteid" v="283366"/>
  </node>
  <node id="-1026" visible="true" lat="43.06538009" lon="-72.46088409">
    <tag k="addr:city" v="Westminster"/>
    <tag k="addr:housenumber" v="3366"/>
    <tag k="addr:street" v="U.S. Route 5"/>
    <tag k="addr:state" v="VT"/>
    <tag k="ref:vcgi:esiteid" v="283367"/>
  </node>
  <node id="-1031" visible="true" lat="43.06515502" lon="-72.540596">
    <tag k="addr:city" v="Westminster"/>
    <tag k="addr:housenumber" v="3438"/>
    <tag k="addr:street" v="Westminster West Road"/>
    <tag k="addr:state" v="VT"/>
    <tag k="ref:vcgi:esiteid" v="283373"/>
  </node>
  <node id="-1032" visible="true" lat="43.06512451" lon="-72.46051025">
    <tag k="addr:city" v="Westminster"/>
    <tag k="addr:housenumber" v="3358"/>
    <tag k="addr:street" v="U.S. Route 5"/>
    <tag k="addr:state" v="VT"/>
    <tag k="ref:vcgi:esiteid" v="283375"/>
  </node>
  <node id="-1033" visible="true" lat="43.06511688" lon="-72.54159545">
    <tag k="addr:city" v="Westminster"/>
    <tag k="addr:housenumber" v="3435"/>
    <tag k="addr:street" v="Westminster West Road"/>
    <tag k="addr:state" v="VT"/>
    <tag k="ref:vcgi:esiteid" v="283376"/>
  </node>
  <node id="-1037" visible="true" lat="43.06488418" lon="-72.54090881">
    <tag k="addr:city" v="Westminster"/>
    <tag k="addr:housenumber" v="3418"/>
    <tag k="addr:street" v="Westminster West Road"/>
    <tag k="addr:state" v="VT"/>
    <tag k="ref:vcgi:esiteid" v="283380"/>
  </node>
  <node id="-1038" visible="true" lat="43.06487655" lon="-72.46155548">
    <tag k="addr:city" v="Westminster"/>
    <tag k="addr:housenumber" v="3320"/>
    <tag k="addr:street" v="U.S. Route 5"/>
    <tag k="addr:state" v="VT"/>
    <tag k="ref:vcgi:esiteid" v="283381"/>
  </node>
  <node id="-1039" visible="true" lat="43.06484603" lon="-72.46230316">
    <tag k="addr:city" v="Westminster"/>
    <tag k="addr:housenumber" v="3293"/>
    <tag k="addr:street" v="U.S. Route 5"/>
    <tag k="addr:state" v="VT"/>
    <tag k="ref:vcgi:esiteid" v="283382"/>
  </node>
  <node id="-1042" visible="true" lat="43.06453551" lon="-72.54083678">
    <tag k="addr:city" v="Westminster"/>
    <tag k="addr:housenumber" v="3400"/>
    <tag k="addr:street" v="Westminster West Road"/>
    <tag k="addr:state" v="VT"/>
    <tag k="ref:vcgi:esiteid" v="283386"/>
  </node>
  <node id="-1045" visible="true" lat="43.06449127" lon="-72.54164123">
    <tag k="addr:city" v="Westminster"/>
    <tag k="addr:housenumber" v="2789"/>
    <tag k="addr:street" v="West Road"/>
    <tag k="addr:state" v="VT"/>
    <tag k="ref:vcgi:esiteid" v="283389"/>
  </node>
  <node id="-1046" visible="true" lat="43.06446075" lon="-72.46203613">
    <tag k="addr:city" v="Westminster"/>
    <tag k="addr:housenumber" v="3280"/>
    <tag k="addr:street" v="U.S. Route 5"/>
    <tag k="addr:state" v="VT"/>
    <tag k="ref:vcgi:esiteid" v="283390"/>
  </node>
  <node id="-1047" visible="true" lat="43.06439208" lon="-72.46298217">
    <tag k="addr:city" v="Westminster"/>
    <tag k="addr:housenumber" v="3247"/>
    <tag k="addr:street" v="U.S. Route 5"/>
    <tag k="addr:state" v="VT"/>
    <tag k="ref:vcgi:esiteid" v="283391"/>
  </node>
  <node id="-1051" visible="true" lat="43.06422424" lon="-72.48653412">
    <tag k="addr:city" v="Westminster"/>
    <tag k="addr:housenumber" v="1359"/>
    <tag k="addr:street" v="Kurn Hattin Road"/>
    <tag k="addr:state" v="VT"/>
    <tag k="ref:vcgi:esiteid" v="283395"/>
  </node>
  <node id="-1052" visible="true" lat="43.06421279" lon="-72.48191833">
    <tag k="addr:city" v="Westminster"/>
    <tag k="addr:housenumber" v="1120"/>
    <tag k="addr:street" v="Kurn Hattin Road"/>
    <tag k="addr:state" v="VT"/>
    <tag k="ref:vcgi:esiteid" v="283396"/>
  </node>
  <node id="-1053" visible="true" lat="43.06399154" lon="-72.48360443">
    <tag k="addr:city" v="Westminster"/>
    <tag k="addr:housenumber" v="1180"/>
    <tag k="addr:street" v="Kurn Hattin Road"/>
    <tag k="addr:state" v="VT"/>
    <tag k="ref:vcgi:esiteid" v="283400"/>
  </node>
  <node id="-1054" visible="true" lat="43.06396102" lon="-72.46356201">
    <tag k="addr:city" v="Westminster"/>
    <tag k="addr:housenumber" v="3207"/>
    <tag k="addr:street" v="U.S. Route 5"/>
    <tag k="addr:state" v="VT"/>
    <tag k="ref:vcgi:esiteid" v="283401"/>
  </node>
  <node id="-1056" visible="true" lat="43.06391525" lon="-72.46247863">
    <tag k="addr:city" v="Westminster"/>
    <tag k="addr:housenumber" v="18"/>
    <tag k="addr:street" v="Metcalf Drive"/>
    <tag k="addr:state" v="VT"/>
    <tag k="ref:vcgi:esiteid" v="283403"/>
  </node>
  <node id="-1057" visible="true" lat="43.06406332" lon="-72.54098143">
    <tag k="addr:city" v="Westminster"/>
    <tag k="addr:housenumber" v="37"/>
    <tag k="addr:street" v="Church Street"/>
    <tag k="addr:state" v="VT"/>
    <tag k="ref:vcgi:esiteid" v="283404"/>
  </node>
  <node id="-1059" visible="true" lat="43.06384277" lon="-72.54132842">
    <tag k="addr:city" v="Westminster"/>
    <tag k="addr:housenumber" v="44"/>
    <tag k="addr:street" v="Church Street"/>
    <tag k="addr:state" v="VT"/>
    <tag k="ref:vcgi:esiteid" v="283406"/>
  </node>
  <node id="-1060" visible="true" lat="43.06366348" lon="-72.46277618">
    <tag k="addr:city" v="Westminster"/>
    <tag k="addr:housenumber" v="3214"/>
    <tag k="addr:street" v="U.S. Route 5"/>
    <tag k="addr:state" v="VT"/>
    <tag k="ref:vcgi:esiteid" v="283407"/>
  </node>
  <node id="-1061" visible="true" lat="43.06350281" lon="-72.46160416">
    <tag k="addr:city" v="Westminster"/>
    <tag k="addr:housenumber" v="68"/>
    <tag k="addr:street" v="Metcalf Drive"/>
    <tag k="addr:state" v="VT"/>
    <tag k="ref:vcgi:esiteid" v="283408"/>
  </node>
  <node id="-1063" visible="true" lat="43.06340026" lon="-72.46385192">
    <tag k="addr:city" v="Westminster"/>
    <tag k="addr:housenumber" v="3165"/>
    <tag k="addr:street" v="U.S. Route 5"/>
    <tag k="addr:state" v="VT"/>
    <tag k="ref:vcgi:esiteid" v="283410"/>
  </node>
  <node id="-1064" visible="true" lat="43.06328925" lon="-72.46301403">
    <tag k="addr:city" v="Westminster"/>
    <tag k="addr:housenumber" v="3192"/>
    <tag k="addr:street" v="U.S. Route 5"/>
    <tag k="addr:state" v="VT"/>
    <tag k="ref:vcgi:esiteid" v="283411"/>
  </node>
  <node id="-1065" visible="true" lat="43.06323623" lon="-72.46092224">
    <tag k="addr:city" v="Westminster"/>
    <tag k="addr:housenumber" v="112"/>
    <tag k="addr:street" v="Metcalf Drive"/>
    <tag k="addr:state" v="VT"/>
    <tag k="ref:vcgi:esiteid" v="283413"/>
  </node>
  <node id="-1066" visible="true" lat="43.06322487" lon="-72.54017604">
    <tag k="addr:city" v="Westminster"/>
    <tag k="addr:housenumber" v="3290"/>
    <tag k="addr:street" v="Westminster West Road"/>
    <tag k="addr:state" v="VT"/>
    <tag k="ref:vcgi:esiteid" v="283414"/>
  </node>
  <node id="-1068" visible="true" lat="43.0632358" lon="-72.46474595">
    <tag k="addr:city" v="Westminster"/>
    <tag k="addr:housenumber" v="3155"/>
    <tag k="addr:street" v="U.S. Route 5"/>
    <tag k="addr:state" v="VT"/>
    <tag k="ref:vcgi:esiteid" v="283416"/>
  </node>
  <node id="-1070" visible="true" lat="43.06271362" lon="-72.46271514">
    <tag k="addr:city" v="Westminster"/>
    <tag k="addr:housenumber" v="3162"/>
    <tag k="addr:street" v="U.S. Route 5"/>
    <tag k="addr:state" v="VT"/>
    <tag k="ref:vcgi:esiteid" v="283418"/>
  </node>
  <node id="-1072" visible="true" lat="43.0625267" lon="-72.54114532">
    <tag k="addr:city" v="Westminster"/>
    <tag k="addr:housenumber" v="136"/>
    <tag k="addr:street" v="Church Street"/>
    <tag k="addr:state" v="VT"/>
    <tag k="ref:vcgi:esiteid" v="283420"/>
  </node>
  <node id="-1073" visible="true" lat="43.06241226" lon="-72.46385192">
    <tag k="addr:city" v="Westminster"/>
    <tag k="addr:housenumber" v="3160"/>
    <tag k="addr:street" v="U.S. Route 5"/>
    <tag k="addr:state" v="VT"/>
    <tag k="ref:vcgi:esiteid" v="283421"/>
  </node>
  <node id="-1074" visible="true" lat="43.06266704" lon="-72.54476061">
    <tag k="addr:city" v="Westminster"/>
    <tag k="addr:housenumber" v="2573"/>
    <tag k="addr:street" v="West Road"/>
    <tag k="addr:state" v="VT"/>
    <tag k="ref:vcgi:esiteid" v="283422"/>
  </node>
  <node id="-1076" visible="true" lat="43.06221008" lon="-72.539505">
    <tag k="addr:city" v="Westminster"/>
    <tag k="addr:housenumber" v="3212"/>
    <tag k="addr:street" v="Westminster West Road"/>
    <tag k="addr:state" v="VT"/>
    <tag k="ref:vcgi:esiteid" v="283424"/>
  </node>
  <node id="-1081" visible="true" lat="43.06161499" lon="-72.54347992">
    <tag k="addr:city" v="Westminster"/>
    <tag k="addr:housenumber" v="2620"/>
    <tag k="addr:street" v="West Road"/>
    <tag k="addr:state" v="VT"/>
    <tag k="ref:vcgi:esiteid" v="283429"/>
  </node>
  <node id="-1083" visible="true" lat="43.06158828" lon="-72.54135131">
    <tag k="addr:city" v="Westminster"/>
    <tag k="addr:housenumber" v="198"/>
    <tag k="addr:street" v="Church Street"/>
    <tag k="addr:state" v="VT"/>
    <tag k="ref:vcgi:esiteid" v="283431"/>
  </node>
  <node id="-1087" visible="true" lat="43.06143188" lon="-72.54581451">
    <tag k="addr:city" v="Westminster"/>
    <tag k="addr:housenumber" v="2457"/>
    <tag k="addr:street" v="West Road"/>
    <tag k="addr:state" v="VT"/>
    <tag k="ref:vcgi:esiteid" v="283436"/>
  </node>
  <node id="-1089" visible="true" lat="43.06155489" lon="-72.54795564">
    <tag k="addr:city" v="Westminster"/>
    <tag k="addr:housenumber" v="2333"/>
    <tag k="addr:street" v="West Road"/>
    <tag k="addr:state" v="VT"/>
    <tag k="ref:vcgi:esiteid" v="283438"/>
  </node>
  <node id="-1092" visible="true" lat="43.06105041" lon="-72.54676818">
    <tag k="addr:city" v="Westminster"/>
    <tag k="addr:housenumber" v="2399"/>
    <tag k="addr:street" v="West Road"/>
    <tag k="addr:state" v="VT"/>
    <tag k="ref:vcgi:esiteid" v="283441"/>
  </node>
  <node id="-1093" visible="true" lat="43.06098556" lon="-72.54541778">
    <tag k="addr:city" v="Westminster"/>
    <tag k="addr:housenumber" v="2473"/>
    <tag k="addr:street" v="West Road"/>
    <tag k="addr:state" v="VT"/>
    <tag k="ref:vcgi:esiteid" v="283442"/>
  </node>
  <node id="-1094" visible="true" lat="43.06096267" lon="-72.54483795">
    <tag k="addr:city" v="Westminster"/>
    <tag k="addr:housenumber" v="2492"/>
    <tag k="addr:street" v="West Road"/>
    <tag k="addr:state" v="VT"/>
    <tag k="ref:vcgi:esiteid" v="283443"/>
  </node>
  <node id="-1096" visible="true" lat="43.06063461" lon="-72.55013275">
    <tag k="addr:city" v="Westminster"/>
    <tag k="addr:housenumber" v="2227"/>
    <tag k="addr:street" v="West Road"/>
    <tag k="addr:state" v="VT"/>
    <tag k="ref:vcgi:esiteid" v="283445"/>
  </node>
  <node id="-1102" visible="true" lat="43.06025314" lon="-72.53991699">
    <tag k="addr:city" v="Westminster"/>
    <tag k="addr:housenumber" v="3077"/>
    <tag k="addr:street" v="Westminster West Road"/>
    <tag k="addr:state" v="VT"/>
    <tag k="ref:vcgi:esiteid" v="283451"/>
  </node>
  <node id="-1184" visible="true" lat="43.0531845" lon="-72.52114105">
    <tag k="addr:city" v="Westminster"/>
    <tag k="addr:housenumber" v="271"/>
    <tag k="addr:street" v="Patch Farm Road"/>
    <tag k="addr:state" v="VT"/>
    <tag k="ref:vcgi:esiteid" v="283533"/>
  </node>
  <node id="-1187" visible="true" lat="43.05297534" lon="-72.52900181">
    <tag k="addr:city" v="Westminster"/>
    <tag k="addr:housenumber" v="86"/>
    <tag k="addr:street" v="Butlers Hill"/>
    <tag k="addr:state" v="VT"/>
    <tag k="ref:vcgi:esiteid" v="283536"/>
  </node>
  <node id="-1188" visible="true" lat="43.0529718" lon="-72.52077723">
    <tag k="addr:city" v="Westminster"/>
    <tag k="addr:housenumber" v="268"/>
    <tag k="addr:street" v="Patch Farm Road"/>
    <tag k="addr:state" v="VT"/>
    <tag k="ref:vcgi:esiteid" v="283537"/>
  </node>
  <node id="-1204" visible="true" lat="43.05185133" lon="-72.52922839">
    <tag k="addr:city" v="Westminster"/>
    <tag k="addr:housenumber" v="23"/>
    <tag k="addr:street" v="Butlers Hill"/>
    <tag k="addr:state" v="VT"/>
    <tag k="ref:vcgi:esiteid" v="283553"/>
  </node>
  <node id="-1503" visible="true" lat="43.066575" lon="-72.53852971">
    <tag k="addr:city" v="Westminster"/>
    <tag k="addr:housenumber" v="100"/>
    <tag k="addr:street" v="West Parish Road"/>
    <tag k="addr:state" v="VT"/>
    <tag k="ref:vcgi:esiteid" v="283855"/>
  </node>
  <node id="-1504" visible="true" lat="43.06786249" lon="-72.5368724">
    <tag k="addr:city" v="Westminster"/>
    <tag k="addr:housenumber" v="131"/>
    <tag k="addr:street" v="West Parish Road"/>
    <tag k="addr:state" v="VT"/>
    <tag k="ref:vcgi:esiteid" v="283856"/>
  </node>
  <node id="-1518" visible="true" lat="43.07924145" lon="-72.44806948">
    <tag k="addr:city" v="Westminster"/>
    <tag k="addr:housenumber" v="88"/>
    <tag k="addr:street" v="Bazin Road"/>
    <tag k="addr:state" v="VT"/>
    <tag k="ref:vcgi:esiteid" v="283875"/>
  </node>
  <node id="-1519" visible="true" lat="43.08076095" lon="-72.44467926">
    <tag k="addr:city" v="Westminster"/>
    <tag k="addr:housenumber" v="4709"/>
    <tag k="addr:street" v="U.S. Route 5"/>
    <tag k="addr:state" v="VT"/>
    <tag k="ref:vcgi:esiteid" v="283876"/>
  </node>
  <node id="-1520" visible="true" lat="43.07969123" lon="-72.44594443">
    <tag k="addr:city" v="Westminster"/>
    <tag k="addr:housenumber" v="4607"/>
    <tag k="addr:street" v="U.S. Route 5"/>
    <tag k="addr:state" v="VT"/>
    <tag k="ref:vcgi:esiteid" v="283877"/>
  </node>
  <node id="-1521" visible="true" lat="43.07943243" lon="-72.44631737">
    <tag k="addr:city" v="Westminster"/>
    <tag k="addr:housenumber" v="4585"/>
    <tag k="addr:street" v="U.S. Route 5"/>
    <tag k="addr:state" v="VT"/>
    <tag k="ref:vcgi:esiteid" v="283878"/>
  </node>
  <node id="-1522" visible="true" lat="43.07947245" lon="-72.44849087">
    <tag k="addr:city" v="Westminster"/>
    <tag k="addr:housenumber" v="106"/>
    <tag k="addr:street" v="Bazin Road"/>
    <tag k="addr:state" v="VT"/>
    <tag k="ref:vcgi:esiteid" v="283879"/>
  </node>
  <node id="-1523" visible="true" lat="43.07555661" lon="-72.45101118">
    <tag k="addr:city" v="Westminster"/>
    <tag k="addr:housenumber" v="4225"/>
    <tag k="addr:street" v="U.S. Route 5"/>
    <tag k="addr:state" v="VT"/>
    <tag k="ref:vcgi:esiteid" v="283880"/>
  </node>
  <node id="-1525" visible="true" lat="43.06501033" lon="-72.46122557">
    <tag k="addr:city" v="Westminster"/>
    <tag k="addr:housenumber" v="3338"/>
    <tag k="addr:street" v="U.S. Route 5"/>
    <tag k="addr:state" v="VT"/>
    <tag k="ref:vcgi:esiteid" v="283882"/>
  </node>
  <node id="-1535" visible="true" lat="43.11778121" lon="-72.5218117">
    <tag k="addr:city" v="Westminster"/>
    <tag k="addr:housenumber" v="18"/>
    <tag k="addr:street" v="Saunders Road"/>
    <tag k="addr:state" v="VT"/>
    <tag k="ref:vcgi:esiteid" v="283892"/>
  </node>
  <node id="-1536" visible="true" lat="43.11461533" lon="-72.49564783">
    <tag k="addr:city" v="Westminster"/>
    <tag k="addr:housenumber" v="111"/>
    <tag k="addr:street" v="April Hill Road"/>
    <tag k="addr:state" v="VT"/>
    <tag k="ref:vcgi:esiteid" v="283893"/>
  </node>
  <node id="-1543" visible="true" lat="43.09714826" lon="-72.44969402">
    <tag k="addr:city" v="Westminster"/>
    <tag k="addr:housenumber" v="275"/>
    <tag k="addr:street" v="Henwood Hill Road"/>
    <tag k="addr:state" v="VT"/>
    <tag k="ref:vcgi:esiteid" v="283900"/>
  </node>
  <node id="-1551" visible="true" lat="43.06708863" lon="-72.45388968">
    <tag k="addr:city" v="Westminster"/>
    <tag k="addr:housenumber" v="88"/>
    <tag k="addr:street" v="Rounds Road"/>
    <tag k="addr:state" v="VT"/>
    <tag k="ref:vcgi:esiteid" v="283908"/>
  </node>
  <node id="-1584" visible="true" lat="43.06841818" lon="-72.45836148">
    <tag k="addr:city" v="Westminster"/>
    <tag k="addr:housenumber" v="3613"/>
    <tag k="addr:street" v="U.S. Route 5"/>
    <tag k="addr:state" v="VT"/>
    <tag k="ref:vcgi:esiteid" v="283942"/>
  </node>
  <node id="-1587" visible="true" lat="43.06385938" lon="-72.54095348">
    <tag k="addr:city" v="Westminster"/>
    <tag k="addr:housenumber" v="39"/>
    <tag k="addr:street" v="Church Street"/>
    <tag k="addr:state" v="VT"/>
    <tag k="ref:vcgi:esiteid" v="283945"/>
  </node>
  <node id="-1604" visible="true" lat="43.08548055" lon="-72.43758546">
    <tag k="addr:city" v="Westminster"/>
    <tag k="addr:housenumber" v="17"/>
    <tag k="addr:street" v="Abenaque Drive"/>
    <tag k="addr:state" v="VT"/>
    <tag k="ref:vcgi:esiteid" v="283963"/>
  </node>
  <node id="-1617" visible="true" lat="43.11005623" lon="-72.44026237">
    <tag k="addr:city" v="Westminster"/>
    <tag k="addr:housenumber" v="139"/>
    <tag k="addr:street" v="Potter Industrial Drive"/>
    <tag k="addr:state" v="VT"/>
    <tag k="ref:vcgi:esiteid" v="283977"/>
  </node>
  <node id="-1634" visible="true" lat="43.08537665" lon="-72.43957882">
    <tag k="addr:city" v="Westminster"/>
    <tag k="addr:housenumber" v="5111"/>
    <tag k="addr:street" v="U.S. Route 5"/>
    <tag k="addr:state" v="VT"/>
    <tag k="ref:vcgi:esiteid" v="307103"/>
  </node>
  <node id="-1635" visible="true" lat="43.08010328" lon="-72.44956732">
    <tag k="addr:city" v="Westminster"/>
    <tag k="addr:housenumber" v="105"/>
    <tag k="addr:street" v="Bazin Road"/>
    <tag k="addr:state" v="VT"/>
    <tag k="ref:vcgi:esiteid" v="307104"/>
  </node>
  <node id="-1649" visible="true" lat="43.09895513" lon="-72.45132729">
    <tag k="addr:city" v="Westminster"/>
    <tag k="addr:housenumber" v="553"/>
    <tag k="addr:street" v="Henwood Hill Road"/>
    <tag k="addr:state" v="VT"/>
    <tag k="ref:vcgi:esiteid" v="307119"/>
  </node>
  <node id="-1662" visible="true" lat="43.10955982" lon="-72.49597717">
    <tag k="addr:city" v="Westminster"/>
    <tag k="addr:housenumber" v="101"/>
    <tag k="addr:street" v="Villers Road"/>
    <tag k="addr:state" v="VT"/>
    <tag k="ref:vcgi:esiteid" v="317505"/>
  </node>
  <node id="-1665" visible="true" lat="43.0752278" lon="-72.47292046">
    <tag k="addr:city" v="Westminster"/>
    <tag k="addr:housenumber" v="120"/>
    <tag k="addr:street" v="Cold Spring Hill"/>
    <tag k="addr:state" v="VT"/>
    <tag k="ref:vcgi:esiteid" v="326499"/>
  </node>
  <node id="-1682" visible="true" lat="43.07207772" lon="-72.53468181">
    <tag k="addr:city" v="Westminster"/>
    <tag k="addr:housenumber" v="369"/>
    <tag k="addr:street" v="Dorsch Hill"/>
    <tag k="addr:state" v="VT"/>
    <tag k="ref:vcgi:esiteid" v="337708"/>
  </node>
  <node id="-1683" visible="true" lat="43.11395692" lon="-72.49528277">
    <tag k="addr:city" v="Westminster"/>
    <tag k="addr:housenumber" v="110"/>
    <tag k="addr:street" v="April Hill Road"/>
    <tag k="addr:state" v="VT"/>
    <tag k="ref:vcgi:esiteid" v="337759"/>
  </node>
  <node id="-1684" visible="true" lat="43.0919362" lon="-72.48787765">
    <tag k="addr:city" v="Westminster"/>
    <tag k="addr:housenumber" v="108"/>
    <tag k="addr:street" v="Goat Hill"/>
    <tag k="addr:state" v="VT"/>
    <tag k="ref:vcgi:esiteid" v="337760"/>
  </node>
  <node id="-1689" visible="true" lat="43.07608573" lon="-72.45217065">
    <tag k="addr:city" v="Westminster"/>
    <tag k="addr:housenumber" v="4205"/>
    <tag k="addr:street" v="U.S. Route 5"/>
    <tag k="addr:state" v="VT"/>
    <tag k="ref:vcgi:esiteid" v="342416"/>
  </node>
  <node id="-1694" visible="true" lat="43.08200853" lon="-72.44170639">
    <tag k="addr:city" v="Westminster"/>
    <tag k="addr:housenumber" v="4840"/>
    <tag k="addr:street" v="U.S. Route 5"/>
    <tag k="addr:state" v="VT"/>
    <tag k="ref:vcgi:esiteid" v="342421"/>
  </node>
  <node id="-1695" visible="true" lat="43.05279921" lon="-72.52233773">
    <tag k="addr:city" v="Westminster"/>
    <tag k="addr:housenumber" v="222"/>
    <tag k="addr:street" v="Patch Farm Road"/>
    <tag k="addr:state" v="VT"/>
    <tag k="ref:vcgi:esiteid" v="342422"/>
  </node>
  <node id="-1701" visible="true" lat="43.10424573" lon="-72.44596628">
    <tag k="addr:city" v="Westminster"/>
    <tag k="addr:housenumber" v="86"/>
    <tag k="addr:street" v="Deep Root Drive"/>
    <tag k="addr:state" v="VT"/>
    <tag k="ref:vcgi:esiteid" v="346166"/>
  </node>
  <node id="-1702" visible="true" lat="43.07703869" lon="-72.5350568">
    <tag k="addr:city" v="Westminster"/>
    <tag k="addr:housenumber" v="155"/>
    <tag k="addr:street" v="Dorsch Hill"/>
    <tag k="addr:state" v="VT"/>
    <tag k="ref:vcgi:esiteid" v="346167"/>
  </node>
  <node id="-1707" visible="true" lat="43.08603143" lon="-72.45430896">
    <tag k="addr:city" v="Westminster"/>
    <tag k="addr:housenumber" v="101"/>
    <tag k="addr:street" v="Armory Lane"/>
    <tag k="addr:state" v="VT"/>
    <tag k="ref:vcgi:esiteid" v="448312"/>
  </node>
  <node id="-1708" visible="true" lat="43.08531545" lon="-72.45077575">
    <tag k="addr:city" v="Westminster"/>
    <tag k="addr:housenumber" v="209"/>
    <tag k="addr:street" v="Armory Lane"/>
    <tag k="addr:state" v="VT"/>
    <tag k="ref:vcgi:esiteid" v="448313"/>
  </node>
  <node id="-1716" visible="true" lat="43.08635482" lon="-72.44493244">
    <tag k="addr:city" v="Westminster"/>
    <tag k="addr:housenumber" v="419"/>
    <tag k="addr:street" v="Westminster Business Park"/>
    <tag k="addr:state" v="VT"/>
    <tag k="ref:vcgi:esiteid" v="450973"/>
  </node>
  <node id="-1718" visible="true" lat="43.07479227" lon="-72.44816644">
    <tag k="addr:city" v="Westminster"/>
    <tag k="addr:housenumber" v="4270"/>
    <tag k="addr:street" v="U.S. Route 5"/>
    <tag k="addr:state" v="VT"/>
    <tag k="ref:vcgi:esiteid" v="452587"/>
  </node>
  <node id="-1719" visible="true" lat="43.07677958" lon="-72.45037406">
    <tag k="addr:city" v="Westminster"/>
    <tag k="addr:housenumber" v="4297"/>
    <tag k="addr:street" v="U.S. Route 5"/>
    <tag k="addr:state" v="VT"/>
    <tag k="ref:vcgi:esiteid" v="452588"/>
  </node>
  <node id="-1724" visible="true" lat="43.0828546" lon="-72.44117469">
    <tag k="addr:city" v="Westminster"/>
    <tag k="addr:housenumber" v="4880"/>
    <tag k="addr:street" v="U.S. Route 5"/>
    <tag k="addr:state" v="VT"/>
    <tag k="ref:vcgi:esiteid" v="452614"/>
  </node>
  <node id="-1730" visible="true" lat="43.06729929" lon="-72.45760806">
    <tag k="addr:city" v="Westminster"/>
    <tag k="addr:housenumber" v="50"/>
    <tag k="addr:street" v="Grout Avenue"/>
    <tag k="addr:state" v="VT"/>
    <tag k="ref:vcgi:esiteid" v="452620"/>
  </node>
  <node id="-1733" visible="true" lat="43.08925191" lon="-72.45431039">
    <tag k="addr:city" v="Westminster"/>
    <tag k="addr:housenumber" v="1330"/>
    <tag k="addr:street" v="Westminster Heights Road"/>
    <tag k="addr:state" v="VT"/>
    <tag k="ref:vcgi:esiteid" v="611141"/>
  </node>
  <node id="-1758" visible="true" lat="43.08749203" lon="-72.44708715">
    <tag k="addr:city" v="Westminster"/>
    <tag k="addr:housenumber" v="334"/>
    <tag k="addr:street" v="Westminster Business Park"/>
    <tag k="addr:state" v="VT"/>
    <tag k="ref:vcgi:esiteid" v="752861"/>
  </node>
  <node id="-1761" visible="true" lat="43.06598919" lon="-72.48344093">
    <tag k="addr:city" v="Westminster"/>
    <tag k="addr:housenumber" v="1276"/>
    <tag k="addr:street" v="Kurn Hattin Road"/>
    <tag k="addr:state" v="VT"/>
    <tag k="ref:vcgi:esiteid" v="753347"/>
  </node>
</osm>
