<?xml version="1.0" encoding="UTF-8"?>
<osm version="0.6" generator="JOSM" upload="false">
  <node id="-100" visible="true" lat="43.52709621" lon="-72.47568145">
    <tag k="addr:housenumber" v="40"/>
    <tag k="addr:street" v="Moeller Road"/>
    <tag k="addr:state" v="VT"/>
    <tag k="ref:vcgi:esiteid" v="126162"/>
  </node>
  <node id="-102" visible="true" lat="43.47961762" lon="-72.530626">
    <tag k="addr:housenumber" v="467"/>
    <tag k="addr:street" v="Hurricane Hill"/>
    <tag k="addr:state" v="VT"/>
    <tag k="ref:vcgi:esiteid" v="198269"/>
  </node>
  <node id="-103" visible="true" lat="43.53274154" lon="-72.53199005">
    <tag k="addr:housenumber" v="72"/>
    <tag k="addr:street" v="Jaquith Road"/>
    <tag k="addr:state" v="VT"/>
    <tag k="ref:vcgi:esiteid" v="280178"/>
  </node>
  <node id="-104" visible="true" lat="43.53257765" lon="-72.52907097">
    <tag k="addr:housenumber" v="5693"/>
    <tag k="addr:street" v="Rush Meadow Road"/>
    <tag k="addr:state" v="VT"/>
    <tag k="ref:vcgi:esiteid" v="280179"/>
  </node>
  <node id="-105" visible="true" lat="43.53177642" lon="-72.5274887">
    <tag k="addr:housenumber" v="5582"/>
    <tag k="addr:street" v="Rush Meadow Road"/>
    <tag k="addr:state" v="VT"/>
    <tag k="ref:vcgi:esiteid" v="280180"/>
  </node>
  <node id="-107" visible="true" lat="43.52757644" lon="-72.52616882">
    <tag k="addr:housenumber" v="5233"/>
    <tag k="addr:street" v="Rush Meadow Road"/>
    <tag k="addr:state" v="VT"/>
    <tag k="ref:vcgi:esiteid" v="280182"/>
  </node>
  <node id="-108" visible="true" lat="43.52713775" lon="-72.52399444">
    <tag k="addr:housenumber" v="5170"/>
    <tag k="addr:street" v="Rush Meadow Road"/>
    <tag k="addr:state" v="VT"/>
    <tag k="ref:vcgi:esiteid" v="280183"/>
  </node>
  <node id="-111" visible="true" lat="43.5258789" lon="-72.52616119">
    <tag k="addr:housenumber" v="5107"/>
    <tag k="addr:street" v="Rush Meadow Road"/>
    <tag k="addr:state" v="VT"/>
    <tag k="ref:vcgi:esiteid" v="280186"/>
  </node>
  <node id="-125" visible="true" lat="43.52129745" lon="-72.5180664">
    <tag k="addr:housenumber" v="160"/>
    <tag k="addr:street" v="Duling Road"/>
    <tag k="addr:state" v="VT"/>
    <tag k="ref:vcgi:esiteid" v="280200"/>
  </node>
  <node id="-145" visible="true" lat="43.5138588" lon="-72.48775481">
    <tag k="addr:housenumber" v="1103"/>
    <tag k="addr:street" v="Blood Hill Road"/>
    <tag k="addr:state" v="VT"/>
    <tag k="ref:vcgi:esiteid" v="280220"/>
  </node>
  <node id="-147" visible="true" lat="43.51273453" lon="-72.52682163">
    <tag k="addr:housenumber" v="686"/>
    <tag k="addr:street" v="Wardner Road"/>
    <tag k="addr:state" v="VT"/>
    <tag k="ref:vcgi:esiteid" v="280222"/>
  </node>
  <node id="-150" visible="true" lat="43.51268768" lon="-72.46145629">
    <tag k="addr:housenumber" v="1957"/>
    <tag k="addr:street" v="Hammond Hill Road"/>
    <tag k="addr:state" v="VT"/>
    <tag k="ref:vcgi:esiteid" v="280225"/>
  </node>
  <node id="-151" visible="true" lat="43.51335934" lon="-72.48525284">
    <tag k="addr:housenumber" v="958"/>
    <tag k="addr:street" v="Blood Hill Road"/>
    <tag k="addr:state" v="VT"/>
    <tag k="ref:vcgi:esiteid" v="280226"/>
  </node>
  <node id="-152" visible="true" lat="43.51208496" lon="-72.45859527">
    <tag k="addr:housenumber" v="1920"/>
    <tag k="addr:street" v="Hammond Hill Road"/>
    <tag k="addr:state" v="VT"/>
    <tag k="ref:vcgi:esiteid" v="280227"/>
  </node>
  <node id="-154" visible="true" lat="43.51192855" lon="-72.48287963">
    <tag k="addr:housenumber" v="572"/>
    <tag k="addr:street" v="Cross Road"/>
    <tag k="addr:state" v="VT"/>
    <tag k="ref:vcgi:esiteid" v="280229"/>
  </node>
  <node id="-155" visible="true" lat="43.51185821" lon="-72.4958515">
    <tag k="addr:housenumber" v="1302"/>
    <tag k="addr:street" v="Silver Hill Road"/>
    <tag k="addr:state" v="VT"/>
    <tag k="ref:vcgi:esiteid" v="280230"/>
  </node>
  <node id="-156" visible="true" lat="43.51185989" lon="-72.52462005">
    <tag k="addr:housenumber" v="352"/>
    <tag k="addr:street" v="Wardner Road"/>
    <tag k="addr:state" v="VT"/>
    <tag k="ref:vcgi:esiteid" v="280231"/>
  </node>
  <node id="-158" visible="true" lat="43.51093292" lon="-72.52723693">
    <tag k="addr:housenumber" v="463"/>
    <tag k="addr:street" v="Wardner Road"/>
    <tag k="addr:state" v="VT"/>
    <tag k="ref:vcgi:esiteid" v="280233"/>
  </node>
  <node id="-159" visible="true" lat="43.5105133" lon="-72.45900726">
    <tag k="addr:housenumber" v="1722"/>
    <tag k="addr:street" v="Hammond Hill Road"/>
    <tag k="addr:state" v="VT"/>
    <tag k="ref:vcgi:esiteid" v="280234"/>
  </node>
  <node id="-160" visible="true" lat="43.51031875" lon="-72.48163604">
    <tag k="addr:housenumber" v="529"/>
    <tag k="addr:street" v="Cross Road"/>
    <tag k="addr:state" v="VT"/>
    <tag k="ref:vcgi:esiteid" v="280235"/>
  </node>
  <node id="-161" visible="true" lat="43.51016616" lon="-72.51667022">
    <tag k="addr:housenumber" v="3894"/>
    <tag k="addr:street" v="Rush Meadow Road"/>
    <tag k="addr:state" v="VT"/>
    <tag k="ref:vcgi:esiteid" v="280237"/>
  </node>
  <node id="-163" visible="true" lat="43.5100708" lon="-72.47971343">
    <tag k="addr:housenumber" v="379"/>
    <tag k="addr:street" v="Cross Road"/>
    <tag k="addr:state" v="VT"/>
    <tag k="ref:vcgi:esiteid" v="280239"/>
  </node>
  <node id="-164" visible="true" lat="43.51006698" lon="-72.4845581">
    <tag k="addr:housenumber" v="793"/>
    <tag k="addr:street" v="Blood Hill Road"/>
    <tag k="addr:state" v="VT"/>
    <tag k="ref:vcgi:esiteid" v="280240"/>
  </node>
  <node id="-165" visible="true" lat="43.51008919" lon="-72.52698678">
    <tag k="addr:housenumber" v="411"/>
    <tag k="addr:street" v="Wardner Road"/>
    <tag k="addr:state" v="VT"/>
    <tag k="ref:vcgi:esiteid" v="280241"/>
  </node>
  <node id="-167" visible="true" lat="43.50988006" lon="-72.48371887">
    <tag k="addr:housenumber" v="764"/>
    <tag k="addr:street" v="Blood Hill Road"/>
    <tag k="addr:state" v="VT"/>
    <tag k="ref:vcgi:esiteid" v="280243"/>
  </node>
  <node id="-168" visible="true" lat="43.50996603" lon="-72.52135793">
    <tag k="addr:housenumber" v="142"/>
    <tag k="addr:street" v="Wardner Road"/>
    <tag k="addr:state" v="VT"/>
    <tag k="ref:vcgi:esiteid" v="280244"/>
  </node>
  <node id="-169" visible="true" lat="43.50973114" lon="-72.49062878">
    <tag k="addr:housenumber" v="968"/>
    <tag k="addr:street" v="Silver Hill Road"/>
    <tag k="addr:state" v="VT"/>
    <tag k="ref:vcgi:esiteid" v="280245"/>
  </node>
  <node id="-171" visible="true" lat="43.50907985" lon="-72.46367312">
    <tag k="addr:housenumber" v="67"/>
    <tag k="addr:street" v="Bergland Lane"/>
    <tag k="addr:state" v="VT"/>
    <tag k="ref:vcgi:esiteid" v="280247"/>
  </node>
  <node id="-172" visible="true" lat="43.50890345" lon="-72.46090389">
    <tag k="addr:housenumber" v="1643"/>
    <tag k="addr:street" v="Hammond Hill Road"/>
    <tag k="addr:state" v="VT"/>
    <tag k="ref:vcgi:esiteid" v="280248"/>
  </node>
  <node id="-176" visible="true" lat="43.50829315" lon="-72.46457672">
    <tag k="addr:housenumber" v="65"/>
    <tag k="addr:street" v="Bergland Lane"/>
    <tag k="addr:state" v="VT"/>
    <tag k="ref:vcgi:esiteid" v="280252"/>
  </node>
  <node id="-177" visible="true" lat="43.5079689" lon="-72.46216583">
    <tag k="addr:housenumber" v="55"/>
    <tag k="addr:street" v="Bergland Lane"/>
    <tag k="addr:state" v="VT"/>
    <tag k="ref:vcgi:esiteid" v="280253"/>
  </node>
  <node id="-179" visible="true" lat="43.50790405" lon="-72.45752716">
    <tag k="addr:housenumber" v="137"/>
    <tag k="addr:street" v="Weeden Hill Road"/>
    <tag k="addr:state" v="VT"/>
    <tag k="ref:vcgi:esiteid" v="280255"/>
  </node>
  <node id="-180" visible="true" lat="43.50780487" lon="-72.47245025">
    <tag k="addr:housenumber" v="47"/>
    <tag k="addr:street" v="Yodel Valley Road"/>
    <tag k="addr:state" v="VT"/>
    <tag k="ref:vcgi:esiteid" v="280256"/>
  </node>
  <node id="-183" visible="true" lat="43.50686645" lon="-72.45637512">
    <tag k="addr:housenumber" v="64"/>
    <tag k="addr:street" v="Bald Hill Road"/>
    <tag k="addr:state" v="VT"/>
    <tag k="ref:vcgi:esiteid" v="280259"/>
  </node>
  <node id="-184" visible="true" lat="43.50681686" lon="-72.46091461">
    <tag k="addr:housenumber" v="1522"/>
    <tag k="addr:street" v="Hammond Hill Road"/>
    <tag k="addr:state" v="VT"/>
    <tag k="ref:vcgi:esiteid" v="280260"/>
  </node>
  <node id="-186" visible="true" lat="43.5065422" lon="-72.45746612">
    <tag k="addr:housenumber" v="92"/>
    <tag k="addr:street" v="Weeden Hill Road"/>
    <tag k="addr:state" v="VT"/>
    <tag k="ref:vcgi:esiteid" v="280262"/>
  </node>
  <node id="-188" visible="true" lat="43.5064392" lon="-72.45544433">
    <tag k="addr:housenumber" v="93"/>
    <tag k="addr:street" v="Bald Hill Road"/>
    <tag k="addr:state" v="VT"/>
    <tag k="ref:vcgi:esiteid" v="280264"/>
  </node>
  <node id="-191" visible="true" lat="43.50568771" lon="-72.48863983">
    <tag k="addr:housenumber" v="736"/>
    <tag k="addr:street" v="Silver Hill Road"/>
    <tag k="addr:state" v="VT"/>
    <tag k="ref:vcgi:esiteid" v="280267"/>
  </node>
  <node id="-192" visible="true" lat="43.50566101" lon="-72.47740173">
    <tag k="addr:housenumber" v="2985"/>
    <tag k="addr:street" v="Brownsville Hartland Road"/>
    <tag k="addr:state" v="VT"/>
    <tag k="ref:vcgi:esiteid" v="280268"/>
  </node>
  <node id="-193" visible="true" lat="43.50562286" lon="-72.45536804">
    <tag k="addr:housenumber" v="147"/>
    <tag k="addr:street" v="Bald Hill Road"/>
    <tag k="addr:state" v="VT"/>
    <tag k="ref:vcgi:esiteid" v="280269"/>
  </node>
  <node id="-195" visible="true" lat="43.50559616" lon="-72.48285675">
    <tag k="addr:housenumber" v="465"/>
    <tag k="addr:street" v="Blood Hill Road"/>
    <tag k="addr:state" v="VT"/>
    <tag k="ref:vcgi:esiteid" v="280271"/>
  </node>
  <node id="-196" visible="true" lat="43.50546264" lon="-72.46198272">
    <tag k="addr:housenumber" v="1389"/>
    <tag k="addr:street" v="Hammond Hill Road"/>
    <tag k="addr:state" v="VT"/>
    <tag k="ref:vcgi:esiteid" v="280272"/>
  </node>
  <node id="-198" visible="true" lat="43.50469234" lon="-72.51908535">
    <tag k="addr:housenumber" v="3496"/>
    <tag k="addr:street" v="Rush Meadow Road"/>
    <tag k="addr:state" v="VT"/>
    <tag k="ref:vcgi:esiteid" v="280274"/>
  </node>
  <node id="-199" visible="true" lat="43.50479125" lon="-72.46536254">
    <tag k="addr:housenumber" v="1337"/>
    <tag k="addr:street" v="Hammond Hill Road"/>
    <tag k="addr:state" v="VT"/>
    <tag k="ref:vcgi:esiteid" v="280275"/>
  </node>
  <node id="-201" visible="true" lat="43.5045166" lon="-72.45739746">
    <tag k="addr:housenumber" v="1378"/>
    <tag k="addr:street" v="Hammond Hill Road"/>
    <tag k="addr:state" v="VT"/>
    <tag k="ref:vcgi:esiteid" v="280277"/>
  </node>
  <node id="-202" visible="true" lat="43.50405243" lon="-72.48967734">
    <tag k="addr:housenumber" v="683"/>
    <tag k="addr:street" v="Silver Hill Road"/>
    <tag k="addr:state" v="VT"/>
    <tag k="ref:vcgi:esiteid" v="280278"/>
  </node>
  <node id="-203" visible="true" lat="43.5037117" lon="-72.46023559">
    <tag k="addr:housenumber" v="1358"/>
    <tag k="addr:street" v="Hammond Hill Road"/>
    <tag k="addr:state" v="VT"/>
    <tag k="ref:vcgi:esiteid" v="280279"/>
  </node>
  <node id="-204" visible="true" lat="43.50357437" lon="-72.48136901">
    <tag k="addr:housenumber" v="305"/>
    <tag k="addr:street" v="Blood Hill Road"/>
    <tag k="addr:state" v="VT"/>
    <tag k="ref:vcgi:esiteid" v="280280"/>
  </node>
  <node id="-205" visible="true" lat="43.50332937" lon="-72.45480242">
    <tag k="addr:housenumber" v="331"/>
    <tag k="addr:street" v="Bald Hill Road"/>
    <tag k="addr:state" v="VT"/>
    <tag k="ref:vcgi:esiteid" v="280281"/>
  </node>
  <node id="-207" visible="true" lat="43.50291843" lon="-72.49399415">
    <tag k="addr:housenumber" v="435"/>
    <tag k="addr:street" v="Cowshed Trail"/>
    <tag k="addr:state" v="VT"/>
    <tag k="ref:vcgi:esiteid" v="280283"/>
  </node>
  <node id="-208" visible="true" lat="43.50251388" lon="-72.46320343">
    <tag k="addr:housenumber" v="1184"/>
    <tag k="addr:street" v="Hammond Hill Road"/>
    <tag k="addr:state" v="VT"/>
    <tag k="ref:vcgi:esiteid" v="280285"/>
  </node>
  <node id="-210" visible="true" lat="43.50245666" lon="-72.52024078">
    <tag k="addr:housenumber" v="3307"/>
    <tag k="addr:street" v="Rush Meadow Road"/>
    <tag k="addr:state" v="VT"/>
    <tag k="ref:vcgi:esiteid" v="280287"/>
  </node>
  <node id="-211" visible="true" lat="43.50136184" lon="-72.46553039">
    <tag k="addr:housenumber" v="1048"/>
    <tag k="addr:street" v="Hammond Hill Road"/>
    <tag k="addr:state" v="VT"/>
    <tag k="ref:vcgi:esiteid" v="280288"/>
  </node>
  <node id="-213" visible="true" lat="43.50088119" lon="-72.49443054">
    <tag k="addr:housenumber" v="589"/>
    <tag k="addr:street" v="Cowshed Trail"/>
    <tag k="addr:state" v="VT"/>
    <tag k="ref:vcgi:esiteid" v="280290"/>
  </node>
  <node id="-214" visible="true" lat="43.50018691" lon="-72.51519775">
    <tag k="addr:housenumber" v="92"/>
    <tag k="addr:street" v="Prince Road"/>
    <tag k="addr:state" v="VT"/>
    <tag k="ref:vcgi:esiteid" v="280291"/>
  </node>
  <node id="-216" visible="true" lat="43.4999504" lon="-72.51041412">
    <tag k="addr:housenumber" v="258"/>
    <tag k="addr:street" v="Queen Victoria Road"/>
    <tag k="addr:state" v="VT"/>
    <tag k="ref:vcgi:esiteid" v="280293"/>
  </node>
  <node id="-217" visible="true" lat="43.49919891" lon="-72.49391174">
    <tag k="addr:housenumber" v="693"/>
    <tag k="addr:street" v="Cowshed Trail"/>
    <tag k="addr:state" v="VT"/>
    <tag k="ref:vcgi:esiteid" v="280294"/>
  </node>
  <node id="-219" visible="true" lat="43.49823443" lon="-72.51949576">
    <tag k="addr:housenumber" v="3023"/>
    <tag k="addr:street" v="Rush Meadow Road"/>
    <tag k="addr:state" v="VT"/>
    <tag k="ref:vcgi:esiteid" v="280296"/>
  </node>
  <node id="-220" visible="true" lat="43.49827194" lon="-72.46713256">
    <tag k="addr:housenumber" v="789"/>
    <tag k="addr:street" v="Hammond Hill Road"/>
    <tag k="addr:state" v="VT"/>
    <tag k="ref:vcgi:esiteid" v="280297"/>
  </node>
  <node id="-222" visible="true" lat="43.49799728" lon="-72.49443817">
    <tag k="addr:housenumber" v="837"/>
    <tag k="addr:street" v="Cowshed Trail"/>
    <tag k="addr:state" v="VT"/>
    <tag k="ref:vcgi:esiteid" v="280299"/>
  </node>
  <node id="-223" visible="true" lat="43.49794387" lon="-72.46102905">
    <tag k="addr:housenumber" v="610"/>
    <tag k="addr:street" v="Hammond Hill Road"/>
    <tag k="addr:state" v="VT"/>
    <tag k="ref:vcgi:esiteid" v="280300"/>
  </node>
  <node id="-224" visible="true" lat="43.49752044" lon="-72.52960205">
    <tag k="addr:housenumber" v="604"/>
    <tag k="addr:street" v="Delano Road"/>
    <tag k="addr:state" v="VT"/>
    <tag k="ref:vcgi:esiteid" v="280301"/>
  </node>
  <node id="-225" visible="true" lat="43.49786447" lon="-72.46386201">
    <tag k="addr:housenumber" v="790"/>
    <tag k="addr:street" v="Hammond Hill Road"/>
    <tag k="addr:state" v="VT"/>
    <tag k="ref:vcgi:esiteid" v="280302"/>
  </node>
  <node id="-226" visible="true" lat="43.49708268" lon="-72.49446548">
    <tag k="addr:housenumber" v="845"/>
    <tag k="addr:street" v="Cowshed Trail"/>
    <tag k="addr:state" v="VT"/>
    <tag k="ref:vcgi:esiteid" v="280303"/>
  </node>
  <node id="-228" visible="true" lat="43.49674224" lon="-72.50859069">
    <tag k="addr:housenumber" v="2194"/>
    <tag k="addr:street" v="Sheddsville Road"/>
    <tag k="addr:state" v="VT"/>
    <tag k="ref:vcgi:esiteid" v="280305"/>
  </node>
  <node id="-229" visible="true" lat="43.49639558" lon="-72.49399625">
    <tag k="addr:housenumber" v="923"/>
    <tag k="addr:street" v="Cowshed Trail"/>
    <tag k="addr:state" v="VT"/>
    <tag k="ref:vcgi:esiteid" v="280306"/>
  </node>
  <node id="-230" visible="true" lat="43.4963888" lon="-72.51795669">
    <tag k="addr:housenumber" v="2731"/>
    <tag k="addr:street" v="Sheddsville Road"/>
    <tag k="addr:state" v="VT"/>
    <tag k="ref:vcgi:esiteid" v="280307"/>
  </node>
  <node id="-231" visible="true" lat="43.49626049" lon="-72.51503798">
    <tag k="addr:housenumber" v="2572"/>
    <tag k="addr:street" v="Sheddsville Road"/>
    <tag k="addr:state" v="VT"/>
    <tag k="ref:vcgi:esiteid" v="280308"/>
  </node>
  <node id="-232" visible="true" lat="43.49554887" lon="-72.51471637">
    <tag k="addr:housenumber" v="2575"/>
    <tag k="addr:street" v="Sheddsville Road"/>
    <tag k="addr:state" v="VT"/>
    <tag k="ref:vcgi:esiteid" v="280309"/>
  </node>
  <node id="-233" visible="true" lat="43.49562835" lon="-72.464859">
    <tag k="addr:housenumber" v="670"/>
    <tag k="addr:street" v="Hammond Hill Road"/>
    <tag k="addr:state" v="VT"/>
    <tag k="ref:vcgi:esiteid" v="280310"/>
  </node>
  <node id="-235" visible="true" lat="43.49550628" lon="-72.46562194">
    <tag k="addr:housenumber" v="622"/>
    <tag k="addr:street" v="Hammond Hill Road"/>
    <tag k="addr:state" v="VT"/>
    <tag k="ref:vcgi:esiteid" v="280312"/>
  </node>
  <node id="-236" visible="true" lat="43.49542999" lon="-72.52514648">
    <tag k="addr:housenumber" v="318"/>
    <tag k="addr:street" v="Delano Road"/>
    <tag k="addr:state" v="VT"/>
    <tag k="ref:vcgi:esiteid" v="280313"/>
  </node>
  <node id="-237" visible="true" lat="43.49541186" lon="-72.47054832">
    <tag k="addr:housenumber" v="427"/>
    <tag k="addr:street" v="Hammond Hill Road"/>
    <tag k="addr:state" v="VT"/>
    <tag k="ref:vcgi:esiteid" v="280314"/>
  </node>
  <node id="-238" visible="true" lat="43.4953804" lon="-72.46675109">
    <tag k="addr:housenumber" v="571"/>
    <tag k="addr:street" v="Hammond Hill Road"/>
    <tag k="addr:state" v="VT"/>
    <tag k="ref:vcgi:esiteid" v="280315"/>
  </node>
  <node id="-239" visible="true" lat="43.49531369" lon="-72.47200123">
    <tag k="addr:housenumber" v="429"/>
    <tag k="addr:street" v="Hammond Hill Road"/>
    <tag k="addr:state" v="VT"/>
    <tag k="ref:vcgi:esiteid" v="280316"/>
  </node>
  <node id="-240" visible="true" lat="43.49529266" lon="-72.46829986">
    <tag k="addr:housenumber" v="485"/>
    <tag k="addr:street" v="Hammond Hill Road"/>
    <tag k="addr:state" v="VT"/>
    <tag k="ref:vcgi:esiteid" v="280317"/>
  </node>
  <node id="-241" visible="true" lat="43.49557034" lon="-72.505961">
    <tag k="addr:housenumber" v="2022"/>
    <tag k="addr:street" v="Sheddsville Road"/>
    <tag k="addr:state" v="VT"/>
    <tag k="ref:vcgi:esiteid" v="280318"/>
  </node>
  <node id="-242" visible="true" lat="43.49499904" lon="-72.52747935">
    <tag k="addr:housenumber" v="448"/>
    <tag k="addr:street" v="Delano Road"/>
    <tag k="addr:state" v="VT"/>
    <tag k="ref:vcgi:esiteid" v="280320"/>
  </node>
  <node id="-243" visible="true" lat="43.49486297" lon="-72.52208137">
    <tag k="addr:housenumber" v="171"/>
    <tag k="addr:street" v="Delano Road"/>
    <tag k="addr:state" v="VT"/>
    <tag k="ref:vcgi:esiteid" v="280321"/>
  </node>
  <node id="-244" visible="true" lat="43.49464798" lon="-72.46566009">
    <tag k="addr:housenumber" v="608"/>
    <tag k="addr:street" v="Hammond Hill Road"/>
    <tag k="addr:state" v="VT"/>
    <tag k="ref:vcgi:esiteid" v="280322"/>
  </node>
  <node id="-245" visible="true" lat="43.49436214" lon="-72.5033393">
    <tag k="addr:housenumber" v="1888"/>
    <tag k="addr:street" v="Sheddsville Road"/>
    <tag k="addr:state" v="VT"/>
    <tag k="ref:vcgi:esiteid" v="280323"/>
  </node>
  <node id="-246" visible="true" lat="43.49428128" lon="-72.5261612">
    <tag k="addr:housenumber" v="367"/>
    <tag k="addr:street" v="Delano Road"/>
    <tag k="addr:state" v="VT"/>
    <tag k="ref:vcgi:esiteid" v="280324"/>
  </node>
  <node id="-247" visible="true" lat="43.49423116" lon="-72.52505344">
    <tag k="addr:housenumber" v="357"/>
    <tag k="addr:street" v="Delano Road"/>
    <tag k="addr:state" v="VT"/>
    <tag k="ref:vcgi:esiteid" v="280325"/>
  </node>
  <node id="-248" visible="true" lat="43.49404188" lon="-72.52320145">
    <tag k="addr:housenumber" v="255"/>
    <tag k="addr:street" v="Delano Road"/>
    <tag k="addr:state" v="VT"/>
    <tag k="ref:vcgi:esiteid" v="280326"/>
  </node>
  <node id="-249" visible="true" lat="43.49413299" lon="-72.47006988">
    <tag k="addr:housenumber" v="373"/>
    <tag k="addr:street" v="Hammond Hill Road"/>
    <tag k="addr:state" v="VT"/>
    <tag k="ref:vcgi:esiteid" v="280327"/>
  </node>
  <node id="-250" visible="true" lat="43.49394178" lon="-72.5182724">
    <tag k="addr:housenumber" v="2711"/>
    <tag k="addr:street" v="Rush Meadow Road"/>
    <tag k="addr:state" v="VT"/>
    <tag k="ref:vcgi:esiteid" v="280328"/>
  </node>
  <node id="-251" visible="true" lat="43.49320425" lon="-72.50357686">
    <tag k="addr:housenumber" v="1871"/>
    <tag k="addr:street" v="Sheddsville Road"/>
    <tag k="addr:state" v="VT"/>
    <tag k="ref:vcgi:esiteid" v="280329"/>
  </node>
  <node id="-252" visible="true" lat="43.49306865" lon="-72.47121101">
    <tag k="addr:housenumber" v="273"/>
    <tag k="addr:street" v="Hammond Hill Road"/>
    <tag k="addr:state" v="VT"/>
    <tag k="ref:vcgi:esiteid" v="280330"/>
  </node>
  <node id="-253" visible="true" lat="43.49301036" lon="-72.51751825">
    <tag k="addr:housenumber" v="2620"/>
    <tag k="addr:street" v="Rush Meadow Road"/>
    <tag k="addr:state" v="VT"/>
    <tag k="ref:vcgi:esiteid" v="280331"/>
  </node>
  <node id="-254" visible="true" lat="43.49253082" lon="-72.47818756">
    <tag k="addr:housenumber" v="1925"/>
    <tag k="addr:street" v="Brownsville Hartland Road"/>
    <tag k="addr:state" v="VT"/>
    <tag k="ref:vcgi:esiteid" v="280332"/>
  </node>
  <node id="-255" visible="true" lat="43.49208831" lon="-72.479393">
    <tag k="addr:housenumber" v="1927"/>
    <tag k="addr:street" v="Brownsville Hartland Road"/>
    <tag k="addr:state" v="VT"/>
    <tag k="ref:vcgi:esiteid" v="280333"/>
  </node>
  <node id="-256" visible="true" lat="43.49178235" lon="-72.50649715">
    <tag k="addr:housenumber" v="1043"/>
    <tag k="addr:street" v="Banister Road"/>
    <tag k="addr:state" v="VT"/>
    <tag k="ref:vcgi:esiteid" v="280334"/>
  </node>
  <node id="-257" visible="true" lat="43.49165881" lon="-72.50499965">
    <tag k="addr:housenumber" v="1051"/>
    <tag k="addr:street" v="Banister Road"/>
    <tag k="addr:state" v="VT"/>
    <tag k="ref:vcgi:esiteid" v="280335"/>
  </node>
  <node id="-258" visible="true" lat="43.49154081" lon="-72.50244022">
    <tag k="addr:housenumber" v="1697"/>
    <tag k="addr:street" v="Sheddsville Road"/>
    <tag k="addr:state" v="VT"/>
    <tag k="ref:vcgi:esiteid" v="280336"/>
  </node>
  <node id="-259" visible="true" lat="43.49127149" lon="-72.51887512">
    <tag k="addr:housenumber" v="2547"/>
    <tag k="addr:street" v="Rush Meadow Road"/>
    <tag k="addr:state" v="VT"/>
    <tag k="ref:vcgi:esiteid" v="280338"/>
  </node>
  <node id="-261" visible="true" lat="43.49037086" lon="-72.47463791">
    <tag k="addr:housenumber" v="22"/>
    <tag k="addr:street" v="Hammond Hill Road"/>
    <tag k="addr:state" v="VT"/>
    <tag k="ref:vcgi:esiteid" v="280340"/>
  </node>
  <node id="-262" visible="true" lat="43.49038591" lon="-72.51745473">
    <tag k="addr:housenumber" v="2458"/>
    <tag k="addr:street" v="Rush Meadow Road"/>
    <tag k="addr:state" v="VT"/>
    <tag k="ref:vcgi:esiteid" v="280341"/>
  </node>
  <node id="-263" visible="true" lat="43.49032592" lon="-72.50138305">
    <tag k="addr:housenumber" v="1253"/>
    <tag k="addr:street" v="Banister Road"/>
    <tag k="addr:state" v="VT"/>
    <tag k="ref:vcgi:esiteid" v="280342"/>
  </node>
  <node id="-264" visible="true" lat="43.49027633" lon="-72.4751892">
    <tag k="addr:housenumber" v="1585"/>
    <tag k="addr:street" v="Brownsville Hartland Road"/>
    <tag k="addr:state" v="VT"/>
    <tag k="ref:vcgi:esiteid" v="280343"/>
  </node>
  <node id="-265" visible="true" lat="43.49015315" lon="-72.52748373">
    <tag k="addr:housenumber" v="343"/>
    <tag k="addr:street" v="Auger Hole Road"/>
    <tag k="addr:state" v="VT"/>
    <tag k="ref:vcgi:esiteid" v="280344"/>
  </node>
  <node id="-266" visible="true" lat="43.49012326" lon="-72.52987671">
    <tag k="addr:housenumber" v="154"/>
    <tag k="addr:street" v="Auger Hole Road"/>
    <tag k="addr:state" v="VT"/>
    <tag k="ref:vcgi:esiteid" v="280345"/>
  </node>
  <node id="-267" visible="true" lat="43.49003691" lon="-72.50238907">
    <tag k="addr:housenumber" v="1215"/>
    <tag k="addr:street" v="Banister Road"/>
    <tag k="addr:state" v="VT"/>
    <tag k="ref:vcgi:esiteid" v="280346"/>
  </node>
  <node id="-268" visible="true" lat="43.48977279" lon="-72.47666931">
    <tag k="addr:housenumber" v="1461"/>
    <tag k="addr:street" v="Brownsville Hartland Road"/>
    <tag k="addr:state" v="VT"/>
    <tag k="ref:vcgi:esiteid" v="280347"/>
  </node>
  <node id="-269" visible="true" lat="43.48975303" lon="-72.47478787">
    <tag k="addr:housenumber" v="1550"/>
    <tag k="addr:street" v="Brownsville Hartland Road"/>
    <tag k="addr:state" v="VT"/>
    <tag k="ref:vcgi:esiteid" v="280348"/>
  </node>
  <node id="-275" visible="true" lat="43.48912811" lon="-72.50845336">
    <tag k="addr:housenumber" v="891"/>
    <tag k="addr:street" v="Banister Road"/>
    <tag k="addr:state" v="VT"/>
    <tag k="ref:vcgi:esiteid" v="280354"/>
  </node>
  <node id="-277" visible="true" lat="43.48911491" lon="-72.47501045">
    <tag k="addr:housenumber" v="1500"/>
    <tag k="addr:street" v="Brownsville Hartland Road"/>
    <tag k="addr:state" v="VT"/>
    <tag k="ref:vcgi:esiteid" v="280356"/>
  </node>
  <node id="-279" visible="true" lat="43.48860549" lon="-72.47441863">
    <tag k="addr:housenumber" v="1476"/>
    <tag k="addr:street" v="Brownsville Hartland Road"/>
    <tag k="addr:state" v="VT"/>
    <tag k="ref:vcgi:esiteid" v="280358"/>
  </node>
  <node id="-280" visible="true" lat="43.4884359" lon="-72.50321303">
    <tag k="addr:housenumber" v="1246"/>
    <tag k="addr:street" v="Banister Road"/>
    <tag k="addr:state" v="VT"/>
    <tag k="ref:vcgi:esiteid" v="280359"/>
  </node>
  <node id="-281" visible="true" lat="43.4884715" lon="-72.51840973">
    <tag k="addr:housenumber" v="2310"/>
    <tag k="addr:street" v="Rush Meadow Road"/>
    <tag k="addr:state" v="VT"/>
    <tag k="ref:vcgi:esiteid" v="280360"/>
  </node>
  <node id="-283" visible="true" lat="43.48765182" lon="-72.48657226">
    <tag k="addr:housenumber" v="584"/>
    <tag k="addr:street" v="Cemetery Road"/>
    <tag k="addr:state" v="VT"/>
    <tag k="ref:vcgi:esiteid" v="280362"/>
  </node>
  <node id="-286" visible="true" lat="43.48712158" lon="-72.47637176">
    <tag k="addr:housenumber" v="1365"/>
    <tag k="addr:street" v="Brownsville Hartland Road"/>
    <tag k="addr:state" v="VT"/>
    <tag k="ref:vcgi:esiteid" v="280365"/>
  </node>
  <node id="-288" visible="true" lat="43.48682022" lon="-72.51110839">
    <tag k="addr:housenumber" v="607"/>
    <tag k="addr:street" v="Banister Road"/>
    <tag k="addr:state" v="VT"/>
    <tag k="ref:vcgi:esiteid" v="280367"/>
  </node>
  <node id="-290" visible="true" lat="43.48667907" lon="-72.47525024">
    <tag k="addr:housenumber" v="1334"/>
    <tag k="addr:street" v="Brownsville Hartland Road"/>
    <tag k="addr:state" v="VT"/>
    <tag k="ref:vcgi:esiteid" v="280369"/>
  </node>
  <node id="-293" visible="true" lat="43.48655504" lon="-72.478618">
    <tag k="addr:housenumber" v="188"/>
    <tag k="addr:street" v="Cemetery Road"/>
    <tag k="addr:state" v="VT"/>
    <tag k="ref:vcgi:esiteid" v="280372"/>
  </node>
  <node id="-296" visible="true" lat="43.48619842" lon="-72.51886749">
    <tag k="addr:housenumber" v="2148"/>
    <tag k="addr:street" v="Rush Meadow Road"/>
    <tag k="addr:state" v="VT"/>
    <tag k="ref:vcgi:esiteid" v="280375"/>
  </node>
  <node id="-297" visible="true" lat="43.48612976" lon="-72.46967315">
    <tag k="addr:housenumber" v="309"/>
    <tag k="addr:street" v="Coon Club Road"/>
    <tag k="addr:state" v="VT"/>
    <tag k="ref:vcgi:esiteid" v="280376"/>
  </node>
  <node id="-298" visible="true" lat="43.48584108" lon="-72.49867465">
    <tag k="addr:housenumber" v="1401"/>
    <tag k="addr:street" v="Sheddsville Road"/>
    <tag k="addr:state" v="VT"/>
    <tag k="ref:vcgi:esiteid" v="280377"/>
  </node>
  <node id="-299" visible="true" lat="43.48554907" lon="-72.47630092">
    <tag k="addr:housenumber" v="58"/>
    <tag k="addr:street" v="Cemetery Road"/>
    <tag k="addr:state" v="VT"/>
    <tag k="ref:vcgi:esiteid" v="280378"/>
  </node>
  <node id="-301" visible="true" lat="43.48482131" lon="-72.47563934">
    <tag k="addr:housenumber" v="1204"/>
    <tag k="addr:street" v="Brownsville Hartland Road"/>
    <tag k="addr:state" v="VT"/>
    <tag k="ref:vcgi:esiteid" v="280380"/>
  </node>
  <node id="-302" visible="true" lat="43.48460502" lon="-72.50895688">
    <tag k="addr:housenumber" v="618"/>
    <tag k="addr:street" v="Banister Road"/>
    <tag k="addr:state" v="VT"/>
    <tag k="ref:vcgi:esiteid" v="280381"/>
  </node>
  <node id="-305" visible="true" lat="43.48422524" lon="-72.47613088">
    <tag k="addr:housenumber" v="1163"/>
    <tag k="addr:street" v="Brownsville Hartland Road"/>
    <tag k="addr:state" v="VT"/>
    <tag k="ref:vcgi:esiteid" v="280384"/>
  </node>
  <node id="-309" visible="true" lat="43.4836892" lon="-72.47396582">
    <tag k="addr:housenumber" v="164"/>
    <tag k="addr:street" v="Coon Club Road"/>
    <tag k="addr:state" v="VT"/>
    <tag k="ref:vcgi:esiteid" v="280388"/>
  </node>
  <node id="-314" visible="true" lat="43.48334589" lon="-72.51678033">
    <tag k="addr:housenumber" v="1956"/>
    <tag k="addr:street" v="Rush Meadow Road"/>
    <tag k="addr:state" v="VT"/>
    <tag k="ref:vcgi:esiteid" v="280393"/>
  </node>
  <node id="-315" visible="true" lat="43.4832611" lon="-72.48860931">
    <tag k="addr:housenumber" v="767"/>
    <tag k="addr:street" v="Sheddsville Road"/>
    <tag k="addr:state" v="VT"/>
    <tag k="ref:vcgi:esiteid" v="280394"/>
  </node>
  <node id="-319" visible="true" lat="43.48298263" lon="-72.48430633">
    <tag k="addr:housenumber" v="578"/>
    <tag k="addr:street" v="Sheddsville Road"/>
    <tag k="addr:state" v="VT"/>
    <tag k="ref:vcgi:esiteid" v="280398"/>
  </node>
  <node id="-320" visible="true" lat="43.48285461" lon="-72.48792212">
    <tag k="addr:housenumber" v="722"/>
    <tag k="addr:street" v="Sheddsville Road"/>
    <tag k="addr:state" v="VT"/>
    <tag k="ref:vcgi:esiteid" v="280399"/>
  </node>
  <node id="-321" visible="true" lat="43.48285245" lon="-72.51111603">
    <tag k="addr:housenumber" v="402"/>
    <tag k="addr:street" v="Banister Road"/>
    <tag k="addr:state" v="VT"/>
    <tag k="ref:vcgi:esiteid" v="280400"/>
  </node>
  <node id="-322" visible="true" lat="43.48283719" lon="-72.51934052">
    <tag k="addr:housenumber" v="1923"/>
    <tag k="addr:street" v="Rush Meadow Road"/>
    <tag k="addr:state" v="VT"/>
    <tag k="ref:vcgi:esiteid" v="280401"/>
  </node>
  <node id="-324" visible="true" lat="43.48271942" lon="-72.51656341">
    <tag k="addr:housenumber" v="1958"/>
    <tag k="addr:street" v="Rush Meadow Road"/>
    <tag k="addr:state" v="VT"/>
    <tag k="ref:vcgi:esiteid" v="280403"/>
  </node>
  <node id="-330" visible="true" lat="43.48234176" lon="-72.49082946">
    <tag k="addr:housenumber" v="1777"/>
    <tag k="addr:street" v="Bible Hill Road"/>
    <tag k="addr:state" v="VT"/>
    <tag k="ref:vcgi:esiteid" v="280409"/>
  </node>
  <node id="-335" visible="true" lat="43.48122787" lon="-72.51637268">
    <tag k="addr:housenumber" v="1720"/>
    <tag k="addr:street" v="Rush Meadow Road"/>
    <tag k="addr:state" v="VT"/>
    <tag k="ref:vcgi:esiteid" v="280414"/>
  </node>
  <node id="-336" visible="true" lat="43.48115921" lon="-72.48136138">
    <tag k="addr:housenumber" v="351"/>
    <tag k="addr:street" v="Sheddsville Road"/>
    <tag k="addr:state" v="VT"/>
    <tag k="ref:vcgi:esiteid" v="280415"/>
  </node>
  <node id="-339" visible="true" lat="43.48064274" lon="-72.48903328">
    <tag k="addr:housenumber" v="1712"/>
    <tag k="addr:street" v="Bible Hill Road"/>
    <tag k="addr:state" v="VT"/>
    <tag k="ref:vcgi:esiteid" v="280419"/>
  </node>
  <node id="-342" visible="true" lat="43.48064422" lon="-72.51389312">
    <tag k="addr:housenumber" v="181"/>
    <tag k="addr:street" v="Banister Road"/>
    <tag k="addr:state" v="VT"/>
    <tag k="ref:vcgi:esiteid" v="280422"/>
  </node>
  <node id="-343" visible="true" lat="43.48060409" lon="-72.51507679">
    <tag k="addr:housenumber" v="1718"/>
    <tag k="addr:street" v="Rush Meadow Road"/>
    <tag k="addr:state" v="VT"/>
    <tag k="ref:vcgi:esiteid" v="280423"/>
  </node>
  <node id="-344" visible="true" lat="43.48041915" lon="-72.48578643">
    <tag k="addr:housenumber" v="559"/>
    <tag k="addr:street" v="Sheddsville Road"/>
    <tag k="addr:state" v="VT"/>
    <tag k="ref:vcgi:esiteid" v="280424"/>
  </node>
  <node id="-346" visible="true" lat="43.48028945" lon="-72.46471404">
    <tag k="addr:housenumber" v="245"/>
    <tag k="addr:street" v="Edson Burke Road"/>
    <tag k="addr:state" v="VT"/>
    <tag k="ref:vcgi:esiteid" v="280426"/>
  </node>
  <node id="-347" visible="true" lat="43.48023986" lon="-72.47135162">
    <tag k="addr:housenumber" v="251"/>
    <tag k="addr:street" v="Dunkel Road"/>
    <tag k="addr:state" v="VT"/>
    <tag k="ref:vcgi:esiteid" v="280427"/>
  </node>
  <node id="-349" visible="true" lat="43.47980895" lon="-72.51575643">
    <tag k="addr:housenumber" v="1651"/>
    <tag k="addr:street" v="Rush Meadow Road"/>
    <tag k="addr:state" v="VT"/>
    <tag k="ref:vcgi:esiteid" v="280429"/>
  </node>
  <node id="-350" visible="true" lat="43.47926014" lon="-72.51549062">
    <tag k="addr:housenumber" v="1589"/>
    <tag k="addr:street" v="Rush Meadow Road"/>
    <tag k="addr:state" v="VT"/>
    <tag k="ref:vcgi:esiteid" v="280430"/>
  </node>
  <node id="-352" visible="true" lat="43.479248" lon="-72.49817002">
    <tag k="addr:housenumber" v="118"/>
    <tag k="addr:street" v="Jewett Road"/>
    <tag k="addr:state" v="VT"/>
    <tag k="ref:vcgi:esiteid" v="280432"/>
  </node>
  <node id="-353" visible="true" lat="43.47920112" lon="-72.47081743">
    <tag k="addr:housenumber" v="339"/>
    <tag k="addr:street" v="Dunkel Road"/>
    <tag k="addr:state" v="VT"/>
    <tag k="ref:vcgi:esiteid" v="280433"/>
  </node>
  <node id="-354" visible="true" lat="43.47874832" lon="-72.46530151">
    <tag k="addr:housenumber" v="324"/>
    <tag k="addr:street" v="Edson Burke Road"/>
    <tag k="addr:state" v="VT"/>
    <tag k="ref:vcgi:esiteid" v="280434"/>
  </node>
  <node id="-357" visible="true" lat="43.47859953" lon="-72.51389618">
    <tag k="addr:housenumber" v="57"/>
    <tag k="addr:street" v="Banister Road"/>
    <tag k="addr:state" v="VT"/>
    <tag k="ref:vcgi:esiteid" v="280437"/>
  </node>
  <node id="-358" visible="true" lat="43.47859573" lon="-72.5046997">
    <tag k="addr:housenumber" v="356"/>
    <tag k="addr:street" v="Apple Orchard Road"/>
    <tag k="addr:state" v="VT"/>
    <tag k="ref:vcgi:esiteid" v="280438"/>
  </node>
  <node id="-359" visible="true" lat="43.47844182" lon="-72.50326868">
    <tag k="addr:housenumber" v="344"/>
    <tag k="addr:street" v="Apple Orchard Road"/>
    <tag k="addr:state" v="VT"/>
    <tag k="ref:vcgi:esiteid" v="280439"/>
  </node>
  <node id="-360" visible="true" lat="43.4781723" lon="-72.48977661">
    <tag k="addr:housenumber" v="1529"/>
    <tag k="addr:street" v="Bible Hill Road"/>
    <tag k="addr:state" v="VT"/>
    <tag k="ref:vcgi:esiteid" v="280440"/>
  </node>
  <node id="-361" visible="true" lat="43.47798911" lon="-72.48586705">
    <tag k="addr:housenumber" v="207"/>
    <tag k="addr:street" v="Corliss Farm Road"/>
    <tag k="addr:state" v="VT"/>
    <tag k="ref:vcgi:esiteid" v="280441"/>
  </node>
  <node id="-362" visible="true" lat="43.47769847" lon="-72.5147758">
    <tag k="addr:housenumber" v="1503"/>
    <tag k="addr:street" v="Rush Meadow Road"/>
    <tag k="addr:state" v="VT"/>
    <tag k="ref:vcgi:esiteid" v="280442"/>
  </node>
  <node id="-363" visible="true" lat="43.47753906" lon="-72.50287628">
    <tag k="addr:housenumber" v="279"/>
    <tag k="addr:street" v="Apple Orchard Road"/>
    <tag k="addr:state" v="VT"/>
    <tag k="ref:vcgi:esiteid" v="280443"/>
  </node>
  <node id="-364" visible="true" lat="43.47763474" lon="-72.50151737">
    <tag k="addr:housenumber" v="228"/>
    <tag k="addr:street" v="Apple Orchard Road"/>
    <tag k="addr:state" v="VT"/>
    <tag k="ref:vcgi:esiteid" v="280444"/>
  </node>
  <node id="-370" visible="true" lat="43.47594553" lon="-72.47836961">
    <tag k="addr:housenumber" v="235"/>
    <tag k="addr:street" v="Stone Meadow Lane"/>
    <tag k="addr:state" v="VT"/>
    <tag k="ref:vcgi:esiteid" v="280450"/>
  </node>
  <node id="-371" visible="true" lat="43.47597074" lon="-72.51573944">
    <tag k="addr:housenumber" v="771"/>
    <tag k="addr:street" v="Shattuck Hill Road"/>
    <tag k="addr:state" v="VT"/>
    <tag k="ref:vcgi:esiteid" v="280451"/>
  </node>
  <node id="-374" visible="true" lat="43.47591781" lon="-72.46313476">
    <tag k="addr:housenumber" v="460"/>
    <tag k="addr:street" v="Pierce Hill Road"/>
    <tag k="addr:state" v="VT"/>
    <tag k="ref:vcgi:esiteid" v="280454"/>
  </node>
  <node id="-377" visible="true" lat="43.47573089" lon="-72.51391601">
    <tag k="addr:housenumber" v="1351"/>
    <tag k="addr:street" v="Rush Meadow Road"/>
    <tag k="addr:state" v="VT"/>
    <tag k="ref:vcgi:esiteid" v="280459"/>
  </node>
  <node id="-378" visible="true" lat="43.47560501" lon="-72.46054077">
    <tag k="addr:housenumber" v="310"/>
    <tag k="addr:street" v="Pierce Hill Road"/>
    <tag k="addr:state" v="VT"/>
    <tag k="ref:vcgi:esiteid" v="280460"/>
  </node>
  <node id="-380" visible="true" lat="43.47550201" lon="-72.51208496">
    <tag k="addr:housenumber" v="11"/>
    <tag k="addr:street" v="West Rowe Hill Road"/>
    <tag k="addr:state" v="VT"/>
    <tag k="ref:vcgi:esiteid" v="280462"/>
  </node>
  <node id="-383" visible="true" lat="43.47463531" lon="-72.5165797">
    <tag k="addr:housenumber" v="706"/>
    <tag k="addr:street" v="Shattuck Hill Road"/>
    <tag k="addr:state" v="VT"/>
    <tag k="ref:vcgi:esiteid" v="280465"/>
  </node>
  <node id="-386" visible="true" lat="43.47420072" lon="-72.52430725">
    <tag k="addr:housenumber" v="515"/>
    <tag k="addr:street" v="Shattuck Hill Road"/>
    <tag k="addr:state" v="VT"/>
    <tag k="ref:vcgi:esiteid" v="280469"/>
  </node>
  <node id="-387" visible="true" lat="43.47409009" lon="-72.52271271">
    <tag k="addr:housenumber" v="513"/>
    <tag k="addr:street" v="Shattuck Hill Road"/>
    <tag k="addr:state" v="VT"/>
    <tag k="ref:vcgi:esiteid" v="280470"/>
  </node>
  <node id="-391" visible="true" lat="43.47359866" lon="-72.51927681">
    <tag k="addr:housenumber" v="543"/>
    <tag k="addr:street" v="Shattuck Hill Road"/>
    <tag k="addr:state" v="VT"/>
    <tag k="ref:vcgi:esiteid" v="280474"/>
  </node>
  <node id="-393" visible="true" lat="43.47361755" lon="-72.46677398">
    <tag k="addr:housenumber" v="571"/>
    <tag k="addr:street" v="Strawberry Hill Road"/>
    <tag k="addr:state" v="VT"/>
    <tag k="ref:vcgi:esiteid" v="280476"/>
  </node>
  <node id="-394" visible="true" lat="43.47340475" lon="-72.51782058">
    <tag k="addr:housenumber" v="644"/>
    <tag k="addr:street" v="Shattuck Hill Road"/>
    <tag k="addr:state" v="VT"/>
    <tag k="ref:vcgi:esiteid" v="280477"/>
  </node>
  <node id="-400" visible="true" lat="43.47303009" lon="-72.4535675">
    <tag k="addr:housenumber" v="188"/>
    <tag k="addr:street" v="Rokepa Road"/>
    <tag k="addr:state" v="VT"/>
    <tag k="ref:vcgi:esiteid" v="280483"/>
  </node>
  <node id="-406" visible="true" lat="43.47268628" lon="-72.51941681">
    <tag k="addr:housenumber" v="476"/>
    <tag k="addr:street" v="Shattuck Hill Road"/>
    <tag k="addr:state" v="VT"/>
    <tag k="ref:vcgi:esiteid" v="280489"/>
  </node>
  <node id="-409" visible="true" lat="43.47232817" lon="-72.45467377">
    <tag k="addr:housenumber" v="123"/>
    <tag k="addr:street" v="Rokepa Road"/>
    <tag k="addr:state" v="VT"/>
    <tag k="ref:vcgi:esiteid" v="280492"/>
  </node>
  <node id="-411" visible="true" lat="43.4722023" lon="-72.51169586">
    <tag k="addr:housenumber" v="1084"/>
    <tag k="addr:street" v="Rush Meadow Road"/>
    <tag k="addr:state" v="VT"/>
    <tag k="ref:vcgi:esiteid" v="280494"/>
  </node>
  <node id="-412" visible="true" lat="43.47216367" lon="-72.52282715">
    <tag k="addr:housenumber" v="373"/>
    <tag k="addr:street" v="Shattuck Hill Road"/>
    <tag k="addr:state" v="VT"/>
    <tag k="ref:vcgi:esiteid" v="280495"/>
  </node>
  <node id="-413" visible="true" lat="43.47181166" lon="-72.50993711">
    <tag k="addr:housenumber" v="204"/>
    <tag k="addr:street" v="West Rowe Hill Road"/>
    <tag k="addr:state" v="VT"/>
    <tag k="ref:vcgi:esiteid" v="280496"/>
  </node>
  <node id="-414" visible="true" lat="43.47193706" lon="-72.51132322">
    <tag k="addr:housenumber" v="1076"/>
    <tag k="addr:street" v="Rush Meadow Road"/>
    <tag k="addr:state" v="VT"/>
    <tag k="ref:vcgi:esiteid" v="280497"/>
  </node>
  <node id="-415" visible="true" lat="43.47172164" lon="-72.51415252">
    <tag k="addr:housenumber" v="1119"/>
    <tag k="addr:street" v="Rush Meadow Road"/>
    <tag k="addr:state" v="VT"/>
    <tag k="ref:vcgi:esiteid" v="280498"/>
  </node>
  <node id="-420" visible="true" lat="43.47136374" lon="-72.45486617">
    <tag k="addr:housenumber" v="53"/>
    <tag k="addr:street" v="Rokepa Road"/>
    <tag k="addr:state" v="VT"/>
    <tag k="ref:vcgi:esiteid" v="280503"/>
  </node>
  <node id="-423" visible="true" lat="43.4711647" lon="-72.45586395">
    <tag k="addr:housenumber" v="667"/>
    <tag k="addr:street" v="Brook Road"/>
    <tag k="addr:state" v="VT"/>
    <tag k="ref:vcgi:esiteid" v="280506"/>
  </node>
  <node id="-424" visible="true" lat="43.47114471" lon="-72.45709064">
    <tag k="addr:housenumber" v="616"/>
    <tag k="addr:street" v="Brook Road"/>
    <tag k="addr:state" v="VT"/>
    <tag k="ref:vcgi:esiteid" v="280507"/>
  </node>
  <node id="-425" visible="true" lat="43.47113037" lon="-72.51969909">
    <tag k="addr:housenumber" v="352"/>
    <tag k="addr:street" v="Shattuck Hill Road"/>
    <tag k="addr:state" v="VT"/>
    <tag k="ref:vcgi:esiteid" v="280508"/>
  </node>
  <node id="-426" visible="true" lat="43.47085199" lon="-72.52116392">
    <tag k="addr:housenumber" v="325"/>
    <tag k="addr:street" v="Shattuck Hill Road"/>
    <tag k="addr:state" v="VT"/>
    <tag k="ref:vcgi:esiteid" v="280509"/>
  </node>
  <node id="-428" visible="true" lat="43.47054528" lon="-72.45476423">
    <tag k="addr:housenumber" v="730"/>
    <tag k="addr:street" v="Brook Road"/>
    <tag k="addr:state" v="VT"/>
    <tag k="ref:vcgi:esiteid" v="280511"/>
  </node>
  <node id="-430" visible="true" lat="43.47040939" lon="-72.45330047">
    <tag k="addr:housenumber" v="806"/>
    <tag k="addr:street" v="Brook Road"/>
    <tag k="addr:state" v="VT"/>
    <tag k="ref:vcgi:esiteid" v="280514"/>
  </node>
  <node id="-431" visible="true" lat="43.47025828" lon="-72.51939827">
    <tag k="addr:housenumber" v="354"/>
    <tag k="addr:street" v="Shattuck Hill Road"/>
    <tag k="addr:state" v="VT"/>
    <tag k="ref:vcgi:esiteid" v="280515"/>
  </node>
  <node id="-433" visible="true" lat="43.47002029" lon="-72.45401">
    <tag k="addr:housenumber" v="792"/>
    <tag k="addr:street" v="Brook Road"/>
    <tag k="addr:state" v="VT"/>
    <tag k="ref:vcgi:esiteid" v="280517"/>
  </node>
  <node id="-435" visible="true" lat="43.46990585" lon="-72.51074981">
    <tag k="addr:housenumber" v="918"/>
    <tag k="addr:street" v="Rush Meadow Road"/>
    <tag k="addr:state" v="VT"/>
    <tag k="ref:vcgi:esiteid" v="280519"/>
  </node>
  <node id="-436" visible="true" lat="43.46986622" lon="-72.52202595">
    <tag k="addr:housenumber" v="247"/>
    <tag k="addr:street" v="Shattuck Hill Road"/>
    <tag k="addr:state" v="VT"/>
    <tag k="ref:vcgi:esiteid" v="280520"/>
  </node>
  <node id="-441" visible="true" lat="43.46907806" lon="-72.52975463">
    <tag k="addr:housenumber" v="5013"/>
    <tag k="addr:street" v="Vermont Route 44"/>
    <tag k="addr:state" v="VT"/>
    <tag k="ref:vcgi:esiteid" v="280525"/>
  </node>
  <node id="-447" visible="true" lat="43.46856115" lon="-72.52883102">
    <tag k="addr:housenumber" v="4969"/>
    <tag k="addr:street" v="Vermont Route 44"/>
    <tag k="addr:state" v="VT"/>
    <tag k="ref:vcgi:esiteid" v="280531"/>
  </node>
  <node id="-448" visible="true" lat="43.46865914" lon="-72.45897684">
    <tag k="addr:housenumber" v="350"/>
    <tag k="addr:street" v="Vermont Route 44"/>
    <tag k="addr:state" v="VT"/>
    <tag k="ref:vcgi:esiteid" v="280533"/>
  </node>
  <node id="-450" visible="true" lat="43.46813362" lon="-72.52241749">
    <tag k="addr:housenumber" v="162"/>
    <tag k="addr:street" v="Shattuck Hill Road"/>
    <tag k="addr:state" v="VT"/>
    <tag k="ref:vcgi:esiteid" v="280535"/>
  </node>
  <node id="-454" visible="true" lat="43.46839141" lon="-72.49338531">
    <tag k="addr:housenumber" v="236"/>
    <tag k="addr:street" v="John Meyers Road"/>
    <tag k="addr:state" v="VT"/>
    <tag k="ref:vcgi:esiteid" v="280541"/>
  </node>
  <node id="-455" visible="true" lat="43.46837129" lon="-72.49170792">
    <tag k="addr:housenumber" v="164"/>
    <tag k="addr:street" v="John Meyers Road"/>
    <tag k="addr:state" v="VT"/>
    <tag k="ref:vcgi:esiteid" v="280542"/>
  </node>
  <node id="-456" visible="true" lat="43.46827268" lon="-72.4646759">
    <tag k="addr:housenumber" v="142"/>
    <tag k="addr:street" v="Hotel Road"/>
    <tag k="addr:state" v="VT"/>
    <tag k="ref:vcgi:esiteid" v="280543"/>
  </node>
  <node id="-462" visible="true" lat="43.46803128" lon="-72.49357724">
    <tag k="addr:housenumber" v="237"/>
    <tag k="addr:street" v="John Meyers Road"/>
    <tag k="addr:state" v="VT"/>
    <tag k="ref:vcgi:esiteid" v="280549"/>
  </node>
  <node id="-466" visible="true" lat="43.46781669" lon="-72.50363968">
    <tag k="addr:housenumber" v="558"/>
    <tag k="addr:street" v="East Rowe Hill Road"/>
    <tag k="addr:state" v="VT"/>
    <tag k="ref:vcgi:esiteid" v="280553"/>
  </node>
  <node id="-467" visible="true" lat="43.46786312" lon="-72.52488056">
    <tag k="addr:housenumber" v="4762"/>
    <tag k="addr:street" v="Vermont Route 44"/>
    <tag k="addr:state" v="VT"/>
    <tag k="ref:vcgi:esiteid" v="280554"/>
  </node>
  <node id="-469" visible="true" lat="43.46773099" lon="-72.46475982">
    <tag k="addr:housenumber" v="140"/>
    <tag k="addr:street" v="Hotel Road"/>
    <tag k="addr:state" v="VT"/>
    <tag k="ref:vcgi:esiteid" v="280556"/>
  </node>
  <node id="-472" visible="true" lat="43.46765518" lon="-72.51265716">
    <tag k="addr:housenumber" v="611"/>
    <tag k="addr:street" v="Rush Meadow Road"/>
    <tag k="addr:state" v="VT"/>
    <tag k="ref:vcgi:esiteid" v="280560"/>
  </node>
  <node id="-474" visible="true" lat="43.46761703" lon="-72.52451324">
    <tag k="addr:housenumber" v="24"/>
    <tag k="addr:street" v="Shattuck Hill Road"/>
    <tag k="addr:state" v="VT"/>
    <tag k="ref:vcgi:esiteid" v="280562"/>
  </node>
  <node id="-480" visible="true" lat="43.46748501" lon="-72.45908576">
    <tag k="addr:housenumber" v="283"/>
    <tag k="addr:street" v="Vermont Route 44"/>
    <tag k="addr:state" v="VT"/>
    <tag k="ref:vcgi:esiteid" v="280568"/>
  </node>
  <node id="-489" visible="true" lat="43.46697616" lon="-72.52554321">
    <tag k="addr:housenumber" v="4767"/>
    <tag k="addr:street" v="Vermont Route 44"/>
    <tag k="addr:state" v="VT"/>
    <tag k="ref:vcgi:esiteid" v="280577"/>
  </node>
  <node id="-490" visible="true" lat="43.46687316" lon="-72.47366332">
    <tag k="addr:housenumber" v="52"/>
    <tag k="addr:street" v="Seems Road"/>
    <tag k="addr:state" v="VT"/>
    <tag k="ref:vcgi:esiteid" v="280578"/>
  </node>
  <node id="-491" visible="true" lat="43.4668045" lon="-72.50326538">
    <tag k="addr:housenumber" v="556"/>
    <tag k="addr:street" v="East Rowe Hill Road"/>
    <tag k="addr:state" v="VT"/>
    <tag k="ref:vcgi:esiteid" v="280579"/>
  </node>
  <node id="-492" visible="true" lat="43.46674054" lon="-72.47544968">
    <tag k="addr:housenumber" v="38"/>
    <tag k="addr:street" v="Bascom Farm Drive"/>
    <tag k="addr:state" v="VT"/>
    <tag k="ref:vcgi:esiteid" v="280580"/>
  </node>
  <node id="-495" visible="true" lat="43.46660062" lon="-72.47435869">
    <tag k="addr:housenumber" v="98"/>
    <tag k="addr:street" v="Seems Road"/>
    <tag k="addr:state" v="VT"/>
    <tag k="ref:vcgi:esiteid" v="280583"/>
  </node>
  <node id="-496" visible="true" lat="43.46627244" lon="-72.49206326">
    <tag k="addr:housenumber" v="147"/>
    <tag k="addr:street" v="John Meyers Road"/>
    <tag k="addr:state" v="VT"/>
    <tag k="ref:vcgi:esiteid" v="280585"/>
  </node>
  <node id="-498" visible="true" lat="43.4661827" lon="-72.47673797">
    <tag k="addr:housenumber" v="180"/>
    <tag k="addr:street" v="Seems Road"/>
    <tag k="addr:state" v="VT"/>
    <tag k="ref:vcgi:esiteid" v="280587"/>
  </node>
  <node id="-499" visible="true" lat="43.466053" lon="-72.47558593">
    <tag k="addr:housenumber" v="161"/>
    <tag k="addr:street" v="Seems Road"/>
    <tag k="addr:state" v="VT"/>
    <tag k="ref:vcgi:esiteid" v="280588"/>
  </node>
  <node id="-504" visible="true" lat="43.4656105" lon="-72.51251983">
    <tag k="addr:housenumber" v="644"/>
    <tag k="addr:street" v="Rush Meadow Road"/>
    <tag k="addr:state" v="VT"/>
    <tag k="ref:vcgi:esiteid" v="280595"/>
  </node>
  <node id="-505" visible="true" lat="43.46553421" lon="-72.49154663">
    <tag k="addr:housenumber" v="149"/>
    <tag k="addr:street" v="John Meyers Road"/>
    <tag k="addr:state" v="VT"/>
    <tag k="ref:vcgi:esiteid" v="280596"/>
  </node>
  <node id="-506" visible="true" lat="43.46551513" lon="-72.4748001">
    <tag k="addr:housenumber" v="1208"/>
    <tag k="addr:street" v="Vermont Route 44"/>
    <tag k="addr:state" v="VT"/>
    <tag k="ref:vcgi:esiteid" v="280597"/>
  </node>
  <node id="-507" visible="true" lat="43.46551132" lon="-72.47853851">
    <tag k="addr:housenumber" v="436"/>
    <tag k="addr:street" v="Seems Road"/>
    <tag k="addr:state" v="VT"/>
    <tag k="ref:vcgi:esiteid" v="280598"/>
  </node>
  <node id="-509" visible="true" lat="43.46545791" lon="-72.50087738">
    <tag k="addr:housenumber" v="464"/>
    <tag k="addr:street" v="East Rowe Hill Road"/>
    <tag k="addr:state" v="VT"/>
    <tag k="ref:vcgi:esiteid" v="280600"/>
  </node>
  <node id="-510" visible="true" lat="43.46555127" lon="-72.47770141">
    <tag k="addr:housenumber" v="270"/>
    <tag k="addr:street" v="Seems Road"/>
    <tag k="addr:state" v="VT"/>
    <tag k="ref:vcgi:esiteid" v="280601"/>
  </node>
  <node id="-511" visible="true" lat="43.46525573" lon="-72.50398254">
    <tag k="addr:housenumber" v="122"/>
    <tag k="addr:street" v="South View Road"/>
    <tag k="addr:state" v="VT"/>
    <tag k="ref:vcgi:esiteid" v="280603"/>
  </node>
  <node id="-512" visible="true" lat="43.46518707" lon="-72.47658538">
    <tag k="addr:housenumber" v="257"/>
    <tag k="addr:street" v="Seems Road"/>
    <tag k="addr:state" v="VT"/>
    <tag k="ref:vcgi:esiteid" v="280604"/>
  </node>
  <node id="-515" visible="true" lat="43.46516985" lon="-72.47511071">
    <tag k="addr:housenumber" v="1238"/>
    <tag k="addr:street" v="Vermont Route 44"/>
    <tag k="addr:state" v="VT"/>
    <tag k="ref:vcgi:esiteid" v="280607"/>
  </node>
  <node id="-516" visible="true" lat="43.46499633" lon="-72.47881317">
    <tag k="addr:housenumber" v="404"/>
    <tag k="addr:street" v="Seems Road"/>
    <tag k="addr:state" v="VT"/>
    <tag k="ref:vcgi:esiteid" v="280608"/>
  </node>
  <node id="-517" visible="true" lat="43.46487808" lon="-72.4752655">
    <tag k="addr:housenumber" v="1258"/>
    <tag k="addr:street" v="Vermont Route 44"/>
    <tag k="addr:state" v="VT"/>
    <tag k="ref:vcgi:esiteid" v="280609"/>
  </node>
  <node id="-518" visible="true" lat="43.46484374" lon="-72.50552368">
    <tag k="addr:housenumber" v="166"/>
    <tag k="addr:street" v="South View Road"/>
    <tag k="addr:state" v="VT"/>
    <tag k="ref:vcgi:esiteid" v="280610"/>
  </node>
  <node id="-520" visible="true" lat="43.46480178" lon="-72.48014068">
    <tag k="addr:housenumber" v="440"/>
    <tag k="addr:street" v="Seems Road"/>
    <tag k="addr:state" v="VT"/>
    <tag k="ref:vcgi:esiteid" v="280612"/>
  </node>
  <node id="-521" visible="true" lat="43.46477508" lon="-72.47779083">
    <tag k="addr:housenumber" v="364"/>
    <tag k="addr:street" v="Seems Road"/>
    <tag k="addr:state" v="VT"/>
    <tag k="ref:vcgi:esiteid" v="280613"/>
  </node>
  <node id="-524" visible="true" lat="43.46469116" lon="-72.47451782">
    <tag k="addr:housenumber" v="1247"/>
    <tag k="addr:street" v="Vermont Route 44"/>
    <tag k="addr:state" v="VT"/>
    <tag k="ref:vcgi:esiteid" v="280616"/>
  </node>
  <node id="-525" visible="true" lat="43.46459579" lon="-72.47720336">
    <tag k="addr:housenumber" v="307"/>
    <tag k="addr:street" v="Seems Road"/>
    <tag k="addr:state" v="VT"/>
    <tag k="ref:vcgi:esiteid" v="280617"/>
  </node>
  <node id="-526" visible="true" lat="43.46445846" lon="-72.47482299">
    <tag k="addr:housenumber" v="1269"/>
    <tag k="addr:street" v="Vermont Route 44"/>
    <tag k="addr:state" v="VT"/>
    <tag k="ref:vcgi:esiteid" v="280618"/>
  </node>
  <node id="-527" visible="true" lat="43.46434549" lon="-72.48065295">
    <tag k="addr:housenumber" v="441"/>
    <tag k="addr:street" v="Seems Road"/>
    <tag k="addr:state" v="VT"/>
    <tag k="ref:vcgi:esiteid" v="280619"/>
  </node>
  <node id="-528" visible="true" lat="43.46425247" lon="-72.47748565">
    <tag k="addr:housenumber" v="337"/>
    <tag k="addr:street" v="Seems Road"/>
    <tag k="addr:state" v="VT"/>
    <tag k="ref:vcgi:esiteid" v="280620"/>
  </node>
  <node id="-531" visible="true" lat="43.46403256" lon="-72.50173116">
    <tag k="addr:housenumber" v="41"/>
    <tag k="addr:street" v="South View Road"/>
    <tag k="addr:state" v="VT"/>
    <tag k="ref:vcgi:esiteid" v="280623"/>
  </node>
  <node id="-532" visible="true" lat="43.46395507" lon="-72.47832931">
    <tag k="addr:housenumber" v="379"/>
    <tag k="addr:street" v="Seems Road"/>
    <tag k="addr:state" v="VT"/>
    <tag k="ref:vcgi:esiteid" v="280624"/>
  </node>
  <node id="-533" visible="true" lat="43.4641695" lon="-72.49963536">
    <tag k="addr:housenumber" v="332"/>
    <tag k="addr:street" v="East Rowe Hill Road"/>
    <tag k="addr:state" v="VT"/>
    <tag k="ref:vcgi:esiteid" v="280625"/>
  </node>
  <node id="-534" visible="true" lat="43.4640407" lon="-72.47592048">
    <tag k="addr:housenumber" v="1328"/>
    <tag k="addr:street" v="Vermont Route 44"/>
    <tag k="addr:state" v="VT"/>
    <tag k="ref:vcgi:esiteid" v="280626"/>
  </node>
  <node id="-535" visible="true" lat="43.46380615" lon="-72.52318573">
    <tag k="addr:housenumber" v="4455"/>
    <tag k="addr:street" v="Vermont Route 44"/>
    <tag k="addr:state" v="VT"/>
    <tag k="ref:vcgi:esiteid" v="280627"/>
  </node>
  <node id="-536" visible="true" lat="43.46368312" lon="-72.50597054">
    <tag k="addr:housenumber" v="168"/>
    <tag k="addr:street" v="South View Road"/>
    <tag k="addr:state" v="VT"/>
    <tag k="ref:vcgi:esiteid" v="280629"/>
  </node>
  <node id="-539" visible="true" lat="43.46357511" lon="-72.46611814">
    <tag k="addr:housenumber" v="449"/>
    <tag k="addr:street" v="Ski Tow Road"/>
    <tag k="addr:state" v="VT"/>
    <tag k="ref:vcgi:esiteid" v="280632"/>
  </node>
  <node id="-540" visible="true" lat="43.46351242" lon="-72.50067901">
    <tag k="addr:housenumber" v="361"/>
    <tag k="addr:street" v="East Rowe Hill Road"/>
    <tag k="addr:state" v="VT"/>
    <tag k="ref:vcgi:esiteid" v="280633"/>
  </node>
  <node id="-542" visible="true" lat="43.46344943" lon="-72.5217693">
    <tag k="addr:housenumber" v="4388"/>
    <tag k="addr:street" v="Vermont Route 44"/>
    <tag k="addr:state" v="VT"/>
    <tag k="ref:vcgi:esiteid" v="280635"/>
  </node>
  <node id="-545" visible="true" lat="43.46306228" lon="-72.49954986">
    <tag k="addr:housenumber" v="363"/>
    <tag k="addr:street" v="East Rowe Hill Road"/>
    <tag k="addr:state" v="VT"/>
    <tag k="ref:vcgi:esiteid" v="280638"/>
  </node>
  <node id="-546" visible="true" lat="43.46305847" lon="-72.5145874">
    <tag k="addr:housenumber" v="406"/>
    <tag k="addr:street" v="Rush Meadow Road"/>
    <tag k="addr:state" v="VT"/>
    <tag k="ref:vcgi:esiteid" v="280640"/>
  </node>
  <node id="-549" visible="true" lat="43.46294784" lon="-72.49819183">
    <tag k="addr:housenumber" v="229"/>
    <tag k="addr:street" v="East Rowe Hill Road"/>
    <tag k="addr:state" v="VT"/>
    <tag k="ref:vcgi:esiteid" v="280643"/>
  </node>
  <node id="-552" visible="true" lat="43.4628334" lon="-72.49693298">
    <tag k="addr:housenumber" v="178"/>
    <tag k="addr:street" v="East Rowe Hill Road"/>
    <tag k="addr:state" v="VT"/>
    <tag k="ref:vcgi:esiteid" v="280646"/>
  </node>
  <node id="-555" visible="true" lat="43.46263504" lon="-72.48262786">
    <tag k="addr:housenumber" v="390"/>
    <tag k="addr:street" v="Harrington Road"/>
    <tag k="addr:state" v="VT"/>
    <tag k="ref:vcgi:esiteid" v="280649"/>
  </node>
  <node id="-557" visible="true" lat="43.46256256" lon="-72.51425933">
    <tag k="addr:housenumber" v="436"/>
    <tag k="addr:street" v="Rush Meadow Road"/>
    <tag k="addr:state" v="VT"/>
    <tag k="ref:vcgi:esiteid" v="280652"/>
  </node>
  <node id="-562" visible="true" lat="43.4622879" lon="-72.49581909">
    <tag k="addr:housenumber" v="84"/>
    <tag k="addr:street" v="East Rowe Hill Road"/>
    <tag k="addr:state" v="VT"/>
    <tag k="ref:vcgi:esiteid" v="280657"/>
  </node>
  <node id="-569" visible="true" lat="43.46198039" lon="-72.49436136">
    <tag k="addr:housenumber" v="709"/>
    <tag k="addr:street" v="Westgate Road"/>
    <tag k="addr:state" v="VT"/>
    <tag k="ref:vcgi:esiteid" v="280664"/>
  </node>
  <node id="-573" visible="true" lat="43.46145299" lon="-72.48894607">
    <tag k="addr:housenumber" v="747"/>
    <tag k="addr:street" v="Harrington Road"/>
    <tag k="addr:state" v="VT"/>
    <tag k="ref:vcgi:esiteid" v="280670"/>
  </node>
  <node id="-576" visible="true" lat="43.46130713" lon="-72.51521646">
    <tag k="addr:housenumber" v="280"/>
    <tag k="addr:street" v="Rush Meadow Road"/>
    <tag k="addr:state" v="VT"/>
    <tag k="ref:vcgi:esiteid" v="280674"/>
  </node>
  <node id="-581" visible="true" lat="43.46097183" lon="-72.51642608">
    <tag k="addr:housenumber" v="265"/>
    <tag k="addr:street" v="Rush Meadow Road"/>
    <tag k="addr:state" v="VT"/>
    <tag k="ref:vcgi:esiteid" v="280681"/>
  </node>
  <node id="-586" visible="true" lat="43.46045303" lon="-72.52075195">
    <tag k="addr:housenumber" v="4173"/>
    <tag k="addr:street" v="Vermont Route 44"/>
    <tag k="addr:state" v="VT"/>
    <tag k="ref:vcgi:esiteid" v="280689"/>
  </node>
  <node id="-588" visible="true" lat="43.46038055" lon="-72.5181427">
    <tag k="addr:housenumber" v="53"/>
    <tag k="addr:street" v="Rush Meadow Road"/>
    <tag k="addr:state" v="VT"/>
    <tag k="ref:vcgi:esiteid" v="280691"/>
  </node>
  <node id="-592" visible="true" lat="43.4602127" lon="-72.49053954">
    <tag k="addr:housenumber" v="243"/>
    <tag k="addr:street" v="Bible Hill Road"/>
    <tag k="addr:state" v="VT"/>
    <tag k="ref:vcgi:esiteid" v="280696"/>
  </node>
  <node id="-600" visible="true" lat="43.45967865" lon="-72.48910522">
    <tag k="addr:housenumber" v="60"/>
    <tag k="addr:street" v="Bowers Road"/>
    <tag k="addr:state" v="VT"/>
    <tag k="ref:vcgi:esiteid" v="280704"/>
  </node>
  <node id="-601" visible="true" lat="43.45967483" lon="-72.49015808">
    <tag k="addr:housenumber" v="202"/>
    <tag k="addr:street" v="Bible Hill Road"/>
    <tag k="addr:state" v="VT"/>
    <tag k="ref:vcgi:esiteid" v="280705"/>
  </node>
  <node id="-602" visible="true" lat="43.45952446" lon="-72.52008975">
    <tag k="addr:housenumber" v="4079"/>
    <tag k="addr:street" v="Vermont Route 44"/>
    <tag k="addr:state" v="VT"/>
    <tag k="ref:vcgi:esiteid" v="280706"/>
  </node>
  <node id="-610" visible="true" lat="43.45913696" lon="-72.49008178">
    <tag k="addr:housenumber" v="166"/>
    <tag k="addr:street" v="Bible Hill Road"/>
    <tag k="addr:state" v="VT"/>
    <tag k="ref:vcgi:esiteid" v="280714"/>
  </node>
  <node id="-616" visible="true" lat="43.45889266" lon="-72.49415693">
    <tag k="addr:housenumber" v="117"/>
    <tag k="addr:street" v="Bible Hill Road"/>
    <tag k="addr:state" v="VT"/>
    <tag k="ref:vcgi:esiteid" v="280720"/>
  </node>
  <node id="-618" visible="true" lat="43.45859909" lon="-72.5181427">
    <tag k="addr:housenumber" v="27"/>
    <tag k="addr:street" v="Rush Meadow Road"/>
    <tag k="addr:state" v="VT"/>
    <tag k="ref:vcgi:esiteid" v="280722"/>
  </node>
  <node id="-634" visible="true" lat="43.45742034" lon="-72.49051666">
    <tag k="addr:housenumber" v="2238"/>
    <tag k="addr:street" v="Vermont Route 44"/>
    <tag k="addr:state" v="VT"/>
    <tag k="ref:vcgi:esiteid" v="280738"/>
  </node>
  <node id="-638" visible="true" lat="43.45704372" lon="-72.49127961">
    <tag k="addr:housenumber" v="2340"/>
    <tag k="addr:street" v="Vermont Route 44"/>
    <tag k="addr:state" v="VT"/>
    <tag k="ref:vcgi:esiteid" v="280742"/>
  </node>
  <node id="-642" visible="true" lat="43.45633315" lon="-72.51491546">
    <tag k="addr:housenumber" v="3698"/>
    <tag k="addr:street" v="Vermont Route 44"/>
    <tag k="addr:state" v="VT"/>
    <tag k="ref:vcgi:esiteid" v="280746"/>
  </node>
  <node id="-643" visible="true" lat="43.45607454" lon="-72.49078845">
    <tag k="addr:housenumber" v="2305"/>
    <tag k="addr:street" v="Vermont Route 44"/>
    <tag k="addr:state" v="VT"/>
    <tag k="ref:vcgi:esiteid" v="280747"/>
  </node>
  <node id="-644" visible="true" lat="43.45612335" lon="-72.50473785">
    <tag k="addr:housenumber" v="204"/>
    <tag k="addr:street" v="High Ridge Road"/>
    <tag k="addr:state" v="VT"/>
    <tag k="ref:vcgi:esiteid" v="280748"/>
  </node>
  <node id="-646" visible="true" lat="43.45598983" lon="-72.51596832">
    <tag k="addr:housenumber" v="3764"/>
    <tag k="addr:street" v="Vermont Route 44"/>
    <tag k="addr:state" v="VT"/>
    <tag k="ref:vcgi:esiteid" v="280750"/>
  </node>
  <node id="-649" visible="true" lat="43.45549392" lon="-72.50900268">
    <tag k="addr:housenumber" v="3658"/>
    <tag k="addr:street" v="Vermont Route 44"/>
    <tag k="addr:state" v="VT"/>
    <tag k="ref:vcgi:esiteid" v="280753"/>
  </node>
  <node id="-650" visible="true" lat="43.4552536" lon="-72.51563262">
    <tag k="addr:housenumber" v="3723"/>
    <tag k="addr:street" v="Vermont Route 44"/>
    <tag k="addr:state" v="VT"/>
    <tag k="ref:vcgi:esiteid" v="280754"/>
  </node>
  <node id="-651" visible="true" lat="43.45518875" lon="-72.49867248">
    <tag k="addr:housenumber" v="164"/>
    <tag k="addr:street" v="Winding Road"/>
    <tag k="addr:state" v="VT"/>
    <tag k="ref:vcgi:esiteid" v="280755"/>
  </node>
  <node id="-652" visible="true" lat="43.4550209" lon="-72.4910736">
    <tag k="addr:housenumber" v="17"/>
    <tag k="addr:street" v="Kimball Farm Road"/>
    <tag k="addr:state" v="VT"/>
    <tag k="ref:vcgi:esiteid" v="280756"/>
  </node>
  <node id="-654" visible="true" lat="43.45480004" lon="-72.51154392">
    <tag k="addr:housenumber" v="3560"/>
    <tag k="addr:street" v="Vermont Route 44"/>
    <tag k="addr:state" v="VT"/>
    <tag k="ref:vcgi:esiteid" v="280758"/>
  </node>
  <node id="-656" visible="true" lat="43.45456695" lon="-72.50650787">
    <tag k="addr:housenumber" v="89"/>
    <tag k="addr:street" v="High Ridge Road"/>
    <tag k="addr:state" v="VT"/>
    <tag k="ref:vcgi:esiteid" v="280760"/>
  </node>
  <node id="-657" visible="true" lat="43.45455932" lon="-72.51010894">
    <tag k="addr:housenumber" v="3440"/>
    <tag k="addr:street" v="Vermont Route 44"/>
    <tag k="addr:state" v="VT"/>
    <tag k="ref:vcgi:esiteid" v="280761"/>
  </node>
  <node id="-658" visible="true" lat="43.45443725" lon="-72.50436401">
    <tag k="addr:housenumber" v="38"/>
    <tag k="addr:street" v="High Ridge Road"/>
    <tag k="addr:state" v="VT"/>
    <tag k="ref:vcgi:esiteid" v="280762"/>
  </node>
  <node id="-660" visible="true" lat="43.45432662" lon="-72.50066375">
    <tag k="addr:housenumber" v="77"/>
    <tag k="addr:street" v="Winding Road"/>
    <tag k="addr:state" v="VT"/>
    <tag k="ref:vcgi:esiteid" v="280764"/>
  </node>
  <node id="-661" visible="true" lat="43.45416993" lon="-72.51071304">
    <tag k="addr:housenumber" v="3460"/>
    <tag k="addr:street" v="Vermont Route 44"/>
    <tag k="addr:state" v="VT"/>
    <tag k="ref:vcgi:esiteid" v="280765"/>
  </node>
  <node id="-662" visible="true" lat="43.45421023" lon="-72.49854825">
    <tag k="addr:housenumber" v="94"/>
    <tag k="addr:street" v="Winding Road"/>
    <tag k="addr:state" v="VT"/>
    <tag k="ref:vcgi:esiteid" v="280766"/>
  </node>
  <node id="-664" visible="true" lat="43.45379638" lon="-72.49208068">
    <tag k="addr:housenumber" v="42"/>
    <tag k="addr:street" v="Kimball Farm Road"/>
    <tag k="addr:state" v="VT"/>
    <tag k="ref:vcgi:esiteid" v="280768"/>
  </node>
  <node id="-665" visible="true" lat="43.45374679" lon="-72.50737762">
    <tag k="addr:housenumber" v="3278"/>
    <tag k="addr:street" v="Vermont Route 44"/>
    <tag k="addr:state" v="VT"/>
    <tag k="ref:vcgi:esiteid" v="280769"/>
  </node>
  <node id="-666" visible="true" lat="43.45368549" lon="-72.50817653">
    <tag k="addr:housenumber" v="3318"/>
    <tag k="addr:street" v="Vermont Route 44"/>
    <tag k="addr:state" v="VT"/>
    <tag k="ref:vcgi:esiteid" v="280771"/>
  </node>
  <node id="-667" visible="true" lat="43.45328141" lon="-72.50807136">
    <tag k="addr:housenumber" v="3309"/>
    <tag k="addr:street" v="Vermont Route 44"/>
    <tag k="addr:state" v="VT"/>
    <tag k="ref:vcgi:esiteid" v="280772"/>
  </node>
  <node id="-669" visible="true" lat="43.45303909" lon="-72.49709757">
    <tag k="addr:housenumber" v="2754"/>
    <tag k="addr:street" v="Vermont Route 44"/>
    <tag k="addr:state" v="VT"/>
    <tag k="ref:vcgi:esiteid" v="280774"/>
  </node>
  <node id="-675" visible="true" lat="43.45102691" lon="-72.5012207">
    <tag k="addr:housenumber" v="198"/>
    <tag k="addr:street" v="Yale Heights Road"/>
    <tag k="addr:state" v="VT"/>
    <tag k="ref:vcgi:esiteid" v="280780"/>
  </node>
  <node id="-681" visible="true" lat="43.45046665" lon="-72.49088978">
    <tag k="addr:housenumber" v="272"/>
    <tag k="addr:street" v="Kimball Farm Road"/>
    <tag k="addr:state" v="VT"/>
    <tag k="ref:vcgi:esiteid" v="280786"/>
  </node>
  <node id="-692" visible="true" lat="43.44778443" lon="-72.4904196">
    <tag k="addr:housenumber" v="472"/>
    <tag k="addr:street" v="Kimball Farm Road"/>
    <tag k="addr:state" v="VT"/>
    <tag k="ref:vcgi:esiteid" v="280797"/>
  </node>
  <node id="-695" visible="true" lat="43.44712448" lon="-72.52485656">
    <tag k="addr:housenumber" v="916"/>
    <tag k="addr:street" v="Churchill Road"/>
    <tag k="addr:state" v="VT"/>
    <tag k="ref:vcgi:esiteid" v="280800"/>
  </node>
  <node id="-696" visible="true" lat="43.44696044" lon="-72.48886108">
    <tag k="addr:housenumber" v="535"/>
    <tag k="addr:street" v="Kimball Farm Road"/>
    <tag k="addr:state" v="VT"/>
    <tag k="ref:vcgi:esiteid" v="280801"/>
  </node>
  <node id="-698" visible="true" lat="43.44544787" lon="-72.4907523">
    <tag k="addr:housenumber" v="722"/>
    <tag k="addr:street" v="Kimball Farm Road"/>
    <tag k="addr:state" v="VT"/>
    <tag k="ref:vcgi:esiteid" v="280803"/>
  </node>
  <node id="-700" visible="true" lat="43.443367" lon="-72.51989746">
    <tag k="addr:housenumber" v="1321"/>
    <tag k="addr:street" v="Churchill Road"/>
    <tag k="addr:state" v="VT"/>
    <tag k="ref:vcgi:esiteid" v="280805"/>
  </node>
  <node id="-707" visible="true" lat="43.47899348" lon="-72.50717166">
    <tag k="addr:housenumber" v="729"/>
    <tag k="addr:street" v="Jewett Road"/>
    <tag k="addr:state" v="VT"/>
    <tag k="ref:vcgi:esiteid" v="280813"/>
  </node>
  <node id="-708" visible="true" lat="43.45842742" lon="-72.51774597">
    <tag k="addr:housenumber" v="46"/>
    <tag k="addr:street" v="Rush Meadow Road"/>
    <tag k="addr:state" v="VT"/>
    <tag k="ref:vcgi:esiteid" v="280814"/>
  </node>
  <node id="-714" visible="true" lat="43.50852966" lon="-72.52112579">
    <tag k="addr:housenumber" v="110"/>
    <tag k="addr:street" v="Wardner Road"/>
    <tag k="addr:state" v="VT"/>
    <tag k="ref:vcgi:esiteid" v="280820"/>
  </node>
  <node id="-715" visible="true" lat="43.51249313" lon="-72.46093749">
    <tag k="addr:housenumber" v="1922"/>
    <tag k="addr:street" v="Hammond Hill Road"/>
    <tag k="addr:state" v="VT"/>
    <tag k="ref:vcgi:esiteid" v="280821"/>
  </node>
  <node id="-716" visible="true" lat="43.49120142" lon="-72.49909448">
    <tag k="addr:housenumber" v="1564"/>
    <tag k="addr:street" v="Sheddsville Road"/>
    <tag k="addr:state" v="VT"/>
    <tag k="ref:vcgi:esiteid" v="280822"/>
  </node>
  <node id="-717" visible="true" lat="43.49113082" lon="-72.49957275">
    <tag k="addr:housenumber" v="1576"/>
    <tag k="addr:street" v="Sheddsville Road"/>
    <tag k="addr:state" v="VT"/>
    <tag k="ref:vcgi:esiteid" v="280823"/>
  </node>
  <node id="-718" visible="true" lat="43.49339878" lon="-72.50082259">
    <tag k="addr:housenumber" v="1604"/>
    <tag k="addr:street" v="Sheddsville Road"/>
    <tag k="addr:state" v="VT"/>
    <tag k="ref:vcgi:esiteid" v="280824"/>
  </node>
  <node id="-724" visible="true" lat="43.49003934" lon="-72.52765656">
    <tag k="addr:housenumber" v="349"/>
    <tag k="addr:street" v="Auger Hole Road"/>
    <tag k="addr:state" v="VT"/>
    <tag k="ref:vcgi:esiteid" v="280830"/>
  </node>
  <node id="-725" visible="true" lat="43.4904747" lon="-72.50708007">
    <tag k="addr:housenumber" v="33"/>
    <tag k="addr:street" v="Highfield Drive"/>
    <tag k="addr:state" v="VT"/>
    <tag k="ref:vcgi:esiteid" v="280831"/>
  </node>
  <node id="-726" visible="true" lat="43.49290466" lon="-72.50749969">
    <tag k="addr:housenumber" v="183"/>
    <tag k="addr:street" v="Highfield Drive"/>
    <tag k="addr:state" v="VT"/>
    <tag k="ref:vcgi:esiteid" v="280832"/>
  </node>
  <node id="-727" visible="true" lat="43.49182286" lon="-72.50762527">
    <tag k="addr:housenumber" v="125"/>
    <tag k="addr:street" v="Highfield Drive"/>
    <tag k="addr:state" v="VT"/>
    <tag k="ref:vcgi:esiteid" v="280833"/>
  </node>
  <node id="-730" visible="true" lat="43.46914311" lon="-72.5260525">
    <tag k="addr:housenumber" v="4832"/>
    <tag k="addr:street" v="Vermont Route 44"/>
    <tag k="addr:state" v="VT"/>
    <tag k="ref:vcgi:esiteid" v="280836"/>
  </node>
  <node id="-737" visible="true" lat="43.47179822" lon="-72.52963083">
    <tag k="addr:housenumber" v="44"/>
    <tag k="addr:street" v="Gibson Drive"/>
    <tag k="addr:state" v="VT"/>
    <tag k="ref:vcgi:esiteid" v="280844"/>
  </node>
  <node id="-738" visible="true" lat="43.47255143" lon="-72.52960003">
    <tag k="addr:housenumber" v="45"/>
    <tag k="addr:street" v="Gibson Drive"/>
    <tag k="addr:state" v="VT"/>
    <tag k="ref:vcgi:esiteid" v="280845"/>
  </node>
  <node id="-739" visible="true" lat="43.49996686" lon="-72.49328539">
    <tag k="addr:housenumber" v="643"/>
    <tag k="addr:street" v="Cowshed Trail"/>
    <tag k="addr:state" v="VT"/>
    <tag k="ref:vcgi:esiteid" v="280846"/>
  </node>
  <node id="-740" visible="true" lat="43.49204634" lon="-72.50150152">
    <tag k="addr:housenumber" v="1696"/>
    <tag k="addr:street" v="Sheddsville Road"/>
    <tag k="addr:state" v="VT"/>
    <tag k="ref:vcgi:esiteid" v="280847"/>
  </node>
  <node id="-741" visible="true" lat="43.48898513" lon="-72.52095844">
    <tag k="addr:housenumber" v="2435"/>
    <tag k="addr:street" v="Rush Meadow Road"/>
    <tag k="addr:state" v="VT"/>
    <tag k="ref:vcgi:esiteid" v="280848"/>
  </node>
  <node id="-744" visible="true" lat="43.46587708" lon="-72.47970047">
    <tag k="addr:housenumber" v="438"/>
    <tag k="addr:street" v="Seems Road"/>
    <tag k="addr:state" v="VT"/>
    <tag k="ref:vcgi:esiteid" v="280851"/>
  </node>
  <node id="-745" visible="true" lat="43.50524661" lon="-72.52683183">
    <tag k="addr:housenumber" v="700"/>
    <tag k="addr:street" v="Barton Road"/>
    <tag k="addr:state" v="VT"/>
    <tag k="ref:vcgi:esiteid" v="280852"/>
  </node>
  <node id="-746" visible="true" lat="43.49513258" lon="-72.50750446">
    <tag k="addr:housenumber" v="2077"/>
    <tag k="addr:street" v="Sheddsville Road"/>
    <tag k="addr:state" v="VT"/>
    <tag k="ref:vcgi:esiteid" v="280853"/>
  </node>
  <node id="-747" visible="true" lat="43.46592588" lon="-72.50155556">
    <tag k="addr:housenumber" v="490"/>
    <tag k="addr:street" v="East Rowe Hill Road"/>
    <tag k="addr:state" v="VT"/>
    <tag k="ref:vcgi:esiteid" v="280854"/>
  </node>
  <node id="-750" visible="true" lat="43.51010683" lon="-72.53092716">
    <tag k="addr:housenumber" v="841"/>
    <tag k="addr:street" v="Spear Cemetery Road"/>
    <tag k="addr:state" v="VT"/>
    <tag k="ref:vcgi:esiteid" v="280857"/>
  </node>
  <node id="-754" visible="true" lat="43.48095925" lon="-72.49399234">
    <tag k="addr:housenumber" v="1641"/>
    <tag k="addr:street" v="Bible Hill Road"/>
    <tag k="addr:state" v="VT"/>
    <tag k="ref:vcgi:esiteid" v="280861"/>
  </node>
  <node id="-755" visible="true" lat="43.49761537" lon="-72.49240919">
    <tag k="addr:housenumber" v="839"/>
    <tag k="addr:street" v="Cowshed Trail"/>
    <tag k="addr:state" v="VT"/>
    <tag k="ref:vcgi:esiteid" v="280862"/>
  </node>
  <node id="-758" visible="true" lat="43.46773201" lon="-72.48056341">
    <tag k="addr:housenumber" v="101"/>
    <tag k="addr:street" v="Bascom Farm Drive"/>
    <tag k="addr:state" v="VT"/>
    <tag k="ref:vcgi:esiteid" v="280865"/>
  </node>
  <node id="-762" visible="true" lat="43.46414714" lon="-72.50309587">
    <tag k="addr:housenumber" v="119"/>
    <tag k="addr:street" v="South View Road"/>
    <tag k="addr:state" v="VT"/>
    <tag k="ref:vcgi:esiteid" v="280869"/>
  </node>
  <node id="-764" visible="true" lat="43.47773134" lon="-72.50378241">
    <tag k="addr:housenumber" v="728"/>
    <tag k="addr:street" v="Jewett Road"/>
    <tag k="addr:state" v="VT"/>
    <tag k="ref:vcgi:esiteid" v="280871"/>
  </node>
  <node id="-767" visible="true" lat="43.50019636" lon="-72.48151495">
    <tag k="addr:housenumber" v="25"/>
    <tag k="addr:street" v="Blood Hill Road"/>
    <tag k="addr:state" v="VT"/>
    <tag k="ref:vcgi:esiteid" v="280874"/>
  </node>
  <node id="-771" visible="true" lat="43.47406425" lon="-72.46962214">
    <tag k="addr:housenumber" v="414"/>
    <tag k="addr:street" v="Brownsville Hartland Road"/>
    <tag k="addr:state" v="VT"/>
    <tag k="ref:vcgi:esiteid" v="280878"/>
  </node>
  <node id="-772" visible="true" lat="43.48592848" lon="-72.47676497">
    <tag k="addr:housenumber" v="78"/>
    <tag k="addr:street" v="Cemetery Road"/>
    <tag k="addr:state" v="VT"/>
    <tag k="ref:vcgi:esiteid" v="280879"/>
  </node>
  <node id="-773" visible="true" lat="43.53046695" lon="-72.52655568">
    <tag k="addr:housenumber" v="5434"/>
    <tag k="addr:street" v="Rush Meadow Road"/>
    <tag k="addr:state" v="VT"/>
    <tag k="ref:vcgi:esiteid" v="280880"/>
  </node>
  <node id="-774" visible="true" lat="43.5302526" lon="-72.52534363">
    <tag k="addr:housenumber" v="5436"/>
    <tag k="addr:street" v="Rush Meadow Road"/>
    <tag k="addr:state" v="VT"/>
    <tag k="ref:vcgi:esiteid" v="280881"/>
  </node>
  <node id="-776" visible="true" lat="43.47924752" lon="-72.48903937">
    <tag k="addr:housenumber" v="1638"/>
    <tag k="addr:street" v="Bible Hill Road"/>
    <tag k="addr:state" v="VT"/>
    <tag k="ref:vcgi:esiteid" v="280883"/>
  </node>
  <node id="-781" visible="true" lat="43.4836266" lon="-72.49717166">
    <tag k="addr:housenumber" v="1399"/>
    <tag k="addr:street" v="Sheddsville Road"/>
    <tag k="addr:state" v="VT"/>
    <tag k="ref:vcgi:esiteid" v="280888"/>
  </node>
  <node id="-783" visible="true" lat="43.47740069" lon="-72.50062935">
    <tag k="addr:housenumber" v="200"/>
    <tag k="addr:street" v="Apple Orchard Road"/>
    <tag k="addr:state" v="VT"/>
    <tag k="ref:vcgi:esiteid" v="280890"/>
  </node>
  <node id="-785" visible="true" lat="43.43988259" lon="-72.50621693">
    <tag k="addr:housenumber" v="862"/>
    <tag k="addr:street" v="Yale Heights Road"/>
    <tag k="addr:state" v="VT"/>
    <tag k="ref:vcgi:esiteid" v="280893"/>
  </node>
  <node id="-789" visible="true" lat="43.48564401" lon="-72.50458471">
    <tag k="addr:housenumber" v="786"/>
    <tag k="addr:street" v="Banister Road"/>
    <tag k="addr:state" v="VT"/>
    <tag k="ref:vcgi:esiteid" v="280897"/>
  </node>
  <node id="-790" visible="true" lat="43.48023605" lon="-72.46651562">
    <tag k="addr:housenumber" v="166"/>
    <tag k="addr:street" v="Edson Burke Road"/>
    <tag k="addr:state" v="VT"/>
    <tag k="ref:vcgi:esiteid" v="280898"/>
  </node>
  <node id="-791" visible="true" lat="43.48156593" lon="-72.48874591">
    <tag k="addr:housenumber" v="1858"/>
    <tag k="addr:street" v="Bible Hill Road"/>
    <tag k="addr:state" v="VT"/>
    <tag k="ref:vcgi:esiteid" v="280899"/>
  </node>
  <node id="-793" visible="true" lat="43.46640347" lon="-72.47296408">
    <tag k="addr:housenumber" v="1097"/>
    <tag k="addr:street" v="Vermont Route 44"/>
    <tag k="addr:state" v="VT"/>
    <tag k="ref:vcgi:esiteid" v="280901"/>
  </node>
  <node id="-796" visible="true" lat="43.47906244" lon="-72.47860198">
    <tag k="addr:housenumber" v="83"/>
    <tag k="addr:street" v="Sheddsville Road"/>
    <tag k="addr:state" v="VT"/>
    <tag k="ref:vcgi:esiteid" v="280904"/>
  </node>
  <node id="-797" visible="true" lat="43.48146606" lon="-72.47822804">
    <tag k="addr:housenumber" v="85"/>
    <tag k="addr:street" v="Sheddsville Road"/>
    <tag k="addr:state" v="VT"/>
    <tag k="ref:vcgi:esiteid" v="280905"/>
  </node>
  <node id="-800" visible="true" lat="43.46311641" lon="-72.48367249">
    <tag k="addr:housenumber" v="456"/>
    <tag k="addr:street" v="Harrington Road"/>
    <tag k="addr:state" v="VT"/>
    <tag k="ref:vcgi:esiteid" v="280909"/>
  </node>
  <node id="-803" visible="true" lat="43.44374797" lon="-72.45452986">
    <tag k="addr:housenumber" v="3800"/>
    <tag k="addr:street" v="Mount Ascutney State Park Road"/>
    <tag k="addr:state" v="VT"/>
    <tag k="ref:vcgi:esiteid" v="296862"/>
  </node>
  <node id="-804" visible="true" lat="43.48579131" lon="-72.47825527">
    <tag k="addr:housenumber" v="147"/>
    <tag k="addr:street" v="Cemetery Road"/>
    <tag k="addr:state" v="VT"/>
    <tag k="ref:vcgi:esiteid" v="305500"/>
  </node>
  <node id="-806" visible="true" lat="43.49328981" lon="-72.47650821">
    <tag k="addr:housenumber" v="1810"/>
    <tag k="addr:street" v="Brownsville Hartland Road"/>
    <tag k="addr:state" v="VT"/>
    <tag k="ref:vcgi:esiteid" v="305503"/>
  </node>
  <node id="-807" visible="true" lat="43.52447633" lon="-72.53154694">
    <tag k="addr:housenumber" v="4927"/>
    <tag k="addr:street" v="Rush Meadow Road"/>
    <tag k="addr:state" v="VT"/>
    <tag k="ref:vcgi:esiteid" v="306851"/>
  </node>
  <node id="-809" visible="true" lat="43.46266434" lon="-72.48026066">
    <tag k="addr:housenumber" v="306"/>
    <tag k="addr:street" v="Harrington Road"/>
    <tag k="addr:state" v="VT"/>
    <tag k="ref:vcgi:esiteid" v="311809"/>
  </node>
  <node id="-810" visible="true" lat="43.46302424" lon="-72.48164813">
    <tag k="addr:housenumber" v="308"/>
    <tag k="addr:street" v="Harrington Road"/>
    <tag k="addr:state" v="VT"/>
    <tag k="ref:vcgi:esiteid" v="311810"/>
  </node>
  <node id="-812" visible="true" lat="43.4828376" lon="-72.49270266">
    <tag k="addr:housenumber" v="1779"/>
    <tag k="addr:street" v="Bible Hill Road"/>
    <tag k="addr:state" v="VT"/>
    <tag k="ref:vcgi:esiteid" v="311812"/>
  </node>
  <node id="-817" visible="true" lat="43.49164635" lon="-72.4751459">
    <tag k="addr:housenumber" v="1692"/>
    <tag k="addr:street" v="Brownsville Hartland Road"/>
    <tag k="addr:state" v="VT"/>
    <tag k="ref:vcgi:esiteid" v="317516"/>
  </node>
  <node id="-818" visible="true" lat="43.49118177" lon="-72.47219654">
    <tag k="addr:housenumber" v="160"/>
    <tag k="addr:street" v="Hammond Hill Road"/>
    <tag k="addr:state" v="VT"/>
    <tag k="ref:vcgi:esiteid" v="317517"/>
  </node>
  <node id="-820" visible="true" lat="43.47352995" lon="-72.45660588">
    <tag k="addr:housenumber" v="108"/>
    <tag k="addr:street" v="Pierce Hill Road"/>
    <tag k="addr:state" v="VT"/>
    <tag k="ref:vcgi:esiteid" v="317519"/>
  </node>
  <node id="-822" visible="true" lat="43.47001826" lon="-72.52921119">
    <tag k="addr:housenumber" v="5000"/>
    <tag k="addr:street" v="Vermont Route 44"/>
    <tag k="addr:state" v="VT"/>
    <tag k="ref:vcgi:esiteid" v="326701"/>
  </node>
  <node id="-823" visible="true" lat="43.48797529" lon="-72.50583752">
    <tag k="addr:housenumber" v="868"/>
    <tag k="addr:street" v="Banister Road"/>
    <tag k="addr:state" v="VT"/>
    <tag k="ref:vcgi:esiteid" v="326702"/>
  </node>
  <node id="-824" visible="true" lat="43.47524863" lon="-72.47651506">
    <tag k="addr:housenumber" v="197"/>
    <tag k="addr:street" v="Stone Meadow Lane"/>
    <tag k="addr:state" v="VT"/>
    <tag k="ref:vcgi:esiteid" v="326703"/>
  </node>
  <node id="-830" visible="true" lat="43.53289279" lon="-72.52859796">
    <tag k="addr:housenumber" v="5690"/>
    <tag k="addr:street" v="Rush Meadow Road"/>
    <tag k="addr:state" v="VT"/>
    <tag k="ref:vcgi:esiteid" v="341839"/>
  </node>
  <node id="-831" visible="true" lat="43.53286728" lon="-72.52855567">
    <tag k="addr:housenumber" v="5696"/>
    <tag k="addr:street" v="Rush Meadow Road"/>
    <tag k="addr:state" v="VT"/>
    <tag k="ref:vcgi:esiteid" v="341840"/>
  </node>
  <node id="-833" visible="true" lat="43.51782315" lon="-72.49312346">
    <tag k="addr:housenumber" v="1604"/>
    <tag k="addr:street" v="Blood Hill Road"/>
    <tag k="addr:state" v="VT"/>
    <tag k="ref:vcgi:esiteid" v="343551"/>
  </node>
  <node id="-834" visible="true" lat="43.4722407" lon="-72.48821305">
    <tag k="addr:housenumber" v="1114"/>
    <tag k="addr:street" v="Bible Hill Road"/>
    <tag k="addr:state" v="VT"/>
    <tag k="ref:vcgi:esiteid" v="344390"/>
  </node>
  <node id="-836" visible="true" lat="43.50381829" lon="-72.5284883">
    <tag k="addr:housenumber" v="595"/>
    <tag k="addr:street" v="Barton Road"/>
    <tag k="addr:state" v="VT"/>
    <tag k="ref:vcgi:esiteid" v="446382"/>
  </node>
  <node id="-837" visible="true" lat="43.50348444" lon="-72.46257871">
    <tag k="addr:housenumber" v="1260"/>
    <tag k="addr:street" v="Hammond Hill Road"/>
    <tag k="addr:state" v="VT"/>
    <tag k="ref:vcgi:esiteid" v="446501"/>
  </node>
  <node id="-839" visible="true" lat="43.46126222" lon="-72.49072343">
    <tag k="addr:housenumber" v="311"/>
    <tag k="addr:street" v="Bible Hill Road"/>
    <tag k="addr:state" v="VT"/>
    <tag k="ref:vcgi:esiteid" v="446518"/>
  </node>
  <node id="-840" visible="true" lat="43.45523165" lon="-72.51628103">
    <tag k="addr:housenumber" v="48"/>
    <tag k="addr:street" v="Churchill Road"/>
    <tag k="addr:state" v="VT"/>
    <tag k="ref:vcgi:esiteid" v="446520"/>
  </node>
  <node id="-841" visible="true" lat="43.49845545" lon="-72.49721595">
    <tag k="addr:housenumber" v="640"/>
    <tag k="addr:street" v="Cowshed Trail"/>
    <tag k="addr:state" v="VT"/>
    <tag k="ref:vcgi:esiteid" v="448280"/>
  </node>
  <node id="-842" visible="true" lat="43.48585987" lon="-72.5195358">
    <tag k="addr:housenumber" v="2029"/>
    <tag k="addr:street" v="Rush Meadow Road"/>
    <tag k="addr:state" v="VT"/>
    <tag k="ref:vcgi:esiteid" v="448626"/>
  </node>
  <node id="-843" visible="true" lat="43.47415878" lon="-72.51901308">
    <tag k="addr:housenumber" v="545"/>
    <tag k="addr:street" v="Shattuck Hill Road"/>
    <tag k="addr:state" v="VT"/>
    <tag k="ref:vcgi:esiteid" v="450170"/>
  </node>
  <node id="-856" visible="true" lat="43.51657669" lon="-72.49249719">
    <tag k="addr:housenumber" v="1523"/>
    <tag k="addr:street" v="Blood Hill Road"/>
    <tag k="addr:state" v="VT"/>
    <tag k="ref:vcgi:esiteid" v="450239"/>
  </node>
  <node id="-857" visible="true" lat="43.51031467" lon="-72.47104669">
    <tag k="addr:housenumber" v="3162"/>
    <tag k="addr:street" v="Brownsville Hartland Road"/>
    <tag k="addr:state" v="VT"/>
    <tag k="ref:vcgi:esiteid" v="450240"/>
  </node>
  <node id="-861" visible="true" lat="43.51051729" lon="-72.52453193">
    <tag k="addr:housenumber" v="350"/>
    <tag k="addr:street" v="Wardner Road"/>
    <tag k="addr:state" v="VT"/>
    <tag k="ref:vcgi:esiteid" v="450246"/>
  </node>
  <node id="-863" visible="true" lat="43.48056019" lon="-72.47138133">
    <tag k="addr:housenumber" v="221"/>
    <tag k="addr:street" v="Dunkel Road"/>
    <tag k="addr:state" v="VT"/>
    <tag k="ref:vcgi:esiteid" v="450248"/>
  </node>
  <node id="-864" visible="true" lat="43.47646281" lon="-72.51410637">
    <tag k="addr:housenumber" v="1399"/>
    <tag k="addr:street" v="Rush Meadow Road"/>
    <tag k="addr:state" v="VT"/>
    <tag k="ref:vcgi:esiteid" v="451517"/>
  </node>
  <node id="-865" visible="true" lat="43.49812249" lon="-72.48348935">
    <tag k="addr:housenumber" v="89"/>
    <tag k="addr:street" v="Silver Hill Road"/>
    <tag k="addr:state" v="VT"/>
    <tag k="ref:vcgi:esiteid" v="452117"/>
  </node>
  <node id="-866" visible="true" lat="43.51091095" lon="-72.46855051">
    <tag k="addr:housenumber" v="3396"/>
    <tag k="addr:street" v="Brownsville Hartland Road"/>
    <tag k="addr:state" v="VT"/>
    <tag k="ref:vcgi:esiteid" v="613434"/>
  </node>
  <node id="-867" visible="true" lat="43.46580269" lon="-72.46720211">
    <tag k="addr:housenumber" v="287"/>
    <tag k="addr:street" v="Hotel Road"/>
    <tag k="addr:state" v="VT"/>
    <tag k="ref:vcgi:esiteid" v="613600"/>
  </node>
  <node id="-869" visible="true" lat="43.46256809" lon="-72.46472226">
    <tag k="addr:housenumber" v="451"/>
    <tag k="addr:street" v="Ski Tow Road"/>
    <tag k="addr:state" v="VT"/>
    <tag k="ref:vcgi:esiteid" v="613602"/>
  </node>
  <node id="-870" visible="true" lat="43.4641464" lon="-72.4671687">
    <tag k="addr:housenumber" v="450"/>
    <tag k="addr:street" v="Ski Tow Road"/>
    <tag k="addr:state" v="VT"/>
    <tag k="ref:vcgi:esiteid" v="617915"/>
  </node>
  <node id="-891" visible="true" lat="43.49194671" lon="-72.49649483">
    <tag k="addr:housenumber" v="1410"/>
    <tag k="addr:street" v="Sheddsville Road"/>
    <tag k="addr:state" v="VT"/>
    <tag k="ref:vcgi:esiteid" v="618280"/>
  </node>
  <node id="-897" visible="true" lat="43.50365051" lon="-72.49396899">
    <tag k="addr:housenumber" v="407"/>
    <tag k="addr:street" v="Cowshed Trail"/>
    <tag k="addr:state" v="VT"/>
    <tag k="ref:vcgi:esiteid" v="618474"/>
  </node>
  <node id="-899" visible="true" lat="43.45942586" lon="-72.48611689">
    <tag k="addr:housenumber" v="83"/>
    <tag k="addr:street" v="Coaching Lane"/>
    <tag k="addr:state" v="VT"/>
    <tag k="ref:vcgi:esiteid" v="655845"/>
  </node>
  <node id="-900" visible="true" lat="43.45877688" lon="-72.48607617">
    <tag k="addr:housenumber" v="127"/>
    <tag k="addr:street" v="Coaching Lane"/>
    <tag k="addr:state" v="VT"/>
    <tag k="ref:vcgi:esiteid" v="655846"/>
  </node>
  <node id="-901" visible="true" lat="43.45866971" lon="-72.48608437">
    <tag k="addr:housenumber" v="135"/>
    <tag k="addr:street" v="Coaching Lane"/>
    <tag k="addr:state" v="VT"/>
    <tag k="ref:vcgi:esiteid" v="655847"/>
  </node>
  <node id="-902" visible="true" lat="43.47260839" lon="-72.48832361">
    <tag k="addr:housenumber" v="1140"/>
    <tag k="addr:street" v="Bible Hill Road"/>
    <tag k="addr:state" v="VT"/>
    <tag k="ref:vcgi:esiteid" v="655848"/>
  </node>
  <node id="-903" visible="true" lat="43.46417953" lon="-72.47511202">
    <tag k="addr:housenumber" v="1275"/>
    <tag k="addr:street" v="Vermont Route 44"/>
    <tag k="addr:state" v="VT"/>
    <tag k="ref:vcgi:esiteid" v="656213"/>
  </node>
  <node id="-904" visible="true" lat="43.46253096" lon="-72.47643578">
    <tag k="addr:housenumber" v="1409"/>
    <tag k="addr:street" v="Vermont Route 44"/>
    <tag k="addr:state" v="VT"/>
    <tag k="ref:vcgi:esiteid" v="656214"/>
  </node>
  <node id="-905" visible="true" lat="43.47366507" lon="-72.46610631">
    <tag k="addr:housenumber" v="532"/>
    <tag k="addr:street" v="Strawberry Hill Road"/>
    <tag k="addr:state" v="VT"/>
    <tag k="ref:vcgi:esiteid" v="656408"/>
  </node>
  <node id="-906" visible="true" lat="43.48922311" lon="-72.49068247">
    <tag k="addr:housenumber" v="1494"/>
    <tag k="addr:street" v="Cowshed Trail"/>
    <tag k="addr:state" v="VT"/>
    <tag k="ref:vcgi:esiteid" v="752100"/>
  </node>
  <node id="-907" visible="true" lat="43.45597566" lon="-72.52097469">
    <tag k="addr:housenumber" v="94"/>
    <tag k="addr:street" v="Churchill Road"/>
    <tag k="addr:state" v="VT"/>
    <tag k="ref:vcgi:esiteid" v="753141"/>
  </node>
  <node id="-909" visible="true" lat="43.50891964" lon="-72.51268087">
    <tag k="addr:housenumber" v="923"/>
    <tag k="addr:street" v="Queen Victoria Road"/>
    <tag k="addr:state" v="VT"/>
    <tag k="ref:vcgi:esiteid" v="753205"/>
  </node>
  <node id="-910" visible="true" lat="43.44353898" lon="-72.45443282">
    <tag k="addr:housenumber" v="3798"/>
    <tag k="addr:street" v="Mount Ascutney State Park Road"/>
    <tag k="addr:state" v="VT"/>
    <tag k="ref:vcgi:esiteid" v="753361"/>
  </node>
  <node id="-912" visible="true" lat="43.50490189" lon="-72.47334482">
    <tag k="addr:housenumber" v="2748"/>
    <tag k="addr:street" v="Brownsville Hartland Road"/>
    <tag k="addr:state" v="VT"/>
    <tag k="ref:vcgi:esiteid" v="754500"/>
  </node>
  <node id="-913" visible="true" lat="43.50246987" lon="-72.48559725">
    <tag k="addr:housenumber" v="536"/>
    <tag k="addr:street" v="Silver Hill Road"/>
    <tag k="addr:state" v="VT"/>
    <tag k="ref:vcgi:esiteid" v="755305"/>
  </node>
  <node id="-914" visible="true" lat="43.47047349" lon="-72.47206668">
    <tag k="addr:housenumber" v="185"/>
    <tag k="addr:street" v="Brownsville Hartland Road"/>
    <tag k="addr:state" v="VT"/>
    <tag k="ref:vcgi:esiteid" v="756565"/>
  </node>
  <node id="-915" visible="true" lat="43.47135097" lon="-72.47158395">
    <tag k="addr:housenumber" v="250"/>
    <tag k="addr:street" v="Brownsville Hartland Road"/>
    <tag k="addr:state" v="VT"/>
    <tag k="ref:vcgi:esiteid" v="756566"/>
  </node>
  <node id="-916" visible="true" lat="43.48744458" lon="-72.48779346">
    <tag k="addr:housenumber" v="615"/>
    <tag k="addr:street" v="Cemetery Road"/>
    <tag k="addr:state" v="VT"/>
    <tag k="ref:vcgi:esiteid" v="756567"/>
  </node>
  <node id="-917" visible="true" lat="43.51205412" lon="-72.47076488">
    <tag k="addr:housenumber" v="3323"/>
    <tag k="addr:street" v="Brownsville Hartland Road"/>
    <tag k="addr:state" v="VT"/>
    <tag k="ref:vcgi:esiteid" v="757096"/>
  </node>
  <node id="-918" visible="true" lat="43.50180408" lon="-72.51703693">
    <tag k="addr:housenumber" v="3142"/>
    <tag k="addr:street" v="Rush Meadow Road"/>
    <tag k="addr:state" v="VT"/>
    <tag k="ref:vcgi:esiteid" v="758186"/>
  </node>
  <node id="-919" visible="true" lat="43.4607639" lon="-72.47528346">
    <tag k="addr:housenumber" v="102"/>
    <tag k="addr:street" v="Mountainside Drive"/>
    <tag k="addr:state" v="VT"/>
    <tag k="ref:vcgi:esiteid" v="758723"/>
  </node>
  <node id="-920" visible="true" lat="43.46638417" lon="-72.50445948">
    <tag k="addr:housenumber" v="605"/>
    <tag k="addr:street" v="East Rowe Hill Road"/>
    <tag k="addr:state" v="VT"/>
    <tag k="ref:vcgi:esiteid" v="759490"/>
  </node>
  <node id="-924" visible="true" lat="43.46320922" lon="-72.47109312">
    <tag k="addr:housenumber" v="144"/>
    <tag k="addr:street" v="Skyhawk Lane"/>
    <tag k="addr:state" v="VT"/>
    <tag k="ref:vcgi:esiteid" v="760753"/>
  </node>
  <node id="-925" visible="true" lat="43.51437744" lon="-72.49553637">
    <tag k="addr:housenumber" v="1472"/>
    <tag k="addr:street" v="Silver Hill Road"/>
    <tag k="addr:state" v="VT"/>
    <tag k="ref:vcgi:esiteid" v="760862"/>
  </node>
  <node id="-926" visible="true" lat="43.4711031" lon="-72.50874537">
    <tag k="addr:housenumber" v="320"/>
    <tag k="addr:street" v="West Rowe Hill Road"/>
    <tag k="addr:state" v="VT"/>
    <tag k="ref:vcgi:esiteid" v="760863"/>
  </node>
  <node id="-927" visible="true" lat="43.46509901" lon="-72.48373887">
    <tag k="addr:housenumber" v="458"/>
    <tag k="addr:street" v="Harrington Road"/>
    <tag k="addr:state" v="VT"/>
    <tag k="ref:vcgi:esiteid" v="761058"/>
  </node>
  <node id="-928" visible="true" lat="43.46438943" lon="-72.51673984">
    <tag k="addr:housenumber" v="307"/>
    <tag k="addr:street" v="Rush Meadow Road"/>
    <tag k="addr:state" v="VT"/>
    <tag k="ref:vcgi:esiteid" v="761944"/>
  </node>
  <node id="-929" visible="true" lat="43.46262331" lon="-72.47011574">
    <tag k="addr:housenumber" v="119"/>
    <tag k="addr:street" v="Skyhawk Lane"/>
    <tag k="addr:state" v="VT"/>
    <tag k="ref:vcgi:esiteid" v="762388"/>
  </node>
  <node id="-930" visible="true" lat="43.51344522" lon="-72.5005175">
    <tag k="addr:housenumber" v="904"/>
    <tag k="addr:street" v="Bryant Road"/>
    <tag k="addr:state" v="VT"/>
    <tag k="ref:vcgi:esiteid" v="763058"/>
  </node>
  <node id="-931" visible="true" lat="43.52135603" lon="-72.45658523">
    <tag k="addr:housenumber" v="4270"/>
    <tag k="addr:street" v="Brownsville Hartland Road"/>
    <tag k="addr:state" v="VT"/>
    <tag k="ref:vcgi:esiteid" v="763142"/>
  </node>
  <node id="-932" visible="true" lat="43.45746376" lon="-72.48943341">
    <tag k="addr:housenumber" v="2153"/>
    <tag k="addr:street" v="Vermont Route 44"/>
    <tag k="addr:state" v="VT"/>
    <tag k="ref:vcgi:esiteid" v="764861"/>
  </node>
  <node id="-933" visible="true" lat="43.52740095" lon="-72.49150376">
    <tag k="addr:housenumber" v="2245"/>
    <tag k="addr:street" v="Blood Hill Road"/>
    <tag k="addr:state" v="VT"/>
    <tag k="ref:vcgi:esiteid" v="765344"/>
  </node>
  <node id="-934" visible="true" lat="43.48972754" lon="-72.53036375">
    <tag k="addr:housenumber" v="603"/>
    <tag k="addr:street" v="Delano Road"/>
    <tag k="addr:state" v="VT"/>
    <tag k="ref:vcgi:esiteid" v="765685"/>
  </node>
  <node id="-935" visible="true" lat="43.45122412" lon="-72.48380387">
    <tag k="addr:housenumber" v="651"/>
    <tag k="addr:street" v="Coaching Lane"/>
    <tag k="addr:state" v="VT"/>
    <tag k="ref:vcgi:esiteid" v="766119"/>
  </node>
  <node id="-936" visible="true" lat="43.47200404" lon="-72.50743903">
    <tag k="addr:housenumber" v="317"/>
    <tag k="addr:street" v="West Rowe Hill Road"/>
    <tag k="addr:state" v="VT"/>
    <tag k="ref:vcgi:esiteid" v="767275"/>
  </node>
  <node id="-937" visible="true" lat="43.46930168" lon="-72.4625538">
    <tag k="addr:housenumber" v="514"/>
    <tag k="addr:street" v="Vermont Route 44"/>
    <tag k="addr:state" v="VT"/>
    <tag k="ref:vcgi:esiteid" v="767278"/>
  </node>
  <node id="-938" visible="true" lat="43.50088554" lon="-72.48812841">
    <tag k="addr:housenumber" v="559"/>
    <tag k="addr:street" v="Silver Hill Road"/>
    <tag k="addr:state" v="VT"/>
    <tag k="ref:vcgi:esiteid" v="767280"/>
  </node>
  <node id="-939" visible="true" lat="43.47432444" lon="-72.52135669">
    <tag k="addr:housenumber" v="511"/>
    <tag k="addr:street" v="Shattuck Hill Road"/>
    <tag k="addr:state" v="VT"/>
    <tag k="ref:vcgi:esiteid" v="800011"/>
  </node>
  <node id="-940" visible="true" lat="43.45296634" lon="-72.49967841">
    <tag k="addr:housenumber" v="2883"/>
    <tag k="addr:street" v="Vermont Route 44"/>
    <tag k="addr:state" v="VT"/>
    <tag k="ref:vcgi:esiteid" v="1050370"/>
  </node>
  <node id="-941" visible="true" lat="43.4686395" lon="-72.52708817">
    <tag k="addr:housenumber" v="4898"/>
    <tag k="addr:street" v="Vermont Route 44"/>
    <tag k="addr:state" v="VT"/>
    <tag k="ref:vcgi:esiteid" v="1050371"/>
  </node>
  <node id="-942" visible="true" lat="43.46445206" lon="-72.46652">
    <tag k="addr:housenumber" v="436"/>
    <tag k="addr:street" v="Ski Tow Road"/>
    <tag k="addr:state" v="VT"/>
    <tag k="ref:vcgi:esiteid" v="1050373"/>
  </node>
  <node id="-943" visible="true" lat="43.47000417" lon="-72.47100461">
    <tag k="addr:housenumber" v="144"/>
    <tag k="addr:street" v="Brownsville Hartland Road"/>
    <tag k="addr:state" v="VT"/>
    <tag k="ref:vcgi:esiteid" v="1050374"/>
  </node>
</osm>
