<?xml version="1.0" encoding="UTF-8"?>
<osm version="0.6" generator="JOSM">
  <node id="-100" visible="true" lat="43.92713315" lon="-72.20665251">
    <tag k="addr:city" v="West Fairlee"/>
    <tag k="addr:housenumber" v="1853"/>
    <tag k="addr:street" v="Blood Brook Road"/>
    <tag k="addr:state" v="VT"/>
    <tag k="ref:vcgi:esiteid" v="327"/>
  </node>
  <node id="-101" visible="true" lat="43.98953095" lon="-72.23089487">
    <tag k="addr:city" v="West Fairlee"/>
    <tag k="addr:housenumber" v="1900"/>
    <tag k="addr:street" v="Camp Munn Road"/>
    <tag k="addr:state" v="VT"/>
    <tag k="ref:vcgi:esiteid" v="26087"/>
  </node>
  <node id="-103" visible="true" lat="43.89485664" lon="-72.25343479">
    <tag k="addr:city" v="West Fairlee"/>
    <tag k="addr:housenumber" v="909"/>
    <tag k="addr:street" v="West Fairlee Road"/>
    <tag k="addr:state" v="VT"/>
    <tag k="ref:vcgi:esiteid" v="258477"/>
  </node>
  <node id="-104" visible="true" lat="43.89314179" lon="-72.24666501">
    <tag k="addr:city" v="West Fairlee"/>
    <tag k="addr:housenumber" v="572"/>
    <tag k="addr:street" v="West Fairlee Road"/>
    <tag k="addr:state" v="VT"/>
    <tag k="ref:vcgi:esiteid" v="258484"/>
  </node>
  <node id="-106" visible="true" lat="43.93876929" lon="-72.26433228">
    <tag k="addr:city" v="West Fairlee"/>
    <tag k="addr:housenumber" v="87"/>
    <tag k="addr:street" v="Beaver Meadow Road"/>
    <tag k="addr:state" v="VT"/>
    <tag k="ref:vcgi:esiteid" v="267180"/>
  </node>
  <node id="-108" visible="true" lat="43.93921803" lon="-72.26394555">
    <tag k="addr:city" v="West Fairlee"/>
    <tag k="addr:housenumber" v="127"/>
    <tag k="addr:street" v="Beaver Meadow Road"/>
    <tag k="addr:state" v="VT"/>
    <tag k="ref:vcgi:esiteid" v="267294"/>
  </node>
  <node id="-109" visible="true" lat="43.94014366" lon="-72.26357067">
    <tag k="addr:city" v="West Fairlee"/>
    <tag k="addr:housenumber" v="173"/>
    <tag k="addr:street" v="Beaver Meadow Road"/>
    <tag k="addr:state" v="VT"/>
    <tag k="ref:vcgi:esiteid" v="267295"/>
  </node>
  <node id="-110" visible="true" lat="43.98940307" lon="-72.22341274">
    <tag k="addr:city" v="West Fairlee"/>
    <tag k="addr:housenumber" v="245"/>
    <tag k="addr:street" v="Bowley Road"/>
    <tag k="addr:state" v="VT"/>
    <tag k="ref:vcgi:esiteid" v="278680"/>
  </node>
  <node id="-111" visible="true" lat="43.98823713" lon="-72.22337029">
    <tag k="addr:city" v="West Fairlee"/>
    <tag k="addr:housenumber" v="168"/>
    <tag k="addr:street" v="Bowley Road"/>
    <tag k="addr:state" v="VT"/>
    <tag k="ref:vcgi:esiteid" v="278681"/>
  </node>
  <node id="-112" visible="true" lat="43.98417871" lon="-72.2249254">
    <tag k="addr:city" v="West Fairlee"/>
    <tag k="addr:housenumber" v="236"/>
    <tag k="addr:street" v="Scrabble Hollow Road"/>
    <tag k="addr:state" v="VT"/>
    <tag k="ref:vcgi:esiteid" v="278683"/>
  </node>
  <node id="-114" visible="true" lat="43.98290219" lon="-72.20263953">
    <tag k="addr:city" v="West Fairlee"/>
    <tag k="addr:housenumber" v="466"/>
    <tag k="addr:street" v="Jennings Road"/>
    <tag k="addr:state" v="VT"/>
    <tag k="ref:vcgi:esiteid" v="278685"/>
  </node>
  <node id="-115" visible="true" lat="43.98266664" lon="-72.20107101">
    <tag k="addr:city" v="West Fairlee"/>
    <tag k="addr:housenumber" v="330"/>
    <tag k="addr:street" v="Jennings Road"/>
    <tag k="addr:state" v="VT"/>
    <tag k="ref:vcgi:esiteid" v="278686"/>
  </node>
  <node id="-116" visible="true" lat="43.9824507" lon="-72.20037388">
    <tag k="addr:city" v="West Fairlee"/>
    <tag k="addr:housenumber" v="318"/>
    <tag k="addr:street" v="Jennings Road"/>
    <tag k="addr:state" v="VT"/>
    <tag k="ref:vcgi:esiteid" v="278687"/>
  </node>
  <node id="-117" visible="true" lat="43.98210073" lon="-72.20261307">
    <tag k="addr:city" v="West Fairlee"/>
    <tag k="addr:housenumber" v="451"/>
    <tag k="addr:street" v="Jennings Road"/>
    <tag k="addr:state" v="VT"/>
    <tag k="ref:vcgi:esiteid" v="278688"/>
  </node>
  <node id="-119" visible="true" lat="43.98143967" lon="-72.22425113">
    <tag k="addr:city" v="West Fairlee"/>
    <tag k="addr:housenumber" v="54"/>
    <tag k="addr:street" v="Scrabble Hollow Road"/>
    <tag k="addr:state" v="VT"/>
    <tag k="ref:vcgi:esiteid" v="278690"/>
  </node>
  <node id="-120" visible="true" lat="43.98099983" lon="-72.22115148">
    <tag k="addr:city" v="West Fairlee"/>
    <tag k="addr:housenumber" v="1582"/>
    <tag k="addr:street" v="Jennings Road"/>
    <tag k="addr:state" v="VT"/>
    <tag k="ref:vcgi:esiteid" v="278691"/>
  </node>
  <node id="-121" visible="true" lat="43.98101412" lon="-72.19506196">
    <tag k="addr:city" v="West Fairlee"/>
    <tag k="addr:housenumber" v="2727"/>
    <tag k="addr:street" v="Wild Hill Road"/>
    <tag k="addr:state" v="VT"/>
    <tag k="ref:vcgi:esiteid" v="278692"/>
  </node>
  <node id="-126" visible="true" lat="43.97952364" lon="-72.19531709">
    <tag k="addr:city" v="West Fairlee"/>
    <tag k="addr:housenumber" v="2690"/>
    <tag k="addr:street" v="Wild Hill Road"/>
    <tag k="addr:state" v="VT"/>
    <tag k="ref:vcgi:esiteid" v="278697"/>
  </node>
  <node id="-128" visible="true" lat="43.97629928" lon="-72.17815399">
    <tag k="addr:city" v="West Fairlee"/>
    <tag k="addr:housenumber" v="75"/>
    <tag k="addr:street" v="Kidderhood Road"/>
    <tag k="addr:state" v="VT"/>
    <tag k="ref:vcgi:esiteid" v="278699"/>
  </node>
  <node id="-129" visible="true" lat="43.97399139" lon="-72.18323516">
    <tag k="addr:city" v="West Fairlee"/>
    <tag k="addr:housenumber" v="382"/>
    <tag k="addr:street" v="Kidderhood Road"/>
    <tag k="addr:state" v="VT"/>
    <tag k="ref:vcgi:esiteid" v="278700"/>
  </node>
  <node id="-131" visible="true" lat="43.97332" lon="-72.18519592">
    <tag k="addr:city" v="West Fairlee"/>
    <tag k="addr:housenumber" v="502"/>
    <tag k="addr:street" v="Kidderhood Road"/>
    <tag k="addr:state" v="VT"/>
    <tag k="ref:vcgi:esiteid" v="278702"/>
  </node>
  <node id="-135" visible="true" lat="43.97142764" lon="-72.20190937">
    <tag k="addr:city" v="West Fairlee"/>
    <tag k="addr:housenumber" v="1964"/>
    <tag k="addr:street" v="Wild Hill Road"/>
    <tag k="addr:state" v="VT"/>
    <tag k="ref:vcgi:esiteid" v="278706"/>
  </node>
  <node id="-136" visible="true" lat="43.97124145" lon="-72.18865939">
    <tag k="addr:city" v="West Fairlee"/>
    <tag k="addr:housenumber" v="706"/>
    <tag k="addr:street" v="Kidderhood Road"/>
    <tag k="addr:state" v="VT"/>
    <tag k="ref:vcgi:esiteid" v="278707"/>
  </node>
  <node id="-138" visible="true" lat="43.97043498" lon="-72.18864446">
    <tag k="addr:city" v="West Fairlee"/>
    <tag k="addr:housenumber" v="746"/>
    <tag k="addr:street" v="Kidderhood Road"/>
    <tag k="addr:state" v="VT"/>
    <tag k="ref:vcgi:esiteid" v="278709"/>
  </node>
  <node id="-139" visible="true" lat="43.96985626" lon="-72.18744659">
    <tag k="addr:city" v="West Fairlee"/>
    <tag k="addr:housenumber" v="731"/>
    <tag k="addr:street" v="Kidderhood Road"/>
    <tag k="addr:state" v="VT"/>
    <tag k="ref:vcgi:esiteid" v="278710"/>
  </node>
  <node id="-141" visible="true" lat="43.96877108" lon="-72.20339322">
    <tag k="addr:city" v="West Fairlee"/>
    <tag k="addr:housenumber" v="1719"/>
    <tag k="addr:street" v="Wild Hill Road"/>
    <tag k="addr:state" v="VT"/>
    <tag k="ref:vcgi:esiteid" v="278713"/>
  </node>
  <node id="-142" visible="true" lat="43.96838032" lon="-72.20273491">
    <tag k="addr:city" v="West Fairlee"/>
    <tag k="addr:housenumber" v="1747"/>
    <tag k="addr:street" v="Wild Hill Road"/>
    <tag k="addr:state" v="VT"/>
    <tag k="ref:vcgi:esiteid" v="278714"/>
  </node>
  <node id="-143" visible="true" lat="43.96751768" lon="-72.20240977">
    <tag k="addr:city" v="West Fairlee"/>
    <tag k="addr:housenumber" v="1706"/>
    <tag k="addr:street" v="Wild Hill Road"/>
    <tag k="addr:state" v="VT"/>
    <tag k="ref:vcgi:esiteid" v="278715"/>
  </node>
  <node id="-144" visible="true" lat="43.96695759" lon="-72.20321074">
    <tag k="addr:city" v="West Fairlee"/>
    <tag k="addr:housenumber" v="1643"/>
    <tag k="addr:street" v="Wild Hill Road"/>
    <tag k="addr:state" v="VT"/>
    <tag k="ref:vcgi:esiteid" v="278716"/>
  </node>
  <node id="-145" visible="true" lat="43.96508349" lon="-72.2160298">
    <tag k="addr:city" v="West Fairlee"/>
    <tag k="addr:housenumber" v="648"/>
    <tag k="addr:street" v="Preserve Road"/>
    <tag k="addr:state" v="VT"/>
    <tag k="ref:vcgi:esiteid" v="278717"/>
  </node>
  <node id="-146" visible="true" lat="43.9653719" lon="-72.2041088">
    <tag k="addr:city" v="West Fairlee"/>
    <tag k="addr:housenumber" v="1531"/>
    <tag k="addr:street" v="Wild Hill Road"/>
    <tag k="addr:state" v="VT"/>
    <tag k="ref:vcgi:esiteid" v="278718"/>
  </node>
  <node id="-147" visible="true" lat="43.96452791" lon="-72.21630359">
    <tag k="addr:city" v="West Fairlee"/>
    <tag k="addr:housenumber" v="646"/>
    <tag k="addr:street" v="Preserve Road"/>
    <tag k="addr:state" v="VT"/>
    <tag k="ref:vcgi:esiteid" v="278719"/>
  </node>
  <node id="-148" visible="true" lat="43.96245621" lon="-72.20487182">
    <tag k="addr:city" v="West Fairlee"/>
    <tag k="addr:housenumber" v="1331"/>
    <tag k="addr:street" v="Wild Hill Road"/>
    <tag k="addr:state" v="VT"/>
    <tag k="ref:vcgi:esiteid" v="278720"/>
  </node>
  <node id="-149" visible="true" lat="43.96249175" lon="-72.21083636">
    <tag k="addr:city" v="West Fairlee"/>
    <tag k="addr:housenumber" v="1181"/>
    <tag k="addr:street" v="Wild Hill Road"/>
    <tag k="addr:state" v="VT"/>
    <tag k="ref:vcgi:esiteid" v="278721"/>
  </node>
  <node id="-150" visible="true" lat="43.96151357" lon="-72.2060158">
    <tag k="addr:city" v="West Fairlee"/>
    <tag k="addr:housenumber" v="1237"/>
    <tag k="addr:street" v="Wild Hill Road"/>
    <tag k="addr:state" v="VT"/>
    <tag k="ref:vcgi:esiteid" v="278722"/>
  </node>
  <node id="-151" visible="true" lat="43.96066201" lon="-72.20727722">
    <tag k="addr:city" v="West Fairlee"/>
    <tag k="addr:housenumber" v="1183"/>
    <tag k="addr:street" v="Wild Hill Road"/>
    <tag k="addr:state" v="VT"/>
    <tag k="ref:vcgi:esiteid" v="278723"/>
  </node>
  <node id="-152" visible="true" lat="43.95936141" lon="-72.20574971">
    <tag k="addr:city" v="West Fairlee"/>
    <tag k="addr:housenumber" v="1122"/>
    <tag k="addr:street" v="Wild Hill Road"/>
    <tag k="addr:state" v="VT"/>
    <tag k="ref:vcgi:esiteid" v="278724"/>
  </node>
  <node id="-153" visible="true" lat="43.95865099" lon="-72.20578035">
    <tag k="addr:city" v="West Fairlee"/>
    <tag k="addr:housenumber" v="1096"/>
    <tag k="addr:street" v="Wild Hill Road"/>
    <tag k="addr:state" v="VT"/>
    <tag k="ref:vcgi:esiteid" v="278725"/>
  </node>
  <node id="-154" visible="true" lat="43.95847245" lon="-72.20488487">
    <tag k="addr:city" v="West Fairlee"/>
    <tag k="addr:housenumber" v="1098"/>
    <tag k="addr:street" v="Wild Hill Road"/>
    <tag k="addr:state" v="VT"/>
    <tag k="ref:vcgi:esiteid" v="278726"/>
  </node>
  <node id="-155" visible="true" lat="43.9585656" lon="-72.20740884">
    <tag k="addr:city" v="West Fairlee"/>
    <tag k="addr:housenumber" v="1017"/>
    <tag k="addr:street" v="Wild Hill Road"/>
    <tag k="addr:state" v="VT"/>
    <tag k="ref:vcgi:esiteid" v="278727"/>
  </node>
  <node id="-156" visible="true" lat="43.95813365" lon="-72.20764914">
    <tag k="addr:city" v="West Fairlee"/>
    <tag k="addr:housenumber" v="999"/>
    <tag k="addr:street" v="Wild Hill Road"/>
    <tag k="addr:state" v="VT"/>
    <tag k="ref:vcgi:esiteid" v="278728"/>
  </node>
  <node id="-158" visible="true" lat="43.94999795" lon="-72.2162461">
    <tag k="addr:city" v="West Fairlee"/>
    <tag k="addr:housenumber" v="276"/>
    <tag k="addr:street" v="Wild Hill Road"/>
    <tag k="addr:state" v="VT"/>
    <tag k="ref:vcgi:esiteid" v="278731"/>
  </node>
  <node id="-159" visible="true" lat="43.94959896" lon="-72.2171818">
    <tag k="addr:city" v="West Fairlee"/>
    <tag k="addr:housenumber" v="321"/>
    <tag k="addr:street" v="Wild Hill Road"/>
    <tag k="addr:state" v="VT"/>
    <tag k="ref:vcgi:esiteid" v="278732"/>
  </node>
  <node id="-160" visible="true" lat="43.94780755" lon="-72.23122061">
    <tag k="addr:city" v="West Fairlee"/>
    <tag k="addr:housenumber" v="71"/>
    <tag k="addr:street" v="Graves Road"/>
    <tag k="addr:state" v="VT"/>
    <tag k="ref:vcgi:esiteid" v="278733"/>
  </node>
  <node id="-161" visible="true" lat="43.94762915" lon="-72.21160308">
    <tag k="addr:city" v="West Fairlee"/>
    <tag k="addr:housenumber" v="3856"/>
    <tag k="addr:street" v="Blood Brook Road"/>
    <tag k="addr:state" v="VT"/>
    <tag k="ref:vcgi:esiteid" v="278734"/>
  </node>
  <node id="-162" visible="true" lat="43.94714401" lon="-72.21746326">
    <tag k="addr:city" v="West Fairlee"/>
    <tag k="addr:housenumber" v="4329"/>
    <tag k="addr:street" v="Middlebrook Road"/>
    <tag k="addr:state" v="VT"/>
    <tag k="ref:vcgi:esiteid" v="278735"/>
  </node>
  <node id="-163" visible="true" lat="43.94683456" lon="-72.21618652">
    <tag k="addr:city" v="West Fairlee"/>
    <tag k="addr:housenumber" v="4085"/>
    <tag k="addr:street" v="Blood Brook Road"/>
    <tag k="addr:state" v="VT"/>
    <tag k="ref:vcgi:esiteid" v="278736"/>
  </node>
  <node id="-164" visible="true" lat="43.9464355" lon="-72.25977668">
    <tag k="addr:city" v="West Fairlee"/>
    <tag k="addr:housenumber" v="38"/>
    <tag k="addr:street" v="Ravenwood Road"/>
    <tag k="addr:state" v="VT"/>
    <tag k="ref:vcgi:esiteid" v="278737"/>
  </node>
  <node id="-165" visible="true" lat="43.94625854" lon="-72.21186065">
    <tag k="addr:city" v="West Fairlee"/>
    <tag k="addr:housenumber" v="3783"/>
    <tag k="addr:street" v="Blood Brook Road"/>
    <tag k="addr:state" v="VT"/>
    <tag k="ref:vcgi:esiteid" v="278738"/>
  </node>
  <node id="-166" visible="true" lat="43.94624328" lon="-72.20918273">
    <tag k="addr:city" v="West Fairlee"/>
    <tag k="addr:housenumber" v="3714"/>
    <tag k="addr:street" v="Blood Brook Road"/>
    <tag k="addr:state" v="VT"/>
    <tag k="ref:vcgi:esiteid" v="278739"/>
  </node>
  <node id="-167" visible="true" lat="43.94620386" lon="-72.21972145">
    <tag k="addr:city" v="West Fairlee"/>
    <tag k="addr:housenumber" v="4223"/>
    <tag k="addr:street" v="Middlebrook Road"/>
    <tag k="addr:state" v="VT"/>
    <tag k="ref:vcgi:esiteid" v="278740"/>
  </node>
  <node id="-168" visible="true" lat="43.946191" lon="-72.26014921">
    <tag k="addr:city" v="West Fairlee"/>
    <tag k="addr:housenumber" v="39"/>
    <tag k="addr:street" v="Ravenwood Road"/>
    <tag k="addr:state" v="VT"/>
    <tag k="ref:vcgi:esiteid" v="278741"/>
  </node>
  <node id="-169" visible="true" lat="43.94599338" lon="-72.21043824">
    <tag k="addr:city" v="West Fairlee"/>
    <tag k="addr:housenumber" v="3755"/>
    <tag k="addr:street" v="Blood Brook Road"/>
    <tag k="addr:state" v="VT"/>
    <tag k="ref:vcgi:esiteid" v="278742"/>
  </node>
  <node id="-170" visible="true" lat="43.94587562" lon="-72.21864724">
    <tag k="addr:city" v="West Fairlee"/>
    <tag k="addr:housenumber" v="4256"/>
    <tag k="addr:street" v="Middlebrook Road"/>
    <tag k="addr:state" v="VT"/>
    <tag k="ref:vcgi:esiteid" v="278744"/>
  </node>
  <node id="-171" visible="true" lat="43.94573593" lon="-72.21960449">
    <tag k="addr:city" v="West Fairlee"/>
    <tag k="addr:housenumber" v="4210"/>
    <tag k="addr:street" v="Middlebrook Road"/>
    <tag k="addr:state" v="VT"/>
    <tag k="ref:vcgi:esiteid" v="278745"/>
  </node>
  <node id="-172" visible="true" lat="43.94557773" lon="-72.20784799">
    <tag k="addr:city" v="West Fairlee"/>
    <tag k="addr:housenumber" v="3572"/>
    <tag k="addr:street" v="Blood Brook Road"/>
    <tag k="addr:state" v="VT"/>
    <tag k="ref:vcgi:esiteid" v="278746"/>
  </node>
  <node id="-173" visible="true" lat="43.94556335" lon="-72.25971782">
    <tag k="addr:city" v="West Fairlee"/>
    <tag k="addr:housenumber" v="643"/>
    <tag k="addr:street" v="Beaver Meadow Road"/>
    <tag k="addr:state" v="VT"/>
    <tag k="ref:vcgi:esiteid" v="278747"/>
  </node>
  <node id="-174" visible="true" lat="43.94525868" lon="-72.21673359">
    <tag k="addr:city" v="West Fairlee"/>
    <tag k="addr:housenumber" v="4097"/>
    <tag k="addr:street" v="Blood Brook Road"/>
    <tag k="addr:state" v="VT"/>
    <tag k="ref:vcgi:esiteid" v="278748"/>
  </node>
  <node id="-175" visible="true" lat="43.94644859" lon="-72.20379456">
    <tag k="addr:city" v="West Fairlee"/>
    <tag k="addr:housenumber" v="3450"/>
    <tag k="addr:street" v="Blood Brook Road"/>
    <tag k="addr:state" v="VT"/>
    <tag k="ref:vcgi:esiteid" v="278750"/>
  </node>
  <node id="-176" visible="true" lat="43.94468527" lon="-72.20880971">
    <tag k="addr:city" v="West Fairlee"/>
    <tag k="addr:housenumber" v="3649"/>
    <tag k="addr:street" v="Blood Brook Road"/>
    <tag k="addr:state" v="VT"/>
    <tag k="ref:vcgi:esiteid" v="278751"/>
  </node>
  <node id="-177" visible="true" lat="43.9446932" lon="-72.20296699">
    <tag k="addr:city" v="West Fairlee"/>
    <tag k="addr:housenumber" v="3346"/>
    <tag k="addr:street" v="Blood Brook Road"/>
    <tag k="addr:state" v="VT"/>
    <tag k="ref:vcgi:esiteid" v="278752"/>
  </node>
  <node id="-178" visible="true" lat="43.94465971" lon="-72.20140077">
    <tag k="addr:city" v="West Fairlee"/>
    <tag k="addr:housenumber" v="3344"/>
    <tag k="addr:street" v="Blood Brook Road"/>
    <tag k="addr:state" v="VT"/>
    <tag k="ref:vcgi:esiteid" v="278753"/>
  </node>
  <node id="-183" visible="true" lat="43.94381194" lon="-72.19844746">
    <tag k="addr:city" v="West Fairlee"/>
    <tag k="addr:housenumber" v="3188"/>
    <tag k="addr:street" v="Blood Brook Road"/>
    <tag k="addr:state" v="VT"/>
    <tag k="ref:vcgi:esiteid" v="278758"/>
  </node>
  <node id="-184" visible="true" lat="43.94356095" lon="-72.20801381">
    <tag k="addr:city" v="West Fairlee"/>
    <tag k="addr:housenumber" v="3589"/>
    <tag k="addr:street" v="Blood Brook Road"/>
    <tag k="addr:state" v="VT"/>
    <tag k="ref:vcgi:esiteid" v="278759"/>
  </node>
  <node id="-185" visible="true" lat="43.94350387" lon="-72.20845486">
    <tag k="addr:city" v="West Fairlee"/>
    <tag k="addr:housenumber" v="3591"/>
    <tag k="addr:street" v="Blood Brook Road"/>
    <tag k="addr:state" v="VT"/>
    <tag k="ref:vcgi:esiteid" v="278760"/>
  </node>
  <node id="-187" visible="true" lat="43.94318008" lon="-72.20072174">
    <tag k="addr:city" v="West Fairlee"/>
    <tag k="addr:housenumber" v="3207"/>
    <tag k="addr:street" v="Blood Brook Road"/>
    <tag k="addr:state" v="VT"/>
    <tag k="ref:vcgi:esiteid" v="278762"/>
  </node>
  <node id="-188" visible="true" lat="43.94293397" lon="-72.22537474">
    <tag k="addr:city" v="West Fairlee"/>
    <tag k="addr:housenumber" v="10"/>
    <tag k="addr:street" v="Bear Notch Road"/>
    <tag k="addr:state" v="VT"/>
    <tag k="ref:vcgi:esiteid" v="278764"/>
  </node>
  <node id="-189" visible="true" lat="43.94255828" lon="-72.22581482">
    <tag k="addr:city" v="West Fairlee"/>
    <tag k="addr:housenumber" v="3831"/>
    <tag k="addr:street" v="Middlebrook Road"/>
    <tag k="addr:state" v="VT"/>
    <tag k="ref:vcgi:esiteid" v="278765"/>
  </node>
  <node id="-190" visible="true" lat="43.94264245" lon="-72.22499493">
    <tag k="addr:city" v="West Fairlee"/>
    <tag k="addr:housenumber" v="3862"/>
    <tag k="addr:street" v="Middlebrook Road"/>
    <tag k="addr:state" v="VT"/>
    <tag k="ref:vcgi:esiteid" v="278766"/>
  </node>
  <node id="-191" visible="true" lat="43.94217952" lon="-72.22681812">
    <tag k="addr:city" v="West Fairlee"/>
    <tag k="addr:housenumber" v="3751"/>
    <tag k="addr:street" v="Middlebrook Road"/>
    <tag k="addr:state" v="VT"/>
    <tag k="ref:vcgi:esiteid" v="278767"/>
  </node>
  <node id="-193" visible="true" lat="43.94156265" lon="-72.2073822">
    <tag k="addr:city" v="West Fairlee"/>
    <tag k="addr:housenumber" v="3423"/>
    <tag k="addr:street" v="Blood Brook Road"/>
    <tag k="addr:state" v="VT"/>
    <tag k="ref:vcgi:esiteid" v="278769"/>
  </node>
  <node id="-194" visible="true" lat="43.94150493" lon="-72.22106916">
    <tag k="addr:city" v="West Fairlee"/>
    <tag k="addr:housenumber" v="1617"/>
    <tag k="addr:street" v="Marsh Hill Road"/>
    <tag k="addr:state" v="VT"/>
    <tag k="ref:vcgi:esiteid" v="278770"/>
  </node>
  <node id="-196" visible="true" lat="43.94081878" lon="-72.22099304">
    <tag k="addr:city" v="West Fairlee"/>
    <tag k="addr:housenumber" v="1569"/>
    <tag k="addr:street" v="Marsh Hill Road"/>
    <tag k="addr:state" v="VT"/>
    <tag k="ref:vcgi:esiteid" v="278772"/>
  </node>
  <node id="-197" visible="true" lat="43.94061641" lon="-72.19965153">
    <tag k="addr:city" v="West Fairlee"/>
    <tag k="addr:housenumber" v="2859"/>
    <tag k="addr:street" v="Blood Brook Road"/>
    <tag k="addr:state" v="VT"/>
    <tag k="ref:vcgi:esiteid" v="278773"/>
  </node>
  <node id="-198" visible="true" lat="43.9387207" lon="-72.20406341">
    <tag k="addr:city" v="West Fairlee"/>
    <tag k="addr:housenumber" v="3425"/>
    <tag k="addr:street" v="Blood Brook Road"/>
    <tag k="addr:state" v="VT"/>
    <tag k="ref:vcgi:esiteid" v="278774"/>
  </node>
  <node id="-199" visible="true" lat="43.93854774" lon="-72.21066319">
    <tag k="addr:city" v="West Fairlee"/>
    <tag k="addr:housenumber" v="917"/>
    <tag k="addr:street" v="Godfrey Road"/>
    <tag k="addr:state" v="VT"/>
    <tag k="ref:vcgi:esiteid" v="278775"/>
  </node>
  <node id="-200" visible="true" lat="43.93822479" lon="-72.21183014">
    <tag k="addr:city" v="West Fairlee"/>
    <tag k="addr:housenumber" v="889"/>
    <tag k="addr:street" v="Godfrey Road"/>
    <tag k="addr:state" v="VT"/>
    <tag k="ref:vcgi:esiteid" v="278776"/>
  </node>
  <node id="-201" visible="true" lat="43.93815662" lon="-72.22976403">
    <tag k="addr:city" v="West Fairlee"/>
    <tag k="addr:housenumber" v="3417"/>
    <tag k="addr:street" v="Middlebrook Road"/>
    <tag k="addr:state" v="VT"/>
    <tag k="ref:vcgi:esiteid" v="278777"/>
  </node>
  <node id="-202" visible="true" lat="43.93788146" lon="-72.21942138">
    <tag k="addr:city" v="West Fairlee"/>
    <tag k="addr:housenumber" v="1355"/>
    <tag k="addr:street" v="Marsh Hill Road"/>
    <tag k="addr:state" v="VT"/>
    <tag k="ref:vcgi:esiteid" v="278778"/>
  </node>
  <node id="-203" visible="true" lat="43.93765568" lon="-72.22862553">
    <tag k="addr:city" v="West Fairlee"/>
    <tag k="addr:housenumber" v="3428"/>
    <tag k="addr:street" v="Middlebrook Road"/>
    <tag k="addr:state" v="VT"/>
    <tag k="ref:vcgi:esiteid" v="278779"/>
  </node>
  <node id="-204" visible="true" lat="43.93650054" lon="-72.202919">
    <tag k="addr:city" v="West Fairlee"/>
    <tag k="addr:housenumber" v="2465"/>
    <tag k="addr:street" v="Blood Brook Road"/>
    <tag k="addr:state" v="VT"/>
    <tag k="ref:vcgi:esiteid" v="278780"/>
  </node>
  <node id="-205" visible="true" lat="43.93428659" lon="-72.26600987">
    <tag k="addr:city" v="West Fairlee"/>
    <tag k="addr:housenumber" v="2624"/>
    <tag k="addr:street" v="Vermont Route 113"/>
    <tag k="addr:state" v="VT"/>
    <tag k="ref:vcgi:esiteid" v="278781"/>
  </node>
  <node id="-206" visible="true" lat="43.93327331" lon="-72.20285034">
    <tag k="addr:city" v="West Fairlee"/>
    <tag k="addr:housenumber" v="2315"/>
    <tag k="addr:street" v="Blood Brook Road"/>
    <tag k="addr:state" v="VT"/>
    <tag k="ref:vcgi:esiteid" v="278782"/>
  </node>
  <node id="-207" visible="true" lat="43.93286132" lon="-72.20423889">
    <tag k="addr:city" v="West Fairlee"/>
    <tag k="addr:housenumber" v="2253"/>
    <tag k="addr:street" v="Blood Brook Road"/>
    <tag k="addr:state" v="VT"/>
    <tag k="ref:vcgi:esiteid" v="278783"/>
  </node>
  <node id="-208" visible="true" lat="43.93133907" lon="-72.21007743">
    <tag k="addr:city" v="West Fairlee"/>
    <tag k="addr:housenumber" v="366"/>
    <tag k="addr:street" v="Godfrey Road"/>
    <tag k="addr:state" v="VT"/>
    <tag k="ref:vcgi:esiteid" v="278784"/>
  </node>
  <node id="-209" visible="true" lat="43.93162428" lon="-72.23092191">
    <tag k="addr:city" v="West Fairlee"/>
    <tag k="addr:housenumber" v="2931"/>
    <tag k="addr:street" v="Middlebrook Road"/>
    <tag k="addr:state" v="VT"/>
    <tag k="ref:vcgi:esiteid" v="278785"/>
  </node>
  <node id="-210" visible="true" lat="43.93113708" lon="-72.26844787">
    <tag k="addr:city" v="West Fairlee"/>
    <tag k="addr:housenumber" v="2437"/>
    <tag k="addr:street" v="Vermont Route 113"/>
    <tag k="addr:state" v="VT"/>
    <tag k="ref:vcgi:esiteid" v="278786"/>
  </node>
  <node id="-211" visible="true" lat="43.93062132" lon="-72.24138702">
    <tag k="addr:city" v="West Fairlee"/>
    <tag k="addr:housenumber" v="559"/>
    <tag k="addr:street" v="Russ Road"/>
    <tag k="addr:state" v="VT"/>
    <tag k="ref:vcgi:esiteid" v="278787"/>
  </node>
  <node id="-212" visible="true" lat="43.93060479" lon="-72.20335452">
    <tag k="addr:city" v="West Fairlee"/>
    <tag k="addr:housenumber" v="2126"/>
    <tag k="addr:street" v="Blood Brook Road"/>
    <tag k="addr:state" v="VT"/>
    <tag k="ref:vcgi:esiteid" v="278788"/>
  </node>
  <node id="-213" visible="true" lat="43.92990063" lon="-72.20690163">
    <tag k="addr:city" v="West Fairlee"/>
    <tag k="addr:housenumber" v="118"/>
    <tag k="addr:street" v="Godfrey Road"/>
    <tag k="addr:state" v="VT"/>
    <tag k="ref:vcgi:esiteid" v="278789"/>
  </node>
  <node id="-214" visible="true" lat="43.92997599" lon="-72.26919294">
    <tag k="addr:city" v="West Fairlee"/>
    <tag k="addr:housenumber" v="2361"/>
    <tag k="addr:street" v="Vermont Route 113"/>
    <tag k="addr:state" v="VT"/>
    <tag k="ref:vcgi:esiteid" v="278790"/>
  </node>
  <node id="-215" visible="true" lat="43.92913598" lon="-72.20682728">
    <tag k="addr:city" v="West Fairlee"/>
    <tag k="addr:housenumber" v="85"/>
    <tag k="addr:street" v="Godfrey Road"/>
    <tag k="addr:state" v="VT"/>
    <tag k="ref:vcgi:esiteid" v="278791"/>
  </node>
  <node id="-216" visible="true" lat="43.92877737" lon="-72.20480375">
    <tag k="addr:city" v="West Fairlee"/>
    <tag k="addr:housenumber" v="1984"/>
    <tag k="addr:street" v="Blood Brook Road"/>
    <tag k="addr:state" v="VT"/>
    <tag k="ref:vcgi:esiteid" v="278792"/>
  </node>
  <node id="-217" visible="true" lat="43.92860793" lon="-72.23153686">
    <tag k="addr:city" v="West Fairlee"/>
    <tag k="addr:housenumber" v="2803"/>
    <tag k="addr:street" v="Middlebrook Road"/>
    <tag k="addr:state" v="VT"/>
    <tag k="ref:vcgi:esiteid" v="278793"/>
  </node>
  <node id="-218" visible="true" lat="43.92847013" lon="-72.24314114">
    <tag k="addr:city" v="West Fairlee"/>
    <tag k="addr:housenumber" v="329"/>
    <tag k="addr:street" v="Russ Road"/>
    <tag k="addr:state" v="VT"/>
    <tag k="ref:vcgi:esiteid" v="278794"/>
  </node>
  <node id="-219" visible="true" lat="43.927845" lon="-72.21365356">
    <tag k="addr:city" v="West Fairlee"/>
    <tag k="addr:housenumber" v="616"/>
    <tag k="addr:street" v="Marsh Hill Road"/>
    <tag k="addr:state" v="VT"/>
    <tag k="ref:vcgi:esiteid" v="278795"/>
  </node>
  <node id="-220" visible="true" lat="43.92668914" lon="-72.26716613">
    <tag k="addr:city" v="West Fairlee"/>
    <tag k="addr:housenumber" v="2112"/>
    <tag k="addr:street" v="Vermont Route 113"/>
    <tag k="addr:state" v="VT"/>
    <tag k="ref:vcgi:esiteid" v="278796"/>
  </node>
  <node id="-221" visible="true" lat="43.92648279" lon="-72.20642149">
    <tag k="addr:city" v="West Fairlee"/>
    <tag k="addr:housenumber" v="1815"/>
    <tag k="addr:street" v="Blood Brook Road"/>
    <tag k="addr:state" v="VT"/>
    <tag k="ref:vcgi:esiteid" v="278797"/>
  </node>
  <node id="-223" visible="true" lat="43.92547414" lon="-72.2044133">
    <tag k="addr:city" v="West Fairlee"/>
    <tag k="addr:housenumber" v="1874"/>
    <tag k="addr:street" v="Blood Brook Road"/>
    <tag k="addr:state" v="VT"/>
    <tag k="ref:vcgi:esiteid" v="278799"/>
  </node>
  <node id="-224" visible="true" lat="43.92531537" lon="-72.26483914">
    <tag k="addr:city" v="West Fairlee"/>
    <tag k="addr:housenumber" v="2034"/>
    <tag k="addr:street" v="Vermont Route 113"/>
    <tag k="addr:state" v="VT"/>
    <tag k="ref:vcgi:esiteid" v="278800"/>
  </node>
  <node id="-225" visible="true" lat="43.92513321" lon="-72.23546917">
    <tag k="addr:city" v="West Fairlee"/>
    <tag k="addr:housenumber" v="2479"/>
    <tag k="addr:street" v="Middlebrook Road"/>
    <tag k="addr:state" v="VT"/>
    <tag k="ref:vcgi:esiteid" v="278801"/>
  </node>
  <node id="-226" visible="true" lat="43.92456282" lon="-72.23035933">
    <tag k="addr:city" v="West Fairlee"/>
    <tag k="addr:housenumber" v="1796"/>
    <tag k="addr:street" v="King Hill Road"/>
    <tag k="addr:state" v="VT"/>
    <tag k="ref:vcgi:esiteid" v="278802"/>
  </node>
  <node id="-227" visible="true" lat="43.92437465" lon="-72.26519171">
    <tag k="addr:city" v="West Fairlee"/>
    <tag k="addr:housenumber" v="1930"/>
    <tag k="addr:street" v="Vermont Route 113"/>
    <tag k="addr:state" v="VT"/>
    <tag k="ref:vcgi:esiteid" v="278803"/>
  </node>
  <node id="-228" visible="true" lat="43.9245501" lon="-72.26585305">
    <tag k="addr:city" v="West Fairlee"/>
    <tag k="addr:housenumber" v="1931"/>
    <tag k="addr:street" v="Vermont Route 113"/>
    <tag k="addr:state" v="VT"/>
    <tag k="ref:vcgi:esiteid" v="278804"/>
  </node>
  <node id="-229" visible="true" lat="43.92401982" lon="-72.23585522">
    <tag k="addr:city" v="West Fairlee"/>
    <tag k="addr:housenumber" v="2406"/>
    <tag k="addr:street" v="Middlebrook Road"/>
    <tag k="addr:state" v="VT"/>
    <tag k="ref:vcgi:esiteid" v="278805"/>
  </node>
  <node id="-230" visible="true" lat="43.92365538" lon="-72.23350854">
    <tag k="addr:city" v="West Fairlee"/>
    <tag k="addr:housenumber" v="1854"/>
    <tag k="addr:street" v="King Hill Road"/>
    <tag k="addr:state" v="VT"/>
    <tag k="ref:vcgi:esiteid" v="278806"/>
  </node>
  <node id="-231" visible="true" lat="43.922658" lon="-72.26490625">
    <tag k="addr:city" v="West Fairlee"/>
    <tag k="addr:housenumber" v="1817"/>
    <tag k="addr:street" v="Vermont Route 113"/>
    <tag k="addr:state" v="VT"/>
    <tag k="ref:vcgi:esiteid" v="278807"/>
  </node>
  <node id="-232" visible="true" lat="43.92232848" lon="-72.2638629">
    <tag k="addr:city" v="West Fairlee"/>
    <tag k="addr:housenumber" v="1764"/>
    <tag k="addr:street" v="Vermont Route 113"/>
    <tag k="addr:state" v="VT"/>
    <tag k="ref:vcgi:esiteid" v="278808"/>
  </node>
  <node id="-233" visible="true" lat="43.92217636" lon="-72.23302459">
    <tag k="addr:city" v="West Fairlee"/>
    <tag k="addr:housenumber" v="2258"/>
    <tag k="addr:street" v="Middlebrook Road"/>
    <tag k="addr:state" v="VT"/>
    <tag k="ref:vcgi:esiteid" v="278809"/>
  </node>
  <node id="-234" visible="true" lat="43.9219284" lon="-72.20832824">
    <tag k="addr:city" v="West Fairlee"/>
    <tag k="addr:housenumber" v="1478"/>
    <tag k="addr:street" v="Blood Brook Road"/>
    <tag k="addr:state" v="VT"/>
    <tag k="ref:vcgi:esiteid" v="278810"/>
  </node>
  <node id="-235" visible="true" lat="43.9218254" lon="-72.23316955">
    <tag k="addr:city" v="West Fairlee"/>
    <tag k="addr:housenumber" v="2234"/>
    <tag k="addr:street" v="Middlebrook Road"/>
    <tag k="addr:state" v="VT"/>
    <tag k="ref:vcgi:esiteid" v="278811"/>
  </node>
  <node id="-236" visible="true" lat="43.92183255" lon="-72.23355099">
    <tag k="addr:city" v="West Fairlee"/>
    <tag k="addr:housenumber" v="2232"/>
    <tag k="addr:street" v="Middlebrook Road"/>
    <tag k="addr:state" v="VT"/>
    <tag k="ref:vcgi:esiteid" v="278812"/>
  </node>
  <node id="-239" visible="true" lat="43.92087425" lon="-72.26281673">
    <tag k="addr:city" v="West Fairlee"/>
    <tag k="addr:housenumber" v="1646"/>
    <tag k="addr:street" v="Vermont Route 113"/>
    <tag k="addr:state" v="VT"/>
    <tag k="ref:vcgi:esiteid" v="278815"/>
  </node>
  <node id="-241" visible="true" lat="43.92072301" lon="-72.2336528">
    <tag k="addr:city" v="West Fairlee"/>
    <tag k="addr:housenumber" v="2138"/>
    <tag k="addr:street" v="Middlebrook Road"/>
    <tag k="addr:state" v="VT"/>
    <tag k="ref:vcgi:esiteid" v="278817"/>
  </node>
  <node id="-242" visible="true" lat="43.92033854" lon="-72.2641995">
    <tag k="addr:city" v="West Fairlee"/>
    <tag k="addr:housenumber" v="1675"/>
    <tag k="addr:street" v="Vermont Route 113"/>
    <tag k="addr:state" v="VT"/>
    <tag k="ref:vcgi:esiteid" v="278818"/>
  </node>
  <node id="-246" visible="true" lat="43.91888046" lon="-72.26165008">
    <tag k="addr:city" v="West Fairlee"/>
    <tag k="addr:housenumber" v="1520"/>
    <tag k="addr:street" v="Vermont Route 113"/>
    <tag k="addr:state" v="VT"/>
    <tag k="ref:vcgi:esiteid" v="278823"/>
  </node>
  <node id="-247" visible="true" lat="43.91881513" lon="-72.23654172">
    <tag k="addr:city" v="West Fairlee"/>
    <tag k="addr:housenumber" v="1931"/>
    <tag k="addr:street" v="Middlebrook Road"/>
    <tag k="addr:state" v="VT"/>
    <tag k="ref:vcgi:esiteid" v="278824"/>
  </node>
  <node id="-248" visible="true" lat="43.91867065" lon="-72.26274108">
    <tag k="addr:city" v="West Fairlee"/>
    <tag k="addr:housenumber" v="1505"/>
    <tag k="addr:street" v="Vermont Route 113"/>
    <tag k="addr:state" v="VT"/>
    <tag k="ref:vcgi:esiteid" v="278825"/>
  </node>
  <node id="-250" visible="true" lat="43.91844558" lon="-72.26197814">
    <tag k="addr:city" v="West Fairlee"/>
    <tag k="addr:housenumber" v="1516"/>
    <tag k="addr:street" v="Vermont Route 113"/>
    <tag k="addr:state" v="VT"/>
    <tag k="ref:vcgi:esiteid" v="278827"/>
  </node>
  <node id="-253" visible="true" lat="43.91757202" lon="-72.26293182">
    <tag k="addr:city" v="West Fairlee"/>
    <tag k="addr:housenumber" v="1425"/>
    <tag k="addr:street" v="Vermont Route 113"/>
    <tag k="addr:state" v="VT"/>
    <tag k="ref:vcgi:esiteid" v="278830"/>
  </node>
  <node id="-254" visible="true" lat="43.91688908" lon="-72.26295382">
    <tag k="addr:city" v="West Fairlee"/>
    <tag k="addr:housenumber" v="1371"/>
    <tag k="addr:street" v="Vermont Route 113"/>
    <tag k="addr:state" v="VT"/>
    <tag k="ref:vcgi:esiteid" v="278831"/>
  </node>
  <node id="-257" visible="true" lat="43.91488647" lon="-72.2632904">
    <tag k="addr:city" v="West Fairlee"/>
    <tag k="addr:housenumber" v="1243"/>
    <tag k="addr:street" v="Vermont Route 113"/>
    <tag k="addr:state" v="VT"/>
    <tag k="ref:vcgi:esiteid" v="278834"/>
  </node>
  <node id="-258" visible="true" lat="43.91438293" lon="-72.26339721">
    <tag k="addr:city" v="West Fairlee"/>
    <tag k="addr:housenumber" v="1207"/>
    <tag k="addr:street" v="Vermont Route 113"/>
    <tag k="addr:state" v="VT"/>
    <tag k="ref:vcgi:esiteid" v="278835"/>
  </node>
  <node id="-261" visible="true" lat="43.91400313" lon="-72.26330998">
    <tag k="addr:city" v="West Fairlee"/>
    <tag k="addr:housenumber" v="1187"/>
    <tag k="addr:street" v="Vermont Route 113"/>
    <tag k="addr:state" v="VT"/>
    <tag k="ref:vcgi:esiteid" v="278838"/>
  </node>
  <node id="-264" visible="true" lat="43.91357201" lon="-72.26285407">
    <tag k="addr:city" v="West Fairlee"/>
    <tag k="addr:housenumber" v="1142"/>
    <tag k="addr:street" v="Vermont Route 113"/>
    <tag k="addr:state" v="VT"/>
    <tag k="ref:vcgi:esiteid" v="278843"/>
  </node>
  <node id="-267" visible="true" lat="43.91322992" lon="-72.26274211">
    <tag k="addr:city" v="West Fairlee"/>
    <tag k="addr:housenumber" v="1076"/>
    <tag k="addr:street" v="Vermont Route 113"/>
    <tag k="addr:state" v="VT"/>
    <tag k="ref:vcgi:esiteid" v="278846"/>
  </node>
  <node id="-268" visible="true" lat="43.91309261" lon="-72.27278393">
    <tag k="addr:city" v="West Fairlee"/>
    <tag k="addr:housenumber" v="574"/>
    <tag k="addr:street" v="Beanville Road"/>
    <tag k="addr:state" v="VT"/>
    <tag k="ref:vcgi:esiteid" v="278847"/>
  </node>
  <node id="-269" visible="true" lat="43.91283093" lon="-72.26261327">
    <tag k="addr:city" v="West Fairlee"/>
    <tag k="addr:housenumber" v="1074"/>
    <tag k="addr:street" v="Vermont Route 113"/>
    <tag k="addr:state" v="VT"/>
    <tag k="ref:vcgi:esiteid" v="278848"/>
  </node>
  <node id="-270" visible="true" lat="43.91288182" lon="-72.27400797">
    <tag k="addr:city" v="West Fairlee"/>
    <tag k="addr:housenumber" v="636"/>
    <tag k="addr:street" v="Beanville Road"/>
    <tag k="addr:state" v="VT"/>
    <tag k="ref:vcgi:esiteid" v="278850"/>
  </node>
  <node id="-271" visible="true" lat="43.91284197" lon="-72.27437442">
    <tag k="addr:city" v="West Fairlee"/>
    <tag k="addr:housenumber" v="656"/>
    <tag k="addr:street" v="Beanville Road"/>
    <tag k="addr:state" v="VT"/>
    <tag k="ref:vcgi:esiteid" v="278851"/>
  </node>
  <node id="-272" visible="true" lat="43.91246751" lon="-72.27115975">
    <tag k="addr:city" v="West Fairlee"/>
    <tag k="addr:housenumber" v="509"/>
    <tag k="addr:street" v="Beanville Road"/>
    <tag k="addr:state" v="VT"/>
    <tag k="ref:vcgi:esiteid" v="278852"/>
  </node>
  <node id="-273" visible="true" lat="43.9126091" lon="-72.26956176">
    <tag k="addr:city" v="West Fairlee"/>
    <tag k="addr:housenumber" v="424"/>
    <tag k="addr:street" v="Beanville Road"/>
    <tag k="addr:state" v="VT"/>
    <tag k="ref:vcgi:esiteid" v="278853"/>
  </node>
  <node id="-274" visible="true" lat="43.91259741" lon="-72.26338876">
    <tag k="addr:city" v="West Fairlee"/>
    <tag k="addr:housenumber" v="1083"/>
    <tag k="addr:street" v="Vermont Route 113"/>
    <tag k="addr:state" v="VT"/>
    <tag k="ref:vcgi:esiteid" v="278854"/>
  </node>
  <node id="-275" visible="true" lat="43.9124794" lon="-72.23715972">
    <tag k="addr:city" v="West Fairlee"/>
    <tag k="addr:housenumber" v="1549"/>
    <tag k="addr:street" v="Middlebrook Road"/>
    <tag k="addr:state" v="VT"/>
    <tag k="ref:vcgi:esiteid" v="278855"/>
  </node>
  <node id="-276" visible="true" lat="43.91250833" lon="-72.27407384">
    <tag k="addr:city" v="West Fairlee"/>
    <tag k="addr:housenumber" v="661"/>
    <tag k="addr:street" v="Beanville Road"/>
    <tag k="addr:state" v="VT"/>
    <tag k="ref:vcgi:esiteid" v="278856"/>
  </node>
  <node id="-277" visible="true" lat="43.91228815" lon="-72.27511626">
    <tag k="addr:city" v="West Fairlee"/>
    <tag k="addr:housenumber" v="701"/>
    <tag k="addr:street" v="Beanville Road"/>
    <tag k="addr:state" v="VT"/>
    <tag k="ref:vcgi:esiteid" v="278857"/>
  </node>
  <node id="-279" visible="true" lat="43.91234207" lon="-72.2731018">
    <tag k="addr:city" v="West Fairlee"/>
    <tag k="addr:housenumber" v="585"/>
    <tag k="addr:street" v="Beanville Road"/>
    <tag k="addr:state" v="VT"/>
    <tag k="ref:vcgi:esiteid" v="278859"/>
  </node>
  <node id="-280" visible="true" lat="43.9123187" lon="-72.2703552">
    <tag k="addr:city" v="West Fairlee"/>
    <tag k="addr:housenumber" v="451"/>
    <tag k="addr:street" v="Beanville Road"/>
    <tag k="addr:state" v="VT"/>
    <tag k="ref:vcgi:esiteid" v="278860"/>
  </node>
  <node id="-281" visible="true" lat="43.91227942" lon="-72.2689386">
    <tag k="addr:city" v="West Fairlee"/>
    <tag k="addr:housenumber" v="380"/>
    <tag k="addr:street" v="Beanville Road"/>
    <tag k="addr:state" v="VT"/>
    <tag k="ref:vcgi:esiteid" v="278861"/>
  </node>
  <node id="-283" visible="true" lat="43.91210402" lon="-72.26834338">
    <tag k="addr:city" v="West Fairlee"/>
    <tag k="addr:housenumber" v="356"/>
    <tag k="addr:street" v="Beanville Road"/>
    <tag k="addr:state" v="VT"/>
    <tag k="ref:vcgi:esiteid" v="278863"/>
  </node>
  <node id="-284" visible="true" lat="43.91166751" lon="-72.26960435">
    <tag k="addr:city" v="West Fairlee"/>
    <tag k="addr:housenumber" v="395"/>
    <tag k="addr:street" v="Beanville Road"/>
    <tag k="addr:state" v="VT"/>
    <tag k="ref:vcgi:esiteid" v="278865"/>
  </node>
  <node id="-285" visible="true" lat="43.91192489" lon="-72.2627813">
    <tag k="addr:city" v="West Fairlee"/>
    <tag k="addr:housenumber" v="1026"/>
    <tag k="addr:street" v="Vermont Route 113"/>
    <tag k="addr:state" v="VT"/>
    <tag k="ref:vcgi:esiteid" v="278866"/>
  </node>
  <node id="-286" visible="true" lat="43.91182351" lon="-72.26622303">
    <tag k="addr:city" v="West Fairlee"/>
    <tag k="addr:housenumber" v="216"/>
    <tag k="addr:street" v="Beanville Road"/>
    <tag k="addr:state" v="VT"/>
    <tag k="ref:vcgi:esiteid" v="278867"/>
  </node>
  <node id="-287" visible="true" lat="43.91168594" lon="-72.26331329">
    <tag k="addr:city" v="West Fairlee"/>
    <tag k="addr:housenumber" v="1021"/>
    <tag k="addr:street" v="Vermont Route 113"/>
    <tag k="addr:state" v="VT"/>
    <tag k="ref:vcgi:esiteid" v="278868"/>
  </node>
  <node id="-288" visible="true" lat="43.91177792" lon="-72.26213239">
    <tag k="addr:city" v="West Fairlee"/>
    <tag k="addr:housenumber" v="1032"/>
    <tag k="addr:street" v="Vermont Route 113"/>
    <tag k="addr:state" v="VT"/>
    <tag k="ref:vcgi:esiteid" v="278869"/>
  </node>
  <node id="-289" visible="true" lat="43.91165147" lon="-72.26277417">
    <tag k="addr:city" v="West Fairlee"/>
    <tag k="addr:housenumber" v="1030"/>
    <tag k="addr:street" v="Vermont Route 113"/>
    <tag k="addr:state" v="VT"/>
    <tag k="ref:vcgi:esiteid" v="278871"/>
  </node>
  <node id="-290" visible="true" lat="43.91148328" lon="-72.26726529">
    <tag k="addr:city" v="West Fairlee"/>
    <tag k="addr:housenumber" v="289"/>
    <tag k="addr:street" v="Beanville Road"/>
    <tag k="addr:state" v="VT"/>
    <tag k="ref:vcgi:esiteid" v="278872"/>
  </node>
  <node id="-291" visible="true" lat="43.91128274" lon="-72.26266464">
    <tag k="addr:city" v="West Fairlee"/>
    <tag k="addr:housenumber" v="992"/>
    <tag k="addr:street" v="Vermont Route 113"/>
    <tag k="addr:state" v="VT"/>
    <tag k="ref:vcgi:esiteid" v="278873"/>
  </node>
  <node id="-292" visible="true" lat="43.91118788" lon="-72.23751773">
    <tag k="addr:city" v="West Fairlee"/>
    <tag k="addr:housenumber" v="1459"/>
    <tag k="addr:street" v="Middlebrook Road"/>
    <tag k="addr:state" v="VT"/>
    <tag k="ref:vcgi:esiteid" v="278874"/>
  </node>
  <node id="-293" visible="true" lat="43.9109764" lon="-72.26317596">
    <tag k="addr:city" v="West Fairlee"/>
    <tag k="addr:housenumber" v="973"/>
    <tag k="addr:street" v="Vermont Route 113"/>
    <tag k="addr:state" v="VT"/>
    <tag k="ref:vcgi:esiteid" v="278875"/>
  </node>
  <node id="-294" visible="true" lat="43.91099442" lon="-72.26706476">
    <tag k="addr:city" v="West Fairlee"/>
    <tag k="addr:housenumber" v="155"/>
    <tag k="addr:street" v="Roberts Road"/>
    <tag k="addr:state" v="VT"/>
    <tag k="ref:vcgi:esiteid" v="278876"/>
  </node>
  <node id="-295" visible="true" lat="43.91070916" lon="-72.26265048">
    <tag k="addr:city" v="West Fairlee"/>
    <tag k="addr:housenumber" v="954"/>
    <tag k="addr:street" v="Vermont Route 113"/>
    <tag k="addr:state" v="VT"/>
    <tag k="ref:vcgi:esiteid" v="278877"/>
  </node>
  <node id="-296" visible="true" lat="43.91039657" lon="-72.26481628">
    <tag k="addr:city" v="West Fairlee"/>
    <tag k="addr:housenumber" v="140"/>
    <tag k="addr:street" v="Beanville Road"/>
    <tag k="addr:state" v="VT"/>
    <tag k="ref:vcgi:esiteid" v="278879"/>
  </node>
  <node id="-297" visible="true" lat="43.91020368" lon="-72.23688449">
    <tag k="addr:city" v="West Fairlee"/>
    <tag k="addr:housenumber" v="1412"/>
    <tag k="addr:street" v="Middlebrook Road"/>
    <tag k="addr:state" v="VT"/>
    <tag k="ref:vcgi:esiteid" v="278880"/>
  </node>
  <node id="-298" visible="true" lat="43.91018676" lon="-72.26631927">
    <tag k="addr:city" v="West Fairlee"/>
    <tag k="addr:housenumber" v="107"/>
    <tag k="addr:street" v="Roberts Road"/>
    <tag k="addr:state" v="VT"/>
    <tag k="ref:vcgi:esiteid" v="278881"/>
  </node>
  <node id="-299" visible="true" lat="43.91018676" lon="-72.26599121">
    <tag k="addr:city" v="West Fairlee"/>
    <tag k="addr:housenumber" v="93"/>
    <tag k="addr:street" v="Roberts Road"/>
    <tag k="addr:state" v="VT"/>
    <tag k="ref:vcgi:esiteid" v="278882"/>
  </node>
  <node id="-300" visible="true" lat="43.91001808" lon="-72.26329859">
    <tag k="addr:city" v="West Fairlee"/>
    <tag k="addr:housenumber" v="915"/>
    <tag k="addr:street" v="Vermont Route 113"/>
    <tag k="addr:state" v="VT"/>
    <tag k="ref:vcgi:esiteid" v="278883"/>
  </node>
  <node id="-301" visible="true" lat="43.91003665" lon="-72.26261841">
    <tag k="addr:city" v="West Fairlee"/>
    <tag k="addr:housenumber" v="908"/>
    <tag k="addr:street" v="Vermont Route 113"/>
    <tag k="addr:state" v="VT"/>
    <tag k="ref:vcgi:esiteid" v="278884"/>
  </node>
  <node id="-303" visible="true" lat="43.90978217" lon="-72.26305401">
    <tag k="addr:city" v="West Fairlee"/>
    <tag k="addr:housenumber" v="891"/>
    <tag k="addr:street" v="Vermont Route 113"/>
    <tag k="addr:state" v="VT"/>
    <tag k="ref:vcgi:esiteid" v="278886"/>
  </node>
  <node id="-304" visible="true" lat="43.90947126" lon="-72.23665561">
    <tag k="addr:city" v="West Fairlee"/>
    <tag k="addr:housenumber" v="1344"/>
    <tag k="addr:street" v="Middlebrook Road"/>
    <tag k="addr:state" v="VT"/>
    <tag k="ref:vcgi:esiteid" v="278888"/>
  </node>
  <node id="-305" visible="true" lat="43.90952964" lon="-72.26370604">
    <tag k="addr:city" v="West Fairlee"/>
    <tag k="addr:housenumber" v="34"/>
    <tag k="addr:street" v="Beanville Road"/>
    <tag k="addr:state" v="VT"/>
    <tag k="ref:vcgi:esiteid" v="278889"/>
  </node>
  <node id="-306" visible="true" lat="43.90946767" lon="-72.26309063">
    <tag k="addr:city" v="West Fairlee"/>
    <tag k="addr:housenumber" v="8"/>
    <tag k="addr:street" v="Beanville Road"/>
    <tag k="addr:state" v="VT"/>
    <tag k="ref:vcgi:esiteid" v="278890"/>
  </node>
  <node id="-307" visible="true" lat="43.9093975" lon="-72.26486557">
    <tag k="addr:city" v="West Fairlee"/>
    <tag k="addr:housenumber" v="1"/>
    <tag k="addr:street" v="Roberts Road"/>
    <tag k="addr:state" v="VT"/>
    <tag k="ref:vcgi:esiteid" v="278891"/>
  </node>
  <node id="-308" visible="true" lat="43.90944" lon="-72.26255275">
    <tag k="addr:city" v="West Fairlee"/>
    <tag k="addr:housenumber" v="864"/>
    <tag k="addr:street" v="Vermont Route 113"/>
    <tag k="addr:state" v="VT"/>
    <tag k="ref:vcgi:esiteid" v="278892"/>
  </node>
  <node id="-309" visible="true" lat="43.90942137" lon="-72.26216643">
    <tag k="addr:city" v="West Fairlee"/>
    <tag k="addr:housenumber" v="29"/>
    <tag k="addr:street" v="Mill Street"/>
    <tag k="addr:state" v="VT"/>
    <tag k="ref:vcgi:esiteid" v="278893"/>
  </node>
  <node id="-310" visible="true" lat="43.90942635" lon="-72.26170602">
    <tag k="addr:city" v="West Fairlee"/>
    <tag k="addr:housenumber" v="49"/>
    <tag k="addr:street" v="Mill Street"/>
    <tag k="addr:state" v="VT"/>
    <tag k="ref:vcgi:esiteid" v="278895"/>
  </node>
  <node id="-311" visible="true" lat="43.90938232" lon="-72.26196928">
    <tag k="addr:city" v="West Fairlee"/>
    <tag k="addr:housenumber" v="39"/>
    <tag k="addr:street" v="Mill Street"/>
    <tag k="addr:state" v="VT"/>
    <tag k="ref:vcgi:esiteid" v="278896"/>
  </node>
  <node id="-313" visible="true" lat="43.90934842" lon="-72.26085647">
    <tag k="addr:city" v="West Fairlee"/>
    <tag k="addr:housenumber" v="97"/>
    <tag k="addr:street" v="Mill Street"/>
    <tag k="addr:state" v="VT"/>
    <tag k="ref:vcgi:esiteid" v="278898"/>
  </node>
  <node id="-314" visible="true" lat="43.90919279" lon="-72.23873843">
    <tag k="addr:city" v="West Fairlee"/>
    <tag k="addr:housenumber" v="1323"/>
    <tag k="addr:street" v="Middlebrook Road"/>
    <tag k="addr:state" v="VT"/>
    <tag k="ref:vcgi:esiteid" v="278899"/>
  </node>
  <node id="-316" visible="true" lat="43.90896458" lon="-72.26115295">
    <tag k="addr:city" v="West Fairlee"/>
    <tag k="addr:housenumber" v="78"/>
    <tag k="addr:street" v="Mill Street"/>
    <tag k="addr:state" v="VT"/>
    <tag k="ref:vcgi:esiteid" v="278901"/>
  </node>
  <node id="-317" visible="true" lat="43.90924825" lon="-72.25896074">
    <tag k="addr:city" v="West Fairlee"/>
    <tag k="addr:housenumber" v="195"/>
    <tag k="addr:street" v="Mill Street"/>
    <tag k="addr:state" v="VT"/>
    <tag k="ref:vcgi:esiteid" v="278902"/>
  </node>
  <node id="-319" visible="true" lat="43.90913551" lon="-72.26243525">
    <tag k="addr:city" v="West Fairlee"/>
    <tag k="addr:housenumber" v="840"/>
    <tag k="addr:street" v="Vermont Route 113"/>
    <tag k="addr:state" v="VT"/>
    <tag k="ref:vcgi:esiteid" v="278904"/>
  </node>
  <node id="-320" visible="true" lat="43.90900015" lon="-72.26423685">
    <tag k="addr:city" v="West Fairlee"/>
    <tag k="addr:housenumber" v="182"/>
    <tag k="addr:street" v="Back Street"/>
    <tag k="addr:state" v="VT"/>
    <tag k="ref:vcgi:esiteid" v="278905"/>
  </node>
  <node id="-321" visible="true" lat="43.90913141" lon="-72.2575681">
    <tag k="addr:city" v="West Fairlee"/>
    <tag k="addr:housenumber" v="259"/>
    <tag k="addr:street" v="Mill Street"/>
    <tag k="addr:state" v="VT"/>
    <tag k="ref:vcgi:esiteid" v="278906"/>
  </node>
  <node id="-322" visible="true" lat="43.90902914" lon="-72.26052864">
    <tag k="addr:city" v="West Fairlee"/>
    <tag k="addr:housenumber" v="116"/>
    <tag k="addr:street" v="Mill Street"/>
    <tag k="addr:state" v="VT"/>
    <tag k="ref:vcgi:esiteid" v="278907"/>
  </node>
  <node id="-323" visible="true" lat="43.90914049" lon="-72.25685965">
    <tag k="addr:city" v="West Fairlee"/>
    <tag k="addr:housenumber" v="295"/>
    <tag k="addr:street" v="Mill Street"/>
    <tag k="addr:state" v="VT"/>
    <tag k="ref:vcgi:esiteid" v="278909"/>
  </node>
  <node id="-324" visible="true" lat="43.90894824" lon="-72.26302579">
    <tag k="addr:city" v="West Fairlee"/>
    <tag k="addr:housenumber" v="833"/>
    <tag k="addr:street" v="Vermont Route 113"/>
    <tag k="addr:state" v="VT"/>
    <tag k="ref:vcgi:esiteid" v="278910"/>
  </node>
  <node id="-325" visible="true" lat="43.90888595" lon="-72.26245117">
    <tag k="addr:city" v="West Fairlee"/>
    <tag k="addr:housenumber" v="826"/>
    <tag k="addr:street" v="Vermont Route 113"/>
    <tag k="addr:state" v="VT"/>
    <tag k="ref:vcgi:esiteid" v="278911"/>
  </node>
  <node id="-326" visible="true" lat="43.90883282" lon="-72.26306935">
    <tag k="addr:city" v="West Fairlee"/>
    <tag k="addr:housenumber" v="823"/>
    <tag k="addr:street" v="Vermont Route 113"/>
    <tag k="addr:state" v="VT"/>
    <tag k="ref:vcgi:esiteid" v="278912"/>
  </node>
  <node id="-327" visible="true" lat="43.90877013" lon="-72.2642083">
    <tag k="addr:city" v="West Fairlee"/>
    <tag k="addr:housenumber" v="166"/>
    <tag k="addr:street" v="Back Street"/>
    <tag k="addr:state" v="VT"/>
    <tag k="ref:vcgi:esiteid" v="278913"/>
  </node>
  <node id="-328" visible="true" lat="43.90863837" lon="-72.25912657">
    <tag k="addr:city" v="West Fairlee"/>
    <tag k="addr:housenumber" v="182"/>
    <tag k="addr:street" v="Mill Street"/>
    <tag k="addr:state" v="VT"/>
    <tag k="ref:vcgi:esiteid" v="278914"/>
  </node>
  <node id="-329" visible="true" lat="43.90876722" lon="-72.25708768">
    <tag k="addr:city" v="West Fairlee"/>
    <tag k="addr:housenumber" v="288"/>
    <tag k="addr:street" v="Mill Street"/>
    <tag k="addr:state" v="VT"/>
    <tag k="ref:vcgi:esiteid" v="278915"/>
  </node>
  <node id="-331" visible="true" lat="43.90860102" lon="-72.26299175">
    <tag k="addr:city" v="West Fairlee"/>
    <tag k="addr:housenumber" v="809"/>
    <tag k="addr:street" v="Vermont Route 113"/>
    <tag k="addr:state" v="VT"/>
    <tag k="ref:vcgi:esiteid" v="278917"/>
  </node>
  <node id="-332" visible="true" lat="43.90824177" lon="-72.26409541">
    <tag k="addr:city" v="West Fairlee"/>
    <tag k="addr:housenumber" v="128"/>
    <tag k="addr:street" v="Back Street"/>
    <tag k="addr:state" v="VT"/>
    <tag k="ref:vcgi:esiteid" v="278918"/>
  </node>
  <node id="-334" visible="true" lat="43.90814889" lon="-72.26445815">
    <tag k="addr:city" v="West Fairlee"/>
    <tag k="addr:housenumber" v="125"/>
    <tag k="addr:street" v="Back Street"/>
    <tag k="addr:state" v="VT"/>
    <tag k="ref:vcgi:esiteid" v="278920"/>
  </node>
  <node id="-338" visible="true" lat="43.90727014" lon="-72.263743">
    <tag k="addr:city" v="West Fairlee"/>
    <tag k="addr:housenumber" v="57"/>
    <tag k="addr:street" v="Back Street"/>
    <tag k="addr:state" v="VT"/>
    <tag k="ref:vcgi:esiteid" v="278925"/>
  </node>
  <node id="-339" visible="true" lat="43.9065911" lon="-72.263045">
    <tag k="addr:city" v="West Fairlee"/>
    <tag k="addr:housenumber" v="665"/>
    <tag k="addr:street" v="Vermont Route 113"/>
    <tag k="addr:state" v="VT"/>
    <tag k="ref:vcgi:esiteid" v="278926"/>
  </node>
  <node id="-340" visible="true" lat="43.9065225" lon="-72.23691501">
    <tag k="addr:city" v="West Fairlee"/>
    <tag k="addr:housenumber" v="1163"/>
    <tag k="addr:street" v="Middlebrook Road"/>
    <tag k="addr:state" v="VT"/>
    <tag k="ref:vcgi:esiteid" v="278927"/>
  </node>
  <node id="-342" visible="true" lat="43.90598761" lon="-72.26308167">
    <tag k="addr:city" v="West Fairlee"/>
    <tag k="addr:housenumber" v="619"/>
    <tag k="addr:street" v="Vermont Route 113"/>
    <tag k="addr:state" v="VT"/>
    <tag k="ref:vcgi:esiteid" v="278929"/>
  </node>
  <node id="-344" visible="true" lat="43.90593963" lon="-72.26243776">
    <tag k="addr:city" v="West Fairlee"/>
    <tag k="addr:housenumber" v="612"/>
    <tag k="addr:street" v="Vermont Route 113"/>
    <tag k="addr:state" v="VT"/>
    <tag k="ref:vcgi:esiteid" v="278931"/>
  </node>
  <node id="-345" visible="true" lat="43.90550952" lon="-72.26303298">
    <tag k="addr:city" v="West Fairlee"/>
    <tag k="addr:housenumber" v="583"/>
    <tag k="addr:street" v="Vermont Route 113"/>
    <tag k="addr:state" v="VT"/>
    <tag k="ref:vcgi:esiteid" v="278932"/>
  </node>
  <node id="-346" visible="true" lat="43.90488132" lon="-72.23597677">
    <tag k="addr:city" v="West Fairlee"/>
    <tag k="addr:housenumber" v="1003"/>
    <tag k="addr:street" v="Middlebrook Road"/>
    <tag k="addr:state" v="VT"/>
    <tag k="ref:vcgi:esiteid" v="278933"/>
  </node>
  <node id="-349" visible="true" lat="43.90378952" lon="-72.21527099">
    <tag k="addr:city" v="West Fairlee"/>
    <tag k="addr:housenumber" v="147"/>
    <tag k="addr:street" v="King Hill Road"/>
    <tag k="addr:state" v="VT"/>
    <tag k="ref:vcgi:esiteid" v="278936"/>
  </node>
  <node id="-350" visible="true" lat="43.90253528" lon="-72.23511392">
    <tag k="addr:city" v="West Fairlee"/>
    <tag k="addr:housenumber" v="833"/>
    <tag k="addr:street" v="Middlebrook Road"/>
    <tag k="addr:state" v="VT"/>
    <tag k="ref:vcgi:esiteid" v="278937"/>
  </node>
  <node id="-351" visible="true" lat="43.90207955" lon="-72.2138564">
    <tag k="addr:city" v="West Fairlee"/>
    <tag k="addr:housenumber" v="2638"/>
    <tag k="addr:street" v="Vermont Route 244"/>
    <tag k="addr:state" v="VT"/>
    <tag k="ref:vcgi:esiteid" v="278938"/>
  </node>
  <node id="-352" visible="true" lat="43.9016864" lon="-72.21370671">
    <tag k="addr:city" v="West Fairlee"/>
    <tag k="addr:housenumber" v="2664"/>
    <tag k="addr:street" v="Vermont Route 244"/>
    <tag k="addr:state" v="VT"/>
    <tag k="ref:vcgi:esiteid" v="278939"/>
  </node>
  <node id="-353" visible="true" lat="43.90087268" lon="-72.21451555">
    <tag k="addr:city" v="West Fairlee"/>
    <tag k="addr:housenumber" v="2696"/>
    <tag k="addr:street" v="Vermont Route 244"/>
    <tag k="addr:state" v="VT"/>
    <tag k="ref:vcgi:esiteid" v="278940"/>
  </node>
  <node id="-354" visible="true" lat="43.90061353" lon="-72.23412265">
    <tag k="addr:city" v="West Fairlee"/>
    <tag k="addr:housenumber" v="702"/>
    <tag k="addr:street" v="Middlebrook Road"/>
    <tag k="addr:state" v="VT"/>
    <tag k="ref:vcgi:esiteid" v="278942"/>
  </node>
  <node id="-355" visible="true" lat="43.90059437" lon="-72.23371031">
    <tag k="addr:city" v="West Fairlee"/>
    <tag k="addr:housenumber" v="696"/>
    <tag k="addr:street" v="Middlebrook Road"/>
    <tag k="addr:state" v="VT"/>
    <tag k="ref:vcgi:esiteid" v="278943"/>
  </node>
  <node id="-357" visible="true" lat="43.90032356" lon="-72.21459424">
    <tag k="addr:city" v="West Fairlee"/>
    <tag k="addr:housenumber" v="2750"/>
    <tag k="addr:street" v="Vermont Route 244"/>
    <tag k="addr:state" v="VT"/>
    <tag k="ref:vcgi:esiteid" v="278945"/>
  </node>
  <node id="-359" visible="true" lat="43.89851565" lon="-72.23352068">
    <tag k="addr:city" v="West Fairlee"/>
    <tag k="addr:housenumber" v="566"/>
    <tag k="addr:street" v="Middlebrook Road"/>
    <tag k="addr:state" v="VT"/>
    <tag k="ref:vcgi:esiteid" v="278947"/>
  </node>
  <node id="-361" visible="true" lat="43.89768766" lon="-72.23348178">
    <tag k="addr:city" v="West Fairlee"/>
    <tag k="addr:housenumber" v="498"/>
    <tag k="addr:street" v="Middlebrook Road"/>
    <tag k="addr:state" v="VT"/>
    <tag k="ref:vcgi:esiteid" v="278949"/>
  </node>
  <node id="-362" visible="true" lat="43.89699467" lon="-72.21486031">
    <tag k="addr:city" v="West Fairlee"/>
    <tag k="addr:housenumber" v="2967"/>
    <tag k="addr:street" v="Vermont Route 244"/>
    <tag k="addr:state" v="VT"/>
    <tag k="ref:vcgi:esiteid" v="278950"/>
  </node>
  <node id="-363" visible="true" lat="43.89688491" lon="-72.21533203">
    <tag k="addr:city" v="West Fairlee"/>
    <tag k="addr:housenumber" v="3001"/>
    <tag k="addr:street" v="Vermont Route 244"/>
    <tag k="addr:state" v="VT"/>
    <tag k="ref:vcgi:esiteid" v="278951"/>
  </node>
  <node id="-364" visible="true" lat="43.89626859" lon="-72.2331232">
    <tag k="addr:city" v="West Fairlee"/>
    <tag k="addr:housenumber" v="398"/>
    <tag k="addr:street" v="Middlebrook Road"/>
    <tag k="addr:state" v="VT"/>
    <tag k="ref:vcgi:esiteid" v="278952"/>
  </node>
  <node id="-365" visible="true" lat="43.89453094" lon="-72.2170318">
    <tag k="addr:city" v="West Fairlee"/>
    <tag k="addr:housenumber" v="77"/>
    <tag k="addr:street" v="Abbie Lane"/>
    <tag k="addr:state" v="VT"/>
    <tag k="ref:vcgi:esiteid" v="278953"/>
  </node>
  <node id="-366" visible="true" lat="43.89436969" lon="-72.21718098">
    <tag k="addr:city" v="West Fairlee"/>
    <tag k="addr:housenumber" v="97"/>
    <tag k="addr:street" v="Abbie Lane"/>
    <tag k="addr:state" v="VT"/>
    <tag k="ref:vcgi:esiteid" v="278954"/>
  </node>
  <node id="-367" visible="true" lat="43.89448931" lon="-72.21620024">
    <tag k="addr:city" v="West Fairlee"/>
    <tag k="addr:housenumber" v="109"/>
    <tag k="addr:street" v="Idle Pine Drive"/>
    <tag k="addr:state" v="VT"/>
    <tag k="ref:vcgi:esiteid" v="278955"/>
  </node>
  <node id="-368" visible="true" lat="43.89397814" lon="-72.21774303">
    <tag k="addr:city" v="West Fairlee"/>
    <tag k="addr:housenumber" v="124"/>
    <tag k="addr:street" v="Abbie Lane"/>
    <tag k="addr:state" v="VT"/>
    <tag k="ref:vcgi:esiteid" v="278956"/>
  </node>
  <node id="-369" visible="true" lat="43.89436015" lon="-72.21675079">
    <tag k="addr:city" v="West Fairlee"/>
    <tag k="addr:housenumber" v="106"/>
    <tag k="addr:street" v="Idle Pine Drive"/>
    <tag k="addr:state" v="VT"/>
    <tag k="ref:vcgi:esiteid" v="278957"/>
  </node>
  <node id="-370" visible="true" lat="43.89450863" lon="-72.21881728">
    <tag k="addr:city" v="West Fairlee"/>
    <tag k="addr:housenumber" v="12"/>
    <tag k="addr:street" v="Wilson Road"/>
    <tag k="addr:state" v="VT"/>
    <tag k="ref:vcgi:esiteid" v="278958"/>
  </node>
  <node id="-371" visible="true" lat="43.89409275" lon="-72.21664027">
    <tag k="addr:city" v="West Fairlee"/>
    <tag k="addr:housenumber" v="108"/>
    <tag k="addr:street" v="Idle Pine Drive"/>
    <tag k="addr:state" v="VT"/>
    <tag k="ref:vcgi:esiteid" v="278959"/>
  </node>
  <node id="-372" visible="true" lat="43.89417263" lon="-72.21909932">
    <tag k="addr:city" v="West Fairlee"/>
    <tag k="addr:housenumber" v="10"/>
    <tag k="addr:street" v="Wilson Road"/>
    <tag k="addr:state" v="VT"/>
    <tag k="ref:vcgi:esiteid" v="278960"/>
  </node>
  <node id="-375" visible="true" lat="43.89237015" lon="-72.21855371">
    <tag k="addr:city" v="West Fairlee"/>
    <tag k="addr:housenumber" v="3299"/>
    <tag k="addr:street" v="Vermont Route 244"/>
    <tag k="addr:state" v="VT"/>
    <tag k="ref:vcgi:esiteid" v="278963"/>
  </node>
  <node id="-376" visible="true" lat="43.89190579" lon="-72.22114465">
    <tag k="addr:city" v="West Fairlee"/>
    <tag k="addr:housenumber" v="3472"/>
    <tag k="addr:street" v="Vermont Route 244"/>
    <tag k="addr:state" v="VT"/>
    <tag k="ref:vcgi:esiteid" v="278964"/>
  </node>
  <node id="-377" visible="true" lat="43.89156909" lon="-72.22161339">
    <tag k="addr:city" v="West Fairlee"/>
    <tag k="addr:housenumber" v="3474"/>
    <tag k="addr:street" v="Vermont Route 244"/>
    <tag k="addr:state" v="VT"/>
    <tag k="ref:vcgi:esiteid" v="278965"/>
  </node>
  <node id="-378" visible="true" lat="43.89159064" lon="-72.22253426">
    <tag k="addr:city" v="West Fairlee"/>
    <tag k="addr:housenumber" v="3524"/>
    <tag k="addr:street" v="Vermont Route 244"/>
    <tag k="addr:state" v="VT"/>
    <tag k="ref:vcgi:esiteid" v="278966"/>
  </node>
  <node id="-380" visible="true" lat="43.89135257" lon="-72.22387456">
    <tag k="addr:city" v="West Fairlee"/>
    <tag k="addr:housenumber" v="3616"/>
    <tag k="addr:street" v="Vermont Route 244"/>
    <tag k="addr:state" v="VT"/>
    <tag k="ref:vcgi:esiteid" v="278968"/>
  </node>
  <node id="-381" visible="true" lat="43.88997238" lon="-72.22526459">
    <tag k="addr:city" v="West Fairlee"/>
    <tag k="addr:housenumber" v="3695"/>
    <tag k="addr:street" v="Vermont Route 244"/>
    <tag k="addr:state" v="VT"/>
    <tag k="ref:vcgi:esiteid" v="278969"/>
  </node>
  <node id="-383" visible="true" lat="43.88967135" lon="-72.22502991">
    <tag k="addr:city" v="West Fairlee"/>
    <tag k="addr:housenumber" v="16"/>
    <tag k="addr:street" v="Passumpsic Point"/>
    <tag k="addr:state" v="VT"/>
    <tag k="ref:vcgi:esiteid" v="278971"/>
  </node>
  <node id="-384" visible="true" lat="43.88951154" lon="-72.22490968">
    <tag k="addr:city" v="West Fairlee"/>
    <tag k="addr:housenumber" v="18"/>
    <tag k="addr:street" v="Passumpsic Point"/>
    <tag k="addr:state" v="VT"/>
    <tag k="ref:vcgi:esiteid" v="278972"/>
  </node>
  <node id="-386" visible="true" lat="43.88923834" lon="-72.22467027">
    <tag k="addr:city" v="West Fairlee"/>
    <tag k="addr:housenumber" v="48"/>
    <tag k="addr:street" v="Passumpsic Point"/>
    <tag k="addr:state" v="VT"/>
    <tag k="ref:vcgi:esiteid" v="278974"/>
  </node>
  <node id="-388" visible="true" lat="43.88851191" lon="-72.22436639">
    <tag k="addr:city" v="West Fairlee"/>
    <tag k="addr:housenumber" v="94"/>
    <tag k="addr:street" v="Passumpsic Point"/>
    <tag k="addr:state" v="VT"/>
    <tag k="ref:vcgi:esiteid" v="278976"/>
  </node>
  <node id="-389" visible="true" lat="43.8881495" lon="-72.22385751">
    <tag k="addr:city" v="West Fairlee"/>
    <tag k="addr:housenumber" v="99"/>
    <tag k="addr:street" v="Passumpsic Point"/>
    <tag k="addr:state" v="VT"/>
    <tag k="ref:vcgi:esiteid" v="278977"/>
  </node>
  <node id="-391" visible="true" lat="43.8985187" lon="-72.25247102">
    <tag k="addr:city" v="West Fairlee"/>
    <tag k="addr:housenumber" v="249"/>
    <tag k="addr:street" v="Stevens Road"/>
    <tag k="addr:state" v="VT"/>
    <tag k="ref:vcgi:esiteid" v="278979"/>
  </node>
  <node id="-392" visible="true" lat="43.89729093" lon="-72.2554697">
    <tag k="addr:city" v="West Fairlee"/>
    <tag k="addr:housenumber" v="115"/>
    <tag k="addr:street" v="Stevens Road"/>
    <tag k="addr:state" v="VT"/>
    <tag k="ref:vcgi:esiteid" v="278980"/>
  </node>
  <node id="-393" visible="true" lat="43.89727345" lon="-72.25290381">
    <tag k="addr:city" v="West Fairlee"/>
    <tag k="addr:housenumber" v="193"/>
    <tag k="addr:street" v="Stevens Road"/>
    <tag k="addr:state" v="VT"/>
    <tag k="ref:vcgi:esiteid" v="278981"/>
  </node>
  <node id="-394" visible="true" lat="43.89650522" lon="-72.25355556">
    <tag k="addr:city" v="West Fairlee"/>
    <tag k="addr:housenumber" v="75"/>
    <tag k="addr:street" v="Heatherfield Road"/>
    <tag k="addr:state" v="VT"/>
    <tag k="ref:vcgi:esiteid" v="278982"/>
  </node>
  <node id="-395" visible="true" lat="43.89618467" lon="-72.25269212">
    <tag k="addr:city" v="West Fairlee"/>
    <tag k="addr:housenumber" v="74"/>
    <tag k="addr:street" v="Heatherfield Road"/>
    <tag k="addr:state" v="VT"/>
    <tag k="ref:vcgi:esiteid" v="278983"/>
  </node>
  <node id="-396" visible="true" lat="43.89610965" lon="-72.25414757">
    <tag k="addr:city" v="West Fairlee"/>
    <tag k="addr:housenumber" v="65"/>
    <tag k="addr:street" v="Heatherfield Road"/>
    <tag k="addr:state" v="VT"/>
    <tag k="ref:vcgi:esiteid" v="278984"/>
  </node>
  <node id="-397" visible="true" lat="43.89613012" lon="-72.25120773">
    <tag k="addr:city" v="West Fairlee"/>
    <tag k="addr:housenumber" v="124"/>
    <tag k="addr:street" v="Georges Way"/>
    <tag k="addr:state" v="VT"/>
    <tag k="ref:vcgi:esiteid" v="278985"/>
  </node>
  <node id="-398" visible="true" lat="43.89593858" lon="-72.25141137">
    <tag k="addr:city" v="West Fairlee"/>
    <tag k="addr:housenumber" v="123"/>
    <tag k="addr:street" v="Georges Way"/>
    <tag k="addr:state" v="VT"/>
    <tag k="ref:vcgi:esiteid" v="278986"/>
  </node>
  <node id="-399" visible="true" lat="43.89591447" lon="-72.25286785">
    <tag k="addr:city" v="West Fairlee"/>
    <tag k="addr:housenumber" v="52"/>
    <tag k="addr:street" v="Heatherfield Road"/>
    <tag k="addr:state" v="VT"/>
    <tag k="ref:vcgi:esiteid" v="278987"/>
  </node>
  <node id="-400" visible="true" lat="43.89567713" lon="-72.2517441">
    <tag k="addr:city" v="West Fairlee"/>
    <tag k="addr:housenumber" v="95"/>
    <tag k="addr:street" v="Georges Way"/>
    <tag k="addr:state" v="VT"/>
    <tag k="ref:vcgi:esiteid" v="278988"/>
  </node>
  <node id="-401" visible="true" lat="43.89576219" lon="-72.25346564">
    <tag k="addr:city" v="West Fairlee"/>
    <tag k="addr:housenumber" v="39"/>
    <tag k="addr:street" v="Heatherfield Road"/>
    <tag k="addr:state" v="VT"/>
    <tag k="ref:vcgi:esiteid" v="278989"/>
  </node>
  <node id="-402" visible="true" lat="43.89563098" lon="-72.25508943">
    <tag k="addr:city" v="West Fairlee"/>
    <tag k="addr:housenumber" v="1010"/>
    <tag k="addr:street" v="West Fairlee Road"/>
    <tag k="addr:state" v="VT"/>
    <tag k="ref:vcgi:esiteid" v="278990"/>
  </node>
  <node id="-403" visible="true" lat="43.89552709" lon="-72.25446594">
    <tag k="addr:city" v="West Fairlee"/>
    <tag k="addr:housenumber" v="964"/>
    <tag k="addr:street" v="West Fairlee Road"/>
    <tag k="addr:state" v="VT"/>
    <tag k="ref:vcgi:esiteid" v="278991"/>
  </node>
  <node id="-404" visible="true" lat="43.89525408" lon="-72.25165069">
    <tag k="addr:city" v="West Fairlee"/>
    <tag k="addr:housenumber" v="52"/>
    <tag k="addr:street" v="Georges Way"/>
    <tag k="addr:state" v="VT"/>
    <tag k="ref:vcgi:esiteid" v="278997"/>
  </node>
  <node id="-405" visible="true" lat="43.89521212" lon="-72.25323848">
    <tag k="addr:city" v="West Fairlee"/>
    <tag k="addr:housenumber" v="912"/>
    <tag k="addr:street" v="West Fairlee Road"/>
    <tag k="addr:state" v="VT"/>
    <tag k="ref:vcgi:esiteid" v="278998"/>
  </node>
  <node id="-406" visible="true" lat="43.89496496" lon="-72.2519921">
    <tag k="addr:city" v="West Fairlee"/>
    <tag k="addr:housenumber" v="53"/>
    <tag k="addr:street" v="Georges Way"/>
    <tag k="addr:state" v="VT"/>
    <tag k="ref:vcgi:esiteid" v="279000"/>
  </node>
  <node id="-407" visible="true" lat="43.89507872" lon="-72.25153978">
    <tag k="addr:city" v="West Fairlee"/>
    <tag k="addr:housenumber" v="40"/>
    <tag k="addr:street" v="Georges Way"/>
    <tag k="addr:state" v="VT"/>
    <tag k="ref:vcgi:esiteid" v="279001"/>
  </node>
  <node id="-408" visible="true" lat="43.89489136" lon="-72.25190556">
    <tag k="addr:city" v="West Fairlee"/>
    <tag k="addr:housenumber" v="49"/>
    <tag k="addr:street" v="Georges Way"/>
    <tag k="addr:state" v="VT"/>
    <tag k="ref:vcgi:esiteid" v="279002"/>
  </node>
  <node id="-409" visible="true" lat="43.89486391" lon="-72.25135324">
    <tag k="addr:city" v="West Fairlee"/>
    <tag k="addr:housenumber" v="20"/>
    <tag k="addr:street" v="Georges Way"/>
    <tag k="addr:state" v="VT"/>
    <tag k="ref:vcgi:esiteid" v="279004"/>
  </node>
  <node id="-410" visible="true" lat="43.89448991" lon="-72.25103761">
    <tag k="addr:city" v="West Fairlee"/>
    <tag k="addr:housenumber" v="770"/>
    <tag k="addr:street" v="West Fairlee Road"/>
    <tag k="addr:state" v="VT"/>
    <tag k="ref:vcgi:esiteid" v="279006"/>
  </node>
  <node id="-411" visible="true" lat="43.89432397" lon="-72.24987739">
    <tag k="addr:city" v="West Fairlee"/>
    <tag k="addr:housenumber" v="734"/>
    <tag k="addr:street" v="West Fairlee Road"/>
    <tag k="addr:state" v="VT"/>
    <tag k="ref:vcgi:esiteid" v="279007"/>
  </node>
  <node id="-412" visible="true" lat="43.89418593" lon="-72.2493441">
    <tag k="addr:city" v="West Fairlee"/>
    <tag k="addr:housenumber" v="706"/>
    <tag k="addr:street" v="West Fairlee Road"/>
    <tag k="addr:state" v="VT"/>
    <tag k="ref:vcgi:esiteid" v="279008"/>
  </node>
  <node id="-414" visible="true" lat="43.89368769" lon="-72.24765374">
    <tag k="addr:city" v="West Fairlee"/>
    <tag k="addr:housenumber" v="638"/>
    <tag k="addr:street" v="West Fairlee Road"/>
    <tag k="addr:state" v="VT"/>
    <tag k="ref:vcgi:esiteid" v="279010"/>
  </node>
  <node id="-416" visible="true" lat="43.93287383" lon="-72.23159877">
    <tag k="addr:city" v="West Fairlee"/>
    <tag k="addr:housenumber" v="3027"/>
    <tag k="addr:street" v="Middlebrook Road"/>
    <tag k="addr:state" v="VT"/>
    <tag k="ref:vcgi:esiteid" v="279012"/>
  </node>
  <node id="-421" visible="true" lat="43.90753212" lon="-72.26152317">
    <tag k="addr:city" v="West Fairlee"/>
    <tag k="addr:housenumber" v="744"/>
    <tag k="addr:street" v="Vermont Route 113"/>
    <tag k="addr:state" v="VT"/>
    <tag k="ref:vcgi:esiteid" v="279018"/>
  </node>
  <node id="-423" visible="true" lat="43.9385782" lon="-72.20093775">
    <tag k="addr:city" v="West Fairlee"/>
    <tag k="addr:housenumber" v="2759"/>
    <tag k="addr:street" v="Blood Brook Road"/>
    <tag k="addr:state" v="VT"/>
    <tag k="ref:vcgi:esiteid" v="279020"/>
  </node>
  <node id="-428" visible="true" lat="43.99067964" lon="-72.22779845">
    <tag k="addr:city" v="West Fairlee"/>
    <tag k="addr:housenumber" v="300"/>
    <tag k="addr:street" v="Scrabble Hollow Road"/>
    <tag k="addr:state" v="VT"/>
    <tag k="ref:vcgi:esiteid" v="279026"/>
  </node>
  <node id="-429" visible="true" lat="43.98320088" lon="-72.2011542">
    <tag k="addr:city" v="West Fairlee"/>
    <tag k="addr:housenumber" v="780"/>
    <tag k="addr:street" v="Branch Road"/>
    <tag k="addr:state" v="VT"/>
    <tag k="ref:vcgi:esiteid" v="279027"/>
  </node>
  <node id="-430" visible="true" lat="43.98295147" lon="-72.20013037">
    <tag k="addr:city" v="West Fairlee"/>
    <tag k="addr:housenumber" v="755"/>
    <tag k="addr:street" v="Branch Road"/>
    <tag k="addr:state" v="VT"/>
    <tag k="ref:vcgi:esiteid" v="279028"/>
  </node>
  <node id="-431" visible="true" lat="43.92158846" lon="-72.2635082">
    <tag k="addr:city" v="West Fairlee"/>
    <tag k="addr:housenumber" v="1705"/>
    <tag k="addr:street" v="Vermont Route 113"/>
    <tag k="addr:state" v="VT"/>
    <tag k="ref:vcgi:esiteid" v="279029"/>
  </node>
  <node id="-432" visible="true" lat="43.91053112" lon="-72.2632293">
    <tag k="addr:city" v="West Fairlee"/>
    <tag k="addr:housenumber" v="927"/>
    <tag k="addr:street" v="Vermont Route 113"/>
    <tag k="addr:state" v="VT"/>
    <tag k="ref:vcgi:esiteid" v="279030"/>
  </node>
  <node id="-433" visible="true" lat="43.89928852" lon="-72.25319834">
    <tag k="addr:city" v="West Fairlee"/>
    <tag k="addr:housenumber" v="134"/>
    <tag k="addr:street" v="Stevens Road"/>
    <tag k="addr:state" v="VT"/>
    <tag k="ref:vcgi:esiteid" v="279032"/>
  </node>
  <node id="-434" visible="true" lat="43.89643632" lon="-72.25303508">
    <tag k="addr:city" v="West Fairlee"/>
    <tag k="addr:housenumber" v="60"/>
    <tag k="addr:street" v="Heatherfield Road"/>
    <tag k="addr:state" v="VT"/>
    <tag k="ref:vcgi:esiteid" v="279033"/>
  </node>
  <node id="-435" visible="true" lat="43.90201289" lon="-72.25431476">
    <tag k="addr:city" v="West Fairlee"/>
    <tag k="addr:housenumber" v="136"/>
    <tag k="addr:street" v="Stevens Road"/>
    <tag k="addr:state" v="VT"/>
    <tag k="ref:vcgi:esiteid" v="279034"/>
  </node>
  <node id="-437" visible="true" lat="43.94676744" lon="-72.25907165">
    <tag k="addr:city" v="West Fairlee"/>
    <tag k="addr:housenumber" v="733"/>
    <tag k="addr:street" v="Beaver Meadow Road"/>
    <tag k="addr:state" v="VT"/>
    <tag k="ref:vcgi:esiteid" v="306232"/>
  </node>
  <node id="-439" visible="true" lat="43.98431038" lon="-72.22336378">
    <tag k="addr:city" v="West Fairlee"/>
    <tag k="addr:housenumber" v="238"/>
    <tag k="addr:street" v="Scrabble Hollow Road"/>
    <tag k="addr:state" v="VT"/>
    <tag k="ref:vcgi:esiteid" v="306547"/>
  </node>
  <node id="-441" visible="true" lat="43.98665896" lon="-72.22613036">
    <tag k="addr:city" v="West Fairlee"/>
    <tag k="addr:housenumber" v="255"/>
    <tag k="addr:street" v="Scrabble Hollow Road"/>
    <tag k="addr:state" v="VT"/>
    <tag k="ref:vcgi:esiteid" v="306549"/>
  </node>
  <node id="-442" visible="true" lat="43.98914413" lon="-72.22695176">
    <tag k="addr:city" v="West Fairlee"/>
    <tag k="addr:housenumber" v="270"/>
    <tag k="addr:street" v="Scrabble Hollow Road"/>
    <tag k="addr:state" v="VT"/>
    <tag k="ref:vcgi:esiteid" v="306550"/>
  </node>
  <node id="-443" visible="true" lat="43.89508583" lon="-72.21609783">
    <tag k="addr:city" v="West Fairlee"/>
    <tag k="addr:housenumber" v="111"/>
    <tag k="addr:street" v="Idle Pine Drive"/>
    <tag k="addr:state" v="VT"/>
    <tag k="ref:vcgi:esiteid" v="312317"/>
  </node>
  <node id="-445" visible="true" lat="43.92664461" lon="-72.22977281">
    <tag k="addr:city" v="West Fairlee"/>
    <tag k="addr:housenumber" v="2596"/>
    <tag k="addr:street" v="Middlebrook Road"/>
    <tag k="addr:state" v="VT"/>
    <tag k="ref:vcgi:esiteid" v="312319"/>
  </node>
  <node id="-446" visible="true" lat="43.93716875" lon="-72.2286267">
    <tag k="addr:city" v="West Fairlee"/>
    <tag k="addr:housenumber" v="3426"/>
    <tag k="addr:street" v="Middlebrook Road"/>
    <tag k="addr:state" v="VT"/>
    <tag k="ref:vcgi:esiteid" v="312322"/>
  </node>
  <node id="-447" visible="true" lat="43.88885642" lon="-72.22352586">
    <tag k="addr:city" v="West Fairlee"/>
    <tag k="addr:housenumber" v="81"/>
    <tag k="addr:street" v="Passumpsic Point"/>
    <tag k="addr:state" v="VT"/>
    <tag k="ref:vcgi:esiteid" v="312323"/>
  </node>
  <node id="-448" visible="true" lat="43.95565212" lon="-72.21594264">
    <tag k="addr:city" v="West Fairlee"/>
    <tag k="addr:housenumber" v="100"/>
    <tag k="addr:street" v="Preserve Road"/>
    <tag k="addr:state" v="VT"/>
    <tag k="ref:vcgi:esiteid" v="312324"/>
  </node>
  <node id="-449" visible="true" lat="43.90917616" lon="-72.2633393">
    <tag k="addr:city" v="West Fairlee"/>
    <tag k="addr:housenumber" v="3"/>
    <tag k="addr:street" v="Beanville Road"/>
    <tag k="addr:state" v="VT"/>
    <tag k="ref:vcgi:esiteid" v="312689"/>
  </node>
  <node id="-450" visible="true" lat="43.94302758" lon="-72.19604783">
    <tag k="addr:city" v="West Fairlee"/>
    <tag k="addr:housenumber" v="115"/>
    <tag k="addr:street" v="Brushwood Road"/>
    <tag k="addr:state" v="VT"/>
    <tag k="ref:vcgi:esiteid" v="315336"/>
  </node>
  <node id="-453" visible="true" lat="43.91753373" lon="-72.26191235">
    <tag k="addr:city" v="West Fairlee"/>
    <tag k="addr:housenumber" v="1462"/>
    <tag k="addr:street" v="Vermont Route 113"/>
    <tag k="addr:state" v="VT"/>
    <tag k="ref:vcgi:esiteid" v="316786"/>
  </node>
  <node id="-454" visible="true" lat="43.97221361" lon="-72.18288408">
    <tag k="addr:city" v="West Fairlee"/>
    <tag k="addr:housenumber" v="523"/>
    <tag k="addr:street" v="Kidderhood Road"/>
    <tag k="addr:state" v="VT"/>
    <tag k="ref:vcgi:esiteid" v="317168"/>
  </node>
  <node id="-455" visible="true" lat="43.91462523" lon="-72.26999098">
    <tag k="addr:city" v="West Fairlee"/>
    <tag k="addr:housenumber" v="454"/>
    <tag k="addr:street" v="Beanville Road"/>
    <tag k="addr:state" v="VT"/>
    <tag k="ref:vcgi:esiteid" v="317504"/>
  </node>
  <node id="-459" visible="true" lat="43.97608304" lon="-72.18069284">
    <tag k="addr:city" v="West Fairlee"/>
    <tag k="addr:housenumber" v="190"/>
    <tag k="addr:street" v="Kidderhood Road"/>
    <tag k="addr:state" v="VT"/>
    <tag k="ref:vcgi:esiteid" v="327463"/>
  </node>
  <node id="-461" visible="true" lat="43.94110893" lon="-72.26226131">
    <tag k="addr:city" v="West Fairlee"/>
    <tag k="addr:housenumber" v="261"/>
    <tag k="addr:street" v="Beaver Meadow Road"/>
    <tag k="addr:state" v="VT"/>
    <tag k="ref:vcgi:esiteid" v="328188"/>
  </node>
  <node id="-462" visible="true" lat="43.91776062" lon="-72.26238069">
    <tag k="addr:city" v="West Fairlee"/>
    <tag k="addr:housenumber" v="1456"/>
    <tag k="addr:street" v="Vermont Route 113"/>
    <tag k="addr:state" v="VT"/>
    <tag k="ref:vcgi:esiteid" v="331930"/>
  </node>
  <node id="-463" visible="true" lat="43.90391721" lon="-72.21190315">
    <tag k="addr:city" v="West Fairlee"/>
    <tag k="addr:housenumber" v="103"/>
    <tag k="addr:street" v="Blood Brook Road"/>
    <tag k="addr:state" v="VT"/>
    <tag k="ref:vcgi:esiteid" v="331951"/>
  </node>
  <node id="-464" visible="true" lat="43.91346679" lon="-72.23830364">
    <tag k="addr:city" v="West Fairlee"/>
    <tag k="addr:housenumber" v="1579"/>
    <tag k="addr:street" v="Middlebrook Road"/>
    <tag k="addr:state" v="VT"/>
    <tag k="ref:vcgi:esiteid" v="332301"/>
  </node>
  <node id="-465" visible="true" lat="43.94599213" lon="-72.22914043">
    <tag k="addr:city" v="West Fairlee"/>
    <tag k="addr:housenumber" v="372"/>
    <tag k="addr:street" v="Bear Notch Road"/>
    <tag k="addr:state" v="VT"/>
    <tag k="ref:vcgi:esiteid" v="332443"/>
  </node>
  <node id="-467" visible="true" lat="43.92676995" lon="-72.26545013">
    <tag k="addr:city" v="West Fairlee"/>
    <tag k="addr:housenumber" v="2040"/>
    <tag k="addr:street" v="Vermont Route 113"/>
    <tag k="addr:state" v="VT"/>
    <tag k="ref:vcgi:esiteid" v="333187"/>
  </node>
  <node id="-470" visible="true" lat="43.94266146" lon="-72.19738493">
    <tag k="addr:city" v="West Fairlee"/>
    <tag k="addr:housenumber" v="39"/>
    <tag k="addr:street" v="Brushwood Road"/>
    <tag k="addr:state" v="VT"/>
    <tag k="ref:vcgi:esiteid" v="337384"/>
  </node>
  <node id="-472" visible="true" lat="43.9661475" lon="-72.20191879">
    <tag k="addr:city" v="West Fairlee"/>
    <tag k="addr:housenumber" v="1740"/>
    <tag k="addr:street" v="Wild Hill Road"/>
    <tag k="addr:state" v="VT"/>
    <tag k="ref:vcgi:esiteid" v="338547"/>
  </node>
  <node id="-473" visible="true" lat="43.96668296" lon="-72.1992525">
    <tag k="addr:city" v="West Fairlee"/>
    <tag k="addr:housenumber" v="1742"/>
    <tag k="addr:street" v="Wild Hill Road"/>
    <tag k="addr:state" v="VT"/>
    <tag k="ref:vcgi:esiteid" v="338548"/>
  </node>
  <node id="-474" visible="true" lat="43.89114405" lon="-72.23157411">
    <tag k="addr:city" v="West Fairlee"/>
    <tag k="addr:housenumber" v="19"/>
    <tag k="addr:street" v="Middlebrook Road"/>
    <tag k="addr:state" v="VT"/>
    <tag k="ref:vcgi:esiteid" v="339695"/>
  </node>
  <node id="-476" visible="true" lat="43.91394339" lon="-72.27041531">
    <tag k="addr:city" v="West Fairlee"/>
    <tag k="addr:housenumber" v="452"/>
    <tag k="addr:street" v="Beanville Road"/>
    <tag k="addr:state" v="VT"/>
    <tag k="ref:vcgi:esiteid" v="345845"/>
  </node>
  <node id="-477" visible="true" lat="43.98587678" lon="-72.22997663">
    <tag k="addr:city" v="West Fairlee"/>
    <tag k="addr:housenumber" v="898"/>
    <tag k="addr:street" v="Martin Road"/>
    <tag k="addr:state" v="VT"/>
    <tag k="ref:vcgi:esiteid" v="345847"/>
  </node>
  <node id="-482" visible="true" lat="43.89860439" lon="-72.2159083">
    <tag k="addr:city" v="West Fairlee"/>
    <tag k="addr:housenumber" v="2924"/>
    <tag k="addr:street" v="Vermont Route 244"/>
    <tag k="addr:state" v="VT"/>
    <tag k="ref:vcgi:esiteid" v="445462"/>
  </node>
  <node id="-483" visible="true" lat="43.94457085" lon="-72.20838236">
    <tag k="addr:city" v="West Fairlee"/>
    <tag k="addr:housenumber" v="3607"/>
    <tag k="addr:street" v="Blood Brook Road"/>
    <tag k="addr:state" v="VT"/>
    <tag k="ref:vcgi:esiteid" v="447879"/>
  </node>
  <node id="-484" visible="true" lat="43.94556093" lon="-72.2215458">
    <tag k="addr:city" v="West Fairlee"/>
    <tag k="addr:housenumber" v="4071"/>
    <tag k="addr:street" v="Middlebrook Road"/>
    <tag k="addr:state" v="VT"/>
    <tag k="ref:vcgi:esiteid" v="448002"/>
  </node>
  <node id="-486" visible="true" lat="43.90492238" lon="-72.23717814">
    <tag k="addr:city" v="West Fairlee"/>
    <tag k="addr:housenumber" v="1013"/>
    <tag k="addr:street" v="Middlebrook Road"/>
    <tag k="addr:state" v="VT"/>
    <tag k="ref:vcgi:esiteid" v="449965"/>
  </node>
  <node id="-487" visible="true" lat="43.90436863" lon="-72.23591028">
    <tag k="addr:city" v="West Fairlee"/>
    <tag k="addr:housenumber" v="1001"/>
    <tag k="addr:street" v="Middlebrook Road"/>
    <tag k="addr:state" v="VT"/>
    <tag k="ref:vcgi:esiteid" v="449966"/>
  </node>
  <node id="-489" visible="true" lat="43.90758252" lon="-72.26407151">
    <tag k="addr:city" v="West Fairlee"/>
    <tag k="addr:housenumber" v="69"/>
    <tag k="addr:street" v="Back Street"/>
    <tag k="addr:state" v="VT"/>
    <tag k="ref:vcgi:esiteid" v="449976"/>
  </node>
  <node id="-493" visible="true" lat="43.88970522" lon="-72.22281337">
    <tag k="addr:city" v="West Fairlee"/>
    <tag k="addr:housenumber" v="3643"/>
    <tag k="addr:street" v="Vermont Route 244"/>
    <tag k="addr:state" v="VT"/>
    <tag k="ref:vcgi:esiteid" v="451279"/>
  </node>
  <node id="-499" visible="true" lat="43.89288688" lon="-72.21843758">
    <tag k="addr:city" v="West Fairlee"/>
    <tag k="addr:housenumber" v="3297"/>
    <tag k="addr:street" v="Vermont Route 244"/>
    <tag k="addr:state" v="VT"/>
    <tag k="ref:vcgi:esiteid" v="452037"/>
  </node>
  <node id="-502" visible="true" lat="43.89573414" lon="-72.22003122">
    <tag k="addr:city" v="West Fairlee"/>
    <tag k="addr:housenumber" v="155"/>
    <tag k="addr:street" v="Wilson Road"/>
    <tag k="addr:state" v="VT"/>
    <tag k="ref:vcgi:esiteid" v="452040"/>
  </node>
  <node id="-505" visible="true" lat="43.9384684" lon="-72.2308103">
    <tag k="addr:city" v="West Fairlee"/>
    <tag k="addr:housenumber" v="3415"/>
    <tag k="addr:street" v="Middlebrook Road"/>
    <tag k="addr:state" v="VT"/>
    <tag k="ref:vcgi:esiteid" v="454304"/>
  </node>
  <node id="-508" visible="true" lat="43.91188156" lon="-72.26790766">
    <tag k="addr:city" v="West Fairlee"/>
    <tag k="addr:housenumber" v="350"/>
    <tag k="addr:street" v="Beanville Road"/>
    <tag k="addr:state" v="VT"/>
    <tag k="ref:vcgi:esiteid" v="454550"/>
  </node>
  <node id="-510" visible="true" lat="43.94303073" lon="-72.22612825">
    <tag k="addr:city" v="West Fairlee"/>
    <tag k="addr:housenumber" v="17"/>
    <tag k="addr:street" v="Bear Notch Road"/>
    <tag k="addr:state" v="VT"/>
    <tag k="ref:vcgi:esiteid" v="454552"/>
  </node>
  <node id="-511" visible="true" lat="43.92789227" lon="-72.21737223">
    <tag k="addr:city" v="West Fairlee"/>
    <tag k="addr:housenumber" v="617"/>
    <tag k="addr:street" v="Marsh Hill Road"/>
    <tag k="addr:state" v="VT"/>
    <tag k="ref:vcgi:esiteid" v="454553"/>
  </node>
  <node id="-512" visible="true" lat="43.97023073" lon="-72.18098329">
    <tag k="addr:city" v="West Fairlee"/>
    <tag k="addr:housenumber" v="525"/>
    <tag k="addr:street" v="Kidderhood Road"/>
    <tag k="addr:state" v="VT"/>
    <tag k="ref:vcgi:esiteid" v="454555"/>
  </node>
  <node id="-513" visible="true" lat="43.95955916" lon="-72.18744723">
    <tag k="addr:city" v="West Fairlee"/>
    <tag k="addr:housenumber" v="1814"/>
    <tag k="addr:street" v="Kidderhood Road"/>
    <tag k="addr:state" v="VT"/>
    <tag k="ref:vcgi:esiteid" v="454556"/>
  </node>
  <node id="-515" visible="true" lat="43.90236972" lon="-72.23530938">
    <tag k="addr:city" v="West Fairlee"/>
    <tag k="addr:housenumber" v="809"/>
    <tag k="addr:street" v="Middlebrook Road"/>
    <tag k="addr:state" v="VT"/>
    <tag k="ref:vcgi:esiteid" v="454918"/>
  </node>
  <node id="-520" visible="true" lat="43.96024313" lon="-72.20520764">
    <tag k="addr:city" v="West Fairlee"/>
    <tag k="addr:housenumber" v="1166"/>
    <tag k="addr:street" v="Wild Hill Road"/>
    <tag k="addr:state" v="VT"/>
    <tag k="ref:vcgi:esiteid" v="612538"/>
  </node>
  <node id="-521" visible="true" lat="43.98232563" lon="-72.20426827">
    <tag k="addr:city" v="West Fairlee"/>
    <tag k="addr:housenumber" v="515"/>
    <tag k="addr:street" v="Jennings Road"/>
    <tag k="addr:state" v="VT"/>
    <tag k="ref:vcgi:esiteid" v="612545"/>
  </node>
  <node id="-522" visible="true" lat="43.95341962" lon="-72.21464638">
    <tag k="addr:city" v="West Fairlee"/>
    <tag k="addr:housenumber" v="480"/>
    <tag k="addr:street" v="Wild Hill Road"/>
    <tag k="addr:state" v="VT"/>
    <tag k="ref:vcgi:esiteid" v="612679"/>
  </node>
  <node id="-523" visible="true" lat="43.97796816" lon="-72.18726004">
    <tag k="addr:city" v="West Fairlee"/>
    <tag k="addr:housenumber" v="3152"/>
    <tag k="addr:street" v="Wild Hill Road"/>
    <tag k="addr:state" v="VT"/>
    <tag k="ref:vcgi:esiteid" v="613428"/>
  </node>
  <node id="-575" visible="true" lat="43.89533338" lon="-72.25176554">
    <tag k="addr:city" v="West Fairlee"/>
    <tag k="addr:housenumber" v="64"/>
    <tag k="addr:street" v="Georges Way"/>
    <tag k="addr:state" v="VT"/>
    <tag k="ref:vcgi:esiteid" v="655677"/>
  </node>
  <node id="-576" visible="true" lat="43.89477855" lon="-72.25178101">
    <tag k="addr:city" v="West Fairlee"/>
    <tag k="addr:housenumber" v="31"/>
    <tag k="addr:street" v="Georges Way"/>
    <tag k="addr:state" v="VT"/>
    <tag k="ref:vcgi:esiteid" v="655678"/>
  </node>
  <node id="-593" visible="true" lat="43.92202547" lon="-72.20898263">
    <tag k="addr:city" v="West Fairlee"/>
    <tag k="addr:housenumber" v="1461"/>
    <tag k="addr:street" v="Blood Brook Road"/>
    <tag k="addr:state" v="VT"/>
    <tag k="ref:vcgi:esiteid" v="752983"/>
  </node>
  <node id="-602" visible="true" lat="43.92005166" lon="-72.23685688">
    <tag k="addr:city" v="West Fairlee"/>
    <tag k="addr:housenumber" v="135"/>
    <tag k="addr:street" v="Beebe Road"/>
    <tag k="addr:state" v="VT"/>
    <tag k="ref:vcgi:esiteid" v="758241"/>
  </node>
  <node id="-615" visible="true" lat="43.89546222" lon="-72.25192586">
    <tag k="addr:city" v="West Fairlee"/>
    <tag k="addr:housenumber" v="71"/>
    <tag k="addr:street" v="Georges Way"/>
    <tag k="addr:state" v="VT"/>
    <tag k="ref:vcgi:esiteid" v="767358"/>
  </node>
  <node id="-622" visible="true" lat="43.89504108" lon="-72.25141974">
    <tag k="addr:city" v="West Fairlee"/>
    <tag k="addr:housenumber" v="30"/>
    <tag k="addr:street" v="Georges Way"/>
    <tag k="addr:state" v="VT"/>
    <tag k="ref:vcgi:esiteid" v="769650"/>
  </node>
  <node id="-625" visible="true" lat="43.89509093" lon="-72.25213065">
    <tag k="addr:city" v="West Fairlee"/>
    <tag k="addr:housenumber" v="59"/>
    <tag k="addr:street" v="Georges Way"/>
    <tag k="addr:state" v="VT"/>
    <tag k="ref:vcgi:esiteid" v="770664"/>
  </node>
  <node id="-626" visible="true" lat="43.89524346" lon="-72.25216377">
    <tag k="addr:city" v="West Fairlee"/>
    <tag k="addr:housenumber" v="65"/>
    <tag k="addr:street" v="Georges Way"/>
    <tag k="addr:state" v="VT"/>
    <tag k="ref:vcgi:esiteid" v="770665"/>
  </node>
</osm>
