<?xml version="1.0" encoding="UTF-8"?>
<osm version="0.6" generator="JOSM">
  <node id="-115" visible="true" lat="44.60103607" lon="-72.14302825">
    <tag k="addr:housenumber" v="1058"/>
    <tag k="addr:street" v="Kenniston Hill Road"/>
    <tag k="addr:state" v="VT"/>
    <tag k="ref:vcgi:esiteid" v="285633"/>
  </node>
  <node id="-118" visible="true" lat="44.59831697" lon="-72.06052175">
    <tag k="addr:housenumber" v="1428"/>
    <tag k="addr:street" v="Sutton Road"/>
    <tag k="addr:state" v="VT"/>
    <tag k="ref:vcgi:esiteid" v="285637"/>
  </node>
  <node id="-119" visible="true" lat="44.59733998" lon="-72.06335188">
    <tag k="addr:housenumber" v="1257"/>
    <tag k="addr:street" v="Sutton Road"/>
    <tag k="addr:state" v="VT"/>
    <tag k="ref:vcgi:esiteid" v="285638"/>
  </node>
  <node id="-120" visible="true" lat="44.59564296" lon="-72.06252793">
    <tag k="addr:housenumber" v="1242"/>
    <tag k="addr:street" v="Sutton Road"/>
    <tag k="addr:state" v="VT"/>
    <tag k="ref:vcgi:esiteid" v="285639"/>
  </node>
  <node id="-121" visible="true" lat="44.59539209" lon="-72.13089746">
    <tag k="addr:housenumber" v="382"/>
    <tag k="addr:street" v="Allard Hill Road"/>
    <tag k="addr:state" v="VT"/>
    <tag k="ref:vcgi:esiteid" v="285640"/>
  </node>
  <node id="-122" visible="true" lat="44.59431109" lon="-72.13362312">
    <tag k="addr:housenumber" v="520"/>
    <tag k="addr:street" v="Allard Hill Road"/>
    <tag k="addr:state" v="VT"/>
    <tag k="ref:vcgi:esiteid" v="285641"/>
  </node>
  <node id="-124" visible="true" lat="44.5909233" lon="-72.13463592">
    <tag k="addr:housenumber" v="740"/>
    <tag k="addr:street" v="Allard Hill Road"/>
    <tag k="addr:state" v="VT"/>
    <tag k="ref:vcgi:esiteid" v="285644"/>
  </node>
  <node id="-125" visible="true" lat="44.5905131" lon="-72.07206138">
    <tag k="addr:housenumber" v="651"/>
    <tag k="addr:street" v="Sutton Road"/>
    <tag k="addr:state" v="VT"/>
    <tag k="ref:vcgi:esiteid" v="285645"/>
  </node>
  <node id="-127" visible="true" lat="44.59043513" lon="-72.08905814">
    <tag k="addr:housenumber" v="140"/>
    <tag k="addr:street" v="Sulfur Spring Road"/>
    <tag k="addr:state" v="VT"/>
    <tag k="ref:vcgi:esiteid" v="285647"/>
  </node>
  <node id="-130" visible="true" lat="44.59008407" lon="-72.13540649">
    <tag k="addr:housenumber" v="802"/>
    <tag k="addr:street" v="Allard Hill Road"/>
    <tag k="addr:state" v="VT"/>
    <tag k="ref:vcgi:esiteid" v="285650"/>
  </node>
  <node id="-132" visible="true" lat="44.5895175" lon="-72.07398209">
    <tag k="addr:housenumber" v="514"/>
    <tag k="addr:street" v="Sutton Road"/>
    <tag k="addr:state" v="VT"/>
    <tag k="ref:vcgi:esiteid" v="285652"/>
  </node>
  <node id="-134" visible="true" lat="44.58922334" lon="-72.07421689">
    <tag k="addr:housenumber" v="482"/>
    <tag k="addr:street" v="Sutton Road"/>
    <tag k="addr:state" v="VT"/>
    <tag k="ref:vcgi:esiteid" v="285654"/>
  </node>
  <node id="-135" visible="true" lat="44.58912285" lon="-72.07517615">
    <tag k="addr:housenumber" v="440"/>
    <tag k="addr:street" v="Sutton Road"/>
    <tag k="addr:state" v="VT"/>
    <tag k="ref:vcgi:esiteid" v="285655"/>
  </node>
  <node id="-136" visible="true" lat="44.58935928" lon="-72.11690521">
    <tag k="addr:housenumber" v="951"/>
    <tag k="addr:street" v="Chesley Hill Road"/>
    <tag k="addr:state" v="VT"/>
    <tag k="ref:vcgi:esiteid" v="285656"/>
  </node>
  <node id="-138" visible="true" lat="44.58914184" lon="-72.07710266">
    <tag k="addr:housenumber" v="290"/>
    <tag k="addr:street" v="Sutton Road"/>
    <tag k="addr:state" v="VT"/>
    <tag k="ref:vcgi:esiteid" v="285658"/>
  </node>
  <node id="-139" visible="true" lat="44.58907318" lon="-72.12139892">
    <tag k="addr:housenumber" v="1275"/>
    <tag k="addr:street" v="Chesley Hill Road"/>
    <tag k="addr:state" v="VT"/>
    <tag k="ref:vcgi:esiteid" v="285659"/>
  </node>
  <node id="-140" visible="true" lat="44.58889094" lon="-72.08831055">
    <tag k="addr:housenumber" v="14"/>
    <tag k="addr:street" v="Sulfur Spring Road"/>
    <tag k="addr:state" v="VT"/>
    <tag k="ref:vcgi:esiteid" v="285660"/>
  </node>
  <node id="-149" visible="true" lat="44.58847469" lon="-72.13431756">
    <tag k="addr:housenumber" v="917"/>
    <tag k="addr:street" v="Allard Hill Road"/>
    <tag k="addr:state" v="VT"/>
    <tag k="ref:vcgi:esiteid" v="285671"/>
  </node>
  <node id="-150" visible="true" lat="44.58823591" lon="-72.08240486">
    <tag k="addr:housenumber" v="65"/>
    <tag k="addr:street" v="Sutton Road"/>
    <tag k="addr:state" v="VT"/>
    <tag k="ref:vcgi:esiteid" v="285672"/>
  </node>
  <node id="-151" visible="true" lat="44.58798069" lon="-72.08145421">
    <tag k="addr:housenumber" v="104"/>
    <tag k="addr:street" v="Sutton Road"/>
    <tag k="addr:state" v="VT"/>
    <tag k="ref:vcgi:esiteid" v="285673"/>
  </node>
  <node id="-153" visible="true" lat="44.58810089" lon="-72.08375522">
    <tag k="addr:housenumber" v="3"/>
    <tag k="addr:street" v="Sutton Road"/>
    <tag k="addr:state" v="VT"/>
    <tag k="ref:vcgi:esiteid" v="285677"/>
  </node>
  <node id="-154" visible="true" lat="44.5880515" lon="-72.09111881">
    <tag k="addr:housenumber" v="70"/>
    <tag k="addr:street" v="Vertical Mile Road"/>
    <tag k="addr:state" v="VT"/>
    <tag k="ref:vcgi:esiteid" v="285678"/>
  </node>
  <node id="-156" visible="true" lat="44.58804706" lon="-72.0889271">
    <tag k="addr:housenumber" v="57"/>
    <tag k="addr:street" v="Peak Road"/>
    <tag k="addr:state" v="VT"/>
    <tag k="ref:vcgi:esiteid" v="285680"/>
  </node>
  <node id="-157" visible="true" lat="44.5879595" lon="-72.08816697">
    <tag k="addr:housenumber" v="39"/>
    <tag k="addr:street" v="Peak Road"/>
    <tag k="addr:state" v="VT"/>
    <tag k="ref:vcgi:esiteid" v="285681"/>
  </node>
  <node id="-160" visible="true" lat="44.58751511" lon="-72.08169183">
    <tag k="addr:housenumber" v="68"/>
    <tag k="addr:street" v="Sutton Road"/>
    <tag k="addr:state" v="VT"/>
    <tag k="ref:vcgi:esiteid" v="285684"/>
  </node>
  <node id="-161" visible="true" lat="44.58774158" lon="-72.08871604">
    <tag k="addr:housenumber" v="67"/>
    <tag k="addr:street" v="Peak Road"/>
    <tag k="addr:state" v="VT"/>
    <tag k="ref:vcgi:esiteid" v="285685"/>
  </node>
  <node id="-167" visible="true" lat="44.58755874" lon="-72.11887359">
    <tag k="addr:housenumber" v="21"/>
    <tag k="addr:street" v="Morgan Road West"/>
    <tag k="addr:state" v="VT"/>
    <tag k="ref:vcgi:esiteid" v="285691"/>
  </node>
  <node id="-169" visible="true" lat="44.58744049" lon="-72.1208496">
    <tag k="addr:housenumber" v="1159"/>
    <tag k="addr:street" v="Chesley Hill Road"/>
    <tag k="addr:state" v="VT"/>
    <tag k="ref:vcgi:esiteid" v="285693"/>
  </node>
  <node id="-170" visible="true" lat="44.58724594" lon="-72.09080505">
    <tag k="addr:housenumber" v="99"/>
    <tag k="addr:street" v="Vertical Mile Road"/>
    <tag k="addr:state" v="VT"/>
    <tag k="ref:vcgi:esiteid" v="285694"/>
  </node>
  <node id="-172" visible="true" lat="44.58712768" lon="-72.09175872">
    <tag k="addr:housenumber" v="161"/>
    <tag k="addr:street" v="Vertical Mile Road"/>
    <tag k="addr:state" v="VT"/>
    <tag k="ref:vcgi:esiteid" v="285696"/>
  </node>
  <node id="-173" visible="true" lat="44.58678576" lon="-72.12030794">
    <tag k="addr:housenumber" v="6"/>
    <tag k="addr:street" v="Morgan Road West"/>
    <tag k="addr:state" v="VT"/>
    <tag k="ref:vcgi:esiteid" v="285697"/>
  </node>
  <node id="-181" visible="true" lat="44.58438491" lon="-72.13363647">
    <tag k="addr:housenumber" v="1205"/>
    <tag k="addr:street" v="Allard Hill Road"/>
    <tag k="addr:state" v="VT"/>
    <tag k="ref:vcgi:esiteid" v="285706"/>
  </node>
  <node id="-182" visible="true" lat="44.58394406" lon="-72.09408649">
    <tag k="addr:housenumber" v="517"/>
    <tag k="addr:street" v="Vertical Mile Road"/>
    <tag k="addr:state" v="VT"/>
    <tag k="ref:vcgi:esiteid" v="285707"/>
  </node>
  <node id="-186" visible="true" lat="44.58329391" lon="-72.1307373">
    <tag k="addr:housenumber" v="1361"/>
    <tag k="addr:street" v="Allard Hill Road"/>
    <tag k="addr:state" v="VT"/>
    <tag k="ref:vcgi:esiteid" v="285711"/>
  </node>
  <node id="-188" visible="true" lat="44.58227494" lon="-72.07222725">
    <tag k="addr:housenumber" v="470"/>
    <tag k="addr:street" v="Vermont Route 122"/>
    <tag k="addr:state" v="VT"/>
    <tag k="ref:vcgi:esiteid" v="285713"/>
  </node>
  <node id="-191" visible="true" lat="44.58186721" lon="-72.13288116">
    <tag k="addr:housenumber" v="1384"/>
    <tag k="addr:street" v="Allard Hill Road"/>
    <tag k="addr:state" v="VT"/>
    <tag k="ref:vcgi:esiteid" v="285716"/>
  </node>
  <node id="-194" visible="true" lat="44.58094406" lon="-72.0965805">
    <tag k="addr:housenumber" v="47"/>
    <tag k="addr:street" v="Morgan Road East"/>
    <tag k="addr:state" v="VT"/>
    <tag k="ref:vcgi:esiteid" v="285719"/>
  </node>
  <node id="-195" visible="true" lat="44.58083725" lon="-72.09954833">
    <tag k="addr:housenumber" v="200"/>
    <tag k="addr:street" v="Morgan Road East"/>
    <tag k="addr:state" v="VT"/>
    <tag k="ref:vcgi:esiteid" v="285720"/>
  </node>
  <node id="-204" visible="true" lat="44.57948303" lon="-72.10275268">
    <tag k="addr:housenumber" v="303"/>
    <tag k="addr:street" v="Morgan Road East"/>
    <tag k="addr:state" v="VT"/>
    <tag k="ref:vcgi:esiteid" v="285729"/>
  </node>
  <node id="-205" visible="true" lat="44.5785942" lon="-72.11016082">
    <tag k="addr:housenumber" v="739"/>
    <tag k="addr:street" v="Morgan Road East"/>
    <tag k="addr:state" v="VT"/>
    <tag k="ref:vcgi:esiteid" v="285730"/>
  </node>
  <node id="-209" visible="true" lat="44.57672881" lon="-72.13391876">
    <tag k="addr:housenumber" v="1750"/>
    <tag k="addr:street" v="Allard Hill Road"/>
    <tag k="addr:state" v="VT"/>
    <tag k="ref:vcgi:esiteid" v="285734"/>
  </node>
  <node id="-213" visible="true" lat="44.5758171" lon="-72.13488006">
    <tag k="addr:housenumber" v="1832"/>
    <tag k="addr:street" v="Allard Hill Road"/>
    <tag k="addr:state" v="VT"/>
    <tag k="ref:vcgi:esiteid" v="285739"/>
  </node>
  <node id="-215" visible="true" lat="44.57486862" lon="-72.13304236">
    <tag k="addr:housenumber" v="1736"/>
    <tag k="addr:street" v="Ramsey Road"/>
    <tag k="addr:state" v="VT"/>
    <tag k="ref:vcgi:esiteid" v="285741"/>
  </node>
  <node id="-221" visible="true" lat="44.57329559" lon="-72.12791442">
    <tag k="addr:housenumber" v="1444"/>
    <tag k="addr:street" v="Ramsey Road"/>
    <tag k="addr:state" v="VT"/>
    <tag k="ref:vcgi:esiteid" v="285747"/>
  </node>
  <node id="-230" visible="true" lat="44.57031249" lon="-72.10024261">
    <tag k="addr:housenumber" v="1514"/>
    <tag k="addr:street" v="Vertical Mile Road"/>
    <tag k="addr:state" v="VT"/>
    <tag k="ref:vcgi:esiteid" v="285756"/>
  </node>
  <node id="-234" visible="true" lat="44.56846535" lon="-72.10269048">
    <tag k="addr:housenumber" v="1714"/>
    <tag k="addr:street" v="Vertical Mile Road"/>
    <tag k="addr:state" v="VT"/>
    <tag k="ref:vcgi:esiteid" v="285760"/>
  </node>
  <node id="-236" visible="true" lat="44.56611364" lon="-72.10225261">
    <tag k="addr:housenumber" v="1798"/>
    <tag k="addr:street" v="Vertical Mile Road"/>
    <tag k="addr:state" v="VT"/>
    <tag k="ref:vcgi:esiteid" v="285763"/>
  </node>
  <node id="-240" visible="true" lat="44.55894851" lon="-72.09454345">
    <tag k="addr:housenumber" v="228"/>
    <tag k="addr:street" v="John Rock Road"/>
    <tag k="addr:state" v="VT"/>
    <tag k="ref:vcgi:esiteid" v="285767"/>
  </node>
  <node id="-241" visible="true" lat="44.55826568" lon="-72.09724426">
    <tag k="addr:housenumber" v="333"/>
    <tag k="addr:street" v="John Rock Road"/>
    <tag k="addr:state" v="VT"/>
    <tag k="ref:vcgi:esiteid" v="285768"/>
  </node>
  <node id="-242" visible="true" lat="44.55816268" lon="-72.09602355">
    <tag k="addr:housenumber" v="297"/>
    <tag k="addr:street" v="John Rock Road"/>
    <tag k="addr:state" v="VT"/>
    <tag k="ref:vcgi:esiteid" v="285769"/>
  </node>
  <node id="-243" visible="true" lat="44.55812454" lon="-72.09499359">
    <tag k="addr:housenumber" v="229"/>
    <tag k="addr:street" v="John Rock Road"/>
    <tag k="addr:state" v="VT"/>
    <tag k="ref:vcgi:esiteid" v="285770"/>
  </node>
  <node id="-244" visible="true" lat="44.55711746" lon="-72.0936737">
    <tag k="addr:housenumber" v="115"/>
    <tag k="addr:street" v="John Rock Road"/>
    <tag k="addr:state" v="VT"/>
    <tag k="ref:vcgi:esiteid" v="285771"/>
  </node>
  <node id="-250" visible="true" lat="44.55529403" lon="-72.09233093">
    <tag k="addr:housenumber" v="2424"/>
    <tag k="addr:street" v="Peak Road"/>
    <tag k="addr:state" v="VT"/>
    <tag k="ref:vcgi:esiteid" v="285777"/>
  </node>
  <node id="-263" visible="true" lat="44.54962019" lon="-72.10963971">
    <tag k="addr:housenumber" v="52"/>
    <tag k="addr:street" v="Minister Hill Road"/>
    <tag k="addr:state" v="VT"/>
    <tag k="ref:vcgi:esiteid" v="285791"/>
  </node>
  <node id="-265" visible="true" lat="44.54937323" lon="-72.09380108">
    <tag k="addr:housenumber" v="85"/>
    <tag k="addr:street" v="Ballfield Drive"/>
    <tag k="addr:state" v="VT"/>
    <tag k="ref:vcgi:esiteid" v="285793"/>
  </node>
  <node id="-268" visible="true" lat="44.54854965" lon="-72.1103363">
    <tag k="addr:housenumber" v="24"/>
    <tag k="addr:street" v="Jills Hill Road"/>
    <tag k="addr:state" v="VT"/>
    <tag k="ref:vcgi:esiteid" v="285796"/>
  </node>
  <node id="-269" visible="true" lat="44.54849957" lon="-72.12272199">
    <tag k="addr:housenumber" v="6882"/>
    <tag k="addr:street" v="South Wheelock Road"/>
    <tag k="addr:state" v="VT"/>
    <tag k="ref:vcgi:esiteid" v="285797"/>
  </node>
  <node id="-270" visible="true" lat="44.54838384" lon="-72.09352835">
    <tag k="addr:housenumber" v="6"/>
    <tag k="addr:street" v="Ballfield Drive"/>
    <tag k="addr:state" v="VT"/>
    <tag k="ref:vcgi:esiteid" v="285798"/>
  </node>
  <node id="-271" visible="true" lat="44.54824969" lon="-72.09242136">
    <tag k="addr:housenumber" v="5196"/>
    <tag k="addr:street" v="South Wheelock Road"/>
    <tag k="addr:state" v="VT"/>
    <tag k="ref:vcgi:esiteid" v="285799"/>
  </node>
  <node id="-272" visible="true" lat="44.54733176" lon="-72.13666489">
    <tag k="addr:housenumber" v="183"/>
    <tag k="addr:street" v="Sherburne Road"/>
    <tag k="addr:state" v="VT"/>
    <tag k="ref:vcgi:esiteid" v="285800"/>
  </node>
  <node id="-275" visible="true" lat="44.54587679" lon="-72.13564421">
    <tag k="addr:housenumber" v="70"/>
    <tag k="addr:street" v="Stannard Mountain Road"/>
    <tag k="addr:state" v="VT"/>
    <tag k="ref:vcgi:esiteid" v="285803"/>
  </node>
  <node id="-276" visible="true" lat="44.5459263" lon="-72.11991747">
    <tag k="addr:housenumber" v="76"/>
    <tag k="addr:street" v="Leroux Road"/>
    <tag k="addr:state" v="VT"/>
    <tag k="ref:vcgi:esiteid" v="285804"/>
  </node>
  <node id="-277" visible="true" lat="44.54565811" lon="-72.13656616">
    <tag k="addr:housenumber" v="122"/>
    <tag k="addr:street" v="Stannard Mountain Road"/>
    <tag k="addr:state" v="VT"/>
    <tag k="ref:vcgi:esiteid" v="285806"/>
  </node>
  <node id="-279" visible="true" lat="44.54511763" lon="-72.13406369">
    <tag k="addr:housenumber" v="109"/>
    <tag k="addr:street" v="Blakely Road"/>
    <tag k="addr:state" v="VT"/>
    <tag k="ref:vcgi:esiteid" v="285808"/>
  </node>
  <node id="-280" visible="true" lat="44.54523036" lon="-72.14107356">
    <tag k="addr:housenumber" v="386"/>
    <tag k="addr:street" v="Stannard Mountain Road"/>
    <tag k="addr:state" v="VT"/>
    <tag k="ref:vcgi:esiteid" v="285809"/>
  </node>
  <node id="-281" visible="true" lat="44.54513108" lon="-72.13873601">
    <tag k="addr:housenumber" v="246"/>
    <tag k="addr:street" v="Stannard Mountain Road"/>
    <tag k="addr:state" v="VT"/>
    <tag k="ref:vcgi:esiteid" v="285810"/>
  </node>
  <node id="-283" visible="true" lat="44.5440979" lon="-72.14150238">
    <tag k="addr:housenumber" v="381"/>
    <tag k="addr:street" v="Stannard Mountain Road"/>
    <tag k="addr:state" v="VT"/>
    <tag k="ref:vcgi:esiteid" v="285812"/>
  </node>
  <node id="-300" visible="true" lat="44.53810464" lon="-72.08964798">
    <tag k="addr:housenumber" v="528"/>
    <tag k="addr:street" v="Burroughs Road"/>
    <tag k="addr:state" v="VT"/>
    <tag k="ref:vcgi:esiteid" v="285829"/>
  </node>
  <node id="-306" visible="true" lat="44.53689179" lon="-72.08887829">
    <tag k="addr:housenumber" v="587"/>
    <tag k="addr:street" v="Burroughs Road"/>
    <tag k="addr:state" v="VT"/>
    <tag k="ref:vcgi:esiteid" v="285835"/>
  </node>
  <node id="-308" visible="true" lat="44.53609716" lon="-72.08947967">
    <tag k="addr:housenumber" v="2620"/>
    <tag k="addr:street" v="Cold Hill Road"/>
    <tag k="addr:state" v="VT"/>
    <tag k="ref:vcgi:esiteid" v="285837"/>
  </node>
  <node id="-313" visible="true" lat="44.53186035" lon="-72.08943176">
    <tag k="addr:housenumber" v="921"/>
    <tag k="addr:street" v="Burroughs Road"/>
    <tag k="addr:state" v="VT"/>
    <tag k="ref:vcgi:esiteid" v="285842"/>
  </node>
  <node id="-315" visible="true" lat="44.53160095" lon="-72.09137725">
    <tag k="addr:housenumber" v="981"/>
    <tag k="addr:street" v="Burroughs Road"/>
    <tag k="addr:state" v="VT"/>
    <tag k="ref:vcgi:esiteid" v="285844"/>
  </node>
  <node id="-319" visible="true" lat="44.52975424" lon="-72.09026162">
    <tag k="addr:housenumber" v="1073"/>
    <tag k="addr:street" v="Burroughs Road"/>
    <tag k="addr:state" v="VT"/>
    <tag k="ref:vcgi:esiteid" v="285848"/>
  </node>
  <node id="-321" visible="true" lat="44.52950286" lon="-72.09131622">
    <tag k="addr:housenumber" v="1155"/>
    <tag k="addr:street" v="Burroughs Road"/>
    <tag k="addr:state" v="VT"/>
    <tag k="ref:vcgi:esiteid" v="285850"/>
  </node>
  <node id="-322" visible="true" lat="44.52893066" lon="-72.09223175">
    <tag k="addr:housenumber" v="1241"/>
    <tag k="addr:street" v="Burroughs Road"/>
    <tag k="addr:state" v="VT"/>
    <tag k="ref:vcgi:esiteid" v="285851"/>
  </node>
  <node id="-323" visible="true" lat="44.52810669" lon="-72.09644317">
    <tag k="addr:housenumber" v="257"/>
    <tag k="addr:street" v="Coral Drive"/>
    <tag k="addr:state" v="VT"/>
    <tag k="ref:vcgi:esiteid" v="285852"/>
  </node>
  <node id="-324" visible="true" lat="44.52779388" lon="-72.09415435">
    <tag k="addr:housenumber" v="1295"/>
    <tag k="addr:street" v="Burroughs Road"/>
    <tag k="addr:state" v="VT"/>
    <tag k="ref:vcgi:esiteid" v="285853"/>
  </node>
  <node id="-325" visible="true" lat="44.5237503" lon="-72.0928955">
    <tag k="addr:housenumber" v="1589"/>
    <tag k="addr:street" v="Burroughs Road"/>
    <tag k="addr:state" v="VT"/>
    <tag k="ref:vcgi:esiteid" v="285854"/>
  </node>
  <node id="-331" visible="true" lat="44.593015" lon="-72.11870646">
    <tag k="addr:housenumber" v="552"/>
    <tag k="addr:street" v="Chesley Hill Road"/>
    <tag k="addr:state" v="VT"/>
    <tag k="ref:vcgi:esiteid" v="285863"/>
  </node>
  <node id="-334" visible="true" lat="44.58454373" lon="-72.14131151">
    <tag k="addr:housenumber" v="399"/>
    <tag k="addr:street" v="Hubbard Hill Road"/>
    <tag k="addr:state" v="VT"/>
    <tag k="ref:vcgi:esiteid" v="285866"/>
  </node>
  <node id="-335" visible="true" lat="44.5827696" lon="-72.13356236">
    <tag k="addr:housenumber" v="1280"/>
    <tag k="addr:street" v="Allard Hill Road"/>
    <tag k="addr:state" v="VT"/>
    <tag k="ref:vcgi:esiteid" v="285867"/>
  </node>
  <node id="-336" visible="true" lat="44.58232278" lon="-72.10439626">
    <tag k="addr:housenumber" v="420"/>
    <tag k="addr:street" v="Morgan Road East"/>
    <tag k="addr:state" v="VT"/>
    <tag k="ref:vcgi:esiteid" v="285868"/>
  </node>
  <node id="-337" visible="true" lat="44.57226079" lon="-72.13020842">
    <tag k="addr:housenumber" v="1453"/>
    <tag k="addr:street" v="Ramsey Road"/>
    <tag k="addr:state" v="VT"/>
    <tag k="ref:vcgi:esiteid" v="285869"/>
  </node>
  <node id="-339" visible="true" lat="44.57569921" lon="-72.12603579">
    <tag k="addr:housenumber" v="226"/>
    <tag k="addr:street" v="Blodgett Road"/>
    <tag k="addr:state" v="VT"/>
    <tag k="ref:vcgi:esiteid" v="285871"/>
  </node>
  <node id="-340" visible="true" lat="44.57466338" lon="-72.12646171">
    <tag k="addr:housenumber" v="230"/>
    <tag k="addr:street" v="Blodgett Road"/>
    <tag k="addr:state" v="VT"/>
    <tag k="ref:vcgi:esiteid" v="285872"/>
  </node>
  <node id="-341" visible="true" lat="44.57349993" lon="-72.12288792">
    <tag k="addr:housenumber" v="1164"/>
    <tag k="addr:street" v="Ramsey Road"/>
    <tag k="addr:state" v="VT"/>
    <tag k="ref:vcgi:esiteid" v="285873"/>
  </node>
  <node id="-342" visible="true" lat="44.57173712" lon="-72.1145865">
    <tag k="addr:housenumber" v="741"/>
    <tag k="addr:street" v="Ramsey Road"/>
    <tag k="addr:state" v="VT"/>
    <tag k="ref:vcgi:esiteid" v="285874"/>
  </node>
  <node id="-343" visible="true" lat="44.57050323" lon="-72.11211395">
    <tag k="addr:housenumber" v="583"/>
    <tag k="addr:street" v="Ramsey Road"/>
    <tag k="addr:state" v="VT"/>
    <tag k="ref:vcgi:esiteid" v="285875"/>
  </node>
  <node id="-344" visible="true" lat="44.570283" lon="-72.1023096">
    <tag k="addr:housenumber" v="121"/>
    <tag k="addr:street" v="Ramsey Road"/>
    <tag k="addr:state" v="VT"/>
    <tag k="ref:vcgi:esiteid" v="285876"/>
  </node>
  <node id="-345" visible="true" lat="44.57750889" lon="-72.09848784">
    <tag k="addr:housenumber" v="1040"/>
    <tag k="addr:street" v="Vertical Mile Road"/>
    <tag k="addr:state" v="VT"/>
    <tag k="ref:vcgi:esiteid" v="285877"/>
  </node>
  <node id="-346" visible="true" lat="44.56379189" lon="-72.09984558">
    <tag k="addr:housenumber" v="1959"/>
    <tag k="addr:street" v="Vertical Mile Road"/>
    <tag k="addr:state" v="VT"/>
    <tag k="ref:vcgi:esiteid" v="285879"/>
  </node>
  <node id="-353" visible="true" lat="44.59677678" lon="-72.06345608">
    <tag k="addr:housenumber" v="1255"/>
    <tag k="addr:street" v="Sutton Road"/>
    <tag k="addr:state" v="VT"/>
    <tag k="ref:vcgi:esiteid" v="285887"/>
  </node>
  <node id="-355" visible="true" lat="44.5326657" lon="-72.085519">
    <tag k="addr:housenumber" v="2301"/>
    <tag k="addr:street" v="Cold Hill Road"/>
    <tag k="addr:state" v="VT"/>
    <tag k="ref:vcgi:esiteid" v="285889"/>
  </node>
  <node id="-356" visible="true" lat="44.54835659" lon="-72.10561048">
    <tag k="addr:housenumber" v="5904"/>
    <tag k="addr:street" v="South Wheelock Road"/>
    <tag k="addr:state" v="VT"/>
    <tag k="ref:vcgi:esiteid" v="285890"/>
  </node>
  <node id="-360" visible="true" lat="44.54679473" lon="-72.1072333">
    <tag k="addr:housenumber" v="115"/>
    <tag k="addr:street" v="Jills Hill Road"/>
    <tag k="addr:state" v="VT"/>
    <tag k="ref:vcgi:esiteid" v="285894"/>
  </node>
  <node id="-363" visible="true" lat="44.54635471" lon="-72.10910917">
    <tag k="addr:housenumber" v="181"/>
    <tag k="addr:street" v="Jills Hill Road"/>
    <tag k="addr:state" v="VT"/>
    <tag k="ref:vcgi:esiteid" v="285897"/>
  </node>
  <node id="-364" visible="true" lat="44.54945167" lon="-72.10099989">
    <tag k="addr:housenumber" v="5628"/>
    <tag k="addr:street" v="South Wheelock Road"/>
    <tag k="addr:state" v="VT"/>
    <tag k="ref:vcgi:esiteid" v="285898"/>
  </node>
  <node id="-365" visible="true" lat="44.53239111" lon="-72.08475902">
    <tag k="addr:housenumber" v="2265"/>
    <tag k="addr:street" v="Cold Hill Road"/>
    <tag k="addr:state" v="VT"/>
    <tag k="ref:vcgi:esiteid" v="285899"/>
  </node>
  <node id="-366" visible="true" lat="44.57701439" lon="-72.10006431">
    <tag k="addr:housenumber" v="1128"/>
    <tag k="addr:street" v="Vertical Mile Road"/>
    <tag k="addr:state" v="VT"/>
    <tag k="ref:vcgi:esiteid" v="285900"/>
  </node>
  <node id="-371" visible="true" lat="44.54661559" lon="-72.13200378">
    <tag k="addr:housenumber" v="65"/>
    <tag k="addr:street" v="Wolf Den Road"/>
    <tag k="addr:state" v="VT"/>
    <tag k="ref:vcgi:esiteid" v="285905"/>
  </node>
  <node id="-378" visible="true" lat="44.59479141" lon="-72.07759094">
    <tag k="addr:housenumber" v="454"/>
    <tag k="addr:street" v="Aldrich Lane"/>
    <tag k="addr:state" v="VT"/>
    <tag k="ref:vcgi:esiteid" v="285912"/>
  </node>
  <node id="-379" visible="true" lat="44.5946312" lon="-72.07284095">
    <tag k="addr:housenumber" v="264"/>
    <tag k="addr:street" v="Aldrich Lane"/>
    <tag k="addr:state" v="VT"/>
    <tag k="ref:vcgi:esiteid" v="285913"/>
  </node>
  <node id="-380" visible="true" lat="44.59363937" lon="-72.0698471">
    <tag k="addr:housenumber" v="12"/>
    <tag k="addr:street" v="Aldrich Lane"/>
    <tag k="addr:state" v="VT"/>
    <tag k="ref:vcgi:esiteid" v="285914"/>
  </node>
  <node id="-381" visible="true" lat="44.59366226" lon="-72.07644653">
    <tag k="addr:housenumber" v="337"/>
    <tag k="addr:street" v="Aldrich Lane"/>
    <tag k="addr:state" v="VT"/>
    <tag k="ref:vcgi:esiteid" v="285915"/>
  </node>
  <node id="-382" visible="true" lat="44.59318898" lon="-72.07530221">
    <tag k="addr:housenumber" v="303"/>
    <tag k="addr:street" v="Aldrich Lane"/>
    <tag k="addr:state" v="VT"/>
    <tag k="ref:vcgi:esiteid" v="285916"/>
  </node>
  <node id="-383" visible="true" lat="44.59201812" lon="-72.07269287">
    <tag k="addr:housenumber" v="139"/>
    <tag k="addr:street" v="Aldrich Lane"/>
    <tag k="addr:state" v="VT"/>
    <tag k="ref:vcgi:esiteid" v="285917"/>
  </node>
  <node id="-388" visible="true" lat="44.58209991" lon="-72.13044738">
    <tag k="addr:housenumber" v="1363"/>
    <tag k="addr:street" v="Allard Hill Road"/>
    <tag k="addr:state" v="VT"/>
    <tag k="ref:vcgi:esiteid" v="285922"/>
  </node>
  <node id="-401" visible="true" lat="44.54933306" lon="-72.1117109">
    <tag k="addr:housenumber" v="6216"/>
    <tag k="addr:street" v="South Wheelock Road"/>
    <tag k="addr:state" v="VT"/>
    <tag k="ref:vcgi:esiteid" v="285935"/>
  </node>
  <node id="-402" visible="true" lat="44.54910112" lon="-72.09824538">
    <tag k="addr:housenumber" v="5492"/>
    <tag k="addr:street" v="South Wheelock Road"/>
    <tag k="addr:state" v="VT"/>
    <tag k="ref:vcgi:esiteid" v="285936"/>
  </node>
  <node id="-403" visible="true" lat="44.54872432" lon="-72.09605636">
    <tag k="addr:housenumber" v="5390"/>
    <tag k="addr:street" v="South Wheelock Road"/>
    <tag k="addr:state" v="VT"/>
    <tag k="ref:vcgi:esiteid" v="285937"/>
  </node>
  <node id="-404" visible="true" lat="44.54852294" lon="-72.10205078">
    <tag k="addr:housenumber" v="5698"/>
    <tag k="addr:street" v="South Wheelock Road"/>
    <tag k="addr:state" v="VT"/>
    <tag k="ref:vcgi:esiteid" v="285938"/>
  </node>
  <node id="-405" visible="true" lat="44.54846954" lon="-72.09991455">
    <tag k="addr:housenumber" v="5589"/>
    <tag k="addr:street" v="South Wheelock Road"/>
    <tag k="addr:state" v="VT"/>
    <tag k="ref:vcgi:esiteid" v="285939"/>
  </node>
  <node id="-406" visible="true" lat="44.54830169" lon="-72.10219574">
    <tag k="addr:housenumber" v="5700"/>
    <tag k="addr:street" v="South Wheelock Road"/>
    <tag k="addr:state" v="VT"/>
    <tag k="ref:vcgi:esiteid" v="285940"/>
  </node>
  <node id="-407" visible="true" lat="44.54829738" lon="-72.11476782">
    <tag k="addr:housenumber" v="6391"/>
    <tag k="addr:street" v="South Wheelock Road"/>
    <tag k="addr:state" v="VT"/>
    <tag k="ref:vcgi:esiteid" v="285941"/>
  </node>
  <node id="-408" visible="true" lat="44.54825973" lon="-72.11392974">
    <tag k="addr:housenumber" v="6301"/>
    <tag k="addr:street" v="South Wheelock Road"/>
    <tag k="addr:state" v="VT"/>
    <tag k="ref:vcgi:esiteid" v="285942"/>
  </node>
  <node id="-409" visible="true" lat="44.54809951" lon="-72.10189056">
    <tag k="addr:housenumber" v="5697"/>
    <tag k="addr:street" v="South Wheelock Road"/>
    <tag k="addr:state" v="VT"/>
    <tag k="ref:vcgi:esiteid" v="285943"/>
  </node>
  <node id="-410" visible="true" lat="44.54737194" lon="-72.10474541">
    <tag k="addr:housenumber" v="5853"/>
    <tag k="addr:street" v="South Wheelock Road"/>
    <tag k="addr:state" v="VT"/>
    <tag k="ref:vcgi:esiteid" v="285944"/>
  </node>
  <node id="-411" visible="true" lat="44.54760151" lon="-72.09614269">
    <tag k="addr:housenumber" v="5391"/>
    <tag k="addr:street" v="South Wheelock Road"/>
    <tag k="addr:state" v="VT"/>
    <tag k="ref:vcgi:esiteid" v="285945"/>
  </node>
  <node id="-412" visible="true" lat="44.54717122" lon="-72.10366794">
    <tag k="addr:housenumber" v="5789"/>
    <tag k="addr:street" v="South Wheelock Road"/>
    <tag k="addr:state" v="VT"/>
    <tag k="ref:vcgi:esiteid" v="285946"/>
  </node>
  <node id="-413" visible="true" lat="44.54680329" lon="-72.08951139">
    <tag k="addr:housenumber" v="5042"/>
    <tag k="addr:street" v="South Wheelock Road"/>
    <tag k="addr:state" v="VT"/>
    <tag k="ref:vcgi:esiteid" v="285947"/>
  </node>
  <node id="-414" visible="true" lat="44.54679489" lon="-72.12412262">
    <tag k="addr:housenumber" v="6893"/>
    <tag k="addr:street" v="South Wheelock Road"/>
    <tag k="addr:state" v="VT"/>
    <tag k="ref:vcgi:esiteid" v="285948"/>
  </node>
  <node id="-415" visible="true" lat="44.54615482" lon="-72.08962044">
    <tag k="addr:housenumber" v="5019"/>
    <tag k="addr:street" v="South Wheelock Road"/>
    <tag k="addr:state" v="VT"/>
    <tag k="ref:vcgi:esiteid" v="285949"/>
  </node>
  <node id="-416" visible="true" lat="44.54602324" lon="-72.08937527">
    <tag k="addr:housenumber" v="5009"/>
    <tag k="addr:street" v="South Wheelock Road"/>
    <tag k="addr:state" v="VT"/>
    <tag k="ref:vcgi:esiteid" v="285950"/>
  </node>
  <node id="-417" visible="true" lat="44.54629647" lon="-72.13145592">
    <tag k="addr:housenumber" v="58"/>
    <tag k="addr:street" v="Wolf Den Road"/>
    <tag k="addr:state" v="VT"/>
    <tag k="ref:vcgi:esiteid" v="285951"/>
  </node>
  <node id="-418" visible="true" lat="44.5460968" lon="-72.08846283">
    <tag k="addr:housenumber" v="4972"/>
    <tag k="addr:street" v="South Wheelock Road"/>
    <tag k="addr:state" v="VT"/>
    <tag k="ref:vcgi:esiteid" v="285952"/>
  </node>
  <node id="-419" visible="true" lat="44.54588733" lon="-72.08902851">
    <tag k="addr:housenumber" v="4993"/>
    <tag k="addr:street" v="South Wheelock Road"/>
    <tag k="addr:state" v="VT"/>
    <tag k="ref:vcgi:esiteid" v="285953"/>
  </node>
  <node id="-420" visible="true" lat="44.54591751" lon="-72.08795166">
    <tag k="addr:housenumber" v="4944"/>
    <tag k="addr:street" v="South Wheelock Road"/>
    <tag k="addr:state" v="VT"/>
    <tag k="ref:vcgi:esiteid" v="285954"/>
  </node>
  <node id="-421" visible="true" lat="44.54569462" lon="-72.13100746">
    <tag k="addr:housenumber" v="7258"/>
    <tag k="addr:street" v="South Wheelock Road"/>
    <tag k="addr:state" v="VT"/>
    <tag k="ref:vcgi:esiteid" v="285955"/>
  </node>
  <node id="-422" visible="true" lat="44.5455513" lon="-72.12884521">
    <tag k="addr:housenumber" v="7142"/>
    <tag k="addr:street" v="South Wheelock Road"/>
    <tag k="addr:state" v="VT"/>
    <tag k="ref:vcgi:esiteid" v="285956"/>
  </node>
  <node id="-423" visible="true" lat="44.5452309" lon="-72.08739074">
    <tag k="addr:housenumber" v="4905"/>
    <tag k="addr:street" v="South Wheelock Road"/>
    <tag k="addr:state" v="VT"/>
    <tag k="ref:vcgi:esiteid" v="285957"/>
  </node>
  <node id="-424" visible="true" lat="44.5454863" lon="-72.12994427">
    <tag k="addr:housenumber" v="7206"/>
    <tag k="addr:street" v="South Wheelock Road"/>
    <tag k="addr:state" v="VT"/>
    <tag k="ref:vcgi:esiteid" v="285958"/>
  </node>
  <node id="-425" visible="true" lat="44.54546219" lon="-72.12935927">
    <tag k="addr:housenumber" v="7166"/>
    <tag k="addr:street" v="South Wheelock Road"/>
    <tag k="addr:state" v="VT"/>
    <tag k="ref:vcgi:esiteid" v="285959"/>
  </node>
  <node id="-426" visible="true" lat="44.54524612" lon="-72.08621215">
    <tag k="addr:housenumber" v="4848"/>
    <tag k="addr:street" v="South Wheelock Road"/>
    <tag k="addr:state" v="VT"/>
    <tag k="ref:vcgi:esiteid" v="285960"/>
  </node>
  <node id="-427" visible="true" lat="44.54526676" lon="-72.12850106">
    <tag k="addr:housenumber" v="7123"/>
    <tag k="addr:street" v="South Wheelock Road"/>
    <tag k="addr:state" v="VT"/>
    <tag k="ref:vcgi:esiteid" v="285961"/>
  </node>
  <node id="-428" visible="true" lat="44.54462051" lon="-72.08415222">
    <tag k="addr:housenumber" v="4716"/>
    <tag k="addr:street" v="South Wheelock Road"/>
    <tag k="addr:state" v="VT"/>
    <tag k="ref:vcgi:esiteid" v="285962"/>
  </node>
  <node id="-429" visible="true" lat="44.54430007" lon="-72.08564758">
    <tag k="addr:housenumber" v="4781"/>
    <tag k="addr:street" v="South Wheelock Road"/>
    <tag k="addr:state" v="VT"/>
    <tag k="ref:vcgi:esiteid" v="285963"/>
  </node>
  <node id="-430" visible="true" lat="44.5411911" lon="-72.08036804">
    <tag k="addr:housenumber" v="4380"/>
    <tag k="addr:street" v="South Wheelock Road"/>
    <tag k="addr:state" v="VT"/>
    <tag k="ref:vcgi:esiteid" v="285964"/>
  </node>
  <node id="-431" visible="true" lat="44.54051589" lon="-72.07749176">
    <tag k="addr:housenumber" v="4258"/>
    <tag k="addr:street" v="South Wheelock Road"/>
    <tag k="addr:state" v="VT"/>
    <tag k="ref:vcgi:esiteid" v="285965"/>
  </node>
  <node id="-432" visible="true" lat="44.5407662" lon="-72.08344109">
    <tag k="addr:housenumber" v="4511"/>
    <tag k="addr:street" v="South Wheelock Road"/>
    <tag k="addr:state" v="VT"/>
    <tag k="ref:vcgi:esiteid" v="285966"/>
  </node>
  <node id="-433" visible="true" lat="44.53963979" lon="-72.09392907">
    <tag k="addr:housenumber" v="326"/>
    <tag k="addr:street" v="Chandler Pond Road"/>
    <tag k="addr:state" v="VT"/>
    <tag k="ref:vcgi:esiteid" v="285967"/>
  </node>
  <node id="-434" visible="true" lat="44.53917165" lon="-72.07658686">
    <tag k="addr:housenumber" v="4228"/>
    <tag k="addr:street" v="South Wheelock Road"/>
    <tag k="addr:state" v="VT"/>
    <tag k="ref:vcgi:esiteid" v="285968"/>
  </node>
  <node id="-435" visible="true" lat="44.53552153" lon="-72.0884594">
    <tag k="addr:housenumber" v="2558"/>
    <tag k="addr:street" v="Cold Hill Road"/>
    <tag k="addr:state" v="VT"/>
    <tag k="ref:vcgi:esiteid" v="285969"/>
  </node>
  <node id="-436" visible="true" lat="44.53492905" lon="-72.08757323">
    <tag k="addr:housenumber" v="2522"/>
    <tag k="addr:street" v="Cold Hill Road"/>
    <tag k="addr:state" v="VT"/>
    <tag k="ref:vcgi:esiteid" v="285970"/>
  </node>
  <node id="-437" visible="true" lat="44.53419103" lon="-72.08645272">
    <tag k="addr:housenumber" v="2420"/>
    <tag k="addr:street" v="Cold Hill Road"/>
    <tag k="addr:state" v="VT"/>
    <tag k="ref:vcgi:esiteid" v="285971"/>
  </node>
  <node id="-438" visible="true" lat="44.53333355" lon="-72.08534895">
    <tag k="addr:housenumber" v="2348"/>
    <tag k="addr:street" v="Cold Hill Road"/>
    <tag k="addr:state" v="VT"/>
    <tag k="ref:vcgi:esiteid" v="285972"/>
  </node>
  <node id="-439" visible="true" lat="44.53124375" lon="-72.08209255">
    <tag k="addr:housenumber" v="2124"/>
    <tag k="addr:street" v="Cold Hill Road"/>
    <tag k="addr:state" v="VT"/>
    <tag k="ref:vcgi:esiteid" v="285973"/>
  </node>
  <node id="-440" visible="true" lat="44.53052469" lon="-72.07889635">
    <tag k="addr:housenumber" v="1946"/>
    <tag k="addr:street" v="Cold Hill Road"/>
    <tag k="addr:state" v="VT"/>
    <tag k="ref:vcgi:esiteid" v="285974"/>
  </node>
  <node id="-441" visible="true" lat="44.53036514" lon="-72.08245214">
    <tag k="addr:housenumber" v="2149"/>
    <tag k="addr:street" v="Cold Hill Road"/>
    <tag k="addr:state" v="VT"/>
    <tag k="ref:vcgi:esiteid" v="285975"/>
  </node>
  <node id="-442" visible="true" lat="44.59297943" lon="-72.07216644">
    <tag k="addr:housenumber" v="154"/>
    <tag k="addr:street" v="Aldrich Lane"/>
    <tag k="addr:state" v="VT"/>
    <tag k="ref:vcgi:esiteid" v="285976"/>
  </node>
  <node id="-444" visible="true" lat="44.57401616" lon="-72.12098058">
    <tag k="addr:housenumber" v="1098"/>
    <tag k="addr:street" v="Ramsey Road"/>
    <tag k="addr:state" v="VT"/>
    <tag k="ref:vcgi:esiteid" v="285978"/>
  </node>
  <node id="-449" visible="true" lat="44.53451776" lon="-72.08726441">
    <tag k="addr:housenumber" v="2440"/>
    <tag k="addr:street" v="Cold Hill Road"/>
    <tag k="addr:state" v="VT"/>
    <tag k="ref:vcgi:esiteid" v="285983"/>
  </node>
  <node id="-450" visible="true" lat="44.57479617" lon="-72.09895433">
    <tag k="addr:housenumber" v="1180"/>
    <tag k="addr:street" v="Vertical Mile Road"/>
    <tag k="addr:state" v="VT"/>
    <tag k="ref:vcgi:esiteid" v="285984"/>
  </node>
  <node id="-452" visible="true" lat="44.54384526" lon="-72.08636498">
    <tag k="addr:housenumber" v="107"/>
    <tag k="addr:street" v="Leach Lane"/>
    <tag k="addr:state" v="VT"/>
    <tag k="ref:vcgi:esiteid" v="285986"/>
  </node>
  <node id="-454" visible="true" lat="44.54659518" lon="-72.11825648">
    <tag k="addr:housenumber" v="6575"/>
    <tag k="addr:street" v="South Wheelock Road"/>
    <tag k="addr:state" v="VT"/>
    <tag k="ref:vcgi:esiteid" v="285988"/>
  </node>
  <node id="-455" visible="true" lat="44.54678876" lon="-72.13388919">
    <tag k="addr:housenumber" v="42"/>
    <tag k="addr:street" v="Sherburne Road"/>
    <tag k="addr:state" v="VT"/>
    <tag k="ref:vcgi:esiteid" v="285989"/>
  </node>
  <node id="-458" visible="true" lat="44.59743486" lon="-72.07926371">
    <tag k="addr:housenumber" v="660"/>
    <tag k="addr:street" v="Aldrich Lane"/>
    <tag k="addr:state" v="VT"/>
    <tag k="ref:vcgi:esiteid" v="285992"/>
  </node>
  <node id="-461" visible="true" lat="44.54942259" lon="-72.11741197">
    <tag k="addr:housenumber" v="6220"/>
    <tag k="addr:street" v="South Wheelock Road"/>
    <tag k="addr:state" v="VT"/>
    <tag k="ref:vcgi:esiteid" v="285995"/>
  </node>
  <node id="-464" visible="true" lat="44.59695134" lon="-72.06251749">
    <tag k="addr:housenumber" v="1309"/>
    <tag k="addr:street" v="Sutton Road"/>
    <tag k="addr:state" v="VT"/>
    <tag k="ref:vcgi:esiteid" v="285998"/>
  </node>
  <node id="-474" visible="true" lat="44.53521621" lon="-72.08811711">
    <tag k="addr:housenumber" v="2524"/>
    <tag k="addr:street" v="Cold Hill Road"/>
    <tag k="addr:state" v="VT"/>
    <tag k="ref:vcgi:esiteid" v="286008"/>
  </node>
  <node id="-476" visible="true" lat="44.57806429" lon="-72.10772053">
    <tag k="addr:housenumber" v="625"/>
    <tag k="addr:street" v="Morgan Road East"/>
    <tag k="addr:state" v="VT"/>
    <tag k="ref:vcgi:esiteid" v="286011"/>
  </node>
  <node id="-480" visible="true" lat="44.5819275" lon="-72.09300441">
    <tag k="addr:housenumber" v="615"/>
    <tag k="addr:street" v="Vertical Mile Road"/>
    <tag k="addr:state" v="VT"/>
    <tag k="ref:vcgi:esiteid" v="286015"/>
  </node>
  <node id="-482" visible="true" lat="44.54764076" lon="-72.09100645">
    <tag k="addr:housenumber" v="5170"/>
    <tag k="addr:street" v="South Wheelock Road"/>
    <tag k="addr:state" v="VT"/>
    <tag k="ref:vcgi:esiteid" v="286017"/>
  </node>
  <node id="-485" visible="true" lat="44.58354373" lon="-72.11095634">
    <tag k="addr:housenumber" v="1049"/>
    <tag k="addr:street" v="Morgan Road East"/>
    <tag k="addr:state" v="VT"/>
    <tag k="ref:vcgi:esiteid" v="286020"/>
  </node>
  <node id="-487" visible="true" lat="44.58750071" lon="-72.09047787">
    <tag k="addr:housenumber" v="79"/>
    <tag k="addr:street" v="Vertical Mile Road"/>
    <tag k="addr:state" v="VT"/>
    <tag k="ref:vcgi:esiteid" v="286022"/>
  </node>
  <node id="-493" visible="true" lat="44.58424307" lon="-72.09687672">
    <tag k="addr:housenumber" v="522"/>
    <tag k="addr:street" v="Vertical Mile Road"/>
    <tag k="addr:state" v="VT"/>
    <tag k="ref:vcgi:esiteid" v="286028"/>
  </node>
  <node id="-501" visible="true" lat="44.54366008" lon="-72.14333429">
    <tag k="addr:housenumber" v="477"/>
    <tag k="addr:street" v="Stannard Mountain Road"/>
    <tag k="addr:state" v="VT"/>
    <tag k="ref:vcgi:esiteid" v="286036"/>
  </node>
  <node id="-506" visible="true" lat="44.53089513" lon="-72.08037539">
    <tag k="addr:housenumber" v="2002"/>
    <tag k="addr:street" v="Cold Hill Road"/>
    <tag k="addr:state" v="VT"/>
    <tag k="ref:vcgi:esiteid" v="286041"/>
  </node>
  <node id="-507" visible="true" lat="44.54546598" lon="-72.08812972">
    <tag k="addr:housenumber" v="4945"/>
    <tag k="addr:street" v="South Wheelock Road"/>
    <tag k="addr:state" v="VT"/>
    <tag k="ref:vcgi:esiteid" v="286042"/>
  </node>
  <node id="-508" visible="true" lat="44.5954285" lon="-72.07390425">
    <tag k="addr:housenumber" v="268"/>
    <tag k="addr:street" v="Aldrich Lane"/>
    <tag k="addr:state" v="VT"/>
    <tag k="ref:vcgi:esiteid" v="286043"/>
  </node>
  <node id="-509" visible="true" lat="44.59273482" lon="-72.07388266">
    <tag k="addr:housenumber" v="223"/>
    <tag k="addr:street" v="Aldrich Lane"/>
    <tag k="addr:state" v="VT"/>
    <tag k="ref:vcgi:esiteid" v="286044"/>
  </node>
  <node id="-510" visible="true" lat="44.54710303" lon="-72.13554649">
    <tag k="addr:housenumber" v="128"/>
    <tag k="addr:street" v="Sherburne Road"/>
    <tag k="addr:state" v="VT"/>
    <tag k="ref:vcgi:esiteid" v="286045"/>
  </node>
  <node id="-512" visible="true" lat="44.5887605" lon="-72.12072142">
    <tag k="addr:housenumber" v="1256"/>
    <tag k="addr:street" v="Chesley Hill Road"/>
    <tag k="addr:state" v="VT"/>
    <tag k="ref:vcgi:esiteid" v="286047"/>
  </node>
  <node id="-521" visible="true" lat="44.59658085" lon="-72.07924952">
    <tag k="addr:housenumber" v="600"/>
    <tag k="addr:street" v="Aldrich Lane"/>
    <tag k="addr:state" v="VT"/>
    <tag k="ref:vcgi:esiteid" v="286057"/>
  </node>
  <node id="-522" visible="true" lat="44.59431777" lon="-72.06679266">
    <tag k="addr:housenumber" v="1005"/>
    <tag k="addr:street" v="Sutton Road"/>
    <tag k="addr:state" v="VT"/>
    <tag k="ref:vcgi:esiteid" v="286058"/>
  </node>
  <node id="-523" visible="true" lat="44.59589943" lon="-72.06470021">
    <tag k="addr:housenumber" v="1157"/>
    <tag k="addr:street" v="Sutton Road"/>
    <tag k="addr:state" v="VT"/>
    <tag k="ref:vcgi:esiteid" v="286059"/>
  </node>
  <node id="-526" visible="true" lat="44.54431753" lon="-72.08706177">
    <tag k="addr:housenumber" v="45"/>
    <tag k="addr:street" v="Leach Lane"/>
    <tag k="addr:state" v="VT"/>
    <tag k="ref:vcgi:esiteid" v="286064"/>
  </node>
  <node id="-527" visible="true" lat="44.54182455" lon="-72.14386062">
    <tag k="addr:housenumber" v="641"/>
    <tag k="addr:street" v="Stannard Mountain Road"/>
    <tag k="addr:state" v="VT"/>
    <tag k="ref:vcgi:esiteid" v="306854"/>
  </node>
  <node id="-529" visible="true" lat="44.54087772" lon="-72.07890499">
    <tag k="addr:housenumber" v="4350"/>
    <tag k="addr:street" v="South Wheelock Road"/>
    <tag k="addr:state" v="VT"/>
    <tag k="ref:vcgi:esiteid" v="306856"/>
  </node>
  <node id="-530" visible="true" lat="44.54811542" lon="-72.10965116">
    <tag k="addr:housenumber" v="45"/>
    <tag k="addr:street" v="Jills Hill Road"/>
    <tag k="addr:state" v="VT"/>
    <tag k="ref:vcgi:esiteid" v="306858"/>
  </node>
  <node id="-532" visible="true" lat="44.54080172" lon="-72.14415218">
    <tag k="addr:housenumber" v="647"/>
    <tag k="addr:street" v="Stannard Mountain Road"/>
    <tag k="addr:state" v="VT"/>
    <tag k="ref:vcgi:esiteid" v="310759"/>
  </node>
  <node id="-533" visible="true" lat="44.5835162" lon="-72.11061977">
    <tag k="addr:housenumber" v="1047"/>
    <tag k="addr:street" v="Morgan Road East"/>
    <tag k="addr:state" v="VT"/>
    <tag k="ref:vcgi:esiteid" v="310760"/>
  </node>
  <node id="-534" visible="true" lat="44.57249735" lon="-72.11908232">
    <tag k="addr:housenumber" v="961"/>
    <tag k="addr:street" v="Ramsey Road"/>
    <tag k="addr:state" v="VT"/>
    <tag k="ref:vcgi:esiteid" v="310761"/>
  </node>
  <node id="-540" visible="true" lat="44.53079027" lon="-72.08459075">
    <tag k="addr:housenumber" v="76"/>
    <tag k="addr:street" v="Derricks Drive"/>
    <tag k="addr:state" v="VT"/>
    <tag k="ref:vcgi:esiteid" v="313796"/>
  </node>
  <node id="-542" visible="true" lat="44.53195867" lon="-72.0899306">
    <tag k="addr:housenumber" v="917"/>
    <tag k="addr:street" v="Burroughs Road"/>
    <tag k="addr:state" v="VT"/>
    <tag k="ref:vcgi:esiteid" v="316906"/>
  </node>
  <node id="-547" visible="true" lat="44.54577181" lon="-72.13210282">
    <tag k="addr:housenumber" v="7300"/>
    <tag k="addr:street" v="South Wheelock Road"/>
    <tag k="addr:state" v="VT"/>
    <tag k="ref:vcgi:esiteid" v="328257"/>
  </node>
  <node id="-549" visible="true" lat="44.54798775" lon="-72.11052865">
    <tag k="addr:housenumber" v="52"/>
    <tag k="addr:street" v="Jills Hill Road"/>
    <tag k="addr:state" v="VT"/>
    <tag k="ref:vcgi:esiteid" v="328736"/>
  </node>
  <node id="-552" visible="true" lat="44.58020925" lon="-72.09948717">
    <tag k="addr:housenumber" v="211"/>
    <tag k="addr:street" v="Morgan Road East"/>
    <tag k="addr:state" v="VT"/>
    <tag k="ref:vcgi:esiteid" v="332922"/>
  </node>
  <node id="-553" visible="true" lat="44.55913568" lon="-72.08757772">
    <tag k="addr:housenumber" v="2183"/>
    <tag k="addr:street" v="Peak Road"/>
    <tag k="addr:state" v="VT"/>
    <tag k="ref:vcgi:esiteid" v="332923"/>
  </node>
  <node id="-557" visible="true" lat="44.6032938" lon="-72.05986883">
    <tag k="addr:housenumber" v="1717"/>
    <tag k="addr:street" v="Sutton Road"/>
    <tag k="addr:state" v="VT"/>
    <tag k="ref:vcgi:esiteid" v="338940"/>
  </node>
  <node id="-563" visible="true" lat="44.56810802" lon="-72.10278873">
    <tag k="addr:housenumber" v="1716"/>
    <tag k="addr:street" v="Vertical Mile Road"/>
    <tag k="addr:state" v="VT"/>
    <tag k="ref:vcgi:esiteid" v="340090"/>
  </node>
  <node id="-565" visible="true" lat="44.58414521" lon="-72.10927298">
    <tag k="addr:housenumber" v="1090"/>
    <tag k="addr:street" v="Morgan Road East"/>
    <tag k="addr:state" v="VT"/>
    <tag k="ref:vcgi:esiteid" v="340873"/>
  </node>
  <node id="-566" visible="true" lat="44.55966703" lon="-72.08902258">
    <tag k="addr:housenumber" v="2045"/>
    <tag k="addr:street" v="Peak Road"/>
    <tag k="addr:state" v="VT"/>
    <tag k="ref:vcgi:esiteid" v="341274"/>
  </node>
  <node id="-577" visible="true" lat="44.57583974" lon="-72.10942054">
    <tag k="addr:housenumber" v="173"/>
    <tag k="addr:street" v="Folsom Road"/>
    <tag k="addr:state" v="VT"/>
    <tag k="ref:vcgi:esiteid" v="343970"/>
  </node>
  <node id="-578" visible="true" lat="44.54774083" lon="-72.09638155">
    <tag k="addr:housenumber" v="5393"/>
    <tag k="addr:street" v="South Wheelock Road"/>
    <tag k="addr:state" v="VT"/>
    <tag k="ref:vcgi:esiteid" v="344345"/>
  </node>
  <node id="-579" visible="true" lat="44.59424115" lon="-72.13151404">
    <tag k="addr:housenumber" v="455"/>
    <tag k="addr:street" v="Allard Hill Road"/>
    <tag k="addr:state" v="VT"/>
    <tag k="ref:vcgi:esiteid" v="344365"/>
  </node>
  <node id="-592" visible="true" lat="44.57996298" lon="-72.10106362">
    <tag k="addr:housenumber" v="267"/>
    <tag k="addr:street" v="Morgan Road East"/>
    <tag k="addr:state" v="VT"/>
    <tag k="ref:vcgi:esiteid" v="345459"/>
  </node>
  <node id="-595" visible="true" lat="44.55117925" lon="-72.19328838">
    <tag k="addr:housenumber" v="3098"/>
    <tag k="addr:street" v="Stannard Mountain Road"/>
    <tag k="addr:state" v="VT"/>
    <tag k="ref:vcgi:esiteid" v="365429"/>
  </node>
  <node id="-598" visible="true" lat="44.57574704" lon="-72.1334558">
    <tag k="addr:housenumber" v="1749"/>
    <tag k="addr:street" v="Allard Hill Road"/>
    <tag k="addr:state" v="VT"/>
    <tag k="ref:vcgi:esiteid" v="446531"/>
  </node>
  <node id="-601" visible="true" lat="44.54582617" lon="-72.1337415">
    <tag k="addr:housenumber" v="31"/>
    <tag k="addr:street" v="Blakely Road"/>
    <tag k="addr:state" v="VT"/>
    <tag k="ref:vcgi:esiteid" v="447929"/>
  </node>
  <node id="-604" visible="true" lat="44.57207129" lon="-72.09741114">
    <tag k="addr:housenumber" v="1319"/>
    <tag k="addr:street" v="Vertical Mile Road"/>
    <tag k="addr:state" v="VT"/>
    <tag k="ref:vcgi:esiteid" v="448348"/>
  </node>
  <node id="-605" visible="true" lat="44.57138449" lon="-72.10016399">
    <tag k="addr:housenumber" v="1428"/>
    <tag k="addr:street" v="Vertical Mile Road"/>
    <tag k="addr:state" v="VT"/>
    <tag k="ref:vcgi:esiteid" v="448349"/>
  </node>
  <node id="-626" visible="true" lat="44.58677806" lon="-72.13707562">
    <tag k="addr:housenumber" v="1088"/>
    <tag k="addr:street" v="Allard Hill Road"/>
    <tag k="addr:state" v="VT"/>
    <tag k="ref:vcgi:esiteid" v="454540"/>
  </node>
  <node id="-627" visible="true" lat="44.5853944" lon="-72.13622539">
    <tag k="addr:housenumber" v="1126"/>
    <tag k="addr:street" v="Allard Hill Road"/>
    <tag k="addr:state" v="VT"/>
    <tag k="ref:vcgi:esiteid" v="454541"/>
  </node>
  <node id="-630" visible="true" lat="44.56351449" lon="-72.11404143">
    <tag k="addr:housenumber" v="801"/>
    <tag k="addr:street" v="Red Schoolhouse Road"/>
    <tag k="addr:state" v="VT"/>
    <tag k="ref:vcgi:esiteid" v="454627"/>
  </node>
  <node id="-631" visible="true" lat="44.57324769" lon="-72.10009644">
    <tag k="addr:housenumber" v="1426"/>
    <tag k="addr:street" v="Vertical Mile Road"/>
    <tag k="addr:state" v="VT"/>
    <tag k="ref:vcgi:esiteid" v="611129"/>
  </node>
  <node id="-643" visible="true" lat="44.59092003" lon="-72.08943239">
    <tag k="addr:housenumber" v="182"/>
    <tag k="addr:street" v="Sulfur Spring Road"/>
    <tag k="addr:state" v="VT"/>
    <tag k="ref:vcgi:esiteid" v="754041"/>
  </node>
</osm>
