<?xml version="1.0" encoding="UTF-8"?>
<osm version="0.6" generator="JOSM">
  <node id="-100" visible="true" lat="44.52115408" lon="-72.14199586">
    <!-- offset: "501 Horne Road, , VT" Significant offset - 297.5m -->
    <tag k="addr:housenumber" v="501"/>
    <tag k="addr:street" v="Horne Road"/>
    <tag k="addr:state" v="VT"/>
    <tag k="ref:vcgi:esiteid" v="12"/>
  </node>
  <node id="-613" visible="true" lat="44.6011804" lon="-72.05928293">
    <!-- offset: "1640 Sutton Road, , VT" Significant offset - 123.6m -->
    <tag k="addr:housenumber" v="1640"/>
    <tag k="addr:street" v="Sutton Road"/>
    <tag k="addr:state" v="VT"/>
    <tag k="ref:vcgi:esiteid" v="452461"/>
  </node>
  <node id="-634" visible="true" lat="44.56291569" lon="-72.21521572">
    <!-- offset: "34 Flagg Pond Road, , VT" Significant offset - 126.3m -->
    <tag k="addr:housenumber" v="34"/>
    <tag k="addr:street" v="Flagg Pond Road"/>
    <tag k="addr:state" v="VT"/>
    <tag k="ref:vcgi:esiteid" v="611663"/>
  </node>
</osm>
