<?xml version="1.0" encoding="UTF-8"?>
<osm version="0.6" generator="JOSM">
  <node id="-105" visible="true" lat="42.743202" lon="-72.8074752">
    <tag k="addr:housenumber" v="1523"/>
    <tag k="addr:street" v="McMillan Road"/>
    <tag k="addr:state" v="VT"/>
    <tag k="ref:vcgi:esiteid" v="118237"/>
  </node>
  <node id="-109" visible="true" lat="42.8254212" lon="-72.82116246">
    <tag k="addr:housenumber" v="1290"/>
    <tag k="addr:street" v="Parsons Road"/>
    <tag k="addr:state" v="VT"/>
    <tag k="ref:vcgi:esiteid" v="286245"/>
  </node>
  <node id="-110" visible="true" lat="42.82543194" lon="-72.82245258">
    <tag k="addr:housenumber" v="1323"/>
    <tag k="addr:street" v="Parsons Road"/>
    <tag k="addr:state" v="VT"/>
    <tag k="ref:vcgi:esiteid" v="286246"/>
  </node>
  <node id="-113" visible="true" lat="42.82508033" lon="-72.82335766">
    <tag k="addr:housenumber" v="1275"/>
    <tag k="addr:street" v="Parsons Road"/>
    <tag k="addr:state" v="VT"/>
    <tag k="ref:vcgi:esiteid" v="286249"/>
  </node>
  <node id="-121" visible="true" lat="42.82403142" lon="-72.82293148">
    <tag k="addr:housenumber" v="1235"/>
    <tag k="addr:street" v="Parsons Road"/>
    <tag k="addr:state" v="VT"/>
    <tag k="ref:vcgi:esiteid" v="286257"/>
  </node>
  <node id="-123" visible="true" lat="42.82355719" lon="-72.88378503">
    <tag k="addr:housenumber" v="2329"/>
    <tag k="addr:street" v="Faulkner Road"/>
    <tag k="addr:state" v="VT"/>
    <tag k="ref:vcgi:esiteid" v="286259"/>
  </node>
  <node id="-124" visible="true" lat="42.82344177" lon="-72.88030935">
    <tag k="addr:housenumber" v="2316"/>
    <tag k="addr:street" v="Faulkner Road"/>
    <tag k="addr:state" v="VT"/>
    <tag k="ref:vcgi:esiteid" v="286260"/>
  </node>
  <node id="-127" visible="true" lat="42.8230241" lon="-72.81515532">
    <tag k="addr:housenumber" v="114"/>
    <tag k="addr:street" v="Hamilton Tavern Road"/>
    <tag k="addr:state" v="VT"/>
    <tag k="ref:vcgi:esiteid" v="286263"/>
  </node>
  <node id="-128" visible="true" lat="42.82268664" lon="-72.88505024">
    <tag k="addr:housenumber" v="32"/>
    <tag k="addr:street" v="Ick Road"/>
    <tag k="addr:state" v="VT"/>
    <tag k="ref:vcgi:esiteid" v="286264"/>
  </node>
  <node id="-129" visible="true" lat="42.82246156" lon="-72.88731687">
    <tag k="addr:housenumber" v="204"/>
    <tag k="addr:street" v="Ick Road"/>
    <tag k="addr:state" v="VT"/>
    <tag k="ref:vcgi:esiteid" v="286265"/>
  </node>
  <node id="-130" visible="true" lat="42.82206623" lon="-72.8579411">
    <tag k="addr:housenumber" v="472"/>
    <tag k="addr:street" v="Vermont Route 100"/>
    <tag k="addr:state" v="VT"/>
    <tag k="ref:vcgi:esiteid" v="286266"/>
  </node>
  <node id="-132" visible="true" lat="42.82192955" lon="-72.85803946">
    <tag k="addr:housenumber" v="478"/>
    <tag k="addr:street" v="Vermont Route 100"/>
    <tag k="addr:state" v="VT"/>
    <tag k="ref:vcgi:esiteid" v="286268"/>
  </node>
  <node id="-134" visible="true" lat="42.82141092" lon="-72.81394319">
    <tag k="addr:housenumber" v="438"/>
    <tag k="addr:street" v="Lake Hill Road"/>
    <tag k="addr:state" v="VT"/>
    <tag k="ref:vcgi:esiteid" v="286270"/>
  </node>
  <node id="-139" visible="true" lat="42.82058294" lon="-72.85643679">
    <tag k="addr:housenumber" v="610"/>
    <tag k="addr:street" v="Vermont Route 100"/>
    <tag k="addr:state" v="VT"/>
    <tag k="ref:vcgi:esiteid" v="286275"/>
  </node>
  <node id="-142" visible="true" lat="42.82022281" lon="-72.89164508">
    <tag k="addr:housenumber" v="413"/>
    <tag k="addr:street" v="Ick Road"/>
    <tag k="addr:state" v="VT"/>
    <tag k="ref:vcgi:esiteid" v="286278"/>
  </node>
  <node id="-143" visible="true" lat="42.82030641" lon="-72.88772791">
    <tag k="addr:housenumber" v="211"/>
    <tag k="addr:street" v="Ick Road"/>
    <tag k="addr:state" v="VT"/>
    <tag k="ref:vcgi:esiteid" v="286279"/>
  </node>
  <node id="-152" visible="true" lat="42.81827686" lon="-72.84528684">
    <tag k="addr:housenumber" v="268"/>
    <tag k="addr:street" v="North Ryder Pond Road"/>
    <tag k="addr:state" v="VT"/>
    <tag k="ref:vcgi:esiteid" v="286288"/>
  </node>
  <node id="-153" visible="true" lat="42.81819356" lon="-72.81535359">
    <tag k="addr:housenumber" v="378"/>
    <tag k="addr:street" v="Laurel Lake Road"/>
    <tag k="addr:state" v="VT"/>
    <tag k="ref:vcgi:esiteid" v="286289"/>
  </node>
  <node id="-154" visible="true" lat="42.81801867" lon="-72.81858211">
    <tag k="addr:housenumber" v="508"/>
    <tag k="addr:street" v="Laurel Lake Road"/>
    <tag k="addr:state" v="VT"/>
    <tag k="ref:vcgi:esiteid" v="286290"/>
  </node>
  <node id="-155" visible="true" lat="42.81812192" lon="-72.81719244">
    <tag k="addr:housenumber" v="466"/>
    <tag k="addr:street" v="Laurel Lake Road"/>
    <tag k="addr:state" v="VT"/>
    <tag k="ref:vcgi:esiteid" v="286291"/>
  </node>
  <node id="-156" visible="true" lat="42.81803237" lon="-72.81755177">
    <tag k="addr:housenumber" v="486"/>
    <tag k="addr:street" v="Laurel Lake Road"/>
    <tag k="addr:state" v="VT"/>
    <tag k="ref:vcgi:esiteid" v="286292"/>
  </node>
  <node id="-157" visible="true" lat="42.81794094" lon="-72.81785072">
    <tag k="addr:housenumber" v="500"/>
    <tag k="addr:street" v="Laurel Lake Road"/>
    <tag k="addr:state" v="VT"/>
    <tag k="ref:vcgi:esiteid" v="286293"/>
  </node>
  <node id="-159" visible="true" lat="42.8178944" lon="-72.81818812">
    <tag k="addr:housenumber" v="506"/>
    <tag k="addr:street" v="Laurel Lake Road"/>
    <tag k="addr:state" v="VT"/>
    <tag k="ref:vcgi:esiteid" v="286295"/>
  </node>
  <node id="-163" visible="true" lat="42.81752698" lon="-72.81612859">
    <tag k="addr:housenumber" v="399"/>
    <tag k="addr:street" v="Laurel Lake Road"/>
    <tag k="addr:state" v="VT"/>
    <tag k="ref:vcgi:esiteid" v="286299"/>
  </node>
  <node id="-164" visible="true" lat="42.81728179" lon="-72.84696813">
    <tag k="addr:housenumber" v="169"/>
    <tag k="addr:street" v="North Ryder Pond Road"/>
    <tag k="addr:state" v="VT"/>
    <tag k="ref:vcgi:esiteid" v="286300"/>
  </node>
  <node id="-165" visible="true" lat="42.81694325" lon="-72.85102281">
    <tag k="addr:housenumber" v="990"/>
    <tag k="addr:street" v="Vermont Route 100"/>
    <tag k="addr:state" v="VT"/>
    <tag k="ref:vcgi:esiteid" v="286301"/>
  </node>
  <node id="-166" visible="true" lat="42.8168663" lon="-72.81030437">
    <tag k="addr:housenumber" v="31"/>
    <tag k="addr:street" v="Lake Hill Road"/>
    <tag k="addr:state" v="VT"/>
    <tag k="ref:vcgi:esiteid" v="286302"/>
  </node>
  <node id="-167" visible="true" lat="42.81671536" lon="-72.84013751">
    <tag k="addr:housenumber" v="416"/>
    <tag k="addr:street" v="South Ryder Pond Road"/>
    <tag k="addr:state" v="VT"/>
    <tag k="ref:vcgi:esiteid" v="286303"/>
  </node>
  <node id="-169" visible="true" lat="42.81669706" lon="-72.80897097">
    <tag k="addr:housenumber" v="22"/>
    <tag k="addr:street" v="Lake Hill Road"/>
    <tag k="addr:state" v="VT"/>
    <tag k="ref:vcgi:esiteid" v="286305"/>
  </node>
  <node id="-170" visible="true" lat="42.81648281" lon="-72.88060934">
    <tag k="addr:housenumber" v="1793"/>
    <tag k="addr:street" v="Faulkner Road"/>
    <tag k="addr:state" v="VT"/>
    <tag k="ref:vcgi:esiteid" v="286306"/>
  </node>
  <node id="-172" visible="true" lat="42.81643568" lon="-72.80522021">
    <tag k="addr:housenumber" v="1873"/>
    <tag k="addr:street" v="Gates Pond Road"/>
    <tag k="addr:state" v="VT"/>
    <tag k="ref:vcgi:esiteid" v="286308"/>
  </node>
  <node id="-174" visible="true" lat="42.81619993" lon="-72.8037993">
    <tag k="addr:housenumber" v="1920"/>
    <tag k="addr:street" v="Gates Pond Road"/>
    <tag k="addr:state" v="VT"/>
    <tag k="ref:vcgi:esiteid" v="286310"/>
  </node>
  <node id="-175" visible="true" lat="42.81609012" lon="-72.84150695">
    <tag k="addr:housenumber" v="411"/>
    <tag k="addr:street" v="South Ryder Pond Road"/>
    <tag k="addr:state" v="VT"/>
    <tag k="ref:vcgi:esiteid" v="286311"/>
  </node>
  <node id="-177" visible="true" lat="42.81574727" lon="-72.87757623">
    <tag k="addr:housenumber" v="163"/>
    <tag k="addr:street" v="East Road"/>
    <tag k="addr:state" v="VT"/>
    <tag k="ref:vcgi:esiteid" v="286313"/>
  </node>
  <node id="-178" visible="true" lat="42.81549434" lon="-72.84145219">
    <tag k="addr:housenumber" v="373"/>
    <tag k="addr:street" v="South Ryder Pond Road"/>
    <tag k="addr:state" v="VT"/>
    <tag k="ref:vcgi:esiteid" v="286314"/>
  </node>
  <node id="-179" visible="true" lat="42.81570947" lon="-72.84048129">
    <tag k="addr:housenumber" v="374"/>
    <tag k="addr:street" v="South Ryder Pond Road"/>
    <tag k="addr:state" v="VT"/>
    <tag k="ref:vcgi:esiteid" v="286315"/>
  </node>
  <node id="-180" visible="true" lat="42.81577192" lon="-72.80869764">
    <tag k="addr:housenumber" v="1694"/>
    <tag k="addr:street" v="Gates Pond Road"/>
    <tag k="addr:state" v="VT"/>
    <tag k="ref:vcgi:esiteid" v="286316"/>
  </node>
  <node id="-181" visible="true" lat="42.81567388" lon="-72.80530156">
    <tag k="addr:housenumber" v="1846"/>
    <tag k="addr:street" v="Gates Pond Road"/>
    <tag k="addr:state" v="VT"/>
    <tag k="ref:vcgi:esiteid" v="286317"/>
  </node>
  <node id="-182" visible="true" lat="42.81513826" lon="-72.84009287">
    <tag k="addr:housenumber" v="320"/>
    <tag k="addr:street" v="South Ryder Pond Road"/>
    <tag k="addr:state" v="VT"/>
    <tag k="ref:vcgi:esiteid" v="286318"/>
  </node>
  <node id="-183" visible="true" lat="42.81499836" lon="-72.84126842">
    <tag k="addr:housenumber" v="299"/>
    <tag k="addr:street" v="South Ryder Pond Road"/>
    <tag k="addr:state" v="VT"/>
    <tag k="ref:vcgi:esiteid" v="286319"/>
  </node>
  <node id="-184" visible="true" lat="42.81494783" lon="-72.87320894">
    <tag k="addr:housenumber" v="443"/>
    <tag k="addr:street" v="East Road"/>
    <tag k="addr:state" v="VT"/>
    <tag k="ref:vcgi:esiteid" v="286320"/>
  </node>
  <node id="-185" visible="true" lat="42.81471621" lon="-72.87552207">
    <tag k="addr:housenumber" v="266"/>
    <tag k="addr:street" v="East Road"/>
    <tag k="addr:state" v="VT"/>
    <tag k="ref:vcgi:esiteid" v="286321"/>
  </node>
  <node id="-186" visible="true" lat="42.8144415" lon="-72.84195814">
    <tag k="addr:housenumber" v="265"/>
    <tag k="addr:street" v="South Ryder Pond Road"/>
    <tag k="addr:state" v="VT"/>
    <tag k="ref:vcgi:esiteid" v="286322"/>
  </node>
  <node id="-188" visible="true" lat="42.81448026" lon="-72.80583782">
    <tag k="addr:housenumber" v="2686"/>
    <tag k="addr:street" v="Collins Road"/>
    <tag k="addr:state" v="VT"/>
    <tag k="ref:vcgi:esiteid" v="286324"/>
  </node>
  <node id="-189" visible="true" lat="42.81379564" lon="-72.872113">
    <tag k="addr:housenumber" v="446"/>
    <tag k="addr:street" v="East Road"/>
    <tag k="addr:state" v="VT"/>
    <tag k="ref:vcgi:esiteid" v="286325"/>
  </node>
  <node id="-190" visible="true" lat="42.81376921" lon="-72.85146149">
    <tag k="addr:housenumber" v="1683"/>
    <tag k="addr:street" v="Wilmington Cross Road"/>
    <tag k="addr:state" v="VT"/>
    <tag k="ref:vcgi:esiteid" v="286326"/>
  </node>
  <node id="-191" visible="true" lat="42.81352254" lon="-72.84941613">
    <tag k="addr:housenumber" v="167"/>
    <tag k="addr:street" v="Murdock Lane"/>
    <tag k="addr:state" v="VT"/>
    <tag k="ref:vcgi:esiteid" v="286327"/>
  </node>
  <node id="-192" visible="true" lat="42.81333914" lon="-72.84009344">
    <tag k="addr:housenumber" v="226"/>
    <tag k="addr:street" v="South Ryder Pond Road"/>
    <tag k="addr:state" v="VT"/>
    <tag k="ref:vcgi:esiteid" v="286328"/>
  </node>
  <node id="-193" visible="true" lat="42.81321127" lon="-72.81503658">
    <tag k="addr:housenumber" v="64"/>
    <tag k="addr:street" v="Laurel Lake Road"/>
    <tag k="addr:state" v="VT"/>
    <tag k="ref:vcgi:esiteid" v="286329"/>
  </node>
  <node id="-194" visible="true" lat="42.81303054" lon="-72.8493572">
    <tag k="addr:housenumber" v="137"/>
    <tag k="addr:street" v="Murdock Lane"/>
    <tag k="addr:state" v="VT"/>
    <tag k="ref:vcgi:esiteid" v="286330"/>
  </node>
  <node id="-196" visible="true" lat="42.81291444" lon="-72.84791786">
    <tag k="addr:housenumber" v="102"/>
    <tag k="addr:street" v="Murdock Lane"/>
    <tag k="addr:state" v="VT"/>
    <tag k="ref:vcgi:esiteid" v="286332"/>
  </node>
  <node id="-197" visible="true" lat="42.81302295" lon="-72.80560732">
    <tag k="addr:housenumber" v="2579"/>
    <tag k="addr:street" v="Collins Road"/>
    <tag k="addr:state" v="VT"/>
    <tag k="ref:vcgi:esiteid" v="286333"/>
  </node>
  <node id="-198" visible="true" lat="42.81278781" lon="-72.84519729">
    <tag k="addr:housenumber" v="1912"/>
    <tag k="addr:street" v="Wilmington Cross Road"/>
    <tag k="addr:state" v="VT"/>
    <tag k="ref:vcgi:esiteid" v="286334"/>
  </node>
  <node id="-199" visible="true" lat="42.8127939" lon="-72.8414741">
    <tag k="addr:housenumber" v="93"/>
    <tag k="addr:street" v="South Ryder Pond Road"/>
    <tag k="addr:state" v="VT"/>
    <tag k="ref:vcgi:esiteid" v="286335"/>
  </node>
  <node id="-201" visible="true" lat="42.81212414" lon="-72.84649811">
    <tag k="addr:housenumber" v="1871"/>
    <tag k="addr:street" v="Wilmington Cross Road"/>
    <tag k="addr:state" v="VT"/>
    <tag k="ref:vcgi:esiteid" v="286337"/>
  </node>
  <node id="-202" visible="true" lat="42.81183401" lon="-72.84062132">
    <tag k="addr:housenumber" v="140"/>
    <tag k="addr:street" v="South Ryder Pond Road"/>
    <tag k="addr:state" v="VT"/>
    <tag k="ref:vcgi:esiteid" v="286338"/>
  </node>
  <node id="-203" visible="true" lat="42.81186492" lon="-72.84726904">
    <tag k="addr:housenumber" v="18"/>
    <tag k="addr:street" v="Murdock Lane"/>
    <tag k="addr:state" v="VT"/>
    <tag k="ref:vcgi:esiteid" v="286339"/>
  </node>
  <node id="-204" visible="true" lat="42.81181492" lon="-72.83947181">
    <tag k="addr:housenumber" v="274"/>
    <tag k="addr:street" v="Birdville Road"/>
    <tag k="addr:state" v="VT"/>
    <tag k="ref:vcgi:esiteid" v="286340"/>
  </node>
  <node id="-205" visible="true" lat="42.81167752" lon="-72.83837111">
    <tag k="addr:housenumber" v="214"/>
    <tag k="addr:street" v="Birdville Road"/>
    <tag k="addr:state" v="VT"/>
    <tag k="ref:vcgi:esiteid" v="286341"/>
  </node>
  <node id="-207" visible="true" lat="42.8115365" lon="-72.84935306">
    <tag k="addr:housenumber" v="1713"/>
    <tag k="addr:street" v="Wilmington Cross Road"/>
    <tag k="addr:state" v="VT"/>
    <tag k="ref:vcgi:esiteid" v="286343"/>
  </node>
  <node id="-208" visible="true" lat="42.81137544" lon="-72.83983761">
    <tag k="addr:housenumber" v="271"/>
    <tag k="addr:street" v="Birdville Road"/>
    <tag k="addr:state" v="VT"/>
    <tag k="ref:vcgi:esiteid" v="286344"/>
  </node>
  <node id="-209" visible="true" lat="42.81142619" lon="-72.80452908">
    <tag k="addr:housenumber" v="2465"/>
    <tag k="addr:street" v="Collins Road"/>
    <tag k="addr:state" v="VT"/>
    <tag k="ref:vcgi:esiteid" v="286345"/>
  </node>
  <node id="-211" visible="true" lat="42.81130992" lon="-72.84695684">
    <tag k="addr:housenumber" v="1846"/>
    <tag k="addr:street" v="Wilmington Cross Road"/>
    <tag k="addr:state" v="VT"/>
    <tag k="ref:vcgi:esiteid" v="286347"/>
  </node>
  <node id="-212" visible="true" lat="42.81115902" lon="-72.83754539">
    <tag k="addr:housenumber" v="174"/>
    <tag k="addr:street" v="Birdville Road"/>
    <tag k="addr:state" v="VT"/>
    <tag k="ref:vcgi:esiteid" v="286348"/>
  </node>
  <node id="-214" visible="true" lat="42.81084595" lon="-72.83800979">
    <tag k="addr:housenumber" v="153"/>
    <tag k="addr:street" v="Birdville Road"/>
    <tag k="addr:state" v="VT"/>
    <tag k="ref:vcgi:esiteid" v="286350"/>
  </node>
  <node id="-215" visible="true" lat="42.81079643" lon="-72.836336">
    <tag k="addr:housenumber" v="120"/>
    <tag k="addr:street" v="Birdville Road"/>
    <tag k="addr:state" v="VT"/>
    <tag k="ref:vcgi:esiteid" v="286351"/>
  </node>
  <node id="-216" visible="true" lat="42.81060795" lon="-72.84235611">
    <tag k="addr:housenumber" v="1608"/>
    <tag k="addr:street" v="Vermont Route 100"/>
    <tag k="addr:state" v="VT"/>
    <tag k="ref:vcgi:esiteid" v="286352"/>
  </node>
  <node id="-217" visible="true" lat="42.81043142" lon="-72.8483498">
    <tag k="addr:housenumber" v="1754"/>
    <tag k="addr:street" v="Wilmington Cross Road"/>
    <tag k="addr:state" v="VT"/>
    <tag k="ref:vcgi:esiteid" v="286353"/>
  </node>
  <node id="-218" visible="true" lat="42.81062502" lon="-72.84169901">
    <tag k="addr:housenumber" v="1631"/>
    <tag k="addr:street" v="Vermont Route 100"/>
    <tag k="addr:state" v="VT"/>
    <tag k="ref:vcgi:esiteid" v="286354"/>
  </node>
  <node id="-219" visible="true" lat="42.8106515" lon="-72.85072901">
    <tag k="addr:housenumber" v="1621"/>
    <tag k="addr:street" v="Wilmington Cross Road"/>
    <tag k="addr:state" v="VT"/>
    <tag k="ref:vcgi:esiteid" v="286355"/>
  </node>
  <node id="-221" visible="true" lat="42.81034636" lon="-72.85027658">
    <tag k="addr:housenumber" v="1630"/>
    <tag k="addr:street" v="Wilmington Cross Road"/>
    <tag k="addr:state" v="VT"/>
    <tag k="ref:vcgi:esiteid" v="286357"/>
  </node>
  <node id="-222" visible="true" lat="42.81026075" lon="-72.83818578">
    <tag k="addr:housenumber" v="123"/>
    <tag k="addr:street" v="Birdville Road"/>
    <tag k="addr:state" v="VT"/>
    <tag k="ref:vcgi:esiteid" v="286358"/>
  </node>
  <node id="-223" visible="true" lat="42.80997269" lon="-72.83753113">
    <tag k="addr:housenumber" v="92"/>
    <tag k="addr:street" v="Birdville Road"/>
    <tag k="addr:state" v="VT"/>
    <tag k="ref:vcgi:esiteid" v="286359"/>
  </node>
  <node id="-225" visible="true" lat="42.80981429" lon="-72.83514744">
    <tag k="addr:housenumber" v="48"/>
    <tag k="addr:street" v="Birdville Road"/>
    <tag k="addr:state" v="VT"/>
    <tag k="ref:vcgi:esiteid" v="286361"/>
  </node>
  <node id="-226" visible="true" lat="42.80960008" lon="-72.85082335">
    <tag k="addr:housenumber" v="1570"/>
    <tag k="addr:street" v="Wilmington Cross Road"/>
    <tag k="addr:state" v="VT"/>
    <tag k="ref:vcgi:esiteid" v="286362"/>
  </node>
  <node id="-227" visible="true" lat="42.80965697" lon="-72.83856775">
    <tag k="addr:housenumber" v="1835"/>
    <tag k="addr:street" v="Vermont Route 100"/>
    <tag k="addr:state" v="VT"/>
    <tag k="ref:vcgi:esiteid" v="286363"/>
  </node>
  <node id="-229" visible="true" lat="42.80915027" lon="-72.83951559">
    <tag k="addr:housenumber" v="1790"/>
    <tag k="addr:street" v="Vermont Route 100"/>
    <tag k="addr:state" v="VT"/>
    <tag k="ref:vcgi:esiteid" v="286365"/>
  </node>
  <node id="-231" visible="true" lat="42.80883208" lon="-72.8810441">
    <tag k="addr:housenumber" v="1264"/>
    <tag k="addr:street" v="Faulkner Road"/>
    <tag k="addr:state" v="VT"/>
    <tag k="ref:vcgi:esiteid" v="286367"/>
  </node>
  <node id="-240" visible="true" lat="42.80796315" lon="-72.83620196">
    <tag k="addr:housenumber" v="1969"/>
    <tag k="addr:street" v="Vermont Route 100"/>
    <tag k="addr:state" v="VT"/>
    <tag k="ref:vcgi:esiteid" v="286376"/>
  </node>
  <node id="-245" visible="true" lat="42.80740249" lon="-72.83280503">
    <tag k="addr:housenumber" v="2107"/>
    <tag k="addr:street" v="Vermont Route 100"/>
    <tag k="addr:state" v="VT"/>
    <tag k="ref:vcgi:esiteid" v="286381"/>
  </node>
  <node id="-246" visible="true" lat="42.80734624" lon="-72.83804124">
    <tag k="addr:housenumber" v="1512"/>
    <tag k="addr:street" v="Fowler Road"/>
    <tag k="addr:state" v="VT"/>
    <tag k="ref:vcgi:esiteid" v="286382"/>
  </node>
  <node id="-249" visible="true" lat="42.80726829" lon="-72.82775786">
    <tag k="addr:housenumber" v="518"/>
    <tag k="addr:street" v="Bernard Road"/>
    <tag k="addr:state" v="VT"/>
    <tag k="ref:vcgi:esiteid" v="286385"/>
  </node>
  <node id="-250" visible="true" lat="42.80739671" lon="-72.83555502">
    <tag k="addr:housenumber" v="2037"/>
    <tag k="addr:street" v="Vermont Route 100"/>
    <tag k="addr:state" v="VT"/>
    <tag k="ref:vcgi:esiteid" v="286386"/>
  </node>
  <node id="-251" visible="true" lat="42.80710744" lon="-72.88214727">
    <tag k="addr:housenumber" v="1123"/>
    <tag k="addr:street" v="Faulkner Road"/>
    <tag k="addr:state" v="VT"/>
    <tag k="ref:vcgi:esiteid" v="286387"/>
  </node>
  <node id="-253" visible="true" lat="42.80711695" lon="-72.82824638">
    <tag k="addr:housenumber" v="540"/>
    <tag k="addr:street" v="Bernard Road"/>
    <tag k="addr:state" v="VT"/>
    <tag k="ref:vcgi:esiteid" v="286389"/>
  </node>
  <node id="-255" visible="true" lat="42.80657779" lon="-72.83771959">
    <tag k="addr:housenumber" v="1476"/>
    <tag k="addr:street" v="Fowler Road"/>
    <tag k="addr:state" v="VT"/>
    <tag k="ref:vcgi:esiteid" v="286391"/>
  </node>
  <node id="-257" visible="true" lat="42.80661012" lon="-72.83997841">
    <tag k="addr:housenumber" v="1409"/>
    <tag k="addr:street" v="Fowler Road"/>
    <tag k="addr:state" v="VT"/>
    <tag k="ref:vcgi:esiteid" v="286393"/>
  </node>
  <node id="-258" visible="true" lat="42.80659085" lon="-72.8273987">
    <tag k="addr:housenumber" v="477"/>
    <tag k="addr:street" v="Bernard Road"/>
    <tag k="addr:state" v="VT"/>
    <tag k="ref:vcgi:esiteid" v="286394"/>
  </node>
  <node id="-259" visible="true" lat="42.8064158" lon="-72.82479714">
    <tag k="addr:housenumber" v="367"/>
    <tag k="addr:street" v="Bernard Road"/>
    <tag k="addr:state" v="VT"/>
    <tag k="ref:vcgi:esiteid" v="286395"/>
  </node>
  <node id="-260" visible="true" lat="42.80659526" lon="-72.81477458">
    <tag k="addr:housenumber" v="213"/>
    <tag k="addr:street" v="Butler Brook Road"/>
    <tag k="addr:state" v="VT"/>
    <tag k="ref:vcgi:esiteid" v="286396"/>
  </node>
  <node id="-263" visible="true" lat="42.80610893" lon="-72.88331037">
    <tag k="addr:housenumber" v="1053"/>
    <tag k="addr:street" v="Faulkner Road"/>
    <tag k="addr:state" v="VT"/>
    <tag k="ref:vcgi:esiteid" v="286399"/>
  </node>
  <node id="-264" visible="true" lat="42.80619017" lon="-72.82632889">
    <tag k="addr:housenumber" v="441"/>
    <tag k="addr:street" v="Bernard Road"/>
    <tag k="addr:state" v="VT"/>
    <tag k="ref:vcgi:esiteid" v="286400"/>
  </node>
  <node id="-266" visible="true" lat="42.80641441" lon="-72.87927166">
    <tag k="addr:housenumber" v="1038"/>
    <tag k="addr:street" v="Faulkner Road"/>
    <tag k="addr:state" v="VT"/>
    <tag k="ref:vcgi:esiteid" v="286402"/>
  </node>
  <node id="-268" visible="true" lat="42.80618627" lon="-72.82977772">
    <tag k="addr:housenumber" v="623"/>
    <tag k="addr:street" v="Bernard Road"/>
    <tag k="addr:state" v="VT"/>
    <tag k="ref:vcgi:esiteid" v="286404"/>
  </node>
  <node id="-269" visible="true" lat="42.80578877" lon="-72.88222187">
    <tag k="addr:housenumber" v="961"/>
    <tag k="addr:street" v="Faulkner Road"/>
    <tag k="addr:state" v="VT"/>
    <tag k="ref:vcgi:esiteid" v="286405"/>
  </node>
  <node id="-270" visible="true" lat="42.80598331" lon="-72.83511864">
    <tag k="addr:housenumber" v="2108"/>
    <tag k="addr:street" v="Vermont Route 100"/>
    <tag k="addr:state" v="VT"/>
    <tag k="ref:vcgi:esiteid" v="286406"/>
  </node>
  <node id="-272" visible="true" lat="42.80579794" lon="-72.83347425">
    <tag k="addr:housenumber" v="2135"/>
    <tag k="addr:street" v="Vermont Route 100"/>
    <tag k="addr:state" v="VT"/>
    <tag k="ref:vcgi:esiteid" v="286408"/>
  </node>
  <node id="-273" visible="true" lat="42.80584448" lon="-72.81272404">
    <tag k="addr:housenumber" v="311"/>
    <tag k="addr:street" v="Butler Brook Road"/>
    <tag k="addr:state" v="VT"/>
    <tag k="ref:vcgi:esiteid" v="286409"/>
  </node>
  <node id="-274" visible="true" lat="42.80570367" lon="-72.83728281">
    <tag k="addr:housenumber" v="1414"/>
    <tag k="addr:street" v="Fowler Road"/>
    <tag k="addr:state" v="VT"/>
    <tag k="ref:vcgi:esiteid" v="286410"/>
  </node>
  <node id="-275" visible="true" lat="42.80561952" lon="-72.81162195">
    <tag k="addr:housenumber" v="371"/>
    <tag k="addr:street" v="Butler Brook Road"/>
    <tag k="addr:state" v="VT"/>
    <tag k="ref:vcgi:esiteid" v="286411"/>
  </node>
  <node id="-276" visible="true" lat="42.80497335" lon="-72.82835981">
    <tag k="addr:housenumber" v="577"/>
    <tag k="addr:street" v="Bernard Road"/>
    <tag k="addr:state" v="VT"/>
    <tag k="ref:vcgi:esiteid" v="286412"/>
  </node>
  <node id="-279" visible="true" lat="42.80494669" lon="-72.83957278">
    <tag k="addr:housenumber" v="1331"/>
    <tag k="addr:street" v="Fowler Road"/>
    <tag k="addr:state" v="VT"/>
    <tag k="ref:vcgi:esiteid" v="286415"/>
  </node>
  <node id="-280" visible="true" lat="42.80493889" lon="-72.81355506">
    <tag k="addr:housenumber" v="250"/>
    <tag k="addr:street" v="Butler Brook Road"/>
    <tag k="addr:state" v="VT"/>
    <tag k="ref:vcgi:esiteid" v="286416"/>
  </node>
  <node id="-281" visible="true" lat="42.80455633" lon="-72.80970074">
    <tag k="addr:housenumber" v="467"/>
    <tag k="addr:street" v="Butler Brook Road"/>
    <tag k="addr:state" v="VT"/>
    <tag k="ref:vcgi:esiteid" v="286417"/>
  </node>
  <node id="-284" visible="true" lat="42.80368241" lon="-72.86296295">
    <tag k="addr:housenumber" v="1085"/>
    <tag k="addr:street" v="Corse Road"/>
    <tag k="addr:state" v="VT"/>
    <tag k="ref:vcgi:esiteid" v="286420"/>
  </node>
  <node id="-286" visible="true" lat="42.80270081" lon="-72.84861877">
    <tag k="addr:housenumber" v="1112"/>
    <tag k="addr:street" v="Wilmington Cross Road"/>
    <tag k="addr:state" v="VT"/>
    <tag k="ref:vcgi:esiteid" v="286422"/>
  </node>
  <node id="-290" visible="true" lat="42.80231655" lon="-72.88128722">
    <tag k="addr:housenumber" v="771"/>
    <tag k="addr:street" v="Faulkner Road"/>
    <tag k="addr:state" v="VT"/>
    <tag k="ref:vcgi:esiteid" v="286426"/>
  </node>
  <node id="-291" visible="true" lat="42.80245381" lon="-72.83926244">
    <tag k="addr:housenumber" v="1131"/>
    <tag k="addr:street" v="Fowler Road"/>
    <tag k="addr:state" v="VT"/>
    <tag k="ref:vcgi:esiteid" v="286427"/>
  </node>
  <node id="-292" visible="true" lat="42.80198561" lon="-72.87605108">
    <tag k="addr:housenumber" v="159"/>
    <tag k="addr:street" v="Chase Hill Road"/>
    <tag k="addr:state" v="VT"/>
    <tag k="ref:vcgi:esiteid" v="286428"/>
  </node>
  <node id="-293" visible="true" lat="42.80210298" lon="-72.83833347">
    <tag k="addr:housenumber" v="1130"/>
    <tag k="addr:street" v="Fowler Road"/>
    <tag k="addr:state" v="VT"/>
    <tag k="ref:vcgi:esiteid" v="286429"/>
  </node>
  <node id="-296" visible="true" lat="42.80184626" lon="-72.83987863">
    <tag k="addr:housenumber" v="1125"/>
    <tag k="addr:street" v="Fowler Road"/>
    <tag k="addr:state" v="VT"/>
    <tag k="ref:vcgi:esiteid" v="286432"/>
  </node>
  <node id="-298" visible="true" lat="42.80137814" lon="-72.87506732">
    <tag k="addr:housenumber" v="212"/>
    <tag k="addr:street" v="Chase Hill Road"/>
    <tag k="addr:state" v="VT"/>
    <tag k="ref:vcgi:esiteid" v="286434"/>
  </node>
  <node id="-299" visible="true" lat="42.80135557" lon="-72.87705254">
    <tag k="addr:housenumber" v="104"/>
    <tag k="addr:street" v="Chase Hill Road"/>
    <tag k="addr:state" v="VT"/>
    <tag k="ref:vcgi:esiteid" v="286435"/>
  </node>
  <node id="-300" visible="true" lat="42.80135422" lon="-72.85313267">
    <tag k="addr:housenumber" v="947"/>
    <tag k="addr:street" v="Wilmington Cross Road"/>
    <tag k="addr:state" v="VT"/>
    <tag k="ref:vcgi:esiteid" v="286436"/>
  </node>
  <node id="-302" visible="true" lat="42.80126327" lon="-72.83839725">
    <tag k="addr:housenumber" v="1070"/>
    <tag k="addr:street" v="Fowler Road"/>
    <tag k="addr:state" v="VT"/>
    <tag k="ref:vcgi:esiteid" v="286438"/>
  </node>
  <node id="-304" visible="true" lat="42.80083224" lon="-72.83894386">
    <tag k="addr:housenumber" v="1047"/>
    <tag k="addr:street" v="Fowler Road"/>
    <tag k="addr:state" v="VT"/>
    <tag k="ref:vcgi:esiteid" v="286440"/>
  </node>
  <node id="-307" visible="true" lat="42.80061634" lon="-72.84294373">
    <tag k="addr:housenumber" v="1019"/>
    <tag k="addr:street" v="Fowler Road"/>
    <tag k="addr:state" v="VT"/>
    <tag k="ref:vcgi:esiteid" v="286443"/>
  </node>
  <node id="-310" visible="true" lat="42.79979487" lon="-72.86618981">
    <tag k="addr:housenumber" v="773"/>
    <tag k="addr:street" v="Corse Road"/>
    <tag k="addr:state" v="VT"/>
    <tag k="ref:vcgi:esiteid" v="286446"/>
  </node>
  <node id="-313" visible="true" lat="42.79935889" lon="-72.8975472">
    <tag k="addr:housenumber" v="949"/>
    <tag k="addr:street" v="Brickhouse Road"/>
    <tag k="addr:state" v="VT"/>
    <tag k="ref:vcgi:esiteid" v="286449"/>
  </node>
  <node id="-316" visible="true" lat="42.79901895" lon="-72.89092783">
    <tag k="addr:housenumber" v="629"/>
    <tag k="addr:street" v="Brickhouse Road"/>
    <tag k="addr:state" v="VT"/>
    <tag k="ref:vcgi:esiteid" v="286452"/>
  </node>
  <node id="-320" visible="true" lat="42.79892807" lon="-72.83712874">
    <tag k="addr:housenumber" v="932"/>
    <tag k="addr:street" v="Fowler Road"/>
    <tag k="addr:state" v="VT"/>
    <tag k="ref:vcgi:esiteid" v="286456"/>
  </node>
  <node id="-325" visible="true" lat="42.79848651" lon="-72.87888704">
    <tag k="addr:housenumber" v="488"/>
    <tag k="addr:street" v="Faulkner Road"/>
    <tag k="addr:state" v="VT"/>
    <tag k="ref:vcgi:esiteid" v="286461"/>
  </node>
  <node id="-327" visible="true" lat="42.79841876" lon="-72.83787665">
    <tag k="addr:housenumber" v="896"/>
    <tag k="addr:street" v="Fowler Road"/>
    <tag k="addr:state" v="VT"/>
    <tag k="ref:vcgi:esiteid" v="286463"/>
  </node>
  <node id="-329" visible="true" lat="42.79819113" lon="-72.86690496">
    <tag k="addr:housenumber" v="637"/>
    <tag k="addr:street" v="Corse Road"/>
    <tag k="addr:state" v="VT"/>
    <tag k="ref:vcgi:esiteid" v="286465"/>
  </node>
  <node id="-331" visible="true" lat="42.7982866" lon="-72.82636607">
    <tag k="addr:housenumber" v="267"/>
    <tag k="addr:street" v="Academy Road"/>
    <tag k="addr:state" v="VT"/>
    <tag k="ref:vcgi:esiteid" v="286467"/>
  </node>
  <node id="-344" visible="true" lat="42.79750992" lon="-72.84028754">
    <tag k="addr:housenumber" v="783"/>
    <tag k="addr:street" v="Fowler Road"/>
    <tag k="addr:state" v="VT"/>
    <tag k="ref:vcgi:esiteid" v="286480"/>
  </node>
  <node id="-358" visible="true" lat="42.79700325" lon="-72.82216131">
    <tag k="addr:housenumber" v="3100"/>
    <tag k="addr:street" v="Vermont Route 100"/>
    <tag k="addr:state" v="VT"/>
    <tag k="ref:vcgi:esiteid" v="286494"/>
  </node>
  <node id="-363" visible="true" lat="42.79663855" lon="-72.86665013">
    <tag k="addr:housenumber" v="532"/>
    <tag k="addr:street" v="Corse Road"/>
    <tag k="addr:state" v="VT"/>
    <tag k="ref:vcgi:esiteid" v="286499"/>
  </node>
  <node id="-374" visible="true" lat="42.79598512" lon="-72.84215987">
    <tag k="addr:housenumber" v="641"/>
    <tag k="addr:street" v="Fowler Road"/>
    <tag k="addr:state" v="VT"/>
    <tag k="ref:vcgi:esiteid" v="286510"/>
  </node>
  <node id="-378" visible="true" lat="42.79551453" lon="-72.86793986">
    <tag k="addr:housenumber" v="471"/>
    <tag k="addr:street" v="Corse Road"/>
    <tag k="addr:state" v="VT"/>
    <tag k="ref:vcgi:esiteid" v="286514"/>
  </node>
  <node id="-379" visible="true" lat="42.79584715" lon="-72.82183842">
    <tag k="addr:housenumber" v="80"/>
    <tag k="addr:street" v="Vermont Route 112"/>
    <tag k="addr:state" v="VT"/>
    <tag k="ref:vcgi:esiteid" v="286515"/>
  </node>
  <node id="-386" visible="true" lat="42.79537855" lon="-72.89054974">
    <tag k="addr:housenumber" v="361"/>
    <tag k="addr:street" v="Brickhouse Road"/>
    <tag k="addr:state" v="VT"/>
    <tag k="ref:vcgi:esiteid" v="286523"/>
  </node>
  <node id="-387" visible="true" lat="42.79546315" lon="-72.86665071">
    <tag k="addr:housenumber" v="434"/>
    <tag k="addr:street" v="Corse Road"/>
    <tag k="addr:state" v="VT"/>
    <tag k="ref:vcgi:esiteid" v="286524"/>
  </node>
  <node id="-388" visible="true" lat="42.79522779" lon="-72.8877709">
    <tag k="addr:housenumber" v="603"/>
    <tag k="addr:street" v="Maple Drive"/>
    <tag k="addr:state" v="VT"/>
    <tag k="ref:vcgi:esiteid" v="286525"/>
  </node>
  <node id="-392" visible="true" lat="42.79516769" lon="-72.82127617">
    <tag k="addr:housenumber" v="130"/>
    <tag k="addr:street" v="Vermont Route 112"/>
    <tag k="addr:state" v="VT"/>
    <tag k="ref:vcgi:esiteid" v="286529"/>
  </node>
  <node id="-393" visible="true" lat="42.79508736" lon="-72.80942735">
    <tag k="addr:housenumber" v="576"/>
    <tag k="addr:street" v="Reed Hill Road"/>
    <tag k="addr:state" v="VT"/>
    <tag k="ref:vcgi:esiteid" v="286530"/>
  </node>
  <node id="-395" visible="true" lat="42.79506632" lon="-72.82116342">
    <tag k="addr:housenumber" v="140"/>
    <tag k="addr:street" v="Vermont Route 112"/>
    <tag k="addr:state" v="VT"/>
    <tag k="ref:vcgi:esiteid" v="286532"/>
  </node>
  <node id="-396" visible="true" lat="42.79517889" lon="-72.81430962">
    <tag k="addr:housenumber" v="207"/>
    <tag k="addr:street" v="Jacksonville Heights"/>
    <tag k="addr:state" v="VT"/>
    <tag k="ref:vcgi:esiteid" v="286533"/>
  </node>
  <node id="-398" visible="true" lat="42.79476768" lon="-72.88581086">
    <tag k="addr:housenumber" v="602"/>
    <tag k="addr:street" v="Maple Drive"/>
    <tag k="addr:state" v="VT"/>
    <tag k="ref:vcgi:esiteid" v="286535"/>
  </node>
  <node id="-403" visible="true" lat="42.79478571" lon="-72.80752074">
    <tag k="addr:housenumber" v="669"/>
    <tag k="addr:street" v="Reed Hill Road"/>
    <tag k="addr:state" v="VT"/>
    <tag k="ref:vcgi:esiteid" v="286540"/>
  </node>
  <node id="-407" visible="true" lat="42.79445443" lon="-72.84218294">
    <tag k="addr:housenumber" v="542"/>
    <tag k="addr:street" v="Fowler Road"/>
    <tag k="addr:state" v="VT"/>
    <tag k="ref:vcgi:esiteid" v="286544"/>
  </node>
  <node id="-409" visible="true" lat="42.79411925" lon="-72.89316855">
    <tag k="addr:housenumber" v="255"/>
    <tag k="addr:street" v="Brickhouse Road"/>
    <tag k="addr:state" v="VT"/>
    <tag k="ref:vcgi:esiteid" v="286546"/>
  </node>
  <node id="-410" visible="true" lat="42.79437945" lon="-72.8256378">
    <tag k="addr:housenumber" v="3375"/>
    <tag k="addr:street" v="Vermont Route 100"/>
    <tag k="addr:state" v="VT"/>
    <tag k="ref:vcgi:esiteid" v="286547"/>
  </node>
  <node id="-414" visible="true" lat="42.794066" lon="-72.86712508">
    <tag k="addr:housenumber" v="347"/>
    <tag k="addr:street" v="Corse Road"/>
    <tag k="addr:state" v="VT"/>
    <tag k="ref:vcgi:esiteid" v="286551"/>
  </node>
  <node id="-416" visible="true" lat="42.79387694" lon="-72.80670256">
    <tag k="addr:housenumber" v="728"/>
    <tag k="addr:street" v="Reed Hill Road"/>
    <tag k="addr:state" v="VT"/>
    <tag k="ref:vcgi:esiteid" v="286553"/>
  </node>
  <node id="-418" visible="true" lat="42.79374189" lon="-72.84243936">
    <tag k="addr:housenumber" v="540"/>
    <tag k="addr:street" v="Fowler Road"/>
    <tag k="addr:state" v="VT"/>
    <tag k="ref:vcgi:esiteid" v="286555"/>
  </node>
  <node id="-419" visible="true" lat="42.79336839" lon="-72.88489059">
    <tag k="addr:housenumber" v="505"/>
    <tag k="addr:street" v="Maple Drive"/>
    <tag k="addr:state" v="VT"/>
    <tag k="ref:vcgi:esiteid" v="286556"/>
  </node>
  <node id="-420" visible="true" lat="42.79335765" lon="-72.89005">
    <tag k="addr:housenumber" v="228"/>
    <tag k="addr:street" v="Brickhouse Road"/>
    <tag k="addr:state" v="VT"/>
    <tag k="ref:vcgi:esiteid" v="286557"/>
  </node>
  <node id="-425" visible="true" lat="42.79306281" lon="-72.84478226">
    <tag k="addr:housenumber" v="420"/>
    <tag k="addr:street" v="Fowler Road"/>
    <tag k="addr:state" v="VT"/>
    <tag k="ref:vcgi:esiteid" v="286562"/>
  </node>
  <node id="-427" visible="true" lat="42.79295376" lon="-72.88995329">
    <tag k="addr:housenumber" v="192"/>
    <tag k="addr:street" v="Brickhouse Road"/>
    <tag k="addr:state" v="VT"/>
    <tag k="ref:vcgi:esiteid" v="286564"/>
  </node>
  <node id="-432" visible="true" lat="42.79256562" lon="-72.89013376">
    <tag k="addr:housenumber" v="174"/>
    <tag k="addr:street" v="Brickhouse Road"/>
    <tag k="addr:state" v="VT"/>
    <tag k="ref:vcgi:esiteid" v="286569"/>
  </node>
  <node id="-436" visible="true" lat="42.7925836" lon="-72.80683401">
    <tag k="addr:housenumber" v="84"/>
    <tag k="addr:street" v="Allen Road"/>
    <tag k="addr:state" v="VT"/>
    <tag k="ref:vcgi:esiteid" v="286573"/>
  </node>
  <node id="-441" visible="true" lat="42.7918951" lon="-72.88958491">
    <tag k="addr:housenumber" v="124"/>
    <tag k="addr:street" v="Brickhouse Road"/>
    <tag k="addr:state" v="VT"/>
    <tag k="ref:vcgi:esiteid" v="286578"/>
  </node>
  <node id="-442" visible="true" lat="42.79171753" lon="-72.91365814">
    <tag k="addr:housenumber" v="1658"/>
    <tag k="addr:street" v="Dam Road"/>
    <tag k="addr:state" v="VT"/>
    <tag k="ref:vcgi:esiteid" v="286579"/>
  </node>
  <node id="-448" visible="true" lat="42.7917376" lon="-72.86580259">
    <tag k="addr:housenumber" v="184"/>
    <tag k="addr:street" v="Corse Road"/>
    <tag k="addr:state" v="VT"/>
    <tag k="ref:vcgi:esiteid" v="286585"/>
  </node>
  <node id="-461" visible="true" lat="42.79102737" lon="-72.8892215">
    <tag k="addr:housenumber" v="62"/>
    <tag k="addr:street" v="Brickhouse Road"/>
    <tag k="addr:state" v="VT"/>
    <tag k="ref:vcgi:esiteid" v="286598"/>
  </node>
  <node id="-462" visible="true" lat="42.79091779" lon="-72.88954724">
    <tag k="addr:housenumber" v="57"/>
    <tag k="addr:street" v="Brickhouse Road"/>
    <tag k="addr:state" v="VT"/>
    <tag k="ref:vcgi:esiteid" v="286599"/>
  </node>
  <node id="-464" visible="true" lat="42.79104212" lon="-72.80578357">
    <tag k="addr:housenumber" v="234"/>
    <tag k="addr:street" v="Allen Road"/>
    <tag k="addr:state" v="VT"/>
    <tag k="ref:vcgi:esiteid" v="286601"/>
  </node>
  <node id="-465" visible="true" lat="42.79075055" lon="-72.87244396">
    <tag k="addr:housenumber" v="6176"/>
    <tag k="addr:street" v="Vermont Route 100"/>
    <tag k="addr:state" v="VT"/>
    <tag k="ref:vcgi:esiteid" v="286602"/>
  </node>
  <node id="-473" visible="true" lat="42.79043878" lon="-72.86837229">
    <tag k="addr:housenumber" v="5816"/>
    <tag k="addr:street" v="Vermont Route 100"/>
    <tag k="addr:state" v="VT"/>
    <tag k="ref:vcgi:esiteid" v="286610"/>
  </node>
  <node id="-478" visible="true" lat="42.79026468" lon="-72.88954105">
    <tag k="addr:housenumber" v="6966"/>
    <tag k="addr:street" v="Vermont Route 100"/>
    <tag k="addr:state" v="VT"/>
    <tag k="ref:vcgi:esiteid" v="286615"/>
  </node>
  <node id="-480" visible="true" lat="42.79006916" lon="-72.83817085">
    <tag k="addr:housenumber" v="4196"/>
    <tag k="addr:street" v="Vermont Route 100"/>
    <tag k="addr:state" v="VT"/>
    <tag k="ref:vcgi:esiteid" v="286617"/>
  </node>
  <node id="-491" visible="true" lat="42.78924873" lon="-72.88494345">
    <tag k="addr:housenumber" v="6717"/>
    <tag k="addr:street" v="Vermont Route 100"/>
    <tag k="addr:state" v="VT"/>
    <tag k="ref:vcgi:esiteid" v="286628"/>
  </node>
  <node id="-496" visible="true" lat="42.78938635" lon="-72.86707154">
    <tag k="addr:housenumber" v="31"/>
    <tag k="addr:street" v="Plumb Road"/>
    <tag k="addr:state" v="VT"/>
    <tag k="ref:vcgi:esiteid" v="286633"/>
  </node>
  <node id="-498" visible="true" lat="42.78902848" lon="-72.86801637">
    <tag k="addr:housenumber" v="66"/>
    <tag k="addr:street" v="Plumb Road"/>
    <tag k="addr:state" v="VT"/>
    <tag k="ref:vcgi:esiteid" v="286635"/>
  </node>
  <node id="-502" visible="true" lat="42.78911138" lon="-72.87483235">
    <tag k="addr:housenumber" v="6178"/>
    <tag k="addr:street" v="Vermont Route 100"/>
    <tag k="addr:state" v="VT"/>
    <tag k="ref:vcgi:esiteid" v="286639"/>
  </node>
  <node id="-503" visible="true" lat="42.78892842" lon="-72.86893637">
    <tag k="addr:housenumber" v="36"/>
    <tag k="addr:street" v="Plumb Road"/>
    <tag k="addr:state" v="VT"/>
    <tag k="ref:vcgi:esiteid" v="286640"/>
  </node>
  <node id="-509" visible="true" lat="42.78871653" lon="-72.86702492">
    <tag k="addr:housenumber" v="91"/>
    <tag k="addr:street" v="Plumb Road"/>
    <tag k="addr:state" v="VT"/>
    <tag k="ref:vcgi:esiteid" v="286647"/>
  </node>
  <node id="-510" visible="true" lat="42.7886932" lon="-72.80777871">
    <tag k="addr:housenumber" v="233"/>
    <tag k="addr:street" v="Allen Road"/>
    <tag k="addr:state" v="VT"/>
    <tag k="ref:vcgi:esiteid" v="286648"/>
  </node>
  <node id="-514" visible="true" lat="42.78832506" lon="-72.86514424">
    <tag k="addr:housenumber" v="5607"/>
    <tag k="addr:street" v="Vermont Route 100"/>
    <tag k="addr:state" v="VT"/>
    <tag k="ref:vcgi:esiteid" v="286652"/>
  </node>
  <node id="-515" visible="true" lat="42.78842648" lon="-72.81625309">
    <tag k="addr:housenumber" v="727"/>
    <tag k="addr:street" v="Vermont Route 112"/>
    <tag k="addr:state" v="VT"/>
    <tag k="ref:vcgi:esiteid" v="286653"/>
  </node>
  <node id="-521" visible="true" lat="42.78817492" lon="-72.84067035">
    <tag k="addr:housenumber" v="4299"/>
    <tag k="addr:street" v="Vermont Route 100"/>
    <tag k="addr:state" v="VT"/>
    <tag k="ref:vcgi:esiteid" v="286659"/>
  </node>
  <node id="-524" visible="true" lat="42.78791266" lon="-72.86815576">
    <tag k="addr:housenumber" v="146"/>
    <tag k="addr:street" v="Plumb Road"/>
    <tag k="addr:state" v="VT"/>
    <tag k="ref:vcgi:esiteid" v="286662"/>
  </node>
  <node id="-530" visible="true" lat="42.78707813" lon="-72.87678099">
    <tag k="addr:housenumber" v="123"/>
    <tag k="addr:street" v="Sadawga Lake Road"/>
    <tag k="addr:state" v="VT"/>
    <tag k="ref:vcgi:esiteid" v="286668"/>
  </node>
  <node id="-532" visible="true" lat="42.78714232" lon="-72.86775511">
    <tag k="addr:housenumber" v="162"/>
    <tag k="addr:street" v="Plumb Road"/>
    <tag k="addr:state" v="VT"/>
    <tag k="ref:vcgi:esiteid" v="286670"/>
  </node>
  <node id="-534" visible="true" lat="42.78696324" lon="-72.86648652">
    <tag k="addr:housenumber" v="157"/>
    <tag k="addr:street" v="Plumb Road"/>
    <tag k="addr:state" v="VT"/>
    <tag k="ref:vcgi:esiteid" v="286672"/>
  </node>
  <node id="-537" visible="true" lat="42.78677605" lon="-72.87740534">
    <tag k="addr:housenumber" v="134"/>
    <tag k="addr:street" v="Sadawga Lake Road"/>
    <tag k="addr:state" v="VT"/>
    <tag k="ref:vcgi:esiteid" v="286675"/>
  </node>
  <node id="-541" visible="true" lat="42.78661981" lon="-72.87544252">
    <tag k="addr:housenumber" v="219"/>
    <tag k="addr:street" v="Sadawga Lake Road"/>
    <tag k="addr:state" v="VT"/>
    <tag k="ref:vcgi:esiteid" v="286679"/>
  </node>
  <node id="-545" visible="true" lat="42.78643246" lon="-72.87503974">
    <tag k="addr:housenumber" v="249"/>
    <tag k="addr:street" v="Sadawga Lake Road"/>
    <tag k="addr:state" v="VT"/>
    <tag k="ref:vcgi:esiteid" v="286683"/>
  </node>
  <node id="-547" visible="true" lat="42.78648923" lon="-72.85740725">
    <tag k="addr:housenumber" v="5195"/>
    <tag k="addr:street" v="Vermont Route 100"/>
    <tag k="addr:state" v="VT"/>
    <tag k="ref:vcgi:esiteid" v="286685"/>
  </node>
  <node id="-548" visible="true" lat="42.78615925" lon="-72.87552791">
    <tag k="addr:housenumber" v="232"/>
    <tag k="addr:street" v="Sadawga Lake Road"/>
    <tag k="addr:state" v="VT"/>
    <tag k="ref:vcgi:esiteid" v="286686"/>
  </node>
  <node id="-549" visible="true" lat="42.78608564" lon="-72.87388594">
    <tag k="addr:housenumber" v="23"/>
    <tag k="addr:street" v="Town Hill Road"/>
    <tag k="addr:state" v="VT"/>
    <tag k="ref:vcgi:esiteid" v="286687"/>
  </node>
  <node id="-550" visible="true" lat="42.78607916" lon="-72.8722319">
    <tag k="addr:housenumber" v="103"/>
    <tag k="addr:street" v="Town Hill Road"/>
    <tag k="addr:state" v="VT"/>
    <tag k="ref:vcgi:esiteid" v="286688"/>
  </node>
  <node id="-553" visible="true" lat="42.78579704" lon="-72.87288554">
    <tag k="addr:housenumber" v="79"/>
    <tag k="addr:street" v="Town Hill Road"/>
    <tag k="addr:state" v="VT"/>
    <tag k="ref:vcgi:esiteid" v="286691"/>
  </node>
  <node id="-555" visible="true" lat="42.78542944" lon="-72.87400339">
    <tag k="addr:housenumber" v="322"/>
    <tag k="addr:street" v="Sadawga Lake Road"/>
    <tag k="addr:state" v="VT"/>
    <tag k="ref:vcgi:esiteid" v="286693"/>
  </node>
  <node id="-556" visible="true" lat="42.78548885" lon="-72.88053132">
    <tag k="addr:housenumber" v="253"/>
    <tag k="addr:street" v="Tyanoga Road"/>
    <tag k="addr:state" v="VT"/>
    <tag k="ref:vcgi:esiteid" v="286694"/>
  </node>
  <node id="-557" visible="true" lat="42.78568721" lon="-72.81423763">
    <tag k="addr:housenumber" v="930"/>
    <tag k="addr:street" v="Vermont Route 112"/>
    <tag k="addr:state" v="VT"/>
    <tag k="ref:vcgi:esiteid" v="286695"/>
  </node>
  <node id="-558" visible="true" lat="42.78523944" lon="-72.87228899">
    <tag k="addr:housenumber" v="120"/>
    <tag k="addr:street" v="Town Hill Road"/>
    <tag k="addr:state" v="VT"/>
    <tag k="ref:vcgi:esiteid" v="286696"/>
  </node>
  <node id="-563" visible="true" lat="42.78491188" lon="-72.87395604">
    <tag k="addr:housenumber" v="368"/>
    <tag k="addr:street" v="Sadawga Lake Road"/>
    <tag k="addr:state" v="VT"/>
    <tag k="ref:vcgi:esiteid" v="286701"/>
  </node>
  <node id="-565" visible="true" lat="42.78454382" lon="-72.87363024">
    <tag k="addr:housenumber" v="400"/>
    <tag k="addr:street" v="Sadawga Lake Road"/>
    <tag k="addr:state" v="VT"/>
    <tag k="ref:vcgi:esiteid" v="286703"/>
  </node>
  <node id="-568" visible="true" lat="42.78465579" lon="-72.81164247">
    <tag k="addr:housenumber" v="1005"/>
    <tag k="addr:street" v="Vermont Route 112"/>
    <tag k="addr:state" v="VT"/>
    <tag k="ref:vcgi:esiteid" v="286706"/>
  </node>
  <node id="-569" visible="true" lat="42.78442185" lon="-72.84207955">
    <tag k="addr:housenumber" v="288"/>
    <tag k="addr:street" v="Ginny Morse Road"/>
    <tag k="addr:state" v="VT"/>
    <tag k="ref:vcgi:esiteid" v="286707"/>
  </node>
  <node id="-570" visible="true" lat="42.78419108" lon="-72.87338287">
    <tag k="addr:housenumber" v="424"/>
    <tag k="addr:street" v="Sadawga Lake Road"/>
    <tag k="addr:state" v="VT"/>
    <tag k="ref:vcgi:esiteid" v="286708"/>
  </node>
  <node id="-571" visible="true" lat="42.78430694" lon="-72.86414189">
    <tag k="addr:housenumber" v="583"/>
    <tag k="addr:street" v="Town Hill Road"/>
    <tag k="addr:state" v="VT"/>
    <tag k="ref:vcgi:esiteid" v="286709"/>
  </node>
  <node id="-573" visible="true" lat="42.78422975" lon="-72.87056675">
    <tag k="addr:housenumber" v="230"/>
    <tag k="addr:street" v="Town Hill Road"/>
    <tag k="addr:state" v="VT"/>
    <tag k="ref:vcgi:esiteid" v="286711"/>
  </node>
  <node id="-574" visible="true" lat="42.78423167" lon="-72.86548807">
    <tag k="addr:housenumber" v="483"/>
    <tag k="addr:street" v="Town Hill Road"/>
    <tag k="addr:state" v="VT"/>
    <tag k="ref:vcgi:esiteid" v="286712"/>
  </node>
  <node id="-577" visible="true" lat="42.78415254" lon="-72.86670676">
    <tag k="addr:housenumber" v="417"/>
    <tag k="addr:street" v="Town Hill Road"/>
    <tag k="addr:state" v="VT"/>
    <tag k="ref:vcgi:esiteid" v="286715"/>
  </node>
  <node id="-581" visible="true" lat="42.78401518" lon="-72.87226878">
    <tag k="addr:housenumber" v="152"/>
    <tag k="addr:street" v="Town Hill Road"/>
    <tag k="addr:state" v="VT"/>
    <tag k="ref:vcgi:esiteid" v="286719"/>
  </node>
  <node id="-582" visible="true" lat="42.78383683" lon="-72.81159809">
    <tag k="addr:housenumber" v="1118"/>
    <tag k="addr:street" v="Vermont Route 112"/>
    <tag k="addr:state" v="VT"/>
    <tag k="ref:vcgi:esiteid" v="286720"/>
  </node>
  <node id="-583" visible="true" lat="42.78369207" lon="-72.81183572">
    <tag k="addr:housenumber" v="21"/>
    <tag k="addr:street" v="Sprague Brook Road"/>
    <tag k="addr:state" v="VT"/>
    <tag k="ref:vcgi:esiteid" v="286721"/>
  </node>
  <node id="-585" visible="true" lat="42.78345114" lon="-72.86669132">
    <tag k="addr:housenumber" v="428"/>
    <tag k="addr:street" v="Town Hill Road"/>
    <tag k="addr:state" v="VT"/>
    <tag k="ref:vcgi:esiteid" v="286723"/>
  </node>
  <node id="-587" visible="true" lat="42.78353267" lon="-72.81890097">
    <tag k="addr:housenumber" v="798"/>
    <tag k="addr:street" v="Holbrook Road"/>
    <tag k="addr:state" v="VT"/>
    <tag k="ref:vcgi:esiteid" v="286725"/>
  </node>
  <node id="-589" visible="true" lat="42.78353992" lon="-72.81270401">
    <tag k="addr:housenumber" v="73"/>
    <tag k="addr:street" v="Sprague Brook Road"/>
    <tag k="addr:state" v="VT"/>
    <tag k="ref:vcgi:esiteid" v="286727"/>
  </node>
  <node id="-590" visible="true" lat="42.78322217" lon="-72.87242657">
    <tag k="addr:housenumber" v="521"/>
    <tag k="addr:street" v="Sadawga Lake Road"/>
    <tag k="addr:state" v="VT"/>
    <tag k="ref:vcgi:esiteid" v="286728"/>
  </node>
  <node id="-591" visible="true" lat="42.7830196" lon="-72.88079299">
    <tag k="addr:housenumber" v="413"/>
    <tag k="addr:street" v="Tyanoga Road"/>
    <tag k="addr:state" v="VT"/>
    <tag k="ref:vcgi:esiteid" v="286729"/>
  </node>
  <node id="-592" visible="true" lat="42.78316834" lon="-72.80929828">
    <tag k="addr:housenumber" v="1244"/>
    <tag k="addr:street" v="Vermont Route 112"/>
    <tag k="addr:state" v="VT"/>
    <tag k="ref:vcgi:esiteid" v="286730"/>
  </node>
  <node id="-595" visible="true" lat="42.7826022" lon="-72.87301444">
    <tag k="addr:housenumber" v="544"/>
    <tag k="addr:street" v="Sadawga Lake Road"/>
    <tag k="addr:state" v="VT"/>
    <tag k="ref:vcgi:esiteid" v="286733"/>
  </node>
  <node id="-596" visible="true" lat="42.78256537" lon="-72.88759449">
    <tag k="addr:housenumber" v="509"/>
    <tag k="addr:street" v="Stimpson Hill Road"/>
    <tag k="addr:state" v="VT"/>
    <tag k="ref:vcgi:esiteid" v="286734"/>
  </node>
  <node id="-597" visible="true" lat="42.78270345" lon="-72.84293749">
    <tag k="addr:housenumber" v="440"/>
    <tag k="addr:street" v="Ginny Morse Road"/>
    <tag k="addr:state" v="VT"/>
    <tag k="ref:vcgi:esiteid" v="286735"/>
  </node>
  <node id="-598" visible="true" lat="42.78241941" lon="-72.86690482">
    <tag k="addr:housenumber" v="126"/>
    <tag k="addr:street" v="Poverty Row"/>
    <tag k="addr:state" v="VT"/>
    <tag k="ref:vcgi:esiteid" v="286736"/>
  </node>
  <node id="-599" visible="true" lat="42.78196031" lon="-72.86164578">
    <tag k="addr:housenumber" v="726"/>
    <tag k="addr:street" v="Town Hill Road"/>
    <tag k="addr:state" v="VT"/>
    <tag k="ref:vcgi:esiteid" v="286737"/>
  </node>
  <node id="-600" visible="true" lat="42.78188987" lon="-72.82055959">
    <tag k="addr:housenumber" v="960"/>
    <tag k="addr:street" v="Holbrook Road"/>
    <tag k="addr:state" v="VT"/>
    <tag k="ref:vcgi:esiteid" v="286738"/>
  </node>
  <node id="-601" visible="true" lat="42.78167711" lon="-72.87280607">
    <tag k="addr:housenumber" v="608"/>
    <tag k="addr:street" v="Sadawga Lake Road"/>
    <tag k="addr:state" v="VT"/>
    <tag k="ref:vcgi:esiteid" v="286739"/>
  </node>
  <node id="-603" visible="true" lat="42.78164222" lon="-72.86678244">
    <tag k="addr:housenumber" v="172"/>
    <tag k="addr:street" v="Poverty Row"/>
    <tag k="addr:state" v="VT"/>
    <tag k="ref:vcgi:esiteid" v="286741"/>
  </node>
  <node id="-604" visible="true" lat="42.78143683" lon="-72.8728109">
    <tag k="addr:housenumber" v="620"/>
    <tag k="addr:street" v="Sadawga Lake Road"/>
    <tag k="addr:state" v="VT"/>
    <tag k="ref:vcgi:esiteid" v="286742"/>
  </node>
  <node id="-605" visible="true" lat="42.78163208" lon="-72.806825">
    <tag k="addr:housenumber" v="1424"/>
    <tag k="addr:street" v="Vermont Route 112"/>
    <tag k="addr:state" v="VT"/>
    <tag k="ref:vcgi:esiteid" v="286743"/>
  </node>
  <node id="-606" visible="true" lat="42.78151943" lon="-72.85827888">
    <tag k="addr:housenumber" v="891"/>
    <tag k="addr:street" v="Town Hill Road"/>
    <tag k="addr:state" v="VT"/>
    <tag k="ref:vcgi:esiteid" v="286744"/>
  </node>
  <node id="-607" visible="true" lat="42.7813222" lon="-72.85984704">
    <tag k="addr:housenumber" v="828"/>
    <tag k="addr:street" v="Town Hill Road"/>
    <tag k="addr:state" v="VT"/>
    <tag k="ref:vcgi:esiteid" v="286745"/>
  </node>
  <node id="-608" visible="true" lat="42.78124429" lon="-72.87274422">
    <tag k="addr:housenumber" v="630"/>
    <tag k="addr:street" v="Sadawga Lake Road"/>
    <tag k="addr:state" v="VT"/>
    <tag k="ref:vcgi:esiteid" v="286746"/>
  </node>
  <node id="-609" visible="true" lat="42.78143855" lon="-72.82044887">
    <tag k="addr:housenumber" v="951"/>
    <tag k="addr:street" v="Holbrook Road"/>
    <tag k="addr:state" v="VT"/>
    <tag k="ref:vcgi:esiteid" v="286747"/>
  </node>
  <node id="-610" visible="true" lat="42.78112796" lon="-72.87268312">
    <tag k="addr:housenumber" v="640"/>
    <tag k="addr:street" v="Sadawga Lake Road"/>
    <tag k="addr:state" v="VT"/>
    <tag k="ref:vcgi:esiteid" v="286748"/>
  </node>
  <node id="-611" visible="true" lat="42.78094682" lon="-72.87259886">
    <tag k="addr:housenumber" v="652"/>
    <tag k="addr:street" v="Sadawga Lake Road"/>
    <tag k="addr:state" v="VT"/>
    <tag k="ref:vcgi:esiteid" v="286749"/>
  </node>
  <node id="-612" visible="true" lat="42.78179008" lon="-72.8172043">
    <tag k="addr:housenumber" v="783"/>
    <tag k="addr:street" v="Holbrook Road"/>
    <tag k="addr:state" v="VT"/>
    <tag k="ref:vcgi:esiteid" v="286750"/>
  </node>
  <node id="-613" visible="true" lat="42.7808246" lon="-72.87247508">
    <tag k="addr:housenumber" v="664"/>
    <tag k="addr:street" v="Sadawga Lake Road"/>
    <tag k="addr:state" v="VT"/>
    <tag k="ref:vcgi:esiteid" v="286751"/>
  </node>
  <node id="-614" visible="true" lat="42.78070087" lon="-72.86680568">
    <tag k="addr:housenumber" v="232"/>
    <tag k="addr:street" v="Poverty Row"/>
    <tag k="addr:state" v="VT"/>
    <tag k="ref:vcgi:esiteid" v="286752"/>
  </node>
  <node id="-615" visible="true" lat="42.78065883" lon="-72.8568237">
    <tag k="addr:housenumber" v="972"/>
    <tag k="addr:street" v="Town Hill Road"/>
    <tag k="addr:state" v="VT"/>
    <tag k="ref:vcgi:esiteid" v="286753"/>
  </node>
  <node id="-616" visible="true" lat="42.78062321" lon="-72.85429256">
    <tag k="addr:housenumber" v="1103"/>
    <tag k="addr:street" v="Town Hill Road"/>
    <tag k="addr:state" v="VT"/>
    <tag k="ref:vcgi:esiteid" v="286754"/>
  </node>
  <node id="-618" visible="true" lat="42.78057454" lon="-72.82076152">
    <tag k="addr:housenumber" v="971"/>
    <tag k="addr:street" v="Holbrook Road"/>
    <tag k="addr:state" v="VT"/>
    <tag k="ref:vcgi:esiteid" v="286756"/>
  </node>
  <node id="-620" visible="true" lat="42.78013801" lon="-72.86552088">
    <tag k="addr:housenumber" v="279"/>
    <tag k="addr:street" v="Poverty Row"/>
    <tag k="addr:state" v="VT"/>
    <tag k="ref:vcgi:esiteid" v="286758"/>
  </node>
  <node id="-622" visible="true" lat="42.78035413" lon="-72.85292702">
    <tag k="addr:housenumber" v="1177"/>
    <tag k="addr:street" v="Town Hill Road"/>
    <tag k="addr:state" v="VT"/>
    <tag k="ref:vcgi:esiteid" v="286760"/>
  </node>
  <node id="-623" visible="true" lat="42.78023023" lon="-72.866786">
    <tag k="addr:housenumber" v="268"/>
    <tag k="addr:street" v="Poverty Row"/>
    <tag k="addr:state" v="VT"/>
    <tag k="ref:vcgi:esiteid" v="286761"/>
  </node>
  <node id="-624" visible="true" lat="42.78042527" lon="-72.80597517">
    <tag k="addr:housenumber" v="1524"/>
    <tag k="addr:street" v="Vermont Route 112"/>
    <tag k="addr:state" v="VT"/>
    <tag k="ref:vcgi:esiteid" v="286762"/>
  </node>
  <node id="-625" visible="true" lat="42.77993792" lon="-72.89713206">
    <tag k="addr:housenumber" v="7809"/>
    <tag k="addr:street" v="Vermont Route 100"/>
    <tag k="addr:state" v="VT"/>
    <tag k="ref:vcgi:esiteid" v="286763"/>
  </node>
  <node id="-626" visible="true" lat="42.78026567" lon="-72.82215448">
    <tag k="addr:housenumber" v="975"/>
    <tag k="addr:street" v="Holbrook Road"/>
    <tag k="addr:state" v="VT"/>
    <tag k="ref:vcgi:esiteid" v="286764"/>
  </node>
  <node id="-627" visible="true" lat="42.78022649" lon="-72.83033798">
    <tag k="addr:housenumber" v="1530"/>
    <tag k="addr:street" v="Holbrook Road"/>
    <tag k="addr:state" v="VT"/>
    <tag k="ref:vcgi:esiteid" v="286765"/>
  </node>
  <node id="-628" visible="true" lat="42.779949" lon="-72.87233582">
    <tag k="addr:housenumber" v="732"/>
    <tag k="addr:street" v="Sadawga Lake Road"/>
    <tag k="addr:state" v="VT"/>
    <tag k="ref:vcgi:esiteid" v="286766"/>
  </node>
  <node id="-629" visible="true" lat="42.77972481" lon="-72.86317286">
    <tag k="addr:housenumber" v="231"/>
    <tag k="addr:street" v="Murphy Lane"/>
    <tag k="addr:state" v="VT"/>
    <tag k="ref:vcgi:esiteid" v="286767"/>
  </node>
  <node id="-632" visible="true" lat="42.77969954" lon="-72.8479063">
    <tag k="addr:housenumber" v="1431"/>
    <tag k="addr:street" v="Town Hill Road"/>
    <tag k="addr:state" v="VT"/>
    <tag k="ref:vcgi:esiteid" v="286770"/>
  </node>
  <node id="-633" visible="true" lat="42.77965691" lon="-72.84726886">
    <tag k="addr:housenumber" v="1467"/>
    <tag k="addr:street" v="Town Hill Road"/>
    <tag k="addr:state" v="VT"/>
    <tag k="ref:vcgi:esiteid" v="286771"/>
  </node>
  <node id="-634" visible="true" lat="42.77947885" lon="-72.8666813">
    <tag k="addr:housenumber" v="320"/>
    <tag k="addr:street" v="Poverty Row"/>
    <tag k="addr:state" v="VT"/>
    <tag k="ref:vcgi:esiteid" v="286772"/>
  </node>
  <node id="-635" visible="true" lat="42.77937487" lon="-72.8724783">
    <tag k="addr:housenumber" v="768"/>
    <tag k="addr:street" v="Sadawga Lake Road"/>
    <tag k="addr:state" v="VT"/>
    <tag k="ref:vcgi:esiteid" v="286773"/>
  </node>
  <node id="-636" visible="true" lat="42.78058711" lon="-72.84435279">
    <tag k="addr:housenumber" v="617"/>
    <tag k="addr:street" v="Ginny Morse Road"/>
    <tag k="addr:state" v="VT"/>
    <tag k="ref:vcgi:esiteid" v="286774"/>
  </node>
  <node id="-637" visible="true" lat="42.78004192" lon="-72.83507418">
    <tag k="addr:housenumber" v="1732"/>
    <tag k="addr:street" v="Holbrook Road"/>
    <tag k="addr:state" v="VT"/>
    <tag k="ref:vcgi:esiteid" v="286775"/>
  </node>
  <node id="-638" visible="true" lat="42.7794245" lon="-72.86750939">
    <tag k="addr:housenumber" v="54"/>
    <tag k="addr:street" v="Taylor Lane"/>
    <tag k="addr:state" v="VT"/>
    <tag k="ref:vcgi:esiteid" v="286776"/>
  </node>
  <node id="-639" visible="true" lat="42.77935888" lon="-72.84459527">
    <tag k="addr:housenumber" v="677"/>
    <tag k="addr:street" v="Ginny Morse Road"/>
    <tag k="addr:state" v="VT"/>
    <tag k="ref:vcgi:esiteid" v="286777"/>
  </node>
  <node id="-640" visible="true" lat="42.77941523" lon="-72.83339803">
    <tag k="addr:housenumber" v="1707"/>
    <tag k="addr:street" v="Holbrook Road"/>
    <tag k="addr:state" v="VT"/>
    <tag k="ref:vcgi:esiteid" v="286778"/>
  </node>
  <node id="-641" visible="true" lat="42.77926748" lon="-72.83193124">
    <tag k="addr:housenumber" v="1587"/>
    <tag k="addr:street" v="Holbrook Road"/>
    <tag k="addr:state" v="VT"/>
    <tag k="ref:vcgi:esiteid" v="286779"/>
  </node>
  <node id="-642" visible="true" lat="42.7791155" lon="-72.84780836">
    <tag k="addr:housenumber" v="1446"/>
    <tag k="addr:street" v="Town Hill Road"/>
    <tag k="addr:state" v="VT"/>
    <tag k="ref:vcgi:esiteid" v="286780"/>
  </node>
  <node id="-643" visible="true" lat="42.77921682" lon="-72.80538426">
    <tag k="addr:housenumber" v="1613"/>
    <tag k="addr:street" v="Vermont Route 112"/>
    <tag k="addr:state" v="VT"/>
    <tag k="ref:vcgi:esiteid" v="286781"/>
  </node>
  <node id="-644" visible="true" lat="42.77892901" lon="-72.89746464">
    <tag k="addr:housenumber" v="7888"/>
    <tag k="addr:street" v="Vermont Route 100"/>
    <tag k="addr:state" v="VT"/>
    <tag k="ref:vcgi:esiteid" v="286782"/>
  </node>
  <node id="-645" visible="true" lat="42.77883994" lon="-72.86579088">
    <tag k="addr:housenumber" v="367"/>
    <tag k="addr:street" v="Poverty Row"/>
    <tag k="addr:state" v="VT"/>
    <tag k="ref:vcgi:esiteid" v="286783"/>
  </node>
  <node id="-646" visible="true" lat="42.77861166" lon="-72.87269837">
    <tag k="addr:housenumber" v="816"/>
    <tag k="addr:street" v="Sadawga Lake Road"/>
    <tag k="addr:state" v="VT"/>
    <tag k="ref:vcgi:esiteid" v="286784"/>
  </node>
  <node id="-647" visible="true" lat="42.77861414" lon="-72.86324413">
    <tag k="addr:housenumber" v="165"/>
    <tag k="addr:street" v="Murphy Lane"/>
    <tag k="addr:state" v="VT"/>
    <tag k="ref:vcgi:esiteid" v="286785"/>
  </node>
  <node id="-648" visible="true" lat="42.77828206" lon="-72.89710799">
    <tag k="addr:housenumber" v="7920"/>
    <tag k="addr:street" v="Vermont Route 100"/>
    <tag k="addr:state" v="VT"/>
    <tag k="ref:vcgi:esiteid" v="286786"/>
  </node>
  <node id="-649" visible="true" lat="42.77811051" lon="-72.88967132">
    <tag k="addr:housenumber" v="712"/>
    <tag k="addr:street" v="Stimpson Hill Road"/>
    <tag k="addr:state" v="VT"/>
    <tag k="ref:vcgi:esiteid" v="286787"/>
  </node>
  <node id="-650" visible="true" lat="42.77837576" lon="-72.84464861">
    <tag k="addr:housenumber" v="40"/>
    <tag k="addr:street" v="Maple Hill Lane"/>
    <tag k="addr:state" v="VT"/>
    <tag k="ref:vcgi:esiteid" v="286788"/>
  </node>
  <node id="-651" visible="true" lat="42.77830921" lon="-72.86587091">
    <tag k="addr:housenumber" v="407"/>
    <tag k="addr:street" v="Poverty Row"/>
    <tag k="addr:state" v="VT"/>
    <tag k="ref:vcgi:esiteid" v="286789"/>
  </node>
  <node id="-652" visible="true" lat="42.77769259" lon="-72.87241492">
    <tag k="addr:housenumber" v="896"/>
    <tag k="addr:street" v="Sadawga Lake Road"/>
    <tag k="addr:state" v="VT"/>
    <tag k="ref:vcgi:esiteid" v="286790"/>
  </node>
  <node id="-653" visible="true" lat="42.77732445" lon="-72.89699181">
    <tag k="addr:housenumber" v="7992"/>
    <tag k="addr:street" v="Vermont Route 100"/>
    <tag k="addr:state" v="VT"/>
    <tag k="ref:vcgi:esiteid" v="286791"/>
  </node>
  <node id="-654" visible="true" lat="42.77734723" lon="-72.83423034">
    <tag k="addr:housenumber" v="600"/>
    <tag k="addr:street" v="Abbie Morse Road"/>
    <tag k="addr:state" v="VT"/>
    <tag k="ref:vcgi:esiteid" v="286792"/>
  </node>
  <node id="-655" visible="true" lat="42.77692089" lon="-72.86198759">
    <tag k="addr:housenumber" v="80"/>
    <tag k="addr:street" v="Murphy Lane"/>
    <tag k="addr:state" v="VT"/>
    <tag k="ref:vcgi:esiteid" v="286793"/>
  </node>
  <node id="-656" visible="true" lat="42.77687458" lon="-72.89021223">
    <tag k="addr:housenumber" v="714"/>
    <tag k="addr:street" v="Stimpson Hill Road"/>
    <tag k="addr:state" v="VT"/>
    <tag k="ref:vcgi:esiteid" v="286794"/>
  </node>
  <node id="-657" visible="true" lat="42.77692148" lon="-72.86694011">
    <tag k="addr:housenumber" v="486"/>
    <tag k="addr:street" v="Poverty Row"/>
    <tag k="addr:state" v="VT"/>
    <tag k="ref:vcgi:esiteid" v="286795"/>
  </node>
  <node id="-658" visible="true" lat="42.77687341" lon="-72.82405191">
    <tag k="addr:housenumber" v="1367"/>
    <tag k="addr:street" v="Holbrook Road"/>
    <tag k="addr:state" v="VT"/>
    <tag k="ref:vcgi:esiteid" v="286796"/>
  </node>
  <node id="-659" visible="true" lat="42.77641713" lon="-72.86453061">
    <tag k="addr:housenumber" v="154"/>
    <tag k="addr:street" v="Deer Hill Road"/>
    <tag k="addr:state" v="VT"/>
    <tag k="ref:vcgi:esiteid" v="286797"/>
  </node>
  <node id="-660" visible="true" lat="42.77631017" lon="-72.86660335">
    <tag k="addr:housenumber" v="538"/>
    <tag k="addr:street" v="Poverty Row"/>
    <tag k="addr:state" v="VT"/>
    <tag k="ref:vcgi:esiteid" v="286798"/>
  </node>
  <node id="-661" visible="true" lat="42.77626507" lon="-72.86264035">
    <tag k="addr:housenumber" v="329"/>
    <tag k="addr:street" v="Deer Hill Road"/>
    <tag k="addr:state" v="VT"/>
    <tag k="ref:vcgi:esiteid" v="286799"/>
  </node>
  <node id="-662" visible="true" lat="42.77595894" lon="-72.92675076">
    <tag k="addr:housenumber" v="1244"/>
    <tag k="addr:street" v="Phelps Lane"/>
    <tag k="addr:state" v="VT"/>
    <tag k="ref:vcgi:esiteid" v="286800"/>
  </node>
  <node id="-663" visible="true" lat="42.77602611" lon="-72.86174749">
    <tag k="addr:housenumber" v="330"/>
    <tag k="addr:street" v="Deer Hill Road"/>
    <tag k="addr:state" v="VT"/>
    <tag k="ref:vcgi:esiteid" v="286801"/>
  </node>
  <node id="-664" visible="true" lat="42.77580427" lon="-72.86545465">
    <tag k="addr:housenumber" v="587"/>
    <tag k="addr:street" v="Poverty Row"/>
    <tag k="addr:state" v="VT"/>
    <tag k="ref:vcgi:esiteid" v="286802"/>
  </node>
  <node id="-665" visible="true" lat="42.77574336" lon="-72.83229131">
    <tag k="addr:housenumber" v="742"/>
    <tag k="addr:street" v="Abbie Morse Road"/>
    <tag k="addr:state" v="VT"/>
    <tag k="ref:vcgi:esiteid" v="286803"/>
  </node>
  <node id="-666" visible="true" lat="42.77567042" lon="-72.86665222">
    <tag k="addr:housenumber" v="584"/>
    <tag k="addr:street" v="Poverty Row"/>
    <tag k="addr:state" v="VT"/>
    <tag k="ref:vcgi:esiteid" v="286804"/>
  </node>
  <node id="-667" visible="true" lat="42.77566072" lon="-72.86264076">
    <tag k="addr:housenumber" v="323"/>
    <tag k="addr:street" v="Deer Hill Road"/>
    <tag k="addr:state" v="VT"/>
    <tag k="ref:vcgi:esiteid" v="286805"/>
  </node>
  <node id="-668" visible="true" lat="42.77524607" lon="-72.86389201">
    <tag k="addr:housenumber" v="226"/>
    <tag k="addr:street" v="Deer Hill Road"/>
    <tag k="addr:state" v="VT"/>
    <tag k="ref:vcgi:esiteid" v="286806"/>
  </node>
  <node id="-669" visible="true" lat="42.77518315" lon="-72.86613471">
    <tag k="addr:housenumber" v="611"/>
    <tag k="addr:street" v="Poverty Row"/>
    <tag k="addr:state" v="VT"/>
    <tag k="ref:vcgi:esiteid" v="286807"/>
  </node>
  <node id="-670" visible="true" lat="42.77515756" lon="-72.86908864">
    <tag k="addr:housenumber" v="120"/>
    <tag k="addr:street" v="Kentfield Road"/>
    <tag k="addr:state" v="VT"/>
    <tag k="ref:vcgi:esiteid" v="286808"/>
  </node>
  <node id="-671" visible="true" lat="42.77504564" lon="-72.86198617">
    <tag k="addr:housenumber" v="292"/>
    <tag k="addr:street" v="Deer Hill Road"/>
    <tag k="addr:state" v="VT"/>
    <tag k="ref:vcgi:esiteid" v="286809"/>
  </node>
  <node id="-672" visible="true" lat="42.7749129" lon="-72.8671164">
    <tag k="addr:housenumber" v="22"/>
    <tag k="addr:street" v="Kentfield Road"/>
    <tag k="addr:state" v="VT"/>
    <tag k="ref:vcgi:esiteid" v="286810"/>
  </node>
  <node id="-673" visible="true" lat="42.77464992" lon="-72.87097776">
    <tag k="addr:housenumber" v="223"/>
    <tag k="addr:street" v="Kentfield Road"/>
    <tag k="addr:state" v="VT"/>
    <tag k="ref:vcgi:esiteid" v="286811"/>
  </node>
  <node id="-674" visible="true" lat="42.77453613" lon="-72.87226868">
    <tag k="addr:housenumber" v="291"/>
    <tag k="addr:street" v="Kentfield Road"/>
    <tag k="addr:state" v="VT"/>
    <tag k="ref:vcgi:esiteid" v="286812"/>
  </node>
  <node id="-675" visible="true" lat="42.77465894" lon="-72.86365437">
    <tag k="addr:housenumber" v="248"/>
    <tag k="addr:street" v="Deer Hill Road"/>
    <tag k="addr:state" v="VT"/>
    <tag k="ref:vcgi:esiteid" v="286813"/>
  </node>
  <node id="-676" visible="true" lat="42.77454922" lon="-72.89538738">
    <tag k="addr:housenumber" v="8208"/>
    <tag k="addr:street" v="Vermont Route 100"/>
    <tag k="addr:state" v="VT"/>
    <tag k="ref:vcgi:esiteid" v="286814"/>
  </node>
  <node id="-677" visible="true" lat="42.77413074" lon="-72.86714212">
    <tag k="addr:housenumber" v="38"/>
    <tag k="addr:street" v="Burrington Hill Road"/>
    <tag k="addr:state" v="VT"/>
    <tag k="ref:vcgi:esiteid" v="286815"/>
  </node>
  <node id="-678" visible="true" lat="42.77415916" lon="-72.86662823">
    <tag k="addr:housenumber" v="37"/>
    <tag k="addr:street" v="Burrington Hill Road"/>
    <tag k="addr:state" v="VT"/>
    <tag k="ref:vcgi:esiteid" v="286816"/>
  </node>
  <node id="-679" visible="true" lat="42.774259" lon="-72.80625668">
    <tag k="addr:housenumber" v="355"/>
    <tag k="addr:street" v="Route 8a"/>
    <tag k="addr:state" v="VT"/>
    <tag k="ref:vcgi:esiteid" v="286817"/>
  </node>
  <node id="-680" visible="true" lat="42.77417931" lon="-72.80702989">
    <tag k="addr:housenumber" v="376"/>
    <tag k="addr:street" v="Route 8a"/>
    <tag k="addr:state" v="VT"/>
    <tag k="ref:vcgi:esiteid" v="286818"/>
  </node>
  <node id="-681" visible="true" lat="42.77393689" lon="-72.84158207">
    <tag k="addr:housenumber" v="387"/>
    <tag k="addr:street" v="Maple Hill Lane"/>
    <tag k="addr:state" v="VT"/>
    <tag k="ref:vcgi:esiteid" v="286819"/>
  </node>
  <node id="-682" visible="true" lat="42.77331543" lon="-72.87902366">
    <tag k="addr:housenumber" v="246"/>
    <tag k="addr:street" v="Head Of Pond Road"/>
    <tag k="addr:state" v="VT"/>
    <tag k="ref:vcgi:esiteid" v="286820"/>
  </node>
  <node id="-683" visible="true" lat="42.77515384" lon="-72.87808877">
    <tag k="addr:housenumber" v="108"/>
    <tag k="addr:street" v="Head Of Pond Road"/>
    <tag k="addr:state" v="VT"/>
    <tag k="ref:vcgi:esiteid" v="286821"/>
  </node>
  <node id="-684" visible="true" lat="42.77293393" lon="-72.84082453">
    <tag k="addr:housenumber" v="459"/>
    <tag k="addr:street" v="Maple Hill Lane"/>
    <tag k="addr:state" v="VT"/>
    <tag k="ref:vcgi:esiteid" v="286822"/>
  </node>
  <node id="-685" visible="true" lat="42.77251271" lon="-72.8730833">
    <tag k="addr:housenumber" v="465"/>
    <tag k="addr:street" v="Kentfield Road"/>
    <tag k="addr:state" v="VT"/>
    <tag k="ref:vcgi:esiteid" v="286823"/>
  </node>
  <node id="-687" visible="true" lat="42.77178546" lon="-72.87393914">
    <tag k="addr:housenumber" v="539"/>
    <tag k="addr:street" v="Kentfield Road"/>
    <tag k="addr:state" v="VT"/>
    <tag k="ref:vcgi:esiteid" v="286825"/>
  </node>
  <node id="-688" visible="true" lat="42.77158683" lon="-72.85343842">
    <tag k="addr:housenumber" v="549"/>
    <tag k="addr:street" v="Green Road"/>
    <tag k="addr:state" v="VT"/>
    <tag k="ref:vcgi:esiteid" v="286826"/>
  </node>
  <node id="-689" visible="true" lat="42.77152234" lon="-72.80880203">
    <tag k="addr:housenumber" v="616"/>
    <tag k="addr:street" v="Route 8a"/>
    <tag k="addr:state" v="VT"/>
    <tag k="ref:vcgi:esiteid" v="286827"/>
  </node>
  <node id="-691" visible="true" lat="42.77115233" lon="-72.8631881">
    <tag k="addr:housenumber" v="65"/>
    <tag k="addr:street" v="Green Road"/>
    <tag k="addr:state" v="VT"/>
    <tag k="ref:vcgi:esiteid" v="286829"/>
  </node>
  <node id="-692" visible="true" lat="42.77107063" lon="-72.83827948">
    <tag k="addr:housenumber" v="649"/>
    <tag k="addr:street" v="Maple Hill Lane"/>
    <tag k="addr:state" v="VT"/>
    <tag k="ref:vcgi:esiteid" v="286830"/>
  </node>
  <node id="-693" visible="true" lat="42.77096189" lon="-72.86408807">
    <tag k="addr:housenumber" v="325"/>
    <tag k="addr:street" v="Burrington Hill Road"/>
    <tag k="addr:state" v="VT"/>
    <tag k="ref:vcgi:esiteid" v="286831"/>
  </node>
  <node id="-694" visible="true" lat="42.77100515" lon="-72.83930006">
    <tag k="addr:housenumber" v="618"/>
    <tag k="addr:street" v="Maple Hill Lane"/>
    <tag k="addr:state" v="VT"/>
    <tag k="ref:vcgi:esiteid" v="286832"/>
  </node>
  <node id="-695" visible="true" lat="42.77091474" lon="-72.86226691">
    <tag k="addr:housenumber" v="92"/>
    <tag k="addr:street" v="Green Road"/>
    <tag k="addr:state" v="VT"/>
    <tag k="ref:vcgi:esiteid" v="286833"/>
  </node>
  <node id="-696" visible="true" lat="42.77063555" lon="-72.87454738">
    <tag k="addr:housenumber" v="619"/>
    <tag k="addr:street" v="Kentfield Road"/>
    <tag k="addr:state" v="VT"/>
    <tag k="ref:vcgi:esiteid" v="286834"/>
  </node>
  <node id="-697" visible="true" lat="42.77057164" lon="-72.83934214">
    <tag k="addr:housenumber" v="624"/>
    <tag k="addr:street" v="Maple Hill Lane"/>
    <tag k="addr:state" v="VT"/>
    <tag k="ref:vcgi:esiteid" v="286835"/>
  </node>
  <node id="-698" visible="true" lat="42.7699754" lon="-72.91588921">
    <tag k="addr:housenumber" v="9976"/>
    <tag k="addr:street" v="Vermont Route 100"/>
    <tag k="addr:state" v="VT"/>
    <tag k="ref:vcgi:esiteid" v="286836"/>
  </node>
  <node id="-700" visible="true" lat="42.77018372" lon="-72.81060974">
    <tag k="addr:housenumber" v="708"/>
    <tag k="addr:street" v="Route 8a"/>
    <tag k="addr:state" v="VT"/>
    <tag k="ref:vcgi:esiteid" v="286838"/>
  </node>
  <node id="-701" visible="true" lat="42.76996899" lon="-72.8379868">
    <tag k="addr:housenumber" v="712"/>
    <tag k="addr:street" v="Maple Hill Lane"/>
    <tag k="addr:state" v="VT"/>
    <tag k="ref:vcgi:esiteid" v="286839"/>
  </node>
  <node id="-702" visible="true" lat="42.7695043" lon="-72.85681665">
    <tag k="addr:housenumber" v="472"/>
    <tag k="addr:street" v="Green Road"/>
    <tag k="addr:state" v="VT"/>
    <tag k="ref:vcgi:esiteid" v="286840"/>
  </node>
  <node id="-703" visible="true" lat="42.76986902" lon="-72.80845946">
    <tag k="addr:housenumber" v="677"/>
    <tag k="addr:street" v="Route 8a"/>
    <tag k="addr:state" v="VT"/>
    <tag k="ref:vcgi:esiteid" v="286841"/>
  </node>
  <node id="-704" visible="true" lat="42.76970873" lon="-72.85381905">
    <tag k="addr:housenumber" v="626"/>
    <tag k="addr:street" v="Green Road"/>
    <tag k="addr:state" v="VT"/>
    <tag k="ref:vcgi:esiteid" v="286842"/>
  </node>
  <node id="-705" visible="true" lat="42.76944362" lon="-72.8511042">
    <tag k="addr:housenumber" v="761"/>
    <tag k="addr:street" v="Green Road"/>
    <tag k="addr:state" v="VT"/>
    <tag k="ref:vcgi:esiteid" v="286843"/>
  </node>
  <node id="-706" visible="true" lat="42.76919153" lon="-72.894727">
    <tag k="addr:housenumber" v="8602"/>
    <tag k="addr:street" v="Vermont Route 100"/>
    <tag k="addr:state" v="VT"/>
    <tag k="ref:vcgi:esiteid" v="286844"/>
  </node>
  <node id="-707" visible="true" lat="42.76908253" lon="-72.85139544">
    <tag k="addr:housenumber" v="758"/>
    <tag k="addr:street" v="Green Road"/>
    <tag k="addr:state" v="VT"/>
    <tag k="ref:vcgi:esiteid" v="286845"/>
  </node>
  <node id="-708" visible="true" lat="42.76889703" lon="-72.89488">
    <tag k="addr:housenumber" v="8628"/>
    <tag k="addr:street" v="Vermont Route 100"/>
    <tag k="addr:state" v="VT"/>
    <tag k="ref:vcgi:esiteid" v="286846"/>
  </node>
  <node id="-709" visible="true" lat="42.76873943" lon="-72.84861206">
    <tag k="addr:housenumber" v="833"/>
    <tag k="addr:street" v="Green Road"/>
    <tag k="addr:state" v="VT"/>
    <tag k="ref:vcgi:esiteid" v="286847"/>
  </node>
  <node id="-710" visible="true" lat="42.76885789" lon="-72.81027538">
    <tag k="addr:housenumber" v="782"/>
    <tag k="addr:street" v="Route 8a"/>
    <tag k="addr:state" v="VT"/>
    <tag k="ref:vcgi:esiteid" v="286848"/>
  </node>
  <node id="-711" visible="true" lat="42.76871555" lon="-72.81137193">
    <tag k="addr:housenumber" v="846"/>
    <tag k="addr:street" v="Route 8a"/>
    <tag k="addr:state" v="VT"/>
    <tag k="ref:vcgi:esiteid" v="286849"/>
  </node>
  <node id="-712" visible="true" lat="42.76844034" lon="-72.87602567">
    <tag k="addr:housenumber" v="843"/>
    <tag k="addr:street" v="Kentfield Road"/>
    <tag k="addr:state" v="VT"/>
    <tag k="ref:vcgi:esiteid" v="286850"/>
  </node>
  <node id="-714" visible="true" lat="42.76786705" lon="-72.91726926">
    <tag k="addr:housenumber" v="9943"/>
    <tag k="addr:street" v="Vermont Route 100"/>
    <tag k="addr:state" v="VT"/>
    <tag k="ref:vcgi:esiteid" v="286852"/>
  </node>
  <node id="-715" visible="true" lat="42.76784593" lon="-72.87482359">
    <tag k="addr:housenumber" v="863"/>
    <tag k="addr:street" v="Kentfield Road"/>
    <tag k="addr:state" v="VT"/>
    <tag k="ref:vcgi:esiteid" v="286853"/>
  </node>
  <node id="-716" visible="true" lat="42.76778418" lon="-72.89480643">
    <tag k="addr:housenumber" v="8703"/>
    <tag k="addr:street" v="Vermont Route 100"/>
    <tag k="addr:state" v="VT"/>
    <tag k="ref:vcgi:esiteid" v="286854"/>
  </node>
  <node id="-717" visible="true" lat="42.76786109" lon="-72.83550559">
    <tag k="addr:housenumber" v="905"/>
    <tag k="addr:street" v="Maple Hill Lane"/>
    <tag k="addr:state" v="VT"/>
    <tag k="ref:vcgi:esiteid" v="286855"/>
  </node>
  <node id="-718" visible="true" lat="42.76712442" lon="-72.83505007">
    <tag k="addr:housenumber" v="937"/>
    <tag k="addr:street" v="Maple Hill Lane"/>
    <tag k="addr:state" v="VT"/>
    <tag k="ref:vcgi:esiteid" v="286856"/>
  </node>
  <node id="-719" visible="true" lat="42.76716714" lon="-72.84241518">
    <tag k="addr:housenumber" v="496"/>
    <tag k="addr:street" v="Maple Hill Lane"/>
    <tag k="addr:state" v="VT"/>
    <tag k="ref:vcgi:esiteid" v="286857"/>
  </node>
  <node id="-720" visible="true" lat="42.76693629" lon="-72.86032511">
    <tag k="addr:housenumber" v="679"/>
    <tag k="addr:street" v="Burrington Hill Road"/>
    <tag k="addr:state" v="VT"/>
    <tag k="ref:vcgi:esiteid" v="286858"/>
  </node>
  <node id="-721" visible="true" lat="42.76683473" lon="-72.89678964">
    <tag k="addr:housenumber" v="8856"/>
    <tag k="addr:street" v="Vermont Route 100"/>
    <tag k="addr:state" v="VT"/>
    <tag k="ref:vcgi:esiteid" v="286859"/>
  </node>
  <node id="-722" visible="true" lat="42.76666223" lon="-72.91174669">
    <tag k="addr:housenumber" v="9671"/>
    <tag k="addr:street" v="Vermont Route 100"/>
    <tag k="addr:state" v="VT"/>
    <tag k="ref:vcgi:esiteid" v="286860"/>
  </node>
  <node id="-724" visible="true" lat="42.76626042" lon="-72.89968216">
    <tag k="addr:housenumber" v="9020"/>
    <tag k="addr:street" v="Vermont Route 100"/>
    <tag k="addr:state" v="VT"/>
    <tag k="ref:vcgi:esiteid" v="286862"/>
  </node>
  <node id="-726" visible="true" lat="42.76640299" lon="-72.83451447">
    <tag k="addr:housenumber" v="1011"/>
    <tag k="addr:street" v="Maple Hill Lane"/>
    <tag k="addr:state" v="VT"/>
    <tag k="ref:vcgi:esiteid" v="286864"/>
  </node>
  <node id="-727" visible="true" lat="42.76609362" lon="-72.81307027">
    <tag k="addr:housenumber" v="1024"/>
    <tag k="addr:street" v="Route 8a"/>
    <tag k="addr:state" v="VT"/>
    <tag k="ref:vcgi:esiteid" v="286865"/>
  </node>
  <node id="-730" visible="true" lat="42.76627776" lon="-72.89782686">
    <tag k="addr:housenumber" v="8944"/>
    <tag k="addr:street" v="Vermont Route 100"/>
    <tag k="addr:state" v="VT"/>
    <tag k="ref:vcgi:esiteid" v="286868"/>
  </node>
  <node id="-731" visible="true" lat="42.76556918" lon="-72.8999736">
    <tag k="addr:housenumber" v="9046"/>
    <tag k="addr:street" v="Vermont Route 100"/>
    <tag k="addr:state" v="VT"/>
    <tag k="ref:vcgi:esiteid" v="286869"/>
  </node>
  <node id="-732" visible="true" lat="42.76564738" lon="-72.91021222">
    <tag k="addr:housenumber" v="9557"/>
    <tag k="addr:street" v="Vermont Route 100"/>
    <tag k="addr:state" v="VT"/>
    <tag k="ref:vcgi:esiteid" v="286870"/>
  </node>
  <node id="-733" visible="true" lat="42.76590323" lon="-72.8602487">
    <tag k="addr:housenumber" v="730"/>
    <tag k="addr:street" v="Burrington Hill Road"/>
    <tag k="addr:state" v="VT"/>
    <tag k="ref:vcgi:esiteid" v="286871"/>
  </node>
  <node id="-736" visible="true" lat="42.76551697" lon="-72.90470033">
    <tag k="addr:housenumber" v="9282"/>
    <tag k="addr:street" v="Vermont Route 100"/>
    <tag k="addr:state" v="VT"/>
    <tag k="ref:vcgi:esiteid" v="286874"/>
  </node>
  <node id="-737" visible="true" lat="42.7654053" lon="-72.85978856">
    <tag k="addr:housenumber" v="764"/>
    <tag k="addr:street" v="Burrington Hill Road"/>
    <tag k="addr:state" v="VT"/>
    <tag k="ref:vcgi:esiteid" v="286875"/>
  </node>
  <node id="-739" visible="true" lat="42.76563354" lon="-72.81509768">
    <tag k="addr:housenumber" v="1154"/>
    <tag k="addr:street" v="Route 8a"/>
    <tag k="addr:state" v="VT"/>
    <tag k="ref:vcgi:esiteid" v="286877"/>
  </node>
  <node id="-740" visible="true" lat="42.76487923" lon="-72.90219861">
    <tag k="addr:housenumber" v="9167"/>
    <tag k="addr:street" v="Vermont Route 100"/>
    <tag k="addr:state" v="VT"/>
    <tag k="ref:vcgi:esiteid" v="286878"/>
  </node>
  <node id="-741" visible="true" lat="42.76552198" lon="-72.8129259">
    <tag k="addr:housenumber" v="42"/>
    <tag k="addr:street" v="Pratt Road"/>
    <tag k="addr:state" v="VT"/>
    <tag k="ref:vcgi:esiteid" v="286879"/>
  </node>
  <node id="-742" visible="true" lat="42.76546437" lon="-72.83366111">
    <tag k="addr:housenumber" v="1081"/>
    <tag k="addr:street" v="Maple Hill Lane"/>
    <tag k="addr:state" v="VT"/>
    <tag k="ref:vcgi:esiteid" v="286880"/>
  </node>
  <node id="-743" visible="true" lat="42.76511952" lon="-72.89372968">
    <tag k="addr:housenumber" v="129"/>
    <tag k="addr:street" v="Shippee Road"/>
    <tag k="addr:state" v="VT"/>
    <tag k="ref:vcgi:esiteid" v="286881"/>
  </node>
  <node id="-744" visible="true" lat="42.76504518" lon="-72.81351969">
    <tag k="addr:housenumber" v="1079"/>
    <tag k="addr:street" v="Route 8a"/>
    <tag k="addr:state" v="VT"/>
    <tag k="ref:vcgi:esiteid" v="286882"/>
  </node>
  <node id="-745" visible="true" lat="42.76484288" lon="-72.83463853">
    <tag k="addr:housenumber" v="1108"/>
    <tag k="addr:street" v="Maple Hill Lane"/>
    <tag k="addr:state" v="VT"/>
    <tag k="ref:vcgi:esiteid" v="286883"/>
  </node>
  <node id="-746" visible="true" lat="42.76451748" lon="-72.90005086">
    <tag k="addr:housenumber" v="9049"/>
    <tag k="addr:street" v="Vermont Route 100"/>
    <tag k="addr:state" v="VT"/>
    <tag k="ref:vcgi:esiteid" v="286884"/>
  </node>
  <node id="-748" visible="true" lat="42.76475386" lon="-72.81799307">
    <tag k="addr:housenumber" v="1320"/>
    <tag k="addr:street" v="Route 8a"/>
    <tag k="addr:state" v="VT"/>
    <tag k="ref:vcgi:esiteid" v="286886"/>
  </node>
  <node id="-749" visible="true" lat="42.76462942" lon="-72.81683022">
    <tag k="addr:housenumber" v="1248"/>
    <tag k="addr:street" v="Route 8a"/>
    <tag k="addr:state" v="VT"/>
    <tag k="ref:vcgi:esiteid" v="286887"/>
  </node>
  <node id="-750" visible="true" lat="42.7645301" lon="-72.85941888">
    <tag k="addr:housenumber" v="770"/>
    <tag k="addr:street" v="Burrington Hill Road"/>
    <tag k="addr:state" v="VT"/>
    <tag k="ref:vcgi:esiteid" v="286888"/>
  </node>
  <node id="-751" visible="true" lat="42.76460291" lon="-72.81739102">
    <tag k="addr:housenumber" v="1314"/>
    <tag k="addr:street" v="Route 8a"/>
    <tag k="addr:state" v="VT"/>
    <tag k="ref:vcgi:esiteid" v="286889"/>
  </node>
  <node id="-752" visible="true" lat="42.76423698" lon="-72.89467023">
    <tag k="addr:housenumber" v="182"/>
    <tag k="addr:street" v="Shippee Road"/>
    <tag k="addr:state" v="VT"/>
    <tag k="ref:vcgi:esiteid" v="286890"/>
  </node>
  <node id="-753" visible="true" lat="42.76404752" lon="-72.83132986">
    <tag k="addr:housenumber" v="1211"/>
    <tag k="addr:street" v="Maple Hill Lane"/>
    <tag k="addr:state" v="VT"/>
    <tag k="ref:vcgi:esiteid" v="286891"/>
  </node>
  <node id="-754" visible="true" lat="42.76383131" lon="-72.81801518">
    <tag k="addr:housenumber" v="1338"/>
    <tag k="addr:street" v="Route 8a"/>
    <tag k="addr:state" v="VT"/>
    <tag k="ref:vcgi:esiteid" v="286892"/>
  </node>
  <node id="-755" visible="true" lat="42.76363533" lon="-72.83931898">
    <tag k="addr:housenumber" v="224"/>
    <tag k="addr:street" v="Houghton Road"/>
    <tag k="addr:state" v="VT"/>
    <tag k="ref:vcgi:esiteid" v="286893"/>
  </node>
  <node id="-756" visible="true" lat="42.76352051" lon="-72.81918133">
    <tag k="addr:housenumber" v="1392"/>
    <tag k="addr:street" v="Route 8a"/>
    <tag k="addr:state" v="VT"/>
    <tag k="ref:vcgi:esiteid" v="286894"/>
  </node>
  <node id="-757" visible="true" lat="42.7633004" lon="-72.85511555">
    <tag k="addr:housenumber" v="1033"/>
    <tag k="addr:street" v="Burrington Hill Road"/>
    <tag k="addr:state" v="VT"/>
    <tag k="ref:vcgi:esiteid" v="286895"/>
  </node>
  <node id="-758" visible="true" lat="42.76318528" lon="-72.9094964">
    <tag k="addr:housenumber" v="190"/>
    <tag k="addr:street" v="Merrifield Road"/>
    <tag k="addr:state" v="VT"/>
    <tag k="ref:vcgi:esiteid" v="286896"/>
  </node>
  <node id="-759" visible="true" lat="42.76312937" lon="-72.81791438">
    <tag k="addr:housenumber" v="1361"/>
    <tag k="addr:street" v="Route 8a"/>
    <tag k="addr:state" v="VT"/>
    <tag k="ref:vcgi:esiteid" v="286897"/>
  </node>
  <node id="-760" visible="true" lat="42.76307377" lon="-72.85470744">
    <tag k="addr:housenumber" v="1071"/>
    <tag k="addr:street" v="Burrington Hill Road"/>
    <tag k="addr:state" v="VT"/>
    <tag k="ref:vcgi:esiteid" v="286898"/>
  </node>
  <node id="-761" visible="true" lat="42.76302114" lon="-72.83352333">
    <tag k="addr:housenumber" v="1234"/>
    <tag k="addr:street" v="Maple Hill Lane"/>
    <tag k="addr:state" v="VT"/>
    <tag k="ref:vcgi:esiteid" v="286899"/>
  </node>
  <node id="-762" visible="true" lat="42.76293344" lon="-72.81927718">
    <tag k="addr:housenumber" v="1420"/>
    <tag k="addr:street" v="Route 8a"/>
    <tag k="addr:state" v="VT"/>
    <tag k="ref:vcgi:esiteid" v="286900"/>
  </node>
  <node id="-763" visible="true" lat="42.76289244" lon="-72.81180863">
    <tag k="addr:housenumber" v="221"/>
    <tag k="addr:street" v="Pratt Road"/>
    <tag k="addr:state" v="VT"/>
    <tag k="ref:vcgi:esiteid" v="286901"/>
  </node>
  <node id="-764" visible="true" lat="42.762629" lon="-72.85015003">
    <tag k="addr:housenumber" v="1355"/>
    <tag k="addr:street" v="Burrington Hill Road"/>
    <tag k="addr:state" v="VT"/>
    <tag k="ref:vcgi:esiteid" v="286902"/>
  </node>
  <node id="-765" visible="true" lat="42.76234288" lon="-72.85291975">
    <tag k="addr:housenumber" v="1201"/>
    <tag k="addr:street" v="Burrington Hill Road"/>
    <tag k="addr:state" v="VT"/>
    <tag k="ref:vcgi:esiteid" v="286903"/>
  </node>
  <node id="-766" visible="true" lat="42.76260902" lon="-72.81977797">
    <tag k="addr:housenumber" v="1452"/>
    <tag k="addr:street" v="Route 8a"/>
    <tag k="addr:state" v="VT"/>
    <tag k="ref:vcgi:esiteid" v="286904"/>
  </node>
  <node id="-767" visible="true" lat="42.76164794" lon="-72.90909444">
    <tag k="addr:housenumber" v="266"/>
    <tag k="addr:street" v="Merrifield Road"/>
    <tag k="addr:state" v="VT"/>
    <tag k="ref:vcgi:esiteid" v="286905"/>
  </node>
  <node id="-769" visible="true" lat="42.76152055" lon="-72.81189965">
    <tag k="addr:housenumber" v="320"/>
    <tag k="addr:street" v="Pratt Road"/>
    <tag k="addr:state" v="VT"/>
    <tag k="ref:vcgi:esiteid" v="286907"/>
  </node>
  <node id="-770" visible="true" lat="42.76114451" lon="-72.83154365">
    <tag k="addr:housenumber" v="1452"/>
    <tag k="addr:street" v="Maple Hill Lane"/>
    <tag k="addr:state" v="VT"/>
    <tag k="ref:vcgi:esiteid" v="286908"/>
  </node>
  <node id="-771" visible="true" lat="42.76147159" lon="-72.85107655">
    <tag k="addr:housenumber" v="1317"/>
    <tag k="addr:street" v="Burrington Hill Road"/>
    <tag k="addr:state" v="VT"/>
    <tag k="ref:vcgi:esiteid" v="286909"/>
  </node>
  <node id="-772" visible="true" lat="42.76080483" lon="-72.85260937">
    <tag k="addr:housenumber" v="1226"/>
    <tag k="addr:street" v="Burrington Hill Road"/>
    <tag k="addr:state" v="VT"/>
    <tag k="ref:vcgi:esiteid" v="286911"/>
  </node>
  <node id="-774" visible="true" lat="42.76063236" lon="-72.85149393">
    <tag k="addr:housenumber" v="1300"/>
    <tag k="addr:street" v="Burrington Hill Road"/>
    <tag k="addr:state" v="VT"/>
    <tag k="ref:vcgi:esiteid" v="286913"/>
  </node>
  <node id="-775" visible="true" lat="42.76063991" lon="-72.82115875">
    <tag k="addr:housenumber" v="1614"/>
    <tag k="addr:street" v="Route 8a"/>
    <tag k="addr:state" v="VT"/>
    <tag k="ref:vcgi:esiteid" v="286914"/>
  </node>
  <node id="-776" visible="true" lat="42.760856" lon="-72.84882958">
    <tag k="addr:housenumber" v="1427"/>
    <tag k="addr:street" v="Burrington Hill Road"/>
    <tag k="addr:state" v="VT"/>
    <tag k="ref:vcgi:esiteid" v="286915"/>
  </node>
  <node id="-777" visible="true" lat="42.76101016" lon="-72.84015674">
    <tag k="addr:housenumber" v="462"/>
    <tag k="addr:street" v="Houghton Road"/>
    <tag k="addr:state" v="VT"/>
    <tag k="ref:vcgi:esiteid" v="286916"/>
  </node>
  <node id="-778" visible="true" lat="42.75999822" lon="-72.85041529">
    <tag k="addr:housenumber" v="1346"/>
    <tag k="addr:street" v="Burrington Hill Road"/>
    <tag k="addr:state" v="VT"/>
    <tag k="ref:vcgi:esiteid" v="286917"/>
  </node>
  <node id="-780" visible="true" lat="42.75951391" lon="-72.81864601">
    <tag k="addr:housenumber" v="1643"/>
    <tag k="addr:street" v="Route 8a"/>
    <tag k="addr:state" v="VT"/>
    <tag k="ref:vcgi:esiteid" v="286919"/>
  </node>
  <node id="-781" visible="true" lat="42.7595568" lon="-72.82118582">
    <tag k="addr:housenumber" v="2039"/>
    <tag k="addr:street" v="Maple Hill Lane"/>
    <tag k="addr:state" v="VT"/>
    <tag k="ref:vcgi:esiteid" v="286920"/>
  </node>
  <node id="-783" visible="true" lat="42.759058" lon="-72.82283137">
    <tag k="addr:housenumber" v="1947"/>
    <tag k="addr:street" v="Maple Hill Lane"/>
    <tag k="addr:state" v="VT"/>
    <tag k="ref:vcgi:esiteid" v="286922"/>
  </node>
  <node id="-784" visible="true" lat="42.75897057" lon="-72.82334485">
    <tag k="addr:housenumber" v="1925"/>
    <tag k="addr:street" v="Maple Hill Lane"/>
    <tag k="addr:state" v="VT"/>
    <tag k="ref:vcgi:esiteid" v="286923"/>
  </node>
  <node id="-785" visible="true" lat="42.75878381" lon="-72.82142691">
    <tag k="addr:housenumber" v="2016"/>
    <tag k="addr:street" v="Maple Hill Lane"/>
    <tag k="addr:state" v="VT"/>
    <tag k="ref:vcgi:esiteid" v="286924"/>
  </node>
  <node id="-786" visible="true" lat="42.75865499" lon="-72.81989458">
    <tag k="addr:housenumber" v="2100"/>
    <tag k="addr:street" v="Maple Hill Lane"/>
    <tag k="addr:state" v="VT"/>
    <tag k="ref:vcgi:esiteid" v="286925"/>
  </node>
  <node id="-787" visible="true" lat="42.75847547" lon="-72.82355484">
    <tag k="addr:housenumber" v="1910"/>
    <tag k="addr:street" v="Maple Hill Lane"/>
    <tag k="addr:state" v="VT"/>
    <tag k="ref:vcgi:esiteid" v="286926"/>
  </node>
  <node id="-788" visible="true" lat="42.75840588" lon="-72.82761468">
    <tag k="addr:housenumber" v="1677"/>
    <tag k="addr:street" v="Maple Hill Lane"/>
    <tag k="addr:state" v="VT"/>
    <tag k="ref:vcgi:esiteid" v="286927"/>
  </node>
  <node id="-789" visible="true" lat="42.7583637" lon="-72.8410862">
    <tag k="addr:housenumber" v="2027"/>
    <tag k="addr:street" v="Burrington Hill Road"/>
    <tag k="addr:state" v="VT"/>
    <tag k="ref:vcgi:esiteid" v="286928"/>
  </node>
  <node id="-791" visible="true" lat="42.75823519" lon="-72.8250544">
    <tag k="addr:housenumber" v="1834"/>
    <tag k="addr:street" v="Maple Hill Lane"/>
    <tag k="addr:state" v="VT"/>
    <tag k="ref:vcgi:esiteid" v="286930"/>
  </node>
  <node id="-793" visible="true" lat="42.75793619" lon="-72.81902825">
    <tag k="addr:housenumber" v="1755"/>
    <tag k="addr:street" v="Route 8a"/>
    <tag k="addr:state" v="VT"/>
    <tag k="ref:vcgi:esiteid" v="286932"/>
  </node>
  <node id="-794" visible="true" lat="42.75769224" lon="-72.84665677">
    <tag k="addr:housenumber" v="1657"/>
    <tag k="addr:street" v="Burrington Hill Road"/>
    <tag k="addr:state" v="VT"/>
    <tag k="ref:vcgi:esiteid" v="286933"/>
  </node>
  <node id="-795" visible="true" lat="42.75737895" lon="-72.8470967">
    <tag k="addr:housenumber" v="1638"/>
    <tag k="addr:street" v="Burrington Hill Road"/>
    <tag k="addr:state" v="VT"/>
    <tag k="ref:vcgi:esiteid" v="286934"/>
  </node>
  <node id="-796" visible="true" lat="42.7574075" lon="-72.8457047">
    <tag k="addr:housenumber" v="1701"/>
    <tag k="addr:street" v="Burrington Hill Road"/>
    <tag k="addr:state" v="VT"/>
    <tag k="ref:vcgi:esiteid" v="286935"/>
  </node>
  <node id="-797" visible="true" lat="42.75726781" lon="-72.90365798">
    <tag k="addr:housenumber" v="667"/>
    <tag k="addr:street" v="Merrifield Road"/>
    <tag k="addr:state" v="VT"/>
    <tag k="ref:vcgi:esiteid" v="286936"/>
  </node>
  <node id="-798" visible="true" lat="42.75734423" lon="-72.82344138">
    <tag k="addr:housenumber" v="1880"/>
    <tag k="addr:street" v="Maple Hill Lane"/>
    <tag k="addr:state" v="VT"/>
    <tag k="ref:vcgi:esiteid" v="286937"/>
  </node>
  <node id="-799" visible="true" lat="42.75700587" lon="-72.84608053">
    <tag k="addr:housenumber" v="1702"/>
    <tag k="addr:street" v="Burrington Hill Road"/>
    <tag k="addr:state" v="VT"/>
    <tag k="ref:vcgi:esiteid" v="286938"/>
  </node>
  <node id="-800" visible="true" lat="42.75676099" lon="-72.83729599">
    <tag k="addr:housenumber" v="2245"/>
    <tag k="addr:street" v="Burrington Hill Road"/>
    <tag k="addr:state" v="VT"/>
    <tag k="ref:vcgi:esiteid" v="286939"/>
  </node>
  <node id="-801" visible="true" lat="42.75676028" lon="-72.82018479">
    <tag k="addr:housenumber" v="1838"/>
    <tag k="addr:street" v="Route 8a"/>
    <tag k="addr:state" v="VT"/>
    <tag k="ref:vcgi:esiteid" v="286940"/>
  </node>
  <node id="-802" visible="true" lat="42.75651251" lon="-72.81601599">
    <tag k="addr:housenumber" v="415"/>
    <tag k="addr:street" v="Five Fox Lane"/>
    <tag k="addr:state" v="VT"/>
    <tag k="ref:vcgi:esiteid" v="286941"/>
  </node>
  <node id="-803" visible="true" lat="42.75621213" lon="-72.81608814">
    <tag k="addr:housenumber" v="416"/>
    <tag k="addr:street" v="Five Fox Lane"/>
    <tag k="addr:state" v="VT"/>
    <tag k="ref:vcgi:esiteid" v="286942"/>
  </node>
  <node id="-804" visible="true" lat="42.75582722" lon="-72.81906116">
    <tag k="addr:housenumber" v="1869"/>
    <tag k="addr:street" v="Route 8a"/>
    <tag k="addr:state" v="VT"/>
    <tag k="ref:vcgi:esiteid" v="286943"/>
  </node>
  <node id="-806" visible="true" lat="42.75513358" lon="-72.84462002">
    <tag k="addr:housenumber" v="70"/>
    <tag k="addr:street" v="Cyrus Road"/>
    <tag k="addr:state" v="VT"/>
    <tag k="ref:vcgi:esiteid" v="286945"/>
  </node>
  <node id="-807" visible="true" lat="42.7546829" lon="-72.84451613">
    <tag k="addr:housenumber" v="114"/>
    <tag k="addr:street" v="Cyrus Road"/>
    <tag k="addr:state" v="VT"/>
    <tag k="ref:vcgi:esiteid" v="286946"/>
  </node>
  <node id="-808" visible="true" lat="42.75461305" lon="-72.83445099">
    <tag k="addr:housenumber" v="2447"/>
    <tag k="addr:street" v="Burrington Hill Road"/>
    <tag k="addr:state" v="VT"/>
    <tag k="ref:vcgi:esiteid" v="286947"/>
  </node>
  <node id="-809" visible="true" lat="42.75454989" lon="-72.82013623">
    <tag k="addr:housenumber" v="1974"/>
    <tag k="addr:street" v="Route 8a"/>
    <tag k="addr:state" v="VT"/>
    <tag k="ref:vcgi:esiteid" v="286948"/>
  </node>
  <node id="-810" visible="true" lat="42.75437913" lon="-72.83515805">
    <tag k="addr:housenumber" v="2448"/>
    <tag k="addr:street" v="Burrington Hill Road"/>
    <tag k="addr:state" v="VT"/>
    <tag k="ref:vcgi:esiteid" v="286949"/>
  </node>
  <node id="-811" visible="true" lat="42.75362689" lon="-72.88970294">
    <tag k="addr:housenumber" v="186"/>
    <tag k="addr:street" v="Nate Flynn Road"/>
    <tag k="addr:state" v="VT"/>
    <tag k="ref:vcgi:esiteid" v="286950"/>
  </node>
  <node id="-812" visible="true" lat="42.7535535" lon="-72.82018792">
    <tag k="addr:housenumber" v="2160"/>
    <tag k="addr:street" v="Route 8a"/>
    <tag k="addr:state" v="VT"/>
    <tag k="ref:vcgi:esiteid" v="286951"/>
  </node>
  <node id="-813" visible="true" lat="42.75360018" lon="-72.8450836">
    <tag k="addr:housenumber" v="241"/>
    <tag k="addr:street" v="Cyrus Road"/>
    <tag k="addr:state" v="VT"/>
    <tag k="ref:vcgi:esiteid" v="286952"/>
  </node>
  <node id="-814" visible="true" lat="42.75318957" lon="-72.84603393">
    <tag k="addr:housenumber" v="245"/>
    <tag k="addr:street" v="Cyrus Road"/>
    <tag k="addr:state" v="VT"/>
    <tag k="ref:vcgi:esiteid" v="286953"/>
  </node>
  <node id="-815" visible="true" lat="42.75294565" lon="-72.90118926">
    <tag k="addr:housenumber" v="980"/>
    <tag k="addr:street" v="Merrifield Road"/>
    <tag k="addr:state" v="VT"/>
    <tag k="ref:vcgi:esiteid" v="286954"/>
  </node>
  <node id="-816" visible="true" lat="42.752799" lon="-72.84323522">
    <tag k="addr:housenumber" v="167"/>
    <tag k="addr:street" v="Saddada Road"/>
    <tag k="addr:state" v="VT"/>
    <tag k="ref:vcgi:esiteid" v="286955"/>
  </node>
  <node id="-817" visible="true" lat="42.75227408" lon="-72.82947474">
    <tag k="addr:housenumber" v="2815"/>
    <tag k="addr:street" v="Burrington Hill Road"/>
    <tag k="addr:state" v="VT"/>
    <tag k="ref:vcgi:esiteid" v="286956"/>
  </node>
  <node id="-818" visible="true" lat="42.75229244" lon="-72.83342389">
    <tag k="addr:housenumber" v="2592"/>
    <tag k="addr:street" v="Burrington Hill Road"/>
    <tag k="addr:state" v="VT"/>
    <tag k="ref:vcgi:esiteid" v="286957"/>
  </node>
  <node id="-819" visible="true" lat="42.75207321" lon="-72.85492024">
    <tag k="addr:housenumber" v="338"/>
    <tag k="addr:street" v="Dix Lane"/>
    <tag k="addr:state" v="VT"/>
    <tag k="ref:vcgi:esiteid" v="286958"/>
  </node>
  <node id="-820" visible="true" lat="42.75171021" lon="-72.85137348">
    <tag k="addr:housenumber" v="149"/>
    <tag k="addr:street" v="Dix Lane"/>
    <tag k="addr:state" v="VT"/>
    <tag k="ref:vcgi:esiteid" v="286959"/>
  </node>
  <node id="-821" visible="true" lat="42.75143635" lon="-72.82875239">
    <tag k="addr:housenumber" v="2843"/>
    <tag k="addr:street" v="Burrington Hill Road"/>
    <tag k="addr:state" v="VT"/>
    <tag k="ref:vcgi:esiteid" v="286960"/>
  </node>
  <node id="-822" visible="true" lat="42.7507251" lon="-72.89832266">
    <tag k="addr:housenumber" v="1201"/>
    <tag k="addr:street" v="Merrifield Road"/>
    <tag k="addr:state" v="VT"/>
    <tag k="ref:vcgi:esiteid" v="286961"/>
  </node>
  <node id="-823" visible="true" lat="42.75078501" lon="-72.82928656">
    <tag k="addr:housenumber" v="1192"/>
    <tag k="addr:street" v="Chapel Hill Road"/>
    <tag k="addr:state" v="VT"/>
    <tag k="ref:vcgi:esiteid" v="286962"/>
  </node>
  <node id="-824" visible="true" lat="42.7503032" lon="-72.82856023">
    <tag k="addr:housenumber" v="2888"/>
    <tag k="addr:street" v="Burrington Hill Road"/>
    <tag k="addr:state" v="VT"/>
    <tag k="ref:vcgi:esiteid" v="286963"/>
  </node>
  <node id="-825" visible="true" lat="42.74962981" lon="-72.88898656">
    <tag k="addr:housenumber" v="447"/>
    <tag k="addr:street" v="Nate Flynn Road"/>
    <tag k="addr:state" v="VT"/>
    <tag k="ref:vcgi:esiteid" v="286964"/>
  </node>
  <node id="-826" visible="true" lat="42.74999445" lon="-72.82595475">
    <tag k="addr:housenumber" v="3008"/>
    <tag k="addr:street" v="Burrington Hill Road"/>
    <tag k="addr:state" v="VT"/>
    <tag k="ref:vcgi:esiteid" v="286965"/>
  </node>
  <node id="-827" visible="true" lat="42.74968543" lon="-72.82889338">
    <tag k="addr:housenumber" v="1100"/>
    <tag k="addr:street" v="Chapel Hill Road"/>
    <tag k="addr:state" v="VT"/>
    <tag k="ref:vcgi:esiteid" v="286966"/>
  </node>
  <node id="-828" visible="true" lat="42.74915703" lon="-72.82892723">
    <tag k="addr:housenumber" v="1068"/>
    <tag k="addr:street" v="Chapel Hill Road"/>
    <tag k="addr:state" v="VT"/>
    <tag k="ref:vcgi:esiteid" v="286967"/>
  </node>
  <node id="-829" visible="true" lat="42.74890421" lon="-72.81580573">
    <tag k="addr:housenumber" v="39"/>
    <tag k="addr:street" v="McMillan Road"/>
    <tag k="addr:state" v="VT"/>
    <tag k="ref:vcgi:esiteid" v="286968"/>
  </node>
  <node id="-830" visible="true" lat="42.74831814" lon="-72.82976832">
    <tag k="addr:housenumber" v="1005"/>
    <tag k="addr:street" v="Chapel Hill Road"/>
    <tag k="addr:state" v="VT"/>
    <tag k="ref:vcgi:esiteid" v="286969"/>
  </node>
  <node id="-831" visible="true" lat="42.74815349" lon="-72.89094078">
    <tag k="addr:housenumber" v="580"/>
    <tag k="addr:street" v="Nate Flynn Road"/>
    <tag k="addr:state" v="VT"/>
    <tag k="ref:vcgi:esiteid" v="286970"/>
  </node>
  <node id="-832" visible="true" lat="42.74791433" lon="-72.82991286">
    <tag k="addr:housenumber" v="985"/>
    <tag k="addr:street" v="Chapel Hill Road"/>
    <tag k="addr:state" v="VT"/>
    <tag k="ref:vcgi:esiteid" v="286971"/>
  </node>
  <node id="-833" visible="true" lat="42.74758432" lon="-72.89754664">
    <tag k="addr:housenumber" v="1422"/>
    <tag k="addr:street" v="Merrifield Road"/>
    <tag k="addr:state" v="VT"/>
    <tag k="ref:vcgi:esiteid" v="286972"/>
  </node>
  <node id="-834" visible="true" lat="42.74764549" lon="-72.89003666">
    <tag k="addr:housenumber" v="595"/>
    <tag k="addr:street" v="Nate Flynn Road"/>
    <tag k="addr:state" v="VT"/>
    <tag k="ref:vcgi:esiteid" v="286973"/>
  </node>
  <node id="-835" visible="true" lat="42.747557" lon="-72.82929509">
    <tag k="addr:housenumber" v="962"/>
    <tag k="addr:street" v="Chapel Hill Road"/>
    <tag k="addr:state" v="VT"/>
    <tag k="ref:vcgi:esiteid" v="286974"/>
  </node>
  <node id="-836" visible="true" lat="42.74754863" lon="-72.85079678">
    <tag k="addr:housenumber" v="695"/>
    <tag k="addr:street" v="Cyrus Road"/>
    <tag k="addr:state" v="VT"/>
    <tag k="ref:vcgi:esiteid" v="286975"/>
  </node>
  <node id="-837" visible="true" lat="42.74754101" lon="-72.8303169">
    <tag k="addr:housenumber" v="963"/>
    <tag k="addr:street" v="Chapel Hill Road"/>
    <tag k="addr:state" v="VT"/>
    <tag k="ref:vcgi:esiteid" v="286976"/>
  </node>
  <node id="-838" visible="true" lat="42.74757912" lon="-72.81022591">
    <tag k="addr:housenumber" v="337"/>
    <tag k="addr:street" v="McMillan Road"/>
    <tag k="addr:state" v="VT"/>
    <tag k="ref:vcgi:esiteid" v="286977"/>
  </node>
  <node id="-839" visible="true" lat="42.74731907" lon="-72.81308191">
    <tag k="addr:housenumber" v="182"/>
    <tag k="addr:street" v="McMillan Road"/>
    <tag k="addr:state" v="VT"/>
    <tag k="ref:vcgi:esiteid" v="286978"/>
  </node>
  <node id="-840" visible="true" lat="42.7472164" lon="-72.83276911">
    <tag k="addr:housenumber" v="1045"/>
    <tag k="addr:street" v="Chapel Hill Road"/>
    <tag k="addr:state" v="VT"/>
    <tag k="ref:vcgi:esiteid" v="286979"/>
  </node>
  <node id="-841" visible="true" lat="42.74708768" lon="-72.85195373">
    <tag k="addr:housenumber" v="794"/>
    <tag k="addr:street" v="Cyrus Road"/>
    <tag k="addr:state" v="VT"/>
    <tag k="ref:vcgi:esiteid" v="286980"/>
  </node>
  <node id="-842" visible="true" lat="42.74674754" lon="-72.85120879">
    <tag k="addr:housenumber" v="775"/>
    <tag k="addr:street" v="Cyrus Road"/>
    <tag k="addr:state" v="VT"/>
    <tag k="ref:vcgi:esiteid" v="286981"/>
  </node>
  <node id="-843" visible="true" lat="42.74654508" lon="-72.89941399">
    <tag k="addr:housenumber" v="148"/>
    <tag k="addr:street" v="Lone Pine Road"/>
    <tag k="addr:state" v="VT"/>
    <tag k="ref:vcgi:esiteid" v="286982"/>
  </node>
  <node id="-844" visible="true" lat="42.74621581" lon="-72.90411776">
    <tag k="addr:housenumber" v="406"/>
    <tag k="addr:street" v="Lone Pine Road"/>
    <tag k="addr:state" v="VT"/>
    <tag k="ref:vcgi:esiteid" v="286983"/>
  </node>
  <node id="-845" visible="true" lat="42.74635486" lon="-72.81404226">
    <tag k="addr:housenumber" v="2591"/>
    <tag k="addr:street" v="Route 8a"/>
    <tag k="addr:state" v="VT"/>
    <tag k="ref:vcgi:esiteid" v="286984"/>
  </node>
  <node id="-846" visible="true" lat="42.74629166" lon="-72.85318492">
    <tag k="addr:housenumber" v="842"/>
    <tag k="addr:street" v="Cyrus Road"/>
    <tag k="addr:state" v="VT"/>
    <tag k="ref:vcgi:esiteid" v="286985"/>
  </node>
  <node id="-847" visible="true" lat="42.74573511" lon="-72.8989856">
    <tag k="addr:housenumber" v="147"/>
    <tag k="addr:street" v="Lone Pine Road"/>
    <tag k="addr:state" v="VT"/>
    <tag k="ref:vcgi:esiteid" v="286986"/>
  </node>
  <node id="-848" visible="true" lat="42.74544818" lon="-72.80930849">
    <tag k="addr:housenumber" v="442"/>
    <tag k="addr:street" v="McMillan Road"/>
    <tag k="addr:state" v="VT"/>
    <tag k="ref:vcgi:esiteid" v="286987"/>
  </node>
  <node id="-849" visible="true" lat="42.74542821" lon="-72.89420799">
    <tag k="addr:housenumber" v="843"/>
    <tag k="addr:street" v="Nate Flynn Road"/>
    <tag k="addr:state" v="VT"/>
    <tag k="ref:vcgi:esiteid" v="286988"/>
  </node>
  <node id="-850" visible="true" lat="42.74556762" lon="-72.80730995">
    <tag k="addr:housenumber" v="541"/>
    <tag k="addr:street" v="McMillan Road"/>
    <tag k="addr:state" v="VT"/>
    <tag k="ref:vcgi:esiteid" v="286989"/>
  </node>
  <node id="-851" visible="true" lat="42.74486997" lon="-72.81649579">
    <tag k="addr:housenumber" v="2704"/>
    <tag k="addr:street" v="Route 8a"/>
    <tag k="addr:state" v="VT"/>
    <tag k="ref:vcgi:esiteid" v="286990"/>
  </node>
  <node id="-852" visible="true" lat="42.74436924" lon="-72.82941841">
    <tag k="addr:housenumber" v="739"/>
    <tag k="addr:street" v="Chapel Hill Road"/>
    <tag k="addr:state" v="VT"/>
    <tag k="ref:vcgi:esiteid" v="286991"/>
  </node>
  <node id="-853" visible="true" lat="42.74419979" lon="-72.84157138">
    <tag k="addr:housenumber" v="761"/>
    <tag k="addr:street" v="Saddada Road"/>
    <tag k="addr:state" v="VT"/>
    <tag k="ref:vcgi:esiteid" v="286992"/>
  </node>
  <node id="-854" visible="true" lat="42.74420247" lon="-72.82778947">
    <tag k="addr:housenumber" v="680"/>
    <tag k="addr:street" v="Chapel Hill Road"/>
    <tag k="addr:state" v="VT"/>
    <tag k="ref:vcgi:esiteid" v="286993"/>
  </node>
  <node id="-855" visible="true" lat="42.74396928" lon="-72.82475113">
    <tag k="addr:housenumber" v="464"/>
    <tag k="addr:street" v="Chapel Hill Road"/>
    <tag k="addr:state" v="VT"/>
    <tag k="ref:vcgi:esiteid" v="286994"/>
  </node>
  <node id="-856" visible="true" lat="42.74355141" lon="-72.82397147">
    <tag k="addr:housenumber" v="432"/>
    <tag k="addr:street" v="Chapel Hill Road"/>
    <tag k="addr:state" v="VT"/>
    <tag k="ref:vcgi:esiteid" v="286995"/>
  </node>
  <node id="-857" visible="true" lat="42.74352234" lon="-72.82694785">
    <tag k="addr:housenumber" v="610"/>
    <tag k="addr:street" v="Chapel Hill Road"/>
    <tag k="addr:state" v="VT"/>
    <tag k="ref:vcgi:esiteid" v="286996"/>
  </node>
  <node id="-858" visible="true" lat="42.74416596" lon="-72.82581806">
    <tag k="addr:housenumber" v="496"/>
    <tag k="addr:street" v="Chapel Hill Road"/>
    <tag k="addr:state" v="VT"/>
    <tag k="ref:vcgi:esiteid" v="286997"/>
  </node>
  <node id="-859" visible="true" lat="42.74318636" lon="-72.81665631">
    <tag k="addr:housenumber" v="2808"/>
    <tag k="addr:street" v="Route 8a"/>
    <tag k="addr:state" v="VT"/>
    <tag k="ref:vcgi:esiteid" v="286998"/>
  </node>
  <node id="-860" visible="true" lat="42.74306449" lon="-72.82197533">
    <tag k="addr:housenumber" v="318"/>
    <tag k="addr:street" v="Chapel Hill Road"/>
    <tag k="addr:state" v="VT"/>
    <tag k="ref:vcgi:esiteid" v="286999"/>
  </node>
  <node id="-861" visible="true" lat="42.7415151" lon="-72.8222447">
    <tag k="addr:housenumber" v="341"/>
    <tag k="addr:street" v="Chapel Hill Road"/>
    <tag k="addr:state" v="VT"/>
    <tag k="ref:vcgi:esiteid" v="287000"/>
  </node>
  <node id="-862" visible="true" lat="42.74244883" lon="-72.84114728">
    <tag k="addr:housenumber" v="874"/>
    <tag k="addr:street" v="Saddada Road"/>
    <tag k="addr:state" v="VT"/>
    <tag k="ref:vcgi:esiteid" v="287001"/>
  </node>
  <node id="-863" visible="true" lat="42.74128357" lon="-72.82773607">
    <tag k="addr:housenumber" v="523"/>
    <tag k="addr:street" v="Chapel Hill Road"/>
    <tag k="addr:state" v="VT"/>
    <tag k="ref:vcgi:esiteid" v="287002"/>
  </node>
  <node id="-864" visible="true" lat="42.7424241" lon="-72.82730517">
    <tag k="addr:housenumber" v="585"/>
    <tag k="addr:street" v="Chapel Hill Road"/>
    <tag k="addr:state" v="VT"/>
    <tag k="ref:vcgi:esiteid" v="287003"/>
  </node>
  <node id="-865" visible="true" lat="42.74218033" lon="-72.85486106">
    <tag k="addr:housenumber" v="1124"/>
    <tag k="addr:street" v="Cyrus Road"/>
    <tag k="addr:state" v="VT"/>
    <tag k="ref:vcgi:esiteid" v="287004"/>
  </node>
  <node id="-866" visible="true" lat="42.7422446" lon="-72.8178986">
    <tag k="addr:housenumber" v="68"/>
    <tag k="addr:street" v="Chapel Hill Road"/>
    <tag k="addr:state" v="VT"/>
    <tag k="ref:vcgi:esiteid" v="287005"/>
  </node>
  <node id="-867" visible="true" lat="42.74213872" lon="-72.82161148">
    <tag k="addr:housenumber" v="267"/>
    <tag k="addr:street" v="Chapel Hill Road"/>
    <tag k="addr:state" v="VT"/>
    <tag k="ref:vcgi:esiteid" v="287006"/>
  </node>
  <node id="-868" visible="true" lat="42.74119546" lon="-72.89768042">
    <tag k="addr:housenumber" v="1877"/>
    <tag k="addr:street" v="Merrifield Road"/>
    <tag k="addr:state" v="VT"/>
    <tag k="ref:vcgi:esiteid" v="287007"/>
  </node>
  <node id="-869" visible="true" lat="42.74089971" lon="-72.90671825">
    <tag k="addr:housenumber" v="785"/>
    <tag k="addr:street" v="Lone Pine Road"/>
    <tag k="addr:state" v="VT"/>
    <tag k="ref:vcgi:esiteid" v="287008"/>
  </node>
  <node id="-870" visible="true" lat="42.74067299" lon="-72.84004559">
    <tag k="addr:housenumber" v="1009"/>
    <tag k="addr:street" v="Saddada Road"/>
    <tag k="addr:state" v="VT"/>
    <tag k="ref:vcgi:esiteid" v="287009"/>
  </node>
  <node id="-871" visible="true" lat="42.73978366" lon="-72.85622336">
    <tag k="addr:housenumber" v="1323"/>
    <tag k="addr:street" v="Cyrus Road"/>
    <tag k="addr:state" v="VT"/>
    <tag k="ref:vcgi:esiteid" v="287010"/>
  </node>
  <node id="-872" visible="true" lat="42.74166566" lon="-72.8617544">
    <tag k="addr:housenumber" v="48"/>
    <tag k="addr:street" v="Hurd Lane"/>
    <tag k="addr:state" v="VT"/>
    <tag k="ref:vcgi:esiteid" v="287011"/>
  </node>
  <node id="-873" visible="true" lat="42.73838146" lon="-72.81781864">
    <tag k="addr:housenumber" v="3156"/>
    <tag k="addr:street" v="Route 8a"/>
    <tag k="addr:state" v="VT"/>
    <tag k="ref:vcgi:esiteid" v="287012"/>
  </node>
  <node id="-874" visible="true" lat="42.73785644" lon="-72.85717613">
    <tag k="addr:housenumber" v="1463"/>
    <tag k="addr:street" v="Cyrus Road"/>
    <tag k="addr:state" v="VT"/>
    <tag k="ref:vcgi:esiteid" v="287013"/>
  </node>
  <node id="-875" visible="true" lat="42.737964" lon="-72.81655459">
    <tag k="addr:housenumber" v="3180"/>
    <tag k="addr:street" v="Route 8a"/>
    <tag k="addr:state" v="VT"/>
    <tag k="ref:vcgi:esiteid" v="287014"/>
  </node>
  <node id="-876" visible="true" lat="42.73693195" lon="-72.81766182">
    <tag k="addr:housenumber" v="3258"/>
    <tag k="addr:street" v="Route 8a"/>
    <tag k="addr:state" v="VT"/>
    <tag k="ref:vcgi:esiteid" v="287015"/>
  </node>
  <node id="-877" visible="true" lat="42.8234952" lon="-72.81741517">
    <tag k="addr:housenumber" v="660"/>
    <tag k="addr:street" v="Lake Hill Road"/>
    <tag k="addr:state" v="VT"/>
    <tag k="ref:vcgi:esiteid" v="287016"/>
  </node>
  <node id="-880" visible="true" lat="42.77220919" lon="-72.86257709">
    <tag k="addr:housenumber" v="103"/>
    <tag k="addr:street" v="Green Road"/>
    <tag k="addr:state" v="VT"/>
    <tag k="ref:vcgi:esiteid" v="287019"/>
  </node>
  <node id="-881" visible="true" lat="42.77992695" lon="-72.84023837">
    <tag k="addr:housenumber" v="241"/>
    <tag k="addr:street" v="Abbie Morse Road"/>
    <tag k="addr:state" v="VT"/>
    <tag k="ref:vcgi:esiteid" v="287020"/>
  </node>
  <node id="-882" visible="true" lat="42.77926416" lon="-72.83738871">
    <tag k="addr:housenumber" v="367"/>
    <tag k="addr:street" v="Abbie Morse Road"/>
    <tag k="addr:state" v="VT"/>
    <tag k="ref:vcgi:esiteid" v="287021"/>
  </node>
  <node id="-883" visible="true" lat="42.77699155" lon="-72.83989114">
    <tag k="addr:housenumber" v="244"/>
    <tag k="addr:street" v="Abbie Morse Road"/>
    <tag k="addr:state" v="VT"/>
    <tag k="ref:vcgi:esiteid" v="287022"/>
  </node>
  <node id="-884" visible="true" lat="42.75041228" lon="-72.82931243">
    <tag k="addr:housenumber" v="1148"/>
    <tag k="addr:street" v="Chapel Hill Road"/>
    <tag k="addr:state" v="VT"/>
    <tag k="ref:vcgi:esiteid" v="287023"/>
  </node>
  <node id="-885" visible="true" lat="42.75789623" lon="-72.92900836">
    <tag k="addr:housenumber" v="1096"/>
    <tag k="addr:street" v="Harriman Station Drive"/>
    <tag k="addr:state" v="VT"/>
    <tag k="ref:vcgi:esiteid" v="287024"/>
  </node>
  <node id="-886" visible="true" lat="42.78368413" lon="-72.81287921">
    <tag k="addr:housenumber" v="70"/>
    <tag k="addr:street" v="Sprague Brook Road"/>
    <tag k="addr:state" v="VT"/>
    <tag k="ref:vcgi:esiteid" v="287025"/>
  </node>
  <node id="-887" visible="true" lat="42.74601942" lon="-72.90372641">
    <tag k="addr:housenumber" v="393"/>
    <tag k="addr:street" v="Lone Pine Road"/>
    <tag k="addr:state" v="VT"/>
    <tag k="ref:vcgi:esiteid" v="287027"/>
  </node>
  <node id="-888" visible="true" lat="42.82061886" lon="-72.80364874">
    <tag k="addr:housenumber" v="1959"/>
    <tag k="addr:street" v="Gates Pond Road"/>
    <tag k="addr:state" v="VT"/>
    <tag k="ref:vcgi:esiteid" v="287028"/>
  </node>
  <node id="-889" visible="true" lat="42.76602324" lon="-72.81197542">
    <tag k="addr:housenumber" v="3"/>
    <tag k="addr:street" v="Pratt Road"/>
    <tag k="addr:state" v="VT"/>
    <tag k="ref:vcgi:esiteid" v="287029"/>
  </node>
  <node id="-890" visible="true" lat="42.7625389" lon="-72.81269236">
    <tag k="addr:housenumber" v="240"/>
    <tag k="addr:street" v="Pratt Road"/>
    <tag k="addr:state" v="VT"/>
    <tag k="ref:vcgi:esiteid" v="287030"/>
  </node>
  <node id="-892" visible="true" lat="42.81921178" lon="-72.8525089">
    <tag k="addr:housenumber" v="813"/>
    <tag k="addr:street" v="Vermont Route 100"/>
    <tag k="addr:state" v="VT"/>
    <tag k="ref:vcgi:esiteid" v="287032"/>
  </node>
  <node id="-893" visible="true" lat="42.81491104" lon="-72.87123065">
    <tag k="addr:housenumber" v="505"/>
    <tag k="addr:street" v="East Road"/>
    <tag k="addr:state" v="VT"/>
    <tag k="ref:vcgi:esiteid" v="287033"/>
  </node>
  <node id="-897" visible="true" lat="42.76200195" lon="-72.85456781">
    <tag k="addr:housenumber" v="1122"/>
    <tag k="addr:street" v="Burrington Hill Road"/>
    <tag k="addr:state" v="VT"/>
    <tag k="ref:vcgi:esiteid" v="287037"/>
  </node>
  <node id="-898" visible="true" lat="42.74685287" lon="-72.81702263">
    <tag k="addr:housenumber" v="2562"/>
    <tag k="addr:street" v="Route 8a"/>
    <tag k="addr:state" v="VT"/>
    <tag k="ref:vcgi:esiteid" v="287038"/>
  </node>
  <node id="-899" visible="true" lat="42.7438209" lon="-72.85327341">
    <tag k="addr:housenumber" v="1084"/>
    <tag k="addr:street" v="Cyrus Road"/>
    <tag k="addr:state" v="VT"/>
    <tag k="ref:vcgi:esiteid" v="287039"/>
  </node>
  <node id="-900" visible="true" lat="42.74584505" lon="-72.84409545">
    <tag k="addr:housenumber" v="578"/>
    <tag k="addr:street" v="Saddada Road"/>
    <tag k="addr:state" v="VT"/>
    <tag k="ref:vcgi:esiteid" v="287040"/>
  </node>
  <node id="-901" visible="true" lat="42.7641893" lon="-72.83667885">
    <tag k="addr:housenumber" v="155"/>
    <tag k="addr:street" v="Houghton Road"/>
    <tag k="addr:state" v="VT"/>
    <tag k="ref:vcgi:esiteid" v="287041"/>
  </node>
  <node id="-902" visible="true" lat="42.76101737" lon="-72.85382001">
    <tag k="addr:housenumber" v="1190"/>
    <tag k="addr:street" v="Burrington Hill Road"/>
    <tag k="addr:state" v="VT"/>
    <tag k="ref:vcgi:esiteid" v="287042"/>
  </node>
  <node id="-904" visible="true" lat="42.80849397" lon="-72.84006114">
    <tag k="addr:housenumber" v="1770"/>
    <tag k="addr:street" v="Vermont Route 100"/>
    <tag k="addr:state" v="VT"/>
    <tag k="ref:vcgi:esiteid" v="287044"/>
  </node>
  <node id="-906" visible="true" lat="42.80258598" lon="-72.86376682">
    <tag k="addr:housenumber" v="1021"/>
    <tag k="addr:street" v="Corse Road"/>
    <tag k="addr:state" v="VT"/>
    <tag k="ref:vcgi:esiteid" v="287046"/>
  </node>
  <node id="-907" visible="true" lat="42.77255701" lon="-72.80874449">
    <tag k="addr:housenumber" v="496"/>
    <tag k="addr:street" v="Route 8a"/>
    <tag k="addr:state" v="VT"/>
    <tag k="ref:vcgi:esiteid" v="287047"/>
  </node>
  <node id="-908" visible="true" lat="42.74386531" lon="-72.80712888">
    <tag k="addr:housenumber" v="612"/>
    <tag k="addr:street" v="McMillan Road"/>
    <tag k="addr:state" v="VT"/>
    <tag k="ref:vcgi:esiteid" v="287048"/>
  </node>
  <node id="-909" visible="true" lat="42.74842708" lon="-72.81340992">
    <tag k="addr:housenumber" v="181"/>
    <tag k="addr:street" v="McMillan Road"/>
    <tag k="addr:state" v="VT"/>
    <tag k="ref:vcgi:esiteid" v="287049"/>
  </node>
  <node id="-910" visible="true" lat="42.74910198" lon="-72.81186324">
    <tag k="addr:housenumber" v="247"/>
    <tag k="addr:street" v="McMillan Road"/>
    <tag k="addr:state" v="VT"/>
    <tag k="ref:vcgi:esiteid" v="287050"/>
  </node>
  <node id="-911" visible="true" lat="42.82359055" lon="-72.82088977">
    <tag k="addr:housenumber" v="823"/>
    <tag k="addr:street" v="Lake Hill Road"/>
    <tag k="addr:state" v="VT"/>
    <tag k="ref:vcgi:esiteid" v="287051"/>
  </node>
  <node id="-912" visible="true" lat="42.81453157" lon="-72.87966163">
    <tag k="addr:housenumber" v="1718"/>
    <tag k="addr:street" v="Faulkner Road"/>
    <tag k="addr:state" v="VT"/>
    <tag k="ref:vcgi:esiteid" v="287052"/>
  </node>
  <node id="-913" visible="true" lat="42.77542255" lon="-72.87520119">
    <tag k="addr:housenumber" v="364"/>
    <tag k="addr:street" v="Kentfield Road"/>
    <tag k="addr:state" v="VT"/>
    <tag k="ref:vcgi:esiteid" v="287053"/>
  </node>
  <node id="-914" visible="true" lat="42.77782788" lon="-72.8618704">
    <tag k="addr:housenumber" v="118"/>
    <tag k="addr:street" v="Murphy Lane"/>
    <tag k="addr:state" v="VT"/>
    <tag k="ref:vcgi:esiteid" v="287054"/>
  </node>
  <node id="-915" visible="true" lat="42.81523746" lon="-72.87089606">
    <tag k="addr:housenumber" v="515"/>
    <tag k="addr:street" v="East Road"/>
    <tag k="addr:state" v="VT"/>
    <tag k="ref:vcgi:esiteid" v="287055"/>
  </node>
  <node id="-916" visible="true" lat="42.81362597" lon="-72.87537253">
    <tag k="addr:housenumber" v="304"/>
    <tag k="addr:street" v="East Road"/>
    <tag k="addr:state" v="VT"/>
    <tag k="ref:vcgi:esiteid" v="287056"/>
  </node>
  <node id="-918" visible="true" lat="42.79534128" lon="-72.84323003">
    <tag k="addr:housenumber" v="559"/>
    <tag k="addr:street" v="Fowler Road"/>
    <tag k="addr:state" v="VT"/>
    <tag k="ref:vcgi:esiteid" v="287058"/>
  </node>
  <node id="-919" visible="true" lat="42.78917271" lon="-72.87026724">
    <tag k="addr:housenumber" v="5825"/>
    <tag k="addr:street" v="Vermont Route 100"/>
    <tag k="addr:state" v="VT"/>
    <tag k="ref:vcgi:esiteid" v="287059"/>
  </node>
  <node id="-920" visible="true" lat="42.77750519" lon="-72.86681143">
    <tag k="addr:housenumber" v="456"/>
    <tag k="addr:street" v="Poverty Row"/>
    <tag k="addr:state" v="VT"/>
    <tag k="ref:vcgi:esiteid" v="287060"/>
  </node>
  <node id="-921" visible="true" lat="42.75122899" lon="-72.81842265">
    <tag k="addr:housenumber" v="2233"/>
    <tag k="addr:street" v="Route 8a"/>
    <tag k="addr:state" v="VT"/>
    <tag k="ref:vcgi:esiteid" v="287061"/>
  </node>
  <node id="-922" visible="true" lat="42.74188392" lon="-72.85299757">
    <tag k="addr:housenumber" v="1091"/>
    <tag k="addr:street" v="Cyrus Road"/>
    <tag k="addr:state" v="VT"/>
    <tag k="ref:vcgi:esiteid" v="287062"/>
  </node>
  <node id="-923" visible="true" lat="42.7501539" lon="-72.81725822">
    <tag k="addr:housenumber" v="2357"/>
    <tag k="addr:street" v="Route 8a"/>
    <tag k="addr:state" v="VT"/>
    <tag k="ref:vcgi:esiteid" v="287063"/>
  </node>
  <node id="-925" visible="true" lat="42.78231967" lon="-72.8809798">
    <tag k="addr:housenumber" v="467"/>
    <tag k="addr:street" v="Tyanoga Road"/>
    <tag k="addr:state" v="VT"/>
    <tag k="ref:vcgi:esiteid" v="287067"/>
  </node>
  <node id="-926" visible="true" lat="42.77931415" lon="-72.84958675">
    <tag k="addr:housenumber" v="1354"/>
    <tag k="addr:street" v="Town Hill Road"/>
    <tag k="addr:state" v="VT"/>
    <tag k="ref:vcgi:esiteid" v="287068"/>
  </node>
  <node id="-928" visible="true" lat="42.74147038" lon="-72.82359087">
    <tag k="addr:housenumber" v="399"/>
    <tag k="addr:street" v="Chapel Hill Road"/>
    <tag k="addr:state" v="VT"/>
    <tag k="ref:vcgi:esiteid" v="287070"/>
  </node>
  <node id="-929" visible="true" lat="42.7415223" lon="-72.81475825">
    <tag k="addr:housenumber" v="2919"/>
    <tag k="addr:street" v="Route 8a"/>
    <tag k="addr:state" v="VT"/>
    <tag k="ref:vcgi:esiteid" v="287071"/>
  </node>
  <node id="-930" visible="true" lat="42.78721667" lon="-72.87693893">
    <tag k="addr:housenumber" v="121"/>
    <tag k="addr:street" v="Sadawga Lake Road"/>
    <tag k="addr:state" v="VT"/>
    <tag k="ref:vcgi:esiteid" v="287072"/>
  </node>
  <node id="-932" visible="true" lat="42.76696214" lon="-72.85727116">
    <tag k="addr:housenumber" v="877"/>
    <tag k="addr:street" v="Burrington Hill Road"/>
    <tag k="addr:state" v="VT"/>
    <tag k="ref:vcgi:esiteid" v="287074"/>
  </node>
  <node id="-933" visible="true" lat="42.76799627" lon="-72.86137066">
    <tag k="addr:housenumber" v="575"/>
    <tag k="addr:street" v="Burrington Hill Road"/>
    <tag k="addr:state" v="VT"/>
    <tag k="ref:vcgi:esiteid" v="287076"/>
  </node>
  <node id="-934" visible="true" lat="42.8171281" lon="-72.84794318">
    <tag k="addr:housenumber" v="71"/>
    <tag k="addr:street" v="North Ryder Pond Road"/>
    <tag k="addr:state" v="VT"/>
    <tag k="ref:vcgi:esiteid" v="287077"/>
  </node>
  <node id="-935" visible="true" lat="42.78521142" lon="-72.81791038">
    <tag k="addr:housenumber" v="590"/>
    <tag k="addr:street" v="Holbrook Road"/>
    <tag k="addr:state" v="VT"/>
    <tag k="ref:vcgi:esiteid" v="287078"/>
  </node>
  <node id="-940" visible="true" lat="42.73684238" lon="-72.81575504">
    <tag k="addr:housenumber" v="3259"/>
    <tag k="addr:street" v="Route 8a"/>
    <tag k="addr:state" v="VT"/>
    <tag k="ref:vcgi:esiteid" v="287084"/>
  </node>
  <node id="-941" visible="true" lat="42.73952246" lon="-72.81385383">
    <tag k="addr:housenumber" v="3029"/>
    <tag k="addr:street" v="Route 8a"/>
    <tag k="addr:state" v="VT"/>
    <tag k="ref:vcgi:esiteid" v="287085"/>
  </node>
  <node id="-942" visible="true" lat="42.74591929" lon="-72.84318682">
    <tag k="addr:housenumber" v="629"/>
    <tag k="addr:street" v="Saddada Road"/>
    <tag k="addr:state" v="VT"/>
    <tag k="ref:vcgi:esiteid" v="287086"/>
  </node>
  <node id="-943" visible="true" lat="42.77000705" lon="-72.86224444">
    <tag k="addr:housenumber" v="393"/>
    <tag k="addr:street" v="Burrington Hill Road"/>
    <tag k="addr:state" v="VT"/>
    <tag k="ref:vcgi:esiteid" v="287087"/>
  </node>
  <node id="-944" visible="true" lat="42.78105159" lon="-72.81811605">
    <tag k="addr:housenumber" v="853"/>
    <tag k="addr:street" v="Holbrook Road"/>
    <tag k="addr:state" v="VT"/>
    <tag k="ref:vcgi:esiteid" v="287088"/>
  </node>
  <node id="-945" visible="true" lat="42.78327953" lon="-72.84284024">
    <tag k="addr:housenumber" v="390"/>
    <tag k="addr:street" v="Ginny Morse Road"/>
    <tag k="addr:state" v="VT"/>
    <tag k="ref:vcgi:esiteid" v="287089"/>
  </node>
  <node id="-946" visible="true" lat="42.74919025" lon="-72.83463512">
    <tag k="addr:housenumber" v="2690"/>
    <tag k="addr:street" v="Burrington Hill Road"/>
    <tag k="addr:state" v="VT"/>
    <tag k="ref:vcgi:esiteid" v="287090"/>
  </node>
  <node id="-947" visible="true" lat="42.81636572" lon="-72.87550924">
    <tag k="addr:housenumber" v="233"/>
    <tag k="addr:street" v="East Road"/>
    <tag k="addr:state" v="VT"/>
    <tag k="ref:vcgi:esiteid" v="287091"/>
  </node>
  <node id="-948" visible="true" lat="42.79362006" lon="-72.88096182">
    <tag k="addr:housenumber" v="135"/>
    <tag k="addr:street" v="Faulkner Road"/>
    <tag k="addr:state" v="VT"/>
    <tag k="ref:vcgi:esiteid" v="287092"/>
  </node>
  <node id="-950" visible="true" lat="42.74419747" lon="-72.88231975">
    <tag k="addr:housenumber" v="14"/>
    <tag k="addr:street" v="Valley View Lane"/>
    <tag k="addr:state" v="VT"/>
    <tag k="ref:vcgi:esiteid" v="287095"/>
  </node>
  <node id="-951" visible="true" lat="42.81051459" lon="-72.87923966">
    <tag k="addr:housenumber" v="1370"/>
    <tag k="addr:street" v="Faulkner Road"/>
    <tag k="addr:state" v="VT"/>
    <tag k="ref:vcgi:esiteid" v="287096"/>
  </node>
  <node id="-953" visible="true" lat="42.75799959" lon="-72.81636532">
    <tag k="addr:housenumber" v="333"/>
    <tag k="addr:street" v="Five Fox Lane"/>
    <tag k="addr:state" v="VT"/>
    <tag k="ref:vcgi:esiteid" v="287098"/>
  </node>
  <node id="-955" visible="true" lat="42.81786638" lon="-72.84905739">
    <tag k="addr:housenumber" v="93"/>
    <tag k="addr:street" v="Ridge Lane"/>
    <tag k="addr:state" v="VT"/>
    <tag k="ref:vcgi:esiteid" v="287100"/>
  </node>
  <node id="-956" visible="true" lat="42.81815828" lon="-72.84840902">
    <tag k="addr:housenumber" v="137"/>
    <tag k="addr:street" v="Ridge Lane"/>
    <tag k="addr:state" v="VT"/>
    <tag k="ref:vcgi:esiteid" v="287101"/>
  </node>
  <node id="-957" visible="true" lat="42.81823648" lon="-72.84704563">
    <tag k="addr:housenumber" v="143"/>
    <tag k="addr:street" v="Ridge Lane"/>
    <tag k="addr:state" v="VT"/>
    <tag k="ref:vcgi:esiteid" v="287102"/>
  </node>
  <node id="-958" visible="true" lat="42.7432026" lon="-72.81536332">
    <tag k="addr:housenumber" v="2835"/>
    <tag k="addr:street" v="Route 8a"/>
    <tag k="addr:state" v="VT"/>
    <tag k="ref:vcgi:esiteid" v="287103"/>
  </node>
  <node id="-959" visible="true" lat="42.76714063" lon="-72.81086166">
    <tag k="addr:housenumber" v="895"/>
    <tag k="addr:street" v="Route 8a"/>
    <tag k="addr:state" v="VT"/>
    <tag k="ref:vcgi:esiteid" v="325174"/>
  </node>
  <node id="-960" visible="true" lat="42.76865947" lon="-72.81335635">
    <tag k="addr:housenumber" v="898"/>
    <tag k="addr:street" v="Route 8a"/>
    <tag k="addr:state" v="VT"/>
    <tag k="ref:vcgi:esiteid" v="325175"/>
  </node>
  <node id="-961" visible="true" lat="42.77268532" lon="-72.81570262">
    <tag k="addr:housenumber" v="900"/>
    <tag k="addr:street" v="Route 8a"/>
    <tag k="addr:state" v="VT"/>
    <tag k="ref:vcgi:esiteid" v="325176"/>
  </node>
  <node id="-962" visible="true" lat="42.74513757" lon="-72.81449776">
    <tag k="addr:housenumber" v="2693"/>
    <tag k="addr:street" v="Route 8a"/>
    <tag k="addr:state" v="VT"/>
    <tag k="ref:vcgi:esiteid" v="325178"/>
  </node>
  <node id="-963" visible="true" lat="42.76779723" lon="-72.80953366">
    <tag k="addr:housenumber" v="825"/>
    <tag k="addr:street" v="Route 8a"/>
    <tag k="addr:state" v="VT"/>
    <tag k="ref:vcgi:esiteid" v="325179"/>
  </node>
  <node id="-965" visible="true" lat="42.76624832" lon="-72.86629511">
    <tag k="addr:housenumber" v="457"/>
    <tag k="addr:street" v="Streeter Hill Road"/>
    <tag k="addr:state" v="VT"/>
    <tag k="ref:vcgi:esiteid" v="327065"/>
  </node>
  <node id="-966" visible="true" lat="42.75117396" lon="-72.82502664">
    <tag k="addr:housenumber" v="3083"/>
    <tag k="addr:street" v="Burrington Hill Road"/>
    <tag k="addr:state" v="VT"/>
    <tag k="ref:vcgi:esiteid" v="327066"/>
  </node>
  <node id="-967" visible="true" lat="42.80619102" lon="-72.82651871">
    <tag k="addr:housenumber" v="445"/>
    <tag k="addr:street" v="Bernard Road"/>
    <tag k="addr:state" v="VT"/>
    <tag k="ref:vcgi:esiteid" v="327067"/>
  </node>
  <node id="-968" visible="true" lat="42.81308221" lon="-72.8044745">
    <tag k="addr:housenumber" v="2590"/>
    <tag k="addr:street" v="Collins Road"/>
    <tag k="addr:state" v="VT"/>
    <tag k="ref:vcgi:esiteid" v="327068"/>
  </node>
  <node id="-969" visible="true" lat="42.79866403" lon="-72.85443411">
    <tag k="addr:housenumber" v="783"/>
    <tag k="addr:street" v="Wilmington Cross Road"/>
    <tag k="addr:state" v="VT"/>
    <tag k="ref:vcgi:esiteid" v="327069"/>
  </node>
  <node id="-970" visible="true" lat="42.75447519" lon="-72.90198228">
    <tag k="addr:housenumber" v="630"/>
    <tag k="addr:street" v="Merrifield Road"/>
    <tag k="addr:state" v="VT"/>
    <tag k="ref:vcgi:esiteid" v="327070"/>
  </node>
  <node id="-971" visible="true" lat="42.76692266" lon="-72.81121346">
    <tag k="addr:housenumber" v="919"/>
    <tag k="addr:street" v="Route 8a"/>
    <tag k="addr:state" v="VT"/>
    <tag k="ref:vcgi:esiteid" v="327071"/>
  </node>
  <node id="-972" visible="true" lat="42.73907545" lon="-72.85883194">
    <tag k="addr:housenumber" v="1448"/>
    <tag k="addr:street" v="Cyrus Road"/>
    <tag k="addr:state" v="VT"/>
    <tag k="ref:vcgi:esiteid" v="327072"/>
  </node>
  <node id="-974" visible="true" lat="42.80897481" lon="-72.83819914">
    <tag k="addr:housenumber" v="17"/>
    <tag k="addr:street" v="Birdville Road"/>
    <tag k="addr:state" v="VT"/>
    <tag k="ref:vcgi:esiteid" v="328737"/>
  </node>
  <node id="-975" visible="true" lat="42.77924001" lon="-72.85523893">
    <tag k="addr:housenumber" v="1106"/>
    <tag k="addr:street" v="Town Hill Road"/>
    <tag k="addr:state" v="VT"/>
    <tag k="ref:vcgi:esiteid" v="328739"/>
  </node>
  <node id="-976" visible="true" lat="42.78547549" lon="-72.86510543">
    <tag k="addr:housenumber" v="88"/>
    <tag k="addr:street" v="North South Lane"/>
    <tag k="addr:state" v="VT"/>
    <tag k="ref:vcgi:esiteid" v="328740"/>
  </node>
  <node id="-978" visible="true" lat="42.74983391" lon="-72.82699393">
    <tag k="addr:housenumber" v="2964"/>
    <tag k="addr:street" v="Burrington Hill Road"/>
    <tag k="addr:state" v="VT"/>
    <tag k="ref:vcgi:esiteid" v="328742"/>
  </node>
  <node id="-979" visible="true" lat="42.75031438" lon="-72.83073071">
    <tag k="addr:housenumber" v="1165"/>
    <tag k="addr:street" v="Chapel Hill Road"/>
    <tag k="addr:state" v="VT"/>
    <tag k="ref:vcgi:esiteid" v="328743"/>
  </node>
  <node id="-980" visible="true" lat="42.80927815" lon="-72.84578123">
    <tag k="addr:housenumber" v="1760"/>
    <tag k="addr:street" v="Wilmington Cross Road"/>
    <tag k="addr:state" v="VT"/>
    <tag k="ref:vcgi:esiteid" v="330949"/>
  </node>
  <node id="-981" visible="true" lat="42.75272983" lon="-72.81848089">
    <tag k="addr:housenumber" v="2173"/>
    <tag k="addr:street" v="Route 8a"/>
    <tag k="addr:state" v="VT"/>
    <tag k="ref:vcgi:esiteid" v="331046"/>
  </node>
  <node id="-982" visible="true" lat="42.78252452" lon="-72.86326228">
    <tag k="addr:housenumber" v="612"/>
    <tag k="addr:street" v="Town Hill Road"/>
    <tag k="addr:state" v="VT"/>
    <tag k="ref:vcgi:esiteid" v="331047"/>
  </node>
  <node id="-983" visible="true" lat="42.75304283" lon="-72.81720867">
    <tag k="addr:housenumber" v="2023"/>
    <tag k="addr:street" v="Route 8a"/>
    <tag k="addr:state" v="VT"/>
    <tag k="ref:vcgi:esiteid" v="331048"/>
  </node>
  <node id="-984" visible="true" lat="42.74433222" lon="-72.85366954">
    <tag k="addr:housenumber" v="946"/>
    <tag k="addr:street" v="Cyrus Road"/>
    <tag k="addr:state" v="VT"/>
    <tag k="ref:vcgi:esiteid" v="331289"/>
  </node>
  <node id="-985" visible="true" lat="42.78794971" lon="-72.86712715">
    <tag k="addr:housenumber" v="147"/>
    <tag k="addr:street" v="Plumb Road"/>
    <tag k="addr:state" v="VT"/>
    <tag k="ref:vcgi:esiteid" v="331290"/>
  </node>
  <node id="-988" visible="true" lat="42.75858568" lon="-72.8207059">
    <tag k="addr:housenumber" v="2060"/>
    <tag k="addr:street" v="Maple Hill Lane"/>
    <tag k="addr:state" v="VT"/>
    <tag k="ref:vcgi:esiteid" v="332633"/>
  </node>
  <node id="-989" visible="true" lat="42.76320174" lon="-72.90674879">
    <tag k="addr:housenumber" v="75"/>
    <tag k="addr:street" v="Merrifield Road"/>
    <tag k="addr:state" v="VT"/>
    <tag k="ref:vcgi:esiteid" v="332634"/>
  </node>
  <node id="-990" visible="true" lat="42.76023316" lon="-72.90633447">
    <tag k="addr:housenumber" v="399"/>
    <tag k="addr:street" v="Merrifield Road"/>
    <tag k="addr:state" v="VT"/>
    <tag k="ref:vcgi:esiteid" v="332635"/>
  </node>
  <node id="-992" visible="true" lat="42.82599608" lon="-72.8203843">
    <tag k="addr:housenumber" v="1292"/>
    <tag k="addr:street" v="Parsons Road"/>
    <tag k="addr:state" v="VT"/>
    <tag k="ref:vcgi:esiteid" v="332637"/>
  </node>
  <node id="-993" visible="true" lat="42.78181008" lon="-72.86550707">
    <tag k="addr:housenumber" v="187"/>
    <tag k="addr:street" v="Poverty Row"/>
    <tag k="addr:state" v="VT"/>
    <tag k="ref:vcgi:esiteid" v="332639"/>
  </node>
  <node id="-995" visible="true" lat="42.75798309" lon="-72.81994705">
    <tag k="addr:housenumber" v="1760"/>
    <tag k="addr:street" v="Route 8a"/>
    <tag k="addr:state" v="VT"/>
    <tag k="ref:vcgi:esiteid" v="332642"/>
  </node>
  <node id="-996" visible="true" lat="42.74070421" lon="-72.81485213">
    <tag k="addr:housenumber" v="2983"/>
    <tag k="addr:street" v="Route 8a"/>
    <tag k="addr:state" v="VT"/>
    <tag k="ref:vcgi:esiteid" v="332643"/>
  </node>
  <node id="-997" visible="true" lat="42.81406258" lon="-72.84017884">
    <tag k="addr:housenumber" v="262"/>
    <tag k="addr:street" v="South Ryder Pond Road"/>
    <tag k="addr:state" v="VT"/>
    <tag k="ref:vcgi:esiteid" v="332644"/>
  </node>
  <node id="-998" visible="true" lat="42.7813163" lon="-72.88943786">
    <tag k="addr:housenumber" v="602"/>
    <tag k="addr:street" v="Stimpson Hill Road"/>
    <tag k="addr:state" v="VT"/>
    <tag k="ref:vcgi:esiteid" v="332645"/>
  </node>
  <node id="-999" visible="true" lat="42.78001251" lon="-72.88778603">
    <tag k="addr:housenumber" v="657"/>
    <tag k="addr:street" v="Stimpson Hill Road"/>
    <tag k="addr:state" v="VT"/>
    <tag k="ref:vcgi:esiteid" v="332646"/>
  </node>
  <node id="-1000" visible="true" lat="42.77990668" lon="-72.8894926">
    <tag k="addr:housenumber" v="700"/>
    <tag k="addr:street" v="Stimpson Hill Road"/>
    <tag k="addr:state" v="VT"/>
    <tag k="ref:vcgi:esiteid" v="332647"/>
  </node>
  <node id="-1001" visible="true" lat="42.78233818" lon="-72.8600083">
    <tag k="addr:housenumber" v="771"/>
    <tag k="addr:street" v="Town Hill Road"/>
    <tag k="addr:state" v="VT"/>
    <tag k="ref:vcgi:esiteid" v="332648"/>
  </node>
  <node id="-1003" visible="true" lat="42.77908302" lon="-72.82879217">
    <tag k="addr:housenumber" v="1455"/>
    <tag k="addr:street" v="Holbrook Road"/>
    <tag k="addr:state" v="VT"/>
    <tag k="ref:vcgi:esiteid" v="332650"/>
  </node>
  <node id="-1004" visible="true" lat="42.81426104" lon="-72.80817806">
    <tag k="addr:housenumber" v="2731"/>
    <tag k="addr:street" v="Collins Road"/>
    <tag k="addr:state" v="VT"/>
    <tag k="ref:vcgi:esiteid" v="333047"/>
  </node>
  <node id="-1005" visible="true" lat="42.76197063" lon="-72.85804578">
    <tag k="addr:housenumber" v="952"/>
    <tag k="addr:street" v="Burrington Hill Road"/>
    <tag k="addr:state" v="VT"/>
    <tag k="ref:vcgi:esiteid" v="333048"/>
  </node>
  <node id="-1006" visible="true" lat="42.76241672" lon="-72.85523141">
    <tag k="addr:housenumber" v="1072"/>
    <tag k="addr:street" v="Burrington Hill Road"/>
    <tag k="addr:state" v="VT"/>
    <tag k="ref:vcgi:esiteid" v="333049"/>
  </node>
  <node id="-1008" visible="true" lat="42.74227827" lon="-72.82596515">
    <tag k="addr:housenumber" v="521"/>
    <tag k="addr:street" v="Chapel Hill Road"/>
    <tag k="addr:state" v="VT"/>
    <tag k="ref:vcgi:esiteid" v="333051"/>
  </node>
  <node id="-1009" visible="true" lat="42.74748513" lon="-72.85183382">
    <tag k="addr:housenumber" v="698"/>
    <tag k="addr:street" v="Cyrus Road"/>
    <tag k="addr:state" v="VT"/>
    <tag k="ref:vcgi:esiteid" v="333052"/>
  </node>
  <node id="-1010" visible="true" lat="42.8203924" lon="-72.88082283">
    <tag k="addr:housenumber" v="1912"/>
    <tag k="addr:street" v="Faulkner Road"/>
    <tag k="addr:state" v="VT"/>
    <tag k="ref:vcgi:esiteid" v="333053"/>
  </node>
  <node id="-1011" visible="true" lat="42.82141694" lon="-72.88463386">
    <tag k="addr:housenumber" v="2185"/>
    <tag k="addr:street" v="Faulkner Road"/>
    <tag k="addr:state" v="VT"/>
    <tag k="ref:vcgi:esiteid" v="333054"/>
  </node>
  <node id="-1012" visible="true" lat="42.82321866" lon="-72.85666339">
    <tag k="addr:housenumber" v="443"/>
    <tag k="addr:street" v="Vermont Route 100"/>
    <tag k="addr:state" v="VT"/>
    <tag k="ref:vcgi:esiteid" v="333232"/>
  </node>
  <node id="-1013" visible="true" lat="42.7661584" lon="-72.83761609">
    <tag k="addr:housenumber" v="1034"/>
    <tag k="addr:street" v="Maple Hill Lane"/>
    <tag k="addr:state" v="VT"/>
    <tag k="ref:vcgi:esiteid" v="333849"/>
  </node>
  <node id="-1016" visible="true" lat="42.74537458" lon="-72.92666805">
    <tag k="addr:housenumber" v="2445"/>
    <tag k="addr:street" v="Tunnel Street"/>
    <tag k="addr:state" v="VT"/>
    <tag k="ref:vcgi:esiteid" v="335209"/>
  </node>
  <node id="-1017" visible="true" lat="42.73821734" lon="-72.81525778">
    <tag k="addr:housenumber" v="3155"/>
    <tag k="addr:street" v="Route 8a"/>
    <tag k="addr:state" v="VT"/>
    <tag k="ref:vcgi:esiteid" v="335598"/>
  </node>
  <node id="-1018" visible="true" lat="42.76298708" lon="-72.8941166">
    <tag k="addr:housenumber" v="255"/>
    <tag k="addr:street" v="Shippee Road"/>
    <tag k="addr:state" v="VT"/>
    <tag k="ref:vcgi:esiteid" v="335599"/>
  </node>
  <node id="-1020" visible="true" lat="42.76982829" lon="-72.86896878">
    <tag k="addr:housenumber" v="220"/>
    <tag k="addr:street" v="Streeter Hill Road"/>
    <tag k="addr:state" v="VT"/>
    <tag k="ref:vcgi:esiteid" v="335725"/>
  </node>
  <node id="-1021" visible="true" lat="42.76428974" lon="-72.86915916">
    <tag k="addr:housenumber" v="625"/>
    <tag k="addr:street" v="Streeter Hill Road"/>
    <tag k="addr:state" v="VT"/>
    <tag k="ref:vcgi:esiteid" v="335727"/>
  </node>
  <node id="-1023" visible="true" lat="42.80933696" lon="-72.88240919">
    <tag k="addr:housenumber" v="1265"/>
    <tag k="addr:street" v="Faulkner Road"/>
    <tag k="addr:state" v="VT"/>
    <tag k="ref:vcgi:esiteid" v="336165"/>
  </node>
  <node id="-1024" visible="true" lat="42.8186947" lon="-72.81924417">
    <tag k="addr:housenumber" v="758"/>
    <tag k="addr:street" v="Parsons Road"/>
    <tag k="addr:state" v="VT"/>
    <tag k="ref:vcgi:esiteid" v="337386"/>
  </node>
  <node id="-1026" visible="true" lat="42.74848568" lon="-72.84323196">
    <tag k="addr:housenumber" v="415"/>
    <tag k="addr:street" v="Saddada Road"/>
    <tag k="addr:state" v="VT"/>
    <tag k="ref:vcgi:esiteid" v="338521"/>
  </node>
  <node id="-1027" visible="true" lat="42.80970884" lon="-72.85125515">
    <tag k="addr:housenumber" v="1561"/>
    <tag k="addr:street" v="Wilmington Cross Road"/>
    <tag k="addr:state" v="VT"/>
    <tag k="ref:vcgi:esiteid" v="338522"/>
  </node>
  <node id="-1028" visible="true" lat="42.81561448" lon="-72.80677697">
    <tag k="addr:housenumber" v="2774"/>
    <tag k="addr:street" v="Collins Road"/>
    <tag k="addr:state" v="VT"/>
    <tag k="ref:vcgi:esiteid" v="338523"/>
  </node>
  <node id="-1029" visible="true" lat="42.77911985" lon="-72.86990045">
    <tag k="addr:housenumber" v="166"/>
    <tag k="addr:street" v="Taylor Lane"/>
    <tag k="addr:state" v="VT"/>
    <tag k="ref:vcgi:esiteid" v="338524"/>
  </node>
  <node id="-1030" visible="true" lat="42.78705852" lon="-72.85075203">
    <tag k="addr:housenumber" v="4841"/>
    <tag k="addr:street" v="Vermont Route 100"/>
    <tag k="addr:state" v="VT"/>
    <tag k="ref:vcgi:esiteid" v="339244"/>
  </node>
  <node id="-1031" visible="true" lat="42.79746989" lon="-72.83950704">
    <tag k="addr:housenumber" v="810"/>
    <tag k="addr:street" v="Fowler Road"/>
    <tag k="addr:state" v="VT"/>
    <tag k="ref:vcgi:esiteid" v="340091"/>
  </node>
  <node id="-1034" visible="true" lat="42.76568278" lon="-72.90031529">
    <tag k="addr:housenumber" v="9050"/>
    <tag k="addr:street" v="Vermont Route 100"/>
    <tag k="addr:state" v="VT"/>
    <tag k="ref:vcgi:esiteid" v="341737"/>
  </node>
  <node id="-1035" visible="true" lat="42.75583492" lon="-72.90340781">
    <tag k="addr:housenumber" v="740"/>
    <tag k="addr:street" v="Merrifield Road"/>
    <tag k="addr:state" v="VT"/>
    <tag k="ref:vcgi:esiteid" v="342942"/>
  </node>
  <node id="-1036" visible="true" lat="42.75511751" lon="-72.90313868">
    <tag k="addr:housenumber" v="820"/>
    <tag k="addr:street" v="Merrifield Road"/>
    <tag k="addr:state" v="VT"/>
    <tag k="ref:vcgi:esiteid" v="342943"/>
  </node>
  <node id="-1037" visible="true" lat="42.74585526" lon="-72.8322104">
    <tag k="addr:housenumber" v="843"/>
    <tag k="addr:street" v="Chapel Hill Road"/>
    <tag k="addr:state" v="VT"/>
    <tag k="ref:vcgi:esiteid" v="343953"/>
  </node>
  <node id="-1038" visible="true" lat="42.77910952" lon="-72.86240151">
    <tag k="addr:housenumber" v="180"/>
    <tag k="addr:street" v="Murphy Lane"/>
    <tag k="addr:state" v="VT"/>
    <tag k="ref:vcgi:esiteid" v="343954"/>
  </node>
  <node id="-1039" visible="true" lat="42.82171411" lon="-72.82010581">
    <tag k="addr:housenumber" v="805"/>
    <tag k="addr:street" v="Lake Hill Road"/>
    <tag k="addr:state" v="VT"/>
    <tag k="ref:vcgi:esiteid" v="343955"/>
  </node>
  <node id="-1040" visible="true" lat="42.81279216" lon="-72.84863312">
    <tag k="addr:housenumber" v="117"/>
    <tag k="addr:street" v="Murdock Lane"/>
    <tag k="addr:state" v="VT"/>
    <tag k="ref:vcgi:esiteid" v="344174"/>
  </node>
  <node id="-1041" visible="true" lat="42.7472129" lon="-72.85200104">
    <tag k="addr:housenumber" v="764"/>
    <tag k="addr:street" v="Cyrus Road"/>
    <tag k="addr:state" v="VT"/>
    <tag k="ref:vcgi:esiteid" v="344181"/>
  </node>
  <node id="-1042" visible="true" lat="42.76170963" lon="-72.85274519">
    <tag k="addr:housenumber" v="1203"/>
    <tag k="addr:street" v="Burrington Hill Road"/>
    <tag k="addr:state" v="VT"/>
    <tag k="ref:vcgi:esiteid" v="344182"/>
  </node>
  <node id="-1043" visible="true" lat="42.75159325" lon="-72.80835638">
    <tag k="addr:housenumber" v="875"/>
    <tag k="addr:street" v="Aldrich Road"/>
    <tag k="addr:state" v="VT"/>
    <tag k="ref:vcgi:esiteid" v="345594"/>
  </node>
  <node id="-1044" visible="true" lat="42.76783774" lon="-72.9019478">
    <tag k="addr:housenumber" v="9168"/>
    <tag k="addr:street" v="Vermont Route 100"/>
    <tag k="addr:state" v="VT"/>
    <tag k="ref:vcgi:esiteid" v="345595"/>
  </node>
  <node id="-1045" visible="true" lat="42.82112533" lon="-72.82211229">
    <tag k="addr:housenumber" v="1003"/>
    <tag k="addr:street" v="Parsons Road"/>
    <tag k="addr:state" v="VT"/>
    <tag k="ref:vcgi:esiteid" v="345607"/>
  </node>
  <node id="-1046" visible="true" lat="42.76417278" lon="-72.89355726">
    <tag k="addr:housenumber" v="183"/>
    <tag k="addr:street" v="Shippee Road"/>
    <tag k="addr:state" v="VT"/>
    <tag k="ref:vcgi:esiteid" v="345641"/>
  </node>
  <node id="-1047" visible="true" lat="42.79340451" lon="-72.84830588">
    <tag k="addr:housenumber" v="403"/>
    <tag k="addr:street" v="Fowler Road"/>
    <tag k="addr:state" v="VT"/>
    <tag k="ref:vcgi:esiteid" v="345819"/>
  </node>
  <node id="-1048" visible="true" lat="42.79175038" lon="-72.84608859">
    <tag k="addr:housenumber" v="298"/>
    <tag k="addr:street" v="Fowler Road"/>
    <tag k="addr:state" v="VT"/>
    <tag k="ref:vcgi:esiteid" v="345820"/>
  </node>
  <node id="-1049" visible="true" lat="42.80968306" lon="-72.84037945">
    <tag k="addr:housenumber" v="1705"/>
    <tag k="addr:street" v="Vermont Route 100"/>
    <tag k="addr:state" v="VT"/>
    <tag k="ref:vcgi:esiteid" v="365520"/>
  </node>
  <node id="-1050" visible="true" lat="42.74547368" lon="-72.85281175">
    <tag k="addr:housenumber" v="856"/>
    <tag k="addr:street" v="Cyrus Road"/>
    <tag k="addr:state" v="VT"/>
    <tag k="ref:vcgi:esiteid" v="446030"/>
  </node>
  <node id="-1051" visible="true" lat="42.80775209" lon="-72.88277906">
    <tag k="addr:housenumber" v="1153"/>
    <tag k="addr:street" v="Faulkner Road"/>
    <tag k="addr:state" v="VT"/>
    <tag k="ref:vcgi:esiteid" v="446357"/>
  </node>
  <node id="-1052" visible="true" lat="42.81089733" lon="-72.87774053">
    <tag k="addr:housenumber" v="116"/>
    <tag k="addr:street" v="Faulkner Heights"/>
    <tag k="addr:state" v="VT"/>
    <tag k="ref:vcgi:esiteid" v="446358"/>
  </node>
  <node id="-1054" visible="true" lat="42.81282815" lon="-72.81630687">
    <tag k="addr:housenumber" v="1091"/>
    <tag k="addr:street" v="Gates Pond Road"/>
    <tag k="addr:state" v="VT"/>
    <tag k="ref:vcgi:esiteid" v="448845"/>
  </node>
  <node id="-1056" visible="true" lat="42.79950084" lon="-72.92229883">
    <tag k="addr:housenumber" v="871"/>
    <tag k="addr:street" v="Ruba Road"/>
    <tag k="addr:state" v="VT"/>
    <tag k="ref:vcgi:esiteid" v="449739"/>
  </node>
  <node id="-1057" visible="true" lat="42.77186624" lon="-72.86700568">
    <tag k="addr:housenumber" v="87"/>
    <tag k="addr:street" v="Streeter Hill Road"/>
    <tag k="addr:state" v="VT"/>
    <tag k="ref:vcgi:esiteid" v="453066"/>
  </node>
  <node id="-1058" visible="true" lat="42.78092713" lon="-72.86571617">
    <tag k="addr:housenumber" v="233"/>
    <tag k="addr:street" v="Poverty Row"/>
    <tag k="addr:state" v="VT"/>
    <tag k="ref:vcgi:esiteid" v="453067"/>
  </node>
  <node id="-1059" visible="true" lat="42.7472674" lon="-72.83022094">
    <tag k="addr:housenumber" v="961"/>
    <tag k="addr:street" v="Chapel Hill Road"/>
    <tag k="addr:state" v="VT"/>
    <tag k="ref:vcgi:esiteid" v="453068"/>
  </node>
  <node id="-1060" visible="true" lat="42.76191446" lon="-72.8971667">
    <tag k="addr:housenumber" v="444"/>
    <tag k="addr:street" v="Shippee Road"/>
    <tag k="addr:state" v="VT"/>
    <tag k="ref:vcgi:esiteid" v="453626"/>
  </node>
  <node id="-1061" visible="true" lat="42.76788381" lon="-72.84819036">
    <tag k="addr:housenumber" v="931"/>
    <tag k="addr:street" v="Green Road"/>
    <tag k="addr:state" v="VT"/>
    <tag k="ref:vcgi:esiteid" v="453628"/>
  </node>
  <node id="-1062" visible="true" lat="42.75022343" lon="-72.82146497">
    <tag k="addr:housenumber" v="3247"/>
    <tag k="addr:street" v="Burrington Hill Road"/>
    <tag k="addr:state" v="VT"/>
    <tag k="ref:vcgi:esiteid" v="453629"/>
  </node>
  <node id="-1063" visible="true" lat="42.82553867" lon="-72.80434389">
    <tag k="addr:housenumber" v="395"/>
    <tag k="addr:street" v="Pike Road"/>
    <tag k="addr:state" v="VT"/>
    <tag k="ref:vcgi:esiteid" v="454278"/>
  </node>
  <node id="-1064" visible="true" lat="42.75911538" lon="-72.9277441">
    <tag k="addr:housenumber" v="1123"/>
    <tag k="addr:street" v="Harriman Station Drive"/>
    <tag k="addr:state" v="VT"/>
    <tag k="ref:vcgi:esiteid" v="454509"/>
  </node>
  <node id="-1065" visible="true" lat="42.74165754" lon="-72.85751781">
    <tag k="addr:housenumber" v="1354"/>
    <tag k="addr:street" v="Cyrus Road"/>
    <tag k="addr:state" v="VT"/>
    <tag k="ref:vcgi:esiteid" v="454510"/>
  </node>
  <node id="-1066" visible="true" lat="42.80325046" lon="-72.83155512">
    <tag k="addr:housenumber" v="2380"/>
    <tag k="addr:street" v="Vermont Route 100"/>
    <tag k="addr:state" v="VT"/>
    <tag k="ref:vcgi:esiteid" v="455117"/>
  </node>
  <node id="-1070" visible="true" lat="42.7437118" lon="-72.8229965">
    <tag k="addr:housenumber" v="396"/>
    <tag k="addr:street" v="Chapel Hill Road"/>
    <tag k="addr:state" v="VT"/>
    <tag k="ref:vcgi:esiteid" v="610450"/>
  </node>
  <node id="-1071" visible="true" lat="42.7992585" lon="-72.85067538">
    <tag k="addr:housenumber" v="836"/>
    <tag k="addr:street" v="Wilmington Cross Road"/>
    <tag k="addr:state" v="VT"/>
    <tag k="ref:vcgi:esiteid" v="610451"/>
  </node>
  <node id="-1074" visible="true" lat="42.75733888" lon="-72.9287241">
    <tag k="addr:housenumber" v="1098"/>
    <tag k="addr:street" v="Harriman Station Drive"/>
    <tag k="addr:state" v="VT"/>
    <tag k="ref:vcgi:esiteid" v="611302"/>
  </node>
  <node id="-1075" visible="true" lat="42.78248927" lon="-72.889772">
    <tag k="addr:housenumber" v="542"/>
    <tag k="addr:street" v="Stimpson Hill Road"/>
    <tag k="addr:state" v="VT"/>
    <tag k="ref:vcgi:esiteid" v="611579"/>
  </node>
  <node id="-1076" visible="true" lat="42.8225153" lon="-72.82103301">
    <tag k="addr:housenumber" v="1092"/>
    <tag k="addr:street" v="Parsons Road"/>
    <tag k="addr:state" v="VT"/>
    <tag k="ref:vcgi:esiteid" v="611878"/>
  </node>
  <node id="-1077" visible="true" lat="42.80878369" lon="-72.8823549">
    <tag k="addr:housenumber" v="1247"/>
    <tag k="addr:street" v="Faulkner Road"/>
    <tag k="addr:state" v="VT"/>
    <tag k="ref:vcgi:esiteid" v="611879"/>
  </node>
  <node id="-1078" visible="true" lat="42.78497026" lon="-72.88073992">
    <tag k="addr:housenumber" v="283"/>
    <tag k="addr:street" v="Tyanoga Road"/>
    <tag k="addr:state" v="VT"/>
    <tag k="ref:vcgi:esiteid" v="611880"/>
  </node>
  <node id="-1079" visible="true" lat="42.76429345" lon="-72.89052254">
    <tag k="addr:housenumber" v="153"/>
    <tag k="addr:street" v="Shippee Road"/>
    <tag k="addr:state" v="VT"/>
    <tag k="ref:vcgi:esiteid" v="611881"/>
  </node>
  <node id="-1080" visible="true" lat="42.73991265" lon="-72.8578465">
    <tag k="addr:housenumber" v="32"/>
    <tag k="addr:street" v="Hurd Lane"/>
    <tag k="addr:state" v="VT"/>
    <tag k="ref:vcgi:esiteid" v="611882"/>
  </node>
  <node id="-1081" visible="true" lat="42.74429592" lon="-72.81539936">
    <tag k="addr:housenumber" v="2725"/>
    <tag k="addr:street" v="Route 8a"/>
    <tag k="addr:state" v="VT"/>
    <tag k="ref:vcgi:esiteid" v="611883"/>
  </node>
  <node id="-1084" visible="true" lat="42.7889413" lon="-72.88099417">
    <tag k="addr:housenumber" v="13"/>
    <tag k="addr:street" v="Tyanoga Road"/>
    <tag k="addr:state" v="VT"/>
    <tag k="ref:vcgi:esiteid" v="612980"/>
  </node>
  <node id="-1085" visible="true" lat="42.82371773" lon="-72.86102645">
    <tag k="addr:housenumber" v="1916"/>
    <tag k="addr:street" v="Fuller Hill Road"/>
    <tag k="addr:state" v="VT"/>
    <tag k="ref:vcgi:esiteid" v="613218"/>
  </node>
  <node id="-1093" visible="true" lat="42.80263149" lon="-72.83836866">
    <tag k="addr:housenumber" v="1160"/>
    <tag k="addr:street" v="Fowler Road"/>
    <tag k="addr:state" v="VT"/>
    <tag k="ref:vcgi:esiteid" v="615556"/>
  </node>
  <node id="-1149" visible="true" lat="42.79820274" lon="-72.82000463">
    <tag k="addr:housenumber" v="97"/>
    <tag k="addr:street" v="Gates Pond Road"/>
    <tag k="addr:state" v="VT"/>
    <tag k="ref:vcgi:esiteid" v="615612"/>
  </node>
  <node id="-1153" visible="true" lat="42.7982462" lon="-72.81979462">
    <tag k="addr:housenumber" v="105"/>
    <tag k="addr:street" v="Gates Pond Road"/>
    <tag k="addr:state" v="VT"/>
    <tag k="ref:vcgi:esiteid" v="615616"/>
  </node>
  <node id="-1229" visible="true" lat="42.74756901" lon="-72.8324124">
    <tag k="addr:housenumber" v="1043"/>
    <tag k="addr:street" v="Chapel Hill Road"/>
    <tag k="addr:state" v="VT"/>
    <tag k="ref:vcgi:esiteid" v="615719"/>
  </node>
  <node id="-1230" visible="true" lat="42.74665074" lon="-72.8290881">
    <tag k="addr:housenumber" v="870"/>
    <tag k="addr:street" v="Chapel Hill Road"/>
    <tag k="addr:state" v="VT"/>
    <tag k="ref:vcgi:esiteid" v="615720"/>
  </node>
  <node id="-1239" visible="true" lat="42.74810595" lon="-72.85340117">
    <tag k="addr:housenumber" v="662"/>
    <tag k="addr:street" v="Cyrus Road"/>
    <tag k="addr:state" v="VT"/>
    <tag k="ref:vcgi:esiteid" v="615732"/>
  </node>
  <node id="-1280" visible="true" lat="42.78392901" lon="-72.87039839">
    <tag k="addr:housenumber" v="232"/>
    <tag k="addr:street" v="Town Hill Road"/>
    <tag k="addr:state" v="VT"/>
    <tag k="ref:vcgi:esiteid" v="617243"/>
  </node>
  <node id="-1281" visible="true" lat="42.78747331" lon="-72.8376141">
    <tag k="addr:housenumber" v="4187"/>
    <tag k="addr:street" v="Vermont Route 100"/>
    <tag k="addr:state" v="VT"/>
    <tag k="ref:vcgi:esiteid" v="617277"/>
  </node>
  <node id="-1282" visible="true" lat="42.81409187" lon="-72.8742081">
    <tag k="addr:housenumber" v="346"/>
    <tag k="addr:street" v="East Road"/>
    <tag k="addr:state" v="VT"/>
    <tag k="ref:vcgi:esiteid" v="617286"/>
  </node>
  <node id="-1283" visible="true" lat="42.75697121" lon="-72.87016933">
    <tag k="addr:housenumber" v="1115"/>
    <tag k="addr:street" v="Streeter Hill Road"/>
    <tag k="addr:state" v="VT"/>
    <tag k="ref:vcgi:esiteid" v="620752"/>
  </node>
  <node id="-1284" visible="true" lat="42.74689891" lon="-72.8079388">
    <tag k="addr:housenumber" v="383"/>
    <tag k="addr:street" v="McMillan Road"/>
    <tag k="addr:state" v="VT"/>
    <tag k="ref:vcgi:esiteid" v="655252"/>
  </node>
  <node id="-1288" visible="true" lat="42.80356828" lon="-72.86249515">
    <tag k="addr:housenumber" v="1090"/>
    <tag k="addr:street" v="Corse Road"/>
    <tag k="addr:state" v="VT"/>
    <tag k="ref:vcgi:esiteid" v="750753"/>
  </node>
  <node id="-1289" visible="true" lat="42.80221771" lon="-72.86367888">
    <tag k="addr:housenumber" v="1019"/>
    <tag k="addr:street" v="Corse Road"/>
    <tag k="addr:state" v="VT"/>
    <tag k="ref:vcgi:esiteid" v="750754"/>
  </node>
  <node id="-1290" visible="true" lat="42.80217999" lon="-72.86444536">
    <tag k="addr:housenumber" v="1017"/>
    <tag k="addr:street" v="Corse Road"/>
    <tag k="addr:state" v="VT"/>
    <tag k="ref:vcgi:esiteid" v="750755"/>
  </node>
  <node id="-1303" visible="true" lat="42.78434619" lon="-72.85331262">
    <tag k="addr:housenumber" v="75"/>
    <tag k="addr:street" v="Goodnow Road"/>
    <tag k="addr:state" v="VT"/>
    <tag k="ref:vcgi:esiteid" v="750768"/>
  </node>
  <node id="-1313" visible="true" lat="42.78912561" lon="-72.87943175">
    <tag k="addr:housenumber" v="6416"/>
    <tag k="addr:street" v="Vermont Route 100"/>
    <tag k="addr:state" v="VT"/>
    <tag k="ref:vcgi:esiteid" v="750778"/>
  </node>
  <node id="-1318" visible="true" lat="42.78570835" lon="-72.87672863">
    <tag k="addr:housenumber" v="200"/>
    <tag k="addr:street" v="Sadawga Lake Road"/>
    <tag k="addr:state" v="VT"/>
    <tag k="ref:vcgi:esiteid" v="752009"/>
  </node>
  <node id="-1319" visible="true" lat="42.79713473" lon="-72.81216708">
    <tag k="addr:housenumber" v="384"/>
    <tag k="addr:street" v="Reed Hill Road"/>
    <tag k="addr:state" v="VT"/>
    <tag k="ref:vcgi:esiteid" v="752537"/>
  </node>
  <node id="-1320" visible="true" lat="42.73941182" lon="-72.8189795">
    <tag k="addr:housenumber" v="3078"/>
    <tag k="addr:street" v="Route 8a"/>
    <tag k="addr:state" v="VT"/>
    <tag k="ref:vcgi:esiteid" v="752732"/>
  </node>
  <node id="-1321" visible="true" lat="42.76437066" lon="-72.8975022">
    <tag k="addr:housenumber" v="8923"/>
    <tag k="addr:street" v="Vermont Route 100"/>
    <tag k="addr:state" v="VT"/>
    <tag k="ref:vcgi:esiteid" v="752860"/>
  </node>
  <node id="-1322" visible="true" lat="42.7894204" lon="-72.81842768">
    <tag k="addr:housenumber" v="635"/>
    <tag k="addr:street" v="Vermont Route 112"/>
    <tag k="addr:state" v="VT"/>
    <tag k="ref:vcgi:esiteid" v="753818"/>
  </node>
  <node id="-1323" visible="true" lat="42.78433303" lon="-72.88062582">
    <tag k="addr:housenumber" v="311"/>
    <tag k="addr:street" v="Tyanoga Road"/>
    <tag k="addr:state" v="VT"/>
    <tag k="ref:vcgi:esiteid" v="755408"/>
  </node>
  <node id="-1324" visible="true" lat="42.81881666" lon="-72.8643391">
    <tag k="addr:housenumber" v="1487"/>
    <tag k="addr:street" v="Fuller Hill Road"/>
    <tag k="addr:state" v="VT"/>
    <tag k="ref:vcgi:esiteid" v="756385"/>
  </node>
  <node id="-1325" visible="true" lat="42.76744342" lon="-72.89971372">
    <tag k="addr:housenumber" v="9024"/>
    <tag k="addr:street" v="Vermont Route 100"/>
    <tag k="addr:state" v="VT"/>
    <tag k="ref:vcgi:esiteid" v="756386"/>
  </node>
  <node id="-1326" visible="true" lat="42.74885495" lon="-72.82544098">
    <tag k="addr:housenumber" v="232"/>
    <tag k="addr:street" v="Hilltop Drive"/>
    <tag k="addr:state" v="VT"/>
    <tag k="ref:vcgi:esiteid" v="757310"/>
  </node>
  <node id="-1328" visible="true" lat="42.74884094" lon="-72.82355136">
    <tag k="addr:housenumber" v="3196"/>
    <tag k="addr:street" v="Burrington Hill Road"/>
    <tag k="addr:state" v="VT"/>
    <tag k="ref:vcgi:esiteid" v="758101"/>
  </node>
  <node id="-1329" visible="true" lat="42.78474903" lon="-72.88168218">
    <tag k="addr:housenumber" v="284"/>
    <tag k="addr:street" v="Tyanoga Road"/>
    <tag k="addr:state" v="VT"/>
    <tag k="ref:vcgi:esiteid" v="758268"/>
  </node>
  <node id="-1330" visible="true" lat="42.74168087" lon="-72.81872852">
    <tag k="addr:housenumber" v="129"/>
    <tag k="addr:street" v="Chapel Hill Road"/>
    <tag k="addr:state" v="VT"/>
    <tag k="ref:vcgi:esiteid" v="759321"/>
  </node>
  <node id="-1331" visible="true" lat="42.78836058" lon="-72.87741799">
    <tag k="addr:housenumber" v="27"/>
    <tag k="addr:street" v="Sadawga Lake Road"/>
    <tag k="addr:state" v="VT"/>
    <tag k="ref:vcgi:esiteid" v="759870"/>
  </node>
  <node id="-1332" visible="true" lat="42.74433527" lon="-72.90439131">
    <tag k="addr:housenumber" v="447"/>
    <tag k="addr:street" v="Lone Pine Road"/>
    <tag k="addr:state" v="VT"/>
    <tag k="ref:vcgi:esiteid" v="759871"/>
  </node>
  <node id="-1333" visible="true" lat="42.78844543" lon="-72.88163447">
    <tag k="addr:housenumber" v="48"/>
    <tag k="addr:street" v="Tyanoga Road"/>
    <tag k="addr:state" v="VT"/>
    <tag k="ref:vcgi:esiteid" v="761016"/>
  </node>
  <node id="-1334" visible="true" lat="42.78798928" lon="-72.88119838">
    <tag k="addr:housenumber" v="79"/>
    <tag k="addr:street" v="Tyanoga Road"/>
    <tag k="addr:state" v="VT"/>
    <tag k="ref:vcgi:esiteid" v="761017"/>
  </node>
  <node id="-1335" visible="true" lat="42.78392359" lon="-72.88165353">
    <tag k="addr:housenumber" v="340"/>
    <tag k="addr:street" v="Tyanoga Road"/>
    <tag k="addr:state" v="VT"/>
    <tag k="ref:vcgi:esiteid" v="761215"/>
  </node>
  <node id="-1336" visible="true" lat="42.82368815" lon="-72.85749861">
    <tag k="addr:housenumber" v="441"/>
    <tag k="addr:street" v="Vermont Route 100"/>
    <tag k="addr:state" v="VT"/>
    <tag k="ref:vcgi:esiteid" v="761216"/>
  </node>
  <node id="-1337" visible="true" lat="42.75795854" lon="-72.90417267">
    <tag k="addr:housenumber" v="625"/>
    <tag k="addr:street" v="Merrifield Road"/>
    <tag k="addr:state" v="VT"/>
    <tag k="ref:vcgi:esiteid" v="761217"/>
  </node>
  <node id="-1338" visible="true" lat="42.82659446" lon="-72.83334595">
    <tag k="addr:housenumber" v="824"/>
    <tag k="addr:street" v="Stonehouse Road"/>
    <tag k="addr:state" v="VT"/>
    <tag k="ref:vcgi:esiteid" v="762225"/>
  </node>
  <node id="-1340" visible="true" lat="42.75216644" lon="-72.89910941">
    <tag k="addr:housenumber" v="1123"/>
    <tag k="addr:street" v="Merrifield Road"/>
    <tag k="addr:state" v="VT"/>
    <tag k="ref:vcgi:esiteid" v="762477"/>
  </node>
  <node id="-1341" visible="true" lat="42.76507209" lon="-72.83254945">
    <tag k="addr:housenumber" v="1155"/>
    <tag k="addr:street" v="Maple Hill Lane"/>
    <tag k="addr:state" v="VT"/>
    <tag k="ref:vcgi:esiteid" v="762631"/>
  </node>
  <node id="-1342" visible="true" lat="42.77816917" lon="-72.86833878">
    <tag k="addr:housenumber" v="223"/>
    <tag k="addr:street" v="Taylor Lane"/>
    <tag k="addr:state" v="VT"/>
    <tag k="ref:vcgi:esiteid" v="762632"/>
  </node>
  <node id="-1343" visible="true" lat="42.77648827" lon="-72.86533741">
    <tag k="addr:housenumber" v="541"/>
    <tag k="addr:street" v="Poverty Row"/>
    <tag k="addr:state" v="VT"/>
    <tag k="ref:vcgi:esiteid" v="762633"/>
  </node>
  <node id="-1344" visible="true" lat="42.82451779" lon="-72.82052505">
    <tag k="addr:housenumber" v="804"/>
    <tag k="addr:street" v="Lake Hill Road"/>
    <tag k="addr:state" v="VT"/>
    <tag k="ref:vcgi:esiteid" v="762634"/>
  </node>
  <node id="-1345" visible="true" lat="42.82235694" lon="-72.81899581">
    <tag k="addr:housenumber" v="803"/>
    <tag k="addr:street" v="Lake Hill Road"/>
    <tag k="addr:state" v="VT"/>
    <tag k="ref:vcgi:esiteid" v="762635"/>
  </node>
  <node id="-1346" visible="true" lat="42.82594476" lon="-72.85743929">
    <tag k="addr:housenumber" v="209"/>
    <tag k="addr:street" v="Vermont Route 100"/>
    <tag k="addr:state" v="VT"/>
    <tag k="ref:vcgi:esiteid" v="762752"/>
  </node>
  <node id="-1347" visible="true" lat="42.79168974" lon="-72.81801255">
    <tag k="addr:housenumber" v="451"/>
    <tag k="addr:street" v="Vermont Route 112"/>
    <tag k="addr:state" v="VT"/>
    <tag k="ref:vcgi:esiteid" v="762792"/>
  </node>
  <node id="-1348" visible="true" lat="42.81359881" lon="-72.84729032">
    <tag k="addr:housenumber" v="1947"/>
    <tag k="addr:street" v="Wilmington Cross Road"/>
    <tag k="addr:state" v="VT"/>
    <tag k="ref:vcgi:esiteid" v="763780"/>
  </node>
  <node id="-1349" visible="true" lat="42.7913904" lon="-72.84798705">
    <tag k="addr:housenumber" v="178"/>
    <tag k="addr:street" v="Fowler Road"/>
    <tag k="addr:state" v="VT"/>
    <tag k="ref:vcgi:esiteid" v="764667"/>
  </node>
  <node id="-1350" visible="true" lat="42.7479812" lon="-72.8106784">
    <tag k="addr:housenumber" v="289"/>
    <tag k="addr:street" v="McMillan Road"/>
    <tag k="addr:state" v="VT"/>
    <tag k="ref:vcgi:esiteid" v="764668"/>
  </node>
  <node id="-1351" visible="true" lat="42.78871572" lon="-72.86707362">
    <tag k="addr:housenumber" v="93"/>
    <tag k="addr:street" v="Plumb Road"/>
    <tag k="addr:state" v="VT"/>
    <tag k="ref:vcgi:esiteid" v="766236"/>
  </node>
  <node id="-1353" visible="true" lat="42.82658334" lon="-72.82131843">
    <tag k="addr:housenumber" v="1330"/>
    <tag k="addr:street" v="Parsons Road"/>
    <tag k="addr:state" v="VT"/>
    <tag k="ref:vcgi:esiteid" v="766238"/>
  </node>
  <node id="-1354" visible="true" lat="42.77930829" lon="-72.86588491">
    <tag k="addr:housenumber" v="333"/>
    <tag k="addr:street" v="Poverty Row"/>
    <tag k="addr:state" v="VT"/>
    <tag k="ref:vcgi:esiteid" v="766747"/>
  </node>
  <node id="-1355" visible="true" lat="42.77507658" lon="-72.86297994">
    <tag k="addr:housenumber" v="288"/>
    <tag k="addr:street" v="Deer Hill Road"/>
    <tag k="addr:state" v="VT"/>
    <tag k="ref:vcgi:esiteid" v="766748"/>
  </node>
  <node id="-1356" visible="true" lat="42.81133697" lon="-72.86768695">
    <tag k="addr:housenumber" v="941"/>
    <tag k="addr:street" v="Fuller Hill Road"/>
    <tag k="addr:state" v="VT"/>
    <tag k="ref:vcgi:esiteid" v="769474"/>
  </node>
  <node id="-1357" visible="true" lat="42.81950268" lon="-72.82296167">
    <tag k="addr:housenumber" v="901"/>
    <tag k="addr:street" v="Parsons Road"/>
    <tag k="addr:state" v="VT"/>
    <tag k="ref:vcgi:esiteid" v="769523"/>
  </node>
  <node id="-1358" visible="true" lat="42.75550756" lon="-72.80959623">
    <tag k="addr:housenumber" v="874"/>
    <tag k="addr:street" v="Aldrich Road"/>
    <tag k="addr:state" v="VT"/>
    <tag k="ref:vcgi:esiteid" v="769524"/>
  </node>
  <node id="-1359" visible="true" lat="42.78517945" lon="-72.84420933">
    <tag k="addr:housenumber" v="188"/>
    <tag k="addr:street" v="Ginny Morse Road"/>
    <tag k="addr:state" v="VT"/>
    <tag k="ref:vcgi:esiteid" v="769525"/>
  </node>
  <node id="-1360" visible="true" lat="42.76192059" lon="-72.87130552">
    <tag k="addr:housenumber" v="804"/>
    <tag k="addr:street" v="Streeter Hill Road"/>
    <tag k="addr:state" v="VT"/>
    <tag k="ref:vcgi:esiteid" v="769526"/>
  </node>
  <node id="-1361" visible="true" lat="42.78721477" lon="-72.86328465">
    <tag k="addr:housenumber" v="5517"/>
    <tag k="addr:street" v="Vermont Route 100"/>
    <tag k="addr:state" v="VT"/>
    <tag k="ref:vcgi:esiteid" v="769527"/>
  </node>
  <node id="-1362" visible="true" lat="42.77424643" lon="-72.86900769">
    <tag k="addr:housenumber" v="119"/>
    <tag k="addr:street" v="Kentfield Road"/>
    <tag k="addr:state" v="VT"/>
    <tag k="ref:vcgi:esiteid" v="769528"/>
  </node>
  <node id="-1363" visible="true" lat="42.80730445" lon="-72.83498315">
    <tag k="addr:housenumber" v="2039"/>
    <tag k="addr:street" v="Vermont Route 100"/>
    <tag k="addr:state" v="VT"/>
    <tag k="ref:vcgi:esiteid" v="769529"/>
  </node>
  <node id="-1364" visible="true" lat="42.74847085" lon="-72.82784877">
    <tag k="addr:housenumber" v="67"/>
    <tag k="addr:street" v="Trails End"/>
    <tag k="addr:state" v="VT"/>
    <tag k="ref:vcgi:esiteid" v="769530"/>
  </node>
  <node id="-1365" visible="true" lat="42.76281997" lon="-72.87696179">
    <tag k="addr:housenumber" v="1213"/>
    <tag k="addr:street" v="Kentfield Road"/>
    <tag k="addr:state" v="VT"/>
    <tag k="ref:vcgi:esiteid" v="769779"/>
  </node>
  <node id="-1366" visible="true" lat="42.74803687" lon="-72.8291409">
    <tag k="addr:housenumber" v="988"/>
    <tag k="addr:street" v="Chapel Hill Road"/>
    <tag k="addr:state" v="VT"/>
    <tag k="ref:vcgi:esiteid" v="769780"/>
  </node>
  <node id="-1368" visible="true" lat="42.76644412" lon="-72.8950692">
    <tag k="addr:housenumber" v="8"/>
    <tag k="addr:street" v="Shippee Road"/>
    <tag k="addr:state" v="VT"/>
    <tag k="ref:vcgi:esiteid" v="1050146"/>
  </node>
  <node id="-1369" visible="true" lat="42.78886658" lon="-72.87802547">
    <tag k="addr:housenumber" v="6308"/>
    <tag k="addr:street" v="Vermont Route 100"/>
    <tag k="addr:state" v="VT"/>
    <tag k="ref:vcgi:esiteid" v="1050151"/>
  </node>
  <node id="-1370" visible="true" lat="42.7828781" lon="-72.86402477">
    <tag k="addr:housenumber" v="564"/>
    <tag k="addr:street" v="Town Hill Road"/>
    <tag k="addr:state" v="VT"/>
    <tag k="ref:vcgi:esiteid" v="1050152"/>
  </node>
  <node id="-1371" visible="true" lat="42.78723289" lon="-72.85104438">
    <tag k="addr:housenumber" v="4842"/>
    <tag k="addr:street" v="Vermont Route 100"/>
    <tag k="addr:state" v="VT"/>
    <tag k="ref:vcgi:esiteid" v="1050153"/>
  </node>
  <node id="-1372" visible="true" lat="42.7866624" lon="-72.84030917">
    <tag k="addr:housenumber" v="133"/>
    <tag k="addr:street" v="Ginny Morse Road"/>
    <tag k="addr:state" v="VT"/>
    <tag k="ref:vcgi:esiteid" v="1050154"/>
  </node>
  <node id="-1373" visible="true" lat="42.78812249" lon="-72.81714605">
    <tag k="addr:housenumber" v="675"/>
    <tag k="addr:street" v="Vermont Route 112"/>
    <tag k="addr:state" v="VT"/>
    <tag k="ref:vcgi:esiteid" v="1050155"/>
  </node>
  <node id="-1374" visible="true" lat="42.82081714" lon="-72.85651848">
    <tag k="addr:housenumber" v="572"/>
    <tag k="addr:street" v="Vermont Route 100"/>
    <tag k="addr:state" v="VT"/>
    <tag k="ref:vcgi:esiteid" v="1050156"/>
  </node>
  <node id="-1375" visible="true" lat="42.814" lon="-72.80617">
    <tag k="addr:housenumber" v="2665"/>
    <tag k="addr:street" v="Collins Road"/>
    <tag k="addr:state" v="VT"/>
    <tag k="ref:vcgi:esiteid" v="1050157"/>
  </node>
  <node id="-1377" visible="true" lat="42.74457489" lon="-72.85197988">
    <tag k="addr:housenumber" v="951"/>
    <tag k="addr:street" v="Cyrus Road"/>
    <tag k="addr:state" v="VT"/>
    <tag k="ref:vcgi:esiteid" v="1051012"/>
  </node>
</osm>
