<?xml version="1.0" encoding="UTF-8"?>
<osm version="0.6" generator="JOSM">
  <node id="-100" visible="true" lat="44.48122444" lon="-73.11312936">
    <tag k="addr:city" v="Williston"/>
    <tag k="addr:housenumber" v="77"/>
    <tag k="addr:street" v="Essex Road"/>
    <tag k="addr:state" v="VT"/>
    <tag k="ref:vcgi:esiteid" v="288464"/>
  </node>
  <node id="-156" visible="true" lat="44.47515869" lon="-73.11380767">
    <tag k="addr:city" v="Williston"/>
    <tag k="addr:housenumber" v="500"/>
    <tag k="addr:street" v="Essex Road"/>
    <tag k="addr:state" v="VT"/>
    <tag k="ref:vcgi:esiteid" v="288530"/>
  </node>
  <node id="-239" visible="true" lat="44.47270584" lon="-73.08841705">
    <tag k="addr:city" v="Williston"/>
    <tag k="addr:housenumber" v="466"/>
    <tag k="addr:street" v="Chip Alley"/>
    <tag k="addr:state" v="VT"/>
    <tag k="ref:vcgi:esiteid" v="288627"/>
  </node>
  <node id="-246" visible="true" lat="44.47237777" lon="-73.1136856">
    <tag k="addr:city" v="Williston"/>
    <tag k="addr:housenumber" v="7"/>
    <tag k="addr:street" v="River Cove Road"/>
    <tag k="addr:state" v="VT"/>
    <tag k="ref:vcgi:esiteid" v="288635"/>
  </node>
  <node id="-263" visible="true" lat="44.47198486" lon="-73.05805206">
    <tag k="addr:city" v="Williston"/>
    <tag k="addr:housenumber" v="712"/>
    <tag k="addr:street" v="Fay Lane"/>
    <tag k="addr:state" v="VT"/>
    <tag k="ref:vcgi:esiteid" v="288656"/>
  </node>
  <node id="-277" visible="true" lat="44.47154561" lon="-73.05806308">
    <tag k="addr:city" v="Williston"/>
    <tag k="addr:housenumber" v="601"/>
    <tag k="addr:street" v="Fay Lane"/>
    <tag k="addr:state" v="VT"/>
    <tag k="ref:vcgi:esiteid" v="288672"/>
  </node>
  <node id="-323" visible="true" lat="44.47001765" lon="-73.0436698">
    <tag k="addr:city" v="Williston"/>
    <tag k="addr:housenumber" v="2738"/>
    <tag k="addr:street" v="North Williston Road"/>
    <tag k="addr:state" v="VT"/>
    <tag k="ref:vcgi:esiteid" v="288725"/>
  </node>
  <node id="-325" visible="true" lat="44.46990966" lon="-73.04467773">
    <tag k="addr:city" v="Williston"/>
    <tag k="addr:housenumber" v="2725"/>
    <tag k="addr:street" v="North Williston Road"/>
    <tag k="addr:state" v="VT"/>
    <tag k="ref:vcgi:esiteid" v="288728"/>
  </node>
  <node id="-346" visible="true" lat="44.46917724" lon="-73.04518127">
    <tag k="addr:city" v="Williston"/>
    <tag k="addr:housenumber" v="2671"/>
    <tag k="addr:street" v="North Williston Road"/>
    <tag k="addr:state" v="VT"/>
    <tag k="ref:vcgi:esiteid" v="288751"/>
  </node>
  <node id="-355" visible="true" lat="44.46854599" lon="-73.04419253">
    <tag k="addr:city" v="Williston"/>
    <tag k="addr:housenumber" v="2660"/>
    <tag k="addr:street" v="North Williston Road"/>
    <tag k="addr:state" v="VT"/>
    <tag k="ref:vcgi:esiteid" v="288761"/>
  </node>
  <node id="-375" visible="true" lat="44.46787771" lon="-73.05287649">
    <tag k="addr:city" v="Williston"/>
    <tag k="addr:housenumber" v="347"/>
    <tag k="addr:street" v="Fay Lane"/>
    <tag k="addr:state" v="VT"/>
    <tag k="ref:vcgi:esiteid" v="288782"/>
  </node>
  <node id="-380" visible="true" lat="44.46760177" lon="-73.05117797">
    <tag k="addr:city" v="Williston"/>
    <tag k="addr:housenumber" v="238"/>
    <tag k="addr:street" v="Fay Lane"/>
    <tag k="addr:state" v="VT"/>
    <tag k="ref:vcgi:esiteid" v="288789"/>
  </node>
  <node id="-388" visible="true" lat="44.46730041" lon="-73.0517807">
    <tag k="addr:city" v="Williston"/>
    <tag k="addr:housenumber" v="247"/>
    <tag k="addr:street" v="Fay Lane"/>
    <tag k="addr:state" v="VT"/>
    <tag k="ref:vcgi:esiteid" v="288798"/>
  </node>
  <node id="-398" visible="true" lat="44.46695262" lon="-73.0515914">
    <tag k="addr:city" v="Williston"/>
    <tag k="addr:housenumber" v="221"/>
    <tag k="addr:street" v="Fay Lane"/>
    <tag k="addr:state" v="VT"/>
    <tag k="ref:vcgi:esiteid" v="288809"/>
  </node>
  <node id="-401" visible="true" lat="44.46689215" lon="-73.04527823">
    <tag k="addr:city" v="Williston"/>
    <tag k="addr:housenumber" v="45"/>
    <tag k="addr:street" v="Chapman Lane"/>
    <tag k="addr:state" v="VT"/>
    <tag k="ref:vcgi:esiteid" v="288812"/>
  </node>
  <node id="-405" visible="true" lat="44.46639633" lon="-73.12156677">
    <tag k="addr:city" v="Williston"/>
    <tag k="addr:housenumber" v="296"/>
    <tag k="addr:street" v="Avenue D"/>
    <tag k="addr:state" v="VT"/>
    <tag k="ref:vcgi:esiteid" v="288817"/>
  </node>
  <node id="-413" visible="true" lat="44.46638603" lon="-73.0483905">
    <tag k="addr:city" v="Williston"/>
    <tag k="addr:housenumber" v="74"/>
    <tag k="addr:street" v="Fay Lane"/>
    <tag k="addr:state" v="VT"/>
    <tag k="ref:vcgi:esiteid" v="288827"/>
  </node>
  <node id="-419" visible="true" lat="44.46641921" lon="-73.04455566">
    <tag k="addr:city" v="Williston"/>
    <tag k="addr:housenumber" v="97"/>
    <tag k="addr:street" v="Chapman Lane"/>
    <tag k="addr:state" v="VT"/>
    <tag k="ref:vcgi:esiteid" v="288834"/>
  </node>
  <node id="-423" visible="true" lat="44.46647843" lon="-73.04919852">
    <tag k="addr:city" v="Williston"/>
    <tag k="addr:housenumber" v="108"/>
    <tag k="addr:street" v="Fay Lane"/>
    <tag k="addr:state" v="VT"/>
    <tag k="ref:vcgi:esiteid" v="288838"/>
  </node>
  <node id="-433" visible="true" lat="44.46616151" lon="-73.04398567">
    <tag k="addr:city" v="Williston"/>
    <tag k="addr:housenumber" v="135"/>
    <tag k="addr:street" v="Chapman Lane"/>
    <tag k="addr:state" v="VT"/>
    <tag k="ref:vcgi:esiteid" v="288848"/>
  </node>
  <node id="-436" visible="true" lat="44.46592271" lon="-73.04344694">
    <tag k="addr:city" v="Williston"/>
    <tag k="addr:housenumber" v="157"/>
    <tag k="addr:street" v="Chapman Lane"/>
    <tag k="addr:state" v="VT"/>
    <tag k="ref:vcgi:esiteid" v="288853"/>
  </node>
  <node id="-438" visible="true" lat="44.4659729" lon="-73.04845428">
    <tag k="addr:city" v="Williston"/>
    <tag k="addr:housenumber" v="62"/>
    <tag k="addr:street" v="Fay Lane"/>
    <tag k="addr:state" v="VT"/>
    <tag k="ref:vcgi:esiteid" v="288855"/>
  </node>
  <node id="-441" visible="true" lat="44.46593856" lon="-73.04301452">
    <tag k="addr:city" v="Williston"/>
    <tag k="addr:housenumber" v="179"/>
    <tag k="addr:street" v="Chapman Lane"/>
    <tag k="addr:state" v="VT"/>
    <tag k="ref:vcgi:esiteid" v="288859"/>
  </node>
  <node id="-454" visible="true" lat="44.46562194" lon="-73.04280853">
    <tag k="addr:city" v="Williston"/>
    <tag k="addr:housenumber" v="199"/>
    <tag k="addr:street" v="Chapman Lane"/>
    <tag k="addr:state" v="VT"/>
    <tag k="ref:vcgi:esiteid" v="288874"/>
  </node>
  <node id="-465" visible="true" lat="44.46569804" lon="-73.04459698">
    <tag k="addr:city" v="Williston"/>
    <tag k="addr:housenumber" v="88"/>
    <tag k="addr:street" v="Chapman Lane"/>
    <tag k="addr:state" v="VT"/>
    <tag k="ref:vcgi:esiteid" v="288887"/>
  </node>
  <node id="-474" visible="true" lat="44.46519088" lon="-73.04397582">
    <tag k="addr:city" v="Williston"/>
    <tag k="addr:housenumber" v="174"/>
    <tag k="addr:street" v="Chapman Lane"/>
    <tag k="addr:state" v="VT"/>
    <tag k="ref:vcgi:esiteid" v="288901"/>
  </node>
  <node id="-480" visible="true" lat="44.46539587" lon="-73.04184973">
    <tag k="addr:city" v="Williston"/>
    <tag k="addr:housenumber" v="255"/>
    <tag k="addr:street" v="Chapman Lane"/>
    <tag k="addr:state" v="VT"/>
    <tag k="ref:vcgi:esiteid" v="288908"/>
  </node>
  <node id="-500" visible="true" lat="44.46429164" lon="-73.12050187">
    <tag k="addr:city" v="Williston"/>
    <tag k="addr:housenumber" v="100"/>
    <tag k="addr:street" v="Avenue D"/>
    <tag k="addr:state" v="VT"/>
    <tag k="ref:vcgi:esiteid" v="288931"/>
  </node>
  <node id="-541" visible="true" lat="44.46377563" lon="-73.03845214">
    <tag k="addr:city" v="Williston"/>
    <tag k="addr:housenumber" v="451"/>
    <tag k="addr:street" v="Chapman Lane"/>
    <tag k="addr:state" v="VT"/>
    <tag k="ref:vcgi:esiteid" v="288978"/>
  </node>
  <node id="-560" visible="true" lat="44.46353348" lon="-73.03525994">
    <tag k="addr:city" v="Williston"/>
    <tag k="addr:housenumber" v="507"/>
    <tag k="addr:street" v="Chapman Lane"/>
    <tag k="addr:state" v="VT"/>
    <tag k="ref:vcgi:esiteid" v="289002"/>
  </node>
  <node id="-580" visible="true" lat="44.46318054" lon="-73.03756713">
    <tag k="addr:city" v="Williston"/>
    <tag k="addr:housenumber" v="587"/>
    <tag k="addr:street" v="Chapman Lane"/>
    <tag k="addr:state" v="VT"/>
    <tag k="ref:vcgi:esiteid" v="289026"/>
  </node>
  <node id="-669" visible="true" lat="44.46185684" lon="-73.0355072">
    <tag k="addr:city" v="Williston"/>
    <tag k="addr:housenumber" v="654"/>
    <tag k="addr:street" v="Chapman Lane"/>
    <tag k="addr:state" v="VT"/>
    <tag k="ref:vcgi:esiteid" v="289128"/>
  </node>
  <node id="-1001" visible="true" lat="44.45361328" lon="-73.13520812">
    <tag k="addr:city" v="Williston"/>
    <tag k="addr:housenumber" v="521"/>
    <tag k="addr:street" v="Shunpike Road"/>
    <tag k="addr:state" v="VT"/>
    <tag k="ref:vcgi:esiteid" v="289523"/>
  </node>
  <node id="-1095" visible="true" lat="44.45190117" lon="-73.11086542">
    <tag k="addr:city" v="Williston"/>
    <tag k="addr:housenumber" v="2121"/>
    <tag k="addr:street" v="Essex Road"/>
    <tag k="addr:state" v="VT"/>
    <tag k="ref:vcgi:esiteid" v="289641"/>
  </node>
  <node id="-1104" visible="true" lat="44.4515953" lon="-73.11878204">
    <tag k="addr:city" v="Williston"/>
    <tag k="addr:housenumber" v="64"/>
    <tag k="addr:street" v="Harvest Lane"/>
    <tag k="addr:state" v="VT"/>
    <tag k="ref:vcgi:esiteid" v="289650"/>
  </node>
  <node id="-1130" visible="true" lat="44.45116956" lon="-73.11361498">
    <tag k="addr:city" v="Williston"/>
    <tag k="addr:housenumber" v="5649"/>
    <tag k="addr:street" v="Williston Road"/>
    <tag k="addr:state" v="VT"/>
    <tag k="ref:vcgi:esiteid" v="289685"/>
  </node>
  <node id="-1143" visible="true" lat="44.45103479" lon="-73.1133832">
    <tag k="addr:city" v="Williston"/>
    <tag k="addr:housenumber" v="5667"/>
    <tag k="addr:street" v="Williston Road"/>
    <tag k="addr:state" v="VT"/>
    <tag k="ref:vcgi:esiteid" v="289700"/>
  </node>
  <node id="-1160" visible="true" lat="44.450826" lon="-73.11148242">
    <tag k="addr:city" v="Williston"/>
    <tag k="addr:housenumber" v="2178"/>
    <tag k="addr:street" v="Essex Road"/>
    <tag k="addr:state" v="VT"/>
    <tag k="ref:vcgi:esiteid" v="289722"/>
  </node>
  <node id="-1165" visible="true" lat="44.45059891" lon="-73.112461">
    <tag k="addr:city" v="Williston"/>
    <tag k="addr:housenumber" v="68"/>
    <tag k="addr:street" v="Helena Drive"/>
    <tag k="addr:state" v="VT"/>
    <tag k="ref:vcgi:esiteid" v="289729"/>
  </node>
  <node id="-1193" visible="true" lat="44.45037754" lon="-73.11187891">
    <tag k="addr:city" v="Williston"/>
    <tag k="addr:housenumber" v="5755"/>
    <tag k="addr:street" v="Williston Road"/>
    <tag k="addr:state" v="VT"/>
    <tag k="ref:vcgi:esiteid" v="289764"/>
  </node>
  <node id="-1201" visible="true" lat="44.45015497" lon="-73.1113609">
    <tag k="addr:city" v="Williston"/>
    <tag k="addr:housenumber" v="2200"/>
    <tag k="addr:street" v="Essex Road"/>
    <tag k="addr:state" v="VT"/>
    <tag k="ref:vcgi:esiteid" v="289775"/>
  </node>
  <node id="-1297" visible="true" lat="44.44857556" lon="-73.11022038">
    <tag k="addr:city" v="Williston"/>
    <tag k="addr:housenumber" v="5876"/>
    <tag k="addr:street" v="Williston Road"/>
    <tag k="addr:state" v="VT"/>
    <tag k="ref:vcgi:esiteid" v="289890"/>
  </node>
  <node id="-1468" visible="true" lat="44.446029" lon="-73.029408">
    <tag k="addr:city" v="Williston"/>
    <tag k="addr:housenumber" v="1613"/>
    <tag k="addr:street" v="Governor Chittenden Road"/>
    <tag k="addr:state" v="VT"/>
    <tag k="ref:vcgi:esiteid" v="290110"/>
  </node>
  <node id="-1484" visible="true" lat="44.44589996" lon="-73.028862">
    <tag k="addr:city" v="Williston"/>
    <tag k="addr:housenumber" v="1645"/>
    <tag k="addr:street" v="Governor Chittenden Road"/>
    <tag k="addr:state" v="VT"/>
    <tag k="ref:vcgi:esiteid" v="290130"/>
  </node>
  <node id="-1497" visible="true" lat="44.44559097" lon="-73.06207275">
    <tag k="addr:city" v="Williston"/>
    <tag k="addr:housenumber" v="634"/>
    <tag k="addr:street" v="North Williston Road"/>
    <tag k="addr:state" v="VT"/>
    <tag k="ref:vcgi:esiteid" v="290146"/>
  </node>
  <node id="-1536" visible="true" lat="44.44494247" lon="-73.05712127">
    <tag k="addr:city" v="Williston"/>
    <tag k="addr:housenumber" v="161"/>
    <tag k="addr:street" v="Hillcrest Lane"/>
    <tag k="addr:state" v="VT"/>
    <tag k="ref:vcgi:esiteid" v="290194"/>
  </node>
  <node id="-1552" visible="true" lat="44.44470977" lon="-73.05722045">
    <tag k="addr:city" v="Williston"/>
    <tag k="addr:housenumber" v="143"/>
    <tag k="addr:street" v="Hillcrest Lane"/>
    <tag k="addr:state" v="VT"/>
    <tag k="ref:vcgi:esiteid" v="290213"/>
  </node>
  <node id="-1558" visible="true" lat="44.44448034" lon="-73.05666153">
    <tag k="addr:city" v="Williston"/>
    <tag k="addr:housenumber" v="144"/>
    <tag k="addr:street" v="Hillcrest Lane"/>
    <tag k="addr:state" v="VT"/>
    <tag k="ref:vcgi:esiteid" v="290222"/>
  </node>
  <node id="-1561" visible="true" lat="44.44462585" lon="-73.0302658">
    <tag k="addr:city" v="Williston"/>
    <tag k="addr:housenumber" v="1768"/>
    <tag k="addr:street" v="Governor Chittenden Road"/>
    <tag k="addr:state" v="VT"/>
    <tag k="ref:vcgi:esiteid" v="290226"/>
  </node>
  <node id="-1564" visible="true" lat="44.44443512" lon="-73.05736541">
    <tag k="addr:city" v="Williston"/>
    <tag k="addr:housenumber" v="123"/>
    <tag k="addr:street" v="Hillcrest Lane"/>
    <tag k="addr:state" v="VT"/>
    <tag k="ref:vcgi:esiteid" v="290230"/>
  </node>
  <node id="-1568" visible="true" lat="44.44450378" lon="-73.03268432">
    <tag k="addr:city" v="Williston"/>
    <tag k="addr:housenumber" v="1810"/>
    <tag k="addr:street" v="Governor Chittenden Road"/>
    <tag k="addr:state" v="VT"/>
    <tag k="ref:vcgi:esiteid" v="290235"/>
  </node>
  <node id="-1572" visible="true" lat="44.44446777" lon="-73.06071526">
    <tag k="addr:city" v="Williston"/>
    <tag k="addr:housenumber" v="159"/>
    <tag k="addr:street" v="Fairway Drive"/>
    <tag k="addr:state" v="VT"/>
    <tag k="ref:vcgi:esiteid" v="290239"/>
  </node>
  <node id="-1573" visible="true" lat="44.44416248" lon="-73.05681861">
    <tag k="addr:city" v="Williston"/>
    <tag k="addr:housenumber" v="122"/>
    <tag k="addr:street" v="Hillcrest Lane"/>
    <tag k="addr:state" v="VT"/>
    <tag k="ref:vcgi:esiteid" v="290241"/>
  </node>
  <node id="-1577" visible="true" lat="44.44417572" lon="-73.05749511">
    <tag k="addr:city" v="Williston"/>
    <tag k="addr:housenumber" v="105"/>
    <tag k="addr:street" v="Hillcrest Lane"/>
    <tag k="addr:state" v="VT"/>
    <tag k="ref:vcgi:esiteid" v="290247"/>
  </node>
  <node id="-1585" visible="true" lat="44.4441396" lon="-73.05881918">
    <tag k="addr:city" v="Williston"/>
    <tag k="addr:housenumber" v="255"/>
    <tag k="addr:street" v="Fairway Drive"/>
    <tag k="addr:state" v="VT"/>
    <tag k="ref:vcgi:esiteid" v="290256"/>
  </node>
  <node id="-1588" visible="true" lat="44.4438852" lon="-73.05695723">
    <tag k="addr:city" v="Williston"/>
    <tag k="addr:housenumber" v="96"/>
    <tag k="addr:street" v="Hillcrest Lane"/>
    <tag k="addr:state" v="VT"/>
    <tag k="ref:vcgi:esiteid" v="290259"/>
  </node>
  <node id="-1589" visible="true" lat="44.44387817" lon="-73.05767059">
    <tag k="addr:city" v="Williston"/>
    <tag k="addr:housenumber" v="81"/>
    <tag k="addr:street" v="Hillcrest Lane"/>
    <tag k="addr:state" v="VT"/>
    <tag k="ref:vcgi:esiteid" v="290260"/>
  </node>
  <node id="-1594" visible="true" lat="44.44354036" lon="-73.05711405">
    <tag k="addr:city" v="Williston"/>
    <tag k="addr:housenumber" v="74"/>
    <tag k="addr:street" v="Hillcrest Lane"/>
    <tag k="addr:state" v="VT"/>
    <tag k="ref:vcgi:esiteid" v="290268"/>
  </node>
  <node id="-1596" visible="true" lat="44.44339822" lon="-73.05859122">
    <tag k="addr:city" v="Williston"/>
    <tag k="addr:housenumber" v="258"/>
    <tag k="addr:street" v="Fairway Drive"/>
    <tag k="addr:state" v="VT"/>
    <tag k="ref:vcgi:esiteid" v="290270"/>
  </node>
  <node id="-1602" visible="true" lat="44.44330215" lon="-73.05780029">
    <tag k="addr:city" v="Williston"/>
    <tag k="addr:housenumber" v="43"/>
    <tag k="addr:street" v="Hillcrest Lane"/>
    <tag k="addr:state" v="VT"/>
    <tag k="ref:vcgi:esiteid" v="290281"/>
  </node>
  <node id="-1603" visible="true" lat="44.44322894" lon="-73.05733711">
    <tag k="addr:city" v="Williston"/>
    <tag k="addr:housenumber" v="40"/>
    <tag k="addr:street" v="Hillcrest Lane"/>
    <tag k="addr:state" v="VT"/>
    <tag k="ref:vcgi:esiteid" v="290283"/>
  </node>
  <node id="-1608" visible="true" lat="44.44283565" lon="-73.05746961">
    <tag k="addr:city" v="Williston"/>
    <tag k="addr:housenumber" v="34"/>
    <tag k="addr:street" v="Hillcrest Lane"/>
    <tag k="addr:state" v="VT"/>
    <tag k="ref:vcgi:esiteid" v="290292"/>
  </node>
  <node id="-1612" visible="true" lat="44.44271087" lon="-73.0568161">
    <tag k="addr:city" v="Williston"/>
    <tag k="addr:housenumber" v="347"/>
    <tag k="addr:street" v="Golf Course Road"/>
    <tag k="addr:state" v="VT"/>
    <tag k="ref:vcgi:esiteid" v="290298"/>
  </node>
  <node id="-1627" visible="true" lat="44.44215011" lon="-73.05744171">
    <tag k="addr:city" v="Williston"/>
    <tag k="addr:housenumber" v="344"/>
    <tag k="addr:street" v="Golf Course Road"/>
    <tag k="addr:state" v="VT"/>
    <tag k="ref:vcgi:esiteid" v="290320"/>
  </node>
  <node id="-1635" visible="true" lat="44.44163513" lon="-73.1221466">
    <tag k="addr:city" v="Williston"/>
    <tag k="addr:housenumber" v="863"/>
    <tag k="addr:street" v="Harvest Lane"/>
    <tag k="addr:state" v="VT"/>
    <tag k="ref:vcgi:esiteid" v="290330"/>
  </node>
  <node id="-1636" visible="true" lat="44.4420166" lon="-73.03395843">
    <tag k="addr:city" v="Williston"/>
    <tag k="addr:housenumber" v="2042"/>
    <tag k="addr:street" v="Governor Chittenden Road"/>
    <tag k="addr:state" v="VT"/>
    <tag k="ref:vcgi:esiteid" v="290332"/>
  </node>
  <node id="-1643" visible="true" lat="44.44160344" lon="-73.05848351">
    <tag k="addr:city" v="Williston"/>
    <tag k="addr:housenumber" v="320"/>
    <tag k="addr:street" v="Golf Course Road"/>
    <tag k="addr:state" v="VT"/>
    <tag k="ref:vcgi:esiteid" v="290340"/>
  </node>
  <node id="-1647" visible="true" lat="44.4416275" lon="-73.05535888">
    <tag k="addr:city" v="Williston"/>
    <tag k="addr:housenumber" v="463"/>
    <tag k="addr:street" v="Golf Course Road"/>
    <tag k="addr:state" v="VT"/>
    <tag k="ref:vcgi:esiteid" v="290345"/>
  </node>
  <node id="-1649" visible="true" lat="44.4416431" lon="-73.03238032">
    <tag k="addr:city" v="Williston"/>
    <tag k="addr:housenumber" v="1988"/>
    <tag k="addr:street" v="Governor Chittenden Road"/>
    <tag k="addr:state" v="VT"/>
    <tag k="ref:vcgi:esiteid" v="290347"/>
  </node>
  <node id="-1653" visible="true" lat="44.44137774" lon="-73.0562314">
    <tag k="addr:city" v="Williston"/>
    <tag k="addr:housenumber" v="424"/>
    <tag k="addr:street" v="Golf Course Road"/>
    <tag k="addr:state" v="VT"/>
    <tag k="ref:vcgi:esiteid" v="290351"/>
  </node>
  <node id="-1657" visible="true" lat="44.44131851" lon="-73.05522155">
    <tag k="addr:city" v="Williston"/>
    <tag k="addr:housenumber" v="464"/>
    <tag k="addr:street" v="Golf Course Road"/>
    <tag k="addr:state" v="VT"/>
    <tag k="ref:vcgi:esiteid" v="290357"/>
  </node>
  <node id="-1668" visible="true" lat="44.4404602" lon="-73.11379241">
    <tag k="addr:city" v="Williston"/>
    <tag k="addr:housenumber" v="2939"/>
    <tag k="addr:street" v="Saint George Road"/>
    <tag k="addr:state" v="VT"/>
    <tag k="ref:vcgi:esiteid" v="290375"/>
  </node>
  <node id="-1795" visible="true" lat="44.43743514" lon="-73.06703949">
    <tag k="addr:city" v="Williston"/>
    <tag k="addr:housenumber" v="8195"/>
    <tag k="addr:street" v="Williston Road"/>
    <tag k="addr:state" v="VT"/>
    <tag k="ref:vcgi:esiteid" v="290539"/>
  </node>
  <node id="-1796" visible="true" lat="44.43734697" lon="-73.06651662">
    <tag k="addr:city" v="Williston"/>
    <tag k="addr:housenumber" v="8225"/>
    <tag k="addr:street" v="Williston Road"/>
    <tag k="addr:state" v="VT"/>
    <tag k="ref:vcgi:esiteid" v="290541"/>
  </node>
  <node id="-1799" visible="true" lat="44.43696824" lon="-73.06780355">
    <tag k="addr:city" v="Williston"/>
    <tag k="addr:housenumber" v="8166"/>
    <tag k="addr:street" v="Williston Road"/>
    <tag k="addr:state" v="VT"/>
    <tag k="ref:vcgi:esiteid" v="290545"/>
  </node>
  <node id="-1801" visible="true" lat="44.43698574" lon="-73.06748924">
    <tag k="addr:city" v="Williston"/>
    <tag k="addr:housenumber" v="8186"/>
    <tag k="addr:street" v="Williston Road"/>
    <tag k="addr:state" v="VT"/>
    <tag k="ref:vcgi:esiteid" v="290548"/>
  </node>
  <node id="-1802" visible="true" lat="44.43717263" lon="-73.06499051">
    <tag k="addr:city" v="Williston"/>
    <tag k="addr:housenumber" v="8297"/>
    <tag k="addr:street" v="Williston Road"/>
    <tag k="addr:state" v="VT"/>
    <tag k="ref:vcgi:esiteid" v="290549"/>
  </node>
  <node id="-1806" visible="true" lat="44.43691253" lon="-73.06693267">
    <tag k="addr:city" v="Williston"/>
    <tag k="addr:housenumber" v="8210"/>
    <tag k="addr:street" v="Williston Road"/>
    <tag k="addr:state" v="VT"/>
    <tag k="ref:vcgi:esiteid" v="290554"/>
  </node>
  <node id="-1810" visible="true" lat="44.43678973" lon="-73.06667701">
    <tag k="addr:city" v="Williston"/>
    <tag k="addr:housenumber" v="8232"/>
    <tag k="addr:street" v="Williston Road"/>
    <tag k="addr:state" v="VT"/>
    <tag k="ref:vcgi:esiteid" v="290558"/>
  </node>
  <node id="-1812" visible="true" lat="44.43680844" lon="-73.06645465">
    <tag k="addr:city" v="Williston"/>
    <tag k="addr:housenumber" v="8242"/>
    <tag k="addr:street" v="Williston Road"/>
    <tag k="addr:state" v="VT"/>
    <tag k="ref:vcgi:esiteid" v="290560"/>
  </node>
  <node id="-1815" visible="true" lat="44.43688443" lon="-73.06389763">
    <tag k="addr:city" v="Williston"/>
    <tag k="addr:housenumber" v="8351"/>
    <tag k="addr:street" v="Williston Road"/>
    <tag k="addr:state" v="VT"/>
    <tag k="ref:vcgi:esiteid" v="290565"/>
  </node>
  <node id="-1816" visible="true" lat="44.43663787" lon="-73.06311035">
    <tag k="addr:city" v="Williston"/>
    <tag k="addr:housenumber" v="8397"/>
    <tag k="addr:street" v="Williston Road"/>
    <tag k="addr:state" v="VT"/>
    <tag k="ref:vcgi:esiteid" v="290566"/>
  </node>
  <node id="-1862" visible="true" lat="44.43569629" lon="-73.05502831">
    <tag k="addr:city" v="Williston"/>
    <tag k="addr:housenumber" v="8807"/>
    <tag k="addr:street" v="Williston Road"/>
    <tag k="addr:state" v="VT"/>
    <tag k="ref:vcgi:esiteid" v="290634"/>
  </node>
  <node id="-1906" visible="true" lat="44.43278503" lon="-73.03418731">
    <tag k="addr:city" v="Williston"/>
    <tag k="addr:housenumber" v="9909"/>
    <tag k="addr:street" v="Williston Road"/>
    <tag k="addr:state" v="VT"/>
    <tag k="ref:vcgi:esiteid" v="290687"/>
  </node>
  <node id="-1921" visible="true" lat="44.43117894" lon="-73.03159097">
    <tag k="addr:city" v="Williston"/>
    <tag k="addr:housenumber" v="10079"/>
    <tag k="addr:street" v="Williston Road"/>
    <tag k="addr:state" v="VT"/>
    <tag k="ref:vcgi:esiteid" v="290702"/>
  </node>
  <node id="-1929" visible="true" lat="44.43027877" lon="-73.07446289">
    <tag k="addr:city" v="Williston"/>
    <tag k="addr:housenumber" v="586"/>
    <tag k="addr:street" v="Oak Hill Road"/>
    <tag k="addr:state" v="VT"/>
    <tag k="ref:vcgi:esiteid" v="290710"/>
  </node>
  <node id="-1940" visible="true" lat="44.43020629" lon="-73.02976989">
    <tag k="addr:city" v="Williston"/>
    <tag k="addr:housenumber" v="10191"/>
    <tag k="addr:street" v="Williston Road"/>
    <tag k="addr:state" v="VT"/>
    <tag k="ref:vcgi:esiteid" v="290721"/>
  </node>
  <node id="-1949" visible="true" lat="44.42961883" lon="-73.02823638">
    <tag k="addr:city" v="Williston"/>
    <tag k="addr:housenumber" v="10277"/>
    <tag k="addr:street" v="Williston Road"/>
    <tag k="addr:state" v="VT"/>
    <tag k="ref:vcgi:esiteid" v="290730"/>
  </node>
  <node id="-1954" visible="true" lat="44.42918054" lon="-73.02898417">
    <tag k="addr:city" v="Williston"/>
    <tag k="addr:housenumber" v="10260"/>
    <tag k="addr:street" v="Williston Road"/>
    <tag k="addr:state" v="VT"/>
    <tag k="ref:vcgi:esiteid" v="290735"/>
  </node>
  <node id="-1956" visible="true" lat="44.42845991" lon="-73.02980799">
    <tag k="addr:city" v="Williston"/>
    <tag k="addr:housenumber" v="10236"/>
    <tag k="addr:street" v="Williston Road"/>
    <tag k="addr:state" v="VT"/>
    <tag k="ref:vcgi:esiteid" v="290737"/>
  </node>
  <node id="-2294" visible="true" lat="44.41175842" lon="-73.06089019">
    <tag k="addr:city" v="Williston"/>
    <tag k="addr:housenumber" v="1398"/>
    <tag k="addr:street" v="East Hill Road"/>
    <tag k="addr:state" v="VT"/>
    <tag k="ref:vcgi:esiteid" v="291078"/>
  </node>
  <node id="-2304" visible="true" lat="44.41117477" lon="-73.06123351">
    <tag k="addr:city" v="Williston"/>
    <tag k="addr:housenumber" v="1361"/>
    <tag k="addr:street" v="East Hill Road"/>
    <tag k="addr:state" v="VT"/>
    <tag k="ref:vcgi:esiteid" v="291088"/>
  </node>
  <node id="-2310" visible="true" lat="44.4107666" lon="-73.06053924">
    <tag k="addr:city" v="Williston"/>
    <tag k="addr:housenumber" v="1319"/>
    <tag k="addr:street" v="East Hill Road"/>
    <tag k="addr:state" v="VT"/>
    <tag k="ref:vcgi:esiteid" v="291094"/>
  </node>
  <node id="-2334" visible="true" lat="44.40906524" lon="-73.06089782">
    <tag k="addr:city" v="Williston"/>
    <tag k="addr:housenumber" v="122"/>
    <tag k="addr:street" v="Sherwood Forest Road"/>
    <tag k="addr:state" v="VT"/>
    <tag k="ref:vcgi:esiteid" v="291118"/>
  </node>
  <node id="-2338" visible="true" lat="44.40902464" lon="-73.06486064">
    <tag k="addr:city" v="Williston"/>
    <tag k="addr:housenumber" v="303"/>
    <tag k="addr:street" v="Forty Acre Lane"/>
    <tag k="addr:state" v="VT"/>
    <tag k="ref:vcgi:esiteid" v="291122"/>
  </node>
  <node id="-2344" visible="true" lat="44.40848922" lon="-73.06171417">
    <tag k="addr:city" v="Williston"/>
    <tag k="addr:housenumber" v="152"/>
    <tag k="addr:street" v="Sherwood Forest Road"/>
    <tag k="addr:state" v="VT"/>
    <tag k="ref:vcgi:esiteid" v="291128"/>
  </node>
  <node id="-2368" visible="true" lat="44.40580379" lon="-73.130191">
    <tag k="addr:city" v="Williston"/>
    <tag k="addr:housenumber" v="142"/>
    <tag k="addr:street" v="Chaloux Lane"/>
    <tag k="addr:state" v="VT"/>
    <tag k="ref:vcgi:esiteid" v="291152"/>
  </node>
  <node id="-2372" visible="true" lat="44.40564495" lon="-73.13151901">
    <tag k="addr:city" v="Williston"/>
    <tag k="addr:housenumber" v="35"/>
    <tag k="addr:street" v="Chaloux Lane"/>
    <tag k="addr:state" v="VT"/>
    <tag k="ref:vcgi:esiteid" v="291156"/>
  </node>
  <node id="-2376" visible="true" lat="44.40531928" lon="-73.13016039">
    <tag k="addr:city" v="Williston"/>
    <tag k="addr:housenumber" v="84"/>
    <tag k="addr:street" v="Chaloux Lane"/>
    <tag k="addr:state" v="VT"/>
    <tag k="ref:vcgi:esiteid" v="291160"/>
  </node>
  <node id="-2382" visible="true" lat="44.40471649" lon="-73.13961028">
    <tag k="addr:city" v="Williston"/>
    <tag k="addr:housenumber" v="4239"/>
    <tag k="addr:street" v="South Brownell Road"/>
    <tag k="addr:state" v="VT"/>
    <tag k="ref:vcgi:esiteid" v="291166"/>
  </node>
  <node id="-2386" visible="true" lat="44.4045906" lon="-73.13161468">
    <tag k="addr:city" v="Williston"/>
    <tag k="addr:housenumber" v="33"/>
    <tag k="addr:street" v="Chaloux Lane"/>
    <tag k="addr:state" v="VT"/>
    <tag k="ref:vcgi:esiteid" v="291171"/>
  </node>
  <node id="-2388" visible="true" lat="44.40441131" lon="-73.14115905">
    <tag k="addr:city" v="Williston"/>
    <tag k="addr:housenumber" v="4258"/>
    <tag k="addr:street" v="South Brownell Road"/>
    <tag k="addr:state" v="VT"/>
    <tag k="ref:vcgi:esiteid" v="291173"/>
  </node>
  <node id="-2392" visible="true" lat="44.40392303" lon="-73.14607238">
    <tag k="addr:city" v="Williston"/>
    <tag k="addr:housenumber" v="161"/>
    <tag k="addr:street" v="Rosewood Drive"/>
    <tag k="addr:state" v="VT"/>
    <tag k="ref:vcgi:esiteid" v="291177"/>
  </node>
  <node id="-2393" visible="true" lat="44.40390777" lon="-73.14121246">
    <tag k="addr:city" v="Williston"/>
    <tag k="addr:housenumber" v="4292"/>
    <tag k="addr:street" v="South Brownell Road"/>
    <tag k="addr:state" v="VT"/>
    <tag k="ref:vcgi:esiteid" v="291178"/>
  </node>
  <node id="-2398" visible="true" lat="44.40391148" lon="-73.0691135">
    <tag k="addr:city" v="Williston"/>
    <tag k="addr:housenumber" v="411"/>
    <tag k="addr:street" v="Christmas Lane"/>
    <tag k="addr:state" v="VT"/>
    <tag k="ref:vcgi:esiteid" v="291183"/>
  </node>
  <node id="-2399" visible="true" lat="44.40338516" lon="-73.13780975">
    <tag k="addr:city" v="Williston"/>
    <tag k="addr:housenumber" v="518"/>
    <tag k="addr:street" v="Lincoln Road"/>
    <tag k="addr:state" v="VT"/>
    <tag k="ref:vcgi:esiteid" v="291184"/>
  </node>
  <node id="-2400" visible="true" lat="44.40368152" lon="-73.068097">
    <tag k="addr:city" v="Williston"/>
    <tag k="addr:housenumber" v="461"/>
    <tag k="addr:street" v="Christmas Lane"/>
    <tag k="addr:state" v="VT"/>
    <tag k="ref:vcgi:esiteid" v="291185"/>
  </node>
  <node id="-2401" visible="true" lat="44.4032016" lon="-73.14551574">
    <tag k="addr:city" v="Williston"/>
    <tag k="addr:housenumber" v="120"/>
    <tag k="addr:street" v="Rosewood Drive"/>
    <tag k="addr:state" v="VT"/>
    <tag k="ref:vcgi:esiteid" v="291186"/>
  </node>
  <node id="-2402" visible="true" lat="44.40323638" lon="-73.14126586">
    <tag k="addr:city" v="Williston"/>
    <tag k="addr:housenumber" v="4340"/>
    <tag k="addr:street" v="South Brownell Road"/>
    <tag k="addr:state" v="VT"/>
    <tag k="ref:vcgi:esiteid" v="291187"/>
  </node>
  <node id="-2406" visible="true" lat="44.40302704" lon="-73.12800708">
    <tag k="addr:city" v="Williston"/>
    <tag k="addr:housenumber" v="81"/>
    <tag k="addr:street" v="Lincoln Road"/>
    <tag k="addr:state" v="VT"/>
    <tag k="ref:vcgi:esiteid" v="291191"/>
  </node>
  <node id="-2407" visible="true" lat="44.40306091" lon="-73.12647247">
    <tag k="addr:city" v="Williston"/>
    <tag k="addr:housenumber" v="8"/>
    <tag k="addr:street" v="Lincoln Road"/>
    <tag k="addr:state" v="VT"/>
    <tag k="ref:vcgi:esiteid" v="291192"/>
  </node>
  <node id="-2408" visible="true" lat="44.40357468" lon="-73.06718783">
    <tag k="addr:city" v="Williston"/>
    <tag k="addr:housenumber" v="525"/>
    <tag k="addr:street" v="Christmas Lane"/>
    <tag k="addr:state" v="VT"/>
    <tag k="ref:vcgi:esiteid" v="291193"/>
  </node>
  <node id="-2410" visible="true" lat="44.40316009" lon="-73.06826782">
    <tag k="addr:city" v="Williston"/>
    <tag k="addr:housenumber" v="484"/>
    <tag k="addr:street" v="Christmas Lane"/>
    <tag k="addr:state" v="VT"/>
    <tag k="ref:vcgi:esiteid" v="291195"/>
  </node>
  <node id="-2411" visible="true" lat="44.40251922" lon="-73.13176727">
    <tag k="addr:city" v="Williston"/>
    <tag k="addr:housenumber" v="291"/>
    <tag k="addr:street" v="Lincoln Road"/>
    <tag k="addr:state" v="VT"/>
    <tag k="ref:vcgi:esiteid" v="291196"/>
  </node>
  <node id="-2418" visible="true" lat="44.40102767" lon="-73.13397979">
    <tag k="addr:city" v="Williston"/>
    <tag k="addr:housenumber" v="461"/>
    <tag k="addr:street" v="Lincoln Road"/>
    <tag k="addr:state" v="VT"/>
    <tag k="ref:vcgi:esiteid" v="291203"/>
  </node>
  <node id="-2421" visible="true" lat="44.40042495" lon="-73.11871337">
    <tag k="addr:city" v="Williston"/>
    <tag k="addr:housenumber" v="414"/>
    <tag k="addr:street" v="Butternut Road"/>
    <tag k="addr:state" v="VT"/>
    <tag k="ref:vcgi:esiteid" v="291206"/>
  </node>
  <node id="-2424" visible="true" lat="44.400074" lon="-73.11401367">
    <tag k="addr:city" v="Williston"/>
    <tag k="addr:housenumber" v="615"/>
    <tag k="addr:street" v="Butternut Road"/>
    <tag k="addr:state" v="VT"/>
    <tag k="ref:vcgi:esiteid" v="291209"/>
  </node>
  <node id="-2425" visible="true" lat="44.39969253" lon="-73.11258697">
    <tag k="addr:city" v="Williston"/>
    <tag k="addr:housenumber" v="697"/>
    <tag k="addr:street" v="Butternut Road"/>
    <tag k="addr:state" v="VT"/>
    <tag k="ref:vcgi:esiteid" v="291210"/>
  </node>
  <node id="-2426" visible="true" lat="44.39951705" lon="-73.12682342">
    <tag k="addr:city" v="Williston"/>
    <tag k="addr:housenumber" v="63"/>
    <tag k="addr:street" v="Moss Ledge"/>
    <tag k="addr:state" v="VT"/>
    <tag k="ref:vcgi:esiteid" v="291211"/>
  </node>
  <node id="-2429" visible="true" lat="44.39874405" lon="-73.11463587">
    <tag k="addr:city" v="Williston"/>
    <tag k="addr:housenumber" v="602"/>
    <tag k="addr:street" v="Butternut Road"/>
    <tag k="addr:state" v="VT"/>
    <tag k="ref:vcgi:esiteid" v="291214"/>
  </node>
  <node id="-2430" visible="true" lat="44.3987503" lon="-73.11073303">
    <tag k="addr:city" v="Williston"/>
    <tag k="addr:housenumber" v="846"/>
    <tag k="addr:street" v="Butternut Road"/>
    <tag k="addr:state" v="VT"/>
    <tag k="ref:vcgi:esiteid" v="291215"/>
  </node>
  <node id="-2431" visible="true" lat="44.39849182" lon="-73.12589597">
    <tag k="addr:city" v="Williston"/>
    <tag k="addr:housenumber" v="12"/>
    <tag k="addr:street" v="Moss Ledge"/>
    <tag k="addr:state" v="VT"/>
    <tag k="ref:vcgi:esiteid" v="291216"/>
  </node>
  <node id="-2433" visible="true" lat="44.39856452" lon="-73.12851731">
    <tag k="addr:city" v="Williston"/>
    <tag k="addr:housenumber" v="5956"/>
    <tag k="addr:street" v="Saint George Road"/>
    <tag k="addr:state" v="VT"/>
    <tag k="ref:vcgi:esiteid" v="291218"/>
  </node>
  <node id="-2442" visible="true" lat="44.39367287" lon="-73.08161846">
    <tag k="addr:city" v="Williston"/>
    <tag k="addr:housenumber" v="83"/>
    <tag k="addr:street" v="Applewood Lane"/>
    <tag k="addr:state" v="VT"/>
    <tag k="ref:vcgi:esiteid" v="291228"/>
  </node>
  <node id="-2443" visible="true" lat="44.39355468" lon="-73.08485412">
    <tag k="addr:city" v="Williston"/>
    <tag k="addr:housenumber" v="3376"/>
    <tag k="addr:street" v="South Road"/>
    <tag k="addr:state" v="VT"/>
    <tag k="ref:vcgi:esiteid" v="291229"/>
  </node>
  <node id="-2445" visible="true" lat="44.39303698" lon="-73.08227642">
    <tag k="addr:city" v="Williston"/>
    <tag k="addr:housenumber" v="86"/>
    <tag k="addr:street" v="Applewood Lane"/>
    <tag k="addr:state" v="VT"/>
    <tag k="ref:vcgi:esiteid" v="291231"/>
  </node>
  <node id="-2446" visible="true" lat="44.39278793" lon="-73.08341979">
    <tag k="addr:city" v="Williston"/>
    <tag k="addr:housenumber" v="3409"/>
    <tag k="addr:street" v="South Road"/>
    <tag k="addr:state" v="VT"/>
    <tag k="ref:vcgi:esiteid" v="291232"/>
  </node>
  <node id="-2447" visible="true" lat="44.39201633" lon="-73.07895392">
    <tag k="addr:city" v="Williston"/>
    <tag k="addr:housenumber" v="262"/>
    <tag k="addr:street" v="Applewood Lane"/>
    <tag k="addr:state" v="VT"/>
    <tag k="ref:vcgi:esiteid" v="291233"/>
  </node>
  <node id="-2448" visible="true" lat="44.39268135" lon="-73.08108455">
    <tag k="addr:city" v="Williston"/>
    <tag k="addr:housenumber" v="122"/>
    <tag k="addr:street" v="Applewood Lane"/>
    <tag k="addr:state" v="VT"/>
    <tag k="ref:vcgi:esiteid" v="291234"/>
  </node>
  <node id="-2453" visible="true" lat="44.39128875" lon="-73.08045196">
    <tag k="addr:city" v="Williston"/>
    <tag k="addr:housenumber" v="223"/>
    <tag k="addr:street" v="Beartown Lane"/>
    <tag k="addr:state" v="VT"/>
    <tag k="ref:vcgi:esiteid" v="291239"/>
  </node>
  <node id="-2455" visible="true" lat="44.39107513" lon="-73.08248901">
    <tag k="addr:city" v="Williston"/>
    <tag k="addr:housenumber" v="116"/>
    <tag k="addr:street" v="Beartown Lane"/>
    <tag k="addr:state" v="VT"/>
    <tag k="ref:vcgi:esiteid" v="291241"/>
  </node>
  <node id="-2459" visible="true" lat="44.39041137" lon="-73.07990264">
    <tag k="addr:city" v="Williston"/>
    <tag k="addr:housenumber" v="252"/>
    <tag k="addr:street" v="Beartown Lane"/>
    <tag k="addr:state" v="VT"/>
    <tag k="ref:vcgi:esiteid" v="291245"/>
  </node>
  <node id="-2461" visible="true" lat="44.39007186" lon="-73.10648345">
    <tag k="addr:city" v="Williston"/>
    <tag k="addr:housenumber" v="394"/>
    <tag k="addr:street" v="Willow Brook Lane"/>
    <tag k="addr:state" v="VT"/>
    <tag k="ref:vcgi:esiteid" v="291247"/>
  </node>
  <node id="-2467" visible="true" lat="44.38859558" lon="-73.10504913">
    <tag k="addr:city" v="Williston"/>
    <tag k="addr:housenumber" v="390"/>
    <tag k="addr:street" v="Willow Brook Lane"/>
    <tag k="addr:state" v="VT"/>
    <tag k="ref:vcgi:esiteid" v="291253"/>
  </node>
  <node id="-2469" visible="true" lat="44.38836669" lon="-73.07777404">
    <tag k="addr:city" v="Williston"/>
    <tag k="addr:housenumber" v="418"/>
    <tag k="addr:street" v="Beartown Lane"/>
    <tag k="addr:state" v="VT"/>
    <tag k="ref:vcgi:esiteid" v="291255"/>
  </node>
  <node id="-2471" visible="true" lat="44.38721465" lon="-73.07582092">
    <tag k="addr:city" v="Williston"/>
    <tag k="addr:housenumber" v="536"/>
    <tag k="addr:street" v="Beartown Lane"/>
    <tag k="addr:state" v="VT"/>
    <tag k="ref:vcgi:esiteid" v="291257"/>
  </node>
  <node id="-2474" visible="true" lat="44.38437271" lon="-73.10066223">
    <tag k="addr:city" v="Williston"/>
    <tag k="addr:housenumber" v="152"/>
    <tag k="addr:street" v="Willow Brook Lane"/>
    <tag k="addr:state" v="VT"/>
    <tag k="ref:vcgi:esiteid" v="291260"/>
  </node>
  <node id="-2475" visible="true" lat="44.38333892" lon="-73.10037994">
    <tag k="addr:city" v="Williston"/>
    <tag k="addr:housenumber" v="133"/>
    <tag k="addr:street" v="Willow Brook Lane"/>
    <tag k="addr:state" v="VT"/>
    <tag k="ref:vcgi:esiteid" v="291262"/>
  </node>
  <node id="-2476" visible="true" lat="44.38282394" lon="-73.10287475">
    <tag k="addr:city" v="Williston"/>
    <tag k="addr:housenumber" v="233"/>
    <tag k="addr:street" v="Willow Brook Lane"/>
    <tag k="addr:state" v="VT"/>
    <tag k="ref:vcgi:esiteid" v="291263"/>
  </node>
  <node id="-2477" visible="true" lat="44.38271713" lon="-73.09830474">
    <tag k="addr:city" v="Williston"/>
    <tag k="addr:housenumber" v="4126"/>
    <tag k="addr:street" v="Oak Hill Road"/>
    <tag k="addr:state" v="VT"/>
    <tag k="ref:vcgi:esiteid" v="291264"/>
  </node>
  <node id="-2478" visible="true" lat="44.38055568" lon="-73.09837957">
    <tag k="addr:city" v="Williston"/>
    <tag k="addr:housenumber" v="4266"/>
    <tag k="addr:street" v="Oak Hill Road"/>
    <tag k="addr:state" v="VT"/>
    <tag k="ref:vcgi:esiteid" v="291265"/>
  </node>
  <node id="-2479" visible="true" lat="44.37994766" lon="-73.09722137">
    <tag k="addr:city" v="Williston"/>
    <tag k="addr:housenumber" v="4310"/>
    <tag k="addr:street" v="Oak Hill Road"/>
    <tag k="addr:state" v="VT"/>
    <tag k="ref:vcgi:esiteid" v="291266"/>
  </node>
  <node id="-2480" visible="true" lat="44.37922286" lon="-73.09724426">
    <tag k="addr:city" v="Williston"/>
    <tag k="addr:housenumber" v="32"/>
    <tag k="addr:street" v="Martel Lane"/>
    <tag k="addr:state" v="VT"/>
    <tag k="ref:vcgi:esiteid" v="291267"/>
  </node>
  <node id="-2481" visible="true" lat="44.3791595" lon="-73.08580946">
    <tag k="addr:city" v="Williston"/>
    <tag k="addr:housenumber" v="610"/>
    <tag k="addr:street" v="Beebe Lane"/>
    <tag k="addr:state" v="VT"/>
    <tag k="ref:vcgi:esiteid" v="291268"/>
  </node>
  <node id="-2482" visible="true" lat="44.37885665" lon="-73.09851837">
    <tag k="addr:city" v="Williston"/>
    <tag k="addr:housenumber" v="106"/>
    <tag k="addr:street" v="Martel Lane"/>
    <tag k="addr:state" v="VT"/>
    <tag k="ref:vcgi:esiteid" v="291269"/>
  </node>
  <node id="-2483" visible="true" lat="44.37813568" lon="-73.0981369">
    <tag k="addr:city" v="Williston"/>
    <tag k="addr:housenumber" v="123"/>
    <tag k="addr:street" v="Martel Lane"/>
    <tag k="addr:state" v="VT"/>
    <tag k="ref:vcgi:esiteid" v="291270"/>
  </node>
  <node id="-2484" visible="true" lat="44.37777328" lon="-73.08462524">
    <tag k="addr:city" v="Williston"/>
    <tag k="addr:housenumber" v="744"/>
    <tag k="addr:street" v="Beebe Lane"/>
    <tag k="addr:state" v="VT"/>
    <tag k="ref:vcgi:esiteid" v="291271"/>
  </node>
  <node id="-2485" visible="true" lat="44.37754821" lon="-73.08463287">
    <tag k="addr:city" v="Williston"/>
    <tag k="addr:housenumber" v="746"/>
    <tag k="addr:street" v="Beebe Lane"/>
    <tag k="addr:state" v="VT"/>
    <tag k="ref:vcgi:esiteid" v="291272"/>
  </node>
  <node id="-2486" visible="true" lat="44.37730789" lon="-73.08454132">
    <tag k="addr:city" v="Williston"/>
    <tag k="addr:housenumber" v="750"/>
    <tag k="addr:street" v="Beebe Lane"/>
    <tag k="addr:state" v="VT"/>
    <tag k="ref:vcgi:esiteid" v="291273"/>
  </node>
  <node id="-2487" visible="true" lat="44.37691723" lon="-73.09642481">
    <tag k="addr:city" v="Williston"/>
    <tag k="addr:housenumber" v="4520"/>
    <tag k="addr:street" v="Oak Hill Road"/>
    <tag k="addr:state" v="VT"/>
    <tag k="ref:vcgi:esiteid" v="291274"/>
  </node>
  <node id="-2488" visible="true" lat="44.37700653" lon="-73.08425903">
    <tag k="addr:city" v="Williston"/>
    <tag k="addr:housenumber" v="800"/>
    <tag k="addr:street" v="Beebe Lane"/>
    <tag k="addr:state" v="VT"/>
    <tag k="ref:vcgi:esiteid" v="291275"/>
  </node>
  <node id="-2490" visible="true" lat="44.37673568" lon="-73.08418273">
    <tag k="addr:city" v="Williston"/>
    <tag k="addr:housenumber" v="802"/>
    <tag k="addr:street" v="Beebe Lane"/>
    <tag k="addr:state" v="VT"/>
    <tag k="ref:vcgi:esiteid" v="291277"/>
  </node>
  <node id="-2491" visible="true" lat="44.37648391" lon="-73.08428192">
    <tag k="addr:city" v="Williston"/>
    <tag k="addr:housenumber" v="840"/>
    <tag k="addr:street" v="Beebe Lane"/>
    <tag k="addr:state" v="VT"/>
    <tag k="ref:vcgi:esiteid" v="291278"/>
  </node>
  <node id="-2492" visible="true" lat="44.3761173" lon="-73.09365831">
    <tag k="addr:city" v="Williston"/>
    <tag k="addr:housenumber" v="24"/>
    <tag k="addr:street" v="Beebe Lane"/>
    <tag k="addr:state" v="VT"/>
    <tag k="ref:vcgi:esiteid" v="291279"/>
  </node>
  <node id="-2493" visible="true" lat="44.37620162" lon="-73.08422851">
    <tag k="addr:city" v="Williston"/>
    <tag k="addr:housenumber" v="848"/>
    <tag k="addr:street" v="Beebe Lane"/>
    <tag k="addr:state" v="VT"/>
    <tag k="ref:vcgi:esiteid" v="291280"/>
  </node>
  <node id="-2494" visible="true" lat="44.37596893" lon="-73.08407592">
    <tag k="addr:city" v="Williston"/>
    <tag k="addr:housenumber" v="852"/>
    <tag k="addr:street" v="Beebe Lane"/>
    <tag k="addr:state" v="VT"/>
    <tag k="ref:vcgi:esiteid" v="291281"/>
  </node>
  <node id="-2495" visible="true" lat="44.37499618" lon="-73.08336639">
    <tag k="addr:city" v="Williston"/>
    <tag k="addr:housenumber" v="960"/>
    <tag k="addr:street" v="Beebe Lane"/>
    <tag k="addr:state" v="VT"/>
    <tag k="ref:vcgi:esiteid" v="291283"/>
  </node>
  <node id="-2496" visible="true" lat="44.37435531" lon="-73.08324432">
    <tag k="addr:city" v="Williston"/>
    <tag k="addr:housenumber" v="1004"/>
    <tag k="addr:street" v="Beebe Lane"/>
    <tag k="addr:state" v="VT"/>
    <tag k="ref:vcgi:esiteid" v="291284"/>
  </node>
  <node id="-2497" visible="true" lat="44.37412094" lon="-73.09271719">
    <tag k="addr:city" v="Williston"/>
    <tag k="addr:housenumber" v="4797"/>
    <tag k="addr:street" v="Oak Hill Road"/>
    <tag k="addr:state" v="VT"/>
    <tag k="ref:vcgi:esiteid" v="291285"/>
  </node>
  <node id="-2499" visible="true" lat="44.37342071" lon="-73.08286285">
    <tag k="addr:city" v="Williston"/>
    <tag k="addr:housenumber" v="1084"/>
    <tag k="addr:street" v="Beebe Lane"/>
    <tag k="addr:state" v="VT"/>
    <tag k="ref:vcgi:esiteid" v="291287"/>
  </node>
  <node id="-2500" visible="true" lat="44.37260818" lon="-73.08267211">
    <tag k="addr:city" v="Williston"/>
    <tag k="addr:housenumber" v="1122"/>
    <tag k="addr:street" v="Beebe Lane"/>
    <tag k="addr:state" v="VT"/>
    <tag k="ref:vcgi:esiteid" v="291288"/>
  </node>
  <node id="-2501" visible="true" lat="44.37223815" lon="-73.08258056">
    <tag k="addr:city" v="Williston"/>
    <tag k="addr:housenumber" v="1140"/>
    <tag k="addr:street" v="Beebe Lane"/>
    <tag k="addr:state" v="VT"/>
    <tag k="ref:vcgi:esiteid" v="291289"/>
  </node>
  <node id="-2502" visible="true" lat="44.37133087" lon="-73.08215014">
    <tag k="addr:city" v="Williston"/>
    <tag k="addr:housenumber" v="1210"/>
    <tag k="addr:street" v="Beebe Lane"/>
    <tag k="addr:state" v="VT"/>
    <tag k="ref:vcgi:esiteid" v="291290"/>
  </node>
  <node id="-2518" visible="true" lat="44.469169" lon="-73.043019">
    <tag k="addr:city" v="Williston"/>
    <tag k="addr:housenumber" v="2752"/>
    <tag k="addr:street" v="North Williston Road"/>
    <tag k="addr:state" v="VT"/>
    <tag k="ref:vcgi:esiteid" v="291309"/>
  </node>
  <node id="-2548" visible="true" lat="44.4442323" lon="-73.05915769">
    <tag k="addr:city" v="Williston"/>
    <tag k="addr:housenumber" v="235"/>
    <tag k="addr:street" v="Fairway Drive"/>
    <tag k="addr:state" v="VT"/>
    <tag k="ref:vcgi:esiteid" v="291353"/>
  </node>
  <node id="-2549" visible="true" lat="44.44453668" lon="-73.06103818">
    <tag k="addr:city" v="Williston"/>
    <tag k="addr:housenumber" v="127"/>
    <tag k="addr:street" v="Fairway Drive"/>
    <tag k="addr:state" v="VT"/>
    <tag k="ref:vcgi:esiteid" v="291354"/>
  </node>
  <node id="-2550" visible="true" lat="44.4447565" lon="-73.0614174">
    <tag k="addr:city" v="Williston"/>
    <tag k="addr:housenumber" v="91"/>
    <tag k="addr:street" v="Fairway Drive"/>
    <tag k="addr:state" v="VT"/>
    <tag k="ref:vcgi:esiteid" v="291355"/>
  </node>
  <node id="-2572" visible="true" lat="44.43914794" lon="-73.07427215">
    <tag k="addr:city" v="Williston"/>
    <tag k="addr:housenumber" v="21"/>
    <tag k="addr:street" v="Library Lane"/>
    <tag k="addr:state" v="VT"/>
    <tag k="ref:vcgi:esiteid" v="291377"/>
  </node>
  <node id="-2584" visible="true" lat="44.40273658" lon="-73.06494324">
    <tag k="addr:city" v="Williston"/>
    <tag k="addr:housenumber" v="637"/>
    <tag k="addr:street" v="Christmas Lane"/>
    <tag k="addr:state" v="VT"/>
    <tag k="ref:vcgi:esiteid" v="291394"/>
  </node>
  <node id="-2588" visible="true" lat="44.37266922" lon="-73.09213256">
    <tag k="addr:city" v="Williston"/>
    <tag k="addr:housenumber" v="5111"/>
    <tag k="addr:street" v="Oak Hill Road"/>
    <tag k="addr:state" v="VT"/>
    <tag k="ref:vcgi:esiteid" v="291398"/>
  </node>
  <node id="-2592" visible="true" lat="44.44345474" lon="-73.11412811">
    <tag k="addr:city" v="Williston"/>
    <tag k="addr:housenumber" v="244"/>
    <tag k="addr:street" v="Retail Way"/>
    <tag k="addr:state" v="VT"/>
    <tag k="ref:vcgi:esiteid" v="291402"/>
  </node>
  <node id="-2593" visible="true" lat="44.44787199" lon="-73.10550583">
    <tag k="addr:city" v="Williston"/>
    <tag k="addr:housenumber" v="777"/>
    <tag k="addr:street" v="Zephyr Road"/>
    <tag k="addr:state" v="VT"/>
    <tag k="ref:vcgi:esiteid" v="291405"/>
  </node>
  <node id="-2603" visible="true" lat="44.40327854" lon="-73.13082402">
    <tag k="addr:city" v="Williston"/>
    <tag k="addr:housenumber" v="245"/>
    <tag k="addr:street" v="Lincoln Road"/>
    <tag k="addr:state" v="VT"/>
    <tag k="ref:vcgi:esiteid" v="291417"/>
  </node>
  <node id="-2604" visible="true" lat="44.37079588" lon="-73.08190995">
    <tag k="addr:city" v="Williston"/>
    <tag k="addr:housenumber" v="277"/>
    <tag k="addr:street" v="Dimick Road"/>
    <tag k="addr:state" v="VT"/>
    <tag k="ref:vcgi:esiteid" v="291418"/>
  </node>
  <node id="-2607" visible="true" lat="44.4047002" lon="-73.06479438">
    <tag k="addr:city" v="Williston"/>
    <tag k="addr:housenumber" v="579"/>
    <tag k="addr:street" v="Christmas Lane"/>
    <tag k="addr:state" v="VT"/>
    <tag k="ref:vcgi:esiteid" v="291421"/>
  </node>
  <node id="-2611" visible="true" lat="44.410079" lon="-73.06322067">
    <tag k="addr:city" v="Williston"/>
    <tag k="addr:housenumber" v="148"/>
    <tag k="addr:street" v="Sherwood Forest Road"/>
    <tag k="addr:state" v="VT"/>
    <tag k="ref:vcgi:esiteid" v="291425"/>
  </node>
  <node id="-2612" visible="true" lat="44.40895257" lon="-73.06324269">
    <tag k="addr:city" v="Williston"/>
    <tag k="addr:housenumber" v="150"/>
    <tag k="addr:street" v="Sherwood Forest Road"/>
    <tag k="addr:state" v="VT"/>
    <tag k="ref:vcgi:esiteid" v="291426"/>
  </node>
  <node id="-2614" visible="true" lat="44.41114104" lon="-73.06562711">
    <tag k="addr:city" v="Williston"/>
    <tag k="addr:housenumber" v="196"/>
    <tag k="addr:street" v="Forty Acre Lane"/>
    <tag k="addr:state" v="VT"/>
    <tag k="ref:vcgi:esiteid" v="291428"/>
  </node>
  <node id="-2619" visible="true" lat="44.39385304" lon="-73.08250499">
    <tag k="addr:city" v="Williston"/>
    <tag k="addr:housenumber" v="55"/>
    <tag k="addr:street" v="Applewood Lane"/>
    <tag k="addr:state" v="VT"/>
    <tag k="ref:vcgi:esiteid" v="291433"/>
  </node>
  <node id="-2621" visible="true" lat="44.39967098" lon="-73.06759637">
    <tag k="addr:city" v="Williston"/>
    <tag k="addr:housenumber" v="614"/>
    <tag k="addr:street" v="Christmas Lane"/>
    <tag k="addr:state" v="VT"/>
    <tag k="ref:vcgi:esiteid" v="291435"/>
  </node>
  <node id="-2622" visible="true" lat="44.40234249" lon="-73.06762566">
    <tag k="addr:city" v="Williston"/>
    <tag k="addr:housenumber" v="494"/>
    <tag k="addr:street" v="Christmas Lane"/>
    <tag k="addr:state" v="VT"/>
    <tag k="ref:vcgi:esiteid" v="291436"/>
  </node>
  <node id="-2645" visible="true" lat="44.46751176" lon="-73.05062086">
    <tag k="addr:city" v="Williston"/>
    <tag k="addr:housenumber" v="230"/>
    <tag k="addr:street" v="Fay Lane"/>
    <tag k="addr:state" v="VT"/>
    <tag k="ref:vcgi:esiteid" v="291459"/>
  </node>
  <node id="-2654" visible="true" lat="44.44556991" lon="-73.1267779">
    <tag k="addr:city" v="Williston"/>
    <tag k="addr:housenumber" v="740"/>
    <tag k="addr:street" v="Marshall Avenue"/>
    <tag k="addr:state" v="VT"/>
    <tag k="ref:vcgi:esiteid" v="291468"/>
  </node>
  <node id="-2659" visible="true" lat="44.44370683" lon="-73.11541942">
    <tag k="addr:city" v="Williston"/>
    <tag k="addr:housenumber" v="150"/>
    <tag k="addr:street" v="Retail Way"/>
    <tag k="addr:state" v="VT"/>
    <tag k="ref:vcgi:esiteid" v="291473"/>
  </node>
  <node id="-2685" visible="true" lat="44.40593294" lon="-73.06489811">
    <tag k="addr:city" v="Williston"/>
    <tag k="addr:housenumber" v="276"/>
    <tag k="addr:street" v="Sherwood Forest Road"/>
    <tag k="addr:state" v="VT"/>
    <tag k="ref:vcgi:esiteid" v="291499"/>
  </node>
  <node id="-2725" visible="true" lat="44.40443735" lon="-73.13003793">
    <tag k="addr:city" v="Williston"/>
    <tag k="addr:housenumber" v="182"/>
    <tag k="addr:street" v="Lincoln Road"/>
    <tag k="addr:state" v="VT"/>
    <tag k="ref:vcgi:esiteid" v="291541"/>
  </node>
  <node id="-2734" visible="true" lat="44.39224389" lon="-73.08496187">
    <tag k="addr:city" v="Williston"/>
    <tag k="addr:housenumber" v="3434"/>
    <tag k="addr:street" v="South Road"/>
    <tag k="addr:state" v="VT"/>
    <tag k="ref:vcgi:esiteid" v="291550"/>
  </node>
  <node id="-2746" visible="true" lat="44.44493378" lon="-73.06179953">
    <tag k="addr:city" v="Williston"/>
    <tag k="addr:housenumber" v="71"/>
    <tag k="addr:street" v="Fairway Drive"/>
    <tag k="addr:state" v="VT"/>
    <tag k="ref:vcgi:esiteid" v="291563"/>
  </node>
  <node id="-2747" visible="true" lat="44.44399506" lon="-73.06113494">
    <tag k="addr:city" v="Williston"/>
    <tag k="addr:housenumber" v="156"/>
    <tag k="addr:street" v="Fairway Drive"/>
    <tag k="addr:state" v="VT"/>
    <tag k="ref:vcgi:esiteid" v="291564"/>
  </node>
  <node id="-2748" visible="true" lat="44.44439753" lon="-73.06032354">
    <tag k="addr:city" v="Williston"/>
    <tag k="addr:housenumber" v="179"/>
    <tag k="addr:street" v="Fairway Drive"/>
    <tag k="addr:state" v="VT"/>
    <tag k="ref:vcgi:esiteid" v="291565"/>
  </node>
  <node id="-2749" visible="true" lat="44.44388222" lon="-73.06055916">
    <tag k="addr:city" v="Williston"/>
    <tag k="addr:housenumber" v="182"/>
    <tag k="addr:street" v="Fairway Drive"/>
    <tag k="addr:state" v="VT"/>
    <tag k="ref:vcgi:esiteid" v="291566"/>
  </node>
  <node id="-2750" visible="true" lat="44.44381412" lon="-73.06013635">
    <tag k="addr:city" v="Williston"/>
    <tag k="addr:housenumber" v="212"/>
    <tag k="addr:street" v="Fairway Drive"/>
    <tag k="addr:state" v="VT"/>
    <tag k="ref:vcgi:esiteid" v="291567"/>
  </node>
  <node id="-2751" visible="true" lat="44.44430751" lon="-73.05952172">
    <tag k="addr:city" v="Williston"/>
    <tag k="addr:housenumber" v="217"/>
    <tag k="addr:street" v="Fairway Drive"/>
    <tag k="addr:state" v="VT"/>
    <tag k="ref:vcgi:esiteid" v="291568"/>
  </node>
  <node id="-2752" visible="true" lat="44.44397395" lon="-73.05841601">
    <tag k="addr:city" v="Williston"/>
    <tag k="addr:housenumber" v="275"/>
    <tag k="addr:street" v="Fairway Drive"/>
    <tag k="addr:state" v="VT"/>
    <tag k="ref:vcgi:esiteid" v="291569"/>
  </node>
  <node id="-2796" visible="true" lat="44.40043069" lon="-73.12273913">
    <tag k="addr:city" v="Williston"/>
    <tag k="addr:housenumber" v="318"/>
    <tag k="addr:street" v="Butternut Road"/>
    <tag k="addr:state" v="VT"/>
    <tag k="ref:vcgi:esiteid" v="291613"/>
  </node>
  <node id="-2809" visible="true" lat="44.44715286" lon="-73.10268615">
    <tag k="addr:city" v="Williston"/>
    <tag k="addr:housenumber" v="400"/>
    <tag k="addr:street" v="Cornerstone Drive"/>
    <tag k="addr:state" v="VT"/>
    <tag k="ref:vcgi:esiteid" v="291626"/>
  </node>
  <node id="-2810" visible="true" lat="44.44668488" lon="-73.10256908">
    <tag k="addr:city" v="Williston"/>
    <tag k="addr:housenumber" v="300"/>
    <tag k="addr:street" v="Cornerstone Drive"/>
    <tag k="addr:state" v="VT"/>
    <tag k="ref:vcgi:esiteid" v="291627"/>
  </node>
  <node id="-2907" visible="true" lat="44.40075828" lon="-73.12537014">
    <tag k="addr:city" v="Williston"/>
    <tag k="addr:housenumber" v="54"/>
    <tag k="addr:street" v="Butternut Road"/>
    <tag k="addr:state" v="VT"/>
    <tag k="ref:vcgi:esiteid" v="291744"/>
  </node>
  <node id="-2913" visible="true" lat="44.43847197" lon="-73.03628273">
    <tag k="addr:city" v="Williston"/>
    <tag k="addr:housenumber" v="2246"/>
    <tag k="addr:street" v="Governor Chittenden Road"/>
    <tag k="addr:state" v="VT"/>
    <tag k="ref:vcgi:esiteid" v="291751"/>
  </node>
  <node id="-2916" visible="true" lat="44.45301854" lon="-73.11035337">
    <tag k="addr:city" v="Williston"/>
    <tag k="addr:housenumber" v="66"/>
    <tag k="addr:street" v="Zephyr Road"/>
    <tag k="addr:state" v="VT"/>
    <tag k="ref:vcgi:esiteid" v="291754"/>
  </node>
  <node id="-3054" visible="true" lat="44.47230002" lon="-73.05893856">
    <tag k="addr:city" v="Williston"/>
    <tag k="addr:housenumber" v="747"/>
    <tag k="addr:street" v="Fay Lane"/>
    <tag k="addr:state" v="VT"/>
    <tag k="ref:vcgi:esiteid" v="291905"/>
  </node>
  <node id="-3074" visible="true" lat="44.44433818" lon="-73.05988595">
    <tag k="addr:city" v="Williston"/>
    <tag k="addr:housenumber" v="201"/>
    <tag k="addr:street" v="Fairway Drive"/>
    <tag k="addr:state" v="VT"/>
    <tag k="ref:vcgi:esiteid" v="291929"/>
  </node>
  <node id="-3075" visible="true" lat="44.44373444" lon="-73.05949389">
    <tag k="addr:city" v="Williston"/>
    <tag k="addr:housenumber" v="226"/>
    <tag k="addr:street" v="Fairway Drive"/>
    <tag k="addr:state" v="VT"/>
    <tag k="ref:vcgi:esiteid" v="291930"/>
  </node>
  <node id="-3076" visible="true" lat="44.44416229" lon="-73.06154901">
    <tag k="addr:city" v="Williston"/>
    <tag k="addr:housenumber" v="120"/>
    <tag k="addr:street" v="Fairway Drive"/>
    <tag k="addr:state" v="VT"/>
    <tag k="ref:vcgi:esiteid" v="291931"/>
  </node>
  <node id="-3077" visible="true" lat="44.44433506" lon="-73.06196621">
    <tag k="addr:city" v="Williston"/>
    <tag k="addr:housenumber" v="86"/>
    <tag k="addr:street" v="Fairway Drive"/>
    <tag k="addr:state" v="VT"/>
    <tag k="ref:vcgi:esiteid" v="291932"/>
  </node>
  <node id="-3078" visible="true" lat="44.44463861" lon="-73.06244879">
    <tag k="addr:city" v="Williston"/>
    <tag k="addr:housenumber" v="54"/>
    <tag k="addr:street" v="Fairway Drive"/>
    <tag k="addr:state" v="VT"/>
    <tag k="ref:vcgi:esiteid" v="291933"/>
  </node>
  <node id="-3107" visible="true" lat="44.44352551" lon="-73.11481293">
    <tag k="addr:city" v="Williston"/>
    <tag k="addr:housenumber" v="194"/>
    <tag k="addr:street" v="Retail Way"/>
    <tag k="addr:state" v="VT"/>
    <tag k="ref:vcgi:esiteid" v="291965"/>
  </node>
  <node id="-3126" visible="true" lat="44.37552251" lon="-73.09543902">
    <tag k="addr:city" v="Williston"/>
    <tag k="addr:housenumber" v="76"/>
    <tag k="addr:street" v="Iroquois Lane"/>
    <tag k="addr:state" v="VT"/>
    <tag k="ref:vcgi:esiteid" v="291984"/>
  </node>
  <node id="-3144" visible="true" lat="44.4459021" lon="-73.10996273">
    <tag k="addr:city" v="Williston"/>
    <tag k="addr:housenumber" v="190"/>
    <tag k="addr:street" v="Boxwood Street"/>
    <tag k="addr:state" v="VT"/>
    <tag k="ref:vcgi:esiteid" v="292003"/>
  </node>
  <node id="-3197" visible="true" lat="44.38497595" lon="-73.10339388">
    <tag k="addr:city" v="Williston"/>
    <tag k="addr:housenumber" v="306"/>
    <tag k="addr:street" v="Willow Brook Lane"/>
    <tag k="addr:state" v="VT"/>
    <tag k="ref:vcgi:esiteid" v="292056"/>
  </node>
  <node id="-3241" visible="true" lat="44.45613326" lon="-73.10760203">
    <tag k="addr:city" v="Williston"/>
    <tag k="addr:housenumber" v="90"/>
    <tag k="addr:street" v="Chelsea Place"/>
    <tag k="addr:state" v="VT"/>
    <tag k="ref:vcgi:esiteid" v="292100"/>
  </node>
  <node id="-3295" visible="true" lat="44.45896934" lon="-73.13599753">
    <tag k="addr:city" v="Williston"/>
    <tag k="addr:housenumber" v="4501"/>
    <tag k="addr:street" v="Williston Road"/>
    <tag k="addr:state" v="VT"/>
    <tag k="ref:vcgi:esiteid" v="292155"/>
  </node>
  <node id="-3372" visible="true" lat="44.44499631" lon="-73.11086895">
    <tag k="addr:city" v="Williston"/>
    <tag k="addr:housenumber" v="100"/>
    <tag k="addr:street" v="Cypress Street"/>
    <tag k="addr:state" v="VT"/>
    <tag k="ref:vcgi:esiteid" v="292234"/>
  </node>
  <node id="-3377" visible="true" lat="44.44363018" lon="-73.05901181">
    <tag k="addr:city" v="Williston"/>
    <tag k="addr:housenumber" v="252"/>
    <tag k="addr:street" v="Fairway Drive"/>
    <tag k="addr:state" v="VT"/>
    <tag k="ref:vcgi:esiteid" v="292239"/>
  </node>
  <node id="-3428" visible="true" lat="44.40237597" lon="-73.13464012">
    <tag k="addr:city" v="Williston"/>
    <tag k="addr:housenumber" v="476"/>
    <tag k="addr:street" v="Lincoln Road"/>
    <tag k="addr:state" v="VT"/>
    <tag k="ref:vcgi:esiteid" v="292291"/>
  </node>
  <node id="-3491" visible="true" lat="44.46607613" lon="-73.04381292">
    <tag k="addr:city" v="Williston"/>
    <tag k="addr:housenumber" v="139"/>
    <tag k="addr:street" v="Chapman Lane"/>
    <tag k="addr:state" v="VT"/>
    <tag k="ref:vcgi:esiteid" v="292354"/>
  </node>
  <node id="-3492" visible="true" lat="44.46611513" lon="-73.04389926">
    <tag k="addr:city" v="Williston"/>
    <tag k="addr:housenumber" v="137"/>
    <tag k="addr:street" v="Chapman Lane"/>
    <tag k="addr:state" v="VT"/>
    <tag k="ref:vcgi:esiteid" v="292355"/>
  </node>
  <node id="-3544" visible="true" lat="44.45021823" lon="-73.11020386">
    <tag k="addr:city" v="Williston"/>
    <tag k="addr:housenumber" v="16"/>
    <tag k="addr:street" v="Taft Corners Shopping Center"/>
    <tag k="addr:state" v="VT"/>
    <tag k="ref:vcgi:esiteid" v="292407"/>
  </node>
  <node id="-3640" visible="true" lat="44.42923906" lon="-73.02908347">
    <tag k="addr:city" v="Williston"/>
    <tag k="addr:housenumber" v="10256"/>
    <tag k="addr:street" v="Williston Road"/>
    <tag k="addr:state" v="VT"/>
    <tag k="ref:vcgi:esiteid" v="292523"/>
  </node>
  <node id="-3752" visible="true" lat="44.40313327" lon="-73.14126237">
    <tag k="addr:city" v="Williston"/>
    <tag k="addr:housenumber" v="4344"/>
    <tag k="addr:street" v="South Brownell Road"/>
    <tag k="addr:state" v="VT"/>
    <tag k="ref:vcgi:esiteid" v="292639"/>
  </node>
  <node id="-3753" visible="true" lat="44.40305832" lon="-73.12815976">
    <tag k="addr:city" v="Williston"/>
    <tag k="addr:housenumber" v="89"/>
    <tag k="addr:street" v="Lincoln Road"/>
    <tag k="addr:state" v="VT"/>
    <tag k="ref:vcgi:esiteid" v="292640"/>
  </node>
  <node id="-3797" visible="true" lat="44.37800797" lon="-73.09447076">
    <tag k="addr:city" v="Williston"/>
    <tag k="addr:housenumber" v="4517"/>
    <tag k="addr:street" v="Oak Hill Road"/>
    <tag k="addr:state" v="VT"/>
    <tag k="ref:vcgi:esiteid" v="307245"/>
  </node>
  <node id="-3800" visible="true" lat="44.38302092" lon="-73.10241102">
    <tag k="addr:city" v="Williston"/>
    <tag k="addr:housenumber" v="195"/>
    <tag k="addr:street" v="Willow Brook Lane"/>
    <tag k="addr:state" v="VT"/>
    <tag k="ref:vcgi:esiteid" v="307598"/>
  </node>
  <node id="-3806" visible="true" lat="44.45524005" lon="-73.10916249">
    <tag k="addr:city" v="Williston"/>
    <tag k="addr:housenumber" v="144"/>
    <tag k="addr:street" v="Knight Lane"/>
    <tag k="addr:state" v="VT"/>
    <tag k="ref:vcgi:esiteid" v="310764"/>
  </node>
  <node id="-3914" visible="true" lat="44.37910154" lon="-73.08546488">
    <tag k="addr:city" v="Williston"/>
    <tag k="addr:housenumber" v="612"/>
    <tag k="addr:street" v="Beebe Lane"/>
    <tag k="addr:state" v="VT"/>
    <tag k="ref:vcgi:esiteid" v="312461"/>
  </node>
  <node id="-3942" visible="true" lat="44.46054128" lon="-73.0445271">
    <tag k="addr:city" v="Williston"/>
    <tag k="addr:housenumber" v="349"/>
    <tag k="addr:street" v="Fontaine Lane"/>
    <tag k="addr:state" v="VT"/>
    <tag k="ref:vcgi:esiteid" v="325298"/>
  </node>
  <node id="-3943" visible="true" lat="44.39391431" lon="-73.08462084">
    <tag k="addr:city" v="Williston"/>
    <tag k="addr:housenumber" v="3372"/>
    <tag k="addr:street" v="South Road"/>
    <tag k="addr:state" v="VT"/>
    <tag k="ref:vcgi:esiteid" v="326410"/>
  </node>
  <node id="-3956" visible="true" lat="44.45327234" lon="-73.1092357">
    <tag k="addr:city" v="Williston"/>
    <tag k="addr:housenumber" v="149"/>
    <tag k="addr:street" v="Day Lane"/>
    <tag k="addr:state" v="VT"/>
    <tag k="ref:vcgi:esiteid" v="326745"/>
  </node>
  <node id="-3958" visible="true" lat="44.4529673" lon="-73.10919514">
    <tag k="addr:city" v="Williston"/>
    <tag k="addr:housenumber" v="165"/>
    <tag k="addr:street" v="Day Lane"/>
    <tag k="addr:state" v="VT"/>
    <tag k="ref:vcgi:esiteid" v="326747"/>
  </node>
  <node id="-3959" visible="true" lat="44.45280781" lon="-73.10918824">
    <tag k="addr:city" v="Williston"/>
    <tag k="addr:housenumber" v="173"/>
    <tag k="addr:street" v="Day Lane"/>
    <tag k="addr:state" v="VT"/>
    <tag k="ref:vcgi:esiteid" v="326748"/>
  </node>
  <node id="-3960" visible="true" lat="44.45282947" lon="-73.10898407">
    <tag k="addr:city" v="Williston"/>
    <tag k="addr:housenumber" v="21"/>
    <tag k="addr:street" v="Center Street"/>
    <tag k="addr:state" v="VT"/>
    <tag k="ref:vcgi:esiteid" v="326749"/>
  </node>
  <node id="-3961" visible="true" lat="44.45285174" lon="-73.10877051">
    <tag k="addr:city" v="Williston"/>
    <tag k="addr:housenumber" v="64"/>
    <tag k="addr:street" v="Madison Drive"/>
    <tag k="addr:state" v="VT"/>
    <tag k="ref:vcgi:esiteid" v="326750"/>
  </node>
  <node id="-3962" visible="true" lat="44.45300316" lon="-73.10879675">
    <tag k="addr:city" v="Williston"/>
    <tag k="addr:housenumber" v="60"/>
    <tag k="addr:street" v="Madison Drive"/>
    <tag k="addr:state" v="VT"/>
    <tag k="ref:vcgi:esiteid" v="326751"/>
  </node>
  <node id="-3963" visible="true" lat="44.45311876" lon="-73.10880991">
    <tag k="addr:city" v="Williston"/>
    <tag k="addr:housenumber" v="46"/>
    <tag k="addr:street" v="Madison Drive"/>
    <tag k="addr:state" v="VT"/>
    <tag k="ref:vcgi:esiteid" v="326752"/>
  </node>
  <node id="-3964" visible="true" lat="44.45326468" lon="-73.10881666">
    <tag k="addr:city" v="Williston"/>
    <tag k="addr:housenumber" v="34"/>
    <tag k="addr:street" v="Madison Drive"/>
    <tag k="addr:state" v="VT"/>
    <tag k="ref:vcgi:esiteid" v="326753"/>
  </node>
  <node id="-3965" visible="true" lat="44.45341314" lon="-73.10884287">
    <tag k="addr:city" v="Williston"/>
    <tag k="addr:housenumber" v="26"/>
    <tag k="addr:street" v="Madison Drive"/>
    <tag k="addr:state" v="VT"/>
    <tag k="ref:vcgi:esiteid" v="326754"/>
  </node>
  <node id="-3970" visible="true" lat="44.45252972" lon="-73.1091682">
    <tag k="addr:city" v="Williston"/>
    <tag k="addr:housenumber" v="199"/>
    <tag k="addr:street" v="Day Lane"/>
    <tag k="addr:state" v="VT"/>
    <tag k="ref:vcgi:esiteid" v="326759"/>
  </node>
  <node id="-3973" visible="true" lat="44.45209225" lon="-73.10912706">
    <tag k="addr:city" v="Williston"/>
    <tag k="addr:housenumber" v="225"/>
    <tag k="addr:street" v="Day Lane"/>
    <tag k="addr:state" v="VT"/>
    <tag k="ref:vcgi:esiteid" v="326762"/>
  </node>
  <node id="-3976" visible="true" lat="44.45210372" lon="-73.10868617">
    <tag k="addr:city" v="Williston"/>
    <tag k="addr:housenumber" v="120"/>
    <tag k="addr:street" v="Madison Drive"/>
    <tag k="addr:state" v="VT"/>
    <tag k="ref:vcgi:esiteid" v="326765"/>
  </node>
  <node id="-3977" visible="true" lat="44.45225964" lon="-73.10875434">
    <tag k="addr:city" v="Williston"/>
    <tag k="addr:housenumber" v="106"/>
    <tag k="addr:street" v="Madison Drive"/>
    <tag k="addr:state" v="VT"/>
    <tag k="ref:vcgi:esiteid" v="326766"/>
  </node>
  <node id="-3978" visible="true" lat="44.45243302" lon="-73.10876754">
    <tag k="addr:city" v="Williston"/>
    <tag k="addr:housenumber" v="94"/>
    <tag k="addr:street" v="Madison Drive"/>
    <tag k="addr:state" v="VT"/>
    <tag k="ref:vcgi:esiteid" v="326767"/>
  </node>
  <node id="-3979" visible="true" lat="44.45254981" lon="-73.10875304">
    <tag k="addr:city" v="Williston"/>
    <tag k="addr:housenumber" v="90"/>
    <tag k="addr:street" v="Madison Drive"/>
    <tag k="addr:state" v="VT"/>
    <tag k="ref:vcgi:esiteid" v="326768"/>
  </node>
  <node id="-3982" visible="true" lat="44.45164638" lon="-73.10852845">
    <tag k="addr:city" v="Williston"/>
    <tag k="addr:housenumber" v="36"/>
    <tag k="addr:street" v="Seymour Street"/>
    <tag k="addr:state" v="VT"/>
    <tag k="ref:vcgi:esiteid" v="326775"/>
  </node>
  <node id="-3983" visible="true" lat="44.45249221" lon="-73.10832245">
    <tag k="addr:city" v="Williston"/>
    <tag k="addr:housenumber" v="97"/>
    <tag k="addr:street" v="Madison Drive"/>
    <tag k="addr:state" v="VT"/>
    <tag k="ref:vcgi:esiteid" v="326776"/>
  </node>
  <node id="-3984" visible="true" lat="44.45232337" lon="-73.10832063">
    <tag k="addr:city" v="Williston"/>
    <tag k="addr:housenumber" v="103"/>
    <tag k="addr:street" v="Madison Drive"/>
    <tag k="addr:state" v="VT"/>
    <tag k="ref:vcgi:esiteid" v="326777"/>
  </node>
  <node id="-3985" visible="true" lat="44.45220032" lon="-73.10832175">
    <tag k="addr:city" v="Williston"/>
    <tag k="addr:housenumber" v="117"/>
    <tag k="addr:street" v="Madison Drive"/>
    <tag k="addr:state" v="VT"/>
    <tag k="ref:vcgi:esiteid" v="326778"/>
  </node>
  <node id="-3986" visible="true" lat="44.45207819" lon="-73.1082883">
    <tag k="addr:city" v="Williston"/>
    <tag k="addr:housenumber" v="121"/>
    <tag k="addr:street" v="Madison Drive"/>
    <tag k="addr:state" v="VT"/>
    <tag k="ref:vcgi:esiteid" v="326779"/>
  </node>
  <node id="-3987" visible="true" lat="44.45280472" lon="-73.10831495">
    <tag k="addr:city" v="Williston"/>
    <tag k="addr:housenumber" v="71"/>
    <tag k="addr:street" v="Madison Drive"/>
    <tag k="addr:state" v="VT"/>
    <tag k="ref:vcgi:esiteid" v="326782"/>
  </node>
  <node id="-3988" visible="true" lat="44.45263454" lon="-73.10835808">
    <tag k="addr:city" v="Williston"/>
    <tag k="addr:housenumber" v="81"/>
    <tag k="addr:street" v="Madison Drive"/>
    <tag k="addr:state" v="VT"/>
    <tag k="ref:vcgi:esiteid" v="326786"/>
  </node>
  <node id="-3989" visible="true" lat="44.45299205" lon="-73.1083993">
    <tag k="addr:city" v="Williston"/>
    <tag k="addr:housenumber" v="73"/>
    <tag k="addr:street" v="Jakes Way"/>
    <tag k="addr:state" v="VT"/>
    <tag k="ref:vcgi:esiteid" v="326790"/>
  </node>
  <node id="-3990" visible="true" lat="44.45301428" lon="-73.10820437">
    <tag k="addr:city" v="Williston"/>
    <tag k="addr:housenumber" v="69"/>
    <tag k="addr:street" v="Jakes Way"/>
    <tag k="addr:state" v="VT"/>
    <tag k="ref:vcgi:esiteid" v="326791"/>
  </node>
  <node id="-3991" visible="true" lat="44.4530135" lon="-73.10803863">
    <tag k="addr:city" v="Williston"/>
    <tag k="addr:housenumber" v="61"/>
    <tag k="addr:street" v="Jakes Way"/>
    <tag k="addr:state" v="VT"/>
    <tag k="ref:vcgi:esiteid" v="326792"/>
  </node>
  <node id="-3992" visible="true" lat="44.45303125" lon="-73.10783588">
    <tag k="addr:city" v="Williston"/>
    <tag k="addr:housenumber" v="47"/>
    <tag k="addr:street" v="Jakes Way"/>
    <tag k="addr:state" v="VT"/>
    <tag k="ref:vcgi:esiteid" v="326793"/>
  </node>
  <node id="-3997" visible="true" lat="44.45331724" lon="-73.10805589">
    <tag k="addr:city" v="Williston"/>
    <tag k="addr:housenumber" v="36"/>
    <tag k="addr:street" v="Jakes Way"/>
    <tag k="addr:state" v="VT"/>
    <tag k="ref:vcgi:esiteid" v="326798"/>
  </node>
  <node id="-3999" visible="true" lat="44.45342811" lon="-73.10843478">
    <tag k="addr:city" v="Williston"/>
    <tag k="addr:housenumber" v="31"/>
    <tag k="addr:street" v="Madison Drive"/>
    <tag k="addr:state" v="VT"/>
    <tag k="ref:vcgi:esiteid" v="326800"/>
  </node>
  <node id="-4000" visible="true" lat="44.45327346" lon="-73.10842455">
    <tag k="addr:city" v="Williston"/>
    <tag k="addr:housenumber" v="35"/>
    <tag k="addr:street" v="Madison Drive"/>
    <tag k="addr:state" v="VT"/>
    <tag k="ref:vcgi:esiteid" v="326801"/>
  </node>
  <node id="-4007" visible="true" lat="44.4534769" lon="-73.10761033">
    <tag k="addr:city" v="Williston"/>
    <tag k="addr:housenumber" v="33"/>
    <tag k="addr:street" v="Jakes Way"/>
    <tag k="addr:state" v="VT"/>
    <tag k="ref:vcgi:esiteid" v="326808"/>
  </node>
  <node id="-4008" visible="true" lat="44.45335004" lon="-73.10754706">
    <tag k="addr:city" v="Williston"/>
    <tag k="addr:housenumber" v="37"/>
    <tag k="addr:street" v="Jakes Way"/>
    <tag k="addr:state" v="VT"/>
    <tag k="ref:vcgi:esiteid" v="326809"/>
  </node>
  <node id="-4038" visible="true" lat="44.45228757" lon="-73.10962126">
    <tag k="addr:city" v="Williston"/>
    <tag k="addr:housenumber" v="212"/>
    <tag k="addr:street" v="Day Lane"/>
    <tag k="addr:state" v="VT"/>
    <tag k="ref:vcgi:esiteid" v="331934"/>
  </node>
  <node id="-4123" visible="true" lat="44.4441746" lon="-73.06258639">
    <tag k="addr:city" v="Williston"/>
    <tag k="addr:housenumber" v="550"/>
    <tag k="addr:street" v="North Williston Road"/>
    <tag k="addr:state" v="VT"/>
    <tag k="ref:vcgi:esiteid" v="336320"/>
  </node>
  <node id="-4127" visible="true" lat="44.40120146" lon="-73.13442453">
    <tag k="addr:city" v="Williston"/>
    <tag k="addr:housenumber" v="463"/>
    <tag k="addr:street" v="Lincoln Road"/>
    <tag k="addr:state" v="VT"/>
    <tag k="ref:vcgi:esiteid" v="337029"/>
  </node>
  <node id="-4129" visible="true" lat="44.40593138" lon="-73.13985608">
    <tag k="addr:city" v="Williston"/>
    <tag k="addr:housenumber" v="4133"/>
    <tag k="addr:street" v="South Brownell Road"/>
    <tag k="addr:state" v="VT"/>
    <tag k="ref:vcgi:esiteid" v="337894"/>
  </node>
  <node id="-4138" visible="true" lat="44.47445915" lon="-73.08867192">
    <tag k="addr:city" v="Williston"/>
    <tag k="addr:housenumber" v="425"/>
    <tag k="addr:street" v="Chip Alley"/>
    <tag k="addr:state" v="VT"/>
    <tag k="ref:vcgi:esiteid" v="339045"/>
  </node>
  <node id="-4146" visible="true" lat="44.39419893" lon="-73.07007429">
    <tag k="addr:city" v="Williston"/>
    <tag k="addr:housenumber" v="635"/>
    <tag k="addr:street" v="Pumpkin Hill"/>
    <tag k="addr:state" v="VT"/>
    <tag k="ref:vcgi:esiteid" v="340961"/>
  </node>
  <node id="-4151" visible="true" lat="44.44068408" lon="-73.03363702">
    <tag k="addr:city" v="Williston"/>
    <tag k="addr:housenumber" v="2022"/>
    <tag k="addr:street" v="Governor Chittenden Road"/>
    <tag k="addr:state" v="VT"/>
    <tag k="ref:vcgi:esiteid" v="341368"/>
  </node>
  <node id="-4195" visible="true" lat="44.4011939" lon="-73.13259811">
    <tag k="addr:city" v="Williston"/>
    <tag k="addr:housenumber" v="343"/>
    <tag k="addr:street" v="Lincoln Road"/>
    <tag k="addr:state" v="VT"/>
    <tag k="ref:vcgi:esiteid" v="345097"/>
  </node>
  <node id="-4205" visible="true" lat="44.45364484" lon="-73.10633489">
    <tag k="addr:city" v="Williston"/>
    <tag k="addr:housenumber" v="236"/>
    <tag k="addr:street" v="Zephyr Road"/>
    <tag k="addr:state" v="VT"/>
    <tag k="ref:vcgi:esiteid" v="365097"/>
  </node>
  <node id="-4272" visible="true" lat="44.47612621" lon="-73.11396627">
    <tag k="addr:city" v="Williston"/>
    <tag k="addr:housenumber" v="22"/>
    <tag k="addr:street" v="James Brown Drive"/>
    <tag k="addr:state" v="VT"/>
    <tag k="ref:vcgi:esiteid" v="450186"/>
  </node>
  <node id="-4277" visible="true" lat="44.46654603" lon="-73.10238459">
    <tag k="addr:city" v="Williston"/>
    <tag k="addr:housenumber" v="483"/>
    <tag k="addr:street" v="Mountain View Road"/>
    <tag k="addr:state" v="VT"/>
    <tag k="ref:vcgi:esiteid" v="450465"/>
  </node>
  <node id="-4287" visible="true" lat="44.40348996" lon="-73.13703758">
    <tag k="addr:city" v="Williston"/>
    <tag k="addr:housenumber" v="516"/>
    <tag k="addr:street" v="Lincoln Road"/>
    <tag k="addr:state" v="VT"/>
    <tag k="ref:vcgi:esiteid" v="452111"/>
  </node>
  <node id="-4373" visible="true" lat="44.43582693" lon="-73.11230236">
    <tag k="addr:city" v="Williston"/>
    <tag k="addr:housenumber" v="156"/>
    <tag k="addr:street" v="Hurricane Lane"/>
    <tag k="addr:state" v="VT"/>
    <tag k="ref:vcgi:esiteid" v="612804"/>
  </node>
  <node id="-4468" visible="true" lat="44.45017981" lon="-73.10812352">
    <tag k="addr:city" v="Williston"/>
    <tag k="addr:housenumber" v="150"/>
    <tag k="addr:street" v="Market Street"/>
    <tag k="addr:state" v="VT"/>
    <tag k="ref:vcgi:esiteid" v="751474"/>
  </node>
  <node id="-4474" visible="true" lat="44.40396727" lon="-73.14399806">
    <tag k="addr:city" v="Williston"/>
    <tag k="addr:housenumber" v="4354"/>
    <tag k="addr:street" v="South Brownell Road"/>
    <tag k="addr:state" v="VT"/>
    <tag k="ref:vcgi:esiteid" v="752654"/>
  </node>
  <node id="-4533" visible="true" lat="44.4489504" lon="-73.10850223">
    <tag k="addr:city" v="Williston"/>
    <tag k="addr:housenumber" v="129"/>
    <tag k="addr:street" v="Market Street"/>
    <tag k="addr:state" v="VT"/>
    <tag k="ref:vcgi:esiteid" v="754557"/>
  </node>
  <node id="-4537" visible="true" lat="44.4510929" lon="-73.13574115">
    <tag k="addr:city" v="Williston"/>
    <tag k="addr:housenumber" v="1417"/>
    <tag k="addr:street" v="Marshall Avenue"/>
    <tag k="addr:state" v="VT"/>
    <tag k="ref:vcgi:esiteid" v="754926"/>
  </node>
</osm>
