<?xml version="1.0" encoding="UTF-8"?>
<osm version="0.6" generator="JOSM">
  <node id="-101" visible="true" lat="44.0898607" lon="-72.62741048">
    <tag k="addr:city" v="Williamstown"/>
    <tag k="addr:housenumber" v="379"/>
    <tag k="addr:street" v="Frost Road"/>
    <tag k="addr:state" v="VT"/>
    <tag k="ref:vcgi:esiteid" v="181741"/>
  </node>
  <node id="-102" visible="true" lat="44.06948201" lon="-72.49248992">
    <tag k="addr:city" v="Williamstown"/>
    <tag k="addr:housenumber" v="1736"/>
    <tag k="addr:street" v="Williamstown Road"/>
    <tag k="addr:state" v="VT"/>
    <tag k="ref:vcgi:esiteid" v="273155"/>
  </node>
  <node id="-105" visible="true" lat="44.15685983" lon="-72.53927719">
    <tag k="addr:city" v="Williamstown"/>
    <tag k="addr:housenumber" v="1375"/>
    <tag k="addr:street" v="Falls Bridge Road"/>
    <tag k="addr:state" v="VT"/>
    <tag k="ref:vcgi:esiteid" v="287106"/>
  </node>
  <node id="-106" visible="true" lat="44.15616607" lon="-72.53945922">
    <tag k="addr:city" v="Williamstown"/>
    <tag k="addr:housenumber" v="1327"/>
    <tag k="addr:street" v="Falls Bridge Road"/>
    <tag k="addr:state" v="VT"/>
    <tag k="ref:vcgi:esiteid" v="287107"/>
  </node>
  <node id="-108" visible="true" lat="44.15567398" lon="-72.53968048">
    <tag k="addr:city" v="Williamstown"/>
    <tag k="addr:housenumber" v="1291"/>
    <tag k="addr:street" v="Falls Bridge Road"/>
    <tag k="addr:state" v="VT"/>
    <tag k="ref:vcgi:esiteid" v="287109"/>
  </node>
  <node id="-113" visible="true" lat="44.15373612" lon="-72.53949076">
    <tag k="addr:city" v="Williamstown"/>
    <tag k="addr:housenumber" v="1162"/>
    <tag k="addr:street" v="Falls Bridge Road"/>
    <tag k="addr:state" v="VT"/>
    <tag k="ref:vcgi:esiteid" v="287114"/>
  </node>
  <node id="-116" visible="true" lat="44.15328598" lon="-72.53994852">
    <tag k="addr:city" v="Williamstown"/>
    <tag k="addr:housenumber" v="1135"/>
    <tag k="addr:street" v="Falls Bridge Road"/>
    <tag k="addr:state" v="VT"/>
    <tag k="ref:vcgi:esiteid" v="287117"/>
  </node>
  <node id="-135" visible="true" lat="44.1478195" lon="-72.50791623">
    <tag k="addr:city" v="Williamstown"/>
    <tag k="addr:housenumber" v="1629"/>
    <tag k="addr:street" v="McGlynn Road"/>
    <tag k="addr:state" v="VT"/>
    <tag k="ref:vcgi:esiteid" v="287136"/>
  </node>
  <node id="-145" visible="true" lat="44.14631587" lon="-72.50748522">
    <tag k="addr:city" v="Williamstown"/>
    <tag k="addr:housenumber" v="1614"/>
    <tag k="addr:street" v="McGlynn Road"/>
    <tag k="addr:state" v="VT"/>
    <tag k="ref:vcgi:esiteid" v="287146"/>
  </node>
  <node id="-168" visible="true" lat="44.14345169" lon="-72.4923706">
    <tag k="addr:city" v="Williamstown"/>
    <tag k="addr:housenumber" v="795"/>
    <tag k="addr:street" v="Pirie Road"/>
    <tag k="addr:state" v="VT"/>
    <tag k="ref:vcgi:esiteid" v="287169"/>
  </node>
  <node id="-169" visible="true" lat="44.14323425" lon="-72.49231719">
    <tag k="addr:city" v="Williamstown"/>
    <tag k="addr:housenumber" v="781"/>
    <tag k="addr:street" v="Pirie Road"/>
    <tag k="addr:state" v="VT"/>
    <tag k="ref:vcgi:esiteid" v="287170"/>
  </node>
  <node id="-173" visible="true" lat="44.14308548" lon="-72.49221801">
    <tag k="addr:city" v="Williamstown"/>
    <tag k="addr:housenumber" v="769"/>
    <tag k="addr:street" v="Pirie Road"/>
    <tag k="addr:state" v="VT"/>
    <tag k="ref:vcgi:esiteid" v="287174"/>
  </node>
  <node id="-179" visible="true" lat="44.14183807" lon="-72.49230956">
    <tag k="addr:city" v="Williamstown"/>
    <tag k="addr:housenumber" v="679"/>
    <tag k="addr:street" v="Pirie Road"/>
    <tag k="addr:state" v="VT"/>
    <tag k="ref:vcgi:esiteid" v="287181"/>
  </node>
  <node id="-181" visible="true" lat="44.14179996" lon="-72.49316728">
    <tag k="addr:city" v="Williamstown"/>
    <tag k="addr:housenumber" v="773"/>
    <tag k="addr:street" v="Pirie Road"/>
    <tag k="addr:state" v="VT"/>
    <tag k="ref:vcgi:esiteid" v="287183"/>
  </node>
  <node id="-192" visible="true" lat="44.14029312" lon="-72.49171447">
    <tag k="addr:city" v="Williamstown"/>
    <tag k="addr:housenumber" v="561"/>
    <tag k="addr:street" v="Pirie Road"/>
    <tag k="addr:state" v="VT"/>
    <tag k="ref:vcgi:esiteid" v="287194"/>
  </node>
  <node id="-197" visible="true" lat="44.13969513" lon="-72.47823416">
    <tag k="addr:city" v="Williamstown"/>
    <tag k="addr:housenumber" v="212"/>
    <tag k="addr:street" v="Cogswell Street"/>
    <tag k="addr:state" v="VT"/>
    <tag k="ref:vcgi:esiteid" v="287199"/>
  </node>
  <node id="-199" visible="true" lat="44.13954162" lon="-72.47782134">
    <tag k="addr:city" v="Williamstown"/>
    <tag k="addr:housenumber" v="203"/>
    <tag k="addr:street" v="Cogswell Street"/>
    <tag k="addr:state" v="VT"/>
    <tag k="ref:vcgi:esiteid" v="287201"/>
  </node>
  <node id="-202" visible="true" lat="44.1392899" lon="-72.47794471">
    <tag k="addr:city" v="Williamstown"/>
    <tag k="addr:housenumber" v="217"/>
    <tag k="addr:street" v="Cogswell Street"/>
    <tag k="addr:state" v="VT"/>
    <tag k="ref:vcgi:esiteid" v="287204"/>
  </node>
  <node id="-204" visible="true" lat="44.13934701" lon="-72.47836419">
    <tag k="addr:city" v="Williamstown"/>
    <tag k="addr:housenumber" v="226"/>
    <tag k="addr:street" v="Cogswell Street"/>
    <tag k="addr:state" v="VT"/>
    <tag k="ref:vcgi:esiteid" v="287206"/>
  </node>
  <node id="-206" visible="true" lat="44.1391449" lon="-72.47801209">
    <tag k="addr:city" v="Williamstown"/>
    <tag k="addr:housenumber" v="231"/>
    <tag k="addr:street" v="Cogswell Street"/>
    <tag k="addr:state" v="VT"/>
    <tag k="ref:vcgi:esiteid" v="287208"/>
  </node>
  <node id="-208" visible="true" lat="44.13881084" lon="-72.47900412">
    <tag k="addr:city" v="Williamstown"/>
    <tag k="addr:housenumber" v="290"/>
    <tag k="addr:street" v="Cogswell Street"/>
    <tag k="addr:state" v="VT"/>
    <tag k="ref:vcgi:esiteid" v="287210"/>
  </node>
  <node id="-209" visible="true" lat="44.13869858" lon="-72.47879791">
    <tag k="addr:city" v="Williamstown"/>
    <tag k="addr:housenumber" v="276"/>
    <tag k="addr:street" v="Cogswell Street"/>
    <tag k="addr:state" v="VT"/>
    <tag k="ref:vcgi:esiteid" v="287211"/>
  </node>
  <node id="-210" visible="true" lat="44.1386528" lon="-72.47812653">
    <tag k="addr:city" v="Williamstown"/>
    <tag k="addr:housenumber" v="261"/>
    <tag k="addr:street" v="Cogswell Street"/>
    <tag k="addr:state" v="VT"/>
    <tag k="ref:vcgi:esiteid" v="287212"/>
  </node>
  <node id="-215" visible="true" lat="44.13845258" lon="-72.47850411">
    <tag k="addr:city" v="Williamstown"/>
    <tag k="addr:housenumber" v="285"/>
    <tag k="addr:street" v="Cogswell Street"/>
    <tag k="addr:state" v="VT"/>
    <tag k="ref:vcgi:esiteid" v="287217"/>
  </node>
  <node id="-216" visible="true" lat="44.13845082" lon="-72.47415594">
    <tag k="addr:city" v="Williamstown"/>
    <tag k="addr:housenumber" v="38"/>
    <tag k="addr:street" v="Clough Road"/>
    <tag k="addr:state" v="VT"/>
    <tag k="ref:vcgi:esiteid" v="287218"/>
  </node>
  <node id="-219" visible="true" lat="44.13832658" lon="-72.47921868">
    <tag k="addr:city" v="Williamstown"/>
    <tag k="addr:housenumber" v="312"/>
    <tag k="addr:street" v="Cogswell Street"/>
    <tag k="addr:state" v="VT"/>
    <tag k="ref:vcgi:esiteid" v="287221"/>
  </node>
  <node id="-220" visible="true" lat="44.13818322" lon="-72.47934431">
    <tag k="addr:city" v="Williamstown"/>
    <tag k="addr:housenumber" v="320"/>
    <tag k="addr:street" v="Cogswell Street"/>
    <tag k="addr:state" v="VT"/>
    <tag k="ref:vcgi:esiteid" v="287222"/>
  </node>
  <node id="-223" visible="true" lat="44.1381073" lon="-72.49056244">
    <tag k="addr:city" v="Williamstown"/>
    <tag k="addr:housenumber" v="316"/>
    <tag k="addr:street" v="Pirie Road"/>
    <tag k="addr:state" v="VT"/>
    <tag k="ref:vcgi:esiteid" v="287225"/>
  </node>
  <node id="-224" visible="true" lat="44.13802174" lon="-72.47479239">
    <tag k="addr:city" v="Williamstown"/>
    <tag k="addr:housenumber" v="497"/>
    <tag k="addr:street" v="Robar Road"/>
    <tag k="addr:state" v="VT"/>
    <tag k="ref:vcgi:esiteid" v="287226"/>
  </node>
  <node id="-225" visible="true" lat="44.13826437" lon="-72.47333189">
    <tag k="addr:city" v="Williamstown"/>
    <tag k="addr:housenumber" v="49"/>
    <tag k="addr:street" v="McCarthy Road"/>
    <tag k="addr:state" v="VT"/>
    <tag k="ref:vcgi:esiteid" v="287227"/>
  </node>
  <node id="-226" visible="true" lat="44.13796485" lon="-72.47909583">
    <tag k="addr:city" v="Williamstown"/>
    <tag k="addr:housenumber" v="323"/>
    <tag k="addr:street" v="Cogswell Street"/>
    <tag k="addr:state" v="VT"/>
    <tag k="ref:vcgi:esiteid" v="287228"/>
  </node>
  <node id="-227" visible="true" lat="44.1379509" lon="-72.47960663">
    <tag k="addr:city" v="Williamstown"/>
    <tag k="addr:housenumber" v="344"/>
    <tag k="addr:street" v="Cogswell Street"/>
    <tag k="addr:state" v="VT"/>
    <tag k="ref:vcgi:esiteid" v="287229"/>
  </node>
  <node id="-228" visible="true" lat="44.13771753" lon="-72.47937717">
    <tag k="addr:city" v="Williamstown"/>
    <tag k="addr:housenumber" v="343"/>
    <tag k="addr:street" v="Cogswell Street"/>
    <tag k="addr:state" v="VT"/>
    <tag k="ref:vcgi:esiteid" v="287230"/>
  </node>
  <node id="-230" visible="true" lat="44.13773801" lon="-72.48001062">
    <tag k="addr:city" v="Williamstown"/>
    <tag k="addr:housenumber" v="368"/>
    <tag k="addr:street" v="Cogswell Street"/>
    <tag k="addr:state" v="VT"/>
    <tag k="ref:vcgi:esiteid" v="287232"/>
  </node>
  <node id="-231" visible="true" lat="44.1376606" lon="-72.48218024">
    <tag k="addr:city" v="Williamstown"/>
    <tag k="addr:housenumber" v="488"/>
    <tag k="addr:street" v="Cogswell Street"/>
    <tag k="addr:state" v="VT"/>
    <tag k="ref:vcgi:esiteid" v="287233"/>
  </node>
  <node id="-232" visible="true" lat="44.13765676" lon="-72.48200342">
    <tag k="addr:city" v="Williamstown"/>
    <tag k="addr:housenumber" v="476"/>
    <tag k="addr:street" v="Cogswell Street"/>
    <tag k="addr:state" v="VT"/>
    <tag k="ref:vcgi:esiteid" v="287234"/>
  </node>
  <node id="-233" visible="true" lat="44.13764261" lon="-72.48019274">
    <tag k="addr:city" v="Williamstown"/>
    <tag k="addr:housenumber" v="380"/>
    <tag k="addr:street" v="Cogswell Street"/>
    <tag k="addr:state" v="VT"/>
    <tag k="ref:vcgi:esiteid" v="287235"/>
  </node>
  <node id="-234" visible="true" lat="44.13760751" lon="-72.48036504">
    <tag k="addr:city" v="Williamstown"/>
    <tag k="addr:housenumber" v="392"/>
    <tag k="addr:street" v="Cogswell Street"/>
    <tag k="addr:state" v="VT"/>
    <tag k="ref:vcgi:esiteid" v="287236"/>
  </node>
  <node id="-235" visible="true" lat="44.13760369" lon="-72.4817371">
    <tag k="addr:city" v="Williamstown"/>
    <tag k="addr:housenumber" v="464"/>
    <tag k="addr:street" v="Cogswell Street"/>
    <tag k="addr:state" v="VT"/>
    <tag k="ref:vcgi:esiteid" v="287237"/>
  </node>
  <node id="-236" visible="true" lat="44.13757931" lon="-72.48150726">
    <tag k="addr:city" v="Williamstown"/>
    <tag k="addr:housenumber" v="454"/>
    <tag k="addr:street" v="Cogswell Street"/>
    <tag k="addr:state" v="VT"/>
    <tag k="ref:vcgi:esiteid" v="287238"/>
  </node>
  <node id="-237" visible="true" lat="44.13764816" lon="-72.4728892">
    <tag k="addr:city" v="Williamstown"/>
    <tag k="addr:housenumber" v="74"/>
    <tag k="addr:street" v="McCarthy Road"/>
    <tag k="addr:state" v="VT"/>
    <tag k="ref:vcgi:esiteid" v="287239"/>
  </node>
  <node id="-238" visible="true" lat="44.13754123" lon="-72.4746122">
    <tag k="addr:city" v="Williamstown"/>
    <tag k="addr:housenumber" v="514"/>
    <tag k="addr:street" v="Robar Road"/>
    <tag k="addr:state" v="VT"/>
    <tag k="ref:vcgi:esiteid" v="287240"/>
  </node>
  <node id="-239" visible="true" lat="44.13746454" lon="-72.47964258">
    <tag k="addr:city" v="Williamstown"/>
    <tag k="addr:housenumber" v="367"/>
    <tag k="addr:street" v="Cogswell Street"/>
    <tag k="addr:state" v="VT"/>
    <tag k="ref:vcgi:esiteid" v="287241"/>
  </node>
  <node id="-240" visible="true" lat="44.13736307" lon="-72.48179248">
    <tag k="addr:city" v="Williamstown"/>
    <tag k="addr:housenumber" v="467"/>
    <tag k="addr:street" v="Cogswell Street"/>
    <tag k="addr:state" v="VT"/>
    <tag k="ref:vcgi:esiteid" v="287242"/>
  </node>
  <node id="-241" visible="true" lat="44.13736458" lon="-72.4802735">
    <tag k="addr:city" v="Williamstown"/>
    <tag k="addr:housenumber" v="391"/>
    <tag k="addr:street" v="Cogswell Street"/>
    <tag k="addr:state" v="VT"/>
    <tag k="ref:vcgi:esiteid" v="287243"/>
  </node>
  <node id="-243" visible="true" lat="44.13727579" lon="-72.48072781">
    <tag k="addr:city" v="Williamstown"/>
    <tag k="addr:housenumber" v="413"/>
    <tag k="addr:street" v="Cogswell Street"/>
    <tag k="addr:state" v="VT"/>
    <tag k="ref:vcgi:esiteid" v="287245"/>
  </node>
  <node id="-244" visible="true" lat="44.13725325" lon="-72.48159566">
    <tag k="addr:city" v="Williamstown"/>
    <tag k="addr:housenumber" v="455"/>
    <tag k="addr:street" v="Cogswell Street"/>
    <tag k="addr:state" v="VT"/>
    <tag k="ref:vcgi:esiteid" v="287246"/>
  </node>
  <node id="-245" visible="true" lat="44.13730811" lon="-72.48141883">
    <tag k="addr:city" v="Williamstown"/>
    <tag k="addr:housenumber" v="445"/>
    <tag k="addr:street" v="Cogswell Street"/>
    <tag k="addr:state" v="VT"/>
    <tag k="ref:vcgi:esiteid" v="287247"/>
  </node>
  <node id="-246" visible="true" lat="44.13704228" lon="-72.48238043">
    <tag k="addr:city" v="Williamstown"/>
    <tag k="addr:housenumber" v="523"/>
    <tag k="addr:street" v="Cogswell Street"/>
    <tag k="addr:state" v="VT"/>
    <tag k="ref:vcgi:esiteid" v="287248"/>
  </node>
  <node id="-250" visible="true" lat="44.13692257" lon="-72.4807068">
    <tag k="addr:city" v="Williamstown"/>
    <tag k="addr:housenumber" v="403"/>
    <tag k="addr:street" v="Cogswell Street"/>
    <tag k="addr:state" v="VT"/>
    <tag k="ref:vcgi:esiteid" v="287252"/>
  </node>
  <node id="-251" visible="true" lat="44.13681831" lon="-72.48029859">
    <tag k="addr:city" v="Williamstown"/>
    <tag k="addr:housenumber" v="405"/>
    <tag k="addr:street" v="Cogswell Street"/>
    <tag k="addr:state" v="VT"/>
    <tag k="ref:vcgi:esiteid" v="287253"/>
  </node>
  <node id="-253" visible="true" lat="44.13672637" lon="-72.5094757">
    <tag k="addr:city" v="Williamstown"/>
    <tag k="addr:housenumber" v="804"/>
    <tag k="addr:street" v="McGlynn Road"/>
    <tag k="addr:state" v="VT"/>
    <tag k="ref:vcgi:esiteid" v="287255"/>
  </node>
  <node id="-269" visible="true" lat="44.13518232" lon="-72.47342816">
    <tag k="addr:city" v="Williamstown"/>
    <tag k="addr:housenumber" v="185"/>
    <tag k="addr:street" v="Tower Road"/>
    <tag k="addr:state" v="VT"/>
    <tag k="ref:vcgi:esiteid" v="287271"/>
  </node>
  <node id="-290" visible="true" lat="44.13362503" lon="-72.51203155">
    <tag k="addr:city" v="Williamstown"/>
    <tag k="addr:housenumber" v="573"/>
    <tag k="addr:street" v="McGlynn Road"/>
    <tag k="addr:state" v="VT"/>
    <tag k="ref:vcgi:esiteid" v="287294"/>
  </node>
  <node id="-291" visible="true" lat="44.1335678" lon="-72.51117706">
    <tag k="addr:city" v="Williamstown"/>
    <tag k="addr:housenumber" v="584"/>
    <tag k="addr:street" v="McGlynn Road"/>
    <tag k="addr:state" v="VT"/>
    <tag k="ref:vcgi:esiteid" v="287295"/>
  </node>
  <node id="-306" visible="true" lat="44.13304519" lon="-72.47335815">
    <tag k="addr:city" v="Williamstown"/>
    <tag k="addr:housenumber" v="344"/>
    <tag k="addr:street" v="Tower Road"/>
    <tag k="addr:state" v="VT"/>
    <tag k="ref:vcgi:esiteid" v="287310"/>
  </node>
  <node id="-308" visible="true" lat="44.13287353" lon="-72.46623992">
    <tag k="addr:city" v="Williamstown"/>
    <tag k="addr:housenumber" v="592"/>
    <tag k="addr:street" v="McCarthy Road"/>
    <tag k="addr:state" v="VT"/>
    <tag k="ref:vcgi:esiteid" v="287312"/>
  </node>
  <node id="-317" visible="true" lat="44.13206253" lon="-72.51199796">
    <tag k="addr:city" v="Williamstown"/>
    <tag k="addr:housenumber" v="472"/>
    <tag k="addr:street" v="McGlynn Road"/>
    <tag k="addr:state" v="VT"/>
    <tag k="ref:vcgi:esiteid" v="287321"/>
  </node>
  <node id="-320" visible="true" lat="44.13197821" lon="-72.51281472">
    <tag k="addr:city" v="Williamstown"/>
    <tag k="addr:housenumber" v="435"/>
    <tag k="addr:street" v="McGlynn Road"/>
    <tag k="addr:state" v="VT"/>
    <tag k="ref:vcgi:esiteid" v="287324"/>
  </node>
  <node id="-326" visible="true" lat="44.13138198" lon="-72.47359466">
    <tag k="addr:city" v="Williamstown"/>
    <tag k="addr:housenumber" v="458"/>
    <tag k="addr:street" v="Tower Road"/>
    <tag k="addr:state" v="VT"/>
    <tag k="ref:vcgi:esiteid" v="287330"/>
  </node>
  <node id="-330" visible="true" lat="44.13085938" lon="-72.46389008">
    <tag k="addr:city" v="Williamstown"/>
    <tag k="addr:housenumber" v="771"/>
    <tag k="addr:street" v="McCarthy Road"/>
    <tag k="addr:state" v="VT"/>
    <tag k="ref:vcgi:esiteid" v="287334"/>
  </node>
  <node id="-336" visible="true" lat="44.13051986" lon="-72.51229095">
    <tag k="addr:city" v="Williamstown"/>
    <tag k="addr:housenumber" v="354"/>
    <tag k="addr:street" v="McGlynn Road"/>
    <tag k="addr:state" v="VT"/>
    <tag k="ref:vcgi:esiteid" v="287340"/>
  </node>
  <node id="-353" visible="true" lat="44.12957689" lon="-72.46288895">
    <tag k="addr:city" v="Williamstown"/>
    <tag k="addr:housenumber" v="1126"/>
    <tag k="addr:street" v="Lambert Road"/>
    <tag k="addr:state" v="VT"/>
    <tag k="ref:vcgi:esiteid" v="287362"/>
  </node>
  <node id="-365" visible="true" lat="44.12825012" lon="-72.46356201">
    <tag k="addr:city" v="Williamstown"/>
    <tag k="addr:housenumber" v="954"/>
    <tag k="addr:street" v="McCarthy Road"/>
    <tag k="addr:state" v="VT"/>
    <tag k="ref:vcgi:esiteid" v="287374"/>
  </node>
  <node id="-369" visible="true" lat="44.12807464" lon="-72.47454071">
    <tag k="addr:city" v="Williamstown"/>
    <tag k="addr:housenumber" v="698"/>
    <tag k="addr:street" v="Tower Road"/>
    <tag k="addr:state" v="VT"/>
    <tag k="ref:vcgi:esiteid" v="287378"/>
  </node>
  <node id="-380" visible="true" lat="44.12779809" lon="-72.53873972">
    <tag k="addr:city" v="Williamstown"/>
    <tag k="addr:housenumber" v="307"/>
    <tag k="addr:street" v="Seaver Road"/>
    <tag k="addr:state" v="VT"/>
    <tag k="ref:vcgi:esiteid" v="287391"/>
  </node>
  <node id="-387" visible="true" lat="44.12756541" lon="-72.53831003">
    <tag k="addr:city" v="Williamstown"/>
    <tag k="addr:housenumber" v="300"/>
    <tag k="addr:street" v="Seaver Road"/>
    <tag k="addr:state" v="VT"/>
    <tag k="ref:vcgi:esiteid" v="287398"/>
  </node>
  <node id="-392" visible="true" lat="44.12735935" lon="-72.53883975">
    <tag k="addr:city" v="Williamstown"/>
    <tag k="addr:housenumber" v="271"/>
    <tag k="addr:street" v="Seaver Road"/>
    <tag k="addr:state" v="VT"/>
    <tag k="ref:vcgi:esiteid" v="287404"/>
  </node>
  <node id="-405" visible="true" lat="44.12683686" lon="-72.53911933">
    <tag k="addr:city" v="Williamstown"/>
    <tag k="addr:housenumber" v="243"/>
    <tag k="addr:street" v="Seaver Road"/>
    <tag k="addr:state" v="VT"/>
    <tag k="ref:vcgi:esiteid" v="287418"/>
  </node>
  <node id="-418" visible="true" lat="44.12650103" lon="-72.53740214">
    <tag k="addr:city" v="Williamstown"/>
    <tag k="addr:housenumber" v="29"/>
    <tag k="addr:street" v="Circle Street"/>
    <tag k="addr:state" v="VT"/>
    <tag k="ref:vcgi:esiteid" v="287432"/>
  </node>
  <node id="-422" visible="true" lat="44.1264953" lon="-72.53688846">
    <tag k="addr:city" v="Williamstown"/>
    <tag k="addr:housenumber" v="43"/>
    <tag k="addr:street" v="Circle Street"/>
    <tag k="addr:state" v="VT"/>
    <tag k="ref:vcgi:esiteid" v="287437"/>
  </node>
  <node id="-439" visible="true" lat="44.12620544" lon="-72.4635849">
    <tag k="addr:city" v="Williamstown"/>
    <tag k="addr:housenumber" v="1105"/>
    <tag k="addr:street" v="McCarthy Road"/>
    <tag k="addr:state" v="VT"/>
    <tag k="ref:vcgi:esiteid" v="287454"/>
  </node>
  <node id="-472" visible="true" lat="44.12559509" lon="-72.46404266">
    <tag k="addr:city" v="Williamstown"/>
    <tag k="addr:housenumber" v="1146"/>
    <tag k="addr:street" v="McCarthy Road"/>
    <tag k="addr:state" v="VT"/>
    <tag k="ref:vcgi:esiteid" v="287490"/>
  </node>
  <node id="-486" visible="true" lat="44.12535476" lon="-72.54060629">
    <tag k="addr:city" v="Williamstown"/>
    <tag k="addr:housenumber" v="128"/>
    <tag k="addr:street" v="High Street"/>
    <tag k="addr:state" v="VT"/>
    <tag k="ref:vcgi:esiteid" v="287505"/>
  </node>
  <node id="-489" visible="true" lat="44.12546339" lon="-72.5413907">
    <tag k="addr:city" v="Williamstown"/>
    <tag k="addr:housenumber" v="75"/>
    <tag k="addr:street" v="High Street"/>
    <tag k="addr:state" v="VT"/>
    <tag k="ref:vcgi:esiteid" v="287508"/>
  </node>
  <node id="-490" visible="true" lat="44.12530324" lon="-72.53989828">
    <tag k="addr:city" v="Williamstown"/>
    <tag k="addr:housenumber" v="121"/>
    <tag k="addr:street" v="Seaver Road"/>
    <tag k="addr:state" v="VT"/>
    <tag k="ref:vcgi:esiteid" v="287510"/>
  </node>
  <node id="-498" visible="true" lat="44.12518886" lon="-72.54081867">
    <tag k="addr:city" v="Williamstown"/>
    <tag k="addr:housenumber" v="122"/>
    <tag k="addr:street" v="High Street"/>
    <tag k="addr:state" v="VT"/>
    <tag k="ref:vcgi:esiteid" v="287518"/>
  </node>
  <node id="-503" visible="true" lat="44.1251221" lon="-72.53964873">
    <tag k="addr:city" v="Williamstown"/>
    <tag k="addr:housenumber" v="118"/>
    <tag k="addr:street" v="Seaver Road"/>
    <tag k="addr:state" v="VT"/>
    <tag k="ref:vcgi:esiteid" v="287523"/>
  </node>
  <node id="-506" visible="true" lat="44.12517162" lon="-72.54009709">
    <tag k="addr:city" v="Williamstown"/>
    <tag k="addr:housenumber" v="101"/>
    <tag k="addr:street" v="Seaver Road"/>
    <tag k="addr:state" v="VT"/>
    <tag k="ref:vcgi:esiteid" v="287526"/>
  </node>
  <node id="-510" visible="true" lat="44.12518236" lon="-72.47394365">
    <tag k="addr:city" v="Williamstown"/>
    <tag k="addr:housenumber" v="897"/>
    <tag k="addr:street" v="Tower Road"/>
    <tag k="addr:state" v="VT"/>
    <tag k="ref:vcgi:esiteid" v="287530"/>
  </node>
  <node id="-514" visible="true" lat="44.12491984" lon="-72.54045923">
    <tag k="addr:city" v="Williamstown"/>
    <tag k="addr:housenumber" v="75"/>
    <tag k="addr:street" v="Seaver Road"/>
    <tag k="addr:state" v="VT"/>
    <tag k="ref:vcgi:esiteid" v="287534"/>
  </node>
  <node id="-519" visible="true" lat="44.12480926" lon="-72.53942108">
    <tag k="addr:city" v="Williamstown"/>
    <tag k="addr:housenumber" v="44"/>
    <tag k="addr:street" v="Elm Street"/>
    <tag k="addr:state" v="VT"/>
    <tag k="ref:vcgi:esiteid" v="287540"/>
  </node>
  <node id="-521" visible="true" lat="44.1247845" lon="-72.5407077">
    <tag k="addr:city" v="Williamstown"/>
    <tag k="addr:housenumber" v="16"/>
    <tag k="addr:street" v="Howe Street"/>
    <tag k="addr:state" v="VT"/>
    <tag k="ref:vcgi:esiteid" v="287542"/>
  </node>
  <node id="-523" visible="true" lat="44.12470631" lon="-72.54220692">
    <tag k="addr:city" v="Williamstown"/>
    <tag k="addr:housenumber" v="47"/>
    <tag k="addr:street" v="High Street"/>
    <tag k="addr:state" v="VT"/>
    <tag k="ref:vcgi:esiteid" v="287544"/>
  </node>
  <node id="-526" visible="true" lat="44.12467197" lon="-72.54146037">
    <tag k="addr:city" v="Williamstown"/>
    <tag k="addr:housenumber" v="72"/>
    <tag k="addr:street" v="High Street"/>
    <tag k="addr:state" v="VT"/>
    <tag k="ref:vcgi:esiteid" v="287547"/>
  </node>
  <node id="-528" visible="true" lat="44.12455017" lon="-72.53987842">
    <tag k="addr:city" v="Williamstown"/>
    <tag k="addr:housenumber" v="88"/>
    <tag k="addr:street" v="Seaver Road"/>
    <tag k="addr:state" v="VT"/>
    <tag k="ref:vcgi:esiteid" v="287550"/>
  </node>
  <node id="-529" visible="true" lat="44.12462872" lon="-72.54086079">
    <tag k="addr:city" v="Williamstown"/>
    <tag k="addr:housenumber" v="9"/>
    <tag k="addr:street" v="Howe Street"/>
    <tag k="addr:state" v="VT"/>
    <tag k="ref:vcgi:esiteid" v="287551"/>
  </node>
  <node id="-532" visible="true" lat="44.12445647" lon="-72.54264329">
    <tag k="addr:city" v="Williamstown"/>
    <tag k="addr:housenumber" v="21"/>
    <tag k="addr:street" v="High Street"/>
    <tag k="addr:state" v="VT"/>
    <tag k="ref:vcgi:esiteid" v="287554"/>
  </node>
  <node id="-534" visible="true" lat="44.12453574" lon="-72.54048681">
    <tag k="addr:city" v="Williamstown"/>
    <tag k="addr:housenumber" v="58"/>
    <tag k="addr:street" v="Seaver Road"/>
    <tag k="addr:state" v="VT"/>
    <tag k="ref:vcgi:esiteid" v="287556"/>
  </node>
  <node id="-535" visible="true" lat="44.12449264" lon="-72.46406555">
    <tag k="addr:city" v="Williamstown"/>
    <tag k="addr:housenumber" v="1222"/>
    <tag k="addr:street" v="McCarthy Road"/>
    <tag k="addr:state" v="VT"/>
    <tag k="ref:vcgi:esiteid" v="287557"/>
  </node>
  <node id="-536" visible="true" lat="44.12447739" lon="-72.4630661">
    <tag k="addr:city" v="Williamstown"/>
    <tag k="addr:housenumber" v="1225"/>
    <tag k="addr:street" v="McCarthy Road"/>
    <tag k="addr:state" v="VT"/>
    <tag k="ref:vcgi:esiteid" v="287558"/>
  </node>
  <node id="-540" visible="true" lat="44.12444305" lon="-72.53308105">
    <tag k="addr:city" v="Williamstown"/>
    <tag k="addr:housenumber" v="100"/>
    <tag k="addr:street" v="Railroad Street"/>
    <tag k="addr:state" v="VT"/>
    <tag k="ref:vcgi:esiteid" v="287563"/>
  </node>
  <node id="-542" visible="true" lat="44.12445632" lon="-72.54206181">
    <tag k="addr:city" v="Williamstown"/>
    <tag k="addr:housenumber" v="42"/>
    <tag k="addr:street" v="High Street"/>
    <tag k="addr:state" v="VT"/>
    <tag k="ref:vcgi:esiteid" v="287565"/>
  </node>
  <node id="-543" visible="true" lat="44.12430727" lon="-72.53454485">
    <tag k="addr:city" v="Williamstown"/>
    <tag k="addr:housenumber" v="120"/>
    <tag k="addr:street" v="Brockway Hill Road"/>
    <tag k="addr:state" v="VT"/>
    <tag k="ref:vcgi:esiteid" v="287566"/>
  </node>
  <node id="-544" visible="true" lat="44.12440373" lon="-72.54012962">
    <tag k="addr:city" v="Williamstown"/>
    <tag k="addr:housenumber" v="94"/>
    <tag k="addr:street" v="Elm Street"/>
    <tag k="addr:state" v="VT"/>
    <tag k="ref:vcgi:esiteid" v="287567"/>
  </node>
  <node id="-548" visible="true" lat="44.12423149" lon="-72.53367398">
    <tag k="addr:city" v="Williamstown"/>
    <tag k="addr:housenumber" v="70"/>
    <tag k="addr:street" v="Railroad Street"/>
    <tag k="addr:state" v="VT"/>
    <tag k="ref:vcgi:esiteid" v="287571"/>
  </node>
  <node id="-549" visible="true" lat="44.12429809" lon="-72.53498077">
    <tag k="addr:city" v="Williamstown"/>
    <tag k="addr:housenumber" v="105"/>
    <tag k="addr:street" v="Brockway Hill Road"/>
    <tag k="addr:state" v="VT"/>
    <tag k="ref:vcgi:esiteid" v="287572"/>
  </node>
  <node id="-550" visible="true" lat="44.12411005" lon="-72.54108312">
    <tag k="addr:city" v="Williamstown"/>
    <tag k="addr:housenumber" v="32"/>
    <tag k="addr:street" v="Construction Hill Road"/>
    <tag k="addr:state" v="VT"/>
    <tag k="ref:vcgi:esiteid" v="287573"/>
  </node>
  <node id="-555" visible="true" lat="44.12422459" lon="-72.54153791">
    <tag k="addr:city" v="Williamstown"/>
    <tag k="addr:housenumber" v="46"/>
    <tag k="addr:street" v="Construction Hill Road"/>
    <tag k="addr:state" v="VT"/>
    <tag k="ref:vcgi:esiteid" v="287579"/>
  </node>
  <node id="-558" visible="true" lat="44.12413308" lon="-72.54058671">
    <tag k="addr:city" v="Williamstown"/>
    <tag k="addr:housenumber" v="89"/>
    <tag k="addr:street" v="Elm Street"/>
    <tag k="addr:state" v="VT"/>
    <tag k="ref:vcgi:esiteid" v="287582"/>
  </node>
  <node id="-559" visible="true" lat="44.1241188" lon="-72.53339385">
    <tag k="addr:city" v="Williamstown"/>
    <tag k="addr:housenumber" v="76"/>
    <tag k="addr:street" v="Railroad Street"/>
    <tag k="addr:state" v="VT"/>
    <tag k="ref:vcgi:esiteid" v="287583"/>
  </node>
  <node id="-561" visible="true" lat="44.12439313" lon="-72.47422682">
    <tag k="addr:city" v="Williamstown"/>
    <tag k="addr:housenumber" v="931"/>
    <tag k="addr:street" v="Tower Road"/>
    <tag k="addr:state" v="VT"/>
    <tag k="ref:vcgi:esiteid" v="287585"/>
  </node>
  <node id="-564" visible="true" lat="44.1239033" lon="-72.53417194">
    <tag k="addr:city" v="Williamstown"/>
    <tag k="addr:housenumber" v="40"/>
    <tag k="addr:street" v="Railroad Street"/>
    <tag k="addr:state" v="VT"/>
    <tag k="ref:vcgi:esiteid" v="287589"/>
  </node>
  <node id="-565" visible="true" lat="44.12395401" lon="-72.54202576">
    <tag k="addr:city" v="Williamstown"/>
    <tag k="addr:housenumber" v="63"/>
    <tag k="addr:street" v="Construction Hill Road"/>
    <tag k="addr:state" v="VT"/>
    <tag k="ref:vcgi:esiteid" v="287592"/>
  </node>
  <node id="-568" visible="true" lat="44.12388182" lon="-72.54250818">
    <tag k="addr:city" v="Williamstown"/>
    <tag k="addr:housenumber" v="89"/>
    <tag k="addr:street" v="Construction Hill Road"/>
    <tag k="addr:state" v="VT"/>
    <tag k="ref:vcgi:esiteid" v="287595"/>
  </node>
  <node id="-574" visible="true" lat="44.12362623" lon="-72.54260799">
    <tag k="addr:city" v="Williamstown"/>
    <tag k="addr:housenumber" v="32"/>
    <tag k="addr:street" v="Hillside Terrace"/>
    <tag k="addr:state" v="VT"/>
    <tag k="ref:vcgi:esiteid" v="287602"/>
  </node>
  <node id="-575" visible="true" lat="44.12363826" lon="-72.534853">
    <tag k="addr:city" v="Williamstown"/>
    <tag k="addr:housenumber" v="54"/>
    <tag k="addr:street" v="Brockway Hill Road"/>
    <tag k="addr:state" v="VT"/>
    <tag k="ref:vcgi:esiteid" v="287603"/>
  </node>
  <node id="-576" visible="true" lat="44.12362682" lon="-72.54063404">
    <tag k="addr:city" v="Williamstown"/>
    <tag k="addr:housenumber" v="19"/>
    <tag k="addr:street" v="Meadow Street"/>
    <tag k="addr:state" v="VT"/>
    <tag k="ref:vcgi:esiteid" v="287604"/>
  </node>
  <node id="-579" visible="true" lat="44.12360381" lon="-72.54589159">
    <tag k="addr:city" v="Williamstown"/>
    <tag k="addr:housenumber" v="100"/>
    <tag k="addr:street" v="Brush Hill Road"/>
    <tag k="addr:state" v="VT"/>
    <tag k="ref:vcgi:esiteid" v="287607"/>
  </node>
  <node id="-583" visible="true" lat="44.12339006" lon="-72.53415446">
    <tag k="addr:city" v="Williamstown"/>
    <tag k="addr:housenumber" v="79"/>
    <tag k="addr:street" v="Graniteville Road"/>
    <tag k="addr:state" v="VT"/>
    <tag k="ref:vcgi:esiteid" v="287611"/>
  </node>
  <node id="-584" visible="true" lat="44.12344815" lon="-72.53544215">
    <tag k="addr:city" v="Williamstown"/>
    <tag k="addr:housenumber" v="41"/>
    <tag k="addr:street" v="Brockway Hill Road"/>
    <tag k="addr:state" v="VT"/>
    <tag k="ref:vcgi:esiteid" v="287612"/>
  </node>
  <node id="-589" visible="true" lat="44.12326224" lon="-72.53471701">
    <tag k="addr:city" v="Williamstown"/>
    <tag k="addr:housenumber" v="47"/>
    <tag k="addr:street" v="Graniteville Road"/>
    <tag k="addr:state" v="VT"/>
    <tag k="ref:vcgi:esiteid" v="287617"/>
  </node>
  <node id="-591" visible="true" lat="44.12332345" lon="-72.54806162">
    <tag k="addr:city" v="Williamstown"/>
    <tag k="addr:housenumber" v="111"/>
    <tag k="addr:street" v="Brush Hill Road"/>
    <tag k="addr:state" v="VT"/>
    <tag k="ref:vcgi:esiteid" v="287619"/>
  </node>
  <node id="-593" visible="true" lat="44.12329864" lon="-72.53315734">
    <tag k="addr:city" v="Williamstown"/>
    <tag k="addr:housenumber" v="132"/>
    <tag k="addr:street" v="Graniteville Road"/>
    <tag k="addr:state" v="VT"/>
    <tag k="ref:vcgi:esiteid" v="287621"/>
  </node>
  <node id="-594" visible="true" lat="44.12331896" lon="-72.53440428">
    <tag k="addr:city" v="Williamstown"/>
    <tag k="addr:housenumber" v="59"/>
    <tag k="addr:street" v="Graniteville Road"/>
    <tag k="addr:state" v="VT"/>
    <tag k="ref:vcgi:esiteid" v="287622"/>
  </node>
  <node id="-597" visible="true" lat="44.12307557" lon="-72.540669">
    <tag k="addr:city" v="Williamstown"/>
    <tag k="addr:housenumber" v="26"/>
    <tag k="addr:street" v="Meadow Street"/>
    <tag k="addr:state" v="VT"/>
    <tag k="ref:vcgi:esiteid" v="287625"/>
  </node>
  <node id="-607" visible="true" lat="44.12270952" lon="-72.54701071">
    <tag k="addr:city" v="Williamstown"/>
    <tag k="addr:housenumber" v="97"/>
    <tag k="addr:street" v="Brush Hill Road"/>
    <tag k="addr:state" v="VT"/>
    <tag k="ref:vcgi:esiteid" v="287638"/>
  </node>
  <node id="-612" visible="true" lat="44.12275208" lon="-72.53503103">
    <tag k="addr:city" v="Williamstown"/>
    <tag k="addr:housenumber" v="810"/>
    <tag k="addr:street" v="Erskine Road"/>
    <tag k="addr:state" v="VT"/>
    <tag k="ref:vcgi:esiteid" v="287643"/>
  </node>
  <node id="-613" visible="true" lat="44.12263488" lon="-72.53687286">
    <tag k="addr:city" v="Williamstown"/>
    <tag k="addr:housenumber" v="219"/>
    <tag k="addr:street" v="Meadow Street"/>
    <tag k="addr:state" v="VT"/>
    <tag k="ref:vcgi:esiteid" v="287644"/>
  </node>
  <node id="-615" visible="true" lat="44.12267583" lon="-72.53474717">
    <tag k="addr:city" v="Williamstown"/>
    <tag k="addr:housenumber" v="808"/>
    <tag k="addr:street" v="Erskine Road"/>
    <tag k="addr:state" v="VT"/>
    <tag k="ref:vcgi:esiteid" v="287647"/>
  </node>
  <node id="-617" visible="true" lat="44.12245381" lon="-72.54639276">
    <tag k="addr:city" v="Williamstown"/>
    <tag k="addr:housenumber" v="85"/>
    <tag k="addr:street" v="Brush Hill Road"/>
    <tag k="addr:state" v="VT"/>
    <tag k="ref:vcgi:esiteid" v="287649"/>
  </node>
  <node id="-618" visible="true" lat="44.12251663" lon="-72.53862762">
    <tag k="addr:city" v="Williamstown"/>
    <tag k="addr:housenumber" v="21"/>
    <tag k="addr:street" v="Depot Street"/>
    <tag k="addr:state" v="VT"/>
    <tag k="ref:vcgi:esiteid" v="287650"/>
  </node>
  <node id="-619" visible="true" lat="44.12249755" lon="-72.54183197">
    <tag k="addr:city" v="Williamstown"/>
    <tag k="addr:housenumber" v="30"/>
    <tag k="addr:street" v="Brook Street"/>
    <tag k="addr:state" v="VT"/>
    <tag k="ref:vcgi:esiteid" v="287651"/>
  </node>
  <node id="-620" visible="true" lat="44.12249374" lon="-72.53798675">
    <tag k="addr:city" v="Williamstown"/>
    <tag k="addr:housenumber" v="166"/>
    <tag k="addr:street" v="Meadow Street"/>
    <tag k="addr:state" v="VT"/>
    <tag k="ref:vcgi:esiteid" v="287652"/>
  </node>
  <node id="-622" visible="true" lat="44.12244033" lon="-72.54222106">
    <tag k="addr:city" v="Williamstown"/>
    <tag k="addr:housenumber" v="50"/>
    <tag k="addr:street" v="Brook Street"/>
    <tag k="addr:state" v="VT"/>
    <tag k="ref:vcgi:esiteid" v="287654"/>
  </node>
  <node id="-624" visible="true" lat="44.1223793" lon="-72.54405212">
    <tag k="addr:city" v="Williamstown"/>
    <tag k="addr:housenumber" v="142"/>
    <tag k="addr:street" v="Brook Street"/>
    <tag k="addr:state" v="VT"/>
    <tag k="ref:vcgi:esiteid" v="287656"/>
  </node>
  <node id="-627" visible="true" lat="44.12238203" lon="-72.47678373">
    <tag k="addr:city" v="Williamstown"/>
    <tag k="addr:housenumber" v="1115"/>
    <tag k="addr:street" v="Tower Road"/>
    <tag k="addr:state" v="VT"/>
    <tag k="ref:vcgi:esiteid" v="287659"/>
  </node>
  <node id="-629" visible="true" lat="44.1222763" lon="-72.54480743">
    <tag k="addr:city" v="Williamstown"/>
    <tag k="addr:housenumber" v="180"/>
    <tag k="addr:street" v="Brook Street"/>
    <tag k="addr:state" v="VT"/>
    <tag k="ref:vcgi:esiteid" v="287661"/>
  </node>
  <node id="-630" visible="true" lat="44.1218791" lon="-72.53603675">
    <tag k="addr:city" v="Williamstown"/>
    <tag k="addr:housenumber" v="258"/>
    <tag k="addr:street" v="Meadow Street"/>
    <tag k="addr:state" v="VT"/>
    <tag k="ref:vcgi:esiteid" v="287662"/>
  </node>
  <node id="-633" visible="true" lat="44.12215042" lon="-72.54010772">
    <tag k="addr:city" v="Williamstown"/>
    <tag k="addr:housenumber" v="53"/>
    <tag k="addr:street" v="Beckett Street"/>
    <tag k="addr:state" v="VT"/>
    <tag k="ref:vcgi:esiteid" v="287666"/>
  </node>
  <node id="-635" visible="true" lat="44.12223196" lon="-72.53964627">
    <tag k="addr:city" v="Williamstown"/>
    <tag k="addr:housenumber" v="73"/>
    <tag k="addr:street" v="Beckett Street"/>
    <tag k="addr:state" v="VT"/>
    <tag k="ref:vcgi:esiteid" v="287668"/>
  </node>
  <node id="-637" visible="true" lat="44.12205886" lon="-72.54387664">
    <tag k="addr:city" v="Williamstown"/>
    <tag k="addr:housenumber" v="12"/>
    <tag k="addr:street" v="Tiffany Drive"/>
    <tag k="addr:state" v="VT"/>
    <tag k="ref:vcgi:esiteid" v="287672"/>
  </node>
  <node id="-639" visible="true" lat="44.12194738" lon="-72.54242603">
    <tag k="addr:city" v="Williamstown"/>
    <tag k="addr:housenumber" v="69"/>
    <tag k="addr:street" v="Methodist Lane"/>
    <tag k="addr:state" v="VT"/>
    <tag k="ref:vcgi:esiteid" v="287674"/>
  </node>
  <node id="-643" visible="true" lat="44.12193298" lon="-72.53893279">
    <tag k="addr:city" v="Williamstown"/>
    <tag k="addr:housenumber" v="71"/>
    <tag k="addr:street" v="Depot Street"/>
    <tag k="addr:state" v="VT"/>
    <tag k="ref:vcgi:esiteid" v="287678"/>
  </node>
  <node id="-644" visible="true" lat="44.12182725" lon="-72.54007995">
    <tag k="addr:city" v="Williamstown"/>
    <tag k="addr:housenumber" v="48"/>
    <tag k="addr:street" v="Beckett Street"/>
    <tag k="addr:state" v="VT"/>
    <tag k="ref:vcgi:esiteid" v="287680"/>
  </node>
  <node id="-646" visible="true" lat="44.12179291" lon="-72.53955809">
    <tag k="addr:city" v="Williamstown"/>
    <tag k="addr:housenumber" v="76"/>
    <tag k="addr:street" v="Beckett Street"/>
    <tag k="addr:state" v="VT"/>
    <tag k="ref:vcgi:esiteid" v="287682"/>
  </node>
  <node id="-648" visible="true" lat="44.12174822" lon="-72.54060256">
    <tag k="addr:city" v="Williamstown"/>
    <tag k="addr:housenumber" v="10"/>
    <tag k="addr:street" v="Beckett Street"/>
    <tag k="addr:state" v="VT"/>
    <tag k="ref:vcgi:esiteid" v="287684"/>
  </node>
  <node id="-650" visible="true" lat="44.1218338" lon="-72.54205322">
    <tag k="addr:city" v="Williamstown"/>
    <tag k="addr:housenumber" v="47"/>
    <tag k="addr:street" v="Methodist Lane"/>
    <tag k="addr:state" v="VT"/>
    <tag k="ref:vcgi:esiteid" v="287686"/>
  </node>
  <node id="-654" visible="true" lat="44.12179819" lon="-72.46252627">
    <tag k="addr:city" v="Williamstown"/>
    <tag k="addr:housenumber" v="1445"/>
    <tag k="addr:street" v="McCarthy Road"/>
    <tag k="addr:state" v="VT"/>
    <tag k="ref:vcgi:esiteid" v="287690"/>
  </node>
  <node id="-657" visible="true" lat="44.12163162" lon="-72.54364776">
    <tag k="addr:city" v="Williamstown"/>
    <tag k="addr:housenumber" v="39"/>
    <tag k="addr:street" v="Tiffany Drive"/>
    <tag k="addr:state" v="VT"/>
    <tag k="ref:vcgi:esiteid" v="287693"/>
  </node>
  <node id="-660" visible="true" lat="44.12164465" lon="-72.54045525">
    <tag k="addr:city" v="Williamstown"/>
    <tag k="addr:housenumber" v="154"/>
    <tag k="addr:street" v="Depot Street"/>
    <tag k="addr:state" v="VT"/>
    <tag k="ref:vcgi:esiteid" v="287696"/>
  </node>
  <node id="-661" visible="true" lat="44.12157821" lon="-72.54152679">
    <tag k="addr:city" v="Williamstown"/>
    <tag k="addr:housenumber" v="30"/>
    <tag k="addr:street" v="Garden Street"/>
    <tag k="addr:state" v="VT"/>
    <tag k="ref:vcgi:esiteid" v="287697"/>
  </node>
  <node id="-666" visible="true" lat="44.12156859" lon="-72.54200114">
    <tag k="addr:city" v="Williamstown"/>
    <tag k="addr:housenumber" v="54"/>
    <tag k="addr:street" v="Garden Street"/>
    <tag k="addr:state" v="VT"/>
    <tag k="ref:vcgi:esiteid" v="287702"/>
  </node>
  <node id="-669" visible="true" lat="44.1212892" lon="-72.54062837">
    <tag k="addr:city" v="Williamstown"/>
    <tag k="addr:housenumber" v="169"/>
    <tag k="addr:street" v="Depot Street"/>
    <tag k="addr:state" v="VT"/>
    <tag k="ref:vcgi:esiteid" v="287705"/>
  </node>
  <node id="-670" visible="true" lat="44.12132538" lon="-72.54038426">
    <tag k="addr:city" v="Williamstown"/>
    <tag k="addr:housenumber" v="155"/>
    <tag k="addr:street" v="Depot Street"/>
    <tag k="addr:state" v="VT"/>
    <tag k="ref:vcgi:esiteid" v="287706"/>
  </node>
  <node id="-676" visible="true" lat="44.12099838" lon="-72.53975677">
    <tag k="addr:city" v="Williamstown"/>
    <tag k="addr:housenumber" v="123"/>
    <tag k="addr:street" v="Depot Street"/>
    <tag k="addr:state" v="VT"/>
    <tag k="ref:vcgi:esiteid" v="287712"/>
  </node>
  <node id="-692" visible="true" lat="44.12015533" lon="-72.54343414">
    <tag k="addr:city" v="Williamstown"/>
    <tag k="addr:housenumber" v="168"/>
    <tag k="addr:street" v="Garden Street"/>
    <tag k="addr:state" v="VT"/>
    <tag k="ref:vcgi:esiteid" v="287730"/>
  </node>
  <node id="-694" visible="true" lat="44.11990565" lon="-72.47956094">
    <tag k="addr:city" v="Williamstown"/>
    <tag k="addr:housenumber" v="1308"/>
    <tag k="addr:street" v="Tower Road"/>
    <tag k="addr:state" v="VT"/>
    <tag k="ref:vcgi:esiteid" v="287732"/>
  </node>
  <node id="-695" visible="true" lat="44.12005615" lon="-72.55970001">
    <tag k="addr:city" v="Williamstown"/>
    <tag k="addr:housenumber" v="112"/>
    <tag k="addr:street" v="Woodland Heights"/>
    <tag k="addr:state" v="VT"/>
    <tag k="ref:vcgi:esiteid" v="287733"/>
  </node>
  <node id="-701" visible="true" lat="44.11996078" lon="-72.54372405">
    <tag k="addr:city" v="Williamstown"/>
    <tag k="addr:housenumber" v="186"/>
    <tag k="addr:street" v="Garden Street"/>
    <tag k="addr:state" v="VT"/>
    <tag k="ref:vcgi:esiteid" v="287739"/>
  </node>
  <node id="-702" visible="true" lat="44.11985415" lon="-72.54305669">
    <tag k="addr:city" v="Williamstown"/>
    <tag k="addr:housenumber" v="167"/>
    <tag k="addr:street" v="Garden Street"/>
    <tag k="addr:state" v="VT"/>
    <tag k="ref:vcgi:esiteid" v="287740"/>
  </node>
  <node id="-707" visible="true" lat="44.11973571" lon="-72.54399871">
    <tag k="addr:city" v="Williamstown"/>
    <tag k="addr:housenumber" v="208"/>
    <tag k="addr:street" v="Garden Street"/>
    <tag k="addr:state" v="VT"/>
    <tag k="ref:vcgi:esiteid" v="287746"/>
  </node>
  <node id="-710" visible="true" lat="44.11968231" lon="-72.52487945">
    <tag k="addr:city" v="Williamstown"/>
    <tag k="addr:housenumber" v="206"/>
    <tag k="addr:street" v="Erskine Road"/>
    <tag k="addr:state" v="VT"/>
    <tag k="ref:vcgi:esiteid" v="287749"/>
  </node>
  <node id="-712" visible="true" lat="44.11959891" lon="-72.5434274">
    <tag k="addr:city" v="Williamstown"/>
    <tag k="addr:housenumber" v="193"/>
    <tag k="addr:street" v="Garden Street"/>
    <tag k="addr:state" v="VT"/>
    <tag k="ref:vcgi:esiteid" v="287751"/>
  </node>
  <node id="-714" visible="true" lat="44.11958694" lon="-72.55989074">
    <tag k="addr:city" v="Williamstown"/>
    <tag k="addr:housenumber" v="121"/>
    <tag k="addr:street" v="Woodland Heights"/>
    <tag k="addr:state" v="VT"/>
    <tag k="ref:vcgi:esiteid" v="287753"/>
  </node>
  <node id="-717" visible="true" lat="44.11964576" lon="-72.54199723">
    <tag k="addr:city" v="Williamstown"/>
    <tag k="addr:housenumber" v="44"/>
    <tag k="addr:street" v="Pleasant Street"/>
    <tag k="addr:state" v="VT"/>
    <tag k="ref:vcgi:esiteid" v="287756"/>
  </node>
  <node id="-718" visible="true" lat="44.11952206" lon="-72.54425701">
    <tag k="addr:city" v="Williamstown"/>
    <tag k="addr:housenumber" v="224"/>
    <tag k="addr:street" v="Garden Street"/>
    <tag k="addr:state" v="VT"/>
    <tag k="ref:vcgi:esiteid" v="287757"/>
  </node>
  <node id="-724" visible="true" lat="44.11941146" lon="-72.55804443">
    <tag k="addr:city" v="Williamstown"/>
    <tag k="addr:housenumber" v="34"/>
    <tag k="addr:street" v="Woodland Heights"/>
    <tag k="addr:state" v="VT"/>
    <tag k="ref:vcgi:esiteid" v="287763"/>
  </node>
  <node id="-725" visible="true" lat="44.11936187" lon="-72.55922698">
    <tag k="addr:city" v="Williamstown"/>
    <tag k="addr:housenumber" v="39"/>
    <tag k="addr:street" v="Woodland Heights"/>
    <tag k="addr:state" v="VT"/>
    <tag k="ref:vcgi:esiteid" v="287765"/>
  </node>
  <node id="-728" visible="true" lat="44.11937036" lon="-72.47772626">
    <tag k="addr:city" v="Williamstown"/>
    <tag k="addr:housenumber" v="1297"/>
    <tag k="addr:street" v="Tower Road"/>
    <tag k="addr:state" v="VT"/>
    <tag k="ref:vcgi:esiteid" v="287768"/>
  </node>
  <node id="-729" visible="true" lat="44.11922813" lon="-72.54433624">
    <tag k="addr:city" v="Williamstown"/>
    <tag k="addr:housenumber" v="232"/>
    <tag k="addr:street" v="Garden Street"/>
    <tag k="addr:state" v="VT"/>
    <tag k="ref:vcgi:esiteid" v="287769"/>
  </node>
  <node id="-730" visible="true" lat="44.11925799" lon="-72.54368387">
    <tag k="addr:city" v="Williamstown"/>
    <tag k="addr:housenumber" v="237"/>
    <tag k="addr:street" v="Garden Street"/>
    <tag k="addr:state" v="VT"/>
    <tag k="ref:vcgi:esiteid" v="287771"/>
  </node>
  <node id="-731" visible="true" lat="44.11923795" lon="-72.54230117">
    <tag k="addr:city" v="Williamstown"/>
    <tag k="addr:housenumber" v="67"/>
    <tag k="addr:street" v="Pleasant Street"/>
    <tag k="addr:state" v="VT"/>
    <tag k="ref:vcgi:esiteid" v="287772"/>
  </node>
  <node id="-736" visible="true" lat="44.11915206" lon="-72.55827331">
    <tag k="addr:city" v="Williamstown"/>
    <tag k="addr:housenumber" v="29"/>
    <tag k="addr:street" v="Woodland Heights"/>
    <tag k="addr:state" v="VT"/>
    <tag k="ref:vcgi:esiteid" v="287777"/>
  </node>
  <node id="-740" visible="true" lat="44.11900385" lon="-72.54392157">
    <tag k="addr:city" v="Williamstown"/>
    <tag k="addr:housenumber" v="238"/>
    <tag k="addr:street" v="Garden Street"/>
    <tag k="addr:state" v="VT"/>
    <tag k="ref:vcgi:esiteid" v="287781"/>
  </node>
  <node id="-746" visible="true" lat="44.11939766" lon="-72.5237052">
    <tag k="addr:city" v="Williamstown"/>
    <tag k="addr:housenumber" v="180"/>
    <tag k="addr:street" v="Erskine Road"/>
    <tag k="addr:state" v="VT"/>
    <tag k="ref:vcgi:esiteid" v="287787"/>
  </node>
  <node id="-772" visible="true" lat="44.11802646" lon="-72.54132006">
    <tag k="addr:city" v="Williamstown"/>
    <tag k="addr:housenumber" v="14"/>
    <tag k="addr:street" v="Spider Web Farm Road"/>
    <tag k="addr:state" v="VT"/>
    <tag k="ref:vcgi:esiteid" v="287813"/>
  </node>
  <node id="-780" visible="true" lat="44.11763763" lon="-72.54165649">
    <tag k="addr:city" v="Williamstown"/>
    <tag k="addr:housenumber" v="41"/>
    <tag k="addr:street" v="Spider Web Farm Road"/>
    <tag k="addr:state" v="VT"/>
    <tag k="ref:vcgi:esiteid" v="287823"/>
  </node>
  <node id="-786" visible="true" lat="44.11736297" lon="-72.54248046">
    <tag k="addr:city" v="Williamstown"/>
    <tag k="addr:housenumber" v="84"/>
    <tag k="addr:street" v="Spider Web Farm Road"/>
    <tag k="addr:state" v="VT"/>
    <tag k="ref:vcgi:esiteid" v="287829"/>
  </node>
  <node id="-787" visible="true" lat="44.11734771" lon="-72.5420227">
    <tag k="addr:city" v="Williamstown"/>
    <tag k="addr:housenumber" v="69"/>
    <tag k="addr:street" v="Spider Web Farm Road"/>
    <tag k="addr:state" v="VT"/>
    <tag k="ref:vcgi:esiteid" v="287830"/>
  </node>
  <node id="-793" visible="true" lat="44.11712673" lon="-72.55830093">
    <tag k="addr:city" v="Williamstown"/>
    <tag k="addr:housenumber" v="233"/>
    <tag k="addr:street" v="Mountain View Drive"/>
    <tag k="addr:state" v="VT"/>
    <tag k="ref:vcgi:esiteid" v="287836"/>
  </node>
  <node id="-796" visible="true" lat="44.11695861" lon="-72.55968475">
    <tag k="addr:city" v="Williamstown"/>
    <tag k="addr:housenumber" v="384"/>
    <tag k="addr:street" v="Mountain View Drive"/>
    <tag k="addr:state" v="VT"/>
    <tag k="ref:vcgi:esiteid" v="287839"/>
  </node>
  <node id="-800" visible="true" lat="44.11668495" lon="-72.55828096">
    <tag k="addr:city" v="Williamstown"/>
    <tag k="addr:housenumber" v="215"/>
    <tag k="addr:street" v="Mountain View Drive"/>
    <tag k="addr:state" v="VT"/>
    <tag k="ref:vcgi:esiteid" v="287843"/>
  </node>
  <node id="-807" visible="true" lat="44.11637848" lon="-72.56034261">
    <tag k="addr:city" v="Williamstown"/>
    <tag k="addr:housenumber" v="39"/>
    <tag k="addr:street" v="Mountain View Drive"/>
    <tag k="addr:state" v="VT"/>
    <tag k="ref:vcgi:esiteid" v="287852"/>
  </node>
  <node id="-811" visible="true" lat="44.11622979" lon="-72.55948766">
    <tag k="addr:city" v="Williamstown"/>
    <tag k="addr:housenumber" v="413"/>
    <tag k="addr:street" v="Mountain View Drive"/>
    <tag k="addr:state" v="VT"/>
    <tag k="ref:vcgi:esiteid" v="287856"/>
  </node>
  <node id="-812" visible="true" lat="44.1162282" lon="-72.53911193">
    <tag k="addr:city" v="Williamstown"/>
    <tag k="addr:housenumber" v="34"/>
    <tag k="addr:street" v="Business Center Road"/>
    <tag k="addr:state" v="VT"/>
    <tag k="ref:vcgi:esiteid" v="287857"/>
  </node>
  <node id="-814" visible="true" lat="44.11605853" lon="-72.48201244">
    <tag k="addr:city" v="Williamstown"/>
    <tag k="addr:housenumber" v="1580"/>
    <tag k="addr:street" v="Tower Road"/>
    <tag k="addr:state" v="VT"/>
    <tag k="ref:vcgi:esiteid" v="287859"/>
  </node>
  <node id="-815" visible="true" lat="44.11612568" lon="-72.53949891">
    <tag k="addr:city" v="Williamstown"/>
    <tag k="addr:housenumber" v="24"/>
    <tag k="addr:street" v="Business Center Road"/>
    <tag k="addr:state" v="VT"/>
    <tag k="ref:vcgi:esiteid" v="287860"/>
  </node>
  <node id="-816" visible="true" lat="44.11614608" lon="-72.55861663">
    <tag k="addr:city" v="Williamstown"/>
    <tag k="addr:housenumber" v="155"/>
    <tag k="addr:street" v="Mountain View Drive"/>
    <tag k="addr:state" v="VT"/>
    <tag k="ref:vcgi:esiteid" v="287861"/>
  </node>
  <node id="-821" visible="true" lat="44.11601898" lon="-72.55785198">
    <tag k="addr:city" v="Williamstown"/>
    <tag k="addr:housenumber" v="172"/>
    <tag k="addr:street" v="Mountain View Drive"/>
    <tag k="addr:state" v="VT"/>
    <tag k="ref:vcgi:esiteid" v="287866"/>
  </node>
  <node id="-824" visible="true" lat="44.1159172" lon="-72.56049346">
    <tag k="addr:city" v="Williamstown"/>
    <tag k="addr:housenumber" v="36"/>
    <tag k="addr:street" v="Mountain View Drive"/>
    <tag k="addr:state" v="VT"/>
    <tag k="ref:vcgi:esiteid" v="287869"/>
  </node>
  <node id="-831" visible="true" lat="44.11570358" lon="-72.55976867">
    <tag k="addr:city" v="Williamstown"/>
    <tag k="addr:housenumber" v="76"/>
    <tag k="addr:street" v="Mountain View Drive"/>
    <tag k="addr:state" v="VT"/>
    <tag k="ref:vcgi:esiteid" v="287876"/>
  </node>
  <node id="-833" visible="true" lat="44.11552235" lon="-72.55899783">
    <tag k="addr:city" v="Williamstown"/>
    <tag k="addr:housenumber" v="118"/>
    <tag k="addr:street" v="Mountain View Drive"/>
    <tag k="addr:state" v="VT"/>
    <tag k="ref:vcgi:esiteid" v="287878"/>
  </node>
  <node id="-841" visible="true" lat="44.11531194" lon="-72.55806028">
    <tag k="addr:city" v="Williamstown"/>
    <tag k="addr:housenumber" v="144"/>
    <tag k="addr:street" v="Mountain View Drive"/>
    <tag k="addr:state" v="VT"/>
    <tag k="ref:vcgi:esiteid" v="287886"/>
  </node>
  <node id="-845" visible="true" lat="44.11530303" lon="-72.48060607">
    <tag k="addr:city" v="Williamstown"/>
    <tag k="addr:housenumber" v="1631"/>
    <tag k="addr:street" v="Tower Road"/>
    <tag k="addr:state" v="VT"/>
    <tag k="ref:vcgi:esiteid" v="287890"/>
  </node>
  <node id="-848" visible="true" lat="44.11512563" lon="-72.48066102">
    <tag k="addr:city" v="Williamstown"/>
    <tag k="addr:housenumber" v="1633"/>
    <tag k="addr:street" v="Tower Road"/>
    <tag k="addr:state" v="VT"/>
    <tag k="ref:vcgi:esiteid" v="287893"/>
  </node>
  <node id="-852" visible="true" lat="44.11495971" lon="-72.56061553">
    <tag k="addr:city" v="Williamstown"/>
    <tag k="addr:housenumber" v="85"/>
    <tag k="addr:street" v="Rood Pond Road"/>
    <tag k="addr:state" v="VT"/>
    <tag k="ref:vcgi:esiteid" v="287897"/>
  </node>
  <node id="-858" visible="true" lat="44.11461608" lon="-72.48297652">
    <tag k="addr:city" v="Williamstown"/>
    <tag k="addr:housenumber" v="1714"/>
    <tag k="addr:street" v="Tower Road"/>
    <tag k="addr:state" v="VT"/>
    <tag k="ref:vcgi:esiteid" v="287903"/>
  </node>
  <node id="-863" visible="true" lat="44.11274493" lon="-72.47209386">
    <tag k="addr:city" v="Williamstown"/>
    <tag k="addr:housenumber" v="536"/>
    <tag k="addr:street" v="Sugarhouse Road"/>
    <tag k="addr:state" v="VT"/>
    <tag k="ref:vcgi:esiteid" v="287908"/>
  </node>
  <node id="-870" visible="true" lat="44.11409369" lon="-72.56395475">
    <tag k="addr:city" v="Williamstown"/>
    <tag k="addr:housenumber" v="206"/>
    <tag k="addr:street" v="Rood Pond Road"/>
    <tag k="addr:state" v="VT"/>
    <tag k="ref:vcgi:esiteid" v="287915"/>
  </node>
  <node id="-878" visible="true" lat="44.1133995" lon="-72.56204223">
    <tag k="addr:city" v="Williamstown"/>
    <tag k="addr:housenumber" v="217"/>
    <tag k="addr:street" v="Rood Pond Road"/>
    <tag k="addr:state" v="VT"/>
    <tag k="ref:vcgi:esiteid" v="287925"/>
  </node>
  <node id="-882" visible="true" lat="44.11310195" lon="-72.4837799">
    <tag k="addr:city" v="Williamstown"/>
    <tag k="addr:housenumber" v="1840"/>
    <tag k="addr:street" v="Tower Road"/>
    <tag k="addr:state" v="VT"/>
    <tag k="ref:vcgi:esiteid" v="287929"/>
  </node>
  <node id="-885" visible="true" lat="44.11274083" lon="-72.56346811">
    <tag k="addr:city" v="Williamstown"/>
    <tag k="addr:housenumber" v="286"/>
    <tag k="addr:street" v="Rood Pond Road"/>
    <tag k="addr:state" v="VT"/>
    <tag k="ref:vcgi:esiteid" v="287932"/>
  </node>
  <node id="-886" visible="true" lat="44.11248779" lon="-72.48413848">
    <tag k="addr:city" v="Williamstown"/>
    <tag k="addr:housenumber" v="1884"/>
    <tag k="addr:street" v="Tower Road"/>
    <tag k="addr:state" v="VT"/>
    <tag k="ref:vcgi:esiteid" v="287933"/>
  </node>
  <node id="-892" visible="true" lat="44.11190795" lon="-72.48451995">
    <tag k="addr:city" v="Williamstown"/>
    <tag k="addr:housenumber" v="1928"/>
    <tag k="addr:street" v="Tower Road"/>
    <tag k="addr:state" v="VT"/>
    <tag k="ref:vcgi:esiteid" v="287939"/>
  </node>
  <node id="-898" visible="true" lat="44.11154174" lon="-72.48467254">
    <tag k="addr:city" v="Williamstown"/>
    <tag k="addr:housenumber" v="1954"/>
    <tag k="addr:street" v="Tower Road"/>
    <tag k="addr:state" v="VT"/>
    <tag k="ref:vcgi:esiteid" v="287945"/>
  </node>
  <node id="-908" visible="true" lat="44.11103057" lon="-72.48488616">
    <tag k="addr:city" v="Williamstown"/>
    <tag k="addr:housenumber" v="1990"/>
    <tag k="addr:street" v="Tower Road"/>
    <tag k="addr:state" v="VT"/>
    <tag k="ref:vcgi:esiteid" v="287955"/>
  </node>
  <node id="-909" visible="true" lat="44.11089324" lon="-72.48612213">
    <tag k="addr:city" v="Williamstown"/>
    <tag k="addr:housenumber" v="2016"/>
    <tag k="addr:street" v="Tower Road"/>
    <tag k="addr:state" v="VT"/>
    <tag k="ref:vcgi:esiteid" v="287956"/>
  </node>
  <node id="-929" visible="true" lat="44.11001586" lon="-72.4853363">
    <tag k="addr:city" v="Williamstown"/>
    <tag k="addr:housenumber" v="2062"/>
    <tag k="addr:street" v="Tower Road"/>
    <tag k="addr:state" v="VT"/>
    <tag k="ref:vcgi:esiteid" v="287976"/>
  </node>
  <node id="-937" visible="true" lat="44.10944747" lon="-72.4857254">
    <tag k="addr:city" v="Williamstown"/>
    <tag k="addr:housenumber" v="2106"/>
    <tag k="addr:street" v="Tower Road"/>
    <tag k="addr:state" v="VT"/>
    <tag k="ref:vcgi:esiteid" v="287984"/>
  </node>
  <node id="-948" visible="true" lat="44.10848617" lon="-72.48574828">
    <tag k="addr:city" v="Williamstown"/>
    <tag k="addr:housenumber" v="2170"/>
    <tag k="addr:street" v="Tower Road"/>
    <tag k="addr:state" v="VT"/>
    <tag k="ref:vcgi:esiteid" v="287995"/>
  </node>
  <node id="-954" visible="true" lat="44.10792541" lon="-72.48603057">
    <tag k="addr:city" v="Williamstown"/>
    <tag k="addr:housenumber" v="2210"/>
    <tag k="addr:street" v="Tower Road"/>
    <tag k="addr:state" v="VT"/>
    <tag k="ref:vcgi:esiteid" v="288001"/>
  </node>
  <node id="-964" visible="true" lat="44.1069107" lon="-72.48674774">
    <tag k="addr:city" v="Williamstown"/>
    <tag k="addr:housenumber" v="2236"/>
    <tag k="addr:street" v="Tower Road"/>
    <tag k="addr:state" v="VT"/>
    <tag k="ref:vcgi:esiteid" v="288011"/>
  </node>
  <node id="-968" visible="true" lat="44.10656356" lon="-72.48657989">
    <tag k="addr:city" v="Williamstown"/>
    <tag k="addr:housenumber" v="2264"/>
    <tag k="addr:street" v="Tower Road"/>
    <tag k="addr:state" v="VT"/>
    <tag k="ref:vcgi:esiteid" v="288015"/>
  </node>
  <node id="-998" visible="true" lat="44.1033055" lon="-72.47450259">
    <tag k="addr:city" v="Williamstown"/>
    <tag k="addr:housenumber" v="505"/>
    <tag k="addr:street" v="Washington Road"/>
    <tag k="addr:state" v="VT"/>
    <tag k="ref:vcgi:esiteid" v="288045"/>
  </node>
  <node id="-1005" visible="true" lat="44.10278701" lon="-72.47999572">
    <tag k="addr:city" v="Williamstown"/>
    <tag k="addr:housenumber" v="276"/>
    <tag k="addr:street" v="Washington Road"/>
    <tag k="addr:state" v="VT"/>
    <tag k="ref:vcgi:esiteid" v="288052"/>
  </node>
  <node id="-1006" visible="true" lat="44.10265731" lon="-72.47631836">
    <tag k="addr:city" v="Williamstown"/>
    <tag k="addr:housenumber" v="453"/>
    <tag k="addr:street" v="Washington Road"/>
    <tag k="addr:state" v="VT"/>
    <tag k="ref:vcgi:esiteid" v="288053"/>
  </node>
  <node id="-1032" visible="true" lat="44.09994125" lon="-72.50870513">
    <tag k="addr:city" v="Williamstown"/>
    <tag k="addr:housenumber" v="2398"/>
    <tag k="addr:street" v="Baptist Street"/>
    <tag k="addr:state" v="VT"/>
    <tag k="ref:vcgi:esiteid" v="288079"/>
  </node>
  <node id="-1038" visible="true" lat="44.09927368" lon="-72.50902557">
    <tag k="addr:city" v="Williamstown"/>
    <tag k="addr:housenumber" v="2446"/>
    <tag k="addr:street" v="Baptist Street"/>
    <tag k="addr:state" v="VT"/>
    <tag k="ref:vcgi:esiteid" v="288085"/>
  </node>
  <node id="-1058" visible="true" lat="44.09640884" lon="-72.5092926">
    <tag k="addr:city" v="Williamstown"/>
    <tag k="addr:housenumber" v="2637"/>
    <tag k="addr:street" v="Baptist Street"/>
    <tag k="addr:state" v="VT"/>
    <tag k="ref:vcgi:esiteid" v="288105"/>
  </node>
  <node id="-1067" visible="true" lat="44.09513092" lon="-72.51071166">
    <tag k="addr:city" v="Williamstown"/>
    <tag k="addr:housenumber" v="2742"/>
    <tag k="addr:street" v="Baptist Street"/>
    <tag k="addr:state" v="VT"/>
    <tag k="ref:vcgi:esiteid" v="288114"/>
  </node>
  <node id="-1076" visible="true" lat="44.09410476" lon="-72.48602294">
    <tag k="addr:city" v="Williamstown"/>
    <tag k="addr:housenumber" v="777"/>
    <tag k="addr:street" v="Grandview Road"/>
    <tag k="addr:state" v="VT"/>
    <tag k="ref:vcgi:esiteid" v="288123"/>
  </node>
  <node id="-1080" visible="true" lat="44.09347759" lon="-72.52301323">
    <tag k="addr:city" v="Williamstown"/>
    <tag k="addr:housenumber" v="1374"/>
    <tag k="addr:street" v="Chelsea Road"/>
    <tag k="addr:state" v="VT"/>
    <tag k="ref:vcgi:esiteid" v="288127"/>
  </node>
  <node id="-1081" visible="true" lat="44.09321981" lon="-72.52181771">
    <tag k="addr:city" v="Williamstown"/>
    <tag k="addr:housenumber" v="1453"/>
    <tag k="addr:street" v="Chelsea Road"/>
    <tag k="addr:state" v="VT"/>
    <tag k="ref:vcgi:esiteid" v="288128"/>
  </node>
  <node id="-1082" visible="true" lat="44.09319686" lon="-72.51107025">
    <tag k="addr:city" v="Williamstown"/>
    <tag k="addr:housenumber" v="2871"/>
    <tag k="addr:street" v="Baptist Street"/>
    <tag k="addr:state" v="VT"/>
    <tag k="ref:vcgi:esiteid" v="288129"/>
  </node>
  <node id="-1091" visible="true" lat="44.09160613" lon="-72.5125122">
    <tag k="addr:city" v="Williamstown"/>
    <tag k="addr:housenumber" v="3001"/>
    <tag k="addr:street" v="Baptist Street"/>
    <tag k="addr:state" v="VT"/>
    <tag k="ref:vcgi:esiteid" v="288139"/>
  </node>
  <node id="-1097" visible="true" lat="44.09056091" lon="-72.51352691">
    <tag k="addr:city" v="Williamstown"/>
    <tag k="addr:housenumber" v="3091"/>
    <tag k="addr:street" v="Baptist Street"/>
    <tag k="addr:state" v="VT"/>
    <tag k="ref:vcgi:esiteid" v="288145"/>
  </node>
  <node id="-1098" visible="true" lat="44.09027099" lon="-72.48130798">
    <tag k="addr:city" v="Williamstown"/>
    <tag k="addr:housenumber" v="985"/>
    <tag k="addr:street" v="Grandview Road"/>
    <tag k="addr:state" v="VT"/>
    <tag k="ref:vcgi:esiteid" v="288146"/>
  </node>
  <node id="-1109" visible="true" lat="44.08801269" lon="-72.51792907">
    <tag k="addr:city" v="Williamstown"/>
    <tag k="addr:housenumber" v="1890"/>
    <tag k="addr:street" v="Chelsea Road"/>
    <tag k="addr:state" v="VT"/>
    <tag k="ref:vcgi:esiteid" v="288157"/>
  </node>
  <node id="-1110" visible="true" lat="44.0878601" lon="-72.57784271">
    <tag k="addr:city" v="Williamstown"/>
    <tag k="addr:housenumber" v="2256"/>
    <tag k="addr:street" v="Rood Pond Road"/>
    <tag k="addr:state" v="VT"/>
    <tag k="ref:vcgi:esiteid" v="288158"/>
  </node>
  <node id="-1111" visible="true" lat="44.08774566" lon="-72.579216">
    <tag k="addr:city" v="Williamstown"/>
    <tag k="addr:housenumber" v="2338"/>
    <tag k="addr:street" v="Rood Pond Road"/>
    <tag k="addr:state" v="VT"/>
    <tag k="ref:vcgi:esiteid" v="288159"/>
  </node>
  <node id="-1113" visible="true" lat="44.08770751" lon="-72.5774765">
    <tag k="addr:city" v="Williamstown"/>
    <tag k="addr:housenumber" v="2239"/>
    <tag k="addr:street" v="Rood Pond Road"/>
    <tag k="addr:state" v="VT"/>
    <tag k="ref:vcgi:esiteid" v="288161"/>
  </node>
  <node id="-1115" visible="true" lat="44.087471" lon="-72.51674651">
    <tag k="addr:city" v="Williamstown"/>
    <tag k="addr:housenumber" v="3357"/>
    <tag k="addr:street" v="Baptist Street"/>
    <tag k="addr:state" v="VT"/>
    <tag k="ref:vcgi:esiteid" v="288163"/>
  </node>
  <node id="-1116" visible="true" lat="44.08713149" lon="-72.51828765">
    <tag k="addr:city" v="Williamstown"/>
    <tag k="addr:housenumber" v="28"/>
    <tag k="addr:street" v="Carpenter Road"/>
    <tag k="addr:state" v="VT"/>
    <tag k="ref:vcgi:esiteid" v="288164"/>
  </node>
  <node id="-1117" visible="true" lat="44.08703231" lon="-72.51805114">
    <tag k="addr:city" v="Williamstown"/>
    <tag k="addr:housenumber" v="26"/>
    <tag k="addr:street" v="Carpenter Road"/>
    <tag k="addr:state" v="VT"/>
    <tag k="ref:vcgi:esiteid" v="288165"/>
  </node>
  <node id="-1119" visible="true" lat="44.08588028" lon="-72.58158874">
    <tag k="addr:city" v="Williamstown"/>
    <tag k="addr:housenumber" v="2510"/>
    <tag k="addr:street" v="Rood Pond Road"/>
    <tag k="addr:state" v="VT"/>
    <tag k="ref:vcgi:esiteid" v="288167"/>
  </node>
  <node id="-1120" visible="true" lat="44.08560102" lon="-72.57959993">
    <tag k="addr:city" v="Williamstown"/>
    <tag k="addr:housenumber" v="2439"/>
    <tag k="addr:street" v="Rood Pond Road"/>
    <tag k="addr:state" v="VT"/>
    <tag k="ref:vcgi:esiteid" v="288168"/>
  </node>
  <node id="-1121" visible="true" lat="44.08560865" lon="-72.51581371">
    <tag k="addr:city" v="Williamstown"/>
    <tag k="addr:housenumber" v="2087"/>
    <tag k="addr:street" v="Chelsea Road"/>
    <tag k="addr:state" v="VT"/>
    <tag k="ref:vcgi:esiteid" v="288169"/>
  </node>
  <node id="-1122" visible="true" lat="44.08529522" lon="-72.60193987">
    <tag k="addr:city" v="Williamstown"/>
    <tag k="addr:housenumber" v="1819"/>
    <tag k="addr:street" v="Stone Road"/>
    <tag k="addr:state" v="VT"/>
    <tag k="ref:vcgi:esiteid" v="288170"/>
  </node>
  <node id="-1125" visible="true" lat="44.08507537" lon="-72.51668548">
    <tag k="addr:city" v="Williamstown"/>
    <tag k="addr:housenumber" v="2074"/>
    <tag k="addr:street" v="Chelsea Road"/>
    <tag k="addr:state" v="VT"/>
    <tag k="ref:vcgi:esiteid" v="288173"/>
  </node>
  <node id="-1126" visible="true" lat="44.08501815" lon="-72.58039855">
    <tag k="addr:city" v="Williamstown"/>
    <tag k="addr:housenumber" v="2499"/>
    <tag k="addr:street" v="Rood Pond Road"/>
    <tag k="addr:state" v="VT"/>
    <tag k="ref:vcgi:esiteid" v="288174"/>
  </node>
  <node id="-1128" visible="true" lat="44.08468246" lon="-72.58090972">
    <tag k="addr:city" v="Williamstown"/>
    <tag k="addr:housenumber" v="2535"/>
    <tag k="addr:street" v="Rood Pond Road"/>
    <tag k="addr:state" v="VT"/>
    <tag k="ref:vcgi:esiteid" v="288176"/>
  </node>
  <node id="-1132" visible="true" lat="44.08403778" lon="-72.51634979">
    <tag k="addr:city" v="Williamstown"/>
    <tag k="addr:housenumber" v="2156"/>
    <tag k="addr:street" v="Chelsea Road"/>
    <tag k="addr:state" v="VT"/>
    <tag k="ref:vcgi:esiteid" v="288180"/>
  </node>
  <node id="-1134" visible="true" lat="44.08371734" lon="-72.58287048">
    <tag k="addr:city" v="Williamstown"/>
    <tag k="addr:housenumber" v="2658"/>
    <tag k="addr:street" v="Rood Pond Road"/>
    <tag k="addr:state" v="VT"/>
    <tag k="ref:vcgi:esiteid" v="288182"/>
  </node>
  <node id="-1135" visible="true" lat="44.08349609" lon="-72.51396942">
    <tag k="addr:city" v="Williamstown"/>
    <tag k="addr:housenumber" v="2251"/>
    <tag k="addr:street" v="Chelsea Road"/>
    <tag k="addr:state" v="VT"/>
    <tag k="ref:vcgi:esiteid" v="288183"/>
  </node>
  <node id="-1139" visible="true" lat="44.08309936" lon="-72.51540374">
    <tag k="addr:city" v="Williamstown"/>
    <tag k="addr:housenumber" v="2246"/>
    <tag k="addr:street" v="Chelsea Road"/>
    <tag k="addr:state" v="VT"/>
    <tag k="ref:vcgi:esiteid" v="288187"/>
  </node>
  <node id="-1140" visible="true" lat="44.08291625" lon="-72.58231353">
    <tag k="addr:city" v="Williamstown"/>
    <tag k="addr:housenumber" v="2671"/>
    <tag k="addr:street" v="Rood Pond Road"/>
    <tag k="addr:state" v="VT"/>
    <tag k="ref:vcgi:esiteid" v="288188"/>
  </node>
  <node id="-1141" visible="true" lat="44.08283615" lon="-72.58311462">
    <tag k="addr:city" v="Williamstown"/>
    <tag k="addr:housenumber" v="2706"/>
    <tag k="addr:street" v="Rood Pond Road"/>
    <tag k="addr:state" v="VT"/>
    <tag k="ref:vcgi:esiteid" v="288189"/>
  </node>
  <node id="-1148" visible="true" lat="44.08079528" lon="-72.58499145">
    <tag k="addr:city" v="Williamstown"/>
    <tag k="addr:housenumber" v="2877"/>
    <tag k="addr:street" v="Rood Pond Road"/>
    <tag k="addr:state" v="VT"/>
    <tag k="ref:vcgi:esiteid" v="288196"/>
  </node>
  <node id="-1149" visible="true" lat="44.08019638" lon="-72.54219055">
    <tag k="addr:city" v="Williamstown"/>
    <tag k="addr:housenumber" v="308"/>
    <tag k="addr:street" v="Graham Road"/>
    <tag k="addr:state" v="VT"/>
    <tag k="ref:vcgi:esiteid" v="288197"/>
  </node>
  <node id="-1150" visible="true" lat="44.0798645" lon="-72.58809661">
    <tag k="addr:city" v="Williamstown"/>
    <tag k="addr:housenumber" v="3014"/>
    <tag k="addr:street" v="Rood Pond Road"/>
    <tag k="addr:state" v="VT"/>
    <tag k="ref:vcgi:esiteid" v="288198"/>
  </node>
  <node id="-1151" visible="true" lat="44.07933044" lon="-72.54203033">
    <tag k="addr:city" v="Williamstown"/>
    <tag k="addr:housenumber" v="352"/>
    <tag k="addr:street" v="Graham Road"/>
    <tag k="addr:state" v="VT"/>
    <tag k="ref:vcgi:esiteid" v="288199"/>
  </node>
  <node id="-1152" visible="true" lat="44.07925796" lon="-72.51276397">
    <tag k="addr:city" v="Williamstown"/>
    <tag k="addr:housenumber" v="2540"/>
    <tag k="addr:street" v="Chelsea Road"/>
    <tag k="addr:state" v="VT"/>
    <tag k="ref:vcgi:esiteid" v="288200"/>
  </node>
  <node id="-1153" visible="true" lat="44.07890319" lon="-72.58927154">
    <tag k="addr:city" v="Williamstown"/>
    <tag k="addr:housenumber" v="3128"/>
    <tag k="addr:street" v="Rood Pond Road"/>
    <tag k="addr:state" v="VT"/>
    <tag k="ref:vcgi:esiteid" v="288201"/>
  </node>
  <node id="-1154" visible="true" lat="44.07878112" lon="-72.51211547">
    <tag k="addr:city" v="Williamstown"/>
    <tag k="addr:housenumber" v="2586"/>
    <tag k="addr:street" v="Chelsea Road"/>
    <tag k="addr:state" v="VT"/>
    <tag k="ref:vcgi:esiteid" v="288202"/>
  </node>
  <node id="-1155" visible="true" lat="44.07865142" lon="-72.58951568">
    <tag k="addr:city" v="Williamstown"/>
    <tag k="addr:housenumber" v="3166"/>
    <tag k="addr:street" v="Rood Pond Road"/>
    <tag k="addr:state" v="VT"/>
    <tag k="ref:vcgi:esiteid" v="288203"/>
  </node>
  <node id="-1157" visible="true" lat="44.07862091" lon="-72.51109313">
    <tag k="addr:city" v="Williamstown"/>
    <tag k="addr:housenumber" v="2627"/>
    <tag k="addr:street" v="Chelsea Road"/>
    <tag k="addr:state" v="VT"/>
    <tag k="ref:vcgi:esiteid" v="288205"/>
  </node>
  <node id="-1159" visible="true" lat="44.07804305" lon="-72.59025074">
    <tag k="addr:city" v="Williamstown"/>
    <tag k="addr:housenumber" v="3224"/>
    <tag k="addr:street" v="Rood Pond Road"/>
    <tag k="addr:state" v="VT"/>
    <tag k="ref:vcgi:esiteid" v="288207"/>
  </node>
  <node id="-1160" visible="true" lat="44.07759857" lon="-72.51070404">
    <tag k="addr:city" v="Williamstown"/>
    <tag k="addr:housenumber" v="2690"/>
    <tag k="addr:street" v="Chelsea Road"/>
    <tag k="addr:state" v="VT"/>
    <tag k="ref:vcgi:esiteid" v="288208"/>
  </node>
  <node id="-1162" visible="true" lat="44.07688018" lon="-72.54370293">
    <tag k="addr:city" v="Williamstown"/>
    <tag k="addr:housenumber" v="541"/>
    <tag k="addr:street" v="Graham Road"/>
    <tag k="addr:state" v="VT"/>
    <tag k="ref:vcgi:esiteid" v="288210"/>
  </node>
  <node id="-1163" visible="true" lat="44.07624435" lon="-72.50556182">
    <tag k="addr:city" v="Williamstown"/>
    <tag k="addr:housenumber" v="2960"/>
    <tag k="addr:street" v="Grandview Road"/>
    <tag k="addr:state" v="VT"/>
    <tag k="ref:vcgi:esiteid" v="288211"/>
  </node>
  <node id="-1164" visible="true" lat="44.07591629" lon="-72.53187561">
    <tag k="addr:city" v="Williamstown"/>
    <tag k="addr:housenumber" v="2458"/>
    <tag k="addr:street" v="South Hill Road"/>
    <tag k="addr:state" v="VT"/>
    <tag k="ref:vcgi:esiteid" v="288212"/>
  </node>
  <node id="-1165" visible="true" lat="44.07588577" lon="-72.54587554">
    <tag k="addr:city" v="Williamstown"/>
    <tag k="addr:housenumber" v="666"/>
    <tag k="addr:street" v="Graham Road"/>
    <tag k="addr:state" v="VT"/>
    <tag k="ref:vcgi:esiteid" v="288213"/>
  </node>
  <node id="-1166" visible="true" lat="44.07467269" lon="-72.50748443">
    <tag k="addr:city" v="Williamstown"/>
    <tag k="addr:housenumber" v="26"/>
    <tag k="addr:street" v="Stellar Road"/>
    <tag k="addr:state" v="VT"/>
    <tag k="ref:vcgi:esiteid" v="288214"/>
  </node>
  <node id="-1167" visible="true" lat="44.07460784" lon="-72.53453064">
    <tag k="addr:city" v="Williamstown"/>
    <tag k="addr:housenumber" v="144"/>
    <tag k="addr:street" v="Lighthouse Hill Road"/>
    <tag k="addr:state" v="VT"/>
    <tag k="ref:vcgi:esiteid" v="288215"/>
  </node>
  <node id="-1168" visible="true" lat="44.07414627" lon="-72.50736236">
    <tag k="addr:city" v="Williamstown"/>
    <tag k="addr:housenumber" v="57"/>
    <tag k="addr:street" v="Stellar Road"/>
    <tag k="addr:state" v="VT"/>
    <tag k="ref:vcgi:esiteid" v="288216"/>
  </node>
  <node id="-1169" visible="true" lat="44.07405853" lon="-72.54689025">
    <tag k="addr:city" v="Williamstown"/>
    <tag k="addr:housenumber" v="759"/>
    <tag k="addr:street" v="Graham Road"/>
    <tag k="addr:state" v="VT"/>
    <tag k="ref:vcgi:esiteid" v="288217"/>
  </node>
  <node id="-1170" visible="true" lat="44.0734558" lon="-72.54765319">
    <tag k="addr:city" v="Williamstown"/>
    <tag k="addr:housenumber" v="859"/>
    <tag k="addr:street" v="Graham Road"/>
    <tag k="addr:state" v="VT"/>
    <tag k="ref:vcgi:esiteid" v="288218"/>
  </node>
  <node id="-1171" visible="true" lat="44.07331085" lon="-72.50563812">
    <tag k="addr:city" v="Williamstown"/>
    <tag k="addr:housenumber" v="3101"/>
    <tag k="addr:street" v="Chelsea Road"/>
    <tag k="addr:state" v="VT"/>
    <tag k="ref:vcgi:esiteid" v="288219"/>
  </node>
  <node id="-1172" visible="true" lat="44.07324981" lon="-72.54953002">
    <tag k="addr:city" v="Williamstown"/>
    <tag k="addr:housenumber" v="890"/>
    <tag k="addr:street" v="Graham Road"/>
    <tag k="addr:state" v="VT"/>
    <tag k="ref:vcgi:esiteid" v="288220"/>
  </node>
  <node id="-1173" visible="true" lat="44.07303237" lon="-72.5083847">
    <tag k="addr:city" v="Williamstown"/>
    <tag k="addr:housenumber" v="144"/>
    <tag k="addr:street" v="Stellar Road"/>
    <tag k="addr:state" v="VT"/>
    <tag k="ref:vcgi:esiteid" v="288221"/>
  </node>
  <node id="-1175" visible="true" lat="44.07213211" lon="-72.50764465">
    <tag k="addr:city" v="Williamstown"/>
    <tag k="addr:housenumber" v="163"/>
    <tag k="addr:street" v="Stellar Road"/>
    <tag k="addr:state" v="VT"/>
    <tag k="ref:vcgi:esiteid" v="288223"/>
  </node>
  <node id="-1176" visible="true" lat="44.07172775" lon="-72.5510559">
    <tag k="addr:city" v="Williamstown"/>
    <tag k="addr:housenumber" v="1076"/>
    <tag k="addr:street" v="Graham Road"/>
    <tag k="addr:state" v="VT"/>
    <tag k="ref:vcgi:esiteid" v="288224"/>
  </node>
  <node id="-1178" visible="true" lat="44.0702448" lon="-72.53652872">
    <tag k="addr:city" v="Williamstown"/>
    <tag k="addr:housenumber" v="422"/>
    <tag k="addr:street" v="Lighthouse Hill Road"/>
    <tag k="addr:state" v="VT"/>
    <tag k="ref:vcgi:esiteid" v="288226"/>
  </node>
  <node id="-1180" visible="true" lat="44.07041931" lon="-72.5079956">
    <tag k="addr:city" v="Williamstown"/>
    <tag k="addr:housenumber" v="325"/>
    <tag k="addr:street" v="Stellar Road"/>
    <tag k="addr:state" v="VT"/>
    <tag k="ref:vcgi:esiteid" v="288228"/>
  </node>
  <node id="-1181" visible="true" lat="44.06996154" lon="-72.49887085">
    <tag k="addr:city" v="Williamstown"/>
    <tag k="addr:housenumber" v="3471"/>
    <tag k="addr:street" v="Chelsea Road"/>
    <tag k="addr:state" v="VT"/>
    <tag k="ref:vcgi:esiteid" v="288229"/>
  </node>
  <node id="-1182" visible="true" lat="44.06968307" lon="-72.49845123">
    <tag k="addr:city" v="Williamstown"/>
    <tag k="addr:housenumber" v="3473"/>
    <tag k="addr:street" v="Chelsea Road"/>
    <tag k="addr:state" v="VT"/>
    <tag k="ref:vcgi:esiteid" v="288230"/>
  </node>
  <node id="-1183" visible="true" lat="44.06977932" lon="-72.5348867">
    <tag k="addr:city" v="Williamstown"/>
    <tag k="addr:housenumber" v="489"/>
    <tag k="addr:street" v="Lighthouse Hill Road"/>
    <tag k="addr:state" v="VT"/>
    <tag k="ref:vcgi:esiteid" v="288231"/>
  </node>
  <node id="-1184" visible="true" lat="44.06957536" lon="-72.50006975">
    <tag k="addr:city" v="Williamstown"/>
    <tag k="addr:housenumber" v="3469"/>
    <tag k="addr:street" v="Chelsea Road"/>
    <tag k="addr:state" v="VT"/>
    <tag k="ref:vcgi:esiteid" v="288232"/>
  </node>
  <node id="-1185" visible="true" lat="44.06880569" lon="-72.49882507">
    <tag k="addr:city" v="Williamstown"/>
    <tag k="addr:housenumber" v="3545"/>
    <tag k="addr:street" v="Chelsea Road"/>
    <tag k="addr:state" v="VT"/>
    <tag k="ref:vcgi:esiteid" v="288233"/>
  </node>
  <node id="-1186" visible="true" lat="44.06853866" lon="-72.53492736">
    <tag k="addr:city" v="Williamstown"/>
    <tag k="addr:housenumber" v="563"/>
    <tag k="addr:street" v="Lighthouse Hill Road"/>
    <tag k="addr:state" v="VT"/>
    <tag k="ref:vcgi:esiteid" v="288234"/>
  </node>
  <node id="-1187" visible="true" lat="44.06672286" lon="-72.52684783">
    <tag k="addr:city" v="Williamstown"/>
    <tag k="addr:housenumber" v="3160"/>
    <tag k="addr:street" v="South Hill Road"/>
    <tag k="addr:state" v="VT"/>
    <tag k="ref:vcgi:esiteid" v="288235"/>
  </node>
  <node id="-1188" visible="true" lat="44.06672286" lon="-72.51010894">
    <tag k="addr:city" v="Williamstown"/>
    <tag k="addr:housenumber" v="596"/>
    <tag k="addr:street" v="Stellar Road"/>
    <tag k="addr:state" v="VT"/>
    <tag k="ref:vcgi:esiteid" v="288236"/>
  </node>
  <node id="-1189" visible="true" lat="44.06657409" lon="-72.4967041">
    <tag k="addr:city" v="Williamstown"/>
    <tag k="addr:housenumber" v="3752"/>
    <tag k="addr:street" v="Chelsea Road"/>
    <tag k="addr:state" v="VT"/>
    <tag k="ref:vcgi:esiteid" v="288237"/>
  </node>
  <node id="-1190" visible="true" lat="44.06576919" lon="-72.52558136">
    <tag k="addr:city" v="Williamstown"/>
    <tag k="addr:housenumber" v="3242"/>
    <tag k="addr:street" v="South Hill Road"/>
    <tag k="addr:state" v="VT"/>
    <tag k="ref:vcgi:esiteid" v="288239"/>
  </node>
  <node id="-1191" visible="true" lat="44.05998977" lon="-72.50503997">
    <tag k="addr:city" v="Williamstown"/>
    <tag k="addr:housenumber" v="1187"/>
    <tag k="addr:street" v="Stellar Road"/>
    <tag k="addr:state" v="VT"/>
    <tag k="ref:vcgi:esiteid" v="288240"/>
  </node>
  <node id="-1192" visible="true" lat="44.05910471" lon="-72.50411931">
    <tag k="addr:city" v="Williamstown"/>
    <tag k="addr:housenumber" v="1263"/>
    <tag k="addr:street" v="Stellar Road"/>
    <tag k="addr:state" v="VT"/>
    <tag k="ref:vcgi:esiteid" v="288241"/>
  </node>
  <node id="-1193" visible="true" lat="44.05843353" lon="-72.50349426">
    <tag k="addr:city" v="Williamstown"/>
    <tag k="addr:housenumber" v="1307"/>
    <tag k="addr:street" v="Stellar Road"/>
    <tag k="addr:state" v="VT"/>
    <tag k="ref:vcgi:esiteid" v="288242"/>
  </node>
  <node id="-1194" visible="true" lat="44.05766118" lon="-72.50330557">
    <tag k="addr:city" v="Williamstown"/>
    <tag k="addr:housenumber" v="1350"/>
    <tag k="addr:street" v="Stellar Road"/>
    <tag k="addr:state" v="VT"/>
    <tag k="ref:vcgi:esiteid" v="288243"/>
  </node>
  <node id="-1195" visible="true" lat="44.0579145" lon="-72.50248912">
    <tag k="addr:city" v="Williamstown"/>
    <tag k="addr:housenumber" v="1377"/>
    <tag k="addr:street" v="Stellar Road"/>
    <tag k="addr:state" v="VT"/>
    <tag k="ref:vcgi:esiteid" v="288244"/>
  </node>
  <node id="-1196" visible="true" lat="44.05746262" lon="-72.50231496">
    <tag k="addr:city" v="Williamstown"/>
    <tag k="addr:housenumber" v="1401"/>
    <tag k="addr:street" v="Stellar Road"/>
    <tag k="addr:state" v="VT"/>
    <tag k="ref:vcgi:esiteid" v="288245"/>
  </node>
  <node id="-1197" visible="true" lat="44.05669784" lon="-72.50148773">
    <tag k="addr:city" v="Williamstown"/>
    <tag k="addr:housenumber" v="1471"/>
    <tag k="addr:street" v="Stellar Road"/>
    <tag k="addr:state" v="VT"/>
    <tag k="ref:vcgi:esiteid" v="288246"/>
  </node>
  <node id="-1198" visible="true" lat="44.05626678" lon="-72.49998474">
    <tag k="addr:city" v="Williamstown"/>
    <tag k="addr:housenumber" v="1551"/>
    <tag k="addr:street" v="Stellar Road"/>
    <tag k="addr:state" v="VT"/>
    <tag k="ref:vcgi:esiteid" v="288247"/>
  </node>
  <node id="-1199" visible="true" lat="44.14228754" lon="-72.51177607">
    <tag k="addr:city" v="Williamstown"/>
    <tag k="addr:housenumber" v="1213"/>
    <tag k="addr:street" v="McGlynn Road"/>
    <tag k="addr:state" v="VT"/>
    <tag k="ref:vcgi:esiteid" v="288248"/>
  </node>
  <node id="-1206" visible="true" lat="44.11341962" lon="-72.56339977">
    <tag k="addr:city" v="Williamstown"/>
    <tag k="addr:housenumber" v="250"/>
    <tag k="addr:street" v="Rood Pond Road"/>
    <tag k="addr:state" v="VT"/>
    <tag k="ref:vcgi:esiteid" v="288255"/>
  </node>
  <node id="-1217" visible="true" lat="44.1252098" lon="-72.53415679">
    <tag k="addr:city" v="Williamstown"/>
    <tag k="addr:housenumber" v="180"/>
    <tag k="addr:street" v="Brockway Hill Road"/>
    <tag k="addr:state" v="VT"/>
    <tag k="ref:vcgi:esiteid" v="288268"/>
  </node>
  <node id="-1234" visible="true" lat="44.10533142" lon="-72.48515319">
    <tag k="addr:city" v="Williamstown"/>
    <tag k="addr:housenumber" v="2393"/>
    <tag k="addr:street" v="Tower Road"/>
    <tag k="addr:state" v="VT"/>
    <tag k="ref:vcgi:esiteid" v="288286"/>
  </node>
  <node id="-1238" visible="true" lat="44.08456345" lon="-72.61038243">
    <tag k="addr:city" v="Williamstown"/>
    <tag k="addr:housenumber" v="404"/>
    <tag k="addr:street" v="Macdonald Road"/>
    <tag k="addr:state" v="VT"/>
    <tag k="ref:vcgi:esiteid" v="288290"/>
  </node>
  <node id="-1242" visible="true" lat="44.07968703" lon="-72.50413488">
    <tag k="addr:city" v="Williamstown"/>
    <tag k="addr:housenumber" v="2486"/>
    <tag k="addr:street" v="Grandview Road"/>
    <tag k="addr:state" v="VT"/>
    <tag k="ref:vcgi:esiteid" v="288294"/>
  </node>
  <node id="-1245" visible="true" lat="44.12125157" lon="-72.54023203">
    <tag k="addr:city" v="Williamstown"/>
    <tag k="addr:housenumber" v="145"/>
    <tag k="addr:street" v="Depot Street"/>
    <tag k="addr:state" v="VT"/>
    <tag k="ref:vcgi:esiteid" v="288297"/>
  </node>
  <node id="-1248" visible="true" lat="44.12123489" lon="-72.54193115">
    <tag k="addr:city" v="Williamstown"/>
    <tag k="addr:housenumber" v="47"/>
    <tag k="addr:street" v="Garden Street"/>
    <tag k="addr:state" v="VT"/>
    <tag k="ref:vcgi:esiteid" v="288300"/>
  </node>
  <node id="-1261" visible="true" lat="44.11447524" lon="-72.47097778">
    <tag k="addr:city" v="Williamstown"/>
    <tag k="addr:housenumber" v="561"/>
    <tag k="addr:street" v="Sugarhouse Road"/>
    <tag k="addr:state" v="VT"/>
    <tag k="ref:vcgi:esiteid" v="288315"/>
  </node>
  <node id="-1262" visible="true" lat="44.11371612" lon="-72.47003936">
    <tag k="addr:city" v="Williamstown"/>
    <tag k="addr:housenumber" v="635"/>
    <tag k="addr:street" v="Sugarhouse Road"/>
    <tag k="addr:state" v="VT"/>
    <tag k="ref:vcgi:esiteid" v="288316"/>
  </node>
  <node id="-1263" visible="true" lat="44.11429164" lon="-72.47020908">
    <tag k="addr:city" v="Williamstown"/>
    <tag k="addr:housenumber" v="615"/>
    <tag k="addr:street" v="Sugarhouse Road"/>
    <tag k="addr:state" v="VT"/>
    <tag k="ref:vcgi:esiteid" v="288317"/>
  </node>
  <node id="-1268" visible="true" lat="44.12304175" lon="-72.53894209">
    <tag k="addr:city" v="Williamstown"/>
    <tag k="addr:housenumber" v="111"/>
    <tag k="addr:street" v="Meadow Street"/>
    <tag k="addr:state" v="VT"/>
    <tag k="ref:vcgi:esiteid" v="288322"/>
  </node>
  <node id="-1269" visible="true" lat="44.12295566" lon="-72.53749897">
    <tag k="addr:city" v="Williamstown"/>
    <tag k="addr:housenumber" v="183"/>
    <tag k="addr:street" v="Meadow Street"/>
    <tag k="addr:state" v="VT"/>
    <tag k="ref:vcgi:esiteid" v="288323"/>
  </node>
  <node id="-1270" visible="true" lat="44.12307521" lon="-72.5381346">
    <tag k="addr:city" v="Williamstown"/>
    <tag k="addr:housenumber" v="167"/>
    <tag k="addr:street" v="Meadow Street"/>
    <tag k="addr:state" v="VT"/>
    <tag k="ref:vcgi:esiteid" v="288324"/>
  </node>
  <node id="-1283" visible="true" lat="44.11607437" lon="-72.54103631">
    <tag k="addr:city" v="Williamstown"/>
    <tag k="addr:housenumber" v="63"/>
    <tag k="addr:street" v="Williamstown Square"/>
    <tag k="addr:state" v="VT"/>
    <tag k="ref:vcgi:esiteid" v="288338"/>
  </node>
  <node id="-1284" visible="true" lat="44.11627243" lon="-72.54039971">
    <tag k="addr:city" v="Williamstown"/>
    <tag k="addr:housenumber" v="25"/>
    <tag k="addr:street" v="Williamstown Square"/>
    <tag k="addr:state" v="VT"/>
    <tag k="ref:vcgi:esiteid" v="288339"/>
  </node>
  <node id="-1285" visible="true" lat="44.11636104" lon="-72.54087623">
    <tag k="addr:city" v="Williamstown"/>
    <tag k="addr:housenumber" v="77"/>
    <tag k="addr:street" v="Williamstown Square"/>
    <tag k="addr:state" v="VT"/>
    <tag k="ref:vcgi:esiteid" v="288340"/>
  </node>
  <node id="-1286" visible="true" lat="44.1159439" lon="-72.54056549">
    <tag k="addr:city" v="Williamstown"/>
    <tag k="addr:housenumber" v="47"/>
    <tag k="addr:street" v="Williamstown Square"/>
    <tag k="addr:state" v="VT"/>
    <tag k="ref:vcgi:esiteid" v="288341"/>
  </node>
  <node id="-1290" visible="true" lat="44.14135307" lon="-72.50778601">
    <tag k="addr:city" v="Williamstown"/>
    <tag k="addr:housenumber" v="988"/>
    <tag k="addr:street" v="McGlynn Road"/>
    <tag k="addr:state" v="VT"/>
    <tag k="ref:vcgi:esiteid" v="288345"/>
  </node>
  <node id="-1291" visible="true" lat="44.14152834" lon="-72.51229277">
    <tag k="addr:city" v="Williamstown"/>
    <tag k="addr:housenumber" v="1157"/>
    <tag k="addr:street" v="McGlynn Road"/>
    <tag k="addr:state" v="VT"/>
    <tag k="ref:vcgi:esiteid" v="288346"/>
  </node>
  <node id="-1303" visible="true" lat="44.12568693" lon="-72.47351388">
    <tag k="addr:city" v="Williamstown"/>
    <tag k="addr:housenumber" v="831"/>
    <tag k="addr:street" v="Tower Road"/>
    <tag k="addr:state" v="VT"/>
    <tag k="ref:vcgi:esiteid" v="288358"/>
  </node>
  <node id="-1307" visible="true" lat="44.15463426" lon="-72.54125687">
    <tag k="addr:city" v="Williamstown"/>
    <tag k="addr:housenumber" v="1215"/>
    <tag k="addr:street" v="Falls Bridge Road"/>
    <tag k="addr:state" v="VT"/>
    <tag k="ref:vcgi:esiteid" v="288362"/>
  </node>
  <node id="-1310" visible="true" lat="44.07751804" lon="-72.50969621">
    <tag k="addr:city" v="Williamstown"/>
    <tag k="addr:housenumber" v="2737"/>
    <tag k="addr:street" v="Chelsea Road"/>
    <tag k="addr:state" v="VT"/>
    <tag k="ref:vcgi:esiteid" v="288365"/>
  </node>
  <node id="-1315" visible="true" lat="44.13711887" lon="-72.47014625">
    <tag k="addr:city" v="Williamstown"/>
    <tag k="addr:housenumber" v="202"/>
    <tag k="addr:street" v="McCarthy Road"/>
    <tag k="addr:state" v="VT"/>
    <tag k="ref:vcgi:esiteid" v="288371"/>
  </node>
  <node id="-1316" visible="true" lat="44.12508744" lon="-72.54170401">
    <tag k="addr:city" v="Williamstown"/>
    <tag k="addr:housenumber" v="73"/>
    <tag k="addr:street" v="High Street"/>
    <tag k="addr:state" v="VT"/>
    <tag k="ref:vcgi:esiteid" v="288372"/>
  </node>
  <node id="-1319" visible="true" lat="44.12478518" lon="-72.53352121">
    <tag k="addr:city" v="Williamstown"/>
    <tag k="addr:housenumber" v="91"/>
    <tag k="addr:street" v="Railroad Street"/>
    <tag k="addr:state" v="VT"/>
    <tag k="ref:vcgi:esiteid" v="288375"/>
  </node>
  <node id="-1326" visible="true" lat="44.08583037" lon="-72.51800376">
    <tag k="addr:city" v="Williamstown"/>
    <tag k="addr:housenumber" v="129"/>
    <tag k="addr:street" v="Carpenter Road"/>
    <tag k="addr:state" v="VT"/>
    <tag k="ref:vcgi:esiteid" v="288383"/>
  </node>
  <node id="-1327" visible="true" lat="44.10142545" lon="-72.47642002">
    <tag k="addr:city" v="Williamstown"/>
    <tag k="addr:housenumber" v="476"/>
    <tag k="addr:street" v="Washington Road"/>
    <tag k="addr:state" v="VT"/>
    <tag k="ref:vcgi:esiteid" v="288384"/>
  </node>
  <node id="-1339" visible="true" lat="44.10321975" lon="-72.48236566">
    <tag k="addr:city" v="Williamstown"/>
    <tag k="addr:housenumber" v="178"/>
    <tag k="addr:street" v="Washington Road"/>
    <tag k="addr:state" v="VT"/>
    <tag k="ref:vcgi:esiteid" v="288397"/>
  </node>
  <node id="-1344" visible="true" lat="44.06587269" lon="-72.49546197">
    <tag k="addr:city" v="Williamstown"/>
    <tag k="addr:housenumber" v="3802"/>
    <tag k="addr:street" v="Chelsea Road"/>
    <tag k="addr:state" v="VT"/>
    <tag k="ref:vcgi:esiteid" v="288402"/>
  </node>
  <node id="-1348" visible="true" lat="44.09023076" lon="-72.62744893">
    <tag k="addr:city" v="Williamstown"/>
    <tag k="addr:housenumber" v="329"/>
    <tag k="addr:street" v="Frost Road"/>
    <tag k="addr:state" v="VT"/>
    <tag k="ref:vcgi:esiteid" v="288406"/>
  </node>
  <node id="-1350" visible="true" lat="44.11345321" lon="-72.48086027">
    <tag k="addr:city" v="Williamstown"/>
    <tag k="addr:housenumber" v="1731"/>
    <tag k="addr:street" v="Tower Road"/>
    <tag k="addr:state" v="VT"/>
    <tag k="ref:vcgi:esiteid" v="288408"/>
  </node>
  <node id="-1351" visible="true" lat="44.12950126" lon="-72.47188193">
    <tag k="addr:city" v="Williamstown"/>
    <tag k="addr:housenumber" v="593"/>
    <tag k="addr:street" v="Tower Road"/>
    <tag k="addr:state" v="VT"/>
    <tag k="ref:vcgi:esiteid" v="288409"/>
  </node>
  <node id="-1375" visible="true" lat="44.06230824" lon="-72.50764893">
    <tag k="addr:city" v="Williamstown"/>
    <tag k="addr:housenumber" v="931"/>
    <tag k="addr:street" v="Stellar Road"/>
    <tag k="addr:state" v="VT"/>
    <tag k="ref:vcgi:esiteid" v="288433"/>
  </node>
  <node id="-1387" visible="true" lat="44.06787501" lon="-72.53576141">
    <tag k="addr:city" v="Williamstown"/>
    <tag k="addr:housenumber" v="612"/>
    <tag k="addr:street" v="Lighthouse Hill Road"/>
    <tag k="addr:state" v="VT"/>
    <tag k="ref:vcgi:esiteid" v="288446"/>
  </node>
  <node id="-1389" visible="true" lat="44.07024715" lon="-72.50959086">
    <tag k="addr:city" v="Williamstown"/>
    <tag k="addr:housenumber" v="386"/>
    <tag k="addr:street" v="Stellar Road"/>
    <tag k="addr:state" v="VT"/>
    <tag k="ref:vcgi:esiteid" v="288448"/>
  </node>
  <node id="-1390" visible="true" lat="44.07757709" lon="-72.54027682">
    <tag k="addr:city" v="Williamstown"/>
    <tag k="addr:housenumber" v="423"/>
    <tag k="addr:street" v="Graham Road"/>
    <tag k="addr:state" v="VT"/>
    <tag k="ref:vcgi:esiteid" v="288449"/>
  </node>
  <node id="-1397" visible="true" lat="44.12108365" lon="-72.54002318">
    <tag k="addr:city" v="Williamstown"/>
    <tag k="addr:housenumber" v="125"/>
    <tag k="addr:street" v="Depot Street"/>
    <tag k="addr:state" v="VT"/>
    <tag k="ref:vcgi:esiteid" v="288456"/>
  </node>
  <node id="-1399" visible="true" lat="44.14567673" lon="-72.50765265">
    <tag k="addr:city" v="Williamstown"/>
    <tag k="addr:housenumber" v="1616"/>
    <tag k="addr:street" v="McGlynn Road"/>
    <tag k="addr:state" v="VT"/>
    <tag k="ref:vcgi:esiteid" v="288458"/>
  </node>
  <node id="-1407" visible="true" lat="44.07663792" lon="-72.50989883">
    <tag k="addr:city" v="Williamstown"/>
    <tag k="addr:housenumber" v="2724"/>
    <tag k="addr:street" v="Chelsea Road"/>
    <tag k="addr:state" v="VT"/>
    <tag k="ref:vcgi:esiteid" v="306296"/>
  </node>
  <node id="-1413" visible="true" lat="44.11977236" lon="-72.55885888">
    <tag k="addr:city" v="Williamstown"/>
    <tag k="addr:housenumber" v="66"/>
    <tag k="addr:street" v="Woodland Heights"/>
    <tag k="addr:state" v="VT"/>
    <tag k="ref:vcgi:esiteid" v="307242"/>
  </node>
  <node id="-1414" visible="true" lat="44.10866344" lon="-72.60763406">
    <tag k="addr:city" v="Williamstown"/>
    <tag k="addr:housenumber" v="278"/>
    <tag k="addr:street" v="Stone Road"/>
    <tag k="addr:state" v="VT"/>
    <tag k="ref:vcgi:esiteid" v="307243"/>
  </node>
  <node id="-1418" visible="true" lat="44.12331064" lon="-72.46504574">
    <tag k="addr:city" v="Williamstown"/>
    <tag k="addr:housenumber" v="1272"/>
    <tag k="addr:street" v="McCarthy Road"/>
    <tag k="addr:state" v="VT"/>
    <tag k="ref:vcgi:esiteid" v="310894"/>
  </node>
  <node id="-1420" visible="true" lat="44.06101445" lon="-72.50694729">
    <tag k="addr:city" v="Williamstown"/>
    <tag k="addr:housenumber" v="957"/>
    <tag k="addr:street" v="Stellar Road"/>
    <tag k="addr:state" v="VT"/>
    <tag k="ref:vcgi:esiteid" v="315341"/>
  </node>
  <node id="-1425" visible="true" lat="44.12521687" lon="-72.53305046">
    <tag k="addr:city" v="Williamstown"/>
    <tag k="addr:housenumber" v="167"/>
    <tag k="addr:street" v="Railroad Street"/>
    <tag k="addr:state" v="VT"/>
    <tag k="ref:vcgi:esiteid" v="323916"/>
  </node>
  <node id="-1427" visible="true" lat="44.12533026" lon="-72.53338391">
    <tag k="addr:city" v="Williamstown"/>
    <tag k="addr:housenumber" v="169"/>
    <tag k="addr:street" v="Railroad Street"/>
    <tag k="addr:state" v="VT"/>
    <tag k="ref:vcgi:esiteid" v="323918"/>
  </node>
  <node id="-1428" visible="true" lat="44.12491542" lon="-72.53334116">
    <tag k="addr:city" v="Williamstown"/>
    <tag k="addr:housenumber" v="113"/>
    <tag k="addr:street" v="Railroad Street"/>
    <tag k="addr:state" v="VT"/>
    <tag k="ref:vcgi:esiteid" v="323919"/>
  </node>
  <node id="-1431" visible="true" lat="44.09027135" lon="-72.48754433">
    <tag k="addr:city" v="Williamstown"/>
    <tag k="addr:housenumber" v="936"/>
    <tag k="addr:street" v="Grandview Road"/>
    <tag k="addr:state" v="VT"/>
    <tag k="ref:vcgi:esiteid" v="323922"/>
  </node>
  <node id="-1432" visible="true" lat="44.13127203" lon="-72.47145537">
    <tag k="addr:city" v="Williamstown"/>
    <tag k="addr:housenumber" v="267"/>
    <tag k="addr:street" v="Tower Road"/>
    <tag k="addr:state" v="VT"/>
    <tag k="ref:vcgi:esiteid" v="323923"/>
  </node>
  <node id="-1443" visible="true" lat="44.10276678" lon="-72.48118038">
    <tag k="addr:city" v="Williamstown"/>
    <tag k="addr:housenumber" v="244"/>
    <tag k="addr:street" v="Washington Road"/>
    <tag k="addr:state" v="VT"/>
    <tag k="ref:vcgi:esiteid" v="332054"/>
  </node>
  <node id="-1452" visible="true" lat="44.13757292" lon="-72.47614284">
    <tag k="addr:city" v="Williamstown"/>
    <tag k="addr:housenumber" v="405"/>
    <tag k="addr:street" v="Robar Road"/>
    <tag k="addr:state" v="VT"/>
    <tag k="ref:vcgi:esiteid" v="335249"/>
  </node>
  <node id="-1460" visible="true" lat="44.07059776" lon="-72.53437711">
    <tag k="addr:city" v="Williamstown"/>
    <tag k="addr:housenumber" v="365"/>
    <tag k="addr:street" v="Lighthouse Hill Road"/>
    <tag k="addr:state" v="VT"/>
    <tag k="ref:vcgi:esiteid" v="337389"/>
  </node>
  <node id="-1465" visible="true" lat="44.12032448" lon="-72.52396507">
    <tag k="addr:city" v="Williamstown"/>
    <tag k="addr:housenumber" v="186"/>
    <tag k="addr:street" v="Erskine Road"/>
    <tag k="addr:state" v="VT"/>
    <tag k="ref:vcgi:esiteid" v="339155"/>
  </node>
  <node id="-1467" visible="true" lat="44.12000757" lon="-72.52756037">
    <tag k="addr:city" v="Williamstown"/>
    <tag k="addr:housenumber" v="382"/>
    <tag k="addr:street" v="Erskine Road"/>
    <tag k="addr:state" v="VT"/>
    <tag k="ref:vcgi:esiteid" v="339567"/>
  </node>
  <node id="-1468" visible="true" lat="44.12004102" lon="-72.52594687">
    <tag k="addr:city" v="Williamstown"/>
    <tag k="addr:housenumber" v="318"/>
    <tag k="addr:street" v="Erskine Road"/>
    <tag k="addr:state" v="VT"/>
    <tag k="ref:vcgi:esiteid" v="339568"/>
  </node>
  <node id="-1471" visible="true" lat="44.1284475" lon="-72.46451014">
    <tag k="addr:city" v="Williamstown"/>
    <tag k="addr:housenumber" v="924"/>
    <tag k="addr:street" v="McCarthy Road"/>
    <tag k="addr:state" v="VT"/>
    <tag k="ref:vcgi:esiteid" v="340093"/>
  </node>
  <node id="-1479" visible="true" lat="44.13280164" lon="-72.51268176">
    <tag k="addr:city" v="Williamstown"/>
    <tag k="addr:housenumber" v="517"/>
    <tag k="addr:street" v="McGlynn Road"/>
    <tag k="addr:state" v="VT"/>
    <tag k="ref:vcgi:esiteid" v="341530"/>
  </node>
  <node id="-1484" visible="true" lat="44.11703851" lon="-72.53964236">
    <tag k="addr:city" v="Williamstown"/>
    <tag k="addr:housenumber" v="31"/>
    <tag k="addr:street" v="Business Center Road"/>
    <tag k="addr:state" v="VT"/>
    <tag k="ref:vcgi:esiteid" v="344336"/>
  </node>
  <node id="-1488" visible="true" lat="44.13128731" lon="-72.4656094">
    <tag k="addr:city" v="Williamstown"/>
    <tag k="addr:housenumber" v="656"/>
    <tag k="addr:street" v="McCarthy Road"/>
    <tag k="addr:state" v="VT"/>
    <tag k="ref:vcgi:esiteid" v="345073"/>
  </node>
  <node id="-1501" visible="true" lat="44.12705962" lon="-72.53844178">
    <tag k="addr:city" v="Williamstown"/>
    <tag k="addr:housenumber" v="258"/>
    <tag k="addr:street" v="Seaver Road"/>
    <tag k="addr:state" v="VT"/>
    <tag k="ref:vcgi:esiteid" v="446383"/>
  </node>
  <node id="-1529" visible="true" lat="44.09177773" lon="-72.62639083">
    <tag k="addr:city" v="Williamstown"/>
    <tag k="addr:housenumber" v="99"/>
    <tag k="addr:street" v="Frost Road"/>
    <tag k="addr:state" v="VT"/>
    <tag k="ref:vcgi:esiteid" v="450104"/>
  </node>
  <node id="-1535" visible="true" lat="44.11530411" lon="-72.61089383">
    <tag k="addr:city" v="Williamstown"/>
    <tag k="addr:housenumber" v="3920"/>
    <tag k="addr:street" v="Vermont Route 64"/>
    <tag k="addr:state" v="VT"/>
    <tag k="ref:vcgi:esiteid" v="451545"/>
  </node>
  <node id="-1537" visible="true" lat="44.13145974" lon="-72.51291979">
    <tag k="addr:city" v="Williamstown"/>
    <tag k="addr:housenumber" v="403"/>
    <tag k="addr:street" v="McGlynn Road"/>
    <tag k="addr:state" v="VT"/>
    <tag k="ref:vcgi:esiteid" v="451934"/>
  </node>
  <node id="-1539" visible="true" lat="44.07644024" lon="-72.50309916">
    <tag k="addr:city" v="Williamstown"/>
    <tag k="addr:housenumber" v="2833"/>
    <tag k="addr:street" v="Grandview Road"/>
    <tag k="addr:state" v="VT"/>
    <tag k="ref:vcgi:esiteid" v="452052"/>
  </node>
  <node id="-1540" visible="true" lat="44.09188982" lon="-72.51802038">
    <tag k="addr:city" v="Williamstown"/>
    <tag k="addr:housenumber" v="77"/>
    <tag k="addr:street" v="Lilas Way"/>
    <tag k="addr:state" v="VT"/>
    <tag k="ref:vcgi:esiteid" v="452053"/>
  </node>
  <node id="-1546" visible="true" lat="44.12734605" lon="-72.47502097">
    <tag k="addr:city" v="Williamstown"/>
    <tag k="addr:housenumber" v="738"/>
    <tag k="addr:street" v="Tower Road"/>
    <tag k="addr:state" v="VT"/>
    <tag k="ref:vcgi:esiteid" v="453090"/>
  </node>
  <node id="-1548" visible="true" lat="44.08680361" lon="-72.6221827">
    <tag k="addr:city" v="Williamstown"/>
    <tag k="addr:housenumber" v="934"/>
    <tag k="addr:street" v="Howe Road"/>
    <tag k="addr:state" v="VT"/>
    <tag k="ref:vcgi:esiteid" v="454660"/>
  </node>
  <node id="-1555" visible="true" lat="44.13612814" lon="-72.51465646">
    <tag k="addr:city" v="Williamstown"/>
    <tag k="addr:housenumber" v="723"/>
    <tag k="addr:street" v="McGlynn Road"/>
    <tag k="addr:state" v="VT"/>
    <tag k="ref:vcgi:esiteid" v="611595"/>
  </node>
  <node id="-1563" visible="true" lat="44.09051159" lon="-72.51724925">
    <tag k="addr:city" v="Williamstown"/>
    <tag k="addr:housenumber" v="58"/>
    <tag k="addr:street" v="Lilas Way"/>
    <tag k="addr:state" v="VT"/>
    <tag k="ref:vcgi:esiteid" v="611978"/>
  </node>
  <node id="-1564" visible="true" lat="44.09108786" lon="-72.51724611">
    <tag k="addr:city" v="Williamstown"/>
    <tag k="addr:housenumber" v="108"/>
    <tag k="addr:street" v="Lilas Way"/>
    <tag k="addr:state" v="VT"/>
    <tag k="ref:vcgi:esiteid" v="611979"/>
  </node>
  <node id="-1567" visible="true" lat="44.09262925" lon="-72.62535808">
    <tag k="addr:city" v="Williamstown"/>
    <tag k="addr:housenumber" v="97"/>
    <tag k="addr:street" v="Frost Road"/>
    <tag k="addr:state" v="VT"/>
    <tag k="ref:vcgi:esiteid" v="613133"/>
  </node>
  <node id="-1643" visible="true" lat="44.12856156" lon="-72.47266355">
    <tag k="addr:city" v="Williamstown"/>
    <tag k="addr:housenumber" v="655"/>
    <tag k="addr:street" v="Tower Road"/>
    <tag k="addr:state" v="VT"/>
    <tag k="ref:vcgi:esiteid" v="755373"/>
  </node>
  <node id="-1644" visible="true" lat="44.12945748" lon="-72.45941359">
    <tag k="addr:city" v="Williamstown"/>
    <tag k="addr:housenumber" v="942"/>
    <tag k="addr:street" v="Lambert Road"/>
    <tag k="addr:state" v="VT"/>
    <tag k="ref:vcgi:esiteid" v="755374"/>
  </node>
  <node id="-1686" visible="true" lat="44.1442175" lon="-72.49789566">
    <tag k="addr:city" v="Williamstown"/>
    <tag k="addr:housenumber" v="905"/>
    <tag k="addr:street" v="Pirie Road"/>
    <tag k="addr:state" v="VT"/>
    <tag k="ref:vcgi:esiteid" v="760793"/>
  </node>
  <node id="-1719" visible="true" lat="44.12057225" lon="-72.47647742">
    <tag k="addr:city" v="Williamstown"/>
    <tag k="addr:housenumber" v="1195"/>
    <tag k="addr:street" v="Tower Road"/>
    <tag k="addr:state" v="VT"/>
    <tag k="ref:vcgi:esiteid" v="900277"/>
  </node>
  <node id="-1724" visible="true" lat="44.08632231" lon="-72.57905824">
    <tag k="addr:city" v="Williamstown"/>
    <tag k="addr:housenumber" v="2393"/>
    <tag k="addr:street" v="Rood Pond Road"/>
    <tag k="addr:state" v="VT"/>
    <tag k="ref:vcgi:esiteid" v="1050103"/>
  </node>
  <node id="-1736" visible="true" lat="44.14165993" lon="-72.50743992">
    <tag k="addr:city" v="Williamstown"/>
    <tag k="addr:housenumber" v="986"/>
    <tag k="addr:street" v="McGlynn Road"/>
    <tag k="addr:state" v="VT"/>
    <tag k="ref:vcgi:esiteid" v="1050787"/>
  </node>
  <node id="-1740" visible="true" lat="44.12735505" lon="-72.5419807">
    <tag k="addr:city" v="Williamstown"/>
    <tag k="addr:housenumber" v="216"/>
    <tag k="addr:street" v="Hebert Road"/>
    <tag k="addr:state" v="VT"/>
    <tag k="ref:vcgi:esiteid" v="1051185"/>
  </node>
</osm>
