<?xml version="1.0" encoding="UTF-8"?>
<osm version="0.6" generator="JOSM" upload="false">
  <node id="-421" visible="true" lat="44.1264953" lon="-72.53688846">
    <!-- multiple: "43 Circle Street, , VT" Multiple exact matches in OSM. -->
    <tag k="addr:housenumber" v="43"/>
    <tag k="addr:street" v="Circle Street"/>
    <tag k="addr:state" v="VT"/>
    <tag k="ref:vcgi:esiteid" v="287437"/>
  </node>
  <node id="-437" visible="true" lat="44.12633739" lon="-72.54669037">
    <!-- multiple: "120 Hebert Road, , VT" Multiple exact matches in OSM. -->
    <tag k="addr:housenumber" v="120"/>
    <tag k="addr:street" v="Hebert Road"/>
    <tag k="addr:state" v="VT"/>
    <tag k="ref:vcgi:esiteid" v="287453"/>
  </node>
  <node id="-531" visible="true" lat="44.12445647" lon="-72.54264329">
    <!-- multiple: "21 High Street, , VT" Multiple exact matches in OSM. -->
    <tag k="addr:housenumber" v="21"/>
    <tag k="addr:street" v="High Street"/>
    <tag k="addr:state" v="VT"/>
    <tag k="ref:vcgi:esiteid" v="287554"/>
  </node>
  <node id="-610" visible="true" lat="44.1229671" lon="-72.53616377">
    <!-- multiple: "249 Meadow Street, , VT" Multiple exact matches in OSM. -->
    <tag k="addr:housenumber" v="249"/>
    <tag k="addr:street" v="Meadow Street"/>
    <tag k="addr:state" v="VT"/>
    <tag k="ref:vcgi:esiteid" v="287642"/>
  </node>
  <node id="-621" visible="true" lat="44.12244033" lon="-72.54222106">
    <!-- multiple: "50 Brook Street, , VT" Multiple exact matches in OSM. -->
    <tag k="addr:housenumber" v="50"/>
    <tag k="addr:street" v="Brook Street"/>
    <tag k="addr:state" v="VT"/>
    <tag k="ref:vcgi:esiteid" v="287654"/>
  </node>
  <node id="-631" visible="true" lat="44.12218856" lon="-72.54153442">
    <!-- multiple: "20 Methodist Lane, , VT" Multiple exact matches in OSM. -->
    <tag k="addr:housenumber" v="20"/>
    <tag k="addr:street" v="Methodist Lane"/>
    <tag k="addr:state" v="VT"/>
    <tag k="ref:vcgi:esiteid" v="287664"/>
  </node>
  <node id="-941" visible="true" lat="44.10848617" lon="-72.48574828">
    <!-- multiple: "2170 Tower Road, , VT" Multiple exact matches in OSM. -->
    <tag k="addr:housenumber" v="2170"/>
    <tag k="addr:street" v="Tower Road"/>
    <tag k="addr:state" v="VT"/>
    <tag k="ref:vcgi:esiteid" v="287995"/>
  </node>
  <node id="-1464" visible="true" lat="44.13671055" lon="-72.46850193">
    <!-- multiple: "307 McCarthy Road, , VT" Multiple exact matches in OSM. -->
    <tag k="addr:housenumber" v="307"/>
    <tag k="addr:street" v="McCarthy Road"/>
    <tag k="addr:state" v="VT"/>
    <tag k="ref:vcgi:esiteid" v="340619"/>
  </node>
  <node id="-1471" visible="true" lat="44.13713807" lon="-72.46921118">
    <!-- multiple: "261 McCarthy Road, , VT" Multiple exact matches in OSM. -->
    <tag k="addr:housenumber" v="261"/>
    <tag k="addr:street" v="McCarthy Road"/>
    <tag k="addr:state" v="VT"/>
    <tag k="ref:vcgi:esiteid" v="342505"/>
  </node>
  <node id="-1630" visible="true" lat="44.11693796" lon="-72.4798372">
    <!-- multiple: "1509 Tower Road, , VT" Multiple exact matches in OSM. -->
    <tag k="addr:housenumber" v="1509"/>
    <tag k="addr:street" v="Tower Road"/>
    <tag k="addr:state" v="VT"/>
    <tag k="ref:vcgi:esiteid" v="700010"/>
  </node>
</osm>
