<?xml version="1.0" encoding="UTF-8"?>
<osm version="0.6" generator="JOSM" upload="false">
  <node id="-459" visible="true" lat="44.12578201" lon="-72.52529907">
    <!-- offset: "560 Graniteville Road, , VT" Significant offset - 4342.5m -->
    <tag k="addr:housenumber" v="560"/>
    <tag k="addr:street" v="Graniteville Road"/>
    <tag k="addr:state" v="VT"/>
    <tag k="ref:vcgi:esiteid" v="287478"/>
  </node>
  <node id="-625" visible="true" lat="44.12237075" lon="-72.54248813">
    <!-- offset: "64 Brook Street, , VT" Significant offset - 7101m -->
    <tag k="addr:housenumber" v="64"/>
    <tag k="addr:street" v="Brook Street"/>
    <tag k="addr:state" v="VT"/>
    <tag k="ref:vcgi:esiteid" v="287658"/>
  </node>
  <node id="-627" visible="true" lat="44.12238288" lon="-72.54286237">
    <!-- offset: "84 Brook Street, , VT" Significant offset - 9796m -->
    <tag k="addr:housenumber" v="84"/>
    <tag k="addr:street" v="Brook Street"/>
    <tag k="addr:state" v="VT"/>
    <tag k="ref:vcgi:esiteid" v="287660"/>
  </node>
  <node id="-1262" visible="true" lat="44.1261924" lon="-72.51997518">
    <!-- offset: "845 Graniteville Road, , VT" Significant offset - 3912.1m -->
    <tag k="addr:housenumber" v="845"/>
    <tag k="addr:street" v="Graniteville Road"/>
    <tag k="addr:state" v="VT"/>
    <tag k="ref:vcgi:esiteid" v="288325"/>
  </node>
  <node id="-1265" visible="true" lat="44.12563105" lon="-72.52055729">
    <!-- offset: "852 Graniteville Road, , VT" Significant offset - 3996.2m -->
    <tag k="addr:housenumber" v="852"/>
    <tag k="addr:street" v="Graniteville Road"/>
    <tag k="addr:state" v="VT"/>
    <tag k="ref:vcgi:esiteid" v="288328"/>
  </node>
  <node id="-1687" visible="true" lat="44.11674706" lon="-72.49265956">
    <!-- offset: "212 Therriault Hill, , VT" Significant offset - 226.1m -->
    <tag k="addr:housenumber" v="212"/>
    <tag k="addr:street" v="Therriault Hill"/>
    <tag k="addr:state" v="VT"/>
    <tag k="ref:vcgi:esiteid" v="760590"/>
  </node>
</osm>
