<?xml version="1.0" encoding="UTF-8"?>
<osm version="0.6" generator="JOSM" upload="false">
  <node id="-1033" visible="true" lat="44.45285034" lon="-73.11627197">
    <!-- multiple: "34 Blair Park Road, Williston, VT" Multiple exact matches in OSM. -->
    <tag k="addr:city" v="Williston"/>
    <tag k="addr:housenumber" v="34"/>
    <tag k="addr:street" v="Blair Park Road"/>
    <tag k="addr:state" v="VT"/>
    <tag k="ref:vcgi:esiteid" v="289564"/>
  </node>
  <node id="-1126" visible="true" lat="44.45118768" lon="-73.11045497">
    <!-- multiple: "2141 Essex Road, Williston, VT" Multiple exact matches in OSM. -->
    <tag k="addr:city" v="Williston"/>
    <tag k="addr:housenumber" v="2141"/>
    <tag k="addr:street" v="Essex Road"/>
    <tag k="addr:state" v="VT"/>
    <tag k="ref:vcgi:esiteid" v="289679"/>
  </node>
  <node id="-1294" visible="true" lat="44.44818181" lon="-73.11504288">
    <!-- multiple: "329 Harvest Lane, Williston, VT" Multiple exact matches in OSM. -->
    <tag k="addr:city" v="Williston"/>
    <tag k="addr:housenumber" v="329"/>
    <tag k="addr:street" v="Harvest Lane"/>
    <tag k="addr:state" v="VT"/>
    <tag k="ref:vcgi:esiteid" v="289885"/>
  </node>
  <node id="-1501" visible="true" lat="44.44551176" lon="-73.05767222">
    <!-- multiple: "242 Tamarack Drive, Williston, VT" Multiple exact matches in OSM. -->
    <tag k="addr:city" v="Williston"/>
    <tag k="addr:housenumber" v="242"/>
    <tag k="addr:street" v="Tamarack Drive"/>
    <tag k="addr:state" v="VT"/>
    <tag k="ref:vcgi:esiteid" v="290151"/>
  </node>
  <node id="-3096" visible="true" lat="44.44639916" lon="-73.10867297">
    <!-- multiple: "121 Connor Way, Williston, VT" Multiple exact matches in OSM. -->
    <tag k="addr:city" v="Williston"/>
    <tag k="addr:housenumber" v="121"/>
    <tag k="addr:street" v="Connor Way"/>
    <tag k="addr:state" v="VT"/>
    <tag k="ref:vcgi:esiteid" v="291954"/>
  </node>
  <node id="-3277" visible="true" lat="44.45246101" lon="-73.10243045">
    <!-- multiple: "188 Allen Brook Lane, Williston, VT" Multiple exact matches in OSM. -->
    <tag k="addr:city" v="Williston"/>
    <tag k="addr:housenumber" v="188"/>
    <tag k="addr:street" v="Allen Brook Lane"/>
    <tag k="addr:state" v="VT"/>
    <tag k="ref:vcgi:esiteid" v="292137"/>
  </node>
  <node id="-3957" visible="true" lat="44.45309043" lon="-73.1092039">
    <!-- multiple: "155 Day Lane, Williston, VT" Multiple exact matches in OSM. -->
    <tag k="addr:city" v="Williston"/>
    <tag k="addr:housenumber" v="155"/>
    <tag k="addr:street" v="Day Lane"/>
    <tag k="addr:state" v="VT"/>
    <tag k="ref:vcgi:esiteid" v="326746"/>
  </node>
  <node id="-3969" visible="true" lat="44.45308686" lon="-73.10895991">
    <!-- multiple: "50 Madison Drive, Williston, VT" Multiple exact matches in OSM. -->
    <tag k="addr:city" v="Williston"/>
    <tag k="addr:housenumber" v="50"/>
    <tag k="addr:street" v="Madison Drive"/>
    <tag k="addr:state" v="VT"/>
    <tag k="ref:vcgi:esiteid" v="326758"/>
  </node>
  <node id="-4471" visible="true" lat="44.44845232" lon="-73.10745076">
    <!-- multiple: "69 Market Street, Williston, VT" Multiple exact matches in OSM. -->
    <tag k="addr:city" v="Williston"/>
    <tag k="addr:housenumber" v="69"/>
    <tag k="addr:street" v="Market Street"/>
    <tag k="addr:state" v="VT"/>
    <tag k="ref:vcgi:esiteid" v="751482"/>
  </node>
  <node id="-4533" visible="true" lat="44.4489504" lon="-73.10850223">
    <!-- multiple: "129 Market Street, Williston, VT" Multiple exact matches in OSM. -->
    <tag k="addr:city" v="Williston"/>
    <tag k="addr:housenumber" v="129"/>
    <tag k="addr:street" v="Market Street"/>
    <tag k="addr:state" v="VT"/>
    <tag k="ref:vcgi:esiteid" v="754557"/>
  </node>
</osm>
