<?xml version="1.0" encoding="UTF-8"?>
<osm version="0.6" generator="JOSM">
  <node id="-100" visible="true" lat="42.92600664" lon="-72.8846824">
    <tag k="addr:city" v="Wilmington"/>
    <tag k="addr:housenumber" v="561"/>
    <tag k="addr:street" v="Coldbrook Road"/>
    <tag k="addr:state" v="VT"/>
    <tag k="ref:vcgi:esiteid" v="292660"/>
  </node>
  <node id="-101" visible="true" lat="42.92604155" lon="-72.89041466">
    <tag k="addr:city" v="Wilmington"/>
    <tag k="addr:housenumber" v="93"/>
    <tag k="addr:street" v="Fannie Hill Road"/>
    <tag k="addr:state" v="VT"/>
    <tag k="ref:vcgi:esiteid" v="292661"/>
  </node>
  <node id="-102" visible="true" lat="42.92581939" lon="-72.88259887">
    <tag k="addr:city" v="Wilmington"/>
    <tag k="addr:housenumber" v="115"/>
    <tag k="addr:street" v="East Village Circle"/>
    <tag k="addr:state" v="VT"/>
    <tag k="ref:vcgi:esiteid" v="292662"/>
  </node>
  <node id="-103" visible="true" lat="42.92581176" lon="-72.88174438">
    <tag k="addr:city" v="Wilmington"/>
    <tag k="addr:housenumber" v="109"/>
    <tag k="addr:street" v="East Village Circle"/>
    <tag k="addr:state" v="VT"/>
    <tag k="ref:vcgi:esiteid" v="292663"/>
  </node>
  <node id="-104" visible="true" lat="42.92576599" lon="-72.88372039">
    <tag k="addr:city" v="Wilmington"/>
    <tag k="addr:housenumber" v="121"/>
    <tag k="addr:street" v="East Village Circle"/>
    <tag k="addr:state" v="VT"/>
    <tag k="ref:vcgi:esiteid" v="292664"/>
  </node>
  <node id="-105" visible="true" lat="42.92578804" lon="-72.88009093">
    <tag k="addr:city" v="Wilmington"/>
    <tag k="addr:housenumber" v="93"/>
    <tag k="addr:street" v="East Village Circle"/>
    <tag k="addr:state" v="VT"/>
    <tag k="ref:vcgi:esiteid" v="292665"/>
  </node>
  <node id="-106" visible="true" lat="42.92553913" lon="-72.890833">
    <tag k="addr:city" v="Wilmington"/>
    <tag k="addr:housenumber" v="105"/>
    <tag k="addr:street" v="Fannie Hill Road"/>
    <tag k="addr:state" v="VT"/>
    <tag k="ref:vcgi:esiteid" v="292666"/>
  </node>
  <node id="-107" visible="true" lat="42.92566691" lon="-72.87961129">
    <tag k="addr:city" v="Wilmington"/>
    <tag k="addr:housenumber" v="89"/>
    <tag k="addr:street" v="East Village Circle"/>
    <tag k="addr:state" v="VT"/>
    <tag k="ref:vcgi:esiteid" v="292667"/>
  </node>
  <node id="-108" visible="true" lat="42.92536926" lon="-72.88883209">
    <tag k="addr:city" v="Wilmington"/>
    <tag k="addr:housenumber" v="82"/>
    <tag k="addr:street" v="Fannie Hill Road"/>
    <tag k="addr:state" v="VT"/>
    <tag k="ref:vcgi:esiteid" v="292668"/>
  </node>
  <node id="-109" visible="true" lat="42.9252337" lon="-72.89216539">
    <tag k="addr:city" v="Wilmington"/>
    <tag k="addr:housenumber" v="117"/>
    <tag k="addr:street" v="Fannie Hill Road"/>
    <tag k="addr:state" v="VT"/>
    <tag k="ref:vcgi:esiteid" v="292669"/>
  </node>
  <node id="-110" visible="true" lat="42.92531204" lon="-72.88939666">
    <tag k="addr:city" v="Wilmington"/>
    <tag k="addr:housenumber" v="90"/>
    <tag k="addr:street" v="Fannie Hill Road"/>
    <tag k="addr:state" v="VT"/>
    <tag k="ref:vcgi:esiteid" v="292670"/>
  </node>
  <node id="-111" visible="true" lat="42.92527666" lon="-72.88219923">
    <tag k="addr:city" v="Wilmington"/>
    <tag k="addr:housenumber" v="116"/>
    <tag k="addr:street" v="East Village Circle"/>
    <tag k="addr:state" v="VT"/>
    <tag k="ref:vcgi:esiteid" v="292671"/>
  </node>
  <node id="-112" visible="true" lat="42.92528268" lon="-72.88453326">
    <tag k="addr:city" v="Wilmington"/>
    <tag k="addr:housenumber" v="551"/>
    <tag k="addr:street" v="Coldbrook Road"/>
    <tag k="addr:state" v="VT"/>
    <tag k="ref:vcgi:esiteid" v="292672"/>
  </node>
  <node id="-113" visible="true" lat="42.9252381" lon="-72.89140078">
    <tag k="addr:city" v="Wilmington"/>
    <tag k="addr:housenumber" v="109"/>
    <tag k="addr:street" v="Fannie Hill Road"/>
    <tag k="addr:state" v="VT"/>
    <tag k="ref:vcgi:esiteid" v="292673"/>
  </node>
  <node id="-114" visible="true" lat="42.92508483" lon="-72.88298716">
    <tag k="addr:city" v="Wilmington"/>
    <tag k="addr:housenumber" v="123"/>
    <tag k="addr:street" v="East Village Circle"/>
    <tag k="addr:state" v="VT"/>
    <tag k="ref:vcgi:esiteid" v="292674"/>
  </node>
  <node id="-115" visible="true" lat="42.92489624" lon="-72.88976287">
    <tag k="addr:city" v="Wilmington"/>
    <tag k="addr:housenumber" v="102"/>
    <tag k="addr:street" v="Fannie Hill Road"/>
    <tag k="addr:state" v="VT"/>
    <tag k="ref:vcgi:esiteid" v="292675"/>
  </node>
  <node id="-116" visible="true" lat="42.9246241" lon="-72.89035606">
    <tag k="addr:city" v="Wilmington"/>
    <tag k="addr:housenumber" v="106"/>
    <tag k="addr:street" v="Fannie Hill Road"/>
    <tag k="addr:state" v="VT"/>
    <tag k="ref:vcgi:esiteid" v="292676"/>
  </node>
  <node id="-117" visible="true" lat="42.92491876" lon="-72.87916376">
    <tag k="addr:city" v="Wilmington"/>
    <tag k="addr:housenumber" v="85"/>
    <tag k="addr:street" v="East Village Circle"/>
    <tag k="addr:state" v="VT"/>
    <tag k="ref:vcgi:esiteid" v="292677"/>
  </node>
  <node id="-118" visible="true" lat="42.92440767" lon="-72.89076008">
    <tag k="addr:city" v="Wilmington"/>
    <tag k="addr:housenumber" v="110"/>
    <tag k="addr:street" v="Fannie Hill Road"/>
    <tag k="addr:state" v="VT"/>
    <tag k="ref:vcgi:esiteid" v="292678"/>
  </node>
  <node id="-119" visible="true" lat="42.92481102" lon="-72.88313792">
    <tag k="addr:city" v="Wilmington"/>
    <tag k="addr:housenumber" v="133"/>
    <tag k="addr:street" v="East Village Circle"/>
    <tag k="addr:state" v="VT"/>
    <tag k="ref:vcgi:esiteid" v="292679"/>
  </node>
  <node id="-120" visible="true" lat="42.92481008" lon="-72.88450686">
    <tag k="addr:city" v="Wilmington"/>
    <tag k="addr:housenumber" v="545"/>
    <tag k="addr:street" v="Coldbrook Road"/>
    <tag k="addr:state" v="VT"/>
    <tag k="ref:vcgi:esiteid" v="292680"/>
  </node>
  <node id="-121" visible="true" lat="42.92483551" lon="-72.89208318">
    <tag k="addr:city" v="Wilmington"/>
    <tag k="addr:housenumber" v="121"/>
    <tag k="addr:street" v="Fannie Hill Road"/>
    <tag k="addr:state" v="VT"/>
    <tag k="ref:vcgi:esiteid" v="292681"/>
  </node>
  <node id="-122" visible="true" lat="42.92475068" lon="-72.89265038">
    <tag k="addr:city" v="Wilmington"/>
    <tag k="addr:housenumber" v="127"/>
    <tag k="addr:street" v="Fannie Hill Road"/>
    <tag k="addr:state" v="VT"/>
    <tag k="ref:vcgi:esiteid" v="292682"/>
  </node>
  <node id="-124" visible="true" lat="42.92459747" lon="-72.88230868">
    <tag k="addr:city" v="Wilmington"/>
    <tag k="addr:housenumber" v="32"/>
    <tag k="addr:street" v="Village East Road"/>
    <tag k="addr:state" v="VT"/>
    <tag k="ref:vcgi:esiteid" v="292684"/>
  </node>
  <node id="-125" visible="true" lat="42.92429547" lon="-72.89163068">
    <tag k="addr:city" v="Wilmington"/>
    <tag k="addr:housenumber" v="118"/>
    <tag k="addr:street" v="Fannie Hill Road"/>
    <tag k="addr:state" v="VT"/>
    <tag k="ref:vcgi:esiteid" v="292685"/>
  </node>
  <node id="-126" visible="true" lat="42.92442386" lon="-72.8830751">
    <tag k="addr:city" v="Wilmington"/>
    <tag k="addr:housenumber" v="20"/>
    <tag k="addr:street" v="Village East Road"/>
    <tag k="addr:state" v="VT"/>
    <tag k="ref:vcgi:esiteid" v="292686"/>
  </node>
  <node id="-127" visible="true" lat="42.92463243" lon="-72.88123347">
    <tag k="addr:city" v="Wilmington"/>
    <tag k="addr:housenumber" v="42"/>
    <tag k="addr:street" v="Village East Road"/>
    <tag k="addr:state" v="VT"/>
    <tag k="ref:vcgi:esiteid" v="292687"/>
  </node>
  <node id="-128" visible="true" lat="42.9245793" lon="-72.88046342">
    <tag k="addr:city" v="Wilmington"/>
    <tag k="addr:housenumber" v="46"/>
    <tag k="addr:street" v="Village East Road"/>
    <tag k="addr:state" v="VT"/>
    <tag k="ref:vcgi:esiteid" v="292688"/>
  </node>
  <node id="-129" visible="true" lat="42.92422125" lon="-72.89217372">
    <tag k="addr:city" v="Wilmington"/>
    <tag k="addr:housenumber" v="124"/>
    <tag k="addr:street" v="Fannie Hill Road"/>
    <tag k="addr:state" v="VT"/>
    <tag k="ref:vcgi:esiteid" v="292689"/>
  </node>
  <node id="-130" visible="true" lat="42.9242781" lon="-72.89411458">
    <tag k="addr:city" v="Wilmington"/>
    <tag k="addr:housenumber" v="144"/>
    <tag k="addr:street" v="Fannie Hill Road"/>
    <tag k="addr:state" v="VT"/>
    <tag k="ref:vcgi:esiteid" v="292690"/>
  </node>
  <node id="-131" visible="true" lat="42.92435455" lon="-72.884346">
    <tag k="addr:city" v="Wilmington"/>
    <tag k="addr:housenumber" v="10"/>
    <tag k="addr:street" v="Village East Road"/>
    <tag k="addr:state" v="VT"/>
    <tag k="ref:vcgi:esiteid" v="292691"/>
  </node>
  <node id="-132" visible="true" lat="42.9242307" lon="-72.89264847">
    <tag k="addr:city" v="Wilmington"/>
    <tag k="addr:housenumber" v="130"/>
    <tag k="addr:street" v="Fannie Hill Road"/>
    <tag k="addr:state" v="VT"/>
    <tag k="ref:vcgi:esiteid" v="292692"/>
  </node>
  <node id="-133" visible="true" lat="42.9239569" lon="-72.88095431">
    <tag k="addr:city" v="Wilmington"/>
    <tag k="addr:housenumber" v="43"/>
    <tag k="addr:street" v="Village East Road"/>
    <tag k="addr:state" v="VT"/>
    <tag k="ref:vcgi:esiteid" v="292693"/>
  </node>
  <node id="-134" visible="true" lat="42.92390004" lon="-72.88043238">
    <tag k="addr:city" v="Wilmington"/>
    <tag k="addr:housenumber" v="49"/>
    <tag k="addr:street" v="Village East Road"/>
    <tag k="addr:state" v="VT"/>
    <tag k="ref:vcgi:esiteid" v="292694"/>
  </node>
  <node id="-135" visible="true" lat="42.92383193" lon="-72.88440704">
    <tag k="addr:city" v="Wilmington"/>
    <tag k="addr:housenumber" v="3"/>
    <tag k="addr:street" v="Village East Road"/>
    <tag k="addr:state" v="VT"/>
    <tag k="ref:vcgi:esiteid" v="292695"/>
  </node>
  <node id="-136" visible="true" lat="42.92387771" lon="-72.83350372">
    <tag k="addr:city" v="Wilmington"/>
    <tag k="addr:housenumber" v="180"/>
    <tag k="addr:street" v="East Dover Road"/>
    <tag k="addr:state" v="VT"/>
    <tag k="ref:vcgi:esiteid" v="292696"/>
  </node>
  <node id="-137" visible="true" lat="42.92388831" lon="-72.83241909">
    <tag k="addr:city" v="Wilmington"/>
    <tag k="addr:housenumber" v="189"/>
    <tag k="addr:street" v="East Dover Road"/>
    <tag k="addr:state" v="VT"/>
    <tag k="ref:vcgi:esiteid" v="292697"/>
  </node>
  <node id="-138" visible="true" lat="42.92366409" lon="-72.88296508">
    <tag k="addr:city" v="Wilmington"/>
    <tag k="addr:housenumber" v="19"/>
    <tag k="addr:street" v="Village East Road"/>
    <tag k="addr:state" v="VT"/>
    <tag k="ref:vcgi:esiteid" v="292698"/>
  </node>
  <node id="-139" visible="true" lat="42.92379892" lon="-72.88157648">
    <tag k="addr:city" v="Wilmington"/>
    <tag k="addr:housenumber" v="37"/>
    <tag k="addr:street" v="Village East Road"/>
    <tag k="addr:state" v="VT"/>
    <tag k="ref:vcgi:esiteid" v="292699"/>
  </node>
  <node id="-140" visible="true" lat="42.92338943" lon="-72.88005065">
    <tag k="addr:city" v="Wilmington"/>
    <tag k="addr:housenumber" v="62"/>
    <tag k="addr:street" v="East Village Circle"/>
    <tag k="addr:state" v="VT"/>
    <tag k="ref:vcgi:esiteid" v="292700"/>
  </node>
  <node id="-141" visible="true" lat="42.92326736" lon="-72.88210296">
    <tag k="addr:city" v="Wilmington"/>
    <tag k="addr:housenumber" v="10"/>
    <tag k="addr:street" v="East Village Circle"/>
    <tag k="addr:state" v="VT"/>
    <tag k="ref:vcgi:esiteid" v="292702"/>
  </node>
  <node id="-142" visible="true" lat="42.92261306" lon="-72.8947546">
    <tag k="addr:city" v="Wilmington"/>
    <tag k="addr:housenumber" v="183"/>
    <tag k="addr:street" v="Gatehouse Trail"/>
    <tag k="addr:state" v="VT"/>
    <tag k="ref:vcgi:esiteid" v="292704"/>
  </node>
  <node id="-143" visible="true" lat="42.92314529" lon="-72.88102722">
    <tag k="addr:city" v="Wilmington"/>
    <tag k="addr:housenumber" v="34"/>
    <tag k="addr:street" v="East Village Circle"/>
    <tag k="addr:state" v="VT"/>
    <tag k="ref:vcgi:esiteid" v="292705"/>
  </node>
  <node id="-144" visible="true" lat="42.92309188" lon="-72.8830719">
    <tag k="addr:city" v="Wilmington"/>
    <tag k="addr:housenumber" v="11"/>
    <tag k="addr:street" v="East Village Circle"/>
    <tag k="addr:state" v="VT"/>
    <tag k="ref:vcgi:esiteid" v="292707"/>
  </node>
  <node id="-145" visible="true" lat="42.9228897" lon="-72.87921905">
    <tag k="addr:city" v="Wilmington"/>
    <tag k="addr:housenumber" v="53"/>
    <tag k="addr:street" v="East Village Circle"/>
    <tag k="addr:state" v="VT"/>
    <tag k="ref:vcgi:esiteid" v="292708"/>
  </node>
  <node id="-146" visible="true" lat="42.92289352" lon="-72.83473205">
    <tag k="addr:city" v="Wilmington"/>
    <tag k="addr:housenumber" v="162"/>
    <tag k="addr:street" v="East Dover Road"/>
    <tag k="addr:state" v="VT"/>
    <tag k="ref:vcgi:esiteid" v="292709"/>
  </node>
  <node id="-147" visible="true" lat="42.92259597" lon="-72.88288879">
    <tag k="addr:city" v="Wilmington"/>
    <tag k="addr:housenumber" v="17"/>
    <tag k="addr:street" v="East Village Circle"/>
    <tag k="addr:state" v="VT"/>
    <tag k="ref:vcgi:esiteid" v="292710"/>
  </node>
  <node id="-148" visible="true" lat="42.92254108" lon="-72.87915435">
    <tag k="addr:city" v="Wilmington"/>
    <tag k="addr:housenumber" v="51"/>
    <tag k="addr:street" v="East Village Circle"/>
    <tag k="addr:state" v="VT"/>
    <tag k="ref:vcgi:esiteid" v="292711"/>
  </node>
  <node id="-149" visible="true" lat="42.9224424" lon="-72.88398618">
    <tag k="addr:city" v="Wilmington"/>
    <tag k="addr:housenumber" v="513"/>
    <tag k="addr:street" v="Coldbrook Road"/>
    <tag k="addr:state" v="VT"/>
    <tag k="ref:vcgi:esiteid" v="292712"/>
  </node>
  <node id="-150" visible="true" lat="42.92229461" lon="-72.88064575">
    <tag k="addr:city" v="Wilmington"/>
    <tag k="addr:housenumber" v="41"/>
    <tag k="addr:street" v="East Village Circle"/>
    <tag k="addr:state" v="VT"/>
    <tag k="ref:vcgi:esiteid" v="292713"/>
  </node>
  <node id="-151" visible="true" lat="42.92225646" lon="-72.88220977">
    <tag k="addr:city" v="Wilmington"/>
    <tag k="addr:housenumber" v="25"/>
    <tag k="addr:street" v="East Village Circle"/>
    <tag k="addr:state" v="VT"/>
    <tag k="ref:vcgi:esiteid" v="292714"/>
  </node>
  <node id="-152" visible="true" lat="42.92235946" lon="-72.83544921">
    <tag k="addr:city" v="Wilmington"/>
    <tag k="addr:housenumber" v="150"/>
    <tag k="addr:street" v="East Dover Road"/>
    <tag k="addr:state" v="VT"/>
    <tag k="ref:vcgi:esiteid" v="292715"/>
  </node>
  <node id="-153" visible="true" lat="42.92210388" lon="-72.87976074">
    <tag k="addr:city" v="Wilmington"/>
    <tag k="addr:housenumber" v="47"/>
    <tag k="addr:street" v="East Village Circle"/>
    <tag k="addr:state" v="VT"/>
    <tag k="ref:vcgi:esiteid" v="292716"/>
  </node>
  <node id="-154" visible="true" lat="42.92191746" lon="-72.88378906">
    <tag k="addr:city" v="Wilmington"/>
    <tag k="addr:housenumber" v="4"/>
    <tag k="addr:street" v="Hummingbird Lane"/>
    <tag k="addr:state" v="VT"/>
    <tag k="ref:vcgi:esiteid" v="292717"/>
  </node>
  <node id="-155" visible="true" lat="42.92190047" lon="-72.88283467">
    <tag k="addr:city" v="Wilmington"/>
    <tag k="addr:housenumber" v="16"/>
    <tag k="addr:street" v="Hummingbird Lane"/>
    <tag k="addr:state" v="VT"/>
    <tag k="ref:vcgi:esiteid" v="292718"/>
  </node>
  <node id="-156" visible="true" lat="42.92181396" lon="-72.83712768">
    <tag k="addr:city" v="Wilmington"/>
    <tag k="addr:housenumber" v="8"/>
    <tag k="addr:street" v="Jaspers Way"/>
    <tag k="addr:state" v="VT"/>
    <tag k="ref:vcgi:esiteid" v="292719"/>
  </node>
  <node id="-157" visible="true" lat="42.92168614" lon="-72.88199462">
    <tag k="addr:city" v="Wilmington"/>
    <tag k="addr:housenumber" v="23"/>
    <tag k="addr:street" v="Hummingbird Lane"/>
    <tag k="addr:state" v="VT"/>
    <tag k="ref:vcgi:esiteid" v="292720"/>
  </node>
  <node id="-158" visible="true" lat="42.92142105" lon="-72.88343048">
    <tag k="addr:city" v="Wilmington"/>
    <tag k="addr:housenumber" v="7"/>
    <tag k="addr:street" v="Hummingbird Lane"/>
    <tag k="addr:state" v="VT"/>
    <tag k="ref:vcgi:esiteid" v="292723"/>
  </node>
  <node id="-160" visible="true" lat="42.92107009" lon="-72.8849411">
    <tag k="addr:city" v="Wilmington"/>
    <tag k="addr:housenumber" v="10"/>
    <tag k="addr:street" v="Gatehouse Trail"/>
    <tag k="addr:state" v="VT"/>
    <tag k="ref:vcgi:esiteid" v="292725"/>
  </node>
  <node id="-161" visible="true" lat="42.92105306" lon="-72.84562865">
    <tag k="addr:city" v="Wilmington"/>
    <tag k="addr:housenumber" v="52"/>
    <tag k="addr:street" v="Gallup Pitch Road"/>
    <tag k="addr:state" v="VT"/>
    <tag k="ref:vcgi:esiteid" v="292728"/>
  </node>
  <node id="-162" visible="true" lat="42.92108154" lon="-72.84635925">
    <tag k="addr:city" v="Wilmington"/>
    <tag k="addr:housenumber" v="51"/>
    <tag k="addr:street" v="Gallup Pitch Road"/>
    <tag k="addr:state" v="VT"/>
    <tag k="ref:vcgi:esiteid" v="292730"/>
  </node>
  <node id="-163" visible="true" lat="42.92104572" lon="-72.82602799">
    <tag k="addr:city" v="Wilmington"/>
    <tag k="addr:housenumber" v="200"/>
    <tag k="addr:street" v="Smith Road"/>
    <tag k="addr:state" v="VT"/>
    <tag k="ref:vcgi:esiteid" v="292731"/>
  </node>
  <node id="-165" visible="true" lat="42.9203453" lon="-72.82763671">
    <tag k="addr:city" v="Wilmington"/>
    <tag k="addr:housenumber" v="174"/>
    <tag k="addr:street" v="Smith Road"/>
    <tag k="addr:state" v="VT"/>
    <tag k="ref:vcgi:esiteid" v="292735"/>
  </node>
  <node id="-166" visible="true" lat="42.92007525" lon="-72.84729963">
    <tag k="addr:city" v="Wilmington"/>
    <tag k="addr:housenumber" v="74"/>
    <tag k="addr:street" v="Gallup Pitch Road"/>
    <tag k="addr:state" v="VT"/>
    <tag k="ref:vcgi:esiteid" v="292736"/>
  </node>
  <node id="-167" visible="true" lat="42.92019149" lon="-72.82622148">
    <tag k="addr:city" v="Wilmington"/>
    <tag k="addr:housenumber" v="184"/>
    <tag k="addr:street" v="Smith Road"/>
    <tag k="addr:state" v="VT"/>
    <tag k="ref:vcgi:esiteid" v="292737"/>
  </node>
  <node id="-168" visible="true" lat="42.92003208" lon="-72.84779995">
    <tag k="addr:city" v="Wilmington"/>
    <tag k="addr:housenumber" v="76"/>
    <tag k="addr:street" v="Gallup Pitch Road"/>
    <tag k="addr:state" v="VT"/>
    <tag k="ref:vcgi:esiteid" v="292738"/>
  </node>
  <node id="-169" visible="true" lat="42.9200859" lon="-72.84598541">
    <tag k="addr:city" v="Wilmington"/>
    <tag k="addr:housenumber" v="66"/>
    <tag k="addr:street" v="Gallup Pitch Road"/>
    <tag k="addr:state" v="VT"/>
    <tag k="ref:vcgi:esiteid" v="292739"/>
  </node>
  <node id="-171" visible="true" lat="42.91993331" lon="-72.88717651">
    <tag k="addr:city" v="Wilmington"/>
    <tag k="addr:housenumber" v="27"/>
    <tag k="addr:street" v="Haymaker Lane"/>
    <tag k="addr:state" v="VT"/>
    <tag k="ref:vcgi:esiteid" v="292741"/>
  </node>
  <node id="-172" visible="true" lat="42.91997909" lon="-72.84500122">
    <tag k="addr:city" v="Wilmington"/>
    <tag k="addr:housenumber" v="64"/>
    <tag k="addr:street" v="Gallup Pitch Road"/>
    <tag k="addr:state" v="VT"/>
    <tag k="ref:vcgi:esiteid" v="292742"/>
  </node>
  <node id="-174" visible="true" lat="42.91981124" lon="-72.84265136">
    <tag k="addr:city" v="Wilmington"/>
    <tag k="addr:housenumber" v="20"/>
    <tag k="addr:street" v="Gallup Pitch Road"/>
    <tag k="addr:state" v="VT"/>
    <tag k="ref:vcgi:esiteid" v="292745"/>
  </node>
  <node id="-175" visible="true" lat="42.91961288" lon="-72.82537841">
    <tag k="addr:city" v="Wilmington"/>
    <tag k="addr:housenumber" v="173"/>
    <tag k="addr:street" v="Smith Road"/>
    <tag k="addr:state" v="VT"/>
    <tag k="ref:vcgi:esiteid" v="292747"/>
  </node>
  <node id="-177" visible="true" lat="42.91937637" lon="-72.88769531">
    <tag k="addr:city" v="Wilmington"/>
    <tag k="addr:housenumber" v="15"/>
    <tag k="addr:street" v="Haymaker Lane"/>
    <tag k="addr:state" v="VT"/>
    <tag k="ref:vcgi:esiteid" v="292749"/>
  </node>
  <node id="-178" visible="true" lat="42.91912078" lon="-72.88898467">
    <tag k="addr:city" v="Wilmington"/>
    <tag k="addr:housenumber" v="11"/>
    <tag k="addr:street" v="Dutchman Lane"/>
    <tag k="addr:state" v="VT"/>
    <tag k="ref:vcgi:esiteid" v="292750"/>
  </node>
  <node id="-180" visible="true" lat="42.91891394" lon="-72.88127995">
    <tag k="addr:city" v="Wilmington"/>
    <tag k="addr:housenumber" v="453"/>
    <tag k="addr:street" v="Coldbrook Road"/>
    <tag k="addr:state" v="VT"/>
    <tag k="ref:vcgi:esiteid" v="292752"/>
  </node>
  <node id="-181" visible="true" lat="42.91877154" lon="-72.88803216">
    <tag k="addr:city" v="Wilmington"/>
    <tag k="addr:housenumber" v="7"/>
    <tag k="addr:street" v="Haymaker Lane"/>
    <tag k="addr:state" v="VT"/>
    <tag k="ref:vcgi:esiteid" v="292753"/>
  </node>
  <node id="-182" visible="true" lat="42.91855621" lon="-72.8923645">
    <tag k="addr:city" v="Wilmington"/>
    <tag k="addr:housenumber" v="142"/>
    <tag k="addr:street" v="Gatehouse Trail"/>
    <tag k="addr:state" v="VT"/>
    <tag k="ref:vcgi:esiteid" v="292754"/>
  </node>
  <node id="-189" visible="true" lat="42.91757184" lon="-72.85901758">
    <tag k="addr:city" v="Wilmington"/>
    <tag k="addr:housenumber" v="27"/>
    <tag k="addr:street" v="Shirley Lane"/>
    <tag k="addr:state" v="VT"/>
    <tag k="ref:vcgi:esiteid" v="292762"/>
  </node>
  <node id="-190" visible="true" lat="42.91698544" lon="-72.85773396">
    <tag k="addr:city" v="Wilmington"/>
    <tag k="addr:housenumber" v="41"/>
    <tag k="addr:street" v="Kirby Drive"/>
    <tag k="addr:state" v="VT"/>
    <tag k="ref:vcgi:esiteid" v="292763"/>
  </node>
  <node id="-191" visible="true" lat="42.91662216" lon="-72.88341522">
    <tag k="addr:city" v="Wilmington"/>
    <tag k="addr:housenumber" v="420"/>
    <tag k="addr:street" v="Coldbrook Road"/>
    <tag k="addr:state" v="VT"/>
    <tag k="ref:vcgi:esiteid" v="292764"/>
  </node>
  <node id="-192" visible="true" lat="42.91653809" lon="-72.88294009">
    <tag k="addr:city" v="Wilmington"/>
    <tag k="addr:housenumber" v="425"/>
    <tag k="addr:street" v="Coldbrook Road"/>
    <tag k="addr:state" v="VT"/>
    <tag k="ref:vcgi:esiteid" v="292765"/>
  </node>
  <node id="-197" visible="true" lat="42.91623687" lon="-72.85845184">
    <tag k="addr:city" v="Wilmington"/>
    <tag k="addr:housenumber" v="20"/>
    <tag k="addr:street" v="Kirby Drive"/>
    <tag k="addr:state" v="VT"/>
    <tag k="ref:vcgi:esiteid" v="292770"/>
  </node>
  <node id="-198" visible="true" lat="42.9161911" lon="-72.8592987">
    <tag k="addr:city" v="Wilmington"/>
    <tag k="addr:housenumber" v="12"/>
    <tag k="addr:street" v="Shirley Lane"/>
    <tag k="addr:state" v="VT"/>
    <tag k="ref:vcgi:esiteid" v="292771"/>
  </node>
  <node id="-206" visible="true" lat="42.91517847" lon="-72.88553518">
    <tag k="addr:city" v="Wilmington"/>
    <tag k="addr:housenumber" v="25"/>
    <tag k="addr:street" v="Ives Road"/>
    <tag k="addr:state" v="VT"/>
    <tag k="ref:vcgi:esiteid" v="292779"/>
  </node>
  <node id="-212" visible="true" lat="42.91487374" lon="-72.88662022">
    <tag k="addr:city" v="Wilmington"/>
    <tag k="addr:housenumber" v="47"/>
    <tag k="addr:street" v="Ives Road"/>
    <tag k="addr:state" v="VT"/>
    <tag k="ref:vcgi:esiteid" v="292785"/>
  </node>
  <node id="-219" visible="true" lat="42.91442757" lon="-72.887429">
    <tag k="addr:city" v="Wilmington"/>
    <tag k="addr:housenumber" v="60"/>
    <tag k="addr:street" v="Ives Road"/>
    <tag k="addr:state" v="VT"/>
    <tag k="ref:vcgi:esiteid" v="292792"/>
  </node>
  <node id="-221" visible="true" lat="42.91435293" lon="-72.88711349">
    <tag k="addr:city" v="Wilmington"/>
    <tag k="addr:housenumber" v="58"/>
    <tag k="addr:street" v="Ives Road"/>
    <tag k="addr:state" v="VT"/>
    <tag k="ref:vcgi:esiteid" v="292794"/>
  </node>
  <node id="-223" visible="true" lat="42.91431808" lon="-72.88664245">
    <tag k="addr:city" v="Wilmington"/>
    <tag k="addr:housenumber" v="54"/>
    <tag k="addr:street" v="Ives Road"/>
    <tag k="addr:state" v="VT"/>
    <tag k="ref:vcgi:esiteid" v="292796"/>
  </node>
  <node id="-225" visible="true" lat="42.91431045" lon="-72.88616943">
    <tag k="addr:city" v="Wilmington"/>
    <tag k="addr:housenumber" v="48"/>
    <tag k="addr:street" v="Ives Road"/>
    <tag k="addr:state" v="VT"/>
    <tag k="ref:vcgi:esiteid" v="292798"/>
  </node>
  <node id="-241" visible="true" lat="42.91371012" lon="-72.8156857">
    <tag k="addr:city" v="Wilmington"/>
    <tag k="addr:housenumber" v="22"/>
    <tag k="addr:street" v="Manton Drive"/>
    <tag k="addr:state" v="VT"/>
    <tag k="ref:vcgi:esiteid" v="292814"/>
  </node>
  <node id="-256" visible="true" lat="42.91237889" lon="-72.8178362">
    <tag k="addr:city" v="Wilmington"/>
    <tag k="addr:housenumber" v="7"/>
    <tag k="addr:street" v="Manton Drive"/>
    <tag k="addr:state" v="VT"/>
    <tag k="ref:vcgi:esiteid" v="292829"/>
  </node>
  <node id="-261" visible="true" lat="42.91197586" lon="-72.81703949">
    <tag k="addr:city" v="Wilmington"/>
    <tag k="addr:housenumber" v="152"/>
    <tag k="addr:street" v="Old Town Road"/>
    <tag k="addr:state" v="VT"/>
    <tag k="ref:vcgi:esiteid" v="292834"/>
  </node>
  <node id="-289" visible="true" lat="42.91052627" lon="-72.80413055">
    <tag k="addr:city" v="Wilmington"/>
    <tag k="addr:housenumber" v="176"/>
    <tag k="addr:street" v="Brown Road"/>
    <tag k="addr:state" v="VT"/>
    <tag k="ref:vcgi:esiteid" v="292862"/>
  </node>
  <node id="-313" visible="true" lat="42.91023745" lon="-72.80525982">
    <tag k="addr:city" v="Wilmington"/>
    <tag k="addr:housenumber" v="174"/>
    <tag k="addr:street" v="Brown Road"/>
    <tag k="addr:state" v="VT"/>
    <tag k="ref:vcgi:esiteid" v="292886"/>
  </node>
  <node id="-340" visible="true" lat="42.90879821" lon="-72.81432342">
    <tag k="addr:city" v="Wilmington"/>
    <tag k="addr:housenumber" v="130"/>
    <tag k="addr:street" v="Brown Road"/>
    <tag k="addr:state" v="VT"/>
    <tag k="ref:vcgi:esiteid" v="292913"/>
  </node>
  <node id="-346" visible="true" lat="42.90857568" lon="-72.8151562">
    <tag k="addr:city" v="Wilmington"/>
    <tag k="addr:housenumber" v="219"/>
    <tag k="addr:street" v="Old Town Road"/>
    <tag k="addr:state" v="VT"/>
    <tag k="ref:vcgi:esiteid" v="292919"/>
  </node>
  <node id="-455" visible="true" lat="42.9024086" lon="-72.80052185">
    <tag k="addr:city" v="Wilmington"/>
    <tag k="addr:housenumber" v="664"/>
    <tag k="addr:street" v="Higley Hill Road"/>
    <tag k="addr:state" v="VT"/>
    <tag k="ref:vcgi:esiteid" v="293032"/>
  </node>
  <node id="-475" visible="true" lat="42.90118961" lon="-72.80376881">
    <tag k="addr:city" v="Wilmington"/>
    <tag k="addr:housenumber" v="630"/>
    <tag k="addr:street" v="Higley Hill Road"/>
    <tag k="addr:state" v="VT"/>
    <tag k="ref:vcgi:esiteid" v="293053"/>
  </node>
  <node id="-478" visible="true" lat="42.90009307" lon="-72.91312408">
    <tag k="addr:city" v="Wilmington"/>
    <tag k="addr:housenumber" v="19"/>
    <tag k="addr:street" v="Reservoir Lane"/>
    <tag k="addr:state" v="VT"/>
    <tag k="ref:vcgi:esiteid" v="293056"/>
  </node>
  <node id="-500" visible="true" lat="42.89957809" lon="-72.91352844">
    <tag k="addr:city" v="Wilmington"/>
    <tag k="addr:housenumber" v="22"/>
    <tag k="addr:street" v="Reservoir Lane"/>
    <tag k="addr:state" v="VT"/>
    <tag k="ref:vcgi:esiteid" v="293078"/>
  </node>
  <node id="-505" visible="true" lat="42.89944325" lon="-72.91118961">
    <tag k="addr:city" v="Wilmington"/>
    <tag k="addr:housenumber" v="181"/>
    <tag k="addr:street" v="Upper Dam Road"/>
    <tag k="addr:state" v="VT"/>
    <tag k="ref:vcgi:esiteid" v="293083"/>
  </node>
  <node id="-509" visible="true" lat="42.89925003" lon="-72.91072845">
    <tag k="addr:city" v="Wilmington"/>
    <tag k="addr:housenumber" v="189"/>
    <tag k="addr:street" v="Upper Dam Road"/>
    <tag k="addr:state" v="VT"/>
    <tag k="ref:vcgi:esiteid" v="293087"/>
  </node>
  <node id="-523" visible="true" lat="42.89894104" lon="-72.91318512">
    <tag k="addr:city" v="Wilmington"/>
    <tag k="addr:housenumber" v="10"/>
    <tag k="addr:street" v="Reservoir Lane"/>
    <tag k="addr:state" v="VT"/>
    <tag k="ref:vcgi:esiteid" v="293102"/>
  </node>
  <node id="-525" visible="true" lat="42.89930356" lon="-72.7990853">
    <tag k="addr:city" v="Wilmington"/>
    <tag k="addr:housenumber" v="692"/>
    <tag k="addr:street" v="Higley Hill Road"/>
    <tag k="addr:state" v="VT"/>
    <tag k="ref:vcgi:esiteid" v="293104"/>
  </node>
  <node id="-555" visible="true" lat="42.89816284" lon="-72.91215515">
    <tag k="addr:city" v="Wilmington"/>
    <tag k="addr:housenumber" v="147"/>
    <tag k="addr:street" v="Upper Dam Road"/>
    <tag k="addr:state" v="VT"/>
    <tag k="ref:vcgi:esiteid" v="293136"/>
  </node>
  <node id="-642" visible="true" lat="42.8961005" lon="-72.80257745">
    <tag k="addr:city" v="Wilmington"/>
    <tag k="addr:housenumber" v="55"/>
    <tag k="addr:street" v="Miller Road"/>
    <tag k="addr:state" v="VT"/>
    <tag k="ref:vcgi:esiteid" v="293225"/>
  </node>
  <node id="-665" visible="true" lat="42.89538753" lon="-72.91513934">
    <tag k="addr:city" v="Wilmington"/>
    <tag k="addr:housenumber" v="86"/>
    <tag k="addr:street" v="Upper Dam Road"/>
    <tag k="addr:state" v="VT"/>
    <tag k="ref:vcgi:esiteid" v="293248"/>
  </node>
  <node id="-677" visible="true" lat="42.89509907" lon="-72.9143345">
    <tag k="addr:city" v="Wilmington"/>
    <tag k="addr:housenumber" v="3"/>
    <tag k="addr:street" v="Splatter Foot Close"/>
    <tag k="addr:state" v="VT"/>
    <tag k="ref:vcgi:esiteid" v="293260"/>
  </node>
  <node id="-681" visible="true" lat="42.89525404" lon="-72.91646743">
    <tag k="addr:city" v="Wilmington"/>
    <tag k="addr:housenumber" v="7"/>
    <tag k="addr:street" v="Lightning Ledge Way"/>
    <tag k="addr:state" v="VT"/>
    <tag k="ref:vcgi:esiteid" v="293264"/>
  </node>
  <node id="-682" visible="true" lat="42.89501487" lon="-72.91591411">
    <tag k="addr:city" v="Wilmington"/>
    <tag k="addr:housenumber" v="3"/>
    <tag k="addr:street" v="Lightning Ledge Way"/>
    <tag k="addr:state" v="VT"/>
    <tag k="ref:vcgi:esiteid" v="293265"/>
  </node>
  <node id="-683" visible="true" lat="42.89494323" lon="-72.91409301">
    <tag k="addr:city" v="Wilmington"/>
    <tag k="addr:housenumber" v="5"/>
    <tag k="addr:street" v="Splatter Foot Close"/>
    <tag k="addr:state" v="VT"/>
    <tag k="ref:vcgi:esiteid" v="293266"/>
  </node>
  <node id="-693" visible="true" lat="42.89476776" lon="-72.91395568">
    <tag k="addr:city" v="Wilmington"/>
    <tag k="addr:housenumber" v="9"/>
    <tag k="addr:street" v="Splatter Foot Close"/>
    <tag k="addr:state" v="VT"/>
    <tag k="ref:vcgi:esiteid" v="293276"/>
  </node>
  <node id="-705" visible="true" lat="42.89454095" lon="-72.91389522">
    <tag k="addr:city" v="Wilmington"/>
    <tag k="addr:housenumber" v="11"/>
    <tag k="addr:street" v="Splatter Foot Close"/>
    <tag k="addr:state" v="VT"/>
    <tag k="ref:vcgi:esiteid" v="293288"/>
  </node>
  <node id="-722" visible="true" lat="42.89427509" lon="-72.91376229">
    <tag k="addr:city" v="Wilmington"/>
    <tag k="addr:housenumber" v="15"/>
    <tag k="addr:street" v="Splatter Foot Close"/>
    <tag k="addr:state" v="VT"/>
    <tag k="ref:vcgi:esiteid" v="293305"/>
  </node>
  <node id="-733" visible="true" lat="42.89406794" lon="-72.91625976">
    <tag k="addr:city" v="Wilmington"/>
    <tag k="addr:housenumber" v="9"/>
    <tag k="addr:street" v="Bunny Lane"/>
    <tag k="addr:state" v="VT"/>
    <tag k="ref:vcgi:esiteid" v="293316"/>
  </node>
  <node id="-751" visible="true" lat="42.89351999" lon="-72.91565632">
    <tag k="addr:city" v="Wilmington"/>
    <tag k="addr:housenumber" v="6"/>
    <tag k="addr:street" v="Bunny Lane"/>
    <tag k="addr:state" v="VT"/>
    <tag k="ref:vcgi:esiteid" v="293334"/>
  </node>
  <node id="-761" visible="true" lat="42.8934588" lon="-72.91798168">
    <tag k="addr:city" v="Wilmington"/>
    <tag k="addr:housenumber" v="33"/>
    <tag k="addr:street" v="Lightning Ledge Way"/>
    <tag k="addr:state" v="VT"/>
    <tag k="ref:vcgi:esiteid" v="293344"/>
  </node>
  <node id="-773" visible="true" lat="42.89341116" lon="-72.91528426">
    <tag k="addr:city" v="Wilmington"/>
    <tag k="addr:housenumber" v="3"/>
    <tag k="addr:street" v="Fox Mountain Road"/>
    <tag k="addr:state" v="VT"/>
    <tag k="ref:vcgi:esiteid" v="293356"/>
  </node>
  <node id="-820" visible="true" lat="42.89220184" lon="-72.91785298">
    <tag k="addr:city" v="Wilmington"/>
    <tag k="addr:housenumber" v="35"/>
    <tag k="addr:street" v="Fox Mountain Road"/>
    <tag k="addr:state" v="VT"/>
    <tag k="ref:vcgi:esiteid" v="293403"/>
  </node>
  <node id="-838" visible="true" lat="42.89161934" lon="-72.91646153">
    <tag k="addr:city" v="Wilmington"/>
    <tag k="addr:housenumber" v="7"/>
    <tag k="addr:street" v="Bear Lair Lane"/>
    <tag k="addr:state" v="VT"/>
    <tag k="ref:vcgi:esiteid" v="293421"/>
  </node>
  <node id="-877" visible="true" lat="42.8907547" lon="-72.91882324">
    <tag k="addr:city" v="Wilmington"/>
    <tag k="addr:housenumber" v="48"/>
    <tag k="addr:street" v="Fox Mountain Road"/>
    <tag k="addr:state" v="VT"/>
    <tag k="ref:vcgi:esiteid" v="293460"/>
  </node>
  <node id="-892" visible="true" lat="42.89064433" lon="-72.91725776">
    <tag k="addr:city" v="Wilmington"/>
    <tag k="addr:housenumber" v="43"/>
    <tag k="addr:street" v="Bear Lair Lane"/>
    <tag k="addr:state" v="VT"/>
    <tag k="ref:vcgi:esiteid" v="293475"/>
  </node>
  <node id="-903" visible="true" lat="42.8901776" lon="-72.9178721">
    <tag k="addr:city" v="Wilmington"/>
    <tag k="addr:housenumber" v="46"/>
    <tag k="addr:street" v="Bear Lair Lane"/>
    <tag k="addr:state" v="VT"/>
    <tag k="ref:vcgi:esiteid" v="293486"/>
  </node>
  <node id="-910" visible="true" lat="42.89009522" lon="-72.91678474">
    <tag k="addr:city" v="Wilmington"/>
    <tag k="addr:housenumber" v="42"/>
    <tag k="addr:street" v="Bear Lair Lane"/>
    <tag k="addr:state" v="VT"/>
    <tag k="ref:vcgi:esiteid" v="293493"/>
  </node>
  <node id="-916" visible="true" lat="42.89007631" lon="-72.91531979">
    <tag k="addr:city" v="Wilmington"/>
    <tag k="addr:housenumber" v="47"/>
    <tag k="addr:street" v="Snow Shoe Road"/>
    <tag k="addr:state" v="VT"/>
    <tag k="ref:vcgi:esiteid" v="293499"/>
  </node>
  <node id="-923" visible="true" lat="42.88970565" lon="-72.91490936">
    <tag k="addr:city" v="Wilmington"/>
    <tag k="addr:housenumber" v="48"/>
    <tag k="addr:street" v="Snow Shoe Road"/>
    <tag k="addr:state" v="VT"/>
    <tag k="ref:vcgi:esiteid" v="293506"/>
  </node>
  <node id="-936" visible="true" lat="42.88967268" lon="-72.91636116">
    <tag k="addr:city" v="Wilmington"/>
    <tag k="addr:housenumber" v="57"/>
    <tag k="addr:street" v="Snow Shoe Road"/>
    <tag k="addr:state" v="VT"/>
    <tag k="ref:vcgi:esiteid" v="293519"/>
  </node>
  <node id="-941" visible="true" lat="42.8893814" lon="-72.9152832">
    <tag k="addr:city" v="Wilmington"/>
    <tag k="addr:housenumber" v="54"/>
    <tag k="addr:street" v="Snow Shoe Road"/>
    <tag k="addr:state" v="VT"/>
    <tag k="ref:vcgi:esiteid" v="293524"/>
  </node>
  <node id="-1001" visible="true" lat="42.8876419" lon="-72.91416931">
    <tag k="addr:city" v="Wilmington"/>
    <tag k="addr:housenumber" v="74"/>
    <tag k="addr:street" v="Spruce Grove Road"/>
    <tag k="addr:state" v="VT"/>
    <tag k="ref:vcgi:esiteid" v="293584"/>
  </node>
  <node id="-1008" visible="true" lat="42.88741683" lon="-72.91687011">
    <tag k="addr:city" v="Wilmington"/>
    <tag k="addr:housenumber" v="108"/>
    <tag k="addr:street" v="Spruce Grove Road"/>
    <tag k="addr:state" v="VT"/>
    <tag k="ref:vcgi:esiteid" v="293591"/>
  </node>
  <node id="-1009" visible="true" lat="42.88740158" lon="-72.92023468">
    <tag k="addr:city" v="Wilmington"/>
    <tag k="addr:housenumber" v="164"/>
    <tag k="addr:street" v="Spruce Grove Road"/>
    <tag k="addr:state" v="VT"/>
    <tag k="ref:vcgi:esiteid" v="293592"/>
  </node>
  <node id="-1016" visible="true" lat="42.88717269" lon="-72.91460418">
    <tag k="addr:city" v="Wilmington"/>
    <tag k="addr:housenumber" v="12"/>
    <tag k="addr:street" v="Old Witness Tree Lane"/>
    <tag k="addr:state" v="VT"/>
    <tag k="ref:vcgi:esiteid" v="293599"/>
  </node>
  <node id="-1034" visible="true" lat="42.88643646" lon="-72.91591644">
    <tag k="addr:city" v="Wilmington"/>
    <tag k="addr:housenumber" v="29"/>
    <tag k="addr:street" v="Old Witness Tree Lane"/>
    <tag k="addr:state" v="VT"/>
    <tag k="ref:vcgi:esiteid" v="293618"/>
  </node>
  <node id="-1036" visible="true" lat="42.88633346" lon="-72.92013549">
    <tag k="addr:city" v="Wilmington"/>
    <tag k="addr:housenumber" v="152"/>
    <tag k="addr:street" v="Spruce Grove Road"/>
    <tag k="addr:state" v="VT"/>
    <tag k="ref:vcgi:esiteid" v="293620"/>
  </node>
  <node id="-1041" visible="true" lat="42.88624572" lon="-72.91789245">
    <tag k="addr:city" v="Wilmington"/>
    <tag k="addr:housenumber" v="50"/>
    <tag k="addr:street" v="Old Witness Tree Lane"/>
    <tag k="addr:state" v="VT"/>
    <tag k="ref:vcgi:esiteid" v="293625"/>
  </node>
  <node id="-1043" visible="true" lat="42.8861885" lon="-72.91961669">
    <tag k="addr:city" v="Wilmington"/>
    <tag k="addr:housenumber" v="148"/>
    <tag k="addr:street" v="Spruce Grove Road"/>
    <tag k="addr:state" v="VT"/>
    <tag k="ref:vcgi:esiteid" v="293627"/>
  </node>
  <node id="-1113" visible="true" lat="42.88433799" lon="-72.81033716">
    <tag k="addr:city" v="Wilmington"/>
    <tag k="addr:housenumber" v="44"/>
    <tag k="addr:street" v="Spiller Road"/>
    <tag k="addr:state" v="VT"/>
    <tag k="ref:vcgi:esiteid" v="293698"/>
  </node>
  <node id="-1147" visible="true" lat="42.88217925" lon="-72.813385">
    <tag k="addr:city" v="Wilmington"/>
    <tag k="addr:housenumber" v="95"/>
    <tag k="addr:street" v="Old Stage Road"/>
    <tag k="addr:state" v="VT"/>
    <tag k="ref:vcgi:esiteid" v="293732"/>
  </node>
  <node id="-1188" visible="true" lat="42.88117218" lon="-72.80986022">
    <tag k="addr:city" v="Wilmington"/>
    <tag k="addr:housenumber" v="126"/>
    <tag k="addr:street" v="Old Stage Road"/>
    <tag k="addr:state" v="VT"/>
    <tag k="ref:vcgi:esiteid" v="293773"/>
  </node>
  <node id="-1226" visible="true" lat="42.88009844" lon="-72.80809367">
    <tag k="addr:city" v="Wilmington"/>
    <tag k="addr:housenumber" v="130"/>
    <tag k="addr:street" v="Old Stage Road"/>
    <tag k="addr:state" v="VT"/>
    <tag k="ref:vcgi:esiteid" v="293811"/>
  </node>
  <node id="-1229" visible="true" lat="42.88016413" lon="-72.81010017">
    <tag k="addr:city" v="Wilmington"/>
    <tag k="addr:housenumber" v="141"/>
    <tag k="addr:street" v="Old Stage Road"/>
    <tag k="addr:state" v="VT"/>
    <tag k="ref:vcgi:esiteid" v="293814"/>
  </node>
  <node id="-1255" visible="true" lat="42.87916564" lon="-72.89987945">
    <tag k="addr:city" v="Wilmington"/>
    <tag k="addr:housenumber" v="6"/>
    <tag k="addr:street" v="Buck Hill"/>
    <tag k="addr:state" v="VT"/>
    <tag k="ref:vcgi:esiteid" v="293840"/>
  </node>
  <node id="-1259" visible="true" lat="42.87884902" lon="-72.90092468">
    <tag k="addr:city" v="Wilmington"/>
    <tag k="addr:housenumber" v="13"/>
    <tag k="addr:street" v="High Top Road"/>
    <tag k="addr:state" v="VT"/>
    <tag k="ref:vcgi:esiteid" v="293844"/>
  </node>
  <node id="-1272" visible="true" lat="42.87857437" lon="-72.90088653">
    <tag k="addr:city" v="Wilmington"/>
    <tag k="addr:housenumber" v="11"/>
    <tag k="addr:street" v="High Top Road"/>
    <tag k="addr:state" v="VT"/>
    <tag k="ref:vcgi:esiteid" v="293857"/>
  </node>
  <node id="-1273" visible="true" lat="42.87857437" lon="-72.89975738">
    <tag k="addr:city" v="Wilmington"/>
    <tag k="addr:housenumber" v="15"/>
    <tag k="addr:street" v="View Road"/>
    <tag k="addr:state" v="VT"/>
    <tag k="ref:vcgi:esiteid" v="293858"/>
  </node>
  <node id="-1275" visible="true" lat="42.87848281" lon="-72.89921569">
    <tag k="addr:city" v="Wilmington"/>
    <tag k="addr:housenumber" v="16"/>
    <tag k="addr:street" v="View Road"/>
    <tag k="addr:state" v="VT"/>
    <tag k="ref:vcgi:esiteid" v="293860"/>
  </node>
  <node id="-1284" visible="true" lat="42.87822723" lon="-72.90073394">
    <tag k="addr:city" v="Wilmington"/>
    <tag k="addr:housenumber" v="7"/>
    <tag k="addr:street" v="High Top Road"/>
    <tag k="addr:state" v="VT"/>
    <tag k="ref:vcgi:esiteid" v="293869"/>
  </node>
  <node id="-1291" visible="true" lat="42.87802123" lon="-72.90183258">
    <tag k="addr:city" v="Wilmington"/>
    <tag k="addr:housenumber" v="4"/>
    <tag k="addr:street" v="High Top Road"/>
    <tag k="addr:state" v="VT"/>
    <tag k="ref:vcgi:esiteid" v="293876"/>
  </node>
  <node id="-1294" visible="true" lat="42.8779808" lon="-72.90002606">
    <tag k="addr:city" v="Wilmington"/>
    <tag k="addr:housenumber" v="19"/>
    <tag k="addr:street" v="View Road"/>
    <tag k="addr:state" v="VT"/>
    <tag k="ref:vcgi:esiteid" v="293879"/>
  </node>
  <node id="-1297" visible="true" lat="42.8775809" lon="-72.90164606">
    <tag k="addr:city" v="Wilmington"/>
    <tag k="addr:housenumber" v="2"/>
    <tag k="addr:street" v="High Top Road"/>
    <tag k="addr:state" v="VT"/>
    <tag k="ref:vcgi:esiteid" v="293882"/>
  </node>
  <node id="-1304" visible="true" lat="42.87747573" lon="-72.89997863">
    <tag k="addr:city" v="Wilmington"/>
    <tag k="addr:housenumber" v="35"/>
    <tag k="addr:street" v="View Road"/>
    <tag k="addr:state" v="VT"/>
    <tag k="ref:vcgi:esiteid" v="293889"/>
  </node>
  <node id="-1317" visible="true" lat="42.87699804" lon="-72.90057048">
    <tag k="addr:city" v="Wilmington"/>
    <tag k="addr:housenumber" v="47"/>
    <tag k="addr:street" v="View Road"/>
    <tag k="addr:state" v="VT"/>
    <tag k="ref:vcgi:esiteid" v="293902"/>
  </node>
  <node id="-1318" visible="true" lat="42.87674397" lon="-72.89983353">
    <tag k="addr:city" v="Wilmington"/>
    <tag k="addr:housenumber" v="42"/>
    <tag k="addr:street" v="View Road"/>
    <tag k="addr:state" v="VT"/>
    <tag k="ref:vcgi:esiteid" v="293903"/>
  </node>
  <node id="-1327" visible="true" lat="42.87631988" lon="-72.89952087">
    <tag k="addr:city" v="Wilmington"/>
    <tag k="addr:housenumber" v="46"/>
    <tag k="addr:street" v="View Road"/>
    <tag k="addr:state" v="VT"/>
    <tag k="ref:vcgi:esiteid" v="293912"/>
  </node>
  <node id="-1329" visible="true" lat="42.87615564" lon="-72.90032201">
    <tag k="addr:city" v="Wilmington"/>
    <tag k="addr:housenumber" v="55"/>
    <tag k="addr:street" v="View Road"/>
    <tag k="addr:state" v="VT"/>
    <tag k="ref:vcgi:esiteid" v="293914"/>
  </node>
  <node id="-1338" visible="true" lat="42.87578582" lon="-72.90084838">
    <tag k="addr:city" v="Wilmington"/>
    <tag k="addr:housenumber" v="53"/>
    <tag k="addr:street" v="View Road"/>
    <tag k="addr:state" v="VT"/>
    <tag k="ref:vcgi:esiteid" v="293923"/>
  </node>
  <node id="-1362" visible="true" lat="42.87490081" lon="-72.89019012">
    <tag k="addr:city" v="Wilmington"/>
    <tag k="addr:housenumber" v="9"/>
    <tag k="addr:street" v="Haystack Road"/>
    <tag k="addr:state" v="VT"/>
    <tag k="ref:vcgi:esiteid" v="293947"/>
  </node>
  <node id="-1368" visible="true" lat="42.87479571" lon="-72.8999705">
    <tag k="addr:city" v="Wilmington"/>
    <tag k="addr:housenumber" v="83"/>
    <tag k="addr:street" v="Town Farm Road"/>
    <tag k="addr:state" v="VT"/>
    <tag k="ref:vcgi:esiteid" v="293953"/>
  </node>
  <node id="-1372" visible="true" lat="42.87435913" lon="-72.8902359">
    <tag k="addr:city" v="Wilmington"/>
    <tag k="addr:housenumber" v="5"/>
    <tag k="addr:street" v="Haystack Road"/>
    <tag k="addr:state" v="VT"/>
    <tag k="ref:vcgi:esiteid" v="293958"/>
  </node>
  <node id="-1376" visible="true" lat="42.87449595" lon="-72.90050445">
    <tag k="addr:city" v="Wilmington"/>
    <tag k="addr:housenumber" v="91"/>
    <tag k="addr:street" v="Town Farm Road"/>
    <tag k="addr:state" v="VT"/>
    <tag k="ref:vcgi:esiteid" v="293962"/>
  </node>
  <node id="-1381" visible="true" lat="42.87427139" lon="-72.81037139">
    <tag k="addr:city" v="Wilmington"/>
    <tag k="addr:housenumber" v="50"/>
    <tag k="addr:street" v="Stearns Avenue"/>
    <tag k="addr:state" v="VT"/>
    <tag k="ref:vcgi:esiteid" v="293968"/>
  </node>
  <node id="-1384" visible="true" lat="42.8738596" lon="-72.90030717">
    <tag k="addr:city" v="Wilmington"/>
    <tag k="addr:housenumber" v="92"/>
    <tag k="addr:street" v="Town Farm Road"/>
    <tag k="addr:state" v="VT"/>
    <tag k="ref:vcgi:esiteid" v="293971"/>
  </node>
  <node id="-1412" visible="true" lat="42.87280501" lon="-72.87511771">
    <tag k="addr:city" v="Wilmington"/>
    <tag k="addr:housenumber" v="78"/>
    <tag k="addr:street" v="Ray Hill Road"/>
    <tag k="addr:state" v="VT"/>
    <tag k="ref:vcgi:esiteid" v="293999"/>
  </node>
  <node id="-1424" visible="true" lat="42.87198257" lon="-72.87981414">
    <tag k="addr:city" v="Wilmington"/>
    <tag k="addr:housenumber" v="107"/>
    <tag k="addr:street" v="West Main Street"/>
    <tag k="addr:state" v="VT"/>
    <tag k="ref:vcgi:esiteid" v="294011"/>
  </node>
  <node id="-1438" visible="true" lat="42.87144088" lon="-72.88144683">
    <tag k="addr:city" v="Wilmington"/>
    <tag k="addr:housenumber" v="123"/>
    <tag k="addr:street" v="West Main Street"/>
    <tag k="addr:state" v="VT"/>
    <tag k="ref:vcgi:esiteid" v="294027"/>
  </node>
  <node id="-1439" visible="true" lat="42.87136077" lon="-72.88101196">
    <tag k="addr:city" v="Wilmington"/>
    <tag k="addr:housenumber" v="117"/>
    <tag k="addr:street" v="West Main Street"/>
    <tag k="addr:state" v="VT"/>
    <tag k="ref:vcgi:esiteid" v="294028"/>
  </node>
  <node id="-1444" visible="true" lat="42.87127685" lon="-72.87780761">
    <tag k="addr:city" v="Wilmington"/>
    <tag k="addr:housenumber" v="83"/>
    <tag k="addr:street" v="West Main Street"/>
    <tag k="addr:state" v="VT"/>
    <tag k="ref:vcgi:esiteid" v="294033"/>
  </node>
  <node id="-1445" visible="true" lat="42.87123489" lon="-72.88032531">
    <tag k="addr:city" v="Wilmington"/>
    <tag k="addr:housenumber" v="111"/>
    <tag k="addr:street" v="West Main Street"/>
    <tag k="addr:state" v="VT"/>
    <tag k="ref:vcgi:esiteid" v="294034"/>
  </node>
  <node id="-1454" visible="true" lat="42.87107467" lon="-72.87973022">
    <tag k="addr:city" v="Wilmington"/>
    <tag k="addr:housenumber" v="103"/>
    <tag k="addr:street" v="West Main Street"/>
    <tag k="addr:state" v="VT"/>
    <tag k="ref:vcgi:esiteid" v="294043"/>
  </node>
  <node id="-1457" visible="true" lat="42.87100219" lon="-72.87924194">
    <tag k="addr:city" v="Wilmington"/>
    <tag k="addr:housenumber" v="97"/>
    <tag k="addr:street" v="West Main Street"/>
    <tag k="addr:state" v="VT"/>
    <tag k="ref:vcgi:esiteid" v="294046"/>
  </node>
  <node id="-1458" visible="true" lat="42.87099838" lon="-72.87947082">
    <tag k="addr:city" v="Wilmington"/>
    <tag k="addr:housenumber" v="99"/>
    <tag k="addr:street" v="West Main Street"/>
    <tag k="addr:state" v="VT"/>
    <tag k="ref:vcgi:esiteid" v="294047"/>
  </node>
  <node id="-1461" visible="true" lat="42.87090682" lon="-72.87792968">
    <tag k="addr:city" v="Wilmington"/>
    <tag k="addr:housenumber" v="81"/>
    <tag k="addr:street" v="West Main Street"/>
    <tag k="addr:state" v="VT"/>
    <tag k="ref:vcgi:esiteid" v="294051"/>
  </node>
  <node id="-1462" visible="true" lat="42.87090683" lon="-72.87839508">
    <tag k="addr:city" v="Wilmington"/>
    <tag k="addr:housenumber" v="87"/>
    <tag k="addr:street" v="West Main Street"/>
    <tag k="addr:state" v="VT"/>
    <tag k="ref:vcgi:esiteid" v="294052"/>
  </node>
  <node id="-1464" visible="true" lat="42.8708992" lon="-72.87877654">
    <tag k="addr:city" v="Wilmington"/>
    <tag k="addr:housenumber" v="89"/>
    <tag k="addr:street" v="West Main Street"/>
    <tag k="addr:state" v="VT"/>
    <tag k="ref:vcgi:esiteid" v="294054"/>
  </node>
  <node id="-1465" visible="true" lat="42.87090301" lon="-72.87709045">
    <tag k="addr:city" v="Wilmington"/>
    <tag k="addr:housenumber" v="71"/>
    <tag k="addr:street" v="West Main Street"/>
    <tag k="addr:state" v="VT"/>
    <tag k="ref:vcgi:esiteid" v="294055"/>
  </node>
  <node id="-1466" visible="true" lat="42.87088775" lon="-72.87671661">
    <tag k="addr:city" v="Wilmington"/>
    <tag k="addr:housenumber" v="67"/>
    <tag k="addr:street" v="West Main Street"/>
    <tag k="addr:state" v="VT"/>
    <tag k="ref:vcgi:esiteid" v="294056"/>
  </node>
  <node id="-1470" visible="true" lat="42.87081527" lon="-72.8758316">
    <tag k="addr:city" v="Wilmington"/>
    <tag k="addr:housenumber" v="61"/>
    <tag k="addr:street" v="West Main Street"/>
    <tag k="addr:state" v="VT"/>
    <tag k="ref:vcgi:esiteid" v="294060"/>
  </node>
  <node id="-1471" visible="true" lat="42.87080764" lon="-72.87621307">
    <tag k="addr:city" v="Wilmington"/>
    <tag k="addr:housenumber" v="63"/>
    <tag k="addr:street" v="West Main Street"/>
    <tag k="addr:state" v="VT"/>
    <tag k="ref:vcgi:esiteid" v="294061"/>
  </node>
  <node id="-1473" visible="true" lat="42.87073898" lon="-72.88595581">
    <tag k="addr:city" v="Wilmington"/>
    <tag k="addr:housenumber" v="121"/>
    <tag k="addr:street" v="Fairview Avenue"/>
    <tag k="addr:state" v="VT"/>
    <tag k="ref:vcgi:esiteid" v="294063"/>
  </node>
  <node id="-1475" visible="true" lat="42.87054443" lon="-72.92434692">
    <tag k="addr:city" v="Wilmington"/>
    <tag k="addr:housenumber" v="53"/>
    <tag k="addr:street" v="New England Power Road"/>
    <tag k="addr:state" v="VT"/>
    <tag k="ref:vcgi:esiteid" v="294066"/>
  </node>
  <node id="-1477" visible="true" lat="42.87070846" lon="-72.87508392">
    <tag k="addr:city" v="Wilmington"/>
    <tag k="addr:housenumber" v="51"/>
    <tag k="addr:street" v="West Main Street"/>
    <tag k="addr:state" v="VT"/>
    <tag k="ref:vcgi:esiteid" v="294068"/>
  </node>
  <node id="-1488" visible="true" lat="42.8704338" lon="-72.88513946">
    <tag k="addr:city" v="Wilmington"/>
    <tag k="addr:housenumber" v="111"/>
    <tag k="addr:street" v="Fairview Avenue"/>
    <tag k="addr:state" v="VT"/>
    <tag k="ref:vcgi:esiteid" v="294080"/>
  </node>
  <node id="-1489" visible="true" lat="42.87028503" lon="-72.91848754">
    <tag k="addr:city" v="Wilmington"/>
    <tag k="addr:housenumber" v="23"/>
    <tag k="addr:street" v="Woods Road"/>
    <tag k="addr:state" v="VT"/>
    <tag k="ref:vcgi:esiteid" v="294081"/>
  </node>
  <node id="-1490" visible="true" lat="42.87031555" lon="-72.9053955">
    <tag k="addr:city" v="Wilmington"/>
    <tag k="addr:housenumber" v="5"/>
    <tag k="addr:street" v="Primrose Lane"/>
    <tag k="addr:state" v="VT"/>
    <tag k="ref:vcgi:esiteid" v="294082"/>
  </node>
  <node id="-1491" visible="true" lat="42.87023925" lon="-72.92060089">
    <tag k="addr:city" v="Wilmington"/>
    <tag k="addr:housenumber" v="12"/>
    <tag k="addr:street" v="New England Power Road"/>
    <tag k="addr:state" v="VT"/>
    <tag k="ref:vcgi:esiteid" v="294083"/>
  </node>
  <node id="-1492" visible="true" lat="42.87022781" lon="-72.92145538">
    <tag k="addr:city" v="Wilmington"/>
    <tag k="addr:housenumber" v="18"/>
    <tag k="addr:street" v="New England Power Road"/>
    <tag k="addr:state" v="VT"/>
    <tag k="ref:vcgi:esiteid" v="294085"/>
  </node>
  <node id="-1494" visible="true" lat="42.87016677" lon="-72.92273712">
    <tag k="addr:city" v="Wilmington"/>
    <tag k="addr:housenumber" v="36"/>
    <tag k="addr:street" v="New England Power Road"/>
    <tag k="addr:state" v="VT"/>
    <tag k="ref:vcgi:esiteid" v="294087"/>
  </node>
  <node id="-1496" visible="true" lat="42.87028884" lon="-72.87036895">
    <tag k="addr:city" v="Wilmington"/>
    <tag k="addr:housenumber" v="25"/>
    <tag k="addr:street" v="Ray Hill Road"/>
    <tag k="addr:state" v="VT"/>
    <tag k="ref:vcgi:esiteid" v="294089"/>
  </node>
  <node id="-1497" visible="true" lat="42.869854" lon="-72.91943944">
    <tag k="addr:city" v="Wilmington"/>
    <tag k="addr:housenumber" v="13"/>
    <tag k="addr:street" v="Woods Road"/>
    <tag k="addr:state" v="VT"/>
    <tag k="ref:vcgi:esiteid" v="294090"/>
  </node>
  <node id="-1500" visible="true" lat="42.87017059" lon="-72.88430023">
    <tag k="addr:city" v="Wilmington"/>
    <tag k="addr:housenumber" v="105"/>
    <tag k="addr:street" v="Fairview Avenue"/>
    <tag k="addr:state" v="VT"/>
    <tag k="ref:vcgi:esiteid" v="294093"/>
  </node>
  <node id="-1503" visible="true" lat="42.86996459" lon="-72.92318725">
    <tag k="addr:city" v="Wilmington"/>
    <tag k="addr:housenumber" v="38"/>
    <tag k="addr:street" v="New England Power Road"/>
    <tag k="addr:state" v="VT"/>
    <tag k="ref:vcgi:esiteid" v="294096"/>
  </node>
  <node id="-1506" visible="true" lat="42.86986541" lon="-72.9176712">
    <tag k="addr:city" v="Wilmington"/>
    <tag k="addr:housenumber" v="33"/>
    <tag k="addr:street" v="Woods Road"/>
    <tag k="addr:state" v="VT"/>
    <tag k="ref:vcgi:esiteid" v="294101"/>
  </node>
  <node id="-1520" visible="true" lat="42.86988449" lon="-72.87062835">
    <tag k="addr:city" v="Wilmington"/>
    <tag k="addr:housenumber" v="17"/>
    <tag k="addr:street" v="Ray Hill Road"/>
    <tag k="addr:state" v="VT"/>
    <tag k="ref:vcgi:esiteid" v="294116"/>
  </node>
  <node id="-1521" visible="true" lat="42.86988067" lon="-72.871109">
    <tag k="addr:city" v="Wilmington"/>
    <tag k="addr:housenumber" v="20"/>
    <tag k="addr:street" v="Ray Hill Road"/>
    <tag k="addr:state" v="VT"/>
    <tag k="ref:vcgi:esiteid" v="294117"/>
  </node>
  <node id="-1524" visible="true" lat="42.86981201" lon="-72.88251495">
    <tag k="addr:city" v="Wilmington"/>
    <tag k="addr:housenumber" v="79"/>
    <tag k="addr:street" v="Fairview Avenue"/>
    <tag k="addr:state" v="VT"/>
    <tag k="ref:vcgi:esiteid" v="294121"/>
  </node>
  <node id="-1525" visible="true" lat="42.86974334" lon="-72.88404846">
    <tag k="addr:city" v="Wilmington"/>
    <tag k="addr:housenumber" v="98"/>
    <tag k="addr:street" v="Fairview Avenue"/>
    <tag k="addr:state" v="VT"/>
    <tag k="ref:vcgi:esiteid" v="294122"/>
  </node>
  <node id="-1529" visible="true" lat="42.86967849" lon="-72.88375854">
    <tag k="addr:city" v="Wilmington"/>
    <tag k="addr:housenumber" v="92"/>
    <tag k="addr:street" v="Fairview Avenue"/>
    <tag k="addr:state" v="VT"/>
    <tag k="ref:vcgi:esiteid" v="294126"/>
  </node>
  <node id="-1531" visible="true" lat="42.86970901" lon="-72.87332153">
    <tag k="addr:city" v="Wilmington"/>
    <tag k="addr:housenumber" v="31"/>
    <tag k="addr:street" v="West Main Street"/>
    <tag k="addr:state" v="VT"/>
    <tag k="ref:vcgi:esiteid" v="294129"/>
  </node>
  <node id="-1536" visible="true" lat="42.86960985" lon="-72.87388542">
    <tag k="addr:city" v="Wilmington"/>
    <tag k="addr:housenumber" v="34"/>
    <tag k="addr:street" v="West Main Street"/>
    <tag k="addr:state" v="VT"/>
    <tag k="ref:vcgi:esiteid" v="294134"/>
  </node>
  <node id="-1542" visible="true" lat="42.8694992" lon="-72.87121582">
    <tag k="addr:city" v="Wilmington"/>
    <tag k="addr:housenumber" v="12"/>
    <tag k="addr:street" v="Ray Hill Road"/>
    <tag k="addr:state" v="VT"/>
    <tag k="ref:vcgi:esiteid" v="294143"/>
  </node>
  <node id="-1548" visible="true" lat="42.86927413" lon="-72.91737365">
    <tag k="addr:city" v="Wilmington"/>
    <tag k="addr:housenumber" v="41"/>
    <tag k="addr:street" v="Woods Road"/>
    <tag k="addr:state" v="VT"/>
    <tag k="ref:vcgi:esiteid" v="294149"/>
  </node>
  <node id="-1549" visible="true" lat="42.86949329" lon="-72.87345491">
    <tag k="addr:city" v="Wilmington"/>
    <tag k="addr:housenumber" v="30"/>
    <tag k="addr:street" v="West Main Street"/>
    <tag k="addr:state" v="VT"/>
    <tag k="ref:vcgi:esiteid" v="294150"/>
  </node>
  <node id="-1550" visible="true" lat="42.86940383" lon="-72.87255859">
    <tag k="addr:city" v="Wilmington"/>
    <tag k="addr:housenumber" v="21"/>
    <tag k="addr:street" v="West Main Street"/>
    <tag k="addr:state" v="VT"/>
    <tag k="ref:vcgi:esiteid" v="294151"/>
  </node>
  <node id="-1551" visible="true" lat="42.86936569" lon="-72.87532043">
    <tag k="addr:city" v="Wilmington"/>
    <tag k="addr:housenumber" v="29"/>
    <tag k="addr:street" v="Shafter Street"/>
    <tag k="addr:state" v="VT"/>
    <tag k="ref:vcgi:esiteid" v="294152"/>
  </node>
  <node id="-1552" visible="true" lat="42.86928128" lon="-72.86990121">
    <tag k="addr:city" v="Wilmington"/>
    <tag k="addr:housenumber" v="18"/>
    <tag k="addr:street" v="North Main Street"/>
    <tag k="addr:state" v="VT"/>
    <tag k="ref:vcgi:esiteid" v="294154"/>
  </node>
  <node id="-1557" visible="true" lat="42.86928176" lon="-72.87134551">
    <tag k="addr:city" v="Wilmington"/>
    <tag k="addr:housenumber" v="10"/>
    <tag k="addr:street" v="Ray Hill Road"/>
    <tag k="addr:state" v="VT"/>
    <tag k="ref:vcgi:esiteid" v="294159"/>
  </node>
  <node id="-1558" visible="true" lat="42.86909058" lon="-72.88146755">
    <tag k="addr:city" v="Wilmington"/>
    <tag k="addr:housenumber" v="66"/>
    <tag k="addr:street" v="Fairview Avenue"/>
    <tag k="addr:state" v="VT"/>
    <tag k="ref:vcgi:esiteid" v="294160"/>
  </node>
  <node id="-1560" visible="true" lat="42.86926269" lon="-72.87226104">
    <tag k="addr:city" v="Wilmington"/>
    <tag k="addr:housenumber" v="17"/>
    <tag k="addr:street" v="West Main Street"/>
    <tag k="addr:state" v="VT"/>
    <tag k="ref:vcgi:esiteid" v="294162"/>
  </node>
  <node id="-1561" visible="true" lat="42.86933333" lon="-72.87317846">
    <tag k="addr:city" v="Wilmington"/>
    <tag k="addr:housenumber" v="28"/>
    <tag k="addr:street" v="West Main Street"/>
    <tag k="addr:state" v="VT"/>
    <tag k="ref:vcgi:esiteid" v="294163"/>
  </node>
  <node id="-1562" visible="true" lat="42.86979979" lon="-72.87766068">
    <tag k="addr:city" v="Wilmington"/>
    <tag k="addr:housenumber" v="45"/>
    <tag k="addr:street" v="Mill Street"/>
    <tag k="addr:state" v="VT"/>
    <tag k="ref:vcgi:esiteid" v="294164"/>
  </node>
  <node id="-1563" visible="true" lat="42.86923217" lon="-72.87482452">
    <tag k="addr:city" v="Wilmington"/>
    <tag k="addr:housenumber" v="25"/>
    <tag k="addr:street" v="Shafter Street"/>
    <tag k="addr:state" v="VT"/>
    <tag k="ref:vcgi:esiteid" v="294165"/>
  </node>
  <node id="-1564" visible="true" lat="42.86922454" lon="-72.8754425">
    <tag k="addr:city" v="Wilmington"/>
    <tag k="addr:housenumber" v="30"/>
    <tag k="addr:street" v="Shafter Street"/>
    <tag k="addr:state" v="VT"/>
    <tag k="ref:vcgi:esiteid" v="294166"/>
  </node>
  <node id="-1565" visible="true" lat="42.86922836" lon="-72.87301635">
    <tag k="addr:city" v="Wilmington"/>
    <tag k="addr:housenumber" v="24"/>
    <tag k="addr:street" v="West Main Street"/>
    <tag k="addr:state" v="VT"/>
    <tag k="ref:vcgi:esiteid" v="294167"/>
  </node>
  <node id="-1566" visible="true" lat="42.86917407" lon="-72.87210611">
    <tag k="addr:city" v="Wilmington"/>
    <tag k="addr:housenumber" v="15"/>
    <tag k="addr:street" v="West Main Street"/>
    <tag k="addr:state" v="VT"/>
    <tag k="ref:vcgi:esiteid" v="294168"/>
  </node>
  <node id="-1567" visible="true" lat="42.86938495" lon="-72.81109646">
    <tag k="addr:city" v="Wilmington"/>
    <tag k="addr:housenumber" v="161"/>
    <tag k="addr:street" v="Ware Road"/>
    <tag k="addr:state" v="VT"/>
    <tag k="ref:vcgi:esiteid" v="294169"/>
  </node>
  <node id="-1568" visible="true" lat="42.86910645" lon="-72.87012388">
    <tag k="addr:city" v="Wilmington"/>
    <tag k="addr:housenumber" v="14"/>
    <tag k="addr:street" v="North Main Street"/>
    <tag k="addr:state" v="VT"/>
    <tag k="ref:vcgi:esiteid" v="294170"/>
  </node>
  <node id="-1570" visible="true" lat="42.86906433" lon="-72.8746109">
    <tag k="addr:city" v="Wilmington"/>
    <tag k="addr:housenumber" v="21"/>
    <tag k="addr:street" v="Shafter Street"/>
    <tag k="addr:state" v="VT"/>
    <tag k="ref:vcgi:esiteid" v="294172"/>
  </node>
  <node id="-1571" visible="true" lat="42.86906814" lon="-72.87289428">
    <tag k="addr:city" v="Wilmington"/>
    <tag k="addr:housenumber" v="22"/>
    <tag k="addr:street" v="West Main Street"/>
    <tag k="addr:state" v="VT"/>
    <tag k="ref:vcgi:esiteid" v="294173"/>
  </node>
  <node id="-1572" visible="true" lat="42.86909668" lon="-72.87185823">
    <tag k="addr:city" v="Wilmington"/>
    <tag k="addr:housenumber" v="11"/>
    <tag k="addr:street" v="West Main Street"/>
    <tag k="addr:state" v="VT"/>
    <tag k="ref:vcgi:esiteid" v="294175"/>
  </node>
  <node id="-1575" visible="true" lat="42.86901855" lon="-72.87985992">
    <tag k="addr:city" v="Wilmington"/>
    <tag k="addr:housenumber" v="46"/>
    <tag k="addr:street" v="Fairview Avenue"/>
    <tag k="addr:state" v="VT"/>
    <tag k="ref:vcgi:esiteid" v="294178"/>
  </node>
  <node id="-1576" visible="true" lat="42.86899083" lon="-72.87167124">
    <tag k="addr:city" v="Wilmington"/>
    <tag k="addr:housenumber" v="9"/>
    <tag k="addr:street" v="West Main Street"/>
    <tag k="addr:state" v="VT"/>
    <tag k="ref:vcgi:esiteid" v="294179"/>
  </node>
  <node id="-1578" visible="true" lat="42.86903199" lon="-72.87264337">
    <tag k="addr:city" v="Wilmington"/>
    <tag k="addr:housenumber" v="20"/>
    <tag k="addr:street" v="West Main Street"/>
    <tag k="addr:state" v="VT"/>
    <tag k="ref:vcgi:esiteid" v="294181"/>
  </node>
  <node id="-1579" visible="true" lat="42.86895752" lon="-72.87513732">
    <tag k="addr:city" v="Wilmington"/>
    <tag k="addr:housenumber" v="26"/>
    <tag k="addr:street" v="Shafter Street"/>
    <tag k="addr:state" v="VT"/>
    <tag k="ref:vcgi:esiteid" v="294182"/>
  </node>
  <node id="-1580" visible="true" lat="42.86894607" lon="-72.87445068">
    <tag k="addr:city" v="Wilmington"/>
    <tag k="addr:housenumber" v="19"/>
    <tag k="addr:street" v="Shafter Street"/>
    <tag k="addr:state" v="VT"/>
    <tag k="ref:vcgi:esiteid" v="294183"/>
  </node>
  <node id="-1586" visible="true" lat="42.86893668" lon="-72.87241795">
    <tag k="addr:city" v="Wilmington"/>
    <tag k="addr:housenumber" v="16"/>
    <tag k="addr:street" v="West Main Street"/>
    <tag k="addr:state" v="VT"/>
    <tag k="ref:vcgi:esiteid" v="294190"/>
  </node>
  <node id="-1587" visible="true" lat="42.86888885" lon="-72.87052917">
    <tag k="addr:city" v="Wilmington"/>
    <tag k="addr:housenumber" v="8"/>
    <tag k="addr:street" v="North Main Street"/>
    <tag k="addr:state" v="VT"/>
    <tag k="ref:vcgi:esiteid" v="294191"/>
  </node>
  <node id="-1588" visible="true" lat="42.8688774" lon="-72.87148284">
    <tag k="addr:city" v="Wilmington"/>
    <tag k="addr:housenumber" v="7"/>
    <tag k="addr:street" v="West Main Street"/>
    <tag k="addr:state" v="VT"/>
    <tag k="ref:vcgi:esiteid" v="294193"/>
  </node>
  <node id="-1590" visible="true" lat="42.86887359" lon="-72.87072753">
    <tag k="addr:city" v="Wilmington"/>
    <tag k="addr:housenumber" v="6"/>
    <tag k="addr:street" v="North Main Street"/>
    <tag k="addr:state" v="VT"/>
    <tag k="ref:vcgi:esiteid" v="294195"/>
  </node>
  <node id="-1592" visible="true" lat="42.86882018" lon="-72.87493133">
    <tag k="addr:city" v="Wilmington"/>
    <tag k="addr:housenumber" v="24"/>
    <tag k="addr:street" v="Shafter Street"/>
    <tag k="addr:state" v="VT"/>
    <tag k="ref:vcgi:esiteid" v="294198"/>
  </node>
  <node id="-1593" visible="true" lat="42.86881255" lon="-72.8742218">
    <tag k="addr:city" v="Wilmington"/>
    <tag k="addr:housenumber" v="17"/>
    <tag k="addr:street" v="Shafter Street"/>
    <tag k="addr:state" v="VT"/>
    <tag k="ref:vcgi:esiteid" v="294199"/>
  </node>
  <node id="-1594" visible="true" lat="42.8687973" lon="-72.87224578">
    <tag k="addr:city" v="Wilmington"/>
    <tag k="addr:housenumber" v="14"/>
    <tag k="addr:street" v="West Main Street"/>
    <tag k="addr:state" v="VT"/>
    <tag k="ref:vcgi:esiteid" v="294200"/>
  </node>
  <node id="-1596" visible="true" lat="42.86875534" lon="-72.87742614">
    <tag k="addr:city" v="Wilmington"/>
    <tag k="addr:housenumber" v="30"/>
    <tag k="addr:street" v="Mill Street"/>
    <tag k="addr:state" v="VT"/>
    <tag k="ref:vcgi:esiteid" v="294202"/>
  </node>
  <node id="-1601" visible="true" lat="42.86875261" lon="-72.87122437">
    <tag k="addr:city" v="Wilmington"/>
    <tag k="addr:housenumber" v="5"/>
    <tag k="addr:street" v="West Main Street"/>
    <tag k="addr:state" v="VT"/>
    <tag k="ref:vcgi:esiteid" v="294208"/>
  </node>
  <node id="-1602" visible="true" lat="42.8686409" lon="-72.8789978">
    <tag k="addr:city" v="Wilmington"/>
    <tag k="addr:housenumber" v="40"/>
    <tag k="addr:street" v="Fairview Avenue"/>
    <tag k="addr:state" v="VT"/>
    <tag k="ref:vcgi:esiteid" v="294209"/>
  </node>
  <node id="-1603" visible="true" lat="42.86858404" lon="-72.87203736">
    <tag k="addr:city" v="Wilmington"/>
    <tag k="addr:housenumber" v="10"/>
    <tag k="addr:street" v="West Main Street"/>
    <tag k="addr:state" v="VT"/>
    <tag k="ref:vcgi:esiteid" v="294210"/>
  </node>
  <node id="-1604" visible="true" lat="42.86865997" lon="-72.8709793">
    <tag k="addr:city" v="Wilmington"/>
    <tag k="addr:housenumber" v="4"/>
    <tag k="addr:street" v="North Main Street"/>
    <tag k="addr:state" v="VT"/>
    <tag k="ref:vcgi:esiteid" v="294211"/>
  </node>
  <node id="-1606" visible="true" lat="42.86862945" lon="-72.87039184">
    <tag k="addr:city" v="Wilmington"/>
    <tag k="addr:housenumber" v="7"/>
    <tag k="addr:street" v="North Main Street"/>
    <tag k="addr:state" v="VT"/>
    <tag k="ref:vcgi:esiteid" v="294213"/>
  </node>
  <node id="-1608" visible="true" lat="42.86856078" lon="-72.87003326">
    <tag k="addr:city" v="Wilmington"/>
    <tag k="addr:housenumber" v="5"/>
    <tag k="addr:street" v="Lisle Hill Road"/>
    <tag k="addr:state" v="VT"/>
    <tag k="ref:vcgi:esiteid" v="294215"/>
  </node>
  <node id="-1609" visible="true" lat="42.86851501" lon="-72.87045288">
    <tag k="addr:city" v="Wilmington"/>
    <tag k="addr:housenumber" v="5"/>
    <tag k="addr:street" v="North Main Street"/>
    <tag k="addr:state" v="VT"/>
    <tag k="ref:vcgi:esiteid" v="294216"/>
  </node>
  <node id="-1612" visible="true" lat="42.8684349" lon="-72.87451171">
    <tag k="addr:city" v="Wilmington"/>
    <tag k="addr:housenumber" v="4"/>
    <tag k="addr:street" v="Mill Street"/>
    <tag k="addr:state" v="VT"/>
    <tag k="ref:vcgi:esiteid" v="294219"/>
  </node>
  <node id="-1613" visible="true" lat="42.86847341" lon="-72.87647694">
    <tag k="addr:city" v="Wilmington"/>
    <tag k="addr:housenumber" v="20"/>
    <tag k="addr:street" v="Mill Street"/>
    <tag k="addr:state" v="VT"/>
    <tag k="ref:vcgi:esiteid" v="294220"/>
  </node>
  <node id="-1614" visible="true" lat="42.86845395" lon="-72.8706802">
    <tag k="addr:city" v="Wilmington"/>
    <tag k="addr:housenumber" v="3"/>
    <tag k="addr:street" v="North Main Street"/>
    <tag k="addr:state" v="VT"/>
    <tag k="ref:vcgi:esiteid" v="294221"/>
  </node>
  <node id="-1623" visible="true" lat="42.86825561" lon="-72.87982177">
    <tag k="addr:city" v="Wilmington"/>
    <tag k="addr:housenumber" v="34"/>
    <tag k="addr:street" v="Fairview Avenue"/>
    <tag k="addr:state" v="VT"/>
    <tag k="ref:vcgi:esiteid" v="294231"/>
  </node>
  <node id="-1625" visible="true" lat="42.86828518" lon="-72.87143252">
    <tag k="addr:city" v="Wilmington"/>
    <tag k="addr:housenumber" v="3"/>
    <tag k="addr:street" v="South Main Street"/>
    <tag k="addr:state" v="VT"/>
    <tag k="ref:vcgi:esiteid" v="294234"/>
  </node>
  <node id="-1626" visible="true" lat="42.86825943" lon="-72.87023925">
    <tag k="addr:city" v="Wilmington"/>
    <tag k="addr:housenumber" v="8"/>
    <tag k="addr:street" v="East Main Street"/>
    <tag k="addr:state" v="VT"/>
    <tag k="ref:vcgi:esiteid" v="294235"/>
  </node>
  <node id="-1627" visible="true" lat="42.86819458" lon="-72.87160491">
    <tag k="addr:city" v="Wilmington"/>
    <tag k="addr:housenumber" v="7"/>
    <tag k="addr:street" v="South Main Street"/>
    <tag k="addr:state" v="VT"/>
    <tag k="ref:vcgi:esiteid" v="294237"/>
  </node>
  <node id="-1628" visible="true" lat="42.86817932" lon="-72.87097167">
    <tag k="addr:city" v="Wilmington"/>
    <tag k="addr:housenumber" v="1"/>
    <tag k="addr:street" v="East Main Street"/>
    <tag k="addr:state" v="VT"/>
    <tag k="ref:vcgi:esiteid" v="294238"/>
  </node>
  <node id="-1629" visible="true" lat="42.8681488" lon="-72.87862396">
    <tag k="addr:city" v="Wilmington"/>
    <tag k="addr:housenumber" v="32"/>
    <tag k="addr:street" v="Fairview Avenue"/>
    <tag k="addr:state" v="VT"/>
    <tag k="ref:vcgi:esiteid" v="294239"/>
  </node>
  <node id="-1632" visible="true" lat="42.86811138" lon="-72.87172623">
    <tag k="addr:city" v="Wilmington"/>
    <tag k="addr:housenumber" v="9"/>
    <tag k="addr:street" v="South Main Street"/>
    <tag k="addr:state" v="VT"/>
    <tag k="ref:vcgi:esiteid" v="294242"/>
  </node>
  <node id="-1633" visible="true" lat="42.86810302" lon="-72.8711853">
    <tag k="addr:city" v="Wilmington"/>
    <tag k="addr:housenumber" v="4"/>
    <tag k="addr:street" v="South Main Street"/>
    <tag k="addr:state" v="VT"/>
    <tag k="ref:vcgi:esiteid" v="294243"/>
  </node>
  <node id="-1634" visible="true" lat="42.86805725" lon="-72.87126922">
    <tag k="addr:city" v="Wilmington"/>
    <tag k="addr:housenumber" v="6"/>
    <tag k="addr:street" v="South Main Street"/>
    <tag k="addr:state" v="VT"/>
    <tag k="ref:vcgi:esiteid" v="294244"/>
  </node>
  <node id="-1636" visible="true" lat="42.86787366" lon="-72.91588833">
    <tag k="addr:city" v="Wilmington"/>
    <tag k="addr:housenumber" v="69"/>
    <tag k="addr:street" v="Woods Road"/>
    <tag k="addr:state" v="VT"/>
    <tag k="ref:vcgi:esiteid" v="294246"/>
  </node>
  <node id="-1637" visible="true" lat="42.8680904" lon="-72.87010432">
    <tag k="addr:city" v="Wilmington"/>
    <tag k="addr:housenumber" v="10"/>
    <tag k="addr:street" v="East Main Street"/>
    <tag k="addr:state" v="VT"/>
    <tag k="ref:vcgi:esiteid" v="294247"/>
  </node>
  <node id="-1638" visible="true" lat="42.86810258" lon="-72.87086465">
    <tag k="addr:city" v="Wilmington"/>
    <tag k="addr:housenumber" v="3"/>
    <tag k="addr:street" v="East Main Street"/>
    <tag k="addr:state" v="VT"/>
    <tag k="ref:vcgi:esiteid" v="294248"/>
  </node>
  <node id="-1641" visible="true" lat="42.86800766" lon="-72.8738327">
    <tag k="addr:city" v="Wilmington"/>
    <tag k="addr:housenumber" v="4"/>
    <tag k="addr:street" v="Shafter Street"/>
    <tag k="addr:state" v="VT"/>
    <tag k="ref:vcgi:esiteid" v="294251"/>
  </node>
  <node id="-1643" visible="true" lat="42.86796641" lon="-72.87080887">
    <tag k="addr:city" v="Wilmington"/>
    <tag k="addr:housenumber" v="5"/>
    <tag k="addr:street" v="East Main Street"/>
    <tag k="addr:state" v="VT"/>
    <tag k="ref:vcgi:esiteid" v="294253"/>
  </node>
  <node id="-1644" visible="true" lat="42.86796188" lon="-72.8753128">
    <tag k="addr:city" v="Wilmington"/>
    <tag k="addr:housenumber" v="10"/>
    <tag k="addr:street" v="Depot Street"/>
    <tag k="addr:state" v="VT"/>
    <tag k="ref:vcgi:esiteid" v="294254"/>
  </node>
  <node id="-1646" visible="true" lat="42.86795425" lon="-72.87137603">
    <tag k="addr:city" v="Wilmington"/>
    <tag k="addr:housenumber" v="8"/>
    <tag k="addr:street" v="South Main Street"/>
    <tag k="addr:state" v="VT"/>
    <tag k="ref:vcgi:esiteid" v="294256"/>
  </node>
  <node id="-1647" visible="true" lat="42.86793518" lon="-72.87252044">
    <tag k="addr:city" v="Wilmington"/>
    <tag k="addr:housenumber" v="19"/>
    <tag k="addr:street" v="South Main Street"/>
    <tag k="addr:state" v="VT"/>
    <tag k="ref:vcgi:esiteid" v="294257"/>
  </node>
  <node id="-1648" visible="true" lat="42.86802391" lon="-72.86996437">
    <tag k="addr:city" v="Wilmington"/>
    <tag k="addr:housenumber" v="14"/>
    <tag k="addr:street" v="East Main Street"/>
    <tag k="addr:state" v="VT"/>
    <tag k="ref:vcgi:esiteid" v="294258"/>
  </node>
  <node id="-1650" visible="true" lat="42.8679005" lon="-72.87071023">
    <tag k="addr:city" v="Wilmington"/>
    <tag k="addr:housenumber" v="7"/>
    <tag k="addr:street" v="East Main Street"/>
    <tag k="addr:state" v="VT"/>
    <tag k="ref:vcgi:esiteid" v="294260"/>
  </node>
  <node id="-1651" visible="true" lat="42.8679161" lon="-72.87158203">
    <tag k="addr:city" v="Wilmington"/>
    <tag k="addr:housenumber" v="10"/>
    <tag k="addr:street" v="South Main Street"/>
    <tag k="addr:state" v="VT"/>
    <tag k="ref:vcgi:esiteid" v="294261"/>
  </node>
  <node id="-1652" visible="true" lat="42.86790084" lon="-72.87300109">
    <tag k="addr:city" v="Wilmington"/>
    <tag k="addr:housenumber" v="23"/>
    <tag k="addr:street" v="South Main Street"/>
    <tag k="addr:state" v="VT"/>
    <tag k="ref:vcgi:esiteid" v="294262"/>
  </node>
  <node id="-1656" visible="true" lat="42.8678894" lon="-72.87319946">
    <tag k="addr:city" v="Wilmington"/>
    <tag k="addr:housenumber" v="25"/>
    <tag k="addr:street" v="South Main Street"/>
    <tag k="addr:state" v="VT"/>
    <tag k="ref:vcgi:esiteid" v="294266"/>
  </node>
  <node id="-1657" visible="true" lat="42.86789341" lon="-72.87171563">
    <tag k="addr:city" v="Wilmington"/>
    <tag k="addr:housenumber" v="12"/>
    <tag k="addr:street" v="South Main Street"/>
    <tag k="addr:state" v="VT"/>
    <tag k="ref:vcgi:esiteid" v="294268"/>
  </node>
  <node id="-1659" visible="true" lat="42.86781311" lon="-72.86950683">
    <tag k="addr:city" v="Wilmington"/>
    <tag k="addr:housenumber" v="18"/>
    <tag k="addr:street" v="East Main Street"/>
    <tag k="addr:state" v="VT"/>
    <tag k="ref:vcgi:esiteid" v="294270"/>
  </node>
  <node id="-1663" visible="true" lat="42.86773681" lon="-72.87192535">
    <tag k="addr:city" v="Wilmington"/>
    <tag k="addr:housenumber" v="16"/>
    <tag k="addr:street" v="South Main Street"/>
    <tag k="addr:state" v="VT"/>
    <tag k="ref:vcgi:esiteid" v="294275"/>
  </node>
  <node id="-1665" visible="true" lat="42.86771011" lon="-72.87166595">
    <tag k="addr:city" v="Wilmington"/>
    <tag k="addr:housenumber" v="14"/>
    <tag k="addr:street" v="South Main Street"/>
    <tag k="addr:state" v="VT"/>
    <tag k="ref:vcgi:esiteid" v="294277"/>
  </node>
  <node id="-1666" visible="true" lat="42.86779456" lon="-72.87422382">
    <tag k="addr:city" v="Wilmington"/>
    <tag k="addr:housenumber" v="5"/>
    <tag k="addr:street" v="Castle Hill Road"/>
    <tag k="addr:state" v="VT"/>
    <tag k="ref:vcgi:esiteid" v="294278"/>
  </node>
  <node id="-1667" visible="true" lat="42.86772167" lon="-72.87046783">
    <tag k="addr:city" v="Wilmington"/>
    <tag k="addr:housenumber" v="9"/>
    <tag k="addr:street" v="East Main Street"/>
    <tag k="addr:state" v="VT"/>
    <tag k="ref:vcgi:esiteid" v="294279"/>
  </node>
  <node id="-1671" visible="true" lat="42.86771893" lon="-72.86966901">
    <tag k="addr:city" v="Wilmington"/>
    <tag k="addr:housenumber" v="20"/>
    <tag k="addr:street" v="East Main Street"/>
    <tag k="addr:state" v="VT"/>
    <tag k="ref:vcgi:esiteid" v="294283"/>
  </node>
  <node id="-1672" visible="true" lat="42.86764144" lon="-72.8711853">
    <tag k="addr:city" v="Wilmington"/>
    <tag k="addr:housenumber" v="7"/>
    <tag k="addr:street" v="Church Street"/>
    <tag k="addr:state" v="VT"/>
    <tag k="ref:vcgi:esiteid" v="294284"/>
  </node>
  <node id="-1673" visible="true" lat="42.86761093" lon="-72.87019348">
    <tag k="addr:city" v="Wilmington"/>
    <tag k="addr:housenumber" v="13"/>
    <tag k="addr:street" v="East Main Street"/>
    <tag k="addr:state" v="VT"/>
    <tag k="ref:vcgi:esiteid" v="294285"/>
  </node>
  <node id="-1678" visible="true" lat="42.86750793" lon="-72.87808227">
    <tag k="addr:city" v="Wilmington"/>
    <tag k="addr:housenumber" v="20"/>
    <tag k="addr:street" v="Fairview Avenue"/>
    <tag k="addr:state" v="VT"/>
    <tag k="ref:vcgi:esiteid" v="294290"/>
  </node>
  <node id="-1681" visible="true" lat="42.86750793" lon="-72.8692398">
    <tag k="addr:city" v="Wilmington"/>
    <tag k="addr:housenumber" v="24"/>
    <tag k="addr:street" v="East Main Street"/>
    <tag k="addr:state" v="VT"/>
    <tag k="ref:vcgi:esiteid" v="294293"/>
  </node>
  <node id="-1682" visible="true" lat="42.86742782" lon="-72.87363433">
    <tag k="addr:city" v="Wilmington"/>
    <tag k="addr:housenumber" v="4"/>
    <tag k="addr:street" v="Castle Hill Road"/>
    <tag k="addr:state" v="VT"/>
    <tag k="ref:vcgi:esiteid" v="294294"/>
  </node>
  <node id="-1683" visible="true" lat="42.86740875" lon="-72.87171173">
    <tag k="addr:city" v="Wilmington"/>
    <tag k="addr:housenumber" v="6"/>
    <tag k="addr:street" v="Beaver Street"/>
    <tag k="addr:state" v="VT"/>
    <tag k="ref:vcgi:esiteid" v="294295"/>
  </node>
  <node id="-1689" visible="true" lat="42.8674387" lon="-72.87220051">
    <tag k="addr:city" v="Wilmington"/>
    <tag k="addr:housenumber" v="5"/>
    <tag k="addr:street" v="Beaver Street"/>
    <tag k="addr:state" v="VT"/>
    <tag k="ref:vcgi:esiteid" v="294302"/>
  </node>
  <node id="-1691" visible="true" lat="42.86731338" lon="-72.87398529">
    <tag k="addr:city" v="Wilmington"/>
    <tag k="addr:housenumber" v="8"/>
    <tag k="addr:street" v="Castle Hill Road"/>
    <tag k="addr:state" v="VT"/>
    <tag k="ref:vcgi:esiteid" v="294304"/>
  </node>
  <node id="-1692" visible="true" lat="42.86758199" lon="-72.81321761">
    <tag k="addr:city" v="Wilmington"/>
    <tag k="addr:housenumber" v="140"/>
    <tag k="addr:street" v="Ware Road"/>
    <tag k="addr:state" v="VT"/>
    <tag k="ref:vcgi:esiteid" v="294305"/>
  </node>
  <node id="-1695" visible="true" lat="42.86725997" lon="-72.87887573">
    <tag k="addr:city" v="Wilmington"/>
    <tag k="addr:housenumber" v="57"/>
    <tag k="addr:street" v="Castle Hill Road"/>
    <tag k="addr:state" v="VT"/>
    <tag k="ref:vcgi:esiteid" v="294308"/>
  </node>
  <node id="-1696" visible="true" lat="42.86730927" lon="-72.87117434">
    <tag k="addr:city" v="Wilmington"/>
    <tag k="addr:housenumber" v="16"/>
    <tag k="addr:street" v="Church Street"/>
    <tag k="addr:state" v="VT"/>
    <tag k="ref:vcgi:esiteid" v="294310"/>
  </node>
  <node id="-1697" visible="true" lat="42.86727031" lon="-72.86897386">
    <tag k="addr:city" v="Wilmington"/>
    <tag k="addr:housenumber" v="28"/>
    <tag k="addr:street" v="East Main Street"/>
    <tag k="addr:state" v="VT"/>
    <tag k="ref:vcgi:esiteid" v="294311"/>
  </node>
  <node id="-1698" visible="true" lat="42.86720275" lon="-72.87202453">
    <tag k="addr:city" v="Wilmington"/>
    <tag k="addr:housenumber" v="9"/>
    <tag k="addr:street" v="Beaver Street"/>
    <tag k="addr:state" v="VT"/>
    <tag k="ref:vcgi:esiteid" v="294312"/>
  </node>
  <node id="-1699" visible="true" lat="42.86717224" lon="-72.87783813">
    <tag k="addr:city" v="Wilmington"/>
    <tag k="addr:housenumber" v="12"/>
    <tag k="addr:street" v="Fairview Avenue"/>
    <tag k="addr:state" v="VT"/>
    <tag k="ref:vcgi:esiteid" v="294314"/>
  </node>
  <node id="-1704" visible="true" lat="42.86714935" lon="-72.86862182">
    <tag k="addr:city" v="Wilmington"/>
    <tag k="addr:housenumber" v="34"/>
    <tag k="addr:street" v="East Main Street"/>
    <tag k="addr:state" v="VT"/>
    <tag k="ref:vcgi:esiteid" v="294319"/>
  </node>
  <node id="-1706" visible="true" lat="42.86699089" lon="-72.87428094">
    <tag k="addr:city" v="Wilmington"/>
    <tag k="addr:housenumber" v="14"/>
    <tag k="addr:street" v="Castle Hill Road"/>
    <tag k="addr:state" v="VT"/>
    <tag k="ref:vcgi:esiteid" v="294321"/>
  </node>
  <node id="-1707" visible="true" lat="42.86705017" lon="-72.87193298">
    <tag k="addr:city" v="Wilmington"/>
    <tag k="addr:housenumber" v="11"/>
    <tag k="addr:street" v="Beaver Street"/>
    <tag k="addr:state" v="VT"/>
    <tag k="ref:vcgi:esiteid" v="294322"/>
  </node>
  <node id="-1710" visible="true" lat="42.86701965" lon="-72.86830139">
    <tag k="addr:city" v="Wilmington"/>
    <tag k="addr:housenumber" v="36"/>
    <tag k="addr:street" v="East Main Street"/>
    <tag k="addr:state" v="VT"/>
    <tag k="ref:vcgi:esiteid" v="294325"/>
  </node>
  <node id="-1711" visible="true" lat="42.86701583" lon="-72.86814117">
    <tag k="addr:city" v="Wilmington"/>
    <tag k="addr:housenumber" v="38"/>
    <tag k="addr:street" v="East Main Street"/>
    <tag k="addr:state" v="VT"/>
    <tag k="ref:vcgi:esiteid" v="294326"/>
  </node>
  <node id="-1714" visible="true" lat="42.86692517" lon="-72.86935903">
    <tag k="addr:city" v="Wilmington"/>
    <tag k="addr:housenumber" v="27"/>
    <tag k="addr:street" v="East Main Street"/>
    <tag k="addr:state" v="VT"/>
    <tag k="ref:vcgi:esiteid" v="294329"/>
  </node>
  <node id="-1715" visible="true" lat="42.8669281" lon="-72.87137603">
    <tag k="addr:city" v="Wilmington"/>
    <tag k="addr:housenumber" v="18"/>
    <tag k="addr:street" v="Beaver Street"/>
    <tag k="addr:state" v="VT"/>
    <tag k="ref:vcgi:esiteid" v="294330"/>
  </node>
  <node id="-1717" visible="true" lat="42.86693573" lon="-72.86799621">
    <tag k="addr:city" v="Wilmington"/>
    <tag k="addr:housenumber" v="40"/>
    <tag k="addr:street" v="East Main Street"/>
    <tag k="addr:state" v="VT"/>
    <tag k="ref:vcgi:esiteid" v="294332"/>
  </node>
  <node id="-1718" visible="true" lat="42.86693093" lon="-72.87405333">
    <tag k="addr:city" v="Wilmington"/>
    <tag k="addr:housenumber" v="18"/>
    <tag k="addr:street" v="Castle Hill Road"/>
    <tag k="addr:state" v="VT"/>
    <tag k="ref:vcgi:esiteid" v="294333"/>
  </node>
  <node id="-1719" visible="true" lat="42.86690902" lon="-72.87182617">
    <tag k="addr:city" v="Wilmington"/>
    <tag k="addr:housenumber" v="13"/>
    <tag k="addr:street" v="Beaver Street"/>
    <tag k="addr:state" v="VT"/>
    <tag k="ref:vcgi:esiteid" v="294334"/>
  </node>
  <node id="-1721" visible="true" lat="42.86684989" lon="-72.86770382">
    <tag k="addr:city" v="Wilmington"/>
    <tag k="addr:housenumber" v="44"/>
    <tag k="addr:street" v="East Main Street"/>
    <tag k="addr:state" v="VT"/>
    <tag k="ref:vcgi:esiteid" v="294337"/>
  </node>
  <node id="-1725" visible="true" lat="42.86680221" lon="-72.8689804">
    <tag k="addr:city" v="Wilmington"/>
    <tag k="addr:housenumber" v="29"/>
    <tag k="addr:street" v="East Main Street"/>
    <tag k="addr:state" v="VT"/>
    <tag k="ref:vcgi:esiteid" v="294341"/>
  </node>
  <node id="-1726" visible="true" lat="42.86669921" lon="-72.87769317">
    <tag k="addr:city" v="Wilmington"/>
    <tag k="addr:housenumber" v="49"/>
    <tag k="addr:street" v="Castle Hill Road"/>
    <tag k="addr:state" v="VT"/>
    <tag k="ref:vcgi:esiteid" v="294342"/>
  </node>
  <node id="-1730" visible="true" lat="42.86651804" lon="-72.91433998">
    <tag k="addr:city" v="Wilmington"/>
    <tag k="addr:housenumber" v="83"/>
    <tag k="addr:street" v="Woods Road"/>
    <tag k="addr:state" v="VT"/>
    <tag k="ref:vcgi:esiteid" v="294347"/>
  </node>
  <node id="-1731" visible="true" lat="42.8666954" lon="-72.86848449">
    <tag k="addr:city" v="Wilmington"/>
    <tag k="addr:housenumber" v="37"/>
    <tag k="addr:street" v="East Main Street"/>
    <tag k="addr:state" v="VT"/>
    <tag k="ref:vcgi:esiteid" v="294349"/>
  </node>
  <node id="-1733" visible="true" lat="42.86667633" lon="-72.86714172">
    <tag k="addr:city" v="Wilmington"/>
    <tag k="addr:housenumber" v="48"/>
    <tag k="addr:street" v="East Main Street"/>
    <tag k="addr:state" v="VT"/>
    <tag k="ref:vcgi:esiteid" v="294352"/>
  </node>
  <node id="-1739" visible="true" lat="42.86657333" lon="-72.86682891">
    <tag k="addr:city" v="Wilmington"/>
    <tag k="addr:housenumber" v="54"/>
    <tag k="addr:street" v="East Main Street"/>
    <tag k="addr:state" v="VT"/>
    <tag k="ref:vcgi:esiteid" v="294360"/>
  </node>
  <node id="-1740" visible="true" lat="42.866539" lon="-72.87155151">
    <tag k="addr:city" v="Wilmington"/>
    <tag k="addr:housenumber" v="19"/>
    <tag k="addr:street" v="Beaver Street"/>
    <tag k="addr:state" v="VT"/>
    <tag k="ref:vcgi:esiteid" v="294362"/>
  </node>
  <node id="-1745" visible="true" lat="42.86654123" lon="-72.86806917">
    <tag k="addr:city" v="Wilmington"/>
    <tag k="addr:housenumber" v="39"/>
    <tag k="addr:street" v="East Main Street"/>
    <tag k="addr:state" v="VT"/>
    <tag k="ref:vcgi:esiteid" v="294367"/>
  </node>
  <node id="-1746" visible="true" lat="42.86672962" lon="-72.81052081">
    <tag k="addr:city" v="Wilmington"/>
    <tag k="addr:housenumber" v="141"/>
    <tag k="addr:street" v="Ware Road"/>
    <tag k="addr:state" v="VT"/>
    <tag k="ref:vcgi:esiteid" v="294368"/>
  </node>
  <node id="-1748" visible="true" lat="42.86649413" lon="-72.86637176">
    <tag k="addr:city" v="Wilmington"/>
    <tag k="addr:housenumber" v="56"/>
    <tag k="addr:street" v="East Main Street"/>
    <tag k="addr:state" v="VT"/>
    <tag k="ref:vcgi:esiteid" v="294370"/>
  </node>
  <node id="-1752" visible="true" lat="42.86636352" lon="-72.86597442">
    <tag k="addr:city" v="Wilmington"/>
    <tag k="addr:housenumber" v="64"/>
    <tag k="addr:street" v="East Main Street"/>
    <tag k="addr:state" v="VT"/>
    <tag k="ref:vcgi:esiteid" v="294374"/>
  </node>
  <node id="-1754" visible="true" lat="42.86632397" lon="-72.86571886">
    <tag k="addr:city" v="Wilmington"/>
    <tag k="addr:housenumber" v="68"/>
    <tag k="addr:street" v="East Main Street"/>
    <tag k="addr:state" v="VT"/>
    <tag k="ref:vcgi:esiteid" v="294376"/>
  </node>
  <node id="-1755" visible="true" lat="42.86638989" lon="-72.87140137">
    <tag k="addr:city" v="Wilmington"/>
    <tag k="addr:housenumber" v="21"/>
    <tag k="addr:street" v="Beaver Street"/>
    <tag k="addr:state" v="VT"/>
    <tag k="ref:vcgi:esiteid" v="294378"/>
  </node>
  <node id="-1762" visible="true" lat="42.86624145" lon="-72.86542511">
    <tag k="addr:city" v="Wilmington"/>
    <tag k="addr:housenumber" v="70"/>
    <tag k="addr:street" v="East Main Street"/>
    <tag k="addr:state" v="VT"/>
    <tag k="ref:vcgi:esiteid" v="294385"/>
  </node>
  <node id="-1763" visible="true" lat="42.86618423" lon="-72.86911773">
    <tag k="addr:city" v="Wilmington"/>
    <tag k="addr:housenumber" v="1"/>
    <tag k="addr:street" v="School Street"/>
    <tag k="addr:state" v="VT"/>
    <tag k="ref:vcgi:esiteid" v="294386"/>
  </node>
  <node id="-1764" visible="true" lat="42.86618804" lon="-72.86708068">
    <tag k="addr:city" v="Wilmington"/>
    <tag k="addr:housenumber" v="53"/>
    <tag k="addr:street" v="East Main Street"/>
    <tag k="addr:state" v="VT"/>
    <tag k="ref:vcgi:esiteid" v="294387"/>
  </node>
  <node id="-1771" visible="true" lat="42.86605343" lon="-72.86395098">
    <tag k="addr:city" v="Wilmington"/>
    <tag k="addr:housenumber" v="88"/>
    <tag k="addr:street" v="East Main Street"/>
    <tag k="addr:state" v="VT"/>
    <tag k="ref:vcgi:esiteid" v="294394"/>
  </node>
  <node id="-1772" visible="true" lat="42.86599573" lon="-72.86605091">
    <tag k="addr:city" v="Wilmington"/>
    <tag k="addr:housenumber" v="63"/>
    <tag k="addr:street" v="East Main Street"/>
    <tag k="addr:state" v="VT"/>
    <tag k="ref:vcgi:esiteid" v="294395"/>
  </node>
  <node id="-1774" visible="true" lat="42.86595135" lon="-72.86576324">
    <tag k="addr:city" v="Wilmington"/>
    <tag k="addr:housenumber" v="65"/>
    <tag k="addr:street" v="East Main Street"/>
    <tag k="addr:state" v="VT"/>
    <tag k="ref:vcgi:esiteid" v="294397"/>
  </node>
  <node id="-1776" visible="true" lat="42.86587524" lon="-72.86552429">
    <tag k="addr:city" v="Wilmington"/>
    <tag k="addr:housenumber" v="69"/>
    <tag k="addr:street" v="East Main Street"/>
    <tag k="addr:state" v="VT"/>
    <tag k="ref:vcgi:esiteid" v="294399"/>
  </node>
  <node id="-1783" visible="true" lat="42.86586981" lon="-72.86296218">
    <tag k="addr:city" v="Wilmington"/>
    <tag k="addr:housenumber" v="96"/>
    <tag k="addr:street" v="East Main Street"/>
    <tag k="addr:state" v="VT"/>
    <tag k="ref:vcgi:esiteid" v="294406"/>
  </node>
  <node id="-1788" visible="true" lat="42.86567082" lon="-72.86241202">
    <tag k="addr:city" v="Wilmington"/>
    <tag k="addr:housenumber" v="102"/>
    <tag k="addr:street" v="East Main Street"/>
    <tag k="addr:state" v="VT"/>
    <tag k="ref:vcgi:esiteid" v="294412"/>
  </node>
  <node id="-1893" visible="true" lat="42.86028053" lon="-72.80340899">
    <tag k="addr:city" v="Wilmington"/>
    <tag k="addr:housenumber" v="184"/>
    <tag k="addr:street" v="Sun And Ski Road"/>
    <tag k="addr:state" v="VT"/>
    <tag k="ref:vcgi:esiteid" v="294520"/>
  </node>
  <node id="-1897" visible="true" lat="42.85987472" lon="-72.80525207">
    <tag k="addr:city" v="Wilmington"/>
    <tag k="addr:housenumber" v="157"/>
    <tag k="addr:street" v="Sun And Ski Road"/>
    <tag k="addr:state" v="VT"/>
    <tag k="ref:vcgi:esiteid" v="294524"/>
  </node>
  <node id="-1903" visible="true" lat="42.8595671" lon="-72.80339539">
    <tag k="addr:city" v="Wilmington"/>
    <tag k="addr:housenumber" v="183"/>
    <tag k="addr:street" v="Sun And Ski Road"/>
    <tag k="addr:state" v="VT"/>
    <tag k="ref:vcgi:esiteid" v="294530"/>
  </node>
  <node id="-1932" visible="true" lat="42.85699081" lon="-72.8066101">
    <tag k="addr:city" v="Wilmington"/>
    <tag k="addr:housenumber" v="48"/>
    <tag k="addr:street" v="Sunny Knoll Drive"/>
    <tag k="addr:state" v="VT"/>
    <tag k="ref:vcgi:esiteid" v="294559"/>
  </node>
  <node id="-2079" visible="true" lat="42.83686828" lon="-72.80609893">
    <tag k="addr:city" v="Wilmington"/>
    <tag k="addr:housenumber" v="498"/>
    <tag k="addr:street" v="Shearer Hill Road"/>
    <tag k="addr:state" v="VT"/>
    <tag k="ref:vcgi:esiteid" v="294709"/>
  </node>
  <node id="-2083" visible="true" lat="42.83629989" lon="-72.80690765">
    <tag k="addr:city" v="Wilmington"/>
    <tag k="addr:housenumber" v="497"/>
    <tag k="addr:street" v="Shearer Hill Road"/>
    <tag k="addr:state" v="VT"/>
    <tag k="ref:vcgi:esiteid" v="294713"/>
  </node>
  <node id="-2093" visible="true" lat="42.83448409" lon="-72.80595397">
    <tag k="addr:city" v="Wilmington"/>
    <tag k="addr:housenumber" v="511"/>
    <tag k="addr:street" v="Shearer Hill Road"/>
    <tag k="addr:state" v="VT"/>
    <tag k="ref:vcgi:esiteid" v="294723"/>
  </node>
  <node id="-2107" visible="true" lat="42.83076477" lon="-72.84912109">
    <tag k="addr:city" v="Wilmington"/>
    <tag k="addr:housenumber" v="89"/>
    <tag k="addr:street" v="Minor Road"/>
    <tag k="addr:state" v="VT"/>
    <tag k="ref:vcgi:esiteid" v="294737"/>
  </node>
  <node id="-2116" visible="true" lat="42.82872772" lon="-72.84012603">
    <tag k="addr:city" v="Wilmington"/>
    <tag k="addr:housenumber" v="163"/>
    <tag k="addr:street" v="Minor Road"/>
    <tag k="addr:state" v="VT"/>
    <tag k="ref:vcgi:esiteid" v="294746"/>
  </node>
  <node id="-2119" visible="true" lat="42.82831955" lon="-72.8629837">
    <tag k="addr:city" v="Wilmington"/>
    <tag k="addr:housenumber" v="125"/>
    <tag k="addr:street" v="Green Road"/>
    <tag k="addr:state" v="VT"/>
    <tag k="ref:vcgi:esiteid" v="294749"/>
  </node>
  <node id="-2122" visible="true" lat="42.82718658" lon="-72.82162475">
    <tag k="addr:city" v="Wilmington"/>
    <tag k="addr:housenumber" v="214"/>
    <tag k="addr:street" v="Parsons Road"/>
    <tag k="addr:state" v="VT"/>
    <tag k="ref:vcgi:esiteid" v="294752"/>
  </node>
  <node id="-2148" visible="true" lat="42.89344757" lon="-72.9163741">
    <tag k="addr:city" v="Wilmington"/>
    <tag k="addr:housenumber" v="10"/>
    <tag k="addr:street" v="Bunny Lane"/>
    <tag k="addr:state" v="VT"/>
    <tag k="ref:vcgi:esiteid" v="294778"/>
  </node>
  <node id="-2151" visible="true" lat="42.92403596" lon="-72.8368787">
    <tag k="addr:city" v="Wilmington"/>
    <tag k="addr:housenumber" v="40"/>
    <tag k="addr:street" v="Jaspers Way"/>
    <tag k="addr:state" v="VT"/>
    <tag k="ref:vcgi:esiteid" v="294781"/>
  </node>
  <node id="-2168" visible="true" lat="42.87319033" lon="-72.90203102">
    <tag k="addr:city" v="Wilmington"/>
    <tag k="addr:housenumber" v="106"/>
    <tag k="addr:street" v="Town Farm Road"/>
    <tag k="addr:state" v="VT"/>
    <tag k="ref:vcgi:esiteid" v="294798"/>
  </node>
  <node id="-2174" visible="true" lat="42.83256008" lon="-72.8042198">
    <tag k="addr:city" v="Wilmington"/>
    <tag k="addr:housenumber" v="535"/>
    <tag k="addr:street" v="Shearer Hill Road"/>
    <tag k="addr:state" v="VT"/>
    <tag k="ref:vcgi:esiteid" v="294806"/>
  </node>
  <node id="-2183" visible="true" lat="42.88642767" lon="-72.91897107">
    <tag k="addr:city" v="Wilmington"/>
    <tag k="addr:housenumber" v="142"/>
    <tag k="addr:street" v="Spruce Grove Road"/>
    <tag k="addr:state" v="VT"/>
    <tag k="ref:vcgi:esiteid" v="294815"/>
  </node>
  <node id="-2200" visible="true" lat="42.86572674" lon="-72.8644148">
    <tag k="addr:city" v="Wilmington"/>
    <tag k="addr:housenumber" v="85"/>
    <tag k="addr:street" v="East Main Street"/>
    <tag k="addr:state" v="VT"/>
    <tag k="ref:vcgi:esiteid" v="294833"/>
  </node>
  <node id="-2216" visible="true" lat="42.87867622" lon="-72.81083376">
    <tag k="addr:city" v="Wilmington"/>
    <tag k="addr:housenumber" v="155"/>
    <tag k="addr:street" v="Old Stage Road"/>
    <tag k="addr:state" v="VT"/>
    <tag k="ref:vcgi:esiteid" v="294849"/>
  </node>
  <node id="-2223" visible="true" lat="42.87031766" lon="-72.90784481">
    <tag k="addr:city" v="Wilmington"/>
    <tag k="addr:housenumber" v="22"/>
    <tag k="addr:street" v="Primrose Lane"/>
    <tag k="addr:state" v="VT"/>
    <tag k="ref:vcgi:esiteid" v="294856"/>
  </node>
  <node id="-2232" visible="true" lat="42.87760213" lon="-72.90088142">
    <tag k="addr:city" v="Wilmington"/>
    <tag k="addr:housenumber" v="3"/>
    <tag k="addr:street" v="High Top Road"/>
    <tag k="addr:state" v="VT"/>
    <tag k="ref:vcgi:esiteid" v="294867"/>
  </node>
  <node id="-2236" visible="true" lat="42.92074659" lon="-72.84707998">
    <tag k="addr:city" v="Wilmington"/>
    <tag k="addr:housenumber" v="59"/>
    <tag k="addr:street" v="Gallup Pitch Road"/>
    <tag k="addr:state" v="VT"/>
    <tag k="ref:vcgi:esiteid" v="294872"/>
  </node>
  <node id="-2258" visible="true" lat="42.87144252" lon="-72.81005502">
    <tag k="addr:city" v="Wilmington"/>
    <tag k="addr:housenumber" v="239"/>
    <tag k="addr:street" v="Ware Road"/>
    <tag k="addr:state" v="VT"/>
    <tag k="ref:vcgi:esiteid" v="294894"/>
  </node>
  <node id="-2259" visible="true" lat="42.8975001" lon="-72.80584987">
    <tag k="addr:city" v="Wilmington"/>
    <tag k="addr:housenumber" v="567"/>
    <tag k="addr:street" v="Higley Hill Road"/>
    <tag k="addr:state" v="VT"/>
    <tag k="ref:vcgi:esiteid" v="294895"/>
  </node>
  <node id="-2262" visible="true" lat="42.91372098" lon="-72.81945168">
    <tag k="addr:city" v="Wilmington"/>
    <tag k="addr:housenumber" v="112"/>
    <tag k="addr:street" v="Old Town Road"/>
    <tag k="addr:state" v="VT"/>
    <tag k="ref:vcgi:esiteid" v="294898"/>
  </node>
  <node id="-2263" visible="true" lat="42.92165103" lon="-72.84354974">
    <tag k="addr:city" v="Wilmington"/>
    <tag k="addr:housenumber" v="19"/>
    <tag k="addr:street" v="Gallup Pitch Road"/>
    <tag k="addr:state" v="VT"/>
    <tag k="ref:vcgi:esiteid" v="294899"/>
  </node>
  <node id="-2264" visible="true" lat="42.89032235" lon="-72.91418947">
    <tag k="addr:city" v="Wilmington"/>
    <tag k="addr:housenumber" v="34"/>
    <tag k="addr:street" v="Snow Shoe Road"/>
    <tag k="addr:state" v="VT"/>
    <tag k="ref:vcgi:esiteid" v="294902"/>
  </node>
  <node id="-2268" visible="true" lat="42.91489986" lon="-72.82103941">
    <tag k="addr:city" v="Wilmington"/>
    <tag k="addr:housenumber" v="80"/>
    <tag k="addr:street" v="Old Town Road"/>
    <tag k="addr:state" v="VT"/>
    <tag k="ref:vcgi:esiteid" v="294906"/>
  </node>
  <node id="-2295" visible="true" lat="42.88921734" lon="-72.91726849">
    <tag k="addr:city" v="Wilmington"/>
    <tag k="addr:housenumber" v="61"/>
    <tag k="addr:street" v="Snow Shoe Road"/>
    <tag k="addr:state" v="VT"/>
    <tag k="ref:vcgi:esiteid" v="294933"/>
  </node>
  <node id="-2296" visible="true" lat="42.8887435" lon="-72.91707169">
    <tag k="addr:city" v="Wilmington"/>
    <tag k="addr:housenumber" v="60"/>
    <tag k="addr:street" v="Snow Shoe Road"/>
    <tag k="addr:state" v="VT"/>
    <tag k="ref:vcgi:esiteid" v="294934"/>
  </node>
  <node id="-2298" visible="true" lat="42.88720753" lon="-72.91562313">
    <tag k="addr:city" v="Wilmington"/>
    <tag k="addr:housenumber" v="3"/>
    <tag k="addr:street" v="Old Witness Tree Lane"/>
    <tag k="addr:state" v="VT"/>
    <tag k="ref:vcgi:esiteid" v="294936"/>
  </node>
  <node id="-2300" visible="true" lat="42.92338346" lon="-72.8840963">
    <tag k="addr:city" v="Wilmington"/>
    <tag k="addr:housenumber" v="529"/>
    <tag k="addr:street" v="Coldbrook Road"/>
    <tag k="addr:state" v="VT"/>
    <tag k="ref:vcgi:esiteid" v="294939"/>
  </node>
  <node id="-2305" visible="true" lat="42.88910384" lon="-72.91585597">
    <tag k="addr:city" v="Wilmington"/>
    <tag k="addr:housenumber" v="58"/>
    <tag k="addr:street" v="Snow Shoe Road"/>
    <tag k="addr:state" v="VT"/>
    <tag k="ref:vcgi:esiteid" v="305455"/>
  </node>
  <node id="-2311" visible="true" lat="42.91122614" lon="-72.81204623">
    <tag k="addr:city" v="Wilmington"/>
    <tag k="addr:housenumber" v="150"/>
    <tag k="addr:street" v="Brown Road"/>
    <tag k="addr:state" v="VT"/>
    <tag k="ref:vcgi:esiteid" v="305759"/>
  </node>
  <node id="-2320" visible="true" lat="42.89005232" lon="-72.91435754">
    <tag k="addr:city" v="Wilmington"/>
    <tag k="addr:housenumber" v="42"/>
    <tag k="addr:street" v="Snow Shoe Road"/>
    <tag k="addr:state" v="VT"/>
    <tag k="ref:vcgi:esiteid" v="306237"/>
  </node>
  <node id="-2325" visible="true" lat="42.88672568" lon="-72.9156731">
    <tag k="addr:city" v="Wilmington"/>
    <tag k="addr:housenumber" v="25"/>
    <tag k="addr:street" v="Old Witness Tree Lane"/>
    <tag k="addr:state" v="VT"/>
    <tag k="ref:vcgi:esiteid" v="306554"/>
  </node>
  <node id="-2337" visible="true" lat="42.87879851" lon="-72.89922269">
    <tag k="addr:city" v="Wilmington"/>
    <tag k="addr:housenumber" v="12"/>
    <tag k="addr:street" v="View Road"/>
    <tag k="addr:state" v="VT"/>
    <tag k="ref:vcgi:esiteid" v="310768"/>
  </node>
  <node id="-2350" visible="true" lat="42.8899059" lon="-72.91551447">
    <tag k="addr:city" v="Wilmington"/>
    <tag k="addr:housenumber" v="53"/>
    <tag k="addr:street" v="Snow Shoe Road"/>
    <tag k="addr:state" v="VT"/>
    <tag k="ref:vcgi:esiteid" v="316750"/>
  </node>
  <node id="-2376" visible="true" lat="42.92357553" lon="-72.87932626">
    <tag k="addr:city" v="Wilmington"/>
    <tag k="addr:housenumber" v="63"/>
    <tag k="addr:street" v="East Village Circle"/>
    <tag k="addr:state" v="VT"/>
    <tag k="ref:vcgi:esiteid" v="327252"/>
  </node>
  <node id="-2377" visible="true" lat="42.86966692" lon="-72.91895112">
    <tag k="addr:city" v="Wilmington"/>
    <tag k="addr:housenumber" v="17"/>
    <tag k="addr:street" v="Woods Road"/>
    <tag k="addr:state" v="VT"/>
    <tag k="ref:vcgi:esiteid" v="327253"/>
  </node>
  <node id="-2409" visible="true" lat="42.9233172" lon="-72.83713323">
    <tag k="addr:city" v="Wilmington"/>
    <tag k="addr:housenumber" v="32"/>
    <tag k="addr:street" v="Jaspers Way"/>
    <tag k="addr:state" v="VT"/>
    <tag k="ref:vcgi:esiteid" v="342506"/>
  </node>
  <node id="-2418" visible="true" lat="42.92310246" lon="-72.89368055">
    <tag k="addr:city" v="Wilmington"/>
    <tag k="addr:housenumber" v="1"/>
    <tag k="addr:street" v="Garmisch Court"/>
    <tag k="addr:state" v="VT"/>
    <tag k="ref:vcgi:esiteid" v="450050"/>
  </node>
  <node id="-2419" visible="true" lat="42.92306576" lon="-72.89305114">
    <tag k="addr:city" v="Wilmington"/>
    <tag k="addr:housenumber" v="3"/>
    <tag k="addr:street" v="Garmisch Court"/>
    <tag k="addr:state" v="VT"/>
    <tag k="ref:vcgi:esiteid" v="450051"/>
  </node>
  <node id="-2420" visible="true" lat="42.92308129" lon="-72.89242711">
    <tag k="addr:city" v="Wilmington"/>
    <tag k="addr:housenumber" v="5"/>
    <tag k="addr:street" v="Garmisch Court"/>
    <tag k="addr:state" v="VT"/>
    <tag k="ref:vcgi:esiteid" v="450052"/>
  </node>
  <node id="-2423" visible="true" lat="42.92350768" lon="-72.89243646">
    <tag k="addr:city" v="Wilmington"/>
    <tag k="addr:housenumber" v="6"/>
    <tag k="addr:street" v="Garmisch Court"/>
    <tag k="addr:state" v="VT"/>
    <tag k="ref:vcgi:esiteid" v="450055"/>
  </node>
  <node id="-2424" visible="true" lat="42.92346758" lon="-72.8930076">
    <tag k="addr:city" v="Wilmington"/>
    <tag k="addr:housenumber" v="4"/>
    <tag k="addr:street" v="Garmisch Court"/>
    <tag k="addr:state" v="VT"/>
    <tag k="ref:vcgi:esiteid" v="450056"/>
  </node>
  <node id="-2425" visible="true" lat="42.92348542" lon="-72.89362424">
    <tag k="addr:city" v="Wilmington"/>
    <tag k="addr:housenumber" v="2"/>
    <tag k="addr:street" v="Garmisch Court"/>
    <tag k="addr:state" v="VT"/>
    <tag k="ref:vcgi:esiteid" v="450057"/>
  </node>
  <node id="-2426" visible="true" lat="42.92601285" lon="-72.88967427">
    <tag k="addr:city" v="Wilmington"/>
    <tag k="addr:housenumber" v="2"/>
    <tag k="addr:street" v="Rushing Brook Lane"/>
    <tag k="addr:state" v="VT"/>
    <tag k="ref:vcgi:esiteid" v="450058"/>
  </node>
  <node id="-2427" visible="true" lat="42.92523764" lon="-72.88684973">
    <tag k="addr:city" v="Wilmington"/>
    <tag k="addr:housenumber" v="63"/>
    <tag k="addr:street" v="Fannie Hill Road"/>
    <tag k="addr:state" v="VT"/>
    <tag k="ref:vcgi:esiteid" v="450059"/>
  </node>
  <node id="-2428" visible="true" lat="42.92496412" lon="-72.8881444">
    <tag k="addr:city" v="Wilmington"/>
    <tag k="addr:housenumber" v="64"/>
    <tag k="addr:street" v="Fannie Hill Road"/>
    <tag k="addr:state" v="VT"/>
    <tag k="ref:vcgi:esiteid" v="450060"/>
  </node>
  <node id="-2429" visible="true" lat="42.92568134" lon="-72.88752663">
    <tag k="addr:city" v="Wilmington"/>
    <tag k="addr:housenumber" v="69"/>
    <tag k="addr:street" v="Fannie Hill Road"/>
    <tag k="addr:state" v="VT"/>
    <tag k="ref:vcgi:esiteid" v="450061"/>
  </node>
  <node id="-2433" visible="true" lat="42.91232135" lon="-72.81646403">
    <tag k="addr:city" v="Wilmington"/>
    <tag k="addr:housenumber" v="12"/>
    <tag k="addr:street" v="Conifer Lane"/>
    <tag k="addr:state" v="VT"/>
    <tag k="ref:vcgi:esiteid" v="450147"/>
  </node>
  <node id="-2434" visible="true" lat="42.91273754" lon="-72.81582457">
    <tag k="addr:city" v="Wilmington"/>
    <tag k="addr:housenumber" v="24"/>
    <tag k="addr:street" v="Conifer Lane"/>
    <tag k="addr:state" v="VT"/>
    <tag k="ref:vcgi:esiteid" v="450148"/>
  </node>
  <node id="-2435" visible="true" lat="42.91401745" lon="-72.81420535">
    <tag k="addr:city" v="Wilmington"/>
    <tag k="addr:housenumber" v="45"/>
    <tag k="addr:street" v="Conifer Lane"/>
    <tag k="addr:state" v="VT"/>
    <tag k="ref:vcgi:esiteid" v="450149"/>
  </node>
  <node id="-2437" visible="true" lat="42.86631475" lon="-72.87062013">
    <tag k="addr:city" v="Wilmington"/>
    <tag k="addr:housenumber" v="28"/>
    <tag k="addr:street" v="Beaver Street"/>
    <tag k="addr:state" v="VT"/>
    <tag k="ref:vcgi:esiteid" v="450158"/>
  </node>
  <node id="-2452" visible="true" lat="42.92182723" lon="-72.89029183">
    <tag k="addr:city" v="Wilmington"/>
    <tag k="addr:housenumber" v="8"/>
    <tag k="addr:street" v="Stags Leap Lane"/>
    <tag k="addr:state" v="VT"/>
    <tag k="ref:vcgi:esiteid" v="452793"/>
  </node>
  <node id="-2453" visible="true" lat="42.9209925" lon="-72.89044293">
    <tag k="addr:city" v="Wilmington"/>
    <tag k="addr:housenumber" v="17"/>
    <tag k="addr:street" v="Stags Leap Lane"/>
    <tag k="addr:state" v="VT"/>
    <tag k="ref:vcgi:esiteid" v="452794"/>
  </node>
  <node id="-2454" visible="true" lat="42.9204258" lon="-72.88999345">
    <tag k="addr:city" v="Wilmington"/>
    <tag k="addr:housenumber" v="19"/>
    <tag k="addr:street" v="Stags Leap Lane"/>
    <tag k="addr:state" v="VT"/>
    <tag k="ref:vcgi:esiteid" v="452795"/>
  </node>
  <node id="-2455" visible="true" lat="42.92135979" lon="-72.88977035">
    <tag k="addr:city" v="Wilmington"/>
    <tag k="addr:housenumber" v="10"/>
    <tag k="addr:street" v="Stags Leap Lane"/>
    <tag k="addr:state" v="VT"/>
    <tag k="ref:vcgi:esiteid" v="452796"/>
  </node>
  <node id="-2456" visible="true" lat="42.92009684" lon="-72.88921958">
    <tag k="addr:city" v="Wilmington"/>
    <tag k="addr:housenumber" v="29"/>
    <tag k="addr:street" v="Stags Leap Lane"/>
    <tag k="addr:state" v="VT"/>
    <tag k="ref:vcgi:esiteid" v="452797"/>
  </node>
  <node id="-2457" visible="true" lat="42.92091849" lon="-72.88892093">
    <tag k="addr:city" v="Wilmington"/>
    <tag k="addr:housenumber" v="34"/>
    <tag k="addr:street" v="Stags Leap Lane"/>
    <tag k="addr:state" v="VT"/>
    <tag k="ref:vcgi:esiteid" v="452799"/>
  </node>
  <node id="-2458" visible="true" lat="42.92151693" lon="-72.88943917">
    <tag k="addr:city" v="Wilmington"/>
    <tag k="addr:housenumber" v="20"/>
    <tag k="addr:street" v="Stags Leap Lane"/>
    <tag k="addr:state" v="VT"/>
    <tag k="ref:vcgi:esiteid" v="452800"/>
  </node>
  <node id="-2460" visible="true" lat="42.92296304" lon="-72.88963485">
    <tag k="addr:city" v="Wilmington"/>
    <tag k="addr:housenumber" v="20"/>
    <tag k="addr:street" v="Haystack Mountain Lane"/>
    <tag k="addr:state" v="VT"/>
    <tag k="ref:vcgi:esiteid" v="452805"/>
  </node>
  <node id="-2461" visible="true" lat="42.92236909" lon="-72.88947824">
    <tag k="addr:city" v="Wilmington"/>
    <tag k="addr:housenumber" v="18"/>
    <tag k="addr:street" v="Haystack Mountain Lane"/>
    <tag k="addr:state" v="VT"/>
    <tag k="ref:vcgi:esiteid" v="452826"/>
  </node>
  <node id="-2467" visible="true" lat="42.92056722" lon="-72.88178004">
    <tag k="addr:city" v="Wilmington"/>
    <tag k="addr:housenumber" v="36"/>
    <tag k="addr:street" v="Coldbrook Crossing"/>
    <tag k="addr:state" v="VT"/>
    <tag k="ref:vcgi:esiteid" v="453123"/>
  </node>
  <node id="-2468" visible="true" lat="42.92102256" lon="-72.88129674">
    <tag k="addr:city" v="Wilmington"/>
    <tag k="addr:housenumber" v="44"/>
    <tag k="addr:street" v="Coldbrook Crossing"/>
    <tag k="addr:state" v="VT"/>
    <tag k="ref:vcgi:esiteid" v="453124"/>
  </node>
  <node id="-2469" visible="true" lat="42.92146408" lon="-72.88102723">
    <tag k="addr:city" v="Wilmington"/>
    <tag k="addr:housenumber" v="56"/>
    <tag k="addr:street" v="Coldbrook Crossing"/>
    <tag k="addr:state" v="VT"/>
    <tag k="ref:vcgi:esiteid" v="453125"/>
  </node>
  <node id="-2470" visible="true" lat="42.92182873" lon="-72.88095656">
    <tag k="addr:city" v="Wilmington"/>
    <tag k="addr:housenumber" v="66"/>
    <tag k="addr:street" v="Coldbrook Crossing"/>
    <tag k="addr:state" v="VT"/>
    <tag k="ref:vcgi:esiteid" v="453126"/>
  </node>
  <node id="-2474" visible="true" lat="42.88096925" lon="-72.8125078">
    <tag k="addr:city" v="Wilmington"/>
    <tag k="addr:housenumber" v="111"/>
    <tag k="addr:street" v="Old Stage Road"/>
    <tag k="addr:state" v="VT"/>
    <tag k="ref:vcgi:esiteid" v="453130"/>
  </node>
  <node id="-2476" visible="true" lat="42.92630757" lon="-72.89411516">
    <tag k="addr:city" v="Wilmington"/>
    <tag k="addr:housenumber" v="6"/>
    <tag k="addr:street" v="McGovern Lane"/>
    <tag k="addr:state" v="VT"/>
    <tag k="ref:vcgi:esiteid" v="453132"/>
  </node>
  <node id="-2477" visible="true" lat="42.92624676" lon="-72.89350543">
    <tag k="addr:city" v="Wilmington"/>
    <tag k="addr:housenumber" v="18"/>
    <tag k="addr:street" v="McGovern Lane"/>
    <tag k="addr:state" v="VT"/>
    <tag k="ref:vcgi:esiteid" v="453133"/>
  </node>
  <node id="-2478" visible="true" lat="42.92626252" lon="-72.89292255">
    <tag k="addr:city" v="Wilmington"/>
    <tag k="addr:housenumber" v="36"/>
    <tag k="addr:street" v="McGovern Lane"/>
    <tag k="addr:state" v="VT"/>
    <tag k="ref:vcgi:esiteid" v="453134"/>
  </node>
  <node id="-2479" visible="true" lat="42.92533748" lon="-72.89355621">
    <tag k="addr:city" v="Wilmington"/>
    <tag k="addr:housenumber" v="15"/>
    <tag k="addr:street" v="McGovern Lane"/>
    <tag k="addr:state" v="VT"/>
    <tag k="ref:vcgi:esiteid" v="453135"/>
  </node>
  <node id="-2480" visible="true" lat="42.9255192" lon="-72.89279102">
    <tag k="addr:city" v="Wilmington"/>
    <tag k="addr:housenumber" v="33"/>
    <tag k="addr:street" v="McGovern Lane"/>
    <tag k="addr:state" v="VT"/>
    <tag k="ref:vcgi:esiteid" v="453136"/>
  </node>
  <node id="-2490" visible="true" lat="42.8271819" lon="-72.80397692">
    <tag k="addr:city" v="Wilmington"/>
    <tag k="addr:housenumber" v="380"/>
    <tag k="addr:street" v="Pike Road"/>
    <tag k="addr:state" v="VT"/>
    <tag k="ref:vcgi:esiteid" v="454279"/>
  </node>
  <node id="-2514" visible="true" lat="42.86711599" lon="-72.87089861">
    <tag k="addr:city" v="Wilmington"/>
    <tag k="addr:housenumber" v="4"/>
    <tag k="addr:street" v="Church Street"/>
    <tag k="addr:state" v="VT"/>
    <tag k="ref:vcgi:esiteid" v="612443"/>
  </node>
  <node id="-2520" visible="true" lat="42.91580351" lon="-72.8854545">
    <tag k="addr:city" v="Wilmington"/>
    <tag k="addr:housenumber" v="11"/>
    <tag k="addr:street" v="Corriveau Way"/>
    <tag k="addr:state" v="VT"/>
    <tag k="ref:vcgi:esiteid" v="612512"/>
  </node>
  <node id="-2521" visible="true" lat="42.92559" lon="-72.89239061">
    <tag k="addr:city" v="Wilmington"/>
    <tag k="addr:housenumber" v="37"/>
    <tag k="addr:street" v="McGovern Lane"/>
    <tag k="addr:state" v="VT"/>
    <tag k="ref:vcgi:esiteid" v="612513"/>
  </node>
  <node id="-2529" visible="true" lat="42.91887327" lon="-72.88717347">
    <tag k="addr:city" v="Wilmington"/>
    <tag k="addr:housenumber" v="9"/>
    <tag k="addr:street" v="Powderhorn Lane"/>
    <tag k="addr:state" v="VT"/>
    <tag k="ref:vcgi:esiteid" v="613399"/>
  </node>
  <node id="-2530" visible="true" lat="42.91943659" lon="-72.88674204">
    <tag k="addr:city" v="Wilmington"/>
    <tag k="addr:housenumber" v="19"/>
    <tag k="addr:street" v="Powderhorn Lane"/>
    <tag k="addr:state" v="VT"/>
    <tag k="ref:vcgi:esiteid" v="613400"/>
  </node>
  <node id="-2540" visible="true" lat="42.88409639" lon="-72.81954103">
    <tag k="addr:city" v="Wilmington"/>
    <tag k="addr:housenumber" v="5"/>
    <tag k="addr:street" v="Old Stage Road"/>
    <tag k="addr:state" v="VT"/>
    <tag k="ref:vcgi:esiteid" v="752111"/>
  </node>
  <node id="-2638" visible="true" lat="42.86062513" lon="-72.85046102">
    <tag k="addr:city" v="Wilmington"/>
    <tag k="addr:housenumber" v="256"/>
    <tag k="addr:street" v="Vermont Route 9 East"/>
    <tag k="addr:state" v="VT"/>
    <tag k="ref:vcgi:esiteid" v="900001"/>
  </node>
  <node id="-2645" visible="true" lat="42.92192082" lon="-72.8269882">
    <tag k="addr:city" v="Wilmington"/>
    <tag k="addr:housenumber" v="206"/>
    <tag k="addr:street" v="Smith Road"/>
    <tag k="addr:state" v="VT"/>
    <tag k="ref:vcgi:esiteid" v="900215"/>
  </node>
  <node id="-2649" visible="true" lat="42.89499254" lon="-72.91700148">
    <tag k="addr:city" v="Wilmington"/>
    <tag k="addr:housenumber" v="17"/>
    <tag k="addr:street" v="Lightning Ledge Way"/>
    <tag k="addr:state" v="VT"/>
    <tag k="ref:vcgi:esiteid" v="1050098"/>
  </node>
  <node id="-2661" visible="true" lat="42.87652191" lon="-72.85907584">
    <tag k="addr:city" v="Wilmington"/>
    <tag k="addr:housenumber" v="74"/>
    <tag k="addr:street" v="Stowe Hill Road"/>
    <tag k="addr:state" v="VT"/>
    <tag k="ref:vcgi:esiteid" v="1050269"/>
  </node>
  <node id="-2674" visible="true" lat="42.92514993" lon="-72.88158852">
    <tag k="addr:city" v="Wilmington"/>
    <tag k="addr:housenumber" v="110"/>
    <tag k="addr:street" v="East Village Circle"/>
    <tag k="addr:state" v="VT"/>
    <tag k="ref:vcgi:esiteid" v="1051181"/>
  </node>
  <node id="-2675" visible="true" lat="42.92525837" lon="-72.87761575">
    <tag k="addr:city" v="Wilmington"/>
    <tag k="addr:housenumber" v="70"/>
    <tag k="addr:street" v="Village East Road"/>
    <tag k="addr:state" v="VT"/>
    <tag k="ref:vcgi:esiteid" v="1051182"/>
  </node>
</osm>
