<?xml version="1.0" encoding="UTF-8"?>
<osm version="0.6" generator="JOSM" upload="false">
  <node id="-520" visible="true" lat="42.89916993" lon="-72.88848124">
    <!-- conflict: "70 Spyglass Road, Wilmington, VT" Fuzzy match to "70 Spyglass Drive, West Dover, " -->
    <tag k="addr:city" v="Wilmington"/>
    <tag k="addr:housenumber" v="70"/>
    <tag k="addr:street" v="Spyglass Road"/>
    <tag k="addr:state" v="VT"/>
    <tag k="ref:vcgi:esiteid" v="293100"/>
  </node>
  <node id="-856" visible="true" lat="42.89114333" lon="-72.9099469">
    <!-- conflict: "3 Little Bend, Wilmington, VT" No match in OSM, but a different address exists <5m away: "7 Little Bound, Wilmington, VT" -->
    <tag k="addr:city" v="Wilmington"/>
    <tag k="addr:housenumber" v="3"/>
    <tag k="addr:street" v="Little Bend"/>
    <tag k="addr:state" v="VT"/>
    <tag k="ref:vcgi:esiteid" v="293440"/>
  </node>
  <node id="-875" visible="true" lat="42.89089764" lon="-72.91008878">
    <!-- conflict: "9 Little Bend, Wilmington, VT" No match in OSM, but a different address exists <5m away: "9 Little Bound, Wilmington, VT" -->
    <tag k="addr:city" v="Wilmington"/>
    <tag k="addr:housenumber" v="9"/>
    <tag k="addr:street" v="Little Bend"/>
    <tag k="addr:state" v="VT"/>
    <tag k="ref:vcgi:esiteid" v="293459"/>
  </node>
  <node id="-1225" visible="true" lat="42.88011188" lon="-72.80810785">
    <!-- conflict: "17 Old Stage Road Extension, Wilmington, VT" Fuzzy match to "17 Old Stage Rd, Wilmington, VT" -->
    <tag k="addr:city" v="Wilmington"/>
    <tag k="addr:housenumber" v="17"/>
    <tag k="addr:street" v="Old Stage Road Extension"/>
    <tag k="addr:state" v="VT"/>
    <tag k="ref:vcgi:esiteid" v="293811"/>
  </node>
  <node id="-1432" visible="true" lat="42.87153244" lon="-72.88425445">
    <!-- conflict: "153 Vermont Route 9 West, Wilmington, VT" No match in OSM, but a different address exists <5m away: "153 Vt Route 9 West, Wilmington, VT" -->
    <tag k="addr:city" v="Wilmington"/>
    <tag k="addr:housenumber" v="153"/>
    <tag k="addr:street" v="Vermont Route 9 West"/>
    <tag k="addr:state" v="VT"/>
    <tag k="ref:vcgi:esiteid" v="294023"/>
  </node>
  <node id="-1434" visible="true" lat="42.87154769" lon="-72.86509704">
    <!-- conflict: "77 North Main Street, Wilmington, VT" Fuzzy match to "77 West Main Street, Wilmington, VT" -->
    <tag k="addr:city" v="Wilmington"/>
    <tag k="addr:housenumber" v="77"/>
    <tag k="addr:street" v="North Main Street"/>
    <tag k="addr:state" v="VT"/>
    <tag k="ref:vcgi:esiteid" v="294025"/>
  </node>
  <node id="-1441" visible="true" lat="42.8713417" lon="-72.86644744">
    <!-- conflict: "67 North Main Street, Wilmington, VT" Fuzzy match to "67 West Main Street, Wilmington, VT" -->
    <tag k="addr:city" v="Wilmington"/>
    <tag k="addr:housenumber" v="67"/>
    <tag k="addr:street" v="North Main Street"/>
    <tag k="addr:state" v="VT"/>
    <tag k="ref:vcgi:esiteid" v="294032"/>
  </node>
  <node id="-1457" visible="true" lat="42.87100255" lon="-72.86646768">
    <!-- conflict: "65 North Main Street, Wilmington, VT" Fuzzy match to "65 East Main Street, Wilmington, VT" -->
    <tag k="addr:city" v="Wilmington"/>
    <tag k="addr:housenumber" v="65"/>
    <tag k="addr:street" v="North Main Street"/>
    <tag k="addr:state" v="VT"/>
    <tag k="ref:vcgi:esiteid" v="294048"/>
  </node>
  <node id="-1458" visible="true" lat="42.87095423" lon="-72.86701596">
    <!-- conflict: "53 North Main Street, Wilmington, VT" Fuzzy match to "53 East Main Street, Wilmington, VT" -->
    <tag k="addr:city" v="Wilmington"/>
    <tag k="addr:housenumber" v="53"/>
    <tag k="addr:street" v="North Main Street"/>
    <tag k="addr:state" v="VT"/>
    <tag k="ref:vcgi:esiteid" v="294050"/>
  </node>
  <node id="-1474" visible="true" lat="42.87072487" lon="-72.86789206">
    <!-- conflict: "48 North Main Street, Wilmington, VT" Fuzzy match to "48 East Main Street, Wilmington, VT" -->
    <tag k="addr:city" v="Wilmington"/>
    <tag k="addr:housenumber" v="48"/>
    <tag k="addr:street" v="North Main Street"/>
    <tag k="addr:state" v="VT"/>
    <tag k="ref:vcgi:esiteid" v="294067"/>
  </node>
  <node id="-1483" visible="true" lat="42.87060458" lon="-72.8743429">
    <!-- conflict: "41 West Main Street, Wilmington, VT" Fuzzy match to "41 West Main Street, , " -->
    <tag k="addr:city" v="Wilmington"/>
    <tag k="addr:housenumber" v="41"/>
    <tag k="addr:street" v="West Main Street"/>
    <tag k="addr:state" v="VT"/>
    <tag k="ref:vcgi:esiteid" v="294077"/>
  </node>
  <node id="-1497" visible="true" lat="42.87014407" lon="-72.91001927">
    <!-- conflict: "477 Vermont Route 9 West, Wilmington, VT" No match in OSM, but a different address exists <5m away: "477 Vt Route 9 West, Wilmington, VT" -->
    <tag k="addr:city" v="Wilmington"/>
    <tag k="addr:housenumber" v="477"/>
    <tag k="addr:street" v="Vermont Route 9 West"/>
    <tag k="addr:state" v="VT"/>
    <tag k="ref:vcgi:esiteid" v="294092"/>
  </node>
  <node id="-1499" visible="true" lat="42.87008206" lon="-72.9116219">
    <!-- conflict: "499 Vermont Route 9 West, Wilmington, VT" No match in OSM, but a different address exists <5m away: "499 Vt Route 9 West, Wilmington, VT" -->
    <tag k="addr:city" v="Wilmington"/>
    <tag k="addr:housenumber" v="499"/>
    <tag k="addr:street" v="Vermont Route 9 West"/>
    <tag k="addr:state" v="VT"/>
    <tag k="ref:vcgi:esiteid" v="294094"/>
  </node>
  <node id="-1503" visible="true" lat="42.87005168" lon="-72.87386534">
    <!-- conflict: "39 West Main Street, Wilmington, VT" Fuzzy match to "39 East Main Street, Wilmington, VT" -->
    <tag k="addr:city" v="Wilmington"/>
    <tag k="addr:housenumber" v="39"/>
    <tag k="addr:street" v="West Main Street"/>
    <tag k="addr:state" v="VT"/>
    <tag k="ref:vcgi:esiteid" v="294100"/>
  </node>
  <node id="-1505" visible="true" lat="42.87002927" lon="-72.90467235">
    <!-- conflict: "5 Oxbow Loop, Wilmington, VT" No match in OSM, but a different address exists <5m away: "403 Vermont Route 9 West, Wilmington, VT" -->
    <tag k="addr:city" v="Wilmington"/>
    <tag k="addr:housenumber" v="5"/>
    <tag k="addr:street" v="Oxbow Loop"/>
    <tag k="addr:state" v="VT"/>
    <tag k="ref:vcgi:esiteid" v="294102"/>
  </node>
  <node id="-1506" visible="true" lat="42.86982844" lon="-72.911032">
    <!-- conflict: "491 Vermont Route 9 West, Wilmington, VT" No match in OSM, but a different address exists <5m away: "491 Vt Route 9 West, Wilmington, VT" -->
    <tag k="addr:city" v="Wilmington"/>
    <tag k="addr:housenumber" v="491"/>
    <tag k="addr:street" v="Vermont Route 9 West"/>
    <tag k="addr:state" v="VT"/>
    <tag k="ref:vcgi:esiteid" v="294103"/>
  </node>
  <node id="-1513" visible="true" lat="42.86993408" lon="-72.86797332">
    <!-- conflict: "39 North Main Street, Wilmington, VT" Fuzzy match to "39 East Main Street, Wilmington, VT" -->
    <tag k="addr:city" v="Wilmington"/>
    <tag k="addr:housenumber" v="39"/>
    <tag k="addr:street" v="North Main Street"/>
    <tag k="addr:state" v="VT"/>
    <tag k="ref:vcgi:esiteid" v="294111"/>
  </node>
  <node id="-1520" visible="true" lat="42.86983743" lon="-72.86809975">
    <!-- conflict: "37 North Main Street, Wilmington, VT" Fuzzy match to "37 East Main Street, Wilmington, VT" -->
    <tag k="addr:city" v="Wilmington"/>
    <tag k="addr:housenumber" v="37"/>
    <tag k="addr:street" v="North Main Street"/>
    <tag k="addr:state" v="VT"/>
    <tag k="ref:vcgi:esiteid" v="294118"/>
  </node>
  <node id="-1524" visible="true" lat="42.86964034" lon="-72.91064453">
    <!-- conflict: "481 Vermont Route 9 West, Wilmington, VT" No match in OSM, but a different address exists <5m away: "481 Vt Route 9 West, Wilmington, VT" -->
    <tag k="addr:city" v="Wilmington"/>
    <tag k="addr:housenumber" v="481"/>
    <tag k="addr:street" v="Vermont Route 9 West"/>
    <tag k="addr:state" v="VT"/>
    <tag k="ref:vcgi:esiteid" v="294123"/>
  </node>
  <node id="-1525" visible="true" lat="42.86977125" lon="-72.87399801">
    <!-- conflict: "36 West Main Street, Wilmington, VT" Fuzzy match to "36 East Main Street, Wilmington, VT" -->
    <tag k="addr:city" v="Wilmington"/>
    <tag k="addr:housenumber" v="36"/>
    <tag k="addr:street" v="West Main Street"/>
    <tag k="addr:state" v="VT"/>
    <tag k="ref:vcgi:esiteid" v="294124"/>
  </node>
  <node id="-1532" visible="true" lat="42.86943896" lon="-72.90895036">
    <!-- conflict: "463 Vermont Route 9 West, Wilmington, VT" No match in OSM, but a different address exists <5m away: "463 Vt Route 9 West, Wilmington, VT" -->
    <tag k="addr:city" v="Wilmington"/>
    <tag k="addr:housenumber" v="463"/>
    <tag k="addr:street" v="Vermont Route 9 West"/>
    <tag k="addr:state" v="VT"/>
    <tag k="ref:vcgi:esiteid" v="294132"/>
  </node>
  <node id="-1535" visible="true" lat="42.8696022" lon="-72.8730545">
    <!-- conflict: "27 West Main Street, Wilmington, VT" Fuzzy match to "27 East Main Street, Wilmington, VT" -->
    <tag k="addr:city" v="Wilmington"/>
    <tag k="addr:housenumber" v="27"/>
    <tag k="addr:street" v="West Main Street"/>
    <tag k="addr:state" v="VT"/>
    <tag k="ref:vcgi:esiteid" v="294135"/>
  </node>
  <node id="-1540" visible="true" lat="42.8695098" lon="-72.87289833">
    <!-- conflict: "23 West Main Street, Wilmington, VT" Fuzzy match to "23 South Main Street, Wilmington, VT" -->
    <tag k="addr:city" v="Wilmington"/>
    <tag k="addr:housenumber" v="23"/>
    <tag k="addr:street" v="West Main Street"/>
    <tag k="addr:state" v="VT"/>
    <tag k="ref:vcgi:esiteid" v="294144"/>
  </node>
  <node id="-1566" visible="true" lat="42.8691101" lon="-72.8696289">
    <!-- conflict: "17 North Main Street, Wilmington, VT" Fuzzy match to "17 West Main Street, Wilmington, VT" -->
    <tag k="addr:city" v="Wilmington"/>
    <tag k="addr:housenumber" v="17"/>
    <tag k="addr:street" v="North Main Street"/>
    <tag k="addr:state" v="VT"/>
    <tag k="ref:vcgi:esiteid" v="294171"/>
  </node>
  <node id="-1614" visible="true" lat="42.86838648" lon="-72.87126482">
    <!-- conflict: "2 West Main Street, Wilmington, VT" Fuzzy match to "2 East Main Street, Wilmington, VT" -->
    <tag k="addr:city" v="Wilmington"/>
    <tag k="addr:housenumber" v="2"/>
    <tag k="addr:street" v="West Main Street"/>
    <tag k="addr:state" v="VT"/>
    <tag k="ref:vcgi:esiteid" v="294224"/>
  </node>
  <node id="-1682" visible="true" lat="42.86747793" lon="-72.86991413">
    <!-- conflict: "17 East Main Street, Wilmington, VT" Fuzzy match to "17 West Main Street, Wilmington, VT" -->
    <tag k="addr:city" v="Wilmington"/>
    <tag k="addr:housenumber" v="17"/>
    <tag k="addr:street" v="East Main Street"/>
    <tag k="addr:state" v="VT"/>
    <tag k="ref:vcgi:esiteid" v="294297"/>
  </node>
  <node id="-1685" visible="true" lat="42.86736031" lon="-72.86970023">
    <!-- conflict: "19 East Main Street, Wilmington, VT" Fuzzy match to "19 South Main Street, Wilmington, VT" -->
    <tag k="addr:city" v="Wilmington"/>
    <tag k="addr:housenumber" v="19"/>
    <tag k="addr:street" v="East Main Street"/>
    <tag k="addr:state" v="VT"/>
    <tag k="ref:vcgi:esiteid" v="294301"/>
  </node>
  <node id="-1697" visible="true" lat="42.86719512" lon="-72.8696289">
    <!-- conflict: "21 East Main Street, Wilmington, VT" Fuzzy match to "21 West Main Street, Wilmington, VT" -->
    <tag k="addr:city" v="Wilmington"/>
    <tag k="addr:housenumber" v="21"/>
    <tag k="addr:street" v="East Main Street"/>
    <tag k="addr:state" v="VT"/>
    <tag k="ref:vcgi:esiteid" v="294315"/>
  </node>
  <node id="-1827" visible="true" lat="42.86409759" lon="-72.8578186">
    <!-- conflict: "155 Vermont Route 9 East, Wilmington, VT" No match in OSM, but a different address exists <5m away: "155 Vt Route 9 East, Wilmington, VT" -->
    <tag k="addr:city" v="Wilmington"/>
    <tag k="addr:housenumber" v="155"/>
    <tag k="addr:street" v="Vermont Route 9 East"/>
    <tag k="addr:state" v="VT"/>
    <tag k="ref:vcgi:esiteid" v="294456"/>
  </node>
  <node id="-1904" visible="true" lat="42.85905322" lon="-72.85170552">
    <!-- conflict: "30 Vermont Route 100 South, Wilmington, VT" No match in OSM, but a different address exists <5m away: "30 Route 100 South, Wilmington, " -->
    <tag k="addr:city" v="Wilmington"/>
    <tag k="addr:housenumber" v="30"/>
    <tag k="addr:street" v="Vermont Route 100 South"/>
    <tag k="addr:state" v="VT"/>
    <tag k="ref:vcgi:esiteid" v="294534"/>
  </node>
  <node id="-1910" visible="true" lat="42.85860443" lon="-72.80335998">
    <!-- conflict: "861 Vermont Route 9 East, Wilmington, VT" No match in OSM, but a different address exists <5m away: "861 Vt Route 9 East, Wilmington, VT" -->
    <tag k="addr:city" v="Wilmington"/>
    <tag k="addr:housenumber" v="861"/>
    <tag k="addr:street" v="Vermont Route 9 East"/>
    <tag k="addr:state" v="VT"/>
    <tag k="ref:vcgi:esiteid" v="294540"/>
  </node>
  <node id="-1914" visible="true" lat="42.85833967" lon="-72.80143545">
    <!-- conflict: "873 Vermont Route 9 East, Wilmington, VT" No match in OSM, but a different address exists <5m away: "873 Vt Route 9 East, Wilmington, VT" -->
    <tag k="addr:city" v="Wilmington"/>
    <tag k="addr:housenumber" v="873"/>
    <tag k="addr:street" v="Vermont Route 9 East"/>
    <tag k="addr:state" v="VT"/>
    <tag k="ref:vcgi:esiteid" v="294544"/>
  </node>
  <node id="-1937" visible="true" lat="42.85308607" lon="-72.80210216">
    <!-- conflict: "787 Vermont Route 9 East, Wilmington, VT" No match in OSM, but a different address exists <5m away: "787 Vt Route 9 East, Wilmington, VT" -->
    <tag k="addr:city" v="Wilmington"/>
    <tag k="addr:housenumber" v="787"/>
    <tag k="addr:street" v="Vermont Route 9 East"/>
    <tag k="addr:state" v="VT"/>
    <tag k="ref:vcgi:esiteid" v="294567"/>
  </node>
  <node id="-2117" visible="true" lat="42.82815933" lon="-72.85604858">
    <!-- conflict: "527 Vermont Route 100 South, Wilmington, VT" No match in OSM, but a different address exists <5m away: "527 Vt Route 100 South, Wilmington, VT" -->
    <tag k="addr:city" v="Wilmington"/>
    <tag k="addr:housenumber" v="527"/>
    <tag k="addr:street" v="Vermont Route 100 South"/>
    <tag k="addr:state" v="VT"/>
    <tag k="ref:vcgi:esiteid" v="294751"/>
  </node>
  <node id="-2193" visible="true" lat="42.87216719" lon="-72.88457155">
    <!-- conflict: "167 Vermont Route 9 West, Wilmington, VT" No match in OSM, but a different address exists <5m away: "167 Vt Route 9 West, Wilmington, VT" -->
    <tag k="addr:city" v="Wilmington"/>
    <tag k="addr:housenumber" v="167"/>
    <tag k="addr:street" v="Vermont Route 9 West"/>
    <tag k="addr:state" v="VT"/>
    <tag k="ref:vcgi:esiteid" v="294831"/>
  </node>
  <node id="-2467" visible="true" lat="42.88064755" lon="-72.80565581">
    <!-- conflict: "28 Old Stage Road Extension, Wilmington, VT" No match in OSM, but a different address exists <5m away: "17 Old Stage Rd, Wilmington, VT" -->
    <tag k="addr:city" v="Wilmington"/>
    <tag k="addr:housenumber" v="28"/>
    <tag k="addr:street" v="Old Stage Road Extension"/>
    <tag k="addr:state" v="VT"/>
    <tag k="ref:vcgi:esiteid" v="453131"/>
  </node>
  <node id="-2685" visible="true" lat="42.870067" lon="-72.87359858">
    <!-- conflict: "37 West Main Street, Wilmington, VT" Fuzzy match to "37 East Main Street, Wilmington, VT" -->
    <tag k="addr:city" v="Wilmington"/>
    <tag k="addr:housenumber" v="37"/>
    <tag k="addr:street" v="West Main Street"/>
    <tag k="addr:state" v="VT"/>
    <tag k="ref:vcgi:esiteid" v="769431"/>
  </node>
</osm>
