<?xml version="1.0" encoding="UTF-8"?>
<osm version="0.6" generator="JOSM" upload="false">
  <node id="-101" visible="true" lat="43.22888183" lon="-72.72418975">
    <tag k="addr:housenumber" v="173"/>
    <tag k="addr:street" v="Horsenail Hill Road"/>
    <tag k="addr:state" v="VT"/>
    <tag k="ref:vcgi:esiteid" v="294943"/>
  </node>
  <node id="-104" visible="true" lat="43.22793197" lon="-72.72276306">
    <tag k="addr:housenumber" v="274"/>
    <tag k="addr:street" v="Horsenail Hill Road"/>
    <tag k="addr:state" v="VT"/>
    <tag k="ref:vcgi:esiteid" v="294946"/>
  </node>
  <node id="-106" visible="true" lat="43.22690582" lon="-72.72650909">
    <tag k="addr:housenumber" v="7508"/>
    <tag k="addr:street" v="Vermont Route 11"/>
    <tag k="addr:state" v="VT"/>
    <tag k="ref:vcgi:esiteid" v="294948"/>
  </node>
  <node id="-108" visible="true" lat="43.22658157" lon="-72.7249298">
    <tag k="addr:housenumber" v="7510"/>
    <tag k="addr:street" v="Vermont Route 11"/>
    <tag k="addr:state" v="VT"/>
    <tag k="ref:vcgi:esiteid" v="294950"/>
  </node>
  <node id="-111" visible="true" lat="43.22586441" lon="-72.72737884">
    <tag k="addr:housenumber" v="7452"/>
    <tag k="addr:street" v="Vermont Route 11"/>
    <tag k="addr:state" v="VT"/>
    <tag k="ref:vcgi:esiteid" v="294953"/>
  </node>
  <node id="-122" visible="true" lat="43.22164557" lon="-72.70351929">
    <tag k="addr:housenumber" v="6247"/>
    <tag k="addr:street" v="Popple Dungeon Road"/>
    <tag k="addr:state" v="VT"/>
    <tag k="ref:vcgi:esiteid" v="294964"/>
  </node>
  <node id="-134" visible="true" lat="43.22046759" lon="-72.73506819">
    <tag k="addr:housenumber" v="39"/>
    <tag k="addr:street" v="Scott Pet Road"/>
    <tag k="addr:state" v="VT"/>
    <tag k="ref:vcgi:esiteid" v="294976"/>
  </node>
  <node id="-137" visible="true" lat="43.21923828" lon="-72.72888946">
    <tag k="addr:housenumber" v="420"/>
    <tag k="addr:street" v="Scott Pet Road"/>
    <tag k="addr:state" v="VT"/>
    <tag k="ref:vcgi:esiteid" v="294979"/>
  </node>
  <node id="-139" visible="true" lat="43.21897125" lon="-72.7253952">
    <tag k="addr:housenumber" v="612"/>
    <tag k="addr:street" v="Scott Pet Road"/>
    <tag k="addr:state" v="VT"/>
    <tag k="ref:vcgi:esiteid" v="294981"/>
  </node>
  <node id="-145" visible="true" lat="43.21613311" lon="-72.72393798">
    <tag k="addr:housenumber" v="286"/>
    <tag k="addr:street" v="White Road"/>
    <tag k="addr:state" v="VT"/>
    <tag k="ref:vcgi:esiteid" v="294987"/>
  </node>
  <node id="-148" visible="true" lat="43.21281814" lon="-72.71723937">
    <tag k="addr:housenumber" v="589"/>
    <tag k="addr:street" v="White Road"/>
    <tag k="addr:state" v="VT"/>
    <tag k="ref:vcgi:esiteid" v="294990"/>
  </node>
  <node id="-153" visible="true" lat="43.21073503" lon="-72.71517375">
    <tag k="addr:housenumber" v="794"/>
    <tag k="addr:street" v="White Road"/>
    <tag k="addr:state" v="VT"/>
    <tag k="ref:vcgi:esiteid" v="294995"/>
  </node>
  <node id="-158" visible="true" lat="43.2085217" lon="-72.70751715">
    <tag k="addr:housenumber" v="1033"/>
    <tag k="addr:street" v="White Road"/>
    <tag k="addr:state" v="VT"/>
    <tag k="ref:vcgi:esiteid" v="295000"/>
  </node>
  <node id="-187" visible="true" lat="43.20066833" lon="-72.72998809">
    <tag k="addr:housenumber" v="1355"/>
    <tag k="addr:street" v="Route 121"/>
    <tag k="addr:state" v="VT"/>
    <tag k="ref:vcgi:esiteid" v="295029"/>
  </node>
  <node id="-190" visible="true" lat="43.20032882" lon="-72.72927856">
    <tag k="addr:housenumber" v="1449"/>
    <tag k="addr:street" v="Route 121"/>
    <tag k="addr:state" v="VT"/>
    <tag k="ref:vcgi:esiteid" v="295032"/>
  </node>
  <node id="-210" visible="true" lat="43.19802474" lon="-72.72774505">
    <tag k="addr:housenumber" v="34"/>
    <tag k="addr:street" v="Timber Ridge Road"/>
    <tag k="addr:state" v="VT"/>
    <tag k="ref:vcgi:esiteid" v="295052"/>
  </node>
  <node id="-211" visible="true" lat="43.19792645" lon="-72.72656951">
    <tag k="addr:housenumber" v="31"/>
    <tag k="addr:street" v="Timber Ridge Road"/>
    <tag k="addr:state" v="VT"/>
    <tag k="ref:vcgi:esiteid" v="295053"/>
  </node>
  <node id="-217" visible="true" lat="43.19715881" lon="-72.72841644">
    <tag k="addr:housenumber" v="166"/>
    <tag k="addr:street" v="Timber Ridge Road"/>
    <tag k="addr:state" v="VT"/>
    <tag k="ref:vcgi:esiteid" v="295059"/>
  </node>
  <node id="-218" visible="true" lat="43.19699859" lon="-72.72775268">
    <tag k="addr:housenumber" v="98"/>
    <tag k="addr:street" v="Timber Ridge Road"/>
    <tag k="addr:state" v="VT"/>
    <tag k="ref:vcgi:esiteid" v="295060"/>
  </node>
  <node id="-233" visible="true" lat="43.19501875" lon="-72.73414663">
    <tag k="addr:housenumber" v="1021"/>
    <tag k="addr:street" v="Birch Hill Road"/>
    <tag k="addr:state" v="VT"/>
    <tag k="ref:vcgi:esiteid" v="295075"/>
  </node>
  <node id="-238" visible="true" lat="43.19456863" lon="-72.70390319">
    <tag k="addr:housenumber" v="130"/>
    <tag k="addr:street" v="Dillon Drive"/>
    <tag k="addr:state" v="VT"/>
    <tag k="ref:vcgi:esiteid" v="295080"/>
  </node>
  <node id="-239" visible="true" lat="43.19456481" lon="-72.701622">
    <tag k="addr:housenumber" v="184"/>
    <tag k="addr:street" v="Dillon Drive"/>
    <tag k="addr:state" v="VT"/>
    <tag k="ref:vcgi:esiteid" v="295081"/>
  </node>
  <node id="-244" visible="true" lat="43.19298553" lon="-72.72223663">
    <tag k="addr:housenumber" v="7937"/>
    <tag k="addr:street" v="Windham Hill Road"/>
    <tag k="addr:state" v="VT"/>
    <tag k="ref:vcgi:esiteid" v="295087"/>
  </node>
  <node id="-249" visible="true" lat="43.19174957" lon="-72.73085784">
    <tag k="addr:housenumber" v="566"/>
    <tag k="addr:street" v="Glebe Mountain Road"/>
    <tag k="addr:state" v="VT"/>
    <tag k="ref:vcgi:esiteid" v="295092"/>
  </node>
  <node id="-250" visible="true" lat="43.19128799" lon="-72.72877502">
    <tag k="addr:housenumber" v="473"/>
    <tag k="addr:street" v="Glebe Mountain Road"/>
    <tag k="addr:state" v="VT"/>
    <tag k="ref:vcgi:esiteid" v="295093"/>
  </node>
  <node id="-251" visible="true" lat="43.19112777" lon="-72.72173309">
    <tag k="addr:housenumber" v="7798"/>
    <tag k="addr:street" v="Windham Hill Road"/>
    <tag k="addr:state" v="VT"/>
    <tag k="ref:vcgi:esiteid" v="295094"/>
  </node>
  <node id="-261" visible="true" lat="43.18524551" lon="-72.72142791">
    <tag k="addr:housenumber" v="7393"/>
    <tag k="addr:street" v="Windham Hill Road"/>
    <tag k="addr:state" v="VT"/>
    <tag k="ref:vcgi:esiteid" v="295104"/>
  </node>
  <node id="-284" visible="true" lat="43.175354" lon="-72.72621154">
    <tag k="addr:housenumber" v="6626"/>
    <tag k="addr:street" v="Windham Hill Road"/>
    <tag k="addr:state" v="VT"/>
    <tag k="ref:vcgi:esiteid" v="295130"/>
  </node>
  <node id="-285" visible="true" lat="43.17530058" lon="-72.7351003">
    <tag k="addr:housenumber" v="542"/>
    <tag k="addr:street" v="Old Farm Road"/>
    <tag k="addr:state" v="VT"/>
    <tag k="ref:vcgi:esiteid" v="295131"/>
  </node>
  <node id="-291" visible="true" lat="43.16972144" lon="-72.71611">
    <tag k="addr:housenumber" v="306"/>
    <tag k="addr:street" v="Woodburn Road"/>
    <tag k="addr:state" v="VT"/>
    <tag k="ref:vcgi:esiteid" v="295138"/>
  </node>
  <node id="-298" visible="true" lat="43.16776657" lon="-72.71694183">
    <tag k="addr:housenumber" v="147"/>
    <tag k="addr:street" v="Woodburn Road"/>
    <tag k="addr:state" v="VT"/>
    <tag k="ref:vcgi:esiteid" v="295145"/>
  </node>
  <node id="-300" visible="true" lat="43.16628648" lon="-72.72538497">
    <tag k="addr:housenumber" v="5976"/>
    <tag k="addr:street" v="Windham Hill Road"/>
    <tag k="addr:state" v="VT"/>
    <tag k="ref:vcgi:esiteid" v="295147"/>
  </node>
  <node id="-302" visible="true" lat="43.1658123" lon="-72.7253125">
    <tag k="addr:housenumber" v="5940"/>
    <tag k="addr:street" v="Windham Hill Road"/>
    <tag k="addr:state" v="VT"/>
    <tag k="ref:vcgi:esiteid" v="295150"/>
  </node>
  <node id="-307" visible="true" lat="43.16452406" lon="-72.72468617">
    <tag k="addr:housenumber" v="5852"/>
    <tag k="addr:street" v="Windham Hill Road"/>
    <tag k="addr:state" v="VT"/>
    <tag k="ref:vcgi:esiteid" v="295156"/>
  </node>
  <node id="-321" visible="true" lat="43.16072845" lon="-72.71031189">
    <tag k="addr:housenumber" v="950"/>
    <tag k="addr:street" v="Abbott Road"/>
    <tag k="addr:state" v="VT"/>
    <tag k="ref:vcgi:esiteid" v="295170"/>
  </node>
  <node id="-326" visible="true" lat="43.15828514" lon="-72.72983418">
    <tag k="addr:housenumber" v="1353"/>
    <tag k="addr:street" v="Burbee Pond Road"/>
    <tag k="addr:state" v="VT"/>
    <tag k="ref:vcgi:esiteid" v="295175"/>
  </node>
  <node id="-332" visible="true" lat="43.15703201" lon="-72.73036193">
    <tag k="addr:housenumber" v="1351"/>
    <tag k="addr:street" v="Burbee Pond Road"/>
    <tag k="addr:state" v="VT"/>
    <tag k="ref:vcgi:esiteid" v="295181"/>
  </node>
  <node id="-337" visible="true" lat="43.15639114" lon="-72.75611877">
    <tag k="addr:housenumber" v="718"/>
    <tag k="addr:street" v="Golding Road"/>
    <tag k="addr:state" v="VT"/>
    <tag k="ref:vcgi:esiteid" v="295186"/>
  </node>
  <node id="-338" visible="true" lat="43.15620039" lon="-72.74889424">
    <tag k="addr:housenumber" v="376"/>
    <tag k="addr:street" v="Golding Road"/>
    <tag k="addr:state" v="VT"/>
    <tag k="ref:vcgi:esiteid" v="295187"/>
  </node>
  <node id="-341" visible="true" lat="43.15591812" lon="-72.75093841">
    <tag k="addr:housenumber" v="454"/>
    <tag k="addr:street" v="Golding Road"/>
    <tag k="addr:state" v="VT"/>
    <tag k="ref:vcgi:esiteid" v="295190"/>
  </node>
  <node id="-343" visible="true" lat="43.15580749" lon="-72.72332763">
    <tag k="addr:housenumber" v="5245"/>
    <tag k="addr:street" v="Windham Hill Road"/>
    <tag k="addr:state" v="VT"/>
    <tag k="ref:vcgi:esiteid" v="295192"/>
  </node>
  <node id="-345" visible="true" lat="43.15539932" lon="-72.72244262">
    <tag k="addr:housenumber" v="5204"/>
    <tag k="addr:street" v="Windham Hill Road"/>
    <tag k="addr:state" v="VT"/>
    <tag k="ref:vcgi:esiteid" v="295194"/>
  </node>
  <node id="-347" visible="true" lat="43.15514372" lon="-72.7475591">
    <tag k="addr:housenumber" v="278"/>
    <tag k="addr:street" v="Golding Road"/>
    <tag k="addr:state" v="VT"/>
    <tag k="ref:vcgi:esiteid" v="295196"/>
  </node>
  <node id="-348" visible="true" lat="43.15518951" lon="-72.72305297">
    <tag k="addr:housenumber" v="5203"/>
    <tag k="addr:street" v="Windham Hill Road"/>
    <tag k="addr:state" v="VT"/>
    <tag k="ref:vcgi:esiteid" v="295197"/>
  </node>
  <node id="-351" visible="true" lat="43.15480804" lon="-72.72045898">
    <tag k="addr:housenumber" v="5042"/>
    <tag k="addr:street" v="Windham Hill Road"/>
    <tag k="addr:state" v="VT"/>
    <tag k="ref:vcgi:esiteid" v="295200"/>
  </node>
  <node id="-357" visible="true" lat="43.15279884" lon="-72.71983556">
    <tag k="addr:housenumber" v="4980"/>
    <tag k="addr:street" v="Windham Hill Road"/>
    <tag k="addr:state" v="VT"/>
    <tag k="ref:vcgi:esiteid" v="295206"/>
  </node>
  <node id="-359" visible="true" lat="43.15265958" lon="-72.74383427">
    <tag k="addr:housenumber" v="875"/>
    <tag k="addr:street" v="West Windham Road"/>
    <tag k="addr:state" v="VT"/>
    <tag k="ref:vcgi:esiteid" v="295208"/>
  </node>
  <node id="-368" visible="true" lat="43.15117645" lon="-72.73670959">
    <tag k="addr:housenumber" v="457"/>
    <tag k="addr:street" v="West Windham Road"/>
    <tag k="addr:state" v="VT"/>
    <tag k="ref:vcgi:esiteid" v="295217"/>
  </node>
  <node id="-369" visible="true" lat="43.1506872" lon="-72.71942371">
    <tag k="addr:housenumber" v="4856"/>
    <tag k="addr:street" v="Windham Hill Road"/>
    <tag k="addr:state" v="VT"/>
    <tag k="ref:vcgi:esiteid" v="295218"/>
  </node>
  <node id="-372" visible="true" lat="43.14951324" lon="-72.70388793">
    <tag k="addr:housenumber" v="1810"/>
    <tag k="addr:street" v="Abbott Road"/>
    <tag k="addr:state" v="VT"/>
    <tag k="ref:vcgi:esiteid" v="295221"/>
  </node>
  <node id="-376" visible="true" lat="43.14879226" lon="-72.72348785">
    <tag k="addr:housenumber" v="4575"/>
    <tag k="addr:street" v="Windham Hill Road"/>
    <tag k="addr:state" v="VT"/>
    <tag k="ref:vcgi:esiteid" v="295225"/>
  </node>
  <node id="-377" visible="true" lat="43.14865875" lon="-72.70322418">
    <tag k="addr:housenumber" v="1876"/>
    <tag k="addr:street" v="Abbott Road"/>
    <tag k="addr:state" v="VT"/>
    <tag k="ref:vcgi:esiteid" v="295226"/>
  </node>
  <node id="-378" visible="true" lat="43.14821624" lon="-72.72051238">
    <tag k="addr:housenumber" v="4677"/>
    <tag k="addr:street" v="Windham Hill Road"/>
    <tag k="addr:state" v="VT"/>
    <tag k="ref:vcgi:esiteid" v="295227"/>
  </node>
  <node id="-379" visible="true" lat="43.14733505" lon="-72.70330047">
    <tag k="addr:housenumber" v="2008"/>
    <tag k="addr:street" v="Abbott Road"/>
    <tag k="addr:state" v="VT"/>
    <tag k="ref:vcgi:esiteid" v="295228"/>
  </node>
  <node id="-383" visible="true" lat="43.14549636" lon="-72.72901153">
    <tag k="addr:housenumber" v="544"/>
    <tag k="addr:street" v="Burbee Pond Road"/>
    <tag k="addr:state" v="VT"/>
    <tag k="ref:vcgi:esiteid" v="295232"/>
  </node>
  <node id="-386" visible="true" lat="43.1446293" lon="-72.7289506">
    <tag k="addr:housenumber" v="531"/>
    <tag k="addr:street" v="Burbee Pond Road"/>
    <tag k="addr:state" v="VT"/>
    <tag k="ref:vcgi:esiteid" v="295235"/>
  </node>
  <node id="-388" visible="true" lat="43.14377212" lon="-72.71962738">
    <tag k="addr:housenumber" v="4364"/>
    <tag k="addr:street" v="Windham Hill Road"/>
    <tag k="addr:state" v="VT"/>
    <tag k="ref:vcgi:esiteid" v="295237"/>
  </node>
  <node id="-390" visible="true" lat="43.14325699" lon="-72.72274083">
    <tag k="addr:housenumber" v="185"/>
    <tag k="addr:street" v="Burbee Pond Road"/>
    <tag k="addr:state" v="VT"/>
    <tag k="ref:vcgi:esiteid" v="295239"/>
  </node>
  <node id="-391" visible="true" lat="43.14331286" lon="-72.69617777">
    <tag k="addr:housenumber" v="1222"/>
    <tag k="addr:street" v="Wheeler Road"/>
    <tag k="addr:state" v="VT"/>
    <tag k="ref:vcgi:esiteid" v="295240"/>
  </node>
  <node id="-392" visible="true" lat="43.14336335" lon="-72.72818761">
    <tag k="addr:housenumber" v="1777"/>
    <tag k="addr:street" v="Old Cheney Road"/>
    <tag k="addr:state" v="VT"/>
    <tag k="ref:vcgi:esiteid" v="295241"/>
  </node>
  <node id="-393" visible="true" lat="43.14328384" lon="-72.7627182">
    <tag k="addr:housenumber" v="544"/>
    <tag k="addr:street" v="Toad Road"/>
    <tag k="addr:state" v="VT"/>
    <tag k="ref:vcgi:esiteid" v="295242"/>
  </node>
  <node id="-394" visible="true" lat="43.1428337" lon="-72.70581054">
    <tag k="addr:housenumber" v="693"/>
    <tag k="addr:street" v="Wheeler Road"/>
    <tag k="addr:state" v="VT"/>
    <tag k="ref:vcgi:esiteid" v="295243"/>
  </node>
  <node id="-399" visible="true" lat="43.14193461" lon="-72.72819768">
    <tag k="addr:housenumber" v="1683"/>
    <tag k="addr:street" v="Old Cheney Road"/>
    <tag k="addr:state" v="VT"/>
    <tag k="ref:vcgi:esiteid" v="295248"/>
  </node>
  <node id="-403" visible="true" lat="43.14099283" lon="-72.72662311">
    <tag k="addr:housenumber" v="1612"/>
    <tag k="addr:street" v="Old Cheney Road"/>
    <tag k="addr:state" v="VT"/>
    <tag k="ref:vcgi:esiteid" v="295252"/>
  </node>
  <node id="-406" visible="true" lat="43.14098739" lon="-72.70283508">
    <tag k="addr:housenumber" v="902"/>
    <tag k="addr:street" v="Wheeler Road"/>
    <tag k="addr:state" v="VT"/>
    <tag k="ref:vcgi:esiteid" v="295255"/>
  </node>
  <node id="-411" visible="true" lat="43.13814544" lon="-72.71020507">
    <tag k="addr:housenumber" v="342"/>
    <tag k="addr:street" v="Wheeler Road"/>
    <tag k="addr:state" v="VT"/>
    <tag k="ref:vcgi:esiteid" v="295260"/>
  </node>
  <node id="-412" visible="true" lat="43.13781356" lon="-72.72737121">
    <tag k="addr:housenumber" v="1401"/>
    <tag k="addr:street" v="Old Cheney Road"/>
    <tag k="addr:state" v="VT"/>
    <tag k="ref:vcgi:esiteid" v="295261"/>
  </node>
  <node id="-414" visible="true" lat="43.13378738" lon="-72.72604823">
    <tag k="addr:housenumber" v="1113"/>
    <tag k="addr:street" v="Old Cheney Road"/>
    <tag k="addr:state" v="VT"/>
    <tag k="ref:vcgi:esiteid" v="295263"/>
  </node>
  <node id="-423" visible="true" lat="43.13178253" lon="-72.72423553">
    <tag k="addr:housenumber" v="956"/>
    <tag k="addr:street" v="Old Cheney Road"/>
    <tag k="addr:state" v="VT"/>
    <tag k="ref:vcgi:esiteid" v="295272"/>
  </node>
  <node id="-430" visible="true" lat="43.12921523" lon="-72.70859527">
    <tag k="addr:housenumber" v="179"/>
    <tag k="addr:street" v="Chase Road"/>
    <tag k="addr:state" v="VT"/>
    <tag k="ref:vcgi:esiteid" v="295279"/>
  </node>
  <node id="-434" visible="true" lat="43.12853622" lon="-72.70511627">
    <tag k="addr:housenumber" v="338"/>
    <tag k="addr:street" v="Chase Road"/>
    <tag k="addr:state" v="VT"/>
    <tag k="ref:vcgi:esiteid" v="295283"/>
  </node>
  <node id="-436" visible="true" lat="43.12828064" lon="-72.71121215">
    <tag k="addr:housenumber" v="27"/>
    <tag k="addr:street" v="Chase Road"/>
    <tag k="addr:state" v="VT"/>
    <tag k="ref:vcgi:esiteid" v="295285"/>
  </node>
  <node id="-437" visible="true" lat="43.12828064" lon="-72.70997619">
    <tag k="addr:housenumber" v="87"/>
    <tag k="addr:street" v="Chase Road"/>
    <tag k="addr:state" v="VT"/>
    <tag k="ref:vcgi:esiteid" v="295286"/>
  </node>
  <node id="-448" visible="true" lat="43.21336143" lon="-72.73768506">
    <tag k="addr:housenumber" v="339"/>
    <tag k="addr:street" v="Route 121"/>
    <tag k="addr:state" v="VT"/>
    <tag k="ref:vcgi:esiteid" v="295297"/>
  </node>
  <node id="-449" visible="true" lat="43.15541456" lon="-72.74089101">
    <tag k="addr:housenumber" v="171"/>
    <tag k="addr:street" v="Ingalls Road"/>
    <tag k="addr:state" v="VT"/>
    <tag k="ref:vcgi:esiteid" v="295298"/>
  </node>
  <node id="-450" visible="true" lat="43.15134811" lon="-72.73568725">
    <tag k="addr:housenumber" v="403"/>
    <tag k="addr:street" v="West Windham Road"/>
    <tag k="addr:state" v="VT"/>
    <tag k="ref:vcgi:esiteid" v="295299"/>
  </node>
  <node id="-452" visible="true" lat="43.1585884" lon="-72.70916748">
    <tag k="addr:housenumber" v="1114"/>
    <tag k="addr:street" v="Abbott Road"/>
    <tag k="addr:state" v="VT"/>
    <tag k="ref:vcgi:esiteid" v="295301"/>
  </node>
  <node id="-457" visible="true" lat="43.14519951" lon="-72.72425126">
    <tag k="addr:housenumber" v="236"/>
    <tag k="addr:street" v="Burbee Pond Road"/>
    <tag k="addr:state" v="VT"/>
    <tag k="ref:vcgi:esiteid" v="295306"/>
  </node>
  <node id="-458" visible="true" lat="43.19930267" lon="-72.72673797">
    <tag k="addr:housenumber" v="1603"/>
    <tag k="addr:street" v="Route 121"/>
    <tag k="addr:state" v="VT"/>
    <tag k="ref:vcgi:esiteid" v="295307"/>
  </node>
  <node id="-460" visible="true" lat="43.1569252" lon="-72.72383117">
    <tag k="addr:housenumber" v="5305"/>
    <tag k="addr:street" v="Windham Hill Road"/>
    <tag k="addr:state" v="VT"/>
    <tag k="ref:vcgi:esiteid" v="295309"/>
  </node>
  <node id="-461" visible="true" lat="43.14196112" lon="-72.72616909">
    <tag k="addr:housenumber" v="375"/>
    <tag k="addr:street" v="Burbee Pond Road"/>
    <tag k="addr:state" v="VT"/>
    <tag k="ref:vcgi:esiteid" v="295311"/>
  </node>
  <node id="-462" visible="true" lat="43.14299867" lon="-72.71713691">
    <tag k="addr:housenumber" v="4240"/>
    <tag k="addr:street" v="Windham Hill Road"/>
    <tag k="addr:state" v="VT"/>
    <tag k="ref:vcgi:esiteid" v="295312"/>
  </node>
  <node id="-470" visible="true" lat="43.1953125" lon="-72.72533416">
    <tag k="addr:housenumber" v="50"/>
    <tag k="addr:street" v="Hemlock Road"/>
    <tag k="addr:state" v="VT"/>
    <tag k="ref:vcgi:esiteid" v="295320"/>
  </node>
  <node id="-471" visible="true" lat="43.19595336" lon="-72.72530364">
    <tag k="addr:housenumber" v="83"/>
    <tag k="addr:street" v="Hemlock Road"/>
    <tag k="addr:state" v="VT"/>
    <tag k="ref:vcgi:esiteid" v="295321"/>
  </node>
  <node id="-476" visible="true" lat="43.21755599" lon="-72.72238922">
    <tag k="addr:housenumber" v="268"/>
    <tag k="addr:street" v="White Road"/>
    <tag k="addr:state" v="VT"/>
    <tag k="ref:vcgi:esiteid" v="295326"/>
  </node>
  <node id="-477" visible="true" lat="43.21712875" lon="-72.72187805">
    <tag k="addr:housenumber" v="264"/>
    <tag k="addr:street" v="White Road"/>
    <tag k="addr:state" v="VT"/>
    <tag k="ref:vcgi:esiteid" v="295327"/>
  </node>
  <node id="-478" visible="true" lat="43.21683502" lon="-72.72179412">
    <tag k="addr:housenumber" v="266"/>
    <tag k="addr:street" v="White Road"/>
    <tag k="addr:state" v="VT"/>
    <tag k="ref:vcgi:esiteid" v="295328"/>
  </node>
  <node id="-479" visible="true" lat="43.15107054" lon="-72.72139466">
    <tag k="addr:housenumber" v="4841"/>
    <tag k="addr:street" v="Windham Hill Road"/>
    <tag k="addr:state" v="VT"/>
    <tag k="ref:vcgi:esiteid" v="295329"/>
  </node>
  <node id="-480" visible="true" lat="43.17018287" lon="-72.7165674">
    <tag k="addr:housenumber" v="315"/>
    <tag k="addr:street" v="Woodburn Road"/>
    <tag k="addr:state" v="VT"/>
    <tag k="ref:vcgi:esiteid" v="295330"/>
  </node>
  <node id="-483" visible="true" lat="43.13634938" lon="-72.72527205">
    <tag k="addr:housenumber" v="1300"/>
    <tag k="addr:street" v="Old Cheney Road"/>
    <tag k="addr:state" v="VT"/>
    <tag k="ref:vcgi:esiteid" v="295334"/>
  </node>
  <node id="-488" visible="true" lat="43.21925371" lon="-72.72818662">
    <tag k="addr:housenumber" v="458"/>
    <tag k="addr:street" v="Scott Pet Road"/>
    <tag k="addr:state" v="VT"/>
    <tag k="ref:vcgi:esiteid" v="295339"/>
  </node>
  <node id="-491" visible="true" lat="43.19522262" lon="-72.71567943">
    <tag k="addr:housenumber" v="2198"/>
    <tag k="addr:street" v="Route 121"/>
    <tag k="addr:state" v="VT"/>
    <tag k="ref:vcgi:esiteid" v="295343"/>
  </node>
  <node id="-496" visible="true" lat="43.13319448" lon="-72.72409975">
    <tag k="addr:housenumber" v="1094"/>
    <tag k="addr:street" v="Old Cheney Road"/>
    <tag k="addr:state" v="VT"/>
    <tag k="ref:vcgi:esiteid" v="295348"/>
  </node>
  <node id="-499" visible="true" lat="43.16165054" lon="-72.72467806">
    <tag k="addr:housenumber" v="5655"/>
    <tag k="addr:street" v="Windham Hill Road"/>
    <tag k="addr:state" v="VT"/>
    <tag k="ref:vcgi:esiteid" v="295351"/>
  </node>
  <node id="-500" visible="true" lat="43.1957034" lon="-72.72682549">
    <tag k="addr:housenumber" v="113"/>
    <tag k="addr:street" v="Spruce Road"/>
    <tag k="addr:state" v="VT"/>
    <tag k="ref:vcgi:esiteid" v="295352"/>
  </node>
  <node id="-503" visible="true" lat="43.13429151" lon="-72.72487576">
    <tag k="addr:housenumber" v="1150"/>
    <tag k="addr:street" v="Old Cheney Road"/>
    <tag k="addr:state" v="VT"/>
    <tag k="ref:vcgi:esiteid" v="295355"/>
  </node>
  <node id="-509" visible="true" lat="43.2014335" lon="-72.73179147">
    <tag k="addr:housenumber" v="1203"/>
    <tag k="addr:street" v="Route 121"/>
    <tag k="addr:state" v="VT"/>
    <tag k="ref:vcgi:esiteid" v="295361"/>
  </node>
  <node id="-510" visible="true" lat="43.16410099" lon="-72.72559977">
    <tag k="addr:housenumber" v="5855"/>
    <tag k="addr:street" v="Windham Hill Road"/>
    <tag k="addr:state" v="VT"/>
    <tag k="ref:vcgi:esiteid" v="295362"/>
  </node>
  <node id="-512" visible="true" lat="43.1270758" lon="-72.69739305">
    <tag k="addr:housenumber" v="820"/>
    <tag k="addr:street" v="Chase Road"/>
    <tag k="addr:state" v="VT"/>
    <tag k="ref:vcgi:esiteid" v="306234"/>
  </node>
  <node id="-513" visible="true" lat="43.13498722" lon="-72.71603119">
    <tag k="addr:housenumber" v="3709"/>
    <tag k="addr:street" v="Windham Hill Road"/>
    <tag k="addr:state" v="VT"/>
    <tag k="ref:vcgi:esiteid" v="307539"/>
  </node>
  <node id="-514" visible="true" lat="43.21037935" lon="-72.71792927">
    <tag k="addr:housenumber" v="1044"/>
    <tag k="addr:street" v="Hitchcock Hill Road"/>
    <tag k="addr:state" v="VT"/>
    <tag k="ref:vcgi:esiteid" v="310037"/>
  </node>
  <node id="-516" visible="true" lat="43.1975104" lon="-72.72772187">
    <tag k="addr:housenumber" v="48"/>
    <tag k="addr:street" v="Timber Ridge Road"/>
    <tag k="addr:state" v="VT"/>
    <tag k="ref:vcgi:esiteid" v="310772"/>
  </node>
  <node id="-518" visible="true" lat="43.21892716" lon="-72.73039431">
    <tag k="addr:housenumber" v="328"/>
    <tag k="addr:street" v="Scott Pet Road"/>
    <tag k="addr:state" v="VT"/>
    <tag k="ref:vcgi:esiteid" v="315259"/>
  </node>
  <node id="-523" visible="true" lat="43.1416465" lon="-72.70846917">
    <tag k="addr:housenumber" v="594"/>
    <tag k="addr:street" v="Wheeler Road"/>
    <tag k="addr:state" v="VT"/>
    <tag k="ref:vcgi:esiteid" v="330058"/>
  </node>
  <node id="-524" visible="true" lat="43.21581656" lon="-72.71580652">
    <tag k="addr:housenumber" v="300"/>
    <tag k="addr:street" v="Fairway Meadows"/>
    <tag k="addr:state" v="VT"/>
    <tag k="ref:vcgi:esiteid" v="331119"/>
  </node>
  <node id="-526" visible="true" lat="43.22702452" lon="-72.70671066">
    <tag k="addr:housenumber" v="308"/>
    <tag k="addr:street" v="Howard Hill Road"/>
    <tag k="addr:state" v="VT"/>
    <tag k="ref:vcgi:esiteid" v="336531"/>
  </node>
  <node id="-528" visible="true" lat="43.14182096" lon="-72.71732109">
    <tag k="addr:housenumber" v="4228"/>
    <tag k="addr:street" v="Windham Hill Road"/>
    <tag k="addr:state" v="VT"/>
    <tag k="ref:vcgi:esiteid" v="341580"/>
  </node>
  <node id="-530" visible="true" lat="43.22252904" lon="-72.68567287">
    <tag k="addr:housenumber" v="5390"/>
    <tag k="addr:street" v="Popple Dungeon Road"/>
    <tag k="addr:state" v="VT"/>
    <tag k="ref:vcgi:esiteid" v="341654"/>
  </node>
  <node id="-531" visible="true" lat="43.13629439" lon="-72.72635348">
    <tag k="addr:housenumber" v="1275"/>
    <tag k="addr:street" v="Old Cheney Road"/>
    <tag k="addr:state" v="VT"/>
    <tag k="ref:vcgi:esiteid" v="342582"/>
  </node>
  <node id="-537" visible="true" lat="43.15194651" lon="-72.72231242">
    <tag k="addr:housenumber" v="4983"/>
    <tag k="addr:street" v="Windham Hill Road"/>
    <tag k="addr:state" v="VT"/>
    <tag k="ref:vcgi:esiteid" v="448199"/>
  </node>
  <node id="-538" visible="true" lat="43.14259712" lon="-72.7277249">
    <tag k="addr:housenumber" v="1751"/>
    <tag k="addr:street" v="Old Cheney Road"/>
    <tag k="addr:state" v="VT"/>
    <tag k="ref:vcgi:esiteid" v="449578"/>
  </node>
  <node id="-540" visible="true" lat="43.19374649" lon="-72.72969777">
    <tag k="addr:housenumber" v="431"/>
    <tag k="addr:street" v="Glebe Mountain Road"/>
    <tag k="addr:state" v="VT"/>
    <tag k="ref:vcgi:esiteid" v="451374"/>
  </node>
  <node id="-543" visible="true" lat="43.2196416" lon="-72.70374357">
    <tag k="addr:housenumber" v="200"/>
    <tag k="addr:street" v="Edson Drive"/>
    <tag k="addr:state" v="VT"/>
    <tag k="ref:vcgi:esiteid" v="454513"/>
  </node>
  <node id="-544" visible="true" lat="43.1582792" lon="-72.73058195">
    <tag k="addr:housenumber" v="1355"/>
    <tag k="addr:street" v="Burbee Pond Road"/>
    <tag k="addr:state" v="VT"/>
    <tag k="ref:vcgi:esiteid" v="454514"/>
  </node>
  <node id="-546" visible="true" lat="43.22025934" lon="-72.70771703">
    <tag k="addr:housenumber" v="70"/>
    <tag k="addr:street" v="Edson Drive"/>
    <tag k="addr:state" v="VT"/>
    <tag k="ref:vcgi:esiteid" v="610871"/>
  </node>
  <node id="-550" visible="true" lat="43.19767271" lon="-72.73327773">
    <tag k="addr:housenumber" v="732"/>
    <tag k="addr:street" v="Birch Hill Road"/>
    <tag k="addr:state" v="VT"/>
    <tag k="ref:vcgi:esiteid" v="613051"/>
  </node>
  <node id="-557" visible="true" lat="43.21936473" lon="-72.70061601">
    <tag k="addr:housenumber" v="377"/>
    <tag k="addr:street" v="Edson Drive"/>
    <tag k="addr:state" v="VT"/>
    <tag k="ref:vcgi:esiteid" v="617460"/>
  </node>
  <node id="-558" visible="true" lat="43.15411697" lon="-72.70796957">
    <tag k="addr:housenumber" v="1400"/>
    <tag k="addr:street" v="Abbott Road"/>
    <tag k="addr:state" v="VT"/>
    <tag k="ref:vcgi:esiteid" v="618046"/>
  </node>
  <node id="-561" visible="true" lat="43.15037519" lon="-72.72076877">
    <tag k="addr:housenumber" v="4817"/>
    <tag k="addr:street" v="Windham Hill Road"/>
    <tag k="addr:state" v="VT"/>
    <tag k="ref:vcgi:esiteid" v="750254"/>
  </node>
  <node id="-564" visible="true" lat="43.15126928" lon="-72.74942151">
    <tag k="addr:housenumber" v="1163"/>
    <tag k="addr:street" v="West Windham Road"/>
    <tag k="addr:state" v="VT"/>
    <tag k="ref:vcgi:esiteid" v="752166"/>
  </node>
  <node id="-565" visible="true" lat="43.19642412" lon="-72.72685963">
    <tag k="addr:housenumber" v="97"/>
    <tag k="addr:street" v="Spruce Road"/>
    <tag k="addr:state" v="VT"/>
    <tag k="ref:vcgi:esiteid" v="752538"/>
  </node>
  <node id="-566" visible="true" lat="43.19008121" lon="-72.72888669">
    <tag k="addr:housenumber" v="757"/>
    <tag k="addr:street" v="Glebe Mountain Road"/>
    <tag k="addr:state" v="VT"/>
    <tag k="ref:vcgi:esiteid" v="753146"/>
  </node>
  <node id="-567" visible="true" lat="43.23251397" lon="-72.72865817">
    <tag k="addr:housenumber" v="7851"/>
    <tag k="addr:street" v="Vermont Route 11"/>
    <tag k="addr:state" v="VT"/>
    <tag k="ref:vcgi:esiteid" v="756088"/>
  </node>
  <node id="-568" visible="true" lat="43.13196071" lon="-72.71100412">
    <tag k="addr:housenumber" v="120"/>
    <tag k="addr:street" v="Farr Lane"/>
    <tag k="addr:state" v="VT"/>
    <tag k="ref:vcgi:esiteid" v="758273"/>
  </node>
  <node id="-569" visible="true" lat="43.1355206" lon="-72.725301">
    <tag k="addr:housenumber" v="1224"/>
    <tag k="addr:street" v="Old Cheney Road"/>
    <tag k="addr:state" v="VT"/>
    <tag k="ref:vcgi:esiteid" v="758731"/>
  </node>
  <node id="-572" visible="true" lat="43.17357154" lon="-72.71566829">
    <tag k="addr:housenumber" v="646"/>
    <tag k="addr:street" v="Woodburn Road"/>
    <tag k="addr:state" v="VT"/>
    <tag k="ref:vcgi:esiteid" v="762433"/>
  </node>
  <node id="-573" visible="true" lat="43.15142516" lon="-72.74852329">
    <tag k="addr:housenumber" v="1139"/>
    <tag k="addr:street" v="West Windham Road"/>
    <tag k="addr:state" v="VT"/>
    <tag k="ref:vcgi:esiteid" v="766325"/>
  </node>
  <node id="-574" visible="true" lat="43.21242518" lon="-72.7233052">
    <tag k="addr:housenumber" v="1095"/>
    <tag k="addr:street" v="Hitchcock Hill Road"/>
    <tag k="addr:state" v="VT"/>
    <tag k="ref:vcgi:esiteid" v="766653"/>
  </node>
  <node id="-576" visible="true" lat="43.22185677" lon="-72.71999829">
    <tag k="addr:housenumber" v="717"/>
    <tag k="addr:street" v="Horsenail Hill Road"/>
    <tag k="addr:state" v="VT"/>
    <tag k="ref:vcgi:esiteid" v="767169"/>
  </node>
  <node id="-577" visible="true" lat="43.16515434" lon="-72.73582924">
    <tag k="addr:housenumber" v="890"/>
    <tag k="addr:street" v="Ingalls Road"/>
    <tag k="addr:state" v="VT"/>
    <tag k="ref:vcgi:esiteid" v="767524"/>
  </node>
  <node id="-578" visible="true" lat="43.14928908" lon="-72.76957825">
    <tag k="addr:housenumber" v="1144"/>
    <tag k="addr:street" v="Toad Road"/>
    <tag k="addr:state" v="VT"/>
    <tag k="ref:vcgi:esiteid" v="768287"/>
  </node>
  <node id="-579" visible="true" lat="43.16803572" lon="-72.71615183">
    <tag k="addr:housenumber" v="172"/>
    <tag k="addr:street" v="Woodburn Road"/>
    <tag k="addr:state" v="VT"/>
    <tag k="ref:vcgi:esiteid" v="769477"/>
  </node>
  <node id="-580" visible="true" lat="43.21212288" lon="-72.71070479">
    <tag k="addr:housenumber" v="150"/>
    <tag k="addr:street" v="Hidden Newton Road"/>
    <tag k="addr:state" v="VT"/>
    <tag k="ref:vcgi:esiteid" v="770300"/>
  </node>
  <node id="-581" visible="true" lat="43.21246087" lon="-72.71222874">
    <tag k="addr:housenumber" v="129"/>
    <tag k="addr:street" v="Hidden Newton Road"/>
    <tag k="addr:state" v="VT"/>
    <tag k="ref:vcgi:esiteid" v="770301"/>
  </node>
  <node id="-582" visible="true" lat="43.16586892" lon="-72.72487989">
    <tag k="addr:housenumber" v="5934"/>
    <tag k="addr:street" v="Windham Hill Road"/>
    <tag k="addr:state" v="VT"/>
    <tag k="ref:vcgi:esiteid" v="1050244"/>
  </node>
  <node id="-583" visible="true" lat="43.14918647" lon="-72.75579744">
    <tag k="addr:housenumber" v="1560"/>
    <tag k="addr:street" v="West Windham Road"/>
    <tag k="addr:state" v="VT"/>
    <tag k="ref:vcgi:esiteid" v="1050245"/>
  </node>
  <node id="-584" visible="true" lat="43.22138487" lon="-72.71359447">
    <tag k="addr:housenumber" v="6825"/>
    <tag k="addr:street" v="Popple Dungeon Road"/>
    <tag k="addr:state" v="VT"/>
    <tag k="ref:vcgi:esiteid" v="1050359"/>
  </node>
</osm>
