<?xml version="1.0" encoding="UTF-8"?>
<osm version="0.6" generator="JOSM">
  <node id="-401" visible="true" lat="43.14169691" lon="-72.76780751">
    <!-- conflict: "166 Leonards Road, Windham, VT" No match in OSM, but a different address exists <5m away: "166 Under The Mountain Road, Windham, VT" -->
    <tag k="addr:city" v="Windham"/>
    <tag k="addr:housenumber" v="166"/>
    <tag k="addr:street" v="Leonards Road"/>
    <tag k="addr:state" v="VT"/>
    <tag k="ref:vcgi:esiteid" v="295250"/>
  </node>
  <node id="-447" visible="true" lat="43.22205962" lon="-72.70547672">
    <!-- conflict: "6397 Popple Dungeon Road, Windham, VT" No match in OSM, but a different address exists <5m away: "145 Edson Drive, Windham, VT" -->
    <tag k="addr:city" v="Windham"/>
    <tag k="addr:housenumber" v="6397"/>
    <tag k="addr:street" v="Popple Dungeon Road"/>
    <tag k="addr:state" v="VT"/>
    <tag k="ref:vcgi:esiteid" v="295296"/>
  </node>
  <node id="-524" visible="true" lat="43.21581656" lon="-72.71580652">
    <!-- conflict: "300 Fairway Meadows, Windham, VT" No match in OSM, but a different address exists <5m away: "119 White Road, Windham, VT" -->
    <tag k="addr:city" v="Windham"/>
    <tag k="addr:housenumber" v="300"/>
    <tag k="addr:street" v="Fairway Meadows"/>
    <tag k="addr:state" v="VT"/>
    <tag k="ref:vcgi:esiteid" v="331119"/>
  </node>
  <node id="-529" visible="true" lat="43.2231152" lon="-72.68815055">
    <!-- conflict: "5540 Popple Dungeon Road, Windham, VT" Fuzzy match to "5540 Popple Dungeon Road, Andover, VT" -->
    <tag k="addr:city" v="Windham"/>
    <tag k="addr:housenumber" v="5540"/>
    <tag k="addr:street" v="Popple Dungeon Road"/>
    <tag k="addr:state" v="VT"/>
    <tag k="ref:vcgi:esiteid" v="341653"/>
  </node>
  <node id="-535" visible="true" lat="43.21745311" lon="-72.71974815">
    <!-- conflict: "90 Fairway Meadows, Windham, VT" No match in OSM, but a different address exists <5m away: "121 White Road, Windham, VT" -->
    <tag k="addr:city" v="Windham"/>
    <tag k="addr:housenumber" v="90"/>
    <tag k="addr:street" v="Fairway Meadows"/>
    <tag k="addr:state" v="VT"/>
    <tag k="ref:vcgi:esiteid" v="445963"/>
  </node>
  <node id="-541" visible="true" lat="43.22817414" lon="-72.7288557">
    <!-- conflict: "7511 Vermont Route 11, Windham, VT" No match in OSM, but a different address exists <5m away: "7511 Vt Route 11, Windham, VT" -->
    <tag k="addr:city" v="Windham"/>
    <tag k="addr:housenumber" v="7511"/>
    <tag k="addr:street" v="Vermont Route 11"/>
    <tag k="addr:state" v="VT"/>
    <tag k="ref:vcgi:esiteid" v="452648"/>
  </node>
  <node id="-559" visible="true" lat="43.17532884" lon="-72.73264063">
    <!-- conflict: "355 Old Farm Road, Windham, VT" No match in OSM, but a different address exists <5m away: " Old Farm Road, Windham, VT" -->
    <tag k="addr:city" v="Windham"/>
    <tag k="addr:housenumber" v="355"/>
    <tag k="addr:street" v="Old Farm Road"/>
    <tag k="addr:state" v="VT"/>
    <tag k="ref:vcgi:esiteid" v="620683"/>
  </node>
</osm>
