<?xml version="1.0" encoding="UTF-8"?>
<osm version="0.6" generator="JOSM">
  <node id="-105" visible="true" lat="43.52002319" lon="-72.40120572">
    <tag k="addr:housenumber" v="15"/>
    <tag k="addr:street" v="U.S. Route 5 North"/>
    <tag k="addr:state" v="VT"/>
    <tag k="ref:vcgi:esiteid" v="295367"/>
  </node>
  <node id="-106" visible="true" lat="43.51943395" lon="-72.43585641">
    <tag k="addr:housenumber" v="3363"/>
    <tag k="addr:street" v="County Road"/>
    <tag k="addr:state" v="VT"/>
    <tag k="ref:vcgi:esiteid" v="295368"/>
  </node>
  <node id="-107" visible="true" lat="43.51951093" lon="-72.43423839">
    <tag k="addr:housenumber" v="3361"/>
    <tag k="addr:street" v="County Road"/>
    <tag k="addr:state" v="VT"/>
    <tag k="ref:vcgi:esiteid" v="295369"/>
  </node>
  <node id="-108" visible="true" lat="43.51905822" lon="-72.40278625">
    <tag k="addr:housenumber" v="106"/>
    <tag k="addr:street" v="U.S. Route 5 North"/>
    <tag k="addr:state" v="VT"/>
    <tag k="ref:vcgi:esiteid" v="295370"/>
  </node>
  <node id="-110" visible="true" lat="43.51767558" lon="-72.40345466">
    <tag k="addr:housenumber" v="194"/>
    <tag k="addr:street" v="U.S. Route 5 North"/>
    <tag k="addr:state" v="VT"/>
    <tag k="ref:vcgi:esiteid" v="295372"/>
  </node>
  <node id="-111" visible="true" lat="43.51781845" lon="-72.4343338">
    <tag k="addr:housenumber" v="3223"/>
    <tag k="addr:street" v="County Road"/>
    <tag k="addr:state" v="VT"/>
    <tag k="ref:vcgi:esiteid" v="295373"/>
  </node>
  <node id="-112" visible="true" lat="43.51720797" lon="-72.4030855">
    <tag k="addr:housenumber" v="221"/>
    <tag k="addr:street" v="U.S. Route 5 North"/>
    <tag k="addr:state" v="VT"/>
    <tag k="ref:vcgi:esiteid" v="295374"/>
  </node>
  <node id="-113" visible="true" lat="43.51698603" lon="-72.40391555">
    <tag k="addr:housenumber" v="256"/>
    <tag k="addr:street" v="U.S. Route 5 North"/>
    <tag k="addr:state" v="VT"/>
    <tag k="ref:vcgi:esiteid" v="295375"/>
  </node>
  <node id="-114" visible="true" lat="43.51665529" lon="-72.40337847">
    <tag k="addr:housenumber" v="273"/>
    <tag k="addr:street" v="U.S. Route 5 North"/>
    <tag k="addr:state" v="VT"/>
    <tag k="ref:vcgi:esiteid" v="295376"/>
  </node>
  <node id="-115" visible="true" lat="43.51729727" lon="-72.40184617">
    <tag k="addr:housenumber" v="157"/>
    <tag k="addr:street" v="Park Road"/>
    <tag k="addr:state" v="VT"/>
    <tag k="ref:vcgi:esiteid" v="295377"/>
  </node>
  <node id="-116" visible="true" lat="43.51605015" lon="-72.40368039">
    <tag k="addr:housenumber" v="297"/>
    <tag k="addr:street" v="U.S. Route 5 North"/>
    <tag k="addr:state" v="VT"/>
    <tag k="ref:vcgi:esiteid" v="295378"/>
  </node>
  <node id="-117" visible="true" lat="43.51616715" lon="-72.43806938">
    <tag k="addr:housenumber" v="184"/>
    <tag k="addr:street" v="Sunrise Hill"/>
    <tag k="addr:state" v="VT"/>
    <tag k="ref:vcgi:esiteid" v="295379"/>
  </node>
  <node id="-118" visible="true" lat="43.51601409" lon="-72.40215301">
    <tag k="addr:housenumber" v="109"/>
    <tag k="addr:street" v="Park Road"/>
    <tag k="addr:state" v="VT"/>
    <tag k="ref:vcgi:esiteid" v="295380"/>
  </node>
  <node id="-119" visible="true" lat="43.51539611" lon="-72.43680572">
    <tag k="addr:housenumber" v="217"/>
    <tag k="addr:street" v="Sunrise Hill"/>
    <tag k="addr:state" v="VT"/>
    <tag k="ref:vcgi:esiteid" v="295382"/>
  </node>
  <node id="-120" visible="true" lat="43.51462781" lon="-72.40306851">
    <tag k="addr:housenumber" v="39"/>
    <tag k="addr:street" v="Park Road"/>
    <tag k="addr:state" v="VT"/>
    <tag k="ref:vcgi:esiteid" v="295383"/>
  </node>
  <node id="-121" visible="true" lat="43.51408386" lon="-72.43436431">
    <tag k="addr:housenumber" v="3003"/>
    <tag k="addr:street" v="County Road"/>
    <tag k="addr:state" v="VT"/>
    <tag k="ref:vcgi:esiteid" v="295384"/>
  </node>
  <node id="-122" visible="true" lat="43.51384627" lon="-72.40424658">
    <tag k="addr:housenumber" v="480"/>
    <tag k="addr:street" v="U.S. Route 5 North"/>
    <tag k="addr:state" v="VT"/>
    <tag k="ref:vcgi:esiteid" v="295386"/>
  </node>
  <node id="-123" visible="true" lat="43.51327896" lon="-72.43557739">
    <tag k="addr:housenumber" v="2995"/>
    <tag k="addr:street" v="County Road"/>
    <tag k="addr:state" v="VT"/>
    <tag k="ref:vcgi:esiteid" v="295387"/>
  </node>
  <node id="-125" visible="true" lat="43.51266861" lon="-72.43466949">
    <tag k="addr:housenumber" v="2895"/>
    <tag k="addr:street" v="County Road"/>
    <tag k="addr:state" v="VT"/>
    <tag k="ref:vcgi:esiteid" v="295389"/>
  </node>
  <node id="-126" visible="true" lat="43.51262664" lon="-72.40436553">
    <tag k="addr:housenumber" v="54"/>
    <tag k="addr:street" v="Hillside Drive"/>
    <tag k="addr:state" v="VT"/>
    <tag k="ref:vcgi:esiteid" v="295390"/>
  </node>
  <node id="-127" visible="true" lat="43.5124855" lon="-72.40471649">
    <tag k="addr:housenumber" v="53"/>
    <tag k="addr:street" v="Hillside Drive"/>
    <tag k="addr:state" v="VT"/>
    <tag k="ref:vcgi:esiteid" v="295391"/>
  </node>
  <node id="-128" visible="true" lat="43.51234817" lon="-72.40422058">
    <tag k="addr:housenumber" v="36"/>
    <tag k="addr:street" v="Hillside Drive"/>
    <tag k="addr:state" v="VT"/>
    <tag k="ref:vcgi:esiteid" v="295392"/>
  </node>
  <node id="-129" visible="true" lat="43.51207733" lon="-72.43485259">
    <tag k="addr:housenumber" v="2855"/>
    <tag k="addr:street" v="County Road"/>
    <tag k="addr:state" v="VT"/>
    <tag k="ref:vcgi:esiteid" v="295394"/>
  </node>
  <node id="-132" visible="true" lat="43.51124852" lon="-72.4467119">
    <tag k="addr:housenumber" v="788"/>
    <tag k="addr:street" v="Weeden Hill Road"/>
    <tag k="addr:state" v="VT"/>
    <tag k="ref:vcgi:esiteid" v="295397"/>
  </node>
  <node id="-133" visible="true" lat="43.51111221" lon="-72.43499755">
    <tag k="addr:housenumber" v="2799"/>
    <tag k="addr:street" v="County Road"/>
    <tag k="addr:state" v="VT"/>
    <tag k="ref:vcgi:esiteid" v="295398"/>
  </node>
  <node id="-135" visible="true" lat="43.5104199" lon="-72.43795915">
    <tag k="addr:housenumber" v="287"/>
    <tag k="addr:street" v="Weeden Hill Road"/>
    <tag k="addr:state" v="VT"/>
    <tag k="ref:vcgi:esiteid" v="295400"/>
  </node>
  <node id="-136" visible="true" lat="43.51023483" lon="-72.40489196">
    <tag k="addr:housenumber" v="786"/>
    <tag k="addr:street" v="U.S. Route 5 North"/>
    <tag k="addr:state" v="VT"/>
    <tag k="ref:vcgi:esiteid" v="295401"/>
  </node>
  <node id="-137" visible="true" lat="43.5102539" lon="-72.43624114">
    <tag k="addr:housenumber" v="216"/>
    <tag k="addr:street" v="Weeden Hill Road"/>
    <tag k="addr:state" v="VT"/>
    <tag k="ref:vcgi:esiteid" v="295402"/>
  </node>
  <node id="-138" visible="true" lat="43.50992202" lon="-72.40402984">
    <tag k="addr:housenumber" v="784"/>
    <tag k="addr:street" v="U.S. Route 5 North"/>
    <tag k="addr:state" v="VT"/>
    <tag k="ref:vcgi:esiteid" v="295403"/>
  </node>
  <node id="-141" visible="true" lat="43.508552" lon="-72.40346395">
    <tag k="addr:housenumber" v="838"/>
    <tag k="addr:street" v="U.S. Route 5 North"/>
    <tag k="addr:state" v="VT"/>
    <tag k="ref:vcgi:esiteid" v="295406"/>
  </node>
  <node id="-142" visible="true" lat="43.50839996" lon="-72.43614196">
    <tag k="addr:housenumber" v="1695"/>
    <tag k="addr:street" v="Marton Road"/>
    <tag k="addr:state" v="VT"/>
    <tag k="ref:vcgi:esiteid" v="295407"/>
  </node>
  <node id="-143" visible="true" lat="43.50829687" lon="-72.4340153">
    <tag k="addr:housenumber" v="1754"/>
    <tag k="addr:street" v="Marton Road"/>
    <tag k="addr:state" v="VT"/>
    <tag k="ref:vcgi:esiteid" v="295408"/>
  </node>
  <node id="-144" visible="true" lat="43.5081163" lon="-72.43189843">
    <tag k="addr:housenumber" v="2545"/>
    <tag k="addr:street" v="County Road"/>
    <tag k="addr:state" v="VT"/>
    <tag k="ref:vcgi:esiteid" v="295409"/>
  </node>
  <node id="-145" visible="true" lat="43.50812664" lon="-72.45048402">
    <tag k="addr:housenumber" v="1092"/>
    <tag k="addr:street" v="Weeden Hill Road"/>
    <tag k="addr:state" v="VT"/>
    <tag k="ref:vcgi:esiteid" v="295410"/>
  </node>
  <node id="-146" visible="true" lat="43.5077305" lon="-72.43168511">
    <tag k="addr:housenumber" v="2503"/>
    <tag k="addr:street" v="County Road"/>
    <tag k="addr:state" v="VT"/>
    <tag k="ref:vcgi:esiteid" v="295411"/>
  </node>
  <node id="-148" visible="true" lat="43.50761032" lon="-72.43080139">
    <tag k="addr:housenumber" v="2485"/>
    <tag k="addr:street" v="County Road"/>
    <tag k="addr:state" v="VT"/>
    <tag k="ref:vcgi:esiteid" v="295413"/>
  </node>
  <node id="-149" visible="true" lat="43.50736827" lon="-72.45003853">
    <tag k="addr:housenumber" v="1077"/>
    <tag k="addr:street" v="Weeden Hill Road"/>
    <tag k="addr:state" v="VT"/>
    <tag k="ref:vcgi:esiteid" v="295414"/>
  </node>
  <node id="-150" visible="true" lat="43.50731841" lon="-72.43018834">
    <tag k="addr:housenumber" v="2447"/>
    <tag k="addr:street" v="County Road"/>
    <tag k="addr:state" v="VT"/>
    <tag k="ref:vcgi:esiteid" v="295415"/>
  </node>
  <node id="-151" visible="true" lat="43.507164" lon="-72.40181732">
    <tag k="addr:housenumber" v="957"/>
    <tag k="addr:street" v="U.S. Route 5 North"/>
    <tag k="addr:state" v="VT"/>
    <tag k="ref:vcgi:esiteid" v="295416"/>
  </node>
  <node id="-152" visible="true" lat="43.50709915" lon="-72.42963409">
    <tag k="addr:housenumber" v="2417"/>
    <tag k="addr:street" v="County Road"/>
    <tag k="addr:state" v="VT"/>
    <tag k="ref:vcgi:esiteid" v="295417"/>
  </node>
  <node id="-153" visible="true" lat="43.50706481" lon="-72.43444824">
    <tag k="addr:housenumber" v="1670"/>
    <tag k="addr:street" v="Marton Road"/>
    <tag k="addr:state" v="VT"/>
    <tag k="ref:vcgi:esiteid" v="295418"/>
  </node>
  <node id="-154" visible="true" lat="43.50667953" lon="-72.40188598">
    <tag k="addr:housenumber" v="984"/>
    <tag k="addr:street" v="U.S. Route 5 North"/>
    <tag k="addr:state" v="VT"/>
    <tag k="ref:vcgi:esiteid" v="295420"/>
  </node>
  <node id="-155" visible="true" lat="43.50647925" lon="-72.40587074">
    <tag k="addr:housenumber" v="920"/>
    <tag k="addr:street" v="U.S. Route 5 North"/>
    <tag k="addr:state" v="VT"/>
    <tag k="ref:vcgi:esiteid" v="295421"/>
  </node>
  <node id="-156" visible="true" lat="43.50652694" lon="-72.40174865">
    <tag k="addr:housenumber" v="996"/>
    <tag k="addr:street" v="U.S. Route 5 North"/>
    <tag k="addr:state" v="VT"/>
    <tag k="ref:vcgi:esiteid" v="295422"/>
  </node>
  <node id="-157" visible="true" lat="43.506587" lon="-72.40477307">
    <tag k="addr:housenumber" v="918"/>
    <tag k="addr:street" v="U.S. Route 5 North"/>
    <tag k="addr:state" v="VT"/>
    <tag k="ref:vcgi:esiteid" v="295423"/>
  </node>
  <node id="-158" visible="true" lat="43.50626373" lon="-72.43031311">
    <tag k="addr:housenumber" v="2505"/>
    <tag k="addr:street" v="County Road"/>
    <tag k="addr:state" v="VT"/>
    <tag k="ref:vcgi:esiteid" v="295424"/>
  </node>
  <node id="-159" visible="true" lat="43.50614929" lon="-72.43587493">
    <tag k="addr:housenumber" v="1653"/>
    <tag k="addr:street" v="Marton Road"/>
    <tag k="addr:state" v="VT"/>
    <tag k="ref:vcgi:esiteid" v="295425"/>
  </node>
  <node id="-160" visible="true" lat="43.50603866" lon="-72.42811584">
    <tag k="addr:housenumber" v="2305"/>
    <tag k="addr:street" v="County Road"/>
    <tag k="addr:state" v="VT"/>
    <tag k="ref:vcgi:esiteid" v="295426"/>
  </node>
  <node id="-161" visible="true" lat="43.50581004" lon="-72.4012416">
    <tag k="addr:housenumber" v="1044"/>
    <tag k="addr:street" v="U.S. Route 5 North"/>
    <tag k="addr:state" v="VT"/>
    <tag k="ref:vcgi:esiteid" v="295427"/>
  </node>
  <node id="-163" visible="true" lat="43.50528716" lon="-72.4003067">
    <tag k="addr:housenumber" v="1106"/>
    <tag k="addr:street" v="U.S. Route 5 North"/>
    <tag k="addr:state" v="VT"/>
    <tag k="ref:vcgi:esiteid" v="295430"/>
  </node>
  <node id="-164" visible="true" lat="43.50528335" lon="-72.42678832">
    <tag k="addr:housenumber" v="2225"/>
    <tag k="addr:street" v="County Road"/>
    <tag k="addr:state" v="VT"/>
    <tag k="ref:vcgi:esiteid" v="295431"/>
  </node>
  <node id="-165" visible="true" lat="43.50506403" lon="-72.40004077">
    <tag k="addr:housenumber" v="1130"/>
    <tag k="addr:street" v="U.S. Route 5 North"/>
    <tag k="addr:state" v="VT"/>
    <tag k="ref:vcgi:esiteid" v="295432"/>
  </node>
  <node id="-178" visible="true" lat="43.50197023" lon="-72.39248938">
    <tag k="addr:housenumber" v="1571"/>
    <tag k="addr:street" v="U.S. Route 5 North"/>
    <tag k="addr:state" v="VT"/>
    <tag k="ref:vcgi:esiteid" v="295446"/>
  </node>
  <node id="-181" visible="true" lat="43.50158686" lon="-72.39422366">
    <tag k="addr:housenumber" v="1524"/>
    <tag k="addr:street" v="U.S. Route 5 North"/>
    <tag k="addr:state" v="VT"/>
    <tag k="ref:vcgi:esiteid" v="295450"/>
  </node>
  <node id="-182" visible="true" lat="43.50129318" lon="-72.39477539">
    <tag k="addr:housenumber" v="1466"/>
    <tag k="addr:street" v="U.S. Route 5 North"/>
    <tag k="addr:state" v="VT"/>
    <tag k="ref:vcgi:esiteid" v="295452"/>
  </node>
  <node id="-183" visible="true" lat="43.50138252" lon="-72.39172647">
    <tag k="addr:housenumber" v="1631"/>
    <tag k="addr:street" v="U.S. Route 5 North"/>
    <tag k="addr:state" v="VT"/>
    <tag k="ref:vcgi:esiteid" v="295453"/>
  </node>
  <node id="-186" visible="true" lat="43.50084388" lon="-72.39356002">
    <tag k="addr:housenumber" v="1640"/>
    <tag k="addr:street" v="U.S. Route 5 North"/>
    <tag k="addr:state" v="VT"/>
    <tag k="ref:vcgi:esiteid" v="295456"/>
  </node>
  <node id="-187" visible="true" lat="43.50030517" lon="-72.39205932">
    <tag k="addr:housenumber" v="1676"/>
    <tag k="addr:street" v="U.S. Route 5 North"/>
    <tag k="addr:state" v="VT"/>
    <tag k="ref:vcgi:esiteid" v="295458"/>
  </node>
  <node id="-188" visible="true" lat="43.50027084" lon="-72.39112091">
    <tag k="addr:housenumber" v="1705"/>
    <tag k="addr:street" v="U.S. Route 5 North"/>
    <tag k="addr:state" v="VT"/>
    <tag k="ref:vcgi:esiteid" v="295459"/>
  </node>
  <node id="-193" visible="true" lat="43.49922549" lon="-72.39133088">
    <tag k="addr:housenumber" v="1760"/>
    <tag k="addr:street" v="U.S. Route 5 North"/>
    <tag k="addr:state" v="VT"/>
    <tag k="ref:vcgi:esiteid" v="295465"/>
  </node>
  <node id="-194" visible="true" lat="43.49891281" lon="-72.38970947">
    <tag k="addr:housenumber" v="1823"/>
    <tag k="addr:street" v="U.S. Route 5 North"/>
    <tag k="addr:state" v="VT"/>
    <tag k="ref:vcgi:esiteid" v="295466"/>
  </node>
  <node id="-197" visible="true" lat="43.4987068" lon="-72.39093025">
    <tag k="addr:housenumber" v="1790"/>
    <tag k="addr:street" v="U.S. Route 5 North"/>
    <tag k="addr:state" v="VT"/>
    <tag k="ref:vcgi:esiteid" v="295469"/>
  </node>
  <node id="-204" visible="true" lat="43.49790954" lon="-72.38946533">
    <tag k="addr:housenumber" v="1888"/>
    <tag k="addr:street" v="U.S. Route 5 North"/>
    <tag k="addr:state" v="VT"/>
    <tag k="ref:vcgi:esiteid" v="295477"/>
  </node>
  <node id="-207" visible="true" lat="43.49758148" lon="-72.38923644">
    <tag k="addr:housenumber" v="1914"/>
    <tag k="addr:street" v="U.S. Route 5 North"/>
    <tag k="addr:state" v="VT"/>
    <tag k="ref:vcgi:esiteid" v="295480"/>
  </node>
  <node id="-216" visible="true" lat="43.49705505" lon="-72.38894653">
    <tag k="addr:housenumber" v="1954"/>
    <tag k="addr:street" v="U.S. Route 5 North"/>
    <tag k="addr:state" v="VT"/>
    <tag k="ref:vcgi:esiteid" v="295489"/>
  </node>
  <node id="-217" visible="true" lat="43.49680328" lon="-72.38878631">
    <tag k="addr:housenumber" v="1972"/>
    <tag k="addr:street" v="U.S. Route 5 North"/>
    <tag k="addr:state" v="VT"/>
    <tag k="ref:vcgi:esiteid" v="295490"/>
  </node>
  <node id="-222" visible="true" lat="43.4964489" lon="-72.38858025">
    <tag k="addr:housenumber" v="1998"/>
    <tag k="addr:street" v="U.S. Route 5 North"/>
    <tag k="addr:state" v="VT"/>
    <tag k="ref:vcgi:esiteid" v="295495"/>
  </node>
  <node id="-224" visible="true" lat="43.49644376" lon="-72.38896133">
    <tag k="addr:housenumber" v="27"/>
    <tag k="addr:street" v="Katherine Lane"/>
    <tag k="addr:state" v="VT"/>
    <tag k="ref:vcgi:esiteid" v="295497"/>
  </node>
  <node id="-232" visible="true" lat="43.49602464" lon="-72.38838573">
    <tag k="addr:housenumber" v="2028"/>
    <tag k="addr:street" v="U.S. Route 5 North"/>
    <tag k="addr:state" v="VT"/>
    <tag k="ref:vcgi:esiteid" v="295506"/>
  </node>
  <node id="-235" visible="true" lat="43.49579787" lon="-72.38839262">
    <tag k="addr:housenumber" v="2044"/>
    <tag k="addr:street" v="U.S. Route 5 North"/>
    <tag k="addr:state" v="VT"/>
    <tag k="ref:vcgi:esiteid" v="295509"/>
  </node>
  <node id="-240" visible="true" lat="43.49531936" lon="-72.38826751">
    <tag k="addr:housenumber" v="2076"/>
    <tag k="addr:street" v="U.S. Route 5 North"/>
    <tag k="addr:state" v="VT"/>
    <tag k="ref:vcgi:esiteid" v="295515"/>
  </node>
  <node id="-246" visible="true" lat="43.49469375" lon="-72.38759613">
    <tag k="addr:housenumber" v="2130"/>
    <tag k="addr:street" v="U.S. Route 5 North"/>
    <tag k="addr:state" v="VT"/>
    <tag k="ref:vcgi:esiteid" v="295522"/>
  </node>
  <node id="-250" visible="true" lat="43.49436805" lon="-72.38744392">
    <tag k="addr:housenumber" v="2156"/>
    <tag k="addr:street" v="U.S. Route 5 North"/>
    <tag k="addr:state" v="VT"/>
    <tag k="ref:vcgi:esiteid" v="295526"/>
  </node>
  <node id="-261" visible="true" lat="43.49351882" lon="-72.38708496">
    <tag k="addr:housenumber" v="2218"/>
    <tag k="addr:street" v="U.S. Route 5 North"/>
    <tag k="addr:state" v="VT"/>
    <tag k="ref:vcgi:esiteid" v="295538"/>
  </node>
  <node id="-263" visible="true" lat="43.49318971" lon="-72.3863363">
    <tag k="addr:housenumber" v="2245"/>
    <tag k="addr:street" v="U.S. Route 5 North"/>
    <tag k="addr:state" v="VT"/>
    <tag k="ref:vcgi:esiteid" v="295540"/>
  </node>
  <node id="-265" visible="true" lat="43.49311065" lon="-72.3871231">
    <tag k="addr:housenumber" v="30"/>
    <tag k="addr:street" v="Bunker Hill Court"/>
    <tag k="addr:state" v="VT"/>
    <tag k="ref:vcgi:esiteid" v="295542"/>
  </node>
  <node id="-266" visible="true" lat="43.49310302" lon="-72.38696289">
    <tag k="addr:housenumber" v="22"/>
    <tag k="addr:street" v="Bunker Hill Court"/>
    <tag k="addr:state" v="VT"/>
    <tag k="ref:vcgi:esiteid" v="295543"/>
  </node>
  <node id="-269" visible="true" lat="43.49308776" lon="-72.3872528">
    <tag k="addr:housenumber" v="38"/>
    <tag k="addr:street" v="Bunker Hill Court"/>
    <tag k="addr:state" v="VT"/>
    <tag k="ref:vcgi:esiteid" v="295546"/>
  </node>
  <node id="-276" visible="true" lat="43.49293899" lon="-72.38722991">
    <tag k="addr:housenumber" v="39"/>
    <tag k="addr:street" v="Bunker Hill Court"/>
    <tag k="addr:state" v="VT"/>
    <tag k="ref:vcgi:esiteid" v="295553"/>
  </node>
  <node id="-279" visible="true" lat="43.49292755" lon="-72.38739013">
    <tag k="addr:housenumber" v="45"/>
    <tag k="addr:street" v="Bunker Hill Court"/>
    <tag k="addr:state" v="VT"/>
    <tag k="ref:vcgi:esiteid" v="295556"/>
  </node>
  <node id="-286" visible="true" lat="43.49290084" lon="-72.42957305">
    <tag k="addr:housenumber" v="453"/>
    <tag k="addr:street" v="Marton Road"/>
    <tag k="addr:state" v="VT"/>
    <tag k="ref:vcgi:esiteid" v="295563"/>
  </node>
  <node id="-292" visible="true" lat="43.49253896" lon="-72.38687952">
    <tag k="addr:housenumber" v="2282"/>
    <tag k="addr:street" v="U.S. Route 5 North"/>
    <tag k="addr:state" v="VT"/>
    <tag k="ref:vcgi:esiteid" v="295569"/>
  </node>
  <node id="-298" visible="true" lat="43.49242216" lon="-72.38609036">
    <tag k="addr:housenumber" v="2309"/>
    <tag k="addr:street" v="U.S. Route 5 North"/>
    <tag k="addr:state" v="VT"/>
    <tag k="ref:vcgi:esiteid" v="295575"/>
  </node>
  <node id="-305" visible="true" lat="43.49216791" lon="-72.38602587">
    <tag k="addr:housenumber" v="2327"/>
    <tag k="addr:street" v="U.S. Route 5 North"/>
    <tag k="addr:state" v="VT"/>
    <tag k="ref:vcgi:esiteid" v="295582"/>
  </node>
  <node id="-307" visible="true" lat="43.49193714" lon="-72.3868626">
    <tag k="addr:housenumber" v="2326"/>
    <tag k="addr:street" v="U.S. Route 5 North"/>
    <tag k="addr:state" v="VT"/>
    <tag k="ref:vcgi:esiteid" v="295584"/>
  </node>
  <node id="-309" visible="true" lat="43.49192142" lon="-72.3859062">
    <tag k="addr:housenumber" v="2343"/>
    <tag k="addr:street" v="U.S. Route 5 North"/>
    <tag k="addr:state" v="VT"/>
    <tag k="ref:vcgi:esiteid" v="295586"/>
  </node>
  <node id="-315" visible="true" lat="43.49164226" lon="-72.38590672">
    <tag k="addr:housenumber" v="2363"/>
    <tag k="addr:street" v="U.S. Route 5 North"/>
    <tag k="addr:state" v="VT"/>
    <tag k="ref:vcgi:esiteid" v="295593"/>
  </node>
  <node id="-316" visible="true" lat="43.49147081" lon="-72.38659018">
    <tag k="addr:housenumber" v="2362"/>
    <tag k="addr:street" v="U.S. Route 5 North"/>
    <tag k="addr:state" v="VT"/>
    <tag k="ref:vcgi:esiteid" v="295594"/>
  </node>
  <node id="-318" visible="true" lat="43.49123619" lon="-72.38593063">
    <tag k="addr:housenumber" v="2391"/>
    <tag k="addr:street" v="U.S. Route 5 North"/>
    <tag k="addr:state" v="VT"/>
    <tag k="ref:vcgi:esiteid" v="295596"/>
  </node>
  <node id="-329" visible="true" lat="43.49004364" lon="-72.38549041">
    <tag k="addr:housenumber" v="2469"/>
    <tag k="addr:street" v="U.S. Route 5 North"/>
    <tag k="addr:state" v="VT"/>
    <tag k="ref:vcgi:esiteid" v="295607"/>
  </node>
  <node id="-348" visible="true" lat="43.48761749" lon="-72.38480377">
    <tag k="addr:housenumber" v="2637"/>
    <tag k="addr:street" v="U.S. Route 5 North"/>
    <tag k="addr:state" v="VT"/>
    <tag k="ref:vcgi:esiteid" v="295628"/>
  </node>
  <node id="-362" visible="true" lat="43.48605028" lon="-72.43013884">
    <tag k="addr:housenumber" v="1672"/>
    <tag k="addr:street" v="Hunt Road"/>
    <tag k="addr:state" v="VT"/>
    <tag k="ref:vcgi:esiteid" v="295644"/>
  </node>
  <node id="-366" visible="true" lat="43.48557281" lon="-72.43352508">
    <tag k="addr:housenumber" v="1801"/>
    <tag k="addr:street" v="Hunt Road"/>
    <tag k="addr:state" v="VT"/>
    <tag k="ref:vcgi:esiteid" v="295653"/>
  </node>
  <node id="-367" visible="true" lat="43.48548631" lon="-72.38487708">
    <tag k="addr:housenumber" v="2781"/>
    <tag k="addr:street" v="U.S. Route 5 North"/>
    <tag k="addr:state" v="VT"/>
    <tag k="ref:vcgi:esiteid" v="295654"/>
  </node>
  <node id="-368" visible="true" lat="43.48540496" lon="-72.42942809">
    <tag k="addr:housenumber" v="1587"/>
    <tag k="addr:street" v="Hunt Road"/>
    <tag k="addr:state" v="VT"/>
    <tag k="ref:vcgi:esiteid" v="295655"/>
  </node>
  <node id="-369" visible="true" lat="43.48528644" lon="-72.38451753">
    <tag k="addr:housenumber" v="1"/>
    <tag k="addr:street" v="Main Street"/>
    <tag k="addr:state" v="VT"/>
    <tag k="ref:vcgi:esiteid" v="295656"/>
  </node>
  <node id="-370" visible="true" lat="43.48522475" lon="-72.44238612">
    <tag k="addr:housenumber" v="2294"/>
    <tag k="addr:street" v="Hunt Road"/>
    <tag k="addr:state" v="VT"/>
    <tag k="ref:vcgi:esiteid" v="295657"/>
  </node>
  <node id="-371" visible="true" lat="43.48519897" lon="-72.4321289">
    <tag k="addr:housenumber" v="1747"/>
    <tag k="addr:street" v="Hunt Road"/>
    <tag k="addr:state" v="VT"/>
    <tag k="ref:vcgi:esiteid" v="295658"/>
  </node>
  <node id="-372" visible="true" lat="43.48517915" lon="-72.38471518">
    <tag k="addr:housenumber" v="5"/>
    <tag k="addr:street" v="Main Street"/>
    <tag k="addr:state" v="VT"/>
    <tag k="ref:vcgi:esiteid" v="295659"/>
  </node>
  <node id="-373" visible="true" lat="43.48502731" lon="-72.3844757">
    <tag k="addr:housenumber" v="3"/>
    <tag k="addr:street" v="Main Street"/>
    <tag k="addr:state" v="VT"/>
    <tag k="ref:vcgi:esiteid" v="295661"/>
  </node>
  <node id="-374" visible="true" lat="43.48500442" lon="-72.38485717">
    <tag k="addr:housenumber" v="7"/>
    <tag k="addr:street" v="Main Street"/>
    <tag k="addr:state" v="VT"/>
    <tag k="ref:vcgi:esiteid" v="295662"/>
  </node>
  <node id="-377" visible="true" lat="43.4848872" lon="-72.43147286">
    <tag k="addr:housenumber" v="1705"/>
    <tag k="addr:street" v="Hunt Road"/>
    <tag k="addr:state" v="VT"/>
    <tag k="ref:vcgi:esiteid" v="295665"/>
  </node>
  <node id="-378" visible="true" lat="43.48479902" lon="-72.38502369">
    <tag k="addr:housenumber" v="9"/>
    <tag k="addr:street" v="Main Street"/>
    <tag k="addr:state" v="VT"/>
    <tag k="ref:vcgi:esiteid" v="295666"/>
  </node>
  <node id="-379" visible="true" lat="43.48476028" lon="-72.43924713">
    <tag k="addr:housenumber" v="2126"/>
    <tag k="addr:street" v="Hunt Road"/>
    <tag k="addr:state" v="VT"/>
    <tag k="ref:vcgi:esiteid" v="295667"/>
  </node>
  <node id="-380" visible="true" lat="43.48454483" lon="-72.38492898">
    <tag k="addr:housenumber" v="15"/>
    <tag k="addr:street" v="Main Street"/>
    <tag k="addr:state" v="VT"/>
    <tag k="ref:vcgi:esiteid" v="295668"/>
  </node>
  <node id="-382" visible="true" lat="43.4844737" lon="-72.38344212">
    <tag k="addr:housenumber" v="28"/>
    <tag k="addr:street" v="Coolidge Court"/>
    <tag k="addr:state" v="VT"/>
    <tag k="ref:vcgi:esiteid" v="295670"/>
  </node>
  <node id="-383" visible="true" lat="43.48424668" lon="-72.38560104">
    <tag k="addr:housenumber" v="16"/>
    <tag k="addr:street" v="Main Street"/>
    <tag k="addr:state" v="VT"/>
    <tag k="ref:vcgi:esiteid" v="295671"/>
  </node>
  <node id="-384" visible="true" lat="43.48422247" lon="-72.38491492">
    <tag k="addr:housenumber" v="19"/>
    <tag k="addr:street" v="Main Street"/>
    <tag k="addr:state" v="VT"/>
    <tag k="ref:vcgi:esiteid" v="295672"/>
  </node>
  <node id="-385" visible="true" lat="43.48419952" lon="-72.38333129">
    <tag k="addr:housenumber" v="24"/>
    <tag k="addr:street" v="Coolidge Court"/>
    <tag k="addr:state" v="VT"/>
    <tag k="ref:vcgi:esiteid" v="295673"/>
  </node>
  <node id="-387" visible="true" lat="43.48402783" lon="-72.38397603">
    <tag k="addr:housenumber" v="19"/>
    <tag k="addr:street" v="Coolidge Court"/>
    <tag k="addr:state" v="VT"/>
    <tag k="ref:vcgi:esiteid" v="295675"/>
  </node>
  <node id="-388" visible="true" lat="43.48412704" lon="-72.43973541">
    <tag k="addr:housenumber" v="2151"/>
    <tag k="addr:street" v="Hunt Road"/>
    <tag k="addr:state" v="VT"/>
    <tag k="ref:vcgi:esiteid" v="295676"/>
  </node>
  <node id="-389" visible="true" lat="43.48413361" lon="-72.38314829">
    <tag k="addr:housenumber" v="22"/>
    <tag k="addr:street" v="Coolidge Court"/>
    <tag k="addr:state" v="VT"/>
    <tag k="ref:vcgi:esiteid" v="295677"/>
  </node>
  <node id="-391" visible="true" lat="43.48414787" lon="-72.38382184">
    <tag k="addr:housenumber" v="21"/>
    <tag k="addr:street" v="Coolidge Court"/>
    <tag k="addr:state" v="VT"/>
    <tag k="ref:vcgi:esiteid" v="295679"/>
  </node>
  <node id="-393" visible="true" lat="43.48395785" lon="-72.38378774">
    <tag k="addr:housenumber" v="17"/>
    <tag k="addr:street" v="Coolidge Court"/>
    <tag k="addr:state" v="VT"/>
    <tag k="ref:vcgi:esiteid" v="295683"/>
  </node>
  <node id="-397" visible="true" lat="43.48385238" lon="-72.4507904">
    <tag k="addr:housenumber" v="2768"/>
    <tag k="addr:street" v="Hunt Road"/>
    <tag k="addr:state" v="VT"/>
    <tag k="ref:vcgi:esiteid" v="295687"/>
  </node>
  <node id="-413" visible="true" lat="43.48286819" lon="-72.44599914">
    <tag k="addr:housenumber" v="2572"/>
    <tag k="addr:street" v="Hunt Road"/>
    <tag k="addr:state" v="VT"/>
    <tag k="ref:vcgi:esiteid" v="295705"/>
  </node>
  <node id="-421" visible="true" lat="43.48242187" lon="-72.43930053">
    <tag k="addr:housenumber" v="1285"/>
    <tag k="addr:street" v="Hewett Road"/>
    <tag k="addr:state" v="VT"/>
    <tag k="ref:vcgi:esiteid" v="295717"/>
  </node>
  <node id="-422" visible="true" lat="43.48235696" lon="-72.38506806">
    <tag k="addr:housenumber" v="41"/>
    <tag k="addr:street" v="Main Street"/>
    <tag k="addr:state" v="VT"/>
    <tag k="ref:vcgi:esiteid" v="295718"/>
  </node>
  <node id="-427" visible="true" lat="43.48221009" lon="-72.38509797">
    <tag k="addr:housenumber" v="43"/>
    <tag k="addr:street" v="Main Street"/>
    <tag k="addr:state" v="VT"/>
    <tag k="ref:vcgi:esiteid" v="295723"/>
  </node>
  <node id="-430" visible="true" lat="43.48287367" lon="-72.43550699">
    <tag k="addr:housenumber" v="1965"/>
    <tag k="addr:street" v="Hunt Road"/>
    <tag k="addr:state" v="VT"/>
    <tag k="ref:vcgi:esiteid" v="295726"/>
  </node>
  <node id="-447" visible="true" lat="43.48197734" lon="-72.38515547">
    <tag k="addr:housenumber" v="47"/>
    <tag k="addr:street" v="Main Street"/>
    <tag k="addr:state" v="VT"/>
    <tag k="ref:vcgi:esiteid" v="295743"/>
  </node>
  <node id="-479" visible="true" lat="43.48142242" lon="-72.45082855">
    <tag k="addr:housenumber" v="2833"/>
    <tag k="addr:street" v="Hunt Road"/>
    <tag k="addr:state" v="VT"/>
    <tag k="ref:vcgi:esiteid" v="295778"/>
  </node>
  <node id="-485" visible="true" lat="43.4812609" lon="-72.38533078">
    <tag k="addr:housenumber" v="53"/>
    <tag k="addr:street" v="Main Street"/>
    <tag k="addr:state" v="VT"/>
    <tag k="ref:vcgi:esiteid" v="295786"/>
  </node>
  <node id="-529" visible="true" lat="43.48086547" lon="-72.38477325">
    <tag k="addr:housenumber" v="27"/>
    <tag k="addr:street" v="Depot Avenue"/>
    <tag k="addr:state" v="VT"/>
    <tag k="ref:vcgi:esiteid" v="295835"/>
  </node>
  <node id="-538" visible="true" lat="43.48068237" lon="-72.38574218">
    <tag k="addr:housenumber" v="57"/>
    <tag k="addr:street" v="Main Street"/>
    <tag k="addr:state" v="VT"/>
    <tag k="ref:vcgi:esiteid" v="295848"/>
  </node>
  <node id="-549" visible="true" lat="43.48044204" lon="-72.38500213">
    <tag k="addr:housenumber" v="25"/>
    <tag k="addr:street" v="Depot Avenue"/>
    <tag k="addr:state" v="VT"/>
    <tag k="ref:vcgi:esiteid" v="295861"/>
  </node>
  <node id="-561" visible="true" lat="43.48029327" lon="-72.38851165">
    <tag k="addr:housenumber" v="43"/>
    <tag k="addr:street" v="State Street"/>
    <tag k="addr:state" v="VT"/>
    <tag k="ref:vcgi:esiteid" v="295874"/>
  </node>
  <node id="-567" visible="true" lat="43.48020935" lon="-72.38648986">
    <tag k="addr:housenumber" v="78"/>
    <tag k="addr:street" v="Main Street"/>
    <tag k="addr:state" v="VT"/>
    <tag k="ref:vcgi:esiteid" v="295880"/>
  </node>
  <node id="-569" visible="true" lat="43.48022079" lon="-72.4389038">
    <tag k="addr:housenumber" v="1139"/>
    <tag k="addr:street" v="Hewett Road"/>
    <tag k="addr:state" v="VT"/>
    <tag k="ref:vcgi:esiteid" v="295882"/>
  </node>
  <node id="-573" visible="true" lat="43.48012705" lon="-72.38485083">
    <tag k="addr:housenumber" v="26"/>
    <tag k="addr:street" v="Depot Avenue"/>
    <tag k="addr:state" v="VT"/>
    <tag k="ref:vcgi:esiteid" v="295888"/>
  </node>
  <node id="-577" visible="true" lat="43.47999432" lon="-72.38550008">
    <tag k="addr:housenumber" v="12"/>
    <tag k="addr:street" v="Depot Avenue"/>
    <tag k="addr:state" v="VT"/>
    <tag k="ref:vcgi:esiteid" v="295894"/>
  </node>
  <node id="-580" visible="true" lat="43.47990417" lon="-72.38624572">
    <tag k="addr:housenumber" v="85"/>
    <tag k="addr:street" v="Main Street"/>
    <tag k="addr:state" v="VT"/>
    <tag k="ref:vcgi:esiteid" v="295897"/>
  </node>
  <node id="-581" visible="true" lat="43.47975585" lon="-72.38311084">
    <tag k="addr:housenumber" v="32"/>
    <tag k="addr:street" v="Depot Avenue"/>
    <tag k="addr:state" v="VT"/>
    <tag k="ref:vcgi:esiteid" v="295898"/>
  </node>
  <node id="-584" visible="true" lat="43.47973779" lon="-72.38678167">
    <tag k="addr:housenumber" v="88"/>
    <tag k="addr:street" v="Main Street"/>
    <tag k="addr:state" v="VT"/>
    <tag k="ref:vcgi:esiteid" v="295901"/>
  </node>
  <node id="-587" visible="true" lat="43.47978023" lon="-72.38522989">
    <tag k="addr:housenumber" v="22"/>
    <tag k="addr:street" v="Depot Avenue"/>
    <tag k="addr:state" v="VT"/>
    <tag k="ref:vcgi:esiteid" v="295904"/>
  </node>
  <node id="-593" visible="true" lat="43.47964096" lon="-72.38557434">
    <tag k="addr:housenumber" v="24"/>
    <tag k="addr:street" v="Point Shop Lane"/>
    <tag k="addr:state" v="VT"/>
    <tag k="ref:vcgi:esiteid" v="295910"/>
  </node>
  <node id="-597" visible="true" lat="43.48007809" lon="-72.38387036">
    <tag k="addr:housenumber" v="28"/>
    <tag k="addr:street" v="Depot Avenue"/>
    <tag k="addr:state" v="VT"/>
    <tag k="ref:vcgi:esiteid" v="295915"/>
  </node>
  <node id="-600" visible="true" lat="43.4793694" lon="-72.38636704">
    <tag k="addr:housenumber" v="119"/>
    <tag k="addr:street" v="Main Street"/>
    <tag k="addr:state" v="VT"/>
    <tag k="ref:vcgi:esiteid" v="295919"/>
  </node>
  <node id="-601" visible="true" lat="43.47931266" lon="-72.38571875">
    <tag k="addr:housenumber" v="11"/>
    <tag k="addr:street" v="River Street"/>
    <tag k="addr:state" v="VT"/>
    <tag k="ref:vcgi:esiteid" v="295920"/>
  </node>
  <node id="-602" visible="true" lat="43.47931271" lon="-72.38614624">
    <tag k="addr:housenumber" v="5"/>
    <tag k="addr:street" v="River Street"/>
    <tag k="addr:state" v="VT"/>
    <tag k="ref:vcgi:esiteid" v="295921"/>
  </node>
  <node id="-603" visible="true" lat="43.47919421" lon="-72.38525944">
    <tag k="addr:housenumber" v="21"/>
    <tag k="addr:street" v="River Street"/>
    <tag k="addr:state" v="VT"/>
    <tag k="ref:vcgi:esiteid" v="295922"/>
  </node>
  <node id="-606" visible="true" lat="43.47929" lon="-72.38599395">
    <tag k="addr:housenumber" v="9"/>
    <tag k="addr:street" v="River Street"/>
    <tag k="addr:state" v="VT"/>
    <tag k="ref:vcgi:esiteid" v="295925"/>
  </node>
  <node id="-607" visible="true" lat="43.47921887" lon="-72.38548207">
    <tag k="addr:housenumber" v="13"/>
    <tag k="addr:street" v="River Street"/>
    <tag k="addr:state" v="VT"/>
    <tag k="ref:vcgi:esiteid" v="295926"/>
  </node>
  <node id="-618" visible="true" lat="43.47904205" lon="-72.38320159">
    <tag k="addr:housenumber" v="43"/>
    <tag k="addr:street" v="River Street"/>
    <tag k="addr:state" v="VT"/>
    <tag k="ref:vcgi:esiteid" v="295937"/>
  </node>
  <node id="-619" visible="true" lat="43.47897711" lon="-72.38269847">
    <tag k="addr:housenumber" v="53"/>
    <tag k="addr:street" v="River Street"/>
    <tag k="addr:state" v="VT"/>
    <tag k="ref:vcgi:esiteid" v="295938"/>
  </node>
  <node id="-622" visible="true" lat="43.47899246" lon="-72.38296508">
    <tag k="addr:housenumber" v="47"/>
    <tag k="addr:street" v="River Street"/>
    <tag k="addr:state" v="VT"/>
    <tag k="ref:vcgi:esiteid" v="295942"/>
  </node>
  <node id="-623" visible="true" lat="43.47897037" lon="-72.38237134">
    <tag k="addr:housenumber" v="55"/>
    <tag k="addr:street" v="River Street"/>
    <tag k="addr:state" v="VT"/>
    <tag k="ref:vcgi:esiteid" v="295943"/>
  </node>
  <node id="-636" visible="true" lat="43.47870412" lon="-72.38345851">
    <tag k="addr:housenumber" v="36"/>
    <tag k="addr:street" v="River Street"/>
    <tag k="addr:state" v="VT"/>
    <tag k="ref:vcgi:esiteid" v="295960"/>
  </node>
  <node id="-639" visible="true" lat="43.47868221" lon="-72.38314139">
    <tag k="addr:housenumber" v="40"/>
    <tag k="addr:street" v="River Street"/>
    <tag k="addr:state" v="VT"/>
    <tag k="ref:vcgi:esiteid" v="295964"/>
  </node>
  <node id="-640" visible="true" lat="43.47862959" lon="-72.38285588">
    <tag k="addr:housenumber" v="44"/>
    <tag k="addr:street" v="River Street"/>
    <tag k="addr:state" v="VT"/>
    <tag k="ref:vcgi:esiteid" v="295965"/>
  </node>
  <node id="-645" visible="true" lat="43.47859698" lon="-72.38245609">
    <tag k="addr:housenumber" v="48"/>
    <tag k="addr:street" v="River Street"/>
    <tag k="addr:state" v="VT"/>
    <tag k="ref:vcgi:esiteid" v="295970"/>
  </node>
  <node id="-656" visible="true" lat="43.47833301" lon="-72.38291488">
    <tag k="addr:housenumber" v="11"/>
    <tag k="addr:street" v="Foster Avenue"/>
    <tag k="addr:state" v="VT"/>
    <tag k="ref:vcgi:esiteid" v="295984"/>
  </node>
  <node id="-658" visible="true" lat="43.47833898" lon="-72.38248961">
    <tag k="addr:housenumber" v="5"/>
    <tag k="addr:street" v="Acme Street"/>
    <tag k="addr:state" v="VT"/>
    <tag k="ref:vcgi:esiteid" v="295988"/>
  </node>
  <node id="-666" visible="true" lat="43.47820064" lon="-72.3824877">
    <tag k="addr:housenumber" v="13"/>
    <tag k="addr:street" v="Acme Street"/>
    <tag k="addr:state" v="VT"/>
    <tag k="ref:vcgi:esiteid" v="295997"/>
  </node>
  <node id="-670" visible="true" lat="43.47811399" lon="-72.38293287">
    <tag k="addr:housenumber" v="12"/>
    <tag k="addr:street" v="Foster Avenue"/>
    <tag k="addr:state" v="VT"/>
    <tag k="ref:vcgi:esiteid" v="296001"/>
  </node>
  <node id="-673" visible="true" lat="43.47803965" lon="-72.38248006">
    <tag k="addr:housenumber" v="21"/>
    <tag k="addr:street" v="Acme Street"/>
    <tag k="addr:state" v="VT"/>
    <tag k="ref:vcgi:esiteid" v="296004"/>
  </node>
  <node id="-679" visible="true" lat="43.47793575" lon="-72.3829369">
    <tag k="addr:housenumber" v="24"/>
    <tag k="addr:street" v="Jarvis Street"/>
    <tag k="addr:state" v="VT"/>
    <tag k="ref:vcgi:esiteid" v="296013"/>
  </node>
  <node id="-681" visible="true" lat="43.47793678" lon="-72.38771727">
    <tag k="addr:housenumber" v="146"/>
    <tag k="addr:street" v="Main Street"/>
    <tag k="addr:state" v="VT"/>
    <tag k="ref:vcgi:esiteid" v="296016"/>
  </node>
  <node id="-690" visible="true" lat="43.47776794" lon="-72.38295745">
    <tag k="addr:housenumber" v="28"/>
    <tag k="addr:street" v="Jarvis Street"/>
    <tag k="addr:state" v="VT"/>
    <tag k="ref:vcgi:esiteid" v="296026"/>
  </node>
  <node id="-691" visible="true" lat="43.47780609" lon="-72.45172882">
    <tag k="addr:housenumber" v="262"/>
    <tag k="addr:street" v="Stillson Road"/>
    <tag k="addr:state" v="VT"/>
    <tag k="ref:vcgi:esiteid" v="296027"/>
  </node>
  <node id="-694" visible="true" lat="43.47772216" lon="-72.38259887">
    <tag k="addr:housenumber" v="27"/>
    <tag k="addr:street" v="Jarvis Street"/>
    <tag k="addr:state" v="VT"/>
    <tag k="ref:vcgi:esiteid" v="296030"/>
  </node>
  <node id="-697" visible="true" lat="43.47770972" lon="-72.38297504">
    <tag k="addr:housenumber" v="30"/>
    <tag k="addr:street" v="Jarvis Street"/>
    <tag k="addr:state" v="VT"/>
    <tag k="ref:vcgi:esiteid" v="296033"/>
  </node>
  <node id="-701" visible="true" lat="43.47765347" lon="-72.38265456">
    <tag k="addr:housenumber" v="29"/>
    <tag k="addr:street" v="Jarvis Street"/>
    <tag k="addr:state" v="VT"/>
    <tag k="ref:vcgi:esiteid" v="296039"/>
  </node>
  <node id="-703" visible="true" lat="43.47756426" lon="-72.38720374">
    <tag k="addr:housenumber" v="147"/>
    <tag k="addr:street" v="Main Street"/>
    <tag k="addr:state" v="VT"/>
    <tag k="ref:vcgi:esiteid" v="296043"/>
  </node>
  <node id="-705" visible="true" lat="43.47755812" lon="-72.3829973">
    <tag k="addr:housenumber" v="34"/>
    <tag k="addr:street" v="Jarvis Street"/>
    <tag k="addr:state" v="VT"/>
    <tag k="ref:vcgi:esiteid" v="296045"/>
  </node>
  <node id="-710" visible="true" lat="43.47748088" lon="-72.38301147">
    <tag k="addr:housenumber" v="36"/>
    <tag k="addr:street" v="Jarvis Street"/>
    <tag k="addr:state" v="VT"/>
    <tag k="ref:vcgi:esiteid" v="296050"/>
  </node>
  <node id="-716" visible="true" lat="43.47740168" lon="-72.38302603">
    <tag k="addr:housenumber" v="38"/>
    <tag k="addr:street" v="Jarvis Street"/>
    <tag k="addr:state" v="VT"/>
    <tag k="ref:vcgi:esiteid" v="296056"/>
  </node>
  <node id="-722" visible="true" lat="43.47723007" lon="-72.38276672">
    <tag k="addr:housenumber" v="39"/>
    <tag k="addr:street" v="Jarvis Street"/>
    <tag k="addr:state" v="VT"/>
    <tag k="ref:vcgi:esiteid" v="296065"/>
  </node>
  <node id="-727" visible="true" lat="43.47713851" lon="-72.38278198">
    <tag k="addr:housenumber" v="41"/>
    <tag k="addr:street" v="Jarvis Street"/>
    <tag k="addr:state" v="VT"/>
    <tag k="ref:vcgi:esiteid" v="296072"/>
  </node>
  <node id="-738" visible="true" lat="43.47700208" lon="-72.38280545">
    <tag k="addr:housenumber" v="45"/>
    <tag k="addr:street" v="Jarvis Street"/>
    <tag k="addr:state" v="VT"/>
    <tag k="ref:vcgi:esiteid" v="296085"/>
  </node>
  <node id="-742" visible="true" lat="43.47693345" lon="-72.38287018">
    <tag k="addr:housenumber" v="47"/>
    <tag k="addr:street" v="Jarvis Street"/>
    <tag k="addr:state" v="VT"/>
    <tag k="ref:vcgi:esiteid" v="296089"/>
  </node>
  <node id="-749" visible="true" lat="43.47689148" lon="-72.38314814">
    <tag k="addr:housenumber" v="50"/>
    <tag k="addr:street" v="Jarvis Street"/>
    <tag k="addr:state" v="VT"/>
    <tag k="ref:vcgi:esiteid" v="296096"/>
  </node>
  <node id="-759" visible="true" lat="43.47685047" lon="-72.38287999">
    <tag k="addr:housenumber" v="49"/>
    <tag k="addr:street" v="Jarvis Street"/>
    <tag k="addr:state" v="VT"/>
    <tag k="ref:vcgi:esiteid" v="296106"/>
  </node>
  <node id="-765" visible="true" lat="43.47682185" lon="-72.38320194">
    <tag k="addr:housenumber" v="52"/>
    <tag k="addr:street" v="Jarvis Street"/>
    <tag k="addr:state" v="VT"/>
    <tag k="ref:vcgi:esiteid" v="296112"/>
  </node>
  <node id="-774" visible="true" lat="43.47674751" lon="-72.38327302">
    <tag k="addr:housenumber" v="54"/>
    <tag k="addr:street" v="Jarvis Street"/>
    <tag k="addr:state" v="VT"/>
    <tag k="ref:vcgi:esiteid" v="296124"/>
  </node>
  <node id="-782" visible="true" lat="43.47666165" lon="-72.38324512">
    <tag k="addr:housenumber" v="56"/>
    <tag k="addr:street" v="Jarvis Street"/>
    <tag k="addr:state" v="VT"/>
    <tag k="ref:vcgi:esiteid" v="296134"/>
  </node>
  <node id="-786" visible="true" lat="43.47658157" lon="-72.38293457">
    <tag k="addr:housenumber" v="57"/>
    <tag k="addr:street" v="Jarvis Street"/>
    <tag k="addr:state" v="VT"/>
    <tag k="ref:vcgi:esiteid" v="296138"/>
  </node>
  <node id="-795" visible="true" lat="43.47659489" lon="-72.38328257">
    <tag k="addr:housenumber" v="58"/>
    <tag k="addr:street" v="Jarvis Street"/>
    <tag k="addr:state" v="VT"/>
    <tag k="ref:vcgi:esiteid" v="296147"/>
  </node>
  <node id="-804" visible="true" lat="43.47645568" lon="-72.38326263">
    <tag k="addr:housenumber" v="62"/>
    <tag k="addr:street" v="Jarvis Street"/>
    <tag k="addr:state" v="VT"/>
    <tag k="ref:vcgi:esiteid" v="296158"/>
  </node>
  <node id="-820" visible="true" lat="43.47635093" lon="-72.38329696">
    <tag k="addr:housenumber" v="64"/>
    <tag k="addr:street" v="Jarvis Street"/>
    <tag k="addr:state" v="VT"/>
    <tag k="ref:vcgi:esiteid" v="296176"/>
  </node>
  <node id="-833" visible="true" lat="43.47627118" lon="-72.38332411">
    <tag k="addr:housenumber" v="66"/>
    <tag k="addr:street" v="Jarvis Street"/>
    <tag k="addr:state" v="VT"/>
    <tag k="ref:vcgi:esiteid" v="296189"/>
  </node>
  <node id="-841" visible="true" lat="43.47613039" lon="-72.38363213">
    <tag k="addr:housenumber" v="35"/>
    <tag k="addr:street" v="National Street"/>
    <tag k="addr:state" v="VT"/>
    <tag k="ref:vcgi:esiteid" v="296199"/>
  </node>
  <node id="-853" visible="true" lat="43.47604051" lon="-72.38334945">
    <tag k="addr:housenumber" v="72"/>
    <tag k="addr:street" v="Jarvis Street"/>
    <tag k="addr:state" v="VT"/>
    <tag k="ref:vcgi:esiteid" v="296213"/>
  </node>
  <node id="-855" visible="true" lat="43.47604628" lon="-72.3842198">
    <tag k="addr:housenumber" v="26"/>
    <tag k="addr:street" v="River Street"/>
    <tag k="addr:state" v="VT"/>
    <tag k="ref:vcgi:esiteid" v="296215"/>
  </node>
  <node id="-864" visible="true" lat="43.4759066" lon="-72.38340769">
    <tag k="addr:housenumber" v="76"/>
    <tag k="addr:street" v="Jarvis Street"/>
    <tag k="addr:state" v="VT"/>
    <tag k="ref:vcgi:esiteid" v="296225"/>
  </node>
  <node id="-893" visible="true" lat="43.47558212" lon="-72.38449096">
    <tag k="addr:housenumber" v="28"/>
    <tag k="addr:street" v="River Street"/>
    <tag k="addr:state" v="VT"/>
    <tag k="ref:vcgi:esiteid" v="296258"/>
  </node>
  <node id="-896" visible="true" lat="43.47558312" lon="-72.39394892">
    <tag k="addr:housenumber" v="27"/>
    <tag k="addr:street" v="Clough Avenue"/>
    <tag k="addr:state" v="VT"/>
    <tag k="ref:vcgi:esiteid" v="296261"/>
  </node>
  <node id="-965" visible="true" lat="43.47444169" lon="-72.38507019">
    <tag k="addr:housenumber" v="39"/>
    <tag k="addr:street" v="Bridge Street"/>
    <tag k="addr:state" v="VT"/>
    <tag k="ref:vcgi:esiteid" v="296338"/>
  </node>
  <node id="-968" visible="true" lat="43.47459689" lon="-72.3847191">
    <tag k="addr:housenumber" v="43"/>
    <tag k="addr:street" v="Bridge Street"/>
    <tag k="addr:state" v="VT"/>
    <tag k="ref:vcgi:esiteid" v="296341"/>
  </node>
  <node id="-969" visible="true" lat="43.47458644" lon="-72.38529129">
    <tag k="addr:housenumber" v="37"/>
    <tag k="addr:street" v="Bridge Street"/>
    <tag k="addr:state" v="VT"/>
    <tag k="ref:vcgi:esiteid" v="296342"/>
  </node>
  <node id="-981" visible="true" lat="43.47427749" lon="-72.38490034">
    <tag k="addr:housenumber" v="45"/>
    <tag k="addr:street" v="Bridge Street"/>
    <tag k="addr:state" v="VT"/>
    <tag k="ref:vcgi:esiteid" v="296356"/>
  </node>
  <node id="-990" visible="true" lat="43.47416305" lon="-72.38558959">
    <tag k="addr:housenumber" v="38"/>
    <tag k="addr:street" v="Bridge Street"/>
    <tag k="addr:state" v="VT"/>
    <tag k="ref:vcgi:esiteid" v="296365"/>
  </node>
  <node id="-996" visible="true" lat="43.47406927" lon="-72.38911297">
    <tag k="addr:housenumber" v="201"/>
    <tag k="addr:street" v="Main Street"/>
    <tag k="addr:state" v="VT"/>
    <tag k="ref:vcgi:esiteid" v="296371"/>
  </node>
  <node id="-1005" visible="true" lat="43.47390654" lon="-72.38918059">
    <tag k="addr:housenumber" v="203"/>
    <tag k="addr:street" v="Main Street"/>
    <tag k="addr:state" v="VT"/>
    <tag k="ref:vcgi:esiteid" v="296380"/>
  </node>
  <node id="-1014" visible="true" lat="43.47363281" lon="-72.38986206">
    <tag k="addr:housenumber" v="1"/>
    <tag k="addr:street" v="Lowell Street"/>
    <tag k="addr:state" v="VT"/>
    <tag k="ref:vcgi:esiteid" v="296389"/>
  </node>
  <node id="-1020" visible="true" lat="43.47344207" lon="-72.38931274">
    <tag k="addr:housenumber" v="23"/>
    <tag k="addr:street" v="U.S. Route 5 South"/>
    <tag k="addr:state" v="VT"/>
    <tag k="ref:vcgi:esiteid" v="296397"/>
  </node>
  <node id="-1047" visible="true" lat="43.47291183" lon="-72.4360733">
    <tag k="addr:housenumber" v="601"/>
    <tag k="addr:street" v="Hewett Road"/>
    <tag k="addr:state" v="VT"/>
    <tag k="ref:vcgi:esiteid" v="296426"/>
  </node>
  <node id="-1071" visible="true" lat="43.47223469" lon="-72.38807904">
    <tag k="addr:housenumber" v="121"/>
    <tag k="addr:street" v="Pasco Way"/>
    <tag k="addr:state" v="VT"/>
    <tag k="ref:vcgi:esiteid" v="296454"/>
  </node>
  <node id="-1073" visible="true" lat="43.472126" lon="-72.39340973">
    <tag k="addr:housenumber" v="20"/>
    <tag k="addr:street" v="The Plateau"/>
    <tag k="addr:state" v="VT"/>
    <tag k="ref:vcgi:esiteid" v="296456"/>
  </node>
  <node id="-1075" visible="true" lat="43.47191688" lon="-72.38829578">
    <tag k="addr:housenumber" v="123"/>
    <tag k="addr:street" v="Pasco Way"/>
    <tag k="addr:state" v="VT"/>
    <tag k="ref:vcgi:esiteid" v="296460"/>
  </node>
  <node id="-1080" visible="true" lat="43.47188186" lon="-72.43499755">
    <tag k="addr:housenumber" v="520"/>
    <tag k="addr:street" v="Hewett Road"/>
    <tag k="addr:state" v="VT"/>
    <tag k="ref:vcgi:esiteid" v="296465"/>
  </node>
  <node id="-1083" visible="true" lat="43.47169568" lon="-72.38847271">
    <tag k="addr:housenumber" v="126"/>
    <tag k="addr:street" v="Pasco Way"/>
    <tag k="addr:state" v="VT"/>
    <tag k="ref:vcgi:esiteid" v="296468"/>
  </node>
  <node id="-1087" visible="true" lat="43.47139358" lon="-72.43444824">
    <tag k="addr:housenumber" v="456"/>
    <tag k="addr:street" v="Hewett Road"/>
    <tag k="addr:state" v="VT"/>
    <tag k="ref:vcgi:esiteid" v="296472"/>
  </node>
  <node id="-1088" visible="true" lat="43.47137069" lon="-72.42991638">
    <tag k="addr:housenumber" v="209"/>
    <tag k="addr:street" v="Hewett Road"/>
    <tag k="addr:state" v="VT"/>
    <tag k="ref:vcgi:esiteid" v="296473"/>
  </node>
  <node id="-1091" visible="true" lat="43.4711647" lon="-72.38995361">
    <tag k="addr:housenumber" v="149"/>
    <tag k="addr:street" v="U.S. Route 5 South"/>
    <tag k="addr:state" v="VT"/>
    <tag k="ref:vcgi:esiteid" v="296476"/>
  </node>
  <node id="-1092" visible="true" lat="43.47113418" lon="-72.43298339">
    <tag k="addr:housenumber" v="379"/>
    <tag k="addr:street" v="Hewett Road"/>
    <tag k="addr:state" v="VT"/>
    <tag k="ref:vcgi:esiteid" v="296477"/>
  </node>
  <node id="-1095" visible="true" lat="43.47102355" lon="-72.43053436">
    <tag k="addr:housenumber" v="233"/>
    <tag k="addr:street" v="Hewett Road"/>
    <tag k="addr:state" v="VT"/>
    <tag k="ref:vcgi:esiteid" v="296481"/>
  </node>
  <node id="-1097" visible="true" lat="43.47075262" lon="-72.39035148">
    <tag k="addr:housenumber" v="213"/>
    <tag k="addr:street" v="U.S. Route 5 South"/>
    <tag k="addr:state" v="VT"/>
    <tag k="ref:vcgi:esiteid" v="296483"/>
  </node>
  <node id="-1099" visible="true" lat="43.47037506" lon="-72.44928741">
    <tag k="addr:housenumber" v="2712"/>
    <tag k="addr:street" v="Brook Road"/>
    <tag k="addr:state" v="VT"/>
    <tag k="ref:vcgi:esiteid" v="296485"/>
  </node>
  <node id="-1100" visible="true" lat="43.4702301" lon="-72.39039611">
    <tag k="addr:housenumber" v="239"/>
    <tag k="addr:street" v="U.S. Route 5 South"/>
    <tag k="addr:state" v="VT"/>
    <tag k="ref:vcgi:esiteid" v="296486"/>
  </node>
  <node id="-1101" visible="true" lat="43.47000884" lon="-72.42936706">
    <tag k="addr:housenumber" v="67"/>
    <tag k="addr:street" v="Hewett Road"/>
    <tag k="addr:state" v="VT"/>
    <tag k="ref:vcgi:esiteid" v="296488"/>
  </node>
  <node id="-1102" visible="true" lat="43.47036442" lon="-72.39160454">
    <tag k="addr:housenumber" v="308"/>
    <tag k="addr:street" v="U.S. Route 5 South"/>
    <tag k="addr:state" v="VT"/>
    <tag k="ref:vcgi:esiteid" v="296489"/>
  </node>
  <node id="-1105" visible="true" lat="43.46977659" lon="-72.39088294">
    <tag k="addr:housenumber" v="281"/>
    <tag k="addr:street" v="U.S. Route 5 South"/>
    <tag k="addr:state" v="VT"/>
    <tag k="ref:vcgi:esiteid" v="296492"/>
  </node>
  <node id="-1107" visible="true" lat="43.46953122" lon="-72.39252807">
    <tag k="addr:housenumber" v="338"/>
    <tag k="addr:street" v="U.S. Route 5 South"/>
    <tag k="addr:state" v="VT"/>
    <tag k="ref:vcgi:esiteid" v="296494"/>
  </node>
  <node id="-1108" visible="true" lat="43.46935132" lon="-72.39272093">
    <tag k="addr:housenumber" v="358"/>
    <tag k="addr:street" v="U.S. Route 5 South"/>
    <tag k="addr:state" v="VT"/>
    <tag k="ref:vcgi:esiteid" v="296496"/>
  </node>
  <node id="-1109" visible="true" lat="43.4692955" lon="-72.39203643">
    <tag k="addr:housenumber" v="341"/>
    <tag k="addr:street" v="U.S. Route 5 South"/>
    <tag k="addr:state" v="VT"/>
    <tag k="ref:vcgi:esiteid" v="296497"/>
  </node>
  <node id="-1111" visible="true" lat="43.46908187" lon="-72.39125823">
    <tag k="addr:housenumber" v="359"/>
    <tag k="addr:street" v="U.S. Route 5 South"/>
    <tag k="addr:state" v="VT"/>
    <tag k="ref:vcgi:esiteid" v="296499"/>
  </node>
  <node id="-1113" visible="true" lat="43.4689333" lon="-72.3916815">
    <tag k="addr:housenumber" v="357"/>
    <tag k="addr:street" v="U.S. Route 5 South"/>
    <tag k="addr:state" v="VT"/>
    <tag k="ref:vcgi:esiteid" v="296501"/>
  </node>
  <node id="-1114" visible="true" lat="43.46884536" lon="-72.39217376">
    <tag k="addr:housenumber" v="371"/>
    <tag k="addr:street" v="U.S. Route 5 South"/>
    <tag k="addr:state" v="VT"/>
    <tag k="ref:vcgi:esiteid" v="296502"/>
  </node>
  <node id="-1117" visible="true" lat="43.46850585" lon="-72.39252471">
    <tag k="addr:housenumber" v="405"/>
    <tag k="addr:street" v="U.S. Route 5 South"/>
    <tag k="addr:state" v="VT"/>
    <tag k="ref:vcgi:esiteid" v="296506"/>
  </node>
  <node id="-1119" visible="true" lat="43.46822357" lon="-72.39276886">
    <tag k="addr:housenumber" v="431"/>
    <tag k="addr:street" v="U.S. Route 5 South"/>
    <tag k="addr:state" v="VT"/>
    <tag k="ref:vcgi:esiteid" v="296509"/>
  </node>
  <node id="-1120" visible="true" lat="43.46802902" lon="-72.42811584">
    <tag k="addr:housenumber" v="513"/>
    <tag k="addr:street" v="Estey Lane"/>
    <tag k="addr:state" v="VT"/>
    <tag k="ref:vcgi:esiteid" v="296511"/>
  </node>
  <node id="-1121" visible="true" lat="43.46783042" lon="-72.39318044">
    <tag k="addr:housenumber" v="459"/>
    <tag k="addr:street" v="U.S. Route 5 South"/>
    <tag k="addr:state" v="VT"/>
    <tag k="ref:vcgi:esiteid" v="296512"/>
  </node>
  <node id="-1122" visible="true" lat="43.46779632" lon="-72.42755889">
    <tag k="addr:housenumber" v="522"/>
    <tag k="addr:street" v="Estey Lane"/>
    <tag k="addr:state" v="VT"/>
    <tag k="ref:vcgi:esiteid" v="296513"/>
  </node>
  <node id="-1126" visible="true" lat="43.46728134" lon="-72.39392852">
    <tag k="addr:housenumber" v="460"/>
    <tag k="addr:street" v="U.S. Route 5 South"/>
    <tag k="addr:state" v="VT"/>
    <tag k="ref:vcgi:esiteid" v="296518"/>
  </node>
  <node id="-1128" visible="true" lat="43.46726989" lon="-72.42818451">
    <tag k="addr:housenumber" v="466"/>
    <tag k="addr:street" v="Estey Lane"/>
    <tag k="addr:state" v="VT"/>
    <tag k="ref:vcgi:esiteid" v="296520"/>
  </node>
  <node id="-1131" visible="true" lat="43.46640014" lon="-72.428833">
    <tag k="addr:housenumber" v="394"/>
    <tag k="addr:street" v="Estey Lane"/>
    <tag k="addr:state" v="VT"/>
    <tag k="ref:vcgi:esiteid" v="296523"/>
  </node>
  <node id="-1132" visible="true" lat="43.46638488" lon="-72.43025207">
    <tag k="addr:housenumber" v="381"/>
    <tag k="addr:street" v="Estey Lane"/>
    <tag k="addr:state" v="VT"/>
    <tag k="ref:vcgi:esiteid" v="296524"/>
  </node>
  <node id="-1133" visible="true" lat="43.46617507" lon="-72.43244934">
    <tag k="addr:housenumber" v="369"/>
    <tag k="addr:street" v="Estey Lane"/>
    <tag k="addr:state" v="VT"/>
    <tag k="ref:vcgi:esiteid" v="296525"/>
  </node>
  <node id="-1135" visible="true" lat="43.4658966" lon="-72.42846679">
    <tag k="addr:housenumber" v="356"/>
    <tag k="addr:street" v="Estey Lane"/>
    <tag k="addr:state" v="VT"/>
    <tag k="ref:vcgi:esiteid" v="296527"/>
  </node>
  <node id="-1141" visible="true" lat="43.46495819" lon="-72.39375305">
    <tag k="addr:housenumber" v="679"/>
    <tag k="addr:street" v="U.S. Route 5 South"/>
    <tag k="addr:state" v="VT"/>
    <tag k="ref:vcgi:esiteid" v="296533"/>
  </node>
  <node id="-1143" visible="true" lat="43.46454239" lon="-72.39381408">
    <tag k="addr:housenumber" v="711"/>
    <tag k="addr:street" v="U.S. Route 5 South"/>
    <tag k="addr:state" v="VT"/>
    <tag k="ref:vcgi:esiteid" v="296535"/>
  </node>
  <node id="-1145" visible="true" lat="43.46452331" lon="-72.43115234">
    <tag k="addr:housenumber" v="221"/>
    <tag k="addr:street" v="Estey Lane"/>
    <tag k="addr:state" v="VT"/>
    <tag k="ref:vcgi:esiteid" v="296537"/>
  </node>
  <node id="-1147" visible="true" lat="43.46432495" lon="-72.43475341">
    <tag k="addr:housenumber" v="16"/>
    <tag k="addr:street" v="Ruggles Drive"/>
    <tag k="addr:state" v="VT"/>
    <tag k="ref:vcgi:esiteid" v="296539"/>
  </node>
  <node id="-1148" visible="true" lat="43.4642868" lon="-72.39445495">
    <tag k="addr:housenumber" v="720"/>
    <tag k="addr:street" v="U.S. Route 5 South"/>
    <tag k="addr:state" v="VT"/>
    <tag k="ref:vcgi:esiteid" v="296540"/>
  </node>
  <node id="-1149" visible="true" lat="43.46417236" lon="-72.39372253">
    <tag k="addr:housenumber" v="737"/>
    <tag k="addr:street" v="U.S. Route 5 South"/>
    <tag k="addr:state" v="VT"/>
    <tag k="ref:vcgi:esiteid" v="296541"/>
  </node>
  <node id="-1150" visible="true" lat="43.4639244" lon="-72.3935852">
    <tag k="addr:housenumber" v="755"/>
    <tag k="addr:street" v="U.S. Route 5 South"/>
    <tag k="addr:state" v="VT"/>
    <tag k="ref:vcgi:esiteid" v="296542"/>
  </node>
  <node id="-1153" visible="true" lat="43.46368789" lon="-72.39578247">
    <tag k="addr:housenumber" v="88"/>
    <tag k="addr:street" v="Birch Heights"/>
    <tag k="addr:state" v="VT"/>
    <tag k="ref:vcgi:esiteid" v="296545"/>
  </node>
  <node id="-1156" visible="true" lat="43.4635188" lon="-72.39620618">
    <tag k="addr:housenumber" v="108"/>
    <tag k="addr:street" v="Birch Heights"/>
    <tag k="addr:state" v="VT"/>
    <tag k="ref:vcgi:esiteid" v="296548"/>
  </node>
  <node id="-1157" visible="true" lat="43.46347427" lon="-72.39426422">
    <tag k="addr:housenumber" v="774"/>
    <tag k="addr:street" v="U.S. Route 5 South"/>
    <tag k="addr:state" v="VT"/>
    <tag k="ref:vcgi:esiteid" v="296549"/>
  </node>
  <node id="-1158" visible="true" lat="43.46342849" lon="-72.43444061">
    <tag k="addr:housenumber" v="69"/>
    <tag k="addr:street" v="Ruggles Drive"/>
    <tag k="addr:state" v="VT"/>
    <tag k="ref:vcgi:esiteid" v="296550"/>
  </node>
  <node id="-1159" visible="true" lat="43.46330261" lon="-72.39533233">
    <tag k="addr:housenumber" v="91"/>
    <tag k="addr:street" v="Birch Heights"/>
    <tag k="addr:state" v="VT"/>
    <tag k="ref:vcgi:esiteid" v="296551"/>
  </node>
  <node id="-1161" visible="true" lat="43.46319961" lon="-72.39408874">
    <tag k="addr:housenumber" v="796"/>
    <tag k="addr:street" v="U.S. Route 5 South"/>
    <tag k="addr:state" v="VT"/>
    <tag k="ref:vcgi:esiteid" v="296553"/>
  </node>
  <node id="-1163" visible="true" lat="43.4630661" lon="-72.39533996">
    <tag k="addr:housenumber" v="161"/>
    <tag k="addr:street" v="Birch Heights"/>
    <tag k="addr:state" v="VT"/>
    <tag k="ref:vcgi:esiteid" v="296555"/>
  </node>
  <node id="-1164" visible="true" lat="43.46314055" lon="-72.39344357">
    <tag k="addr:housenumber" v="815"/>
    <tag k="addr:street" v="U.S. Route 5 South"/>
    <tag k="addr:state" v="VT"/>
    <tag k="ref:vcgi:esiteid" v="296556"/>
  </node>
  <node id="-1167" visible="true" lat="43.46280288" lon="-72.39617157">
    <tag k="addr:housenumber" v="411"/>
    <tag k="addr:street" v="Orchard Lane"/>
    <tag k="addr:state" v="VT"/>
    <tag k="ref:vcgi:esiteid" v="296559"/>
  </node>
  <node id="-1168" visible="true" lat="43.46276855" lon="-72.39553832">
    <tag k="addr:housenumber" v="158"/>
    <tag k="addr:street" v="Birch Heights"/>
    <tag k="addr:state" v="VT"/>
    <tag k="ref:vcgi:esiteid" v="296560"/>
  </node>
  <node id="-1169" visible="true" lat="43.46269607" lon="-72.39486694">
    <tag k="addr:housenumber" v="181"/>
    <tag k="addr:street" v="Birch Heights"/>
    <tag k="addr:state" v="VT"/>
    <tag k="ref:vcgi:esiteid" v="296561"/>
  </node>
  <node id="-1170" visible="true" lat="43.46268582" lon="-72.39300819">
    <tag k="addr:housenumber" v="847"/>
    <tag k="addr:street" v="U.S. Route 5 South"/>
    <tag k="addr:state" v="VT"/>
    <tag k="ref:vcgi:esiteid" v="296562"/>
  </node>
  <node id="-1172" visible="true" lat="43.46255111" lon="-72.39354705">
    <tag k="addr:housenumber" v="846"/>
    <tag k="addr:street" v="U.S. Route 5 South"/>
    <tag k="addr:state" v="VT"/>
    <tag k="ref:vcgi:esiteid" v="296564"/>
  </node>
  <node id="-1174" visible="true" lat="43.46235656" lon="-72.39294433">
    <tag k="addr:housenumber" v="869"/>
    <tag k="addr:street" v="U.S. Route 5 South"/>
    <tag k="addr:state" v="VT"/>
    <tag k="ref:vcgi:esiteid" v="296566"/>
  </node>
  <node id="-1175" visible="true" lat="43.46240228" lon="-72.42687656">
    <tag k="addr:housenumber" v="90"/>
    <tag k="addr:street" v="Estey Lane"/>
    <tag k="addr:state" v="VT"/>
    <tag k="ref:vcgi:esiteid" v="296567"/>
  </node>
  <node id="-1176" visible="true" lat="43.46234706" lon="-72.4276624">
    <tag k="addr:housenumber" v="87"/>
    <tag k="addr:street" v="Estey Lane"/>
    <tag k="addr:state" v="VT"/>
    <tag k="ref:vcgi:esiteid" v="296568"/>
  </node>
  <node id="-1178" visible="true" lat="43.46223449" lon="-72.39548492">
    <tag k="addr:housenumber" v="198"/>
    <tag k="addr:street" v="Birch Heights"/>
    <tag k="addr:state" v="VT"/>
    <tag k="ref:vcgi:esiteid" v="296570"/>
  </node>
  <node id="-1182" visible="true" lat="43.46203613" lon="-72.39634704">
    <tag k="addr:housenumber" v="353"/>
    <tag k="addr:street" v="Orchard Lane"/>
    <tag k="addr:state" v="VT"/>
    <tag k="ref:vcgi:esiteid" v="296575"/>
  </node>
  <node id="-1185" visible="true" lat="43.46163582" lon="-72.39632927">
    <tag k="addr:housenumber" v="317"/>
    <tag k="addr:street" v="Orchard Lane"/>
    <tag k="addr:state" v="VT"/>
    <tag k="ref:vcgi:esiteid" v="296578"/>
  </node>
  <node id="-1186" visible="true" lat="43.46155929" lon="-72.39455413">
    <tag k="addr:housenumber" v="92"/>
    <tag k="addr:street" v="Hi Hollow Road"/>
    <tag k="addr:state" v="VT"/>
    <tag k="ref:vcgi:esiteid" v="296579"/>
  </node>
  <node id="-1188" visible="true" lat="43.46126174" lon="-72.39652252">
    <tag k="addr:housenumber" v="289"/>
    <tag k="addr:street" v="Orchard Lane"/>
    <tag k="addr:state" v="VT"/>
    <tag k="ref:vcgi:esiteid" v="296581"/>
  </node>
  <node id="-1189" visible="true" lat="43.4612524" lon="-72.39543878">
    <tag k="addr:housenumber" v="292"/>
    <tag k="addr:street" v="Orchard Lane"/>
    <tag k="addr:state" v="VT"/>
    <tag k="ref:vcgi:esiteid" v="296582"/>
  </node>
  <node id="-1193" visible="true" lat="43.46077346" lon="-72.39417266">
    <tag k="addr:housenumber" v="141"/>
    <tag k="addr:street" v="Valley View Trace"/>
    <tag k="addr:state" v="VT"/>
    <tag k="ref:vcgi:esiteid" v="296586"/>
  </node>
  <node id="-1195" visible="true" lat="43.46045001" lon="-72.39628686">
    <tag k="addr:housenumber" v="245"/>
    <tag k="addr:street" v="Orchard Lane"/>
    <tag k="addr:state" v="VT"/>
    <tag k="ref:vcgi:esiteid" v="296589"/>
  </node>
  <node id="-1197" visible="true" lat="43.46049117" lon="-72.39564514">
    <tag k="addr:housenumber" v="238"/>
    <tag k="addr:street" v="Orchard Lane"/>
    <tag k="addr:state" v="VT"/>
    <tag k="ref:vcgi:esiteid" v="296591"/>
  </node>
  <node id="-1198" visible="true" lat="43.4604187" lon="-72.39491271">
    <tag k="addr:housenumber" v="42"/>
    <tag k="addr:street" v="Hi Hollow Road"/>
    <tag k="addr:state" v="VT"/>
    <tag k="ref:vcgi:esiteid" v="296592"/>
  </node>
  <node id="-1201" visible="true" lat="43.46002578" lon="-72.39530944">
    <tag k="addr:housenumber" v="49"/>
    <tag k="addr:street" v="Valley View Trace"/>
    <tag k="addr:state" v="VT"/>
    <tag k="ref:vcgi:esiteid" v="296595"/>
  </node>
  <node id="-1202" visible="true" lat="43.46007334" lon="-72.39630327">
    <tag k="addr:housenumber" v="207"/>
    <tag k="addr:street" v="Orchard Lane"/>
    <tag k="addr:state" v="VT"/>
    <tag k="ref:vcgi:esiteid" v="296596"/>
  </node>
  <node id="-1205" visible="true" lat="43.45986938" lon="-72.39448547">
    <tag k="addr:housenumber" v="76"/>
    <tag k="addr:street" v="Valley View Trace"/>
    <tag k="addr:state" v="VT"/>
    <tag k="ref:vcgi:esiteid" v="296599"/>
  </node>
  <node id="-1210" visible="true" lat="43.45958896" lon="-72.39621068">
    <tag k="addr:housenumber" v="173"/>
    <tag k="addr:street" v="Orchard Lane"/>
    <tag k="addr:state" v="VT"/>
    <tag k="ref:vcgi:esiteid" v="296604"/>
  </node>
  <node id="-1214" visible="true" lat="43.45928376" lon="-72.39638289">
    <tag k="addr:housenumber" v="151"/>
    <tag k="addr:street" v="Orchard Lane"/>
    <tag k="addr:state" v="VT"/>
    <tag k="ref:vcgi:esiteid" v="296608"/>
  </node>
  <node id="-1216" visible="true" lat="43.45885467" lon="-72.42369842">
    <tag k="addr:housenumber" v="41"/>
    <tag k="addr:street" v="Back Mountain Road"/>
    <tag k="addr:state" v="VT"/>
    <tag k="ref:vcgi:esiteid" v="296611"/>
  </node>
  <node id="-1217" visible="true" lat="43.45882797" lon="-72.39606475">
    <tag k="addr:housenumber" v="123"/>
    <tag k="addr:street" v="Orchard Lane"/>
    <tag k="addr:state" v="VT"/>
    <tag k="ref:vcgi:esiteid" v="296612"/>
  </node>
  <node id="-1219" visible="true" lat="43.45879062" lon="-72.39434365">
    <tag k="addr:housenumber" v="1124"/>
    <tag k="addr:street" v="U.S. Route 5 South"/>
    <tag k="addr:state" v="VT"/>
    <tag k="ref:vcgi:esiteid" v="296615"/>
  </node>
  <node id="-1220" visible="true" lat="43.45857244" lon="-72.39523881">
    <tag k="addr:housenumber" v="116"/>
    <tag k="addr:street" v="Orchard Lane"/>
    <tag k="addr:state" v="VT"/>
    <tag k="ref:vcgi:esiteid" v="296616"/>
  </node>
  <node id="-1222" visible="true" lat="43.45844455" lon="-72.39605255">
    <tag k="addr:housenumber" v="103"/>
    <tag k="addr:street" v="Orchard Lane"/>
    <tag k="addr:state" v="VT"/>
    <tag k="ref:vcgi:esiteid" v="296618"/>
  </node>
  <node id="-1224" visible="true" lat="43.45822797" lon="-72.39388604">
    <tag k="addr:housenumber" v="1155"/>
    <tag k="addr:street" v="U.S. Route 5 South"/>
    <tag k="addr:state" v="VT"/>
    <tag k="ref:vcgi:esiteid" v="296620"/>
  </node>
  <node id="-1226" visible="true" lat="43.4579377" lon="-72.42312785">
    <tag k="addr:housenumber" v="92"/>
    <tag k="addr:street" v="Back Mountain Road"/>
    <tag k="addr:state" v="VT"/>
    <tag k="ref:vcgi:esiteid" v="296622"/>
  </node>
  <node id="-1229" visible="true" lat="43.45802615" lon="-72.39602564">
    <tag k="addr:housenumber" v="16"/>
    <tag k="addr:street" v="Krause Road"/>
    <tag k="addr:state" v="VT"/>
    <tag k="ref:vcgi:esiteid" v="296625"/>
  </node>
  <node id="-1230" visible="true" lat="43.45778769" lon="-72.3944672">
    <tag k="addr:housenumber" v="1180"/>
    <tag k="addr:street" v="U.S. Route 5 South"/>
    <tag k="addr:state" v="VT"/>
    <tag k="ref:vcgi:esiteid" v="296626"/>
  </node>
  <node id="-1234" visible="true" lat="43.45782852" lon="-72.39361572">
    <tag k="addr:housenumber" v="1201"/>
    <tag k="addr:street" v="U.S. Route 5 South"/>
    <tag k="addr:state" v="VT"/>
    <tag k="ref:vcgi:esiteid" v="296630"/>
  </node>
  <node id="-1235" visible="true" lat="43.45780563" lon="-72.39402007">
    <tag k="addr:housenumber" v="1185"/>
    <tag k="addr:street" v="U.S. Route 5 South"/>
    <tag k="addr:state" v="VT"/>
    <tag k="ref:vcgi:esiteid" v="296631"/>
  </node>
  <node id="-1237" visible="true" lat="43.45753751" lon="-72.42272807">
    <tag k="addr:housenumber" v="140"/>
    <tag k="addr:street" v="Back Mountain Road"/>
    <tag k="addr:state" v="VT"/>
    <tag k="ref:vcgi:esiteid" v="296633"/>
  </node>
  <node id="-1242" visible="true" lat="43.45727052" lon="-72.39403863">
    <tag k="addr:housenumber" v="1223"/>
    <tag k="addr:street" v="U.S. Route 5 South"/>
    <tag k="addr:state" v="VT"/>
    <tag k="ref:vcgi:esiteid" v="296638"/>
  </node>
  <node id="-1243" visible="true" lat="43.45701096" lon="-72.39558227">
    <tag k="addr:housenumber" v="81"/>
    <tag k="addr:street" v="Krause Road"/>
    <tag k="addr:state" v="VT"/>
    <tag k="ref:vcgi:esiteid" v="296639"/>
  </node>
  <node id="-1246" visible="true" lat="43.45693226" lon="-72.39470578">
    <tag k="addr:housenumber" v="1242"/>
    <tag k="addr:street" v="U.S. Route 5 South"/>
    <tag k="addr:state" v="VT"/>
    <tag k="ref:vcgi:esiteid" v="296642"/>
  </node>
  <node id="-1247" visible="true" lat="43.45687866" lon="-72.42099761">
    <tag k="addr:housenumber" v="233"/>
    <tag k="addr:street" v="Back Mountain Road"/>
    <tag k="addr:state" v="VT"/>
    <tag k="ref:vcgi:esiteid" v="296643"/>
  </node>
  <node id="-1252" visible="true" lat="43.45648956" lon="-72.42157745">
    <tag k="addr:housenumber" v="234"/>
    <tag k="addr:street" v="Back Mountain Road"/>
    <tag k="addr:state" v="VT"/>
    <tag k="ref:vcgi:esiteid" v="296648"/>
  </node>
  <node id="-1254" visible="true" lat="43.45633315" lon="-72.42036437">
    <tag k="addr:housenumber" v="281"/>
    <tag k="addr:street" v="Back Mountain Road"/>
    <tag k="addr:state" v="VT"/>
    <tag k="ref:vcgi:esiteid" v="296650"/>
  </node>
  <node id="-1256" visible="true" lat="43.45623016" lon="-72.4210968">
    <tag k="addr:housenumber" v="262"/>
    <tag k="addr:street" v="Back Mountain Road"/>
    <tag k="addr:state" v="VT"/>
    <tag k="ref:vcgi:esiteid" v="296652"/>
  </node>
  <node id="-1258" visible="true" lat="43.45608112" lon="-72.42087177">
    <tag k="addr:housenumber" v="278"/>
    <tag k="addr:street" v="Back Mountain Road"/>
    <tag k="addr:state" v="VT"/>
    <tag k="ref:vcgi:esiteid" v="296654"/>
  </node>
  <node id="-1259" visible="true" lat="43.4560585" lon="-72.41967773">
    <tag k="addr:housenumber" v="319"/>
    <tag k="addr:street" v="Back Mountain Road"/>
    <tag k="addr:state" v="VT"/>
    <tag k="ref:vcgi:esiteid" v="296655"/>
  </node>
  <node id="-1260" visible="true" lat="43.45599746" lon="-72.42079925">
    <tag k="addr:housenumber" v="284"/>
    <tag k="addr:street" v="Back Mountain Road"/>
    <tag k="addr:state" v="VT"/>
    <tag k="ref:vcgi:esiteid" v="296656"/>
  </node>
  <node id="-1264" visible="true" lat="43.45549774" lon="-72.42015838">
    <tag k="addr:housenumber" v="332"/>
    <tag k="addr:street" v="Back Mountain Road"/>
    <tag k="addr:state" v="VT"/>
    <tag k="ref:vcgi:esiteid" v="296660"/>
  </node>
  <node id="-1265" visible="true" lat="43.45547866" lon="-72.41944885">
    <tag k="addr:housenumber" v="355"/>
    <tag k="addr:street" v="Back Mountain Road"/>
    <tag k="addr:state" v="VT"/>
    <tag k="ref:vcgi:esiteid" v="296661"/>
  </node>
  <node id="-1266" visible="true" lat="43.45538711" lon="-72.42072296">
    <tag k="addr:housenumber" v="322"/>
    <tag k="addr:street" v="Back Mountain Road"/>
    <tag k="addr:state" v="VT"/>
    <tag k="ref:vcgi:esiteid" v="296662"/>
  </node>
  <node id="-1269" visible="true" lat="43.45509719" lon="-72.4198532">
    <tag k="addr:housenumber" v="364"/>
    <tag k="addr:street" v="Back Mountain Road"/>
    <tag k="addr:state" v="VT"/>
    <tag k="ref:vcgi:esiteid" v="296665"/>
  </node>
  <node id="-1270" visible="true" lat="43.45503616" lon="-72.41889953">
    <tag k="addr:housenumber" v="397"/>
    <tag k="addr:street" v="Back Mountain Road"/>
    <tag k="addr:state" v="VT"/>
    <tag k="ref:vcgi:esiteid" v="296666"/>
  </node>
  <node id="-1276" visible="true" lat="43.45425679" lon="-72.41756718">
    <tag k="addr:housenumber" v="471"/>
    <tag k="addr:street" v="Back Mountain Road"/>
    <tag k="addr:state" v="VT"/>
    <tag k="ref:vcgi:esiteid" v="296672"/>
  </node>
  <node id="-1278" visible="true" lat="43.45427221" lon="-72.41700623">
    <tag k="addr:housenumber" v="88"/>
    <tag k="addr:street" v="Cubb Court"/>
    <tag k="addr:state" v="VT"/>
    <tag k="ref:vcgi:esiteid" v="296674"/>
  </node>
  <node id="-1279" visible="true" lat="43.45425855" lon="-72.41733425">
    <tag k="addr:housenumber" v="94"/>
    <tag k="addr:street" v="Cubb Court"/>
    <tag k="addr:state" v="VT"/>
    <tag k="ref:vcgi:esiteid" v="296675"/>
  </node>
  <node id="-1280" visible="true" lat="43.45415496" lon="-72.41687011">
    <tag k="addr:housenumber" v="78"/>
    <tag k="addr:street" v="Cubb Court"/>
    <tag k="addr:state" v="VT"/>
    <tag k="ref:vcgi:esiteid" v="296676"/>
  </node>
  <node id="-1281" visible="true" lat="43.45419608" lon="-72.41747646">
    <tag k="addr:housenumber" v="102"/>
    <tag k="addr:street" v="Cubb Court"/>
    <tag k="addr:state" v="VT"/>
    <tag k="ref:vcgi:esiteid" v="296677"/>
  </node>
  <node id="-1283" visible="true" lat="43.45390701" lon="-72.41681671">
    <tag k="addr:housenumber" v="64"/>
    <tag k="addr:street" v="Cubb Court"/>
    <tag k="addr:state" v="VT"/>
    <tag k="ref:vcgi:esiteid" v="296679"/>
  </node>
  <node id="-1284" visible="true" lat="43.45408016" lon="-72.4175999">
    <tag k="addr:housenumber" v="35"/>
    <tag k="addr:street" v="Cubb Court"/>
    <tag k="addr:state" v="VT"/>
    <tag k="ref:vcgi:esiteid" v="296680"/>
  </node>
  <node id="-1285" visible="true" lat="43.45402103" lon="-72.4176717">
    <tag k="addr:housenumber" v="23"/>
    <tag k="addr:street" v="Cubb Court"/>
    <tag k="addr:state" v="VT"/>
    <tag k="ref:vcgi:esiteid" v="296681"/>
  </node>
  <node id="-1286" visible="true" lat="43.45379071" lon="-72.41732679">
    <tag k="addr:housenumber" v="46"/>
    <tag k="addr:street" v="Cubb Court"/>
    <tag k="addr:state" v="VT"/>
    <tag k="ref:vcgi:esiteid" v="296682"/>
  </node>
  <node id="-1287" visible="true" lat="43.45369908" lon="-72.41696227">
    <tag k="addr:housenumber" v="54"/>
    <tag k="addr:street" v="Cubb Court"/>
    <tag k="addr:state" v="VT"/>
    <tag k="ref:vcgi:esiteid" v="296683"/>
  </node>
  <node id="-1289" visible="true" lat="43.45377486" lon="-72.41772014">
    <tag k="addr:housenumber" v="505"/>
    <tag k="addr:street" v="Back Mountain Road"/>
    <tag k="addr:state" v="VT"/>
    <tag k="ref:vcgi:esiteid" v="296685"/>
  </node>
  <node id="-1290" visible="true" lat="43.45352995" lon="-72.41766271">
    <tag k="addr:housenumber" v="517"/>
    <tag k="addr:street" v="Back Mountain Road"/>
    <tag k="addr:state" v="VT"/>
    <tag k="ref:vcgi:esiteid" v="296686"/>
  </node>
  <node id="-1297" visible="true" lat="43.4516983" lon="-72.39476013">
    <tag k="addr:housenumber" v="1639"/>
    <tag k="addr:street" v="U.S. Route 5 South"/>
    <tag k="addr:state" v="VT"/>
    <tag k="ref:vcgi:esiteid" v="296693"/>
  </node>
  <node id="-1304" visible="true" lat="43.44919204" lon="-72.39582061">
    <tag k="addr:housenumber" v="1787"/>
    <tag k="addr:street" v="U.S. Route 5 South"/>
    <tag k="addr:state" v="VT"/>
    <tag k="ref:vcgi:esiteid" v="296701"/>
  </node>
  <node id="-1305" visible="true" lat="43.44873809" lon="-72.39585876">
    <tag k="addr:housenumber" v="1819"/>
    <tag k="addr:street" v="U.S. Route 5 South"/>
    <tag k="addr:state" v="VT"/>
    <tag k="ref:vcgi:esiteid" v="296702"/>
  </node>
  <node id="-1306" visible="true" lat="43.44836044" lon="-72.39600372">
    <tag k="addr:housenumber" v="1845"/>
    <tag k="addr:street" v="U.S. Route 5 South"/>
    <tag k="addr:state" v="VT"/>
    <tag k="ref:vcgi:esiteid" v="296703"/>
  </node>
  <node id="-1307" visible="true" lat="43.44814681" lon="-72.39608764">
    <tag k="addr:housenumber" v="1859"/>
    <tag k="addr:street" v="U.S. Route 5 South"/>
    <tag k="addr:state" v="VT"/>
    <tag k="ref:vcgi:esiteid" v="296704"/>
  </node>
  <node id="-1308" visible="true" lat="43.44782638" lon="-72.39630889">
    <tag k="addr:housenumber" v="1883"/>
    <tag k="addr:street" v="U.S. Route 5 South"/>
    <tag k="addr:state" v="VT"/>
    <tag k="ref:vcgi:esiteid" v="296706"/>
  </node>
  <node id="-1310" visible="true" lat="43.44738387" lon="-72.39656829">
    <tag k="addr:housenumber" v="1917"/>
    <tag k="addr:street" v="U.S. Route 5 South"/>
    <tag k="addr:state" v="VT"/>
    <tag k="ref:vcgi:esiteid" v="296708"/>
  </node>
  <node id="-1311" visible="true" lat="43.44567489" lon="-72.39751434">
    <tag k="addr:housenumber" v="2045"/>
    <tag k="addr:street" v="U.S. Route 5 South"/>
    <tag k="addr:state" v="VT"/>
    <tag k="ref:vcgi:esiteid" v="296709"/>
  </node>
  <node id="-1312" visible="true" lat="43.44515995" lon="-72.3990641">
    <tag k="addr:housenumber" v="107"/>
    <tag k="addr:street" v="Weston Heights North"/>
    <tag k="addr:state" v="VT"/>
    <tag k="ref:vcgi:esiteid" v="296711"/>
  </node>
  <node id="-1313" visible="true" lat="43.44515228" lon="-72.39858245">
    <tag k="addr:housenumber" v="106"/>
    <tag k="addr:street" v="Weston Heights North"/>
    <tag k="addr:state" v="VT"/>
    <tag k="ref:vcgi:esiteid" v="296712"/>
  </node>
  <node id="-1314" visible="true" lat="43.44518604" lon="-72.39767494">
    <tag k="addr:housenumber" v="2085"/>
    <tag k="addr:street" v="U.S. Route 5 South"/>
    <tag k="addr:state" v="VT"/>
    <tag k="ref:vcgi:esiteid" v="296713"/>
  </node>
  <node id="-1315" visible="true" lat="43.44500732" lon="-72.39774322">
    <tag k="addr:housenumber" v="2093"/>
    <tag k="addr:street" v="U.S. Route 5 South"/>
    <tag k="addr:state" v="VT"/>
    <tag k="ref:vcgi:esiteid" v="296714"/>
  </node>
  <node id="-1316" visible="true" lat="43.4450035" lon="-72.39909362">
    <tag k="addr:housenumber" v="93"/>
    <tag k="addr:street" v="Weston Heights North"/>
    <tag k="addr:state" v="VT"/>
    <tag k="ref:vcgi:esiteid" v="296715"/>
  </node>
  <node id="-1317" visible="true" lat="43.4448204" lon="-72.39781952">
    <tag k="addr:housenumber" v="2107"/>
    <tag k="addr:street" v="U.S. Route 5 South"/>
    <tag k="addr:state" v="VT"/>
    <tag k="ref:vcgi:esiteid" v="296716"/>
  </node>
  <node id="-1318" visible="true" lat="43.44477844" lon="-72.39918518">
    <tag k="addr:housenumber" v="77"/>
    <tag k="addr:street" v="Weston Heights North"/>
    <tag k="addr:state" v="VT"/>
    <tag k="ref:vcgi:esiteid" v="296717"/>
  </node>
  <node id="-1319" visible="true" lat="43.44473266" lon="-72.39865875">
    <tag k="addr:housenumber" v="78"/>
    <tag k="addr:street" v="Weston Heights North"/>
    <tag k="addr:state" v="VT"/>
    <tag k="ref:vcgi:esiteid" v="296718"/>
  </node>
  <node id="-1320" visible="true" lat="43.44457244" lon="-72.39786529">
    <tag k="addr:housenumber" v="2125"/>
    <tag k="addr:street" v="U.S. Route 5 South"/>
    <tag k="addr:state" v="VT"/>
    <tag k="ref:vcgi:esiteid" v="296719"/>
  </node>
  <node id="-1321" visible="true" lat="43.44452667" lon="-72.39924621">
    <tag k="addr:housenumber" v="59"/>
    <tag k="addr:street" v="Weston Heights North"/>
    <tag k="addr:state" v="VT"/>
    <tag k="ref:vcgi:esiteid" v="296720"/>
  </node>
  <node id="-1322" visible="true" lat="43.44447326" lon="-72.39868927">
    <tag k="addr:housenumber" v="58"/>
    <tag k="addr:street" v="Kennedy Drive North"/>
    <tag k="addr:state" v="VT"/>
    <tag k="ref:vcgi:esiteid" v="296721"/>
  </node>
  <node id="-1323" visible="true" lat="43.44439315" lon="-72.39795684">
    <tag k="addr:housenumber" v="2139"/>
    <tag k="addr:street" v="U.S. Route 5 South"/>
    <tag k="addr:state" v="VT"/>
    <tag k="ref:vcgi:esiteid" v="296722"/>
  </node>
  <node id="-1324" visible="true" lat="43.44420242" lon="-72.39873504">
    <tag k="addr:housenumber" v="44"/>
    <tag k="addr:street" v="Kennedy Drive North"/>
    <tag k="addr:state" v="VT"/>
    <tag k="ref:vcgi:esiteid" v="296723"/>
  </node>
  <node id="-1325" visible="true" lat="43.44418716" lon="-72.39938354">
    <tag k="addr:housenumber" v="35"/>
    <tag k="addr:street" v="Weston Heights North"/>
    <tag k="addr:state" v="VT"/>
    <tag k="ref:vcgi:esiteid" v="296724"/>
  </node>
  <node id="-1326" visible="true" lat="43.44417571" lon="-72.39794921">
    <tag k="addr:housenumber" v="2153"/>
    <tag k="addr:street" v="U.S. Route 5 South"/>
    <tag k="addr:state" v="VT"/>
    <tag k="ref:vcgi:esiteid" v="296725"/>
  </node>
  <node id="-1327" visible="true" lat="43.44398879" lon="-72.39946746">
    <tag k="addr:housenumber" v="19"/>
    <tag k="addr:street" v="Weston Heights North"/>
    <tag k="addr:state" v="VT"/>
    <tag k="ref:vcgi:esiteid" v="296726"/>
  </node>
  <node id="-1328" visible="true" lat="43.44398498" lon="-72.39801788">
    <tag k="addr:housenumber" v="2167"/>
    <tag k="addr:street" v="U.S. Route 5 South"/>
    <tag k="addr:state" v="VT"/>
    <tag k="ref:vcgi:esiteid" v="296727"/>
  </node>
  <node id="-1329" visible="true" lat="43.44384765" lon="-72.39888">
    <tag k="addr:housenumber" v="76"/>
    <tag k="addr:street" v="Weston Heights"/>
    <tag k="addr:state" v="VT"/>
    <tag k="ref:vcgi:esiteid" v="296728"/>
  </node>
  <node id="-1330" visible="true" lat="43.44377276" lon="-72.39806577">
    <tag k="addr:housenumber" v="2183"/>
    <tag k="addr:street" v="U.S. Route 5 South"/>
    <tag k="addr:state" v="VT"/>
    <tag k="ref:vcgi:esiteid" v="296729"/>
  </node>
  <node id="-1331" visible="true" lat="43.44372177" lon="-72.39956664">
    <tag k="addr:housenumber" v="100"/>
    <tag k="addr:street" v="Weston Heights"/>
    <tag k="addr:state" v="VT"/>
    <tag k="ref:vcgi:esiteid" v="296731"/>
  </node>
  <node id="-1332" visible="true" lat="43.4435501" lon="-72.39963531">
    <tag k="addr:housenumber" v="112"/>
    <tag k="addr:street" v="Weston Heights"/>
    <tag k="addr:state" v="VT"/>
    <tag k="ref:vcgi:esiteid" v="296733"/>
  </node>
  <node id="-1333" visible="true" lat="43.44348564" lon="-72.39891246">
    <tag k="addr:housenumber" v="15"/>
    <tag k="addr:street" v="Kennedy Drive"/>
    <tag k="addr:state" v="VT"/>
    <tag k="ref:vcgi:esiteid" v="296734"/>
  </node>
  <node id="-1334" visible="true" lat="43.44345092" lon="-72.39810943">
    <tag k="addr:housenumber" v="2203"/>
    <tag k="addr:street" v="U.S. Route 5 South"/>
    <tag k="addr:state" v="VT"/>
    <tag k="ref:vcgi:esiteid" v="296735"/>
  </node>
  <node id="-1335" visible="true" lat="43.44332504" lon="-72.3996582">
    <tag k="addr:housenumber" v="128"/>
    <tag k="addr:street" v="Weston Heights"/>
    <tag k="addr:state" v="VT"/>
    <tag k="ref:vcgi:esiteid" v="296736"/>
  </node>
  <node id="-1336" visible="true" lat="43.44332926" lon="-72.39896239">
    <tag k="addr:housenumber" v="25"/>
    <tag k="addr:street" v="Kennedy Drive"/>
    <tag k="addr:state" v="VT"/>
    <tag k="ref:vcgi:esiteid" v="296737"/>
  </node>
  <node id="-1337" visible="true" lat="43.44311141" lon="-72.39969634">
    <tag k="addr:housenumber" v="144"/>
    <tag k="addr:street" v="Weston Heights"/>
    <tag k="addr:state" v="VT"/>
    <tag k="ref:vcgi:esiteid" v="296738"/>
  </node>
  <node id="-1338" visible="true" lat="43.4431076" lon="-72.39822387">
    <tag k="addr:housenumber" v="2227"/>
    <tag k="addr:street" v="U.S. Route 5 South"/>
    <tag k="addr:state" v="VT"/>
    <tag k="ref:vcgi:esiteid" v="296739"/>
  </node>
  <node id="-1339" visible="true" lat="43.44306945" lon="-72.39901733">
    <tag k="addr:housenumber" v="43"/>
    <tag k="addr:street" v="Kennedy Drive"/>
    <tag k="addr:state" v="VT"/>
    <tag k="ref:vcgi:esiteid" v="296740"/>
  </node>
  <node id="-1340" visible="true" lat="43.44292068" lon="-72.39972686">
    <tag k="addr:housenumber" v="156"/>
    <tag k="addr:street" v="Weston Heights"/>
    <tag k="addr:state" v="VT"/>
    <tag k="ref:vcgi:esiteid" v="296741"/>
  </node>
  <node id="-1341" visible="true" lat="43.44289779" lon="-72.39831542">
    <tag k="addr:housenumber" v="2243"/>
    <tag k="addr:street" v="U.S. Route 5 South"/>
    <tag k="addr:state" v="VT"/>
    <tag k="ref:vcgi:esiteid" v="296742"/>
  </node>
  <node id="-1342" visible="true" lat="43.44283294" lon="-72.39904022">
    <tag k="addr:housenumber" v="61"/>
    <tag k="addr:street" v="Kennedy Drive"/>
    <tag k="addr:state" v="VT"/>
    <tag k="ref:vcgi:esiteid" v="296743"/>
  </node>
  <node id="-1343" visible="true" lat="43.44273006" lon="-72.39984112">
    <tag k="addr:housenumber" v="166"/>
    <tag k="addr:street" v="Weston Heights"/>
    <tag k="addr:state" v="VT"/>
    <tag k="ref:vcgi:esiteid" v="296744"/>
  </node>
  <node id="-1344" visible="true" lat="43.44265935" lon="-72.39907964">
    <tag k="addr:housenumber" v="73"/>
    <tag k="addr:street" v="Kennedy Drive"/>
    <tag k="addr:state" v="VT"/>
    <tag k="ref:vcgi:esiteid" v="296745"/>
  </node>
  <node id="-1345" visible="true" lat="43.44253921" lon="-72.39987182">
    <tag k="addr:housenumber" v="184"/>
    <tag k="addr:street" v="Weston Heights"/>
    <tag k="addr:state" v="VT"/>
    <tag k="ref:vcgi:esiteid" v="296746"/>
  </node>
  <node id="-1346" visible="true" lat="43.44246571" lon="-72.39912261">
    <tag k="addr:housenumber" v="87"/>
    <tag k="addr:street" v="Kennedy Drive"/>
    <tag k="addr:state" v="VT"/>
    <tag k="ref:vcgi:esiteid" v="296747"/>
  </node>
  <node id="-1347" visible="true" lat="43.44224166" lon="-72.39997863">
    <tag k="addr:housenumber" v="202"/>
    <tag k="addr:street" v="Weston Heights"/>
    <tag k="addr:state" v="VT"/>
    <tag k="ref:vcgi:esiteid" v="296748"/>
  </node>
  <node id="-1348" visible="true" lat="43.44203949" lon="-72.40011596">
    <tag k="addr:housenumber" v="210"/>
    <tag k="addr:street" v="Weston Heights"/>
    <tag k="addr:state" v="VT"/>
    <tag k="ref:vcgi:esiteid" v="296750"/>
  </node>
  <node id="-1349" visible="true" lat="43.44177627" lon="-72.4000473">
    <tag k="addr:housenumber" v="234"/>
    <tag k="addr:street" v="Weston Heights"/>
    <tag k="addr:state" v="VT"/>
    <tag k="ref:vcgi:esiteid" v="296751"/>
  </node>
  <node id="-1350" visible="true" lat="43.44143676" lon="-72.39983367">
    <tag k="addr:housenumber" v="258"/>
    <tag k="addr:street" v="Weston Heights"/>
    <tag k="addr:state" v="VT"/>
    <tag k="ref:vcgi:esiteid" v="296752"/>
  </node>
  <node id="-1351" visible="true" lat="43.44141387" lon="-72.39830017">
    <tag k="addr:housenumber" v="2379"/>
    <tag k="addr:street" v="U.S. Route 5 South"/>
    <tag k="addr:state" v="VT"/>
    <tag k="ref:vcgi:esiteid" v="296753"/>
  </node>
  <node id="-1352" visible="true" lat="43.44123458" lon="-72.39982604">
    <tag k="addr:housenumber" v="272"/>
    <tag k="addr:street" v="Weston Heights"/>
    <tag k="addr:state" v="VT"/>
    <tag k="ref:vcgi:esiteid" v="296754"/>
  </node>
  <node id="-1353" visible="true" lat="43.44092559" lon="-72.39918518">
    <tag k="addr:housenumber" v="265"/>
    <tag k="addr:street" v="Weston Heights"/>
    <tag k="addr:state" v="VT"/>
    <tag k="ref:vcgi:esiteid" v="296755"/>
  </node>
  <node id="-1354" visible="true" lat="43.44092178" lon="-72.39954376">
    <tag k="addr:housenumber" v="287"/>
    <tag k="addr:street" v="Weston Heights"/>
    <tag k="addr:state" v="VT"/>
    <tag k="ref:vcgi:esiteid" v="296756"/>
  </node>
  <node id="-1361" visible="true" lat="43.43381299" lon="-72.39724791">
    <tag k="addr:housenumber" v="2858"/>
    <tag k="addr:street" v="U.S. Route 5 South"/>
    <tag k="addr:state" v="VT"/>
    <tag k="ref:vcgi:esiteid" v="296763"/>
  </node>
  <node id="-1362" visible="true" lat="43.43276214" lon="-72.39741516">
    <tag k="addr:housenumber" v="2878"/>
    <tag k="addr:street" v="U.S. Route 5 South"/>
    <tag k="addr:state" v="VT"/>
    <tag k="ref:vcgi:esiteid" v="296764"/>
  </node>
  <node id="-1363" visible="true" lat="43.43201636" lon="-72.39705215">
    <tag k="addr:housenumber" v="3013"/>
    <tag k="addr:street" v="U.S. Route 5 South"/>
    <tag k="addr:state" v="VT"/>
    <tag k="ref:vcgi:esiteid" v="296765"/>
  </node>
  <node id="-1364" visible="true" lat="43.43026284" lon="-72.39638029">
    <tag k="addr:housenumber" v="3127"/>
    <tag k="addr:street" v="U.S. Route 5 South"/>
    <tag k="addr:state" v="VT"/>
    <tag k="ref:vcgi:esiteid" v="296766"/>
  </node>
  <node id="-1365" visible="true" lat="43.43018795" lon="-72.3977682">
    <tag k="addr:housenumber" v="3103"/>
    <tag k="addr:street" v="U.S. Route 5 South"/>
    <tag k="addr:state" v="VT"/>
    <tag k="ref:vcgi:esiteid" v="296767"/>
  </node>
  <node id="-1366" visible="true" lat="43.42950356" lon="-72.39851917">
    <tag k="addr:housenumber" v="3189"/>
    <tag k="addr:street" v="U.S. Route 5 South"/>
    <tag k="addr:state" v="VT"/>
    <tag k="ref:vcgi:esiteid" v="296768"/>
  </node>
  <node id="-1368" visible="true" lat="43.50167846" lon="-72.42607879">
    <tag k="addr:housenumber" v="570"/>
    <tag k="addr:street" v="State Farm Road"/>
    <tag k="addr:state" v="VT"/>
    <tag k="ref:vcgi:esiteid" v="296770"/>
  </node>
  <node id="-1369" visible="true" lat="43.49613779" lon="-72.38714212">
    <tag k="addr:housenumber" v="2051"/>
    <tag k="addr:street" v="U.S. Route 5 North"/>
    <tag k="addr:state" v="VT"/>
    <tag k="ref:vcgi:esiteid" v="296771"/>
  </node>
  <node id="-1402" visible="true" lat="43.45394897" lon="-72.39559173">
    <tag k="addr:housenumber" v="1526"/>
    <tag k="addr:street" v="U.S. Route 5 South"/>
    <tag k="addr:state" v="VT"/>
    <tag k="ref:vcgi:esiteid" v="296804"/>
  </node>
  <node id="-1403" visible="true" lat="43.45160293" lon="-72.39602661">
    <tag k="addr:housenumber" v="1528"/>
    <tag k="addr:street" v="U.S. Route 5 South"/>
    <tag k="addr:state" v="VT"/>
    <tag k="ref:vcgi:esiteid" v="296805"/>
  </node>
  <node id="-1404" visible="true" lat="43.51060409" lon="-72.45133402">
    <tag k="addr:housenumber" v="1000"/>
    <tag k="addr:street" v="Weeden Hill Road"/>
    <tag k="addr:state" v="VT"/>
    <tag k="ref:vcgi:esiteid" v="296806"/>
  </node>
  <node id="-1408" visible="true" lat="43.50160526" lon="-72.39557423">
    <tag k="addr:housenumber" v="55"/>
    <tag k="addr:street" v="Jewett Road"/>
    <tag k="addr:state" v="VT"/>
    <tag k="ref:vcgi:esiteid" v="296810"/>
  </node>
  <node id="-1411" visible="true" lat="43.50061468" lon="-72.39470696">
    <tag k="addr:housenumber" v="105"/>
    <tag k="addr:street" v="Jewett Road"/>
    <tag k="addr:state" v="VT"/>
    <tag k="ref:vcgi:esiteid" v="296813"/>
  </node>
  <node id="-1412" visible="true" lat="43.47085215" lon="-72.44951575">
    <tag k="addr:housenumber" v="2714"/>
    <tag k="addr:street" v="Brook Road"/>
    <tag k="addr:state" v="VT"/>
    <tag k="ref:vcgi:esiteid" v="296814"/>
  </node>
  <node id="-1415" visible="true" lat="43.45367251" lon="-72.41752926">
    <tag k="addr:housenumber" v="511"/>
    <tag k="addr:street" v="Back Mountain Road"/>
    <tag k="addr:state" v="VT"/>
    <tag k="ref:vcgi:esiteid" v="296817"/>
  </node>
  <node id="-1416" visible="true" lat="43.4618264" lon="-72.39529436">
    <tag k="addr:housenumber" v="326"/>
    <tag k="addr:street" v="Orchard Lane"/>
    <tag k="addr:state" v="VT"/>
    <tag k="ref:vcgi:esiteid" v="296818"/>
  </node>
  <node id="-1422" visible="true" lat="43.48992506" lon="-72.42717872">
    <tag k="addr:housenumber" v="452"/>
    <tag k="addr:street" v="Marton Road"/>
    <tag k="addr:state" v="VT"/>
    <tag k="ref:vcgi:esiteid" v="296824"/>
  </node>
  <node id="-1423" visible="true" lat="43.45379164" lon="-72.41684733">
    <tag k="addr:housenumber" v="58"/>
    <tag k="addr:street" v="Cubb Court"/>
    <tag k="addr:state" v="VT"/>
    <tag k="ref:vcgi:esiteid" v="296825"/>
  </node>
  <node id="-1436" visible="true" lat="43.43520305" lon="-72.39736345">
    <tag k="addr:housenumber" v="42"/>
    <tag k="addr:street" v="Cedar Hill Drive"/>
    <tag k="addr:state" v="VT"/>
    <tag k="ref:vcgi:esiteid" v="296840"/>
  </node>
  <node id="-1443" visible="true" lat="43.50020186" lon="-72.39450304">
    <tag k="addr:housenumber" v="121"/>
    <tag k="addr:street" v="Jewett Road"/>
    <tag k="addr:state" v="VT"/>
    <tag k="ref:vcgi:esiteid" v="296847"/>
  </node>
  <node id="-1446" visible="true" lat="43.48005139" lon="-72.38382893">
    <tag k="addr:housenumber" v="30"/>
    <tag k="addr:street" v="Depot Avenue"/>
    <tag k="addr:state" v="VT"/>
    <tag k="ref:vcgi:esiteid" v="296850"/>
  </node>
  <node id="-1449" visible="true" lat="43.45431956" lon="-72.41716635">
    <tag k="addr:housenumber" v="90"/>
    <tag k="addr:street" v="Cubb Court"/>
    <tag k="addr:state" v="VT"/>
    <tag k="ref:vcgi:esiteid" v="296853"/>
  </node>
  <node id="-1451" visible="true" lat="43.47954797" lon="-72.3852828">
    <tag k="addr:housenumber" v="3"/>
    <tag k="addr:street" v="Railroad Avenue"/>
    <tag k="addr:state" v="VT"/>
    <tag k="ref:vcgi:esiteid" v="296855"/>
  </node>
  <node id="-1453" visible="true" lat="43.4997333" lon="-72.39438873">
    <tag k="addr:housenumber" v="157"/>
    <tag k="addr:street" v="Jewett Road"/>
    <tag k="addr:state" v="VT"/>
    <tag k="ref:vcgi:esiteid" v="296857"/>
  </node>
  <node id="-1454" visible="true" lat="43.49932968" lon="-72.3942366">
    <tag k="addr:housenumber" v="181"/>
    <tag k="addr:street" v="Jewett Road"/>
    <tag k="addr:state" v="VT"/>
    <tag k="ref:vcgi:esiteid" v="296858"/>
  </node>
  <node id="-1455" visible="true" lat="43.49909976" lon="-72.39400552">
    <tag k="addr:housenumber" v="203"/>
    <tag k="addr:street" v="Jewett Road"/>
    <tag k="addr:state" v="VT"/>
    <tag k="ref:vcgi:esiteid" v="296859"/>
  </node>
  <node id="-1457" visible="true" lat="43.43755142" lon="-72.45176372">
    <tag k="addr:housenumber" v="4200"/>
    <tag k="addr:street" v="Mount Ascutney State Park Road"/>
    <tag k="addr:state" v="VT"/>
    <tag k="ref:vcgi:esiteid" v="296861"/>
  </node>
  <node id="-1461" visible="true" lat="43.49818782" lon="-72.39363464">
    <tag k="addr:housenumber" v="265"/>
    <tag k="addr:street" v="Jewett Road"/>
    <tag k="addr:state" v="VT"/>
    <tag k="ref:vcgi:esiteid" v="296866"/>
  </node>
  <node id="-1469" visible="true" lat="43.51322713" lon="-72.40172845">
    <tag k="addr:housenumber" v="47"/>
    <tag k="addr:street" v="Artisans Way"/>
    <tag k="addr:state" v="VT"/>
    <tag k="ref:vcgi:esiteid" v="296875"/>
  </node>
  <node id="-1472" visible="true" lat="43.49871219" lon="-72.39382489">
    <tag k="addr:housenumber" v="229"/>
    <tag k="addr:street" v="Jewett Road"/>
    <tag k="addr:state" v="VT"/>
    <tag k="ref:vcgi:esiteid" v="296878"/>
  </node>
  <node id="-1479" visible="true" lat="43.47833291" lon="-72.38281827">
    <tag k="addr:housenumber" v="13"/>
    <tag k="addr:street" v="Foster Avenue"/>
    <tag k="addr:state" v="VT"/>
    <tag k="ref:vcgi:esiteid" v="296885"/>
  </node>
  <node id="-1482" visible="true" lat="43.47811549" lon="-72.38284065">
    <tag k="addr:housenumber" v="14"/>
    <tag k="addr:street" v="Foster Avenue"/>
    <tag k="addr:state" v="VT"/>
    <tag k="ref:vcgi:esiteid" v="296888"/>
  </node>
  <node id="-1486" visible="true" lat="43.47618945" lon="-72.38331824">
    <tag k="addr:housenumber" v="68"/>
    <tag k="addr:street" v="Jarvis Street"/>
    <tag k="addr:state" v="VT"/>
    <tag k="ref:vcgi:esiteid" v="296892"/>
  </node>
  <node id="-1487" visible="true" lat="43.47867137" lon="-72.38303823">
    <tag k="addr:housenumber" v="42"/>
    <tag k="addr:street" v="River Street"/>
    <tag k="addr:state" v="VT"/>
    <tag k="ref:vcgi:esiteid" v="296893"/>
  </node>
  <node id="-1488" visible="true" lat="43.47862815" lon="-72.38276375">
    <tag k="addr:housenumber" v="46"/>
    <tag k="addr:street" v="River Street"/>
    <tag k="addr:state" v="VT"/>
    <tag k="ref:vcgi:esiteid" v="296894"/>
  </node>
  <node id="-1489" visible="true" lat="43.47857271" lon="-72.38234742">
    <tag k="addr:housenumber" v="50"/>
    <tag k="addr:street" v="River Street"/>
    <tag k="addr:state" v="VT"/>
    <tag k="ref:vcgi:esiteid" v="296895"/>
  </node>
  <node id="-1490" visible="true" lat="43.47988938" lon="-72.38550767">
    <tag k="addr:housenumber" v="10"/>
    <tag k="addr:street" v="Depot Avenue"/>
    <tag k="addr:state" v="VT"/>
    <tag k="ref:vcgi:esiteid" v="296896"/>
  </node>
  <node id="-1496" visible="true" lat="43.47400772" lon="-72.38503778">
    <tag k="addr:housenumber" v="40"/>
    <tag k="addr:street" v="Bridge Street"/>
    <tag k="addr:state" v="VT"/>
    <tag k="ref:vcgi:esiteid" v="296902"/>
  </node>
  <node id="-1497" visible="true" lat="43.48422953" lon="-72.38463438">
    <tag k="addr:housenumber" v="17"/>
    <tag k="addr:street" v="Main Street"/>
    <tag k="addr:state" v="VT"/>
    <tag k="ref:vcgi:esiteid" v="296904"/>
  </node>
  <node id="-1507" visible="true" lat="43.48453823" lon="-72.38344692">
    <tag k="addr:housenumber" v="30"/>
    <tag k="addr:street" v="Coolidge Court"/>
    <tag k="addr:state" v="VT"/>
    <tag k="ref:vcgi:esiteid" v="296916"/>
  </node>
  <node id="-1515" visible="true" lat="43.46184457" lon="-72.42650572">
    <tag k="addr:housenumber" v="30"/>
    <tag k="addr:street" v="Estey Lane"/>
    <tag k="addr:state" v="VT"/>
    <tag k="ref:vcgi:esiteid" v="307541"/>
  </node>
  <node id="-1517" visible="true" lat="43.51656933" lon="-72.43669042">
    <tag k="addr:housenumber" v="199"/>
    <tag k="addr:street" v="Sunrise Hill"/>
    <tag k="addr:state" v="VT"/>
    <tag k="ref:vcgi:esiteid" v="310775"/>
  </node>
  <node id="-1518" visible="true" lat="43.45456657" lon="-72.41830114">
    <tag k="addr:housenumber" v="473"/>
    <tag k="addr:street" v="Back Mountain Road"/>
    <tag k="addr:state" v="VT"/>
    <tag k="ref:vcgi:esiteid" v="312328"/>
  </node>
  <node id="-1534" visible="true" lat="43.47870177" lon="-72.38335097">
    <tag k="addr:housenumber" v="38"/>
    <tag k="addr:street" v="River Street"/>
    <tag k="addr:state" v="VT"/>
    <tag k="ref:vcgi:esiteid" v="312562"/>
  </node>
  <node id="-1541" visible="true" lat="43.47309986" lon="-72.39225566">
    <tag k="addr:housenumber" v="112"/>
    <tag k="addr:street" v="Belaski Road"/>
    <tag k="addr:state" v="VT"/>
    <tag k="ref:vcgi:esiteid" v="326869"/>
  </node>
  <node id="-1545" visible="true" lat="43.46775169" lon="-72.42984666">
    <tag k="addr:housenumber" v="499"/>
    <tag k="addr:street" v="Estey Lane"/>
    <tag k="addr:state" v="VT"/>
    <tag k="ref:vcgi:esiteid" v="331133"/>
  </node>
  <node id="-1549" visible="true" lat="43.47809613" lon="-72.38258375">
    <tag k="addr:housenumber" v="15"/>
    <tag k="addr:street" v="Acme Street"/>
    <tag k="addr:state" v="VT"/>
    <tag k="ref:vcgi:esiteid" v="332568"/>
  </node>
  <node id="-1560" visible="true" lat="43.48209485" lon="-72.38343855">
    <tag k="addr:housenumber" v="31"/>
    <tag k="addr:street" v="Depot Avenue"/>
    <tag k="addr:state" v="VT"/>
    <tag k="ref:vcgi:esiteid" v="332707"/>
  </node>
  <node id="-1565" visible="true" lat="43.51729479" lon="-72.40301541">
    <tag k="addr:housenumber" v="219"/>
    <tag k="addr:street" v="U.S. Route 5 North"/>
    <tag k="addr:state" v="VT"/>
    <tag k="ref:vcgi:esiteid" v="336167"/>
  </node>
  <node id="-1569" visible="true" lat="43.51389138" lon="-72.40164839">
    <tag k="addr:housenumber" v="27"/>
    <tag k="addr:street" v="Artisans Way"/>
    <tag k="addr:state" v="VT"/>
    <tag k="ref:vcgi:esiteid" v="339318"/>
  </node>
  <node id="-1581" visible="true" lat="43.51310477" lon="-72.40265684">
    <tag k="addr:housenumber" v="75"/>
    <tag k="addr:street" v="Artisans Way"/>
    <tag k="addr:state" v="VT"/>
    <tag k="ref:vcgi:esiteid" v="345544"/>
  </node>
  <node id="-1582" visible="true" lat="43.51316157" lon="-72.4022665">
    <tag k="addr:housenumber" v="71"/>
    <tag k="addr:street" v="Artisans Way"/>
    <tag k="addr:state" v="VT"/>
    <tag k="ref:vcgi:esiteid" v="345545"/>
  </node>
  <node id="-1584" visible="true" lat="43.51409417" lon="-72.40175482">
    <tag k="addr:housenumber" v="21"/>
    <tag k="addr:street" v="Artisans Way"/>
    <tag k="addr:state" v="VT"/>
    <tag k="ref:vcgi:esiteid" v="345547"/>
  </node>
  <node id="-1586" visible="true" lat="43.47733354" lon="-72.38276389">
    <tag k="addr:housenumber" v="37"/>
    <tag k="addr:street" v="Jarvis Street"/>
    <tag k="addr:state" v="VT"/>
    <tag k="ref:vcgi:esiteid" v="445390"/>
  </node>
  <node id="-1587" visible="true" lat="43.51448971" lon="-72.40209727">
    <tag k="addr:housenumber" v="3"/>
    <tag k="addr:street" v="Artisans Way"/>
    <tag k="addr:state" v="VT"/>
    <tag k="ref:vcgi:esiteid" v="446039"/>
  </node>
  <node id="-1593" visible="true" lat="43.48027032" lon="-72.38650006">
    <tag k="addr:housenumber" v="74"/>
    <tag k="addr:street" v="Main Street"/>
    <tag k="addr:state" v="VT"/>
    <tag k="ref:vcgi:esiteid" v="613116"/>
  </node>
  <node id="-1611" visible="true" lat="43.43373581" lon="-72.39901146">
    <tag k="addr:housenumber" v="2277"/>
    <tag k="addr:street" v="Back Mountain Road"/>
    <tag k="addr:state" v="VT"/>
    <tag k="ref:vcgi:esiteid" v="753629"/>
  </node>
  <node id="-1616" visible="true" lat="43.43449574" lon="-72.40107727">
    <tag k="addr:housenumber" v="2275"/>
    <tag k="addr:street" v="Back Mountain Road"/>
    <tag k="addr:state" v="VT"/>
    <tag k="ref:vcgi:esiteid" v="756445"/>
  </node>
</osm>
