<?xml version="1.0" encoding="UTF-8"?>
<osm version="0.6" generator="JOSM">
  <node id="-100" visible="true" lat="43.11413471" lon="-72.87541862">
    <tag k="addr:city" v="Winhall"/>
    <tag k="addr:housenumber" v="42"/>
    <tag k="addr:street" v="Stone Cabin Road"/>
    <tag k="addr:state" v="VT"/>
    <tag k="ref:vcgi:esiteid" v="253315"/>
  </node>
  <node id="-101" visible="true" lat="43.20987146" lon="-72.98643404">
    <tag k="addr:city" v="Winhall"/>
    <tag k="addr:housenumber" v="28"/>
    <tag k="addr:street" v="Bromley Forest Road"/>
    <tag k="addr:state" v="VT"/>
    <tag k="ref:vcgi:esiteid" v="296923"/>
  </node>
  <node id="-102" visible="true" lat="43.20957654" lon="-72.98569679">
    <tag k="addr:city" v="Winhall"/>
    <tag k="addr:housenumber" v="24"/>
    <tag k="addr:street" v="Bromley Forest Road"/>
    <tag k="addr:state" v="VT"/>
    <tag k="ref:vcgi:esiteid" v="296924"/>
  </node>
  <node id="-103" visible="true" lat="43.20939264" lon="-72.98392276">
    <tag k="addr:city" v="Winhall"/>
    <tag k="addr:housenumber" v="20"/>
    <tag k="addr:street" v="Chandolin Road"/>
    <tag k="addr:state" v="VT"/>
    <tag k="ref:vcgi:esiteid" v="296925"/>
  </node>
  <node id="-104" visible="true" lat="43.20948158" lon="-72.99066919">
    <tag k="addr:city" v="Winhall"/>
    <tag k="addr:housenumber" v="27"/>
    <tag k="addr:street" v="Snowflake Lane"/>
    <tag k="addr:state" v="VT"/>
    <tag k="ref:vcgi:esiteid" v="296926"/>
  </node>
  <node id="-105" visible="true" lat="43.20931243" lon="-72.98531341">
    <tag k="addr:city" v="Winhall"/>
    <tag k="addr:housenumber" v="22"/>
    <tag k="addr:street" v="Bromley Forest Road"/>
    <tag k="addr:state" v="VT"/>
    <tag k="ref:vcgi:esiteid" v="296927"/>
  </node>
  <node id="-106" visible="true" lat="43.20917892" lon="-72.99165344">
    <tag k="addr:city" v="Winhall"/>
    <tag k="addr:housenumber" v="12"/>
    <tag k="addr:street" v="Sunny Hill Road"/>
    <tag k="addr:state" v="VT"/>
    <tag k="ref:vcgi:esiteid" v="296928"/>
  </node>
  <node id="-107" visible="true" lat="43.20904922" lon="-72.98592376">
    <tag k="addr:city" v="Winhall"/>
    <tag k="addr:housenumber" v="27"/>
    <tag k="addr:street" v="Bromley Forest Road"/>
    <tag k="addr:state" v="VT"/>
    <tag k="ref:vcgi:esiteid" v="296929"/>
  </node>
  <node id="-108" visible="true" lat="43.20875167" lon="-72.98667907">
    <tag k="addr:city" v="Winhall"/>
    <tag k="addr:housenumber" v="25"/>
    <tag k="addr:street" v="Bromley Forest Road"/>
    <tag k="addr:state" v="VT"/>
    <tag k="ref:vcgi:esiteid" v="296930"/>
  </node>
  <node id="-109" visible="true" lat="43.20870208" lon="-72.99114227">
    <tag k="addr:city" v="Winhall"/>
    <tag k="addr:housenumber" v="25"/>
    <tag k="addr:street" v="Snowflake Lane"/>
    <tag k="addr:state" v="VT"/>
    <tag k="ref:vcgi:esiteid" v="296931"/>
  </node>
  <node id="-110" visible="true" lat="43.20869445" lon="-72.9841156">
    <tag k="addr:city" v="Winhall"/>
    <tag k="addr:housenumber" v="14"/>
    <tag k="addr:street" v="Bromley Forest Road"/>
    <tag k="addr:state" v="VT"/>
    <tag k="ref:vcgi:esiteid" v="296932"/>
  </node>
  <node id="-112" visible="true" lat="43.20870209" lon="-72.99046356">
    <tag k="addr:city" v="Winhall"/>
    <tag k="addr:housenumber" v="26"/>
    <tag k="addr:street" v="Snowflake Lane"/>
    <tag k="addr:state" v="VT"/>
    <tag k="ref:vcgi:esiteid" v="296934"/>
  </node>
  <node id="-113" visible="true" lat="43.20845413" lon="-72.99066925">
    <tag k="addr:city" v="Winhall"/>
    <tag k="addr:housenumber" v="24"/>
    <tag k="addr:street" v="Snowflake Lane"/>
    <tag k="addr:state" v="VT"/>
    <tag k="ref:vcgi:esiteid" v="296935"/>
  </node>
  <node id="-114" visible="true" lat="43.20841598" lon="-72.98828125">
    <tag k="addr:city" v="Winhall"/>
    <tag k="addr:housenumber" v="8"/>
    <tag k="addr:street" v="Wake Robin Road"/>
    <tag k="addr:state" v="VT"/>
    <tag k="ref:vcgi:esiteid" v="296936"/>
  </node>
  <node id="-115" visible="true" lat="43.20840976" lon="-72.98572625">
    <tag k="addr:city" v="Winhall"/>
    <tag k="addr:housenumber" v="21"/>
    <tag k="addr:street" v="Bromley Forest Road"/>
    <tag k="addr:state" v="VT"/>
    <tag k="ref:vcgi:esiteid" v="296937"/>
  </node>
  <node id="-116" visible="true" lat="43.20833341" lon="-72.9924151">
    <tag k="addr:city" v="Winhall"/>
    <tag k="addr:housenumber" v="11"/>
    <tag k="addr:street" v="Sunny Hill Road"/>
    <tag k="addr:state" v="VT"/>
    <tag k="ref:vcgi:esiteid" v="296938"/>
  </node>
  <node id="-117" visible="true" lat="43.20826166" lon="-72.99151751">
    <tag k="addr:city" v="Winhall"/>
    <tag k="addr:housenumber" v="21"/>
    <tag k="addr:street" v="Snowflake Lane"/>
    <tag k="addr:state" v="VT"/>
    <tag k="ref:vcgi:esiteid" v="296939"/>
  </node>
  <node id="-118" visible="true" lat="43.20835876" lon="-72.9877243">
    <tag k="addr:city" v="Winhall"/>
    <tag k="addr:housenumber" v="6"/>
    <tag k="addr:street" v="Wake Robin Road"/>
    <tag k="addr:state" v="VT"/>
    <tag k="ref:vcgi:esiteid" v="296940"/>
  </node>
  <node id="-119" visible="true" lat="43.20824432" lon="-72.98469543">
    <tag k="addr:city" v="Winhall"/>
    <tag k="addr:housenumber" v="17"/>
    <tag k="addr:street" v="Bromley Forest Road"/>
    <tag k="addr:state" v="VT"/>
    <tag k="ref:vcgi:esiteid" v="296941"/>
  </node>
  <node id="-120" visible="true" lat="43.20814514" lon="-72.99091339">
    <tag k="addr:city" v="Winhall"/>
    <tag k="addr:housenumber" v="22"/>
    <tag k="addr:street" v="Snowflake Lane"/>
    <tag k="addr:state" v="VT"/>
    <tag k="ref:vcgi:esiteid" v="296942"/>
  </node>
  <node id="-121" visible="true" lat="43.20804766" lon="-72.98392448">
    <tag k="addr:city" v="Winhall"/>
    <tag k="addr:housenumber" v="12"/>
    <tag k="addr:street" v="Bromley Forest Road"/>
    <tag k="addr:state" v="VT"/>
    <tag k="ref:vcgi:esiteid" v="296943"/>
  </node>
  <node id="-122" visible="true" lat="43.20807266" lon="-72.99282074">
    <tag k="addr:city" v="Winhall"/>
    <tag k="addr:housenumber" v="7"/>
    <tag k="addr:street" v="Sunny Hill Road"/>
    <tag k="addr:state" v="VT"/>
    <tag k="ref:vcgi:esiteid" v="296944"/>
  </node>
  <node id="-123" visible="true" lat="43.20784309" lon="-72.98886445">
    <tag k="addr:city" v="Winhall"/>
    <tag k="addr:housenumber" v="7"/>
    <tag k="addr:street" v="Wake Robin Road"/>
    <tag k="addr:state" v="VT"/>
    <tag k="ref:vcgi:esiteid" v="296945"/>
  </node>
  <node id="-124" visible="true" lat="43.20796065" lon="-72.98986515">
    <tag k="addr:city" v="Winhall"/>
    <tag k="addr:housenumber" v="19"/>
    <tag k="addr:street" v="Vermont Haunts Road"/>
    <tag k="addr:state" v="VT"/>
    <tag k="ref:vcgi:esiteid" v="296946"/>
  </node>
  <node id="-125" visible="true" lat="43.20788773" lon="-72.9859866">
    <tag k="addr:city" v="Winhall"/>
    <tag k="addr:housenumber" v="2"/>
    <tag k="addr:street" v="Rogers Road"/>
    <tag k="addr:state" v="VT"/>
    <tag k="ref:vcgi:esiteid" v="296947"/>
  </node>
  <node id="-127" visible="true" lat="43.20785522" lon="-72.99090576">
    <tag k="addr:city" v="Winhall"/>
    <tag k="addr:housenumber" v="20"/>
    <tag k="addr:street" v="Snowflake Lane"/>
    <tag k="addr:state" v="VT"/>
    <tag k="ref:vcgi:esiteid" v="296949"/>
  </node>
  <node id="-128" visible="true" lat="43.20781707" lon="-72.98503875">
    <tag k="addr:city" v="Winhall"/>
    <tag k="addr:housenumber" v="7"/>
    <tag k="addr:street" v="Bromley Forest Road"/>
    <tag k="addr:state" v="VT"/>
    <tag k="ref:vcgi:esiteid" v="296950"/>
  </node>
  <node id="-129" visible="true" lat="43.20793151" lon="-72.94300842">
    <tag k="addr:city" v="Winhall"/>
    <tag k="addr:housenumber" v="411"/>
    <tag k="addr:street" v="Vermont Route 11"/>
    <tag k="addr:state" v="VT"/>
    <tag k="ref:vcgi:esiteid" v="296951"/>
  </node>
  <node id="-131" visible="true" lat="43.20742933" lon="-72.99025436">
    <tag k="addr:city" v="Winhall"/>
    <tag k="addr:housenumber" v="5"/>
    <tag k="addr:street" v="Vermont Haunts Road"/>
    <tag k="addr:state" v="VT"/>
    <tag k="ref:vcgi:esiteid" v="296953"/>
  </node>
  <node id="-133" visible="true" lat="43.20753097" lon="-72.98383331">
    <tag k="addr:city" v="Winhall"/>
    <tag k="addr:housenumber" v="8"/>
    <tag k="addr:street" v="Bromley Forest Road"/>
    <tag k="addr:state" v="VT"/>
    <tag k="ref:vcgi:esiteid" v="296955"/>
  </node>
  <node id="-134" visible="true" lat="43.20732152" lon="-72.99083114">
    <tag k="addr:city" v="Winhall"/>
    <tag k="addr:housenumber" v="16"/>
    <tag k="addr:street" v="Snowflake Lane"/>
    <tag k="addr:state" v="VT"/>
    <tag k="ref:vcgi:esiteid" v="296956"/>
  </node>
  <node id="-135" visible="true" lat="43.20751571" lon="-72.96614837">
    <tag k="addr:city" v="Winhall"/>
    <tag k="addr:housenumber" v="301"/>
    <tag k="addr:street" v="Vermont Route 11 30"/>
    <tag k="addr:state" v="VT"/>
    <tag k="ref:vcgi:esiteid" v="296957"/>
  </node>
  <node id="-136" visible="true" lat="43.20729827" lon="-72.96562194">
    <tag k="addr:city" v="Winhall"/>
    <tag k="addr:housenumber" v="303"/>
    <tag k="addr:street" v="Vermont Route 11 30"/>
    <tag k="addr:state" v="VT"/>
    <tag k="ref:vcgi:esiteid" v="296958"/>
  </node>
  <node id="-138" visible="true" lat="43.2073822" lon="-72.94353485">
    <tag k="addr:city" v="Winhall"/>
    <tag k="addr:housenumber" v="405"/>
    <tag k="addr:street" v="Vermont Route 11"/>
    <tag k="addr:state" v="VT"/>
    <tag k="ref:vcgi:esiteid" v="296960"/>
  </node>
  <node id="-141" visible="true" lat="43.20711135" lon="-72.99251556">
    <tag k="addr:city" v="Winhall"/>
    <tag k="addr:housenumber" v="19"/>
    <tag k="addr:street" v="Kimball Hill Road"/>
    <tag k="addr:state" v="VT"/>
    <tag k="ref:vcgi:esiteid" v="296963"/>
  </node>
  <node id="-144" visible="true" lat="43.20700898" lon="-72.99307422">
    <tag k="addr:city" v="Winhall"/>
    <tag k="addr:housenumber" v="1"/>
    <tag k="addr:street" v="Sunny Hill Road"/>
    <tag k="addr:state" v="VT"/>
    <tag k="ref:vcgi:esiteid" v="296966"/>
  </node>
  <node id="-148" visible="true" lat="43.20674587" lon="-72.9933093">
    <tag k="addr:city" v="Winhall"/>
    <tag k="addr:housenumber" v="15"/>
    <tag k="addr:street" v="Kimball Hill Road"/>
    <tag k="addr:state" v="VT"/>
    <tag k="ref:vcgi:esiteid" v="296971"/>
  </node>
  <node id="-150" visible="true" lat="43.20658079" lon="-72.99195274">
    <tag k="addr:city" v="Winhall"/>
    <tag k="addr:housenumber" v="9"/>
    <tag k="addr:street" v="Snowflake Lane"/>
    <tag k="addr:state" v="VT"/>
    <tag k="ref:vcgi:esiteid" v="296973"/>
  </node>
  <node id="-151" visible="true" lat="43.20644901" lon="-72.99353808">
    <tag k="addr:city" v="Winhall"/>
    <tag k="addr:housenumber" v="13"/>
    <tag k="addr:street" v="Kimball Hill Road"/>
    <tag k="addr:state" v="VT"/>
    <tag k="ref:vcgi:esiteid" v="296974"/>
  </node>
  <node id="-152" visible="true" lat="43.2064743" lon="-72.99288177">
    <tag k="addr:city" v="Winhall"/>
    <tag k="addr:housenumber" v="16"/>
    <tag k="addr:street" v="Kimball Hill Road"/>
    <tag k="addr:state" v="VT"/>
    <tag k="ref:vcgi:esiteid" v="296975"/>
  </node>
  <node id="-153" visible="true" lat="43.20642015" lon="-72.96018518">
    <tag k="addr:city" v="Winhall"/>
    <tag k="addr:housenumber" v="315"/>
    <tag k="addr:street" v="Vermont Route 11 30"/>
    <tag k="addr:state" v="VT"/>
    <tag k="ref:vcgi:esiteid" v="296976"/>
  </node>
  <node id="-156" visible="true" lat="43.20619093" lon="-72.96113657">
    <tag k="addr:city" v="Winhall"/>
    <tag k="addr:housenumber" v="311"/>
    <tag k="addr:street" v="Vermont Route 11 30"/>
    <tag k="addr:state" v="VT"/>
    <tag k="ref:vcgi:esiteid" v="296979"/>
  </node>
  <node id="-157" visible="true" lat="43.20606666" lon="-72.9920883">
    <tag k="addr:city" v="Winhall"/>
    <tag k="addr:housenumber" v="5"/>
    <tag k="addr:street" v="Snowflake Lane"/>
    <tag k="addr:state" v="VT"/>
    <tag k="ref:vcgi:esiteid" v="296980"/>
  </node>
  <node id="-158" visible="true" lat="43.20614242" lon="-72.94347381">
    <tag k="addr:city" v="Winhall"/>
    <tag k="addr:housenumber" v="2"/>
    <tag k="addr:street" v="Upper Woods And Water Road"/>
    <tag k="addr:state" v="VT"/>
    <tag k="ref:vcgi:esiteid" v="296981"/>
  </node>
  <node id="-159" visible="true" lat="43.2058799" lon="-72.99378078">
    <tag k="addr:city" v="Winhall"/>
    <tag k="addr:housenumber" v="11"/>
    <tag k="addr:street" v="Kimball Hill Road"/>
    <tag k="addr:state" v="VT"/>
    <tag k="ref:vcgi:esiteid" v="296982"/>
  </node>
  <node id="-160" visible="true" lat="43.20591735" lon="-72.94177246">
    <tag k="addr:city" v="Winhall"/>
    <tag k="addr:housenumber" v="9"/>
    <tag k="addr:street" v="Upper Woods And Water Road"/>
    <tag k="addr:state" v="VT"/>
    <tag k="ref:vcgi:esiteid" v="296984"/>
  </node>
  <node id="-165" visible="true" lat="43.20511304" lon="-72.94260882">
    <tag k="addr:city" v="Winhall"/>
    <tag k="addr:housenumber" v="6"/>
    <tag k="addr:street" v="Upper Woods And Water Road"/>
    <tag k="addr:state" v="VT"/>
    <tag k="ref:vcgi:esiteid" v="296989"/>
  </node>
  <node id="-166" visible="true" lat="43.20517901" lon="-72.88007482">
    <tag k="addr:city" v="Winhall"/>
    <tag k="addr:housenumber" v="97"/>
    <tag k="addr:street" v="South Road"/>
    <tag k="addr:state" v="VT"/>
    <tag k="ref:vcgi:esiteid" v="296990"/>
  </node>
  <node id="-167" visible="true" lat="43.20457397" lon="-72.94176906">
    <tag k="addr:city" v="Winhall"/>
    <tag k="addr:housenumber" v="17"/>
    <tag k="addr:street" v="Upper Woods And Water Road"/>
    <tag k="addr:state" v="VT"/>
    <tag k="ref:vcgi:esiteid" v="296991"/>
  </node>
  <node id="-168" visible="true" lat="43.20446777" lon="-72.9517517">
    <tag k="addr:city" v="Winhall"/>
    <tag k="addr:housenumber" v="1"/>
    <tag k="addr:street" v="Bromley Knolls Road"/>
    <tag k="addr:state" v="VT"/>
    <tag k="ref:vcgi:esiteid" v="296992"/>
  </node>
  <node id="-169" visible="true" lat="43.20412444" lon="-72.94356536">
    <tag k="addr:city" v="Winhall"/>
    <tag k="addr:housenumber" v="26"/>
    <tag k="addr:street" v="Upper Woods And Water Road"/>
    <tag k="addr:state" v="VT"/>
    <tag k="ref:vcgi:esiteid" v="296993"/>
  </node>
  <node id="-170" visible="true" lat="43.20394868" lon="-72.94186832">
    <tag k="addr:city" v="Winhall"/>
    <tag k="addr:housenumber" v="3"/>
    <tag k="addr:street" v="Lower Woods And Water Road"/>
    <tag k="addr:state" v="VT"/>
    <tag k="ref:vcgi:esiteid" v="296994"/>
  </node>
  <node id="-171" visible="true" lat="43.2033618" lon="-72.99549143">
    <tag k="addr:city" v="Winhall"/>
    <tag k="addr:housenumber" v="21"/>
    <tag k="addr:street" v="Valley View Road"/>
    <tag k="addr:state" v="VT"/>
    <tag k="ref:vcgi:esiteid" v="296996"/>
  </node>
  <node id="-172" visible="true" lat="43.20336547" lon="-72.94234585">
    <tag k="addr:city" v="Winhall"/>
    <tag k="addr:housenumber" v="8"/>
    <tag k="addr:street" v="Lower Woods And Water Road"/>
    <tag k="addr:state" v="VT"/>
    <tag k="ref:vcgi:esiteid" v="296997"/>
  </node>
  <node id="-173" visible="true" lat="43.20309829" lon="-72.9522171">
    <tag k="addr:city" v="Winhall"/>
    <tag k="addr:housenumber" v="14"/>
    <tag k="addr:street" v="Bromley Knolls Road"/>
    <tag k="addr:state" v="VT"/>
    <tag k="ref:vcgi:esiteid" v="296998"/>
  </node>
  <node id="-174" visible="true" lat="43.20301437" lon="-72.94355011">
    <tag k="addr:city" v="Winhall"/>
    <tag k="addr:housenumber" v="30"/>
    <tag k="addr:street" v="Upper Woods And Water Road"/>
    <tag k="addr:state" v="VT"/>
    <tag k="ref:vcgi:esiteid" v="296999"/>
  </node>
  <node id="-175" visible="true" lat="43.20297936" lon="-72.94161135">
    <tag k="addr:city" v="Winhall"/>
    <tag k="addr:housenumber" v="11"/>
    <tag k="addr:street" v="Lower Woods And Water Road"/>
    <tag k="addr:state" v="VT"/>
    <tag k="ref:vcgi:esiteid" v="297000"/>
  </node>
  <node id="-176" visible="true" lat="43.20264434" lon="-72.95211792">
    <tag k="addr:city" v="Winhall"/>
    <tag k="addr:housenumber" v="16"/>
    <tag k="addr:street" v="Bromley Knolls Road"/>
    <tag k="addr:state" v="VT"/>
    <tag k="ref:vcgi:esiteid" v="297001"/>
  </node>
  <node id="-177" visible="true" lat="43.20287572" lon="-72.87520644">
    <tag k="addr:city" v="Winhall"/>
    <tag k="addr:housenumber" v="65"/>
    <tag k="addr:street" v="South Road"/>
    <tag k="addr:state" v="VT"/>
    <tag k="ref:vcgi:esiteid" v="297002"/>
  </node>
  <node id="-183" visible="true" lat="43.20226075" lon="-72.941482">
    <tag k="addr:city" v="Winhall"/>
    <tag k="addr:housenumber" v="17"/>
    <tag k="addr:street" v="Lower Woods And Water Road"/>
    <tag k="addr:state" v="VT"/>
    <tag k="ref:vcgi:esiteid" v="297008"/>
  </node>
  <node id="-188" visible="true" lat="43.2016983" lon="-72.94348144">
    <tag k="addr:city" v="Winhall"/>
    <tag k="addr:housenumber" v="39"/>
    <tag k="addr:street" v="Upper Woods And Water Road"/>
    <tag k="addr:state" v="VT"/>
    <tag k="ref:vcgi:esiteid" v="297013"/>
  </node>
  <node id="-191" visible="true" lat="43.20135565" lon="-72.99658245">
    <tag k="addr:city" v="Winhall"/>
    <tag k="addr:housenumber" v="28"/>
    <tag k="addr:street" v="Deep Woods Road"/>
    <tag k="addr:state" v="VT"/>
    <tag k="ref:vcgi:esiteid" v="297016"/>
  </node>
  <node id="-202" visible="true" lat="43.20096969" lon="-72.94380188">
    <tag k="addr:city" v="Winhall"/>
    <tag k="addr:housenumber" v="42"/>
    <tag k="addr:street" v="Upper Woods And Water Road"/>
    <tag k="addr:state" v="VT"/>
    <tag k="ref:vcgi:esiteid" v="297027"/>
  </node>
  <node id="-207" visible="true" lat="43.20071029" lon="-72.87597656">
    <tag k="addr:city" v="Winhall"/>
    <tag k="addr:housenumber" v="26"/>
    <tag k="addr:street" v="Read Road"/>
    <tag k="addr:state" v="VT"/>
    <tag k="ref:vcgi:esiteid" v="297032"/>
  </node>
  <node id="-210" visible="true" lat="43.20007607" lon="-72.99683471">
    <tag k="addr:city" v="Winhall"/>
    <tag k="addr:housenumber" v="21"/>
    <tag k="addr:street" v="Deep Woods Circle"/>
    <tag k="addr:state" v="VT"/>
    <tag k="ref:vcgi:esiteid" v="297035"/>
  </node>
  <node id="-211" visible="true" lat="43.20044214" lon="-72.8763318">
    <tag k="addr:city" v="Winhall"/>
    <tag k="addr:housenumber" v="27"/>
    <tag k="addr:street" v="Read Road"/>
    <tag k="addr:state" v="VT"/>
    <tag k="ref:vcgi:esiteid" v="297036"/>
  </node>
  <node id="-213" visible="true" lat="43.20019149" lon="-72.87516021">
    <tag k="addr:city" v="Winhall"/>
    <tag k="addr:housenumber" v="21"/>
    <tag k="addr:street" v="Read Road"/>
    <tag k="addr:state" v="VT"/>
    <tag k="ref:vcgi:esiteid" v="297038"/>
  </node>
  <node id="-214" visible="true" lat="43.19971031" lon="-72.99663954">
    <tag k="addr:city" v="Winhall"/>
    <tag k="addr:housenumber" v="19"/>
    <tag k="addr:street" v="Deep Woods Circle"/>
    <tag k="addr:state" v="VT"/>
    <tag k="ref:vcgi:esiteid" v="297039"/>
  </node>
  <node id="-215" visible="true" lat="43.20011901" lon="-72.87216949">
    <tag k="addr:city" v="Winhall"/>
    <tag k="addr:housenumber" v="6"/>
    <tag k="addr:street" v="Read Road"/>
    <tag k="addr:state" v="VT"/>
    <tag k="ref:vcgi:esiteid" v="297040"/>
  </node>
  <node id="-219" visible="true" lat="43.19968414" lon="-72.86330413">
    <tag k="addr:city" v="Winhall"/>
    <tag k="addr:housenumber" v="555"/>
    <tag k="addr:street" v="Winhall Hollow Road"/>
    <tag k="addr:state" v="VT"/>
    <tag k="ref:vcgi:esiteid" v="297044"/>
  </node>
  <node id="-225" visible="true" lat="43.19883346" lon="-72.86706542">
    <tag k="addr:city" v="Winhall"/>
    <tag k="addr:housenumber" v="13"/>
    <tag k="addr:street" v="South Road"/>
    <tag k="addr:state" v="VT"/>
    <tag k="ref:vcgi:esiteid" v="297050"/>
  </node>
  <node id="-227" visible="true" lat="43.19868681" lon="-72.86329194">
    <tag k="addr:city" v="Winhall"/>
    <tag k="addr:housenumber" v="553"/>
    <tag k="addr:street" v="Winhall Hollow Road"/>
    <tag k="addr:state" v="VT"/>
    <tag k="ref:vcgi:esiteid" v="297052"/>
  </node>
  <node id="-228" visible="true" lat="43.19808143" lon="-72.9998111">
    <tag k="addr:city" v="Winhall"/>
    <tag k="addr:housenumber" v="21"/>
    <tag k="addr:street" v="Hoyt Road"/>
    <tag k="addr:state" v="VT"/>
    <tag k="ref:vcgi:esiteid" v="297053"/>
  </node>
  <node id="-230" visible="true" lat="43.19702357" lon="-72.86272348">
    <tag k="addr:city" v="Winhall"/>
    <tag k="addr:housenumber" v="8"/>
    <tag k="addr:street" v="Spring Hill Road"/>
    <tag k="addr:state" v="VT"/>
    <tag k="ref:vcgi:esiteid" v="297055"/>
  </node>
  <node id="-231" visible="true" lat="43.19644935" lon="-72.86629001">
    <tag k="addr:city" v="Winhall"/>
    <tag k="addr:housenumber" v="523"/>
    <tag k="addr:street" v="Winhall Hollow Road"/>
    <tag k="addr:state" v="VT"/>
    <tag k="ref:vcgi:esiteid" v="297056"/>
  </node>
  <node id="-232" visible="true" lat="43.1954956" lon="-72.96292114">
    <tag k="addr:city" v="Winhall"/>
    <tag k="addr:housenumber" v="17"/>
    <tag k="addr:street" v="Houston Road"/>
    <tag k="addr:state" v="VT"/>
    <tag k="ref:vcgi:esiteid" v="297058"/>
  </node>
  <node id="-233" visible="true" lat="43.19520187" lon="-73.00113678">
    <tag k="addr:city" v="Winhall"/>
    <tag k="addr:housenumber" v="34"/>
    <tag k="addr:street" v="Tollgate Road"/>
    <tag k="addr:state" v="VT"/>
    <tag k="ref:vcgi:esiteid" v="297059"/>
  </node>
  <node id="-243" visible="true" lat="43.1943162" lon="-72.9655175">
    <tag k="addr:city" v="Winhall"/>
    <tag k="addr:housenumber" v="22"/>
    <tag k="addr:street" v="Sylvan Ridge Road"/>
    <tag k="addr:state" v="VT"/>
    <tag k="ref:vcgi:esiteid" v="297069"/>
  </node>
  <node id="-245" visible="true" lat="43.19430923" lon="-72.96327972">
    <tag k="addr:city" v="Winhall"/>
    <tag k="addr:housenumber" v="11"/>
    <tag k="addr:street" v="Rocky Road"/>
    <tag k="addr:state" v="VT"/>
    <tag k="ref:vcgi:esiteid" v="297071"/>
  </node>
  <node id="-248" visible="true" lat="43.19387427" lon="-73.00130749">
    <tag k="addr:city" v="Winhall"/>
    <tag k="addr:housenumber" v="33"/>
    <tag k="addr:street" v="Tollgate Road"/>
    <tag k="addr:state" v="VT"/>
    <tag k="ref:vcgi:esiteid" v="297074"/>
  </node>
  <node id="-249" visible="true" lat="43.19392776" lon="-72.99865722">
    <tag k="addr:city" v="Winhall"/>
    <tag k="addr:housenumber" v="19"/>
    <tag k="addr:street" v="Tollgate Road"/>
    <tag k="addr:state" v="VT"/>
    <tag k="ref:vcgi:esiteid" v="297075"/>
  </node>
  <node id="-251" visible="true" lat="43.19387054" lon="-72.99980163">
    <tag k="addr:city" v="Winhall"/>
    <tag k="addr:housenumber" v="25"/>
    <tag k="addr:street" v="Tollgate Road"/>
    <tag k="addr:state" v="VT"/>
    <tag k="ref:vcgi:esiteid" v="297078"/>
  </node>
  <node id="-253" visible="true" lat="43.19382476" lon="-72.96205902">
    <tag k="addr:city" v="Winhall"/>
    <tag k="addr:housenumber" v="10"/>
    <tag k="addr:street" v="Rocky Road"/>
    <tag k="addr:state" v="VT"/>
    <tag k="ref:vcgi:esiteid" v="297080"/>
  </node>
  <node id="-259" visible="true" lat="43.19335174" lon="-72.96497344">
    <tag k="addr:city" v="Winhall"/>
    <tag k="addr:housenumber" v="31"/>
    <tag k="addr:street" v="Sylvan Ridge Road"/>
    <tag k="addr:state" v="VT"/>
    <tag k="ref:vcgi:esiteid" v="297086"/>
  </node>
  <node id="-261" visible="true" lat="43.19294769" lon="-72.99929447">
    <tag k="addr:city" v="Winhall"/>
    <tag k="addr:housenumber" v="24"/>
    <tag k="addr:street" v="Old Peru Road"/>
    <tag k="addr:state" v="VT"/>
    <tag k="ref:vcgi:esiteid" v="297088"/>
  </node>
  <node id="-263" visible="true" lat="43.19304275" lon="-72.96325683">
    <tag k="addr:city" v="Winhall"/>
    <tag k="addr:housenumber" v="8"/>
    <tag k="addr:street" v="Rocky Road"/>
    <tag k="addr:state" v="VT"/>
    <tag k="ref:vcgi:esiteid" v="297090"/>
  </node>
  <node id="-265" visible="true" lat="43.19272994" lon="-72.99704742">
    <tag k="addr:city" v="Winhall"/>
    <tag k="addr:housenumber" v="52"/>
    <tag k="addr:street" v="Vermont Route 11 30"/>
    <tag k="addr:state" v="VT"/>
    <tag k="ref:vcgi:esiteid" v="297092"/>
  </node>
  <node id="-267" visible="true" lat="43.19260772" lon="-72.99832667">
    <tag k="addr:city" v="Winhall"/>
    <tag k="addr:housenumber" v="43"/>
    <tag k="addr:street" v="Vermont Route 11 30"/>
    <tag k="addr:state" v="VT"/>
    <tag k="ref:vcgi:esiteid" v="297094"/>
  </node>
  <node id="-268" visible="true" lat="43.19260025" lon="-73.00032806">
    <tag k="addr:city" v="Winhall"/>
    <tag k="addr:housenumber" v="26"/>
    <tag k="addr:street" v="Old Peru Road"/>
    <tag k="addr:state" v="VT"/>
    <tag k="ref:vcgi:esiteid" v="297095"/>
  </node>
  <node id="-269" visible="true" lat="43.19270706" lon="-72.96598815">
    <tag k="addr:city" v="Winhall"/>
    <tag k="addr:housenumber" v="34"/>
    <tag k="addr:street" v="Sylvan Ridge Road"/>
    <tag k="addr:state" v="VT"/>
    <tag k="ref:vcgi:esiteid" v="297096"/>
  </node>
  <node id="-272" visible="true" lat="43.19258499" lon="-72.96218109">
    <tag k="addr:city" v="Winhall"/>
    <tag k="addr:housenumber" v="57"/>
    <tag k="addr:street" v="Sylvan Ridge Road"/>
    <tag k="addr:state" v="VT"/>
    <tag k="ref:vcgi:esiteid" v="297099"/>
  </node>
  <node id="-276" visible="true" lat="43.19252395" lon="-72.96150207">
    <tag k="addr:city" v="Winhall"/>
    <tag k="addr:housenumber" v="59"/>
    <tag k="addr:street" v="Sylvan Ridge Road"/>
    <tag k="addr:state" v="VT"/>
    <tag k="ref:vcgi:esiteid" v="297103"/>
  </node>
  <node id="-279" visible="true" lat="43.19253209" lon="-72.86703252">
    <tag k="addr:city" v="Winhall"/>
    <tag k="addr:housenumber" v="506"/>
    <tag k="addr:street" v="Winhall Hollow Road"/>
    <tag k="addr:state" v="VT"/>
    <tag k="ref:vcgi:esiteid" v="297106"/>
  </node>
  <node id="-281" visible="true" lat="43.1921043" lon="-73.00238851">
    <tag k="addr:city" v="Winhall"/>
    <tag k="addr:housenumber" v="662"/>
    <tag k="addr:street" v="New Ireland Road"/>
    <tag k="addr:state" v="VT"/>
    <tag k="ref:vcgi:esiteid" v="297108"/>
  </node>
  <node id="-285" visible="true" lat="43.19146132" lon="-73.00233349">
    <tag k="addr:city" v="Winhall"/>
    <tag k="addr:housenumber" v="660"/>
    <tag k="addr:street" v="New Ireland Road"/>
    <tag k="addr:state" v="VT"/>
    <tag k="ref:vcgi:esiteid" v="297112"/>
  </node>
  <node id="-286" visible="true" lat="43.1921451" lon="-72.96428494">
    <tag k="addr:city" v="Winhall"/>
    <tag k="addr:housenumber" v="45"/>
    <tag k="addr:street" v="Sylvan Ridge Road"/>
    <tag k="addr:state" v="VT"/>
    <tag k="ref:vcgi:esiteid" v="297113"/>
  </node>
  <node id="-289" visible="true" lat="43.19174575" lon="-73.00067138">
    <tag k="addr:city" v="Winhall"/>
    <tag k="addr:housenumber" v="28"/>
    <tag k="addr:street" v="Old Peru Road"/>
    <tag k="addr:state" v="VT"/>
    <tag k="ref:vcgi:esiteid" v="297116"/>
  </node>
  <node id="-293" visible="true" lat="43.19173431" lon="-72.96134948">
    <tag k="addr:city" v="Winhall"/>
    <tag k="addr:housenumber" v="62"/>
    <tag k="addr:street" v="Sylvan Ridge Road"/>
    <tag k="addr:state" v="VT"/>
    <tag k="ref:vcgi:esiteid" v="297120"/>
  </node>
  <node id="-295" visible="true" lat="43.19147872" lon="-73.00059509">
    <tag k="addr:city" v="Winhall"/>
    <tag k="addr:housenumber" v="27"/>
    <tag k="addr:street" v="Old Peru Road"/>
    <tag k="addr:state" v="VT"/>
    <tag k="ref:vcgi:esiteid" v="297122"/>
  </node>
  <node id="-304" visible="true" lat="43.19105529" lon="-73.00071716">
    <tag k="addr:city" v="Winhall"/>
    <tag k="addr:housenumber" v="21"/>
    <tag k="addr:street" v="Old Peru Road"/>
    <tag k="addr:state" v="VT"/>
    <tag k="ref:vcgi:esiteid" v="297131"/>
  </node>
  <node id="-306" visible="true" lat="43.19097654" lon="-72.99910441">
    <tag k="addr:city" v="Winhall"/>
    <tag k="addr:housenumber" v="32"/>
    <tag k="addr:street" v="Vermont Route 11 30"/>
    <tag k="addr:state" v="VT"/>
    <tag k="ref:vcgi:esiteid" v="297133"/>
  </node>
  <node id="-314" visible="true" lat="43.19041533" lon="-73.00104051">
    <tag k="addr:city" v="Winhall"/>
    <tag k="addr:housenumber" v="17"/>
    <tag k="addr:street" v="Old Peru Road"/>
    <tag k="addr:state" v="VT"/>
    <tag k="ref:vcgi:esiteid" v="297141"/>
  </node>
  <node id="-320" visible="true" lat="43.19002912" lon="-73.00172425">
    <tag k="addr:city" v="Winhall"/>
    <tag k="addr:housenumber" v="15"/>
    <tag k="addr:street" v="Old Peru Road"/>
    <tag k="addr:state" v="VT"/>
    <tag k="ref:vcgi:esiteid" v="297147"/>
  </node>
  <node id="-338" visible="true" lat="43.18751144" lon="-72.93571472">
    <tag k="addr:city" v="Winhall"/>
    <tag k="addr:housenumber" v="20"/>
    <tag k="addr:street" v="Old Route 30"/>
    <tag k="addr:state" v="VT"/>
    <tag k="ref:vcgi:esiteid" v="297165"/>
  </node>
  <node id="-342" visible="true" lat="43.1870613" lon="-72.94312286">
    <tag k="addr:city" v="Winhall"/>
    <tag k="addr:housenumber" v="36"/>
    <tag k="addr:street" v="Highwood Road"/>
    <tag k="addr:state" v="VT"/>
    <tag k="ref:vcgi:esiteid" v="297169"/>
  </node>
  <node id="-344" visible="true" lat="43.1869403" lon="-72.87121013">
    <tag k="addr:city" v="Winhall"/>
    <tag k="addr:housenumber" v="457"/>
    <tag k="addr:street" v="Winhall Hollow Road"/>
    <tag k="addr:state" v="VT"/>
    <tag k="ref:vcgi:esiteid" v="297171"/>
  </node>
  <node id="-347" visible="true" lat="43.18617248" lon="-72.93528747">
    <tag k="addr:city" v="Winhall"/>
    <tag k="addr:housenumber" v="9"/>
    <tag k="addr:street" v="Old Route 30"/>
    <tag k="addr:state" v="VT"/>
    <tag k="ref:vcgi:esiteid" v="297174"/>
  </node>
  <node id="-348" visible="true" lat="43.18608856" lon="-72.93656921">
    <tag k="addr:city" v="Winhall"/>
    <tag k="addr:housenumber" v="1"/>
    <tag k="addr:street" v="Highwood Road"/>
    <tag k="addr:state" v="VT"/>
    <tag k="ref:vcgi:esiteid" v="297175"/>
  </node>
  <node id="-353" visible="true" lat="43.18443679" lon="-72.89034271">
    <tag k="addr:city" v="Winhall"/>
    <tag k="addr:housenumber" v="303"/>
    <tag k="addr:street" v="French Hollow Road"/>
    <tag k="addr:state" v="VT"/>
    <tag k="ref:vcgi:esiteid" v="297181"/>
  </node>
  <node id="-358" visible="true" lat="43.18305206" lon="-72.88868713">
    <tag k="addr:city" v="Winhall"/>
    <tag k="addr:housenumber" v="305"/>
    <tag k="addr:street" v="French Hollow Road"/>
    <tag k="addr:state" v="VT"/>
    <tag k="ref:vcgi:esiteid" v="297186"/>
  </node>
  <node id="-360" visible="true" lat="43.18295288" lon="-72.8953247">
    <tag k="addr:city" v="Winhall"/>
    <tag k="addr:housenumber" v="275"/>
    <tag k="addr:street" v="French Hollow Road"/>
    <tag k="addr:state" v="VT"/>
    <tag k="ref:vcgi:esiteid" v="297188"/>
  </node>
  <node id="-362" visible="true" lat="43.18232726" lon="-72.89376068">
    <tag k="addr:city" v="Winhall"/>
    <tag k="addr:housenumber" v="284"/>
    <tag k="addr:street" v="French Hollow Road"/>
    <tag k="addr:state" v="VT"/>
    <tag k="ref:vcgi:esiteid" v="297190"/>
  </node>
  <node id="-363" visible="true" lat="43.18229675" lon="-72.89083099">
    <tag k="addr:city" v="Winhall"/>
    <tag k="addr:housenumber" v="300"/>
    <tag k="addr:street" v="French Hollow Road"/>
    <tag k="addr:state" v="VT"/>
    <tag k="ref:vcgi:esiteid" v="297191"/>
  </node>
  <node id="-364" visible="true" lat="43.1821289" lon="-72.87908935">
    <tag k="addr:city" v="Winhall"/>
    <tag k="addr:housenumber" v="403"/>
    <tag k="addr:street" v="Winhall Hollow Road"/>
    <tag k="addr:state" v="VT"/>
    <tag k="ref:vcgi:esiteid" v="297192"/>
  </node>
  <node id="-365" visible="true" lat="43.18201064" lon="-72.89169311">
    <tag k="addr:city" v="Winhall"/>
    <tag k="addr:housenumber" v="294"/>
    <tag k="addr:street" v="French Hollow Road"/>
    <tag k="addr:state" v="VT"/>
    <tag k="ref:vcgi:esiteid" v="297193"/>
  </node>
  <node id="-366" visible="true" lat="43.18170547" lon="-72.92995452">
    <tag k="addr:city" v="Winhall"/>
    <tag k="addr:housenumber" v="29"/>
    <tag k="addr:street" v="Capen Road"/>
    <tag k="addr:state" v="VT"/>
    <tag k="ref:vcgi:esiteid" v="297194"/>
  </node>
  <node id="-369" visible="true" lat="43.18128585" lon="-72.87604522">
    <tag k="addr:city" v="Winhall"/>
    <tag k="addr:housenumber" v="412"/>
    <tag k="addr:street" v="Winhall Hollow Road"/>
    <tag k="addr:state" v="VT"/>
    <tag k="ref:vcgi:esiteid" v="297197"/>
  </node>
  <node id="-370" visible="true" lat="43.18125534" lon="-72.87709045">
    <tag k="addr:city" v="Winhall"/>
    <tag k="addr:housenumber" v="408"/>
    <tag k="addr:street" v="Winhall Hollow Road"/>
    <tag k="addr:state" v="VT"/>
    <tag k="ref:vcgi:esiteid" v="297198"/>
  </node>
  <node id="-371" visible="true" lat="43.18121337" lon="-72.88904571">
    <tag k="addr:city" v="Winhall"/>
    <tag k="addr:housenumber" v="310"/>
    <tag k="addr:street" v="French Hollow Road"/>
    <tag k="addr:state" v="VT"/>
    <tag k="ref:vcgi:esiteid" v="297199"/>
  </node>
  <node id="-373" visible="true" lat="43.18096539" lon="-72.88758565">
    <tag k="addr:city" v="Winhall"/>
    <tag k="addr:housenumber" v="318"/>
    <tag k="addr:street" v="French Hollow Road"/>
    <tag k="addr:state" v="VT"/>
    <tag k="ref:vcgi:esiteid" v="297201"/>
  </node>
  <node id="-374" visible="true" lat="43.18103408" lon="-72.89073181">
    <tag k="addr:city" v="Winhall"/>
    <tag k="addr:housenumber" v="10"/>
    <tag k="addr:street" v="Deeryard Road"/>
    <tag k="addr:state" v="VT"/>
    <tag k="ref:vcgi:esiteid" v="297202"/>
  </node>
  <node id="-375" visible="true" lat="43.18102645" lon="-72.88204193">
    <tag k="addr:city" v="Winhall"/>
    <tag k="addr:housenumber" v="383"/>
    <tag k="addr:street" v="Winhall Hollow Road"/>
    <tag k="addr:state" v="VT"/>
    <tag k="ref:vcgi:esiteid" v="297203"/>
  </node>
  <node id="-376" visible="true" lat="43.18054199" lon="-72.92950439">
    <tag k="addr:city" v="Winhall"/>
    <tag k="addr:housenumber" v="21"/>
    <tag k="addr:street" v="Capen Road"/>
    <tag k="addr:state" v="VT"/>
    <tag k="ref:vcgi:esiteid" v="297204"/>
  </node>
  <node id="-377" visible="true" lat="43.18055725" lon="-72.8820877">
    <tag k="addr:city" v="Winhall"/>
    <tag k="addr:housenumber" v="381"/>
    <tag k="addr:street" v="Winhall Hollow Road"/>
    <tag k="addr:state" v="VT"/>
    <tag k="ref:vcgi:esiteid" v="297206"/>
  </node>
  <node id="-379" visible="true" lat="43.18035125" lon="-72.88972473">
    <tag k="addr:city" v="Winhall"/>
    <tag k="addr:housenumber" v="9"/>
    <tag k="addr:street" v="Deeryard Road"/>
    <tag k="addr:state" v="VT"/>
    <tag k="ref:vcgi:esiteid" v="297208"/>
  </node>
  <node id="-381" visible="true" lat="43.17991256" lon="-72.92919921">
    <tag k="addr:city" v="Winhall"/>
    <tag k="addr:housenumber" v="17"/>
    <tag k="addr:street" v="Capen Road"/>
    <tag k="addr:state" v="VT"/>
    <tag k="ref:vcgi:esiteid" v="297210"/>
  </node>
  <node id="-383" visible="true" lat="43.17979049" lon="-72.88050079">
    <tag k="addr:city" v="Winhall"/>
    <tag k="addr:housenumber" v="386"/>
    <tag k="addr:street" v="Winhall Hollow Road"/>
    <tag k="addr:state" v="VT"/>
    <tag k="ref:vcgi:esiteid" v="297212"/>
  </node>
  <node id="-384" visible="true" lat="43.1797142" lon="-72.87641143">
    <tag k="addr:city" v="Winhall"/>
    <tag k="addr:housenumber" v="11"/>
    <tag k="addr:street" v="Smith Meadows Road"/>
    <tag k="addr:state" v="VT"/>
    <tag k="ref:vcgi:esiteid" v="297213"/>
  </node>
  <node id="-385" visible="true" lat="43.1796379" lon="-72.87511444">
    <tag k="addr:city" v="Winhall"/>
    <tag k="addr:housenumber" v="21"/>
    <tag k="addr:street" v="Smith Meadows Road"/>
    <tag k="addr:state" v="VT"/>
    <tag k="ref:vcgi:esiteid" v="297214"/>
  </node>
  <node id="-387" visible="true" lat="43.17956161" lon="-72.87805175">
    <tag k="addr:city" v="Winhall"/>
    <tag k="addr:housenumber" v="8"/>
    <tag k="addr:street" v="Smith Meadows Road"/>
    <tag k="addr:state" v="VT"/>
    <tag k="ref:vcgi:esiteid" v="297216"/>
  </node>
  <node id="-389" visible="true" lat="43.17927932" lon="-72.8820877">
    <tag k="addr:city" v="Winhall"/>
    <tag k="addr:housenumber" v="374"/>
    <tag k="addr:street" v="Winhall Hollow Road"/>
    <tag k="addr:state" v="VT"/>
    <tag k="ref:vcgi:esiteid" v="297218"/>
  </node>
  <node id="-391" visible="true" lat="43.17889404" lon="-72.88329315">
    <tag k="addr:city" v="Winhall"/>
    <tag k="addr:housenumber" v="366"/>
    <tag k="addr:street" v="Winhall Hollow Road"/>
    <tag k="addr:state" v="VT"/>
    <tag k="ref:vcgi:esiteid" v="297220"/>
  </node>
  <node id="-392" visible="true" lat="43.17799377" lon="-72.92829131">
    <tag k="addr:city" v="Winhall"/>
    <tag k="addr:housenumber" v="1"/>
    <tag k="addr:street" v="Capen Road"/>
    <tag k="addr:state" v="VT"/>
    <tag k="ref:vcgi:esiteid" v="297221"/>
  </node>
  <node id="-400" visible="true" lat="43.17464105" lon="-72.92425448">
    <tag k="addr:city" v="Winhall"/>
    <tag k="addr:housenumber" v="2"/>
    <tag k="addr:street" v="Old Country Road"/>
    <tag k="addr:state" v="VT"/>
    <tag k="ref:vcgi:esiteid" v="297229"/>
  </node>
  <node id="-407" visible="true" lat="43.17281858" lon="-72.920366">
    <tag k="addr:city" v="Winhall"/>
    <tag k="addr:housenumber" v="9"/>
    <tag k="addr:street" v="Beaver Street"/>
    <tag k="addr:state" v="VT"/>
    <tag k="ref:vcgi:esiteid" v="297236"/>
  </node>
  <node id="-410" visible="true" lat="43.17250442" lon="-72.92197418">
    <tag k="addr:city" v="Winhall"/>
    <tag k="addr:housenumber" v="1"/>
    <tag k="addr:street" v="Beaver Street"/>
    <tag k="addr:state" v="VT"/>
    <tag k="ref:vcgi:esiteid" v="297239"/>
  </node>
  <node id="-411" visible="true" lat="43.17251887" lon="-72.92076556">
    <tag k="addr:city" v="Winhall"/>
    <tag k="addr:housenumber" v="7"/>
    <tag k="addr:street" v="Beaver Street"/>
    <tag k="addr:state" v="VT"/>
    <tag k="ref:vcgi:esiteid" v="297240"/>
  </node>
  <node id="-416" visible="true" lat="43.171772" lon="-72.92132568">
    <tag k="addr:city" v="Winhall"/>
    <tag k="addr:housenumber" v="2"/>
    <tag k="addr:street" v="Beaver Street"/>
    <tag k="addr:state" v="VT"/>
    <tag k="ref:vcgi:esiteid" v="297245"/>
  </node>
  <node id="-422" visible="true" lat="43.17105118" lon="-72.9207252">
    <tag k="addr:city" v="Winhall"/>
    <tag k="addr:housenumber" v="8"/>
    <tag k="addr:street" v="Deer Street"/>
    <tag k="addr:state" v="VT"/>
    <tag k="ref:vcgi:esiteid" v="297251"/>
  </node>
  <node id="-425" visible="true" lat="43.17062327" lon="-72.92051966">
    <tag k="addr:city" v="Winhall"/>
    <tag k="addr:housenumber" v="10"/>
    <tag k="addr:street" v="Deer Street"/>
    <tag k="addr:state" v="VT"/>
    <tag k="ref:vcgi:esiteid" v="297254"/>
  </node>
  <node id="-430" visible="true" lat="43.1700859" lon="-72.92068481">
    <tag k="addr:city" v="Winhall"/>
    <tag k="addr:housenumber" v="1"/>
    <tag k="addr:street" v="Old Town Road"/>
    <tag k="addr:state" v="VT"/>
    <tag k="ref:vcgi:esiteid" v="297259"/>
  </node>
  <node id="-434" visible="true" lat="43.16963046" lon="-72.92049876">
    <tag k="addr:city" v="Winhall"/>
    <tag k="addr:housenumber" v="3"/>
    <tag k="addr:street" v="Old Town Road"/>
    <tag k="addr:state" v="VT"/>
    <tag k="ref:vcgi:esiteid" v="297263"/>
  </node>
  <node id="-435" visible="true" lat="43.16962091" lon="-72.92107746">
    <tag k="addr:city" v="Winhall"/>
    <tag k="addr:housenumber" v="2"/>
    <tag k="addr:street" v="Old Town Road"/>
    <tag k="addr:state" v="VT"/>
    <tag k="ref:vcgi:esiteid" v="297264"/>
  </node>
  <node id="-437" visible="true" lat="43.16926574" lon="-72.92110443">
    <tag k="addr:city" v="Winhall"/>
    <tag k="addr:housenumber" v="4"/>
    <tag k="addr:street" v="Old Town Road"/>
    <tag k="addr:state" v="VT"/>
    <tag k="ref:vcgi:esiteid" v="297266"/>
  </node>
  <node id="-440" visible="true" lat="43.16896819" lon="-72.92002105">
    <tag k="addr:city" v="Winhall"/>
    <tag k="addr:housenumber" v="2"/>
    <tag k="addr:street" v="Golden Triangle"/>
    <tag k="addr:state" v="VT"/>
    <tag k="ref:vcgi:esiteid" v="297269"/>
  </node>
  <node id="-441" visible="true" lat="43.16871261" lon="-72.92095947">
    <tag k="addr:city" v="Winhall"/>
    <tag k="addr:housenumber" v="8"/>
    <tag k="addr:street" v="Old Town Road"/>
    <tag k="addr:state" v="VT"/>
    <tag k="ref:vcgi:esiteid" v="297270"/>
  </node>
  <node id="-442" visible="true" lat="43.16840744" lon="-72.91989898">
    <tag k="addr:city" v="Winhall"/>
    <tag k="addr:housenumber" v="11"/>
    <tag k="addr:street" v="Old Town Road"/>
    <tag k="addr:state" v="VT"/>
    <tag k="ref:vcgi:esiteid" v="297271"/>
  </node>
  <node id="-444" visible="true" lat="43.16810226" lon="-72.91967773">
    <tag k="addr:city" v="Winhall"/>
    <tag k="addr:housenumber" v="13"/>
    <tag k="addr:street" v="Old Town Road"/>
    <tag k="addr:state" v="VT"/>
    <tag k="ref:vcgi:esiteid" v="297273"/>
  </node>
  <node id="-445" visible="true" lat="43.1677742" lon="-72.92082977">
    <tag k="addr:city" v="Winhall"/>
    <tag k="addr:housenumber" v="14"/>
    <tag k="addr:street" v="Old Town Road"/>
    <tag k="addr:state" v="VT"/>
    <tag k="ref:vcgi:esiteid" v="297274"/>
  </node>
  <node id="-447" visible="true" lat="43.16765594" lon="-72.92449188">
    <tag k="addr:city" v="Winhall"/>
    <tag k="addr:housenumber" v="2"/>
    <tag k="addr:street" v="Corey Road"/>
    <tag k="addr:state" v="VT"/>
    <tag k="ref:vcgi:esiteid" v="297276"/>
  </node>
  <node id="-449" visible="true" lat="43.16753005" lon="-72.92529296">
    <tag k="addr:city" v="Winhall"/>
    <tag k="addr:housenumber" v="8"/>
    <tag k="addr:street" v="Corey Road"/>
    <tag k="addr:state" v="VT"/>
    <tag k="ref:vcgi:esiteid" v="297278"/>
  </node>
  <node id="-450" visible="true" lat="43.16748809" lon="-72.92594909">
    <tag k="addr:city" v="Winhall"/>
    <tag k="addr:housenumber" v="10"/>
    <tag k="addr:street" v="Corey Road"/>
    <tag k="addr:state" v="VT"/>
    <tag k="ref:vcgi:esiteid" v="297279"/>
  </node>
  <node id="-451" visible="true" lat="43.16724395" lon="-72.92163085">
    <tag k="addr:city" v="Winhall"/>
    <tag k="addr:housenumber" v="18"/>
    <tag k="addr:street" v="Old Town Road"/>
    <tag k="addr:state" v="VT"/>
    <tag k="ref:vcgi:esiteid" v="297280"/>
  </node>
  <node id="-452" visible="true" lat="43.16711807" lon="-72.92489624">
    <tag k="addr:city" v="Winhall"/>
    <tag k="addr:housenumber" v="5"/>
    <tag k="addr:street" v="Corey Road"/>
    <tag k="addr:state" v="VT"/>
    <tag k="ref:vcgi:esiteid" v="297281"/>
  </node>
  <node id="-484" visible="true" lat="43.1629087" lon="-72.92497054">
    <tag k="addr:city" v="Winhall"/>
    <tag k="addr:housenumber" v="1"/>
    <tag k="addr:street" v="Jackson Hill Road"/>
    <tag k="addr:state" v="VT"/>
    <tag k="ref:vcgi:esiteid" v="297313"/>
  </node>
  <node id="-499" visible="true" lat="43.16220474" lon="-72.91716003">
    <tag k="addr:city" v="Winhall"/>
    <tag k="addr:housenumber" v="58"/>
    <tag k="addr:street" v="Old Town Road"/>
    <tag k="addr:state" v="VT"/>
    <tag k="ref:vcgi:esiteid" v="297328"/>
  </node>
  <node id="-501" visible="true" lat="43.16171264" lon="-72.91796875">
    <tag k="addr:city" v="Winhall"/>
    <tag k="addr:housenumber" v="62"/>
    <tag k="addr:street" v="Old Town Road"/>
    <tag k="addr:state" v="VT"/>
    <tag k="ref:vcgi:esiteid" v="297331"/>
  </node>
  <node id="-502" visible="true" lat="43.16176613" lon="-72.91660182">
    <tag k="addr:city" v="Winhall"/>
    <tag k="addr:housenumber" v="64"/>
    <tag k="addr:street" v="Old Town Road"/>
    <tag k="addr:state" v="VT"/>
    <tag k="ref:vcgi:esiteid" v="297332"/>
  </node>
  <node id="-506" visible="true" lat="43.16125651" lon="-72.92188354">
    <tag k="addr:city" v="Winhall"/>
    <tag k="addr:housenumber" v="15"/>
    <tag k="addr:street" v="Stark Farm Road"/>
    <tag k="addr:state" v="VT"/>
    <tag k="ref:vcgi:esiteid" v="297336"/>
  </node>
  <node id="-536" visible="true" lat="43.15780388" lon="-72.92417026">
    <tag k="addr:city" v="Winhall"/>
    <tag k="addr:housenumber" v="2"/>
    <tag k="addr:street" v="Jenks Way"/>
    <tag k="addr:state" v="VT"/>
    <tag k="ref:vcgi:esiteid" v="297366"/>
  </node>
  <node id="-562" visible="true" lat="43.15682153" lon="-72.92383601">
    <tag k="addr:city" v="Winhall"/>
    <tag k="addr:housenumber" v="17"/>
    <tag k="addr:street" v="Jenks Way"/>
    <tag k="addr:state" v="VT"/>
    <tag k="ref:vcgi:esiteid" v="297392"/>
  </node>
  <node id="-577" visible="true" lat="43.1564376" lon="-72.92245529">
    <tag k="addr:city" v="Winhall"/>
    <tag k="addr:housenumber" v="8"/>
    <tag k="addr:street" v="Jenks Compound Road"/>
    <tag k="addr:state" v="VT"/>
    <tag k="ref:vcgi:esiteid" v="297407"/>
  </node>
  <node id="-585" visible="true" lat="43.15626396" lon="-72.92494104">
    <tag k="addr:city" v="Winhall"/>
    <tag k="addr:housenumber" v="19"/>
    <tag k="addr:street" v="Jenks Way"/>
    <tag k="addr:state" v="VT"/>
    <tag k="ref:vcgi:esiteid" v="297415"/>
  </node>
  <node id="-587" visible="true" lat="43.15641784" lon="-72.86606597">
    <tag k="addr:city" v="Winhall"/>
    <tag k="addr:housenumber" v="2"/>
    <tag k="addr:street" v="Greentree Road"/>
    <tag k="addr:state" v="VT"/>
    <tag k="ref:vcgi:esiteid" v="297417"/>
  </node>
  <node id="-715" visible="true" lat="43.14988911" lon="-72.86933202">
    <tag k="addr:city" v="Winhall"/>
    <tag k="addr:housenumber" v="58"/>
    <tag k="addr:street" v="River Road"/>
    <tag k="addr:state" v="VT"/>
    <tag k="ref:vcgi:esiteid" v="297546"/>
  </node>
  <node id="-717" visible="true" lat="43.1494522" lon="-72.90978241">
    <tag k="addr:city" v="Winhall"/>
    <tag k="addr:housenumber" v="221"/>
    <tag k="addr:street" v="Vermont Route 30"/>
    <tag k="addr:state" v="VT"/>
    <tag k="ref:vcgi:esiteid" v="297548"/>
  </node>
  <node id="-743" visible="true" lat="43.14808668" lon="-72.86755268">
    <tag k="addr:city" v="Winhall"/>
    <tag k="addr:housenumber" v="10"/>
    <tag k="addr:street" v="Little York Road"/>
    <tag k="addr:state" v="VT"/>
    <tag k="ref:vcgi:esiteid" v="297574"/>
  </node>
  <node id="-772" visible="true" lat="43.14641379" lon="-72.91399793">
    <tag k="addr:city" v="Winhall"/>
    <tag k="addr:housenumber" v="29"/>
    <tag k="addr:street" v="Blackcherry Ridge Road"/>
    <tag k="addr:state" v="VT"/>
    <tag k="ref:vcgi:esiteid" v="297604"/>
  </node>
  <node id="-783" visible="true" lat="43.14620777" lon="-72.91349139">
    <tag k="addr:city" v="Winhall"/>
    <tag k="addr:housenumber" v="28"/>
    <tag k="addr:street" v="Blackcherry Ridge Road"/>
    <tag k="addr:state" v="VT"/>
    <tag k="ref:vcgi:esiteid" v="297616"/>
  </node>
  <node id="-786" visible="true" lat="43.14621353" lon="-72.86702728">
    <tag k="addr:city" v="Winhall"/>
    <tag k="addr:housenumber" v="11"/>
    <tag k="addr:street" v="Ameden Road"/>
    <tag k="addr:state" v="VT"/>
    <tag k="ref:vcgi:esiteid" v="297619"/>
  </node>
  <node id="-789" visible="true" lat="43.14605331" lon="-72.89694213">
    <tag k="addr:city" v="Winhall"/>
    <tag k="addr:housenumber" v="2"/>
    <tag k="addr:street" v="Lower Taylor Hill Road"/>
    <tag k="addr:state" v="VT"/>
    <tag k="ref:vcgi:esiteid" v="297622"/>
  </node>
  <node id="-808" visible="true" lat="43.14539337" lon="-72.86811065">
    <tag k="addr:city" v="Winhall"/>
    <tag k="addr:housenumber" v="9"/>
    <tag k="addr:street" v="Ameden Road"/>
    <tag k="addr:state" v="VT"/>
    <tag k="ref:vcgi:esiteid" v="297642"/>
  </node>
  <node id="-815" visible="true" lat="43.1450541" lon="-72.86794994">
    <tag k="addr:city" v="Winhall"/>
    <tag k="addr:housenumber" v="8"/>
    <tag k="addr:street" v="Ameden Road"/>
    <tag k="addr:state" v="VT"/>
    <tag k="ref:vcgi:esiteid" v="297649"/>
  </node>
  <node id="-817" visible="true" lat="43.14504147" lon="-72.86835848">
    <tag k="addr:city" v="Winhall"/>
    <tag k="addr:housenumber" v="6"/>
    <tag k="addr:street" v="Ameden Road"/>
    <tag k="addr:state" v="VT"/>
    <tag k="ref:vcgi:esiteid" v="297651"/>
  </node>
  <node id="-831" visible="true" lat="43.14438606" lon="-72.8685213">
    <tag k="addr:city" v="Winhall"/>
    <tag k="addr:housenumber" v="3"/>
    <tag k="addr:street" v="West Hill Road"/>
    <tag k="addr:state" v="VT"/>
    <tag k="ref:vcgi:esiteid" v="297667"/>
  </node>
  <node id="-832" visible="true" lat="43.14457346" lon="-72.86878355">
    <tag k="addr:city" v="Winhall"/>
    <tag k="addr:housenumber" v="1"/>
    <tag k="addr:street" v="West Hill Road"/>
    <tag k="addr:state" v="VT"/>
    <tag k="ref:vcgi:esiteid" v="297668"/>
  </node>
  <node id="-853" visible="true" lat="43.14264582" lon="-72.9216855">
    <tag k="addr:city" v="Winhall"/>
    <tag k="addr:housenumber" v="164"/>
    <tag k="addr:street" v="Kendall Farm Road"/>
    <tag k="addr:state" v="VT"/>
    <tag k="ref:vcgi:esiteid" v="297690"/>
  </node>
  <node id="-854" visible="true" lat="43.1423798" lon="-72.92494003">
    <tag k="addr:city" v="Winhall"/>
    <tag k="addr:housenumber" v="176"/>
    <tag k="addr:street" v="Kendall Farm Road"/>
    <tag k="addr:state" v="VT"/>
    <tag k="ref:vcgi:esiteid" v="297691"/>
  </node>
  <node id="-855" visible="true" lat="43.1423805" lon="-72.92446634">
    <tag k="addr:city" v="Winhall"/>
    <tag k="addr:housenumber" v="174"/>
    <tag k="addr:street" v="Kendall Farm Road"/>
    <tag k="addr:state" v="VT"/>
    <tag k="ref:vcgi:esiteid" v="297692"/>
  </node>
  <node id="-862" visible="true" lat="43.14202007" lon="-72.91596868">
    <tag k="addr:city" v="Winhall"/>
    <tag k="addr:housenumber" v="132"/>
    <tag k="addr:street" v="Kendall Farm Road"/>
    <tag k="addr:state" v="VT"/>
    <tag k="ref:vcgi:esiteid" v="297700"/>
  </node>
  <node id="-872" visible="true" lat="43.14109802" lon="-72.9151535">
    <tag k="addr:city" v="Winhall"/>
    <tag k="addr:housenumber" v="126"/>
    <tag k="addr:street" v="Kendall Farm Road"/>
    <tag k="addr:state" v="VT"/>
    <tag k="ref:vcgi:esiteid" v="297710"/>
  </node>
  <node id="-877" visible="true" lat="43.14059829" lon="-72.86695098">
    <tag k="addr:city" v="Winhall"/>
    <tag k="addr:housenumber" v="15"/>
    <tag k="addr:street" v="Ivy Hill Road"/>
    <tag k="addr:state" v="VT"/>
    <tag k="ref:vcgi:esiteid" v="297715"/>
  </node>
  <node id="-879" visible="true" lat="43.13998794" lon="-72.87150573">
    <tag k="addr:city" v="Winhall"/>
    <tag k="addr:housenumber" v="37"/>
    <tag k="addr:street" v="Jamie Lane"/>
    <tag k="addr:state" v="VT"/>
    <tag k="ref:vcgi:esiteid" v="297717"/>
  </node>
  <node id="-882" visible="true" lat="43.12768595" lon="-72.92561175">
    <tag k="addr:city" v="Winhall"/>
    <tag k="addr:housenumber" v="215"/>
    <tag k="addr:street" v="Lightfoot Camp Road"/>
    <tag k="addr:state" v="VT"/>
    <tag k="ref:vcgi:esiteid" v="297720"/>
  </node>
  <node id="-924" visible="true" lat="43.13676452" lon="-72.87043762">
    <tag k="addr:city" v="Winhall"/>
    <tag k="addr:housenumber" v="19"/>
    <tag k="addr:street" v="Benson Fuller Drive"/>
    <tag k="addr:state" v="VT"/>
    <tag k="ref:vcgi:esiteid" v="297764"/>
  </node>
  <node id="-928" visible="true" lat="43.13639999" lon="-72.86799878">
    <tag k="addr:city" v="Winhall"/>
    <tag k="addr:housenumber" v="20"/>
    <tag k="addr:street" v="Jamie Lane"/>
    <tag k="addr:state" v="VT"/>
    <tag k="ref:vcgi:esiteid" v="297768"/>
  </node>
  <node id="-934" visible="true" lat="43.13643646" lon="-72.87017822">
    <tag k="addr:city" v="Winhall"/>
    <tag k="addr:housenumber" v="21"/>
    <tag k="addr:street" v="Benson Fuller Drive"/>
    <tag k="addr:state" v="VT"/>
    <tag k="ref:vcgi:esiteid" v="297774"/>
  </node>
  <node id="-938" visible="true" lat="43.13620281" lon="-72.89269403">
    <tag k="addr:city" v="Winhall"/>
    <tag k="addr:housenumber" v="146"/>
    <tag k="addr:street" v="Stratton Mountain Access Road"/>
    <tag k="addr:state" v="VT"/>
    <tag k="ref:vcgi:esiteid" v="297778"/>
  </node>
  <node id="-944" visible="true" lat="43.13617324" lon="-72.8689804">
    <tag k="addr:city" v="Winhall"/>
    <tag k="addr:housenumber" v="21"/>
    <tag k="addr:street" v="Jamie Lane"/>
    <tag k="addr:state" v="VT"/>
    <tag k="ref:vcgi:esiteid" v="297784"/>
  </node>
  <node id="-952" visible="true" lat="43.13582229" lon="-72.86966705">
    <tag k="addr:city" v="Winhall"/>
    <tag k="addr:housenumber" v="25"/>
    <tag k="addr:street" v="Benson Fuller Drive"/>
    <tag k="addr:state" v="VT"/>
    <tag k="ref:vcgi:esiteid" v="297792"/>
  </node>
  <node id="-966" visible="true" lat="43.13543701" lon="-72.86938476">
    <tag k="addr:city" v="Winhall"/>
    <tag k="addr:housenumber" v="27"/>
    <tag k="addr:street" v="Benson Fuller Drive"/>
    <tag k="addr:state" v="VT"/>
    <tag k="ref:vcgi:esiteid" v="297806"/>
  </node>
  <node id="-967" visible="true" lat="43.13528264" lon="-72.89347506">
    <tag k="addr:city" v="Winhall"/>
    <tag k="addr:housenumber" v="149"/>
    <tag k="addr:street" v="Stratton Mountain Access Road"/>
    <tag k="addr:state" v="VT"/>
    <tag k="ref:vcgi:esiteid" v="297807"/>
  </node>
  <node id="-982" visible="true" lat="43.1349411" lon="-72.86895751">
    <tag k="addr:city" v="Winhall"/>
    <tag k="addr:housenumber" v="1"/>
    <tag k="addr:street" v="Jamie Lane"/>
    <tag k="addr:state" v="VT"/>
    <tag k="ref:vcgi:esiteid" v="297822"/>
  </node>
  <node id="-989" visible="true" lat="43.13410414" lon="-72.86850998">
    <tag k="addr:city" v="Winhall"/>
    <tag k="addr:housenumber" v="4"/>
    <tag k="addr:street" v="Jamie Lane"/>
    <tag k="addr:state" v="VT"/>
    <tag k="ref:vcgi:esiteid" v="297829"/>
  </node>
  <node id="-994" visible="true" lat="43.13319015" lon="-72.88980865">
    <tag k="addr:city" v="Winhall"/>
    <tag k="addr:housenumber" v="20"/>
    <tag k="addr:street" v="Upper Taylor Hill Road"/>
    <tag k="addr:state" v="VT"/>
    <tag k="ref:vcgi:esiteid" v="297835"/>
  </node>
  <node id="-1001" visible="true" lat="43.13257458" lon="-72.86757504">
    <tag k="addr:city" v="Winhall"/>
    <tag k="addr:housenumber" v="15"/>
    <tag k="addr:street" v="Slippery Fox Road"/>
    <tag k="addr:state" v="VT"/>
    <tag k="ref:vcgi:esiteid" v="297842"/>
  </node>
  <node id="-1013" visible="true" lat="43.13161262" lon="-72.86806027">
    <tag k="addr:city" v="Winhall"/>
    <tag k="addr:housenumber" v="14"/>
    <tag k="addr:street" v="Slippery Fox Road"/>
    <tag k="addr:state" v="VT"/>
    <tag k="ref:vcgi:esiteid" v="297854"/>
  </node>
  <node id="-1076" visible="true" lat="43.12835311" lon="-72.87017822">
    <tag k="addr:city" v="Winhall"/>
    <tag k="addr:housenumber" v="63"/>
    <tag k="addr:street" v="Pearl Buck Drive"/>
    <tag k="addr:state" v="VT"/>
    <tag k="ref:vcgi:esiteid" v="297926"/>
  </node>
  <node id="-1082" visible="true" lat="43.12804231" lon="-72.86918427">
    <tag k="addr:city" v="Winhall"/>
    <tag k="addr:housenumber" v="67"/>
    <tag k="addr:street" v="Pearl Buck Drive"/>
    <tag k="addr:state" v="VT"/>
    <tag k="ref:vcgi:esiteid" v="297932"/>
  </node>
  <node id="-1090" visible="true" lat="43.1274681" lon="-72.87073516">
    <tag k="addr:city" v="Winhall"/>
    <tag k="addr:housenumber" v="66"/>
    <tag k="addr:street" v="Pearl Buck Drive"/>
    <tag k="addr:state" v="VT"/>
    <tag k="ref:vcgi:esiteid" v="297943"/>
  </node>
  <node id="-1201" visible="true" lat="43.12067794" lon="-72.87351989">
    <tag k="addr:city" v="Winhall"/>
    <tag k="addr:housenumber" v="67"/>
    <tag k="addr:street" v="Sugarbush Drive"/>
    <tag k="addr:state" v="VT"/>
    <tag k="ref:vcgi:esiteid" v="298064"/>
  </node>
  <node id="-1203" visible="true" lat="43.12055902" lon="-72.87469104">
    <tag k="addr:city" v="Winhall"/>
    <tag k="addr:housenumber" v="61"/>
    <tag k="addr:street" v="Sugarbush Drive"/>
    <tag k="addr:state" v="VT"/>
    <tag k="ref:vcgi:esiteid" v="298066"/>
  </node>
  <node id="-1206" visible="true" lat="43.12051157" lon="-72.87290924">
    <tag k="addr:city" v="Winhall"/>
    <tag k="addr:housenumber" v="71"/>
    <tag k="addr:street" v="Sugarbush Drive"/>
    <tag k="addr:state" v="VT"/>
    <tag k="ref:vcgi:esiteid" v="298070"/>
  </node>
  <node id="-1207" visible="true" lat="43.12032756" lon="-72.87417037">
    <tag k="addr:city" v="Winhall"/>
    <tag k="addr:housenumber" v="63"/>
    <tag k="addr:street" v="Sugarbush Drive"/>
    <tag k="addr:state" v="VT"/>
    <tag k="ref:vcgi:esiteid" v="298071"/>
  </node>
  <node id="-1209" visible="true" lat="43.12026637" lon="-72.89312587">
    <tag k="addr:city" v="Winhall"/>
    <tag k="addr:housenumber" v="21"/>
    <tag k="addr:street" v="High Meadow Road"/>
    <tag k="addr:state" v="VT"/>
    <tag k="ref:vcgi:esiteid" v="298073"/>
  </node>
  <node id="-1211" visible="true" lat="43.1201968" lon="-72.89262817">
    <tag k="addr:city" v="Winhall"/>
    <tag k="addr:housenumber" v="23"/>
    <tag k="addr:street" v="High Meadow Road"/>
    <tag k="addr:state" v="VT"/>
    <tag k="ref:vcgi:esiteid" v="298075"/>
  </node>
  <node id="-1212" visible="true" lat="43.12011676" lon="-72.89354843">
    <tag k="addr:city" v="Winhall"/>
    <tag k="addr:housenumber" v="19"/>
    <tag k="addr:street" v="High Meadow Road"/>
    <tag k="addr:state" v="VT"/>
    <tag k="ref:vcgi:esiteid" v="298076"/>
  </node>
  <node id="-1214" visible="true" lat="43.11994903" lon="-72.89433511">
    <tag k="addr:city" v="Winhall"/>
    <tag k="addr:housenumber" v="15"/>
    <tag k="addr:street" v="High Meadow Road"/>
    <tag k="addr:state" v="VT"/>
    <tag k="ref:vcgi:esiteid" v="298078"/>
  </node>
  <node id="-1218" visible="true" lat="43.11985748" lon="-72.89477536">
    <tag k="addr:city" v="Winhall"/>
    <tag k="addr:housenumber" v="13"/>
    <tag k="addr:street" v="High Meadow Road"/>
    <tag k="addr:state" v="VT"/>
    <tag k="ref:vcgi:esiteid" v="298082"/>
  </node>
  <node id="-1219" visible="true" lat="43.11994171" lon="-72.87277984">
    <tag k="addr:city" v="Winhall"/>
    <tag k="addr:housenumber" v="70"/>
    <tag k="addr:street" v="Sugarbush Drive"/>
    <tag k="addr:state" v="VT"/>
    <tag k="ref:vcgi:esiteid" v="298083"/>
  </node>
  <node id="-1221" visible="true" lat="43.11972808" lon="-72.91809845">
    <tag k="addr:city" v="Winhall"/>
    <tag k="addr:housenumber" v="34"/>
    <tag k="addr:street" v="Windtree Road"/>
    <tag k="addr:state" v="VT"/>
    <tag k="ref:vcgi:esiteid" v="298085"/>
  </node>
  <node id="-1222" visible="true" lat="43.11973281" lon="-72.8742761">
    <tag k="addr:city" v="Winhall"/>
    <tag k="addr:housenumber" v="64"/>
    <tag k="addr:street" v="Sugarbush Drive"/>
    <tag k="addr:state" v="VT"/>
    <tag k="ref:vcgi:esiteid" v="298086"/>
  </node>
  <node id="-1225" visible="true" lat="43.11952209" lon="-72.91800689">
    <tag k="addr:city" v="Winhall"/>
    <tag k="addr:housenumber" v="32"/>
    <tag k="addr:street" v="Windtree Road"/>
    <tag k="addr:state" v="VT"/>
    <tag k="ref:vcgi:esiteid" v="298090"/>
  </node>
  <node id="-1227" visible="true" lat="43.11959771" lon="-72.87228082">
    <tag k="addr:city" v="Winhall"/>
    <tag k="addr:housenumber" v="3"/>
    <tag k="addr:street" v="Nearing Road"/>
    <tag k="addr:state" v="VT"/>
    <tag k="ref:vcgi:esiteid" v="298092"/>
  </node>
  <node id="-1229" visible="true" lat="43.11944961" lon="-72.9161148">
    <tag k="addr:city" v="Winhall"/>
    <tag k="addr:housenumber" v="19"/>
    <tag k="addr:street" v="Roundtree Road"/>
    <tag k="addr:state" v="VT"/>
    <tag k="ref:vcgi:esiteid" v="298094"/>
  </node>
  <node id="-1230" visible="true" lat="43.11961947" lon="-72.87358148">
    <tag k="addr:city" v="Winhall"/>
    <tag k="addr:housenumber" v="68"/>
    <tag k="addr:street" v="Sugarbush Drive"/>
    <tag k="addr:state" v="VT"/>
    <tag k="ref:vcgi:esiteid" v="298095"/>
  </node>
  <node id="-1231" visible="true" lat="43.11936891" lon="-72.91909904">
    <tag k="addr:city" v="Winhall"/>
    <tag k="addr:housenumber" v="35"/>
    <tag k="addr:street" v="Windtree Road"/>
    <tag k="addr:state" v="VT"/>
    <tag k="ref:vcgi:esiteid" v="298096"/>
  </node>
  <node id="-1233" visible="true" lat="43.11937713" lon="-72.91503906">
    <tag k="addr:city" v="Winhall"/>
    <tag k="addr:housenumber" v="16"/>
    <tag k="addr:street" v="Roundtree Road"/>
    <tag k="addr:state" v="VT"/>
    <tag k="ref:vcgi:esiteid" v="298098"/>
  </node>
  <node id="-1235" visible="true" lat="43.11907577" lon="-72.91580963">
    <tag k="addr:city" v="Winhall"/>
    <tag k="addr:housenumber" v="17"/>
    <tag k="addr:street" v="Roundtree Road"/>
    <tag k="addr:state" v="VT"/>
    <tag k="ref:vcgi:esiteid" v="298100"/>
  </node>
  <node id="-1243" visible="true" lat="43.11897277" lon="-72.91400146">
    <tag k="addr:city" v="Winhall"/>
    <tag k="addr:housenumber" v="13"/>
    <tag k="addr:street" v="West Branch Road"/>
    <tag k="addr:state" v="VT"/>
    <tag k="ref:vcgi:esiteid" v="298110"/>
  </node>
  <node id="-1244" visible="true" lat="43.11893081" lon="-72.91806793">
    <tag k="addr:city" v="Winhall"/>
    <tag k="addr:housenumber" v="30"/>
    <tag k="addr:street" v="Windtree Road"/>
    <tag k="addr:state" v="VT"/>
    <tag k="ref:vcgi:esiteid" v="298111"/>
  </node>
  <node id="-1245" visible="true" lat="43.11912745" lon="-72.87378885">
    <tag k="addr:city" v="Winhall"/>
    <tag k="addr:housenumber" v="16"/>
    <tag k="addr:street" v="Linscott Road"/>
    <tag k="addr:state" v="VT"/>
    <tag k="ref:vcgi:esiteid" v="298112"/>
  </node>
  <node id="-1247" visible="true" lat="43.11901092" lon="-72.87315368">
    <tag k="addr:city" v="Winhall"/>
    <tag k="addr:housenumber" v="7"/>
    <tag k="addr:street" v="Nearing Road"/>
    <tag k="addr:state" v="VT"/>
    <tag k="ref:vcgi:esiteid" v="298115"/>
  </node>
  <node id="-1249" visible="true" lat="43.11898834" lon="-72.91890829">
    <tag k="addr:city" v="Winhall"/>
    <tag k="addr:housenumber" v="33"/>
    <tag k="addr:street" v="Windtree Road"/>
    <tag k="addr:state" v="VT"/>
    <tag k="ref:vcgi:esiteid" v="298117"/>
  </node>
  <node id="-1252" visible="true" lat="43.11878204" lon="-72.91497802">
    <tag k="addr:city" v="Winhall"/>
    <tag k="addr:housenumber" v="14"/>
    <tag k="addr:street" v="Roundtree Road"/>
    <tag k="addr:state" v="VT"/>
    <tag k="ref:vcgi:esiteid" v="298120"/>
  </node>
  <node id="-1255" visible="true" lat="43.11880817" lon="-72.88318772">
    <tag k="addr:city" v="Winhall"/>
    <tag k="addr:housenumber" v="8"/>
    <tag k="addr:street" v="Forest Haunts Road"/>
    <tag k="addr:state" v="VT"/>
    <tag k="ref:vcgi:esiteid" v="298123"/>
  </node>
  <node id="-1257" visible="true" lat="43.11868653" lon="-72.88090385">
    <tag k="addr:city" v="Winhall"/>
    <tag k="addr:housenumber" v="135"/>
    <tag k="addr:street" v="Upper Taylor Hill Road"/>
    <tag k="addr:state" v="VT"/>
    <tag k="ref:vcgi:esiteid" v="298125"/>
  </node>
  <node id="-1259" visible="true" lat="43.11868667" lon="-72.91352844">
    <tag k="addr:city" v="Winhall"/>
    <tag k="addr:housenumber" v="11"/>
    <tag k="addr:street" v="West Branch Road"/>
    <tag k="addr:state" v="VT"/>
    <tag k="ref:vcgi:esiteid" v="298127"/>
  </node>
  <node id="-1262" visible="true" lat="43.11872519" lon="-72.87369924">
    <tag k="addr:city" v="Winhall"/>
    <tag k="addr:housenumber" v="10"/>
    <tag k="addr:street" v="Nearing Road"/>
    <tag k="addr:state" v="VT"/>
    <tag k="ref:vcgi:esiteid" v="298131"/>
  </node>
  <node id="-1263" visible="true" lat="43.11858749" lon="-72.91579437">
    <tag k="addr:city" v="Winhall"/>
    <tag k="addr:housenumber" v="13"/>
    <tag k="addr:street" v="Roundtree Road"/>
    <tag k="addr:state" v="VT"/>
    <tag k="ref:vcgi:esiteid" v="298132"/>
  </node>
  <node id="-1265" visible="true" lat="43.11845174" lon="-72.91787481">
    <tag k="addr:city" v="Winhall"/>
    <tag k="addr:housenumber" v="26"/>
    <tag k="addr:street" v="Windtree Road"/>
    <tag k="addr:state" v="VT"/>
    <tag k="ref:vcgi:esiteid" v="298134"/>
  </node>
  <node id="-1268" visible="true" lat="43.11831283" lon="-72.91326904">
    <tag k="addr:city" v="Winhall"/>
    <tag k="addr:housenumber" v="7"/>
    <tag k="addr:street" v="West Branch Road"/>
    <tag k="addr:state" v="VT"/>
    <tag k="ref:vcgi:esiteid" v="298138"/>
  </node>
  <node id="-1269" visible="true" lat="43.11829757" lon="-72.91474151">
    <tag k="addr:city" v="Winhall"/>
    <tag k="addr:housenumber" v="10"/>
    <tag k="addr:street" v="Roundtree Road"/>
    <tag k="addr:state" v="VT"/>
    <tag k="ref:vcgi:esiteid" v="298139"/>
  </node>
  <node id="-1270" visible="true" lat="43.1184187" lon="-72.91872533">
    <tag k="addr:city" v="Winhall"/>
    <tag k="addr:housenumber" v="31"/>
    <tag k="addr:street" v="Windtree Road"/>
    <tag k="addr:state" v="VT"/>
    <tag k="ref:vcgi:esiteid" v="298140"/>
  </node>
  <node id="-1271" visible="true" lat="43.11841583" lon="-72.87300872">
    <tag k="addr:city" v="Winhall"/>
    <tag k="addr:housenumber" v="13"/>
    <tag k="addr:street" v="Nearing Road"/>
    <tag k="addr:state" v="VT"/>
    <tag k="ref:vcgi:esiteid" v="298141"/>
  </node>
  <node id="-1273" visible="true" lat="43.1181488" lon="-72.92162323">
    <tag k="addr:city" v="Winhall"/>
    <tag k="addr:housenumber" v="48"/>
    <tag k="addr:street" v="West Ridge Road"/>
    <tag k="addr:state" v="VT"/>
    <tag k="ref:vcgi:esiteid" v="298143"/>
  </node>
  <node id="-1274" visible="true" lat="43.11815643" lon="-72.91558837">
    <tag k="addr:city" v="Winhall"/>
    <tag k="addr:housenumber" v="11"/>
    <tag k="addr:street" v="Roundtree Road"/>
    <tag k="addr:state" v="VT"/>
    <tag k="ref:vcgi:esiteid" v="298144"/>
  </node>
  <node id="-1275" visible="true" lat="43.11809164" lon="-72.91746428">
    <tag k="addr:city" v="Winhall"/>
    <tag k="addr:housenumber" v="24"/>
    <tag k="addr:street" v="Windtree Road"/>
    <tag k="addr:state" v="VT"/>
    <tag k="ref:vcgi:esiteid" v="298145"/>
  </node>
  <node id="-1277" visible="true" lat="43.1182383" lon="-72.87400023">
    <tag k="addr:city" v="Winhall"/>
    <tag k="addr:housenumber" v="14"/>
    <tag k="addr:street" v="Nearing Road"/>
    <tag k="addr:state" v="VT"/>
    <tag k="ref:vcgi:esiteid" v="298147"/>
  </node>
  <node id="-1278" visible="true" lat="43.11792432" lon="-72.92249469">
    <tag k="addr:city" v="Winhall"/>
    <tag k="addr:housenumber" v="52"/>
    <tag k="addr:street" v="West Ridge Road"/>
    <tag k="addr:state" v="VT"/>
    <tag k="ref:vcgi:esiteid" v="298148"/>
  </node>
  <node id="-1279" visible="true" lat="43.11786317" lon="-72.91421983">
    <tag k="addr:city" v="Winhall"/>
    <tag k="addr:housenumber" v="6"/>
    <tag k="addr:street" v="Roundtree Road"/>
    <tag k="addr:state" v="VT"/>
    <tag k="ref:vcgi:esiteid" v="298149"/>
  </node>
  <node id="-1280" visible="true" lat="43.11815261" lon="-72.88023376">
    <tag k="addr:city" v="Winhall"/>
    <tag k="addr:housenumber" v="137"/>
    <tag k="addr:street" v="Upper Taylor Hill Road"/>
    <tag k="addr:state" v="VT"/>
    <tag k="ref:vcgi:esiteid" v="298150"/>
  </node>
  <node id="-1285" visible="true" lat="43.11798095" lon="-72.90066528">
    <tag k="addr:city" v="Winhall"/>
    <tag k="addr:housenumber" v="1"/>
    <tag k="addr:street" v="Maple Hill Road"/>
    <tag k="addr:state" v="VT"/>
    <tag k="ref:vcgi:esiteid" v="298156"/>
  </node>
  <node id="-1287" visible="true" lat="43.11786651" lon="-72.91278076">
    <tag k="addr:city" v="Winhall"/>
    <tag k="addr:housenumber" v="12"/>
    <tag k="addr:street" v="North Brookwood Road"/>
    <tag k="addr:state" v="VT"/>
    <tag k="ref:vcgi:esiteid" v="298158"/>
  </node>
  <node id="-1288" visible="true" lat="43.11800672" lon="-72.87295739">
    <tag k="addr:city" v="Winhall"/>
    <tag k="addr:housenumber" v="15"/>
    <tag k="addr:street" v="Nearing Road"/>
    <tag k="addr:state" v="VT"/>
    <tag k="ref:vcgi:esiteid" v="298159"/>
  </node>
  <node id="-1291" visible="true" lat="43.11762902" lon="-72.9184628">
    <tag k="addr:city" v="Winhall"/>
    <tag k="addr:housenumber" v="23"/>
    <tag k="addr:street" v="Windtree Road"/>
    <tag k="addr:state" v="VT"/>
    <tag k="ref:vcgi:esiteid" v="298163"/>
  </node>
  <node id="-1293" visible="true" lat="43.11768341" lon="-72.91535186">
    <tag k="addr:city" v="Winhall"/>
    <tag k="addr:housenumber" v="7"/>
    <tag k="addr:street" v="Roundtree Road"/>
    <tag k="addr:state" v="VT"/>
    <tag k="ref:vcgi:esiteid" v="298165"/>
  </node>
  <node id="-1296" visible="true" lat="43.11751501" lon="-72.91735443">
    <tag k="addr:city" v="Winhall"/>
    <tag k="addr:housenumber" v="22"/>
    <tag k="addr:street" v="Windtree Road"/>
    <tag k="addr:state" v="VT"/>
    <tag k="ref:vcgi:esiteid" v="298168"/>
  </node>
  <node id="-1297" visible="true" lat="43.11782084" lon="-72.87622361">
    <tag k="addr:city" v="Winhall"/>
    <tag k="addr:housenumber" v="33"/>
    <tag k="addr:street" v="Nearing Road"/>
    <tag k="addr:state" v="VT"/>
    <tag k="ref:vcgi:esiteid" v="298169"/>
  </node>
  <node id="-1298" visible="true" lat="43.11741046" lon="-72.92153945">
    <tag k="addr:city" v="Winhall"/>
    <tag k="addr:housenumber" v="44"/>
    <tag k="addr:street" v="West Ridge Road"/>
    <tag k="addr:state" v="VT"/>
    <tag k="ref:vcgi:esiteid" v="298170"/>
  </node>
  <node id="-1300" visible="true" lat="43.11753998" lon="-72.92336597">
    <tag k="addr:city" v="Winhall"/>
    <tag k="addr:housenumber" v="60"/>
    <tag k="addr:street" v="West Ridge Road"/>
    <tag k="addr:state" v="VT"/>
    <tag k="ref:vcgi:esiteid" v="298172"/>
  </node>
  <node id="-1302" visible="true" lat="43.11779605" lon="-72.87565154">
    <tag k="addr:city" v="Winhall"/>
    <tag k="addr:housenumber" v="29"/>
    <tag k="addr:street" v="Nearing Road"/>
    <tag k="addr:state" v="VT"/>
    <tag k="ref:vcgi:esiteid" v="298175"/>
  </node>
  <node id="-1303" visible="true" lat="43.11756515" lon="-72.91110229">
    <tag k="addr:city" v="Winhall"/>
    <tag k="addr:housenumber" v="1"/>
    <tag k="addr:street" v="North Brookwood Road"/>
    <tag k="addr:state" v="VT"/>
    <tag k="ref:vcgi:esiteid" v="298176"/>
  </node>
  <node id="-1306" visible="true" lat="43.11765891" lon="-72.90177601">
    <tag k="addr:city" v="Winhall"/>
    <tag k="addr:housenumber" v="54"/>
    <tag k="addr:street" v="North Branch Road"/>
    <tag k="addr:state" v="VT"/>
    <tag k="ref:vcgi:esiteid" v="298179"/>
  </node>
  <node id="-1307" visible="true" lat="43.1175003" lon="-72.91317749">
    <tag k="addr:city" v="Winhall"/>
    <tag k="addr:housenumber" v="2"/>
    <tag k="addr:street" v="Roundtree Road"/>
    <tag k="addr:state" v="VT"/>
    <tag k="ref:vcgi:esiteid" v="298180"/>
  </node>
  <node id="-1308" visible="true" lat="43.11745452" lon="-72.91177368">
    <tag k="addr:city" v="Winhall"/>
    <tag k="addr:housenumber" v="7"/>
    <tag k="addr:street" v="North Brookwood Road"/>
    <tag k="addr:state" v="VT"/>
    <tag k="ref:vcgi:esiteid" v="298181"/>
  </node>
  <node id="-1310" visible="true" lat="43.11760333" lon="-72.87759247">
    <tag k="addr:city" v="Winhall"/>
    <tag k="addr:housenumber" v="39"/>
    <tag k="addr:street" v="Nearing Road"/>
    <tag k="addr:state" v="VT"/>
    <tag k="ref:vcgi:esiteid" v="298183"/>
  </node>
  <node id="-1312" visible="true" lat="43.11740749" lon="-72.87954093">
    <tag k="addr:city" v="Winhall"/>
    <tag k="addr:housenumber" v="145"/>
    <tag k="addr:street" v="Upper Taylor Hill Road"/>
    <tag k="addr:state" v="VT"/>
    <tag k="ref:vcgi:esiteid" v="298186"/>
  </node>
  <node id="-1313" visible="true" lat="43.11730194" lon="-72.91474151">
    <tag k="addr:city" v="Winhall"/>
    <tag k="addr:housenumber" v="5"/>
    <tag k="addr:street" v="Roundtree Road"/>
    <tag k="addr:state" v="VT"/>
    <tag k="ref:vcgi:esiteid" v="298187"/>
  </node>
  <node id="-1315" visible="true" lat="43.11718047" lon="-72.91831214">
    <tag k="addr:city" v="Winhall"/>
    <tag k="addr:housenumber" v="21"/>
    <tag k="addr:street" v="Windtree Road"/>
    <tag k="addr:state" v="VT"/>
    <tag k="ref:vcgi:esiteid" v="298189"/>
  </node>
  <node id="-1316" visible="true" lat="43.11721801" lon="-72.90940857">
    <tag k="addr:city" v="Winhall"/>
    <tag k="addr:housenumber" v="3"/>
    <tag k="addr:street" v="Quarter Mile Road"/>
    <tag k="addr:state" v="VT"/>
    <tag k="ref:vcgi:esiteid" v="298190"/>
  </node>
  <node id="-1317" visible="true" lat="43.11740371" lon="-72.8734365">
    <tag k="addr:city" v="Winhall"/>
    <tag k="addr:housenumber" v="19"/>
    <tag k="addr:street" v="Nearing Road"/>
    <tag k="addr:state" v="VT"/>
    <tag k="ref:vcgi:esiteid" v="298191"/>
  </node>
  <node id="-1319" visible="true" lat="43.11710683" lon="-72.91400806">
    <tag k="addr:city" v="Winhall"/>
    <tag k="addr:housenumber" v="20"/>
    <tag k="addr:street" v="North Brookwood Road"/>
    <tag k="addr:state" v="VT"/>
    <tag k="ref:vcgi:esiteid" v="298193"/>
  </node>
  <node id="-1321" visible="true" lat="43.1171808" lon="-72.922807">
    <tag k="addr:city" v="Winhall"/>
    <tag k="addr:housenumber" v="57"/>
    <tag k="addr:street" v="West Ridge Road"/>
    <tag k="addr:state" v="VT"/>
    <tag k="ref:vcgi:esiteid" v="298196"/>
  </node>
  <node id="-1322" visible="true" lat="43.11711883" lon="-72.90218353">
    <tag k="addr:city" v="Winhall"/>
    <tag k="addr:housenumber" v="43"/>
    <tag k="addr:street" v="Quarter Mile Road"/>
    <tag k="addr:state" v="VT"/>
    <tag k="ref:vcgi:esiteid" v="298197"/>
  </node>
  <node id="-1323" visible="true" lat="43.11724365" lon="-72.90093976">
    <tag k="addr:city" v="Winhall"/>
    <tag k="addr:housenumber" v="6"/>
    <tag k="addr:street" v="Maple Hill Road"/>
    <tag k="addr:state" v="VT"/>
    <tag k="ref:vcgi:esiteid" v="298199"/>
  </node>
  <node id="-1326" visible="true" lat="43.11700057" lon="-72.91156768">
    <tag k="addr:city" v="Winhall"/>
    <tag k="addr:housenumber" v="6"/>
    <tag k="addr:street" v="Founders Hill Road"/>
    <tag k="addr:state" v="VT"/>
    <tag k="ref:vcgi:esiteid" v="298203"/>
  </node>
  <node id="-1327" visible="true" lat="43.11700057" lon="-72.91114044">
    <tag k="addr:city" v="Winhall"/>
    <tag k="addr:housenumber" v="4"/>
    <tag k="addr:street" v="Founders Hill Road"/>
    <tag k="addr:state" v="VT"/>
    <tag k="ref:vcgi:esiteid" v="298204"/>
  </node>
  <node id="-1329" visible="true" lat="43.11697701" lon="-72.91665052">
    <tag k="addr:city" v="Winhall"/>
    <tag k="addr:housenumber" v="12"/>
    <tag k="addr:street" v="Windtree Road"/>
    <tag k="addr:state" v="VT"/>
    <tag k="ref:vcgi:esiteid" v="298206"/>
  </node>
  <node id="-1331" visible="true" lat="43.11690353" lon="-72.92180121">
    <tag k="addr:city" v="Winhall"/>
    <tag k="addr:housenumber" v="40"/>
    <tag k="addr:street" v="West Ridge Road"/>
    <tag k="addr:state" v="VT"/>
    <tag k="ref:vcgi:esiteid" v="298208"/>
  </node>
  <node id="-1332" visible="true" lat="43.11694717" lon="-72.89999389">
    <tag k="addr:city" v="Winhall"/>
    <tag k="addr:housenumber" v="12"/>
    <tag k="addr:street" v="Maple Hill Road"/>
    <tag k="addr:state" v="VT"/>
    <tag k="ref:vcgi:esiteid" v="298209"/>
  </node>
  <node id="-1335" visible="true" lat="43.11675262" lon="-72.90832519">
    <tag k="addr:city" v="Winhall"/>
    <tag k="addr:housenumber" v="7"/>
    <tag k="addr:street" v="Quarter Mile Road"/>
    <tag k="addr:state" v="VT"/>
    <tag k="ref:vcgi:esiteid" v="298212"/>
  </node>
  <node id="-1337" visible="true" lat="43.11661643" lon="-72.90237664">
    <tag k="addr:city" v="Winhall"/>
    <tag k="addr:housenumber" v="42"/>
    <tag k="addr:street" v="Quarter Mile Road"/>
    <tag k="addr:state" v="VT"/>
    <tag k="ref:vcgi:esiteid" v="298214"/>
  </node>
  <node id="-1338" visible="true" lat="43.11654468" lon="-72.9159461">
    <tag k="addr:city" v="Winhall"/>
    <tag k="addr:housenumber" v="8"/>
    <tag k="addr:street" v="Windtree Road"/>
    <tag k="addr:state" v="VT"/>
    <tag k="ref:vcgi:esiteid" v="298215"/>
  </node>
  <node id="-1339" visible="true" lat="43.1166687" lon="-72.9122467">
    <tag k="addr:city" v="Winhall"/>
    <tag k="addr:housenumber" v="10"/>
    <tag k="addr:street" v="Founders Hill Road"/>
    <tag k="addr:state" v="VT"/>
    <tag k="ref:vcgi:esiteid" v="298216"/>
  </node>
  <node id="-1340" visible="true" lat="43.11660385" lon="-72.92344665">
    <tag k="addr:city" v="Winhall"/>
    <tag k="addr:housenumber" v="69"/>
    <tag k="addr:street" v="West Ridge Road"/>
    <tag k="addr:state" v="VT"/>
    <tag k="ref:vcgi:esiteid" v="298217"/>
  </node>
  <node id="-1341" visible="true" lat="43.11657746" lon="-72.9226289">
    <tag k="addr:city" v="Winhall"/>
    <tag k="addr:housenumber" v="37"/>
    <tag k="addr:street" v="West Ridge Road"/>
    <tag k="addr:state" v="VT"/>
    <tag k="ref:vcgi:esiteid" v="298219"/>
  </node>
  <node id="-1342" visible="true" lat="43.11660385" lon="-72.91291046">
    <tag k="addr:city" v="Winhall"/>
    <tag k="addr:housenumber" v="15"/>
    <tag k="addr:street" v="North Brookwood Road"/>
    <tag k="addr:state" v="VT"/>
    <tag k="ref:vcgi:esiteid" v="298220"/>
  </node>
  <node id="-1343" visible="true" lat="43.11657714" lon="-72.91803741">
    <tag k="addr:city" v="Winhall"/>
    <tag k="addr:housenumber" v="19"/>
    <tag k="addr:street" v="Windtree Road"/>
    <tag k="addr:state" v="VT"/>
    <tag k="ref:vcgi:esiteid" v="298221"/>
  </node>
  <node id="-1344" visible="true" lat="43.11660766" lon="-72.90118408">
    <tag k="addr:city" v="Winhall"/>
    <tag k="addr:housenumber" v="47"/>
    <tag k="addr:street" v="Quarter Mile Road"/>
    <tag k="addr:state" v="VT"/>
    <tag k="ref:vcgi:esiteid" v="298222"/>
  </node>
  <node id="-1345" visible="true" lat="43.11653885" lon="-72.90611162">
    <tag k="addr:city" v="Winhall"/>
    <tag k="addr:housenumber" v="4"/>
    <tag k="addr:street" v="East Round Road"/>
    <tag k="addr:state" v="VT"/>
    <tag k="ref:vcgi:esiteid" v="298223"/>
  </node>
  <node id="-1346" visible="true" lat="43.1164894" lon="-72.9000473">
    <tag k="addr:city" v="Winhall"/>
    <tag k="addr:housenumber" v="20"/>
    <tag k="addr:street" v="Maple Hill Road"/>
    <tag k="addr:state" v="VT"/>
    <tag k="ref:vcgi:esiteid" v="298224"/>
  </node>
  <node id="-1347" visible="true" lat="43.11643218" lon="-72.91555786">
    <tag k="addr:city" v="Winhall"/>
    <tag k="addr:housenumber" v="6"/>
    <tag k="addr:street" v="Windtree Road"/>
    <tag k="addr:state" v="VT"/>
    <tag k="ref:vcgi:esiteid" v="298225"/>
  </node>
  <node id="-1348" visible="true" lat="43.11642142" lon="-72.90091288">
    <tag k="addr:city" v="Winhall"/>
    <tag k="addr:housenumber" v="51"/>
    <tag k="addr:street" v="Quarter Mile Road"/>
    <tag k="addr:state" v="VT"/>
    <tag k="ref:vcgi:esiteid" v="298226"/>
  </node>
  <node id="-1349" visible="true" lat="43.11631033" lon="-72.90759052">
    <tag k="addr:city" v="Winhall"/>
    <tag k="addr:housenumber" v="12"/>
    <tag k="addr:street" v="Quarter Mile Road"/>
    <tag k="addr:state" v="VT"/>
    <tag k="ref:vcgi:esiteid" v="298228"/>
  </node>
  <node id="-1350" visible="true" lat="43.11641693" lon="-72.90930938">
    <tag k="addr:city" v="Winhall"/>
    <tag k="addr:housenumber" v="6"/>
    <tag k="addr:street" v="Quarter Mile Road"/>
    <tag k="addr:state" v="VT"/>
    <tag k="ref:vcgi:esiteid" v="298229"/>
  </node>
  <node id="-1351" visible="true" lat="43.11631082" lon="-72.90800721">
    <tag k="addr:city" v="Winhall"/>
    <tag k="addr:housenumber" v="10"/>
    <tag k="addr:street" v="Quarter Mile Road"/>
    <tag k="addr:state" v="VT"/>
    <tag k="ref:vcgi:esiteid" v="298230"/>
  </node>
  <node id="-1352" visible="true" lat="43.11640287" lon="-72.90411048">
    <tag k="addr:city" v="Winhall"/>
    <tag k="addr:housenumber" v="17"/>
    <tag k="addr:street" v="Middle Ridge Road"/>
    <tag k="addr:state" v="VT"/>
    <tag k="ref:vcgi:esiteid" v="298231"/>
  </node>
  <node id="-1353" visible="true" lat="43.11631586" lon="-72.91723987">
    <tag k="addr:city" v="Winhall"/>
    <tag k="addr:housenumber" v="13"/>
    <tag k="addr:street" v="Windtree Road"/>
    <tag k="addr:state" v="VT"/>
    <tag k="ref:vcgi:esiteid" v="298232"/>
  </node>
  <node id="-1354" visible="true" lat="43.11652661" lon="-72.90708922">
    <tag k="addr:city" v="Winhall"/>
    <tag k="addr:housenumber" v="14"/>
    <tag k="addr:street" v="Quarter Mile Road"/>
    <tag k="addr:state" v="VT"/>
    <tag k="ref:vcgi:esiteid" v="298233"/>
  </node>
  <node id="-1355" visible="true" lat="43.11635208" lon="-72.91124725">
    <tag k="addr:city" v="Winhall"/>
    <tag k="addr:housenumber" v="5"/>
    <tag k="addr:street" v="Founders Hill Road"/>
    <tag k="addr:state" v="VT"/>
    <tag k="ref:vcgi:esiteid" v="298234"/>
  </node>
  <node id="-1356" visible="true" lat="43.11627064" lon="-72.90351848">
    <tag k="addr:city" v="Winhall"/>
    <tag k="addr:housenumber" v="19"/>
    <tag k="addr:street" v="Middle Ridge Road"/>
    <tag k="addr:state" v="VT"/>
    <tag k="ref:vcgi:esiteid" v="298235"/>
  </node>
  <node id="-1357" visible="true" lat="43.11654087" lon="-72.91440357">
    <tag k="addr:city" v="Winhall"/>
    <tag k="addr:housenumber" v="24"/>
    <tag k="addr:street" v="North Brookwood Road"/>
    <tag k="addr:state" v="VT"/>
    <tag k="ref:vcgi:esiteid" v="298236"/>
  </node>
  <node id="-1358" visible="true" lat="43.11633309" lon="-72.91174581">
    <tag k="addr:city" v="Winhall"/>
    <tag k="addr:housenumber" v="11"/>
    <tag k="addr:street" v="Founders Hill Road"/>
    <tag k="addr:state" v="VT"/>
    <tag k="ref:vcgi:esiteid" v="298237"/>
  </node>
  <node id="-1359" visible="true" lat="43.11622538" lon="-72.92179456">
    <tag k="addr:city" v="Winhall"/>
    <tag k="addr:housenumber" v="32"/>
    <tag k="addr:street" v="West Ridge Road"/>
    <tag k="addr:state" v="VT"/>
    <tag k="ref:vcgi:esiteid" v="298238"/>
  </node>
  <node id="-1360" visible="true" lat="43.11625671" lon="-72.90901184">
    <tag k="addr:city" v="Winhall"/>
    <tag k="addr:housenumber" v="2"/>
    <tag k="addr:street" v="West Round Road"/>
    <tag k="addr:state" v="VT"/>
    <tag k="ref:vcgi:esiteid" v="298239"/>
  </node>
  <node id="-1361" visible="true" lat="43.11616077" lon="-72.92364848">
    <tag k="addr:city" v="Winhall"/>
    <tag k="addr:housenumber" v="77"/>
    <tag k="addr:street" v="West Ridge Road"/>
    <tag k="addr:state" v="VT"/>
    <tag k="ref:vcgi:esiteid" v="298240"/>
  </node>
  <node id="-1362" visible="true" lat="43.11624043" lon="-72.90456295">
    <tag k="addr:city" v="Winhall"/>
    <tag k="addr:housenumber" v="13"/>
    <tag k="addr:street" v="Middle Ridge Road"/>
    <tag k="addr:state" v="VT"/>
    <tag k="ref:vcgi:esiteid" v="298241"/>
  </node>
  <node id="-1363" visible="true" lat="43.11623883" lon="-72.90581368">
    <tag k="addr:city" v="Winhall"/>
    <tag k="addr:housenumber" v="6"/>
    <tag k="addr:street" v="East Round Road"/>
    <tag k="addr:state" v="VT"/>
    <tag k="ref:vcgi:esiteid" v="298243"/>
  </node>
  <node id="-1364" visible="true" lat="43.11627178" lon="-72.90650357">
    <tag k="addr:city" v="Winhall"/>
    <tag k="addr:housenumber" v="2"/>
    <tag k="addr:street" v="East Round Road"/>
    <tag k="addr:state" v="VT"/>
    <tag k="ref:vcgi:esiteid" v="298244"/>
  </node>
  <node id="-1365" visible="true" lat="43.11619854" lon="-72.90537589">
    <tag k="addr:city" v="Winhall"/>
    <tag k="addr:housenumber" v="11"/>
    <tag k="addr:street" v="Middle Ridge Road"/>
    <tag k="addr:state" v="VT"/>
    <tag k="ref:vcgi:esiteid" v="298245"/>
  </node>
  <node id="-1366" visible="true" lat="43.11599511" lon="-72.90199964">
    <tag k="addr:city" v="Winhall"/>
    <tag k="addr:housenumber" v="50"/>
    <tag k="addr:street" v="Quarter Mile Road"/>
    <tag k="addr:state" v="VT"/>
    <tag k="ref:vcgi:esiteid" v="298246"/>
  </node>
  <node id="-1367" visible="true" lat="43.11622597" lon="-72.90229603">
    <tag k="addr:city" v="Winhall"/>
    <tag k="addr:housenumber" v="46"/>
    <tag k="addr:street" v="Quarter Mile Road"/>
    <tag k="addr:state" v="VT"/>
    <tag k="ref:vcgi:esiteid" v="298247"/>
  </node>
  <node id="-1368" visible="true" lat="43.11609649" lon="-72.91104888">
    <tag k="addr:city" v="Winhall"/>
    <tag k="addr:housenumber" v="5"/>
    <tag k="addr:street" v="Flowing Spring Road"/>
    <tag k="addr:state" v="VT"/>
    <tag k="ref:vcgi:esiteid" v="298248"/>
  </node>
  <node id="-1369" visible="true" lat="43.11605087" lon="-72.90715602">
    <tag k="addr:city" v="Winhall"/>
    <tag k="addr:housenumber" v="9"/>
    <tag k="addr:street" v="West Round Road"/>
    <tag k="addr:state" v="VT"/>
    <tag k="ref:vcgi:esiteid" v="298249"/>
  </node>
  <node id="-1370" visible="true" lat="43.11605835" lon="-72.9031372">
    <tag k="addr:city" v="Winhall"/>
    <tag k="addr:housenumber" v="21"/>
    <tag k="addr:street" v="Middle Ridge Road"/>
    <tag k="addr:state" v="VT"/>
    <tag k="ref:vcgi:esiteid" v="298250"/>
  </node>
  <node id="-1371" visible="true" lat="43.11578545" lon="-72.91275826">
    <tag k="addr:city" v="Winhall"/>
    <tag k="addr:housenumber" v="16"/>
    <tag k="addr:street" v="Founders Hill Road"/>
    <tag k="addr:state" v="VT"/>
    <tag k="ref:vcgi:esiteid" v="298251"/>
  </node>
  <node id="-1372" visible="true" lat="43.11579933" lon="-72.91500553">
    <tag k="addr:city" v="Winhall"/>
    <tag k="addr:housenumber" v="4"/>
    <tag k="addr:street" v="Windtree Road"/>
    <tag k="addr:state" v="VT"/>
    <tag k="ref:vcgi:esiteid" v="298252"/>
  </node>
  <node id="-1373" visible="true" lat="43.11587325" lon="-72.90603176">
    <tag k="addr:city" v="Winhall"/>
    <tag k="addr:housenumber" v="9"/>
    <tag k="addr:street" v="Middle Ridge Road"/>
    <tag k="addr:state" v="VT"/>
    <tag k="ref:vcgi:esiteid" v="298255"/>
  </node>
  <node id="-1374" visible="true" lat="43.11590194" lon="-72.8991394">
    <tag k="addr:city" v="Winhall"/>
    <tag k="addr:housenumber" v="19"/>
    <tag k="addr:street" v="Maple Hill Road"/>
    <tag k="addr:state" v="VT"/>
    <tag k="ref:vcgi:esiteid" v="298256"/>
  </node>
  <node id="-1375" visible="true" lat="43.11587867" lon="-72.91692572">
    <tag k="addr:city" v="Winhall"/>
    <tag k="addr:housenumber" v="11"/>
    <tag k="addr:street" v="Windtree Road"/>
    <tag k="addr:state" v="VT"/>
    <tag k="ref:vcgi:esiteid" v="298257"/>
  </node>
  <node id="-1376" visible="true" lat="43.11590194" lon="-72.88239288">
    <tag k="addr:city" v="Winhall"/>
    <tag k="addr:housenumber" v="150"/>
    <tag k="addr:street" v="Upper Taylor Hill Road"/>
    <tag k="addr:state" v="VT"/>
    <tag k="ref:vcgi:esiteid" v="298258"/>
  </node>
  <node id="-1377" visible="true" lat="43.11590642" lon="-72.9119843">
    <tag k="addr:city" v="Winhall"/>
    <tag k="addr:housenumber" v="2"/>
    <tag k="addr:street" v="Flowing Spring Road"/>
    <tag k="addr:state" v="VT"/>
    <tag k="ref:vcgi:esiteid" v="298259"/>
  </node>
  <node id="-1378" visible="true" lat="43.11591339" lon="-72.87184143">
    <tag k="addr:city" v="Winhall"/>
    <tag k="addr:housenumber" v="81"/>
    <tag k="addr:street" v="Stone Cabin Road"/>
    <tag k="addr:state" v="VT"/>
    <tag k="ref:vcgi:esiteid" v="298260"/>
  </node>
  <node id="-1379" visible="true" lat="43.11564878" lon="-72.90367751">
    <tag k="addr:city" v="Winhall"/>
    <tag k="addr:housenumber" v="16"/>
    <tag k="addr:street" v="Middle Ridge Road"/>
    <tag k="addr:state" v="VT"/>
    <tag k="ref:vcgi:esiteid" v="298261"/>
  </node>
  <node id="-1380" visible="true" lat="43.11572647" lon="-72.91047668">
    <tag k="addr:city" v="Winhall"/>
    <tag k="addr:housenumber" v="7"/>
    <tag k="addr:street" v="Flowing Spring Road"/>
    <tag k="addr:state" v="VT"/>
    <tag k="ref:vcgi:esiteid" v="298262"/>
  </node>
  <node id="-1381" visible="true" lat="43.11570806" lon="-72.90820093">
    <tag k="addr:city" v="Winhall"/>
    <tag k="addr:housenumber" v="6"/>
    <tag k="addr:street" v="West Round Road"/>
    <tag k="addr:state" v="VT"/>
    <tag k="ref:vcgi:esiteid" v="298263"/>
  </node>
  <node id="-1382" visible="true" lat="43.11579771" lon="-72.9161593">
    <tag k="addr:city" v="Winhall"/>
    <tag k="addr:housenumber" v="5"/>
    <tag k="addr:street" v="Windtree Road"/>
    <tag k="addr:state" v="VT"/>
    <tag k="ref:vcgi:esiteid" v="298264"/>
  </node>
  <node id="-1383" visible="true" lat="43.11565399" lon="-72.91157531">
    <tag k="addr:city" v="Winhall"/>
    <tag k="addr:housenumber" v="4"/>
    <tag k="addr:street" v="Flowing Spring Road"/>
    <tag k="addr:state" v="VT"/>
    <tag k="ref:vcgi:esiteid" v="298265"/>
  </node>
  <node id="-1385" visible="true" lat="43.11567306" lon="-72.90080261">
    <tag k="addr:city" v="Winhall"/>
    <tag k="addr:housenumber" v="53"/>
    <tag k="addr:street" v="Quarter Mile Road"/>
    <tag k="addr:state" v="VT"/>
    <tag k="ref:vcgi:esiteid" v="298267"/>
  </node>
  <node id="-1386" visible="true" lat="43.11565017" lon="-72.90151977">
    <tag k="addr:city" v="Winhall"/>
    <tag k="addr:housenumber" v="54"/>
    <tag k="addr:street" v="Quarter Mile Road"/>
    <tag k="addr:state" v="VT"/>
    <tag k="ref:vcgi:esiteid" v="298268"/>
  </node>
  <node id="-1387" visible="true" lat="43.11564254" lon="-72.89987945">
    <tag k="addr:city" v="Winhall"/>
    <tag k="addr:housenumber" v="21"/>
    <tag k="addr:street" v="Maple Hill Road"/>
    <tag k="addr:state" v="VT"/>
    <tag k="ref:vcgi:esiteid" v="298269"/>
  </node>
  <node id="-1388" visible="true" lat="43.11566096" lon="-72.90683086">
    <tag k="addr:city" v="Winhall"/>
    <tag k="addr:housenumber" v="11"/>
    <tag k="addr:street" v="West Round Road"/>
    <tag k="addr:state" v="VT"/>
    <tag k="ref:vcgi:esiteid" v="298270"/>
  </node>
  <node id="-1390" visible="true" lat="43.1155097" lon="-72.9063604">
    <tag k="addr:city" v="Winhall"/>
    <tag k="addr:housenumber" v="5"/>
    <tag k="addr:street" v="Middle Ridge Road"/>
    <tag k="addr:state" v="VT"/>
    <tag k="ref:vcgi:esiteid" v="298272"/>
  </node>
  <node id="-1391" visible="true" lat="43.11569046" lon="-72.90860713">
    <tag k="addr:city" v="Winhall"/>
    <tag k="addr:housenumber" v="4"/>
    <tag k="addr:street" v="West Round Road"/>
    <tag k="addr:state" v="VT"/>
    <tag k="ref:vcgi:esiteid" v="298273"/>
  </node>
  <node id="-1392" visible="true" lat="43.11540972" lon="-72.90790585">
    <tag k="addr:city" v="Winhall"/>
    <tag k="addr:housenumber" v="8"/>
    <tag k="addr:street" v="West Round Road"/>
    <tag k="addr:state" v="VT"/>
    <tag k="ref:vcgi:esiteid" v="298274"/>
  </node>
  <node id="-1393" visible="true" lat="43.11545181" lon="-72.90226745">
    <tag k="addr:city" v="Winhall"/>
    <tag k="addr:housenumber" v="25"/>
    <tag k="addr:street" v="Middle Ridge Road"/>
    <tag k="addr:state" v="VT"/>
    <tag k="ref:vcgi:esiteid" v="298275"/>
  </node>
  <node id="-1394" visible="true" lat="43.11545477" lon="-72.90716259">
    <tag k="addr:city" v="Winhall"/>
    <tag k="addr:housenumber" v="12"/>
    <tag k="addr:street" v="West Round Road"/>
    <tag k="addr:state" v="VT"/>
    <tag k="ref:vcgi:esiteid" v="298276"/>
  </node>
  <node id="-1395" visible="true" lat="43.11531242" lon="-72.90752934">
    <tag k="addr:city" v="Winhall"/>
    <tag k="addr:housenumber" v="10"/>
    <tag k="addr:street" v="West Round Road"/>
    <tag k="addr:state" v="VT"/>
    <tag k="ref:vcgi:esiteid" v="298277"/>
  </node>
  <node id="-1429" visible="true" lat="43.12680906" lon="-72.86925358">
    <tag k="addr:city" v="Winhall"/>
    <tag k="addr:housenumber" v="70"/>
    <tag k="addr:street" v="Pearl Buck Drive"/>
    <tag k="addr:state" v="VT"/>
    <tag k="ref:vcgi:esiteid" v="298312"/>
  </node>
  <node id="-1430" visible="true" lat="43.12776933" lon="-72.86799355">
    <tag k="addr:city" v="Winhall"/>
    <tag k="addr:housenumber" v="69"/>
    <tag k="addr:street" v="Pearl Buck Drive"/>
    <tag k="addr:state" v="VT"/>
    <tag k="ref:vcgi:esiteid" v="298313"/>
  </node>
  <node id="-1431" visible="true" lat="43.12958556" lon="-72.86853022">
    <tag k="addr:city" v="Winhall"/>
    <tag k="addr:housenumber" v="73"/>
    <tag k="addr:street" v="Benson Fuller Drive"/>
    <tag k="addr:state" v="VT"/>
    <tag k="ref:vcgi:esiteid" v="298314"/>
  </node>
  <node id="-1432" visible="true" lat="43.13082775" lon="-72.8694042">
    <tag k="addr:city" v="Winhall"/>
    <tag k="addr:housenumber" v="74"/>
    <tag k="addr:street" v="Benson Fuller Drive"/>
    <tag k="addr:state" v="VT"/>
    <tag k="ref:vcgi:esiteid" v="298315"/>
  </node>
  <node id="-1433" visible="true" lat="43.13101479" lon="-72.86868741">
    <tag k="addr:city" v="Winhall"/>
    <tag k="addr:housenumber" v="72"/>
    <tag k="addr:street" v="Benson Fuller Drive"/>
    <tag k="addr:state" v="VT"/>
    <tag k="ref:vcgi:esiteid" v="298316"/>
  </node>
  <node id="-1436" visible="true" lat="43.20262159" lon="-72.99549802">
    <tag k="addr:city" v="Winhall"/>
    <tag k="addr:housenumber" v="19"/>
    <tag k="addr:street" v="Valley View Road"/>
    <tag k="addr:state" v="VT"/>
    <tag k="ref:vcgi:esiteid" v="298319"/>
  </node>
  <node id="-1437" visible="true" lat="43.20202399" lon="-72.99597931">
    <tag k="addr:city" v="Winhall"/>
    <tag k="addr:housenumber" v="17"/>
    <tag k="addr:street" v="Valley View Road"/>
    <tag k="addr:state" v="VT"/>
    <tag k="ref:vcgi:esiteid" v="298320"/>
  </node>
  <node id="-1438" visible="true" lat="43.18869591" lon="-73.00231937">
    <tag k="addr:city" v="Winhall"/>
    <tag k="addr:housenumber" v="9"/>
    <tag k="addr:street" v="Old Peru Road"/>
    <tag k="addr:state" v="VT"/>
    <tag k="ref:vcgi:esiteid" v="298321"/>
  </node>
  <node id="-1444" visible="true" lat="43.20694068" lon="-72.94460716">
    <tag k="addr:city" v="Winhall"/>
    <tag k="addr:housenumber" v="401"/>
    <tag k="addr:street" v="Vermont Route 11"/>
    <tag k="addr:state" v="VT"/>
    <tag k="ref:vcgi:esiteid" v="298331"/>
  </node>
  <node id="-1445" visible="true" lat="43.18332399" lon="-72.89367752">
    <tag k="addr:city" v="Winhall"/>
    <tag k="addr:housenumber" v="279"/>
    <tag k="addr:street" v="French Hollow Road"/>
    <tag k="addr:state" v="VT"/>
    <tag k="ref:vcgi:esiteid" v="298332"/>
  </node>
  <node id="-1446" visible="true" lat="43.18345528" lon="-72.89260458">
    <tag k="addr:city" v="Winhall"/>
    <tag k="addr:housenumber" v="287"/>
    <tag k="addr:street" v="French Hollow Road"/>
    <tag k="addr:state" v="VT"/>
    <tag k="ref:vcgi:esiteid" v="298333"/>
  </node>
  <node id="-1451" visible="true" lat="43.20703554" lon="-72.94283672">
    <tag k="addr:city" v="Winhall"/>
    <tag k="addr:housenumber" v="404"/>
    <tag k="addr:street" v="Vermont Route 11"/>
    <tag k="addr:state" v="VT"/>
    <tag k="ref:vcgi:esiteid" v="298339"/>
  </node>
  <node id="-1452" visible="true" lat="43.20644963" lon="-72.96116041">
    <tag k="addr:city" v="Winhall"/>
    <tag k="addr:housenumber" v="313"/>
    <tag k="addr:street" v="Vermont Route 11 30"/>
    <tag k="addr:state" v="VT"/>
    <tag k="ref:vcgi:esiteid" v="298340"/>
  </node>
  <node id="-1455" visible="true" lat="43.13449789" lon="-72.86820522">
    <tag k="addr:city" v="Winhall"/>
    <tag k="addr:housenumber" v="6"/>
    <tag k="addr:street" v="Jamie Lane"/>
    <tag k="addr:state" v="VT"/>
    <tag k="ref:vcgi:esiteid" v="298343"/>
  </node>
  <node id="-1456" visible="true" lat="43.15634626" lon="-72.92190813">
    <tag k="addr:city" v="Winhall"/>
    <tag k="addr:housenumber" v="9"/>
    <tag k="addr:street" v="Jenks Compound Road"/>
    <tag k="addr:state" v="VT"/>
    <tag k="ref:vcgi:esiteid" v="298344"/>
  </node>
  <node id="-1457" visible="true" lat="43.15681366" lon="-72.92245658">
    <tag k="addr:city" v="Winhall"/>
    <tag k="addr:housenumber" v="4"/>
    <tag k="addr:street" v="Jenks Compound Road"/>
    <tag k="addr:state" v="VT"/>
    <tag k="ref:vcgi:esiteid" v="298345"/>
  </node>
  <node id="-1458" visible="true" lat="43.15277698" lon="-72.92618307">
    <tag k="addr:city" v="Winhall"/>
    <tag k="addr:housenumber" v="18"/>
    <tag k="addr:street" v="Jenks Compound Road"/>
    <tag k="addr:state" v="VT"/>
    <tag k="ref:vcgi:esiteid" v="298346"/>
  </node>
  <node id="-1469" visible="true" lat="43.19634508" lon="-73.00057706">
    <tag k="addr:city" v="Winhall"/>
    <tag k="addr:housenumber" v="15"/>
    <tag k="addr:street" v="Hoyt Road"/>
    <tag k="addr:state" v="VT"/>
    <tag k="ref:vcgi:esiteid" v="298357"/>
  </node>
  <node id="-1470" visible="true" lat="43.1350408" lon="-72.86791312">
    <tag k="addr:city" v="Winhall"/>
    <tag k="addr:housenumber" v="10"/>
    <tag k="addr:street" v="Jamie Lane"/>
    <tag k="addr:state" v="VT"/>
    <tag k="ref:vcgi:esiteid" v="298359"/>
  </node>
  <node id="-1471" visible="true" lat="43.13575874" lon="-72.86872616">
    <tag k="addr:city" v="Winhall"/>
    <tag k="addr:housenumber" v="11"/>
    <tag k="addr:street" v="Jamie Lane"/>
    <tag k="addr:state" v="VT"/>
    <tag k="ref:vcgi:esiteid" v="298360"/>
  </node>
  <node id="-1472" visible="true" lat="43.13537924" lon="-72.86759043">
    <tag k="addr:city" v="Winhall"/>
    <tag k="addr:housenumber" v="12"/>
    <tag k="addr:street" v="Jamie Lane"/>
    <tag k="addr:state" v="VT"/>
    <tag k="ref:vcgi:esiteid" v="298361"/>
  </node>
  <node id="-1473" visible="true" lat="43.13705127" lon="-72.86820454">
    <tag k="addr:city" v="Winhall"/>
    <tag k="addr:housenumber" v="22"/>
    <tag k="addr:street" v="Jamie Lane"/>
    <tag k="addr:state" v="VT"/>
    <tag k="ref:vcgi:esiteid" v="298362"/>
  </node>
  <node id="-1477" visible="true" lat="43.18900964" lon="-72.86761275">
    <tag k="addr:city" v="Winhall"/>
    <tag k="addr:housenumber" v="482"/>
    <tag k="addr:street" v="Winhall Hollow Road"/>
    <tag k="addr:state" v="VT"/>
    <tag k="ref:vcgi:esiteid" v="298367"/>
  </node>
  <node id="-1478" visible="true" lat="43.18828141" lon="-72.86953448">
    <tag k="addr:city" v="Winhall"/>
    <tag k="addr:housenumber" v="481"/>
    <tag k="addr:street" v="Winhall Hollow Road"/>
    <tag k="addr:state" v="VT"/>
    <tag k="ref:vcgi:esiteid" v="298368"/>
  </node>
  <node id="-1500" visible="true" lat="43.11748616" lon="-72.89966851">
    <tag k="addr:city" v="Winhall"/>
    <tag k="addr:housenumber" v="5"/>
    <tag k="addr:street" v="Maple Hill Road"/>
    <tag k="addr:state" v="VT"/>
    <tag k="ref:vcgi:esiteid" v="298391"/>
  </node>
  <node id="-1501" visible="true" lat="43.11665895" lon="-72.899063">
    <tag k="addr:city" v="Winhall"/>
    <tag k="addr:housenumber" v="15"/>
    <tag k="addr:street" v="Maple Hill Road"/>
    <tag k="addr:state" v="VT"/>
    <tag k="ref:vcgi:esiteid" v="298392"/>
  </node>
  <node id="-1522" visible="true" lat="43.12096803" lon="-72.8989706">
    <tag k="addr:city" v="Winhall"/>
    <tag k="addr:housenumber" v="90"/>
    <tag k="addr:street" v="North Branch Road"/>
    <tag k="addr:state" v="VT"/>
    <tag k="ref:vcgi:esiteid" v="298415"/>
  </node>
  <node id="-1525" visible="true" lat="43.20843754" lon="-72.98620625">
    <tag k="addr:city" v="Winhall"/>
    <tag k="addr:housenumber" v="23"/>
    <tag k="addr:street" v="Bromley Forest Road"/>
    <tag k="addr:state" v="VT"/>
    <tag k="ref:vcgi:esiteid" v="298418"/>
  </node>
  <node id="-1526" visible="true" lat="43.20517797" lon="-72.99396852">
    <tag k="addr:city" v="Winhall"/>
    <tag k="addr:housenumber" v="7"/>
    <tag k="addr:street" v="Kimball Hill Road"/>
    <tag k="addr:state" v="VT"/>
    <tag k="ref:vcgi:esiteid" v="298419"/>
  </node>
  <node id="-1530" visible="true" lat="43.19190128" lon="-72.96240472">
    <tag k="addr:city" v="Winhall"/>
    <tag k="addr:housenumber" v="60"/>
    <tag k="addr:street" v="Sylvan Ridge Road"/>
    <tag k="addr:state" v="VT"/>
    <tag k="ref:vcgi:esiteid" v="298427"/>
  </node>
  <node id="-1532" visible="true" lat="43.18624928" lon="-72.93721331">
    <tag k="addr:city" v="Winhall"/>
    <tag k="addr:housenumber" v="3"/>
    <tag k="addr:street" v="Highwood Road"/>
    <tag k="addr:state" v="VT"/>
    <tag k="ref:vcgi:esiteid" v="298429"/>
  </node>
  <node id="-1541" visible="true" lat="43.1616082" lon="-72.92016649">
    <tag k="addr:city" v="Winhall"/>
    <tag k="addr:housenumber" v="11"/>
    <tag k="addr:street" v="Stark Farm Road"/>
    <tag k="addr:state" v="VT"/>
    <tag k="ref:vcgi:esiteid" v="298442"/>
  </node>
  <node id="-1550" visible="true" lat="43.14920426" lon="-72.8664528">
    <tag k="addr:city" v="Winhall"/>
    <tag k="addr:housenumber" v="11"/>
    <tag k="addr:street" v="Little York Road"/>
    <tag k="addr:state" v="VT"/>
    <tag k="ref:vcgi:esiteid" v="298452"/>
  </node>
  <node id="-1551" visible="true" lat="43.1483133" lon="-72.86912793">
    <tag k="addr:city" v="Winhall"/>
    <tag k="addr:housenumber" v="8"/>
    <tag k="addr:street" v="Little York Road"/>
    <tag k="addr:state" v="VT"/>
    <tag k="ref:vcgi:esiteid" v="298453"/>
  </node>
  <node id="-1553" visible="true" lat="43.11767545" lon="-72.8768316">
    <tag k="addr:city" v="Winhall"/>
    <tag k="addr:housenumber" v="37"/>
    <tag k="addr:street" v="Nearing Road"/>
    <tag k="addr:state" v="VT"/>
    <tag k="ref:vcgi:esiteid" v="298455"/>
  </node>
  <node id="-1554" visible="true" lat="43.18257911" lon="-72.89272742">
    <tag k="addr:city" v="Winhall"/>
    <tag k="addr:housenumber" v="288"/>
    <tag k="addr:street" v="French Hollow Road"/>
    <tag k="addr:state" v="VT"/>
    <tag k="ref:vcgi:esiteid" v="298456"/>
  </node>
  <node id="-1556" visible="true" lat="43.1643115" lon="-72.92592639">
    <tag k="addr:city" v="Winhall"/>
    <tag k="addr:housenumber" v="2"/>
    <tag k="addr:street" v="Jackson Hill Road"/>
    <tag k="addr:state" v="VT"/>
    <tag k="ref:vcgi:esiteid" v="298458"/>
  </node>
  <node id="-1560" visible="true" lat="43.13816835" lon="-72.87138051">
    <tag k="addr:city" v="Winhall"/>
    <tag k="addr:housenumber" v="33"/>
    <tag k="addr:street" v="Jamie Lane"/>
    <tag k="addr:state" v="VT"/>
    <tag k="ref:vcgi:esiteid" v="298462"/>
  </node>
  <node id="-1585" visible="true" lat="43.13589444" lon="-72.86775275">
    <tag k="addr:city" v="Winhall"/>
    <tag k="addr:housenumber" v="16"/>
    <tag k="addr:street" v="Jamie Lane"/>
    <tag k="addr:state" v="VT"/>
    <tag k="ref:vcgi:esiteid" v="298487"/>
  </node>
  <node id="-1590" visible="true" lat="43.18686362" lon="-72.94496265">
    <tag k="addr:city" v="Winhall"/>
    <tag k="addr:housenumber" v="44"/>
    <tag k="addr:street" v="Highwood Road"/>
    <tag k="addr:state" v="VT"/>
    <tag k="ref:vcgi:esiteid" v="298492"/>
  </node>
  <node id="-1591" visible="true" lat="43.18616764" lon="-72.94542351">
    <tag k="addr:city" v="Winhall"/>
    <tag k="addr:housenumber" v="54"/>
    <tag k="addr:street" v="Highwood Road"/>
    <tag k="addr:state" v="VT"/>
    <tag k="ref:vcgi:esiteid" v="298493"/>
  </node>
  <node id="-1592" visible="true" lat="43.185421" lon="-72.94569544">
    <tag k="addr:city" v="Winhall"/>
    <tag k="addr:housenumber" v="62"/>
    <tag k="addr:street" v="Highwood Road"/>
    <tag k="addr:state" v="VT"/>
    <tag k="ref:vcgi:esiteid" v="298494"/>
  </node>
  <node id="-1593" visible="true" lat="43.1848974" lon="-72.94424573">
    <tag k="addr:city" v="Winhall"/>
    <tag k="addr:housenumber" v="51"/>
    <tag k="addr:street" v="Highwood Road"/>
    <tag k="addr:state" v="VT"/>
    <tag k="ref:vcgi:esiteid" v="298495"/>
  </node>
  <node id="-1599" visible="true" lat="43.11606745" lon="-72.92269059">
    <tag k="addr:city" v="Winhall"/>
    <tag k="addr:housenumber" v="35"/>
    <tag k="addr:street" v="West Ridge Road"/>
    <tag k="addr:state" v="VT"/>
    <tag k="ref:vcgi:esiteid" v="298502"/>
  </node>
  <node id="-1600" visible="true" lat="43.18029853" lon="-72.88337952">
    <tag k="addr:city" v="Winhall"/>
    <tag k="addr:housenumber" v="353"/>
    <tag k="addr:street" v="French Hollow Road"/>
    <tag k="addr:state" v="VT"/>
    <tag k="ref:vcgi:esiteid" v="298503"/>
  </node>
  <node id="-1601" visible="true" lat="43.11798508" lon="-72.91866708">
    <tag k="addr:city" v="Winhall"/>
    <tag k="addr:housenumber" v="27"/>
    <tag k="addr:street" v="Windtree Road"/>
    <tag k="addr:state" v="VT"/>
    <tag k="ref:vcgi:esiteid" v="298504"/>
  </node>
  <node id="-1610" visible="true" lat="43.11757504" lon="-72.91385163">
    <tag k="addr:city" v="Winhall"/>
    <tag k="addr:housenumber" v="4"/>
    <tag k="addr:street" v="Roundtree Road"/>
    <tag k="addr:state" v="VT"/>
    <tag k="ref:vcgi:esiteid" v="298513"/>
  </node>
  <node id="-1611" visible="true" lat="43.11968089" lon="-72.91409412">
    <tag k="addr:city" v="Winhall"/>
    <tag k="addr:housenumber" v="17"/>
    <tag k="addr:street" v="West Branch Road"/>
    <tag k="addr:state" v="VT"/>
    <tag k="ref:vcgi:esiteid" v="298514"/>
  </node>
  <node id="-1616" visible="true" lat="43.16819404" lon="-72.92097533">
    <tag k="addr:city" v="Winhall"/>
    <tag k="addr:housenumber" v="10"/>
    <tag k="addr:street" v="Old Town Road"/>
    <tag k="addr:state" v="VT"/>
    <tag k="ref:vcgi:esiteid" v="298519"/>
  </node>
  <node id="-1617" visible="true" lat="43.17151269" lon="-72.92092988">
    <tag k="addr:city" v="Winhall"/>
    <tag k="addr:housenumber" v="4"/>
    <tag k="addr:street" v="Deer Street"/>
    <tag k="addr:state" v="VT"/>
    <tag k="ref:vcgi:esiteid" v="298520"/>
  </node>
  <node id="-1618" visible="true" lat="43.16139172" lon="-72.91639303">
    <tag k="addr:city" v="Winhall"/>
    <tag k="addr:housenumber" v="66"/>
    <tag k="addr:street" v="Old Town Road"/>
    <tag k="addr:state" v="VT"/>
    <tag k="ref:vcgi:esiteid" v="298521"/>
  </node>
  <node id="-1620" visible="true" lat="43.19264004" lon="-72.96510465">
    <tag k="addr:city" v="Winhall"/>
    <tag k="addr:housenumber" v="35"/>
    <tag k="addr:street" v="Sylvan Ridge Road"/>
    <tag k="addr:state" v="VT"/>
    <tag k="ref:vcgi:esiteid" v="298523"/>
  </node>
  <node id="-1621" visible="true" lat="43.19475659" lon="-72.96485102">
    <tag k="addr:city" v="Winhall"/>
    <tag k="addr:housenumber" v="17"/>
    <tag k="addr:street" v="Sylvan Ridge Road"/>
    <tag k="addr:state" v="VT"/>
    <tag k="ref:vcgi:esiteid" v="298524"/>
  </node>
  <node id="-1626" visible="true" lat="43.19649533" lon="-72.96395082">
    <tag k="addr:city" v="Winhall"/>
    <tag k="addr:housenumber" v="9"/>
    <tag k="addr:street" v="Houston Road"/>
    <tag k="addr:state" v="VT"/>
    <tag k="ref:vcgi:esiteid" v="298529"/>
  </node>
  <node id="-1638" visible="true" lat="43.15516553" lon="-72.86570516">
    <tag k="addr:city" v="Winhall"/>
    <tag k="addr:housenumber" v="1"/>
    <tag k="addr:street" v="Greentree Road"/>
    <tag k="addr:state" v="VT"/>
    <tag k="ref:vcgi:esiteid" v="298541"/>
  </node>
  <node id="-1648" visible="true" lat="43.11576564" lon="-72.90274593">
    <tag k="addr:city" v="Winhall"/>
    <tag k="addr:housenumber" v="23"/>
    <tag k="addr:street" v="Middle Ridge Road"/>
    <tag k="addr:state" v="VT"/>
    <tag k="ref:vcgi:esiteid" v="298551"/>
  </node>
  <node id="-1652" visible="true" lat="43.11977017" lon="-72.91604007">
    <tag k="addr:city" v="Winhall"/>
    <tag k="addr:housenumber" v="21"/>
    <tag k="addr:street" v="Roundtree Road"/>
    <tag k="addr:state" v="VT"/>
    <tag k="ref:vcgi:esiteid" v="298555"/>
  </node>
  <node id="-1677" visible="true" lat="43.19568754" lon="-72.96480667">
    <tag k="addr:city" v="Winhall"/>
    <tag k="addr:housenumber" v="15"/>
    <tag k="addr:street" v="Sylvan Ridge Road"/>
    <tag k="addr:state" v="VT"/>
    <tag k="ref:vcgi:esiteid" v="306892"/>
  </node>
  <node id="-1683" visible="true" lat="43.19142041" lon="-72.96203079">
    <tag k="addr:city" v="Winhall"/>
    <tag k="addr:housenumber" v="17"/>
    <tag k="addr:street" v="Moose Hollow Road"/>
    <tag k="addr:state" v="VT"/>
    <tag k="ref:vcgi:esiteid" v="307431"/>
  </node>
  <node id="-1732" visible="true" lat="43.11709891" lon="-72.91239429">
    <tag k="addr:city" v="Winhall"/>
    <tag k="addr:housenumber" v="13"/>
    <tag k="addr:street" v="North Brookwood Road"/>
    <tag k="addr:state" v="VT"/>
    <tag k="ref:vcgi:esiteid" v="307480"/>
  </node>
  <node id="-1733" visible="true" lat="43.11526655" lon="-72.87169091">
    <tag k="addr:city" v="Winhall"/>
    <tag k="addr:housenumber" v="79"/>
    <tag k="addr:street" v="Stone Cabin Road"/>
    <tag k="addr:state" v="VT"/>
    <tag k="ref:vcgi:esiteid" v="307481"/>
  </node>
  <node id="-1734" visible="true" lat="43.15485951" lon="-72.92267219">
    <tag k="addr:city" v="Winhall"/>
    <tag k="addr:housenumber" v="17"/>
    <tag k="addr:street" v="Jenks Compound Road"/>
    <tag k="addr:state" v="VT"/>
    <tag k="ref:vcgi:esiteid" v="307483"/>
  </node>
  <node id="-1737" visible="true" lat="43.14490046" lon="-72.8699032">
    <tag k="addr:city" v="Winhall"/>
    <tag k="addr:housenumber" v="1"/>
    <tag k="addr:street" v="Ameden Road"/>
    <tag k="addr:state" v="VT"/>
    <tag k="ref:vcgi:esiteid" v="307497"/>
  </node>
  <node id="-1787" visible="true" lat="43.13131113" lon="-72.86776967">
    <tag k="addr:city" v="Winhall"/>
    <tag k="addr:housenumber" v="61"/>
    <tag k="addr:street" v="Benson Fuller Drive"/>
    <tag k="addr:state" v="VT"/>
    <tag k="ref:vcgi:esiteid" v="310044"/>
  </node>
  <node id="-1788" visible="true" lat="43.19049684" lon="-72.96243101">
    <tag k="addr:city" v="Winhall"/>
    <tag k="addr:housenumber" v="30"/>
    <tag k="addr:street" v="Moose Hollow Road"/>
    <tag k="addr:state" v="VT"/>
    <tag k="ref:vcgi:esiteid" v="315342"/>
  </node>
  <node id="-1796" visible="true" lat="43.19118327" lon="-72.96282625">
    <tag k="addr:city" v="Winhall"/>
    <tag k="addr:housenumber" v="10"/>
    <tag k="addr:street" v="Moose Hollow Road"/>
    <tag k="addr:state" v="VT"/>
    <tag k="ref:vcgi:esiteid" v="316794"/>
  </node>
  <node id="-1798" visible="true" lat="43.19053284" lon="-72.96135153">
    <tag k="addr:city" v="Winhall"/>
    <tag k="addr:housenumber" v="36"/>
    <tag k="addr:street" v="Moose Hollow Road"/>
    <tag k="addr:state" v="VT"/>
    <tag k="ref:vcgi:esiteid" v="316796"/>
  </node>
  <node id="-1799" visible="true" lat="43.19073063" lon="-72.96001884">
    <tag k="addr:city" v="Winhall"/>
    <tag k="addr:housenumber" v="40"/>
    <tag k="addr:street" v="Moose Hollow Road"/>
    <tag k="addr:state" v="VT"/>
    <tag k="ref:vcgi:esiteid" v="316797"/>
  </node>
  <node id="-1808" visible="true" lat="43.19171765" lon="-72.9634086">
    <tag k="addr:city" v="Winhall"/>
    <tag k="addr:housenumber" v="52"/>
    <tag k="addr:street" v="Sylvan Ridge Road"/>
    <tag k="addr:state" v="VT"/>
    <tag k="ref:vcgi:esiteid" v="331136"/>
  </node>
  <node id="-1816" visible="true" lat="43.15146759" lon="-72.86630016">
    <tag k="addr:city" v="Winhall"/>
    <tag k="addr:housenumber" v="74"/>
    <tag k="addr:street" v="River Road"/>
    <tag k="addr:state" v="VT"/>
    <tag k="ref:vcgi:esiteid" v="332296"/>
  </node>
  <node id="-1839" visible="true" lat="43.11567816" lon="-72.91424283">
    <tag k="addr:city" v="Winhall"/>
    <tag k="addr:housenumber" v="32"/>
    <tag k="addr:street" v="North Brookwood Road"/>
    <tag k="addr:state" v="VT"/>
    <tag k="ref:vcgi:esiteid" v="343495"/>
  </node>
  <node id="-1844" visible="true" lat="43.1905578" lon="-72.96068858">
    <tag k="addr:city" v="Winhall"/>
    <tag k="addr:housenumber" v="38"/>
    <tag k="addr:street" v="Moose Hollow Road"/>
    <tag k="addr:state" v="VT"/>
    <tag k="ref:vcgi:esiteid" v="446573"/>
  </node>
  <node id="-1853" visible="true" lat="43.19993117" lon="-72.99807316">
    <tag k="addr:city" v="Winhall"/>
    <tag k="addr:housenumber" v="46"/>
    <tag k="addr:street" v="Deep Woods Road"/>
    <tag k="addr:state" v="VT"/>
    <tag k="ref:vcgi:esiteid" v="449374"/>
  </node>
  <node id="-1854" visible="true" lat="43.11516805" lon="-72.87440044">
    <tag k="addr:city" v="Winhall"/>
    <tag k="addr:housenumber" v="51"/>
    <tag k="addr:street" v="Stone Cabin Road"/>
    <tag k="addr:state" v="VT"/>
    <tag k="ref:vcgi:esiteid" v="449375"/>
  </node>
  <node id="-1874" visible="true" lat="43.20771953" lon="-72.99316096">
    <tag k="addr:city" v="Winhall"/>
    <tag k="addr:housenumber" v="5"/>
    <tag k="addr:street" v="Sunny Hill Road"/>
    <tag k="addr:state" v="VT"/>
    <tag k="ref:vcgi:esiteid" v="751033"/>
  </node>
  <node id="-1884" visible="true" lat="43.2104368" lon="-73.00072821">
    <tag k="addr:city" v="Winhall"/>
    <tag k="addr:housenumber" v="501"/>
    <tag k="addr:street" v="Lower Beech Ridge"/>
    <tag k="addr:state" v="VT"/>
    <tag k="ref:vcgi:esiteid" v="758600"/>
  </node>
</osm>
