<?xml version="1.0" encoding="UTF-8"?>
<osm version="0.6" generator="JOSM">
  <node id="-192" visible="true" lat="44.50281831" lon="-73.18369587">
    <tag k="addr:city" v="Winooski"/>
    <tag k="addr:housenumber" v="450"/>
    <tag k="addr:street" v="Weaver Street"/>
    <tag k="addr:state" v="VT"/>
    <tag k="ref:vcgi:esiteid" v="298669"/>
  </node>
  <node id="-292" visible="true" lat="44.49845655" lon="-73.17259273">
    <tag k="addr:city" v="Winooski"/>
    <tag k="addr:housenumber" v="200"/>
    <tag k="addr:street" v="Gilbrook Road"/>
    <tag k="addr:state" v="VT"/>
    <tag k="ref:vcgi:esiteid" v="298774"/>
  </node>
  <node id="-536" visible="true" lat="44.49288917" lon="-73.17496068">
    <tag k="addr:city" v="Winooski"/>
    <tag k="addr:housenumber" v="298"/>
    <tag k="addr:street" v="East Allen Street"/>
    <tag k="addr:state" v="VT"/>
    <tag k="ref:vcgi:esiteid" v="299018"/>
  </node>
  <node id="-543" visible="true" lat="44.49171886" lon="-73.17410115">
    <tag k="addr:city" v="Winooski"/>
    <tag k="addr:housenumber" v="278"/>
    <tag k="addr:street" v="East Allen Street"/>
    <tag k="addr:state" v="VT"/>
    <tag k="ref:vcgi:esiteid" v="299025"/>
  </node>
  <node id="-742" visible="true" lat="44.49218649" lon="-73.18085781">
    <tag k="addr:city" v="Winooski"/>
    <tag k="addr:housenumber" v="147"/>
    <tag k="addr:street" v="East Allen Street"/>
    <tag k="addr:state" v="VT"/>
    <tag k="ref:vcgi:esiteid" v="299236"/>
  </node>
  <node id="-743" visible="true" lat="44.49231804" lon="-73.18128018">
    <tag k="addr:city" v="Winooski"/>
    <tag k="addr:housenumber" v="135"/>
    <tag k="addr:street" v="East Allen Street"/>
    <tag k="addr:state" v="VT"/>
    <tag k="ref:vcgi:esiteid" v="299237"/>
  </node>
  <node id="-745" visible="true" lat="44.49228261" lon="-73.18183064">
    <tag k="addr:city" v="Winooski"/>
    <tag k="addr:housenumber" v="1"/>
    <tag k="addr:street" v="East Street"/>
    <tag k="addr:state" v="VT"/>
    <tag k="ref:vcgi:esiteid" v="299239"/>
  </node>
  <node id="-751" visible="true" lat="44.49152111" lon="-73.18338755">
    <tag k="addr:city" v="Winooski"/>
    <tag k="addr:housenumber" v="73"/>
    <tag k="addr:street" v="East Allen Street"/>
    <tag k="addr:state" v="VT"/>
    <tag k="ref:vcgi:esiteid" v="299246"/>
  </node>
  <node id="-803" visible="true" lat="44.4928029" lon="-73.18608104">
    <tag k="addr:city" v="Winooski"/>
    <tag k="addr:housenumber" v="109"/>
    <tag k="addr:street" v="Main Street"/>
    <tag k="addr:state" v="VT"/>
    <tag k="ref:vcgi:esiteid" v="299303"/>
  </node>
  <node id="-818" visible="true" lat="44.49189318" lon="-73.18689535">
    <tag k="addr:city" v="Winooski"/>
    <tag k="addr:housenumber" v="70"/>
    <tag k="addr:street" v="Main Street"/>
    <tag k="addr:state" v="VT"/>
    <tag k="ref:vcgi:esiteid" v="299319"/>
  </node>
  <node id="-819" visible="true" lat="44.49266969" lon="-73.18685124">
    <tag k="addr:city" v="Winooski"/>
    <tag k="addr:housenumber" v="6"/>
    <tag k="addr:street" v="Maple Street"/>
    <tag k="addr:state" v="VT"/>
    <tag k="ref:vcgi:esiteid" v="299320"/>
  </node>
  <node id="-832" visible="true" lat="44.49346984" lon="-73.18683402">
    <tag k="addr:city" v="Winooski"/>
    <tag k="addr:housenumber" v="132"/>
    <tag k="addr:street" v="Main Street"/>
    <tag k="addr:state" v="VT"/>
    <tag k="ref:vcgi:esiteid" v="299333"/>
  </node>
  <node id="-835" visible="true" lat="44.4908183" lon="-73.1871113">
    <tag k="addr:city" v="Winooski"/>
    <tag k="addr:housenumber" v="13"/>
    <tag k="addr:street" v="West Center Street"/>
    <tag k="addr:state" v="VT"/>
    <tag k="ref:vcgi:esiteid" v="299336"/>
  </node>
  <node id="-836" visible="true" lat="44.49064529" lon="-73.18669245">
    <tag k="addr:city" v="Winooski"/>
    <tag k="addr:housenumber" v="38"/>
    <tag k="addr:street" v="Main Street"/>
    <tag k="addr:state" v="VT"/>
    <tag k="ref:vcgi:esiteid" v="299337"/>
  </node>
  <node id="-838" visible="true" lat="44.49041996" lon="-73.18670444">
    <tag k="addr:city" v="Winooski"/>
    <tag k="addr:housenumber" v="28"/>
    <tag k="addr:street" v="Main Street"/>
    <tag k="addr:state" v="VT"/>
    <tag k="ref:vcgi:esiteid" v="299339"/>
  </node>
  <node id="-841" visible="true" lat="44.48954247" lon="-73.18794558">
    <tag k="addr:city" v="Winooski"/>
    <tag k="addr:housenumber" v="20"/>
    <tag k="addr:street" v="West Canal Street"/>
    <tag k="addr:state" v="VT"/>
    <tag k="ref:vcgi:esiteid" v="299343"/>
  </node>
  <node id="-848" visible="true" lat="44.48995454" lon="-73.19012582">
    <tag k="addr:city" v="Winooski"/>
    <tag k="addr:housenumber" v="100"/>
    <tag k="addr:street" v="West Canal Street"/>
    <tag k="addr:state" v="VT"/>
    <tag k="ref:vcgi:esiteid" v="299351"/>
  </node>
  <node id="-849" visible="true" lat="44.49072881" lon="-73.19123933">
    <tag k="addr:city" v="Winooski"/>
    <tag k="addr:housenumber" v="130"/>
    <tag k="addr:street" v="West Canal Street"/>
    <tag k="addr:state" v="VT"/>
    <tag k="ref:vcgi:esiteid" v="299352"/>
  </node>
  <node id="-909" visible="true" lat="44.49050044" lon="-73.19747037">
    <tag k="addr:city" v="Winooski"/>
    <tag k="addr:housenumber" v="250"/>
    <tag k="addr:street" v="West Allen Street"/>
    <tag k="addr:state" v="VT"/>
    <tag k="ref:vcgi:esiteid" v="299413"/>
  </node>
  <node id="-950" visible="true" lat="44.49228811" lon="-73.19482379">
    <tag k="addr:city" v="Winooski"/>
    <tag k="addr:housenumber" v="65"/>
    <tag k="addr:street" v="River Street"/>
    <tag k="addr:state" v="VT"/>
    <tag k="ref:vcgi:esiteid" v="299454"/>
  </node>
  <node id="-1019" visible="true" lat="44.49346991" lon="-73.18826576">
    <tag k="addr:city" v="Winooski"/>
    <tag k="addr:housenumber" v="122"/>
    <tag k="addr:street" v="Weaver Street"/>
    <tag k="addr:state" v="VT"/>
    <tag k="ref:vcgi:esiteid" v="299525"/>
  </node>
  <node id="-1097" visible="true" lat="44.49495658" lon="-73.18898015">
    <tag k="addr:city" v="Winooski"/>
    <tag k="addr:housenumber" v="68"/>
    <tag k="addr:street" v="West Spring Street"/>
    <tag k="addr:state" v="VT"/>
    <tag k="ref:vcgi:esiteid" v="299603"/>
  </node>
  <node id="-1117" visible="true" lat="44.49551245" lon="-73.18939322">
    <tag k="addr:city" v="Winooski"/>
    <tag k="addr:housenumber" v="79"/>
    <tag k="addr:street" v="West Spring Street"/>
    <tag k="addr:state" v="VT"/>
    <tag k="ref:vcgi:esiteid" v="299624"/>
  </node>
  <node id="-1121" visible="true" lat="44.49550969" lon="-73.18811134">
    <tag k="addr:city" v="Winooski"/>
    <tag k="addr:housenumber" v="47"/>
    <tag k="addr:street" v="West Spring Street"/>
    <tag k="addr:state" v="VT"/>
    <tag k="ref:vcgi:esiteid" v="299628"/>
  </node>
  <node id="-1131" visible="true" lat="44.4962276" lon="-73.18518133">
    <tag k="addr:city" v="Winooski"/>
    <tag k="addr:housenumber" v="235"/>
    <tag k="addr:street" v="Main Street"/>
    <tag k="addr:state" v="VT"/>
    <tag k="ref:vcgi:esiteid" v="299640"/>
  </node>
  <node id="-1189" visible="true" lat="44.49673953" lon="-73.1871585">
    <tag k="addr:city" v="Winooski"/>
    <tag k="addr:housenumber" v="3"/>
    <tag k="addr:street" v="Saint Peter Street"/>
    <tag k="addr:state" v="VT"/>
    <tag k="ref:vcgi:esiteid" v="299700"/>
  </node>
  <node id="-1194" visible="true" lat="44.49835044" lon="-73.18399192">
    <tag k="addr:city" v="Winooski"/>
    <tag k="addr:housenumber" v="321"/>
    <tag k="addr:street" v="Main Street"/>
    <tag k="addr:state" v="VT"/>
    <tag k="ref:vcgi:esiteid" v="299705"/>
  </node>
  <node id="-1277" visible="true" lat="44.49417938" lon="-73.19110304">
    <tag k="addr:city" v="Winooski"/>
    <tag k="addr:housenumber" v="99"/>
    <tag k="addr:street" v="Malletts Bay Avenue"/>
    <tag k="addr:state" v="VT"/>
    <tag k="ref:vcgi:esiteid" v="299790"/>
  </node>
  <node id="-1322" visible="true" lat="44.49324928" lon="-73.19278246">
    <tag k="addr:city" v="Winooski"/>
    <tag k="addr:housenumber" v="60"/>
    <tag k="addr:street" v="Hickok Street"/>
    <tag k="addr:state" v="VT"/>
    <tag k="ref:vcgi:esiteid" v="299835"/>
  </node>
  <node id="-1578" visible="true" lat="44.49923529" lon="-73.19340253">
    <tag k="addr:city" v="Winooski"/>
    <tag k="addr:housenumber" v="75"/>
    <tag k="addr:street" v="Audet Street"/>
    <tag k="addr:state" v="VT"/>
    <tag k="ref:vcgi:esiteid" v="300094"/>
  </node>
  <node id="-1664" visible="true" lat="44.49030299" lon="-73.18696724">
    <tag k="addr:city" v="Winooski"/>
    <tag k="addr:housenumber" v="7"/>
    <tag k="addr:street" v="West Canal Street"/>
    <tag k="addr:state" v="VT"/>
    <tag k="ref:vcgi:esiteid" v="300185"/>
  </node>
  <node id="-1665" visible="true" lat="44.490091" lon="-73.18707502">
    <tag k="addr:city" v="Winooski"/>
    <tag k="addr:housenumber" v="12"/>
    <tag k="addr:street" v="West Canal Street"/>
    <tag k="addr:state" v="VT"/>
    <tag k="ref:vcgi:esiteid" v="300186"/>
  </node>
  <node id="-1668" visible="true" lat="44.49155914" lon="-73.18833898">
    <tag k="addr:city" v="Winooski"/>
    <tag k="addr:housenumber" v="35"/>
    <tag k="addr:street" v="West Allen Street"/>
    <tag k="addr:state" v="VT"/>
    <tag k="ref:vcgi:esiteid" v="300202"/>
  </node>
  <node id="-1685" visible="true" lat="44.49645268" lon="-73.18843011">
    <tag k="addr:city" v="Winooski"/>
    <tag k="addr:housenumber" v="5"/>
    <tag k="addr:street" v="Saint Peter Street"/>
    <tag k="addr:state" v="VT"/>
    <tag k="ref:vcgi:esiteid" v="300237"/>
  </node>
  <node id="-1712" visible="true" lat="44.49164498" lon="-73.18951897">
    <tag k="addr:city" v="Winooski"/>
    <tag k="addr:housenumber" v="12"/>
    <tag k="addr:street" v="Malletts Bay Avenue"/>
    <tag k="addr:state" v="VT"/>
    <tag k="ref:vcgi:esiteid" v="300298"/>
  </node>
  <node id="-1721" visible="true" lat="44.49077961" lon="-73.18886648">
    <tag k="addr:city" v="Winooski"/>
    <tag k="addr:housenumber" v="79"/>
    <tag k="addr:street" v="West Canal Street"/>
    <tag k="addr:state" v="VT"/>
    <tag k="ref:vcgi:esiteid" v="300310"/>
  </node>
  <node id="-1727" visible="true" lat="44.49333629" lon="-73.18825361">
    <tag k="addr:city" v="Winooski"/>
    <tag k="addr:housenumber" v="116"/>
    <tag k="addr:street" v="Weaver Street"/>
    <tag k="addr:state" v="VT"/>
    <tag k="ref:vcgi:esiteid" v="300318"/>
  </node>
  <node id="-1728" visible="true" lat="44.49339937" lon="-73.18825083">
    <tag k="addr:city" v="Winooski"/>
    <tag k="addr:housenumber" v="118"/>
    <tag k="addr:street" v="Weaver Street"/>
    <tag k="addr:state" v="VT"/>
    <tag k="ref:vcgi:esiteid" v="300319"/>
  </node>
  <node id="-1806" visible="true" lat="44.49155865" lon="-73.18612246">
    <tag k="addr:city" v="Winooski"/>
    <tag k="addr:housenumber" v="11"/>
    <tag k="addr:street" v="East Allen Street"/>
    <tag k="addr:state" v="VT"/>
    <tag k="ref:vcgi:esiteid" v="300478"/>
  </node>
  <node id="-1827" visible="true" lat="44.50086569" lon="-73.18278529">
    <tag k="addr:city" v="Winooski"/>
    <tag k="addr:housenumber" v="401"/>
    <tag k="addr:street" v="Main Street"/>
    <tag k="addr:state" v="VT"/>
    <tag k="ref:vcgi:esiteid" v="300515"/>
  </node>
  <node id="-1829" visible="true" lat="44.49060338" lon="-73.18669195">
    <tag k="addr:city" v="Winooski"/>
    <tag k="addr:housenumber" v="36"/>
    <tag k="addr:street" v="Main Street"/>
    <tag k="addr:state" v="VT"/>
    <tag k="ref:vcgi:esiteid" v="300517"/>
  </node>
  <node id="-1900" visible="true" lat="44.49045214" lon="-73.18254416">
    <tag k="addr:city" v="Winooski"/>
    <tag k="addr:housenumber" v="85"/>
    <tag k="addr:street" v="Winooski Falls Way"/>
    <tag k="addr:state" v="VT"/>
    <tag k="ref:vcgi:esiteid" v="327104"/>
  </node>
  <node id="-1902" visible="true" lat="44.49089428" lon="-73.18254662">
    <tag k="addr:city" v="Winooski"/>
    <tag k="addr:housenumber" v="16"/>
    <tag k="addr:street" v="Abenaki Way"/>
    <tag k="addr:state" v="VT"/>
    <tag k="ref:vcgi:esiteid" v="327106"/>
  </node>
  <node id="-1903" visible="true" lat="44.49004436" lon="-73.18359966">
    <tag k="addr:city" v="Winooski"/>
    <tag k="addr:housenumber" v="60"/>
    <tag k="addr:street" v="Winooski Falls Way"/>
    <tag k="addr:state" v="VT"/>
    <tag k="ref:vcgi:esiteid" v="327109"/>
  </node>
  <node id="-1904" visible="true" lat="44.48979485" lon="-73.18172053">
    <tag k="addr:city" v="Winooski"/>
    <tag k="addr:housenumber" v="110"/>
    <tag k="addr:street" v="Winooski Falls Way"/>
    <tag k="addr:state" v="VT"/>
    <tag k="ref:vcgi:esiteid" v="327110"/>
  </node>
  <node id="-1917" visible="true" lat="44.49073433" lon="-73.19077499">
    <tag k="addr:city" v="Winooski"/>
    <tag k="addr:housenumber" v="120"/>
    <tag k="addr:street" v="West Canal Street"/>
    <tag k="addr:state" v="VT"/>
    <tag k="ref:vcgi:esiteid" v="343964"/>
  </node>
  <node id="-1920" visible="true" lat="44.49116571" lon="-73.18497803">
    <tag k="addr:city" v="Winooski"/>
    <tag k="addr:housenumber" v="10"/>
    <tag k="addr:street" v="East Allen Street"/>
    <tag k="addr:state" v="VT"/>
    <tag k="ref:vcgi:esiteid" v="445510"/>
  </node>
  <node id="-1926" visible="true" lat="44.49002467" lon="-73.18244752">
    <tag k="addr:city" v="Winooski"/>
    <tag k="addr:housenumber" v="80"/>
    <tag k="addr:street" v="Winooski Falls Way"/>
    <tag k="addr:state" v="VT"/>
    <tag k="ref:vcgi:esiteid" v="449689"/>
  </node>
  <node id="-1927" visible="true" lat="44.49031189" lon="-73.1866699">
    <tag k="addr:city" v="Winooski"/>
    <tag k="addr:housenumber" v="24"/>
    <tag k="addr:street" v="Main Street"/>
    <tag k="addr:state" v="VT"/>
    <tag k="ref:vcgi:esiteid" v="449690"/>
  </node>
  <node id="-1929" visible="true" lat="44.49125354" lon="-73.18167276">
    <tag k="addr:city" v="Winooski"/>
    <tag k="addr:housenumber" v="1"/>
    <tag k="addr:street" v="Abenaki Way"/>
    <tag k="addr:state" v="VT"/>
    <tag k="ref:vcgi:esiteid" v="450931"/>
  </node>
  <node id="-1937" visible="true" lat="44.49092823" lon="-73.18561024">
    <tag k="addr:city" v="Winooski"/>
    <tag k="addr:housenumber" v="45"/>
    <tag k="addr:street" v="Main Street"/>
    <tag k="addr:state" v="VT"/>
    <tag k="ref:vcgi:esiteid" v="454363"/>
  </node>
  <node id="-1960" visible="true" lat="44.49036605" lon="-73.19710578">
    <tag k="addr:city" v="Winooski"/>
    <tag k="addr:housenumber" v="250"/>
    <tag k="addr:street" v="West Allen Street"/>
    <tag k="addr:state" v="VT"/>
    <tag k="ref:vcgi:esiteid" v="759552"/>
  </node>
</osm>
