<?xml version="1.0" encoding="UTF-8"?>
<osm version="0.6" generator="JOSM">
  <node id="-100" visible="true" lat="44.62986787" lon="-72.48527648">
    <tag k="addr:city" v="Wolcott"/>
    <tag k="addr:housenumber" v="1830"/>
    <tag k="addr:street" v="Morey Hill Road"/>
    <tag k="addr:state" v="VT"/>
    <tag k="ref:vcgi:esiteid" v="300648"/>
  </node>
  <node id="-101" visible="true" lat="44.62930301" lon="-72.47088665">
    <tag k="addr:city" v="Wolcott"/>
    <tag k="addr:housenumber" v="1491"/>
    <tag k="addr:street" v="Brook Road"/>
    <tag k="addr:state" v="VT"/>
    <tag k="ref:vcgi:esiteid" v="300649"/>
  </node>
  <node id="-102" visible="true" lat="44.62863007" lon="-72.48331611">
    <tag k="addr:city" v="Wolcott"/>
    <tag k="addr:housenumber" v="1686"/>
    <tag k="addr:street" v="Morey Hill Road"/>
    <tag k="addr:state" v="VT"/>
    <tag k="ref:vcgi:esiteid" v="300650"/>
  </node>
  <node id="-104" visible="true" lat="44.62680794" lon="-72.46522399">
    <tag k="addr:city" v="Wolcott"/>
    <tag k="addr:housenumber" v="1153"/>
    <tag k="addr:street" v="Brook Road"/>
    <tag k="addr:state" v="VT"/>
    <tag k="ref:vcgi:esiteid" v="300653"/>
  </node>
  <node id="-105" visible="true" lat="44.62572303" lon="-72.46333352">
    <tag k="addr:city" v="Wolcott"/>
    <tag k="addr:housenumber" v="1036"/>
    <tag k="addr:street" v="Brook Road"/>
    <tag k="addr:state" v="VT"/>
    <tag k="ref:vcgi:esiteid" v="300654"/>
  </node>
  <node id="-107" visible="true" lat="44.6254248" lon="-72.46275652">
    <tag k="addr:city" v="Wolcott"/>
    <tag k="addr:housenumber" v="1014"/>
    <tag k="addr:street" v="Brook Road"/>
    <tag k="addr:state" v="VT"/>
    <tag k="ref:vcgi:esiteid" v="300656"/>
  </node>
  <node id="-108" visible="true" lat="44.6249596" lon="-72.46357343">
    <tag k="addr:city" v="Wolcott"/>
    <tag k="addr:housenumber" v="1005"/>
    <tag k="addr:street" v="Brook Road"/>
    <tag k="addr:state" v="VT"/>
    <tag k="ref:vcgi:esiteid" v="300657"/>
  </node>
  <node id="-109" visible="true" lat="44.62499619" lon="-72.48016366">
    <tag k="addr:city" v="Wolcott"/>
    <tag k="addr:housenumber" v="37"/>
    <tag k="addr:street" v="Wells Road"/>
    <tag k="addr:state" v="VT"/>
    <tag k="ref:vcgi:esiteid" v="300658"/>
  </node>
  <node id="-110" visible="true" lat="44.62478639" lon="-72.461951">
    <tag k="addr:city" v="Wolcott"/>
    <tag k="addr:housenumber" v="45"/>
    <tag k="addr:street" v="Mills Road"/>
    <tag k="addr:state" v="VT"/>
    <tag k="ref:vcgi:esiteid" v="300659"/>
  </node>
  <node id="-111" visible="true" lat="44.62428665" lon="-72.47939309">
    <tag k="addr:city" v="Wolcott"/>
    <tag k="addr:housenumber" v="1335"/>
    <tag k="addr:street" v="Morey Hill Road"/>
    <tag k="addr:state" v="VT"/>
    <tag k="ref:vcgi:esiteid" v="300660"/>
  </node>
  <node id="-112" visible="true" lat="44.62401423" lon="-72.46245511">
    <tag k="addr:city" v="Wolcott"/>
    <tag k="addr:housenumber" v="910"/>
    <tag k="addr:street" v="Brook Road"/>
    <tag k="addr:state" v="VT"/>
    <tag k="ref:vcgi:esiteid" v="300661"/>
  </node>
  <node id="-113" visible="true" lat="44.62291247" lon="-72.48310544">
    <tag k="addr:city" v="Wolcott"/>
    <tag k="addr:housenumber" v="44"/>
    <tag k="addr:street" v="Belanger Lane"/>
    <tag k="addr:state" v="VT"/>
    <tag k="ref:vcgi:esiteid" v="300662"/>
  </node>
  <node id="-114" visible="true" lat="44.6228243" lon="-72.46231703">
    <tag k="addr:city" v="Wolcott"/>
    <tag k="addr:housenumber" v="838"/>
    <tag k="addr:street" v="Brook Road"/>
    <tag k="addr:state" v="VT"/>
    <tag k="ref:vcgi:esiteid" v="300663"/>
  </node>
  <node id="-115" visible="true" lat="44.62179184" lon="-72.48594674">
    <tag k="addr:city" v="Wolcott"/>
    <tag k="addr:housenumber" v="380"/>
    <tag k="addr:street" v="Wells Road"/>
    <tag k="addr:state" v="VT"/>
    <tag k="ref:vcgi:esiteid" v="300664"/>
  </node>
  <node id="-116" visible="true" lat="44.62109712" lon="-72.48177746">
    <tag k="addr:city" v="Wolcott"/>
    <tag k="addr:housenumber" v="212"/>
    <tag k="addr:street" v="Belanger Lane"/>
    <tag k="addr:state" v="VT"/>
    <tag k="ref:vcgi:esiteid" v="300665"/>
  </node>
  <node id="-117" visible="true" lat="44.62088013" lon="-72.46117409">
    <tag k="addr:city" v="Wolcott"/>
    <tag k="addr:housenumber" v="670"/>
    <tag k="addr:street" v="Brook Road"/>
    <tag k="addr:state" v="VT"/>
    <tag k="ref:vcgi:esiteid" v="300666"/>
  </node>
  <node id="-119" visible="true" lat="44.62072016" lon="-72.46179774">
    <tag k="addr:city" v="Wolcott"/>
    <tag k="addr:housenumber" v="678"/>
    <tag k="addr:street" v="Brook Road"/>
    <tag k="addr:state" v="VT"/>
    <tag k="ref:vcgi:esiteid" v="300668"/>
  </node>
  <node id="-122" visible="true" lat="44.61957545" lon="-72.44579802">
    <tag k="addr:city" v="Wolcott"/>
    <tag k="addr:housenumber" v="5181"/>
    <tag k="addr:street" v="North Wolcott Road"/>
    <tag k="addr:state" v="VT"/>
    <tag k="ref:vcgi:esiteid" v="300671"/>
  </node>
  <node id="-128" visible="true" lat="44.61790354" lon="-72.4588675">
    <tag k="addr:city" v="Wolcott"/>
    <tag k="addr:housenumber" v="191"/>
    <tag k="addr:street" v="Stanley Road"/>
    <tag k="addr:state" v="VT"/>
    <tag k="ref:vcgi:esiteid" v="300677"/>
  </node>
  <node id="-129" visible="true" lat="44.61742994" lon="-72.44539079">
    <tag k="addr:city" v="Wolcott"/>
    <tag k="addr:housenumber" v="5038"/>
    <tag k="addr:street" v="North Wolcott Road"/>
    <tag k="addr:state" v="VT"/>
    <tag k="ref:vcgi:esiteid" v="300678"/>
  </node>
  <node id="-133" visible="true" lat="44.61706397" lon="-72.4514694">
    <tag k="addr:city" v="Wolcott"/>
    <tag k="addr:housenumber" v="601"/>
    <tag k="addr:street" v="Reed Road"/>
    <tag k="addr:state" v="VT"/>
    <tag k="ref:vcgi:esiteid" v="300682"/>
  </node>
  <node id="-134" visible="true" lat="44.61693546" lon="-72.4814777">
    <tag k="addr:city" v="Wolcott"/>
    <tag k="addr:housenumber" v="1239"/>
    <tag k="addr:street" v="Baldwin Brook Road"/>
    <tag k="addr:state" v="VT"/>
    <tag k="ref:vcgi:esiteid" v="300683"/>
  </node>
  <node id="-135" visible="true" lat="44.61635102" lon="-72.48157514">
    <tag k="addr:city" v="Wolcott"/>
    <tag k="addr:housenumber" v="1191"/>
    <tag k="addr:street" v="Baldwin Brook Road"/>
    <tag k="addr:state" v="VT"/>
    <tag k="ref:vcgi:esiteid" v="300684"/>
  </node>
  <node id="-136" visible="true" lat="44.61624908" lon="-72.44567116">
    <tag k="addr:city" v="Wolcott"/>
    <tag k="addr:housenumber" v="4930"/>
    <tag k="addr:street" v="North Wolcott Road"/>
    <tag k="addr:state" v="VT"/>
    <tag k="ref:vcgi:esiteid" v="300685"/>
  </node>
  <node id="-140" visible="true" lat="44.61555099" lon="-72.44727334">
    <tag k="addr:city" v="Wolcott"/>
    <tag k="addr:housenumber" v="4893"/>
    <tag k="addr:street" v="North Wolcott Road"/>
    <tag k="addr:state" v="VT"/>
    <tag k="ref:vcgi:esiteid" v="300689"/>
  </node>
  <node id="-141" visible="true" lat="44.61546132" lon="-72.44608796">
    <tag k="addr:city" v="Wolcott"/>
    <tag k="addr:housenumber" v="4894"/>
    <tag k="addr:street" v="North Wolcott Road"/>
    <tag k="addr:state" v="VT"/>
    <tag k="ref:vcgi:esiteid" v="300690"/>
  </node>
  <node id="-143" visible="true" lat="44.61537214" lon="-72.44751403">
    <tag k="addr:city" v="Wolcott"/>
    <tag k="addr:housenumber" v="4891"/>
    <tag k="addr:street" v="North Wolcott Road"/>
    <tag k="addr:state" v="VT"/>
    <tag k="ref:vcgi:esiteid" v="300692"/>
  </node>
  <node id="-145" visible="true" lat="44.61522293" lon="-72.46025094">
    <tag k="addr:city" v="Wolcott"/>
    <tag k="addr:housenumber" v="230"/>
    <tag k="addr:street" v="Brook Road"/>
    <tag k="addr:state" v="VT"/>
    <tag k="ref:vcgi:esiteid" v="300694"/>
  </node>
  <node id="-146" visible="true" lat="44.61564836" lon="-72.48165645">
    <tag k="addr:city" v="Wolcott"/>
    <tag k="addr:housenumber" v="1119"/>
    <tag k="addr:street" v="Baldwin Brook Road"/>
    <tag k="addr:state" v="VT"/>
    <tag k="ref:vcgi:esiteid" v="300695"/>
  </node>
  <node id="-147" visible="true" lat="44.61490161" lon="-72.48139956">
    <tag k="addr:city" v="Wolcott"/>
    <tag k="addr:housenumber" v="1146"/>
    <tag k="addr:street" v="Baldwin Brook Road"/>
    <tag k="addr:state" v="VT"/>
    <tag k="ref:vcgi:esiteid" v="300696"/>
  </node>
  <node id="-148" visible="true" lat="44.61483076" lon="-72.44771859">
    <tag k="addr:city" v="Wolcott"/>
    <tag k="addr:housenumber" v="4795"/>
    <tag k="addr:street" v="North Wolcott Road"/>
    <tag k="addr:state" v="VT"/>
    <tag k="ref:vcgi:esiteid" v="300698"/>
  </node>
  <node id="-150" visible="true" lat="44.61453623" lon="-72.48255721">
    <tag k="addr:city" v="Wolcott"/>
    <tag k="addr:housenumber" v="1091"/>
    <tag k="addr:street" v="Baldwin Brook Road"/>
    <tag k="addr:state" v="VT"/>
    <tag k="ref:vcgi:esiteid" v="300701"/>
  </node>
  <node id="-154" visible="true" lat="44.61309642" lon="-72.46280853">
    <tag k="addr:city" v="Wolcott"/>
    <tag k="addr:housenumber" v="160"/>
    <tag k="addr:street" v="Morey Hill Road"/>
    <tag k="addr:state" v="VT"/>
    <tag k="ref:vcgi:esiteid" v="300707"/>
  </node>
  <node id="-156" visible="true" lat="44.6129871" lon="-72.46111751">
    <tag k="addr:city" v="Wolcott"/>
    <tag k="addr:housenumber" v="130"/>
    <tag k="addr:street" v="Brook Road"/>
    <tag k="addr:state" v="VT"/>
    <tag k="ref:vcgi:esiteid" v="300709"/>
  </node>
  <node id="-157" visible="true" lat="44.61239176" lon="-72.46008947">
    <tag k="addr:city" v="Wolcott"/>
    <tag k="addr:housenumber" v="81"/>
    <tag k="addr:street" v="Reed Road"/>
    <tag k="addr:state" v="VT"/>
    <tag k="ref:vcgi:esiteid" v="300711"/>
  </node>
  <node id="-158" visible="true" lat="44.61234032" lon="-72.46131113">
    <tag k="addr:city" v="Wolcott"/>
    <tag k="addr:housenumber" v="103"/>
    <tag k="addr:street" v="Brook Road"/>
    <tag k="addr:state" v="VT"/>
    <tag k="ref:vcgi:esiteid" v="300712"/>
  </node>
  <node id="-159" visible="true" lat="44.61231613" lon="-72.48233803">
    <tag k="addr:city" v="Wolcott"/>
    <tag k="addr:housenumber" v="950"/>
    <tag k="addr:street" v="Baldwin Brook Road"/>
    <tag k="addr:state" v="VT"/>
    <tag k="ref:vcgi:esiteid" v="300713"/>
  </node>
  <node id="-160" visible="true" lat="44.61238377" lon="-72.45882732">
    <tag k="addr:city" v="Wolcott"/>
    <tag k="addr:housenumber" v="100"/>
    <tag k="addr:street" v="Reed Road"/>
    <tag k="addr:state" v="VT"/>
    <tag k="ref:vcgi:esiteid" v="300714"/>
  </node>
  <node id="-161" visible="true" lat="44.61220932" lon="-72.45401009">
    <tag k="addr:city" v="Wolcott"/>
    <tag k="addr:housenumber" v="4433"/>
    <tag k="addr:street" v="North Wolcott Road"/>
    <tag k="addr:state" v="VT"/>
    <tag k="ref:vcgi:esiteid" v="300715"/>
  </node>
  <node id="-162" visible="true" lat="44.61212035" lon="-72.45328413">
    <tag k="addr:city" v="Wolcott"/>
    <tag k="addr:housenumber" v="4446"/>
    <tag k="addr:street" v="North Wolcott Road"/>
    <tag k="addr:state" v="VT"/>
    <tag k="ref:vcgi:esiteid" v="300716"/>
  </node>
  <node id="-164" visible="true" lat="44.61179184" lon="-72.46461223">
    <tag k="addr:city" v="Wolcott"/>
    <tag k="addr:housenumber" v="110"/>
    <tag k="addr:street" v="Jacks Road"/>
    <tag k="addr:state" v="VT"/>
    <tag k="ref:vcgi:esiteid" v="300718"/>
  </node>
  <node id="-165" visible="true" lat="44.61170197" lon="-72.42966469">
    <tag k="addr:city" v="Wolcott"/>
    <tag k="addr:housenumber" v="4683"/>
    <tag k="addr:street" v="Town Hill Road"/>
    <tag k="addr:state" v="VT"/>
    <tag k="ref:vcgi:esiteid" v="300719"/>
  </node>
  <node id="-166" visible="true" lat="44.61189676" lon="-72.46250378">
    <tag k="addr:city" v="Wolcott"/>
    <tag k="addr:housenumber" v="30"/>
    <tag k="addr:street" v="Autumn Lane"/>
    <tag k="addr:state" v="VT"/>
    <tag k="ref:vcgi:esiteid" v="300720"/>
  </node>
  <node id="-167" visible="true" lat="44.61162513" lon="-72.4601816">
    <tag k="addr:city" v="Wolcott"/>
    <tag k="addr:housenumber" v="21"/>
    <tag k="addr:street" v="Reed Road"/>
    <tag k="addr:state" v="VT"/>
    <tag k="ref:vcgi:esiteid" v="300721"/>
  </node>
  <node id="-168" visible="true" lat="44.61127093" lon="-72.46119654">
    <tag k="addr:city" v="Wolcott"/>
    <tag k="addr:housenumber" v="21"/>
    <tag k="addr:street" v="Morey Hill Road"/>
    <tag k="addr:state" v="VT"/>
    <tag k="ref:vcgi:esiteid" v="300722"/>
  </node>
  <node id="-169" visible="true" lat="44.6114033" lon="-72.48366433">
    <tag k="addr:city" v="Wolcott"/>
    <tag k="addr:housenumber" v="857"/>
    <tag k="addr:street" v="Baldwin Brook Road"/>
    <tag k="addr:state" v="VT"/>
    <tag k="ref:vcgi:esiteid" v="300723"/>
  </node>
  <node id="-170" visible="true" lat="44.61094669" lon="-72.46118592">
    <tag k="addr:city" v="Wolcott"/>
    <tag k="addr:housenumber" v="4053"/>
    <tag k="addr:street" v="North Wolcott Road"/>
    <tag k="addr:state" v="VT"/>
    <tag k="ref:vcgi:esiteid" v="300724"/>
  </node>
  <node id="-171" visible="true" lat="44.61086655" lon="-72.43020638">
    <tag k="addr:city" v="Wolcott"/>
    <tag k="addr:housenumber" v="4621"/>
    <tag k="addr:street" v="Town Hill Road"/>
    <tag k="addr:state" v="VT"/>
    <tag k="ref:vcgi:esiteid" v="300725"/>
  </node>
  <node id="-173" visible="true" lat="44.6105142" lon="-72.48361039">
    <tag k="addr:city" v="Wolcott"/>
    <tag k="addr:housenumber" v="825"/>
    <tag k="addr:street" v="Baldwin Brook Road"/>
    <tag k="addr:state" v="VT"/>
    <tag k="ref:vcgi:esiteid" v="300727"/>
  </node>
  <node id="-175" visible="true" lat="44.61035156" lon="-72.46112069">
    <tag k="addr:city" v="Wolcott"/>
    <tag k="addr:housenumber" v="4050"/>
    <tag k="addr:street" v="North Wolcott Road"/>
    <tag k="addr:state" v="VT"/>
    <tag k="ref:vcgi:esiteid" v="300729"/>
  </node>
  <node id="-178" visible="true" lat="44.6097374" lon="-72.48501595">
    <tag k="addr:city" v="Wolcott"/>
    <tag k="addr:housenumber" v="545"/>
    <tag k="addr:street" v="Baldwin Brook Road"/>
    <tag k="addr:state" v="VT"/>
    <tag k="ref:vcgi:esiteid" v="300732"/>
  </node>
  <node id="-179" visible="true" lat="44.60950839" lon="-72.46200347">
    <tag k="addr:city" v="Wolcott"/>
    <tag k="addr:housenumber" v="3940"/>
    <tag k="addr:street" v="North Wolcott Road"/>
    <tag k="addr:state" v="VT"/>
    <tag k="ref:vcgi:esiteid" v="300733"/>
  </node>
  <node id="-182" visible="true" lat="44.60940103" lon="-72.48785494">
    <tag k="addr:city" v="Wolcott"/>
    <tag k="addr:housenumber" v="50"/>
    <tag k="addr:street" v="Lurvey Road"/>
    <tag k="addr:state" v="VT"/>
    <tag k="ref:vcgi:esiteid" v="300736"/>
  </node>
  <node id="-186" visible="true" lat="44.60892487" lon="-72.43180093">
    <tag k="addr:city" v="Wolcott"/>
    <tag k="addr:housenumber" v="4465"/>
    <tag k="addr:street" v="Town Hill Road"/>
    <tag k="addr:state" v="VT"/>
    <tag k="ref:vcgi:esiteid" v="300740"/>
  </node>
  <node id="-189" visible="true" lat="44.60828018" lon="-72.43406686">
    <tag k="addr:city" v="Wolcott"/>
    <tag k="addr:housenumber" v="4363"/>
    <tag k="addr:street" v="Town Hill Road"/>
    <tag k="addr:state" v="VT"/>
    <tag k="ref:vcgi:esiteid" v="300743"/>
  </node>
  <node id="-195" visible="true" lat="44.60691452" lon="-72.43346413">
    <tag k="addr:city" v="Wolcott"/>
    <tag k="addr:housenumber" v="4303"/>
    <tag k="addr:street" v="Town Hill Road"/>
    <tag k="addr:state" v="VT"/>
    <tag k="ref:vcgi:esiteid" v="300751"/>
  </node>
  <node id="-199" visible="true" lat="44.60598373" lon="-72.43473061">
    <tag k="addr:city" v="Wolcott"/>
    <tag k="addr:housenumber" v="4197"/>
    <tag k="addr:street" v="Town Hill Road"/>
    <tag k="addr:state" v="VT"/>
    <tag k="ref:vcgi:esiteid" v="300755"/>
  </node>
  <node id="-203" visible="true" lat="44.60505295" lon="-72.43641671">
    <tag k="addr:city" v="Wolcott"/>
    <tag k="addr:housenumber" v="4141"/>
    <tag k="addr:street" v="Town Hill Road"/>
    <tag k="addr:state" v="VT"/>
    <tag k="ref:vcgi:esiteid" v="300759"/>
  </node>
  <node id="-209" visible="true" lat="44.60398099" lon="-72.43737732">
    <tag k="addr:city" v="Wolcott"/>
    <tag k="addr:housenumber" v="4009"/>
    <tag k="addr:street" v="Town Hill Road"/>
    <tag k="addr:state" v="VT"/>
    <tag k="ref:vcgi:esiteid" v="300765"/>
  </node>
  <node id="-210" visible="true" lat="44.60320111" lon="-72.43309111">
    <tag k="addr:city" v="Wolcott"/>
    <tag k="addr:housenumber" v="5783"/>
    <tag k="addr:street" v="East Hill Road"/>
    <tag k="addr:state" v="VT"/>
    <tag k="ref:vcgi:esiteid" v="300767"/>
  </node>
  <node id="-211" visible="true" lat="44.60355731" lon="-72.43501436">
    <tag k="addr:city" v="Wolcott"/>
    <tag k="addr:housenumber" v="4056"/>
    <tag k="addr:street" v="Town Hill Road"/>
    <tag k="addr:state" v="VT"/>
    <tag k="ref:vcgi:esiteid" v="300768"/>
  </node>
  <node id="-212" visible="true" lat="44.60328488" lon="-72.43092512">
    <tag k="addr:city" v="Wolcott"/>
    <tag k="addr:housenumber" v="5666"/>
    <tag k="addr:street" v="East Hill Road"/>
    <tag k="addr:state" v="VT"/>
    <tag k="ref:vcgi:esiteid" v="300769"/>
  </node>
  <node id="-213" visible="true" lat="44.602524" lon="-72.45037409">
    <tag k="addr:city" v="Wolcott"/>
    <tag k="addr:housenumber" v="520"/>
    <tag k="addr:street" v="Manley Road"/>
    <tag k="addr:state" v="VT"/>
    <tag k="ref:vcgi:esiteid" v="300770"/>
  </node>
  <node id="-218" visible="true" lat="44.60195415" lon="-72.48678038">
    <tag k="addr:city" v="Wolcott"/>
    <tag k="addr:housenumber" v="1069"/>
    <tag k="addr:street" v="Sand Hill Road"/>
    <tag k="addr:state" v="VT"/>
    <tag k="ref:vcgi:esiteid" v="300775"/>
  </node>
  <node id="-220" visible="true" lat="44.60206617" lon="-72.44588769">
    <tag k="addr:city" v="Wolcott"/>
    <tag k="addr:housenumber" v="400"/>
    <tag k="addr:street" v="Manley Road"/>
    <tag k="addr:state" v="VT"/>
    <tag k="ref:vcgi:esiteid" v="300777"/>
  </node>
  <node id="-222" visible="true" lat="44.60182803" lon="-72.48854775">
    <tag k="addr:city" v="Wolcott"/>
    <tag k="addr:housenumber" v="1149"/>
    <tag k="addr:street" v="Sand Hill Road"/>
    <tag k="addr:state" v="VT"/>
    <tag k="ref:vcgi:esiteid" v="300779"/>
  </node>
  <node id="-223" visible="true" lat="44.60176449" lon="-72.43947359">
    <tag k="addr:city" v="Wolcott"/>
    <tag k="addr:housenumber" v="3847"/>
    <tag k="addr:street" v="Town Hill Road"/>
    <tag k="addr:state" v="VT"/>
    <tag k="ref:vcgi:esiteid" v="300780"/>
  </node>
  <node id="-224" visible="true" lat="44.60183289" lon="-72.44604477">
    <tag k="addr:city" v="Wolcott"/>
    <tag k="addr:housenumber" v="398"/>
    <tag k="addr:street" v="Manley Road"/>
    <tag k="addr:state" v="VT"/>
    <tag k="ref:vcgi:esiteid" v="300781"/>
  </node>
  <node id="-225" visible="true" lat="44.60163574" lon="-72.43840816">
    <tag k="addr:city" v="Wolcott"/>
    <tag k="addr:housenumber" v="3845"/>
    <tag k="addr:street" v="Town Hill Road"/>
    <tag k="addr:state" v="VT"/>
    <tag k="ref:vcgi:esiteid" v="300782"/>
  </node>
  <node id="-233" visible="true" lat="44.59972004" lon="-72.4283101">
    <tag k="addr:city" v="Wolcott"/>
    <tag k="addr:housenumber" v="5505"/>
    <tag k="addr:street" v="East Hill Road"/>
    <tag k="addr:state" v="VT"/>
    <tag k="ref:vcgi:esiteid" v="300790"/>
  </node>
  <node id="-234" visible="true" lat="44.59983032" lon="-72.43866255">
    <tag k="addr:city" v="Wolcott"/>
    <tag k="addr:housenumber" v="3727"/>
    <tag k="addr:street" v="Town Hill Road"/>
    <tag k="addr:state" v="VT"/>
    <tag k="ref:vcgi:esiteid" v="300791"/>
  </node>
  <node id="-236" visible="true" lat="44.59952165" lon="-72.48915132">
    <tag k="addr:city" v="Wolcott"/>
    <tag k="addr:housenumber" v="2385"/>
    <tag k="addr:street" v="West Hill Road"/>
    <tag k="addr:state" v="VT"/>
    <tag k="ref:vcgi:esiteid" v="300793"/>
  </node>
  <node id="-237" visible="true" lat="44.59967949" lon="-72.41809726">
    <tag k="addr:city" v="Wolcott"/>
    <tag k="addr:housenumber" v="4964"/>
    <tag k="addr:street" v="East Hill Road"/>
    <tag k="addr:state" v="VT"/>
    <tag k="ref:vcgi:esiteid" v="300794"/>
  </node>
  <node id="-239" visible="true" lat="44.59958447" lon="-72.4175517">
    <tag k="addr:city" v="Wolcott"/>
    <tag k="addr:housenumber" v="4932"/>
    <tag k="addr:street" v="East Hill Road"/>
    <tag k="addr:state" v="VT"/>
    <tag k="ref:vcgi:esiteid" v="300796"/>
  </node>
  <node id="-240" visible="true" lat="44.59942699" lon="-72.41686755">
    <tag k="addr:city" v="Wolcott"/>
    <tag k="addr:housenumber" v="4900"/>
    <tag k="addr:street" v="East Hill Road"/>
    <tag k="addr:state" v="VT"/>
    <tag k="ref:vcgi:esiteid" v="300797"/>
  </node>
  <node id="-242" visible="true" lat="44.59746679" lon="-72.41394972">
    <tag k="addr:city" v="Wolcott"/>
    <tag k="addr:housenumber" v="4727"/>
    <tag k="addr:street" v="East Hill Road"/>
    <tag k="addr:state" v="VT"/>
    <tag k="ref:vcgi:esiteid" v="300799"/>
  </node>
  <node id="-244" visible="true" lat="44.59727036" lon="-72.50643947">
    <tag k="addr:city" v="Wolcott"/>
    <tag k="addr:housenumber" v="1417"/>
    <tag k="addr:street" v="Jones Lane"/>
    <tag k="addr:state" v="VT"/>
    <tag k="ref:vcgi:esiteid" v="300801"/>
  </node>
  <node id="-246" visible="true" lat="44.59681702" lon="-72.44019326">
    <tag k="addr:city" v="Wolcott"/>
    <tag k="addr:housenumber" v="3530"/>
    <tag k="addr:street" v="Town Hill Road"/>
    <tag k="addr:state" v="VT"/>
    <tag k="ref:vcgi:esiteid" v="300804"/>
  </node>
  <node id="-247" visible="true" lat="44.5965805" lon="-72.41034707">
    <tag k="addr:city" v="Wolcott"/>
    <tag k="addr:housenumber" v="4592"/>
    <tag k="addr:street" v="East Hill Road"/>
    <tag k="addr:state" v="VT"/>
    <tag k="ref:vcgi:esiteid" v="300805"/>
  </node>
  <node id="-249" visible="true" lat="44.59646607" lon="-72.38941201">
    <tag k="addr:city" v="Wolcott"/>
    <tag k="addr:housenumber" v="198"/>
    <tag k="addr:street" v="Hines Road"/>
    <tag k="addr:state" v="VT"/>
    <tag k="ref:vcgi:esiteid" v="300807"/>
  </node>
  <node id="-255" visible="true" lat="44.59421609" lon="-72.4885725">
    <tag k="addr:city" v="Wolcott"/>
    <tag k="addr:housenumber" v="2007"/>
    <tag k="addr:street" v="West Hill Road"/>
    <tag k="addr:state" v="VT"/>
    <tag k="ref:vcgi:esiteid" v="300813"/>
  </node>
  <node id="-256" visible="true" lat="44.59308693" lon="-72.48894925">
    <tag k="addr:city" v="Wolcott"/>
    <tag k="addr:housenumber" v="1887"/>
    <tag k="addr:street" v="West Hill Road"/>
    <tag k="addr:state" v="VT"/>
    <tag k="ref:vcgi:esiteid" v="300814"/>
  </node>
  <node id="-261" visible="true" lat="44.59132443" lon="-72.50047363">
    <tag k="addr:city" v="Wolcott"/>
    <tag k="addr:housenumber" v="771"/>
    <tag k="addr:street" v="Jones Lane"/>
    <tag k="addr:state" v="VT"/>
    <tag k="ref:vcgi:esiteid" v="300819"/>
  </node>
  <node id="-266" visible="true" lat="44.59039819" lon="-72.49506983">
    <tag k="addr:city" v="Wolcott"/>
    <tag k="addr:housenumber" v="132"/>
    <tag k="addr:street" v="Another Way"/>
    <tag k="addr:state" v="VT"/>
    <tag k="ref:vcgi:esiteid" v="300824"/>
  </node>
  <node id="-267" visible="true" lat="44.59017554" lon="-72.50009005">
    <tag k="addr:city" v="Wolcott"/>
    <tag k="addr:housenumber" v="713"/>
    <tag k="addr:street" v="Jones Lane"/>
    <tag k="addr:state" v="VT"/>
    <tag k="ref:vcgi:esiteid" v="300825"/>
  </node>
  <node id="-272" visible="true" lat="44.58926848" lon="-72.49837819">
    <tag k="addr:city" v="Wolcott"/>
    <tag k="addr:housenumber" v="584"/>
    <tag k="addr:street" v="Jones Lane"/>
    <tag k="addr:state" v="VT"/>
    <tag k="ref:vcgi:esiteid" v="300830"/>
  </node>
  <node id="-274" visible="true" lat="44.58862412" lon="-72.49982392">
    <tag k="addr:city" v="Wolcott"/>
    <tag k="addr:housenumber" v="565"/>
    <tag k="addr:street" v="Jones Lane"/>
    <tag k="addr:state" v="VT"/>
    <tag k="ref:vcgi:esiteid" v="300834"/>
  </node>
  <node id="-277" visible="true" lat="44.58818939" lon="-72.49921055">
    <tag k="addr:city" v="Wolcott"/>
    <tag k="addr:housenumber" v="547"/>
    <tag k="addr:street" v="Jones Lane"/>
    <tag k="addr:state" v="VT"/>
    <tag k="ref:vcgi:esiteid" v="300837"/>
  </node>
  <node id="-279" visible="true" lat="44.58819869" lon="-72.49650141">
    <tag k="addr:city" v="Wolcott"/>
    <tag k="addr:housenumber" v="436"/>
    <tag k="addr:street" v="Jones Lane"/>
    <tag k="addr:state" v="VT"/>
    <tag k="ref:vcgi:esiteid" v="300839"/>
  </node>
  <node id="-287" visible="true" lat="44.58627543" lon="-72.49749716">
    <tag k="addr:city" v="Wolcott"/>
    <tag k="addr:housenumber" v="201"/>
    <tag k="addr:street" v="Arnolds Lane"/>
    <tag k="addr:state" v="VT"/>
    <tag k="ref:vcgi:esiteid" v="300847"/>
  </node>
  <node id="-288" visible="true" lat="44.58454456" lon="-72.38267881">
    <tag k="addr:city" v="Wolcott"/>
    <tag k="addr:housenumber" v="276"/>
    <tag k="addr:street" v="Trout Lilly Lane"/>
    <tag k="addr:state" v="VT"/>
    <tag k="ref:vcgi:esiteid" v="300848"/>
  </node>
  <node id="-289" visible="true" lat="44.58593068" lon="-72.49863295">
    <tag k="addr:city" v="Wolcott"/>
    <tag k="addr:housenumber" v="314"/>
    <tag k="addr:street" v="Arnolds Lane"/>
    <tag k="addr:state" v="VT"/>
    <tag k="ref:vcgi:esiteid" v="300849"/>
  </node>
  <node id="-294" visible="true" lat="44.5853491" lon="-72.49549266">
    <tag k="addr:city" v="Wolcott"/>
    <tag k="addr:housenumber" v="225"/>
    <tag k="addr:street" v="Jones Lane"/>
    <tag k="addr:state" v="VT"/>
    <tag k="ref:vcgi:esiteid" v="300854"/>
  </node>
  <node id="-296" visible="true" lat="44.58525156" lon="-72.49118623">
    <tag k="addr:city" v="Wolcott"/>
    <tag k="addr:housenumber" v="1321"/>
    <tag k="addr:street" v="West Hill Road"/>
    <tag k="addr:state" v="VT"/>
    <tag k="ref:vcgi:esiteid" v="300856"/>
  </node>
  <node id="-299" visible="true" lat="44.58484223" lon="-72.49305564">
    <tag k="addr:city" v="Wolcott"/>
    <tag k="addr:housenumber" v="158"/>
    <tag k="addr:street" v="Jones Lane"/>
    <tag k="addr:state" v="VT"/>
    <tag k="ref:vcgi:esiteid" v="300859"/>
  </node>
  <node id="-300" visible="true" lat="44.5842037" lon="-72.4967587">
    <tag k="addr:city" v="Wolcott"/>
    <tag k="addr:housenumber" v="67"/>
    <tag k="addr:street" v="Arnolds Lane"/>
    <tag k="addr:state" v="VT"/>
    <tag k="ref:vcgi:esiteid" v="300860"/>
  </node>
  <node id="-301" visible="true" lat="44.58455837" lon="-72.49039362">
    <tag k="addr:city" v="Wolcott"/>
    <tag k="addr:housenumber" v="1288"/>
    <tag k="addr:street" v="West Hill Road"/>
    <tag k="addr:state" v="VT"/>
    <tag k="ref:vcgi:esiteid" v="300861"/>
  </node>
  <node id="-302" visible="true" lat="44.58454357" lon="-72.49493046">
    <tag k="addr:city" v="Wolcott"/>
    <tag k="addr:housenumber" v="47"/>
    <tag k="addr:street" v="Arnolds Lane"/>
    <tag k="addr:state" v="VT"/>
    <tag k="ref:vcgi:esiteid" v="300862"/>
  </node>
  <node id="-304" visible="true" lat="44.58324654" lon="-72.49375733">
    <tag k="addr:city" v="Wolcott"/>
    <tag k="addr:housenumber" v="89"/>
    <tag k="addr:street" v="Jones Lane"/>
    <tag k="addr:state" v="VT"/>
    <tag k="ref:vcgi:esiteid" v="300864"/>
  </node>
  <node id="-305" visible="true" lat="44.58318177" lon="-72.49108132">
    <tag k="addr:city" v="Wolcott"/>
    <tag k="addr:housenumber" v="1213"/>
    <tag k="addr:street" v="West Hill Road"/>
    <tag k="addr:state" v="VT"/>
    <tag k="ref:vcgi:esiteid" v="300865"/>
  </node>
  <node id="-307" visible="true" lat="44.58197784" lon="-72.49428567">
    <tag k="addr:city" v="Wolcott"/>
    <tag k="addr:housenumber" v="1077"/>
    <tag k="addr:street" v="West Hill Road"/>
    <tag k="addr:state" v="VT"/>
    <tag k="ref:vcgi:esiteid" v="300867"/>
  </node>
  <node id="-313" visible="true" lat="44.58060837" lon="-72.39041909">
    <tag k="addr:city" v="Wolcott"/>
    <tag k="addr:housenumber" v="1411"/>
    <tag k="addr:street" v="Hines Road"/>
    <tag k="addr:state" v="VT"/>
    <tag k="ref:vcgi:esiteid" v="300873"/>
  </node>
  <node id="-344" visible="true" lat="44.57439423" lon="-72.45788583">
    <tag k="addr:city" v="Wolcott"/>
    <tag k="addr:housenumber" v="1751"/>
    <tag k="addr:street" v="Town Hill Road"/>
    <tag k="addr:state" v="VT"/>
    <tag k="ref:vcgi:esiteid" v="300904"/>
  </node>
  <node id="-349" visible="true" lat="44.57398156" lon="-72.46038583">
    <tag k="addr:city" v="Wolcott"/>
    <tag k="addr:housenumber" v="1665"/>
    <tag k="addr:street" v="Town Hill Road"/>
    <tag k="addr:state" v="VT"/>
    <tag k="ref:vcgi:esiteid" v="300909"/>
  </node>
  <node id="-351" visible="true" lat="44.57338333" lon="-72.45613106">
    <tag k="addr:city" v="Wolcott"/>
    <tag k="addr:housenumber" v="1720"/>
    <tag k="addr:street" v="Town Hill Road"/>
    <tag k="addr:state" v="VT"/>
    <tag k="ref:vcgi:esiteid" v="300911"/>
  </node>
  <node id="-352" visible="true" lat="44.5733223" lon="-72.47843941">
    <tag k="addr:city" v="Wolcott"/>
    <tag k="addr:housenumber" v="1195"/>
    <tag k="addr:street" v="North Wolcott Road"/>
    <tag k="addr:state" v="VT"/>
    <tag k="ref:vcgi:esiteid" v="300912"/>
  </node>
  <node id="-353" visible="true" lat="44.57331433" lon="-72.40347682">
    <tag k="addr:city" v="Wolcott"/>
    <tag k="addr:housenumber" v="156"/>
    <tag k="addr:street" v="Lake Wapanaki Road"/>
    <tag k="addr:state" v="VT"/>
    <tag k="ref:vcgi:esiteid" v="300913"/>
  </node>
  <node id="-357" visible="true" lat="44.57276906" lon="-72.48414752">
    <tag k="addr:city" v="Wolcott"/>
    <tag k="addr:housenumber" v="333"/>
    <tag k="addr:street" v="West Hill Road"/>
    <tag k="addr:state" v="VT"/>
    <tag k="ref:vcgi:esiteid" v="300917"/>
  </node>
  <node id="-358" visible="true" lat="44.5726767" lon="-72.46178293">
    <tag k="addr:city" v="Wolcott"/>
    <tag k="addr:housenumber" v="1539"/>
    <tag k="addr:street" v="Town Hill Road"/>
    <tag k="addr:state" v="VT"/>
    <tag k="ref:vcgi:esiteid" v="300918"/>
  </node>
  <node id="-362" visible="true" lat="44.57241685" lon="-72.40375939">
    <tag k="addr:city" v="Wolcott"/>
    <tag k="addr:housenumber" v="40"/>
    <tag k="addr:street" v="Archer Drive"/>
    <tag k="addr:state" v="VT"/>
    <tag k="ref:vcgi:esiteid" v="300922"/>
  </node>
  <node id="-367" visible="true" lat="44.57151794" lon="-72.46032723">
    <tag k="addr:city" v="Wolcott"/>
    <tag k="addr:housenumber" v="1515"/>
    <tag k="addr:street" v="Town Hill Road"/>
    <tag k="addr:state" v="VT"/>
    <tag k="ref:vcgi:esiteid" v="300927"/>
  </node>
  <node id="-371" visible="true" lat="44.57093048" lon="-72.47629556">
    <tag k="addr:city" v="Wolcott"/>
    <tag k="addr:housenumber" v="1390"/>
    <tag k="addr:street" v="Gulf Road"/>
    <tag k="addr:state" v="VT"/>
    <tag k="ref:vcgi:esiteid" v="300931"/>
  </node>
  <node id="-372" visible="true" lat="44.57064819" lon="-72.46023568">
    <tag k="addr:city" v="Wolcott"/>
    <tag k="addr:housenumber" v="1463"/>
    <tag k="addr:street" v="Town Hill Road"/>
    <tag k="addr:state" v="VT"/>
    <tag k="ref:vcgi:esiteid" v="300933"/>
  </node>
  <node id="-374" visible="true" lat="44.57061166" lon="-72.40148903">
    <tag k="addr:city" v="Wolcott"/>
    <tag k="addr:housenumber" v="349"/>
    <tag k="addr:street" v="Lake Wapanaki Road"/>
    <tag k="addr:state" v="VT"/>
    <tag k="ref:vcgi:esiteid" v="300935"/>
  </node>
  <node id="-377" visible="true" lat="44.57007218" lon="-72.45994576">
    <tag k="addr:city" v="Wolcott"/>
    <tag k="addr:housenumber" v="1436"/>
    <tag k="addr:street" v="Town Hill Road"/>
    <tag k="addr:state" v="VT"/>
    <tag k="ref:vcgi:esiteid" v="300938"/>
  </node>
  <node id="-378" visible="true" lat="44.56990108" lon="-72.48142248">
    <tag k="addr:city" v="Wolcott"/>
    <tag k="addr:housenumber" v="64"/>
    <tag k="addr:street" v="West Hill Road"/>
    <tag k="addr:state" v="VT"/>
    <tag k="ref:vcgi:esiteid" v="300939"/>
  </node>
  <node id="-385" visible="true" lat="44.56936329" lon="-72.40236227">
    <tag k="addr:city" v="Wolcott"/>
    <tag k="addr:housenumber" v="416"/>
    <tag k="addr:street" v="Lake Wapanaki Road"/>
    <tag k="addr:state" v="VT"/>
    <tag k="ref:vcgi:esiteid" v="300946"/>
  </node>
  <node id="-387" visible="true" lat="44.56900698" lon="-72.4740222">
    <tag k="addr:city" v="Wolcott"/>
    <tag k="addr:housenumber" v="123"/>
    <tag k="addr:street" v="Whitetail Drive"/>
    <tag k="addr:state" v="VT"/>
    <tag k="ref:vcgi:esiteid" v="300948"/>
  </node>
  <node id="-392" visible="true" lat="44.56807974" lon="-72.47390446">
    <tag k="addr:city" v="Wolcott"/>
    <tag k="addr:housenumber" v="122"/>
    <tag k="addr:street" v="Whitetail Drive"/>
    <tag k="addr:state" v="VT"/>
    <tag k="ref:vcgi:esiteid" v="300953"/>
  </node>
  <node id="-393" visible="true" lat="44.56803401" lon="-72.47570226">
    <tag k="addr:city" v="Wolcott"/>
    <tag k="addr:housenumber" v="20"/>
    <tag k="addr:street" v="Whitetail Drive"/>
    <tag k="addr:state" v="VT"/>
    <tag k="ref:vcgi:esiteid" v="300954"/>
  </node>
  <node id="-403" visible="true" lat="44.56658936" lon="-72.40186318">
    <tag k="addr:city" v="Wolcott"/>
    <tag k="addr:housenumber" v="620"/>
    <tag k="addr:street" v="Lake Wapanaki Road"/>
    <tag k="addr:state" v="VT"/>
    <tag k="ref:vcgi:esiteid" v="300964"/>
  </node>
  <node id="-409" visible="true" lat="44.56486086" lon="-72.46478285">
    <tag k="addr:city" v="Wolcott"/>
    <tag k="addr:housenumber" v="1009"/>
    <tag k="addr:street" v="Town Hill Road"/>
    <tag k="addr:state" v="VT"/>
    <tag k="ref:vcgi:esiteid" v="300970"/>
  </node>
  <node id="-410" visible="true" lat="44.56463266" lon="-72.49044474">
    <tag k="addr:city" v="Wolcott"/>
    <tag k="addr:housenumber" v="211"/>
    <tag k="addr:street" v="North Wolcott Road"/>
    <tag k="addr:state" v="VT"/>
    <tag k="ref:vcgi:esiteid" v="300971"/>
  </node>
  <node id="-412" visible="true" lat="44.5646553" lon="-72.48950204">
    <tag k="addr:city" v="Wolcott"/>
    <tag k="addr:housenumber" v="237"/>
    <tag k="addr:street" v="North Wolcott Road"/>
    <tag k="addr:state" v="VT"/>
    <tag k="ref:vcgi:esiteid" v="300973"/>
  </node>
  <node id="-413" visible="true" lat="44.56431076" lon="-72.49098115">
    <tag k="addr:city" v="Wolcott"/>
    <tag k="addr:housenumber" v="191"/>
    <tag k="addr:street" v="North Wolcott Road"/>
    <tag k="addr:state" v="VT"/>
    <tag k="ref:vcgi:esiteid" v="300974"/>
  </node>
  <node id="-415" visible="true" lat="44.56409171" lon="-72.4961065">
    <tag k="addr:city" v="Wolcott"/>
    <tag k="addr:housenumber" v="35"/>
    <tag k="addr:street" v="Leriche Drive"/>
    <tag k="addr:state" v="VT"/>
    <tag k="ref:vcgi:esiteid" v="300976"/>
  </node>
  <node id="-416" visible="true" lat="44.56406306" lon="-72.46380203">
    <tag k="addr:city" v="Wolcott"/>
    <tag k="addr:housenumber" v="976"/>
    <tag k="addr:street" v="Town Hill Road"/>
    <tag k="addr:state" v="VT"/>
    <tag k="ref:vcgi:esiteid" v="300977"/>
  </node>
  <node id="-418" visible="true" lat="44.5639649" lon="-72.49546145">
    <tag k="addr:city" v="Wolcott"/>
    <tag k="addr:housenumber" v="67"/>
    <tag k="addr:street" v="Leriche Drive"/>
    <tag k="addr:state" v="VT"/>
    <tag k="ref:vcgi:esiteid" v="300979"/>
  </node>
  <node id="-419" visible="true" lat="44.56396106" lon="-72.49084474">
    <tag k="addr:city" v="Wolcott"/>
    <tag k="addr:housenumber" v="206"/>
    <tag k="addr:street" v="North Wolcott Road"/>
    <tag k="addr:state" v="VT"/>
    <tag k="ref:vcgi:esiteid" v="300980"/>
  </node>
  <node id="-420" visible="true" lat="44.56394344" lon="-72.49505473">
    <tag k="addr:city" v="Wolcott"/>
    <tag k="addr:housenumber" v="85"/>
    <tag k="addr:street" v="Leriche Drive"/>
    <tag k="addr:state" v="VT"/>
    <tag k="ref:vcgi:esiteid" v="300981"/>
  </node>
  <node id="-422" visible="true" lat="44.56391137" lon="-72.49427775">
    <tag k="addr:city" v="Wolcott"/>
    <tag k="addr:housenumber" v="51"/>
    <tag k="addr:street" v="North Wolcott Road"/>
    <tag k="addr:state" v="VT"/>
    <tag k="ref:vcgi:esiteid" v="300983"/>
  </node>
  <node id="-423" visible="true" lat="44.56387711" lon="-72.48986062">
    <tag k="addr:city" v="Wolcott"/>
    <tag k="addr:housenumber" v="264"/>
    <tag k="addr:street" v="North Wolcott Road"/>
    <tag k="addr:state" v="VT"/>
    <tag k="ref:vcgi:esiteid" v="300984"/>
  </node>
  <node id="-425" visible="true" lat="44.56380844" lon="-72.4834977">
    <tag k="addr:city" v="Wolcott"/>
    <tag k="addr:housenumber" v="191"/>
    <tag k="addr:street" v="Frazer Road"/>
    <tag k="addr:state" v="VT"/>
    <tag k="ref:vcgi:esiteid" v="300986"/>
  </node>
  <node id="-426" visible="true" lat="44.56350141" lon="-72.48677417">
    <tag k="addr:city" v="Wolcott"/>
    <tag k="addr:housenumber" v="24"/>
    <tag k="addr:street" v="Frazer Road"/>
    <tag k="addr:state" v="VT"/>
    <tag k="ref:vcgi:esiteid" v="300987"/>
  </node>
  <node id="-427" visible="true" lat="44.56339375" lon="-72.48608995">
    <tag k="addr:city" v="Wolcott"/>
    <tag k="addr:housenumber" v="48"/>
    <tag k="addr:street" v="Frazer Road"/>
    <tag k="addr:state" v="VT"/>
    <tag k="ref:vcgi:esiteid" v="300988"/>
  </node>
  <node id="-428" visible="true" lat="44.56346757" lon="-72.49354849">
    <tag k="addr:city" v="Wolcott"/>
    <tag k="addr:housenumber" v="50"/>
    <tag k="addr:street" v="North Wolcott Road"/>
    <tag k="addr:state" v="VT"/>
    <tag k="ref:vcgi:esiteid" v="300989"/>
  </node>
  <node id="-429" visible="true" lat="44.56324005" lon="-72.46468362">
    <tag k="addr:city" v="Wolcott"/>
    <tag k="addr:housenumber" v="916"/>
    <tag k="addr:street" v="Town Hill Road"/>
    <tag k="addr:state" v="VT"/>
    <tag k="ref:vcgi:esiteid" v="300990"/>
  </node>
  <node id="-431" visible="true" lat="44.56300354" lon="-72.466652">
    <tag k="addr:city" v="Wolcott"/>
    <tag k="addr:housenumber" v="835"/>
    <tag k="addr:street" v="Town Hill Road"/>
    <tag k="addr:state" v="VT"/>
    <tag k="ref:vcgi:esiteid" v="300992"/>
  </node>
  <node id="-433" visible="true" lat="44.56214901" lon="-72.53156181">
    <tag k="addr:city" v="Wolcott"/>
    <tag k="addr:housenumber" v="847"/>
    <tag k="addr:street" v="Tjader Road"/>
    <tag k="addr:state" v="VT"/>
    <tag k="ref:vcgi:esiteid" v="300994"/>
  </node>
  <node id="-434" visible="true" lat="44.56204987" lon="-72.46709451">
    <tag k="addr:city" v="Wolcott"/>
    <tag k="addr:housenumber" v="772"/>
    <tag k="addr:street" v="Town Hill Road"/>
    <tag k="addr:state" v="VT"/>
    <tag k="ref:vcgi:esiteid" v="300995"/>
  </node>
  <node id="-436" visible="true" lat="44.56214319" lon="-72.46810843">
    <tag k="addr:city" v="Wolcott"/>
    <tag k="addr:housenumber" v="743"/>
    <tag k="addr:street" v="Town Hill Road"/>
    <tag k="addr:state" v="VT"/>
    <tag k="ref:vcgi:esiteid" v="300997"/>
  </node>
  <node id="-439" visible="true" lat="44.56053849" lon="-72.53007908">
    <tag k="addr:city" v="Wolcott"/>
    <tag k="addr:housenumber" v="736"/>
    <tag k="addr:street" v="Tjader Road"/>
    <tag k="addr:state" v="VT"/>
    <tag k="ref:vcgi:esiteid" v="301000"/>
  </node>
  <node id="-441" visible="true" lat="44.56017151" lon="-72.46821801">
    <tag k="addr:city" v="Wolcott"/>
    <tag k="addr:housenumber" v="610"/>
    <tag k="addr:street" v="Town Hill Road"/>
    <tag k="addr:state" v="VT"/>
    <tag k="ref:vcgi:esiteid" v="301002"/>
  </node>
  <node id="-443" visible="true" lat="44.55938763" lon="-72.46788778">
    <tag k="addr:city" v="Wolcott"/>
    <tag k="addr:housenumber" v="41"/>
    <tag k="addr:street" v="Deerfield Lane"/>
    <tag k="addr:state" v="VT"/>
    <tag k="ref:vcgi:esiteid" v="301004"/>
  </node>
  <node id="-444" visible="true" lat="44.55921936" lon="-72.47087868">
    <tag k="addr:city" v="Wolcott"/>
    <tag k="addr:housenumber" v="559"/>
    <tag k="addr:street" v="Town Hill Road"/>
    <tag k="addr:state" v="VT"/>
    <tag k="ref:vcgi:esiteid" v="301005"/>
  </node>
  <node id="-446" visible="true" lat="44.55823216" lon="-72.46775268">
    <tag k="addr:city" v="Wolcott"/>
    <tag k="addr:housenumber" v="99"/>
    <tag k="addr:street" v="Deerfield Lane"/>
    <tag k="addr:state" v="VT"/>
    <tag k="ref:vcgi:esiteid" v="301007"/>
  </node>
  <node id="-447" visible="true" lat="44.55787178" lon="-72.53200464">
    <tag k="addr:city" v="Wolcott"/>
    <tag k="addr:housenumber" v="535"/>
    <tag k="addr:street" v="Tjader Road"/>
    <tag k="addr:state" v="VT"/>
    <tag k="ref:vcgi:esiteid" v="301008"/>
  </node>
  <node id="-450" visible="true" lat="44.5577391" lon="-72.4693747">
    <tag k="addr:city" v="Wolcott"/>
    <tag k="addr:housenumber" v="424"/>
    <tag k="addr:street" v="Town Hill Road"/>
    <tag k="addr:state" v="VT"/>
    <tag k="ref:vcgi:esiteid" v="301011"/>
  </node>
  <node id="-451" visible="true" lat="44.55702398" lon="-72.53255123">
    <tag k="addr:city" v="Wolcott"/>
    <tag k="addr:housenumber" v="449"/>
    <tag k="addr:street" v="Tjader Road"/>
    <tag k="addr:state" v="VT"/>
    <tag k="ref:vcgi:esiteid" v="301012"/>
  </node>
  <node id="-453" visible="true" lat="44.55705074" lon="-72.53127047">
    <tag k="addr:city" v="Wolcott"/>
    <tag k="addr:housenumber" v="446"/>
    <tag k="addr:street" v="Tjader Road"/>
    <tag k="addr:state" v="VT"/>
    <tag k="ref:vcgi:esiteid" v="301014"/>
  </node>
  <node id="-454" visible="true" lat="44.55655958" lon="-72.53339549">
    <tag k="addr:city" v="Wolcott"/>
    <tag k="addr:housenumber" v="401"/>
    <tag k="addr:street" v="Tjader Road"/>
    <tag k="addr:state" v="VT"/>
    <tag k="ref:vcgi:esiteid" v="301015"/>
  </node>
  <node id="-455" visible="true" lat="44.55654333" lon="-72.5343367">
    <tag k="addr:city" v="Wolcott"/>
    <tag k="addr:housenumber" v="359"/>
    <tag k="addr:street" v="Tjader Road"/>
    <tag k="addr:state" v="VT"/>
    <tag k="ref:vcgi:esiteid" v="301016"/>
  </node>
  <node id="-457" visible="true" lat="44.55652897" lon="-72.53631467">
    <tag k="addr:city" v="Wolcott"/>
    <tag k="addr:housenumber" v="245"/>
    <tag k="addr:street" v="Tjader Road"/>
    <tag k="addr:state" v="VT"/>
    <tag k="ref:vcgi:esiteid" v="301018"/>
  </node>
  <node id="-459" visible="true" lat="44.55633363" lon="-72.53238915">
    <tag k="addr:city" v="Wolcott"/>
    <tag k="addr:housenumber" v="426"/>
    <tag k="addr:street" v="Tjader Road"/>
    <tag k="addr:state" v="VT"/>
    <tag k="ref:vcgi:esiteid" v="301020"/>
  </node>
  <node id="-460" visible="true" lat="44.55631127" lon="-72.53522214">
    <tag k="addr:city" v="Wolcott"/>
    <tag k="addr:housenumber" v="313"/>
    <tag k="addr:street" v="Tjader Road"/>
    <tag k="addr:state" v="VT"/>
    <tag k="ref:vcgi:esiteid" v="301021"/>
  </node>
  <node id="-463" visible="true" lat="44.55557251" lon="-72.53762063">
    <tag k="addr:city" v="Wolcott"/>
    <tag k="addr:housenumber" v="233"/>
    <tag k="addr:street" v="Tjader Road"/>
    <tag k="addr:state" v="VT"/>
    <tag k="ref:vcgi:esiteid" v="301024"/>
  </node>
  <node id="-470" visible="true" lat="44.55436087" lon="-72.53837502">
    <tag k="addr:city" v="Wolcott"/>
    <tag k="addr:housenumber" v="117"/>
    <tag k="addr:street" v="Tjader Road"/>
    <tag k="addr:state" v="VT"/>
    <tag k="ref:vcgi:esiteid" v="301031"/>
  </node>
  <node id="-475" visible="true" lat="44.55376053" lon="-72.53591927">
    <tag k="addr:city" v="Wolcott"/>
    <tag k="addr:housenumber" v="1394"/>
    <tag k="addr:street" v="Richard Woolcutt Road"/>
    <tag k="addr:state" v="VT"/>
    <tag k="ref:vcgi:esiteid" v="301036"/>
  </node>
  <node id="-478" visible="true" lat="44.55316122" lon="-72.53673689">
    <tag k="addr:city" v="Wolcott"/>
    <tag k="addr:housenumber" v="1405"/>
    <tag k="addr:street" v="Richard Woolcutt Road"/>
    <tag k="addr:state" v="VT"/>
    <tag k="ref:vcgi:esiteid" v="301039"/>
  </node>
  <node id="-479" visible="true" lat="44.55306443" lon="-72.53008604">
    <tag k="addr:city" v="Wolcott"/>
    <tag k="addr:housenumber" v="1142"/>
    <tag k="addr:street" v="Richard Woolcutt Road"/>
    <tag k="addr:state" v="VT"/>
    <tag k="ref:vcgi:esiteid" v="301040"/>
  </node>
  <node id="-484" visible="true" lat="44.5531259" lon="-72.53971198">
    <tag k="addr:city" v="Wolcott"/>
    <tag k="addr:housenumber" v="1"/>
    <tag k="addr:street" v="Tjader Road"/>
    <tag k="addr:state" v="VT"/>
    <tag k="ref:vcgi:esiteid" v="301045"/>
  </node>
  <node id="-489" visible="true" lat="44.55210279" lon="-72.53259356">
    <tag k="addr:city" v="Wolcott"/>
    <tag k="addr:housenumber" v="1217"/>
    <tag k="addr:street" v="Richard Woolcutt Road"/>
    <tag k="addr:state" v="VT"/>
    <tag k="ref:vcgi:esiteid" v="301050"/>
  </node>
  <node id="-499" visible="true" lat="44.55047785" lon="-72.5127793">
    <tag k="addr:city" v="Wolcott"/>
    <tag k="addr:housenumber" v="99"/>
    <tag k="addr:street" v="Wing Road"/>
    <tag k="addr:state" v="VT"/>
    <tag k="ref:vcgi:esiteid" v="301061"/>
  </node>
  <node id="-504" visible="true" lat="44.55002699" lon="-72.50738727">
    <tag k="addr:city" v="Wolcott"/>
    <tag k="addr:housenumber" v="203"/>
    <tag k="addr:street" v="Apixia Way"/>
    <tag k="addr:state" v="VT"/>
    <tag k="ref:vcgi:esiteid" v="301066"/>
  </node>
  <node id="-508" visible="true" lat="44.54977692" lon="-72.51204235">
    <tag k="addr:city" v="Wolcott"/>
    <tag k="addr:housenumber" v="69"/>
    <tag k="addr:street" v="Wing Road"/>
    <tag k="addr:state" v="VT"/>
    <tag k="ref:vcgi:esiteid" v="301070"/>
  </node>
  <node id="-509" visible="true" lat="44.5494735" lon="-72.51130235">
    <tag k="addr:city" v="Wolcott"/>
    <tag k="addr:housenumber" v="78"/>
    <tag k="addr:street" v="Wing Road"/>
    <tag k="addr:state" v="VT"/>
    <tag k="ref:vcgi:esiteid" v="301071"/>
  </node>
  <node id="-511" visible="true" lat="44.5493653" lon="-72.51237653">
    <tag k="addr:city" v="Wolcott"/>
    <tag k="addr:housenumber" v="41"/>
    <tag k="addr:street" v="Wing Road"/>
    <tag k="addr:state" v="VT"/>
    <tag k="ref:vcgi:esiteid" v="301073"/>
  </node>
  <node id="-515" visible="true" lat="44.54913375" lon="-72.51023876">
    <tag k="addr:city" v="Wolcott"/>
    <tag k="addr:housenumber" v="86"/>
    <tag k="addr:street" v="Apixia Way"/>
    <tag k="addr:state" v="VT"/>
    <tag k="ref:vcgi:esiteid" v="301077"/>
  </node>
  <node id="-516" visible="true" lat="44.54903874" lon="-72.50612895">
    <tag k="addr:city" v="Wolcott"/>
    <tag k="addr:housenumber" v="278"/>
    <tag k="addr:street" v="Apixia Way"/>
    <tag k="addr:state" v="VT"/>
    <tag k="ref:vcgi:esiteid" v="301078"/>
  </node>
  <node id="-518" visible="true" lat="44.54900271" lon="-72.51306964">
    <tag k="addr:city" v="Wolcott"/>
    <tag k="addr:housenumber" v="3012"/>
    <tag k="addr:street" v="Elmore Pond Road"/>
    <tag k="addr:state" v="VT"/>
    <tag k="ref:vcgi:esiteid" v="301080"/>
  </node>
  <node id="-519" visible="true" lat="44.5486375" lon="-72.40901819">
    <tag k="addr:city" v="Wolcott"/>
    <tag k="addr:housenumber" v="494"/>
    <tag k="addr:street" v="Simmons Road"/>
    <tag k="addr:state" v="VT"/>
    <tag k="ref:vcgi:esiteid" v="301081"/>
  </node>
  <node id="-520" visible="true" lat="44.54893134" lon="-72.51195556">
    <tag k="addr:city" v="Wolcott"/>
    <tag k="addr:housenumber" v="2984"/>
    <tag k="addr:street" v="Elmore Pond Road"/>
    <tag k="addr:state" v="VT"/>
    <tag k="ref:vcgi:esiteid" v="301082"/>
  </node>
  <node id="-524" visible="true" lat="44.5484449" lon="-72.51050852">
    <tag k="addr:city" v="Wolcott"/>
    <tag k="addr:housenumber" v="2902"/>
    <tag k="addr:street" v="Elmore Pond Road"/>
    <tag k="addr:state" v="VT"/>
    <tag k="ref:vcgi:esiteid" v="301086"/>
  </node>
  <node id="-525" visible="true" lat="44.54822678" lon="-72.48894166">
    <tag k="addr:city" v="Wolcott"/>
    <tag k="addr:housenumber" v="289"/>
    <tag k="addr:street" v="Foss Road"/>
    <tag k="addr:state" v="VT"/>
    <tag k="ref:vcgi:esiteid" v="301087"/>
  </node>
  <node id="-527" visible="true" lat="44.54794104" lon="-72.48725234">
    <tag k="addr:city" v="Wolcott"/>
    <tag k="addr:housenumber" v="200"/>
    <tag k="addr:street" v="Foss Road"/>
    <tag k="addr:state" v="VT"/>
    <tag k="ref:vcgi:esiteid" v="301089"/>
  </node>
  <node id="-531" visible="true" lat="44.54821675" lon="-72.51232226">
    <tag k="addr:city" v="Wolcott"/>
    <tag k="addr:housenumber" v="2945"/>
    <tag k="addr:street" v="Elmore Pond Road"/>
    <tag k="addr:state" v="VT"/>
    <tag k="ref:vcgi:esiteid" v="301093"/>
  </node>
  <node id="-532" visible="true" lat="44.54794174" lon="-72.50986842">
    <tag k="addr:city" v="Wolcott"/>
    <tag k="addr:housenumber" v="2890"/>
    <tag k="addr:street" v="Elmore Pond Road"/>
    <tag k="addr:state" v="VT"/>
    <tag k="ref:vcgi:esiteid" v="301094"/>
  </node>
  <node id="-535" visible="true" lat="44.5479176" lon="-72.51362428">
    <tag k="addr:city" v="Wolcott"/>
    <tag k="addr:housenumber" v="3066"/>
    <tag k="addr:street" v="Elmore Pond Road"/>
    <tag k="addr:state" v="VT"/>
    <tag k="ref:vcgi:esiteid" v="301098"/>
  </node>
  <node id="-537" visible="true" lat="44.54807526" lon="-72.41063944">
    <tag k="addr:city" v="Wolcott"/>
    <tag k="addr:housenumber" v="380"/>
    <tag k="addr:street" v="Simmons Road"/>
    <tag k="addr:state" v="VT"/>
    <tag k="ref:vcgi:esiteid" v="301100"/>
  </node>
  <node id="-540" visible="true" lat="44.54765113" lon="-72.50932518">
    <tag k="addr:city" v="Wolcott"/>
    <tag k="addr:housenumber" v="2840"/>
    <tag k="addr:street" v="Elmore Pond Road"/>
    <tag k="addr:state" v="VT"/>
    <tag k="ref:vcgi:esiteid" v="301103"/>
  </node>
  <node id="-544" visible="true" lat="44.54765521" lon="-72.40279661">
    <tag k="addr:city" v="Wolcott"/>
    <tag k="addr:housenumber" v="890"/>
    <tag k="addr:street" v="Simmons Road"/>
    <tag k="addr:state" v="VT"/>
    <tag k="ref:vcgi:esiteid" v="301107"/>
  </node>
  <node id="-552" visible="true" lat="44.54725611" lon="-72.51375806">
    <tag k="addr:city" v="Wolcott"/>
    <tag k="addr:housenumber" v="3122"/>
    <tag k="addr:street" v="Elmore Pond Road"/>
    <tag k="addr:state" v="VT"/>
    <tag k="ref:vcgi:esiteid" v="301115"/>
  </node>
  <node id="-556" visible="true" lat="44.54708434" lon="-72.50761001">
    <tag k="addr:city" v="Wolcott"/>
    <tag k="addr:housenumber" v="2750"/>
    <tag k="addr:street" v="Elmore Pond Road"/>
    <tag k="addr:state" v="VT"/>
    <tag k="ref:vcgi:esiteid" v="301122"/>
  </node>
  <node id="-557" visible="true" lat="44.54715968" lon="-72.41270443">
    <tag k="addr:city" v="Wolcott"/>
    <tag k="addr:housenumber" v="249"/>
    <tag k="addr:street" v="Simmons Road"/>
    <tag k="addr:state" v="VT"/>
    <tag k="ref:vcgi:esiteid" v="301123"/>
  </node>
  <node id="-560" visible="true" lat="44.54664663" lon="-72.41052021">
    <tag k="addr:city" v="Wolcott"/>
    <tag k="addr:housenumber" v="296"/>
    <tag k="addr:street" v="Simmons Road"/>
    <tag k="addr:state" v="VT"/>
    <tag k="ref:vcgi:esiteid" v="301128"/>
  </node>
  <node id="-565" visible="true" lat="44.54656426" lon="-72.51430764">
    <tag k="addr:city" v="Wolcott"/>
    <tag k="addr:housenumber" v="3170"/>
    <tag k="addr:street" v="Elmore Pond Road"/>
    <tag k="addr:state" v="VT"/>
    <tag k="ref:vcgi:esiteid" v="301134"/>
  </node>
  <node id="-569" visible="true" lat="44.54643974" lon="-72.50688221">
    <tag k="addr:city" v="Wolcott"/>
    <tag k="addr:housenumber" v="2686"/>
    <tag k="addr:street" v="Elmore Pond Road"/>
    <tag k="addr:state" v="VT"/>
    <tag k="ref:vcgi:esiteid" v="301138"/>
  </node>
  <node id="-570" visible="true" lat="44.54619874" lon="-72.4839762">
    <tag k="addr:city" v="Wolcott"/>
    <tag k="addr:housenumber" v="715"/>
    <tag k="addr:street" v="Elmore Pond Road"/>
    <tag k="addr:state" v="VT"/>
    <tag k="ref:vcgi:esiteid" v="301139"/>
  </node>
  <node id="-571" visible="true" lat="44.54634409" lon="-72.51281187">
    <tag k="addr:city" v="Wolcott"/>
    <tag k="addr:housenumber" v="65"/>
    <tag k="addr:street" v="Overlook Hill"/>
    <tag k="addr:state" v="VT"/>
    <tag k="ref:vcgi:esiteid" v="301140"/>
  </node>
  <node id="-572" visible="true" lat="44.54535914" lon="-72.50759962">
    <tag k="addr:city" v="Wolcott"/>
    <tag k="addr:housenumber" v="2681"/>
    <tag k="addr:street" v="Elmore Pond Road"/>
    <tag k="addr:state" v="VT"/>
    <tag k="ref:vcgi:esiteid" v="301141"/>
  </node>
  <node id="-574" visible="true" lat="44.54601288" lon="-72.48558053">
    <tag k="addr:city" v="Wolcott"/>
    <tag k="addr:housenumber" v="39"/>
    <tag k="addr:street" v="Foss Road"/>
    <tag k="addr:state" v="VT"/>
    <tag k="ref:vcgi:esiteid" v="301143"/>
  </node>
  <node id="-577" visible="true" lat="44.54588699" lon="-72.50622567">
    <tag k="addr:city" v="Wolcott"/>
    <tag k="addr:housenumber" v="2638"/>
    <tag k="addr:street" v="Elmore Pond Road"/>
    <tag k="addr:state" v="VT"/>
    <tag k="ref:vcgi:esiteid" v="301146"/>
  </node>
  <node id="-578" visible="true" lat="44.54583359" lon="-72.51185616">
    <tag k="addr:city" v="Wolcott"/>
    <tag k="addr:housenumber" v="145"/>
    <tag k="addr:street" v="Overlook Hill"/>
    <tag k="addr:state" v="VT"/>
    <tag k="ref:vcgi:esiteid" v="301147"/>
  </node>
  <node id="-581" visible="true" lat="44.5455291" lon="-72.51274301">
    <tag k="addr:city" v="Wolcott"/>
    <tag k="addr:housenumber" v="67"/>
    <tag k="addr:street" v="Overlook Hill"/>
    <tag k="addr:state" v="VT"/>
    <tag k="ref:vcgi:esiteid" v="301150"/>
  </node>
  <node id="-583" visible="true" lat="44.54555803" lon="-72.41257421">
    <tag k="addr:city" v="Wolcott"/>
    <tag k="addr:housenumber" v="170"/>
    <tag k="addr:street" v="Simmons Road"/>
    <tag k="addr:state" v="VT"/>
    <tag k="ref:vcgi:esiteid" v="301152"/>
  </node>
  <node id="-586" visible="true" lat="44.54557037" lon="-72.49424752">
    <tag k="addr:city" v="Wolcott"/>
    <tag k="addr:housenumber" v="607"/>
    <tag k="addr:street" v="Foss Road"/>
    <tag k="addr:state" v="VT"/>
    <tag k="ref:vcgi:esiteid" v="301155"/>
  </node>
  <node id="-587" visible="true" lat="44.54532692" lon="-72.5139119">
    <tag k="addr:city" v="Wolcott"/>
    <tag k="addr:housenumber" v="90"/>
    <tag k="addr:street" v="Overlook Hill"/>
    <tag k="addr:state" v="VT"/>
    <tag k="ref:vcgi:esiteid" v="301156"/>
  </node>
  <node id="-588" visible="true" lat="44.54548234" lon="-72.51527553">
    <tag k="addr:city" v="Wolcott"/>
    <tag k="addr:housenumber" v="3294"/>
    <tag k="addr:street" v="Elmore Pond Road"/>
    <tag k="addr:state" v="VT"/>
    <tag k="ref:vcgi:esiteid" v="301157"/>
  </node>
  <node id="-589" visible="true" lat="44.54548369" lon="-72.5059228">
    <tag k="addr:city" v="Wolcott"/>
    <tag k="addr:housenumber" v="2602"/>
    <tag k="addr:street" v="Elmore Pond Road"/>
    <tag k="addr:state" v="VT"/>
    <tag k="ref:vcgi:esiteid" v="301158"/>
  </node>
  <node id="-590" visible="true" lat="44.54537514" lon="-72.50883434">
    <tag k="addr:city" v="Wolcott"/>
    <tag k="addr:housenumber" v="109"/>
    <tag k="addr:street" v="Douglas Road"/>
    <tag k="addr:state" v="VT"/>
    <tag k="ref:vcgi:esiteid" v="301159"/>
  </node>
  <node id="-594" visible="true" lat="44.54475994" lon="-72.51445239">
    <tag k="addr:city" v="Wolcott"/>
    <tag k="addr:housenumber" v="3249"/>
    <tag k="addr:street" v="Elmore Pond Road"/>
    <tag k="addr:state" v="VT"/>
    <tag k="ref:vcgi:esiteid" v="301163"/>
  </node>
  <node id="-596" visible="true" lat="44.54472003" lon="-72.51211899">
    <tag k="addr:city" v="Wolcott"/>
    <tag k="addr:housenumber" v="143"/>
    <tag k="addr:street" v="Overlook Hill"/>
    <tag k="addr:state" v="VT"/>
    <tag k="ref:vcgi:esiteid" v="301165"/>
  </node>
  <node id="-598" visible="true" lat="44.54466245" lon="-72.51740676">
    <tag k="addr:city" v="Wolcott"/>
    <tag k="addr:housenumber" v="3392"/>
    <tag k="addr:street" v="Elmore Pond Road"/>
    <tag k="addr:state" v="VT"/>
    <tag k="ref:vcgi:esiteid" v="301167"/>
  </node>
  <node id="-600" visible="true" lat="44.54453716" lon="-72.51563687">
    <tag k="addr:city" v="Wolcott"/>
    <tag k="addr:housenumber" v="3317"/>
    <tag k="addr:street" v="Elmore Pond Road"/>
    <tag k="addr:state" v="VT"/>
    <tag k="ref:vcgi:esiteid" v="301169"/>
  </node>
  <node id="-602" visible="true" lat="44.54445232" lon="-72.50470009">
    <tag k="addr:city" v="Wolcott"/>
    <tag k="addr:housenumber" v="2474"/>
    <tag k="addr:street" v="Elmore Pond Road"/>
    <tag k="addr:state" v="VT"/>
    <tag k="ref:vcgi:esiteid" v="301171"/>
  </node>
  <node id="-603" visible="true" lat="44.54436567" lon="-72.41265905">
    <tag k="addr:city" v="Wolcott"/>
    <tag k="addr:housenumber" v="78"/>
    <tag k="addr:street" v="Simmons Road"/>
    <tag k="addr:state" v="VT"/>
    <tag k="ref:vcgi:esiteid" v="301172"/>
  </node>
  <node id="-605" visible="true" lat="44.5440712" lon="-72.50292977">
    <tag k="addr:city" v="Wolcott"/>
    <tag k="addr:housenumber" v="2410"/>
    <tag k="addr:street" v="Elmore Pond Road"/>
    <tag k="addr:state" v="VT"/>
    <tag k="ref:vcgi:esiteid" v="301174"/>
  </node>
  <node id="-608" visible="true" lat="44.5436821" lon="-72.50169381">
    <tag k="addr:city" v="Wolcott"/>
    <tag k="addr:housenumber" v="2322"/>
    <tag k="addr:street" v="Elmore Pond Road"/>
    <tag k="addr:state" v="VT"/>
    <tag k="ref:vcgi:esiteid" v="301177"/>
  </node>
  <node id="-610" visible="true" lat="44.54333877" lon="-72.510048">
    <tag k="addr:city" v="Wolcott"/>
    <tag k="addr:housenumber" v="263"/>
    <tag k="addr:street" v="Douglas Road"/>
    <tag k="addr:state" v="VT"/>
    <tag k="ref:vcgi:esiteid" v="301179"/>
  </node>
  <node id="-611" visible="true" lat="44.54323196" lon="-72.51068886">
    <tag k="addr:city" v="Wolcott"/>
    <tag k="addr:housenumber" v="284"/>
    <tag k="addr:street" v="Douglas Road"/>
    <tag k="addr:state" v="VT"/>
    <tag k="ref:vcgi:esiteid" v="301180"/>
  </node>
  <node id="-616" visible="true" lat="44.542915" lon="-72.50483713">
    <tag k="addr:city" v="Wolcott"/>
    <tag k="addr:housenumber" v="2449"/>
    <tag k="addr:street" v="Elmore Pond Road"/>
    <tag k="addr:state" v="VT"/>
    <tag k="ref:vcgi:esiteid" v="301185"/>
  </node>
  <node id="-617" visible="true" lat="44.54229771" lon="-72.51074959">
    <tag k="addr:city" v="Wolcott"/>
    <tag k="addr:housenumber" v="333"/>
    <tag k="addr:street" v="Douglas Road"/>
    <tag k="addr:state" v="VT"/>
    <tag k="ref:vcgi:esiteid" v="301186"/>
  </node>
  <node id="-622" visible="true" lat="44.54152611" lon="-72.50318889">
    <tag k="addr:city" v="Wolcott"/>
    <tag k="addr:housenumber" v="2319"/>
    <tag k="addr:street" v="Elmore Pond Road"/>
    <tag k="addr:state" v="VT"/>
    <tag k="ref:vcgi:esiteid" v="301191"/>
  </node>
  <node id="-623" visible="true" lat="44.54141318" lon="-72.49901381">
    <tag k="addr:city" v="Wolcott"/>
    <tag k="addr:housenumber" v="2147"/>
    <tag k="addr:street" v="Elmore Pond Road"/>
    <tag k="addr:state" v="VT"/>
    <tag k="ref:vcgi:esiteid" v="301192"/>
  </node>
  <node id="-624" visible="true" lat="44.5409582" lon="-72.41364915">
    <tag k="addr:city" v="Wolcott"/>
    <tag k="addr:housenumber" v="1703"/>
    <tag k="addr:street" v="Marsh Road"/>
    <tag k="addr:state" v="VT"/>
    <tag k="ref:vcgi:esiteid" v="301193"/>
  </node>
  <node id="-626" visible="true" lat="44.54070525" lon="-72.49625404">
    <tag k="addr:city" v="Wolcott"/>
    <tag k="addr:housenumber" v="2008"/>
    <tag k="addr:street" v="Elmore Pond Road"/>
    <tag k="addr:state" v="VT"/>
    <tag k="ref:vcgi:esiteid" v="301195"/>
  </node>
  <node id="-633" visible="true" lat="44.53956222" lon="-72.49482735">
    <tag k="addr:city" v="Wolcott"/>
    <tag k="addr:housenumber" v="1912"/>
    <tag k="addr:street" v="Elmore Pond Road"/>
    <tag k="addr:state" v="VT"/>
    <tag k="ref:vcgi:esiteid" v="301202"/>
  </node>
  <node id="-644" visible="true" lat="44.53877778" lon="-72.49967432">
    <tag k="addr:city" v="Wolcott"/>
    <tag k="addr:housenumber" v="2083"/>
    <tag k="addr:street" v="Elmore Pond Road"/>
    <tag k="addr:state" v="VT"/>
    <tag k="ref:vcgi:esiteid" v="301213"/>
  </node>
  <node id="-646" visible="true" lat="44.53871155" lon="-72.41390237">
    <tag k="addr:city" v="Wolcott"/>
    <tag k="addr:housenumber" v="1857"/>
    <tag k="addr:street" v="Marsh Road"/>
    <tag k="addr:state" v="VT"/>
    <tag k="ref:vcgi:esiteid" v="301215"/>
  </node>
  <node id="-648" visible="true" lat="44.53863907" lon="-72.49452981">
    <tag k="addr:city" v="Wolcott"/>
    <tag k="addr:housenumber" v="1857"/>
    <tag k="addr:street" v="Elmore Pond Road"/>
    <tag k="addr:state" v="VT"/>
    <tag k="ref:vcgi:esiteid" v="301217"/>
  </node>
  <node id="-650" visible="true" lat="44.53868381" lon="-72.49311965">
    <tag k="addr:city" v="Wolcott"/>
    <tag k="addr:housenumber" v="1806"/>
    <tag k="addr:street" v="Elmore Pond Road"/>
    <tag k="addr:state" v="VT"/>
    <tag k="ref:vcgi:esiteid" v="301219"/>
  </node>
  <node id="-655" visible="true" lat="44.53696615" lon="-72.48742428">
    <tag k="addr:city" v="Wolcott"/>
    <tag k="addr:housenumber" v="1400"/>
    <tag k="addr:street" v="Elmore Pond Road"/>
    <tag k="addr:state" v="VT"/>
    <tag k="ref:vcgi:esiteid" v="301224"/>
  </node>
  <node id="-656" visible="true" lat="44.5371594" lon="-72.49155918">
    <tag k="addr:city" v="Wolcott"/>
    <tag k="addr:housenumber" v="1676"/>
    <tag k="addr:street" v="Elmore Pond Road"/>
    <tag k="addr:state" v="VT"/>
    <tag k="ref:vcgi:esiteid" v="301225"/>
  </node>
  <node id="-663" visible="true" lat="44.53591848" lon="-72.49061055">
    <tag k="addr:city" v="Wolcott"/>
    <tag k="addr:housenumber" v="1613"/>
    <tag k="addr:street" v="Elmore Pond Road"/>
    <tag k="addr:state" v="VT"/>
    <tag k="ref:vcgi:esiteid" v="301232"/>
  </node>
  <node id="-664" visible="true" lat="44.53565597" lon="-72.41262826">
    <tag k="addr:city" v="Wolcott"/>
    <tag k="addr:housenumber" v="2077"/>
    <tag k="addr:street" v="Marsh Road"/>
    <tag k="addr:state" v="VT"/>
    <tag k="ref:vcgi:esiteid" v="301233"/>
  </node>
  <node id="-667" visible="true" lat="44.53526597" lon="-72.48862701">
    <tag k="addr:city" v="Wolcott"/>
    <tag k="addr:housenumber" v="1503"/>
    <tag k="addr:street" v="Elmore Pond Road"/>
    <tag k="addr:state" v="VT"/>
    <tag k="ref:vcgi:esiteid" v="301236"/>
  </node>
  <node id="-668" visible="true" lat="44.53522873" lon="-72.48832711">
    <tag k="addr:city" v="Wolcott"/>
    <tag k="addr:housenumber" v="1501"/>
    <tag k="addr:street" v="Elmore Pond Road"/>
    <tag k="addr:state" v="VT"/>
    <tag k="ref:vcgi:esiteid" v="301237"/>
  </node>
  <node id="-670" visible="true" lat="44.53504929" lon="-72.48700874">
    <tag k="addr:city" v="Wolcott"/>
    <tag k="addr:housenumber" v="97"/>
    <tag k="addr:street" v="Courchaine Farm Road"/>
    <tag k="addr:state" v="VT"/>
    <tag k="ref:vcgi:esiteid" v="301239"/>
  </node>
  <node id="-678" visible="true" lat="44.53356171" lon="-72.4133149">
    <tag k="addr:city" v="Wolcott"/>
    <tag k="addr:housenumber" v="2217"/>
    <tag k="addr:street" v="Marsh Road"/>
    <tag k="addr:state" v="VT"/>
    <tag k="ref:vcgi:esiteid" v="301247"/>
  </node>
  <node id="-685" visible="true" lat="44.53316879" lon="-72.4137803">
    <tag k="addr:city" v="Wolcott"/>
    <tag k="addr:housenumber" v="2246"/>
    <tag k="addr:street" v="Marsh Road"/>
    <tag k="addr:state" v="VT"/>
    <tag k="ref:vcgi:esiteid" v="301254"/>
  </node>
  <node id="-693" visible="true" lat="44.53124614" lon="-72.42451559">
    <tag k="addr:city" v="Wolcott"/>
    <tag k="addr:housenumber" v="76"/>
    <tag k="addr:street" v="Quarry Road"/>
    <tag k="addr:state" v="VT"/>
    <tag k="ref:vcgi:esiteid" v="301262"/>
  </node>
  <node id="-699" visible="true" lat="44.52907181" lon="-72.41970833">
    <tag k="addr:city" v="Wolcott"/>
    <tag k="addr:housenumber" v="109"/>
    <tag k="addr:street" v="Williams Lane"/>
    <tag k="addr:state" v="VT"/>
    <tag k="ref:vcgi:esiteid" v="301269"/>
  </node>
  <node id="-700" visible="true" lat="44.52909991" lon="-72.42112883">
    <tag k="addr:city" v="Wolcott"/>
    <tag k="addr:housenumber" v="33"/>
    <tag k="addr:street" v="Williams Lane"/>
    <tag k="addr:state" v="VT"/>
    <tag k="ref:vcgi:esiteid" v="301270"/>
  </node>
  <node id="-701" visible="true" lat="44.52830712" lon="-72.42085752">
    <tag k="addr:city" v="Wolcott"/>
    <tag k="addr:housenumber" v="40"/>
    <tag k="addr:street" v="Williams Lane"/>
    <tag k="addr:state" v="VT"/>
    <tag k="ref:vcgi:esiteid" v="301271"/>
  </node>
  <node id="-704" visible="true" lat="44.52628518" lon="-72.46122701">
    <tag k="addr:city" v="Wolcott"/>
    <tag k="addr:housenumber" v="1483"/>
    <tag k="addr:street" v="East Elmore Road"/>
    <tag k="addr:state" v="VT"/>
    <tag k="ref:vcgi:esiteid" v="301275"/>
  </node>
  <node id="-707" visible="true" lat="44.52591442" lon="-72.46147144">
    <tag k="addr:city" v="Wolcott"/>
    <tag k="addr:housenumber" v="1501"/>
    <tag k="addr:street" v="East Elmore Road"/>
    <tag k="addr:state" v="VT"/>
    <tag k="ref:vcgi:esiteid" v="301278"/>
  </node>
  <node id="-710" visible="true" lat="44.52340317" lon="-72.45054635">
    <tag k="addr:city" v="Wolcott"/>
    <tag k="addr:housenumber" v="1147"/>
    <tag k="addr:street" v="Gates Farm Road"/>
    <tag k="addr:state" v="VT"/>
    <tag k="ref:vcgi:esiteid" v="301281"/>
  </node>
  <node id="-711" visible="true" lat="44.52238083" lon="-72.44732674">
    <tag k="addr:city" v="Wolcott"/>
    <tag k="addr:housenumber" v="1054"/>
    <tag k="addr:street" v="Gates Farm Road"/>
    <tag k="addr:state" v="VT"/>
    <tag k="ref:vcgi:esiteid" v="301282"/>
  </node>
  <node id="-713" visible="true" lat="44.51913128" lon="-72.44449317">
    <tag k="addr:city" v="Wolcott"/>
    <tag k="addr:housenumber" v="870"/>
    <tag k="addr:street" v="Gates Farm Road"/>
    <tag k="addr:state" v="VT"/>
    <tag k="ref:vcgi:esiteid" v="301284"/>
  </node>
  <node id="-714" visible="true" lat="44.51957942" lon="-72.44850311">
    <tag k="addr:city" v="Wolcott"/>
    <tag k="addr:housenumber" v="900"/>
    <tag k="addr:street" v="Gates Farm Road"/>
    <tag k="addr:state" v="VT"/>
    <tag k="ref:vcgi:esiteid" v="301285"/>
  </node>
  <node id="-718" visible="true" lat="44.57122977" lon="-72.48373299">
    <tag k="addr:city" v="Wolcott"/>
    <tag k="addr:housenumber" v="301"/>
    <tag k="addr:street" v="West Hill Road"/>
    <tag k="addr:state" v="VT"/>
    <tag k="ref:vcgi:esiteid" v="301289"/>
  </node>
  <node id="-719" visible="true" lat="44.62233317" lon="-72.46309708">
    <tag k="addr:city" v="Wolcott"/>
    <tag k="addr:housenumber" v="813"/>
    <tag k="addr:street" v="Brook Road"/>
    <tag k="addr:state" v="VT"/>
    <tag k="ref:vcgi:esiteid" v="301290"/>
  </node>
  <node id="-720" visible="true" lat="44.60975458" lon="-72.43136993">
    <tag k="addr:city" v="Wolcott"/>
    <tag k="addr:housenumber" v="4535"/>
    <tag k="addr:street" v="Town Hill Road"/>
    <tag k="addr:state" v="VT"/>
    <tag k="ref:vcgi:esiteid" v="301291"/>
  </node>
  <node id="-723" visible="true" lat="44.56675924" lon="-72.46490186">
    <tag k="addr:city" v="Wolcott"/>
    <tag k="addr:housenumber" v="1201"/>
    <tag k="addr:street" v="Town Hill Road"/>
    <tag k="addr:state" v="VT"/>
    <tag k="ref:vcgi:esiteid" v="301294"/>
  </node>
  <node id="-724" visible="true" lat="44.56124992" lon="-72.46846842">
    <tag k="addr:city" v="Wolcott"/>
    <tag k="addr:housenumber" v="661"/>
    <tag k="addr:street" v="Town Hill Road"/>
    <tag k="addr:state" v="VT"/>
    <tag k="ref:vcgi:esiteid" v="301295"/>
  </node>
  <node id="-727" visible="true" lat="44.55758285" lon="-72.3953782">
    <tag k="addr:city" v="Wolcott"/>
    <tag k="addr:housenumber" v="25"/>
    <tag k="addr:street" v="Camp Road"/>
    <tag k="addr:state" v="VT"/>
    <tag k="ref:vcgi:esiteid" v="301298"/>
  </node>
  <node id="-728" visible="true" lat="44.54434441" lon="-72.51034959">
    <tag k="addr:city" v="Wolcott"/>
    <tag k="addr:housenumber" v="168"/>
    <tag k="addr:street" v="Douglas Road"/>
    <tag k="addr:state" v="VT"/>
    <tag k="ref:vcgi:esiteid" v="301299"/>
  </node>
  <node id="-729" visible="true" lat="44.55718185" lon="-72.39588894">
    <tag k="addr:city" v="Wolcott"/>
    <tag k="addr:housenumber" v="57"/>
    <tag k="addr:street" v="Camp Road"/>
    <tag k="addr:state" v="VT"/>
    <tag k="ref:vcgi:esiteid" v="301300"/>
  </node>
  <node id="-735" visible="true" lat="44.59943956" lon="-72.4222144">
    <tag k="addr:city" v="Wolcott"/>
    <tag k="addr:housenumber" v="5183"/>
    <tag k="addr:street" v="East Hill Road"/>
    <tag k="addr:state" v="VT"/>
    <tag k="ref:vcgi:esiteid" v="301306"/>
  </node>
  <node id="-736" visible="true" lat="44.56979382" lon="-72.39765661">
    <tag k="addr:city" v="Wolcott"/>
    <tag k="addr:housenumber" v="283"/>
    <tag k="addr:street" v="Lake Wapanaki Road"/>
    <tag k="addr:state" v="VT"/>
    <tag k="ref:vcgi:esiteid" v="301307"/>
  </node>
  <node id="-741" visible="true" lat="44.54411064" lon="-72.5118876">
    <tag k="addr:city" v="Wolcott"/>
    <tag k="addr:housenumber" v="171"/>
    <tag k="addr:street" v="Overlook Hill"/>
    <tag k="addr:state" v="VT"/>
    <tag k="ref:vcgi:esiteid" v="301312"/>
  </node>
  <node id="-744" visible="true" lat="44.61613969" lon="-72.45288037">
    <tag k="addr:city" v="Wolcott"/>
    <tag k="addr:housenumber" v="411"/>
    <tag k="addr:street" v="Reed Road"/>
    <tag k="addr:state" v="VT"/>
    <tag k="ref:vcgi:esiteid" v="301315"/>
  </node>
  <node id="-745" visible="true" lat="44.53398731" lon="-72.48757261">
    <tag k="addr:city" v="Wolcott"/>
    <tag k="addr:housenumber" v="163"/>
    <tag k="addr:street" v="Courchaine Farm Road"/>
    <tag k="addr:state" v="VT"/>
    <tag k="ref:vcgi:esiteid" v="301316"/>
  </node>
  <node id="-747" visible="true" lat="44.54219602" lon="-72.49278384">
    <tag k="addr:city" v="Wolcott"/>
    <tag k="addr:housenumber" v="1970"/>
    <tag k="addr:street" v="Elmore Pond Road"/>
    <tag k="addr:state" v="VT"/>
    <tag k="ref:vcgi:esiteid" v="301318"/>
  </node>
  <node id="-748" visible="true" lat="44.56669741" lon="-72.49876093">
    <tag k="addr:city" v="Wolcott"/>
    <tag k="addr:housenumber" v="95"/>
    <tag k="addr:street" v="Independence Drive"/>
    <tag k="addr:state" v="VT"/>
    <tag k="ref:vcgi:esiteid" v="301319"/>
  </node>
  <node id="-750" visible="true" lat="44.61382253" lon="-72.42882846">
    <tag k="addr:city" v="Wolcott"/>
    <tag k="addr:housenumber" v="4803"/>
    <tag k="addr:street" v="Town Hill Road"/>
    <tag k="addr:state" v="VT"/>
    <tag k="ref:vcgi:esiteid" v="301321"/>
  </node>
  <node id="-752" visible="true" lat="44.52989557" lon="-72.42168969">
    <tag k="addr:city" v="Wolcott"/>
    <tag k="addr:housenumber" v="75"/>
    <tag k="addr:street" v="Cal Foster Drive"/>
    <tag k="addr:state" v="VT"/>
    <tag k="ref:vcgi:esiteid" v="301323"/>
  </node>
  <node id="-753" visible="true" lat="44.62830626" lon="-72.48248221">
    <tag k="addr:city" v="Wolcott"/>
    <tag k="addr:housenumber" v="48"/>
    <tag k="addr:street" v="Blueberry Drive"/>
    <tag k="addr:state" v="VT"/>
    <tag k="ref:vcgi:esiteid" v="301324"/>
  </node>
  <node id="-754" visible="true" lat="44.62819261" lon="-72.48207117">
    <tag k="addr:city" v="Wolcott"/>
    <tag k="addr:housenumber" v="68"/>
    <tag k="addr:street" v="Blueberry Drive"/>
    <tag k="addr:state" v="VT"/>
    <tag k="ref:vcgi:esiteid" v="301325"/>
  </node>
  <node id="-755" visible="true" lat="44.60122863" lon="-72.42996471">
    <tag k="addr:city" v="Wolcott"/>
    <tag k="addr:housenumber" v="5605"/>
    <tag k="addr:street" v="East Hill Road"/>
    <tag k="addr:state" v="VT"/>
    <tag k="ref:vcgi:esiteid" v="301326"/>
  </node>
  <node id="-758" visible="true" lat="44.54318339" lon="-72.51297816">
    <tag k="addr:city" v="Wolcott"/>
    <tag k="addr:housenumber" v="230"/>
    <tag k="addr:street" v="Overlook Hill"/>
    <tag k="addr:state" v="VT"/>
    <tag k="ref:vcgi:esiteid" v="301329"/>
  </node>
  <node id="-762" visible="true" lat="44.60409305" lon="-72.44979265">
    <tag k="addr:city" v="Wolcott"/>
    <tag k="addr:housenumber" v="512"/>
    <tag k="addr:street" v="Manley Road"/>
    <tag k="addr:state" v="VT"/>
    <tag k="ref:vcgi:esiteid" v="301334"/>
  </node>
  <node id="-765" visible="true" lat="44.60111623" lon="-72.43651598">
    <tag k="addr:city" v="Wolcott"/>
    <tag k="addr:housenumber" v="3880"/>
    <tag k="addr:street" v="Town Hill Road"/>
    <tag k="addr:state" v="VT"/>
    <tag k="ref:vcgi:esiteid" v="301337"/>
  </node>
  <node id="-766" visible="true" lat="44.62574617" lon="-72.48279864">
    <tag k="addr:city" v="Wolcott"/>
    <tag k="addr:housenumber" v="1559"/>
    <tag k="addr:street" v="Morey Hill Road"/>
    <tag k="addr:state" v="VT"/>
    <tag k="ref:vcgi:esiteid" v="301339"/>
  </node>
  <node id="-767" visible="true" lat="44.57039814" lon="-72.48301451">
    <tag k="addr:city" v="Wolcott"/>
    <tag k="addr:housenumber" v="139"/>
    <tag k="addr:street" v="West Hill Road"/>
    <tag k="addr:state" v="VT"/>
    <tag k="ref:vcgi:esiteid" v="301340"/>
  </node>
  <node id="-773" visible="true" lat="44.61642879" lon="-72.4599311">
    <tag k="addr:city" v="Wolcott"/>
    <tag k="addr:housenumber" v="58"/>
    <tag k="addr:street" v="Stanley Road"/>
    <tag k="addr:state" v="VT"/>
    <tag k="ref:vcgi:esiteid" v="301346"/>
  </node>
  <node id="-774" visible="true" lat="44.60254356" lon="-72.48855477">
    <tag k="addr:city" v="Wolcott"/>
    <tag k="addr:housenumber" v="1180"/>
    <tag k="addr:street" v="Sand Hill Road"/>
    <tag k="addr:state" v="VT"/>
    <tag k="ref:vcgi:esiteid" v="301347"/>
  </node>
  <node id="-775" visible="true" lat="44.60262" lon="-72.48682478">
    <tag k="addr:city" v="Wolcott"/>
    <tag k="addr:housenumber" v="1088"/>
    <tag k="addr:street" v="Sand Hill Road"/>
    <tag k="addr:state" v="VT"/>
    <tag k="ref:vcgi:esiteid" v="301348"/>
  </node>
  <node id="-776" visible="true" lat="44.59164092" lon="-72.49974686">
    <tag k="addr:city" v="Wolcott"/>
    <tag k="addr:housenumber" v="776"/>
    <tag k="addr:street" v="Jones Lane"/>
    <tag k="addr:state" v="VT"/>
    <tag k="ref:vcgi:esiteid" v="301349"/>
  </node>
  <node id="-778" visible="true" lat="44.60851738" lon="-72.42953944">
    <tag k="addr:city" v="Wolcott"/>
    <tag k="addr:housenumber" v="4500"/>
    <tag k="addr:street" v="Town Hill Road"/>
    <tag k="addr:state" v="VT"/>
    <tag k="ref:vcgi:esiteid" v="301351"/>
  </node>
  <node id="-779" visible="true" lat="44.60367624" lon="-72.42918865">
    <tag k="addr:city" v="Wolcott"/>
    <tag k="addr:housenumber" v="5514"/>
    <tag k="addr:street" v="East Hill Road"/>
    <tag k="addr:state" v="VT"/>
    <tag k="ref:vcgi:esiteid" v="301352"/>
  </node>
  <node id="-780" visible="true" lat="44.62426519" lon="-72.46365009">
    <tag k="addr:city" v="Wolcott"/>
    <tag k="addr:housenumber" v="999"/>
    <tag k="addr:street" v="Brook Road"/>
    <tag k="addr:state" v="VT"/>
    <tag k="ref:vcgi:esiteid" v="301353"/>
  </node>
  <node id="-781" visible="true" lat="44.54400106" lon="-72.50907909">
    <tag k="addr:city" v="Wolcott"/>
    <tag k="addr:housenumber" v="169"/>
    <tag k="addr:street" v="Douglas Road"/>
    <tag k="addr:state" v="VT"/>
    <tag k="ref:vcgi:esiteid" v="301354"/>
  </node>
  <node id="-782" visible="true" lat="44.52410865" lon="-72.43466507">
    <tag k="addr:city" v="Wolcott"/>
    <tag k="addr:housenumber" v="722"/>
    <tag k="addr:street" v="Turcotte Road"/>
    <tag k="addr:state" v="VT"/>
    <tag k="ref:vcgi:esiteid" v="301355"/>
  </node>
  <node id="-783" visible="true" lat="44.59564411" lon="-72.48920862">
    <tag k="addr:city" v="Wolcott"/>
    <tag k="addr:housenumber" v="2083"/>
    <tag k="addr:street" v="West Hill Road"/>
    <tag k="addr:state" v="VT"/>
    <tag k="ref:vcgi:esiteid" v="301356"/>
  </node>
  <node id="-785" visible="true" lat="44.62215351" lon="-72.48241251">
    <tag k="addr:city" v="Wolcott"/>
    <tag k="addr:housenumber" v="172"/>
    <tag k="addr:street" v="Belanger Lane"/>
    <tag k="addr:state" v="VT"/>
    <tag k="ref:vcgi:esiteid" v="301362"/>
  </node>
  <node id="-786" visible="true" lat="44.62772911" lon="-72.48147781">
    <tag k="addr:city" v="Wolcott"/>
    <tag k="addr:housenumber" v="1582"/>
    <tag k="addr:street" v="Morey Hill Road"/>
    <tag k="addr:state" v="VT"/>
    <tag k="ref:vcgi:esiteid" v="301363"/>
  </node>
  <node id="-790" visible="true" lat="44.56541671" lon="-72.46217409">
    <tag k="addr:city" v="Wolcott"/>
    <tag k="addr:housenumber" v="1036"/>
    <tag k="addr:street" v="Town Hill Road"/>
    <tag k="addr:state" v="VT"/>
    <tag k="ref:vcgi:esiteid" v="301367"/>
  </node>
  <node id="-792" visible="true" lat="44.54442223" lon="-72.50637424">
    <tag k="addr:city" v="Wolcott"/>
    <tag k="addr:housenumber" v="2575"/>
    <tag k="addr:street" v="Elmore Pond Road"/>
    <tag k="addr:state" v="VT"/>
    <tag k="ref:vcgi:esiteid" v="301369"/>
  </node>
  <node id="-794" visible="true" lat="44.54444132" lon="-72.50741551">
    <tag k="addr:city" v="Wolcott"/>
    <tag k="addr:housenumber" v="2615"/>
    <tag k="addr:street" v="Elmore Pond Road"/>
    <tag k="addr:state" v="VT"/>
    <tag k="ref:vcgi:esiteid" v="301371"/>
  </node>
  <node id="-799" visible="true" lat="44.60275534" lon="-72.48934441">
    <tag k="addr:city" v="Wolcott"/>
    <tag k="addr:housenumber" v="1208"/>
    <tag k="addr:street" v="Sand Hill Road"/>
    <tag k="addr:state" v="VT"/>
    <tag k="ref:vcgi:esiteid" v="301376"/>
  </node>
  <node id="-800" visible="true" lat="44.55031818" lon="-72.5308332">
    <tag k="addr:city" v="Wolcott"/>
    <tag k="addr:housenumber" v="201"/>
    <tag k="addr:street" v="Barrows Farm Lane"/>
    <tag k="addr:state" v="VT"/>
    <tag k="ref:vcgi:esiteid" v="301377"/>
  </node>
  <node id="-801" visible="true" lat="44.62893832" lon="-72.48437524">
    <tag k="addr:city" v="Wolcott"/>
    <tag k="addr:housenumber" v="1762"/>
    <tag k="addr:street" v="Morey Hill Road"/>
    <tag k="addr:state" v="VT"/>
    <tag k="ref:vcgi:esiteid" v="301378"/>
  </node>
  <node id="-802" visible="true" lat="44.54120155" lon="-72.4972591">
    <tag k="addr:city" v="Wolcott"/>
    <tag k="addr:housenumber" v="2074"/>
    <tag k="addr:street" v="Elmore Pond Road"/>
    <tag k="addr:state" v="VT"/>
    <tag k="ref:vcgi:esiteid" v="301379"/>
  </node>
  <node id="-803" visible="true" lat="44.53685194" lon="-72.49412162">
    <tag k="addr:city" v="Wolcott"/>
    <tag k="addr:housenumber" v="1737"/>
    <tag k="addr:street" v="Elmore Pond Road"/>
    <tag k="addr:state" v="VT"/>
    <tag k="ref:vcgi:esiteid" v="301380"/>
  </node>
  <node id="-804" visible="true" lat="44.5527894" lon="-72.47364259">
    <tag k="addr:city" v="Wolcott"/>
    <tag k="addr:housenumber" v="34"/>
    <tag k="addr:street" v="Town Hill Road"/>
    <tag k="addr:state" v="VT"/>
    <tag k="ref:vcgi:esiteid" v="301381"/>
  </node>
  <node id="-808" visible="true" lat="44.61000886" lon="-72.48290475">
    <tag k="addr:city" v="Wolcott"/>
    <tag k="addr:housenumber" v="789"/>
    <tag k="addr:street" v="Baldwin Brook Road"/>
    <tag k="addr:state" v="VT"/>
    <tag k="ref:vcgi:esiteid" v="301385"/>
  </node>
  <node id="-810" visible="true" lat="44.54702348" lon="-72.4836629">
    <tag k="addr:city" v="Wolcott"/>
    <tag k="addr:housenumber" v="648"/>
    <tag k="addr:street" v="Elmore Pond Road"/>
    <tag k="addr:state" v="VT"/>
    <tag k="ref:vcgi:esiteid" v="301387"/>
  </node>
  <node id="-811" visible="true" lat="44.6158174" lon="-72.45398224">
    <tag k="addr:city" v="Wolcott"/>
    <tag k="addr:housenumber" v="345"/>
    <tag k="addr:street" v="Reed Road"/>
    <tag k="addr:state" v="VT"/>
    <tag k="ref:vcgi:esiteid" v="301388"/>
  </node>
  <node id="-812" visible="true" lat="44.56886871" lon="-72.47298714">
    <tag k="addr:city" v="Wolcott"/>
    <tag k="addr:housenumber" v="147"/>
    <tag k="addr:street" v="Whitetail Drive"/>
    <tag k="addr:state" v="VT"/>
    <tag k="ref:vcgi:esiteid" v="301389"/>
  </node>
  <node id="-813" visible="true" lat="44.56841408" lon="-72.47249525">
    <tag k="addr:city" v="Wolcott"/>
    <tag k="addr:housenumber" v="172"/>
    <tag k="addr:street" v="Whitetail Drive"/>
    <tag k="addr:state" v="VT"/>
    <tag k="ref:vcgi:esiteid" v="301390"/>
  </node>
  <node id="-814" visible="true" lat="44.58597952" lon="-72.49552325">
    <tag k="addr:city" v="Wolcott"/>
    <tag k="addr:housenumber" v="293"/>
    <tag k="addr:street" v="Jones Lane"/>
    <tag k="addr:state" v="VT"/>
    <tag k="ref:vcgi:esiteid" v="301391"/>
  </node>
  <node id="-818" visible="true" lat="44.57265911" lon="-72.48277497">
    <tag k="addr:city" v="Wolcott"/>
    <tag k="addr:housenumber" v="315"/>
    <tag k="addr:street" v="West Hill Road"/>
    <tag k="addr:state" v="VT"/>
    <tag k="ref:vcgi:esiteid" v="301395"/>
  </node>
  <node id="-820" visible="true" lat="44.55378368" lon="-72.52895465">
    <tag k="addr:city" v="Wolcott"/>
    <tag k="addr:housenumber" v="974"/>
    <tag k="addr:street" v="Richard Woolcutt Road"/>
    <tag k="addr:state" v="VT"/>
    <tag k="ref:vcgi:esiteid" v="301397"/>
  </node>
  <node id="-824" visible="true" lat="44.53683076" lon="-72.4900221">
    <tag k="addr:city" v="Wolcott"/>
    <tag k="addr:housenumber" v="1574"/>
    <tag k="addr:street" v="Elmore Pond Road"/>
    <tag k="addr:state" v="VT"/>
    <tag k="ref:vcgi:esiteid" v="301401"/>
  </node>
  <node id="-826" visible="true" lat="44.56638313" lon="-72.47449436">
    <tag k="addr:city" v="Wolcott"/>
    <tag k="addr:housenumber" v="1004"/>
    <tag k="addr:street" v="Gulf Road"/>
    <tag k="addr:state" v="VT"/>
    <tag k="ref:vcgi:esiteid" v="301403"/>
  </node>
  <node id="-831" visible="true" lat="44.58704427" lon="-72.38170566">
    <tag k="addr:city" v="Wolcott"/>
    <tag k="addr:housenumber" v="465"/>
    <tag k="addr:street" v="Trout Lilly Lane"/>
    <tag k="addr:state" v="VT"/>
    <tag k="ref:vcgi:esiteid" v="301408"/>
  </node>
  <node id="-832" visible="true" lat="44.61340087" lon="-72.48350303">
    <tag k="addr:city" v="Wolcott"/>
    <tag k="addr:housenumber" v="1019"/>
    <tag k="addr:street" v="Baldwin Brook Road"/>
    <tag k="addr:state" v="VT"/>
    <tag k="ref:vcgi:esiteid" v="301409"/>
  </node>
  <node id="-835" visible="true" lat="44.53833108" lon="-72.49644206">
    <tag k="addr:city" v="Wolcott"/>
    <tag k="addr:housenumber" v="1961"/>
    <tag k="addr:street" v="Elmore Pond Road"/>
    <tag k="addr:state" v="VT"/>
    <tag k="ref:vcgi:esiteid" v="301412"/>
  </node>
  <node id="-836" visible="true" lat="44.59278322" lon="-72.38448472">
    <tag k="addr:city" v="Wolcott"/>
    <tag k="addr:housenumber" v="451"/>
    <tag k="addr:street" v="Hines Road"/>
    <tag k="addr:state" v="VT"/>
    <tag k="ref:vcgi:esiteid" v="301413"/>
  </node>
  <node id="-838" visible="true" lat="44.54385721" lon="-72.51481251">
    <tag k="addr:city" v="Wolcott"/>
    <tag k="addr:housenumber" v="3289"/>
    <tag k="addr:street" v="Elmore Pond Road"/>
    <tag k="addr:state" v="VT"/>
    <tag k="ref:vcgi:esiteid" v="306456"/>
  </node>
  <node id="-839" visible="true" lat="44.55431515" lon="-72.53479819">
    <tag k="addr:city" v="Wolcott"/>
    <tag k="addr:housenumber" v="56"/>
    <tag k="addr:street" v="Memory Lane"/>
    <tag k="addr:state" v="VT"/>
    <tag k="ref:vcgi:esiteid" v="306556"/>
  </node>
  <node id="-841" visible="true" lat="44.61268112" lon="-72.4295711">
    <tag k="addr:city" v="Wolcott"/>
    <tag k="addr:housenumber" v="4709"/>
    <tag k="addr:street" v="Town Hill Road"/>
    <tag k="addr:state" v="VT"/>
    <tag k="ref:vcgi:esiteid" v="310045"/>
  </node>
  <node id="-844" visible="true" lat="44.55150739" lon="-72.53128271">
    <tag k="addr:city" v="Wolcott"/>
    <tag k="addr:housenumber" v="183"/>
    <tag k="addr:street" v="Barrows Farm Lane"/>
    <tag k="addr:state" v="VT"/>
    <tag k="ref:vcgi:esiteid" v="310947"/>
  </node>
  <node id="-846" visible="true" lat="44.5455308" lon="-72.48397797">
    <tag k="addr:city" v="Wolcott"/>
    <tag k="addr:housenumber" v="723"/>
    <tag k="addr:street" v="Elmore Pond Road"/>
    <tag k="addr:state" v="VT"/>
    <tag k="ref:vcgi:esiteid" v="313799"/>
  </node>
  <node id="-847" visible="true" lat="44.54308596" lon="-72.50379261">
    <tag k="addr:city" v="Wolcott"/>
    <tag k="addr:housenumber" v="2433"/>
    <tag k="addr:street" v="Elmore Pond Road"/>
    <tag k="addr:state" v="VT"/>
    <tag k="ref:vcgi:esiteid" v="315163"/>
  </node>
  <node id="-848" visible="true" lat="44.6229454" lon="-72.4638742">
    <tag k="addr:city" v="Wolcott"/>
    <tag k="addr:housenumber" v="867"/>
    <tag k="addr:street" v="Brook Road"/>
    <tag k="addr:state" v="VT"/>
    <tag k="ref:vcgi:esiteid" v="315164"/>
  </node>
  <node id="-849" visible="true" lat="44.59070393" lon="-72.49830736">
    <tag k="addr:city" v="Wolcott"/>
    <tag k="addr:housenumber" v="57"/>
    <tag k="addr:street" v="Another Way"/>
    <tag k="addr:state" v="VT"/>
    <tag k="ref:vcgi:esiteid" v="315165"/>
  </node>
  <node id="-850" visible="true" lat="44.61688766" lon="-72.44683199">
    <tag k="addr:city" v="Wolcott"/>
    <tag k="addr:housenumber" v="56"/>
    <tag k="addr:street" v="Penny Lane"/>
    <tag k="addr:state" v="VT"/>
    <tag k="ref:vcgi:esiteid" v="316012"/>
  </node>
  <node id="-852" visible="true" lat="44.55078579" lon="-72.5068169">
    <tag k="addr:city" v="Wolcott"/>
    <tag k="addr:housenumber" v="163"/>
    <tag k="addr:street" v="Apixia Way"/>
    <tag k="addr:state" v="VT"/>
    <tag k="ref:vcgi:esiteid" v="316071"/>
  </node>
  <node id="-854" visible="true" lat="44.55350628" lon="-72.53442451">
    <tag k="addr:city" v="Wolcott"/>
    <tag k="addr:housenumber" v="37"/>
    <tag k="addr:street" v="Carroll Meadow Lane"/>
    <tag k="addr:state" v="VT"/>
    <tag k="ref:vcgi:esiteid" v="316799"/>
  </node>
  <node id="-859" visible="true" lat="44.60670503" lon="-72.44953808">
    <tag k="addr:city" v="Wolcott"/>
    <tag k="addr:housenumber" v="510"/>
    <tag k="addr:street" v="Manley Road"/>
    <tag k="addr:state" v="VT"/>
    <tag k="ref:vcgi:esiteid" v="325258"/>
  </node>
  <node id="-870" visible="true" lat="44.55375255" lon="-72.5349363">
    <tag k="addr:city" v="Wolcott"/>
    <tag k="addr:housenumber" v="18"/>
    <tag k="addr:street" v="Memory Lane"/>
    <tag k="addr:state" v="VT"/>
    <tag k="ref:vcgi:esiteid" v="331134"/>
  </node>
  <node id="-873" visible="true" lat="44.53147849" lon="-72.42408185">
    <tag k="addr:city" v="Wolcott"/>
    <tag k="addr:housenumber" v="75"/>
    <tag k="addr:street" v="Quarry Road"/>
    <tag k="addr:state" v="VT"/>
    <tag k="ref:vcgi:esiteid" v="332927"/>
  </node>
  <node id="-877" visible="true" lat="44.58710146" lon="-72.49795381">
    <tag k="addr:city" v="Wolcott"/>
    <tag k="addr:housenumber" v="461"/>
    <tag k="addr:street" v="Jones Lane"/>
    <tag k="addr:state" v="VT"/>
    <tag k="ref:vcgi:esiteid" v="334680"/>
  </node>
  <node id="-884" visible="true" lat="44.55234397" lon="-72.53045241">
    <tag k="addr:city" v="Wolcott"/>
    <tag k="addr:housenumber" v="1147"/>
    <tag k="addr:street" v="Richard Woolcutt Road"/>
    <tag k="addr:state" v="VT"/>
    <tag k="ref:vcgi:esiteid" v="337359"/>
  </node>
  <node id="-885" visible="true" lat="44.56391284" lon="-72.49326789">
    <tag k="addr:city" v="Wolcott"/>
    <tag k="addr:housenumber" v="83"/>
    <tag k="addr:street" v="North Wolcott Road"/>
    <tag k="addr:state" v="VT"/>
    <tag k="ref:vcgi:esiteid" v="337360"/>
  </node>
  <node id="-889" visible="true" lat="44.56389064" lon="-72.49384917">
    <tag k="addr:city" v="Wolcott"/>
    <tag k="addr:housenumber" v="73"/>
    <tag k="addr:street" v="North Wolcott Road"/>
    <tag k="addr:state" v="VT"/>
    <tag k="ref:vcgi:esiteid" v="338382"/>
  </node>
  <node id="-890" visible="true" lat="44.61261884" lon="-72.46419346">
    <tag k="addr:city" v="Wolcott"/>
    <tag k="addr:housenumber" v="2"/>
    <tag k="addr:street" v="Jacks Road"/>
    <tag k="addr:state" v="VT"/>
    <tag k="ref:vcgi:esiteid" v="338446"/>
  </node>
  <node id="-891" visible="true" lat="44.5855193" lon="-72.49721638">
    <tag k="addr:city" v="Wolcott"/>
    <tag k="addr:housenumber" v="146"/>
    <tag k="addr:street" v="Arnolds Lane"/>
    <tag k="addr:state" v="VT"/>
    <tag k="ref:vcgi:esiteid" v="338941"/>
  </node>
  <node id="-892" visible="true" lat="44.59991535" lon="-72.43787898">
    <tag k="addr:city" v="Wolcott"/>
    <tag k="addr:housenumber" v="3770"/>
    <tag k="addr:street" v="Town Hill Road"/>
    <tag k="addr:state" v="VT"/>
    <tag k="ref:vcgi:esiteid" v="338942"/>
  </node>
  <node id="-893" visible="true" lat="44.59268528" lon="-72.49946104">
    <tag k="addr:city" v="Wolcott"/>
    <tag k="addr:housenumber" v="790"/>
    <tag k="addr:street" v="Jones Lane"/>
    <tag k="addr:state" v="VT"/>
    <tag k="ref:vcgi:esiteid" v="339319"/>
  </node>
  <node id="-901" visible="true" lat="44.62203808" lon="-72.47871164">
    <tag k="addr:city" v="Wolcott"/>
    <tag k="addr:housenumber" v="1257"/>
    <tag k="addr:street" v="Morey Hill Road"/>
    <tag k="addr:state" v="VT"/>
    <tag k="ref:vcgi:esiteid" v="345080"/>
  </node>
  <node id="-902" visible="true" lat="44.59277759" lon="-72.38680827">
    <tag k="addr:city" v="Wolcott"/>
    <tag k="addr:housenumber" v="469"/>
    <tag k="addr:street" v="Hines Road"/>
    <tag k="addr:state" v="VT"/>
    <tag k="ref:vcgi:esiteid" v="345081"/>
  </node>
  <node id="-903" visible="true" lat="44.61589305" lon="-72.44679118">
    <tag k="addr:city" v="Wolcott"/>
    <tag k="addr:housenumber" v="15"/>
    <tag k="addr:street" v="Penny Lane"/>
    <tag k="addr:state" v="VT"/>
    <tag k="ref:vcgi:esiteid" v="345082"/>
  </node>
  <node id="-904" visible="true" lat="44.54783892" lon="-72.40353462">
    <tag k="addr:city" v="Wolcott"/>
    <tag k="addr:housenumber" v="808"/>
    <tag k="addr:street" v="Simmons Road"/>
    <tag k="addr:state" v="VT"/>
    <tag k="ref:vcgi:esiteid" v="345084"/>
  </node>
  <node id="-905" visible="true" lat="44.5433244" lon="-72.49679359">
    <tag k="addr:city" v="Wolcott"/>
    <tag k="addr:housenumber" v="2128"/>
    <tag k="addr:street" v="Elmore Pond Road"/>
    <tag k="addr:state" v="VT"/>
    <tag k="ref:vcgi:esiteid" v="345085"/>
  </node>
  <node id="-906" visible="true" lat="44.54930399" lon="-72.50868499">
    <tag k="addr:city" v="Wolcott"/>
    <tag k="addr:housenumber" v="246"/>
    <tag k="addr:street" v="Apixia Way"/>
    <tag k="addr:state" v="VT"/>
    <tag k="ref:vcgi:esiteid" v="346074"/>
  </node>
  <node id="-907" visible="true" lat="44.54994382" lon="-72.51462443">
    <tag k="addr:city" v="Wolcott"/>
    <tag k="addr:housenumber" v="159"/>
    <tag k="addr:street" v="Brookview Lane"/>
    <tag k="addr:state" v="VT"/>
    <tag k="ref:vcgi:esiteid" v="365170"/>
  </node>
  <node id="-908" visible="true" lat="44.60722068" lon="-72.43491271">
    <tag k="addr:city" v="Wolcott"/>
    <tag k="addr:housenumber" v="4281"/>
    <tag k="addr:street" v="Town Hill Road"/>
    <tag k="addr:state" v="VT"/>
    <tag k="ref:vcgi:esiteid" v="365213"/>
  </node>
  <node id="-910" visible="true" lat="44.61556178" lon="-72.44091028">
    <tag k="addr:city" v="Wolcott"/>
    <tag k="addr:housenumber" v="202"/>
    <tag k="addr:street" v="Cote Road"/>
    <tag k="addr:state" v="VT"/>
    <tag k="ref:vcgi:esiteid" v="446933"/>
  </node>
  <node id="-912" visible="true" lat="44.62308781" lon="-72.47987029">
    <tag k="addr:city" v="Wolcott"/>
    <tag k="addr:housenumber" v="101"/>
    <tag k="addr:street" v="Ladd Road"/>
    <tag k="addr:state" v="VT"/>
    <tag k="ref:vcgi:esiteid" v="448259"/>
  </node>
  <node id="-914" visible="true" lat="44.54907888" lon="-72.50754614">
    <tag k="addr:city" v="Wolcott"/>
    <tag k="addr:housenumber" v="274"/>
    <tag k="addr:street" v="Apixia Way"/>
    <tag k="addr:state" v="VT"/>
    <tag k="ref:vcgi:esiteid" v="448261"/>
  </node>
  <node id="-915" visible="true" lat="44.56594473" lon="-72.49983631">
    <tag k="addr:city" v="Wolcott"/>
    <tag k="addr:housenumber" v="49"/>
    <tag k="addr:street" v="Independence Drive"/>
    <tag k="addr:state" v="VT"/>
    <tag k="ref:vcgi:esiteid" v="449268"/>
  </node>
  <node id="-923" visible="true" lat="44.54947366" lon="-72.51456935">
    <tag k="addr:city" v="Wolcott"/>
    <tag k="addr:housenumber" v="115"/>
    <tag k="addr:street" v="Brookview Lane"/>
    <tag k="addr:state" v="VT"/>
    <tag k="ref:vcgi:esiteid" v="451044"/>
  </node>
  <node id="-936" visible="true" lat="44.59675939" lon="-72.4420798">
    <tag k="addr:city" v="Wolcott"/>
    <tag k="addr:housenumber" v="3523"/>
    <tag k="addr:street" v="Town Hill Road"/>
    <tag k="addr:state" v="VT"/>
    <tag k="ref:vcgi:esiteid" v="454963"/>
  </node>
  <node id="-949" visible="true" lat="44.55679749" lon="-72.53065539">
    <tag k="addr:city" v="Wolcott"/>
    <tag k="addr:housenumber" v="444"/>
    <tag k="addr:street" v="Tjader Road"/>
    <tag k="addr:state" v="VT"/>
    <tag k="ref:vcgi:esiteid" v="612559"/>
  </node>
  <node id="-955" visible="true" lat="44.59338608" lon="-72.50702739">
    <tag k="addr:city" v="Wolcott"/>
    <tag k="addr:housenumber" v="1287"/>
    <tag k="addr:street" v="Jones Lane"/>
    <tag k="addr:state" v="VT"/>
    <tag k="ref:vcgi:esiteid" v="620502"/>
  </node>
  <node id="-961" visible="true" lat="44.60869787" lon="-72.4852319">
    <tag k="addr:city" v="Wolcott"/>
    <tag k="addr:housenumber" v="518"/>
    <tag k="addr:street" v="Baldwin Brook Road"/>
    <tag k="addr:state" v="VT"/>
    <tag k="ref:vcgi:esiteid" v="750136"/>
  </node>
  <node id="-966" visible="true" lat="44.54951697" lon="-72.40575908">
    <tag k="addr:city" v="Wolcott"/>
    <tag k="addr:housenumber" v="653"/>
    <tag k="addr:street" v="Simmons Road"/>
    <tag k="addr:state" v="VT"/>
    <tag k="ref:vcgi:esiteid" v="751402"/>
  </node>
  <node id="-977" visible="true" lat="44.54548697" lon="-72.45467333">
    <tag k="addr:city" v="Wolcott"/>
    <tag k="addr:housenumber" v="4465"/>
    <tag k="addr:street" v="Vermont Route 15"/>
    <tag k="addr:state" v="VT"/>
    <tag k="ref:vcgi:esiteid" v="753641"/>
  </node>
  <node id="-1004" visible="true" lat="44.59263591" lon="-72.50963991">
    <tag k="addr:city" v="Wolcott"/>
    <tag k="addr:housenumber" v="1411"/>
    <tag k="addr:street" v="Jones Lane"/>
    <tag k="addr:state" v="VT"/>
    <tag k="ref:vcgi:esiteid" v="759610"/>
  </node>
</osm>
