<?xml version="1.0" encoding="UTF-8"?>
<osm version="0.6" generator="JOSM">
  <node id="-103" visible="true" lat="44.6279797" lon="-72.48415578">
    <tag k="addr:city" v="Wolcott"/>
    <tag k="addr:housenumber" v="1709"/>
    <tag k="addr:street" v="Morey Hill Road"/>
    <tag k="addr:state" v="VT"/>
    <tag k="ref:vcgi:esiteid" v="300652"/>
  </node>
  <node id="-106" visible="true" lat="44.6258205" lon="-72.47930947">
    <tag k="addr:city" v="Wolcott"/>
    <tag k="addr:housenumber" v="1426"/>
    <tag k="addr:street" v="Morey Hill Road"/>
    <tag k="addr:state" v="VT"/>
    <tag k="ref:vcgi:esiteid" v="300655"/>
  </node>
  <node id="-118" visible="true" lat="44.6207289" lon="-72.46269998">
    <tag k="addr:city" v="Wolcott"/>
    <tag k="addr:housenumber" v="687"/>
    <tag k="addr:street" v="Brook Road"/>
    <tag k="addr:state" v="VT"/>
    <tag k="ref:vcgi:esiteid" v="300667"/>
  </node>
  <node id="-120" visible="true" lat="44.6200903" lon="-72.46249945">
    <tag k="addr:city" v="Wolcott"/>
    <tag k="addr:housenumber" v="639"/>
    <tag k="addr:street" v="Brook Road"/>
    <tag k="addr:state" v="VT"/>
    <tag k="ref:vcgi:esiteid" v="300669"/>
  </node>
  <node id="-121" visible="true" lat="44.61963654" lon="-72.46170815">
    <tag k="addr:city" v="Wolcott"/>
    <tag k="addr:housenumber" v="610"/>
    <tag k="addr:street" v="Brook Road"/>
    <tag k="addr:state" v="VT"/>
    <tag k="ref:vcgi:esiteid" v="300670"/>
  </node>
  <node id="-123" visible="true" lat="44.61952473" lon="-72.46250705">
    <tag k="addr:city" v="Wolcott"/>
    <tag k="addr:housenumber" v="601"/>
    <tag k="addr:street" v="Brook Road"/>
    <tag k="addr:state" v="VT"/>
    <tag k="ref:vcgi:esiteid" v="300672"/>
  </node>
  <node id="-124" visible="true" lat="44.61993307" lon="-72.47650069">
    <tag k="addr:city" v="Wolcott"/>
    <tag k="addr:housenumber" v="1571"/>
    <tag k="addr:street" v="Baldwin Brook Road"/>
    <tag k="addr:state" v="VT"/>
    <tag k="ref:vcgi:esiteid" v="300673"/>
  </node>
  <node id="-125" visible="true" lat="44.61898144" lon="-72.47612113">
    <tag k="addr:city" v="Wolcott"/>
    <tag k="addr:housenumber" v="1570"/>
    <tag k="addr:street" v="Baldwin Brook Road"/>
    <tag k="addr:state" v="VT"/>
    <tag k="ref:vcgi:esiteid" v="300674"/>
  </node>
  <node id="-126" visible="true" lat="44.61879537" lon="-72.46207516">
    <tag k="addr:city" v="Wolcott"/>
    <tag k="addr:housenumber" v="555"/>
    <tag k="addr:street" v="Brook Road"/>
    <tag k="addr:state" v="VT"/>
    <tag k="ref:vcgi:esiteid" v="300675"/>
  </node>
  <node id="-127" visible="true" lat="44.61828232" lon="-72.46190652">
    <tag k="addr:city" v="Wolcott"/>
    <tag k="addr:housenumber" v="527"/>
    <tag k="addr:street" v="Brook Road"/>
    <tag k="addr:state" v="VT"/>
    <tag k="ref:vcgi:esiteid" v="300676"/>
  </node>
  <node id="-130" visible="true" lat="44.61730194" lon="-72.47034463">
    <tag k="addr:city" v="Wolcott"/>
    <tag k="addr:housenumber" v="679"/>
    <tag k="addr:street" v="Morey Hill Road"/>
    <tag k="addr:state" v="VT"/>
    <tag k="ref:vcgi:esiteid" v="300679"/>
  </node>
  <node id="-131" visible="true" lat="44.61714172" lon="-72.46984109">
    <tag k="addr:city" v="Wolcott"/>
    <tag k="addr:housenumber" v="651"/>
    <tag k="addr:street" v="Morey Hill Road"/>
    <tag k="addr:state" v="VT"/>
    <tag k="ref:vcgi:esiteid" v="300680"/>
  </node>
  <node id="-132" visible="true" lat="44.61698494" lon="-72.46081371">
    <tag k="addr:city" v="Wolcott"/>
    <tag k="addr:housenumber" v="19"/>
    <tag k="addr:street" v="Stanley Road"/>
    <tag k="addr:state" v="VT"/>
    <tag k="ref:vcgi:esiteid" v="300681"/>
  </node>
  <node id="-137" visible="true" lat="44.61692413" lon="-72.4802937">
    <tag k="addr:city" v="Wolcott"/>
    <tag k="addr:housenumber" v="1147"/>
    <tag k="addr:street" v="Baldwin Brook Road"/>
    <tag k="addr:state" v="VT"/>
    <tag k="ref:vcgi:esiteid" v="300686"/>
  </node>
  <node id="-138" visible="true" lat="44.6159668" lon="-72.46163186">
    <tag k="addr:city" v="Wolcott"/>
    <tag k="addr:housenumber" v="353"/>
    <tag k="addr:street" v="Brook Road"/>
    <tag k="addr:state" v="VT"/>
    <tag k="ref:vcgi:esiteid" v="300687"/>
  </node>
  <node id="-139" visible="true" lat="44.61557007" lon="-72.46430215">
    <tag k="addr:city" v="Wolcott"/>
    <tag k="addr:housenumber" v="352"/>
    <tag k="addr:street" v="Morey Hill Road"/>
    <tag k="addr:state" v="VT"/>
    <tag k="ref:vcgi:esiteid" v="300688"/>
  </node>
  <node id="-142" visible="true" lat="44.615345" lon="-72.46325692">
    <tag k="addr:city" v="Wolcott"/>
    <tag k="addr:housenumber" v="282"/>
    <tag k="addr:street" v="Morey Hill Road"/>
    <tag k="addr:state" v="VT"/>
    <tag k="ref:vcgi:esiteid" v="300691"/>
  </node>
  <node id="-144" visible="true" lat="44.61530097" lon="-72.4614021">
    <tag k="addr:city" v="Wolcott"/>
    <tag k="addr:housenumber" v="310"/>
    <tag k="addr:street" v="Brook Road"/>
    <tag k="addr:state" v="VT"/>
    <tag k="ref:vcgi:esiteid" v="300693"/>
  </node>
  <node id="-149" visible="true" lat="44.61453731" lon="-72.44940192">
    <tag k="addr:city" v="Wolcott"/>
    <tag k="addr:housenumber" v="4765"/>
    <tag k="addr:street" v="North Wolcott Road"/>
    <tag k="addr:state" v="VT"/>
    <tag k="ref:vcgi:esiteid" v="300699"/>
  </node>
  <node id="-151" visible="true" lat="44.61426163" lon="-72.4607087">
    <tag k="addr:city" v="Wolcott"/>
    <tag k="addr:housenumber" v="184"/>
    <tag k="addr:street" v="Brook Road"/>
    <tag k="addr:state" v="VT"/>
    <tag k="ref:vcgi:esiteid" v="300703"/>
  </node>
  <node id="-152" visible="true" lat="44.61410206" lon="-72.44855284">
    <tag k="addr:city" v="Wolcott"/>
    <tag k="addr:housenumber" v="4740"/>
    <tag k="addr:street" v="North Wolcott Road"/>
    <tag k="addr:state" v="VT"/>
    <tag k="ref:vcgi:esiteid" v="300704"/>
  </node>
  <node id="-153" visible="true" lat="44.61376485" lon="-72.48278626">
    <tag k="addr:city" v="Wolcott"/>
    <tag k="addr:housenumber" v="1045"/>
    <tag k="addr:street" v="Baldwin Brook Road"/>
    <tag k="addr:state" v="VT"/>
    <tag k="ref:vcgi:esiteid" v="300705"/>
  </node>
  <node id="-155" visible="true" lat="44.61290828" lon="-72.45144042">
    <tag k="addr:city" v="Wolcott"/>
    <tag k="addr:housenumber" v="4524"/>
    <tag k="addr:street" v="North Wolcott Road"/>
    <tag k="addr:state" v="VT"/>
    <tag k="ref:vcgi:esiteid" v="300708"/>
  </node>
  <node id="-163" visible="true" lat="44.61209869" lon="-72.45619973">
    <tag k="addr:city" v="Wolcott"/>
    <tag k="addr:housenumber" v="4305"/>
    <tag k="addr:street" v="North Wolcott Road"/>
    <tag k="addr:state" v="VT"/>
    <tag k="ref:vcgi:esiteid" v="300717"/>
  </node>
  <node id="-172" visible="true" lat="44.61066437" lon="-72.42798623">
    <tag k="addr:city" v="Wolcott"/>
    <tag k="addr:housenumber" v="4614"/>
    <tag k="addr:street" v="Town Hill Road"/>
    <tag k="addr:state" v="VT"/>
    <tag k="ref:vcgi:esiteid" v="300726"/>
  </node>
  <node id="-174" visible="true" lat="44.61034393" lon="-72.43072518">
    <tag k="addr:city" v="Wolcott"/>
    <tag k="addr:housenumber" v="4577"/>
    <tag k="addr:street" v="Town Hill Road"/>
    <tag k="addr:state" v="VT"/>
    <tag k="ref:vcgi:esiteid" v="300728"/>
  </node>
  <node id="-176" visible="true" lat="44.6098372" lon="-72.46247695">
    <tag k="addr:city" v="Wolcott"/>
    <tag k="addr:housenumber" v="3957"/>
    <tag k="addr:street" v="North Wolcott Road"/>
    <tag k="addr:state" v="VT"/>
    <tag k="ref:vcgi:esiteid" v="300730"/>
  </node>
  <node id="-177" visible="true" lat="44.60995046" lon="-72.46236161">
    <tag k="addr:city" v="Wolcott"/>
    <tag k="addr:housenumber" v="3959"/>
    <tag k="addr:street" v="North Wolcott Road"/>
    <tag k="addr:state" v="VT"/>
    <tag k="ref:vcgi:esiteid" v="300731"/>
  </node>
  <node id="-180" visible="true" lat="44.60941643" lon="-72.46393656">
    <tag k="addr:city" v="Wolcott"/>
    <tag k="addr:housenumber" v="3925"/>
    <tag k="addr:street" v="North Wolcott Road"/>
    <tag k="addr:state" v="VT"/>
    <tag k="ref:vcgi:esiteid" v="300734"/>
  </node>
  <node id="-181" visible="true" lat="44.60927986" lon="-72.4663277">
    <tag k="addr:city" v="Wolcott"/>
    <tag k="addr:housenumber" v="212"/>
    <tag k="addr:street" v="Birch Lane"/>
    <tag k="addr:state" v="VT"/>
    <tag k="ref:vcgi:esiteid" v="300735"/>
  </node>
  <node id="-183" visible="true" lat="44.60901127" lon="-72.46260556">
    <tag k="addr:city" v="Wolcott"/>
    <tag k="addr:housenumber" v="3906"/>
    <tag k="addr:street" v="North Wolcott Road"/>
    <tag k="addr:state" v="VT"/>
    <tag k="ref:vcgi:esiteid" v="300737"/>
  </node>
  <node id="-184" visible="true" lat="44.60908028" lon="-72.46307994">
    <tag k="addr:city" v="Wolcott"/>
    <tag k="addr:housenumber" v="3893"/>
    <tag k="addr:street" v="North Wolcott Road"/>
    <tag k="addr:state" v="VT"/>
    <tag k="ref:vcgi:esiteid" v="300738"/>
  </node>
  <node id="-185" visible="true" lat="44.60913151" lon="-72.46408866">
    <tag k="addr:city" v="Wolcott"/>
    <tag k="addr:housenumber" v="3845"/>
    <tag k="addr:street" v="North Wolcott Road"/>
    <tag k="addr:state" v="VT"/>
    <tag k="ref:vcgi:esiteid" v="300739"/>
  </node>
  <node id="-187" visible="true" lat="44.60849952" lon="-72.46343941">
    <tag k="addr:city" v="Wolcott"/>
    <tag k="addr:housenumber" v="3851"/>
    <tag k="addr:street" v="North Wolcott Road"/>
    <tag k="addr:state" v="VT"/>
    <tag k="ref:vcgi:esiteid" v="300741"/>
  </node>
  <node id="-188" visible="true" lat="44.6083611" lon="-72.4630143">
    <tag k="addr:city" v="Wolcott"/>
    <tag k="addr:housenumber" v="3856"/>
    <tag k="addr:street" v="North Wolcott Road"/>
    <tag k="addr:state" v="VT"/>
    <tag k="ref:vcgi:esiteid" v="300742"/>
  </node>
  <node id="-190" visible="true" lat="44.60809489" lon="-72.46391807">
    <tag k="addr:city" v="Wolcott"/>
    <tag k="addr:housenumber" v="3821"/>
    <tag k="addr:street" v="North Wolcott Road"/>
    <tag k="addr:state" v="VT"/>
    <tag k="ref:vcgi:esiteid" v="300744"/>
  </node>
  <node id="-191" visible="true" lat="44.60810099" lon="-72.4650209">
    <tag k="addr:city" v="Wolcott"/>
    <tag k="addr:housenumber" v="78"/>
    <tag k="addr:street" v="Birch Lane"/>
    <tag k="addr:state" v="VT"/>
    <tag k="ref:vcgi:esiteid" v="300745"/>
  </node>
  <node id="-192" visible="true" lat="44.60748673" lon="-72.46445473">
    <tag k="addr:city" v="Wolcott"/>
    <tag k="addr:housenumber" v="3765"/>
    <tag k="addr:street" v="North Wolcott Road"/>
    <tag k="addr:state" v="VT"/>
    <tag k="ref:vcgi:esiteid" v="300747"/>
  </node>
  <node id="-193" visible="true" lat="44.6074295" lon="-72.43734749">
    <tag k="addr:city" v="Wolcott"/>
    <tag k="addr:housenumber" v="4243"/>
    <tag k="addr:street" v="Town Hill Road"/>
    <tag k="addr:state" v="VT"/>
    <tag k="ref:vcgi:esiteid" v="300748"/>
  </node>
  <node id="-194" visible="true" lat="44.60707092" lon="-72.46461495">
    <tag k="addr:city" v="Wolcott"/>
    <tag k="addr:housenumber" v="3737"/>
    <tag k="addr:street" v="North Wolcott Road"/>
    <tag k="addr:state" v="VT"/>
    <tag k="ref:vcgi:esiteid" v="300749"/>
  </node>
  <node id="-196" visible="true" lat="44.60670471" lon="-72.46475991">
    <tag k="addr:city" v="Wolcott"/>
    <tag k="addr:housenumber" v="3711"/>
    <tag k="addr:street" v="North Wolcott Road"/>
    <tag k="addr:state" v="VT"/>
    <tag k="ref:vcgi:esiteid" v="300752"/>
  </node>
  <node id="-197" visible="true" lat="44.60602578" lon="-72.46470076">
    <tag k="addr:city" v="Wolcott"/>
    <tag k="addr:housenumber" v="3670"/>
    <tag k="addr:street" v="North Wolcott Road"/>
    <tag k="addr:state" v="VT"/>
    <tag k="ref:vcgi:esiteid" v="300753"/>
  </node>
  <node id="-198" visible="true" lat="44.6058419" lon="-72.46544353">
    <tag k="addr:city" v="Wolcott"/>
    <tag k="addr:housenumber" v="3657"/>
    <tag k="addr:street" v="North Wolcott Road"/>
    <tag k="addr:state" v="VT"/>
    <tag k="ref:vcgi:esiteid" v="300754"/>
  </node>
  <node id="-200" visible="true" lat="44.60567834" lon="-72.4738881">
    <tag k="addr:city" v="Wolcott"/>
    <tag k="addr:housenumber" v="542"/>
    <tag k="addr:street" v="Homers Road"/>
    <tag k="addr:state" v="VT"/>
    <tag k="ref:vcgi:esiteid" v="300756"/>
  </node>
  <node id="-201" visible="true" lat="44.60543285" lon="-72.47363372">
    <tag k="addr:city" v="Wolcott"/>
    <tag k="addr:housenumber" v="541"/>
    <tag k="addr:street" v="Homers Road"/>
    <tag k="addr:state" v="VT"/>
    <tag k="ref:vcgi:esiteid" v="300757"/>
  </node>
  <node id="-202" visible="true" lat="44.60544586" lon="-72.46546181">
    <tag k="addr:city" v="Wolcott"/>
    <tag k="addr:housenumber" v="3617"/>
    <tag k="addr:street" v="North Wolcott Road"/>
    <tag k="addr:state" v="VT"/>
    <tag k="ref:vcgi:esiteid" v="300758"/>
  </node>
  <node id="-204" visible="true" lat="44.60461341" lon="-72.4659904">
    <tag k="addr:city" v="Wolcott"/>
    <tag k="addr:housenumber" v="3561"/>
    <tag k="addr:street" v="North Wolcott Road"/>
    <tag k="addr:state" v="VT"/>
    <tag k="ref:vcgi:esiteid" v="300760"/>
  </node>
  <node id="-205" visible="true" lat="44.6046265" lon="-72.46732463">
    <tag k="addr:city" v="Wolcott"/>
    <tag k="addr:housenumber" v="3477"/>
    <tag k="addr:street" v="North Wolcott Road"/>
    <tag k="addr:state" v="VT"/>
    <tag k="ref:vcgi:esiteid" v="300761"/>
  </node>
  <node id="-206" visible="true" lat="44.60440063" lon="-72.46604928">
    <tag k="addr:city" v="Wolcott"/>
    <tag k="addr:housenumber" v="3541"/>
    <tag k="addr:street" v="North Wolcott Road"/>
    <tag k="addr:state" v="VT"/>
    <tag k="ref:vcgi:esiteid" v="300762"/>
  </node>
  <node id="-207" visible="true" lat="44.60431101" lon="-72.46624398">
    <tag k="addr:city" v="Wolcott"/>
    <tag k="addr:housenumber" v="3533"/>
    <tag k="addr:street" v="North Wolcott Road"/>
    <tag k="addr:state" v="VT"/>
    <tag k="ref:vcgi:esiteid" v="300763"/>
  </node>
  <node id="-208" visible="true" lat="44.60394305" lon="-72.46634007">
    <tag k="addr:city" v="Wolcott"/>
    <tag k="addr:housenumber" v="3515"/>
    <tag k="addr:street" v="North Wolcott Road"/>
    <tag k="addr:state" v="VT"/>
    <tag k="ref:vcgi:esiteid" v="300764"/>
  </node>
  <node id="-214" visible="true" lat="44.60265732" lon="-72.43605813">
    <tag k="addr:city" v="Wolcott"/>
    <tag k="addr:housenumber" v="3970"/>
    <tag k="addr:street" v="Town Hill Road"/>
    <tag k="addr:state" v="VT"/>
    <tag k="ref:vcgi:esiteid" v="300771"/>
  </node>
  <node id="-215" visible="true" lat="44.60265035" lon="-72.48778385">
    <tag k="addr:city" v="Wolcott"/>
    <tag k="addr:housenumber" v="1114"/>
    <tag k="addr:street" v="Sand Hill Road"/>
    <tag k="addr:state" v="VT"/>
    <tag k="ref:vcgi:esiteid" v="300772"/>
  </node>
  <node id="-216" visible="true" lat="44.60242716" lon="-72.43621358">
    <tag k="addr:city" v="Wolcott"/>
    <tag k="addr:housenumber" v="3950"/>
    <tag k="addr:street" v="Town Hill Road"/>
    <tag k="addr:state" v="VT"/>
    <tag k="ref:vcgi:esiteid" v="300773"/>
  </node>
  <node id="-217" visible="true" lat="44.60251858" lon="-72.48594712">
    <tag k="addr:city" v="Wolcott"/>
    <tag k="addr:housenumber" v="1024"/>
    <tag k="addr:street" v="Sand Hill Road"/>
    <tag k="addr:state" v="VT"/>
    <tag k="ref:vcgi:esiteid" v="300774"/>
  </node>
  <node id="-219" visible="true" lat="44.60168011" lon="-72.48210922">
    <tag k="addr:city" v="Wolcott"/>
    <tag k="addr:housenumber" v="259"/>
    <tag k="addr:street" v="Wheeler Lane"/>
    <tag k="addr:state" v="VT"/>
    <tag k="ref:vcgi:esiteid" v="300776"/>
  </node>
  <node id="-221" visible="true" lat="44.60174361" lon="-72.46682228">
    <tag k="addr:city" v="Wolcott"/>
    <tag k="addr:housenumber" v="3359"/>
    <tag k="addr:street" v="North Wolcott Road"/>
    <tag k="addr:state" v="VT"/>
    <tag k="ref:vcgi:esiteid" v="300778"/>
  </node>
  <node id="-226" visible="true" lat="44.60113682" lon="-72.47813298">
    <tag k="addr:city" v="Wolcott"/>
    <tag k="addr:housenumber" v="560"/>
    <tag k="addr:street" v="Sand Hill Road"/>
    <tag k="addr:state" v="VT"/>
    <tag k="ref:vcgi:esiteid" v="300783"/>
  </node>
  <node id="-227" visible="true" lat="44.60107075" lon="-72.48097938">
    <tag k="addr:city" v="Wolcott"/>
    <tag k="addr:housenumber" v="201"/>
    <tag k="addr:street" v="Wheeler Lane"/>
    <tag k="addr:state" v="VT"/>
    <tag k="ref:vcgi:esiteid" v="300784"/>
  </node>
  <node id="-228" visible="true" lat="44.60107532" lon="-72.44161921">
    <tag k="addr:city" v="Wolcott"/>
    <tag k="addr:housenumber" v="194"/>
    <tag k="addr:street" v="Manley Road"/>
    <tag k="addr:state" v="VT"/>
    <tag k="ref:vcgi:esiteid" v="300785"/>
  </node>
  <node id="-229" visible="true" lat="44.60063379" lon="-72.47599358">
    <tag k="addr:city" v="Wolcott"/>
    <tag k="addr:housenumber" v="458"/>
    <tag k="addr:street" v="Sand Hill Road"/>
    <tag k="addr:state" v="VT"/>
    <tag k="ref:vcgi:esiteid" v="300786"/>
  </node>
  <node id="-230" visible="true" lat="44.60058975" lon="-72.42626961">
    <tag k="addr:city" v="Wolcott"/>
    <tag k="addr:housenumber" v="5383"/>
    <tag k="addr:street" v="East Hill Road"/>
    <tag k="addr:state" v="VT"/>
    <tag k="ref:vcgi:esiteid" v="300787"/>
  </node>
  <node id="-231" visible="true" lat="44.60044401" lon="-72.48041862">
    <tag k="addr:city" v="Wolcott"/>
    <tag k="addr:housenumber" v="157"/>
    <tag k="addr:street" v="Wheeler Lane"/>
    <tag k="addr:state" v="VT"/>
    <tag k="ref:vcgi:esiteid" v="300788"/>
  </node>
  <node id="-232" visible="true" lat="44.60036087" lon="-72.47766885">
    <tag k="addr:city" v="Wolcott"/>
    <tag k="addr:housenumber" v="51"/>
    <tag k="addr:street" v="Wheeler Lane"/>
    <tag k="addr:state" v="VT"/>
    <tag k="ref:vcgi:esiteid" v="300789"/>
  </node>
  <node id="-235" visible="true" lat="44.60026484" lon="-72.44964049">
    <tag k="addr:city" v="Wolcott"/>
    <tag k="addr:housenumber" v="745"/>
    <tag k="addr:street" v="Manley Road"/>
    <tag k="addr:state" v="VT"/>
    <tag k="ref:vcgi:esiteid" v="300792"/>
  </node>
  <node id="-238" visible="true" lat="44.59938812" lon="-72.46689614">
    <tag k="addr:city" v="Wolcott"/>
    <tag k="addr:housenumber" v="3179"/>
    <tag k="addr:street" v="North Wolcott Road"/>
    <tag k="addr:state" v="VT"/>
    <tag k="ref:vcgi:esiteid" v="300795"/>
  </node>
  <node id="-241" visible="true" lat="44.59901367" lon="-72.47648175">
    <tag k="addr:city" v="Wolcott"/>
    <tag k="addr:housenumber" v="499"/>
    <tag k="addr:street" v="Sand Hill Road"/>
    <tag k="addr:state" v="VT"/>
    <tag k="ref:vcgi:esiteid" v="300798"/>
  </node>
  <node id="-243" visible="true" lat="44.597332" lon="-72.46850594">
    <tag k="addr:city" v="Wolcott"/>
    <tag k="addr:housenumber" v="3013"/>
    <tag k="addr:street" v="North Wolcott Road"/>
    <tag k="addr:state" v="VT"/>
    <tag k="ref:vcgi:esiteid" v="300800"/>
  </node>
  <node id="-245" visible="true" lat="44.59965465" lon="-72.47361726">
    <tag k="addr:city" v="Wolcott"/>
    <tag k="addr:housenumber" v="150"/>
    <tag k="addr:street" v="Sand Hill Road"/>
    <tag k="addr:state" v="VT"/>
    <tag k="ref:vcgi:esiteid" v="300802"/>
  </node>
  <node id="-248" visible="true" lat="44.59639302" lon="-72.46887056">
    <tag k="addr:city" v="Wolcott"/>
    <tag k="addr:housenumber" v="2966"/>
    <tag k="addr:street" v="North Wolcott Road"/>
    <tag k="addr:state" v="VT"/>
    <tag k="ref:vcgi:esiteid" v="300806"/>
  </node>
  <node id="-250" visible="true" lat="44.59628406" lon="-72.46628064">
    <tag k="addr:city" v="Wolcott"/>
    <tag k="addr:housenumber" v="1423"/>
    <tag k="addr:street" v="Tamarack Road"/>
    <tag k="addr:state" v="VT"/>
    <tag k="ref:vcgi:esiteid" v="300808"/>
  </node>
  <node id="-251" visible="true" lat="44.59672716" lon="-72.47418839">
    <tag k="addr:city" v="Wolcott"/>
    <tag k="addr:housenumber" v="59"/>
    <tag k="addr:street" v="Sand Hill Road"/>
    <tag k="addr:state" v="VT"/>
    <tag k="ref:vcgi:esiteid" v="300809"/>
  </node>
  <node id="-252" visible="true" lat="44.59567425" lon="-72.4711661">
    <tag k="addr:city" v="Wolcott"/>
    <tag k="addr:housenumber" v="2845"/>
    <tag k="addr:street" v="North Wolcott Road"/>
    <tag k="addr:state" v="VT"/>
    <tag k="ref:vcgi:esiteid" v="300810"/>
  </node>
  <node id="-253" visible="true" lat="44.59539414" lon="-72.47232827">
    <tag k="addr:city" v="Wolcott"/>
    <tag k="addr:housenumber" v="53"/>
    <tag k="addr:street" v="Sand Hill Road"/>
    <tag k="addr:state" v="VT"/>
    <tag k="ref:vcgi:esiteid" v="300811"/>
  </node>
  <node id="-254" visible="true" lat="44.59499741" lon="-72.44165048">
    <tag k="addr:city" v="Wolcott"/>
    <tag k="addr:housenumber" v="3380"/>
    <tag k="addr:street" v="Town Hill Road"/>
    <tag k="addr:state" v="VT"/>
    <tag k="ref:vcgi:esiteid" v="300812"/>
  </node>
  <node id="-257" visible="true" lat="44.5921936" lon="-72.48829659">
    <tag k="addr:city" v="Wolcott"/>
    <tag k="addr:housenumber" v="1846"/>
    <tag k="addr:street" v="West Hill Road"/>
    <tag k="addr:state" v="VT"/>
    <tag k="ref:vcgi:esiteid" v="300815"/>
  </node>
  <node id="-258" visible="true" lat="44.59222103" lon="-72.48906774">
    <tag k="addr:city" v="Wolcott"/>
    <tag k="addr:housenumber" v="1843"/>
    <tag k="addr:street" v="West Hill Road"/>
    <tag k="addr:state" v="VT"/>
    <tag k="ref:vcgi:esiteid" v="300816"/>
  </node>
  <node id="-259" visible="true" lat="44.59167585" lon="-72.47454659">
    <tag k="addr:city" v="Wolcott"/>
    <tag k="addr:housenumber" v="2533"/>
    <tag k="addr:street" v="North Wolcott Road"/>
    <tag k="addr:state" v="VT"/>
    <tag k="ref:vcgi:esiteid" v="300817"/>
  </node>
  <node id="-260" visible="true" lat="44.59221978" lon="-72.44805859">
    <tag k="addr:city" v="Wolcott"/>
    <tag k="addr:housenumber" v="3050"/>
    <tag k="addr:street" v="Town Hill Road"/>
    <tag k="addr:state" v="VT"/>
    <tag k="ref:vcgi:esiteid" v="300818"/>
  </node>
  <node id="-262" visible="true" lat="44.59111023" lon="-72.44332894">
    <tag k="addr:city" v="Wolcott"/>
    <tag k="addr:housenumber" v="74"/>
    <tag k="addr:street" v="Bear Swamp Road"/>
    <tag k="addr:state" v="VT"/>
    <tag k="ref:vcgi:esiteid" v="300820"/>
  </node>
  <node id="-263" visible="true" lat="44.59017571" lon="-72.47318825">
    <tag k="addr:city" v="Wolcott"/>
    <tag k="addr:housenumber" v="2450"/>
    <tag k="addr:street" v="North Wolcott Road"/>
    <tag k="addr:state" v="VT"/>
    <tag k="ref:vcgi:esiteid" v="300821"/>
  </node>
  <node id="-264" visible="true" lat="44.59064484" lon="-72.4133149">
    <tag k="addr:city" v="Wolcott"/>
    <tag k="addr:housenumber" v="4134"/>
    <tag k="addr:street" v="East Hill Road"/>
    <tag k="addr:state" v="VT"/>
    <tag k="ref:vcgi:esiteid" v="300822"/>
  </node>
  <node id="-265" visible="true" lat="44.59073156" lon="-72.48959293">
    <tag k="addr:city" v="Wolcott"/>
    <tag k="addr:housenumber" v="1699"/>
    <tag k="addr:street" v="West Hill Road"/>
    <tag k="addr:state" v="VT"/>
    <tag k="ref:vcgi:esiteid" v="300823"/>
  </node>
  <node id="-268" visible="true" lat="44.59001508" lon="-72.48973125">
    <tag k="addr:city" v="Wolcott"/>
    <tag k="addr:housenumber" v="1677"/>
    <tag k="addr:street" v="West Hill Road"/>
    <tag k="addr:state" v="VT"/>
    <tag k="ref:vcgi:esiteid" v="300826"/>
  </node>
  <node id="-269" visible="true" lat="44.58981431" lon="-72.47797766">
    <tag k="addr:city" v="Wolcott"/>
    <tag k="addr:housenumber" v="306"/>
    <tag k="addr:street" v="Greenewood Road"/>
    <tag k="addr:state" v="VT"/>
    <tag k="ref:vcgi:esiteid" v="300827"/>
  </node>
  <node id="-270" visible="true" lat="44.58958054" lon="-72.41684731">
    <tag k="addr:city" v="Wolcott"/>
    <tag k="addr:housenumber" v="3991"/>
    <tag k="addr:street" v="East Hill Road"/>
    <tag k="addr:state" v="VT"/>
    <tag k="ref:vcgi:esiteid" v="300828"/>
  </node>
  <node id="-271" visible="true" lat="44.58928724" lon="-72.47836521">
    <tag k="addr:city" v="Wolcott"/>
    <tag k="addr:housenumber" v="324"/>
    <tag k="addr:street" v="Greenewood Road"/>
    <tag k="addr:state" v="VT"/>
    <tag k="ref:vcgi:esiteid" v="300829"/>
  </node>
  <node id="-273" visible="true" lat="44.58919154" lon="-72.47619553">
    <tag k="addr:city" v="Wolcott"/>
    <tag k="addr:housenumber" v="265"/>
    <tag k="addr:street" v="Greenewood Road"/>
    <tag k="addr:state" v="VT"/>
    <tag k="ref:vcgi:esiteid" v="300831"/>
  </node>
  <node id="-275" visible="true" lat="44.58838653" lon="-72.44783028">
    <tag k="addr:city" v="Wolcott"/>
    <tag k="addr:housenumber" v="2837"/>
    <tag k="addr:street" v="Town Hill Road"/>
    <tag k="addr:state" v="VT"/>
    <tag k="ref:vcgi:esiteid" v="300835"/>
  </node>
  <node id="-276" visible="true" lat="44.58844886" lon="-72.49088641">
    <tag k="addr:city" v="Wolcott"/>
    <tag k="addr:housenumber" v="80"/>
    <tag k="addr:street" v="Wildermont Road"/>
    <tag k="addr:state" v="VT"/>
    <tag k="ref:vcgi:esiteid" v="300836"/>
  </node>
  <node id="-278" visible="true" lat="44.58812332" lon="-72.41996773">
    <tag k="addr:city" v="Wolcott"/>
    <tag k="addr:housenumber" v="3801"/>
    <tag k="addr:street" v="East Hill Road"/>
    <tag k="addr:state" v="VT"/>
    <tag k="ref:vcgi:esiteid" v="300838"/>
  </node>
  <node id="-280" visible="true" lat="44.58824546" lon="-72.47400617">
    <tag k="addr:city" v="Wolcott"/>
    <tag k="addr:housenumber" v="52"/>
    <tag k="addr:street" v="Greenewood Road"/>
    <tag k="addr:state" v="VT"/>
    <tag k="ref:vcgi:esiteid" v="300840"/>
  </node>
  <node id="-281" visible="true" lat="44.58811425" lon="-72.48866416">
    <tag k="addr:city" v="Wolcott"/>
    <tag k="addr:housenumber" v="1544"/>
    <tag k="addr:street" v="West Hill Road"/>
    <tag k="addr:state" v="VT"/>
    <tag k="ref:vcgi:esiteid" v="300841"/>
  </node>
  <node id="-282" visible="true" lat="44.5872001" lon="-72.47764787">
    <tag k="addr:city" v="Wolcott"/>
    <tag k="addr:housenumber" v="446"/>
    <tag k="addr:street" v="Greenewood Road"/>
    <tag k="addr:state" v="VT"/>
    <tag k="ref:vcgi:esiteid" v="300842"/>
  </node>
  <node id="-283" visible="true" lat="44.58710236" lon="-72.49000211">
    <tag k="addr:city" v="Wolcott"/>
    <tag k="addr:housenumber" v="13"/>
    <tag k="addr:street" v="Wildermont Road"/>
    <tag k="addr:state" v="VT"/>
    <tag k="ref:vcgi:esiteid" v="300843"/>
  </node>
  <node id="-284" visible="true" lat="44.5871068" lon="-72.47454867">
    <tag k="addr:city" v="Wolcott"/>
    <tag k="addr:housenumber" v="2175"/>
    <tag k="addr:street" v="North Wolcott Road"/>
    <tag k="addr:state" v="VT"/>
    <tag k="ref:vcgi:esiteid" v="300844"/>
  </node>
  <node id="-285" visible="true" lat="44.58713778" lon="-72.43660834">
    <tag k="addr:city" v="Wolcott"/>
    <tag k="addr:housenumber" v="479"/>
    <tag k="addr:street" v="Cross Road"/>
    <tag k="addr:state" v="VT"/>
    <tag k="ref:vcgi:esiteid" v="300845"/>
  </node>
  <node id="-286" visible="true" lat="44.586796" lon="-72.49067559">
    <tag k="addr:city" v="Wolcott"/>
    <tag k="addr:housenumber" v="1455"/>
    <tag k="addr:street" v="West Hill Road"/>
    <tag k="addr:state" v="VT"/>
    <tag k="ref:vcgi:esiteid" v="300846"/>
  </node>
  <node id="-290" visible="true" lat="44.58643341" lon="-72.44785226">
    <tag k="addr:city" v="Wolcott"/>
    <tag k="addr:housenumber" v="2706"/>
    <tag k="addr:street" v="Town Hill Road"/>
    <tag k="addr:state" v="VT"/>
    <tag k="ref:vcgi:esiteid" v="300850"/>
  </node>
  <node id="-291" visible="true" lat="44.58603896" lon="-72.43600028">
    <tag k="addr:city" v="Wolcott"/>
    <tag k="addr:housenumber" v="573"/>
    <tag k="addr:street" v="Cross Road"/>
    <tag k="addr:state" v="VT"/>
    <tag k="ref:vcgi:esiteid" v="300851"/>
  </node>
  <node id="-292" visible="true" lat="44.58557892" lon="-72.4744645">
    <tag k="addr:city" v="Wolcott"/>
    <tag k="addr:housenumber" v="2082"/>
    <tag k="addr:street" v="North Wolcott Road"/>
    <tag k="addr:state" v="VT"/>
    <tag k="ref:vcgi:esiteid" v="300852"/>
  </node>
  <node id="-293" visible="true" lat="44.58554459" lon="-72.47473916">
    <tag k="addr:city" v="Wolcott"/>
    <tag k="addr:housenumber" v="2083"/>
    <tag k="addr:street" v="North Wolcott Road"/>
    <tag k="addr:state" v="VT"/>
    <tag k="ref:vcgi:esiteid" v="300853"/>
  </node>
  <node id="-295" visible="true" lat="44.58516312" lon="-72.44964608">
    <tag k="addr:city" v="Wolcott"/>
    <tag k="addr:housenumber" v="2597"/>
    <tag k="addr:street" v="Town Hill Road"/>
    <tag k="addr:state" v="VT"/>
    <tag k="ref:vcgi:esiteid" v="300855"/>
  </node>
  <node id="-297" visible="true" lat="44.5849517" lon="-72.4349183">
    <tag k="addr:city" v="Wolcott"/>
    <tag k="addr:housenumber" v="649"/>
    <tag k="addr:street" v="Cross Road"/>
    <tag k="addr:state" v="VT"/>
    <tag k="ref:vcgi:esiteid" v="300857"/>
  </node>
  <node id="-298" visible="true" lat="44.58483124" lon="-72.39017495">
    <tag k="addr:city" v="Wolcott"/>
    <tag k="addr:housenumber" v="1100"/>
    <tag k="addr:street" v="Hines Road"/>
    <tag k="addr:state" v="VT"/>
    <tag k="ref:vcgi:esiteid" v="300858"/>
  </node>
  <node id="-303" visible="true" lat="44.58428698" lon="-72.42298399">
    <tag k="addr:city" v="Wolcott"/>
    <tag k="addr:housenumber" v="3513"/>
    <tag k="addr:street" v="East Hill Road"/>
    <tag k="addr:state" v="VT"/>
    <tag k="ref:vcgi:esiteid" v="300863"/>
  </node>
  <node id="-306" visible="true" lat="44.58239685" lon="-72.47575558">
    <tag k="addr:city" v="Wolcott"/>
    <tag k="addr:housenumber" v="1835"/>
    <tag k="addr:street" v="North Wolcott Road"/>
    <tag k="addr:state" v="VT"/>
    <tag k="ref:vcgi:esiteid" v="300866"/>
  </node>
  <node id="-308" visible="true" lat="44.58173417" lon="-72.4757029">
    <tag k="addr:city" v="Wolcott"/>
    <tag k="addr:housenumber" v="1821"/>
    <tag k="addr:street" v="North Wolcott Road"/>
    <tag k="addr:state" v="VT"/>
    <tag k="ref:vcgi:esiteid" v="300868"/>
  </node>
  <node id="-309" visible="true" lat="44.58174104" lon="-72.42266143">
    <tag k="addr:city" v="Wolcott"/>
    <tag k="addr:housenumber" v="3342"/>
    <tag k="addr:street" v="East Hill Road"/>
    <tag k="addr:state" v="VT"/>
    <tag k="ref:vcgi:esiteid" v="300869"/>
  </node>
  <node id="-310" visible="true" lat="44.58139541" lon="-72.42294811">
    <tag k="addr:city" v="Wolcott"/>
    <tag k="addr:housenumber" v="3316"/>
    <tag k="addr:street" v="East Hill Road"/>
    <tag k="addr:state" v="VT"/>
    <tag k="ref:vcgi:esiteid" v="300870"/>
  </node>
  <node id="-311" visible="true" lat="44.58111548" lon="-72.47650765">
    <tag k="addr:city" v="Wolcott"/>
    <tag k="addr:housenumber" v="53"/>
    <tag k="addr:street" v="Heath Road"/>
    <tag k="addr:state" v="VT"/>
    <tag k="ref:vcgi:esiteid" v="300871"/>
  </node>
  <node id="-312" visible="true" lat="44.58070552" lon="-72.42317593">
    <tag k="addr:city" v="Wolcott"/>
    <tag k="addr:housenumber" v="3274"/>
    <tag k="addr:street" v="East Hill Road"/>
    <tag k="addr:state" v="VT"/>
    <tag k="ref:vcgi:esiteid" v="300872"/>
  </node>
  <node id="-314" visible="true" lat="44.58046268" lon="-72.47578811">
    <tag k="addr:city" v="Wolcott"/>
    <tag k="addr:housenumber" v="1731"/>
    <tag k="addr:street" v="North Wolcott Road"/>
    <tag k="addr:state" v="VT"/>
    <tag k="ref:vcgi:esiteid" v="300874"/>
  </node>
  <node id="-315" visible="true" lat="44.58014161" lon="-72.486867">
    <tag k="addr:city" v="Wolcott"/>
    <tag k="addr:housenumber" v="882"/>
    <tag k="addr:street" v="West Hill Road"/>
    <tag k="addr:state" v="VT"/>
    <tag k="ref:vcgi:esiteid" v="300875"/>
  </node>
  <node id="-316" visible="true" lat="44.57966376" lon="-72.45308667">
    <tag k="addr:city" v="Wolcott"/>
    <tag k="addr:housenumber" v="2170"/>
    <tag k="addr:street" v="Town Hill Road"/>
    <tag k="addr:state" v="VT"/>
    <tag k="ref:vcgi:esiteid" v="300876"/>
  </node>
  <node id="-317" visible="true" lat="44.57952499" lon="-72.45372781">
    <tag k="addr:city" v="Wolcott"/>
    <tag k="addr:housenumber" v="2159"/>
    <tag k="addr:street" v="Town Hill Road"/>
    <tag k="addr:state" v="VT"/>
    <tag k="ref:vcgi:esiteid" v="300877"/>
  </node>
  <node id="-318" visible="true" lat="44.57966406" lon="-72.47665134">
    <tag k="addr:city" v="Wolcott"/>
    <tag k="addr:housenumber" v="1635"/>
    <tag k="addr:street" v="North Wolcott Road"/>
    <tag k="addr:state" v="VT"/>
    <tag k="ref:vcgi:esiteid" v="300878"/>
  </node>
  <node id="-319" visible="true" lat="44.57919421" lon="-72.42475484">
    <tag k="addr:city" v="Wolcott"/>
    <tag k="addr:housenumber" v="3191"/>
    <tag k="addr:street" v="East Hill Road"/>
    <tag k="addr:state" v="VT"/>
    <tag k="ref:vcgi:esiteid" v="300879"/>
  </node>
  <node id="-320" visible="true" lat="44.57886754" lon="-72.45434156">
    <tag k="addr:city" v="Wolcott"/>
    <tag k="addr:housenumber" v="2097"/>
    <tag k="addr:street" v="Town Hill Road"/>
    <tag k="addr:state" v="VT"/>
    <tag k="ref:vcgi:esiteid" v="300880"/>
  </node>
  <node id="-321" visible="true" lat="44.57873535" lon="-72.45729836">
    <tag k="addr:city" v="Wolcott"/>
    <tag k="addr:housenumber" v="2035"/>
    <tag k="addr:street" v="Town Hill Road"/>
    <tag k="addr:state" v="VT"/>
    <tag k="ref:vcgi:esiteid" v="300881"/>
  </node>
  <node id="-322" visible="true" lat="44.57875832" lon="-72.47380413">
    <tag k="addr:city" v="Wolcott"/>
    <tag k="addr:housenumber" v="99"/>
    <tag k="addr:street" v="Wild Branch Lane"/>
    <tag k="addr:state" v="VT"/>
    <tag k="ref:vcgi:esiteid" v="300882"/>
  </node>
  <node id="-323" visible="true" lat="44.57823563" lon="-72.47245797">
    <tag k="addr:city" v="Wolcott"/>
    <tag k="addr:housenumber" v="213"/>
    <tag k="addr:street" v="Wild Branch Lane"/>
    <tag k="addr:state" v="VT"/>
    <tag k="ref:vcgi:esiteid" v="300883"/>
  </node>
  <node id="-324" visible="true" lat="44.57795938" lon="-72.48642035">
    <tag k="addr:city" v="Wolcott"/>
    <tag k="addr:housenumber" v="721"/>
    <tag k="addr:street" v="West Hill Road"/>
    <tag k="addr:state" v="VT"/>
    <tag k="ref:vcgi:esiteid" v="300884"/>
  </node>
  <node id="-325" visible="true" lat="44.57781087" lon="-72.4527053">
    <tag k="addr:city" v="Wolcott"/>
    <tag k="addr:housenumber" v="2060"/>
    <tag k="addr:street" v="Town Hill Road"/>
    <tag k="addr:state" v="VT"/>
    <tag k="ref:vcgi:esiteid" v="300885"/>
  </node>
  <node id="-326" visible="true" lat="44.57778345" lon="-72.47238429">
    <tag k="addr:city" v="Wolcott"/>
    <tag k="addr:housenumber" v="207"/>
    <tag k="addr:street" v="Wild Branch Lane"/>
    <tag k="addr:state" v="VT"/>
    <tag k="ref:vcgi:esiteid" v="300886"/>
  </node>
  <node id="-327" visible="true" lat="44.57775746" lon="-72.45429974">
    <tag k="addr:city" v="Wolcott"/>
    <tag k="addr:housenumber" v="2020"/>
    <tag k="addr:street" v="Town Hill Road"/>
    <tag k="addr:state" v="VT"/>
    <tag k="ref:vcgi:esiteid" v="300887"/>
  </node>
  <node id="-328" visible="true" lat="44.57750989" lon="-72.47503219">
    <tag k="addr:city" v="Wolcott"/>
    <tag k="addr:housenumber" v="90"/>
    <tag k="addr:street" v="Wild Branch Lane"/>
    <tag k="addr:state" v="VT"/>
    <tag k="ref:vcgi:esiteid" v="300888"/>
  </node>
  <node id="-329" visible="true" lat="44.57731553" lon="-72.48474181">
    <tag k="addr:city" v="Wolcott"/>
    <tag k="addr:housenumber" v="665"/>
    <tag k="addr:street" v="West Hill Road"/>
    <tag k="addr:state" v="VT"/>
    <tag k="ref:vcgi:esiteid" v="300889"/>
  </node>
  <node id="-331" visible="true" lat="44.57614899" lon="-72.42428597">
    <tag k="addr:city" v="Wolcott"/>
    <tag k="addr:housenumber" v="2948"/>
    <tag k="addr:street" v="East Hill Road"/>
    <tag k="addr:state" v="VT"/>
    <tag k="ref:vcgi:esiteid" v="300891"/>
  </node>
  <node id="-332" visible="true" lat="44.57590866" lon="-72.45536812">
    <tag k="addr:city" v="Wolcott"/>
    <tag k="addr:housenumber" v="1924"/>
    <tag k="addr:street" v="Town Hill Road"/>
    <tag k="addr:state" v="VT"/>
    <tag k="ref:vcgi:esiteid" v="300892"/>
  </node>
  <node id="-333" visible="true" lat="44.57580792" lon="-72.48359898">
    <tag k="addr:city" v="Wolcott"/>
    <tag k="addr:housenumber" v="591"/>
    <tag k="addr:street" v="West Hill Road"/>
    <tag k="addr:state" v="VT"/>
    <tag k="ref:vcgi:esiteid" v="300893"/>
  </node>
  <node id="-334" visible="true" lat="44.57551956" lon="-72.47705849">
    <tag k="addr:city" v="Wolcott"/>
    <tag k="addr:housenumber" v="1365"/>
    <tag k="addr:street" v="North Wolcott Road"/>
    <tag k="addr:state" v="VT"/>
    <tag k="ref:vcgi:esiteid" v="300894"/>
  </node>
  <node id="-336" visible="true" lat="44.57517242" lon="-72.42718514">
    <tag k="addr:city" v="Wolcott"/>
    <tag k="addr:housenumber" v="2759"/>
    <tag k="addr:street" v="East Hill Road"/>
    <tag k="addr:state" v="VT"/>
    <tag k="ref:vcgi:esiteid" v="300896"/>
  </node>
  <node id="-337" visible="true" lat="44.57494354" lon="-72.39854439">
    <tag k="addr:city" v="Wolcott"/>
    <tag k="addr:housenumber" v="1750"/>
    <tag k="addr:street" v="Keeler Pond Road"/>
    <tag k="addr:state" v="VT"/>
    <tag k="ref:vcgi:esiteid" v="300897"/>
  </node>
  <node id="-338" visible="true" lat="44.57489395" lon="-72.47819527">
    <tag k="addr:city" v="Wolcott"/>
    <tag k="addr:housenumber" v="1311"/>
    <tag k="addr:street" v="North Wolcott Road"/>
    <tag k="addr:state" v="VT"/>
    <tag k="ref:vcgi:esiteid" v="300898"/>
  </node>
  <node id="-339" visible="true" lat="44.57478714" lon="-72.47808846">
    <tag k="addr:city" v="Wolcott"/>
    <tag k="addr:housenumber" v="1313"/>
    <tag k="addr:street" v="North Wolcott Road"/>
    <tag k="addr:state" v="VT"/>
    <tag k="ref:vcgi:esiteid" v="300899"/>
  </node>
  <node id="-340" visible="true" lat="44.57491085" lon="-72.45692151">
    <tag k="addr:city" v="Wolcott"/>
    <tag k="addr:housenumber" v="1788"/>
    <tag k="addr:street" v="Town Hill Road"/>
    <tag k="addr:state" v="VT"/>
    <tag k="ref:vcgi:esiteid" v="300900"/>
  </node>
  <node id="-341" visible="true" lat="44.57446119" lon="-72.48339298">
    <tag k="addr:city" v="Wolcott"/>
    <tag k="addr:housenumber" v="445"/>
    <tag k="addr:street" v="West Hill Road"/>
    <tag k="addr:state" v="VT"/>
    <tag k="ref:vcgi:esiteid" v="300901"/>
  </node>
  <node id="-342" visible="true" lat="44.57468414" lon="-72.41697701">
    <tag k="addr:city" v="Wolcott"/>
    <tag k="addr:housenumber" v="567"/>
    <tag k="addr:street" v="Keeler Pond Road"/>
    <tag k="addr:state" v="VT"/>
    <tag k="ref:vcgi:esiteid" v="300902"/>
  </node>
  <node id="-343" visible="true" lat="44.57489582" lon="-72.41583266">
    <tag k="addr:city" v="Wolcott"/>
    <tag k="addr:housenumber" v="643"/>
    <tag k="addr:street" v="Keeler Pond Road"/>
    <tag k="addr:state" v="VT"/>
    <tag k="ref:vcgi:esiteid" v="300903"/>
  </node>
  <node id="-345" visible="true" lat="44.57423782" lon="-72.47743233">
    <tag k="addr:city" v="Wolcott"/>
    <tag k="addr:housenumber" v="1276"/>
    <tag k="addr:street" v="North Wolcott Road"/>
    <tag k="addr:state" v="VT"/>
    <tag k="ref:vcgi:esiteid" v="300905"/>
  </node>
  <node id="-347" visible="true" lat="44.57408142" lon="-72.47736367">
    <tag k="addr:city" v="Wolcott"/>
    <tag k="addr:housenumber" v="1268"/>
    <tag k="addr:street" v="North Wolcott Road"/>
    <tag k="addr:state" v="VT"/>
    <tag k="ref:vcgi:esiteid" v="300907"/>
  </node>
  <node id="-350" visible="true" lat="44.574089" lon="-72.41518151">
    <tag k="addr:city" v="Wolcott"/>
    <tag k="addr:housenumber" v="588"/>
    <tag k="addr:street" v="Keeler Pond Road"/>
    <tag k="addr:state" v="VT"/>
    <tag k="ref:vcgi:esiteid" v="300910"/>
  </node>
  <node id="-360" visible="true" lat="44.57259946" lon="-72.42133566">
    <tag k="addr:city" v="Wolcott"/>
    <tag k="addr:housenumber" v="313"/>
    <tag k="addr:street" v="Keeler Pond Road"/>
    <tag k="addr:state" v="VT"/>
    <tag k="ref:vcgi:esiteid" v="300920"/>
  </node>
  <node id="-361" visible="true" lat="44.5724191" lon="-72.42697716">
    <tag k="addr:city" v="Wolcott"/>
    <tag k="addr:housenumber" v="2629"/>
    <tag k="addr:street" v="East Hill Road"/>
    <tag k="addr:state" v="VT"/>
    <tag k="ref:vcgi:esiteid" v="300921"/>
  </node>
  <node id="-364" visible="true" lat="44.57112607" lon="-72.43149917">
    <tag k="addr:city" v="Wolcott"/>
    <tag k="addr:housenumber" v="108"/>
    <tag k="addr:street" v="Charles Allen Road"/>
    <tag k="addr:state" v="VT"/>
    <tag k="ref:vcgi:esiteid" v="300924"/>
  </node>
  <node id="-365" visible="true" lat="44.57175972" lon="-72.42321316">
    <tag k="addr:city" v="Wolcott"/>
    <tag k="addr:housenumber" v="193"/>
    <tag k="addr:street" v="Keeler Pond Road"/>
    <tag k="addr:state" v="VT"/>
    <tag k="ref:vcgi:esiteid" v="300925"/>
  </node>
  <node id="-366" visible="true" lat="44.57157125" lon="-72.48110541">
    <tag k="addr:city" v="Wolcott"/>
    <tag k="addr:housenumber" v="230"/>
    <tag k="addr:street" v="West Hill Road"/>
    <tag k="addr:state" v="VT"/>
    <tag k="ref:vcgi:esiteid" v="300926"/>
  </node>
  <node id="-368" visible="true" lat="44.57115175" lon="-72.50590351">
    <tag k="addr:city" v="Wolcott"/>
    <tag k="addr:housenumber" v="1225"/>
    <tag k="addr:street" v="Vermont Route 15"/>
    <tag k="addr:state" v="VT"/>
    <tag k="ref:vcgi:esiteid" v="300928"/>
  </node>
  <node id="-369" visible="true" lat="44.57117248" lon="-72.42478463">
    <tag k="addr:city" v="Wolcott"/>
    <tag k="addr:housenumber" v="128"/>
    <tag k="addr:street" v="Keeler Pond Road"/>
    <tag k="addr:state" v="VT"/>
    <tag k="ref:vcgi:esiteid" v="300929"/>
  </node>
  <node id="-370" visible="true" lat="44.57014577" lon="-72.42436928">
    <tag k="addr:city" v="Wolcott"/>
    <tag k="addr:housenumber" v="152"/>
    <tag k="addr:street" v="Keeler Pond Road"/>
    <tag k="addr:state" v="VT"/>
    <tag k="ref:vcgi:esiteid" v="300930"/>
  </node>
  <node id="-373" visible="true" lat="44.57061767" lon="-72.43035897">
    <tag k="addr:city" v="Wolcott"/>
    <tag k="addr:housenumber" v="99"/>
    <tag k="addr:street" v="Charles Allen Road"/>
    <tag k="addr:state" v="VT"/>
    <tag k="ref:vcgi:esiteid" v="300934"/>
  </node>
  <node id="-376" visible="true" lat="44.57007599" lon="-72.428238">
    <tag k="addr:city" v="Wolcott"/>
    <tag k="addr:housenumber" v="2420"/>
    <tag k="addr:street" v="East Hill Road"/>
    <tag k="addr:state" v="VT"/>
    <tag k="ref:vcgi:esiteid" v="300937"/>
  </node>
  <node id="-379" visible="true" lat="44.56991959" lon="-72.50375374">
    <tag k="addr:city" v="Wolcott"/>
    <tag k="addr:housenumber" v="1291"/>
    <tag k="addr:street" v="Vermont Route 15"/>
    <tag k="addr:state" v="VT"/>
    <tag k="ref:vcgi:esiteid" v="300940"/>
  </node>
  <node id="-380" visible="true" lat="44.56983566" lon="-72.48284157">
    <tag k="addr:city" v="Wolcott"/>
    <tag k="addr:housenumber" v="101"/>
    <tag k="addr:street" v="West Hill Road"/>
    <tag k="addr:state" v="VT"/>
    <tag k="ref:vcgi:esiteid" v="300941"/>
  </node>
  <node id="-381" visible="true" lat="44.56994794" lon="-72.50496829">
    <tag k="addr:city" v="Wolcott"/>
    <tag k="addr:housenumber" v="1337"/>
    <tag k="addr:street" v="Vermont Route 15"/>
    <tag k="addr:state" v="VT"/>
    <tag k="ref:vcgi:esiteid" v="300942"/>
  </node>
  <node id="-382" visible="true" lat="44.56951645" lon="-72.44191831">
    <tag k="addr:city" v="Wolcott"/>
    <tag k="addr:housenumber" v="556"/>
    <tag k="addr:street" v="Pond Brook Lane"/>
    <tag k="addr:state" v="VT"/>
    <tag k="ref:vcgi:esiteid" v="300943"/>
  </node>
  <node id="-383" visible="true" lat="44.57024119" lon="-72.42046324">
    <tag k="addr:city" v="Wolcott"/>
    <tag k="addr:housenumber" v="242"/>
    <tag k="addr:street" v="Keeler Pond Road"/>
    <tag k="addr:state" v="VT"/>
    <tag k="ref:vcgi:esiteid" v="300944"/>
  </node>
  <node id="-384" visible="true" lat="44.5693473" lon="-72.42833746">
    <tag k="addr:city" v="Wolcott"/>
    <tag k="addr:housenumber" v="2446"/>
    <tag k="addr:street" v="East Hill Road"/>
    <tag k="addr:state" v="VT"/>
    <tag k="ref:vcgi:esiteid" v="300945"/>
  </node>
  <node id="-386" visible="true" lat="44.56908903" lon="-72.50418035">
    <tag k="addr:city" v="Wolcott"/>
    <tag k="addr:housenumber" v="1385"/>
    <tag k="addr:street" v="Vermont Route 15"/>
    <tag k="addr:state" v="VT"/>
    <tag k="ref:vcgi:esiteid" v="300947"/>
  </node>
  <node id="-388" visible="true" lat="44.56878023" lon="-72.47578791">
    <tag k="addr:city" v="Wolcott"/>
    <tag k="addr:housenumber" v="1216"/>
    <tag k="addr:street" v="Gulf Road"/>
    <tag k="addr:state" v="VT"/>
    <tag k="ref:vcgi:esiteid" v="300949"/>
  </node>
  <node id="-389" visible="true" lat="44.56824776" lon="-72.48296408">
    <tag k="addr:city" v="Wolcott"/>
    <tag k="addr:housenumber" v="783"/>
    <tag k="addr:street" v="North Wolcott Road"/>
    <tag k="addr:state" v="VT"/>
    <tag k="ref:vcgi:esiteid" v="300950"/>
  </node>
  <node id="-394" visible="true" lat="44.56780409" lon="-72.48328359">
    <tag k="addr:city" v="Wolcott"/>
    <tag k="addr:housenumber" v="739"/>
    <tag k="addr:street" v="North Wolcott Road"/>
    <tag k="addr:state" v="VT"/>
    <tag k="ref:vcgi:esiteid" v="300955"/>
  </node>
  <node id="-395" visible="true" lat="44.56741269" lon="-72.48402915">
    <tag k="addr:city" v="Wolcott"/>
    <tag k="addr:housenumber" v="677"/>
    <tag k="addr:street" v="North Wolcott Road"/>
    <tag k="addr:state" v="VT"/>
    <tag k="ref:vcgi:esiteid" v="300956"/>
  </node>
  <node id="-396" visible="true" lat="44.56757837" lon="-72.48381741">
    <tag k="addr:city" v="Wolcott"/>
    <tag k="addr:housenumber" v="693"/>
    <tag k="addr:street" v="North Wolcott Road"/>
    <tag k="addr:state" v="VT"/>
    <tag k="ref:vcgi:esiteid" v="300957"/>
  </node>
  <node id="-397" visible="true" lat="44.56732559" lon="-72.50287637">
    <tag k="addr:city" v="Wolcott"/>
    <tag k="addr:housenumber" v="1551"/>
    <tag k="addr:street" v="Vermont Route 15"/>
    <tag k="addr:state" v="VT"/>
    <tag k="ref:vcgi:esiteid" v="300958"/>
  </node>
  <node id="-400" visible="true" lat="44.56707193" lon="-72.48332863">
    <tag k="addr:city" v="Wolcott"/>
    <tag k="addr:housenumber" v="696"/>
    <tag k="addr:street" v="North Wolcott Road"/>
    <tag k="addr:state" v="VT"/>
    <tag k="ref:vcgi:esiteid" v="300961"/>
  </node>
  <node id="-402" visible="true" lat="44.56688705" lon="-72.43254719">
    <tag k="addr:city" v="Wolcott"/>
    <tag k="addr:housenumber" v="2107"/>
    <tag k="addr:street" v="East Hill Road"/>
    <tag k="addr:state" v="VT"/>
    <tag k="ref:vcgi:esiteid" v="300963"/>
  </node>
  <node id="-405" visible="true" lat="44.56626129" lon="-72.41763314">
    <tag k="addr:city" v="Wolcott"/>
    <tag k="addr:housenumber" v="400"/>
    <tag k="addr:street" v="Keeler Pond Road"/>
    <tag k="addr:state" v="VT"/>
    <tag k="ref:vcgi:esiteid" v="300966"/>
  </node>
  <node id="-407" visible="true" lat="44.56625864" lon="-72.43102975">
    <tag k="addr:city" v="Wolcott"/>
    <tag k="addr:housenumber" v="2165"/>
    <tag k="addr:street" v="East Hill Road"/>
    <tag k="addr:state" v="VT"/>
    <tag k="ref:vcgi:esiteid" v="300968"/>
  </node>
  <node id="-414" visible="true" lat="44.56429201" lon="-72.48833947">
    <tag k="addr:city" v="Wolcott"/>
    <tag k="addr:housenumber" v="335"/>
    <tag k="addr:street" v="North Wolcott Road"/>
    <tag k="addr:state" v="VT"/>
    <tag k="ref:vcgi:esiteid" v="300975"/>
  </node>
  <node id="-417" visible="true" lat="44.56402969" lon="-72.43502053">
    <tag k="addr:city" v="Wolcott"/>
    <tag k="addr:housenumber" v="1963"/>
    <tag k="addr:street" v="East Hill Road"/>
    <tag k="addr:state" v="VT"/>
    <tag k="ref:vcgi:esiteid" v="300978"/>
  </node>
  <node id="-430" visible="true" lat="44.56322098" lon="-72.47486886">
    <tag k="addr:city" v="Wolcott"/>
    <tag k="addr:housenumber" v="814"/>
    <tag k="addr:street" v="Gulf Road"/>
    <tag k="addr:state" v="VT"/>
    <tag k="ref:vcgi:esiteid" v="300991"/>
  </node>
  <node id="-432" visible="true" lat="44.56277847" lon="-72.49179848">
    <tag k="addr:city" v="Wolcott"/>
    <tag k="addr:housenumber" v="2212"/>
    <tag k="addr:street" v="Vermont Route 15"/>
    <tag k="addr:state" v="VT"/>
    <tag k="ref:vcgi:esiteid" v="300993"/>
  </node>
  <node id="-435" visible="true" lat="44.56231183" lon="-72.43305751">
    <tag k="addr:city" v="Wolcott"/>
    <tag k="addr:housenumber" v="1868"/>
    <tag k="addr:street" v="East Hill Road"/>
    <tag k="addr:state" v="VT"/>
    <tag k="ref:vcgi:esiteid" v="300996"/>
  </node>
  <node id="-437" visible="true" lat="44.56183624" lon="-72.46530923">
    <tag k="addr:city" v="Wolcott"/>
    <tag k="addr:housenumber" v="818"/>
    <tag k="addr:street" v="Town Hill Road"/>
    <tag k="addr:state" v="VT"/>
    <tag k="ref:vcgi:esiteid" v="300998"/>
  </node>
  <node id="-438" visible="true" lat="44.56130622" lon="-72.43320597">
    <tag k="addr:city" v="Wolcott"/>
    <tag k="addr:housenumber" v="1812"/>
    <tag k="addr:street" v="East Hill Road"/>
    <tag k="addr:state" v="VT"/>
    <tag k="ref:vcgi:esiteid" v="300999"/>
  </node>
  <node id="-440" visible="true" lat="44.56052433" lon="-72.43167649">
    <tag k="addr:city" v="Wolcott"/>
    <tag k="addr:housenumber" v="1794"/>
    <tag k="addr:street" v="East Hill Road"/>
    <tag k="addr:state" v="VT"/>
    <tag k="ref:vcgi:esiteid" v="301001"/>
  </node>
  <node id="-442" visible="true" lat="44.55969967" lon="-72.43667801">
    <tag k="addr:city" v="Wolcott"/>
    <tag k="addr:housenumber" v="1607"/>
    <tag k="addr:street" v="East Hill Road"/>
    <tag k="addr:state" v="VT"/>
    <tag k="ref:vcgi:esiteid" v="301003"/>
  </node>
  <node id="-445" visible="true" lat="44.55856705" lon="-72.49930581">
    <tag k="addr:city" v="Wolcott"/>
    <tag k="addr:housenumber" v="416"/>
    <tag k="addr:street" v="Corley Road"/>
    <tag k="addr:state" v="VT"/>
    <tag k="ref:vcgi:esiteid" v="301006"/>
  </node>
  <node id="-448" visible="true" lat="44.55883546" lon="-72.43727564">
    <tag k="addr:city" v="Wolcott"/>
    <tag k="addr:housenumber" v="1489"/>
    <tag k="addr:street" v="East Hill Road"/>
    <tag k="addr:state" v="VT"/>
    <tag k="ref:vcgi:esiteid" v="301009"/>
  </node>
  <node id="-449" visible="true" lat="44.55837366" lon="-72.52440467">
    <tag k="addr:city" v="Wolcott"/>
    <tag k="addr:housenumber" v="167"/>
    <tag k="addr:street" v="Walnut Lane"/>
    <tag k="addr:state" v="VT"/>
    <tag k="ref:vcgi:esiteid" v="301010"/>
  </node>
  <node id="-452" visible="true" lat="44.55693436" lon="-72.49909981">
    <tag k="addr:city" v="Wolcott"/>
    <tag k="addr:housenumber" v="572"/>
    <tag k="addr:street" v="Corley Road"/>
    <tag k="addr:state" v="VT"/>
    <tag k="ref:vcgi:esiteid" v="301013"/>
  </node>
  <node id="-456" visible="true" lat="44.5568446" lon="-72.43952401">
    <tag k="addr:city" v="Wolcott"/>
    <tag k="addr:housenumber" v="1379"/>
    <tag k="addr:street" v="East Hill Road"/>
    <tag k="addr:state" v="VT"/>
    <tag k="ref:vcgi:esiteid" v="301017"/>
  </node>
  <node id="-458" visible="true" lat="44.55575063" lon="-72.43876891">
    <tag k="addr:city" v="Wolcott"/>
    <tag k="addr:housenumber" v="1380"/>
    <tag k="addr:street" v="East Hill Road"/>
    <tag k="addr:state" v="VT"/>
    <tag k="ref:vcgi:esiteid" v="301019"/>
  </node>
  <node id="-461" visible="true" lat="44.5560112" lon="-72.52405556">
    <tag k="addr:city" v="Wolcott"/>
    <tag k="addr:housenumber" v="66"/>
    <tag k="addr:street" v="Walnut Lane"/>
    <tag k="addr:state" v="VT"/>
    <tag k="ref:vcgi:esiteid" v="301022"/>
  </node>
  <node id="-462" visible="true" lat="44.55591952" lon="-72.44229623">
    <tag k="addr:city" v="Wolcott"/>
    <tag k="addr:housenumber" v="1325"/>
    <tag k="addr:street" v="East Hill Road"/>
    <tag k="addr:state" v="VT"/>
    <tag k="ref:vcgi:esiteid" v="301023"/>
  </node>
  <node id="-464" visible="true" lat="44.55597919" lon="-72.49628382">
    <tag k="addr:city" v="Wolcott"/>
    <tag k="addr:housenumber" v="729"/>
    <tag k="addr:street" v="Corley Road"/>
    <tag k="addr:state" v="VT"/>
    <tag k="ref:vcgi:esiteid" v="301025"/>
  </node>
  <node id="-465" visible="true" lat="44.5551761" lon="-72.52435843">
    <tag k="addr:city" v="Wolcott"/>
    <tag k="addr:housenumber" v="724"/>
    <tag k="addr:street" v="Richard Woolcutt Road"/>
    <tag k="addr:state" v="VT"/>
    <tag k="ref:vcgi:esiteid" v="301026"/>
  </node>
  <node id="-466" visible="true" lat="44.55502177" lon="-72.49851308">
    <tag k="addr:city" v="Wolcott"/>
    <tag k="addr:housenumber" v="614"/>
    <tag k="addr:street" v="Corley Road"/>
    <tag k="addr:state" v="VT"/>
    <tag k="ref:vcgi:esiteid" v="301027"/>
  </node>
  <node id="-467" visible="true" lat="44.55513323" lon="-72.52333321">
    <tag k="addr:city" v="Wolcott"/>
    <tag k="addr:housenumber" v="674"/>
    <tag k="addr:street" v="Richard Woolcutt Road"/>
    <tag k="addr:state" v="VT"/>
    <tag k="ref:vcgi:esiteid" v="301028"/>
  </node>
  <node id="-469" visible="true" lat="44.5544014" lon="-72.52568062">
    <tag k="addr:city" v="Wolcott"/>
    <tag k="addr:housenumber" v="811"/>
    <tag k="addr:street" v="Richard Woolcutt Road"/>
    <tag k="addr:state" v="VT"/>
    <tag k="ref:vcgi:esiteid" v="301030"/>
  </node>
  <node id="-471" visible="true" lat="44.55431366" lon="-72.52294167">
    <tag k="addr:city" v="Wolcott"/>
    <tag k="addr:housenumber" v="636"/>
    <tag k="addr:street" v="Richard Woolcutt Road"/>
    <tag k="addr:state" v="VT"/>
    <tag k="ref:vcgi:esiteid" v="301032"/>
  </node>
  <node id="-472" visible="true" lat="44.55371846" lon="-72.52798771">
    <tag k="addr:city" v="Wolcott"/>
    <tag k="addr:housenumber" v="943"/>
    <tag k="addr:street" v="Richard Woolcutt Road"/>
    <tag k="addr:state" v="VT"/>
    <tag k="ref:vcgi:esiteid" v="301033"/>
  </node>
  <node id="-473" visible="true" lat="44.5539093" lon="-72.43671425">
    <tag k="addr:city" v="Wolcott"/>
    <tag k="addr:housenumber" v="177"/>
    <tag k="addr:street" v="Marsh Road"/>
    <tag k="addr:state" v="VT"/>
    <tag k="ref:vcgi:esiteid" v="301034"/>
  </node>
  <node id="-474" visible="true" lat="44.55381831" lon="-72.49973862">
    <tag k="addr:city" v="Wolcott"/>
    <tag k="addr:housenumber" v="714"/>
    <tag k="addr:street" v="Corley Road"/>
    <tag k="addr:state" v="VT"/>
    <tag k="ref:vcgi:esiteid" v="301035"/>
  </node>
  <node id="-476" visible="true" lat="44.55365372" lon="-72.50998696">
    <tag k="addr:city" v="Wolcott"/>
    <tag k="addr:housenumber" v="39"/>
    <tag k="addr:street" v="Apixia Way"/>
    <tag k="addr:state" v="VT"/>
    <tag k="ref:vcgi:esiteid" v="301037"/>
  </node>
  <node id="-477" visible="true" lat="44.55336639" lon="-72.43705119">
    <tag k="addr:city" v="Wolcott"/>
    <tag k="addr:housenumber" v="154"/>
    <tag k="addr:street" v="Marsh Road"/>
    <tag k="addr:state" v="VT"/>
    <tag k="ref:vcgi:esiteid" v="301038"/>
  </node>
  <node id="-480" visible="true" lat="44.55321502" lon="-72.5318031">
    <tag k="addr:city" v="Wolcott"/>
    <tag k="addr:housenumber" v="1208"/>
    <tag k="addr:street" v="Richard Woolcutt Road"/>
    <tag k="addr:state" v="VT"/>
    <tag k="ref:vcgi:esiteid" v="301041"/>
  </node>
  <node id="-481" visible="true" lat="44.55331536" lon="-72.4331367">
    <tag k="addr:city" v="Wolcott"/>
    <tag k="addr:housenumber" v="353"/>
    <tag k="addr:street" v="Marsh Road"/>
    <tag k="addr:state" v="VT"/>
    <tag k="ref:vcgi:esiteid" v="301042"/>
  </node>
  <node id="-482" visible="true" lat="44.55300374" lon="-72.5230946">
    <tag k="addr:city" v="Wolcott"/>
    <tag k="addr:housenumber" v="529"/>
    <tag k="addr:street" v="Richard Woolcutt Road"/>
    <tag k="addr:state" v="VT"/>
    <tag k="ref:vcgi:esiteid" v="301043"/>
  </node>
  <node id="-483" visible="true" lat="44.55287696" lon="-72.44804234">
    <tag k="addr:city" v="Wolcott"/>
    <tag k="addr:housenumber" v="935"/>
    <tag k="addr:street" v="East Hill Road"/>
    <tag k="addr:state" v="VT"/>
    <tag k="ref:vcgi:esiteid" v="301044"/>
  </node>
  <node id="-486" visible="true" lat="44.55284882" lon="-72.52825173">
    <tag k="addr:city" v="Wolcott"/>
    <tag k="addr:housenumber" v="1047"/>
    <tag k="addr:street" v="Richard Woolcutt Road"/>
    <tag k="addr:state" v="VT"/>
    <tag k="ref:vcgi:esiteid" v="301047"/>
  </node>
  <node id="-487" visible="true" lat="44.55265411" lon="-72.4430048">
    <tag k="addr:city" v="Wolcott"/>
    <tag k="addr:housenumber" v="1017"/>
    <tag k="addr:street" v="East Hill Road"/>
    <tag k="addr:state" v="VT"/>
    <tag k="ref:vcgi:esiteid" v="301048"/>
  </node>
  <node id="-488" visible="true" lat="44.55245871" lon="-72.47262354">
    <tag k="addr:city" v="Wolcott"/>
    <tag k="addr:housenumber" v="3439"/>
    <tag k="addr:street" v="Vermont Route 15"/>
    <tag k="addr:state" v="VT"/>
    <tag k="ref:vcgi:esiteid" v="301049"/>
  </node>
  <node id="-490" visible="true" lat="44.55210495" lon="-72.43148812">
    <tag k="addr:city" v="Wolcott"/>
    <tag k="addr:housenumber" v="481"/>
    <tag k="addr:street" v="Marsh Road"/>
    <tag k="addr:state" v="VT"/>
    <tag k="ref:vcgi:esiteid" v="301051"/>
  </node>
  <node id="-491" visible="true" lat="44.55193297" lon="-72.48305323">
    <tag k="addr:city" v="Wolcott"/>
    <tag k="addr:housenumber" v="282"/>
    <tag k="addr:street" v="Elmore Pond Road"/>
    <tag k="addr:state" v="VT"/>
    <tag k="ref:vcgi:esiteid" v="301052"/>
  </node>
  <node id="-493" visible="true" lat="44.55120535" lon="-72.43169107">
    <tag k="addr:city" v="Wolcott"/>
    <tag k="addr:housenumber" v="454"/>
    <tag k="addr:street" v="Marsh Road"/>
    <tag k="addr:state" v="VT"/>
    <tag k="ref:vcgi:esiteid" v="301054"/>
  </node>
  <node id="-496" visible="true" lat="44.550801" lon="-72.458763">
    <tag k="addr:city" v="Wolcott"/>
    <tag k="addr:housenumber" v="294"/>
    <tag k="addr:street" v="Jones Road"/>
    <tag k="addr:state" v="VT"/>
    <tag k="ref:vcgi:esiteid" v="301058"/>
  </node>
  <node id="-497" visible="true" lat="44.55077185" lon="-72.48140452">
    <tag k="addr:city" v="Wolcott"/>
    <tag k="addr:housenumber" v="335"/>
    <tag k="addr:street" v="Elmore Pond Road"/>
    <tag k="addr:state" v="VT"/>
    <tag k="ref:vcgi:esiteid" v="301059"/>
  </node>
  <node id="-498" visible="true" lat="44.55049617" lon="-72.45918422">
    <tag k="addr:city" v="Wolcott"/>
    <tag k="addr:housenumber" v="248"/>
    <tag k="addr:street" v="Jones Road"/>
    <tag k="addr:state" v="VT"/>
    <tag k="ref:vcgi:esiteid" v="301060"/>
  </node>
  <node id="-500" visible="true" lat="44.55042267" lon="-72.44712075">
    <tag k="addr:city" v="Wolcott"/>
    <tag k="addr:housenumber" v="779"/>
    <tag k="addr:street" v="East Hill Road"/>
    <tag k="addr:state" v="VT"/>
    <tag k="ref:vcgi:esiteid" v="301062"/>
  </node>
  <node id="-502" visible="true" lat="44.55024297" lon="-72.5214697">
    <tag k="addr:city" v="Wolcott"/>
    <tag k="addr:housenumber" v="337"/>
    <tag k="addr:street" v="Richard Woolcutt Road"/>
    <tag k="addr:state" v="VT"/>
    <tag k="ref:vcgi:esiteid" v="301064"/>
  </node>
  <node id="-503" visible="true" lat="44.55011749" lon="-72.46610268">
    <tag k="addr:city" v="Wolcott"/>
    <tag k="addr:housenumber" v="3804"/>
    <tag k="addr:street" v="Vermont Route 15"/>
    <tag k="addr:state" v="VT"/>
    <tag k="ref:vcgi:esiteid" v="301065"/>
  </node>
  <node id="-505" visible="true" lat="44.5499933" lon="-72.48140103">
    <tag k="addr:city" v="Wolcott"/>
    <tag k="addr:housenumber" v="407"/>
    <tag k="addr:street" v="Elmore Pond Road"/>
    <tag k="addr:state" v="VT"/>
    <tag k="ref:vcgi:esiteid" v="301067"/>
  </node>
  <node id="-506" visible="true" lat="44.54994965" lon="-72.44859322">
    <tag k="addr:city" v="Wolcott"/>
    <tag k="addr:housenumber" v="703"/>
    <tag k="addr:street" v="East Hill Road"/>
    <tag k="addr:state" v="VT"/>
    <tag k="ref:vcgi:esiteid" v="301068"/>
  </node>
  <node id="-507" visible="true" lat="44.5499115" lon="-72.46568307">
    <tag k="addr:city" v="Wolcott"/>
    <tag k="addr:housenumber" v="3829"/>
    <tag k="addr:street" v="Vermont Route 15"/>
    <tag k="addr:state" v="VT"/>
    <tag k="ref:vcgi:esiteid" v="301069"/>
  </node>
  <node id="-510" visible="true" lat="44.54964689" lon="-72.46528756">
    <tag k="addr:city" v="Wolcott"/>
    <tag k="addr:housenumber" v="3859"/>
    <tag k="addr:street" v="Vermont Route 15"/>
    <tag k="addr:state" v="VT"/>
    <tag k="ref:vcgi:esiteid" v="301072"/>
  </node>
  <node id="-512" visible="true" lat="44.54928418" lon="-72.45901845">
    <tag k="addr:city" v="Wolcott"/>
    <tag k="addr:housenumber" v="170"/>
    <tag k="addr:street" v="Jones Road"/>
    <tag k="addr:state" v="VT"/>
    <tag k="ref:vcgi:esiteid" v="301074"/>
  </node>
  <node id="-513" visible="true" lat="44.54926129" lon="-72.52043546">
    <tag k="addr:city" v="Wolcott"/>
    <tag k="addr:housenumber" v="268"/>
    <tag k="addr:street" v="Richard Woolcutt Road"/>
    <tag k="addr:state" v="VT"/>
    <tag k="ref:vcgi:esiteid" v="301075"/>
  </node>
  <node id="-514" visible="true" lat="44.54937533" lon="-72.46483235">
    <tag k="addr:city" v="Wolcott"/>
    <tag k="addr:housenumber" v="3889"/>
    <tag k="addr:street" v="Vermont Route 15"/>
    <tag k="addr:state" v="VT"/>
    <tag k="ref:vcgi:esiteid" v="301076"/>
  </node>
  <node id="-517" visible="true" lat="44.54900742" lon="-72.46507271">
    <tag k="addr:city" v="Wolcott"/>
    <tag k="addr:housenumber" v="3896"/>
    <tag k="addr:street" v="Vermont Route 15"/>
    <tag k="addr:state" v="VT"/>
    <tag k="ref:vcgi:esiteid" v="301079"/>
  </node>
  <node id="-521" visible="true" lat="44.54869294" lon="-72.46487267">
    <tag k="addr:city" v="Wolcott"/>
    <tag k="addr:housenumber" v="3924"/>
    <tag k="addr:street" v="Vermont Route 15"/>
    <tag k="addr:state" v="VT"/>
    <tag k="ref:vcgi:esiteid" v="301083"/>
  </node>
  <node id="-522" visible="true" lat="44.54847336" lon="-72.45118722">
    <tag k="addr:city" v="Wolcott"/>
    <tag k="addr:housenumber" v="541"/>
    <tag k="addr:street" v="East Hill Road"/>
    <tag k="addr:state" v="VT"/>
    <tag k="ref:vcgi:esiteid" v="301084"/>
  </node>
  <node id="-523" visible="true" lat="44.54855031" lon="-72.46175011">
    <tag k="addr:city" v="Wolcott"/>
    <tag k="addr:housenumber" v="59"/>
    <tag k="addr:street" v="Jones Road"/>
    <tag k="addr:state" v="VT"/>
    <tag k="ref:vcgi:esiteid" v="301085"/>
  </node>
  <node id="-526" visible="true" lat="44.54838943" lon="-72.47965249">
    <tag k="addr:city" v="Wolcott"/>
    <tag k="addr:housenumber" v="495"/>
    <tag k="addr:street" v="Elmore Pond Road"/>
    <tag k="addr:state" v="VT"/>
    <tag k="ref:vcgi:esiteid" v="301088"/>
  </node>
  <node id="-528" visible="true" lat="44.5483017" lon="-72.46292886">
    <tag k="addr:city" v="Wolcott"/>
    <tag k="addr:housenumber" v="4009"/>
    <tag k="addr:street" v="Vermont Route 15"/>
    <tag k="addr:state" v="VT"/>
    <tag k="ref:vcgi:esiteid" v="301090"/>
  </node>
  <node id="-529" visible="true" lat="44.54818584" lon="-72.46422087">
    <tag k="addr:city" v="Wolcott"/>
    <tag k="addr:housenumber" v="3950"/>
    <tag k="addr:street" v="Vermont Route 15"/>
    <tag k="addr:state" v="VT"/>
    <tag k="ref:vcgi:esiteid" v="301091"/>
  </node>
  <node id="-530" visible="true" lat="44.5482254" lon="-72.46266183">
    <tag k="addr:city" v="Wolcott"/>
    <tag k="addr:housenumber" v="4023"/>
    <tag k="addr:street" v="Vermont Route 15"/>
    <tag k="addr:state" v="VT"/>
    <tag k="ref:vcgi:esiteid" v="301092"/>
  </node>
  <node id="-533" visible="true" lat="44.54791223" lon="-72.46342455">
    <tag k="addr:city" v="Wolcott"/>
    <tag k="addr:housenumber" v="3996"/>
    <tag k="addr:street" v="Vermont Route 15"/>
    <tag k="addr:state" v="VT"/>
    <tag k="ref:vcgi:esiteid" v="301096"/>
  </node>
  <node id="-534" visible="true" lat="44.54804982" lon="-72.46152125">
    <tag k="addr:city" v="Wolcott"/>
    <tag k="addr:housenumber" v="29"/>
    <tag k="addr:street" v="Jones Road"/>
    <tag k="addr:state" v="VT"/>
    <tag k="ref:vcgi:esiteid" v="301097"/>
  </node>
  <node id="-536" visible="true" lat="44.54770578" lon="-72.44455118">
    <tag k="addr:city" v="Wolcott"/>
    <tag k="addr:housenumber" v="177"/>
    <tag k="addr:street" v="Young Road"/>
    <tag k="addr:state" v="VT"/>
    <tag k="ref:vcgi:esiteid" v="301099"/>
  </node>
  <node id="-538" visible="true" lat="44.5480663" lon="-72.44315491">
    <tag k="addr:city" v="Wolcott"/>
    <tag k="addr:housenumber" v="341"/>
    <tag k="addr:street" v="Young Road"/>
    <tag k="addr:state" v="VT"/>
    <tag k="ref:vcgi:esiteid" v="301101"/>
  </node>
  <node id="-539" visible="true" lat="44.54774094" lon="-72.46262368">
    <tag k="addr:city" v="Wolcott"/>
    <tag k="addr:housenumber" v="4042"/>
    <tag k="addr:street" v="Vermont Route 15"/>
    <tag k="addr:state" v="VT"/>
    <tag k="ref:vcgi:esiteid" v="301102"/>
  </node>
  <node id="-541" visible="true" lat="44.54768371" lon="-72.45215615">
    <tag k="addr:city" v="Wolcott"/>
    <tag k="addr:housenumber" v="467"/>
    <tag k="addr:street" v="East Hill Road"/>
    <tag k="addr:state" v="VT"/>
    <tag k="ref:vcgi:esiteid" v="301104"/>
  </node>
  <node id="-542" visible="true" lat="44.54761886" lon="-72.46230325">
    <tag k="addr:city" v="Wolcott"/>
    <tag k="addr:housenumber" v="4058"/>
    <tag k="addr:street" v="Vermont Route 15"/>
    <tag k="addr:state" v="VT"/>
    <tag k="ref:vcgi:esiteid" v="301105"/>
  </node>
  <node id="-543" visible="true" lat="44.54758453" lon="-72.46066292">
    <tag k="addr:city" v="Wolcott"/>
    <tag k="addr:housenumber" v="4129"/>
    <tag k="addr:street" v="Vermont Route 15"/>
    <tag k="addr:state" v="VT"/>
    <tag k="ref:vcgi:esiteid" v="301106"/>
  </node>
  <node id="-546" visible="true" lat="44.54745774" lon="-72.4602006">
    <tag k="addr:city" v="Wolcott"/>
    <tag k="addr:housenumber" v="4155"/>
    <tag k="addr:street" v="Vermont Route 15"/>
    <tag k="addr:state" v="VT"/>
    <tag k="ref:vcgi:esiteid" v="301109"/>
  </node>
  <node id="-547" visible="true" lat="44.54731297" lon="-72.46139957">
    <tag k="addr:city" v="Wolcott"/>
    <tag k="addr:housenumber" v="4102"/>
    <tag k="addr:street" v="Vermont Route 15"/>
    <tag k="addr:state" v="VT"/>
    <tag k="ref:vcgi:esiteid" v="301110"/>
  </node>
  <node id="-548" visible="true" lat="44.54750387" lon="-72.45978188">
    <tag k="addr:city" v="Wolcott"/>
    <tag k="addr:housenumber" v="4195"/>
    <tag k="addr:street" v="Vermont Route 15"/>
    <tag k="addr:state" v="VT"/>
    <tag k="ref:vcgi:esiteid" v="301111"/>
  </node>
  <node id="-549" visible="true" lat="44.54737508" lon="-72.45950668">
    <tag k="addr:city" v="Wolcott"/>
    <tag k="addr:housenumber" v="4205"/>
    <tag k="addr:street" v="Vermont Route 15"/>
    <tag k="addr:state" v="VT"/>
    <tag k="ref:vcgi:esiteid" v="301112"/>
  </node>
  <node id="-550" visible="true" lat="44.54727936" lon="-72.42243203">
    <tag k="addr:city" v="Wolcott"/>
    <tag k="addr:housenumber" v="1020"/>
    <tag k="addr:street" v="Marsh Road"/>
    <tag k="addr:state" v="VT"/>
    <tag k="ref:vcgi:esiteid" v="301113"/>
  </node>
  <node id="-551" visible="true" lat="44.54709546" lon="-72.45981934">
    <tag k="addr:city" v="Wolcott"/>
    <tag k="addr:housenumber" v="4176"/>
    <tag k="addr:street" v="Vermont Route 15"/>
    <tag k="addr:state" v="VT"/>
    <tag k="ref:vcgi:esiteid" v="301114"/>
  </node>
  <node id="-553" visible="true" lat="44.54714666" lon="-72.4601105">
    <tag k="addr:city" v="Wolcott"/>
    <tag k="addr:housenumber" v="4154"/>
    <tag k="addr:street" v="Vermont Route 15"/>
    <tag k="addr:state" v="VT"/>
    <tag k="ref:vcgi:esiteid" v="301118"/>
  </node>
  <node id="-554" visible="true" lat="44.54709239" lon="-72.45963516">
    <tag k="addr:city" v="Wolcott"/>
    <tag k="addr:housenumber" v="4186"/>
    <tag k="addr:street" v="Vermont Route 15"/>
    <tag k="addr:state" v="VT"/>
    <tag k="ref:vcgi:esiteid" v="301120"/>
  </node>
  <node id="-555" visible="true" lat="44.54707426" lon="-72.45946925">
    <tag k="addr:city" v="Wolcott"/>
    <tag k="addr:housenumber" v="4194"/>
    <tag k="addr:street" v="Vermont Route 15"/>
    <tag k="addr:state" v="VT"/>
    <tag k="ref:vcgi:esiteid" v="301121"/>
  </node>
  <node id="-558" visible="true" lat="44.54693985" lon="-72.45816048">
    <tag k="addr:city" v="Wolcott"/>
    <tag k="addr:housenumber" v="4261"/>
    <tag k="addr:street" v="Vermont Route 15"/>
    <tag k="addr:state" v="VT"/>
    <tag k="ref:vcgi:esiteid" v="301125"/>
  </node>
  <node id="-559" visible="true" lat="44.54700725" lon="-72.44329372">
    <tag k="addr:city" v="Wolcott"/>
    <tag k="addr:housenumber" v="284"/>
    <tag k="addr:street" v="Young Road"/>
    <tag k="addr:state" v="VT"/>
    <tag k="ref:vcgi:esiteid" v="301126"/>
  </node>
  <node id="-561" visible="true" lat="44.54692355" lon="-72.45794293">
    <tag k="addr:city" v="Wolcott"/>
    <tag k="addr:housenumber" v="4255"/>
    <tag k="addr:street" v="Vermont Route 15"/>
    <tag k="addr:state" v="VT"/>
    <tag k="ref:vcgi:esiteid" v="301130"/>
  </node>
  <node id="-562" visible="true" lat="44.5468483" lon="-72.45765694">
    <tag k="addr:city" v="Wolcott"/>
    <tag k="addr:housenumber" v="4289"/>
    <tag k="addr:street" v="Vermont Route 15"/>
    <tag k="addr:state" v="VT"/>
    <tag k="ref:vcgi:esiteid" v="301131"/>
  </node>
  <node id="-563" visible="true" lat="44.54683403" lon="-72.45859981">
    <tag k="addr:city" v="Wolcott"/>
    <tag k="addr:housenumber" v="4254"/>
    <tag k="addr:street" v="Vermont Route 15"/>
    <tag k="addr:state" v="VT"/>
    <tag k="ref:vcgi:esiteid" v="301132"/>
  </node>
  <node id="-564" visible="true" lat="44.54672623" lon="-72.4525834">
    <tag k="addr:city" v="Wolcott"/>
    <tag k="addr:housenumber" v="414"/>
    <tag k="addr:street" v="East Hill Road"/>
    <tag k="addr:state" v="VT"/>
    <tag k="ref:vcgi:esiteid" v="301133"/>
  </node>
  <node id="-566" visible="true" lat="44.54649469" lon="-72.42126009">
    <tag k="addr:city" v="Wolcott"/>
    <tag k="addr:housenumber" v="1114"/>
    <tag k="addr:street" v="Marsh Road"/>
    <tag k="addr:state" v="VT"/>
    <tag k="ref:vcgi:esiteid" v="301135"/>
  </node>
  <node id="-567" visible="true" lat="44.54650879" lon="-72.45670327">
    <tag k="addr:city" v="Wolcott"/>
    <tag k="addr:housenumber" v="4339"/>
    <tag k="addr:street" v="Vermont Route 15"/>
    <tag k="addr:state" v="VT"/>
    <tag k="ref:vcgi:esiteid" v="301136"/>
  </node>
  <node id="-568" visible="true" lat="44.54645019" lon="-72.51950531">
    <tag k="addr:city" v="Wolcott"/>
    <tag k="addr:housenumber" v="62"/>
    <tag k="addr:street" v="Richard Woolcutt Road"/>
    <tag k="addr:state" v="VT"/>
    <tag k="ref:vcgi:esiteid" v="301137"/>
  </node>
  <node id="-573" visible="true" lat="44.54612814" lon="-72.45629844">
    <tag k="addr:city" v="Wolcott"/>
    <tag k="addr:housenumber" v="4365"/>
    <tag k="addr:street" v="Vermont Route 15"/>
    <tag k="addr:state" v="VT"/>
    <tag k="ref:vcgi:esiteid" v="301142"/>
  </node>
  <node id="-575" visible="true" lat="44.54594331" lon="-72.4561189">
    <tag k="addr:city" v="Wolcott"/>
    <tag k="addr:housenumber" v="4389"/>
    <tag k="addr:street" v="Vermont Route 15"/>
    <tag k="addr:state" v="VT"/>
    <tag k="ref:vcgi:esiteid" v="301144"/>
  </node>
  <node id="-579" visible="true" lat="44.54587387" lon="-72.45873511">
    <tag k="addr:city" v="Wolcott"/>
    <tag k="addr:housenumber" v="64"/>
    <tag k="addr:street" v="School Street"/>
    <tag k="addr:state" v="VT"/>
    <tag k="ref:vcgi:esiteid" v="301148"/>
  </node>
  <node id="-580" visible="true" lat="44.54565508" lon="-72.45814837">
    <tag k="addr:city" v="Wolcott"/>
    <tag k="addr:housenumber" v="74"/>
    <tag k="addr:street" v="School Street"/>
    <tag k="addr:state" v="VT"/>
    <tag k="ref:vcgi:esiteid" v="301149"/>
  </node>
  <node id="-582" visible="true" lat="44.5456182" lon="-72.45649229">
    <tag k="addr:city" v="Wolcott"/>
    <tag k="addr:housenumber" v="4400"/>
    <tag k="addr:street" v="Vermont Route 15"/>
    <tag k="addr:state" v="VT"/>
    <tag k="ref:vcgi:esiteid" v="301151"/>
  </node>
  <node id="-584" visible="true" lat="44.5455024" lon="-72.45308545">
    <tag k="addr:city" v="Wolcott"/>
    <tag k="addr:housenumber" v="306"/>
    <tag k="addr:street" v="East Hill Road"/>
    <tag k="addr:state" v="VT"/>
    <tag k="ref:vcgi:esiteid" v="301153"/>
  </node>
  <node id="-585" visible="true" lat="44.54579138" lon="-72.45595559">
    <tag k="addr:city" v="Wolcott"/>
    <tag k="addr:housenumber" v="4403"/>
    <tag k="addr:street" v="Vermont Route 15"/>
    <tag k="addr:state" v="VT"/>
    <tag k="ref:vcgi:esiteid" v="301154"/>
  </node>
  <node id="-591" visible="true" lat="44.5451064" lon="-72.45636056">
    <tag k="addr:city" v="Wolcott"/>
    <tag k="addr:housenumber" v="4434"/>
    <tag k="addr:street" v="Vermont Route 15"/>
    <tag k="addr:state" v="VT"/>
    <tag k="ref:vcgi:esiteid" v="301160"/>
  </node>
  <node id="-592" visible="true" lat="44.54508972" lon="-72.45262917">
    <tag k="addr:city" v="Wolcott"/>
    <tag k="addr:housenumber" v="280"/>
    <tag k="addr:street" v="East Hill Road"/>
    <tag k="addr:state" v="VT"/>
    <tag k="ref:vcgi:esiteid" v="301161"/>
  </node>
  <node id="-593" visible="true" lat="44.54592924" lon="-72.41574502">
    <tag k="addr:city" v="Wolcott"/>
    <tag k="addr:housenumber" v="1395"/>
    <tag k="addr:street" v="Marsh Road"/>
    <tag k="addr:state" v="VT"/>
    <tag k="ref:vcgi:esiteid" v="301162"/>
  </node>
  <node id="-595" visible="true" lat="44.54496387" lon="-72.45775671">
    <tag k="addr:city" v="Wolcott"/>
    <tag k="addr:housenumber" v="132"/>
    <tag k="addr:street" v="School Street"/>
    <tag k="addr:state" v="VT"/>
    <tag k="ref:vcgi:esiteid" v="301164"/>
  </node>
  <node id="-597" visible="true" lat="44.54463332" lon="-72.45744152">
    <tag k="addr:city" v="Wolcott"/>
    <tag k="addr:housenumber" v="147"/>
    <tag k="addr:street" v="School Street"/>
    <tag k="addr:state" v="VT"/>
    <tag k="ref:vcgi:esiteid" v="301166"/>
  </node>
  <node id="-599" visible="true" lat="44.54477861" lon="-72.41511508">
    <tag k="addr:city" v="Wolcott"/>
    <tag k="addr:housenumber" v="1421"/>
    <tag k="addr:street" v="Marsh Road"/>
    <tag k="addr:state" v="VT"/>
    <tag k="ref:vcgi:esiteid" v="301168"/>
  </node>
  <node id="-601" visible="true" lat="44.5444152" lon="-72.45747522">
    <tag k="addr:city" v="Wolcott"/>
    <tag k="addr:housenumber" v="161"/>
    <tag k="addr:street" v="School Street"/>
    <tag k="addr:state" v="VT"/>
    <tag k="ref:vcgi:esiteid" v="301170"/>
  </node>
  <node id="-604" visible="true" lat="44.54433607" lon="-72.45804731">
    <tag k="addr:city" v="Wolcott"/>
    <tag k="addr:housenumber" v="28"/>
    <tag k="addr:street" v="Railroad Street"/>
    <tag k="addr:state" v="VT"/>
    <tag k="ref:vcgi:esiteid" v="301173"/>
  </node>
  <node id="-606" visible="true" lat="44.54405776" lon="-72.45743982">
    <tag k="addr:city" v="Wolcott"/>
    <tag k="addr:housenumber" v="197"/>
    <tag k="addr:street" v="School Street"/>
    <tag k="addr:state" v="VT"/>
    <tag k="ref:vcgi:esiteid" v="301175"/>
  </node>
  <node id="-607" visible="true" lat="44.5437366" lon="-72.45796617">
    <tag k="addr:city" v="Wolcott"/>
    <tag k="addr:housenumber" v="218"/>
    <tag k="addr:street" v="School Street"/>
    <tag k="addr:state" v="VT"/>
    <tag k="ref:vcgi:esiteid" v="301176"/>
  </node>
  <node id="-609" visible="true" lat="44.54352705" lon="-72.45752064">
    <tag k="addr:city" v="Wolcott"/>
    <tag k="addr:housenumber" v="229"/>
    <tag k="addr:street" v="School Street"/>
    <tag k="addr:state" v="VT"/>
    <tag k="ref:vcgi:esiteid" v="301178"/>
  </node>
  <node id="-612" visible="true" lat="44.54319377" lon="-72.45761346">
    <tag k="addr:city" v="Wolcott"/>
    <tag k="addr:housenumber" v="255"/>
    <tag k="addr:street" v="School Street"/>
    <tag k="addr:state" v="VT"/>
    <tag k="ref:vcgi:esiteid" v="301181"/>
  </node>
  <node id="-613" visible="true" lat="44.54314809" lon="-72.45814288">
    <tag k="addr:city" v="Wolcott"/>
    <tag k="addr:housenumber" v="264"/>
    <tag k="addr:street" v="School Street"/>
    <tag k="addr:state" v="VT"/>
    <tag k="ref:vcgi:esiteid" v="301182"/>
  </node>
  <node id="-614" visible="true" lat="44.54291732" lon="-72.45762758">
    <tag k="addr:city" v="Wolcott"/>
    <tag k="addr:housenumber" v="269"/>
    <tag k="addr:street" v="School Street"/>
    <tag k="addr:state" v="VT"/>
    <tag k="ref:vcgi:esiteid" v="301183"/>
  </node>
  <node id="-615" visible="true" lat="44.5426653" lon="-72.50291638">
    <tag k="addr:city" v="Wolcott"/>
    <tag k="addr:housenumber" v="2371"/>
    <tag k="addr:street" v="Elmore Pond Road"/>
    <tag k="addr:state" v="VT"/>
    <tag k="ref:vcgi:esiteid" v="301184"/>
  </node>
  <node id="-618" visible="true" lat="44.54229632" lon="-72.49970053">
    <tag k="addr:city" v="Wolcott"/>
    <tag k="addr:housenumber" v="2212"/>
    <tag k="addr:street" v="Elmore Pond Road"/>
    <tag k="addr:state" v="VT"/>
    <tag k="ref:vcgi:esiteid" v="301187"/>
  </node>
  <node id="-619" visible="true" lat="44.54213953" lon="-72.4564996">
    <tag k="addr:city" v="Wolcott"/>
    <tag k="addr:housenumber" v="4632"/>
    <tag k="addr:street" v="Vermont Route 15"/>
    <tag k="addr:state" v="VT"/>
    <tag k="ref:vcgi:esiteid" v="301188"/>
  </node>
  <node id="-620" visible="true" lat="44.54227923" lon="-72.45833005">
    <tag k="addr:city" v="Wolcott"/>
    <tag k="addr:housenumber" v="326"/>
    <tag k="addr:street" v="School Street"/>
    <tag k="addr:state" v="VT"/>
    <tag k="ref:vcgi:esiteid" v="301189"/>
  </node>
  <node id="-621" visible="true" lat="44.54153061" lon="-72.50057229">
    <tag k="addr:city" v="Wolcott"/>
    <tag k="addr:housenumber" v="2219"/>
    <tag k="addr:street" v="Elmore Pond Road"/>
    <tag k="addr:state" v="VT"/>
    <tag k="ref:vcgi:esiteid" v="301190"/>
  </node>
  <node id="-625" visible="true" lat="44.54090103" lon="-72.48567122">
    <tag k="addr:city" v="Wolcott"/>
    <tag k="addr:housenumber" v="1124"/>
    <tag k="addr:street" v="Elmore Pond Road"/>
    <tag k="addr:state" v="VT"/>
    <tag k="ref:vcgi:esiteid" v="301194"/>
  </node>
  <node id="-627" visible="true" lat="44.54038071" lon="-72.45771112">
    <tag k="addr:city" v="Wolcott"/>
    <tag k="addr:housenumber" v="462"/>
    <tag k="addr:street" v="School Street"/>
    <tag k="addr:state" v="VT"/>
    <tag k="ref:vcgi:esiteid" v="301196"/>
  </node>
  <node id="-628" visible="true" lat="44.53982572" lon="-72.48493556">
    <tag k="addr:city" v="Wolcott"/>
    <tag k="addr:housenumber" v="1163"/>
    <tag k="addr:street" v="Elmore Pond Road"/>
    <tag k="addr:state" v="VT"/>
    <tag k="ref:vcgi:esiteid" v="301197"/>
  </node>
  <node id="-629" visible="true" lat="44.54010773" lon="-72.45298012">
    <tag k="addr:city" v="Wolcott"/>
    <tag k="addr:housenumber" v="4690"/>
    <tag k="addr:street" v="Vermont Route 15"/>
    <tag k="addr:state" v="VT"/>
    <tag k="ref:vcgi:esiteid" v="301198"/>
  </node>
  <node id="-630" visible="true" lat="44.53986054" lon="-72.4607893">
    <tag k="addr:city" v="Wolcott"/>
    <tag k="addr:housenumber" v="169"/>
    <tag k="addr:street" v="McKearney Road"/>
    <tag k="addr:state" v="VT"/>
    <tag k="ref:vcgi:esiteid" v="301199"/>
  </node>
  <node id="-631" visible="true" lat="44.53969955" lon="-72.45199593">
    <tag k="addr:city" v="Wolcott"/>
    <tag k="addr:housenumber" v="277"/>
    <tag k="addr:street" v="Flat Iron Road"/>
    <tag k="addr:state" v="VT"/>
    <tag k="ref:vcgi:esiteid" v="301200"/>
  </node>
  <node id="-632" visible="true" lat="44.53961992" lon="-72.44947686">
    <tag k="addr:city" v="Wolcott"/>
    <tag k="addr:housenumber" v="5025"/>
    <tag k="addr:street" v="Vermont Route 15"/>
    <tag k="addr:state" v="VT"/>
    <tag k="ref:vcgi:esiteid" v="301201"/>
  </node>
  <node id="-634" visible="true" lat="44.53958689" lon="-72.45166996">
    <tag k="addr:city" v="Wolcott"/>
    <tag k="addr:housenumber" v="307"/>
    <tag k="addr:street" v="Flat Iron Road"/>
    <tag k="addr:state" v="VT"/>
    <tag k="ref:vcgi:esiteid" v="301203"/>
  </node>
  <node id="-635" visible="true" lat="44.53960976" lon="-72.45762911">
    <tag k="addr:city" v="Wolcott"/>
    <tag k="addr:housenumber" v="514"/>
    <tag k="addr:street" v="School Street"/>
    <tag k="addr:state" v="VT"/>
    <tag k="ref:vcgi:esiteid" v="301204"/>
  </node>
  <node id="-636" visible="true" lat="44.53937149" lon="-72.45064553">
    <tag k="addr:city" v="Wolcott"/>
    <tag k="addr:housenumber" v="355"/>
    <tag k="addr:street" v="Flat Iron Road"/>
    <tag k="addr:state" v="VT"/>
    <tag k="ref:vcgi:esiteid" v="301205"/>
  </node>
  <node id="-637" visible="true" lat="44.53919803" lon="-72.45504377">
    <tag k="addr:city" v="Wolcott"/>
    <tag k="addr:housenumber" v="120"/>
    <tag k="addr:street" v="Flat Iron Road"/>
    <tag k="addr:state" v="VT"/>
    <tag k="ref:vcgi:esiteid" v="301206"/>
  </node>
  <node id="-638" visible="true" lat="44.53915135" lon="-72.45989768">
    <tag k="addr:city" v="Wolcott"/>
    <tag k="addr:housenumber" v="117"/>
    <tag k="addr:street" v="McKearney Road"/>
    <tag k="addr:state" v="VT"/>
    <tag k="ref:vcgi:esiteid" v="301207"/>
  </node>
  <node id="-639" visible="true" lat="44.53918839" lon="-72.45173653">
    <tag k="addr:city" v="Wolcott"/>
    <tag k="addr:housenumber" v="306"/>
    <tag k="addr:street" v="Flat Iron Road"/>
    <tag k="addr:state" v="VT"/>
    <tag k="ref:vcgi:esiteid" v="301208"/>
  </node>
  <node id="-640" visible="true" lat="44.53908157" lon="-72.45768521">
    <tag k="addr:city" v="Wolcott"/>
    <tag k="addr:housenumber" v="546"/>
    <tag k="addr:street" v="East Elmore Road"/>
    <tag k="addr:state" v="VT"/>
    <tag k="ref:vcgi:esiteid" v="301209"/>
  </node>
  <node id="-641" visible="true" lat="44.5390987" lon="-72.46070352">
    <tag k="addr:city" v="Wolcott"/>
    <tag k="addr:housenumber" v="127"/>
    <tag k="addr:street" v="McKearney Road"/>
    <tag k="addr:state" v="VT"/>
    <tag k="ref:vcgi:esiteid" v="301210"/>
  </node>
  <node id="-642" visible="true" lat="44.53889465" lon="-72.44845589">
    <tag k="addr:city" v="Wolcott"/>
    <tag k="addr:housenumber" v="5073"/>
    <tag k="addr:street" v="Vermont Route 15"/>
    <tag k="addr:state" v="VT"/>
    <tag k="ref:vcgi:esiteid" v="301211"/>
  </node>
  <node id="-643" visible="true" lat="44.53886734" lon="-72.45135781">
    <tag k="addr:city" v="Wolcott"/>
    <tag k="addr:housenumber" v="332"/>
    <tag k="addr:street" v="Flat Iron Road"/>
    <tag k="addr:state" v="VT"/>
    <tag k="ref:vcgi:esiteid" v="301212"/>
  </node>
  <node id="-645" visible="true" lat="44.53879173" lon="-72.4576421">
    <tag k="addr:city" v="Wolcott"/>
    <tag k="addr:housenumber" v="562"/>
    <tag k="addr:street" v="East Elmore Road"/>
    <tag k="addr:state" v="VT"/>
    <tag k="ref:vcgi:esiteid" v="301214"/>
  </node>
  <node id="-647" visible="true" lat="44.53871918" lon="-72.44989022">
    <tag k="addr:city" v="Wolcott"/>
    <tag k="addr:housenumber" v="392"/>
    <tag k="addr:street" v="Flat Iron Road"/>
    <tag k="addr:state" v="VT"/>
    <tag k="ref:vcgi:esiteid" v="301216"/>
  </node>
  <node id="-649" visible="true" lat="44.53849681" lon="-72.44795934">
    <tag k="addr:city" v="Wolcott"/>
    <tag k="addr:housenumber" v="5109"/>
    <tag k="addr:street" v="Vermont Route 15"/>
    <tag k="addr:state" v="VT"/>
    <tag k="ref:vcgi:esiteid" v="301218"/>
  </node>
  <node id="-651" visible="true" lat="44.53844924" lon="-72.45759431">
    <tag k="addr:city" v="Wolcott"/>
    <tag k="addr:housenumber" v="594"/>
    <tag k="addr:street" v="East Elmore Road"/>
    <tag k="addr:state" v="VT"/>
    <tag k="ref:vcgi:esiteid" v="301220"/>
  </node>
  <node id="-653" visible="true" lat="44.53798507" lon="-72.48886909">
    <tag k="addr:city" v="Wolcott"/>
    <tag k="addr:housenumber" v="1364"/>
    <tag k="addr:street" v="Elmore Pond Road"/>
    <tag k="addr:state" v="VT"/>
    <tag k="ref:vcgi:esiteid" v="301222"/>
  </node>
  <node id="-654" visible="true" lat="44.53713608" lon="-72.44740304">
    <tag k="addr:city" v="Wolcott"/>
    <tag k="addr:housenumber" v="5204"/>
    <tag k="addr:street" v="Vermont Route 15"/>
    <tag k="addr:state" v="VT"/>
    <tag k="ref:vcgi:esiteid" v="301223"/>
  </node>
  <node id="-657" visible="true" lat="44.53706741" lon="-72.44645699">
    <tag k="addr:city" v="Wolcott"/>
    <tag k="addr:housenumber" v="5239"/>
    <tag k="addr:street" v="Vermont Route 15"/>
    <tag k="addr:state" v="VT"/>
    <tag k="ref:vcgi:esiteid" v="301226"/>
  </node>
  <node id="-658" visible="true" lat="44.53690338" lon="-72.4469529">
    <tag k="addr:city" v="Wolcott"/>
    <tag k="addr:housenumber" v="5230"/>
    <tag k="addr:street" v="Vermont Route 15"/>
    <tag k="addr:state" v="VT"/>
    <tag k="ref:vcgi:esiteid" v="301227"/>
  </node>
  <node id="-659" visible="true" lat="44.53699383" lon="-72.45730463">
    <tag k="addr:city" v="Wolcott"/>
    <tag k="addr:housenumber" v="698"/>
    <tag k="addr:street" v="East Elmore Road"/>
    <tag k="addr:state" v="VT"/>
    <tag k="ref:vcgi:esiteid" v="301228"/>
  </node>
  <node id="-660" visible="true" lat="44.53671304" lon="-72.44442112">
    <tag k="addr:city" v="Wolcott"/>
    <tag k="addr:housenumber" v="75"/>
    <tag k="addr:street" v="Power Plant Drive"/>
    <tag k="addr:state" v="VT"/>
    <tag k="ref:vcgi:esiteid" v="301229"/>
  </node>
  <node id="-661" visible="true" lat="44.53626058" lon="-72.44519796">
    <tag k="addr:city" v="Wolcott"/>
    <tag k="addr:housenumber" v="5317"/>
    <tag k="addr:street" v="Vermont Route 15"/>
    <tag k="addr:state" v="VT"/>
    <tag k="ref:vcgi:esiteid" v="301230"/>
  </node>
  <node id="-662" visible="true" lat="44.53605794" lon="-72.44477582">
    <tag k="addr:city" v="Wolcott"/>
    <tag k="addr:housenumber" v="5337"/>
    <tag k="addr:street" v="Vermont Route 15"/>
    <tag k="addr:state" v="VT"/>
    <tag k="ref:vcgi:esiteid" v="301231"/>
  </node>
  <node id="-665" visible="true" lat="44.53540421" lon="-72.44531258">
    <tag k="addr:city" v="Wolcott"/>
    <tag k="addr:housenumber" v="5360"/>
    <tag k="addr:street" v="Vermont Route 15"/>
    <tag k="addr:state" v="VT"/>
    <tag k="ref:vcgi:esiteid" v="301234"/>
  </node>
  <node id="-666" visible="true" lat="44.53523292" lon="-72.44459897">
    <tag k="addr:city" v="Wolcott"/>
    <tag k="addr:housenumber" v="5390"/>
    <tag k="addr:street" v="Vermont Route 15"/>
    <tag k="addr:state" v="VT"/>
    <tag k="ref:vcgi:esiteid" v="301235"/>
  </node>
  <node id="-669" visible="true" lat="44.53510285" lon="-72.42945107">
    <tag k="addr:city" v="Wolcott"/>
    <tag k="addr:housenumber" v="6231"/>
    <tag k="addr:street" v="Vermont Route 15"/>
    <tag k="addr:state" v="VT"/>
    <tag k="ref:vcgi:esiteid" v="301238"/>
  </node>
  <node id="-671" visible="true" lat="44.53489304" lon="-72.42993172">
    <tag k="addr:city" v="Wolcott"/>
    <tag k="addr:housenumber" v="6233"/>
    <tag k="addr:street" v="Vermont Route 15"/>
    <tag k="addr:state" v="VT"/>
    <tag k="ref:vcgi:esiteid" v="301240"/>
  </node>
  <node id="-672" visible="true" lat="44.53474144" lon="-72.44311468">
    <tag k="addr:city" v="Wolcott"/>
    <tag k="addr:housenumber" v="5471"/>
    <tag k="addr:street" v="Vermont Route 15"/>
    <tag k="addr:state" v="VT"/>
    <tag k="ref:vcgi:esiteid" v="301241"/>
  </node>
  <node id="-673" visible="true" lat="44.53459549" lon="-72.45560464">
    <tag k="addr:city" v="Wolcott"/>
    <tag k="addr:housenumber" v="853"/>
    <tag k="addr:street" v="East Elmore Road"/>
    <tag k="addr:state" v="VT"/>
    <tag k="ref:vcgi:esiteid" v="301242"/>
  </node>
  <node id="-674" visible="true" lat="44.53441162" lon="-72.43079005">
    <tag k="addr:city" v="Wolcott"/>
    <tag k="addr:housenumber" v="6113"/>
    <tag k="addr:street" v="Vermont Route 15"/>
    <tag k="addr:state" v="VT"/>
    <tag k="ref:vcgi:esiteid" v="301243"/>
  </node>
  <node id="-675" visible="true" lat="44.53427458" lon="-72.43012575">
    <tag k="addr:city" v="Wolcott"/>
    <tag k="addr:housenumber" v="6141"/>
    <tag k="addr:street" v="Vermont Route 15"/>
    <tag k="addr:state" v="VT"/>
    <tag k="ref:vcgi:esiteid" v="301244"/>
  </node>
  <node id="-676" visible="true" lat="44.53415616" lon="-72.44360894">
    <tag k="addr:city" v="Wolcott"/>
    <tag k="addr:housenumber" v="5480"/>
    <tag k="addr:street" v="Vermont Route 15"/>
    <tag k="addr:state" v="VT"/>
    <tag k="ref:vcgi:esiteid" v="301245"/>
  </node>
  <node id="-677" visible="true" lat="44.53366477" lon="-72.43836841">
    <tag k="addr:city" v="Wolcott"/>
    <tag k="addr:housenumber" v="19"/>
    <tag k="addr:street" v="Turcotte Road"/>
    <tag k="addr:state" v="VT"/>
    <tag k="ref:vcgi:esiteid" v="301246"/>
  </node>
  <node id="-679" visible="true" lat="44.53350449" lon="-72.43931588">
    <tag k="addr:city" v="Wolcott"/>
    <tag k="addr:housenumber" v="16"/>
    <tag k="addr:street" v="Turcotte Road"/>
    <tag k="addr:state" v="VT"/>
    <tag k="ref:vcgi:esiteid" v="301248"/>
  </node>
  <node id="-680" visible="true" lat="44.53346103" lon="-72.43999023">
    <tag k="addr:city" v="Wolcott"/>
    <tag k="addr:housenumber" v="5640"/>
    <tag k="addr:street" v="Vermont Route 15"/>
    <tag k="addr:state" v="VT"/>
    <tag k="ref:vcgi:esiteid" v="301249"/>
  </node>
  <node id="-681" visible="true" lat="44.53338848" lon="-72.44144513">
    <tag k="addr:city" v="Wolcott"/>
    <tag k="addr:housenumber" v="5580"/>
    <tag k="addr:street" v="Vermont Route 15"/>
    <tag k="addr:state" v="VT"/>
    <tag k="ref:vcgi:esiteid" v="301250"/>
  </node>
  <node id="-682" visible="true" lat="44.53305097" lon="-72.44130777">
    <tag k="addr:city" v="Wolcott"/>
    <tag k="addr:housenumber" v="5590"/>
    <tag k="addr:street" v="Vermont Route 15"/>
    <tag k="addr:state" v="VT"/>
    <tag k="ref:vcgi:esiteid" v="301251"/>
  </node>
  <node id="-683" visible="true" lat="44.53339005" lon="-72.43832406">
    <tag k="addr:city" v="Wolcott"/>
    <tag k="addr:housenumber" v="31"/>
    <tag k="addr:street" v="Turcotte Road"/>
    <tag k="addr:state" v="VT"/>
    <tag k="ref:vcgi:esiteid" v="301252"/>
  </node>
  <node id="-684" visible="true" lat="44.53316738" lon="-72.44293039">
    <tag k="addr:city" v="Wolcott"/>
    <tag k="addr:housenumber" v="5524"/>
    <tag k="addr:street" v="Vermont Route 15"/>
    <tag k="addr:state" v="VT"/>
    <tag k="ref:vcgi:esiteid" v="301253"/>
  </node>
  <node id="-687" visible="true" lat="44.53287611" lon="-72.43922756">
    <tag k="addr:city" v="Wolcott"/>
    <tag k="addr:housenumber" v="56"/>
    <tag k="addr:street" v="Turcotte Road"/>
    <tag k="addr:state" v="VT"/>
    <tag k="ref:vcgi:esiteid" v="301256"/>
  </node>
  <node id="-688" visible="true" lat="44.53291947" lon="-72.44054122">
    <tag k="addr:city" v="Wolcott"/>
    <tag k="addr:housenumber" v="68"/>
    <tag k="addr:street" v="Gilmar Lane"/>
    <tag k="addr:state" v="VT"/>
    <tag k="ref:vcgi:esiteid" v="301257"/>
  </node>
  <node id="-689" visible="true" lat="44.53264071" lon="-72.43962194">
    <tag k="addr:city" v="Wolcott"/>
    <tag k="addr:housenumber" v="71"/>
    <tag k="addr:street" v="Gilmar Lane"/>
    <tag k="addr:state" v="VT"/>
    <tag k="ref:vcgi:esiteid" v="301258"/>
  </node>
  <node id="-690" visible="true" lat="44.53230286" lon="-72.45740517">
    <tag k="addr:city" v="Wolcott"/>
    <tag k="addr:housenumber" v="1016"/>
    <tag k="addr:street" v="East Elmore Road"/>
    <tag k="addr:state" v="VT"/>
    <tag k="ref:vcgi:esiteid" v="301259"/>
  </node>
  <node id="-691" visible="true" lat="44.53243838" lon="-72.44052324">
    <tag k="addr:city" v="Wolcott"/>
    <tag k="addr:housenumber" v="140"/>
    <tag k="addr:street" v="Gilmar Lane"/>
    <tag k="addr:state" v="VT"/>
    <tag k="ref:vcgi:esiteid" v="301260"/>
  </node>
  <node id="-692" visible="true" lat="44.53176099" lon="-72.43953844">
    <tag k="addr:city" v="Wolcott"/>
    <tag k="addr:housenumber" v="138"/>
    <tag k="addr:street" v="Turcotte Road"/>
    <tag k="addr:state" v="VT"/>
    <tag k="ref:vcgi:esiteid" v="301261"/>
  </node>
  <node id="-694" visible="true" lat="44.53109094" lon="-72.4385973">
    <tag k="addr:city" v="Wolcott"/>
    <tag k="addr:housenumber" v="13"/>
    <tag k="addr:street" v="Friendly Lane"/>
    <tag k="addr:state" v="VT"/>
    <tag k="ref:vcgi:esiteid" v="301263"/>
  </node>
  <node id="-695" visible="true" lat="44.53048706" lon="-72.42504891">
    <tag k="addr:city" v="Wolcott"/>
    <tag k="addr:housenumber" v="6538"/>
    <tag k="addr:street" v="Vermont Route 15"/>
    <tag k="addr:state" v="VT"/>
    <tag k="ref:vcgi:esiteid" v="301264"/>
  </node>
  <node id="-696" visible="true" lat="44.52994919" lon="-72.42434701">
    <tag k="addr:city" v="Wolcott"/>
    <tag k="addr:housenumber" v="6582"/>
    <tag k="addr:street" v="Vermont Route 15"/>
    <tag k="addr:state" v="VT"/>
    <tag k="ref:vcgi:esiteid" v="301266"/>
  </node>
  <node id="-697" visible="true" lat="44.52946741" lon="-72.45857786">
    <tag k="addr:city" v="Wolcott"/>
    <tag k="addr:housenumber" v="1219"/>
    <tag k="addr:street" v="East Elmore Road"/>
    <tag k="addr:state" v="VT"/>
    <tag k="ref:vcgi:esiteid" v="301267"/>
  </node>
  <node id="-702" visible="true" lat="44.52772782" lon="-72.45198116">
    <tag k="addr:city" v="Wolcott"/>
    <tag k="addr:housenumber" v="191"/>
    <tag k="addr:street" v="Grant Lane"/>
    <tag k="addr:state" v="VT"/>
    <tag k="ref:vcgi:esiteid" v="301272"/>
  </node>
  <node id="-703" visible="true" lat="44.52703094" lon="-72.44841012">
    <tag k="addr:city" v="Wolcott"/>
    <tag k="addr:housenumber" v="1330"/>
    <tag k="addr:street" v="Gates Farm Road"/>
    <tag k="addr:state" v="VT"/>
    <tag k="ref:vcgi:esiteid" v="301273"/>
  </node>
  <node id="-705" visible="true" lat="44.5262146" lon="-72.44788369">
    <tag k="addr:city" v="Wolcott"/>
    <tag k="addr:housenumber" v="1328"/>
    <tag k="addr:street" v="Gates Farm Road"/>
    <tag k="addr:state" v="VT"/>
    <tag k="ref:vcgi:esiteid" v="301276"/>
  </node>
  <node id="-706" visible="true" lat="44.52633048" lon="-72.41975888">
    <tag k="addr:city" v="Wolcott"/>
    <tag k="addr:housenumber" v="6937"/>
    <tag k="addr:street" v="Vermont Route 15"/>
    <tag k="addr:state" v="VT"/>
    <tag k="ref:vcgi:esiteid" v="301277"/>
  </node>
  <node id="-709" visible="true" lat="44.52518475" lon="-72.41898903">
    <tag k="addr:city" v="Wolcott"/>
    <tag k="addr:housenumber" v="7013"/>
    <tag k="addr:street" v="Vermont Route 15"/>
    <tag k="addr:state" v="VT"/>
    <tag k="ref:vcgi:esiteid" v="301280"/>
  </node>
  <node id="-712" visible="true" lat="44.52162552" lon="-72.45034035">
    <tag k="addr:city" v="Wolcott"/>
    <tag k="addr:housenumber" v="1029"/>
    <tag k="addr:street" v="Gates Farm Road"/>
    <tag k="addr:state" v="VT"/>
    <tag k="ref:vcgi:esiteid" v="301283"/>
  </node>
  <node id="-715" visible="true" lat="44.55071948" lon="-72.51147769">
    <tag k="addr:city" v="Wolcott"/>
    <tag k="addr:housenumber" v="127"/>
    <tag k="addr:street" v="Wing Road"/>
    <tag k="addr:state" v="VT"/>
    <tag k="ref:vcgi:esiteid" v="301286"/>
  </node>
  <node id="-716" visible="true" lat="44.53470041" lon="-72.43705667">
    <tag k="addr:city" v="Wolcott"/>
    <tag k="addr:housenumber" v="5827"/>
    <tag k="addr:street" v="Vermont Route 15"/>
    <tag k="addr:state" v="VT"/>
    <tag k="ref:vcgi:esiteid" v="301287"/>
  </node>
  <node id="-717" visible="true" lat="44.55212121" lon="-72.43708056">
    <tag k="addr:city" v="Wolcott"/>
    <tag k="addr:housenumber" v="106"/>
    <tag k="addr:street" v="Marsh Road"/>
    <tag k="addr:state" v="VT"/>
    <tag k="ref:vcgi:esiteid" v="301288"/>
  </node>
  <node id="-721" visible="true" lat="44.53641481" lon="-72.43418806">
    <tag k="addr:city" v="Wolcott"/>
    <tag k="addr:housenumber" v="5927"/>
    <tag k="addr:street" v="Vermont Route 15"/>
    <tag k="addr:state" v="VT"/>
    <tag k="ref:vcgi:esiteid" v="301292"/>
  </node>
  <node id="-722" visible="true" lat="44.56072235" lon="-72.47617348">
    <tag k="addr:city" v="Wolcott"/>
    <tag k="addr:housenumber" v="48"/>
    <tag k="addr:street" v="Dump Road"/>
    <tag k="addr:state" v="VT"/>
    <tag k="ref:vcgi:esiteid" v="301293"/>
  </node>
  <node id="-725" visible="true" lat="44.55732762" lon="-72.52320694">
    <tag k="addr:city" v="Wolcott"/>
    <tag k="addr:housenumber" v="193"/>
    <tag k="addr:street" v="Walnut Lane"/>
    <tag k="addr:state" v="VT"/>
    <tag k="ref:vcgi:esiteid" v="301296"/>
  </node>
  <node id="-726" visible="true" lat="44.56369781" lon="-72.41825875">
    <tag k="addr:city" v="Wolcott"/>
    <tag k="addr:housenumber" v="100"/>
    <tag k="addr:street" v="Wolcott Pond Road"/>
    <tag k="addr:state" v="VT"/>
    <tag k="ref:vcgi:esiteid" v="301297"/>
  </node>
  <node id="-730" visible="true" lat="44.53570949" lon="-72.4376713">
    <tag k="addr:city" v="Wolcott"/>
    <tag k="addr:housenumber" v="46"/>
    <tag k="addr:street" v="Pinnacle Lane"/>
    <tag k="addr:state" v="VT"/>
    <tag k="ref:vcgi:esiteid" v="301301"/>
  </node>
  <node id="-733" visible="true" lat="44.54308319" lon="-72.48509987">
    <tag k="addr:city" v="Wolcott"/>
    <tag k="addr:housenumber" v="956"/>
    <tag k="addr:street" v="Elmore Pond Road"/>
    <tag k="addr:state" v="VT"/>
    <tag k="ref:vcgi:esiteid" v="301304"/>
  </node>
  <node id="-734" visible="true" lat="44.542987" lon="-72.48675213">
    <tag k="addr:city" v="Wolcott"/>
    <tag k="addr:housenumber" v="998"/>
    <tag k="addr:street" v="Elmore Pond Road"/>
    <tag k="addr:state" v="VT"/>
    <tag k="ref:vcgi:esiteid" v="301305"/>
  </node>
  <node id="-738" visible="true" lat="44.55272292" lon="-72.5216488">
    <tag k="addr:city" v="Wolcott"/>
    <tag k="addr:housenumber" v="560"/>
    <tag k="addr:street" v="Richard Woolcutt Road"/>
    <tag k="addr:state" v="VT"/>
    <tag k="ref:vcgi:esiteid" v="301309"/>
  </node>
  <node id="-739" visible="true" lat="44.5777061" lon="-72.42468492">
    <tag k="addr:city" v="Wolcott"/>
    <tag k="addr:housenumber" v="1449"/>
    <tag k="addr:street" v="Cross Road"/>
    <tag k="addr:state" v="VT"/>
    <tag k="ref:vcgi:esiteid" v="301310"/>
  </node>
  <node id="-740" visible="true" lat="44.54610595" lon="-72.45691668">
    <tag k="addr:city" v="Wolcott"/>
    <tag k="addr:housenumber" v="4362"/>
    <tag k="addr:street" v="Vermont Route 15"/>
    <tag k="addr:state" v="VT"/>
    <tag k="ref:vcgi:esiteid" v="301311"/>
  </node>
  <node id="-742" visible="true" lat="44.56295258" lon="-72.43214967">
    <tag k="addr:city" v="Wolcott"/>
    <tag k="addr:housenumber" v="1910"/>
    <tag k="addr:street" v="East Hill Road"/>
    <tag k="addr:state" v="VT"/>
    <tag k="ref:vcgi:esiteid" v="301313"/>
  </node>
  <node id="-743" visible="true" lat="44.54341234" lon="-72.4582739">
    <tag k="addr:city" v="Wolcott"/>
    <tag k="addr:housenumber" v="244"/>
    <tag k="addr:street" v="School Street"/>
    <tag k="addr:state" v="VT"/>
    <tag k="ref:vcgi:esiteid" v="301314"/>
  </node>
  <node id="-746" visible="true" lat="44.552744" lon="-72.47457071">
    <tag k="addr:city" v="Wolcott"/>
    <tag k="addr:housenumber" v="3321"/>
    <tag k="addr:street" v="Vermont Route 15"/>
    <tag k="addr:state" v="VT"/>
    <tag k="ref:vcgi:esiteid" v="301317"/>
  </node>
  <node id="-749" visible="true" lat="44.55614356" lon="-72.51675489">
    <tag k="addr:city" v="Wolcott"/>
    <tag k="addr:housenumber" v="669"/>
    <tag k="addr:street" v="Brookview Lane"/>
    <tag k="addr:state" v="VT"/>
    <tag k="ref:vcgi:esiteid" v="301320"/>
  </node>
  <node id="-751" visible="true" lat="44.56099041" lon="-72.43621672">
    <tag k="addr:city" v="Wolcott"/>
    <tag k="addr:housenumber" v="1673"/>
    <tag k="addr:street" v="East Hill Road"/>
    <tag k="addr:state" v="VT"/>
    <tag k="ref:vcgi:esiteid" v="301322"/>
  </node>
  <node id="-756" visible="true" lat="44.6098252" lon="-72.43271973">
    <tag k="addr:city" v="Wolcott"/>
    <tag k="addr:housenumber" v="4515"/>
    <tag k="addr:street" v="Town Hill Road"/>
    <tag k="addr:state" v="VT"/>
    <tag k="ref:vcgi:esiteid" v="301327"/>
  </node>
  <node id="-759" visible="true" lat="44.5370943" lon="-72.43977545">
    <tag k="addr:city" v="Wolcott"/>
    <tag k="addr:housenumber" v="293"/>
    <tag k="addr:street" v="Pinnacle Lane"/>
    <tag k="addr:state" v="VT"/>
    <tag k="ref:vcgi:esiteid" v="301330"/>
  </node>
  <node id="-760" visible="true" lat="44.53566704" lon="-72.44110814">
    <tag k="addr:city" v="Wolcott"/>
    <tag k="addr:housenumber" v="169"/>
    <tag k="addr:street" v="Pinnacle Lane"/>
    <tag k="addr:state" v="VT"/>
    <tag k="ref:vcgi:esiteid" v="301332"/>
  </node>
  <node id="-761" visible="true" lat="44.53485855" lon="-72.44111474">
    <tag k="addr:city" v="Wolcott"/>
    <tag k="addr:housenumber" v="103"/>
    <tag k="addr:street" v="Pinnacle Lane"/>
    <tag k="addr:state" v="VT"/>
    <tag k="ref:vcgi:esiteid" v="301333"/>
  </node>
  <node id="-763" visible="true" lat="44.61953731" lon="-72.47795692">
    <tag k="addr:city" v="Wolcott"/>
    <tag k="addr:housenumber" v="1493"/>
    <tag k="addr:street" v="Baldwin Brook Road"/>
    <tag k="addr:state" v="VT"/>
    <tag k="ref:vcgi:esiteid" v="301335"/>
  </node>
  <node id="-764" visible="true" lat="44.55372798" lon="-72.52232248">
    <tag k="addr:city" v="Wolcott"/>
    <tag k="addr:housenumber" v="598"/>
    <tag k="addr:street" v="Richard Woolcutt Road"/>
    <tag k="addr:state" v="VT"/>
    <tag k="ref:vcgi:esiteid" v="301336"/>
  </node>
  <node id="-768" visible="true" lat="44.55216587" lon="-72.44030058">
    <tag k="addr:city" v="Wolcott"/>
    <tag k="addr:housenumber" v="1074"/>
    <tag k="addr:street" v="East Hill Road"/>
    <tag k="addr:state" v="VT"/>
    <tag k="ref:vcgi:esiteid" v="301341"/>
  </node>
  <node id="-769" visible="true" lat="44.55108002" lon="-72.52299374">
    <tag k="addr:city" v="Wolcott"/>
    <tag k="addr:housenumber" v="449"/>
    <tag k="addr:street" v="Richard Woolcutt Road"/>
    <tag k="addr:state" v="VT"/>
    <tag k="ref:vcgi:esiteid" v="301342"/>
  </node>
  <node id="-770" visible="true" lat="44.56696526" lon="-72.42197835">
    <tag k="addr:city" v="Wolcott"/>
    <tag k="addr:housenumber" v="150"/>
    <tag k="addr:street" v="Keeler Pond Road"/>
    <tag k="addr:state" v="VT"/>
    <tag k="ref:vcgi:esiteid" v="301343"/>
  </node>
  <node id="-771" visible="true" lat="44.56775903" lon="-72.42034599">
    <tag k="addr:city" v="Wolcott"/>
    <tag k="addr:housenumber" v="154"/>
    <tag k="addr:street" v="Keeler Pond Road"/>
    <tag k="addr:state" v="VT"/>
    <tag k="ref:vcgi:esiteid" v="301344"/>
  </node>
  <node id="-772" visible="true" lat="44.55628145" lon="-72.52261739">
    <tag k="addr:city" v="Wolcott"/>
    <tag k="addr:housenumber" v="191"/>
    <tag k="addr:street" v="Walnut Lane"/>
    <tag k="addr:state" v="VT"/>
    <tag k="ref:vcgi:esiteid" v="301345"/>
  </node>
  <node id="-777" visible="true" lat="44.55830447" lon="-72.43985764">
    <tag k="addr:city" v="Wolcott"/>
    <tag k="addr:housenumber" v="1455"/>
    <tag k="addr:street" v="East Hill Road"/>
    <tag k="addr:state" v="VT"/>
    <tag k="ref:vcgi:esiteid" v="301350"/>
  </node>
  <node id="-787" visible="true" lat="44.55656738" lon="-72.51670863">
    <tag k="addr:city" v="Wolcott"/>
    <tag k="addr:housenumber" v="685"/>
    <tag k="addr:street" v="Brookview Lane"/>
    <tag k="addr:state" v="VT"/>
    <tag k="ref:vcgi:esiteid" v="301364"/>
  </node>
  <node id="-788" visible="true" lat="44.55577297" lon="-72.51693297">
    <tag k="addr:city" v="Wolcott"/>
    <tag k="addr:housenumber" v="625"/>
    <tag k="addr:street" v="Brookview Lane"/>
    <tag k="addr:state" v="VT"/>
    <tag k="ref:vcgi:esiteid" v="301365"/>
  </node>
  <node id="-789" visible="true" lat="44.55946386" lon="-72.49859429">
    <tag k="addr:city" v="Wolcott"/>
    <tag k="addr:housenumber" v="368"/>
    <tag k="addr:street" v="Corley Road"/>
    <tag k="addr:state" v="VT"/>
    <tag k="ref:vcgi:esiteid" v="301366"/>
  </node>
  <node id="-793" visible="true" lat="44.56723292" lon="-72.4967142">
    <tag k="addr:city" v="Wolcott"/>
    <tag k="addr:housenumber" v="184"/>
    <tag k="addr:street" v="Independence Drive"/>
    <tag k="addr:state" v="VT"/>
    <tag k="ref:vcgi:esiteid" v="301370"/>
  </node>
  <node id="-795" visible="true" lat="44.5502752" lon="-72.52052838">
    <tag k="addr:city" v="Wolcott"/>
    <tag k="addr:housenumber" v="370"/>
    <tag k="addr:street" v="Richard Woolcutt Road"/>
    <tag k="addr:state" v="VT"/>
    <tag k="ref:vcgi:esiteid" v="301372"/>
  </node>
  <node id="-796" visible="true" lat="44.56990481" lon="-72.43416345">
    <tag k="addr:city" v="Wolcott"/>
    <tag k="addr:housenumber" v="126"/>
    <tag k="addr:street" v="Pond Brook Lane"/>
    <tag k="addr:state" v="VT"/>
    <tag k="ref:vcgi:esiteid" v="301373"/>
  </node>
  <node id="-797" visible="true" lat="44.58207688" lon="-72.45097724">
    <tag k="addr:city" v="Wolcott"/>
    <tag k="addr:housenumber" v="2358"/>
    <tag k="addr:street" v="Town Hill Road"/>
    <tag k="addr:state" v="VT"/>
    <tag k="ref:vcgi:esiteid" v="301374"/>
  </node>
  <node id="-798" visible="true" lat="44.58147063" lon="-72.4887718">
    <tag k="addr:city" v="Wolcott"/>
    <tag k="addr:housenumber" v="996"/>
    <tag k="addr:street" v="West Hill Road"/>
    <tag k="addr:state" v="VT"/>
    <tag k="ref:vcgi:esiteid" v="301375"/>
  </node>
  <node id="-806" visible="true" lat="44.547476" lon="-72.45877392">
    <tag k="addr:city" v="Wolcott"/>
    <tag k="addr:housenumber" v="4215"/>
    <tag k="addr:street" v="Vermont Route 15"/>
    <tag k="addr:state" v="VT"/>
    <tag k="ref:vcgi:esiteid" v="301383"/>
  </node>
  <node id="-807" visible="true" lat="44.57997629" lon="-72.44767789">
    <tag k="addr:city" v="Wolcott"/>
    <tag k="addr:housenumber" v="2322"/>
    <tag k="addr:street" v="Town Hill Road"/>
    <tag k="addr:state" v="VT"/>
    <tag k="ref:vcgi:esiteid" v="301384"/>
  </node>
  <node id="-809" visible="true" lat="44.54825339" lon="-72.48295419">
    <tag k="addr:city" v="Wolcott"/>
    <tag k="addr:housenumber" v="524"/>
    <tag k="addr:street" v="Elmore Pond Road"/>
    <tag k="addr:state" v="VT"/>
    <tag k="ref:vcgi:esiteid" v="301386"/>
  </node>
  <node id="-815" visible="true" lat="44.58754448" lon="-72.49295215">
    <tag k="addr:city" v="Wolcott"/>
    <tag k="addr:housenumber" v="316"/>
    <tag k="addr:street" v="Jones Lane"/>
    <tag k="addr:state" v="VT"/>
    <tag k="ref:vcgi:esiteid" v="301392"/>
  </node>
  <node id="-816" visible="true" lat="44.53613883" lon="-72.43711905">
    <tag k="addr:city" v="Wolcott"/>
    <tag k="addr:housenumber" v="339"/>
    <tag k="addr:street" v="Pinnacle Lane"/>
    <tag k="addr:state" v="VT"/>
    <tag k="ref:vcgi:esiteid" v="301393"/>
  </node>
  <node id="-817" visible="true" lat="44.59088181" lon="-72.48674616">
    <tag k="addr:city" v="Wolcott"/>
    <tag k="addr:housenumber" v="1762"/>
    <tag k="addr:street" v="West Hill Road"/>
    <tag k="addr:state" v="VT"/>
    <tag k="ref:vcgi:esiteid" v="301394"/>
  </node>
  <node id="-819" visible="true" lat="44.59872748" lon="-72.47134598">
    <tag k="addr:city" v="Wolcott"/>
    <tag k="addr:housenumber" v="111"/>
    <tag k="addr:street" v="Hidden Acres"/>
    <tag k="addr:state" v="VT"/>
    <tag k="ref:vcgi:esiteid" v="301396"/>
  </node>
  <node id="-821" visible="true" lat="44.55678437" lon="-72.4307727">
    <tag k="addr:city" v="Wolcott"/>
    <tag k="addr:housenumber" v="312"/>
    <tag k="addr:street" v="Allen Road"/>
    <tag k="addr:state" v="VT"/>
    <tag k="ref:vcgi:esiteid" v="301398"/>
  </node>
  <node id="-822" visible="true" lat="44.55476886" lon="-72.43856928">
    <tag k="addr:city" v="Wolcott"/>
    <tag k="addr:housenumber" v="71"/>
    <tag k="addr:street" v="Marsh Road"/>
    <tag k="addr:state" v="VT"/>
    <tag k="ref:vcgi:esiteid" v="301399"/>
  </node>
  <node id="-823" visible="true" lat="44.53796077" lon="-72.48019381">
    <tag k="addr:city" v="Wolcott"/>
    <tag k="addr:housenumber" v="1333"/>
    <tag k="addr:street" v="Elmore Pond Road"/>
    <tag k="addr:state" v="VT"/>
    <tag k="ref:vcgi:esiteid" v="301400"/>
  </node>
  <node id="-825" visible="true" lat="44.55451582" lon="-72.52870818">
    <tag k="addr:city" v="Wolcott"/>
    <tag k="addr:housenumber" v="936"/>
    <tag k="addr:street" v="Richard Woolcutt Road"/>
    <tag k="addr:state" v="VT"/>
    <tag k="ref:vcgi:esiteid" v="301402"/>
  </node>
  <node id="-827" visible="true" lat="44.59537971" lon="-72.47403318">
    <tag k="addr:city" v="Wolcott"/>
    <tag k="addr:housenumber" v="2749"/>
    <tag k="addr:street" v="North Wolcott Road"/>
    <tag k="addr:state" v="VT"/>
    <tag k="ref:vcgi:esiteid" v="301404"/>
  </node>
  <node id="-828" visible="true" lat="44.56022689" lon="-72.47711179">
    <tag k="addr:city" v="Wolcott"/>
    <tag k="addr:housenumber" v="142"/>
    <tag k="addr:street" v="Dump Road"/>
    <tag k="addr:state" v="VT"/>
    <tag k="ref:vcgi:esiteid" v="301405"/>
  </node>
  <node id="-829" visible="true" lat="44.53597839" lon="-72.44024436">
    <tag k="addr:city" v="Wolcott"/>
    <tag k="addr:housenumber" v="202"/>
    <tag k="addr:street" v="Pinnacle Lane"/>
    <tag k="addr:state" v="VT"/>
    <tag k="ref:vcgi:esiteid" v="301406"/>
  </node>
  <node id="-830" visible="true" lat="44.53542062" lon="-72.44013993">
    <tag k="addr:city" v="Wolcott"/>
    <tag k="addr:housenumber" v="192"/>
    <tag k="addr:street" v="Pinnacle Lane"/>
    <tag k="addr:state" v="VT"/>
    <tag k="ref:vcgi:esiteid" v="301407"/>
  </node>
  <node id="-833" visible="true" lat="44.6085607" lon="-72.46279847">
    <tag k="addr:city" v="Wolcott"/>
    <tag k="addr:housenumber" v="3870"/>
    <tag k="addr:street" v="North Wolcott Road"/>
    <tag k="addr:state" v="VT"/>
    <tag k="ref:vcgi:esiteid" v="301410"/>
  </node>
  <node id="-834" visible="true" lat="44.55311803" lon="-72.49792631">
    <tag k="addr:city" v="Wolcott"/>
    <tag k="addr:housenumber" v="804"/>
    <tag k="addr:street" v="Corley Road"/>
    <tag k="addr:state" v="VT"/>
    <tag k="ref:vcgi:esiteid" v="301411"/>
  </node>
  <node id="-837" visible="true" lat="44.60987954" lon="-72.4566447">
    <tag k="addr:city" v="Wolcott"/>
    <tag k="addr:housenumber" v="191"/>
    <tag k="addr:street" v="Anthonys Lane"/>
    <tag k="addr:state" v="VT"/>
    <tag k="ref:vcgi:esiteid" v="306239"/>
  </node>
  <node id="-840" visible="true" lat="44.55122175" lon="-72.52088734">
    <tag k="addr:city" v="Wolcott"/>
    <tag k="addr:housenumber" v="432"/>
    <tag k="addr:street" v="Richard Woolcutt Road"/>
    <tag k="addr:state" v="VT"/>
    <tag k="ref:vcgi:esiteid" v="309175"/>
  </node>
  <node id="-843" visible="true" lat="44.53210229" lon="-72.43777862">
    <tag k="addr:city" v="Wolcott"/>
    <tag k="addr:housenumber" v="12"/>
    <tag k="addr:street" v="Sunny Meadow Lane"/>
    <tag k="addr:state" v="VT"/>
    <tag k="ref:vcgi:esiteid" v="310929"/>
  </node>
  <node id="-845" visible="true" lat="44.60982748" lon="-72.45926067">
    <tag k="addr:city" v="Wolcott"/>
    <tag k="addr:housenumber" v="164"/>
    <tag k="addr:street" v="Anthonys Lane"/>
    <tag k="addr:state" v="VT"/>
    <tag k="ref:vcgi:esiteid" v="313552"/>
  </node>
  <node id="-853" visible="true" lat="44.56774629" lon="-72.42830743">
    <tag k="addr:city" v="Wolcott"/>
    <tag k="addr:housenumber" v="2324"/>
    <tag k="addr:street" v="East Hill Road"/>
    <tag k="addr:state" v="VT"/>
    <tag k="ref:vcgi:esiteid" v="316072"/>
  </node>
  <node id="-855" visible="true" lat="44.57563762" lon="-72.51358364">
    <tag k="addr:city" v="Wolcott"/>
    <tag k="addr:housenumber" v="937"/>
    <tag k="addr:street" v="Copper Mine Road"/>
    <tag k="addr:state" v="VT"/>
    <tag k="ref:vcgi:esiteid" v="317580"/>
  </node>
  <node id="-856" visible="true" lat="44.57960817" lon="-72.42871314">
    <tag k="addr:city" v="Wolcott"/>
    <tag k="addr:housenumber" v="1227"/>
    <tag k="addr:street" v="Cross Road"/>
    <tag k="addr:state" v="VT"/>
    <tag k="ref:vcgi:esiteid" v="318132"/>
  </node>
  <node id="-857" visible="true" lat="44.61412991" lon="-72.45675746">
    <tag k="addr:city" v="Wolcott"/>
    <tag k="addr:housenumber" v="295"/>
    <tag k="addr:street" v="Reed Road"/>
    <tag k="addr:state" v="VT"/>
    <tag k="ref:vcgi:esiteid" v="325229"/>
  </node>
  <node id="-860" visible="true" lat="44.56840781" lon="-72.48238697">
    <tag k="addr:city" v="Wolcott"/>
    <tag k="addr:housenumber" v="11"/>
    <tag k="addr:street" v="West Hill Road"/>
    <tag k="addr:state" v="VT"/>
    <tag k="ref:vcgi:esiteid" v="326872"/>
  </node>
  <node id="-861" visible="true" lat="44.57902208" lon="-72.42862536">
    <tag k="addr:city" v="Wolcott"/>
    <tag k="addr:housenumber" v="1298"/>
    <tag k="addr:street" v="Cross Road"/>
    <tag k="addr:state" v="VT"/>
    <tag k="ref:vcgi:esiteid" v="327683"/>
  </node>
  <node id="-862" visible="true" lat="44.61062254" lon="-72.4656866">
    <tag k="addr:city" v="Wolcott"/>
    <tag k="addr:housenumber" v="198"/>
    <tag k="addr:street" v="Autumn Lane"/>
    <tag k="addr:state" v="VT"/>
    <tag k="ref:vcgi:esiteid" v="328169"/>
  </node>
  <node id="-863" visible="true" lat="44.60796347" lon="-72.45920176">
    <tag k="addr:city" v="Wolcott"/>
    <tag k="addr:housenumber" v="132"/>
    <tag k="addr:street" v="Anthonys Lane"/>
    <tag k="addr:state" v="VT"/>
    <tag k="ref:vcgi:esiteid" v="328170"/>
  </node>
  <node id="-864" visible="true" lat="44.5570991" lon="-72.51669732">
    <tag k="addr:city" v="Wolcott"/>
    <tag k="addr:housenumber" v="717"/>
    <tag k="addr:street" v="Brookview Lane"/>
    <tag k="addr:state" v="VT"/>
    <tag k="ref:vcgi:esiteid" v="328376"/>
  </node>
  <node id="-865" visible="true" lat="44.61647644" lon="-72.44738813">
    <tag k="addr:city" v="Wolcott"/>
    <tag k="addr:housenumber" v="77"/>
    <tag k="addr:street" v="Penny Lane"/>
    <tag k="addr:state" v="VT"/>
    <tag k="ref:vcgi:esiteid" v="328377"/>
  </node>
  <node id="-866" visible="true" lat="44.58587146" lon="-72.40356901">
    <tag k="addr:city" v="Wolcott"/>
    <tag k="addr:housenumber" v="1283"/>
    <tag k="addr:street" v="Keeler Pond Road"/>
    <tag k="addr:state" v="VT"/>
    <tag k="ref:vcgi:esiteid" v="328378"/>
  </node>
  <node id="-867" visible="true" lat="44.53492057" lon="-72.43111649">
    <tag k="addr:city" v="Wolcott"/>
    <tag k="addr:housenumber" v="10"/>
    <tag k="addr:street" v="Fisher Bridge Drive"/>
    <tag k="addr:state" v="VT"/>
    <tag k="ref:vcgi:esiteid" v="328582"/>
  </node>
  <node id="-868" visible="true" lat="44.5354922" lon="-72.43170998">
    <tag k="addr:city" v="Wolcott"/>
    <tag k="addr:housenumber" v="60"/>
    <tag k="addr:street" v="Fisher Bridge Drive"/>
    <tag k="addr:state" v="VT"/>
    <tag k="ref:vcgi:esiteid" v="328583"/>
  </node>
  <node id="-869" visible="true" lat="44.54835872" lon="-72.48124752">
    <tag k="addr:city" v="Wolcott"/>
    <tag k="addr:housenumber" v="515"/>
    <tag k="addr:street" v="Elmore Pond Road"/>
    <tag k="addr:state" v="VT"/>
    <tag k="ref:vcgi:esiteid" v="329240"/>
  </node>
  <node id="-871" visible="true" lat="44.59525657" lon="-72.48354379">
    <tag k="addr:city" v="Wolcott"/>
    <tag k="addr:housenumber" v="1976"/>
    <tag k="addr:street" v="West Hill Road"/>
    <tag k="addr:state" v="VT"/>
    <tag k="ref:vcgi:esiteid" v="331887"/>
  </node>
  <node id="-872" visible="true" lat="44.59651776" lon="-72.47230415">
    <tag k="addr:city" v="Wolcott"/>
    <tag k="addr:housenumber" v="28"/>
    <tag k="addr:street" v="Hidden Acres"/>
    <tag k="addr:state" v="VT"/>
    <tag k="ref:vcgi:esiteid" v="331955"/>
  </node>
  <node id="-874" visible="true" lat="44.53299592" lon="-72.43795883">
    <tag k="addr:city" v="Wolcott"/>
    <tag k="addr:housenumber" v="7"/>
    <tag k="addr:street" v="Sunny Meadow Lane"/>
    <tag k="addr:state" v="VT"/>
    <tag k="ref:vcgi:esiteid" v="333194"/>
  </node>
  <node id="-875" visible="true" lat="44.54457095" lon="-72.45805584">
    <tag k="addr:city" v="Wolcott"/>
    <tag k="addr:housenumber" v="140"/>
    <tag k="addr:street" v="School Street"/>
    <tag k="addr:state" v="VT"/>
    <tag k="ref:vcgi:esiteid" v="333195"/>
  </node>
  <node id="-876" visible="true" lat="44.544226" lon="-72.45852217">
    <tag k="addr:city" v="Wolcott"/>
    <tag k="addr:housenumber" v="46"/>
    <tag k="addr:street" v="Railroad Street"/>
    <tag k="addr:state" v="VT"/>
    <tag k="ref:vcgi:esiteid" v="333196"/>
  </node>
  <node id="-878" visible="true" lat="44.52587408" lon="-72.43427492">
    <tag k="addr:city" v="Wolcott"/>
    <tag k="addr:housenumber" v="605"/>
    <tag k="addr:street" v="Turcotte Road"/>
    <tag k="addr:state" v="VT"/>
    <tag k="ref:vcgi:esiteid" v="335211"/>
  </node>
  <node id="-879" visible="true" lat="44.57744569" lon="-72.40953149">
    <tag k="addr:city" v="Wolcott"/>
    <tag k="addr:housenumber" v="1002"/>
    <tag k="addr:street" v="Keeler Pond Road"/>
    <tag k="addr:state" v="VT"/>
    <tag k="ref:vcgi:esiteid" v="335215"/>
  </node>
  <node id="-880" visible="true" lat="44.55633679" lon="-72.43406681">
    <tag k="addr:city" v="Wolcott"/>
    <tag k="addr:housenumber" v="126"/>
    <tag k="addr:street" v="Fox Meadow Lane"/>
    <tag k="addr:state" v="VT"/>
    <tag k="ref:vcgi:esiteid" v="335419"/>
  </node>
  <node id="-881" visible="true" lat="44.5856781" lon="-72.42056282">
    <tag k="addr:city" v="Wolcott"/>
    <tag k="addr:housenumber" v="3700"/>
    <tag k="addr:street" v="East Hill Road"/>
    <tag k="addr:state" v="VT"/>
    <tag k="ref:vcgi:esiteid" v="335420"/>
  </node>
  <node id="-882" visible="true" lat="44.56137433" lon="-72.43608106">
    <tag k="addr:city" v="Wolcott"/>
    <tag k="addr:housenumber" v="1689"/>
    <tag k="addr:street" v="East Hill Road"/>
    <tag k="addr:state" v="VT"/>
    <tag k="ref:vcgi:esiteid" v="335421"/>
  </node>
  <node id="-883" visible="true" lat="44.53491409" lon="-72.45816308">
    <tag k="addr:city" v="Wolcott"/>
    <tag k="addr:housenumber" v="850"/>
    <tag k="addr:street" v="East Elmore Road"/>
    <tag k="addr:state" v="VT"/>
    <tag k="ref:vcgi:esiteid" v="335422"/>
  </node>
  <node id="-886" visible="true" lat="44.58029687" lon="-72.42992573">
    <tag k="addr:city" v="Wolcott"/>
    <tag k="addr:housenumber" v="1129"/>
    <tag k="addr:street" v="Cross Road"/>
    <tag k="addr:state" v="VT"/>
    <tag k="ref:vcgi:esiteid" v="337390"/>
  </node>
  <node id="-894" visible="true" lat="44.55682232" lon="-72.42916549">
    <tag k="addr:city" v="Wolcott"/>
    <tag k="addr:housenumber" v="360"/>
    <tag k="addr:street" v="Allen Road"/>
    <tag k="addr:state" v="VT"/>
    <tag k="ref:vcgi:esiteid" v="340129"/>
  </node>
  <node id="-895" visible="true" lat="44.53938236" lon="-72.48838684">
    <tag k="addr:city" v="Wolcott"/>
    <tag k="addr:housenumber" v="1206"/>
    <tag k="addr:street" v="Elmore Pond Road"/>
    <tag k="addr:state" v="VT"/>
    <tag k="ref:vcgi:esiteid" v="340231"/>
  </node>
  <node id="-899" visible="true" lat="44.58848025" lon="-72.44091099">
    <tag k="addr:city" v="Wolcott"/>
    <tag k="addr:housenumber" v="265"/>
    <tag k="addr:street" v="Cross Road"/>
    <tag k="addr:state" v="VT"/>
    <tag k="ref:vcgi:esiteid" v="341618"/>
  </node>
  <node id="-900" visible="true" lat="44.54198308" lon="-72.50084776">
    <tag k="addr:city" v="Wolcott"/>
    <tag k="addr:housenumber" v="2249"/>
    <tag k="addr:street" v="Elmore Pond Road"/>
    <tag k="addr:state" v="VT"/>
    <tag k="ref:vcgi:esiteid" v="341619"/>
  </node>
  <node id="-909" visible="true" lat="44.52413318" lon="-72.42289105">
    <tag k="addr:city" v="Wolcott"/>
    <tag k="addr:housenumber" v="390"/>
    <tag k="addr:street" v="Grouse Crossing"/>
    <tag k="addr:state" v="VT"/>
    <tag k="ref:vcgi:esiteid" v="365242"/>
  </node>
  <node id="-911" visible="true" lat="44.54082432" lon="-72.4519796">
    <tag k="addr:city" v="Wolcott"/>
    <tag k="addr:housenumber" v="4916"/>
    <tag k="addr:street" v="Vermont Route 15"/>
    <tag k="addr:state" v="VT"/>
    <tag k="ref:vcgi:esiteid" v="447979"/>
  </node>
  <node id="-913" visible="true" lat="44.62380254" lon="-72.48055049">
    <tag k="addr:city" v="Wolcott"/>
    <tag k="addr:housenumber" v="51"/>
    <tag k="addr:street" v="Ladd Road"/>
    <tag k="addr:state" v="VT"/>
    <tag k="ref:vcgi:esiteid" v="448260"/>
  </node>
  <node id="-916" visible="true" lat="44.53437798" lon="-72.4431893">
    <tag k="addr:city" v="Wolcott"/>
    <tag k="addr:housenumber" v="5482"/>
    <tag k="addr:street" v="Vermont Route 15"/>
    <tag k="addr:state" v="VT"/>
    <tag k="ref:vcgi:esiteid" v="449437"/>
  </node>
  <node id="-917" visible="true" lat="44.54179264" lon="-72.45594439">
    <tag k="addr:city" v="Wolcott"/>
    <tag k="addr:housenumber" v="4666"/>
    <tag k="addr:street" v="Vermont Route 15"/>
    <tag k="addr:state" v="VT"/>
    <tag k="ref:vcgi:esiteid" v="449438"/>
  </node>
  <node id="-918" visible="true" lat="44.54766674" lon="-72.46148299">
    <tag k="addr:city" v="Wolcott"/>
    <tag k="addr:housenumber" v="4091"/>
    <tag k="addr:street" v="Vermont Route 15"/>
    <tag k="addr:state" v="VT"/>
    <tag k="ref:vcgi:esiteid" v="449439"/>
  </node>
  <node id="-919" visible="true" lat="44.55021753" lon="-72.4706824">
    <tag k="addr:city" v="Wolcott"/>
    <tag k="addr:housenumber" v="3528"/>
    <tag k="addr:street" v="Vermont Route 15"/>
    <tag k="addr:state" v="VT"/>
    <tag k="ref:vcgi:esiteid" v="449440"/>
  </node>
  <node id="-920" visible="true" lat="44.55513334" lon="-72.48295336">
    <tag k="addr:city" v="Wolcott"/>
    <tag k="addr:housenumber" v="2844"/>
    <tag k="addr:street" v="Vermont Route 15"/>
    <tag k="addr:state" v="VT"/>
    <tag k="ref:vcgi:esiteid" v="449441"/>
  </node>
  <node id="-921" visible="true" lat="44.56386191" lon="-72.49653331">
    <tag k="addr:city" v="Wolcott"/>
    <tag k="addr:housenumber" v="1948"/>
    <tag k="addr:street" v="Vermont Route 15"/>
    <tag k="addr:state" v="VT"/>
    <tag k="ref:vcgi:esiteid" v="449442"/>
  </node>
  <node id="-922" visible="true" lat="44.53108845" lon="-72.43912757">
    <tag k="addr:city" v="Wolcott"/>
    <tag k="addr:housenumber" v="67"/>
    <tag k="addr:street" v="Friendly Lane"/>
    <tag k="addr:state" v="VT"/>
    <tag k="ref:vcgi:esiteid" v="449947"/>
  </node>
  <node id="-924" visible="true" lat="44.57445331" lon="-72.45572555">
    <tag k="addr:city" v="Wolcott"/>
    <tag k="addr:housenumber" v="1858"/>
    <tag k="addr:street" v="Town Hill Road"/>
    <tag k="addr:state" v="VT"/>
    <tag k="ref:vcgi:esiteid" v="451952"/>
  </node>
  <node id="-925" visible="true" lat="44.59775028" lon="-72.44853162">
    <tag k="addr:city" v="Wolcott"/>
    <tag k="addr:housenumber" v="853"/>
    <tag k="addr:street" v="Manley Road"/>
    <tag k="addr:state" v="VT"/>
    <tag k="ref:vcgi:esiteid" v="453180"/>
  </node>
  <node id="-926" visible="true" lat="44.60158598" lon="-72.48552298">
    <tag k="addr:city" v="Wolcott"/>
    <tag k="addr:housenumber" v="1023"/>
    <tag k="addr:street" v="Sand Hill Road"/>
    <tag k="addr:state" v="VT"/>
    <tag k="ref:vcgi:esiteid" v="453573"/>
  </node>
  <node id="-927" visible="true" lat="44.60160023" lon="-72.48520969">
    <tag k="addr:city" v="Wolcott"/>
    <tag k="addr:housenumber" v="1021"/>
    <tag k="addr:street" v="Sand Hill Road"/>
    <tag k="addr:state" v="VT"/>
    <tag k="ref:vcgi:esiteid" v="453574"/>
  </node>
  <node id="-928" visible="true" lat="44.56795924" lon="-72.49956919">
    <tag k="addr:city" v="Wolcott"/>
    <tag k="addr:housenumber" v="1451"/>
    <tag k="addr:street" v="Vermont Route 15"/>
    <tag k="addr:state" v="VT"/>
    <tag k="ref:vcgi:esiteid" v="453601"/>
  </node>
  <node id="-931" visible="true" lat="44.58264093" lon="-72.48900507">
    <tag k="addr:city" v="Wolcott"/>
    <tag k="addr:housenumber" v="1106"/>
    <tag k="addr:street" v="West Hill Road"/>
    <tag k="addr:state" v="VT"/>
    <tag k="ref:vcgi:esiteid" v="454508"/>
  </node>
  <node id="-932" visible="true" lat="44.57204216" lon="-72.50624392">
    <tag k="addr:city" v="Wolcott"/>
    <tag k="addr:housenumber" v="1125"/>
    <tag k="addr:street" v="Vermont Route 15"/>
    <tag k="addr:state" v="VT"/>
    <tag k="ref:vcgi:esiteid" v="454630"/>
  </node>
  <node id="-935" visible="true" lat="44.58379934" lon="-72.44626667">
    <tag k="addr:city" v="Wolcott"/>
    <tag k="addr:housenumber" v="2564"/>
    <tag k="addr:street" v="Town Hill Road"/>
    <tag k="addr:state" v="VT"/>
    <tag k="ref:vcgi:esiteid" v="454923"/>
  </node>
  <node id="-937" visible="true" lat="44.61360486" lon="-72.46361635">
    <tag k="addr:city" v="Wolcott"/>
    <tag k="addr:housenumber" v="213"/>
    <tag k="addr:street" v="Morey Hill Road"/>
    <tag k="addr:state" v="VT"/>
    <tag k="ref:vcgi:esiteid" v="455450"/>
  </node>
  <node id="-938" visible="true" lat="44.54550148" lon="-72.45808144">
    <tag k="addr:city" v="Wolcott"/>
    <tag k="addr:housenumber" v="80"/>
    <tag k="addr:street" v="School Street"/>
    <tag k="addr:state" v="VT"/>
    <tag k="ref:vcgi:esiteid" v="610240"/>
  </node>
  <node id="-939" visible="true" lat="44.57048299" lon="-72.40743524">
    <tag k="addr:city" v="Wolcott"/>
    <tag k="addr:housenumber" v="214"/>
    <tag k="addr:street" v="Woodland Drive"/>
    <tag k="addr:state" v="VT"/>
    <tag k="ref:vcgi:esiteid" v="610241"/>
  </node>
  <node id="-940" visible="true" lat="44.5686964" lon="-72.40793005">
    <tag k="addr:city" v="Wolcott"/>
    <tag k="addr:housenumber" v="304"/>
    <tag k="addr:street" v="Woodland Drive"/>
    <tag k="addr:state" v="VT"/>
    <tag k="ref:vcgi:esiteid" v="610242"/>
  </node>
  <node id="-941" visible="true" lat="44.56748535" lon="-72.40613331">
    <tag k="addr:city" v="Wolcott"/>
    <tag k="addr:housenumber" v="371"/>
    <tag k="addr:street" v="Woodland Drive"/>
    <tag k="addr:state" v="VT"/>
    <tag k="ref:vcgi:esiteid" v="610243"/>
  </node>
  <node id="-942" visible="true" lat="44.56520067" lon="-72.40756252">
    <tag k="addr:city" v="Wolcott"/>
    <tag k="addr:housenumber" v="501"/>
    <tag k="addr:street" v="Woodland Drive"/>
    <tag k="addr:state" v="VT"/>
    <tag k="ref:vcgi:esiteid" v="610244"/>
  </node>
  <node id="-943" visible="true" lat="44.56638978" lon="-72.405802">
    <tag k="addr:city" v="Wolcott"/>
    <tag k="addr:housenumber" v="459"/>
    <tag k="addr:street" v="Woodland Drive"/>
    <tag k="addr:state" v="VT"/>
    <tag k="ref:vcgi:esiteid" v="610245"/>
  </node>
  <node id="-944" visible="true" lat="44.60057004" lon="-72.43822403">
    <tag k="addr:city" v="Wolcott"/>
    <tag k="addr:housenumber" v="3805"/>
    <tag k="addr:street" v="Town Hill Road"/>
    <tag k="addr:state" v="VT"/>
    <tag k="ref:vcgi:esiteid" v="611111"/>
  </node>
  <node id="-945" visible="true" lat="44.54143567" lon="-72.48260945">
    <tag k="addr:city" v="Wolcott"/>
    <tag k="addr:housenumber" v="965"/>
    <tag k="addr:street" v="Elmore Pond Road"/>
    <tag k="addr:state" v="VT"/>
    <tag k="ref:vcgi:esiteid" v="611112"/>
  </node>
  <node id="-946" visible="true" lat="44.61127348" lon="-72.46030834">
    <tag k="addr:city" v="Wolcott"/>
    <tag k="addr:housenumber" v="3"/>
    <tag k="addr:street" v="Reed Road"/>
    <tag k="addr:state" v="VT"/>
    <tag k="ref:vcgi:esiteid" v="611113"/>
  </node>
  <node id="-947" visible="true" lat="44.55393348" lon="-72.51148419">
    <tag k="addr:city" v="Wolcott"/>
    <tag k="addr:housenumber" v="41"/>
    <tag k="addr:street" v="Apixia Way"/>
    <tag k="addr:state" v="VT"/>
    <tag k="ref:vcgi:esiteid" v="611332"/>
  </node>
  <node id="-948" visible="true" lat="44.55403515" lon="-72.52351294">
    <tag k="addr:city" v="Wolcott"/>
    <tag k="addr:housenumber" v="635"/>
    <tag k="addr:street" v="Richard Woolcutt Road"/>
    <tag k="addr:state" v="VT"/>
    <tag k="ref:vcgi:esiteid" v="612104"/>
  </node>
  <node id="-950" visible="true" lat="44.55256816" lon="-72.47525819">
    <tag k="addr:city" v="Wolcott"/>
    <tag k="addr:housenumber" v="3303"/>
    <tag k="addr:street" v="Vermont Route 15"/>
    <tag k="addr:state" v="VT"/>
    <tag k="ref:vcgi:esiteid" v="617221"/>
  </node>
  <node id="-951" visible="true" lat="44.56227787" lon="-72.49164174">
    <tag k="addr:city" v="Wolcott"/>
    <tag k="addr:housenumber" v="2214"/>
    <tag k="addr:street" v="Vermont Route 15"/>
    <tag k="addr:state" v="VT"/>
    <tag k="ref:vcgi:esiteid" v="617222"/>
  </node>
  <node id="-952" visible="true" lat="44.54238632" lon="-72.45513145">
    <tag k="addr:city" v="Wolcott"/>
    <tag k="addr:housenumber" v="69"/>
    <tag k="addr:street" v="East Hill Road"/>
    <tag k="addr:state" v="VT"/>
    <tag k="ref:vcgi:esiteid" v="617223"/>
  </node>
  <node id="-953" visible="true" lat="44.54198801" lon="-72.41366797">
    <tag k="addr:city" v="Wolcott"/>
    <tag k="addr:housenumber" v="1603"/>
    <tag k="addr:street" v="Marsh Road"/>
    <tag k="addr:state" v="VT"/>
    <tag k="ref:vcgi:esiteid" v="620500"/>
  </node>
  <node id="-954" visible="true" lat="44.59308696" lon="-72.50292531">
    <tag k="addr:city" v="Wolcott"/>
    <tag k="addr:housenumber" v="901"/>
    <tag k="addr:street" v="Jones Lane"/>
    <tag k="addr:state" v="VT"/>
    <tag k="ref:vcgi:esiteid" v="620501"/>
  </node>
  <node id="-956" visible="true" lat="44.59923823" lon="-72.41858878">
    <tag k="addr:city" v="Wolcott"/>
    <tag k="addr:housenumber" v="4973"/>
    <tag k="addr:street" v="East Hill Road"/>
    <tag k="addr:state" v="VT"/>
    <tag k="ref:vcgi:esiteid" v="620517"/>
  </node>
  <node id="-957" visible="true" lat="44.57329195" lon="-72.40130039">
    <tag k="addr:city" v="Wolcott"/>
    <tag k="addr:housenumber" v="75"/>
    <tag k="addr:street" v="Lake Wapanaki Road"/>
    <tag k="addr:state" v="VT"/>
    <tag k="ref:vcgi:esiteid" v="620701"/>
  </node>
  <node id="-959" visible="true" lat="44.55049099" lon="-72.51417726">
    <tag k="addr:city" v="Wolcott"/>
    <tag k="addr:housenumber" v="203"/>
    <tag k="addr:street" v="Brookview Lane"/>
    <tag k="addr:state" v="VT"/>
    <tag k="ref:vcgi:esiteid" v="620971"/>
  </node>
  <node id="-960" visible="true" lat="44.57590198" lon="-72.46037224">
    <tag k="addr:city" v="Wolcott"/>
    <tag k="addr:housenumber" v="1785"/>
    <tag k="addr:street" v="Town Hill Road"/>
    <tag k="addr:state" v="VT"/>
    <tag k="ref:vcgi:esiteid" v="750135"/>
  </node>
  <node id="-962" visible="true" lat="44.53107652" lon="-72.44016271">
    <tag k="addr:city" v="Wolcott"/>
    <tag k="addr:housenumber" v="135"/>
    <tag k="addr:street" v="Friendly Lane"/>
    <tag k="addr:state" v="VT"/>
    <tag k="ref:vcgi:esiteid" v="750184"/>
  </node>
  <node id="-963" visible="true" lat="44.52915701" lon="-72.45167055">
    <tag k="addr:city" v="Wolcott"/>
    <tag k="addr:housenumber" v="287"/>
    <tag k="addr:street" v="Grant Lane"/>
    <tag k="addr:state" v="VT"/>
    <tag k="ref:vcgi:esiteid" v="750915"/>
  </node>
  <node id="-964" visible="true" lat="44.55165836" lon="-72.51684276">
    <tag k="addr:city" v="Wolcott"/>
    <tag k="addr:housenumber" v="64"/>
    <tag k="addr:street" v="Little Dirt Road"/>
    <tag k="addr:state" v="VT"/>
    <tag k="ref:vcgi:esiteid" v="750916"/>
  </node>
  <node id="-967" visible="true" lat="44.54876148" lon="-72.40689045">
    <tag k="addr:city" v="Wolcott"/>
    <tag k="addr:housenumber" v="624"/>
    <tag k="addr:street" v="Simmons Road"/>
    <tag k="addr:state" v="VT"/>
    <tag k="ref:vcgi:esiteid" v="751403"/>
  </node>
  <node id="-968" visible="true" lat="44.56649083" lon="-72.42705466">
    <tag k="addr:city" v="Wolcott"/>
    <tag k="addr:housenumber" v="150"/>
    <tag k="addr:street" v="Wolcott Pond Road"/>
    <tag k="addr:state" v="VT"/>
    <tag k="ref:vcgi:esiteid" v="751838"/>
  </node>
  <node id="-969" visible="true" lat="44.5327486" lon="-72.42750125">
    <tag k="addr:city" v="Wolcott"/>
    <tag k="addr:housenumber" v="6330"/>
    <tag k="addr:street" v="Vermont Route 15"/>
    <tag k="addr:state" v="VT"/>
    <tag k="ref:vcgi:esiteid" v="751859"/>
  </node>
  <node id="-970" visible="true" lat="44.55033609" lon="-72.50971698">
    <tag k="addr:city" v="Wolcott"/>
    <tag k="addr:housenumber" v="85"/>
    <tag k="addr:street" v="Apixia Way"/>
    <tag k="addr:state" v="VT"/>
    <tag k="ref:vcgi:esiteid" v="752746"/>
  </node>
  <node id="-971" visible="true" lat="44.58579704" lon="-72.49625496">
    <tag k="addr:city" v="Wolcott"/>
    <tag k="addr:housenumber" v="120"/>
    <tag k="addr:street" v="Arnolds Lane"/>
    <tag k="addr:state" v="VT"/>
    <tag k="ref:vcgi:esiteid" v="752747"/>
  </node>
  <node id="-972" visible="true" lat="44.53618988" lon="-72.49239151">
    <tag k="addr:city" v="Wolcott"/>
    <tag k="addr:housenumber" v="1675"/>
    <tag k="addr:street" v="Elmore Pond Road"/>
    <tag k="addr:state" v="VT"/>
    <tag k="ref:vcgi:esiteid" v="753426"/>
  </node>
  <node id="-973" visible="true" lat="44.55153981" lon="-72.51495999">
    <tag k="addr:city" v="Wolcott"/>
    <tag k="addr:housenumber" v="313"/>
    <tag k="addr:street" v="Brookview Lane"/>
    <tag k="addr:state" v="VT"/>
    <tag k="ref:vcgi:esiteid" v="753427"/>
  </node>
  <node id="-974" visible="true" lat="44.5509886" lon="-72.51423637">
    <tag k="addr:city" v="Wolcott"/>
    <tag k="addr:housenumber" v="239"/>
    <tag k="addr:street" v="Brookview Lane"/>
    <tag k="addr:state" v="VT"/>
    <tag k="ref:vcgi:esiteid" v="753428"/>
  </node>
  <node id="-975" visible="true" lat="44.5451844" lon="-72.50542528">
    <tag k="addr:city" v="Wolcott"/>
    <tag k="addr:housenumber" v="2586"/>
    <tag k="addr:street" v="Elmore Pond Road"/>
    <tag k="addr:state" v="VT"/>
    <tag k="ref:vcgi:esiteid" v="753429"/>
  </node>
  <node id="-976" visible="true" lat="44.55159714" lon="-72.47854924">
    <tag k="addr:city" v="Wolcott"/>
    <tag k="addr:housenumber" v="182"/>
    <tag k="addr:street" v="Elmore Pond Road"/>
    <tag k="addr:state" v="VT"/>
    <tag k="ref:vcgi:esiteid" v="753525"/>
  </node>
  <node id="-978" visible="true" lat="44.5678608" lon="-72.39926119">
    <tag k="addr:city" v="Wolcott"/>
    <tag k="addr:housenumber" v="351"/>
    <tag k="addr:street" v="Lake Wapanaki Road"/>
    <tag k="addr:state" v="VT"/>
    <tag k="ref:vcgi:esiteid" v="753815"/>
  </node>
  <node id="-979" visible="true" lat="44.55221455" lon="-72.44864159">
    <tag k="addr:city" v="Wolcott"/>
    <tag k="addr:housenumber" v="933"/>
    <tag k="addr:street" v="East Hill Road"/>
    <tag k="addr:state" v="VT"/>
    <tag k="ref:vcgi:esiteid" v="754476"/>
  </node>
  <node id="-980" visible="true" lat="44.55401567" lon="-72.51518144">
    <tag k="addr:city" v="Wolcott"/>
    <tag k="addr:housenumber" v="468"/>
    <tag k="addr:street" v="Brookview Lane"/>
    <tag k="addr:state" v="VT"/>
    <tag k="ref:vcgi:esiteid" v="754477"/>
  </node>
  <node id="-981" visible="true" lat="44.5766551" lon="-72.48250904">
    <tag k="addr:city" v="Wolcott"/>
    <tag k="addr:housenumber" v="590"/>
    <tag k="addr:street" v="West Hill Road"/>
    <tag k="addr:state" v="VT"/>
    <tag k="ref:vcgi:esiteid" v="754478"/>
  </node>
  <node id="-982" visible="true" lat="44.58067436" lon="-72.45197105">
    <tag k="addr:city" v="Wolcott"/>
    <tag k="addr:housenumber" v="2238"/>
    <tag k="addr:street" v="Town Hill Road"/>
    <tag k="addr:state" v="VT"/>
    <tag k="ref:vcgi:esiteid" v="754955"/>
  </node>
  <node id="-983" visible="true" lat="44.54907367" lon="-72.48120911">
    <tag k="addr:city" v="Wolcott"/>
    <tag k="addr:housenumber" v="493"/>
    <tag k="addr:street" v="Elmore Pond Road"/>
    <tag k="addr:state" v="VT"/>
    <tag k="ref:vcgi:esiteid" v="755144"/>
  </node>
  <node id="-984" visible="true" lat="44.57299" lon="-72.50486715">
    <tag k="addr:city" v="Wolcott"/>
    <tag k="addr:housenumber" v="1125"/>
    <tag k="addr:street" v="Vermont Route 15"/>
    <tag k="addr:state" v="VT"/>
    <tag k="ref:vcgi:esiteid" v="755145"/>
  </node>
  <node id="-985" visible="true" lat="44.55058524" lon="-72.49525917">
    <tag k="addr:city" v="Wolcott"/>
    <tag k="addr:housenumber" v="979"/>
    <tag k="addr:street" v="Corley Road"/>
    <tag k="addr:state" v="VT"/>
    <tag k="ref:vcgi:esiteid" v="755146"/>
  </node>
  <node id="-986" visible="true" lat="44.54740582" lon="-72.49186582">
    <tag k="addr:city" v="Wolcott"/>
    <tag k="addr:housenumber" v="467"/>
    <tag k="addr:street" v="Foss Road"/>
    <tag k="addr:state" v="VT"/>
    <tag k="ref:vcgi:esiteid" v="755147"/>
  </node>
  <node id="-987" visible="true" lat="44.55787892" lon="-72.51713874">
    <tag k="addr:city" v="Wolcott"/>
    <tag k="addr:housenumber" v="12"/>
    <tag k="addr:street" v="Deals Way"/>
    <tag k="addr:state" v="VT"/>
    <tag k="ref:vcgi:esiteid" v="755362"/>
  </node>
  <node id="-988" visible="true" lat="44.53313168" lon="-72.43511606">
    <tag k="addr:city" v="Wolcott"/>
    <tag k="addr:housenumber" v="106"/>
    <tag k="addr:street" v="Wild Turkey Lane"/>
    <tag k="addr:state" v="VT"/>
    <tag k="ref:vcgi:esiteid" v="755365"/>
  </node>
  <node id="-989" visible="true" lat="44.53907757" lon="-72.45945442">
    <tag k="addr:city" v="Wolcott"/>
    <tag k="addr:housenumber" v="113"/>
    <tag k="addr:street" v="McKearney Road"/>
    <tag k="addr:state" v="VT"/>
    <tag k="ref:vcgi:esiteid" v="755414"/>
  </node>
  <node id="-990" visible="true" lat="44.586242" lon="-72.43653511">
    <tag k="addr:city" v="Wolcott"/>
    <tag k="addr:housenumber" v="542"/>
    <tag k="addr:street" v="Cross Road"/>
    <tag k="addr:state" v="VT"/>
    <tag k="ref:vcgi:esiteid" v="755588"/>
  </node>
  <node id="-991" visible="true" lat="44.54426461" lon="-72.45910714">
    <tag k="addr:city" v="Wolcott"/>
    <tag k="addr:housenumber" v="68"/>
    <tag k="addr:street" v="Railroad Street"/>
    <tag k="addr:state" v="VT"/>
    <tag k="ref:vcgi:esiteid" v="756090"/>
  </node>
  <node id="-992" visible="true" lat="44.57977069" lon="-72.43324414">
    <tag k="addr:city" v="Wolcott"/>
    <tag k="addr:housenumber" v="1048"/>
    <tag k="addr:street" v="Cross Road"/>
    <tag k="addr:state" v="VT"/>
    <tag k="ref:vcgi:esiteid" v="757200"/>
  </node>
  <node id="-993" visible="true" lat="44.55573226" lon="-72.52757688">
    <tag k="addr:city" v="Wolcott"/>
    <tag k="addr:housenumber" v="864"/>
    <tag k="addr:street" v="Richard Woolcutt Road"/>
    <tag k="addr:state" v="VT"/>
    <tag k="ref:vcgi:esiteid" v="758700"/>
  </node>
  <node id="-994" visible="true" lat="44.53132472" lon="-72.41973362">
    <tag k="addr:city" v="Wolcott"/>
    <tag k="addr:housenumber" v="398"/>
    <tag k="addr:street" v="Quarry Road"/>
    <tag k="addr:state" v="VT"/>
    <tag k="ref:vcgi:esiteid" v="758701"/>
  </node>
  <node id="-995" visible="true" lat="44.54716747" lon="-72.42825214">
    <tag k="addr:city" v="Wolcott"/>
    <tag k="addr:housenumber" v="944"/>
    <tag k="addr:street" v="Marsh Road"/>
    <tag k="addr:state" v="VT"/>
    <tag k="ref:vcgi:esiteid" v="758702"/>
  </node>
  <node id="-996" visible="true" lat="44.5723211" lon="-72.48284235">
    <tag k="addr:city" v="Wolcott"/>
    <tag k="addr:housenumber" v="303"/>
    <tag k="addr:street" v="West Hill Road"/>
    <tag k="addr:state" v="VT"/>
    <tag k="ref:vcgi:esiteid" v="758703"/>
  </node>
  <node id="-997" visible="true" lat="44.53967529" lon="-72.50324281">
    <tag k="addr:city" v="Wolcott"/>
    <tag k="addr:housenumber" v="2295"/>
    <tag k="addr:street" v="Elmore Pond Road"/>
    <tag k="addr:state" v="VT"/>
    <tag k="ref:vcgi:esiteid" v="758983"/>
  </node>
  <node id="-998" visible="true" lat="44.5383427" lon="-72.49816168">
    <tag k="addr:city" v="Wolcott"/>
    <tag k="addr:housenumber" v="2015"/>
    <tag k="addr:street" v="Elmore Pond Road"/>
    <tag k="addr:state" v="VT"/>
    <tag k="ref:vcgi:esiteid" v="759113"/>
  </node>
  <node id="-999" visible="true" lat="44.53868843" lon="-72.4875117">
    <tag k="addr:city" v="Wolcott"/>
    <tag k="addr:housenumber" v="1362"/>
    <tag k="addr:street" v="Elmore Pond Road"/>
    <tag k="addr:state" v="VT"/>
    <tag k="ref:vcgi:esiteid" v="759423"/>
  </node>
  <node id="-1000" visible="true" lat="44.53647985" lon="-72.44459681">
    <tag k="addr:city" v="Wolcott"/>
    <tag k="addr:housenumber" v="61"/>
    <tag k="addr:street" v="Power Plant Drive"/>
    <tag k="addr:state" v="VT"/>
    <tag k="ref:vcgi:esiteid" v="759567"/>
  </node>
  <node id="-1002" visible="true" lat="44.57496254" lon="-72.39388665">
    <tag k="addr:city" v="Wolcott"/>
    <tag k="addr:housenumber" v="1933"/>
    <tag k="addr:street" v="Keeler Pond Road"/>
    <tag k="addr:state" v="VT"/>
    <tag k="ref:vcgi:esiteid" v="759600"/>
  </node>
  <node id="-1005" visible="true" lat="44.58321904" lon="-72.43072884">
    <tag k="addr:city" v="Wolcott"/>
    <tag k="addr:housenumber" v="969"/>
    <tag k="addr:street" v="Cross Road"/>
    <tag k="addr:state" v="VT"/>
    <tag k="ref:vcgi:esiteid" v="760031"/>
  </node>
  <node id="-1006" visible="true" lat="44.56028025" lon="-72.51691047">
    <tag k="addr:city" v="Wolcott"/>
    <tag k="addr:housenumber" v="959"/>
    <tag k="addr:street" v="Brookview Lane"/>
    <tag k="addr:state" v="VT"/>
    <tag k="ref:vcgi:esiteid" v="760148"/>
  </node>
  <node id="-1007" visible="true" lat="44.55196623" lon="-72.51594146">
    <tag k="addr:city" v="Wolcott"/>
    <tag k="addr:housenumber" v="361"/>
    <tag k="addr:street" v="Brookview Lane"/>
    <tag k="addr:state" v="VT"/>
    <tag k="ref:vcgi:esiteid" v="760149"/>
  </node>
  <node id="-1008" visible="true" lat="44.61587213" lon="-72.47909467">
    <tag k="addr:city" v="Wolcott"/>
    <tag k="addr:housenumber" v="1240"/>
    <tag k="addr:street" v="Baldwin Brook Road"/>
    <tag k="addr:state" v="VT"/>
    <tag k="ref:vcgi:esiteid" v="760953"/>
  </node>
  <node id="-1009" visible="true" lat="44.59830273" lon="-72.38756546">
    <tag k="addr:city" v="Wolcott"/>
    <tag k="addr:housenumber" v="80"/>
    <tag k="addr:street" v="Hines Road"/>
    <tag k="addr:state" v="VT"/>
    <tag k="ref:vcgi:esiteid" v="760954"/>
  </node>
  <node id="-1010" visible="true" lat="44.58360705" lon="-72.44798042">
    <tag k="addr:city" v="Wolcott"/>
    <tag k="addr:housenumber" v="2562"/>
    <tag k="addr:street" v="Town Hill Road"/>
    <tag k="addr:state" v="VT"/>
    <tag k="ref:vcgi:esiteid" v="760955"/>
  </node>
  <node id="-1011" visible="true" lat="44.54371275" lon="-72.49848974">
    <tag k="addr:city" v="Wolcott"/>
    <tag k="addr:housenumber" v="2210"/>
    <tag k="addr:street" v="Elmore Pond Road"/>
    <tag k="addr:state" v="VT"/>
    <tag k="ref:vcgi:esiteid" v="760956"/>
  </node>
  <node id="-1012" visible="true" lat="44.60314776" lon="-72.49288711">
    <tag k="addr:city" v="Wolcott"/>
    <tag k="addr:housenumber" v="2701"/>
    <tag k="addr:street" v="West Hill Road"/>
    <tag k="addr:state" v="VT"/>
    <tag k="ref:vcgi:esiteid" v="761211"/>
  </node>
  <node id="-1013" visible="true" lat="44.54217128" lon="-72.50703286">
    <tag k="addr:city" v="Wolcott"/>
    <tag k="addr:housenumber" v="166"/>
    <tag k="addr:street" v="Whitman Lane"/>
    <tag k="addr:state" v="VT"/>
    <tag k="ref:vcgi:esiteid" v="761212"/>
  </node>
  <node id="-1014" visible="true" lat="44.60312334" lon="-72.49144239">
    <tag k="addr:city" v="Wolcott"/>
    <tag k="addr:housenumber" v="1322"/>
    <tag k="addr:street" v="Sand Hill Road"/>
    <tag k="addr:state" v="VT"/>
    <tag k="ref:vcgi:esiteid" v="761644"/>
  </node>
  <node id="-1015" visible="true" lat="44.57265331" lon="-72.45915055">
    <tag k="addr:city" v="Wolcott"/>
    <tag k="addr:housenumber" v="1609"/>
    <tag k="addr:street" v="Town Hill Road"/>
    <tag k="addr:state" v="VT"/>
    <tag k="ref:vcgi:esiteid" v="761645"/>
  </node>
  <node id="-1016" visible="true" lat="44.57350705" lon="-72.46301545">
    <tag k="addr:city" v="Wolcott"/>
    <tag k="addr:housenumber" v="1541"/>
    <tag k="addr:street" v="Town Hill Road"/>
    <tag k="addr:state" v="VT"/>
    <tag k="ref:vcgi:esiteid" v="761646"/>
  </node>
  <node id="-1017" visible="true" lat="44.58644423" lon="-72.49882184">
    <tag k="addr:city" v="Wolcott"/>
    <tag k="addr:housenumber" v="316"/>
    <tag k="addr:street" v="Arnolds Lane"/>
    <tag k="addr:state" v="VT"/>
    <tag k="ref:vcgi:esiteid" v="761647"/>
  </node>
  <node id="-1018" visible="true" lat="44.57357117" lon="-72.41670713">
    <tag k="addr:city" v="Wolcott"/>
    <tag k="addr:housenumber" v="520"/>
    <tag k="addr:street" v="Keeler Pond Road"/>
    <tag k="addr:state" v="VT"/>
    <tag k="ref:vcgi:esiteid" v="761648"/>
  </node>
  <node id="-1020" visible="true" lat="44.5577431" lon="-72.51671255">
    <tag k="addr:city" v="Wolcott"/>
    <tag k="addr:housenumber" v="769"/>
    <tag k="addr:street" v="Brookview Lane"/>
    <tag k="addr:state" v="VT"/>
    <tag k="ref:vcgi:esiteid" v="762315"/>
  </node>
  <node id="-1021" visible="true" lat="44.60690591" lon="-72.49415112">
    <tag k="addr:city" v="Wolcott"/>
    <tag k="addr:housenumber" v="2985"/>
    <tag k="addr:street" v="West Hill Road"/>
    <tag k="addr:state" v="VT"/>
    <tag k="ref:vcgi:esiteid" v="762359"/>
  </node>
  <node id="-1022" visible="true" lat="44.60907984" lon="-72.45980803">
    <tag k="addr:city" v="Wolcott"/>
    <tag k="addr:housenumber" v="254"/>
    <tag k="addr:street" v="Anthonys Lane"/>
    <tag k="addr:state" v="VT"/>
    <tag k="ref:vcgi:esiteid" v="762506"/>
  </node>
  <node id="-1023" visible="true" lat="44.55767566" lon="-72.5146967">
    <tag k="addr:city" v="Wolcott"/>
    <tag k="addr:housenumber" v="770"/>
    <tag k="addr:street" v="Brookview Lane"/>
    <tag k="addr:state" v="VT"/>
    <tag k="ref:vcgi:esiteid" v="762507"/>
  </node>
  <node id="-1024" visible="true" lat="44.52200944" lon="-72.42167485">
    <tag k="addr:city" v="Wolcott"/>
    <tag k="addr:housenumber" v="279"/>
    <tag k="addr:street" v="Grouse Crossing"/>
    <tag k="addr:state" v="VT"/>
    <tag k="ref:vcgi:esiteid" v="762627"/>
  </node>
  <node id="-1025" visible="true" lat="44.52624775" lon="-72.46121342">
    <tag k="addr:city" v="Wolcott"/>
    <tag k="addr:housenumber" v="1485"/>
    <tag k="addr:street" v="East Elmore Road"/>
    <tag k="addr:state" v="VT"/>
    <tag k="ref:vcgi:esiteid" v="762647"/>
  </node>
  <node id="-1026" visible="true" lat="44.52950891" lon="-72.45854417">
    <tag k="addr:city" v="Wolcott"/>
    <tag k="addr:housenumber" v="1217"/>
    <tag k="addr:street" v="East Elmore Road"/>
    <tag k="addr:state" v="VT"/>
    <tag k="ref:vcgi:esiteid" v="762648"/>
  </node>
  <node id="-1027" visible="true" lat="44.60640791" lon="-72.48632523">
    <tag k="addr:city" v="Wolcott"/>
    <tag k="addr:housenumber" v="171"/>
    <tag k="addr:street" v="Baldwin Brook Road"/>
    <tag k="addr:state" v="VT"/>
    <tag k="ref:vcgi:esiteid" v="762904"/>
  </node>
  <node id="-1028" visible="true" lat="44.55111154" lon="-72.51661671">
    <tag k="addr:city" v="Wolcott"/>
    <tag k="addr:housenumber" v="63"/>
    <tag k="addr:street" v="Little Dirt Road"/>
    <tag k="addr:state" v="VT"/>
    <tag k="ref:vcgi:esiteid" v="763046"/>
  </node>
  <node id="-1030" visible="true" lat="44.5545405" lon="-72.49922106">
    <tag k="addr:city" v="Wolcott"/>
    <tag k="addr:housenumber" v="712"/>
    <tag k="addr:street" v="Corley Road"/>
    <tag k="addr:state" v="VT"/>
    <tag k="ref:vcgi:esiteid" v="763798"/>
  </node>
  <node id="-1031" visible="true" lat="44.55447427" lon="-72.5161325">
    <tag k="addr:city" v="Wolcott"/>
    <tag k="addr:housenumber" v="534"/>
    <tag k="addr:street" v="Brookview Lane"/>
    <tag k="addr:state" v="VT"/>
    <tag k="ref:vcgi:esiteid" v="764112"/>
  </node>
  <node id="-1032" visible="true" lat="44.55409256" lon="-72.53414957">
    <tag k="addr:city" v="Wolcott"/>
    <tag k="addr:housenumber" v="75"/>
    <tag k="addr:street" v="Carroll Meadow Lane"/>
    <tag k="addr:state" v="VT"/>
    <tag k="ref:vcgi:esiteid" v="764113"/>
  </node>
  <node id="-1033" visible="true" lat="44.55452598" lon="-72.53393004">
    <tag k="addr:city" v="Wolcott"/>
    <tag k="addr:housenumber" v="99"/>
    <tag k="addr:street" v="Carroll Meadow Lane"/>
    <tag k="addr:state" v="VT"/>
    <tag k="ref:vcgi:esiteid" v="764114"/>
  </node>
  <node id="-1034" visible="true" lat="44.54127872" lon="-72.50735083">
    <tag k="addr:city" v="Wolcott"/>
    <tag k="addr:housenumber" v="214"/>
    <tag k="addr:street" v="Whitman Lane"/>
    <tag k="addr:state" v="VT"/>
    <tag k="ref:vcgi:esiteid" v="764442"/>
  </node>
  <node id="-1035" visible="true" lat="44.54130117" lon="-72.50677825">
    <tag k="addr:city" v="Wolcott"/>
    <tag k="addr:housenumber" v="215"/>
    <tag k="addr:street" v="Whitman Lane"/>
    <tag k="addr:state" v="VT"/>
    <tag k="ref:vcgi:esiteid" v="764741"/>
  </node>
  <node id="-1036" visible="true" lat="44.54747576" lon="-72.45938928">
    <tag k="addr:city" v="Wolcott"/>
    <tag k="addr:housenumber" v="4207"/>
    <tag k="addr:street" v="Vermont Route 15"/>
    <tag k="addr:state" v="VT"/>
    <tag k="ref:vcgi:esiteid" v="765433"/>
  </node>
  <node id="-1041" visible="true" lat="44.59978251" lon="-72.41442048">
    <tag k="addr:city" v="Wolcott"/>
    <tag k="addr:housenumber" v="4793"/>
    <tag k="addr:street" v="East Hill Road"/>
    <tag k="addr:state" v="VT"/>
    <tag k="ref:vcgi:esiteid" v="765447"/>
  </node>
  <node id="-1042" visible="true" lat="44.52096975" lon="-72.4353592">
    <tag k="addr:city" v="Wolcott"/>
    <tag k="addr:housenumber" v="920"/>
    <tag k="addr:street" v="Turcotte Road"/>
    <tag k="addr:state" v="VT"/>
    <tag k="ref:vcgi:esiteid" v="765453"/>
  </node>
  <node id="-1043" visible="true" lat="44.54417445" lon="-72.45947864">
    <tag k="addr:city" v="Wolcott"/>
    <tag k="addr:housenumber" v="88"/>
    <tag k="addr:street" v="Railroad Street"/>
    <tag k="addr:state" v="VT"/>
    <tag k="ref:vcgi:esiteid" v="765454"/>
  </node>
</osm>
