<?xml version="1.0" encoding="UTF-8"?>
<osm version="0.6" generator="JOSM" upload="false">
  <node id="-322" visible="true" lat="44.57672501" lon="-72.40463265">
    <!-- conflict: "1359 Keeler Pond Road, Wolcott, VT" Fuzzy match to "1359 Keeler Road, Wolcott, VT" -->
    <tag k="addr:city" v="Wolcott"/>
    <tag k="addr:housenumber" v="1359"/>
    <tag k="addr:street" v="Keeler Pond Road"/>
    <tag k="addr:state" v="VT"/>
    <tag k="ref:vcgi:esiteid" v="300890"/>
  </node>
  <node id="-327" visible="true" lat="44.57537091" lon="-72.39665973">
    <!-- conflict: "1805 Keeler Pond Road, Wolcott, VT" Fuzzy match to "1805 Keeler Road, Wolcott, VT" -->
    <tag k="addr:city" v="Wolcott"/>
    <tag k="addr:housenumber" v="1805"/>
    <tag k="addr:street" v="Keeler Pond Road"/>
    <tag k="addr:state" v="VT"/>
    <tag k="ref:vcgi:esiteid" v="300895"/>
  </node>
  <node id="-338" visible="true" lat="44.57424816" lon="-72.51478459">
    <!-- conflict: "699 Vermont Route 15, Wolcott, VT" No match in OSM, but a different address exists <5m away: "699 Vt Route 15, Wolcott, VT" -->
    <tag k="addr:city" v="Wolcott"/>
    <tag k="addr:housenumber" v="699"/>
    <tag k="addr:street" v="Vermont Route 15"/>
    <tag k="addr:state" v="VT"/>
    <tag k="ref:vcgi:esiteid" v="300906"/>
  </node>
  <node id="-340" visible="true" lat="44.57410331" lon="-72.51531927">
    <!-- conflict: "679 Vermont Route 15, Wolcott, VT" No match in OSM, but a different address exists <5m away: "679 Vt Route 15, Wolcott, VT" -->
    <tag k="addr:city" v="Wolcott"/>
    <tag k="addr:housenumber" v="679"/>
    <tag k="addr:street" v="Vermont Route 15"/>
    <tag k="addr:state" v="VT"/>
    <tag k="ref:vcgi:esiteid" v="300908"/>
  </node>
  <node id="-346" visible="true" lat="44.57304485" lon="-72.515336">
    <!-- conflict: "710 Vermont Route 15, Wolcott, VT" No match in OSM, but a different address exists <5m away: "710 Vt Route 15, Wolcott, VT" -->
    <tag k="addr:city" v="Wolcott"/>
    <tag k="addr:housenumber" v="710"/>
    <tag k="addr:street" v="Vermont Route 15"/>
    <tag k="addr:state" v="VT"/>
    <tag k="ref:vcgi:esiteid" v="300914"/>
  </node>
  <node id="-347" visible="true" lat="44.57317336" lon="-72.51666669">
    <!-- conflict: "617 Vermont Route 15, Wolcott, VT" No match in OSM, but a different address exists <5m away: "617 Vt Route 15, Wolcott, VT" -->
    <tag k="addr:city" v="Wolcott"/>
    <tag k="addr:housenumber" v="617"/>
    <tag k="addr:street" v="Vermont Route 15"/>
    <tag k="addr:state" v="VT"/>
    <tag k="ref:vcgi:esiteid" v="300915"/>
  </node>
  <node id="-348" visible="true" lat="44.57322271" lon="-72.50681888">
    <!-- conflict: "1097 Vermont Route 15, Wolcott, VT" No match in OSM, but a different address exists <5m away: "1097 Vt Route 15, Wolcott, VT" -->
    <tag k="addr:city" v="Wolcott"/>
    <tag k="addr:housenumber" v="1097"/>
    <tag k="addr:street" v="Vermont Route 15"/>
    <tag k="addr:state" v="VT"/>
    <tag k="ref:vcgi:esiteid" v="300916"/>
  </node>
  <node id="-351" visible="true" lat="44.57279557" lon="-72.51842418">
    <!-- conflict: "535 Vermont Route 15, Wolcott, VT" No match in OSM, but a different address exists <5m away: "535 Vt Route 15, Wolcott, VT" -->
    <tag k="addr:city" v="Wolcott"/>
    <tag k="addr:housenumber" v="535"/>
    <tag k="addr:street" v="Vermont Route 15"/>
    <tag k="addr:state" v="VT"/>
    <tag k="ref:vcgi:esiteid" v="300919"/>
  </node>
  <node id="-355" visible="true" lat="44.57048121" lon="-72.52298719">
    <!-- conflict: "489 Vermont Route 15, Wolcott, VT" No match in OSM, but a different address exists <5m away: "471 Vt Route 15, Wolcott, VT" -->
    <tag k="addr:city" v="Wolcott"/>
    <tag k="addr:housenumber" v="489"/>
    <tag k="addr:street" v="Vermont Route 15"/>
    <tag k="addr:state" v="VT"/>
    <tag k="ref:vcgi:esiteid" v="300923"/>
  </node>
  <node id="-367" visible="true" lat="44.57052549" lon="-72.50572975">
    <!-- conflict: "1271 Vermont Route 15, Wolcott, VT" No match in OSM, but a different address exists <5m away: "1271 Vt Route 15, Wolcott, VT" -->
    <tag k="addr:city" v="Wolcott"/>
    <tag k="addr:housenumber" v="1271"/>
    <tag k="addr:street" v="Vermont Route 15"/>
    <tag k="addr:state" v="VT"/>
    <tag k="ref:vcgi:esiteid" v="300936"/>
  </node>
  <node id="-371" visible="true" lat="44.56998626" lon="-72.50355389">
    <!-- conflict: "1291 Vermont Route 15, Wolcott, VT" No match in OSM, but a different address exists <5m away: "1291 Vt Route 15, Wolcott, VT" -->
    <tag k="addr:city" v="Wolcott"/>
    <tag k="addr:housenumber" v="1291"/>
    <tag k="addr:street" v="Vermont Route 15"/>
    <tag k="addr:state" v="VT"/>
    <tag k="ref:vcgi:esiteid" v="300940"/>
  </node>
  <node id="-382" visible="true" lat="44.56872852" lon="-72.50390564">
    <!-- conflict: "1453 Vermont Route 15, Wolcott, VT" No match in OSM, but a different address exists <5m away: "1453 Vt Route 15, Wolcott, VT" -->
    <tag k="addr:city" v="Wolcott"/>
    <tag k="addr:housenumber" v="1453"/>
    <tag k="addr:street" v="Vermont Route 15"/>
    <tag k="addr:state" v="VT"/>
    <tag k="ref:vcgi:esiteid" v="300951"/>
  </node>
  <node id="-383" visible="true" lat="44.56822494" lon="-72.50354975">
    <!-- conflict: "1455 Vermont Route 15, Wolcott, VT" No match in OSM, but a different address exists <5m away: "1455 Vt Route 15, Wolcott, VT" -->
    <tag k="addr:city" v="Wolcott"/>
    <tag k="addr:housenumber" v="1455"/>
    <tag k="addr:street" v="Vermont Route 15"/>
    <tag k="addr:state" v="VT"/>
    <tag k="ref:vcgi:esiteid" v="300952"/>
  </node>
  <node id="-390" visible="true" lat="44.56780394" lon="-72.50325512">
    <!-- conflict: "1537 Vermont Route 15, Wolcott, VT" No match in OSM, but a different address exists <5m away: "1537 Vt Route 15, Wolcott, VT" -->
    <tag k="addr:city" v="Wolcott"/>
    <tag k="addr:housenumber" v="1537"/>
    <tag k="addr:street" v="Vermont Route 15"/>
    <tag k="addr:state" v="VT"/>
    <tag k="ref:vcgi:esiteid" v="300959"/>
  </node>
  <node id="-391" visible="true" lat="44.56717808" lon="-72.5038634">
    <!-- conflict: "1530 Vermont Route 15, Wolcott, VT" No match in OSM, but a different address exists <5m away: "1530 Vt Route 15, Wolcott, VT" -->
    <tag k="addr:city" v="Wolcott"/>
    <tag k="addr:housenumber" v="1530"/>
    <tag k="addr:street" v="Vermont Route 15"/>
    <tag k="addr:state" v="VT"/>
    <tag k="ref:vcgi:esiteid" v="300960"/>
  </node>
  <node id="-393" visible="true" lat="44.5669562" lon="-72.50200505">
    <!-- conflict: "1611 Vermont Route 15, Wolcott, VT" No match in OSM, but a different address exists <5m away: "1611 Vt Route 15, Wolcott, VT" -->
    <tag k="addr:city" v="Wolcott"/>
    <tag k="addr:housenumber" v="1611"/>
    <tag k="addr:street" v="Vermont Route 15"/>
    <tag k="addr:state" v="VT"/>
    <tag k="ref:vcgi:esiteid" v="300962"/>
  </node>
  <node id="-396" visible="true" lat="44.56648254" lon="-72.50157174">
    <!-- conflict: "1637 Vermont Route 15, Wolcott, VT" No match in OSM, but a different address exists <5m away: "1637 Vt Route 15, Wolcott, VT" -->
    <tag k="addr:city" v="Wolcott"/>
    <tag k="addr:housenumber" v="1637"/>
    <tag k="addr:street" v="Vermont Route 15"/>
    <tag k="addr:state" v="VT"/>
    <tag k="ref:vcgi:esiteid" v="300965"/>
  </node>
  <node id="-398" visible="true" lat="44.56629503" lon="-72.50251787">
    <!-- conflict: "1620 Vermont Route 15, Wolcott, VT" No match in OSM, but a different address exists <5m away: "1620 Vt Route 15, Wolcott, VT" -->
    <tag k="addr:city" v="Wolcott"/>
    <tag k="addr:housenumber" v="1620"/>
    <tag k="addr:street" v="Vermont Route 15"/>
    <tag k="addr:state" v="VT"/>
    <tag k="ref:vcgi:esiteid" v="300967"/>
  </node>
  <node id="-400" visible="true" lat="44.56490466" lon="-72.49891908">
    <!-- conflict: "1815 Vermont Route 15, Wolcott, VT" No match in OSM, but a different address exists <5m away: "1815 Vt Route 15, Wolcott, VT" -->
    <tag k="addr:city" v="Wolcott"/>
    <tag k="addr:housenumber" v="1815"/>
    <tag k="addr:street" v="Vermont Route 15"/>
    <tag k="addr:state" v="VT"/>
    <tag k="ref:vcgi:esiteid" v="300969"/>
  </node>
  <node id="-403" visible="true" lat="44.56471958" lon="-72.49833198">
    <!-- conflict: "1855 Vermont Route 15, Wolcott, VT" No match in OSM, but a different address exists <5m away: "1855 Vt Route 15, Wolcott, VT" -->
    <tag k="addr:city" v="Wolcott"/>
    <tag k="addr:housenumber" v="1855"/>
    <tag k="addr:street" v="Vermont Route 15"/>
    <tag k="addr:state" v="VT"/>
    <tag k="ref:vcgi:esiteid" v="300972"/>
  </node>
  <node id="-413" visible="true" lat="44.56413154" lon="-72.49848737">
    <!-- conflict: "1900 Vermont Route 15, Wolcott, VT" No match in OSM, but a different address exists <5m away: "1900 Vt Route 15, Wolcott, VT" -->
    <tag k="addr:city" v="Wolcott"/>
    <tag k="addr:housenumber" v="1900"/>
    <tag k="addr:street" v="Vermont Route 15"/>
    <tag k="addr:state" v="VT"/>
    <tag k="ref:vcgi:esiteid" v="300982"/>
  </node>
  <node id="-416" visible="true" lat="44.56393158" lon="-72.4975725">
    <!-- conflict: "1912 Vermont Route 15, Wolcott, VT" No match in OSM, but a different address exists <5m away: "1912 Vt Route 15, Wolcott, VT" -->
    <tag k="addr:city" v="Wolcott"/>
    <tag k="addr:housenumber" v="1912"/>
    <tag k="addr:street" v="Vermont Route 15"/>
    <tag k="addr:state" v="VT"/>
    <tag k="ref:vcgi:esiteid" v="300985"/>
  </node>
  <node id="-460" visible="true" lat="44.55438024" lon="-72.48098069">
    <!-- conflict: "2951 Vermont Route 15, Wolcott, VT" No match in OSM, but a different address exists <5m away: "2951 Vt Route 15, Wolcott, VT" -->
    <tag k="addr:city" v="Wolcott"/>
    <tag k="addr:housenumber" v="2951"/>
    <tag k="addr:street" v="Vermont Route 15"/>
    <tag k="addr:state" v="VT"/>
    <tag k="ref:vcgi:esiteid" v="301029"/>
  </node>
  <node id="-484" visible="true" lat="44.55178073" lon="-72.47102745">
    <!-- conflict: "3522 Vermont Route 15, Wolcott, VT" No match in OSM, but a different address exists <5m away: "3522 Vt Route 15, Wolcott, VT" -->
    <tag k="addr:city" v="Wolcott"/>
    <tag k="addr:housenumber" v="3522"/>
    <tag k="addr:street" v="Vermont Route 15"/>
    <tag k="addr:state" v="VT"/>
    <tag k="ref:vcgi:esiteid" v="301053"/>
  </node>
  <node id="-486" visible="true" lat="44.55137707" lon="-72.4674829">
    <!-- conflict: "3729 Vermont Route 15, Wolcott, VT" No match in OSM, but a different address exists <5m away: "3729 Vt Route 15, Wolcott, VT" -->
    <tag k="addr:city" v="Wolcott"/>
    <tag k="addr:housenumber" v="3729"/>
    <tag k="addr:street" v="Vermont Route 15"/>
    <tag k="addr:state" v="VT"/>
    <tag k="ref:vcgi:esiteid" v="301056"/>
  </node>
  <node id="-492" visible="true" lat="44.55054785" lon="-72.46610673">
    <!-- conflict: "3791 Vermont Route 15, Wolcott, VT" No match in OSM, but a different address exists <5m away: "3791 Vt Route 15, Wolcott, VT" -->
    <tag k="addr:city" v="Wolcott"/>
    <tag k="addr:housenumber" v="3791"/>
    <tag k="addr:street" v="Vermont Route 15"/>
    <tag k="addr:state" v="VT"/>
    <tag k="ref:vcgi:esiteid" v="301063"/>
  </node>
  <node id="-534" visible="true" lat="44.54747391" lon="-72.46198281">
    <!-- conflict: "4076 Vermont Route 15, Wolcott, VT" No match in OSM, but a different address exists <5m away: "4076 State Route 15, Wolcott, VT" -->
    <tag k="addr:city" v="Wolcott"/>
    <tag k="addr:housenumber" v="4076"/>
    <tag k="addr:street" v="Vermont Route 15"/>
    <tag k="addr:state" v="VT"/>
    <tag k="ref:vcgi:esiteid" v="301108"/>
  </node>
  <node id="-564" visible="true" lat="44.5459138" lon="-72.50975136">
    <!-- conflict: "2777 Elmore Pond Road, Wolcott, VT" No match in OSM, but a different address exists <5m away: "92 Douglas Road, Wolcott, VT" -->
    <tag k="addr:city" v="Wolcott"/>
    <tag k="addr:housenumber" v="2777"/>
    <tag k="addr:street" v="Elmore Pond Road"/>
    <tag k="addr:state" v="VT"/>
    <tag k="ref:vcgi:esiteid" v="301145"/>
  </node>
  <node id="-670" visible="true" lat="44.53319623" lon="-72.485689">
    <!-- conflict: "255 Winding Lane, Wolcott, VT" No match in OSM, but a different address exists <5m away: "189 Courchaine Farm Road, Wolcott, VT" -->
    <tag k="addr:city" v="Wolcott"/>
    <tag k="addr:housenumber" v="255"/>
    <tag k="addr:street" v="Winding Lane"/>
    <tag k="addr:state" v="VT"/>
    <tag k="ref:vcgi:esiteid" v="301255"/>
  </node>
  <node id="-682" visible="true" lat="44.52927952" lon="-72.42274156">
    <!-- conflict: "6675 Vermont Route 15, Wolcott, VT" No match in OSM, but a different address exists <5m away: "6675 Vt Route 15, Wolcott, VT" -->
    <tag k="addr:city" v="Wolcott"/>
    <tag k="addr:housenumber" v="6675"/>
    <tag k="addr:street" v="Vermont Route 15"/>
    <tag k="addr:state" v="VT"/>
    <tag k="ref:vcgi:esiteid" v="301268"/>
  </node>
  <node id="-692" visible="true" lat="44.5255611" lon="-72.41939851">
    <!-- conflict: "6989 Vermont Route 15, Wolcott, VT" No match in OSM, but a different address exists <5m away: "6989 Vt Route 15, Wolcott, VT" -->
    <tag k="addr:city" v="Wolcott"/>
    <tag k="addr:housenumber" v="6989"/>
    <tag k="addr:street" v="Vermont Route 15"/>
    <tag k="addr:state" v="VT"/>
    <tag k="ref:vcgi:esiteid" v="301279"/>
  </node>
  <node id="-703" visible="true" lat="44.62233317" lon="-72.46309708">
    <!-- conflict: "781 Brook Road, Wolcott, VT" No match in OSM, but a different address exists <5m away: "813 Brook Road, Wolcott, VT" -->
    <tag k="addr:city" v="Wolcott"/>
    <tag k="addr:housenumber" v="781"/>
    <tag k="addr:street" v="Brook Road"/>
    <tag k="addr:state" v="VT"/>
    <tag k="ref:vcgi:esiteid" v="301290"/>
  </node>
  <node id="-715" visible="true" lat="44.55546364" lon="-72.48395001">
    <!-- conflict: "2822 Vermont Route 15, Wolcott, VT" No match in OSM, but a different address exists <5m away: "2822 Vt Route 15, Wolcott, VT" -->
    <tag k="addr:city" v="Wolcott"/>
    <tag k="addr:housenumber" v="2822"/>
    <tag k="addr:street" v="Vermont Route 15"/>
    <tag k="addr:state" v="VT"/>
    <tag k="ref:vcgi:esiteid" v="301302"/>
  </node>
  <node id="-716" visible="true" lat="44.5547538" lon="-72.48292431">
    <!-- conflict: "2860 Vermont Route 15, Wolcott, VT" No match in OSM, but a different address exists <5m away: "2860 Vt Route 15, Wolcott, VT" -->
    <tag k="addr:city" v="Wolcott"/>
    <tag k="addr:housenumber" v="2860"/>
    <tag k="addr:street" v="Vermont Route 15"/>
    <tag k="addr:state" v="VT"/>
    <tag k="ref:vcgi:esiteid" v="301303"/>
  </node>
  <node id="-721" visible="true" lat="44.56446358" lon="-72.49739192">
    <!-- conflict: "1943 Vermont Route 15, Wolcott, VT" No match in OSM, but a different address exists <5m away: "1943 Vt Route 15, Wolcott, VT" -->
    <tag k="addr:city" v="Wolcott"/>
    <tag k="addr:housenumber" v="1943"/>
    <tag k="addr:street" v="Vermont Route 15"/>
    <tag k="addr:state" v="VT"/>
    <tag k="ref:vcgi:esiteid" v="301308"/>
  </node>
  <node id="-741" visible="true" lat="44.54364035" lon="-72.50605667">
    <!-- conflict: "54 Whitman Lane, Wolcott, VT" No match in OSM, but a different address exists <5m away: "2525 Elmore Pond Road, Wolcott, VT" -->
    <tag k="addr:city" v="Wolcott"/>
    <tag k="addr:housenumber" v="54"/>
    <tag k="addr:street" v="Whitman Lane"/>
    <tag k="addr:state" v="VT"/>
    <tag k="ref:vcgi:esiteid" v="301328"/>
  </node>
  <node id="-768" visible="true" lat="44.56664969" lon="-72.50305341">
    <!-- conflict: "1566 Vermont Route 15, Wolcott, VT" No match in OSM, but a different address exists <5m away: "1566 Vt Route 15, Wolcott, VT" -->
    <tag k="addr:city" v="Wolcott"/>
    <tag k="addr:housenumber" v="1566"/>
    <tag k="addr:street" v="Vermont Route 15"/>
    <tag k="addr:state" v="VT"/>
    <tag k="ref:vcgi:esiteid" v="301361"/>
  </node>
  <node id="-775" visible="true" lat="44.61913985" lon="-72.44634071">
    <!-- conflict: "5121 North Wolcott Road, Wolcott, VT" No match in OSM, but a different address exists <5m away: "10 Moodie Acres, Wolcott, VT" -->
    <tag k="addr:city" v="Wolcott"/>
    <tag k="addr:housenumber" v="5121"/>
    <tag k="addr:street" v="North Wolcott Road"/>
    <tag k="addr:state" v="VT"/>
    <tag k="ref:vcgi:esiteid" v="301368"/>
  </node>
  <node id="-825" visible="true" lat="44.58432019" lon="-72.48966654">
    <!-- conflict: "1242 West Hill Road, Wolcott, VT" No match in OSM, but a different address exists <5m away: "61 Natalies Lane, Wolcott, VT" -->
    <tag k="addr:city" v="Wolcott"/>
    <tag k="addr:housenumber" v="1242"/>
    <tag k="addr:street" v="West Hill Road"/>
    <tag k="addr:state" v="VT"/>
    <tag k="ref:vcgi:esiteid" v="310046"/>
  </node>
  <node id="-834" visible="true" lat="44.61051163" lon="-72.45796093">
    <!-- conflict: "22 Anthony Lane, Wolcott, VT" No match in OSM, but a different address exists <5m away: "89 Anthonys Lane, Wolcott, VT" -->
    <tag k="addr:city" v="Wolcott"/>
    <tag k="addr:housenumber" v="22"/>
    <tag k="addr:street" v="Anthony Lane"/>
    <tag k="addr:state" v="VT"/>
    <tag k="ref:vcgi:esiteid" v="316070"/>
  </node>
  <node id="-841" visible="true" lat="44.58287975" lon="-72.49036449">
    <!-- conflict: "1224 West Hill Road, Wolcott, VT" No match in OSM, but a different address exists <5m away: "6 Natalies Lane, Wolcott, VT" -->
    <tag k="addr:city" v="Wolcott"/>
    <tag k="addr:housenumber" v="1224"/>
    <tag k="addr:street" v="West Hill Road"/>
    <tag k="addr:state" v="VT"/>
    <tag k="ref:vcgi:esiteid" v="325230"/>
  </node>
  <node id="-870" visible="true" lat="44.53081231" lon="-72.42287189">
    <!-- conflict: "170 Quarry Road, Wolcott, VT" No match in OSM, but a different address exists <5m away: "150 Quarry Road, Wolcott, VT" -->
    <tag k="addr:city" v="Wolcott"/>
    <tag k="addr:housenumber" v="170"/>
    <tag k="addr:street" v="Quarry Road"/>
    <tag k="addr:state" v="VT"/>
    <tag k="ref:vcgi:esiteid" v="337946"/>
  </node>
  <node id="-871" visible="true" lat="44.61945578" lon="-72.44728221">
    <!-- conflict: "5119 North Wolcott Road, Wolcott, VT" No match in OSM, but a different address exists <5m away: "99 Moodie Acres, Wolcott, VT" -->
    <tag k="addr:city" v="Wolcott"/>
    <tag k="addr:housenumber" v="5119"/>
    <tag k="addr:street" v="North Wolcott Road"/>
    <tag k="addr:state" v="VT"/>
    <tag k="ref:vcgi:esiteid" v="337947"/>
  </node>
  <node id="-879" visible="true" lat="44.55273951" lon="-72.53345123">
    <!-- conflict: "1255 Richard Woolcutt Road, Wolcott, VT" Fuzzy match to "1255 Richard Woolcutt Road, Elmore, VT" -->
    <tag k="addr:city" v="Wolcott"/>
    <tag k="addr:housenumber" v="1255"/>
    <tag k="addr:street" v="Richard Woolcutt Road"/>
    <tag k="addr:state" v="VT"/>
    <tag k="ref:vcgi:esiteid" v="341217"/>
  </node>
  <node id="-880" visible="true" lat="44.55285018" lon="-72.53379686">
    <!-- conflict: "1331 Richard Woolcutt Road, Wolcott, VT" Fuzzy match to "1331 Richard Woolcutt Road, Elmore, VT" -->
    <tag k="addr:city" v="Wolcott"/>
    <tag k="addr:housenumber" v="1331"/>
    <tag k="addr:street" v="Richard Woolcutt Road"/>
    <tag k="addr:state" v="VT"/>
    <tag k="ref:vcgi:esiteid" v="341218"/>
  </node>
  <node id="-881" visible="true" lat="44.55330136" lon="-72.53514364">
    <!-- conflict: "1369 Richard Woolcutt Road, Wolcott, VT" Fuzzy match to "1369 Richard Woolcutt Road, Elmore, VT" -->
    <tag k="addr:city" v="Wolcott"/>
    <tag k="addr:housenumber" v="1369"/>
    <tag k="addr:street" v="Richard Woolcutt Road"/>
    <tag k="addr:state" v="VT"/>
    <tag k="ref:vcgi:esiteid" v="341219"/>
  </node>
  <node id="-907" visible="true" lat="44.62774748" lon="-72.4657294">
    <!-- conflict: "1228 Brook Road, Wolcott, VT" Fuzzy match to "1228 Brook Road, Craftsbury, VT" -->
    <tag k="addr:city" v="Wolcott"/>
    <tag k="addr:housenumber" v="1228"/>
    <tag k="addr:street" v="Brook Road"/>
    <tag k="addr:state" v="VT"/>
    <tag k="ref:vcgi:esiteid" v="454281"/>
  </node>
  <node id="-908" visible="true" lat="44.58329645" lon="-72.4903472">
    <!-- conflict: "1226 West Hill Road, Wolcott, VT" No match in OSM, but a different address exists <5m away: "4 Natalies Lane, Wolcott, VT" -->
    <tag k="addr:city" v="Wolcott"/>
    <tag k="addr:housenumber" v="1226"/>
    <tag k="addr:street" v="West Hill Road"/>
    <tag k="addr:state" v="VT"/>
    <tag k="ref:vcgi:esiteid" v="454507"/>
  </node>
</osm>
