<?xml version="1.0" encoding="UTF-8"?>
<osm version="0.6" generator="JOSM">
  <node id="-100" visible="true" lat="42.91306301" lon="-73.10825721">
    <tag k="addr:city" v="Woodford"/>
    <tag k="addr:housenumber" v="1688"/>
    <tag k="addr:street" v="Old Harbour Road"/>
    <tag k="addr:state" v="VT"/>
    <tag k="ref:vcgi:esiteid" v="302149"/>
  </node>
  <node id="-101" visible="true" lat="42.91233979" lon="-73.11004819">
    <tag k="addr:city" v="Woodford"/>
    <tag k="addr:housenumber" v="1588"/>
    <tag k="addr:street" v="Old Harbour Road"/>
    <tag k="addr:state" v="VT"/>
    <tag k="ref:vcgi:esiteid" v="302150"/>
  </node>
  <node id="-105" visible="true" lat="42.90968034" lon="-73.11614225">
    <tag k="addr:city" v="Woodford"/>
    <tag k="addr:housenumber" v="1180"/>
    <tag k="addr:street" v="Old Harbour Road"/>
    <tag k="addr:state" v="VT"/>
    <tag k="ref:vcgi:esiteid" v="302154"/>
  </node>
  <node id="-106" visible="true" lat="42.90928243" lon="-73.1197663">
    <tag k="addr:city" v="Woodford"/>
    <tag k="addr:housenumber" v="73"/>
    <tag k="addr:street" v="Bickford Hollow Road"/>
    <tag k="addr:state" v="VT"/>
    <tag k="ref:vcgi:esiteid" v="302155"/>
  </node>
  <node id="-107" visible="true" lat="42.90961256" lon="-73.11376">
    <tag k="addr:city" v="Woodford"/>
    <tag k="addr:housenumber" v="1312"/>
    <tag k="addr:street" v="Old Harbour Road"/>
    <tag k="addr:state" v="VT"/>
    <tag k="ref:vcgi:esiteid" v="302156"/>
  </node>
  <node id="-108" visible="true" lat="42.90901411" lon="-73.11970248">
    <tag k="addr:city" v="Woodford"/>
    <tag k="addr:housenumber" v="31"/>
    <tag k="addr:street" v="Bickford Hollow Road"/>
    <tag k="addr:state" v="VT"/>
    <tag k="ref:vcgi:esiteid" v="302157"/>
  </node>
  <node id="-109" visible="true" lat="42.90892813" lon="-73.11965853">
    <tag k="addr:city" v="Woodford"/>
    <tag k="addr:housenumber" v="23"/>
    <tag k="addr:street" v="Bickford Hollow Road"/>
    <tag k="addr:state" v="VT"/>
    <tag k="ref:vcgi:esiteid" v="302158"/>
  </node>
  <node id="-110" visible="true" lat="42.90877455" lon="-73.11959819">
    <tag k="addr:city" v="Woodford"/>
    <tag k="addr:housenumber" v="5"/>
    <tag k="addr:street" v="Bickford Hollow Road"/>
    <tag k="addr:state" v="VT"/>
    <tag k="ref:vcgi:esiteid" v="302159"/>
  </node>
  <node id="-111" visible="true" lat="42.90837441" lon="-73.12046665">
    <tag k="addr:city" v="Woodford"/>
    <tag k="addr:housenumber" v="1011"/>
    <tag k="addr:street" v="Old Harbour Road"/>
    <tag k="addr:state" v="VT"/>
    <tag k="ref:vcgi:esiteid" v="302160"/>
  </node>
  <node id="-113" visible="true" lat="42.90778365" lon="-73.12039994">
    <tag k="addr:city" v="Woodford"/>
    <tag k="addr:housenumber" v="956"/>
    <tag k="addr:street" v="Old Harbour Road"/>
    <tag k="addr:state" v="VT"/>
    <tag k="ref:vcgi:esiteid" v="302163"/>
  </node>
  <node id="-114" visible="true" lat="42.90807755" lon="-73.12322263">
    <tag k="addr:city" v="Woodford"/>
    <tag k="addr:housenumber" v="791"/>
    <tag k="addr:street" v="Old Harbour Road"/>
    <tag k="addr:state" v="VT"/>
    <tag k="ref:vcgi:esiteid" v="302164"/>
  </node>
  <node id="-115" visible="true" lat="42.90696142" lon="-73.12131744">
    <tag k="addr:city" v="Woodford"/>
    <tag k="addr:housenumber" v="874"/>
    <tag k="addr:street" v="Old Harbour Road"/>
    <tag k="addr:state" v="VT"/>
    <tag k="ref:vcgi:esiteid" v="302165"/>
  </node>
  <node id="-116" visible="true" lat="42.90652821" lon="-73.12177203">
    <tag k="addr:city" v="Woodford"/>
    <tag k="addr:housenumber" v="836"/>
    <tag k="addr:street" v="Old Harbour Road"/>
    <tag k="addr:state" v="VT"/>
    <tag k="ref:vcgi:esiteid" v="302166"/>
  </node>
  <node id="-117" visible="true" lat="42.904687" lon="-73.12333888">
    <tag k="addr:city" v="Woodford"/>
    <tag k="addr:housenumber" v="673"/>
    <tag k="addr:street" v="Old Harbour Road"/>
    <tag k="addr:state" v="VT"/>
    <tag k="ref:vcgi:esiteid" v="302169"/>
  </node>
  <node id="-118" visible="true" lat="42.90421415" lon="-73.1232773">
    <tag k="addr:city" v="Woodford"/>
    <tag k="addr:housenumber" v="651"/>
    <tag k="addr:street" v="Old Harbour Road"/>
    <tag k="addr:state" v="VT"/>
    <tag k="ref:vcgi:esiteid" v="302170"/>
  </node>
  <node id="-119" visible="true" lat="42.90403435" lon="-73.12378162">
    <tag k="addr:city" v="Woodford"/>
    <tag k="addr:housenumber" v="627"/>
    <tag k="addr:street" v="Old Harbour Road"/>
    <tag k="addr:state" v="VT"/>
    <tag k="ref:vcgi:esiteid" v="302171"/>
  </node>
  <node id="-120" visible="true" lat="42.90209825" lon="-73.12131824">
    <tag k="addr:city" v="Woodford"/>
    <tag k="addr:housenumber" v="356"/>
    <tag k="addr:street" v="Old Harbour Road"/>
    <tag k="addr:state" v="VT"/>
    <tag k="ref:vcgi:esiteid" v="302172"/>
  </node>
  <node id="-121" visible="true" lat="42.89729713" lon="-73.06318784">
    <tag k="addr:city" v="Woodford"/>
    <tag k="addr:housenumber" v="457"/>
    <tag k="addr:street" v="Little Pond Road"/>
    <tag k="addr:state" v="VT"/>
    <tag k="ref:vcgi:esiteid" v="302173"/>
  </node>
  <node id="-122" visible="true" lat="42.9012018" lon="-73.12466835">
    <tag k="addr:city" v="Woodford"/>
    <tag k="addr:housenumber" v="419"/>
    <tag k="addr:street" v="Old Harbour Road"/>
    <tag k="addr:state" v="VT"/>
    <tag k="ref:vcgi:esiteid" v="302174"/>
  </node>
  <node id="-123" visible="true" lat="42.89995226" lon="-73.12353533">
    <tag k="addr:city" v="Woodford"/>
    <tag k="addr:housenumber" v="358"/>
    <tag k="addr:street" v="Old Harbour Road"/>
    <tag k="addr:state" v="VT"/>
    <tag k="ref:vcgi:esiteid" v="302175"/>
  </node>
  <node id="-124" visible="true" lat="42.89960483" lon="-73.1259088">
    <tag k="addr:city" v="Woodford"/>
    <tag k="addr:housenumber" v="291"/>
    <tag k="addr:street" v="Old Harbour Road"/>
    <tag k="addr:state" v="VT"/>
    <tag k="ref:vcgi:esiteid" v="302176"/>
  </node>
  <node id="-125" visible="true" lat="42.89868141" lon="-73.12661981">
    <tag k="addr:city" v="Woodford"/>
    <tag k="addr:housenumber" v="229"/>
    <tag k="addr:street" v="Old Harbour Road"/>
    <tag k="addr:state" v="VT"/>
    <tag k="ref:vcgi:esiteid" v="302177"/>
  </node>
  <node id="-126" visible="true" lat="42.89825714" lon="-73.12675332">
    <tag k="addr:city" v="Woodford"/>
    <tag k="addr:housenumber" v="187"/>
    <tag k="addr:street" v="Old Harbour Road"/>
    <tag k="addr:state" v="VT"/>
    <tag k="ref:vcgi:esiteid" v="302178"/>
  </node>
  <node id="-127" visible="true" lat="42.89801649" lon="-73.12634614">
    <tag k="addr:city" v="Woodford"/>
    <tag k="addr:housenumber" v="198"/>
    <tag k="addr:street" v="Old Harbour Road"/>
    <tag k="addr:state" v="VT"/>
    <tag k="ref:vcgi:esiteid" v="302179"/>
  </node>
  <node id="-150" visible="true" lat="42.89532101" lon="-73.06875795">
    <tag k="addr:city" v="Woodford"/>
    <tag k="addr:housenumber" v="343"/>
    <tag k="addr:street" v="Sycamore Road"/>
    <tag k="addr:state" v="VT"/>
    <tag k="ref:vcgi:esiteid" v="302207"/>
  </node>
  <node id="-152" visible="true" lat="42.89531653" lon="-73.0694093">
    <tag k="addr:city" v="Woodford"/>
    <tag k="addr:housenumber" v="303"/>
    <tag k="addr:street" v="Sycamore Road"/>
    <tag k="addr:state" v="VT"/>
    <tag k="ref:vcgi:esiteid" v="302210"/>
  </node>
  <node id="-153" visible="true" lat="42.89521466" lon="-73.06973398">
    <tag k="addr:city" v="Woodford"/>
    <tag k="addr:housenumber" v="297"/>
    <tag k="addr:street" v="Sycamore Road"/>
    <tag k="addr:state" v="VT"/>
    <tag k="ref:vcgi:esiteid" v="302211"/>
  </node>
  <node id="-154" visible="true" lat="42.89525571" lon="-73.07052501">
    <tag k="addr:city" v="Woodford"/>
    <tag k="addr:housenumber" v="257"/>
    <tag k="addr:street" v="Sycamore Road"/>
    <tag k="addr:state" v="VT"/>
    <tag k="ref:vcgi:esiteid" v="302212"/>
  </node>
  <node id="-156" visible="true" lat="42.894994" lon="-73.07148946">
    <tag k="addr:city" v="Woodford"/>
    <tag k="addr:housenumber" v="207"/>
    <tag k="addr:street" v="Sycamore Road"/>
    <tag k="addr:state" v="VT"/>
    <tag k="ref:vcgi:esiteid" v="302214"/>
  </node>
  <node id="-158" visible="true" lat="42.8949024" lon="-73.07024488">
    <tag k="addr:city" v="Woodford"/>
    <tag k="addr:housenumber" v="266"/>
    <tag k="addr:street" v="Sycamore Road"/>
    <tag k="addr:state" v="VT"/>
    <tag k="ref:vcgi:esiteid" v="302216"/>
  </node>
  <node id="-159" visible="true" lat="42.8949104" lon="-73.0688601">
    <tag k="addr:city" v="Woodford"/>
    <tag k="addr:housenumber" v="149"/>
    <tag k="addr:street" v="Hillside Road"/>
    <tag k="addr:state" v="VT"/>
    <tag k="ref:vcgi:esiteid" v="302217"/>
  </node>
  <node id="-160" visible="true" lat="42.89467542" lon="-73.06687235">
    <tag k="addr:city" v="Woodford"/>
    <tag k="addr:housenumber" v="367"/>
    <tag k="addr:street" v="Hickory Road"/>
    <tag k="addr:state" v="VT"/>
    <tag k="ref:vcgi:esiteid" v="302218"/>
  </node>
  <node id="-162" visible="true" lat="42.894825" lon="-73.06518028">
    <tag k="addr:city" v="Woodford"/>
    <tag k="addr:housenumber" v="451"/>
    <tag k="addr:street" v="Hickory Road"/>
    <tag k="addr:state" v="VT"/>
    <tag k="ref:vcgi:esiteid" v="302220"/>
  </node>
  <node id="-166" visible="true" lat="42.89480791" lon="-73.05795472">
    <tag k="addr:city" v="Woodford"/>
    <tag k="addr:housenumber" v="45"/>
    <tag k="addr:street" v="Dove Road"/>
    <tag k="addr:state" v="VT"/>
    <tag k="ref:vcgi:esiteid" v="302224"/>
  </node>
  <node id="-167" visible="true" lat="42.89482068" lon="-73.06624296">
    <tag k="addr:city" v="Woodford"/>
    <tag k="addr:housenumber" v="401"/>
    <tag k="addr:street" v="Hickory Road"/>
    <tag k="addr:state" v="VT"/>
    <tag k="ref:vcgi:esiteid" v="302225"/>
  </node>
  <node id="-168" visible="true" lat="42.89466319" lon="-73.06706688">
    <tag k="addr:city" v="Woodford"/>
    <tag k="addr:housenumber" v="365"/>
    <tag k="addr:street" v="Hickory Road"/>
    <tag k="addr:state" v="VT"/>
    <tag k="ref:vcgi:esiteid" v="302226"/>
  </node>
  <node id="-169" visible="true" lat="42.89469013" lon="-73.06727228">
    <tag k="addr:city" v="Woodford"/>
    <tag k="addr:housenumber" v="347"/>
    <tag k="addr:street" v="Hickory Road"/>
    <tag k="addr:state" v="VT"/>
    <tag k="ref:vcgi:esiteid" v="302227"/>
  </node>
  <node id="-170" visible="true" lat="42.89465219" lon="-73.05735305">
    <tag k="addr:city" v="Woodford"/>
    <tag k="addr:housenumber" v="87"/>
    <tag k="addr:street" v="Dove Road"/>
    <tag k="addr:state" v="VT"/>
    <tag k="ref:vcgi:esiteid" v="302228"/>
  </node>
  <node id="-171" visible="true" lat="42.89468437" lon="-73.06801259">
    <tag k="addr:city" v="Woodford"/>
    <tag k="addr:housenumber" v="309"/>
    <tag k="addr:street" v="Hickory Road"/>
    <tag k="addr:state" v="VT"/>
    <tag k="ref:vcgi:esiteid" v="302229"/>
  </node>
  <node id="-172" visible="true" lat="42.89467439" lon="-73.06763393">
    <tag k="addr:city" v="Woodford"/>
    <tag k="addr:housenumber" v="339"/>
    <tag k="addr:street" v="Hickory Road"/>
    <tag k="addr:state" v="VT"/>
    <tag k="ref:vcgi:esiteid" v="302230"/>
  </node>
  <node id="-173" visible="true" lat="42.89456118" lon="-73.06864672">
    <tag k="addr:city" v="Woodford"/>
    <tag k="addr:housenumber" v="129"/>
    <tag k="addr:street" v="Hillside Road"/>
    <tag k="addr:state" v="VT"/>
    <tag k="ref:vcgi:esiteid" v="302231"/>
  </node>
  <node id="-174" visible="true" lat="42.89440703" lon="-73.06527325">
    <tag k="addr:city" v="Woodford"/>
    <tag k="addr:housenumber" v="450"/>
    <tag k="addr:street" v="Hickory Road"/>
    <tag k="addr:state" v="VT"/>
    <tag k="ref:vcgi:esiteid" v="302233"/>
  </node>
  <node id="-175" visible="true" lat="42.89453269" lon="-73.06918562">
    <tag k="addr:city" v="Woodford"/>
    <tag k="addr:housenumber" v="253"/>
    <tag k="addr:street" v="Hickory Road"/>
    <tag k="addr:state" v="VT"/>
    <tag k="ref:vcgi:esiteid" v="302234"/>
  </node>
  <node id="-177" visible="true" lat="42.89435575" lon="-73.05815911">
    <tag k="addr:city" v="Woodford"/>
    <tag k="addr:housenumber" v="46"/>
    <tag k="addr:street" v="Dove Road"/>
    <tag k="addr:state" v="VT"/>
    <tag k="ref:vcgi:esiteid" v="302236"/>
  </node>
  <node id="-178" visible="true" lat="42.89423702" lon="-73.06757556">
    <tag k="addr:city" v="Woodford"/>
    <tag k="addr:housenumber" v="336"/>
    <tag k="addr:street" v="Hickory Road"/>
    <tag k="addr:state" v="VT"/>
    <tag k="ref:vcgi:esiteid" v="302237"/>
  </node>
  <node id="-179" visible="true" lat="42.89429689" lon="-73.06678512">
    <tag k="addr:city" v="Woodford"/>
    <tag k="addr:housenumber" v="376"/>
    <tag k="addr:street" v="Hickory Road"/>
    <tag k="addr:state" v="VT"/>
    <tag k="ref:vcgi:esiteid" v="302238"/>
  </node>
  <node id="-180" visible="true" lat="42.89421512" lon="-73.06699257">
    <tag k="addr:city" v="Woodford"/>
    <tag k="addr:housenumber" v="362"/>
    <tag k="addr:street" v="Hickory Road"/>
    <tag k="addr:state" v="VT"/>
    <tag k="ref:vcgi:esiteid" v="302239"/>
  </node>
  <node id="-181" visible="true" lat="42.89415232" lon="-73.06922598">
    <tag k="addr:city" v="Woodford"/>
    <tag k="addr:housenumber" v="250"/>
    <tag k="addr:street" v="Hickory Road"/>
    <tag k="addr:state" v="VT"/>
    <tag k="ref:vcgi:esiteid" v="302241"/>
  </node>
  <node id="-183" visible="true" lat="42.89414621" lon="-73.06478037">
    <tag k="addr:city" v="Woodford"/>
    <tag k="addr:housenumber" v="61"/>
    <tag k="addr:street" v="Talking Tree Lane"/>
    <tag k="addr:state" v="VT"/>
    <tag k="ref:vcgi:esiteid" v="302243"/>
  </node>
  <node id="-184" visible="true" lat="42.89411039" lon="-73.06997346">
    <tag k="addr:city" v="Woodford"/>
    <tag k="addr:housenumber" v="214"/>
    <tag k="addr:street" v="Hickory Road"/>
    <tag k="addr:state" v="VT"/>
    <tag k="ref:vcgi:esiteid" v="302244"/>
  </node>
  <node id="-185" visible="true" lat="42.89406485" lon="-73.06526291">
    <tag k="addr:city" v="Woodford"/>
    <tag k="addr:housenumber" v="455"/>
    <tag k="addr:street" v="Birch Road"/>
    <tag k="addr:state" v="VT"/>
    <tag k="ref:vcgi:esiteid" v="302245"/>
  </node>
  <node id="-186" visible="true" lat="42.8940647" lon="-73.06507027">
    <tag k="addr:city" v="Woodford"/>
    <tag k="addr:housenumber" v="465"/>
    <tag k="addr:street" v="Birch Road"/>
    <tag k="addr:state" v="VT"/>
    <tag k="ref:vcgi:esiteid" v="302246"/>
  </node>
  <node id="-187" visible="true" lat="42.89382341" lon="-73.06823287">
    <tag k="addr:city" v="Woodford"/>
    <tag k="addr:housenumber" v="84"/>
    <tag k="addr:street" v="Hillside Road"/>
    <tag k="addr:state" v="VT"/>
    <tag k="ref:vcgi:esiteid" v="302247"/>
  </node>
  <node id="-189" visible="true" lat="42.89391171" lon="-73.0709404">
    <tag k="addr:city" v="Woodford"/>
    <tag k="addr:housenumber" v="101"/>
    <tag k="addr:street" v="Mountain Road"/>
    <tag k="addr:state" v="VT"/>
    <tag k="ref:vcgi:esiteid" v="302249"/>
  </node>
  <node id="-192" visible="true" lat="42.89406124" lon="-73.07281106">
    <tag k="addr:city" v="Woodford"/>
    <tag k="addr:housenumber" v="69"/>
    <tag k="addr:street" v="Sycamore Road"/>
    <tag k="addr:state" v="VT"/>
    <tag k="ref:vcgi:esiteid" v="302252"/>
  </node>
  <node id="-193" visible="true" lat="42.89372108" lon="-73.07195329">
    <tag k="addr:city" v="Woodford"/>
    <tag k="addr:housenumber" v="97"/>
    <tag k="addr:street" v="Hickory Road"/>
    <tag k="addr:state" v="VT"/>
    <tag k="ref:vcgi:esiteid" v="302253"/>
  </node>
  <node id="-195" visible="true" lat="42.89374949" lon="-73.06978343">
    <tag k="addr:city" v="Woodford"/>
    <tag k="addr:housenumber" v="225"/>
    <tag k="addr:street" v="Birch Road"/>
    <tag k="addr:state" v="VT"/>
    <tag k="ref:vcgi:esiteid" v="302255"/>
  </node>
  <node id="-196" visible="true" lat="42.89358129" lon="-73.06429858">
    <tag k="addr:city" v="Woodford"/>
    <tag k="addr:housenumber" v="2"/>
    <tag k="addr:street" v="Talking Tree Lane"/>
    <tag k="addr:state" v="VT"/>
    <tag k="ref:vcgi:esiteid" v="302256"/>
  </node>
  <node id="-197" visible="true" lat="42.89370412" lon="-73.06935206">
    <tag k="addr:city" v="Woodford"/>
    <tag k="addr:housenumber" v="259"/>
    <tag k="addr:street" v="Birch Road"/>
    <tag k="addr:state" v="VT"/>
    <tag k="ref:vcgi:esiteid" v="302258"/>
  </node>
  <node id="-198" visible="true" lat="42.89352004" lon="-73.07160879">
    <tag k="addr:city" v="Woodford"/>
    <tag k="addr:housenumber" v="108"/>
    <tag k="addr:street" v="Hickory Road"/>
    <tag k="addr:state" v="VT"/>
    <tag k="ref:vcgi:esiteid" v="302259"/>
  </node>
  <node id="-201" visible="true" lat="42.89328801" lon="-73.07033181">
    <tag k="addr:city" v="Woodford"/>
    <tag k="addr:housenumber" v="188"/>
    <tag k="addr:street" v="Birch Road"/>
    <tag k="addr:state" v="VT"/>
    <tag k="ref:vcgi:esiteid" v="302262"/>
  </node>
  <node id="-202" visible="true" lat="42.89338092" lon="-73.06804359">
    <tag k="addr:city" v="Woodford"/>
    <tag k="addr:housenumber" v="310"/>
    <tag k="addr:street" v="Birch Road"/>
    <tag k="addr:state" v="VT"/>
    <tag k="ref:vcgi:esiteid" v="302263"/>
  </node>
  <node id="-203" visible="true" lat="42.89360544" lon="-73.07268455">
    <tag k="addr:city" v="Woodford"/>
    <tag k="addr:housenumber" v="51"/>
    <tag k="addr:street" v="Hickory Road"/>
    <tag k="addr:state" v="VT"/>
    <tag k="ref:vcgi:esiteid" v="302264"/>
  </node>
  <node id="-204" visible="true" lat="42.89334232" lon="-73.06891905">
    <tag k="addr:city" v="Woodford"/>
    <tag k="addr:housenumber" v="45"/>
    <tag k="addr:street" v="Hillside Road"/>
    <tag k="addr:state" v="VT"/>
    <tag k="ref:vcgi:esiteid" v="302265"/>
  </node>
  <node id="-205" visible="true" lat="42.89331409" lon="-73.06602">
    <tag k="addr:city" v="Woodford"/>
    <tag k="addr:housenumber" v="529"/>
    <tag k="addr:street" v="Beach Road"/>
    <tag k="addr:state" v="VT"/>
    <tag k="ref:vcgi:esiteid" v="302266"/>
  </node>
  <node id="-206" visible="true" lat="42.89332755" lon="-73.06539696">
    <tag k="addr:city" v="Woodford"/>
    <tag k="addr:housenumber" v="559"/>
    <tag k="addr:street" v="Beach Road"/>
    <tag k="addr:state" v="VT"/>
    <tag k="ref:vcgi:esiteid" v="302267"/>
  </node>
  <node id="-207" visible="true" lat="42.89329867" lon="-73.06561772">
    <tag k="addr:city" v="Woodford"/>
    <tag k="addr:housenumber" v="547"/>
    <tag k="addr:street" v="Beach Road"/>
    <tag k="addr:state" v="VT"/>
    <tag k="ref:vcgi:esiteid" v="302268"/>
  </node>
  <node id="-209" visible="true" lat="42.89326652" lon="-73.06970193">
    <tag k="addr:city" v="Woodford"/>
    <tag k="addr:housenumber" v="226"/>
    <tag k="addr:street" v="Birch Road"/>
    <tag k="addr:state" v="VT"/>
    <tag k="ref:vcgi:esiteid" v="302270"/>
  </node>
  <node id="-210" visible="true" lat="42.89325174" lon="-73.06661885">
    <tag k="addr:city" v="Woodford"/>
    <tag k="addr:housenumber" v="495"/>
    <tag k="addr:street" v="Beach Road"/>
    <tag k="addr:state" v="VT"/>
    <tag k="ref:vcgi:esiteid" v="302271"/>
  </node>
  <node id="-212" visible="true" lat="42.89313717" lon="-73.06691961">
    <tag k="addr:city" v="Woodford"/>
    <tag k="addr:housenumber" v="481"/>
    <tag k="addr:street" v="Beach Road"/>
    <tag k="addr:state" v="VT"/>
    <tag k="ref:vcgi:esiteid" v="302273"/>
  </node>
  <node id="-213" visible="true" lat="42.89306994" lon="-73.07163136">
    <tag k="addr:city" v="Woodford"/>
    <tag k="addr:housenumber" v="127"/>
    <tag k="addr:street" v="Birch Road"/>
    <tag k="addr:state" v="VT"/>
    <tag k="ref:vcgi:esiteid" v="302274"/>
  </node>
  <node id="-215" visible="true" lat="42.89314269" lon="-73.06711539">
    <tag k="addr:city" v="Woodford"/>
    <tag k="addr:housenumber" v="469"/>
    <tag k="addr:street" v="Beach Road"/>
    <tag k="addr:state" v="VT"/>
    <tag k="ref:vcgi:esiteid" v="302276"/>
  </node>
  <node id="-216" visible="true" lat="42.89296746" lon="-73.07366877">
    <tag k="addr:city" v="Woodford"/>
    <tag k="addr:housenumber" v="31"/>
    <tag k="addr:street" v="Sycamore Road"/>
    <tag k="addr:state" v="VT"/>
    <tag k="ref:vcgi:esiteid" v="302277"/>
  </node>
  <node id="-219" visible="true" lat="42.89301648" lon="-73.07077063">
    <tag k="addr:city" v="Woodford"/>
    <tag k="addr:housenumber" v="39"/>
    <tag k="addr:street" v="Mountain Road"/>
    <tag k="addr:state" v="VT"/>
    <tag k="ref:vcgi:esiteid" v="302280"/>
  </node>
  <node id="-220" visible="true" lat="42.89293198" lon="-73.06567613">
    <tag k="addr:city" v="Woodford"/>
    <tag k="addr:housenumber" v="534"/>
    <tag k="addr:street" v="Beach Road"/>
    <tag k="addr:state" v="VT"/>
    <tag k="ref:vcgi:esiteid" v="302281"/>
  </node>
  <node id="-222" visible="true" lat="42.89277856" lon="-73.07272723">
    <tag k="addr:city" v="Woodford"/>
    <tag k="addr:housenumber" v="38"/>
    <tag k="addr:street" v="Hickory Road"/>
    <tag k="addr:state" v="VT"/>
    <tag k="ref:vcgi:esiteid" v="302283"/>
  </node>
  <node id="-223" visible="true" lat="42.89290707" lon="-73.06634414">
    <tag k="addr:city" v="Woodford"/>
    <tag k="addr:housenumber" v="502"/>
    <tag k="addr:street" v="Beach Road"/>
    <tag k="addr:state" v="VT"/>
    <tag k="ref:vcgi:esiteid" v="302284"/>
  </node>
  <node id="-224" visible="true" lat="42.89287062" lon="-73.06692094">
    <tag k="addr:city" v="Woodford"/>
    <tag k="addr:housenumber" v="472"/>
    <tag k="addr:street" v="Beach Road"/>
    <tag k="addr:state" v="VT"/>
    <tag k="ref:vcgi:esiteid" v="302285"/>
  </node>
  <node id="-225" visible="true" lat="42.89287576" lon="-73.06665784">
    <tag k="addr:city" v="Woodford"/>
    <tag k="addr:housenumber" v="488"/>
    <tag k="addr:street" v="Beach Road"/>
    <tag k="addr:state" v="VT"/>
    <tag k="ref:vcgi:esiteid" v="302286"/>
  </node>
  <node id="-226" visible="true" lat="42.89294374" lon="-73.07116229">
    <tag k="addr:city" v="Woodford"/>
    <tag k="addr:housenumber" v="144"/>
    <tag k="addr:street" v="Birch Road"/>
    <tag k="addr:state" v="VT"/>
    <tag k="ref:vcgi:esiteid" v="302288"/>
  </node>
  <node id="-227" visible="true" lat="42.89279039" lon="-73.06948027">
    <tag k="addr:city" v="Woodford"/>
    <tag k="addr:housenumber" v="347"/>
    <tag k="addr:street" v="Beach Road"/>
    <tag k="addr:state" v="VT"/>
    <tag k="ref:vcgi:esiteid" v="302289"/>
  </node>
  <node id="-228" visible="true" lat="42.8927939" lon="-73.06741074">
    <tag k="addr:city" v="Woodford"/>
    <tag k="addr:housenumber" v="450"/>
    <tag k="addr:street" v="Beach Road"/>
    <tag k="addr:state" v="VT"/>
    <tag k="ref:vcgi:esiteid" v="302290"/>
  </node>
  <node id="-230" visible="true" lat="42.89277628" lon="-73.07216158">
    <tag k="addr:city" v="Woodford"/>
    <tag k="addr:housenumber" v="87"/>
    <tag k="addr:street" v="Birch Road"/>
    <tag k="addr:state" v="VT"/>
    <tag k="ref:vcgi:esiteid" v="302293"/>
  </node>
  <node id="-231" visible="true" lat="42.8927329" lon="-73.06784074">
    <tag k="addr:city" v="Woodford"/>
    <tag k="addr:housenumber" v="426"/>
    <tag k="addr:street" v="Beach Road"/>
    <tag k="addr:state" v="VT"/>
    <tag k="ref:vcgi:esiteid" v="302294"/>
  </node>
  <node id="-235" visible="true" lat="42.89264716" lon="-73.0681253">
    <tag k="addr:city" v="Woodford"/>
    <tag k="addr:housenumber" v="414"/>
    <tag k="addr:street" v="Beach Road"/>
    <tag k="addr:state" v="VT"/>
    <tag k="ref:vcgi:esiteid" v="302298"/>
  </node>
  <node id="-236" visible="true" lat="42.89273131" lon="-73.07238279">
    <tag k="addr:city" v="Woodford"/>
    <tag k="addr:housenumber" v="73"/>
    <tag k="addr:street" v="Birch Road"/>
    <tag k="addr:state" v="VT"/>
    <tag k="ref:vcgi:esiteid" v="302299"/>
  </node>
  <node id="-237" visible="true" lat="42.8925823" lon="-73.06516694">
    <tag k="addr:city" v="Woodford"/>
    <tag k="addr:housenumber" v="34"/>
    <tag k="addr:street" v="Simon Lane"/>
    <tag k="addr:state" v="VT"/>
    <tag k="ref:vcgi:esiteid" v="302300"/>
  </node>
  <node id="-238" visible="true" lat="42.89258101" lon="-73.07249994">
    <tag k="addr:city" v="Woodford"/>
    <tag k="addr:housenumber" v="67"/>
    <tag k="addr:street" v="Birch Road"/>
    <tag k="addr:state" v="VT"/>
    <tag k="ref:vcgi:esiteid" v="302301"/>
  </node>
  <node id="-239" visible="true" lat="42.89250563" lon="-73.06861916">
    <tag k="addr:city" v="Woodford"/>
    <tag k="addr:housenumber" v="394"/>
    <tag k="addr:street" v="Beach Road"/>
    <tag k="addr:state" v="VT"/>
    <tag k="ref:vcgi:esiteid" v="302302"/>
  </node>
  <node id="-240" visible="true" lat="42.89261103" lon="-73.07035771">
    <tag k="addr:city" v="Woodford"/>
    <tag k="addr:housenumber" v="301"/>
    <tag k="addr:street" v="Beach Road"/>
    <tag k="addr:state" v="VT"/>
    <tag k="ref:vcgi:esiteid" v="302303"/>
  </node>
  <node id="-241" visible="true" lat="42.89245069" lon="-73.07101585">
    <tag k="addr:city" v="Woodford"/>
    <tag k="addr:housenumber" v="7"/>
    <tag k="addr:street" v="Mountain Road"/>
    <tag k="addr:state" v="VT"/>
    <tag k="ref:vcgi:esiteid" v="302304"/>
  </node>
  <node id="-242" visible="true" lat="42.89245393" lon="-73.06878223">
    <tag k="addr:city" v="Woodford"/>
    <tag k="addr:housenumber" v="378"/>
    <tag k="addr:street" v="Beach Road"/>
    <tag k="addr:state" v="VT"/>
    <tag k="ref:vcgi:esiteid" v="302305"/>
  </node>
  <node id="-244" visible="true" lat="42.89242048" lon="-73.06917262">
    <tag k="addr:city" v="Woodford"/>
    <tag k="addr:housenumber" v="358"/>
    <tag k="addr:street" v="Beach Road"/>
    <tag k="addr:state" v="VT"/>
    <tag k="ref:vcgi:esiteid" v="302307"/>
  </node>
  <node id="-245" visible="true" lat="42.89234704" lon="-73.0698783">
    <tag k="addr:city" v="Woodford"/>
    <tag k="addr:housenumber" v="320"/>
    <tag k="addr:street" v="Beach Road"/>
    <tag k="addr:state" v="VT"/>
    <tag k="ref:vcgi:esiteid" v="302308"/>
  </node>
  <node id="-247" visible="true" lat="42.89240963" lon="-73.06942206">
    <tag k="addr:city" v="Woodford"/>
    <tag k="addr:housenumber" v="348"/>
    <tag k="addr:street" v="Beach Road"/>
    <tag k="addr:state" v="VT"/>
    <tag k="ref:vcgi:esiteid" v="302310"/>
  </node>
  <node id="-248" visible="true" lat="42.89230106" lon="-73.07006717">
    <tag k="addr:city" v="Woodford"/>
    <tag k="addr:housenumber" v="312"/>
    <tag k="addr:street" v="Beach Road"/>
    <tag k="addr:state" v="VT"/>
    <tag k="ref:vcgi:esiteid" v="302311"/>
  </node>
  <node id="-249" visible="true" lat="42.89234407" lon="-73.0647293">
    <tag k="addr:city" v="Woodford"/>
    <tag k="addr:housenumber" v="66"/>
    <tag k="addr:street" v="Simon Lane"/>
    <tag k="addr:state" v="VT"/>
    <tag k="ref:vcgi:esiteid" v="302312"/>
  </node>
  <node id="-252" visible="true" lat="42.89229561" lon="-73.07024946">
    <tag k="addr:city" v="Woodford"/>
    <tag k="addr:housenumber" v="298"/>
    <tag k="addr:street" v="Beach Road"/>
    <tag k="addr:state" v="VT"/>
    <tag k="ref:vcgi:esiteid" v="302315"/>
  </node>
  <node id="-253" visible="true" lat="42.8922015" lon="-73.07169035">
    <tag k="addr:city" v="Woodford"/>
    <tag k="addr:housenumber" v="235"/>
    <tag k="addr:street" v="Beach Road"/>
    <tag k="addr:state" v="VT"/>
    <tag k="ref:vcgi:esiteid" v="302316"/>
  </node>
  <node id="-254" visible="true" lat="42.89240995" lon="-73.07362485">
    <tag k="addr:city" v="Woodford"/>
    <tag k="addr:housenumber" v="307"/>
    <tag k="addr:street" v="Evergreen Lane"/>
    <tag k="addr:state" v="VT"/>
    <tag k="ref:vcgi:esiteid" v="302317"/>
  </node>
  <node id="-255" visible="true" lat="42.89213533" lon="-73.07311733">
    <tag k="addr:city" v="Woodford"/>
    <tag k="addr:housenumber" v="300"/>
    <tag k="addr:street" v="Evergreen Lane"/>
    <tag k="addr:state" v="VT"/>
    <tag k="ref:vcgi:esiteid" v="302318"/>
  </node>
  <node id="-259" visible="true" lat="42.89198646" lon="-73.0724963">
    <tag k="addr:city" v="Woodford"/>
    <tag k="addr:housenumber" v="46"/>
    <tag k="addr:street" v="Birch Road"/>
    <tag k="addr:state" v="VT"/>
    <tag k="ref:vcgi:esiteid" v="302322"/>
  </node>
  <node id="-260" visible="true" lat="42.89205805" lon="-73.06469595">
    <tag k="addr:city" v="Woodford"/>
    <tag k="addr:housenumber" v="86"/>
    <tag k="addr:street" v="Simon Lane"/>
    <tag k="addr:state" v="VT"/>
    <tag k="ref:vcgi:esiteid" v="302323"/>
  </node>
  <node id="-261" visible="true" lat="42.89201207" lon="-73.07194346">
    <tag k="addr:city" v="Woodford"/>
    <tag k="addr:housenumber" v="219"/>
    <tag k="addr:street" v="Beach Road"/>
    <tag k="addr:state" v="VT"/>
    <tag k="ref:vcgi:esiteid" v="302324"/>
  </node>
  <node id="-262" visible="true" lat="42.89196277" lon="-73.07141339">
    <tag k="addr:city" v="Woodford"/>
    <tag k="addr:housenumber" v="234"/>
    <tag k="addr:street" v="Beach Road"/>
    <tag k="addr:state" v="VT"/>
    <tag k="ref:vcgi:esiteid" v="302325"/>
  </node>
  <node id="-265" visible="true" lat="42.89189038" lon="-73.0643448">
    <tag k="addr:city" v="Woodford"/>
    <tag k="addr:housenumber" v="93"/>
    <tag k="addr:street" v="Simon Lane"/>
    <tag k="addr:state" v="VT"/>
    <tag k="ref:vcgi:esiteid" v="302328"/>
  </node>
  <node id="-266" visible="true" lat="42.89175114" lon="-73.07157061">
    <tag k="addr:city" v="Woodford"/>
    <tag k="addr:housenumber" v="220"/>
    <tag k="addr:street" v="Beach Road"/>
    <tag k="addr:state" v="VT"/>
    <tag k="ref:vcgi:esiteid" v="302329"/>
  </node>
  <node id="-269" visible="true" lat="42.89167097" lon="-73.07183813">
    <tag k="addr:city" v="Woodford"/>
    <tag k="addr:housenumber" v="188"/>
    <tag k="addr:street" v="Beach Road"/>
    <tag k="addr:state" v="VT"/>
    <tag k="ref:vcgi:esiteid" v="302332"/>
  </node>
  <node id="-272" visible="true" lat="42.89160813" lon="-73.07258618">
    <tag k="addr:city" v="Woodford"/>
    <tag k="addr:housenumber" v="175"/>
    <tag k="addr:street" v="Beach Road"/>
    <tag k="addr:state" v="VT"/>
    <tag k="ref:vcgi:esiteid" v="302335"/>
  </node>
  <node id="-273" visible="true" lat="42.8916342" lon="-73.07357276">
    <tag k="addr:city" v="Woodford"/>
    <tag k="addr:housenumber" v="269"/>
    <tag k="addr:street" v="Evergreen Lane"/>
    <tag k="addr:state" v="VT"/>
    <tag k="ref:vcgi:esiteid" v="302336"/>
  </node>
  <node id="-275" visible="true" lat="42.8913754" lon="-73.06451298">
    <tag k="addr:city" v="Woodford"/>
    <tag k="addr:housenumber" v="24"/>
    <tag k="addr:street" v="Honeysuckle Lane"/>
    <tag k="addr:state" v="VT"/>
    <tag k="ref:vcgi:esiteid" v="302338"/>
  </node>
  <node id="-277" visible="true" lat="42.89149896" lon="-73.07357723">
    <tag k="addr:city" v="Woodford"/>
    <tag k="addr:housenumber" v="243"/>
    <tag k="addr:street" v="Evergreen Lane"/>
    <tag k="addr:state" v="VT"/>
    <tag k="ref:vcgi:esiteid" v="302340"/>
  </node>
  <node id="-279" visible="true" lat="42.89121676" lon="-73.07235469">
    <tag k="addr:city" v="Woodford"/>
    <tag k="addr:housenumber" v="124"/>
    <tag k="addr:street" v="Beach Road"/>
    <tag k="addr:state" v="VT"/>
    <tag k="ref:vcgi:esiteid" v="302342"/>
  </node>
  <node id="-281" visible="true" lat="42.89123353" lon="-73.06456429">
    <tag k="addr:city" v="Woodford"/>
    <tag k="addr:housenumber" v="22"/>
    <tag k="addr:street" v="Honeysuckle Lane"/>
    <tag k="addr:state" v="VT"/>
    <tag k="ref:vcgi:esiteid" v="302344"/>
  </node>
  <node id="-282" visible="true" lat="42.89107936" lon="-73.037925">
    <tag k="addr:city" v="Woodford"/>
    <tag k="addr:housenumber" v="158"/>
    <tag k="addr:street" v="State Park Road"/>
    <tag k="addr:state" v="VT"/>
    <tag k="ref:vcgi:esiteid" v="302345"/>
  </node>
  <node id="-285" visible="true" lat="42.89098424" lon="-73.06482612">
    <tag k="addr:city" v="Woodford"/>
    <tag k="addr:housenumber" v="30"/>
    <tag k="addr:street" v="Honeysuckle Lane"/>
    <tag k="addr:state" v="VT"/>
    <tag k="ref:vcgi:esiteid" v="302348"/>
  </node>
  <node id="-286" visible="true" lat="42.89094502" lon="-73.07350673">
    <tag k="addr:city" v="Woodford"/>
    <tag k="addr:housenumber" v="215"/>
    <tag k="addr:street" v="Evergreen Lane"/>
    <tag k="addr:state" v="VT"/>
    <tag k="ref:vcgi:esiteid" v="302349"/>
  </node>
  <node id="-288" visible="true" lat="42.89084099" lon="-73.0651183">
    <tag k="addr:city" v="Woodford"/>
    <tag k="addr:housenumber" v="32"/>
    <tag k="addr:street" v="Honeysuckle Lane"/>
    <tag k="addr:state" v="VT"/>
    <tag k="ref:vcgi:esiteid" v="302351"/>
  </node>
  <node id="-290" visible="true" lat="42.89087465" lon="-73.03753849">
    <tag k="addr:city" v="Woodford"/>
    <tag k="addr:housenumber" v="142"/>
    <tag k="addr:street" v="State Park Road"/>
    <tag k="addr:state" v="VT"/>
    <tag k="ref:vcgi:esiteid" v="302353"/>
  </node>
  <node id="-292" visible="true" lat="42.89073431" lon="-73.06535676">
    <tag k="addr:city" v="Woodford"/>
    <tag k="addr:housenumber" v="44"/>
    <tag k="addr:street" v="Honeysuckle Lane"/>
    <tag k="addr:state" v="VT"/>
    <tag k="ref:vcgi:esiteid" v="302355"/>
  </node>
  <node id="-293" visible="true" lat="42.89085037" lon="-73.038027">
    <tag k="addr:city" v="Woodford"/>
    <tag k="addr:housenumber" v="156"/>
    <tag k="addr:street" v="State Park Road"/>
    <tag k="addr:state" v="VT"/>
    <tag k="ref:vcgi:esiteid" v="302356"/>
  </node>
  <node id="-301" visible="true" lat="42.89043233" lon="-73.07230377">
    <tag k="addr:city" v="Woodford"/>
    <tag k="addr:housenumber" v="96"/>
    <tag k="addr:street" v="Beach Road"/>
    <tag k="addr:state" v="VT"/>
    <tag k="ref:vcgi:esiteid" v="302365"/>
  </node>
  <node id="-303" visible="true" lat="42.89024654" lon="-73.07225827">
    <tag k="addr:city" v="Woodford"/>
    <tag k="addr:housenumber" v="84"/>
    <tag k="addr:street" v="Beach Road"/>
    <tag k="addr:state" v="VT"/>
    <tag k="ref:vcgi:esiteid" v="302368"/>
  </node>
  <node id="-304" visible="true" lat="42.89014341" lon="-73.07359995">
    <tag k="addr:city" v="Woodford"/>
    <tag k="addr:housenumber" v="157"/>
    <tag k="addr:street" v="Evergreen Lane"/>
    <tag k="addr:state" v="VT"/>
    <tag k="ref:vcgi:esiteid" v="302369"/>
  </node>
  <node id="-306" visible="true" lat="42.89012545" lon="-73.07286843">
    <tag k="addr:city" v="Woodford"/>
    <tag k="addr:housenumber" v="160"/>
    <tag k="addr:street" v="Evergreen Lane"/>
    <tag k="addr:state" v="VT"/>
    <tag k="ref:vcgi:esiteid" v="302371"/>
  </node>
  <node id="-309" visible="true" lat="42.89000155" lon="-73.07353353">
    <tag k="addr:city" v="Woodford"/>
    <tag k="addr:housenumber" v="149"/>
    <tag k="addr:street" v="Evergreen Lane"/>
    <tag k="addr:state" v="VT"/>
    <tag k="ref:vcgi:esiteid" v="302374"/>
  </node>
  <node id="-314" visible="true" lat="42.88977377" lon="-73.07029167">
    <tag k="addr:city" v="Woodford"/>
    <tag k="addr:housenumber" v="30"/>
    <tag k="addr:street" v="Crescent Lane"/>
    <tag k="addr:state" v="VT"/>
    <tag k="ref:vcgi:esiteid" v="302379"/>
  </node>
  <node id="-317" visible="true" lat="42.88980656" lon="-73.06979151">
    <tag k="addr:city" v="Woodford"/>
    <tag k="addr:housenumber" v="18"/>
    <tag k="addr:street" v="Crescent Lane"/>
    <tag k="addr:state" v="VT"/>
    <tag k="ref:vcgi:esiteid" v="302382"/>
  </node>
  <node id="-318" visible="true" lat="42.88977723" lon="-73.07007337">
    <tag k="addr:city" v="Woodford"/>
    <tag k="addr:housenumber" v="22"/>
    <tag k="addr:street" v="Crescent Lane"/>
    <tag k="addr:state" v="VT"/>
    <tag k="ref:vcgi:esiteid" v="302383"/>
  </node>
  <node id="-322" visible="true" lat="42.88961751" lon="-73.07221437">
    <tag k="addr:city" v="Woodford"/>
    <tag k="addr:housenumber" v="44"/>
    <tag k="addr:street" v="Beach Road"/>
    <tag k="addr:state" v="VT"/>
    <tag k="ref:vcgi:esiteid" v="302387"/>
  </node>
  <node id="-323" visible="true" lat="42.88964597" lon="-73.06914653">
    <tag k="addr:city" v="Woodford"/>
    <tag k="addr:housenumber" v="14"/>
    <tag k="addr:street" v="Crescent Lane"/>
    <tag k="addr:state" v="VT"/>
    <tag k="ref:vcgi:esiteid" v="302388"/>
  </node>
  <node id="-330" visible="true" lat="42.88925706" lon="-73.0734978">
    <tag k="addr:city" v="Woodford"/>
    <tag k="addr:housenumber" v="107"/>
    <tag k="addr:street" v="Evergreen Lane"/>
    <tag k="addr:state" v="VT"/>
    <tag k="ref:vcgi:esiteid" v="302395"/>
  </node>
  <node id="-337" visible="true" lat="42.8889099" lon="-73.07348262">
    <tag k="addr:city" v="Woodford"/>
    <tag k="addr:housenumber" v="91"/>
    <tag k="addr:street" v="Evergreen Lane"/>
    <tag k="addr:state" v="VT"/>
    <tag k="ref:vcgi:esiteid" v="302402"/>
  </node>
  <node id="-343" visible="true" lat="42.88884545" lon="-73.01228616">
    <tag k="addr:city" v="Woodford"/>
    <tag k="addr:housenumber" v="14"/>
    <tag k="addr:street" v="Town Line Road"/>
    <tag k="addr:state" v="VT"/>
    <tag k="ref:vcgi:esiteid" v="302409"/>
  </node>
  <node id="-344" visible="true" lat="42.88877521" lon="-73.01124868">
    <tag k="addr:city" v="Woodford"/>
    <tag k="addr:housenumber" v="67"/>
    <tag k="addr:street" v="Town Line Road"/>
    <tag k="addr:state" v="VT"/>
    <tag k="ref:vcgi:esiteid" v="302410"/>
  </node>
  <node id="-348" visible="true" lat="42.88829209" lon="-73.01095917">
    <tag k="addr:city" v="Woodford"/>
    <tag k="addr:housenumber" v="96"/>
    <tag k="addr:street" v="Town Line Road"/>
    <tag k="addr:state" v="VT"/>
    <tag k="ref:vcgi:esiteid" v="302414"/>
  </node>
  <node id="-353" visible="true" lat="42.88706278" lon="-73.08001955">
    <tag k="addr:city" v="Woodford"/>
    <tag k="addr:housenumber" v="235"/>
    <tag k="addr:street" v="Woodford City Road"/>
    <tag k="addr:state" v="VT"/>
    <tag k="ref:vcgi:esiteid" v="302420"/>
  </node>
  <node id="-354" visible="true" lat="42.88705548" lon="-73.07948109">
    <tag k="addr:city" v="Woodford"/>
    <tag k="addr:housenumber" v="249"/>
    <tag k="addr:street" v="Woodford City Road"/>
    <tag k="addr:state" v="VT"/>
    <tag k="ref:vcgi:esiteid" v="302421"/>
  </node>
  <node id="-357" visible="true" lat="42.88683252" lon="-73.08022785">
    <tag k="addr:city" v="Woodford"/>
    <tag k="addr:housenumber" v="225"/>
    <tag k="addr:street" v="Woodford City Road"/>
    <tag k="addr:state" v="VT"/>
    <tag k="ref:vcgi:esiteid" v="302424"/>
  </node>
  <node id="-361" visible="true" lat="42.8857962" lon="-73.07837407">
    <tag k="addr:city" v="Woodford"/>
    <tag k="addr:housenumber" v="108"/>
    <tag k="addr:street" v="Woodford City Road"/>
    <tag k="addr:state" v="VT"/>
    <tag k="ref:vcgi:esiteid" v="302428"/>
  </node>
  <node id="-366" visible="true" lat="42.88552497" lon="-73.07892115">
    <tag k="addr:city" v="Woodford"/>
    <tag k="addr:housenumber" v="131"/>
    <tag k="addr:street" v="Woodford City Road"/>
    <tag k="addr:state" v="VT"/>
    <tag k="ref:vcgi:esiteid" v="302433"/>
  </node>
  <node id="-369" visible="true" lat="42.88521179" lon="-73.07652626">
    <tag k="addr:city" v="Woodford"/>
    <tag k="addr:housenumber" v="14"/>
    <tag k="addr:street" v="Woodford City Road"/>
    <tag k="addr:state" v="VT"/>
    <tag k="ref:vcgi:esiteid" v="302436"/>
  </node>
  <node id="-370" visible="true" lat="42.88508232" lon="-73.07812399">
    <tag k="addr:city" v="Woodford"/>
    <tag k="addr:housenumber" v="73"/>
    <tag k="addr:street" v="Woodford City Road"/>
    <tag k="addr:state" v="VT"/>
    <tag k="ref:vcgi:esiteid" v="302437"/>
  </node>
  <node id="-379" visible="true" lat="42.88053384" lon="-73.08076536">
    <tag k="addr:city" v="Woodford"/>
    <tag k="addr:housenumber" v="50"/>
    <tag k="addr:street" v="Erbs Way"/>
    <tag k="addr:state" v="VT"/>
    <tag k="ref:vcgi:esiteid" v="302447"/>
  </node>
  <node id="-380" visible="true" lat="42.88054141" lon="-73.08015055">
    <tag k="addr:city" v="Woodford"/>
    <tag k="addr:housenumber" v="18"/>
    <tag k="addr:street" v="Erbs Way"/>
    <tag k="addr:state" v="VT"/>
    <tag k="ref:vcgi:esiteid" v="302448"/>
  </node>
  <node id="-381" visible="true" lat="42.88048023" lon="-73.0818161">
    <tag k="addr:city" v="Woodford"/>
    <tag k="addr:housenumber" v="102"/>
    <tag k="addr:street" v="Erbs Way"/>
    <tag k="addr:state" v="VT"/>
    <tag k="ref:vcgi:esiteid" v="302449"/>
  </node>
  <node id="-383" visible="true" lat="42.88019745" lon="-73.08012737">
    <tag k="addr:city" v="Woodford"/>
    <tag k="addr:housenumber" v="19"/>
    <tag k="addr:street" v="Erbs Way"/>
    <tag k="addr:state" v="VT"/>
    <tag k="ref:vcgi:esiteid" v="302451"/>
  </node>
  <node id="-385" visible="true" lat="42.8800628" lon="-73.08194528">
    <tag k="addr:city" v="Woodford"/>
    <tag k="addr:housenumber" v="119"/>
    <tag k="addr:street" v="Erbs Way"/>
    <tag k="addr:state" v="VT"/>
    <tag k="ref:vcgi:esiteid" v="302453"/>
  </node>
  <node id="-386" visible="true" lat="42.87983998" lon="-73.08238626">
    <tag k="addr:city" v="Woodford"/>
    <tag k="addr:housenumber" v="147"/>
    <tag k="addr:street" v="Erbs Way"/>
    <tag k="addr:state" v="VT"/>
    <tag k="ref:vcgi:esiteid" v="302454"/>
  </node>
  <node id="-387" visible="true" lat="42.87986692" lon="-73.08319635">
    <tag k="addr:city" v="Woodford"/>
    <tag k="addr:housenumber" v="152"/>
    <tag k="addr:street" v="Erbs Way"/>
    <tag k="addr:state" v="VT"/>
    <tag k="ref:vcgi:esiteid" v="302455"/>
  </node>
  <node id="-390" visible="true" lat="42.87946346" lon="-73.08273074">
    <tag k="addr:city" v="Woodford"/>
    <tag k="addr:housenumber" v="193"/>
    <tag k="addr:street" v="Erbs Way"/>
    <tag k="addr:state" v="VT"/>
    <tag k="ref:vcgi:esiteid" v="302458"/>
  </node>
  <node id="-393" visible="true" lat="42.8791191" lon="-73.08286288">
    <tag k="addr:city" v="Woodford"/>
    <tag k="addr:housenumber" v="201"/>
    <tag k="addr:street" v="Erbs Way"/>
    <tag k="addr:state" v="VT"/>
    <tag k="ref:vcgi:esiteid" v="302461"/>
  </node>
  <node id="-396" visible="true" lat="42.87831239" lon="-73.07615866">
    <tag k="addr:city" v="Woodford"/>
    <tag k="addr:housenumber" v="311"/>
    <tag k="addr:street" v="Greenwood Drive"/>
    <tag k="addr:state" v="VT"/>
    <tag k="ref:vcgi:esiteid" v="302465"/>
  </node>
  <node id="-398" visible="true" lat="42.87685348" lon="-73.11650972">
    <tag k="addr:city" v="Woodford"/>
    <tag k="addr:housenumber" v="358"/>
    <tag k="addr:street" v="Notch Road"/>
    <tag k="addr:state" v="VT"/>
    <tag k="ref:vcgi:esiteid" v="302468"/>
  </node>
  <node id="-399" visible="true" lat="42.87660911" lon="-73.07926812">
    <tag k="addr:city" v="Woodford"/>
    <tag k="addr:housenumber" v="83"/>
    <tag k="addr:street" v="Prospect Access"/>
    <tag k="addr:state" v="VT"/>
    <tag k="ref:vcgi:esiteid" v="302469"/>
  </node>
  <node id="-402" visible="true" lat="42.87568627" lon="-73.07691926">
    <tag k="addr:city" v="Woodford"/>
    <tag k="addr:housenumber" v="237"/>
    <tag k="addr:street" v="Prospect Access"/>
    <tag k="addr:state" v="VT"/>
    <tag k="ref:vcgi:esiteid" v="302472"/>
  </node>
  <node id="-405" visible="true" lat="42.87525112" lon="-73.07681955">
    <tag k="addr:city" v="Woodford"/>
    <tag k="addr:housenumber" v="246"/>
    <tag k="addr:street" v="Prospect Access"/>
    <tag k="addr:state" v="VT"/>
    <tag k="ref:vcgi:esiteid" v="302475"/>
  </node>
  <node id="-408" visible="true" lat="42.87208751" lon="-73.07959201">
    <tag k="addr:city" v="Woodford"/>
    <tag k="addr:housenumber" v="339"/>
    <tag k="addr:street" v="City Stream Road"/>
    <tag k="addr:state" v="VT"/>
    <tag k="ref:vcgi:esiteid" v="302478"/>
  </node>
  <node id="-409" visible="true" lat="42.87191166" lon="-73.08050723">
    <tag k="addr:city" v="Woodford"/>
    <tag k="addr:housenumber" v="248"/>
    <tag k="addr:street" v="City Stream Road"/>
    <tag k="addr:state" v="VT"/>
    <tag k="ref:vcgi:esiteid" v="302479"/>
  </node>
  <node id="-410" visible="true" lat="42.87099037" lon="-73.07900502">
    <tag k="addr:city" v="Woodford"/>
    <tag k="addr:housenumber" v="341"/>
    <tag k="addr:street" v="City Stream Road"/>
    <tag k="addr:state" v="VT"/>
    <tag k="ref:vcgi:esiteid" v="302480"/>
  </node>
  <node id="-411" visible="true" lat="42.86539555" lon="-73.14352387">
    <tag k="addr:city" v="Woodford"/>
    <tag k="addr:housenumber" v="2065"/>
    <tag k="addr:street" v="Burgess Road"/>
    <tag k="addr:state" v="VT"/>
    <tag k="ref:vcgi:esiteid" v="302481"/>
  </node>
  <node id="-412" visible="true" lat="42.89410289" lon="-73.07393646">
    <tag k="addr:city" v="Woodford"/>
    <tag k="addr:housenumber" v="41"/>
    <tag k="addr:street" v="Sycamore Road"/>
    <tag k="addr:state" v="VT"/>
    <tag k="ref:vcgi:esiteid" v="302482"/>
  </node>
  <node id="-413" visible="true" lat="42.89366629" lon="-73.07340855">
    <tag k="addr:city" v="Woodford"/>
    <tag k="addr:housenumber" v="55"/>
    <tag k="addr:street" v="Sycamore Road"/>
    <tag k="addr:state" v="VT"/>
    <tag k="ref:vcgi:esiteid" v="302484"/>
  </node>
  <node id="-414" visible="true" lat="42.86908454" lon="-73.15061484">
    <tag k="addr:city" v="Woodford"/>
    <tag k="addr:housenumber" v="1561"/>
    <tag k="addr:street" v="Burgess Road"/>
    <tag k="addr:state" v="VT"/>
    <tag k="ref:vcgi:esiteid" v="302485"/>
  </node>
  <node id="-415" visible="true" lat="42.86833203" lon="-73.1497405">
    <tag k="addr:city" v="Woodford"/>
    <tag k="addr:housenumber" v="1631"/>
    <tag k="addr:street" v="Burgess Road"/>
    <tag k="addr:state" v="VT"/>
    <tag k="ref:vcgi:esiteid" v="302486"/>
  </node>
  <node id="-416" visible="true" lat="42.86768216" lon="-73.14886186">
    <tag k="addr:city" v="Woodford"/>
    <tag k="addr:housenumber" v="1743"/>
    <tag k="addr:street" v="Burgess Road"/>
    <tag k="addr:state" v="VT"/>
    <tag k="ref:vcgi:esiteid" v="302487"/>
  </node>
  <node id="-417" visible="true" lat="42.8687612" lon="-73.14669144">
    <tag k="addr:city" v="Woodford"/>
    <tag k="addr:housenumber" v="1783"/>
    <tag k="addr:street" v="Burgess Road"/>
    <tag k="addr:state" v="VT"/>
    <tag k="ref:vcgi:esiteid" v="302488"/>
  </node>
  <node id="-418" visible="true" lat="42.86723237" lon="-73.14864525">
    <tag k="addr:city" v="Woodford"/>
    <tag k="addr:housenumber" v="1731"/>
    <tag k="addr:street" v="Burgess Road"/>
    <tag k="addr:state" v="VT"/>
    <tag k="ref:vcgi:esiteid" v="302489"/>
  </node>
  <node id="-419" visible="true" lat="42.86694469" lon="-73.14769538">
    <tag k="addr:city" v="Woodford"/>
    <tag k="addr:housenumber" v="1775"/>
    <tag k="addr:street" v="Burgess Road"/>
    <tag k="addr:state" v="VT"/>
    <tag k="ref:vcgi:esiteid" v="302490"/>
  </node>
  <node id="-420" visible="true" lat="42.86679233" lon="-73.14940284">
    <tag k="addr:city" v="Woodford"/>
    <tag k="addr:housenumber" v="1642"/>
    <tag k="addr:street" v="Burgess Road"/>
    <tag k="addr:state" v="VT"/>
    <tag k="ref:vcgi:esiteid" v="302491"/>
  </node>
  <node id="-421" visible="true" lat="42.89332234" lon="-73.0731292">
    <tag k="addr:city" v="Woodford"/>
    <tag k="addr:housenumber" v="34"/>
    <tag k="addr:street" v="Sycamore Road"/>
    <tag k="addr:state" v="VT"/>
    <tag k="ref:vcgi:esiteid" v="302492"/>
  </node>
  <node id="-423" visible="true" lat="42.89951189" lon="-73.12416987">
    <tag k="addr:city" v="Woodford"/>
    <tag k="addr:housenumber" v="300"/>
    <tag k="addr:street" v="Old Harbour Road"/>
    <tag k="addr:state" v="VT"/>
    <tag k="ref:vcgi:esiteid" v="302494"/>
  </node>
  <node id="-424" visible="true" lat="42.90963166" lon="-73.11645067">
    <tag k="addr:city" v="Woodford"/>
    <tag k="addr:housenumber" v="1140"/>
    <tag k="addr:street" v="Old Harbour Road"/>
    <tag k="addr:state" v="VT"/>
    <tag k="ref:vcgi:esiteid" v="302495"/>
  </node>
  <node id="-425" visible="true" lat="42.89351235" lon="-73.06475567">
    <tag k="addr:city" v="Woodford"/>
    <tag k="addr:housenumber" v="589"/>
    <tag k="addr:street" v="Beach Road"/>
    <tag k="addr:state" v="VT"/>
    <tag k="ref:vcgi:esiteid" v="302496"/>
  </node>
  <node id="-428" visible="true" lat="42.89432475" lon="-73.06430675">
    <tag k="addr:city" v="Woodford"/>
    <tag k="addr:housenumber" v="86"/>
    <tag k="addr:street" v="Talking Tree Lane"/>
    <tag k="addr:state" v="VT"/>
    <tag k="ref:vcgi:esiteid" v="302499"/>
  </node>
  <node id="-429" visible="true" lat="42.89926429" lon="-73.1262242">
    <tag k="addr:city" v="Woodford"/>
    <tag k="addr:housenumber" v="249"/>
    <tag k="addr:street" v="Old Harbour Road"/>
    <tag k="addr:state" v="VT"/>
    <tag k="ref:vcgi:esiteid" v="302500"/>
  </node>
  <node id="-430" visible="true" lat="42.89434307" lon="-73.05866013">
    <tag k="addr:city" v="Woodford"/>
    <tag k="addr:housenumber" v="38"/>
    <tag k="addr:street" v="Dove Road"/>
    <tag k="addr:state" v="VT"/>
    <tag k="ref:vcgi:esiteid" v="302501"/>
  </node>
  <node id="-435" visible="true" lat="42.89460576" lon="-73.07203765">
    <tag k="addr:city" v="Woodford"/>
    <tag k="addr:housenumber" v="149"/>
    <tag k="addr:street" v="Sycamore Road"/>
    <tag k="addr:state" v="VT"/>
    <tag k="ref:vcgi:esiteid" v="302506"/>
  </node>
  <node id="-440" visible="true" lat="42.89068503" lon="-73.07229076">
    <tag k="addr:city" v="Woodford"/>
    <tag k="addr:housenumber" v="114"/>
    <tag k="addr:street" v="Beach Road"/>
    <tag k="addr:state" v="VT"/>
    <tag k="ref:vcgi:esiteid" v="302511"/>
  </node>
  <node id="-442" visible="true" lat="42.8728469" lon="-73.08058216">
    <tag k="addr:city" v="Woodford"/>
    <tag k="addr:housenumber" v="251"/>
    <tag k="addr:street" v="City Stream Road"/>
    <tag k="addr:state" v="VT"/>
    <tag k="ref:vcgi:esiteid" v="302513"/>
  </node>
  <node id="-446" visible="true" lat="42.89898365" lon="-73.12671875">
    <tag k="addr:city" v="Woodford"/>
    <tag k="addr:housenumber" v="231"/>
    <tag k="addr:street" v="Old Harbour Road"/>
    <tag k="addr:state" v="VT"/>
    <tag k="ref:vcgi:esiteid" v="310047"/>
  </node>
  <node id="-447" visible="true" lat="42.90990547" lon="-73.11877771">
    <tag k="addr:city" v="Woodford"/>
    <tag k="addr:housenumber" v="118"/>
    <tag k="addr:street" v="Bickford Hollow Road"/>
    <tag k="addr:state" v="VT"/>
    <tag k="ref:vcgi:esiteid" v="312327"/>
  </node>
  <node id="-453" visible="true" lat="42.90835913" lon="-73.11958189">
    <tag k="addr:city" v="Woodford"/>
    <tag k="addr:housenumber" v="1012"/>
    <tag k="addr:street" v="Old Harbour Road"/>
    <tag k="addr:state" v="VT"/>
    <tag k="ref:vcgi:esiteid" v="336469"/>
  </node>
  <node id="-454" visible="true" lat="42.8981984" lon="-73.06257528">
    <tag k="addr:city" v="Woodford"/>
    <tag k="addr:housenumber" v="506"/>
    <tag k="addr:street" v="Little Pond Road"/>
    <tag k="addr:state" v="VT"/>
    <tag k="ref:vcgi:esiteid" v="337949"/>
  </node>
  <node id="-455" visible="true" lat="42.90024458" lon="-73.12309505">
    <tag k="addr:city" v="Woodford"/>
    <tag k="addr:housenumber" v="360"/>
    <tag k="addr:street" v="Old Harbour Road"/>
    <tag k="addr:state" v="VT"/>
    <tag k="ref:vcgi:esiteid" v="339795"/>
  </node>
</osm>
