<?xml version="1.0" encoding="UTF-8"?>
<osm version="0.6" generator="JOSM">
  <node id="-103" visible="true" lat="44.49666214" lon="-72.4341507">
    <tag k="addr:city" v="Woodbury"/>
    <tag k="addr:housenumber" v="1641"/>
    <tag k="addr:street" v="West Woodbury Road"/>
    <tag k="addr:state" v="VT"/>
    <tag k="ref:vcgi:esiteid" v="301416"/>
  </node>
  <node id="-104" visible="true" lat="44.49611725" lon="-72.4298308">
    <tag k="addr:city" v="Woodbury"/>
    <tag k="addr:housenumber" v="1870"/>
    <tag k="addr:street" v="West Woodbury Road"/>
    <tag k="addr:state" v="VT"/>
    <tag k="ref:vcgi:esiteid" v="301417"/>
  </node>
  <node id="-105" visible="true" lat="44.49607468" lon="-72.43518829">
    <tag k="addr:city" v="Woodbury"/>
    <tag k="addr:housenumber" v="1593"/>
    <tag k="addr:street" v="West Woodbury Road"/>
    <tag k="addr:state" v="VT"/>
    <tag k="ref:vcgi:esiteid" v="301418"/>
  </node>
  <node id="-106" visible="true" lat="44.49592208" lon="-72.43252563">
    <tag k="addr:city" v="Woodbury"/>
    <tag k="addr:housenumber" v="1768"/>
    <tag k="addr:street" v="West Woodbury Road"/>
    <tag k="addr:state" v="VT"/>
    <tag k="ref:vcgi:esiteid" v="301419"/>
  </node>
  <node id="-107" visible="true" lat="44.49592675" lon="-72.43420735">
    <tag k="addr:city" v="Woodbury"/>
    <tag k="addr:housenumber" v="1640"/>
    <tag k="addr:street" v="West Woodbury Road"/>
    <tag k="addr:state" v="VT"/>
    <tag k="ref:vcgi:esiteid" v="301420"/>
  </node>
  <node id="-108" visible="true" lat="44.49584198" lon="-72.41690064">
    <tag k="addr:city" v="Woodbury"/>
    <tag k="addr:housenumber" v="2519"/>
    <tag k="addr:street" v="West Woodbury Road"/>
    <tag k="addr:state" v="VT"/>
    <tag k="ref:vcgi:esiteid" v="301421"/>
  </node>
  <node id="-110" visible="true" lat="44.49559784" lon="-72.41189575">
    <tag k="addr:city" v="Woodbury"/>
    <tag k="addr:housenumber" v="2747"/>
    <tag k="addr:street" v="West Woodbury Road"/>
    <tag k="addr:state" v="VT"/>
    <tag k="ref:vcgi:esiteid" v="301423"/>
  </node>
  <node id="-111" visible="true" lat="44.49483489" lon="-72.41550445">
    <tag k="addr:city" v="Woodbury"/>
    <tag k="addr:housenumber" v="2622"/>
    <tag k="addr:street" v="West Woodbury Road"/>
    <tag k="addr:state" v="VT"/>
    <tag k="ref:vcgi:esiteid" v="301424"/>
  </node>
  <node id="-112" visible="true" lat="44.4946785" lon="-72.41277313">
    <tag k="addr:city" v="Woodbury"/>
    <tag k="addr:housenumber" v="2745"/>
    <tag k="addr:street" v="West Woodbury Road"/>
    <tag k="addr:state" v="VT"/>
    <tag k="ref:vcgi:esiteid" v="301425"/>
  </node>
  <node id="-113" visible="true" lat="44.49415969" lon="-72.43502044">
    <tag k="addr:city" v="Woodbury"/>
    <tag k="addr:housenumber" v="1558"/>
    <tag k="addr:street" v="West Woodbury Road"/>
    <tag k="addr:state" v="VT"/>
    <tag k="ref:vcgi:esiteid" v="301426"/>
  </node>
  <node id="-114" visible="true" lat="44.49372482" lon="-72.41549682">
    <tag k="addr:city" v="Woodbury"/>
    <tag k="addr:housenumber" v="2648"/>
    <tag k="addr:street" v="West Woodbury Road"/>
    <tag k="addr:state" v="VT"/>
    <tag k="ref:vcgi:esiteid" v="301427"/>
  </node>
  <node id="-115" visible="true" lat="44.49317932" lon="-72.42294311">
    <tag k="addr:city" v="Woodbury"/>
    <tag k="addr:housenumber" v="2232"/>
    <tag k="addr:street" v="West Woodbury Road"/>
    <tag k="addr:state" v="VT"/>
    <tag k="ref:vcgi:esiteid" v="301428"/>
  </node>
  <node id="-116" visible="true" lat="44.49297332" lon="-72.42515563">
    <tag k="addr:city" v="Woodbury"/>
    <tag k="addr:housenumber" v="2164"/>
    <tag k="addr:street" v="West Woodbury Road"/>
    <tag k="addr:state" v="VT"/>
    <tag k="ref:vcgi:esiteid" v="301429"/>
  </node>
  <node id="-117" visible="true" lat="44.492459" lon="-72.44001983">
    <tag k="addr:city" v="Woodbury"/>
    <tag k="addr:housenumber" v="132"/>
    <tag k="addr:street" v="Brown Hill Road"/>
    <tag k="addr:state" v="VT"/>
    <tag k="ref:vcgi:esiteid" v="301430"/>
  </node>
  <node id="-118" visible="true" lat="44.49232896" lon="-72.43937144">
    <tag k="addr:city" v="Woodbury"/>
    <tag k="addr:housenumber" v="98"/>
    <tag k="addr:street" v="Brown Hill Road"/>
    <tag k="addr:state" v="VT"/>
    <tag k="ref:vcgi:esiteid" v="301431"/>
  </node>
  <node id="-120" visible="true" lat="44.49113464" lon="-72.43762206">
    <tag k="addr:city" v="Woodbury"/>
    <tag k="addr:housenumber" v="1232"/>
    <tag k="addr:street" v="West Woodbury Road"/>
    <tag k="addr:state" v="VT"/>
    <tag k="ref:vcgi:esiteid" v="301433"/>
  </node>
  <node id="-121" visible="true" lat="44.48984379" lon="-72.43904058">
    <tag k="addr:city" v="Woodbury"/>
    <tag k="addr:housenumber" v="1123"/>
    <tag k="addr:street" v="West Woodbury Road"/>
    <tag k="addr:state" v="VT"/>
    <tag k="ref:vcgi:esiteid" v="301434"/>
  </node>
  <node id="-122" visible="true" lat="44.48927688" lon="-72.43697357">
    <tag k="addr:city" v="Woodbury"/>
    <tag k="addr:housenumber" v="1188"/>
    <tag k="addr:street" v="West Woodbury Road"/>
    <tag k="addr:state" v="VT"/>
    <tag k="ref:vcgi:esiteid" v="301435"/>
  </node>
  <node id="-123" visible="true" lat="44.4883245" lon="-72.43847917">
    <tag k="addr:city" v="Woodbury"/>
    <tag k="addr:housenumber" v="1024"/>
    <tag k="addr:street" v="West Woodbury Road"/>
    <tag k="addr:state" v="VT"/>
    <tag k="ref:vcgi:esiteid" v="301436"/>
  </node>
  <node id="-124" visible="true" lat="44.48799514" lon="-72.43248748">
    <tag k="addr:city" v="Woodbury"/>
    <tag k="addr:housenumber" v="1200"/>
    <tag k="addr:street" v="West Woodbury Road"/>
    <tag k="addr:state" v="VT"/>
    <tag k="ref:vcgi:esiteid" v="301437"/>
  </node>
  <node id="-125" visible="true" lat="44.48580932" lon="-72.43824005">
    <tag k="addr:city" v="Woodbury"/>
    <tag k="addr:housenumber" v="854"/>
    <tag k="addr:street" v="West Woodbury Road"/>
    <tag k="addr:state" v="VT"/>
    <tag k="ref:vcgi:esiteid" v="301438"/>
  </node>
  <node id="-126" visible="true" lat="44.48575006" lon="-72.38201848">
    <tag k="addr:city" v="Woodbury"/>
    <tag k="addr:housenumber" v="7657"/>
    <tag k="addr:street" v="Vermont Route 14"/>
    <tag k="addr:state" v="VT"/>
    <tag k="ref:vcgi:esiteid" v="301439"/>
  </node>
  <node id="-127" visible="true" lat="44.48532104" lon="-72.38438415">
    <tag k="addr:city" v="Woodbury"/>
    <tag k="addr:housenumber" v="7597"/>
    <tag k="addr:street" v="Vermont Route 14"/>
    <tag k="addr:state" v="VT"/>
    <tag k="ref:vcgi:esiteid" v="301440"/>
  </node>
  <node id="-128" visible="true" lat="44.48519146" lon="-72.43963986">
    <tag k="addr:city" v="Woodbury"/>
    <tag k="addr:housenumber" v="793"/>
    <tag k="addr:street" v="West Woodbury Road"/>
    <tag k="addr:state" v="VT"/>
    <tag k="ref:vcgi:esiteid" v="301441"/>
  </node>
  <node id="-129" visible="true" lat="44.48478317" lon="-72.38442993">
    <tag k="addr:city" v="Woodbury"/>
    <tag k="addr:housenumber" v="7593"/>
    <tag k="addr:street" v="Vermont Route 14"/>
    <tag k="addr:state" v="VT"/>
    <tag k="ref:vcgi:esiteid" v="301442"/>
  </node>
  <node id="-131" visible="true" lat="44.48361206" lon="-72.38457488">
    <tag k="addr:city" v="Woodbury"/>
    <tag k="addr:housenumber" v="7485"/>
    <tag k="addr:street" v="Vermont Route 14"/>
    <tag k="addr:state" v="VT"/>
    <tag k="ref:vcgi:esiteid" v="301444"/>
  </node>
  <node id="-133" visible="true" lat="44.48316111" lon="-72.37552816">
    <tag k="addr:city" v="Woodbury"/>
    <tag k="addr:housenumber" v="722"/>
    <tag k="addr:street" v="Stratton Road"/>
    <tag k="addr:state" v="VT"/>
    <tag k="ref:vcgi:esiteid" v="301446"/>
  </node>
  <node id="-135" visible="true" lat="44.48184077" lon="-72.37566574">
    <tag k="addr:city" v="Woodbury"/>
    <tag k="addr:housenumber" v="806"/>
    <tag k="addr:street" v="Stratton Road"/>
    <tag k="addr:state" v="VT"/>
    <tag k="ref:vcgi:esiteid" v="301448"/>
  </node>
  <node id="-136" visible="true" lat="44.48186492" lon="-72.43998718">
    <tag k="addr:city" v="Woodbury"/>
    <tag k="addr:housenumber" v="578"/>
    <tag k="addr:street" v="West Woodbury Road"/>
    <tag k="addr:state" v="VT"/>
    <tag k="ref:vcgi:esiteid" v="301449"/>
  </node>
  <node id="-137" visible="true" lat="44.4818077" lon="-72.38457488">
    <tag k="addr:city" v="Woodbury"/>
    <tag k="addr:housenumber" v="7368"/>
    <tag k="addr:street" v="Vermont Route 14"/>
    <tag k="addr:state" v="VT"/>
    <tag k="ref:vcgi:esiteid" v="301450"/>
  </node>
  <node id="-138" visible="true" lat="44.48196684" lon="-72.44286035">
    <tag k="addr:city" v="Woodbury"/>
    <tag k="addr:housenumber" v="491"/>
    <tag k="addr:street" v="West Woodbury Road"/>
    <tag k="addr:state" v="VT"/>
    <tag k="ref:vcgi:esiteid" v="301451"/>
  </node>
  <node id="-139" visible="true" lat="44.48160934" lon="-72.38775634">
    <tag k="addr:city" v="Woodbury"/>
    <tag k="addr:housenumber" v="7297"/>
    <tag k="addr:street" v="Vermont Route 14"/>
    <tag k="addr:state" v="VT"/>
    <tag k="ref:vcgi:esiteid" v="301452"/>
  </node>
  <node id="-141" visible="true" lat="44.48067677" lon="-72.44405933">
    <tag k="addr:city" v="Woodbury"/>
    <tag k="addr:housenumber" v="387"/>
    <tag k="addr:street" v="West Woodbury Road"/>
    <tag k="addr:state" v="VT"/>
    <tag k="ref:vcgi:esiteid" v="301454"/>
  </node>
  <node id="-142" visible="true" lat="44.48027606" lon="-72.37668829">
    <tag k="addr:city" v="Woodbury"/>
    <tag k="addr:housenumber" v="880"/>
    <tag k="addr:street" v="Stratton Road"/>
    <tag k="addr:state" v="VT"/>
    <tag k="ref:vcgi:esiteid" v="301457"/>
  </node>
  <node id="-143" visible="true" lat="44.48039496" lon="-72.44369464">
    <tag k="addr:city" v="Woodbury"/>
    <tag k="addr:housenumber" v="382"/>
    <tag k="addr:street" v="West Woodbury Road"/>
    <tag k="addr:state" v="VT"/>
    <tag k="ref:vcgi:esiteid" v="301459"/>
  </node>
  <node id="-144" visible="true" lat="44.48015594" lon="-72.39140319">
    <tag k="addr:city" v="Woodbury"/>
    <tag k="addr:housenumber" v="7027"/>
    <tag k="addr:street" v="Vermont Route 14"/>
    <tag k="addr:state" v="VT"/>
    <tag k="ref:vcgi:esiteid" v="301460"/>
  </node>
  <node id="-145" visible="true" lat="44.47970256" lon="-72.44586757">
    <tag k="addr:city" v="Woodbury"/>
    <tag k="addr:housenumber" v="277"/>
    <tag k="addr:street" v="West Woodbury Road"/>
    <tag k="addr:state" v="VT"/>
    <tag k="ref:vcgi:esiteid" v="301461"/>
  </node>
  <node id="-146" visible="true" lat="44.47975158" lon="-72.44509124">
    <tag k="addr:city" v="Woodbury"/>
    <tag k="addr:housenumber" v="310"/>
    <tag k="addr:street" v="West Woodbury Road"/>
    <tag k="addr:state" v="VT"/>
    <tag k="ref:vcgi:esiteid" v="301462"/>
  </node>
  <node id="-147" visible="true" lat="44.47902297" lon="-72.39175415">
    <tag k="addr:city" v="Woodbury"/>
    <tag k="addr:housenumber" v="6979"/>
    <tag k="addr:street" v="Vermont Route 14"/>
    <tag k="addr:state" v="VT"/>
    <tag k="ref:vcgi:esiteid" v="301464"/>
  </node>
  <node id="-148" visible="true" lat="44.47788372" lon="-72.3772979">
    <tag k="addr:city" v="Woodbury"/>
    <tag k="addr:housenumber" v="1169"/>
    <tag k="addr:street" v="Stratton Road"/>
    <tag k="addr:state" v="VT"/>
    <tag k="ref:vcgi:esiteid" v="301466"/>
  </node>
  <node id="-149" visible="true" lat="44.47763433" lon="-72.44813299">
    <tag k="addr:city" v="Woodbury"/>
    <tag k="addr:housenumber" v="114"/>
    <tag k="addr:street" v="West Woodbury Road"/>
    <tag k="addr:state" v="VT"/>
    <tag k="ref:vcgi:esiteid" v="301467"/>
  </node>
  <node id="-150" visible="true" lat="44.47750877" lon="-72.37723331">
    <tag k="addr:city" v="Woodbury"/>
    <tag k="addr:housenumber" v="1168"/>
    <tag k="addr:street" v="Stratton Road"/>
    <tag k="addr:state" v="VT"/>
    <tag k="ref:vcgi:esiteid" v="301468"/>
  </node>
  <node id="-152" visible="true" lat="44.47726821" lon="-72.3918457">
    <tag k="addr:city" v="Woodbury"/>
    <tag k="addr:housenumber" v="6882"/>
    <tag k="addr:street" v="Vermont Route 14"/>
    <tag k="addr:state" v="VT"/>
    <tag k="ref:vcgi:esiteid" v="301470"/>
  </node>
  <node id="-155" visible="true" lat="44.4762111" lon="-72.36968283">
    <tag k="addr:city" v="Woodbury"/>
    <tag k="addr:housenumber" v="805"/>
    <tag k="addr:street" v="Stratton Road"/>
    <tag k="addr:state" v="VT"/>
    <tag k="ref:vcgi:esiteid" v="301473"/>
  </node>
  <node id="-157" visible="true" lat="44.47220431" lon="-72.34793703">
    <tag k="addr:city" v="Woodbury"/>
    <tag k="addr:housenumber" v="988"/>
    <tag k="addr:street" v="Nichols Pond Road"/>
    <tag k="addr:state" v="VT"/>
    <tag k="ref:vcgi:esiteid" v="301475"/>
  </node>
  <node id="-159" visible="true" lat="44.46769968" lon="-72.34391629">
    <tag k="addr:city" v="Woodbury"/>
    <tag k="addr:housenumber" v="1580"/>
    <tag k="addr:street" v="Nichols Pond Road"/>
    <tag k="addr:state" v="VT"/>
    <tag k="ref:vcgi:esiteid" v="301477"/>
  </node>
  <node id="-162" visible="true" lat="44.46706771" lon="-72.39656829">
    <tag k="addr:city" v="Woodbury"/>
    <tag k="addr:housenumber" v="1270"/>
    <tag k="addr:street" v="Buck Lake Road"/>
    <tag k="addr:state" v="VT"/>
    <tag k="ref:vcgi:esiteid" v="301480"/>
  </node>
  <node id="-168" visible="true" lat="44.46520633" lon="-72.40019448">
    <tag k="addr:city" v="Woodbury"/>
    <tag k="addr:housenumber" v="1061"/>
    <tag k="addr:street" v="Buck Lake Road"/>
    <tag k="addr:state" v="VT"/>
    <tag k="ref:vcgi:esiteid" v="301486"/>
  </node>
  <node id="-173" visible="true" lat="44.46446228" lon="-72.40405273">
    <tag k="addr:city" v="Woodbury"/>
    <tag k="addr:housenumber" v="852"/>
    <tag k="addr:street" v="Buck Lake Road"/>
    <tag k="addr:state" v="VT"/>
    <tag k="ref:vcgi:esiteid" v="301491"/>
  </node>
  <node id="-176" visible="true" lat="44.46441584" lon="-72.40674278">
    <tag k="addr:city" v="Woodbury"/>
    <tag k="addr:housenumber" v="709"/>
    <tag k="addr:street" v="Buck Lake Road"/>
    <tag k="addr:state" v="VT"/>
    <tag k="ref:vcgi:esiteid" v="301494"/>
  </node>
  <node id="-178" visible="true" lat="44.46407318" lon="-72.33717346">
    <tag k="addr:city" v="Woodbury"/>
    <tag k="addr:housenumber" v="1969"/>
    <tag k="addr:street" v="Nichols Pond Road"/>
    <tag k="addr:state" v="VT"/>
    <tag k="ref:vcgi:esiteid" v="301496"/>
  </node>
  <node id="-184" visible="true" lat="44.46313857" lon="-72.33610534">
    <tag k="addr:city" v="Woodbury"/>
    <tag k="addr:housenumber" v="2014"/>
    <tag k="addr:street" v="Nichols Pond Road"/>
    <tag k="addr:state" v="VT"/>
    <tag k="ref:vcgi:esiteid" v="301502"/>
  </node>
  <node id="-192" visible="true" lat="44.46250915" lon="-72.3432312">
    <tag k="addr:city" v="Woodbury"/>
    <tag k="addr:housenumber" v="366"/>
    <tag k="addr:street" v="Nichols Dam Road"/>
    <tag k="addr:state" v="VT"/>
    <tag k="ref:vcgi:esiteid" v="301510"/>
  </node>
  <node id="-193" visible="true" lat="44.46266884" lon="-72.34324595">
    <tag k="addr:city" v="Woodbury"/>
    <tag k="addr:housenumber" v="360"/>
    <tag k="addr:street" v="Nichols Dam Road"/>
    <tag k="addr:state" v="VT"/>
    <tag k="ref:vcgi:esiteid" v="301511"/>
  </node>
  <node id="-197" visible="true" lat="44.46224212" lon="-72.34355926">
    <tag k="addr:city" v="Woodbury"/>
    <tag k="addr:housenumber" v="375"/>
    <tag k="addr:street" v="Nichols Dam Road"/>
    <tag k="addr:state" v="VT"/>
    <tag k="ref:vcgi:esiteid" v="301515"/>
  </node>
  <node id="-199" visible="true" lat="44.46214294" lon="-72.34316253">
    <tag k="addr:city" v="Woodbury"/>
    <tag k="addr:housenumber" v="359"/>
    <tag k="addr:street" v="Nichols Dam Road"/>
    <tag k="addr:state" v="VT"/>
    <tag k="ref:vcgi:esiteid" v="301517"/>
  </node>
  <node id="-201" visible="true" lat="44.4619976" lon="-72.34218463">
    <tag k="addr:city" v="Woodbury"/>
    <tag k="addr:housenumber" v="291"/>
    <tag k="addr:street" v="Nichols Dam Road"/>
    <tag k="addr:state" v="VT"/>
    <tag k="ref:vcgi:esiteid" v="301519"/>
  </node>
  <node id="-207" visible="true" lat="44.46170581" lon="-72.41126238">
    <tag k="addr:city" v="Woodbury"/>
    <tag k="addr:housenumber" v="415"/>
    <tag k="addr:street" v="Buck Lake Road"/>
    <tag k="addr:state" v="VT"/>
    <tag k="ref:vcgi:esiteid" v="301525"/>
  </node>
  <node id="-210" visible="true" lat="44.46115493" lon="-72.41196441">
    <tag k="addr:city" v="Woodbury"/>
    <tag k="addr:housenumber" v="367"/>
    <tag k="addr:street" v="Buck Lake Road"/>
    <tag k="addr:state" v="VT"/>
    <tag k="ref:vcgi:esiteid" v="301528"/>
  </node>
  <node id="-211" visible="true" lat="44.4609909" lon="-72.33618163">
    <tag k="addr:city" v="Woodbury"/>
    <tag k="addr:housenumber" v="587"/>
    <tag k="addr:street" v="Island Road"/>
    <tag k="addr:state" v="VT"/>
    <tag k="ref:vcgi:esiteid" v="301529"/>
  </node>
  <node id="-218" visible="true" lat="44.46069276" lon="-72.33960947">
    <tag k="addr:city" v="Woodbury"/>
    <tag k="addr:housenumber" v="219"/>
    <tag k="addr:street" v="Nichols Dam Road"/>
    <tag k="addr:state" v="VT"/>
    <tag k="ref:vcgi:esiteid" v="301536"/>
  </node>
  <node id="-235" visible="true" lat="44.45971702" lon="-72.33686424">
    <tag k="addr:city" v="Woodbury"/>
    <tag k="addr:housenumber" v="281"/>
    <tag k="addr:street" v="Island Road"/>
    <tag k="addr:state" v="VT"/>
    <tag k="ref:vcgi:esiteid" v="301553"/>
  </node>
  <node id="-243" visible="true" lat="44.45893859" lon="-72.33776092">
    <tag k="addr:city" v="Woodbury"/>
    <tag k="addr:housenumber" v="356"/>
    <tag k="addr:street" v="Island Road"/>
    <tag k="addr:state" v="VT"/>
    <tag k="ref:vcgi:esiteid" v="301561"/>
  </node>
  <node id="-244" visible="true" lat="44.45850282" lon="-72.33723409">
    <tag k="addr:city" v="Woodbury"/>
    <tag k="addr:housenumber" v="364"/>
    <tag k="addr:street" v="Island Road"/>
    <tag k="addr:state" v="VT"/>
    <tag k="ref:vcgi:esiteid" v="301562"/>
  </node>
  <node id="-246" visible="true" lat="44.45829736" lon="-72.33751665">
    <tag k="addr:city" v="Woodbury"/>
    <tag k="addr:housenumber" v="376"/>
    <tag k="addr:street" v="Island Road"/>
    <tag k="addr:state" v="VT"/>
    <tag k="ref:vcgi:esiteid" v="301564"/>
  </node>
  <node id="-273" visible="true" lat="44.4548912" lon="-72.42243957">
    <tag k="addr:city" v="Woodbury"/>
    <tag k="addr:housenumber" v="146"/>
    <tag k="addr:street" v="South Shore Trail"/>
    <tag k="addr:state" v="VT"/>
    <tag k="ref:vcgi:esiteid" v="301592"/>
  </node>
  <node id="-274" visible="true" lat="44.45452131" lon="-72.33588763">
    <tag k="addr:city" v="Woodbury"/>
    <tag k="addr:housenumber" v="1132"/>
    <tag k="addr:street" v="South Lake Road"/>
    <tag k="addr:state" v="VT"/>
    <tag k="ref:vcgi:esiteid" v="301593"/>
  </node>
  <node id="-275" visible="true" lat="44.4546585" lon="-72.33683013">
    <tag k="addr:city" v="Woodbury"/>
    <tag k="addr:housenumber" v="1131"/>
    <tag k="addr:street" v="South Lake Road"/>
    <tag k="addr:state" v="VT"/>
    <tag k="ref:vcgi:esiteid" v="301594"/>
  </node>
  <node id="-296" visible="true" lat="44.44818878" lon="-72.34557342">
    <tag k="addr:city" v="Woodbury"/>
    <tag k="addr:housenumber" v="415"/>
    <tag k="addr:street" v="Loon Lake Road"/>
    <tag k="addr:state" v="VT"/>
    <tag k="ref:vcgi:esiteid" v="301615"/>
  </node>
  <node id="-307" visible="true" lat="44.44693756" lon="-72.34644317">
    <tag k="addr:city" v="Woodbury"/>
    <tag k="addr:housenumber" v="318"/>
    <tag k="addr:street" v="Loon Lake Road"/>
    <tag k="addr:state" v="VT"/>
    <tag k="ref:vcgi:esiteid" v="301626"/>
  </node>
  <node id="-319" visible="true" lat="44.44558715" lon="-72.34771728">
    <tag k="addr:city" v="Woodbury"/>
    <tag k="addr:housenumber" v="199"/>
    <tag k="addr:street" v="Loon Lake Road"/>
    <tag k="addr:state" v="VT"/>
    <tag k="ref:vcgi:esiteid" v="301638"/>
  </node>
  <node id="-320" visible="true" lat="44.44555664" lon="-72.33622741">
    <tag k="addr:city" v="Woodbury"/>
    <tag k="addr:housenumber" v="412"/>
    <tag k="addr:street" v="South Lake Road"/>
    <tag k="addr:state" v="VT"/>
    <tag k="ref:vcgi:esiteid" v="301639"/>
  </node>
  <node id="-321" visible="true" lat="44.44525236" lon="-72.34888544">
    <tag k="addr:city" v="Woodbury"/>
    <tag k="addr:housenumber" v="113"/>
    <tag k="addr:street" v="Loon Lake Road"/>
    <tag k="addr:state" v="VT"/>
    <tag k="ref:vcgi:esiteid" v="301640"/>
  </node>
  <node id="-322" visible="true" lat="44.44516701" lon="-72.34799283">
    <tag k="addr:city" v="Woodbury"/>
    <tag k="addr:housenumber" v="115"/>
    <tag k="addr:street" v="Loon Lake Road"/>
    <tag k="addr:state" v="VT"/>
    <tag k="ref:vcgi:esiteid" v="301641"/>
  </node>
  <node id="-324" visible="true" lat="44.44517424" lon="-72.35004711">
    <tag k="addr:city" v="Woodbury"/>
    <tag k="addr:housenumber" v="73"/>
    <tag k="addr:street" v="Lotta Rock Road"/>
    <tag k="addr:state" v="VT"/>
    <tag k="ref:vcgi:esiteid" v="301643"/>
  </node>
  <node id="-325" visible="true" lat="44.44505575" lon="-72.35062766">
    <tag k="addr:city" v="Woodbury"/>
    <tag k="addr:housenumber" v="63"/>
    <tag k="addr:street" v="Lotta Rock Road"/>
    <tag k="addr:state" v="VT"/>
    <tag k="ref:vcgi:esiteid" v="301644"/>
  </node>
  <node id="-326" visible="true" lat="44.44498075" lon="-72.35096205">
    <tag k="addr:city" v="Woodbury"/>
    <tag k="addr:housenumber" v="53"/>
    <tag k="addr:street" v="Lotta Rock Road"/>
    <tag k="addr:state" v="VT"/>
    <tag k="ref:vcgi:esiteid" v="301645"/>
  </node>
  <node id="-328" visible="true" lat="44.44475052" lon="-72.35211358">
    <tag k="addr:city" v="Woodbury"/>
    <tag k="addr:housenumber" v="33"/>
    <tag k="addr:street" v="Lotta Rock Road"/>
    <tag k="addr:state" v="VT"/>
    <tag k="ref:vcgi:esiteid" v="301647"/>
  </node>
  <node id="-330" visible="true" lat="44.44453739" lon="-72.35239585">
    <tag k="addr:city" v="Woodbury"/>
    <tag k="addr:housenumber" v="23"/>
    <tag k="addr:street" v="Lotta Rock Road"/>
    <tag k="addr:state" v="VT"/>
    <tag k="ref:vcgi:esiteid" v="301649"/>
  </node>
  <node id="-336" visible="true" lat="44.44411143" lon="-72.35374744">
    <tag k="addr:city" v="Woodbury"/>
    <tag k="addr:housenumber" v="522"/>
    <tag k="addr:street" v="North Camp Road"/>
    <tag k="addr:state" v="VT"/>
    <tag k="ref:vcgi:esiteid" v="301655"/>
  </node>
  <node id="-337" visible="true" lat="44.44379425" lon="-72.35424804">
    <tag k="addr:city" v="Woodbury"/>
    <tag k="addr:housenumber" v="524"/>
    <tag k="addr:street" v="North Camp Road"/>
    <tag k="addr:state" v="VT"/>
    <tag k="ref:vcgi:esiteid" v="301656"/>
  </node>
  <node id="-338" visible="true" lat="44.44362745" lon="-72.41534657">
    <tag k="addr:city" v="Woodbury"/>
    <tag k="addr:housenumber" v="12"/>
    <tag k="addr:street" v="Town Farm Road"/>
    <tag k="addr:state" v="VT"/>
    <tag k="ref:vcgi:esiteid" v="301657"/>
  </node>
  <node id="-339" visible="true" lat="44.44348907" lon="-72.35427093">
    <tag k="addr:city" v="Woodbury"/>
    <tag k="addr:housenumber" v="546"/>
    <tag k="addr:street" v="North Camp Road"/>
    <tag k="addr:state" v="VT"/>
    <tag k="ref:vcgi:esiteid" v="301658"/>
  </node>
  <node id="-343" visible="true" lat="44.44333274" lon="-72.35467575">
    <tag k="addr:city" v="Woodbury"/>
    <tag k="addr:housenumber" v="568"/>
    <tag k="addr:street" v="North Camp Road"/>
    <tag k="addr:state" v="VT"/>
    <tag k="ref:vcgi:esiteid" v="301662"/>
  </node>
  <node id="-345" visible="true" lat="44.44306283" lon="-72.35491582">
    <tag k="addr:city" v="Woodbury"/>
    <tag k="addr:housenumber" v="592"/>
    <tag k="addr:street" v="North Camp Road"/>
    <tag k="addr:state" v="VT"/>
    <tag k="ref:vcgi:esiteid" v="301664"/>
  </node>
  <node id="-347" visible="true" lat="44.44286929" lon="-72.35512227">
    <tag k="addr:city" v="Woodbury"/>
    <tag k="addr:housenumber" v="608"/>
    <tag k="addr:street" v="North Camp Road"/>
    <tag k="addr:state" v="VT"/>
    <tag k="ref:vcgi:esiteid" v="301666"/>
  </node>
  <node id="-354" visible="true" lat="44.44199277" lon="-72.35576544">
    <tag k="addr:city" v="Woodbury"/>
    <tag k="addr:housenumber" v="660"/>
    <tag k="addr:street" v="North Camp Road"/>
    <tag k="addr:state" v="VT"/>
    <tag k="ref:vcgi:esiteid" v="301673"/>
  </node>
  <node id="-355" visible="true" lat="44.44201134" lon="-72.4121009">
    <tag k="addr:city" v="Woodbury"/>
    <tag k="addr:housenumber" v="199"/>
    <tag k="addr:street" v="Cabot Road"/>
    <tag k="addr:state" v="VT"/>
    <tag k="ref:vcgi:esiteid" v="301674"/>
  </node>
  <node id="-357" visible="true" lat="44.44172668" lon="-72.41717529">
    <tag k="addr:city" v="Woodbury"/>
    <tag k="addr:housenumber" v="86"/>
    <tag k="addr:street" v="Church Street"/>
    <tag k="addr:state" v="VT"/>
    <tag k="ref:vcgi:esiteid" v="301676"/>
  </node>
  <node id="-361" visible="true" lat="44.44156963" lon="-72.41415413">
    <tag k="addr:city" v="Woodbury"/>
    <tag k="addr:housenumber" v="55"/>
    <tag k="addr:street" v="Cabot Road"/>
    <tag k="addr:state" v="VT"/>
    <tag k="ref:vcgi:esiteid" v="301680"/>
  </node>
  <node id="-363" visible="true" lat="44.44147497" lon="-72.41620811">
    <tag k="addr:city" v="Woodbury"/>
    <tag k="addr:housenumber" v="52"/>
    <tag k="addr:street" v="Church Street"/>
    <tag k="addr:state" v="VT"/>
    <tag k="ref:vcgi:esiteid" v="301682"/>
  </node>
  <node id="-364" visible="true" lat="44.44148673" lon="-72.41585572">
    <tag k="addr:city" v="Woodbury"/>
    <tag k="addr:housenumber" v="28"/>
    <tag k="addr:street" v="Church Street"/>
    <tag k="addr:state" v="VT"/>
    <tag k="ref:vcgi:esiteid" v="301683"/>
  </node>
  <node id="-365" visible="true" lat="44.44106755" lon="-72.41626661">
    <tag k="addr:city" v="Woodbury"/>
    <tag k="addr:housenumber" v="50"/>
    <tag k="addr:street" v="Valley Lake Road"/>
    <tag k="addr:state" v="VT"/>
    <tag k="ref:vcgi:esiteid" v="301684"/>
  </node>
  <node id="-367" visible="true" lat="44.44116112" lon="-72.41554078">
    <tag k="addr:city" v="Woodbury"/>
    <tag k="addr:housenumber" v="9"/>
    <tag k="addr:street" v="Church Street"/>
    <tag k="addr:state" v="VT"/>
    <tag k="ref:vcgi:esiteid" v="301686"/>
  </node>
  <node id="-368" visible="true" lat="44.44094783" lon="-72.41358488">
    <tag k="addr:city" v="Woodbury"/>
    <tag k="addr:housenumber" v="86"/>
    <tag k="addr:street" v="Cabot Road"/>
    <tag k="addr:state" v="VT"/>
    <tag k="ref:vcgi:esiteid" v="301687"/>
  </node>
  <node id="-370" visible="true" lat="44.44101661" lon="-72.414108">
    <tag k="addr:city" v="Woodbury"/>
    <tag k="addr:housenumber" v="52"/>
    <tag k="addr:street" v="Cabot Road"/>
    <tag k="addr:state" v="VT"/>
    <tag k="ref:vcgi:esiteid" v="301689"/>
  </node>
  <node id="-373" visible="true" lat="44.44092178" lon="-72.41547394">
    <tag k="addr:city" v="Woodbury"/>
    <tag k="addr:housenumber" v="21"/>
    <tag k="addr:street" v="Valley Lake Road"/>
    <tag k="addr:state" v="VT"/>
    <tag k="ref:vcgi:esiteid" v="301692"/>
  </node>
  <node id="-374" visible="true" lat="44.44093322" lon="-72.47383117">
    <tag k="addr:city" v="Woodbury"/>
    <tag k="addr:housenumber" v="1460"/>
    <tag k="addr:street" v="Slayton Pond Road"/>
    <tag k="addr:state" v="VT"/>
    <tag k="ref:vcgi:esiteid" v="301693"/>
  </node>
  <node id="-380" visible="true" lat="44.4408129" lon="-72.41315227">
    <tag k="addr:city" v="Woodbury"/>
    <tag k="addr:housenumber" v="104"/>
    <tag k="addr:street" v="Cabot Road"/>
    <tag k="addr:state" v="VT"/>
    <tag k="ref:vcgi:esiteid" v="301700"/>
  </node>
  <node id="-381" visible="true" lat="44.44071103" lon="-72.41591708">
    <tag k="addr:city" v="Woodbury"/>
    <tag k="addr:housenumber" v="49"/>
    <tag k="addr:street" v="Valley Lake Road"/>
    <tag k="addr:state" v="VT"/>
    <tag k="ref:vcgi:esiteid" v="301701"/>
  </node>
  <node id="-392" visible="true" lat="44.44059669" lon="-72.35720801">
    <tag k="addr:city" v="Woodbury"/>
    <tag k="addr:housenumber" v="568"/>
    <tag k="addr:street" v="South Camp Road"/>
    <tag k="addr:state" v="VT"/>
    <tag k="ref:vcgi:esiteid" v="301712"/>
  </node>
  <node id="-393" visible="true" lat="44.44016273" lon="-72.41749581">
    <tag k="addr:city" v="Woodbury"/>
    <tag k="addr:housenumber" v="80"/>
    <tag k="addr:street" v="Valley Lake Road"/>
    <tag k="addr:state" v="VT"/>
    <tag k="ref:vcgi:esiteid" v="301713"/>
  </node>
  <node id="-399" visible="true" lat="44.43992233" lon="-72.35800933">
    <tag k="addr:city" v="Woodbury"/>
    <tag k="addr:housenumber" v="567"/>
    <tag k="addr:street" v="South Camp Road"/>
    <tag k="addr:state" v="VT"/>
    <tag k="ref:vcgi:esiteid" v="301719"/>
  </node>
  <node id="-401" visible="true" lat="44.43991089" lon="-72.41781616">
    <tag k="addr:city" v="Woodbury"/>
    <tag k="addr:housenumber" v="170"/>
    <tag k="addr:street" v="Valley Lake Road"/>
    <tag k="addr:state" v="VT"/>
    <tag k="ref:vcgi:esiteid" v="301721"/>
  </node>
  <node id="-403" visible="true" lat="44.43968338" lon="-72.35914921">
    <tag k="addr:city" v="Woodbury"/>
    <tag k="addr:housenumber" v="523"/>
    <tag k="addr:street" v="South Camp Road"/>
    <tag k="addr:state" v="VT"/>
    <tag k="ref:vcgi:esiteid" v="301724"/>
  </node>
  <node id="-404" visible="true" lat="44.439682" lon="-72.34665679">
    <tag k="addr:city" v="Woodbury"/>
    <tag k="addr:housenumber" v="1394"/>
    <tag k="addr:street" v="North Road"/>
    <tag k="addr:state" v="VT"/>
    <tag k="ref:vcgi:esiteid" v="301725"/>
  </node>
  <node id="-405" visible="true" lat="44.43955077" lon="-72.35937686">
    <tag k="addr:city" v="Woodbury"/>
    <tag k="addr:housenumber" v="521"/>
    <tag k="addr:street" v="South Camp Road"/>
    <tag k="addr:state" v="VT"/>
    <tag k="ref:vcgi:esiteid" v="301726"/>
  </node>
  <node id="-409" visible="true" lat="44.43941879" lon="-72.41879272">
    <tag k="addr:city" v="Woodbury"/>
    <tag k="addr:housenumber" v="228"/>
    <tag k="addr:street" v="Valley Lake Road"/>
    <tag k="addr:state" v="VT"/>
    <tag k="ref:vcgi:esiteid" v="301731"/>
  </node>
  <node id="-411" visible="true" lat="44.4392395" lon="-72.419281">
    <tag k="addr:city" v="Woodbury"/>
    <tag k="addr:housenumber" v="258"/>
    <tag k="addr:street" v="Valley Lake Road"/>
    <tag k="addr:state" v="VT"/>
    <tag k="ref:vcgi:esiteid" v="301733"/>
  </node>
  <node id="-412" visible="true" lat="44.43905954" lon="-72.35908686">
    <tag k="addr:city" v="Woodbury"/>
    <tag k="addr:housenumber" v="499"/>
    <tag k="addr:street" v="South Camp Road"/>
    <tag k="addr:state" v="VT"/>
    <tag k="ref:vcgi:esiteid" v="301734"/>
  </node>
  <node id="-414" visible="true" lat="44.43888855" lon="-72.4180069">
    <tag k="addr:city" v="Woodbury"/>
    <tag k="addr:housenumber" v="191"/>
    <tag k="addr:street" v="Valley Lake Road"/>
    <tag k="addr:state" v="VT"/>
    <tag k="ref:vcgi:esiteid" v="301736"/>
  </node>
  <node id="-415" visible="true" lat="44.4387207" lon="-72.35913848">
    <tag k="addr:city" v="Woodbury"/>
    <tag k="addr:housenumber" v="501"/>
    <tag k="addr:street" v="South Camp Road"/>
    <tag k="addr:state" v="VT"/>
    <tag k="ref:vcgi:esiteid" v="301737"/>
  </node>
  <node id="-422" visible="true" lat="44.43812179" lon="-72.35926055">
    <tag k="addr:city" v="Woodbury"/>
    <tag k="addr:housenumber" v="503"/>
    <tag k="addr:street" v="South Camp Road"/>
    <tag k="addr:state" v="VT"/>
    <tag k="ref:vcgi:esiteid" v="301744"/>
  </node>
  <node id="-428" visible="true" lat="44.43750187" lon="-72.41275702">
    <tag k="addr:city" v="Woodbury"/>
    <tag k="addr:housenumber" v="868"/>
    <tag k="addr:street" v="Blake Hill Road"/>
    <tag k="addr:state" v="VT"/>
    <tag k="ref:vcgi:esiteid" v="301750"/>
  </node>
  <node id="-430" visible="true" lat="44.43731689" lon="-72.35944366">
    <tag k="addr:city" v="Woodbury"/>
    <tag k="addr:housenumber" v="451"/>
    <tag k="addr:street" v="South Camp Road"/>
    <tag k="addr:state" v="VT"/>
    <tag k="ref:vcgi:esiteid" v="301752"/>
  </node>
  <node id="-431" visible="true" lat="44.43642806" lon="-72.34650421">
    <tag k="addr:city" v="Woodbury"/>
    <tag k="addr:housenumber" v="1234"/>
    <tag k="addr:street" v="North Road"/>
    <tag k="addr:state" v="VT"/>
    <tag k="ref:vcgi:esiteid" v="301753"/>
  </node>
  <node id="-433" visible="true" lat="44.43630218" lon="-72.35006713">
    <tag k="addr:city" v="Woodbury"/>
    <tag k="addr:housenumber" v="1094"/>
    <tag k="addr:street" v="North Road"/>
    <tag k="addr:state" v="VT"/>
    <tag k="ref:vcgi:esiteid" v="301755"/>
  </node>
  <node id="-439" visible="true" lat="44.43556213" lon="-72.34433746">
    <tag k="addr:city" v="Woodbury"/>
    <tag k="addr:housenumber" v="1236"/>
    <tag k="addr:street" v="North Road"/>
    <tag k="addr:state" v="VT"/>
    <tag k="ref:vcgi:esiteid" v="301761"/>
  </node>
  <node id="-448" visible="true" lat="44.43405151" lon="-72.41207885">
    <tag k="addr:city" v="Woodbury"/>
    <tag k="addr:housenumber" v="654"/>
    <tag k="addr:street" v="Blake Hill Road"/>
    <tag k="addr:state" v="VT"/>
    <tag k="ref:vcgi:esiteid" v="301770"/>
  </node>
  <node id="-456" visible="true" lat="44.43268923" lon="-72.41328984">
    <tag k="addr:city" v="Woodbury"/>
    <tag k="addr:housenumber" v="15"/>
    <tag k="addr:street" v="Gilbert Road"/>
    <tag k="addr:state" v="VT"/>
    <tag k="ref:vcgi:esiteid" v="301778"/>
  </node>
  <node id="-457" visible="true" lat="44.43231491" lon="-72.41258234">
    <tag k="addr:city" v="Woodbury"/>
    <tag k="addr:housenumber" v="68"/>
    <tag k="addr:street" v="Gilbert Road"/>
    <tag k="addr:state" v="VT"/>
    <tag k="ref:vcgi:esiteid" v="301779"/>
  </node>
  <node id="-458" visible="true" lat="44.43233108" lon="-72.41154479">
    <tag k="addr:city" v="Woodbury"/>
    <tag k="addr:housenumber" v="490"/>
    <tag k="addr:street" v="Blake Hill Road"/>
    <tag k="addr:state" v="VT"/>
    <tag k="ref:vcgi:esiteid" v="301780"/>
  </node>
  <node id="-460" visible="true" lat="44.43196531" lon="-72.41346821">
    <tag k="addr:city" v="Woodbury"/>
    <tag k="addr:housenumber" v="16"/>
    <tag k="addr:street" v="Gilbert Road"/>
    <tag k="addr:state" v="VT"/>
    <tag k="ref:vcgi:esiteid" v="301782"/>
  </node>
  <node id="-469" visible="true" lat="44.42883158" lon="-72.36587499">
    <tag k="addr:city" v="Woodbury"/>
    <tag k="addr:housenumber" v="2773"/>
    <tag k="addr:street" v="Cabot Road"/>
    <tag k="addr:state" v="VT"/>
    <tag k="ref:vcgi:esiteid" v="301791"/>
  </node>
  <node id="-473" visible="true" lat="44.42673901" lon="-72.36464902">
    <tag k="addr:city" v="Woodbury"/>
    <tag k="addr:housenumber" v="2849"/>
    <tag k="addr:street" v="Cabot Road"/>
    <tag k="addr:state" v="VT"/>
    <tag k="ref:vcgi:esiteid" v="301795"/>
  </node>
  <node id="-478" visible="true" lat="44.42629637" lon="-72.46385656">
    <tag k="addr:city" v="Woodbury"/>
    <tag k="addr:housenumber" v="274"/>
    <tag k="addr:street" v="Log Town Road"/>
    <tag k="addr:state" v="VT"/>
    <tag k="ref:vcgi:esiteid" v="301800"/>
  </node>
  <node id="-480" visible="true" lat="44.42563067" lon="-72.36312985">
    <tag k="addr:city" v="Woodbury"/>
    <tag k="addr:housenumber" v="2949"/>
    <tag k="addr:street" v="Cabot Road"/>
    <tag k="addr:state" v="VT"/>
    <tag k="ref:vcgi:esiteid" v="301802"/>
  </node>
  <node id="-483" visible="true" lat="44.42518997" lon="-72.46168518">
    <tag k="addr:city" v="Woodbury"/>
    <tag k="addr:housenumber" v="256"/>
    <tag k="addr:street" v="Log Town Road"/>
    <tag k="addr:state" v="VT"/>
    <tag k="ref:vcgi:esiteid" v="301805"/>
  </node>
  <node id="-485" visible="true" lat="44.42508697" lon="-72.46206665">
    <tag k="addr:city" v="Woodbury"/>
    <tag k="addr:housenumber" v="261"/>
    <tag k="addr:street" v="Log Town Road"/>
    <tag k="addr:state" v="VT"/>
    <tag k="ref:vcgi:esiteid" v="301807"/>
  </node>
  <node id="-490" visible="true" lat="44.4239769" lon="-72.46142578">
    <tag k="addr:city" v="Woodbury"/>
    <tag k="addr:housenumber" v="217"/>
    <tag k="addr:street" v="Log Town Road"/>
    <tag k="addr:state" v="VT"/>
    <tag k="ref:vcgi:esiteid" v="301812"/>
  </node>
  <node id="-492" visible="true" lat="44.4232254" lon="-72.35895538">
    <tag k="addr:city" v="Woodbury"/>
    <tag k="addr:housenumber" v="3235"/>
    <tag k="addr:street" v="Cabot Road"/>
    <tag k="addr:state" v="VT"/>
    <tag k="ref:vcgi:esiteid" v="301814"/>
  </node>
  <node id="-494" visible="true" lat="44.42251205" lon="-72.35792542">
    <tag k="addr:city" v="Woodbury"/>
    <tag k="addr:housenumber" v="3316"/>
    <tag k="addr:street" v="Cabot Road"/>
    <tag k="addr:state" v="VT"/>
    <tag k="ref:vcgi:esiteid" v="301816"/>
  </node>
  <node id="-500" visible="true" lat="44.42156982" lon="-72.35925293">
    <tag k="addr:city" v="Woodbury"/>
    <tag k="addr:housenumber" v="3318"/>
    <tag k="addr:street" v="Cabot Road"/>
    <tag k="addr:state" v="VT"/>
    <tag k="ref:vcgi:esiteid" v="301822"/>
  </node>
  <node id="-523" visible="true" lat="44.41757584" lon="-72.46174622">
    <tag k="addr:city" v="Woodbury"/>
    <tag k="addr:housenumber" v="711"/>
    <tag k="addr:street" v="Scribner Road"/>
    <tag k="addr:state" v="VT"/>
    <tag k="ref:vcgi:esiteid" v="301845"/>
  </node>
  <node id="-524" visible="true" lat="44.41742918" lon="-72.45934892">
    <tag k="addr:city" v="Woodbury"/>
    <tag k="addr:housenumber" v="658"/>
    <tag k="addr:street" v="Scribner Road"/>
    <tag k="addr:state" v="VT"/>
    <tag k="ref:vcgi:esiteid" v="301846"/>
  </node>
  <node id="-526" visible="true" lat="44.4173317" lon="-72.45864868">
    <tag k="addr:city" v="Woodbury"/>
    <tag k="addr:housenumber" v="584"/>
    <tag k="addr:street" v="Scribner Road"/>
    <tag k="addr:state" v="VT"/>
    <tag k="ref:vcgi:esiteid" v="301848"/>
  </node>
  <node id="-538" visible="true" lat="44.41586685" lon="-72.35771942">
    <tag k="addr:city" v="Woodbury"/>
    <tag k="addr:housenumber" v="3466"/>
    <tag k="addr:street" v="Cabot Road"/>
    <tag k="addr:state" v="VT"/>
    <tag k="ref:vcgi:esiteid" v="301860"/>
  </node>
  <node id="-546" visible="true" lat="44.41551209" lon="-72.45584869">
    <tag k="addr:city" v="Woodbury"/>
    <tag k="addr:housenumber" v="386"/>
    <tag k="addr:street" v="Scribner Road"/>
    <tag k="addr:state" v="VT"/>
    <tag k="ref:vcgi:esiteid" v="301868"/>
  </node>
  <node id="-549" visible="true" lat="44.41537857" lon="-72.4439621">
    <tag k="addr:city" v="Woodbury"/>
    <tag k="addr:housenumber" v="198"/>
    <tag k="addr:street" v="Chartier Hill Road"/>
    <tag k="addr:state" v="VT"/>
    <tag k="ref:vcgi:esiteid" v="301871"/>
  </node>
  <node id="-556" visible="true" lat="44.41493227" lon="-72.44489624">
    <tag k="addr:city" v="Woodbury"/>
    <tag k="addr:housenumber" v="272"/>
    <tag k="addr:street" v="Chartier Hill Road"/>
    <tag k="addr:state" v="VT"/>
    <tag k="ref:vcgi:esiteid" v="301878"/>
  </node>
  <node id="-563" visible="true" lat="44.41460037" lon="-72.3591919">
    <tag k="addr:city" v="Woodbury"/>
    <tag k="addr:housenumber" v="3464"/>
    <tag k="addr:street" v="Cabot Road"/>
    <tag k="addr:state" v="VT"/>
    <tag k="ref:vcgi:esiteid" v="301885"/>
  </node>
  <node id="-566" visible="true" lat="44.41441345" lon="-72.44574738">
    <tag k="addr:city" v="Woodbury"/>
    <tag k="addr:housenumber" v="326"/>
    <tag k="addr:street" v="Chartier Hill Road"/>
    <tag k="addr:state" v="VT"/>
    <tag k="ref:vcgi:esiteid" v="301888"/>
  </node>
  <node id="-567" visible="true" lat="44.41436768" lon="-72.45307922">
    <tag k="addr:city" v="Woodbury"/>
    <tag k="addr:housenumber" v="216"/>
    <tag k="addr:street" v="Scribner Road"/>
    <tag k="addr:state" v="VT"/>
    <tag k="ref:vcgi:esiteid" v="301889"/>
  </node>
  <node id="-571" visible="true" lat="44.41395623" lon="-72.45503037">
    <tag k="addr:city" v="Woodbury"/>
    <tag k="addr:housenumber" v="331"/>
    <tag k="addr:street" v="Scribner Road"/>
    <tag k="addr:state" v="VT"/>
    <tag k="ref:vcgi:esiteid" v="301893"/>
  </node>
  <node id="-575" visible="true" lat="44.41347662" lon="-72.45094756">
    <tag k="addr:city" v="Woodbury"/>
    <tag k="addr:housenumber" v="124"/>
    <tag k="addr:street" v="Scribner Road"/>
    <tag k="addr:state" v="VT"/>
    <tag k="ref:vcgi:esiteid" v="301897"/>
  </node>
  <node id="-578" visible="true" lat="44.41314697" lon="-72.4465332">
    <tag k="addr:city" v="Woodbury"/>
    <tag k="addr:housenumber" v="403"/>
    <tag k="addr:street" v="Chartier Hill Road"/>
    <tag k="addr:state" v="VT"/>
    <tag k="ref:vcgi:esiteid" v="301900"/>
  </node>
  <node id="-580" visible="true" lat="44.41296477" lon="-72.45227467">
    <tag k="addr:city" v="Woodbury"/>
    <tag k="addr:housenumber" v="141"/>
    <tag k="addr:street" v="Scribner Road"/>
    <tag k="addr:state" v="VT"/>
    <tag k="ref:vcgi:esiteid" v="301902"/>
  </node>
  <node id="-581" visible="true" lat="44.41268684" lon="-72.44766935">
    <tag k="addr:city" v="Woodbury"/>
    <tag k="addr:housenumber" v="463"/>
    <tag k="addr:street" v="Chartier Hill Road"/>
    <tag k="addr:state" v="VT"/>
    <tag k="ref:vcgi:esiteid" v="301903"/>
  </node>
  <node id="-582" visible="true" lat="44.41255631" lon="-72.44240288">
    <tag k="addr:city" v="Woodbury"/>
    <tag k="addr:housenumber" v="324"/>
    <tag k="addr:street" v="Pine Road"/>
    <tag k="addr:state" v="VT"/>
    <tag k="ref:vcgi:esiteid" v="301904"/>
  </node>
  <node id="-583" visible="true" lat="44.41250535" lon="-72.44947048">
    <tag k="addr:city" v="Woodbury"/>
    <tag k="addr:housenumber" v="53"/>
    <tag k="addr:street" v="Scribner Road"/>
    <tag k="addr:state" v="VT"/>
    <tag k="ref:vcgi:esiteid" v="301905"/>
  </node>
  <node id="-591" visible="true" lat="44.41141642" lon="-72.36046488">
    <tag k="addr:city" v="Woodbury"/>
    <tag k="addr:housenumber" v="164"/>
    <tag k="addr:street" v="McCarty Road"/>
    <tag k="addr:state" v="VT"/>
    <tag k="ref:vcgi:esiteid" v="301913"/>
  </node>
  <node id="-592" visible="true" lat="44.41139984" lon="-72.44629669">
    <tag k="addr:city" v="Woodbury"/>
    <tag k="addr:housenumber" v="826"/>
    <tag k="addr:street" v="Nelson Pond Road"/>
    <tag k="addr:state" v="VT"/>
    <tag k="ref:vcgi:esiteid" v="301914"/>
  </node>
  <node id="-593" visible="true" lat="44.41130878" lon="-72.4511006">
    <tag k="addr:city" v="Woodbury"/>
    <tag k="addr:housenumber" v="81"/>
    <tag k="addr:street" v="Scribner Road"/>
    <tag k="addr:state" v="VT"/>
    <tag k="ref:vcgi:esiteid" v="301915"/>
  </node>
  <node id="-594" visible="true" lat="44.41093828" lon="-72.4473021">
    <tag k="addr:city" v="Woodbury"/>
    <tag k="addr:housenumber" v="782"/>
    <tag k="addr:street" v="Nelson Pond Road"/>
    <tag k="addr:state" v="VT"/>
    <tag k="ref:vcgi:esiteid" v="301916"/>
  </node>
  <node id="-597" visible="true" lat="44.41053202" lon="-72.4395105">
    <tag k="addr:city" v="Woodbury"/>
    <tag k="addr:housenumber" v="408"/>
    <tag k="addr:street" v="Pine Road"/>
    <tag k="addr:state" v="VT"/>
    <tag k="ref:vcgi:esiteid" v="301919"/>
  </node>
  <node id="-598" visible="true" lat="44.41040046" lon="-72.43914801">
    <tag k="addr:city" v="Woodbury"/>
    <tag k="addr:housenumber" v="428"/>
    <tag k="addr:street" v="Pine Road"/>
    <tag k="addr:state" v="VT"/>
    <tag k="ref:vcgi:esiteid" v="301920"/>
  </node>
  <node id="-599" visible="true" lat="44.41033368" lon="-72.43881257">
    <tag k="addr:city" v="Woodbury"/>
    <tag k="addr:housenumber" v="446"/>
    <tag k="addr:street" v="Pine Road"/>
    <tag k="addr:state" v="VT"/>
    <tag k="ref:vcgi:esiteid" v="301921"/>
  </node>
  <node id="-602" visible="true" lat="44.40999929" lon="-72.43721673">
    <tag k="addr:city" v="Woodbury"/>
    <tag k="addr:housenumber" v="219"/>
    <tag k="addr:street" v="Butterfly Lane"/>
    <tag k="addr:state" v="VT"/>
    <tag k="ref:vcgi:esiteid" v="301924"/>
  </node>
  <node id="-609" visible="true" lat="44.40921417" lon="-72.3627055">
    <tag k="addr:city" v="Woodbury"/>
    <tag k="addr:housenumber" v="2881"/>
    <tag k="addr:street" v="East Hill Road"/>
    <tag k="addr:state" v="VT"/>
    <tag k="ref:vcgi:esiteid" v="301931"/>
  </node>
  <node id="-615" visible="true" lat="44.40827176" lon="-72.36307105">
    <tag k="addr:city" v="Woodbury"/>
    <tag k="addr:housenumber" v="2843"/>
    <tag k="addr:street" v="East Hill Road"/>
    <tag k="addr:state" v="VT"/>
    <tag k="ref:vcgi:esiteid" v="301937"/>
  </node>
  <node id="-616" visible="true" lat="44.40816891" lon="-72.36365996">
    <tag k="addr:city" v="Woodbury"/>
    <tag k="addr:housenumber" v="2811"/>
    <tag k="addr:street" v="East Hill Road"/>
    <tag k="addr:state" v="VT"/>
    <tag k="ref:vcgi:esiteid" v="301938"/>
  </node>
  <node id="-617" visible="true" lat="44.4083786" lon="-72.42827606">
    <tag k="addr:city" v="Woodbury"/>
    <tag k="addr:housenumber" v="71"/>
    <tag k="addr:street" v="King Pond Road"/>
    <tag k="addr:state" v="VT"/>
    <tag k="ref:vcgi:esiteid" v="301939"/>
  </node>
  <node id="-620" visible="true" lat="44.40769196" lon="-72.36706543">
    <tag k="addr:city" v="Woodbury"/>
    <tag k="addr:housenumber" v="2633"/>
    <tag k="addr:street" v="East Hill Road"/>
    <tag k="addr:state" v="VT"/>
    <tag k="ref:vcgi:esiteid" v="301942"/>
  </node>
  <node id="-622" visible="true" lat="44.40755844" lon="-72.43585205">
    <tag k="addr:city" v="Woodbury"/>
    <tag k="addr:housenumber" v="202"/>
    <tag k="addr:street" v="Cliff Drive"/>
    <tag k="addr:state" v="VT"/>
    <tag k="ref:vcgi:esiteid" v="301944"/>
  </node>
  <node id="-624" visible="true" lat="44.40721011" lon="-72.36411618">
    <tag k="addr:city" v="Woodbury"/>
    <tag k="addr:housenumber" v="2778"/>
    <tag k="addr:street" v="East Hill Road"/>
    <tag k="addr:state" v="VT"/>
    <tag k="ref:vcgi:esiteid" v="301946"/>
  </node>
  <node id="-628" visible="true" lat="44.40727997" lon="-72.4272232">
    <tag k="addr:city" v="Woodbury"/>
    <tag k="addr:housenumber" v="1426"/>
    <tag k="addr:street" v="Foster Hill Road"/>
    <tag k="addr:state" v="VT"/>
    <tag k="ref:vcgi:esiteid" v="301950"/>
  </node>
  <node id="-629" visible="true" lat="44.40722275" lon="-72.43542481">
    <tag k="addr:city" v="Woodbury"/>
    <tag k="addr:housenumber" v="217"/>
    <tag k="addr:street" v="Cliff Drive"/>
    <tag k="addr:state" v="VT"/>
    <tag k="ref:vcgi:esiteid" v="301951"/>
  </node>
  <node id="-630" visible="true" lat="44.40697099" lon="-72.36321573">
    <tag k="addr:city" v="Woodbury"/>
    <tag k="addr:housenumber" v="2820"/>
    <tag k="addr:street" v="East Hill Road"/>
    <tag k="addr:state" v="VT"/>
    <tag k="ref:vcgi:esiteid" v="301952"/>
  </node>
  <node id="-631" visible="true" lat="44.40700149" lon="-72.36720276">
    <tag k="addr:city" v="Woodbury"/>
    <tag k="addr:housenumber" v="2622"/>
    <tag k="addr:street" v="East Hill Road"/>
    <tag k="addr:state" v="VT"/>
    <tag k="ref:vcgi:esiteid" v="301953"/>
  </node>
  <node id="-636" visible="true" lat="44.4056161" lon="-72.42674545">
    <tag k="addr:city" v="Woodbury"/>
    <tag k="addr:housenumber" v="44"/>
    <tag k="addr:street" v="Wilbur Road"/>
    <tag k="addr:state" v="VT"/>
    <tag k="ref:vcgi:esiteid" v="301958"/>
  </node>
  <node id="-637" visible="true" lat="44.40653992" lon="-72.37202454">
    <tag k="addr:city" v="Woodbury"/>
    <tag k="addr:housenumber" v="2343"/>
    <tag k="addr:street" v="East Hill Road"/>
    <tag k="addr:state" v="VT"/>
    <tag k="ref:vcgi:esiteid" v="301959"/>
  </node>
  <node id="-638" visible="true" lat="44.40665512" lon="-72.43635741">
    <tag k="addr:city" v="Woodbury"/>
    <tag k="addr:housenumber" v="336"/>
    <tag k="addr:street" v="Rathburn Road"/>
    <tag k="addr:state" v="VT"/>
    <tag k="ref:vcgi:esiteid" v="301960"/>
  </node>
  <node id="-641" visible="true" lat="44.40603638" lon="-72.43061829">
    <tag k="addr:city" v="Woodbury"/>
    <tag k="addr:housenumber" v="72"/>
    <tag k="addr:street" v="Rathburn Road"/>
    <tag k="addr:state" v="VT"/>
    <tag k="ref:vcgi:esiteid" v="301963"/>
  </node>
  <node id="-642" visible="true" lat="44.4060173" lon="-72.41963958">
    <tag k="addr:city" v="Woodbury"/>
    <tag k="addr:housenumber" v="137"/>
    <tag k="addr:street" v="Herricks Cove"/>
    <tag k="addr:state" v="VT"/>
    <tag k="ref:vcgi:esiteid" v="301964"/>
  </node>
  <node id="-644" visible="true" lat="44.40596771" lon="-72.43444824">
    <tag k="addr:city" v="Woodbury"/>
    <tag k="addr:housenumber" v="258"/>
    <tag k="addr:street" v="Rathburn Road"/>
    <tag k="addr:state" v="VT"/>
    <tag k="ref:vcgi:esiteid" v="301966"/>
  </node>
  <node id="-645" visible="true" lat="44.40574992" lon="-72.43709878">
    <tag k="addr:city" v="Woodbury"/>
    <tag k="addr:housenumber" v="428"/>
    <tag k="addr:street" v="Rathburn Road"/>
    <tag k="addr:state" v="VT"/>
    <tag k="ref:vcgi:esiteid" v="301967"/>
  </node>
  <node id="-646" visible="true" lat="44.40576935" lon="-72.37062836">
    <tag k="addr:city" v="Woodbury"/>
    <tag k="addr:housenumber" v="2340"/>
    <tag k="addr:street" v="East Hill Road"/>
    <tag k="addr:state" v="VT"/>
    <tag k="ref:vcgi:esiteid" v="301968"/>
  </node>
  <node id="-648" visible="true" lat="44.40560532" lon="-72.42989349">
    <tag k="addr:city" v="Woodbury"/>
    <tag k="addr:housenumber" v="1225"/>
    <tag k="addr:street" v="Foster Hill Road"/>
    <tag k="addr:state" v="VT"/>
    <tag k="ref:vcgi:esiteid" v="301970"/>
  </node>
  <node id="-649" visible="true" lat="44.40556716" lon="-72.42155456">
    <tag k="addr:city" v="Woodbury"/>
    <tag k="addr:housenumber" v="313"/>
    <tag k="addr:street" v="Herricks Cove"/>
    <tag k="addr:state" v="VT"/>
    <tag k="ref:vcgi:esiteid" v="301971"/>
  </node>
  <node id="-652" visible="true" lat="44.40539932" lon="-72.42163085">
    <tag k="addr:city" v="Woodbury"/>
    <tag k="addr:housenumber" v="321"/>
    <tag k="addr:street" v="Herricks Cove"/>
    <tag k="addr:state" v="VT"/>
    <tag k="ref:vcgi:esiteid" v="301974"/>
  </node>
  <node id="-653" visible="true" lat="44.40538024" lon="-72.42220306">
    <tag k="addr:city" v="Woodbury"/>
    <tag k="addr:housenumber" v="280"/>
    <tag k="addr:street" v="Herricks Cove"/>
    <tag k="addr:state" v="VT"/>
    <tag k="ref:vcgi:esiteid" v="301975"/>
  </node>
  <node id="-658" visible="true" lat="44.40515796" lon="-72.43556094">
    <tag k="addr:city" v="Woodbury"/>
    <tag k="addr:housenumber" v="345"/>
    <tag k="addr:street" v="Rathburn Road"/>
    <tag k="addr:state" v="VT"/>
    <tag k="ref:vcgi:esiteid" v="301980"/>
  </node>
  <node id="-659" visible="true" lat="44.40509384" lon="-72.42205698">
    <tag k="addr:city" v="Woodbury"/>
    <tag k="addr:housenumber" v="350"/>
    <tag k="addr:street" v="Herricks Cove"/>
    <tag k="addr:state" v="VT"/>
    <tag k="ref:vcgi:esiteid" v="301981"/>
  </node>
  <node id="-660" visible="true" lat="44.40493393" lon="-72.3910141">
    <tag k="addr:city" v="Woodbury"/>
    <tag k="addr:housenumber" v="24"/>
    <tag k="addr:street" v="Bliss Road"/>
    <tag k="addr:state" v="VT"/>
    <tag k="ref:vcgi:esiteid" v="301982"/>
  </node>
  <node id="-662" visible="true" lat="44.40482398" lon="-72.4220859">
    <tag k="addr:city" v="Woodbury"/>
    <tag k="addr:housenumber" v="360"/>
    <tag k="addr:street" v="Herricks Cove"/>
    <tag k="addr:state" v="VT"/>
    <tag k="ref:vcgi:esiteid" v="301984"/>
  </node>
  <node id="-663" visible="true" lat="44.4048233" lon="-72.43172455">
    <tag k="addr:city" v="Woodbury"/>
    <tag k="addr:housenumber" v="1021"/>
    <tag k="addr:street" v="Foster Hill Road"/>
    <tag k="addr:state" v="VT"/>
    <tag k="ref:vcgi:esiteid" v="301985"/>
  </node>
  <node id="-664" visible="true" lat="44.40474701" lon="-72.39037323">
    <tag k="addr:city" v="Woodbury"/>
    <tag k="addr:housenumber" v="41"/>
    <tag k="addr:street" v="Bliss Road"/>
    <tag k="addr:state" v="VT"/>
    <tag k="ref:vcgi:esiteid" v="301986"/>
  </node>
  <node id="-666" visible="true" lat="44.40422946" lon="-72.42212463">
    <tag k="addr:city" v="Woodbury"/>
    <tag k="addr:housenumber" v="404"/>
    <tag k="addr:street" v="Herricks Cove"/>
    <tag k="addr:state" v="VT"/>
    <tag k="ref:vcgi:esiteid" v="301989"/>
  </node>
  <node id="-667" visible="true" lat="44.40398465" lon="-72.42208901">
    <tag k="addr:city" v="Woodbury"/>
    <tag k="addr:housenumber" v="85"/>
    <tag k="addr:street" v="Herricks Cove Upper Road"/>
    <tag k="addr:state" v="VT"/>
    <tag k="ref:vcgi:esiteid" v="301990"/>
  </node>
  <node id="-669" visible="true" lat="44.4038124" lon="-72.42366027">
    <tag k="addr:city" v="Woodbury"/>
    <tag k="addr:housenumber" v="299"/>
    <tag k="addr:street" v="Wilbur Road"/>
    <tag k="addr:state" v="VT"/>
    <tag k="ref:vcgi:esiteid" v="301992"/>
  </node>
  <node id="-670" visible="true" lat="44.40377044" lon="-72.42266082">
    <tag k="addr:city" v="Woodbury"/>
    <tag k="addr:housenumber" v="106"/>
    <tag k="addr:street" v="Herricks Cove Upper Road"/>
    <tag k="addr:state" v="VT"/>
    <tag k="ref:vcgi:esiteid" v="301993"/>
  </node>
  <node id="-671" visible="true" lat="44.40374374" lon="-72.39413452">
    <tag k="addr:city" v="Woodbury"/>
    <tag k="addr:housenumber" v="985"/>
    <tag k="addr:street" v="East Hill Road"/>
    <tag k="addr:state" v="VT"/>
    <tag k="ref:vcgi:esiteid" v="301994"/>
  </node>
  <node id="-673" visible="true" lat="44.40366363" lon="-72.41300964">
    <tag k="addr:city" v="Woodbury"/>
    <tag k="addr:housenumber" v="88"/>
    <tag k="addr:street" v="Cass Cove Road"/>
    <tag k="addr:state" v="VT"/>
    <tag k="ref:vcgi:esiteid" v="301996"/>
  </node>
  <node id="-674" visible="true" lat="44.40366745" lon="-72.42212677">
    <tag k="addr:city" v="Woodbury"/>
    <tag k="addr:housenumber" v="101"/>
    <tag k="addr:street" v="Herricks Cove Upper Road"/>
    <tag k="addr:state" v="VT"/>
    <tag k="ref:vcgi:esiteid" v="301997"/>
  </node>
  <node id="-675" visible="true" lat="44.40350341" lon="-72.41292572">
    <tag k="addr:city" v="Woodbury"/>
    <tag k="addr:housenumber" v="94"/>
    <tag k="addr:street" v="Cass Cove Road"/>
    <tag k="addr:state" v="VT"/>
    <tag k="ref:vcgi:esiteid" v="301998"/>
  </node>
  <node id="-676" visible="true" lat="44.40351881" lon="-72.41351704">
    <tag k="addr:city" v="Woodbury"/>
    <tag k="addr:housenumber" v="122"/>
    <tag k="addr:street" v="Cass Cove Road"/>
    <tag k="addr:state" v="VT"/>
    <tag k="ref:vcgi:esiteid" v="301999"/>
  </node>
  <node id="-677" visible="true" lat="44.40342877" lon="-72.37190128">
    <tag k="addr:city" v="Woodbury"/>
    <tag k="addr:housenumber" v="2166"/>
    <tag k="addr:street" v="East Hill Road"/>
    <tag k="addr:state" v="VT"/>
    <tag k="ref:vcgi:esiteid" v="302000"/>
  </node>
  <node id="-678" visible="true" lat="44.40344238" lon="-72.41526794">
    <tag k="addr:city" v="Woodbury"/>
    <tag k="addr:housenumber" v="116"/>
    <tag k="addr:street" v="Wheelock Road"/>
    <tag k="addr:state" v="VT"/>
    <tag k="ref:vcgi:esiteid" v="302001"/>
  </node>
  <node id="-679" visible="true" lat="44.40341486" lon="-72.42227886">
    <tag k="addr:city" v="Woodbury"/>
    <tag k="addr:housenumber" v="139"/>
    <tag k="addr:street" v="Herricks Cove Upper Road"/>
    <tag k="addr:state" v="VT"/>
    <tag k="ref:vcgi:esiteid" v="302002"/>
  </node>
  <node id="-680" visible="true" lat="44.40342062" lon="-72.41381366">
    <tag k="addr:city" v="Woodbury"/>
    <tag k="addr:housenumber" v="136"/>
    <tag k="addr:street" v="Cass Cove Road"/>
    <tag k="addr:state" v="VT"/>
    <tag k="ref:vcgi:esiteid" v="302003"/>
  </node>
  <node id="-683" visible="true" lat="44.4031868" lon="-72.37634277">
    <tag k="addr:city" v="Woodbury"/>
    <tag k="addr:housenumber" v="1981"/>
    <tag k="addr:street" v="East Hill Road"/>
    <tag k="addr:state" v="VT"/>
    <tag k="ref:vcgi:esiteid" v="302006"/>
  </node>
  <node id="-686" visible="true" lat="44.40295287" lon="-72.41276541">
    <tag k="addr:city" v="Woodbury"/>
    <tag k="addr:housenumber" v="73"/>
    <tag k="addr:street" v="Cass Cove Road"/>
    <tag k="addr:state" v="VT"/>
    <tag k="ref:vcgi:esiteid" v="302009"/>
  </node>
  <node id="-687" visible="true" lat="44.40316083" lon="-72.42232771">
    <tag k="addr:city" v="Woodbury"/>
    <tag k="addr:housenumber" v="486"/>
    <tag k="addr:street" v="Herricks Cove"/>
    <tag k="addr:state" v="VT"/>
    <tag k="ref:vcgi:esiteid" v="302010"/>
  </node>
  <node id="-689" visible="true" lat="44.40296554" lon="-72.42572021">
    <tag k="addr:city" v="Woodbury"/>
    <tag k="addr:housenumber" v="1280"/>
    <tag k="addr:street" v="Foster Hill Road"/>
    <tag k="addr:state" v="VT"/>
    <tag k="ref:vcgi:esiteid" v="302012"/>
  </node>
  <node id="-690" visible="true" lat="44.4029274" lon="-72.41447449">
    <tag k="addr:city" v="Woodbury"/>
    <tag k="addr:housenumber" v="134"/>
    <tag k="addr:street" v="Wheelock Road"/>
    <tag k="addr:state" v="VT"/>
    <tag k="ref:vcgi:esiteid" v="302013"/>
  </node>
  <node id="-691" visible="true" lat="44.40284584" lon="-72.4221788">
    <tag k="addr:city" v="Woodbury"/>
    <tag k="addr:housenumber" v="519"/>
    <tag k="addr:street" v="Herricks Cove"/>
    <tag k="addr:state" v="VT"/>
    <tag k="ref:vcgi:esiteid" v="302014"/>
  </node>
  <node id="-692" visible="true" lat="44.40290832" lon="-72.42252349">
    <tag k="addr:city" v="Woodbury"/>
    <tag k="addr:housenumber" v="504"/>
    <tag k="addr:street" v="Herricks Cove"/>
    <tag k="addr:state" v="VT"/>
    <tag k="ref:vcgi:esiteid" v="302015"/>
  </node>
  <node id="-695" visible="true" lat="44.40270233" lon="-72.41426086">
    <tag k="addr:city" v="Woodbury"/>
    <tag k="addr:housenumber" v="120"/>
    <tag k="addr:street" v="Wheelock Road"/>
    <tag k="addr:state" v="VT"/>
    <tag k="ref:vcgi:esiteid" v="302018"/>
  </node>
  <node id="-696" visible="true" lat="44.40278071" lon="-72.42263827">
    <tag k="addr:city" v="Woodbury"/>
    <tag k="addr:housenumber" v="518"/>
    <tag k="addr:street" v="Herricks Cove"/>
    <tag k="addr:state" v="VT"/>
    <tag k="ref:vcgi:esiteid" v="302019"/>
  </node>
  <node id="-697" visible="true" lat="44.40265274" lon="-72.4220581">
    <tag k="addr:city" v="Woodbury"/>
    <tag k="addr:housenumber" v="531"/>
    <tag k="addr:street" v="Herricks Cove"/>
    <tag k="addr:state" v="VT"/>
    <tag k="ref:vcgi:esiteid" v="302020"/>
  </node>
  <node id="-698" visible="true" lat="44.40265332" lon="-72.41461167">
    <tag k="addr:city" v="Woodbury"/>
    <tag k="addr:housenumber" v="117"/>
    <tag k="addr:street" v="Wheelock Road"/>
    <tag k="addr:state" v="VT"/>
    <tag k="ref:vcgi:esiteid" v="302021"/>
  </node>
  <node id="-700" visible="true" lat="44.40244675" lon="-72.39162445">
    <tag k="addr:city" v="Woodbury"/>
    <tag k="addr:housenumber" v="1156"/>
    <tag k="addr:street" v="East Hill Road"/>
    <tag k="addr:state" v="VT"/>
    <tag k="ref:vcgi:esiteid" v="302023"/>
  </node>
  <node id="-702" visible="true" lat="44.40244302" lon="-72.42170112">
    <tag k="addr:city" v="Woodbury"/>
    <tag k="addr:housenumber" v="553"/>
    <tag k="addr:street" v="Herricks Cove"/>
    <tag k="addr:state" v="VT"/>
    <tag k="ref:vcgi:esiteid" v="302025"/>
  </node>
  <node id="-707" visible="true" lat="44.40218353" lon="-72.37973022">
    <tag k="addr:city" v="Woodbury"/>
    <tag k="addr:housenumber" v="1797"/>
    <tag k="addr:street" v="East Hill Road"/>
    <tag k="addr:state" v="VT"/>
    <tag k="ref:vcgi:esiteid" v="302030"/>
  </node>
  <node id="-708" visible="true" lat="44.40203241" lon="-72.41462414">
    <tag k="addr:city" v="Woodbury"/>
    <tag k="addr:housenumber" v="83"/>
    <tag k="addr:street" v="Wheelock Road"/>
    <tag k="addr:state" v="VT"/>
    <tag k="ref:vcgi:esiteid" v="302031"/>
  </node>
  <node id="-710" visible="true" lat="44.40206909" lon="-72.39105987">
    <tag k="addr:city" v="Woodbury"/>
    <tag k="addr:housenumber" v="1182"/>
    <tag k="addr:street" v="East Hill Road"/>
    <tag k="addr:state" v="VT"/>
    <tag k="ref:vcgi:esiteid" v="302033"/>
  </node>
  <node id="-711" visible="true" lat="44.40202713" lon="-72.38361359">
    <tag k="addr:city" v="Woodbury"/>
    <tag k="addr:housenumber" v="1577"/>
    <tag k="addr:street" v="East Hill Road"/>
    <tag k="addr:state" v="VT"/>
    <tag k="ref:vcgi:esiteid" v="302034"/>
  </node>
  <node id="-714" visible="true" lat="44.40175629" lon="-72.38865662">
    <tag k="addr:city" v="Woodbury"/>
    <tag k="addr:housenumber" v="1301"/>
    <tag k="addr:street" v="East Hill Road"/>
    <tag k="addr:state" v="VT"/>
    <tag k="ref:vcgi:esiteid" v="302037"/>
  </node>
  <node id="-715" visible="true" lat="44.40165369" lon="-72.41436526">
    <tag k="addr:city" v="Woodbury"/>
    <tag k="addr:housenumber" v="65"/>
    <tag k="addr:street" v="Wheelock Road"/>
    <tag k="addr:state" v="VT"/>
    <tag k="ref:vcgi:esiteid" v="302038"/>
  </node>
  <node id="-717" visible="true" lat="44.40151985" lon="-72.39305921">
    <tag k="addr:city" v="Woodbury"/>
    <tag k="addr:housenumber" v="275"/>
    <tag k="addr:street" v="Bliss Road"/>
    <tag k="addr:state" v="VT"/>
    <tag k="ref:vcgi:esiteid" v="302040"/>
  </node>
  <node id="-722" visible="true" lat="44.40114975" lon="-72.38121796">
    <tag k="addr:city" v="Woodbury"/>
    <tag k="addr:housenumber" v="1704"/>
    <tag k="addr:street" v="East Hill Road"/>
    <tag k="addr:state" v="VT"/>
    <tag k="ref:vcgi:esiteid" v="302045"/>
  </node>
  <node id="-723" visible="true" lat="44.40099919" lon="-72.3792246">
    <tag k="addr:city" v="Woodbury"/>
    <tag k="addr:housenumber" v="1774"/>
    <tag k="addr:street" v="East Hill Road"/>
    <tag k="addr:state" v="VT"/>
    <tag k="ref:vcgi:esiteid" v="302046"/>
  </node>
  <node id="-726" visible="true" lat="44.40093613" lon="-72.38350677">
    <tag k="addr:city" v="Woodbury"/>
    <tag k="addr:housenumber" v="1584"/>
    <tag k="addr:street" v="East Hill Road"/>
    <tag k="addr:state" v="VT"/>
    <tag k="ref:vcgi:esiteid" v="302049"/>
  </node>
  <node id="-728" visible="true" lat="44.40089416" lon="-72.38287353">
    <tag k="addr:city" v="Woodbury"/>
    <tag k="addr:housenumber" v="1624"/>
    <tag k="addr:street" v="East Hill Road"/>
    <tag k="addr:state" v="VT"/>
    <tag k="ref:vcgi:esiteid" v="302051"/>
  </node>
  <node id="-736" visible="true" lat="44.39975357" lon="-72.40129089">
    <tag k="addr:city" v="Woodbury"/>
    <tag k="addr:housenumber" v="277"/>
    <tag k="addr:street" v="Stevens Road"/>
    <tag k="addr:state" v="VT"/>
    <tag k="ref:vcgi:esiteid" v="302059"/>
  </node>
  <node id="-739" visible="true" lat="44.39900207" lon="-72.39964294">
    <tag k="addr:city" v="Woodbury"/>
    <tag k="addr:housenumber" v="171"/>
    <tag k="addr:street" v="Stevens Road"/>
    <tag k="addr:state" v="VT"/>
    <tag k="ref:vcgi:esiteid" v="302062"/>
  </node>
  <node id="-744" visible="true" lat="44.39825973" lon="-72.41345703">
    <tag k="addr:city" v="Woodbury"/>
    <tag k="addr:housenumber" v="16"/>
    <tag k="addr:street" v="Strawberry Lane"/>
    <tag k="addr:state" v="VT"/>
    <tag k="ref:vcgi:esiteid" v="302067"/>
  </node>
  <node id="-746" visible="true" lat="44.39826202" lon="-72.39778137">
    <tag k="addr:city" v="Woodbury"/>
    <tag k="addr:housenumber" v="87"/>
    <tag k="addr:street" v="Stevens Road"/>
    <tag k="addr:state" v="VT"/>
    <tag k="ref:vcgi:esiteid" v="302069"/>
  </node>
  <node id="-748" visible="true" lat="44.39799561" lon="-72.4135695">
    <tag k="addr:city" v="Woodbury"/>
    <tag k="addr:housenumber" v="69"/>
    <tag k="addr:street" v="Strawberry Lane"/>
    <tag k="addr:state" v="VT"/>
    <tag k="ref:vcgi:esiteid" v="302071"/>
  </node>
  <node id="-750" visible="true" lat="44.39757837" lon="-72.39570172">
    <tag k="addr:city" v="Woodbury"/>
    <tag k="addr:housenumber" v="571"/>
    <tag k="addr:street" v="Bliss Road"/>
    <tag k="addr:state" v="VT"/>
    <tag k="ref:vcgi:esiteid" v="302073"/>
  </node>
  <node id="-756" visible="true" lat="44.39706024" lon="-72.41489918">
    <tag k="addr:city" v="Woodbury"/>
    <tag k="addr:housenumber" v="26"/>
    <tag k="addr:street" v="Hemlock Road"/>
    <tag k="addr:state" v="VT"/>
    <tag k="ref:vcgi:esiteid" v="302079"/>
  </node>
  <node id="-757" visible="true" lat="44.39715489" lon="-72.41594609">
    <tag k="addr:city" v="Woodbury"/>
    <tag k="addr:housenumber" v="58"/>
    <tag k="addr:street" v="Hemlock Road"/>
    <tag k="addr:state" v="VT"/>
    <tag k="ref:vcgi:esiteid" v="302080"/>
  </node>
  <node id="-760" visible="true" lat="44.39694595" lon="-72.39590454">
    <tag k="addr:city" v="Woodbury"/>
    <tag k="addr:housenumber" v="637"/>
    <tag k="addr:street" v="Bliss Road"/>
    <tag k="addr:state" v="VT"/>
    <tag k="ref:vcgi:esiteid" v="302083"/>
  </node>
  <node id="-762" visible="true" lat="44.39687347" lon="-72.41539764">
    <tag k="addr:city" v="Woodbury"/>
    <tag k="addr:housenumber" v="53"/>
    <tag k="addr:street" v="Hemlock Road"/>
    <tag k="addr:state" v="VT"/>
    <tag k="ref:vcgi:esiteid" v="302085"/>
  </node>
  <node id="-763" visible="true" lat="44.39673698" lon="-72.41476589">
    <tag k="addr:city" v="Woodbury"/>
    <tag k="addr:housenumber" v="17"/>
    <tag k="addr:street" v="Hemlock Road"/>
    <tag k="addr:state" v="VT"/>
    <tag k="ref:vcgi:esiteid" v="302086"/>
  </node>
  <node id="-764" visible="true" lat="44.39691083" lon="-72.4157459">
    <tag k="addr:city" v="Woodbury"/>
    <tag k="addr:housenumber" v="67"/>
    <tag k="addr:street" v="Hemlock Road"/>
    <tag k="addr:state" v="VT"/>
    <tag k="ref:vcgi:esiteid" v="302087"/>
  </node>
  <node id="-765" visible="true" lat="44.39677811" lon="-72.41458893">
    <tag k="addr:city" v="Woodbury"/>
    <tag k="addr:housenumber" v="11"/>
    <tag k="addr:street" v="Hemlock Road"/>
    <tag k="addr:state" v="VT"/>
    <tag k="ref:vcgi:esiteid" v="302088"/>
  </node>
  <node id="-766" visible="true" lat="44.39683047" lon="-72.41495582">
    <tag k="addr:city" v="Woodbury"/>
    <tag k="addr:housenumber" v="27"/>
    <tag k="addr:street" v="Hemlock Road"/>
    <tag k="addr:state" v="VT"/>
    <tag k="ref:vcgi:esiteid" v="302089"/>
  </node>
  <node id="-767" visible="true" lat="44.39661811" lon="-72.39663527">
    <tag k="addr:city" v="Woodbury"/>
    <tag k="addr:housenumber" v="658"/>
    <tag k="addr:street" v="Bliss Road"/>
    <tag k="addr:state" v="VT"/>
    <tag k="ref:vcgi:esiteid" v="302090"/>
  </node>
  <node id="-768" visible="true" lat="44.39431833" lon="-72.39982405">
    <tag k="addr:city" v="Woodbury"/>
    <tag k="addr:housenumber" v="321"/>
    <tag k="addr:street" v="Sand Hill Road"/>
    <tag k="addr:state" v="VT"/>
    <tag k="ref:vcgi:esiteid" v="302091"/>
  </node>
  <node id="-769" visible="true" lat="44.39400864" lon="-72.4014698">
    <tag k="addr:city" v="Woodbury"/>
    <tag k="addr:housenumber" v="346"/>
    <tag k="addr:street" v="Sand Hill Road"/>
    <tag k="addr:state" v="VT"/>
    <tag k="ref:vcgi:esiteid" v="302092"/>
  </node>
  <node id="-770" visible="true" lat="44.39368004" lon="-72.39715736">
    <tag k="addr:city" v="Woodbury"/>
    <tag k="addr:housenumber" v="868"/>
    <tag k="addr:street" v="Bliss Road"/>
    <tag k="addr:state" v="VT"/>
    <tag k="ref:vcgi:esiteid" v="302093"/>
  </node>
  <node id="-771" visible="true" lat="44.39353725" lon="-72.39414975">
    <tag k="addr:city" v="Woodbury"/>
    <tag k="addr:housenumber" v="877"/>
    <tag k="addr:street" v="Bliss Road"/>
    <tag k="addr:state" v="VT"/>
    <tag k="ref:vcgi:esiteid" v="302094"/>
  </node>
  <node id="-773" visible="true" lat="44.39018521" lon="-72.39793308">
    <tag k="addr:city" v="Woodbury"/>
    <tag k="addr:housenumber" v="1082"/>
    <tag k="addr:street" v="Bliss Road"/>
    <tag k="addr:state" v="VT"/>
    <tag k="ref:vcgi:esiteid" v="302096"/>
  </node>
  <node id="-774" visible="true" lat="44.38971636" lon="-72.39607701">
    <tag k="addr:city" v="Woodbury"/>
    <tag k="addr:housenumber" v="1151"/>
    <tag k="addr:street" v="Bliss Road"/>
    <tag k="addr:state" v="VT"/>
    <tag k="ref:vcgi:esiteid" v="302097"/>
  </node>
  <node id="-775" visible="true" lat="44.46150593" lon="-72.34100192">
    <tag k="addr:city" v="Woodbury"/>
    <tag k="addr:housenumber" v="233"/>
    <tag k="addr:street" v="Nichols Dam Road"/>
    <tag k="addr:state" v="VT"/>
    <tag k="ref:vcgi:esiteid" v="302099"/>
  </node>
  <node id="-777" visible="true" lat="44.4094119" lon="-72.43611115">
    <tag k="addr:city" v="Woodbury"/>
    <tag k="addr:housenumber" v="149"/>
    <tag k="addr:street" v="Butterfly Lane"/>
    <tag k="addr:state" v="VT"/>
    <tag k="ref:vcgi:esiteid" v="302101"/>
  </node>
  <node id="-779" visible="true" lat="44.40441371" lon="-72.42290703">
    <tag k="addr:city" v="Woodbury"/>
    <tag k="addr:housenumber" v="269"/>
    <tag k="addr:street" v="Wilbur Road"/>
    <tag k="addr:state" v="VT"/>
    <tag k="ref:vcgi:esiteid" v="302103"/>
  </node>
  <node id="-786" visible="true" lat="44.39117908" lon="-72.39858634">
    <tag k="addr:city" v="Woodbury"/>
    <tag k="addr:housenumber" v="994"/>
    <tag k="addr:street" v="Bliss Road"/>
    <tag k="addr:state" v="VT"/>
    <tag k="ref:vcgi:esiteid" v="302110"/>
  </node>
  <node id="-787" visible="true" lat="44.48048174" lon="-72.44248233">
    <tag k="addr:city" v="Woodbury"/>
    <tag k="addr:housenumber" v="438"/>
    <tag k="addr:street" v="West Woodbury Road"/>
    <tag k="addr:state" v="VT"/>
    <tag k="ref:vcgi:esiteid" v="302111"/>
  </node>
  <node id="-788" visible="true" lat="44.49890244" lon="-72.42652336">
    <tag k="addr:city" v="Woodbury"/>
    <tag k="addr:housenumber" v="1958"/>
    <tag k="addr:street" v="Kate Brook Road"/>
    <tag k="addr:state" v="VT"/>
    <tag k="ref:vcgi:esiteid" v="302112"/>
  </node>
  <node id="-789" visible="true" lat="44.39648981" lon="-72.39548802">
    <tag k="addr:city" v="Woodbury"/>
    <tag k="addr:housenumber" v="715"/>
    <tag k="addr:street" v="Bliss Road"/>
    <tag k="addr:state" v="VT"/>
    <tag k="ref:vcgi:esiteid" v="302113"/>
  </node>
  <node id="-792" visible="true" lat="44.41358306" lon="-72.45147799">
    <tag k="addr:city" v="Woodbury"/>
    <tag k="addr:housenumber" v="136"/>
    <tag k="addr:street" v="Scribner Road"/>
    <tag k="addr:state" v="VT"/>
    <tag k="ref:vcgi:esiteid" v="302116"/>
  </node>
  <node id="-794" visible="true" lat="44.40323875" lon="-72.42710596">
    <tag k="addr:city" v="Woodbury"/>
    <tag k="addr:housenumber" v="1278"/>
    <tag k="addr:street" v="Foster Hill Road"/>
    <tag k="addr:state" v="VT"/>
    <tag k="ref:vcgi:esiteid" v="302118"/>
  </node>
  <node id="-797" visible="true" lat="44.49998152" lon="-72.4249258">
    <tag k="addr:city" v="Woodbury"/>
    <tag k="addr:housenumber" v="1889"/>
    <tag k="addr:street" v="Kate Brook Road"/>
    <tag k="addr:state" v="VT"/>
    <tag k="ref:vcgi:esiteid" v="302121"/>
  </node>
  <node id="-798" visible="true" lat="44.40658446" lon="-72.42316793">
    <tag k="addr:city" v="Woodbury"/>
    <tag k="addr:housenumber" v="193"/>
    <tag k="addr:street" v="Wilbur Road"/>
    <tag k="addr:state" v="VT"/>
    <tag k="ref:vcgi:esiteid" v="302122"/>
  </node>
  <node id="-800" visible="true" lat="44.41382434" lon="-72.45358339">
    <tag k="addr:city" v="Woodbury"/>
    <tag k="addr:housenumber" v="245"/>
    <tag k="addr:street" v="Scribner Road"/>
    <tag k="addr:state" v="VT"/>
    <tag k="ref:vcgi:esiteid" v="302124"/>
  </node>
  <node id="-805" visible="true" lat="44.46868177" lon="-72.34008321">
    <tag k="addr:city" v="Woodbury"/>
    <tag k="addr:housenumber" v="1563"/>
    <tag k="addr:street" v="Nichols Pond Road"/>
    <tag k="addr:state" v="VT"/>
    <tag k="ref:vcgi:esiteid" v="302129"/>
  </node>
  <node id="-810" visible="true" lat="44.4829793" lon="-72.44034656">
    <tag k="addr:city" v="Woodbury"/>
    <tag k="addr:housenumber" v="647"/>
    <tag k="addr:street" v="West Woodbury Road"/>
    <tag k="addr:state" v="VT"/>
    <tag k="ref:vcgi:esiteid" v="302134"/>
  </node>
  <node id="-814" visible="true" lat="44.40356595" lon="-72.4288322">
    <tag k="addr:city" v="Woodbury"/>
    <tag k="addr:housenumber" v="1274"/>
    <tag k="addr:street" v="Foster Hill Road"/>
    <tag k="addr:state" v="VT"/>
    <tag k="ref:vcgi:esiteid" v="302139"/>
  </node>
  <node id="-815" visible="true" lat="44.40364442" lon="-72.43015383">
    <tag k="addr:city" v="Woodbury"/>
    <tag k="addr:housenumber" v="1100"/>
    <tag k="addr:street" v="Foster Hill Road"/>
    <tag k="addr:state" v="VT"/>
    <tag k="ref:vcgi:esiteid" v="302140"/>
  </node>
  <node id="-816" visible="true" lat="44.40466977" lon="-72.42840062">
    <tag k="addr:city" v="Woodbury"/>
    <tag k="addr:housenumber" v="1270"/>
    <tag k="addr:street" v="Foster Hill Road"/>
    <tag k="addr:state" v="VT"/>
    <tag k="ref:vcgi:esiteid" v="302141"/>
  </node>
  <node id="-817" visible="true" lat="44.40447416" lon="-72.37051647">
    <tag k="addr:city" v="Woodbury"/>
    <tag k="addr:housenumber" v="37"/>
    <tag k="addr:street" v="Shadow Lane"/>
    <tag k="addr:state" v="VT"/>
    <tag k="ref:vcgi:esiteid" v="302142"/>
  </node>
  <node id="-818" visible="true" lat="44.40796467" lon="-72.43598827">
    <tag k="addr:city" v="Woodbury"/>
    <tag k="addr:housenumber" v="200"/>
    <tag k="addr:street" v="Cliff Drive"/>
    <tag k="addr:state" v="VT"/>
    <tag k="ref:vcgi:esiteid" v="302143"/>
  </node>
  <node id="-819" visible="true" lat="44.40313717" lon="-72.37213962">
    <tag k="addr:city" v="Woodbury"/>
    <tag k="addr:housenumber" v="2120"/>
    <tag k="addr:street" v="East Hill Road"/>
    <tag k="addr:state" v="VT"/>
    <tag k="ref:vcgi:esiteid" v="302144"/>
  </node>
  <node id="-824" visible="true" lat="44.4067823" lon="-72.36888743">
    <tag k="addr:city" v="Woodbury"/>
    <tag k="addr:housenumber" v="2532"/>
    <tag k="addr:street" v="East Hill Road"/>
    <tag k="addr:state" v="VT"/>
    <tag k="ref:vcgi:esiteid" v="306457"/>
  </node>
  <node id="-826" visible="true" lat="44.42473629" lon="-72.45987478">
    <tag k="addr:city" v="Woodbury"/>
    <tag k="addr:housenumber" v="143"/>
    <tag k="addr:street" v="Log Town Road"/>
    <tag k="addr:state" v="VT"/>
    <tag k="ref:vcgi:esiteid" v="306459"/>
  </node>
  <node id="-830" visible="true" lat="44.40252262" lon="-72.37551931">
    <tag k="addr:city" v="Woodbury"/>
    <tag k="addr:housenumber" v="2052"/>
    <tag k="addr:street" v="East Hill Road"/>
    <tag k="addr:state" v="VT"/>
    <tag k="ref:vcgi:esiteid" v="316894"/>
  </node>
  <node id="-831" visible="true" lat="44.42421852" lon="-72.468802">
    <tag k="addr:city" v="Woodbury"/>
    <tag k="addr:housenumber" v="644"/>
    <tag k="addr:street" v="Log Town Road"/>
    <tag k="addr:state" v="VT"/>
    <tag k="ref:vcgi:esiteid" v="326202"/>
  </node>
  <node id="-832" visible="true" lat="44.49554347" lon="-72.43722279">
    <tag k="addr:city" v="Woodbury"/>
    <tag k="addr:housenumber" v="1551"/>
    <tag k="addr:street" v="West Woodbury Road"/>
    <tag k="addr:state" v="VT"/>
    <tag k="ref:vcgi:esiteid" v="326902"/>
  </node>
  <node id="-836" visible="true" lat="44.42280566" lon="-72.46713152">
    <tag k="addr:city" v="Woodbury"/>
    <tag k="addr:housenumber" v="571"/>
    <tag k="addr:street" v="Log Town Road"/>
    <tag k="addr:state" v="VT"/>
    <tag k="ref:vcgi:esiteid" v="329178"/>
  </node>
  <node id="-840" visible="true" lat="44.44208346" lon="-72.34126129">
    <tag k="addr:city" v="Woodbury"/>
    <tag k="addr:housenumber" v="1748"/>
    <tag k="addr:street" v="North Road"/>
    <tag k="addr:state" v="VT"/>
    <tag k="ref:vcgi:esiteid" v="336314"/>
  </node>
  <node id="-841" visible="true" lat="44.49492211" lon="-72.42015885">
    <tag k="addr:city" v="Woodbury"/>
    <tag k="addr:housenumber" v="2376"/>
    <tag k="addr:street" v="West Woodbury Road"/>
    <tag k="addr:state" v="VT"/>
    <tag k="ref:vcgi:esiteid" v="336493"/>
  </node>
  <node id="-844" visible="true" lat="44.4066322" lon="-72.40859941">
    <tag k="addr:city" v="Woodbury"/>
    <tag k="addr:housenumber" v="187"/>
    <tag k="addr:street" v="East Hill Road"/>
    <tag k="addr:state" v="VT"/>
    <tag k="ref:vcgi:esiteid" v="337391"/>
  </node>
  <node id="-845" visible="true" lat="44.42160217" lon="-72.4711413">
    <tag k="addr:city" v="Woodbury"/>
    <tag k="addr:housenumber" v="719"/>
    <tag k="addr:street" v="Log Town Road"/>
    <tag k="addr:state" v="VT"/>
    <tag k="ref:vcgi:esiteid" v="337393"/>
  </node>
  <node id="-853" visible="true" lat="44.47804294" lon="-72.39053097">
    <tag k="addr:city" v="Woodbury"/>
    <tag k="addr:housenumber" v="6884"/>
    <tag k="addr:street" v="Vermont Route 14"/>
    <tag k="addr:state" v="VT"/>
    <tag k="ref:vcgi:esiteid" v="345646"/>
  </node>
  <node id="-863" visible="true" lat="44.40406705" lon="-72.37063623">
    <tag k="addr:city" v="Woodbury"/>
    <tag k="addr:housenumber" v="46"/>
    <tag k="addr:street" v="Shadow Lane"/>
    <tag k="addr:state" v="VT"/>
    <tag k="ref:vcgi:esiteid" v="447936"/>
  </node>
  <node id="-864" visible="true" lat="44.40465686" lon="-72.37000383">
    <tag k="addr:city" v="Woodbury"/>
    <tag k="addr:housenumber" v="89"/>
    <tag k="addr:street" v="Shadow Lane"/>
    <tag k="addr:state" v="VT"/>
    <tag k="ref:vcgi:esiteid" v="447937"/>
  </node>
  <node id="-936" visible="true" lat="44.48052256" lon="-72.4443149">
    <tag k="addr:city" v="Woodbury"/>
    <tag k="addr:housenumber" v="355"/>
    <tag k="addr:street" v="West Woodbury Road"/>
    <tag k="addr:state" v="VT"/>
    <tag k="ref:vcgi:esiteid" v="764473"/>
  </node>
</osm>
