<?xml version="1.0" encoding="UTF-8"?>
<osm version="0.6" generator="JOSM">
  <node id="-100" visible="true" lat="43.63105145" lon="-72.46664898">
    <tag k="addr:city" v="Woodstock"/>
    <tag k="addr:housenumber" v="124"/>
    <tag k="addr:street" v="Covered Bridge Road"/>
    <tag k="addr:state" v="VT"/>
    <tag k="ref:vcgi:esiteid" v="124922"/>
  </node>
  <node id="-101" visible="true" lat="43.6576698" lon="-72.56723563">
    <tag k="addr:city" v="Woodstock"/>
    <tag k="addr:housenumber" v="3272"/>
    <tag k="addr:street" v="Barnard Road"/>
    <tag k="addr:state" v="VT"/>
    <tag k="ref:vcgi:esiteid" v="302516"/>
  </node>
  <node id="-102" visible="true" lat="43.65706269" lon="-72.55262711">
    <tag k="addr:city" v="Woodstock"/>
    <tag k="addr:housenumber" v="804"/>
    <tag k="addr:street" v="Austin Road"/>
    <tag k="addr:state" v="VT"/>
    <tag k="ref:vcgi:esiteid" v="302518"/>
  </node>
  <node id="-103" visible="true" lat="43.65607323" lon="-72.56743424">
    <tag k="addr:city" v="Woodstock"/>
    <tag k="addr:housenumber" v="3195"/>
    <tag k="addr:street" v="Barnard Road"/>
    <tag k="addr:state" v="VT"/>
    <tag k="ref:vcgi:esiteid" v="302519"/>
  </node>
  <node id="-104" visible="true" lat="43.65596424" lon="-72.56549047">
    <tag k="addr:city" v="Woodstock"/>
    <tag k="addr:housenumber" v="3094"/>
    <tag k="addr:street" v="Barnard Road"/>
    <tag k="addr:state" v="VT"/>
    <tag k="ref:vcgi:esiteid" v="302520"/>
  </node>
  <node id="-105" visible="true" lat="43.65552886" lon="-72.56595319">
    <tag k="addr:city" v="Woodstock"/>
    <tag k="addr:housenumber" v="3096"/>
    <tag k="addr:street" v="Barnard Road"/>
    <tag k="addr:state" v="VT"/>
    <tag k="ref:vcgi:esiteid" v="302521"/>
  </node>
  <node id="-106" visible="true" lat="43.65526852" lon="-72.55187649">
    <tag k="addr:city" v="Woodstock"/>
    <tag k="addr:housenumber" v="704"/>
    <tag k="addr:street" v="Austin Road"/>
    <tag k="addr:state" v="VT"/>
    <tag k="ref:vcgi:esiteid" v="302522"/>
  </node>
  <node id="-107" visible="true" lat="43.65476638" lon="-72.55251695">
    <tag k="addr:city" v="Woodstock"/>
    <tag k="addr:housenumber" v="642"/>
    <tag k="addr:street" v="Austin Road"/>
    <tag k="addr:state" v="VT"/>
    <tag k="ref:vcgi:esiteid" v="302523"/>
  </node>
  <node id="-108" visible="true" lat="43.65483952" lon="-72.54623337">
    <tag k="addr:city" v="Woodstock"/>
    <tag k="addr:housenumber" v="677"/>
    <tag k="addr:street" v="Gully Road"/>
    <tag k="addr:state" v="VT"/>
    <tag k="ref:vcgi:esiteid" v="302524"/>
  </node>
  <node id="-109" visible="true" lat="43.65454864" lon="-72.55368804">
    <tag k="addr:city" v="Woodstock"/>
    <tag k="addr:housenumber" v="592"/>
    <tag k="addr:street" v="Austin Road"/>
    <tag k="addr:state" v="VT"/>
    <tag k="ref:vcgi:esiteid" v="302525"/>
  </node>
  <node id="-110" visible="true" lat="43.65406036" lon="-72.56472778">
    <tag k="addr:city" v="Woodstock"/>
    <tag k="addr:housenumber" v="3002"/>
    <tag k="addr:street" v="Barnard Road"/>
    <tag k="addr:state" v="VT"/>
    <tag k="ref:vcgi:esiteid" v="302526"/>
  </node>
  <node id="-111" visible="true" lat="43.6536054" lon="-72.54431304">
    <tag k="addr:city" v="Woodstock"/>
    <tag k="addr:housenumber" v="520"/>
    <tag k="addr:street" v="Gully Road"/>
    <tag k="addr:state" v="VT"/>
    <tag k="ref:vcgi:esiteid" v="302527"/>
  </node>
  <node id="-112" visible="true" lat="43.6534268" lon="-72.56238327">
    <tag k="addr:city" v="Woodstock"/>
    <tag k="addr:housenumber" v="85"/>
    <tag k="addr:street" v="Ribbett Way"/>
    <tag k="addr:state" v="VT"/>
    <tag k="ref:vcgi:esiteid" v="302528"/>
  </node>
  <node id="-113" visible="true" lat="43.65322829" lon="-72.55073037">
    <tag k="addr:city" v="Woodstock"/>
    <tag k="addr:housenumber" v="326"/>
    <tag k="addr:street" v="Hall Circle"/>
    <tag k="addr:state" v="VT"/>
    <tag k="ref:vcgi:esiteid" v="302529"/>
  </node>
  <node id="-114" visible="true" lat="43.65277896" lon="-72.56044125">
    <tag k="addr:city" v="Woodstock"/>
    <tag k="addr:housenumber" v="149"/>
    <tag k="addr:street" v="Ribbett Way"/>
    <tag k="addr:state" v="VT"/>
    <tag k="ref:vcgi:esiteid" v="302530"/>
  </node>
  <node id="-115" visible="true" lat="43.65347118" lon="-72.55701745">
    <tag k="addr:city" v="Woodstock"/>
    <tag k="addr:housenumber" v="441"/>
    <tag k="addr:street" v="Austin Road"/>
    <tag k="addr:state" v="VT"/>
    <tag k="ref:vcgi:esiteid" v="302531"/>
  </node>
  <node id="-116" visible="true" lat="43.65312363" lon="-72.55163654">
    <tag k="addr:city" v="Woodstock"/>
    <tag k="addr:housenumber" v="400"/>
    <tag k="addr:street" v="Hall Circle"/>
    <tag k="addr:state" v="VT"/>
    <tag k="ref:vcgi:esiteid" v="302532"/>
  </node>
  <node id="-117" visible="true" lat="43.65217849" lon="-72.54456372">
    <tag k="addr:city" v="Woodstock"/>
    <tag k="addr:housenumber" v="518"/>
    <tag k="addr:street" v="Gully Road"/>
    <tag k="addr:state" v="VT"/>
    <tag k="ref:vcgi:esiteid" v="302533"/>
  </node>
  <node id="-118" visible="true" lat="43.65189346" lon="-72.54966414">
    <tag k="addr:city" v="Woodstock"/>
    <tag k="addr:housenumber" v="250"/>
    <tag k="addr:street" v="Hall Circle"/>
    <tag k="addr:state" v="VT"/>
    <tag k="ref:vcgi:esiteid" v="302534"/>
  </node>
  <node id="-119" visible="true" lat="43.65193767" lon="-72.55900672">
    <tag k="addr:city" v="Woodstock"/>
    <tag k="addr:housenumber" v="153"/>
    <tag k="addr:street" v="Ribbett Way"/>
    <tag k="addr:state" v="VT"/>
    <tag k="ref:vcgi:esiteid" v="302535"/>
  </node>
  <node id="-120" visible="true" lat="43.65198732" lon="-72.54869509">
    <tag k="addr:city" v="Woodstock"/>
    <tag k="addr:housenumber" v="196"/>
    <tag k="addr:street" v="Hall Circle"/>
    <tag k="addr:state" v="VT"/>
    <tag k="ref:vcgi:esiteid" v="302536"/>
  </node>
  <node id="-121" visible="true" lat="43.65176568" lon="-72.54635946">
    <tag k="addr:city" v="Woodstock"/>
    <tag k="addr:housenumber" v="88"/>
    <tag k="addr:street" v="Hall Circle"/>
    <tag k="addr:state" v="VT"/>
    <tag k="ref:vcgi:esiteid" v="302537"/>
  </node>
  <node id="-122" visible="true" lat="43.65106428" lon="-72.56198661">
    <tag k="addr:city" v="Woodstock"/>
    <tag k="addr:housenumber" v="2752"/>
    <tag k="addr:street" v="Barnard Road"/>
    <tag k="addr:state" v="VT"/>
    <tag k="ref:vcgi:esiteid" v="302538"/>
  </node>
  <node id="-123" visible="true" lat="43.65071072" lon="-72.54647891">
    <tag k="addr:city" v="Woodstock"/>
    <tag k="addr:housenumber" v="97"/>
    <tag k="addr:street" v="Hall Circle"/>
    <tag k="addr:state" v="VT"/>
    <tag k="ref:vcgi:esiteid" v="302539"/>
  </node>
  <node id="-124" visible="true" lat="43.65087543" lon="-72.56294322">
    <tag k="addr:city" v="Woodstock"/>
    <tag k="addr:housenumber" v="2765"/>
    <tag k="addr:street" v="Barnard Road"/>
    <tag k="addr:state" v="VT"/>
    <tag k="ref:vcgi:esiteid" v="302540"/>
  </node>
  <node id="-125" visible="true" lat="43.65071105" lon="-72.55690002">
    <tag k="addr:city" v="Woodstock"/>
    <tag k="addr:housenumber" v="301"/>
    <tag k="addr:street" v="Austin Road"/>
    <tag k="addr:state" v="VT"/>
    <tag k="ref:vcgi:esiteid" v="302541"/>
  </node>
  <node id="-126" visible="true" lat="43.65026571" lon="-72.54614527">
    <tag k="addr:city" v="Woodstock"/>
    <tag k="addr:housenumber" v="339"/>
    <tag k="addr:street" v="Gully Road"/>
    <tag k="addr:state" v="VT"/>
    <tag k="ref:vcgi:esiteid" v="302542"/>
  </node>
  <node id="-127" visible="true" lat="43.65022798" lon="-72.52687641">
    <tag k="addr:city" v="Woodstock"/>
    <tag k="addr:housenumber" v="819"/>
    <tag k="addr:street" v="Pomfret Road"/>
    <tag k="addr:state" v="VT"/>
    <tag k="ref:vcgi:esiteid" v="302543"/>
  </node>
  <node id="-128" visible="true" lat="43.64992523" lon="-72.56056213">
    <tag k="addr:city" v="Woodstock"/>
    <tag k="addr:housenumber" v="2642"/>
    <tag k="addr:street" v="Barnard Road"/>
    <tag k="addr:state" v="VT"/>
    <tag k="ref:vcgi:esiteid" v="302544"/>
  </node>
  <node id="-129" visible="true" lat="43.65292463" lon="-72.57913405">
    <tag k="addr:city" v="Woodstock"/>
    <tag k="addr:housenumber" v="5947"/>
    <tag k="addr:street" v="North Bridgewater Road"/>
    <tag k="addr:state" v="VT"/>
    <tag k="ref:vcgi:esiteid" v="302545"/>
  </node>
  <node id="-130" visible="true" lat="43.64978325" lon="-72.52660857">
    <tag k="addr:city" v="Woodstock"/>
    <tag k="addr:housenumber" v="799"/>
    <tag k="addr:street" v="Pomfret Road"/>
    <tag k="addr:state" v="VT"/>
    <tag k="ref:vcgi:esiteid" v="302546"/>
  </node>
  <node id="-131" visible="true" lat="43.64966015" lon="-72.54481818">
    <tag k="addr:city" v="Woodstock"/>
    <tag k="addr:housenumber" v="288"/>
    <tag k="addr:street" v="Gully Road"/>
    <tag k="addr:state" v="VT"/>
    <tag k="ref:vcgi:esiteid" v="302547"/>
  </node>
  <node id="-132" visible="true" lat="43.64958" lon="-72.54296446">
    <tag k="addr:city" v="Woodstock"/>
    <tag k="addr:housenumber" v="149"/>
    <tag k="addr:street" v="Leonard Lane"/>
    <tag k="addr:state" v="VT"/>
    <tag k="ref:vcgi:esiteid" v="302548"/>
  </node>
  <node id="-133" visible="true" lat="43.64939565" lon="-72.54588286">
    <tag k="addr:city" v="Woodstock"/>
    <tag k="addr:housenumber" v="289"/>
    <tag k="addr:street" v="Gully Road"/>
    <tag k="addr:state" v="VT"/>
    <tag k="ref:vcgi:esiteid" v="302549"/>
  </node>
  <node id="-134" visible="true" lat="43.64950918" lon="-72.56000484">
    <tag k="addr:city" v="Woodstock"/>
    <tag k="addr:housenumber" v="2596"/>
    <tag k="addr:street" v="Barnard Road"/>
    <tag k="addr:state" v="VT"/>
    <tag k="ref:vcgi:esiteid" v="302550"/>
  </node>
  <node id="-135" visible="true" lat="43.6492835" lon="-72.5595434">
    <tag k="addr:city" v="Woodstock"/>
    <tag k="addr:housenumber" v="2582"/>
    <tag k="addr:street" v="Barnard Road"/>
    <tag k="addr:state" v="VT"/>
    <tag k="ref:vcgi:esiteid" v="302551"/>
  </node>
  <node id="-136" visible="true" lat="43.64911506" lon="-72.56138789">
    <tag k="addr:city" v="Woodstock"/>
    <tag k="addr:housenumber" v="6859"/>
    <tag k="addr:street" v="North Bridgewater Road"/>
    <tag k="addr:state" v="VT"/>
    <tag k="ref:vcgi:esiteid" v="302552"/>
  </node>
  <node id="-137" visible="true" lat="43.64899876" lon="-72.54316784">
    <tag k="addr:city" v="Woodstock"/>
    <tag k="addr:housenumber" v="116"/>
    <tag k="addr:street" v="Leonard Lane"/>
    <tag k="addr:state" v="VT"/>
    <tag k="ref:vcgi:esiteid" v="302553"/>
  </node>
  <node id="-138" visible="true" lat="43.64874316" lon="-72.55306849">
    <tag k="addr:city" v="Woodstock"/>
    <tag k="addr:housenumber" v="457"/>
    <tag k="addr:street" v="Hall Circle"/>
    <tag k="addr:state" v="VT"/>
    <tag k="ref:vcgi:esiteid" v="302554"/>
  </node>
  <node id="-140" visible="true" lat="43.64879206" lon="-72.5599448">
    <tag k="addr:city" v="Woodstock"/>
    <tag k="addr:housenumber" v="6936"/>
    <tag k="addr:street" v="North Bridgewater Road"/>
    <tag k="addr:state" v="VT"/>
    <tag k="ref:vcgi:esiteid" v="302556"/>
  </node>
  <node id="-141" visible="true" lat="43.64858732" lon="-72.55882731">
    <tag k="addr:city" v="Woodstock"/>
    <tag k="addr:housenumber" v="2508"/>
    <tag k="addr:street" v="Barnard Road"/>
    <tag k="addr:state" v="VT"/>
    <tag k="ref:vcgi:esiteid" v="302557"/>
  </node>
  <node id="-142" visible="true" lat="43.64855472" lon="-72.55684693">
    <tag k="addr:city" v="Woodstock"/>
    <tag k="addr:housenumber" v="143"/>
    <tag k="addr:street" v="Austin Road"/>
    <tag k="addr:state" v="VT"/>
    <tag k="ref:vcgi:esiteid" v="302558"/>
  </node>
  <node id="-143" visible="true" lat="43.6482582" lon="-72.56693358">
    <tag k="addr:city" v="Woodstock"/>
    <tag k="addr:housenumber" v="199"/>
    <tag k="addr:street" v="Sincerbeaux Way"/>
    <tag k="addr:state" v="VT"/>
    <tag k="ref:vcgi:esiteid" v="302559"/>
  </node>
  <node id="-144" visible="true" lat="43.6481362" lon="-72.54307393">
    <tag k="addr:city" v="Woodstock"/>
    <tag k="addr:housenumber" v="27"/>
    <tag k="addr:street" v="Overlook Lane"/>
    <tag k="addr:state" v="VT"/>
    <tag k="ref:vcgi:esiteid" v="302560"/>
  </node>
  <node id="-145" visible="true" lat="43.64803365" lon="-72.5441405">
    <tag k="addr:city" v="Woodstock"/>
    <tag k="addr:housenumber" v="47"/>
    <tag k="addr:street" v="Leonard Lane"/>
    <tag k="addr:state" v="VT"/>
    <tag k="ref:vcgi:esiteid" v="302561"/>
  </node>
  <node id="-146" visible="true" lat="43.64805292" lon="-72.57966529">
    <tag k="addr:city" v="Woodstock"/>
    <tag k="addr:housenumber" v="5837"/>
    <tag k="addr:street" v="North Bridgewater Road"/>
    <tag k="addr:state" v="VT"/>
    <tag k="ref:vcgi:esiteid" v="302562"/>
  </node>
  <node id="-148" visible="true" lat="43.64796939" lon="-72.539464">
    <tag k="addr:city" v="Woodstock"/>
    <tag k="addr:housenumber" v="1362"/>
    <tag k="addr:street" v="Barnard Road"/>
    <tag k="addr:state" v="VT"/>
    <tag k="ref:vcgi:esiteid" v="302564"/>
  </node>
  <node id="-149" visible="true" lat="43.64771426" lon="-72.54354106">
    <tag k="addr:city" v="Woodstock"/>
    <tag k="addr:housenumber" v="54"/>
    <tag k="addr:street" v="Overlook Lane"/>
    <tag k="addr:state" v="VT"/>
    <tag k="ref:vcgi:esiteid" v="302565"/>
  </node>
  <node id="-150" visible="true" lat="43.64779227" lon="-72.52658531">
    <tag k="addr:city" v="Woodstock"/>
    <tag k="addr:housenumber" v="651"/>
    <tag k="addr:street" v="Pomfret Road"/>
    <tag k="addr:state" v="VT"/>
    <tag k="ref:vcgi:esiteid" v="302566"/>
  </node>
  <node id="-151" visible="true" lat="43.64726791" lon="-72.54159556">
    <tag k="addr:city" v="Woodstock"/>
    <tag k="addr:housenumber" v="1498"/>
    <tag k="addr:street" v="Barnard Road"/>
    <tag k="addr:state" v="VT"/>
    <tag k="ref:vcgi:esiteid" v="302567"/>
  </node>
  <node id="-153" visible="true" lat="43.64717488" lon="-72.54527632">
    <tag k="addr:city" v="Woodstock"/>
    <tag k="addr:housenumber" v="73"/>
    <tag k="addr:street" v="Gully Road"/>
    <tag k="addr:state" v="VT"/>
    <tag k="ref:vcgi:esiteid" v="302569"/>
  </node>
  <node id="-154" visible="true" lat="43.64720916" lon="-72.53749084">
    <tag k="addr:city" v="Woodstock"/>
    <tag k="addr:housenumber" v="1292"/>
    <tag k="addr:street" v="Barnard Road"/>
    <tag k="addr:state" v="VT"/>
    <tag k="ref:vcgi:esiteid" v="302570"/>
  </node>
  <node id="-155" visible="true" lat="43.648144" lon="-72.57513602">
    <tag k="addr:city" v="Woodstock"/>
    <tag k="addr:housenumber" v="6137"/>
    <tag k="addr:street" v="North Bridgewater Road"/>
    <tag k="addr:state" v="VT"/>
    <tag k="ref:vcgi:esiteid" v="302571"/>
  </node>
  <node id="-156" visible="true" lat="43.64673496" lon="-72.5422039">
    <tag k="addr:city" v="Woodstock"/>
    <tag k="addr:housenumber" v="1522"/>
    <tag k="addr:street" v="Barnard Road"/>
    <tag k="addr:state" v="VT"/>
    <tag k="ref:vcgi:esiteid" v="302572"/>
  </node>
  <node id="-157" visible="true" lat="43.6467346" lon="-72.55161476">
    <tag k="addr:city" v="Woodstock"/>
    <tag k="addr:housenumber" v="2304"/>
    <tag k="addr:street" v="Barnard Road"/>
    <tag k="addr:state" v="VT"/>
    <tag k="ref:vcgi:esiteid" v="302573"/>
  </node>
  <node id="-158" visible="true" lat="43.64637367" lon="-72.52167508">
    <tag k="addr:city" v="Woodstock"/>
    <tag k="addr:housenumber" v="460"/>
    <tag k="addr:street" v="Pomfret Road"/>
    <tag k="addr:state" v="VT"/>
    <tag k="ref:vcgi:esiteid" v="302574"/>
  </node>
  <node id="-159" visible="true" lat="43.64615383" lon="-72.54353028">
    <tag k="addr:city" v="Woodstock"/>
    <tag k="addr:housenumber" v="20"/>
    <tag k="addr:street" v="Gully Road"/>
    <tag k="addr:state" v="VT"/>
    <tag k="ref:vcgi:esiteid" v="302575"/>
  </node>
  <node id="-160" visible="true" lat="43.64597846" lon="-72.53748086">
    <tag k="addr:city" v="Woodstock"/>
    <tag k="addr:housenumber" v="81"/>
    <tag k="addr:street" v="Roberts Road"/>
    <tag k="addr:state" v="VT"/>
    <tag k="ref:vcgi:esiteid" v="302576"/>
  </node>
  <node id="-161" visible="true" lat="43.64573789" lon="-72.53977567">
    <tag k="addr:city" v="Woodstock"/>
    <tag k="addr:housenumber" v="60"/>
    <tag k="addr:street" v="English Mills Way"/>
    <tag k="addr:state" v="VT"/>
    <tag k="ref:vcgi:esiteid" v="302577"/>
  </node>
  <node id="-162" visible="true" lat="43.64579762" lon="-72.53360767">
    <tag k="addr:city" v="Woodstock"/>
    <tag k="addr:housenumber" v="1054"/>
    <tag k="addr:street" v="Barnard Road"/>
    <tag k="addr:state" v="VT"/>
    <tag k="ref:vcgi:esiteid" v="302578"/>
  </node>
  <node id="-163" visible="true" lat="43.64550334" lon="-72.54112254">
    <tag k="addr:city" v="Woodstock"/>
    <tag k="addr:housenumber" v="136"/>
    <tag k="addr:street" v="English Mills Way"/>
    <tag k="addr:state" v="VT"/>
    <tag k="ref:vcgi:esiteid" v="302579"/>
  </node>
  <node id="-164" visible="true" lat="43.64529687" lon="-72.52619278">
    <tag k="addr:city" v="Woodstock"/>
    <tag k="addr:housenumber" v="493"/>
    <tag k="addr:street" v="Pomfret Road"/>
    <tag k="addr:state" v="VT"/>
    <tag k="ref:vcgi:esiteid" v="302580"/>
  </node>
  <node id="-165" visible="true" lat="43.64510438" lon="-72.54532515">
    <tag k="addr:city" v="Woodstock"/>
    <tag k="addr:housenumber" v="1682"/>
    <tag k="addr:street" v="Barnard Road"/>
    <tag k="addr:state" v="VT"/>
    <tag k="ref:vcgi:esiteid" v="302581"/>
  </node>
  <node id="-166" visible="true" lat="43.64507814" lon="-72.57918913">
    <tag k="addr:city" v="Woodstock"/>
    <tag k="addr:housenumber" v="207"/>
    <tag k="addr:street" v="Kaufman Road"/>
    <tag k="addr:state" v="VT"/>
    <tag k="ref:vcgi:esiteid" v="302582"/>
  </node>
  <node id="-167" visible="true" lat="43.64478307" lon="-72.50851836">
    <tag k="addr:city" v="Woodstock"/>
    <tag k="addr:housenumber" v="4390"/>
    <tag k="addr:street" v="Cloudland Road"/>
    <tag k="addr:state" v="VT"/>
    <tag k="ref:vcgi:esiteid" v="302583"/>
  </node>
  <node id="-168" visible="true" lat="43.64464847" lon="-72.53768728">
    <tag k="addr:city" v="Woodstock"/>
    <tag k="addr:housenumber" v="154"/>
    <tag k="addr:street" v="Roberts Road"/>
    <tag k="addr:state" v="VT"/>
    <tag k="ref:vcgi:esiteid" v="302584"/>
  </node>
  <node id="-169" visible="true" lat="43.64453292" lon="-72.53957743">
    <tag k="addr:city" v="Woodstock"/>
    <tag k="addr:housenumber" v="119"/>
    <tag k="addr:street" v="English Mills Way"/>
    <tag k="addr:state" v="VT"/>
    <tag k="ref:vcgi:esiteid" v="302585"/>
  </node>
  <node id="-170" visible="true" lat="43.64463226" lon="-72.53646564">
    <tag k="addr:city" v="Woodstock"/>
    <tag k="addr:housenumber" v="195"/>
    <tag k="addr:street" v="Roberts Road"/>
    <tag k="addr:state" v="VT"/>
    <tag k="ref:vcgi:esiteid" v="302586"/>
  </node>
  <node id="-171" visible="true" lat="43.64459125" lon="-72.53217691">
    <tag k="addr:city" v="Woodstock"/>
    <tag k="addr:housenumber" v="898"/>
    <tag k="addr:street" v="Barnard Road"/>
    <tag k="addr:state" v="VT"/>
    <tag k="ref:vcgi:esiteid" v="302587"/>
  </node>
  <node id="-172" visible="true" lat="43.64429178" lon="-72.55808491">
    <tag k="addr:city" v="Woodstock"/>
    <tag k="addr:housenumber" v="67"/>
    <tag k="addr:street" v="Grassy Lane"/>
    <tag k="addr:state" v="VT"/>
    <tag k="ref:vcgi:esiteid" v="302588"/>
  </node>
  <node id="-173" visible="true" lat="43.64421351" lon="-72.54090555">
    <tag k="addr:city" v="Woodstock"/>
    <tag k="addr:housenumber" v="285"/>
    <tag k="addr:street" v="English Mills Way"/>
    <tag k="addr:state" v="VT"/>
    <tag k="ref:vcgi:esiteid" v="302589"/>
  </node>
  <node id="-174" visible="true" lat="43.64386325" lon="-72.54940766">
    <tag k="addr:city" v="Woodstock"/>
    <tag k="addr:housenumber" v="1911"/>
    <tag k="addr:street" v="Barnard Road"/>
    <tag k="addr:state" v="VT"/>
    <tag k="ref:vcgi:esiteid" v="302590"/>
  </node>
  <node id="-175" visible="true" lat="43.64368178" lon="-72.53590466">
    <tag k="addr:city" v="Woodstock"/>
    <tag k="addr:housenumber" v="309"/>
    <tag k="addr:street" v="Tucker Road"/>
    <tag k="addr:state" v="VT"/>
    <tag k="ref:vcgi:esiteid" v="302591"/>
  </node>
  <node id="-176" visible="true" lat="43.64306874" lon="-72.53550468">
    <tag k="addr:city" v="Woodstock"/>
    <tag k="addr:housenumber" v="320"/>
    <tag k="addr:street" v="Tucker Road"/>
    <tag k="addr:state" v="VT"/>
    <tag k="ref:vcgi:esiteid" v="302592"/>
  </node>
  <node id="-177" visible="true" lat="43.64332142" lon="-72.53721534">
    <tag k="addr:city" v="Woodstock"/>
    <tag k="addr:housenumber" v="238"/>
    <tag k="addr:street" v="Roberts Road"/>
    <tag k="addr:state" v="VT"/>
    <tag k="ref:vcgi:esiteid" v="302593"/>
  </node>
  <node id="-178" visible="true" lat="43.64347457" lon="-72.55318232">
    <tag k="addr:city" v="Woodstock"/>
    <tag k="addr:housenumber" v="1868"/>
    <tag k="addr:street" v="Prosper Road"/>
    <tag k="addr:state" v="VT"/>
    <tag k="ref:vcgi:esiteid" v="302594"/>
  </node>
  <node id="-179" visible="true" lat="43.64336659" lon="-72.52974603">
    <tag k="addr:city" v="Woodstock"/>
    <tag k="addr:housenumber" v="35"/>
    <tag k="addr:street" v="Stimets Road"/>
    <tag k="addr:state" v="VT"/>
    <tag k="ref:vcgi:esiteid" v="302595"/>
  </node>
  <node id="-180" visible="true" lat="43.64305241" lon="-72.52886266">
    <tag k="addr:city" v="Woodstock"/>
    <tag k="addr:housenumber" v="89"/>
    <tag k="addr:street" v="Stimets Road"/>
    <tag k="addr:state" v="VT"/>
    <tag k="ref:vcgi:esiteid" v="302596"/>
  </node>
  <node id="-181" visible="true" lat="43.64301868" lon="-72.50577123">
    <tag k="addr:city" v="Woodstock"/>
    <tag k="addr:housenumber" v="4555"/>
    <tag k="addr:street" v="Cloudland Road"/>
    <tag k="addr:state" v="VT"/>
    <tag k="ref:vcgi:esiteid" v="302597"/>
  </node>
  <node id="-182" visible="true" lat="43.64287622" lon="-72.56193781">
    <tag k="addr:city" v="Woodstock"/>
    <tag k="addr:housenumber" v="299"/>
    <tag k="addr:street" v="Grassy Lane"/>
    <tag k="addr:state" v="VT"/>
    <tag k="ref:vcgi:esiteid" v="302598"/>
  </node>
  <node id="-183" visible="true" lat="43.64286422" lon="-72.55716705">
    <tag k="addr:city" v="Woodstock"/>
    <tag k="addr:housenumber" v="1957"/>
    <tag k="addr:street" v="Prosper Road"/>
    <tag k="addr:state" v="VT"/>
    <tag k="ref:vcgi:esiteid" v="302599"/>
  </node>
  <node id="-184" visible="true" lat="43.6429684" lon="-72.5264608">
    <tag k="addr:city" v="Woodstock"/>
    <tag k="addr:housenumber" v="219"/>
    <tag k="addr:street" v="Stimets Road"/>
    <tag k="addr:state" v="VT"/>
    <tag k="ref:vcgi:esiteid" v="302600"/>
  </node>
  <node id="-185" visible="true" lat="43.64271304" lon="-72.5651015">
    <tag k="addr:city" v="Woodstock"/>
    <tag k="addr:housenumber" v="480"/>
    <tag k="addr:street" v="Grassy Lane"/>
    <tag k="addr:state" v="VT"/>
    <tag k="ref:vcgi:esiteid" v="302601"/>
  </node>
  <node id="-186" visible="true" lat="43.64219464" lon="-72.5542152">
    <tag k="addr:city" v="Woodstock"/>
    <tag k="addr:housenumber" v="1910"/>
    <tag k="addr:street" v="Prosper Road"/>
    <tag k="addr:state" v="VT"/>
    <tag k="ref:vcgi:esiteid" v="302602"/>
  </node>
  <node id="-187" visible="true" lat="43.64205341" lon="-72.52979749">
    <tag k="addr:city" v="Woodstock"/>
    <tag k="addr:housenumber" v="769"/>
    <tag k="addr:street" v="Barnard Road"/>
    <tag k="addr:state" v="VT"/>
    <tag k="ref:vcgi:esiteid" v="302604"/>
  </node>
  <node id="-188" visible="true" lat="43.64043906" lon="-72.50722255">
    <tag k="addr:city" v="Woodstock"/>
    <tag k="addr:housenumber" v="4662"/>
    <tag k="addr:street" v="Cloudland Road"/>
    <tag k="addr:state" v="VT"/>
    <tag k="ref:vcgi:esiteid" v="302606"/>
  </node>
  <node id="-189" visible="true" lat="43.64174253" lon="-72.50152377">
    <tag k="addr:city" v="Woodstock"/>
    <tag k="addr:housenumber" v="959"/>
    <tag k="addr:street" v="Old River Road"/>
    <tag k="addr:state" v="VT"/>
    <tag k="ref:vcgi:esiteid" v="302607"/>
  </node>
  <node id="-190" visible="true" lat="43.64156681" lon="-72.50497792">
    <tag k="addr:city" v="Woodstock"/>
    <tag k="addr:housenumber" v="4651"/>
    <tag k="addr:street" v="Cloudland Road"/>
    <tag k="addr:state" v="VT"/>
    <tag k="ref:vcgi:esiteid" v="302608"/>
  </node>
  <node id="-191" visible="true" lat="43.64140333" lon="-72.56785595">
    <tag k="addr:city" v="Woodstock"/>
    <tag k="addr:housenumber" v="593"/>
    <tag k="addr:street" v="Grassy Lane"/>
    <tag k="addr:state" v="VT"/>
    <tag k="ref:vcgi:esiteid" v="302609"/>
  </node>
  <node id="-192" visible="true" lat="43.64151035" lon="-72.52488739">
    <tag k="addr:city" v="Woodstock"/>
    <tag k="addr:housenumber" v="216"/>
    <tag k="addr:street" v="Pomfret Road"/>
    <tag k="addr:state" v="VT"/>
    <tag k="ref:vcgi:esiteid" v="302610"/>
  </node>
  <node id="-193" visible="true" lat="43.64137166" lon="-72.55333078">
    <tag k="addr:city" v="Woodstock"/>
    <tag k="addr:housenumber" v="1852"/>
    <tag k="addr:street" v="Prosper Road"/>
    <tag k="addr:state" v="VT"/>
    <tag k="ref:vcgi:esiteid" v="302611"/>
  </node>
  <node id="-195" visible="true" lat="43.64007637" lon="-72.49202299">
    <tag k="addr:city" v="Woodstock"/>
    <tag k="addr:housenumber" v="1509"/>
    <tag k="addr:street" v="Old River Road"/>
    <tag k="addr:state" v="VT"/>
    <tag k="ref:vcgi:esiteid" v="302613"/>
  </node>
  <node id="-196" visible="true" lat="43.63994047" lon="-72.48936235">
    <tag k="addr:city" v="Woodstock"/>
    <tag k="addr:housenumber" v="1634"/>
    <tag k="addr:street" v="Old River Road"/>
    <tag k="addr:state" v="VT"/>
    <tag k="ref:vcgi:esiteid" v="302614"/>
  </node>
  <node id="-197" visible="true" lat="43.63982981" lon="-72.503015">
    <tag k="addr:city" v="Woodstock"/>
    <tag k="addr:housenumber" v="955"/>
    <tag k="addr:street" v="Old River Road"/>
    <tag k="addr:state" v="VT"/>
    <tag k="ref:vcgi:esiteid" v="302615"/>
  </node>
  <node id="-201" visible="true" lat="43.6391928" lon="-72.48828289">
    <tag k="addr:city" v="Woodstock"/>
    <tag k="addr:housenumber" v="1455"/>
    <tag k="addr:street" v="East Woodstock Road"/>
    <tag k="addr:state" v="VT"/>
    <tag k="ref:vcgi:esiteid" v="302620"/>
  </node>
  <node id="-202" visible="true" lat="43.63912753" lon="-72.48614682">
    <tag k="addr:city" v="Woodstock"/>
    <tag k="addr:housenumber" v="1459"/>
    <tag k="addr:street" v="East Woodstock Road"/>
    <tag k="addr:state" v="VT"/>
    <tag k="ref:vcgi:esiteid" v="302622"/>
  </node>
  <node id="-203" visible="true" lat="43.63909191" lon="-72.50695655">
    <tag k="addr:city" v="Woodstock"/>
    <tag k="addr:housenumber" v="4808"/>
    <tag k="addr:street" v="Cloudland Road"/>
    <tag k="addr:state" v="VT"/>
    <tag k="ref:vcgi:esiteid" v="302623"/>
  </node>
  <node id="-204" visible="true" lat="43.63894972" lon="-72.57121627">
    <tag k="addr:city" v="Woodstock"/>
    <tag k="addr:housenumber" v="878"/>
    <tag k="addr:street" v="Grassy Lane"/>
    <tag k="addr:state" v="VT"/>
    <tag k="ref:vcgi:esiteid" v="302624"/>
  </node>
  <node id="-207" visible="true" lat="43.63881486" lon="-72.57036584">
    <tag k="addr:city" v="Woodstock"/>
    <tag k="addr:housenumber" v="857"/>
    <tag k="addr:street" v="Grassy Lane"/>
    <tag k="addr:state" v="VT"/>
    <tag k="ref:vcgi:esiteid" v="302627"/>
  </node>
  <node id="-210" visible="true" lat="43.63842754" lon="-72.47375189">
    <tag k="addr:city" v="Woodstock"/>
    <tag k="addr:housenumber" v="2115"/>
    <tag k="addr:street" v="East Woodstock Road"/>
    <tag k="addr:state" v="VT"/>
    <tag k="ref:vcgi:esiteid" v="302631"/>
  </node>
  <node id="-211" visible="true" lat="43.63812144" lon="-72.47318026">
    <tag k="addr:city" v="Woodstock"/>
    <tag k="addr:housenumber" v="2127"/>
    <tag k="addr:street" v="East Woodstock Road"/>
    <tag k="addr:state" v="VT"/>
    <tag k="ref:vcgi:esiteid" v="302632"/>
  </node>
  <node id="-214" visible="true" lat="43.63795089" lon="-72.47559356">
    <tag k="addr:city" v="Woodstock"/>
    <tag k="addr:housenumber" v="2120"/>
    <tag k="addr:street" v="East Woodstock Road"/>
    <tag k="addr:state" v="VT"/>
    <tag k="ref:vcgi:esiteid" v="302635"/>
  </node>
  <node id="-215" visible="true" lat="43.63790688" lon="-72.47744936">
    <tag k="addr:city" v="Woodstock"/>
    <tag k="addr:housenumber" v="78"/>
    <tag k="addr:street" v="Powder Lane"/>
    <tag k="addr:state" v="VT"/>
    <tag k="ref:vcgi:esiteid" v="302636"/>
  </node>
  <node id="-216" visible="true" lat="43.63796342" lon="-72.50610724">
    <tag k="addr:city" v="Woodstock"/>
    <tag k="addr:housenumber" v="737"/>
    <tag k="addr:street" v="Old River Road"/>
    <tag k="addr:state" v="VT"/>
    <tag k="ref:vcgi:esiteid" v="302637"/>
  </node>
  <node id="-218" visible="true" lat="43.63767676" lon="-72.47363957">
    <tag k="addr:city" v="Woodstock"/>
    <tag k="addr:housenumber" v="2154"/>
    <tag k="addr:street" v="East Woodstock Road"/>
    <tag k="addr:state" v="VT"/>
    <tag k="ref:vcgi:esiteid" v="302639"/>
  </node>
  <node id="-219" visible="true" lat="43.6377951" lon="-72.4726395">
    <tag k="addr:city" v="Woodstock"/>
    <tag k="addr:housenumber" v="2199"/>
    <tag k="addr:street" v="East Woodstock Road"/>
    <tag k="addr:state" v="VT"/>
    <tag k="ref:vcgi:esiteid" v="302640"/>
  </node>
  <node id="-220" visible="true" lat="43.63755966" lon="-72.51008764">
    <tag k="addr:city" v="Woodstock"/>
    <tag k="addr:housenumber" v="497"/>
    <tag k="addr:street" v="Old River Road"/>
    <tag k="addr:state" v="VT"/>
    <tag k="ref:vcgi:esiteid" v="302641"/>
  </node>
  <node id="-221" visible="true" lat="43.63702384" lon="-72.47182611">
    <tag k="addr:city" v="Woodstock"/>
    <tag k="addr:housenumber" v="2253"/>
    <tag k="addr:street" v="East Woodstock Road"/>
    <tag k="addr:state" v="VT"/>
    <tag k="ref:vcgi:esiteid" v="302642"/>
  </node>
  <node id="-222" visible="true" lat="43.63715998" lon="-72.47212624">
    <tag k="addr:city" v="Woodstock"/>
    <tag k="addr:housenumber" v="2247"/>
    <tag k="addr:street" v="East Woodstock Road"/>
    <tag k="addr:state" v="VT"/>
    <tag k="ref:vcgi:esiteid" v="302643"/>
  </node>
  <node id="-223" visible="true" lat="43.63688689" lon="-72.50851553">
    <tag k="addr:city" v="Woodstock"/>
    <tag k="addr:housenumber" v="587"/>
    <tag k="addr:street" v="Old River Road"/>
    <tag k="addr:state" v="VT"/>
    <tag k="ref:vcgi:esiteid" v="302644"/>
  </node>
  <node id="-226" visible="true" lat="43.63668613" lon="-72.47249106">
    <tag k="addr:city" v="Woodstock"/>
    <tag k="addr:housenumber" v="2256"/>
    <tag k="addr:street" v="East Woodstock Road"/>
    <tag k="addr:state" v="VT"/>
    <tag k="ref:vcgi:esiteid" v="302647"/>
  </node>
  <node id="-254" visible="true" lat="43.63412094" lon="-72.47112274">
    <tag k="addr:city" v="Woodstock"/>
    <tag k="addr:housenumber" v="2480"/>
    <tag k="addr:street" v="East Woodstock Road"/>
    <tag k="addr:state" v="VT"/>
    <tag k="ref:vcgi:esiteid" v="302676"/>
  </node>
  <node id="-261" visible="true" lat="43.63378524" lon="-72.47090911">
    <tag k="addr:city" v="Woodstock"/>
    <tag k="addr:housenumber" v="2490"/>
    <tag k="addr:street" v="East Woodstock Road"/>
    <tag k="addr:state" v="VT"/>
    <tag k="ref:vcgi:esiteid" v="302685"/>
  </node>
  <node id="-262" visible="true" lat="43.63358306" lon="-72.47089386">
    <tag k="addr:city" v="Woodstock"/>
    <tag k="addr:housenumber" v="2502"/>
    <tag k="addr:street" v="East Woodstock Road"/>
    <tag k="addr:state" v="VT"/>
    <tag k="ref:vcgi:esiteid" v="302686"/>
  </node>
  <node id="-269" visible="true" lat="43.63324778" lon="-72.47074147">
    <tag k="addr:city" v="Woodstock"/>
    <tag k="addr:housenumber" v="2520"/>
    <tag k="addr:street" v="East Woodstock Road"/>
    <tag k="addr:state" v="VT"/>
    <tag k="ref:vcgi:esiteid" v="302693"/>
  </node>
  <node id="-273" visible="true" lat="43.6323702" lon="-72.4719163">
    <tag k="addr:city" v="Woodstock"/>
    <tag k="addr:housenumber" v="213"/>
    <tag k="addr:street" v="Butternut Lane"/>
    <tag k="addr:state" v="VT"/>
    <tag k="ref:vcgi:esiteid" v="302697"/>
  </node>
  <node id="-274" visible="true" lat="43.63229751" lon="-72.47012329">
    <tag k="addr:city" v="Woodstock"/>
    <tag k="addr:housenumber" v="2588"/>
    <tag k="addr:street" v="East Woodstock Road"/>
    <tag k="addr:state" v="VT"/>
    <tag k="ref:vcgi:esiteid" v="302698"/>
  </node>
  <node id="-275" visible="true" lat="43.63223283" lon="-72.59308321">
    <tag k="addr:city" v="Woodstock"/>
    <tag k="addr:housenumber" v="791"/>
    <tag k="addr:street" v="Gabert Road"/>
    <tag k="addr:state" v="VT"/>
    <tag k="ref:vcgi:esiteid" v="302699"/>
  </node>
  <node id="-276" visible="true" lat="43.63221612" lon="-72.47115372">
    <tag k="addr:city" v="Woodstock"/>
    <tag k="addr:housenumber" v="164"/>
    <tag k="addr:street" v="Butternut Lane"/>
    <tag k="addr:state" v="VT"/>
    <tag k="ref:vcgi:esiteid" v="302700"/>
  </node>
  <node id="-278" visible="true" lat="43.63199542" lon="-72.47000859">
    <tag k="addr:city" v="Woodstock"/>
    <tag k="addr:housenumber" v="2626"/>
    <tag k="addr:street" v="East Woodstock Road"/>
    <tag k="addr:state" v="VT"/>
    <tag k="ref:vcgi:esiteid" v="302702"/>
  </node>
  <node id="-279" visible="true" lat="43.63195792" lon="-72.47154899">
    <tag k="addr:city" v="Woodstock"/>
    <tag k="addr:housenumber" v="14"/>
    <tag k="addr:street" v="Whitcomb Lane"/>
    <tag k="addr:state" v="VT"/>
    <tag k="ref:vcgi:esiteid" v="302703"/>
  </node>
  <node id="-280" visible="true" lat="43.63199535" lon="-72.47084634">
    <tag k="addr:city" v="Woodstock"/>
    <tag k="addr:housenumber" v="144"/>
    <tag k="addr:street" v="Butternut Lane"/>
    <tag k="addr:state" v="VT"/>
    <tag k="ref:vcgi:esiteid" v="302704"/>
  </node>
  <node id="-282" visible="true" lat="43.6317076" lon="-72.47126034">
    <tag k="addr:city" v="Woodstock"/>
    <tag k="addr:housenumber" v="147"/>
    <tag k="addr:street" v="Butternut Lane"/>
    <tag k="addr:state" v="VT"/>
    <tag k="ref:vcgi:esiteid" v="302706"/>
  </node>
  <node id="-285" visible="true" lat="43.63137271" lon="-72.4709436">
    <tag k="addr:city" v="Woodstock"/>
    <tag k="addr:housenumber" v="129"/>
    <tag k="addr:street" v="Butternut Lane"/>
    <tag k="addr:state" v="VT"/>
    <tag k="ref:vcgi:esiteid" v="302709"/>
  </node>
  <node id="-287" visible="true" lat="43.63144873" lon="-72.47174382">
    <tag k="addr:city" v="Woodstock"/>
    <tag k="addr:housenumber" v="41"/>
    <tag k="addr:street" v="Whitcomb Lane"/>
    <tag k="addr:state" v="VT"/>
    <tag k="ref:vcgi:esiteid" v="302711"/>
  </node>
  <node id="-289" visible="true" lat="43.63095116" lon="-72.46845023">
    <tag k="addr:city" v="Woodstock"/>
    <tag k="addr:housenumber" v="2693"/>
    <tag k="addr:street" v="East Woodstock Road"/>
    <tag k="addr:state" v="VT"/>
    <tag k="ref:vcgi:esiteid" v="302716"/>
  </node>
  <node id="-290" visible="true" lat="43.63133135" lon="-72.47003542">
    <tag k="addr:city" v="Woodstock"/>
    <tag k="addr:housenumber" v="82"/>
    <tag k="addr:street" v="Butternut Lane"/>
    <tag k="addr:state" v="VT"/>
    <tag k="ref:vcgi:esiteid" v="302717"/>
  </node>
  <node id="-294" visible="true" lat="43.63074349" lon="-72.46967983">
    <tag k="addr:city" v="Woodstock"/>
    <tag k="addr:housenumber" v="36"/>
    <tag k="addr:street" v="Happy Valley Road"/>
    <tag k="addr:state" v="VT"/>
    <tag k="ref:vcgi:esiteid" v="302725"/>
  </node>
  <node id="-295" visible="true" lat="43.63060527" lon="-72.46931074">
    <tag k="addr:city" v="Woodstock"/>
    <tag k="addr:housenumber" v="2706"/>
    <tag k="addr:street" v="East Woodstock Road"/>
    <tag k="addr:state" v="VT"/>
    <tag k="ref:vcgi:esiteid" v="302728"/>
  </node>
  <node id="-297" visible="true" lat="43.63044162" lon="-72.59054505">
    <tag k="addr:city" v="Woodstock"/>
    <tag k="addr:housenumber" v="650"/>
    <tag k="addr:street" v="Gabert Road"/>
    <tag k="addr:state" v="VT"/>
    <tag k="ref:vcgi:esiteid" v="302730"/>
  </node>
  <node id="-299" visible="true" lat="43.63043784" lon="-72.46887066">
    <tag k="addr:city" v="Woodstock"/>
    <tag k="addr:housenumber" v="2748"/>
    <tag k="addr:street" v="East Woodstock Road"/>
    <tag k="addr:state" v="VT"/>
    <tag k="ref:vcgi:esiteid" v="302732"/>
  </node>
  <node id="-300" visible="true" lat="43.63041515" lon="-72.46988191">
    <tag k="addr:city" v="Woodstock"/>
    <tag k="addr:housenumber" v="56"/>
    <tag k="addr:street" v="Happy Valley Road"/>
    <tag k="addr:state" v="VT"/>
    <tag k="ref:vcgi:esiteid" v="302733"/>
  </node>
  <node id="-304" visible="true" lat="43.63019406" lon="-72.47002215">
    <tag k="addr:city" v="Woodstock"/>
    <tag k="addr:housenumber" v="72"/>
    <tag k="addr:street" v="Happy Valley Road"/>
    <tag k="addr:state" v="VT"/>
    <tag k="ref:vcgi:esiteid" v="302737"/>
  </node>
  <node id="-306" visible="true" lat="43.63017334" lon="-72.4684935">
    <tag k="addr:city" v="Woodstock"/>
    <tag k="addr:housenumber" v="2776"/>
    <tag k="addr:street" v="East Woodstock Road"/>
    <tag k="addr:state" v="VT"/>
    <tag k="ref:vcgi:esiteid" v="302739"/>
  </node>
  <node id="-307" visible="true" lat="43.62997819" lon="-72.46967161">
    <tag k="addr:city" v="Woodstock"/>
    <tag k="addr:housenumber" v="81"/>
    <tag k="addr:street" v="Happy Valley Road"/>
    <tag k="addr:state" v="VT"/>
    <tag k="ref:vcgi:esiteid" v="302740"/>
  </node>
  <node id="-308" visible="true" lat="43.63002835" lon="-72.47019364">
    <tag k="addr:city" v="Woodstock"/>
    <tag k="addr:housenumber" v="88"/>
    <tag k="addr:street" v="Happy Valley Road"/>
    <tag k="addr:state" v="VT"/>
    <tag k="ref:vcgi:esiteid" v="302741"/>
  </node>
  <node id="-309" visible="true" lat="43.629555" lon="-72.47204687">
    <tag k="addr:city" v="Woodstock"/>
    <tag k="addr:housenumber" v="244"/>
    <tag k="addr:street" v="Happy Valley Road"/>
    <tag k="addr:state" v="VT"/>
    <tag k="ref:vcgi:esiteid" v="302742"/>
  </node>
  <node id="-310" visible="true" lat="43.62978193" lon="-72.47029824">
    <tag k="addr:city" v="Woodstock"/>
    <tag k="addr:housenumber" v="104"/>
    <tag k="addr:street" v="Happy Valley Road"/>
    <tag k="addr:state" v="VT"/>
    <tag k="ref:vcgi:esiteid" v="302743"/>
  </node>
  <node id="-311" visible="true" lat="43.62966045" lon="-72.46994572">
    <tag k="addr:city" v="Woodstock"/>
    <tag k="addr:housenumber" v="105"/>
    <tag k="addr:street" v="Happy Valley Road"/>
    <tag k="addr:state" v="VT"/>
    <tag k="ref:vcgi:esiteid" v="302744"/>
  </node>
  <node id="-317" visible="true" lat="43.62945175" lon="-72.47051239">
    <tag k="addr:city" v="Woodstock"/>
    <tag k="addr:housenumber" v="130"/>
    <tag k="addr:street" v="Happy Valley Road"/>
    <tag k="addr:state" v="VT"/>
    <tag k="ref:vcgi:esiteid" v="302750"/>
  </node>
  <node id="-318" visible="true" lat="43.62942312" lon="-72.46980697">
    <tag k="addr:city" v="Woodstock"/>
    <tag k="addr:housenumber" v="121"/>
    <tag k="addr:street" v="Happy Valley Road"/>
    <tag k="addr:state" v="VT"/>
    <tag k="ref:vcgi:esiteid" v="302751"/>
  </node>
  <node id="-322" visible="true" lat="43.62914931" lon="-72.58989417">
    <tag k="addr:city" v="Woodstock"/>
    <tag k="addr:housenumber" v="530"/>
    <tag k="addr:street" v="Gabert Road"/>
    <tag k="addr:state" v="VT"/>
    <tag k="ref:vcgi:esiteid" v="302758"/>
  </node>
  <node id="-327" visible="true" lat="43.62906751" lon="-72.47040658">
    <tag k="addr:city" v="Woodstock"/>
    <tag k="addr:housenumber" v="151"/>
    <tag k="addr:street" v="Happy Valley Road"/>
    <tag k="addr:state" v="VT"/>
    <tag k="ref:vcgi:esiteid" v="302763"/>
  </node>
  <node id="-332" visible="true" lat="43.6287609" lon="-72.47124573">
    <tag k="addr:city" v="Woodstock"/>
    <tag k="addr:housenumber" v="202"/>
    <tag k="addr:street" v="Happy Valley Road"/>
    <tag k="addr:state" v="VT"/>
    <tag k="ref:vcgi:esiteid" v="302769"/>
  </node>
  <node id="-338" visible="true" lat="43.6286346" lon="-72.47171635">
    <tag k="addr:city" v="Woodstock"/>
    <tag k="addr:housenumber" v="220"/>
    <tag k="addr:street" v="Happy Valley Road"/>
    <tag k="addr:state" v="VT"/>
    <tag k="ref:vcgi:esiteid" v="302775"/>
  </node>
  <node id="-340" visible="true" lat="43.62847043" lon="-72.47113197">
    <tag k="addr:city" v="Woodstock"/>
    <tag k="addr:housenumber" v="205"/>
    <tag k="addr:street" v="Happy Valley Road"/>
    <tag k="addr:state" v="VT"/>
    <tag k="ref:vcgi:esiteid" v="302777"/>
  </node>
  <node id="-345" visible="true" lat="43.62825978" lon="-72.4723762">
    <tag k="addr:city" v="Woodstock"/>
    <tag k="addr:housenumber" v="272"/>
    <tag k="addr:street" v="Happy Valley Road"/>
    <tag k="addr:state" v="VT"/>
    <tag k="ref:vcgi:esiteid" v="302783"/>
  </node>
  <node id="-359" visible="true" lat="43.62745535" lon="-72.58637381">
    <tag k="addr:city" v="Woodstock"/>
    <tag k="addr:housenumber" v="348"/>
    <tag k="addr:street" v="Gabert Road"/>
    <tag k="addr:state" v="VT"/>
    <tag k="ref:vcgi:esiteid" v="302799"/>
  </node>
  <node id="-366" visible="true" lat="43.62726315" lon="-72.47319579">
    <tag k="addr:city" v="Woodstock"/>
    <tag k="addr:housenumber" v="68"/>
    <tag k="addr:street" v="Sugar Hill Road"/>
    <tag k="addr:state" v="VT"/>
    <tag k="ref:vcgi:esiteid" v="302810"/>
  </node>
  <node id="-375" visible="true" lat="43.62701024" lon="-72.5124917">
    <tag k="addr:city" v="Woodstock"/>
    <tag k="addr:housenumber" v="38"/>
    <tag k="addr:street" v="Pleasant Street"/>
    <tag k="addr:state" v="VT"/>
    <tag k="ref:vcgi:esiteid" v="302819"/>
  </node>
  <node id="-376" visible="true" lat="43.62702356" lon="-72.50903722">
    <tag k="addr:city" v="Woodstock"/>
    <tag k="addr:housenumber" v="21714"/>
    <tag k="addr:street" v="Maxham Meadow Way"/>
    <tag k="addr:state" v="VT"/>
    <tag k="ref:vcgi:esiteid" v="302821"/>
  </node>
  <node id="-377" visible="true" lat="43.62728921" lon="-72.51202763">
    <tag k="addr:city" v="Woodstock"/>
    <tag k="addr:housenumber" v="42"/>
    <tag k="addr:street" v="Pleasant Street"/>
    <tag k="addr:state" v="VT"/>
    <tag k="ref:vcgi:esiteid" v="302823"/>
  </node>
  <node id="-378" visible="true" lat="43.62700271" lon="-72.51280975">
    <tag k="addr:city" v="Woodstock"/>
    <tag k="addr:housenumber" v="34"/>
    <tag k="addr:street" v="Pleasant Street"/>
    <tag k="addr:state" v="VT"/>
    <tag k="ref:vcgi:esiteid" v="302825"/>
  </node>
  <node id="-381" visible="true" lat="43.62703651" lon="-72.51462889">
    <tag k="addr:city" v="Woodstock"/>
    <tag k="addr:housenumber" v="26"/>
    <tag k="addr:street" v="Pleasant Street"/>
    <tag k="addr:state" v="VT"/>
    <tag k="ref:vcgi:esiteid" v="302828"/>
  </node>
  <node id="-383" visible="true" lat="43.62702031" lon="-72.51376778">
    <tag k="addr:city" v="Woodstock"/>
    <tag k="addr:housenumber" v="30"/>
    <tag k="addr:street" v="Pleasant Street"/>
    <tag k="addr:state" v="VT"/>
    <tag k="ref:vcgi:esiteid" v="302830"/>
  </node>
  <node id="-385" visible="true" lat="43.6270278" lon="-72.51485538">
    <tag k="addr:city" v="Woodstock"/>
    <tag k="addr:housenumber" v="20"/>
    <tag k="addr:street" v="Pleasant Street"/>
    <tag k="addr:state" v="VT"/>
    <tag k="ref:vcgi:esiteid" v="302832"/>
  </node>
  <node id="-387" visible="true" lat="43.62703171" lon="-72.51427348">
    <tag k="addr:city" v="Woodstock"/>
    <tag k="addr:housenumber" v="28"/>
    <tag k="addr:street" v="Pleasant Street"/>
    <tag k="addr:state" v="VT"/>
    <tag k="ref:vcgi:esiteid" v="302834"/>
  </node>
  <node id="-388" visible="true" lat="43.62700712" lon="-72.51212905">
    <tag k="addr:city" v="Woodstock"/>
    <tag k="addr:housenumber" v="40"/>
    <tag k="addr:street" v="Pleasant Street"/>
    <tag k="addr:state" v="VT"/>
    <tag k="ref:vcgi:esiteid" v="302836"/>
  </node>
  <node id="-389" visible="true" lat="43.6269011" lon="-72.51070082">
    <tag k="addr:city" v="Woodstock"/>
    <tag k="addr:housenumber" v="48"/>
    <tag k="addr:street" v="Pleasant Street"/>
    <tag k="addr:state" v="VT"/>
    <tag k="ref:vcgi:esiteid" v="302838"/>
  </node>
  <node id="-390" visible="true" lat="43.6268899" lon="-72.51032351">
    <tag k="addr:city" v="Woodstock"/>
    <tag k="addr:housenumber" v="52"/>
    <tag k="addr:street" v="Pleasant Street"/>
    <tag k="addr:state" v="VT"/>
    <tag k="ref:vcgi:esiteid" v="302839"/>
  </node>
  <node id="-391" visible="true" lat="43.62678504" lon="-72.50881397">
    <tag k="addr:city" v="Woodstock"/>
    <tag k="addr:housenumber" v="58"/>
    <tag k="addr:street" v="Pleasant Street"/>
    <tag k="addr:state" v="VT"/>
    <tag k="ref:vcgi:esiteid" v="302842"/>
  </node>
  <node id="-398" visible="true" lat="43.62662993" lon="-72.51314107">
    <tag k="addr:city" v="Woodstock"/>
    <tag k="addr:housenumber" v="29"/>
    <tag k="addr:street" v="Pleasant Street"/>
    <tag k="addr:state" v="VT"/>
    <tag k="ref:vcgi:esiteid" v="302849"/>
  </node>
  <node id="-399" visible="true" lat="43.62663325" lon="-72.51378421">
    <tag k="addr:city" v="Woodstock"/>
    <tag k="addr:housenumber" v="23"/>
    <tag k="addr:street" v="Pleasant Street"/>
    <tag k="addr:state" v="VT"/>
    <tag k="ref:vcgi:esiteid" v="302850"/>
  </node>
  <node id="-401" visible="true" lat="43.62661085" lon="-72.51406309">
    <tag k="addr:city" v="Woodstock"/>
    <tag k="addr:housenumber" v="21"/>
    <tag k="addr:street" v="Pleasant Street"/>
    <tag k="addr:state" v="VT"/>
    <tag k="ref:vcgi:esiteid" v="302852"/>
  </node>
  <node id="-402" visible="true" lat="43.62658535" lon="-72.51428864">
    <tag k="addr:city" v="Woodstock"/>
    <tag k="addr:housenumber" v="81"/>
    <tag k="addr:street" v="Central Street"/>
    <tag k="addr:state" v="VT"/>
    <tag k="ref:vcgi:esiteid" v="302853"/>
  </node>
  <node id="-405" visible="true" lat="43.6265683" lon="-72.50970923">
    <tag k="addr:city" v="Woodstock"/>
    <tag k="addr:housenumber" v="51"/>
    <tag k="addr:street" v="Pleasant Street"/>
    <tag k="addr:state" v="VT"/>
    <tag k="ref:vcgi:esiteid" v="302858"/>
  </node>
  <node id="-408" visible="true" lat="43.62656733" lon="-72.50945009">
    <tag k="addr:city" v="Woodstock"/>
    <tag k="addr:housenumber" v="53"/>
    <tag k="addr:street" v="Pleasant Street"/>
    <tag k="addr:state" v="VT"/>
    <tag k="ref:vcgi:esiteid" v="302861"/>
  </node>
  <node id="-409" visible="true" lat="43.62657458" lon="-72.51258962">
    <tag k="addr:city" v="Woodstock"/>
    <tag k="addr:housenumber" v="33"/>
    <tag k="addr:street" v="Pleasant Street"/>
    <tag k="addr:state" v="VT"/>
    <tag k="ref:vcgi:esiteid" v="302862"/>
  </node>
  <node id="-410" visible="true" lat="43.62656148" lon="-72.51069115">
    <tag k="addr:city" v="Woodstock"/>
    <tag k="addr:housenumber" v="43"/>
    <tag k="addr:street" v="Pleasant Street"/>
    <tag k="addr:state" v="VT"/>
    <tag k="ref:vcgi:esiteid" v="302863"/>
  </node>
  <node id="-411" visible="true" lat="43.62652885" lon="-72.51036561">
    <tag k="addr:city" v="Woodstock"/>
    <tag k="addr:housenumber" v="45"/>
    <tag k="addr:street" v="Pleasant Street"/>
    <tag k="addr:state" v="VT"/>
    <tag k="ref:vcgi:esiteid" v="302864"/>
  </node>
  <node id="-412" visible="true" lat="43.62659136" lon="-72.50924877">
    <tag k="addr:city" v="Woodstock"/>
    <tag k="addr:housenumber" v="55"/>
    <tag k="addr:street" v="Pleasant Street"/>
    <tag k="addr:state" v="VT"/>
    <tag k="ref:vcgi:esiteid" v="302865"/>
  </node>
  <node id="-413" visible="true" lat="43.62654014" lon="-72.50908338">
    <tag k="addr:city" v="Woodstock"/>
    <tag k="addr:housenumber" v="57"/>
    <tag k="addr:street" v="Pleasant Street"/>
    <tag k="addr:state" v="VT"/>
    <tag k="ref:vcgi:esiteid" v="302866"/>
  </node>
  <node id="-414" visible="true" lat="43.62648437" lon="-72.50876193">
    <tag k="addr:city" v="Woodstock"/>
    <tag k="addr:housenumber" v="59"/>
    <tag k="addr:street" v="Pleasant Street"/>
    <tag k="addr:state" v="VT"/>
    <tag k="ref:vcgi:esiteid" v="302867"/>
  </node>
  <node id="-415" visible="true" lat="43.62662353" lon="-72.50674741">
    <tag k="addr:city" v="Woodstock"/>
    <tag k="addr:housenumber" v="68"/>
    <tag k="addr:street" v="Pleasant Street"/>
    <tag k="addr:state" v="VT"/>
    <tag k="ref:vcgi:esiteid" v="302868"/>
  </node>
  <node id="-416" visible="true" lat="43.62646993" lon="-72.50852965">
    <tag k="addr:city" v="Woodstock"/>
    <tag k="addr:housenumber" v="61"/>
    <tag k="addr:street" v="Pleasant Street"/>
    <tag k="addr:state" v="VT"/>
    <tag k="ref:vcgi:esiteid" v="302870"/>
  </node>
  <node id="-417" visible="true" lat="43.62655315" lon="-72.50648524">
    <tag k="addr:city" v="Woodstock"/>
    <tag k="addr:housenumber" v="70"/>
    <tag k="addr:street" v="Pleasant Street"/>
    <tag k="addr:state" v="VT"/>
    <tag k="ref:vcgi:esiteid" v="302871"/>
  </node>
  <node id="-419" visible="true" lat="43.62653873" lon="-72.51117384">
    <tag k="addr:city" v="Woodstock"/>
    <tag k="addr:housenumber" v="41"/>
    <tag k="addr:street" v="Pleasant Street"/>
    <tag k="addr:state" v="VT"/>
    <tag k="ref:vcgi:esiteid" v="302873"/>
  </node>
  <node id="-420" visible="true" lat="43.62643608" lon="-72.50835063">
    <tag k="addr:city" v="Woodstock"/>
    <tag k="addr:housenumber" v="63"/>
    <tag k="addr:street" v="Pleasant Street"/>
    <tag k="addr:state" v="VT"/>
    <tag k="ref:vcgi:esiteid" v="302874"/>
  </node>
  <node id="-421" visible="true" lat="43.62647152" lon="-72.4760363">
    <tag k="addr:city" v="Woodstock"/>
    <tag k="addr:housenumber" v="334"/>
    <tag k="addr:street" v="Sugar Hill Road"/>
    <tag k="addr:state" v="VT"/>
    <tag k="ref:vcgi:esiteid" v="302875"/>
  </node>
  <node id="-423" visible="true" lat="43.62648" lon="-72.51456349">
    <tag k="addr:city" v="Woodstock"/>
    <tag k="addr:housenumber" v="79"/>
    <tag k="addr:street" v="Central Street"/>
    <tag k="addr:state" v="VT"/>
    <tag k="ref:vcgi:esiteid" v="302877"/>
  </node>
  <node id="-424" visible="true" lat="43.62641362" lon="-72.51475007">
    <tag k="addr:city" v="Woodstock"/>
    <tag k="addr:housenumber" v="77"/>
    <tag k="addr:street" v="Central Street"/>
    <tag k="addr:state" v="VT"/>
    <tag k="ref:vcgi:esiteid" v="302880"/>
  </node>
  <node id="-425" visible="true" lat="43.62632609" lon="-72.5078742">
    <tag k="addr:city" v="Woodstock"/>
    <tag k="addr:housenumber" v="67"/>
    <tag k="addr:street" v="Pleasant Street"/>
    <tag k="addr:state" v="VT"/>
    <tag k="ref:vcgi:esiteid" v="302881"/>
  </node>
  <node id="-426" visible="true" lat="43.62646525" lon="-72.51236958">
    <tag k="addr:city" v="Woodstock"/>
    <tag k="addr:housenumber" v="35"/>
    <tag k="addr:street" v="Pleasant Street"/>
    <tag k="addr:state" v="VT"/>
    <tag k="ref:vcgi:esiteid" v="302882"/>
  </node>
  <node id="-428" visible="true" lat="43.62632749" lon="-72.50709261">
    <tag k="addr:city" v="Woodstock"/>
    <tag k="addr:housenumber" v="69"/>
    <tag k="addr:street" v="Pleasant Street"/>
    <tag k="addr:state" v="VT"/>
    <tag k="ref:vcgi:esiteid" v="302884"/>
  </node>
  <node id="-429" visible="true" lat="43.62631402" lon="-72.50957198">
    <tag k="addr:city" v="Woodstock"/>
    <tag k="addr:housenumber" v="49"/>
    <tag k="addr:street" v="Pleasant Street"/>
    <tag k="addr:state" v="VT"/>
    <tag k="ref:vcgi:esiteid" v="302886"/>
  </node>
  <node id="-432" visible="true" lat="43.62635723" lon="-72.58658026">
    <tag k="addr:city" v="Woodstock"/>
    <tag k="addr:housenumber" v="271"/>
    <tag k="addr:street" v="Gabert Road"/>
    <tag k="addr:state" v="VT"/>
    <tag k="ref:vcgi:esiteid" v="302889"/>
  </node>
  <node id="-433" visible="true" lat="43.6263322" lon="-72.50826501">
    <tag k="addr:city" v="Woodstock"/>
    <tag k="addr:housenumber" v="65"/>
    <tag k="addr:street" v="Pleasant Street"/>
    <tag k="addr:state" v="VT"/>
    <tag k="ref:vcgi:esiteid" v="302890"/>
  </node>
  <node id="-435" visible="true" lat="43.6263305" lon="-72.51494988">
    <tag k="addr:city" v="Woodstock"/>
    <tag k="addr:housenumber" v="75"/>
    <tag k="addr:street" v="Central Street"/>
    <tag k="addr:state" v="VT"/>
    <tag k="ref:vcgi:esiteid" v="302892"/>
  </node>
  <node id="-437" visible="true" lat="43.62617272" lon="-72.51184072">
    <tag k="addr:city" v="Woodstock"/>
    <tag k="addr:housenumber" v="37"/>
    <tag k="addr:street" v="Pleasant Street"/>
    <tag k="addr:state" v="VT"/>
    <tag k="ref:vcgi:esiteid" v="302894"/>
  </node>
  <node id="-438" visible="true" lat="43.62624122" lon="-72.51520871">
    <tag k="addr:city" v="Woodstock"/>
    <tag k="addr:housenumber" v="73"/>
    <tag k="addr:street" v="Central Street"/>
    <tag k="addr:state" v="VT"/>
    <tag k="ref:vcgi:esiteid" v="302896"/>
  </node>
  <node id="-439" visible="true" lat="43.62620356" lon="-72.51103442">
    <tag k="addr:city" v="Woodstock"/>
    <tag k="addr:housenumber" v="3"/>
    <tag k="addr:street" v="Stanton Street"/>
    <tag k="addr:state" v="VT"/>
    <tag k="ref:vcgi:esiteid" v="302897"/>
  </node>
  <node id="-446" visible="true" lat="43.62614239" lon="-72.5072021">
    <tag k="addr:city" v="Woodstock"/>
    <tag k="addr:housenumber" v="4"/>
    <tag k="addr:street" v="Charles Street"/>
    <tag k="addr:state" v="VT"/>
    <tag k="ref:vcgi:esiteid" v="302904"/>
  </node>
  <node id="-450" visible="true" lat="43.62607666" lon="-72.51346594">
    <tag k="addr:city" v="Woodstock"/>
    <tag k="addr:housenumber" v="3"/>
    <tag k="addr:street" v="Ford Street"/>
    <tag k="addr:state" v="VT"/>
    <tag k="ref:vcgi:esiteid" v="302909"/>
  </node>
  <node id="-453" visible="true" lat="43.62597899" lon="-72.51350175">
    <tag k="addr:city" v="Woodstock"/>
    <tag k="addr:housenumber" v="5"/>
    <tag k="addr:street" v="Ford Street"/>
    <tag k="addr:state" v="VT"/>
    <tag k="ref:vcgi:esiteid" v="302912"/>
  </node>
  <node id="-459" visible="true" lat="43.62580643" lon="-72.51440826">
    <tag k="addr:city" v="Woodstock"/>
    <tag k="addr:housenumber" v="4"/>
    <tag k="addr:street" v="Lincoln Street"/>
    <tag k="addr:state" v="VT"/>
    <tag k="ref:vcgi:esiteid" v="302918"/>
  </node>
  <node id="-461" visible="true" lat="43.62593024" lon="-72.51040462">
    <tag k="addr:city" v="Woodstock"/>
    <tag k="addr:housenumber" v="4"/>
    <tag k="addr:street" v="Stanton Street"/>
    <tag k="addr:state" v="VT"/>
    <tag k="ref:vcgi:esiteid" v="302920"/>
  </node>
  <node id="-462" visible="true" lat="43.62582663" lon="-72.51697267">
    <tag k="addr:city" v="Woodstock"/>
    <tag k="addr:housenumber" v="28"/>
    <tag k="addr:street" v="Central Street"/>
    <tag k="addr:state" v="VT"/>
    <tag k="ref:vcgi:esiteid" v="302921"/>
  </node>
  <node id="-463" visible="true" lat="43.62571387" lon="-72.50810528">
    <tag k="addr:city" v="Woodstock"/>
    <tag k="addr:housenumber" v="2"/>
    <tag k="addr:street" v="Charles Street"/>
    <tag k="addr:state" v="VT"/>
    <tag k="ref:vcgi:esiteid" v="302923"/>
  </node>
  <node id="-466" visible="true" lat="43.62577298" lon="-72.51321207">
    <tag k="addr:city" v="Woodstock"/>
    <tag k="addr:housenumber" v="8"/>
    <tag k="addr:street" v="Ford Street"/>
    <tag k="addr:state" v="VT"/>
    <tag k="ref:vcgi:esiteid" v="302926"/>
  </node>
  <node id="-467" visible="true" lat="43.62577728" lon="-72.51414578">
    <tag k="addr:city" v="Woodstock"/>
    <tag k="addr:housenumber" v="6"/>
    <tag k="addr:street" v="Lincoln Street"/>
    <tag k="addr:state" v="VT"/>
    <tag k="ref:vcgi:esiteid" v="302927"/>
  </node>
  <node id="-468" visible="true" lat="43.62573962" lon="-72.51634687">
    <tag k="addr:city" v="Woodstock"/>
    <tag k="addr:housenumber" v="61"/>
    <tag k="addr:street" v="Central Street"/>
    <tag k="addr:state" v="VT"/>
    <tag k="ref:vcgi:esiteid" v="302928"/>
  </node>
  <node id="-470" visible="true" lat="43.62576675" lon="-72.51390838">
    <tag k="addr:city" v="Woodstock"/>
    <tag k="addr:housenumber" v="8"/>
    <tag k="addr:street" v="Lincoln Street"/>
    <tag k="addr:state" v="VT"/>
    <tag k="ref:vcgi:esiteid" v="302930"/>
  </node>
  <node id="-471" visible="true" lat="43.6257553" lon="-72.51359558">
    <tag k="addr:city" v="Woodstock"/>
    <tag k="addr:housenumber" v="10"/>
    <tag k="addr:street" v="Lincoln Street"/>
    <tag k="addr:state" v="VT"/>
    <tag k="ref:vcgi:esiteid" v="302931"/>
  </node>
  <node id="-472" visible="true" lat="43.62575327" lon="-72.51712918">
    <tag k="addr:city" v="Woodstock"/>
    <tag k="addr:housenumber" v="26"/>
    <tag k="addr:street" v="Central Street"/>
    <tag k="addr:state" v="VT"/>
    <tag k="ref:vcgi:esiteid" v="302932"/>
  </node>
  <node id="-476" visible="true" lat="43.62564305" lon="-72.51665029">
    <tag k="addr:city" v="Woodstock"/>
    <tag k="addr:housenumber" v="59"/>
    <tag k="addr:street" v="Central Street"/>
    <tag k="addr:state" v="VT"/>
    <tag k="ref:vcgi:esiteid" v="302936"/>
  </node>
  <node id="-479" visible="true" lat="43.62564086" lon="-72.51265716">
    <tag k="addr:city" v="Woodstock"/>
    <tag k="addr:housenumber" v="14"/>
    <tag k="addr:street" v="Lincoln Street"/>
    <tag k="addr:state" v="VT"/>
    <tag k="ref:vcgi:esiteid" v="302942"/>
  </node>
  <node id="-481" visible="true" lat="43.62556414" lon="-72.51490699">
    <tag k="addr:city" v="Woodstock"/>
    <tag k="addr:housenumber" v="13"/>
    <tag k="addr:street" v="Slayton Terrace"/>
    <tag k="addr:state" v="VT"/>
    <tag k="ref:vcgi:esiteid" v="302944"/>
  </node>
  <node id="-482" visible="true" lat="43.62557428" lon="-72.51825638">
    <tag k="addr:city" v="Woodstock"/>
    <tag k="addr:housenumber" v="13"/>
    <tag k="addr:street" v="Elm Street"/>
    <tag k="addr:state" v="VT"/>
    <tag k="ref:vcgi:esiteid" v="302945"/>
  </node>
  <node id="-485" visible="true" lat="43.62567307" lon="-72.51224445">
    <tag k="addr:city" v="Woodstock"/>
    <tag k="addr:housenumber" v="16"/>
    <tag k="addr:street" v="Lincoln Street"/>
    <tag k="addr:state" v="VT"/>
    <tag k="ref:vcgi:esiteid" v="302948"/>
  </node>
  <node id="-487" visible="true" lat="43.62549548" lon="-72.51509653">
    <tag k="addr:city" v="Woodstock"/>
    <tag k="addr:housenumber" v="11"/>
    <tag k="addr:street" v="Slayton Terrace"/>
    <tag k="addr:state" v="VT"/>
    <tag k="ref:vcgi:esiteid" v="302950"/>
  </node>
  <node id="-490" visible="true" lat="43.6254191" lon="-72.5146235">
    <tag k="addr:city" v="Woodstock"/>
    <tag k="addr:housenumber" v="15"/>
    <tag k="addr:street" v="Slayton Terrace"/>
    <tag k="addr:state" v="VT"/>
    <tag k="ref:vcgi:esiteid" v="302953"/>
  </node>
  <node id="-493" visible="true" lat="43.62545231" lon="-72.51072081">
    <tag k="addr:city" v="Woodstock"/>
    <tag k="addr:housenumber" v="8"/>
    <tag k="addr:street" v="Stanton Street"/>
    <tag k="addr:state" v="VT"/>
    <tag k="ref:vcgi:esiteid" v="302956"/>
  </node>
  <node id="-494" visible="true" lat="43.6255853" lon="-72.50674193">
    <tag k="addr:city" v="Woodstock"/>
    <tag k="addr:housenumber" v="34"/>
    <tag k="addr:street" v="Atwood Avenue"/>
    <tag k="addr:state" v="VT"/>
    <tag k="ref:vcgi:esiteid" v="302957"/>
  </node>
  <node id="-498" visible="true" lat="43.62535913" lon="-72.5138392">
    <tag k="addr:city" v="Woodstock"/>
    <tag k="addr:housenumber" v="19"/>
    <tag k="addr:street" v="Slayton Terrace"/>
    <tag k="addr:state" v="VT"/>
    <tag k="ref:vcgi:esiteid" v="302961"/>
  </node>
  <node id="-500" visible="true" lat="43.62535661" lon="-72.51344543">
    <tag k="addr:city" v="Woodstock"/>
    <tag k="addr:housenumber" v="21"/>
    <tag k="addr:street" v="Slayton Terrace"/>
    <tag k="addr:state" v="VT"/>
    <tag k="ref:vcgi:esiteid" v="302963"/>
  </node>
  <node id="-502" visible="true" lat="43.62529409" lon="-72.50776808">
    <tag k="addr:city" v="Woodstock"/>
    <tag k="addr:housenumber" v="3"/>
    <tag k="addr:street" v="Charles Street"/>
    <tag k="addr:state" v="VT"/>
    <tag k="ref:vcgi:esiteid" v="302965"/>
  </node>
  <node id="-503" visible="true" lat="43.62536888" lon="-72.51665427">
    <tag k="addr:city" v="Woodstock"/>
    <tag k="addr:housenumber" v="2"/>
    <tag k="addr:street" v="High Street"/>
    <tag k="addr:state" v="VT"/>
    <tag k="ref:vcgi:esiteid" v="302966"/>
  </node>
  <node id="-508" visible="true" lat="43.62538909" lon="-72.5103836">
    <tag k="addr:city" v="Woodstock"/>
    <tag k="addr:housenumber" v="24"/>
    <tag k="addr:street" v="Lincoln Street"/>
    <tag k="addr:state" v="VT"/>
    <tag k="ref:vcgi:esiteid" v="302971"/>
  </node>
  <node id="-510" visible="true" lat="43.6253343" lon="-72.51295716">
    <tag k="addr:city" v="Woodstock"/>
    <tag k="addr:housenumber" v="25"/>
    <tag k="addr:street" v="Slayton Terrace"/>
    <tag k="addr:state" v="VT"/>
    <tag k="ref:vcgi:esiteid" v="302973"/>
  </node>
  <node id="-511" visible="true" lat="43.62531619" lon="-72.51415811">
    <tag k="addr:city" v="Woodstock"/>
    <tag k="addr:housenumber" v="17"/>
    <tag k="addr:street" v="Slayton Terrace"/>
    <tag k="addr:state" v="VT"/>
    <tag k="ref:vcgi:esiteid" v="302974"/>
  </node>
  <node id="-512" visible="true" lat="43.62531319" lon="-72.51533728">
    <tag k="addr:city" v="Woodstock"/>
    <tag k="addr:housenumber" v="9"/>
    <tag k="addr:street" v="Slayton Terrace"/>
    <tag k="addr:state" v="VT"/>
    <tag k="ref:vcgi:esiteid" v="302975"/>
  </node>
  <node id="-515" visible="true" lat="43.62532497" lon="-72.51264732">
    <tag k="addr:city" v="Woodstock"/>
    <tag k="addr:housenumber" v="27"/>
    <tag k="addr:street" v="Slayton Terrace"/>
    <tag k="addr:state" v="VT"/>
    <tag k="ref:vcgi:esiteid" v="302978"/>
  </node>
  <node id="-518" visible="true" lat="43.62533316" lon="-72.51629631">
    <tag k="addr:city" v="Woodstock"/>
    <tag k="addr:housenumber" v="4"/>
    <tag k="addr:street" v="High Street"/>
    <tag k="addr:state" v="VT"/>
    <tag k="ref:vcgi:esiteid" v="302981"/>
  </node>
  <node id="-519" visible="true" lat="43.6252528" lon="-72.50746519">
    <tag k="addr:city" v="Woodstock"/>
    <tag k="addr:housenumber" v="9"/>
    <tag k="addr:street" v="Atwood Avenue"/>
    <tag k="addr:state" v="VT"/>
    <tag k="ref:vcgi:esiteid" v="302982"/>
  </node>
  <node id="-521" visible="true" lat="43.6252235" lon="-72.50644954">
    <tag k="addr:city" v="Woodstock"/>
    <tag k="addr:housenumber" v="37"/>
    <tag k="addr:street" v="Atwood Avenue"/>
    <tag k="addr:state" v="VT"/>
    <tag k="ref:vcgi:esiteid" v="302984"/>
  </node>
  <node id="-522" visible="true" lat="43.62520466" lon="-72.50693265">
    <tag k="addr:city" v="Woodstock"/>
    <tag k="addr:housenumber" v="33"/>
    <tag k="addr:street" v="Atwood Avenue"/>
    <tag k="addr:state" v="VT"/>
    <tag k="ref:vcgi:esiteid" v="302985"/>
  </node>
  <node id="-525" visible="true" lat="43.62530385" lon="-72.51221878">
    <tag k="addr:city" v="Woodstock"/>
    <tag k="addr:housenumber" v="29"/>
    <tag k="addr:street" v="Slayton Terrace"/>
    <tag k="addr:state" v="VT"/>
    <tag k="ref:vcgi:esiteid" v="302989"/>
  </node>
  <node id="-529" visible="true" lat="43.62522782" lon="-72.5167271">
    <tag k="addr:city" v="Woodstock"/>
    <tag k="addr:housenumber" v="6"/>
    <tag k="addr:street" v="High Street"/>
    <tag k="addr:state" v="VT"/>
    <tag k="ref:vcgi:esiteid" v="302994"/>
  </node>
  <node id="-531" visible="true" lat="43.62519162" lon="-72.50585282">
    <tag k="addr:city" v="Woodstock"/>
    <tag k="addr:housenumber" v="43"/>
    <tag k="addr:street" v="Atwood Avenue"/>
    <tag k="addr:state" v="VT"/>
    <tag k="ref:vcgi:esiteid" v="302996"/>
  </node>
  <node id="-536" visible="true" lat="43.62522182" lon="-72.50554718">
    <tag k="addr:city" v="Woodstock"/>
    <tag k="addr:housenumber" v="100"/>
    <tag k="addr:street" v="Atwood Avenue"/>
    <tag k="addr:state" v="VT"/>
    <tag k="ref:vcgi:esiteid" v="303001"/>
  </node>
  <node id="-541" visible="true" lat="43.6250424" lon="-72.51577445">
    <tag k="addr:city" v="Woodstock"/>
    <tag k="addr:housenumber" v="7"/>
    <tag k="addr:street" v="Slayton Terrace"/>
    <tag k="addr:state" v="VT"/>
    <tag k="ref:vcgi:esiteid" v="303007"/>
  </node>
  <node id="-545" visible="true" lat="43.62503317" lon="-72.51715205">
    <tag k="addr:city" v="Woodstock"/>
    <tag k="addr:housenumber" v="1"/>
    <tag k="addr:street" v="High Street"/>
    <tag k="addr:state" v="VT"/>
    <tag k="ref:vcgi:esiteid" v="303012"/>
  </node>
  <node id="-547" visible="true" lat="43.62499933" lon="-72.51681567">
    <tag k="addr:city" v="Woodstock"/>
    <tag k="addr:housenumber" v="10"/>
    <tag k="addr:street" v="High Street"/>
    <tag k="addr:state" v="VT"/>
    <tag k="ref:vcgi:esiteid" v="303015"/>
  </node>
  <node id="-551" visible="true" lat="43.624877" lon="-72.51533479">
    <tag k="addr:city" v="Woodstock"/>
    <tag k="addr:housenumber" v="1"/>
    <tag k="addr:street" v="Highland Avenue"/>
    <tag k="addr:state" v="VT"/>
    <tag k="ref:vcgi:esiteid" v="303019"/>
  </node>
  <node id="-553" visible="true" lat="43.62495232" lon="-72.51504891">
    <tag k="addr:city" v="Woodstock"/>
    <tag k="addr:housenumber" v="3"/>
    <tag k="addr:street" v="Highland Avenue"/>
    <tag k="addr:state" v="VT"/>
    <tag k="ref:vcgi:esiteid" v="303021"/>
  </node>
  <node id="-554" visible="true" lat="43.62493765" lon="-72.51912536">
    <tag k="addr:city" v="Woodstock"/>
    <tag k="addr:housenumber" v="7"/>
    <tag k="addr:street" v="The Green"/>
    <tag k="addr:state" v="VT"/>
    <tag k="ref:vcgi:esiteid" v="303023"/>
  </node>
  <node id="-557" visible="true" lat="43.62475938" lon="-72.50866942">
    <tag k="addr:city" v="Woodstock"/>
    <tag k="addr:housenumber" v="41"/>
    <tag k="addr:street" v="Lincoln Street"/>
    <tag k="addr:state" v="VT"/>
    <tag k="ref:vcgi:esiteid" v="303026"/>
  </node>
  <node id="-560" visible="true" lat="43.62482337" lon="-72.51714689">
    <tag k="addr:city" v="Woodstock"/>
    <tag k="addr:housenumber" v="3"/>
    <tag k="addr:street" v="High Street"/>
    <tag k="addr:state" v="VT"/>
    <tag k="ref:vcgi:esiteid" v="303030"/>
  </node>
  <node id="-562" visible="true" lat="43.6247836" lon="-72.5168745">
    <tag k="addr:city" v="Woodstock"/>
    <tag k="addr:housenumber" v="12"/>
    <tag k="addr:street" v="High Street"/>
    <tag k="addr:state" v="VT"/>
    <tag k="ref:vcgi:esiteid" v="303033"/>
  </node>
  <node id="-564" visible="true" lat="43.62471832" lon="-72.50815971">
    <tag k="addr:city" v="Woodstock"/>
    <tag k="addr:housenumber" v="43"/>
    <tag k="addr:street" v="Lincoln Street"/>
    <tag k="addr:state" v="VT"/>
    <tag k="ref:vcgi:esiteid" v="303035"/>
  </node>
  <node id="-565" visible="true" lat="43.62483855" lon="-72.51937884">
    <tag k="addr:city" v="Woodstock"/>
    <tag k="addr:housenumber" v="9"/>
    <tag k="addr:street" v="The Green"/>
    <tag k="addr:state" v="VT"/>
    <tag k="ref:vcgi:esiteid" v="303036"/>
  </node>
  <node id="-571" visible="true" lat="43.62473498" lon="-72.51481002">
    <tag k="addr:city" v="Woodstock"/>
    <tag k="addr:housenumber" v="5"/>
    <tag k="addr:street" v="Highland Avenue"/>
    <tag k="addr:state" v="VT"/>
    <tag k="ref:vcgi:esiteid" v="303043"/>
  </node>
  <node id="-572" visible="true" lat="43.6247707" lon="-72.51963528">
    <tag k="addr:city" v="Woodstock"/>
    <tag k="addr:housenumber" v="11"/>
    <tag k="addr:street" v="The Green"/>
    <tag k="addr:state" v="VT"/>
    <tag k="ref:vcgi:esiteid" v="303044"/>
  </node>
  <node id="-576" visible="true" lat="43.62460815" lon="-72.51685637">
    <tag k="addr:city" v="Woodstock"/>
    <tag k="addr:housenumber" v="14"/>
    <tag k="addr:street" v="High Street"/>
    <tag k="addr:state" v="VT"/>
    <tag k="ref:vcgi:esiteid" v="303048"/>
  </node>
  <node id="-577" visible="true" lat="43.62451076" lon="-72.51840322">
    <tag k="addr:city" v="Woodstock"/>
    <tag k="addr:housenumber" v="6"/>
    <tag k="addr:street" v="The Green"/>
    <tag k="addr:state" v="VT"/>
    <tag k="ref:vcgi:esiteid" v="303049"/>
  </node>
  <node id="-581" visible="true" lat="43.62446413" lon="-72.48198847">
    <tag k="addr:city" v="Woodstock"/>
    <tag k="addr:housenumber" v="562"/>
    <tag k="addr:street" v="Sugar Hill Road"/>
    <tag k="addr:state" v="VT"/>
    <tag k="ref:vcgi:esiteid" v="303053"/>
  </node>
  <node id="-585" visible="true" lat="43.62444402" lon="-72.5168974">
    <tag k="addr:city" v="Woodstock"/>
    <tag k="addr:housenumber" v="16"/>
    <tag k="addr:street" v="High Street"/>
    <tag k="addr:state" v="VT"/>
    <tag k="ref:vcgi:esiteid" v="303059"/>
  </node>
  <node id="-588" visible="true" lat="43.62441914" lon="-72.52014745">
    <tag k="addr:city" v="Woodstock"/>
    <tag k="addr:housenumber" v="13"/>
    <tag k="addr:street" v="The Green"/>
    <tag k="addr:state" v="VT"/>
    <tag k="ref:vcgi:esiteid" v="303063"/>
  </node>
  <node id="-590" visible="true" lat="43.6243064" lon="-72.51863439">
    <tag k="addr:city" v="Woodstock"/>
    <tag k="addr:housenumber" v="10"/>
    <tag k="addr:street" v="The Green"/>
    <tag k="addr:state" v="VT"/>
    <tag k="ref:vcgi:esiteid" v="303065"/>
  </node>
  <node id="-591" visible="true" lat="43.62423052" lon="-72.51524545">
    <tag k="addr:city" v="Woodstock"/>
    <tag k="addr:housenumber" v="12"/>
    <tag k="addr:street" v="Highland Avenue"/>
    <tag k="addr:state" v="VT"/>
    <tag k="ref:vcgi:esiteid" v="303066"/>
  </node>
  <node id="-592" visible="true" lat="43.62428209" lon="-72.51470088">
    <tag k="addr:city" v="Woodstock"/>
    <tag k="addr:housenumber" v="10"/>
    <tag k="addr:street" v="Highland Avenue"/>
    <tag k="addr:state" v="VT"/>
    <tag k="ref:vcgi:esiteid" v="303067"/>
  </node>
  <node id="-602" visible="true" lat="43.62413731" lon="-72.51694394">
    <tag k="addr:city" v="Woodstock"/>
    <tag k="addr:housenumber" v="18"/>
    <tag k="addr:street" v="High Street"/>
    <tag k="addr:state" v="VT"/>
    <tag k="ref:vcgi:esiteid" v="303080"/>
  </node>
  <node id="-604" visible="true" lat="43.62405754" lon="-72.58193333">
    <tag k="addr:city" v="Woodstock"/>
    <tag k="addr:housenumber" v="1763"/>
    <tag k="addr:street" v="Cox District Road"/>
    <tag k="addr:state" v="VT"/>
    <tag k="ref:vcgi:esiteid" v="303082"/>
  </node>
  <node id="-606" visible="true" lat="43.62403527" lon="-72.51725344">
    <tag k="addr:city" v="Woodstock"/>
    <tag k="addr:housenumber" v="17"/>
    <tag k="addr:street" v="High Street"/>
    <tag k="addr:state" v="VT"/>
    <tag k="ref:vcgi:esiteid" v="303084"/>
  </node>
  <node id="-608" visible="true" lat="43.62419683" lon="-72.52041086">
    <tag k="addr:city" v="Woodstock"/>
    <tag k="addr:housenumber" v="17"/>
    <tag k="addr:street" v="The Green"/>
    <tag k="addr:state" v="VT"/>
    <tag k="ref:vcgi:esiteid" v="303086"/>
  </node>
  <node id="-611" visible="true" lat="43.62396019" lon="-72.51701624">
    <tag k="addr:city" v="Woodstock"/>
    <tag k="addr:housenumber" v="20"/>
    <tag k="addr:street" v="High Street"/>
    <tag k="addr:state" v="VT"/>
    <tag k="ref:vcgi:esiteid" v="303089"/>
  </node>
  <node id="-619" visible="true" lat="43.62366652" lon="-72.51709744">
    <tag k="addr:city" v="Woodstock"/>
    <tag k="addr:housenumber" v="24"/>
    <tag k="addr:street" v="High Street"/>
    <tag k="addr:state" v="VT"/>
    <tag k="ref:vcgi:esiteid" v="303097"/>
  </node>
  <node id="-621" visible="true" lat="43.62375176" lon="-72.51737773">
    <tag k="addr:city" v="Woodstock"/>
    <tag k="addr:housenumber" v="19"/>
    <tag k="addr:street" v="High Street"/>
    <tag k="addr:state" v="VT"/>
    <tag k="ref:vcgi:esiteid" v="303099"/>
  </node>
  <node id="-631" visible="true" lat="43.62350786" lon="-72.51740167">
    <tag k="addr:city" v="Woodstock"/>
    <tag k="addr:housenumber" v="21"/>
    <tag k="addr:street" v="High Street"/>
    <tag k="addr:state" v="VT"/>
    <tag k="ref:vcgi:esiteid" v="303112"/>
  </node>
  <node id="-635" visible="true" lat="43.62343623" lon="-72.55639232">
    <tag k="addr:city" v="Woodstock"/>
    <tag k="addr:housenumber" v="876"/>
    <tag k="addr:street" v="Barberry Hill Road"/>
    <tag k="addr:state" v="VT"/>
    <tag k="ref:vcgi:esiteid" v="303116"/>
  </node>
  <node id="-643" visible="true" lat="43.62319356" lon="-72.58384049">
    <tag k="addr:city" v="Woodstock"/>
    <tag k="addr:housenumber" v="19"/>
    <tag k="addr:street" v="Gabert Road"/>
    <tag k="addr:state" v="VT"/>
    <tag k="ref:vcgi:esiteid" v="303124"/>
  </node>
  <node id="-646" visible="true" lat="43.6232872" lon="-72.49591064">
    <tag k="addr:city" v="Woodstock"/>
    <tag k="addr:housenumber" v="492"/>
    <tag k="addr:street" v="Laughlin Road"/>
    <tag k="addr:state" v="VT"/>
    <tag k="ref:vcgi:esiteid" v="303127"/>
  </node>
  <node id="-664" visible="true" lat="43.62299932" lon="-72.58799187">
    <tag k="addr:city" v="Woodstock"/>
    <tag k="addr:housenumber" v="1377"/>
    <tag k="addr:street" v="Cox District Road"/>
    <tag k="addr:state" v="VT"/>
    <tag k="ref:vcgi:esiteid" v="303146"/>
  </node>
  <node id="-665" visible="true" lat="43.62301598" lon="-72.48323768">
    <tag k="addr:city" v="Woodstock"/>
    <tag k="addr:housenumber" v="954"/>
    <tag k="addr:street" v="Happy Valley Road"/>
    <tag k="addr:state" v="VT"/>
    <tag k="ref:vcgi:esiteid" v="303147"/>
  </node>
  <node id="-674" visible="true" lat="43.6227004" lon="-72.58368131">
    <tag k="addr:city" v="Woodstock"/>
    <tag k="addr:housenumber" v="1612"/>
    <tag k="addr:street" v="Cox District Road"/>
    <tag k="addr:state" v="VT"/>
    <tag k="ref:vcgi:esiteid" v="303156"/>
  </node>
  <node id="-683" visible="true" lat="43.62257603" lon="-72.59618867">
    <tag k="addr:city" v="Woodstock"/>
    <tag k="addr:housenumber" v="953"/>
    <tag k="addr:street" v="Cox District Road"/>
    <tag k="addr:state" v="VT"/>
    <tag k="ref:vcgi:esiteid" v="303168"/>
  </node>
  <node id="-709" visible="true" lat="43.62224952" lon="-72.52688966">
    <tag k="addr:city" v="Woodstock"/>
    <tag k="addr:housenumber" v="61"/>
    <tag k="addr:street" v="River Street"/>
    <tag k="addr:state" v="VT"/>
    <tag k="ref:vcgi:esiteid" v="303199"/>
  </node>
  <node id="-711" visible="true" lat="43.62225435" lon="-72.59055282">
    <tag k="addr:city" v="Woodstock"/>
    <tag k="addr:housenumber" v="1209"/>
    <tag k="addr:street" v="Cox District Road"/>
    <tag k="addr:state" v="VT"/>
    <tag k="ref:vcgi:esiteid" v="303201"/>
  </node>
  <node id="-717" visible="true" lat="43.62216923" lon="-72.55578101">
    <tag k="addr:city" v="Woodstock"/>
    <tag k="addr:housenumber" v="767"/>
    <tag k="addr:street" v="Barberry Hill Road"/>
    <tag k="addr:state" v="VT"/>
    <tag k="ref:vcgi:esiteid" v="303207"/>
  </node>
  <node id="-724" visible="true" lat="43.62201309" lon="-72.5274887">
    <tag k="addr:city" v="Woodstock"/>
    <tag k="addr:housenumber" v="71"/>
    <tag k="addr:street" v="River Street"/>
    <tag k="addr:state" v="VT"/>
    <tag k="ref:vcgi:esiteid" v="303215"/>
  </node>
  <node id="-731" visible="true" lat="43.62191009" lon="-72.52791595">
    <tag k="addr:city" v="Woodstock"/>
    <tag k="addr:housenumber" v="73"/>
    <tag k="addr:street" v="River Street"/>
    <tag k="addr:state" v="VT"/>
    <tag k="ref:vcgi:esiteid" v="303222"/>
  </node>
  <node id="-782" visible="true" lat="43.62108077" lon="-72.52926292">
    <tag k="addr:city" v="Woodstock"/>
    <tag k="addr:housenumber" v="274"/>
    <tag k="addr:street" v="West Woodstock Road"/>
    <tag k="addr:state" v="VT"/>
    <tag k="ref:vcgi:esiteid" v="303278"/>
  </node>
  <node id="-784" visible="true" lat="43.62100253" lon="-72.4959593">
    <tag k="addr:city" v="Woodstock"/>
    <tag k="addr:housenumber" v="283"/>
    <tag k="addr:street" v="Laughlin Road"/>
    <tag k="addr:state" v="VT"/>
    <tag k="ref:vcgi:esiteid" v="303280"/>
  </node>
  <node id="-785" visible="true" lat="43.62102898" lon="-72.58480206">
    <tag k="addr:city" v="Woodstock"/>
    <tag k="addr:housenumber" v="36"/>
    <tag k="addr:street" v="Pinnacle Spur"/>
    <tag k="addr:state" v="VT"/>
    <tag k="ref:vcgi:esiteid" v="303281"/>
  </node>
  <node id="-791" visible="true" lat="43.62078629" lon="-72.49488795">
    <tag k="addr:city" v="Woodstock"/>
    <tag k="addr:housenumber" v="348"/>
    <tag k="addr:street" v="Laughlin Road"/>
    <tag k="addr:state" v="VT"/>
    <tag k="ref:vcgi:esiteid" v="303288"/>
  </node>
  <node id="-799" visible="true" lat="43.62062859" lon="-72.50234774">
    <tag k="addr:city" v="Woodstock"/>
    <tag k="addr:housenumber" v="3897"/>
    <tag k="addr:street" v="Hartland Hill Road"/>
    <tag k="addr:state" v="VT"/>
    <tag k="ref:vcgi:esiteid" v="303296"/>
  </node>
  <node id="-808" visible="true" lat="43.62027138" lon="-72.55362269">
    <tag k="addr:city" v="Woodstock"/>
    <tag k="addr:housenumber" v="658"/>
    <tag k="addr:street" v="Barberry Hill Road"/>
    <tag k="addr:state" v="VT"/>
    <tag k="ref:vcgi:esiteid" v="303305"/>
  </node>
  <node id="-835" visible="true" lat="43.61982257" lon="-72.50054506">
    <tag k="addr:city" v="Woodstock"/>
    <tag k="addr:housenumber" v="3827"/>
    <tag k="addr:street" v="Hartland Hill Road"/>
    <tag k="addr:state" v="VT"/>
    <tag k="ref:vcgi:esiteid" v="303335"/>
  </node>
  <node id="-836" visible="true" lat="43.61978332" lon="-72.58824377">
    <tag k="addr:city" v="Woodstock"/>
    <tag k="addr:housenumber" v="222"/>
    <tag k="addr:street" v="Daniel Cox Road"/>
    <tag k="addr:state" v="VT"/>
    <tag k="ref:vcgi:esiteid" v="303336"/>
  </node>
  <node id="-861" visible="true" lat="43.61895348" lon="-72.54982252">
    <tag k="addr:city" v="Woodstock"/>
    <tag k="addr:housenumber" v="100"/>
    <tag k="addr:street" v="Juniper Way"/>
    <tag k="addr:state" v="VT"/>
    <tag k="ref:vcgi:esiteid" v="303365"/>
  </node>
  <node id="-866" visible="true" lat="43.61867108" lon="-72.55439149">
    <tag k="addr:city" v="Woodstock"/>
    <tag k="addr:housenumber" v="479"/>
    <tag k="addr:street" v="Barberry Hill Road"/>
    <tag k="addr:state" v="VT"/>
    <tag k="ref:vcgi:esiteid" v="303371"/>
  </node>
  <node id="-867" visible="true" lat="43.61873662" lon="-72.49658448">
    <tag k="addr:city" v="Woodstock"/>
    <tag k="addr:housenumber" v="159"/>
    <tag k="addr:street" v="Laughlin Road"/>
    <tag k="addr:state" v="VT"/>
    <tag k="ref:vcgi:esiteid" v="303372"/>
  </node>
  <node id="-868" visible="true" lat="43.61856193" lon="-72.55115443">
    <tag k="addr:city" v="Woodstock"/>
    <tag k="addr:housenumber" v="164"/>
    <tag k="addr:street" v="Juniper Way"/>
    <tag k="addr:state" v="VT"/>
    <tag k="ref:vcgi:esiteid" v="303374"/>
  </node>
  <node id="-873" visible="true" lat="43.61839871" lon="-72.4967202">
    <tag k="addr:city" v="Woodstock"/>
    <tag k="addr:housenumber" v="137"/>
    <tag k="addr:street" v="Laughlin Road"/>
    <tag k="addr:state" v="VT"/>
    <tag k="ref:vcgi:esiteid" v="303379"/>
  </node>
  <node id="-879" visible="true" lat="43.61819597" lon="-72.49934963">
    <tag k="addr:city" v="Woodstock"/>
    <tag k="addr:housenumber" v="3695"/>
    <tag k="addr:street" v="Hartland Hill Road"/>
    <tag k="addr:state" v="VT"/>
    <tag k="ref:vcgi:esiteid" v="303386"/>
  </node>
  <node id="-882" visible="true" lat="43.6181856" lon="-72.54916584">
    <tag k="addr:city" v="Woodstock"/>
    <tag k="addr:housenumber" v="60"/>
    <tag k="addr:street" v="Juniper Way"/>
    <tag k="addr:state" v="VT"/>
    <tag k="ref:vcgi:esiteid" v="303389"/>
  </node>
  <node id="-885" visible="true" lat="43.61810647" lon="-72.55043773">
    <tag k="addr:city" v="Woodstock"/>
    <tag k="addr:housenumber" v="122"/>
    <tag k="addr:street" v="Juniper Way"/>
    <tag k="addr:state" v="VT"/>
    <tag k="ref:vcgi:esiteid" v="303392"/>
  </node>
  <node id="-888" visible="true" lat="43.61800725" lon="-72.49583374">
    <tag k="addr:city" v="Woodstock"/>
    <tag k="addr:housenumber" v="162"/>
    <tag k="addr:street" v="Laughlin Road"/>
    <tag k="addr:state" v="VT"/>
    <tag k="ref:vcgi:esiteid" v="303395"/>
  </node>
  <node id="-893" visible="true" lat="43.61787097" lon="-72.54896422">
    <tag k="addr:city" v="Woodstock"/>
    <tag k="addr:housenumber" v="58"/>
    <tag k="addr:street" v="Juniper Way"/>
    <tag k="addr:state" v="VT"/>
    <tag k="ref:vcgi:esiteid" v="303401"/>
  </node>
  <node id="-895" visible="true" lat="43.61769637" lon="-72.5528627">
    <tag k="addr:city" v="Woodstock"/>
    <tag k="addr:housenumber" v="462"/>
    <tag k="addr:street" v="Barberry Hill Road"/>
    <tag k="addr:state" v="VT"/>
    <tag k="ref:vcgi:esiteid" v="303403"/>
  </node>
  <node id="-899" visible="true" lat="43.61775636" lon="-72.54041489">
    <tag k="addr:city" v="Woodstock"/>
    <tag k="addr:housenumber" v="906"/>
    <tag k="addr:street" v="West Woodstock Road"/>
    <tag k="addr:state" v="VT"/>
    <tag k="ref:vcgi:esiteid" v="303407"/>
  </node>
  <node id="-902" visible="true" lat="43.61779743" lon="-72.55179301">
    <tag k="addr:city" v="Woodstock"/>
    <tag k="addr:housenumber" v="115"/>
    <tag k="addr:street" v="Buds Way"/>
    <tag k="addr:state" v="VT"/>
    <tag k="ref:vcgi:esiteid" v="303411"/>
  </node>
  <node id="-906" visible="true" lat="43.6175345" lon="-72.54655856">
    <tag k="addr:city" v="Woodstock"/>
    <tag k="addr:housenumber" v="113"/>
    <tag k="addr:street" v="Prosper Road"/>
    <tag k="addr:state" v="VT"/>
    <tag k="ref:vcgi:esiteid" v="303415"/>
  </node>
  <node id="-913" visible="true" lat="43.61730443" lon="-72.53974556">
    <tag k="addr:city" v="Woodstock"/>
    <tag k="addr:housenumber" v="863"/>
    <tag k="addr:street" v="West Woodstock Road"/>
    <tag k="addr:state" v="VT"/>
    <tag k="ref:vcgi:esiteid" v="303423"/>
  </node>
  <node id="-916" visible="true" lat="43.61726185" lon="-72.55100549">
    <tag k="addr:city" v="Woodstock"/>
    <tag k="addr:housenumber" v="82"/>
    <tag k="addr:street" v="Buds Way"/>
    <tag k="addr:state" v="VT"/>
    <tag k="ref:vcgi:esiteid" v="303426"/>
  </node>
  <node id="-918" visible="true" lat="43.61736242" lon="-72.55443654">
    <tag k="addr:city" v="Woodstock"/>
    <tag k="addr:housenumber" v="28"/>
    <tag k="addr:street" v="Davry Way"/>
    <tag k="addr:state" v="VT"/>
    <tag k="ref:vcgi:esiteid" v="303428"/>
  </node>
  <node id="-920" visible="true" lat="43.61703211" lon="-72.49648303">
    <tag k="addr:city" v="Woodstock"/>
    <tag k="addr:housenumber" v="100"/>
    <tag k="addr:street" v="Laughlin Road"/>
    <tag k="addr:state" v="VT"/>
    <tag k="ref:vcgi:esiteid" v="303430"/>
  </node>
  <node id="-922" visible="true" lat="43.61705937" lon="-72.5406272">
    <tag k="addr:city" v="Woodstock"/>
    <tag k="addr:housenumber" v="909"/>
    <tag k="addr:street" v="West Woodstock Road"/>
    <tag k="addr:state" v="VT"/>
    <tag k="ref:vcgi:esiteid" v="303432"/>
  </node>
  <node id="-923" visible="true" lat="43.61719902" lon="-72.55330189">
    <tag k="addr:city" v="Woodstock"/>
    <tag k="addr:housenumber" v="384"/>
    <tag k="addr:street" v="Barberry Hill Road"/>
    <tag k="addr:state" v="VT"/>
    <tag k="ref:vcgi:esiteid" v="303433"/>
  </node>
  <node id="-924" visible="true" lat="43.61701211" lon="-72.5515415">
    <tag k="addr:city" v="Woodstock"/>
    <tag k="addr:housenumber" v="65"/>
    <tag k="addr:street" v="Buds Way"/>
    <tag k="addr:state" v="VT"/>
    <tag k="ref:vcgi:esiteid" v="303434"/>
  </node>
  <node id="-925" visible="true" lat="43.61704331" lon="-72.54919642">
    <tag k="addr:city" v="Woodstock"/>
    <tag k="addr:housenumber" v="115"/>
    <tag k="addr:street" v="Barberry Circle"/>
    <tag k="addr:state" v="VT"/>
    <tag k="ref:vcgi:esiteid" v="303435"/>
  </node>
  <node id="-927" visible="true" lat="43.61685537" lon="-72.5505012">
    <tag k="addr:city" v="Woodstock"/>
    <tag k="addr:housenumber" v="91"/>
    <tag k="addr:street" v="Barberry Circle"/>
    <tag k="addr:state" v="VT"/>
    <tag k="ref:vcgi:esiteid" v="303437"/>
  </node>
  <node id="-928" visible="true" lat="43.61682794" lon="-72.54855027">
    <tag k="addr:city" v="Woodstock"/>
    <tag k="addr:housenumber" v="129"/>
    <tag k="addr:street" v="Barberry Circle"/>
    <tag k="addr:state" v="VT"/>
    <tag k="ref:vcgi:esiteid" v="303438"/>
  </node>
  <node id="-931" visible="true" lat="43.61672509" lon="-72.54203654">
    <tag k="addr:city" v="Woodstock"/>
    <tag k="addr:housenumber" v="979"/>
    <tag k="addr:street" v="West Woodstock Road"/>
    <tag k="addr:state" v="VT"/>
    <tag k="ref:vcgi:esiteid" v="303442"/>
  </node>
  <node id="-942" visible="true" lat="43.61653873" lon="-72.55168632">
    <tag k="addr:city" v="Woodstock"/>
    <tag k="addr:housenumber" v="294"/>
    <tag k="addr:street" v="Barberry Hill Road"/>
    <tag k="addr:state" v="VT"/>
    <tag k="ref:vcgi:esiteid" v="303454"/>
  </node>
  <node id="-943" visible="true" lat="43.61650611" lon="-72.55307366">
    <tag k="addr:city" v="Woodstock"/>
    <tag k="addr:housenumber" v="395"/>
    <tag k="addr:street" v="Barberry Hill Road"/>
    <tag k="addr:state" v="VT"/>
    <tag k="ref:vcgi:esiteid" v="303455"/>
  </node>
  <node id="-946" visible="true" lat="43.61639167" lon="-72.48871156">
    <tag k="addr:city" v="Woodstock"/>
    <tag k="addr:housenumber" v="1532"/>
    <tag k="addr:street" v="Happy Valley Road"/>
    <tag k="addr:state" v="VT"/>
    <tag k="ref:vcgi:esiteid" v="303458"/>
  </node>
  <node id="-952" visible="true" lat="43.61627711" lon="-72.55504595">
    <tag k="addr:city" v="Woodstock"/>
    <tag k="addr:housenumber" v="93"/>
    <tag k="addr:street" v="Davry Way"/>
    <tag k="addr:state" v="VT"/>
    <tag k="ref:vcgi:esiteid" v="303464"/>
  </node>
  <node id="-977" visible="true" lat="43.61565017" lon="-72.4972479">
    <tag k="addr:city" v="Woodstock"/>
    <tag k="addr:housenumber" v="3480"/>
    <tag k="addr:street" v="Hartland Hill Road"/>
    <tag k="addr:state" v="VT"/>
    <tag k="ref:vcgi:esiteid" v="303490"/>
  </node>
  <node id="-982" visible="true" lat="43.61552946" lon="-72.55215369">
    <tag k="addr:city" v="Woodstock"/>
    <tag k="addr:housenumber" v="57"/>
    <tag k="addr:street" v="Townhouse Way"/>
    <tag k="addr:state" v="VT"/>
    <tag k="ref:vcgi:esiteid" v="303497"/>
  </node>
  <node id="-1002" visible="true" lat="43.61488878" lon="-72.55509407">
    <tag k="addr:city" v="Woodstock"/>
    <tag k="addr:housenumber" v="159"/>
    <tag k="addr:street" v="Doten Drive"/>
    <tag k="addr:state" v="VT"/>
    <tag k="ref:vcgi:esiteid" v="303519"/>
  </node>
  <node id="-1004" visible="true" lat="43.61503008" lon="-72.55595985">
    <tag k="addr:city" v="Woodstock"/>
    <tag k="addr:housenumber" v="201"/>
    <tag k="addr:street" v="Doten Drive"/>
    <tag k="addr:state" v="VT"/>
    <tag k="ref:vcgi:esiteid" v="303521"/>
  </node>
  <node id="-1018" visible="true" lat="43.61423107" lon="-72.48867613">
    <tag k="addr:city" v="Woodstock"/>
    <tag k="addr:housenumber" v="1638"/>
    <tag k="addr:street" v="Happy Valley Road"/>
    <tag k="addr:state" v="VT"/>
    <tag k="ref:vcgi:esiteid" v="303539"/>
  </node>
  <node id="-1067" visible="true" lat="43.61110687" lon="-72.49594879">
    <tag k="addr:city" v="Woodstock"/>
    <tag k="addr:housenumber" v="3371"/>
    <tag k="addr:street" v="Garvin Hill Road"/>
    <tag k="addr:state" v="VT"/>
    <tag k="ref:vcgi:esiteid" v="303595"/>
  </node>
  <node id="-1070" visible="true" lat="43.61091873" lon="-72.48918397">
    <tag k="addr:city" v="Woodstock"/>
    <tag k="addr:housenumber" v="2876"/>
    <tag k="addr:street" v="Hartland Hill Road"/>
    <tag k="addr:state" v="VT"/>
    <tag k="ref:vcgi:esiteid" v="303598"/>
  </node>
  <node id="-1071" visible="true" lat="43.61084292" lon="-72.49336743">
    <tag k="addr:city" v="Woodstock"/>
    <tag k="addr:housenumber" v="3101"/>
    <tag k="addr:street" v="Hartland Hill Road"/>
    <tag k="addr:state" v="VT"/>
    <tag k="ref:vcgi:esiteid" v="303599"/>
  </node>
  <node id="-1081" visible="true" lat="43.60999794" lon="-72.48694169">
    <tag k="addr:city" v="Woodstock"/>
    <tag k="addr:housenumber" v="2762"/>
    <tag k="addr:street" v="Hartland Hill Road"/>
    <tag k="addr:state" v="VT"/>
    <tag k="ref:vcgi:esiteid" v="303609"/>
  </node>
  <node id="-1114" visible="true" lat="43.60732166" lon="-72.60526798">
    <tag k="addr:city" v="Woodstock"/>
    <tag k="addr:housenumber" v="965"/>
    <tag k="addr:street" v="Deer Brook Way"/>
    <tag k="addr:state" v="VT"/>
    <tag k="ref:vcgi:esiteid" v="303644"/>
  </node>
  <node id="-1115" visible="true" lat="43.60721509" lon="-72.55283194">
    <tag k="addr:city" v="Woodstock"/>
    <tag k="addr:housenumber" v="1837"/>
    <tag k="addr:street" v="West Woodstock Road"/>
    <tag k="addr:state" v="VT"/>
    <tag k="ref:vcgi:esiteid" v="303645"/>
  </node>
  <node id="-1126" visible="true" lat="43.60601011" lon="-72.49160191">
    <tag k="addr:city" v="Woodstock"/>
    <tag k="addr:housenumber" v="2872"/>
    <tag k="addr:street" v="Garvin Hill Road"/>
    <tag k="addr:state" v="VT"/>
    <tag k="ref:vcgi:esiteid" v="303656"/>
  </node>
  <node id="-1144" visible="true" lat="43.60511179" lon="-72.49261688">
    <tag k="addr:city" v="Woodstock"/>
    <tag k="addr:housenumber" v="2868"/>
    <tag k="addr:street" v="Garvin Hill Road"/>
    <tag k="addr:state" v="VT"/>
    <tag k="ref:vcgi:esiteid" v="303674"/>
  </node>
  <node id="-1188" visible="true" lat="43.60290912" lon="-72.60550874">
    <tag k="addr:city" v="Woodstock"/>
    <tag k="addr:housenumber" v="661"/>
    <tag k="addr:street" v="Deer Brook Way"/>
    <tag k="addr:state" v="VT"/>
    <tag k="ref:vcgi:esiteid" v="303719"/>
  </node>
  <node id="-1202" visible="true" lat="43.60215523" lon="-72.49138499">
    <tag k="addr:city" v="Woodstock"/>
    <tag k="addr:housenumber" v="2687"/>
    <tag k="addr:street" v="Garvin Hill Road"/>
    <tag k="addr:state" v="VT"/>
    <tag k="ref:vcgi:esiteid" v="303737"/>
  </node>
  <node id="-1223" visible="true" lat="43.60072896" lon="-72.60375535">
    <tag k="addr:city" v="Woodstock"/>
    <tag k="addr:housenumber" v="513"/>
    <tag k="addr:street" v="Deer Brook Way"/>
    <tag k="addr:state" v="VT"/>
    <tag k="ref:vcgi:esiteid" v="303762"/>
  </node>
  <node id="-1250" visible="true" lat="43.59882251" lon="-72.59761064">
    <tag k="addr:city" v="Woodstock"/>
    <tag k="addr:housenumber" v="4324"/>
    <tag k="addr:street" v="West Woodstock Road"/>
    <tag k="addr:state" v="VT"/>
    <tag k="ref:vcgi:esiteid" v="303789"/>
  </node>
  <node id="-1257" visible="true" lat="43.59815337" lon="-72.61200865">
    <tag k="addr:city" v="Woodstock"/>
    <tag k="addr:housenumber" v="186"/>
    <tag k="addr:street" v="Echo Ledge Road"/>
    <tag k="addr:state" v="VT"/>
    <tag k="ref:vcgi:esiteid" v="303796"/>
  </node>
  <node id="-1269" visible="true" lat="43.59712545" lon="-72.49208636">
    <tag k="addr:city" v="Woodstock"/>
    <tag k="addr:housenumber" v="1617"/>
    <tag k="addr:street" v="Dunham Hill Road"/>
    <tag k="addr:state" v="VT"/>
    <tag k="ref:vcgi:esiteid" v="303808"/>
  </node>
  <node id="-1282" visible="true" lat="43.59560929" lon="-72.60687946">
    <tag k="addr:city" v="Woodstock"/>
    <tag k="addr:housenumber" v="148"/>
    <tag k="addr:street" v="Echo Ledge Road"/>
    <tag k="addr:state" v="VT"/>
    <tag k="ref:vcgi:esiteid" v="303822"/>
  </node>
  <node id="-1287" visible="true" lat="43.59463882" lon="-72.61094665">
    <tag k="addr:city" v="Woodstock"/>
    <tag k="addr:housenumber" v="217"/>
    <tag k="addr:street" v="Echo Ledge Road"/>
    <tag k="addr:state" v="VT"/>
    <tag k="ref:vcgi:esiteid" v="303828"/>
  </node>
  <node id="-1294" visible="true" lat="43.59339444" lon="-72.49933894">
    <tag k="addr:city" v="Woodstock"/>
    <tag k="addr:housenumber" v="1075"/>
    <tag k="addr:street" v="Dunham Hill Road"/>
    <tag k="addr:state" v="VT"/>
    <tag k="ref:vcgi:esiteid" v="303836"/>
  </node>
  <node id="-1296" visible="true" lat="43.59239813" lon="-72.49551217">
    <tag k="addr:city" v="Woodstock"/>
    <tag k="addr:housenumber" v="1274"/>
    <tag k="addr:street" v="Dunham Hill Road"/>
    <tag k="addr:state" v="VT"/>
    <tag k="ref:vcgi:esiteid" v="303838"/>
  </node>
  <node id="-1309" visible="true" lat="43.59135923" lon="-72.50321137">
    <tag k="addr:city" v="Woodstock"/>
    <tag k="addr:housenumber" v="1040"/>
    <tag k="addr:street" v="Dunham Hill Road"/>
    <tag k="addr:state" v="VT"/>
    <tag k="ref:vcgi:esiteid" v="303851"/>
  </node>
  <node id="-1322" visible="true" lat="43.59024118" lon="-72.60983438">
    <tag k="addr:city" v="Woodstock"/>
    <tag k="addr:housenumber" v="5250"/>
    <tag k="addr:street" v="West Woodstock Road"/>
    <tag k="addr:state" v="VT"/>
    <tag k="ref:vcgi:esiteid" v="303865"/>
  </node>
  <node id="-1326" visible="true" lat="43.5899132" lon="-72.61073972">
    <tag k="addr:city" v="Woodstock"/>
    <tag k="addr:housenumber" v="5274"/>
    <tag k="addr:street" v="West Woodstock Road"/>
    <tag k="addr:state" v="VT"/>
    <tag k="ref:vcgi:esiteid" v="303869"/>
  </node>
  <node id="-1335" visible="true" lat="43.58927377" lon="-72.61288109">
    <tag k="addr:city" v="Woodstock"/>
    <tag k="addr:housenumber" v="118"/>
    <tag k="addr:street" v="Westmont Way"/>
    <tag k="addr:state" v="VT"/>
    <tag k="ref:vcgi:esiteid" v="303879"/>
  </node>
  <node id="-1339" visible="true" lat="43.58870436" lon="-72.61365205">
    <tag k="addr:city" v="Woodstock"/>
    <tag k="addr:housenumber" v="88"/>
    <tag k="addr:street" v="Westmont Way"/>
    <tag k="addr:state" v="VT"/>
    <tag k="ref:vcgi:esiteid" v="303884"/>
  </node>
  <node id="-1343" visible="true" lat="43.58856259" lon="-72.61196902">
    <tag k="addr:city" v="Woodstock"/>
    <tag k="addr:housenumber" v="5394"/>
    <tag k="addr:street" v="West Woodstock Road"/>
    <tag k="addr:state" v="VT"/>
    <tag k="ref:vcgi:esiteid" v="303888"/>
  </node>
  <node id="-1344" visible="true" lat="43.58842819" lon="-72.61479463">
    <tag k="addr:city" v="Woodstock"/>
    <tag k="addr:housenumber" v="101"/>
    <tag k="addr:street" v="Westmont Way"/>
    <tag k="addr:state" v="VT"/>
    <tag k="ref:vcgi:esiteid" v="303889"/>
  </node>
  <node id="-1345" visible="true" lat="43.58833534" lon="-72.50185174">
    <tag k="addr:city" v="Woodstock"/>
    <tag k="addr:housenumber" v="302"/>
    <tag k="addr:street" v="The Lane"/>
    <tag k="addr:state" v="VT"/>
    <tag k="ref:vcgi:esiteid" v="303890"/>
  </node>
  <node id="-1349" visible="true" lat="43.58739852" lon="-72.50180053">
    <tag k="addr:city" v="Woodstock"/>
    <tag k="addr:housenumber" v="362"/>
    <tag k="addr:street" v="Catamount Lane"/>
    <tag k="addr:state" v="VT"/>
    <tag k="ref:vcgi:esiteid" v="303894"/>
  </node>
  <node id="-1351" visible="true" lat="43.58720466" lon="-72.61992242">
    <tag k="addr:city" v="Woodstock"/>
    <tag k="addr:housenumber" v="5890"/>
    <tag k="addr:street" v="West Woodstock Road"/>
    <tag k="addr:state" v="VT"/>
    <tag k="ref:vcgi:esiteid" v="303896"/>
  </node>
  <node id="-1353" visible="true" lat="43.58706916" lon="-72.61788512">
    <tag k="addr:city" v="Woodstock"/>
    <tag k="addr:housenumber" v="5746"/>
    <tag k="addr:street" v="West Woodstock Road"/>
    <tag k="addr:state" v="VT"/>
    <tag k="ref:vcgi:esiteid" v="303898"/>
  </node>
  <node id="-1354" visible="true" lat="43.587265" lon="-72.61420874">
    <tag k="addr:city" v="Woodstock"/>
    <tag k="addr:housenumber" v="5556"/>
    <tag k="addr:street" v="West Woodstock Road"/>
    <tag k="addr:state" v="VT"/>
    <tag k="ref:vcgi:esiteid" v="303899"/>
  </node>
  <node id="-1355" visible="true" lat="43.58706283" lon="-72.6194992">
    <tag k="addr:city" v="Woodstock"/>
    <tag k="addr:housenumber" v="5866"/>
    <tag k="addr:street" v="West Woodstock Road"/>
    <tag k="addr:state" v="VT"/>
    <tag k="ref:vcgi:esiteid" v="303900"/>
  </node>
  <node id="-1357" visible="true" lat="43.58708943" lon="-72.61908608">
    <tag k="addr:city" v="Woodstock"/>
    <tag k="addr:housenumber" v="5848"/>
    <tag k="addr:street" v="West Woodstock Road"/>
    <tag k="addr:state" v="VT"/>
    <tag k="ref:vcgi:esiteid" v="303902"/>
  </node>
  <node id="-1358" visible="true" lat="43.5868235" lon="-72.61453198">
    <tag k="addr:city" v="Woodstock"/>
    <tag k="addr:housenumber" v="5570"/>
    <tag k="addr:street" v="West Woodstock Road"/>
    <tag k="addr:state" v="VT"/>
    <tag k="ref:vcgi:esiteid" v="303903"/>
  </node>
  <node id="-1359" visible="true" lat="43.5869405" lon="-72.61881939">
    <tag k="addr:city" v="Woodstock"/>
    <tag k="addr:housenumber" v="5832"/>
    <tag k="addr:street" v="West Woodstock Road"/>
    <tag k="addr:state" v="VT"/>
    <tag k="ref:vcgi:esiteid" v="303904"/>
  </node>
  <node id="-1360" visible="true" lat="43.58690628" lon="-72.62035551">
    <tag k="addr:city" v="Woodstock"/>
    <tag k="addr:housenumber" v="102"/>
    <tag k="addr:street" v="Woolen Mill Drive"/>
    <tag k="addr:state" v="VT"/>
    <tag k="ref:vcgi:esiteid" v="303905"/>
  </node>
  <node id="-1361" visible="true" lat="43.58668926" lon="-72.50196075">
    <tag k="addr:city" v="Woodstock"/>
    <tag k="addr:housenumber" v="370"/>
    <tag k="addr:street" v="Catamount Lane"/>
    <tag k="addr:state" v="VT"/>
    <tag k="ref:vcgi:esiteid" v="303906"/>
  </node>
  <node id="-1362" visible="true" lat="43.58653091" lon="-72.61816041">
    <tag k="addr:city" v="Woodstock"/>
    <tag k="addr:housenumber" v="5798"/>
    <tag k="addr:street" v="West Woodstock Road"/>
    <tag k="addr:state" v="VT"/>
    <tag k="ref:vcgi:esiteid" v="303907"/>
  </node>
  <node id="-1364" visible="true" lat="43.58656569" lon="-72.61499544">
    <tag k="addr:city" v="Woodstock"/>
    <tag k="addr:housenumber" v="5608"/>
    <tag k="addr:street" v="West Woodstock Road"/>
    <tag k="addr:state" v="VT"/>
    <tag k="ref:vcgi:esiteid" v="303909"/>
  </node>
  <node id="-1365" visible="true" lat="43.58624601" lon="-72.61618644">
    <tag k="addr:city" v="Woodstock"/>
    <tag k="addr:housenumber" v="5698"/>
    <tag k="addr:street" v="West Woodstock Road"/>
    <tag k="addr:state" v="VT"/>
    <tag k="ref:vcgi:esiteid" v="303910"/>
  </node>
  <node id="-1368" visible="true" lat="43.58606075" lon="-72.61782304">
    <tag k="addr:city" v="Woodstock"/>
    <tag k="addr:housenumber" v="5763"/>
    <tag k="addr:street" v="West Woodstock Road"/>
    <tag k="addr:state" v="VT"/>
    <tag k="ref:vcgi:esiteid" v="303913"/>
  </node>
  <node id="-1371" visible="true" lat="43.58593693" lon="-72.61710657">
    <tag k="addr:city" v="Woodstock"/>
    <tag k="addr:housenumber" v="5727"/>
    <tag k="addr:street" v="West Woodstock Road"/>
    <tag k="addr:state" v="VT"/>
    <tag k="ref:vcgi:esiteid" v="303916"/>
  </node>
  <node id="-1372" visible="true" lat="43.58587683" lon="-72.61688613">
    <tag k="addr:city" v="Woodstock"/>
    <tag k="addr:housenumber" v="5713"/>
    <tag k="addr:street" v="West Woodstock Road"/>
    <tag k="addr:state" v="VT"/>
    <tag k="ref:vcgi:esiteid" v="303917"/>
  </node>
  <node id="-1373" visible="true" lat="43.58581442" lon="-72.61659484">
    <tag k="addr:city" v="Woodstock"/>
    <tag k="addr:housenumber" v="5699"/>
    <tag k="addr:street" v="West Woodstock Road"/>
    <tag k="addr:state" v="VT"/>
    <tag k="ref:vcgi:esiteid" v="303918"/>
  </node>
  <node id="-1383" visible="true" lat="43.58434295" lon="-72.61693572">
    <tag k="addr:city" v="Woodstock"/>
    <tag k="addr:housenumber" v="48"/>
    <tag k="addr:street" v="Larry Curtis Road"/>
    <tag k="addr:state" v="VT"/>
    <tag k="ref:vcgi:esiteid" v="303931"/>
  </node>
  <node id="-1386" visible="true" lat="43.58414254" lon="-72.61558488">
    <tag k="addr:city" v="Woodstock"/>
    <tag k="addr:housenumber" v="96"/>
    <tag k="addr:street" v="Larry Curtis Road"/>
    <tag k="addr:state" v="VT"/>
    <tag k="ref:vcgi:esiteid" v="303934"/>
  </node>
  <node id="-1388" visible="true" lat="43.58339188" lon="-72.61703735">
    <tag k="addr:city" v="Woodstock"/>
    <tag k="addr:housenumber" v="425"/>
    <tag k="addr:street" v="Curtis Hollow Road"/>
    <tag k="addr:state" v="VT"/>
    <tag k="ref:vcgi:esiteid" v="303936"/>
  </node>
  <node id="-1399" visible="true" lat="43.58187866" lon="-72.61717224">
    <tag k="addr:city" v="Woodstock"/>
    <tag k="addr:housenumber" v="526"/>
    <tag k="addr:street" v="Curtis Hollow Road"/>
    <tag k="addr:state" v="VT"/>
    <tag k="ref:vcgi:esiteid" v="303947"/>
  </node>
  <node id="-1404" visible="true" lat="43.58145735" lon="-72.50215566">
    <tag k="addr:city" v="Woodstock"/>
    <tag k="addr:housenumber" v="246"/>
    <tag k="addr:street" v="Stone Bridge Way"/>
    <tag k="addr:state" v="VT"/>
    <tag k="ref:vcgi:esiteid" v="303952"/>
  </node>
  <node id="-1410" visible="true" lat="43.58122445" lon="-72.50950015">
    <tag k="addr:city" v="Woodstock"/>
    <tag k="addr:housenumber" v="3752"/>
    <tag k="addr:street" v="Densmore Hill Road"/>
    <tag k="addr:state" v="VT"/>
    <tag k="ref:vcgi:esiteid" v="303958"/>
  </node>
  <node id="-1411" visible="true" lat="43.58112048" lon="-72.61757057">
    <tag k="addr:city" v="Woodstock"/>
    <tag k="addr:housenumber" v="602"/>
    <tag k="addr:street" v="Curtis Hollow Road"/>
    <tag k="addr:state" v="VT"/>
    <tag k="ref:vcgi:esiteid" v="303959"/>
  </node>
  <node id="-1412" visible="true" lat="43.58062776" lon="-72.5034194">
    <tag k="addr:city" v="Woodstock"/>
    <tag k="addr:housenumber" v="86"/>
    <tag k="addr:street" v="Stone Bridge Way"/>
    <tag k="addr:state" v="VT"/>
    <tag k="ref:vcgi:esiteid" v="303961"/>
  </node>
  <node id="-1421" visible="true" lat="43.57932349" lon="-72.61821623">
    <tag k="addr:city" v="Woodstock"/>
    <tag k="addr:housenumber" v="734"/>
    <tag k="addr:street" v="Curtis Hollow Road"/>
    <tag k="addr:state" v="VT"/>
    <tag k="ref:vcgi:esiteid" v="303970"/>
  </node>
  <node id="-1424" visible="true" lat="43.57920806" lon="-72.50351197">
    <tag k="addr:city" v="Woodstock"/>
    <tag k="addr:housenumber" v="3428"/>
    <tag k="addr:street" v="Densmore Hill Road"/>
    <tag k="addr:state" v="VT"/>
    <tag k="ref:vcgi:esiteid" v="303973"/>
  </node>
  <node id="-1427" visible="true" lat="43.57864806" lon="-72.61881062">
    <tag k="addr:city" v="Woodstock"/>
    <tag k="addr:housenumber" v="778"/>
    <tag k="addr:street" v="Curtis Hollow Road"/>
    <tag k="addr:state" v="VT"/>
    <tag k="ref:vcgi:esiteid" v="303976"/>
  </node>
  <node id="-1429" visible="true" lat="43.57831263" lon="-72.51537037">
    <tag k="addr:city" v="Woodstock"/>
    <tag k="addr:housenumber" v="3256"/>
    <tag k="addr:street" v="South Road"/>
    <tag k="addr:state" v="VT"/>
    <tag k="ref:vcgi:esiteid" v="303978"/>
  </node>
  <node id="-1430" visible="true" lat="43.57831954" lon="-72.51483154">
    <tag k="addr:city" v="Woodstock"/>
    <tag k="addr:housenumber" v="3271"/>
    <tag k="addr:street" v="South Road"/>
    <tag k="addr:state" v="VT"/>
    <tag k="ref:vcgi:esiteid" v="303979"/>
  </node>
  <node id="-1432" visible="true" lat="43.5778159" lon="-72.51459862">
    <tag k="addr:city" v="Woodstock"/>
    <tag k="addr:housenumber" v="3305"/>
    <tag k="addr:street" v="South Road"/>
    <tag k="addr:state" v="VT"/>
    <tag k="ref:vcgi:esiteid" v="303982"/>
  </node>
  <node id="-1433" visible="true" lat="43.57776102" lon="-72.51407639">
    <tag k="addr:city" v="Woodstock"/>
    <tag k="addr:housenumber" v="35"/>
    <tag k="addr:street" v="Folding Hills Road"/>
    <tag k="addr:state" v="VT"/>
    <tag k="ref:vcgi:esiteid" v="303983"/>
  </node>
  <node id="-1437" visible="true" lat="43.576079" lon="-72.51539197">
    <tag k="addr:city" v="Woodstock"/>
    <tag k="addr:housenumber" v="3438"/>
    <tag k="addr:street" v="South Road"/>
    <tag k="addr:state" v="VT"/>
    <tag k="ref:vcgi:esiteid" v="303987"/>
  </node>
  <node id="-1440" visible="true" lat="43.57555745" lon="-72.51576249">
    <tag k="addr:city" v="Woodstock"/>
    <tag k="addr:housenumber" v="3466"/>
    <tag k="addr:street" v="South Road"/>
    <tag k="addr:state" v="VT"/>
    <tag k="ref:vcgi:esiteid" v="303990"/>
  </node>
  <node id="-1449" visible="true" lat="43.57384165" lon="-72.51764536">
    <tag k="addr:city" v="Woodstock"/>
    <tag k="addr:housenumber" v="3618"/>
    <tag k="addr:street" v="South Road"/>
    <tag k="addr:state" v="VT"/>
    <tag k="ref:vcgi:esiteid" v="303999"/>
  </node>
  <node id="-1450" visible="true" lat="43.57350068" lon="-72.62031729">
    <tag k="addr:city" v="Woodstock"/>
    <tag k="addr:housenumber" v="1167"/>
    <tag k="addr:street" v="Curtis Hollow Road"/>
    <tag k="addr:state" v="VT"/>
    <tag k="ref:vcgi:esiteid" v="304000"/>
  </node>
  <node id="-1452" visible="true" lat="43.57306672" lon="-72.6199502">
    <tag k="addr:city" v="Woodstock"/>
    <tag k="addr:housenumber" v="1191"/>
    <tag k="addr:street" v="Curtis Hollow Road"/>
    <tag k="addr:state" v="VT"/>
    <tag k="ref:vcgi:esiteid" v="304002"/>
  </node>
  <node id="-1455" visible="true" lat="43.57252069" lon="-72.62183101">
    <tag k="addr:city" v="Woodstock"/>
    <tag k="addr:housenumber" v="1122"/>
    <tag k="addr:street" v="Curtis Hollow Road"/>
    <tag k="addr:state" v="VT"/>
    <tag k="ref:vcgi:esiteid" v="304005"/>
  </node>
  <node id="-1460" visible="true" lat="43.57164327" lon="-72.51369425">
    <tag k="addr:city" v="Woodstock"/>
    <tag k="addr:housenumber" v="401"/>
    <tag k="addr:street" v="Folding Hills Road"/>
    <tag k="addr:state" v="VT"/>
    <tag k="ref:vcgi:esiteid" v="304011"/>
  </node>
  <node id="-1461" visible="true" lat="43.57117462" lon="-72.62126159">
    <tag k="addr:city" v="Woodstock"/>
    <tag k="addr:housenumber" v="1326"/>
    <tag k="addr:street" v="Curtis Hollow Road"/>
    <tag k="addr:state" v="VT"/>
    <tag k="ref:vcgi:esiteid" v="304012"/>
  </node>
  <node id="-1463" visible="true" lat="43.57090457" lon="-72.51605196">
    <tag k="addr:city" v="Woodstock"/>
    <tag k="addr:housenumber" v="3811"/>
    <tag k="addr:street" v="South Road"/>
    <tag k="addr:state" v="VT"/>
    <tag k="ref:vcgi:esiteid" v="304014"/>
  </node>
  <node id="-1464" visible="true" lat="43.57055529" lon="-72.51944439">
    <tag k="addr:city" v="Woodstock"/>
    <tag k="addr:housenumber" v="3914"/>
    <tag k="addr:street" v="South Road"/>
    <tag k="addr:state" v="VT"/>
    <tag k="ref:vcgi:esiteid" v="304015"/>
  </node>
  <node id="-1466" visible="true" lat="43.56969777" lon="-72.52332178">
    <tag k="addr:city" v="Woodstock"/>
    <tag k="addr:housenumber" v="125"/>
    <tag k="addr:street" v="Hoadley Road"/>
    <tag k="addr:state" v="VT"/>
    <tag k="ref:vcgi:esiteid" v="304017"/>
  </node>
  <node id="-1467" visible="true" lat="43.56940699" lon="-72.57959631">
    <tag k="addr:city" v="Woodstock"/>
    <tag k="addr:housenumber" v="2002"/>
    <tag k="addr:street" v="Long Hill Road"/>
    <tag k="addr:state" v="VT"/>
    <tag k="ref:vcgi:esiteid" v="304018"/>
  </node>
  <node id="-1469" visible="true" lat="43.56896213" lon="-72.51150574">
    <tag k="addr:city" v="Woodstock"/>
    <tag k="addr:housenumber" v="634"/>
    <tag k="addr:street" v="Folding Hills Road"/>
    <tag k="addr:state" v="VT"/>
    <tag k="ref:vcgi:esiteid" v="304020"/>
  </node>
  <node id="-1473" visible="true" lat="43.56848202" lon="-72.5774263">
    <tag k="addr:city" v="Woodstock"/>
    <tag k="addr:housenumber" v="1862"/>
    <tag k="addr:street" v="Long Hill Road"/>
    <tag k="addr:state" v="VT"/>
    <tag k="ref:vcgi:esiteid" v="304024"/>
  </node>
  <node id="-1474" visible="true" lat="43.56840199" lon="-72.52423536">
    <tag k="addr:city" v="Woodstock"/>
    <tag k="addr:housenumber" v="473"/>
    <tag k="addr:street" v="Kendall Road"/>
    <tag k="addr:state" v="VT"/>
    <tag k="ref:vcgi:esiteid" v="304025"/>
  </node>
  <node id="-1485" visible="true" lat="43.56790048" lon="-72.51547979">
    <tag k="addr:city" v="Woodstock"/>
    <tag k="addr:housenumber" v="453"/>
    <tag k="addr:street" v="Bryant Road"/>
    <tag k="addr:state" v="VT"/>
    <tag k="ref:vcgi:esiteid" v="304036"/>
  </node>
  <node id="-1486" visible="true" lat="43.56772556" lon="-72.52081867">
    <tag k="addr:city" v="Woodstock"/>
    <tag k="addr:housenumber" v="4109"/>
    <tag k="addr:street" v="South Road"/>
    <tag k="addr:state" v="VT"/>
    <tag k="ref:vcgi:esiteid" v="304037"/>
  </node>
  <node id="-1487" visible="true" lat="43.56741389" lon="-72.52240109">
    <tag k="addr:city" v="Woodstock"/>
    <tag k="addr:housenumber" v="588"/>
    <tag k="addr:street" v="Kendall Road"/>
    <tag k="addr:state" v="VT"/>
    <tag k="ref:vcgi:esiteid" v="304038"/>
  </node>
  <node id="-1489" visible="true" lat="43.56747071" lon="-72.62131239">
    <tag k="addr:city" v="Woodstock"/>
    <tag k="addr:housenumber" v="1614"/>
    <tag k="addr:street" v="Curtis Hollow Road"/>
    <tag k="addr:state" v="VT"/>
    <tag k="ref:vcgi:esiteid" v="304040"/>
  </node>
  <node id="-1495" visible="true" lat="43.56707424" lon="-72.51252178">
    <tag k="addr:city" v="Woodstock"/>
    <tag k="addr:housenumber" v="619"/>
    <tag k="addr:street" v="Bryant Road"/>
    <tag k="addr:state" v="VT"/>
    <tag k="ref:vcgi:esiteid" v="304047"/>
  </node>
  <node id="-1496" visible="true" lat="43.56701295" lon="-72.52602611">
    <tag k="addr:city" v="Woodstock"/>
    <tag k="addr:housenumber" v="4342"/>
    <tag k="addr:street" v="South Road"/>
    <tag k="addr:state" v="VT"/>
    <tag k="ref:vcgi:esiteid" v="304048"/>
  </node>
  <node id="-1497" visible="true" lat="43.56697041" lon="-72.51078496">
    <tag k="addr:city" v="Woodstock"/>
    <tag k="addr:housenumber" v="809"/>
    <tag k="addr:street" v="Folding Hills Road"/>
    <tag k="addr:state" v="VT"/>
    <tag k="ref:vcgi:esiteid" v="304049"/>
  </node>
  <node id="-1498" visible="true" lat="43.5668611" lon="-72.51170685">
    <tag k="addr:city" v="Woodstock"/>
    <tag k="addr:housenumber" v="665"/>
    <tag k="addr:street" v="Bryant Road"/>
    <tag k="addr:state" v="VT"/>
    <tag k="ref:vcgi:esiteid" v="304050"/>
  </node>
  <node id="-1500" visible="true" lat="43.5664418" lon="-72.62210473">
    <tag k="addr:city" v="Woodstock"/>
    <tag k="addr:housenumber" v="85"/>
    <tag k="addr:street" v="Prior Way"/>
    <tag k="addr:state" v="VT"/>
    <tag k="ref:vcgi:esiteid" v="304052"/>
  </node>
  <node id="-1501" visible="true" lat="43.5665836" lon="-72.62122587">
    <tag k="addr:city" v="Woodstock"/>
    <tag k="addr:housenumber" v="1682"/>
    <tag k="addr:street" v="Curtis Hollow Road"/>
    <tag k="addr:state" v="VT"/>
    <tag k="ref:vcgi:esiteid" v="304053"/>
  </node>
  <node id="-1503" visible="true" lat="43.5662227" lon="-72.57798732">
    <tag k="addr:city" v="Woodstock"/>
    <tag k="addr:housenumber" v="1747"/>
    <tag k="addr:street" v="Long Hill Road"/>
    <tag k="addr:state" v="VT"/>
    <tag k="ref:vcgi:esiteid" v="304055"/>
  </node>
  <node id="-1506" visible="true" lat="43.56593897" lon="-72.52544219">
    <tag k="addr:city" v="Woodstock"/>
    <tag k="addr:housenumber" v="4303"/>
    <tag k="addr:street" v="South Road"/>
    <tag k="addr:state" v="VT"/>
    <tag k="ref:vcgi:esiteid" v="304058"/>
  </node>
  <node id="-1508" visible="true" lat="43.56587376" lon="-72.62182144">
    <tag k="addr:city" v="Woodstock"/>
    <tag k="addr:housenumber" v="54"/>
    <tag k="addr:street" v="Mecawee Road"/>
    <tag k="addr:state" v="VT"/>
    <tag k="ref:vcgi:esiteid" v="304060"/>
  </node>
  <node id="-1510" visible="true" lat="43.56578118" lon="-72.50970541">
    <tag k="addr:city" v="Woodstock"/>
    <tag k="addr:housenumber" v="794"/>
    <tag k="addr:street" v="Bryant Road"/>
    <tag k="addr:state" v="VT"/>
    <tag k="ref:vcgi:esiteid" v="304062"/>
  </node>
  <node id="-1511" visible="true" lat="43.56575736" lon="-72.58514952">
    <tag k="addr:city" v="Woodstock"/>
    <tag k="addr:housenumber" v="187"/>
    <tag k="addr:street" v="Baldy Way"/>
    <tag k="addr:state" v="VT"/>
    <tag k="ref:vcgi:esiteid" v="304063"/>
  </node>
  <node id="-1514" visible="true" lat="43.56554412" lon="-72.62281799">
    <tag k="addr:city" v="Woodstock"/>
    <tag k="addr:housenumber" v="112"/>
    <tag k="addr:street" v="Mecawee Road"/>
    <tag k="addr:state" v="VT"/>
    <tag k="ref:vcgi:esiteid" v="304066"/>
  </node>
  <node id="-1515" visible="true" lat="43.56554394" lon="-72.62371447">
    <tag k="addr:city" v="Woodstock"/>
    <tag k="addr:housenumber" v="136"/>
    <tag k="addr:street" v="Mecawee Road"/>
    <tag k="addr:state" v="VT"/>
    <tag k="ref:vcgi:esiteid" v="304067"/>
  </node>
  <node id="-1516" visible="true" lat="43.56518608" lon="-72.52506484">
    <tag k="addr:city" v="Woodstock"/>
    <tag k="addr:housenumber" v="4445"/>
    <tag k="addr:street" v="South Road"/>
    <tag k="addr:state" v="VT"/>
    <tag k="ref:vcgi:esiteid" v="304069"/>
  </node>
  <node id="-1521" visible="true" lat="43.56504577" lon="-72.5285038">
    <tag k="addr:city" v="Woodstock"/>
    <tag k="addr:housenumber" v="4548"/>
    <tag k="addr:street" v="South Road"/>
    <tag k="addr:state" v="VT"/>
    <tag k="ref:vcgi:esiteid" v="304076"/>
  </node>
  <node id="-1529" visible="true" lat="43.56462407" lon="-72.52916137">
    <tag k="addr:city" v="Woodstock"/>
    <tag k="addr:housenumber" v="4587"/>
    <tag k="addr:street" v="South Road"/>
    <tag k="addr:state" v="VT"/>
    <tag k="ref:vcgi:esiteid" v="304085"/>
  </node>
  <node id="-1530" visible="true" lat="43.5645538" lon="-72.5283404">
    <tag k="addr:city" v="Woodstock"/>
    <tag k="addr:housenumber" v="23"/>
    <tag k="addr:street" v="Cowdrey Path"/>
    <tag k="addr:state" v="VT"/>
    <tag k="ref:vcgi:esiteid" v="304086"/>
  </node>
  <node id="-1531" visible="true" lat="43.56439855" lon="-72.57031685">
    <tag k="addr:city" v="Woodstock"/>
    <tag k="addr:housenumber" v="1384"/>
    <tag k="addr:street" v="Long Hill Road"/>
    <tag k="addr:state" v="VT"/>
    <tag k="ref:vcgi:esiteid" v="304087"/>
  </node>
  <node id="-1534" visible="true" lat="43.56406618" lon="-72.58753134">
    <tag k="addr:city" v="Woodstock"/>
    <tag k="addr:housenumber" v="432"/>
    <tag k="addr:street" v="Baldy Way"/>
    <tag k="addr:state" v="VT"/>
    <tag k="ref:vcgi:esiteid" v="304090"/>
  </node>
  <node id="-1537" visible="true" lat="43.56394062" lon="-72.62593429">
    <tag k="addr:city" v="Woodstock"/>
    <tag k="addr:housenumber" v="282"/>
    <tag k="addr:street" v="Mecawee Road"/>
    <tag k="addr:state" v="VT"/>
    <tag k="ref:vcgi:esiteid" v="304093"/>
  </node>
  <node id="-1540" visible="true" lat="43.56406281" lon="-72.576299">
    <tag k="addr:city" v="Woodstock"/>
    <tag k="addr:housenumber" v="136"/>
    <tag k="addr:street" v="Darling Road"/>
    <tag k="addr:state" v="VT"/>
    <tag k="ref:vcgi:esiteid" v="304096"/>
  </node>
  <node id="-1541" visible="true" lat="43.56330703" lon="-72.58522217">
    <tag k="addr:city" v="Woodstock"/>
    <tag k="addr:housenumber" v="447"/>
    <tag k="addr:street" v="Baldy Way"/>
    <tag k="addr:state" v="VT"/>
    <tag k="ref:vcgi:esiteid" v="304097"/>
  </node>
  <node id="-1546" visible="true" lat="43.56358683" lon="-72.52389119">
    <tag k="addr:city" v="Woodstock"/>
    <tag k="addr:housenumber" v="285"/>
    <tag k="addr:street" v="Cowdrey Path"/>
    <tag k="addr:state" v="VT"/>
    <tag k="ref:vcgi:esiteid" v="304102"/>
  </node>
  <node id="-1548" visible="true" lat="43.56348867" lon="-72.57478067">
    <tag k="addr:city" v="Woodstock"/>
    <tag k="addr:housenumber" v="99"/>
    <tag k="addr:street" v="Darling Road"/>
    <tag k="addr:state" v="VT"/>
    <tag k="ref:vcgi:esiteid" v="304104"/>
  </node>
  <node id="-1549" visible="true" lat="43.56367729" lon="-72.52522459">
    <tag k="addr:city" v="Woodstock"/>
    <tag k="addr:housenumber" v="238"/>
    <tag k="addr:street" v="Cowdrey Path"/>
    <tag k="addr:state" v="VT"/>
    <tag k="ref:vcgi:esiteid" v="304105"/>
  </node>
  <node id="-1551" visible="true" lat="43.56324473" lon="-72.52642779">
    <tag k="addr:city" v="Woodstock"/>
    <tag k="addr:housenumber" v="202"/>
    <tag k="addr:street" v="Cowdrey Path"/>
    <tag k="addr:state" v="VT"/>
    <tag k="ref:vcgi:esiteid" v="304107"/>
  </node>
  <node id="-1555" visible="true" lat="43.56314093" lon="-72.62427212">
    <tag k="addr:city" v="Woodstock"/>
    <tag k="addr:housenumber" v="295"/>
    <tag k="addr:street" v="Mecawee Road"/>
    <tag k="addr:state" v="VT"/>
    <tag k="ref:vcgi:esiteid" v="304111"/>
  </node>
  <node id="-1556" visible="true" lat="43.56310384" lon="-72.52430116">
    <tag k="addr:city" v="Woodstock"/>
    <tag k="addr:housenumber" v="276"/>
    <tag k="addr:street" v="Cowdrey Path"/>
    <tag k="addr:state" v="VT"/>
    <tag k="ref:vcgi:esiteid" v="304112"/>
  </node>
  <node id="-1557" visible="true" lat="43.5630564" lon="-72.55900983">
    <tag k="addr:city" v="Woodstock"/>
    <tag k="addr:housenumber" v="299"/>
    <tag k="addr:street" v="Benedict Road"/>
    <tag k="addr:state" v="VT"/>
    <tag k="ref:vcgi:esiteid" v="304113"/>
  </node>
  <node id="-1560" visible="true" lat="43.56285526" lon="-72.52231754">
    <tag k="addr:city" v="Woodstock"/>
    <tag k="addr:housenumber" v="371"/>
    <tag k="addr:street" v="Cowdrey Path"/>
    <tag k="addr:state" v="VT"/>
    <tag k="ref:vcgi:esiteid" v="304116"/>
  </node>
  <node id="-1562" visible="true" lat="43.56278096" lon="-72.57000354">
    <tag k="addr:city" v="Woodstock"/>
    <tag k="addr:housenumber" v="1261"/>
    <tag k="addr:street" v="Long Hill Road"/>
    <tag k="addr:state" v="VT"/>
    <tag k="ref:vcgi:esiteid" v="304118"/>
  </node>
  <node id="-1563" visible="true" lat="43.56255057" lon="-72.57753754">
    <tag k="addr:city" v="Woodstock"/>
    <tag k="addr:housenumber" v="232"/>
    <tag k="addr:street" v="Darling Road"/>
    <tag k="addr:state" v="VT"/>
    <tag k="ref:vcgi:esiteid" v="304119"/>
  </node>
  <node id="-1568" visible="true" lat="43.56210994" lon="-72.52235105">
    <tag k="addr:city" v="Woodstock"/>
    <tag k="addr:housenumber" v="433"/>
    <tag k="addr:street" v="Cowdrey Path"/>
    <tag k="addr:state" v="VT"/>
    <tag k="ref:vcgi:esiteid" v="304124"/>
  </node>
  <node id="-1571" visible="true" lat="43.56143611" lon="-72.62653782">
    <tag k="addr:city" v="Woodstock"/>
    <tag k="addr:housenumber" v="460"/>
    <tag k="addr:street" v="Mecawee Road"/>
    <tag k="addr:state" v="VT"/>
    <tag k="ref:vcgi:esiteid" v="304129"/>
  </node>
  <node id="-1572" visible="true" lat="43.56116672" lon="-72.56164013">
    <tag k="addr:city" v="Woodstock"/>
    <tag k="addr:housenumber" v="486"/>
    <tag k="addr:street" v="Benedict Road"/>
    <tag k="addr:state" v="VT"/>
    <tag k="ref:vcgi:esiteid" v="304131"/>
  </node>
  <node id="-1573" visible="true" lat="43.56056829" lon="-72.62732648">
    <tag k="addr:city" v="Woodstock"/>
    <tag k="addr:housenumber" v="528"/>
    <tag k="addr:street" v="Mecawee Road"/>
    <tag k="addr:state" v="VT"/>
    <tag k="ref:vcgi:esiteid" v="304132"/>
  </node>
  <node id="-1574" visible="true" lat="43.55982688" lon="-72.62627024">
    <tag k="addr:city" v="Woodstock"/>
    <tag k="addr:housenumber" v="543"/>
    <tag k="addr:street" v="Mecawee Road"/>
    <tag k="addr:state" v="VT"/>
    <tag k="ref:vcgi:esiteid" v="304133"/>
  </node>
  <node id="-1575" visible="true" lat="43.55987205" lon="-72.53366694">
    <tag k="addr:city" v="Woodstock"/>
    <tag k="addr:housenumber" v="5142"/>
    <tag k="addr:street" v="South Road"/>
    <tag k="addr:state" v="VT"/>
    <tag k="ref:vcgi:esiteid" v="304134"/>
  </node>
  <node id="-1576" visible="true" lat="43.55997467" lon="-72.53688049">
    <tag k="addr:city" v="Woodstock"/>
    <tag k="addr:housenumber" v="242"/>
    <tag k="addr:street" v="Town Farm Road"/>
    <tag k="addr:state" v="VT"/>
    <tag k="ref:vcgi:esiteid" v="304135"/>
  </node>
  <node id="-1577" visible="true" lat="43.5596182" lon="-72.53642995">
    <tag k="addr:city" v="Woodstock"/>
    <tag k="addr:housenumber" v="232"/>
    <tag k="addr:street" v="Town Farm Road"/>
    <tag k="addr:state" v="VT"/>
    <tag k="ref:vcgi:esiteid" v="304136"/>
  </node>
  <node id="-1578" visible="true" lat="43.55921796" lon="-72.56203265">
    <tag k="addr:city" v="Woodstock"/>
    <tag k="addr:housenumber" v="639"/>
    <tag k="addr:street" v="Benedict Road"/>
    <tag k="addr:state" v="VT"/>
    <tag k="ref:vcgi:esiteid" v="304137"/>
  </node>
  <node id="-1579" visible="true" lat="43.55921771" lon="-72.56399334">
    <tag k="addr:city" v="Woodstock"/>
    <tag k="addr:housenumber" v="704"/>
    <tag k="addr:street" v="Benedict Road"/>
    <tag k="addr:state" v="VT"/>
    <tag k="ref:vcgi:esiteid" v="304138"/>
  </node>
  <node id="-1581" visible="true" lat="43.55879211" lon="-72.53546142">
    <tag k="addr:city" v="Woodstock"/>
    <tag k="addr:housenumber" v="144"/>
    <tag k="addr:street" v="Town Farm Road"/>
    <tag k="addr:state" v="VT"/>
    <tag k="ref:vcgi:esiteid" v="304140"/>
  </node>
  <node id="-1582" visible="true" lat="43.55867953" lon="-72.63410107">
    <tag k="addr:city" v="Woodstock"/>
    <tag k="addr:housenumber" v="1052"/>
    <tag k="addr:street" v="Mecawee Road"/>
    <tag k="addr:state" v="VT"/>
    <tag k="ref:vcgi:esiteid" v="304141"/>
  </node>
  <node id="-1584" visible="true" lat="43.55902824" lon="-72.63663639">
    <tag k="addr:city" v="Woodstock"/>
    <tag k="addr:housenumber" v="1178"/>
    <tag k="addr:street" v="Mecawee Road"/>
    <tag k="addr:state" v="VT"/>
    <tag k="ref:vcgi:esiteid" v="304143"/>
  </node>
  <node id="-1585" visible="true" lat="43.55819514" lon="-72.53535577">
    <tag k="addr:city" v="Woodstock"/>
    <tag k="addr:housenumber" v="93"/>
    <tag k="addr:street" v="Town Farm Road"/>
    <tag k="addr:state" v="VT"/>
    <tag k="ref:vcgi:esiteid" v="304144"/>
  </node>
  <node id="-1586" visible="true" lat="43.55831332" lon="-72.53243577">
    <tag k="addr:city" v="Woodstock"/>
    <tag k="addr:housenumber" v="25"/>
    <tag k="addr:street" v="Morgan Hill Road"/>
    <tag k="addr:state" v="VT"/>
    <tag k="ref:vcgi:esiteid" v="304145"/>
  </node>
  <node id="-1588" visible="true" lat="43.55791548" lon="-72.5766011">
    <tag k="addr:city" v="Woodstock"/>
    <tag k="addr:housenumber" v="509"/>
    <tag k="addr:street" v="Darling Road"/>
    <tag k="addr:state" v="VT"/>
    <tag k="ref:vcgi:esiteid" v="304147"/>
  </node>
  <node id="-1590" visible="true" lat="43.55681864" lon="-72.62792369">
    <tag k="addr:city" v="Woodstock"/>
    <tag k="addr:housenumber" v="707"/>
    <tag k="addr:street" v="Mecawee Road"/>
    <tag k="addr:state" v="VT"/>
    <tag k="ref:vcgi:esiteid" v="304150"/>
  </node>
  <node id="-1591" visible="true" lat="43.55787688" lon="-72.63086812">
    <tag k="addr:city" v="Woodstock"/>
    <tag k="addr:housenumber" v="828"/>
    <tag k="addr:street" v="Mecawee Road"/>
    <tag k="addr:state" v="VT"/>
    <tag k="ref:vcgi:esiteid" v="304151"/>
  </node>
  <node id="-1592" visible="true" lat="43.55776595" lon="-72.53364563">
    <tag k="addr:city" v="Woodstock"/>
    <tag k="addr:housenumber" v="5315"/>
    <tag k="addr:street" v="South Road"/>
    <tag k="addr:state" v="VT"/>
    <tag k="ref:vcgi:esiteid" v="304152"/>
  </node>
  <node id="-1594" visible="true" lat="43.55756378" lon="-72.53406524">
    <tag k="addr:city" v="Woodstock"/>
    <tag k="addr:housenumber" v="5331"/>
    <tag k="addr:street" v="South Road"/>
    <tag k="addr:state" v="VT"/>
    <tag k="ref:vcgi:esiteid" v="304154"/>
  </node>
  <node id="-1598" visible="true" lat="43.55688279" lon="-72.54325443">
    <tag k="addr:city" v="Woodstock"/>
    <tag k="addr:housenumber" v="5802"/>
    <tag k="addr:street" v="South Road"/>
    <tag k="addr:state" v="VT"/>
    <tag k="ref:vcgi:esiteid" v="304159"/>
  </node>
  <node id="-1601" visible="true" lat="43.55639473" lon="-72.61558045">
    <tag k="addr:city" v="Woodstock"/>
    <tag k="addr:housenumber" v="2352"/>
    <tag k="addr:street" v="Curtis Hollow Road"/>
    <tag k="addr:state" v="VT"/>
    <tag k="ref:vcgi:esiteid" v="304162"/>
  </node>
  <node id="-1602" visible="true" lat="43.55651387" lon="-72.54302522">
    <tag k="addr:city" v="Woodstock"/>
    <tag k="addr:housenumber" v="5798"/>
    <tag k="addr:street" v="South Road"/>
    <tag k="addr:state" v="VT"/>
    <tag k="ref:vcgi:esiteid" v="304163"/>
  </node>
  <node id="-1603" visible="true" lat="43.55648092" lon="-72.54424696">
    <tag k="addr:city" v="Woodstock"/>
    <tag k="addr:housenumber" v="5860"/>
    <tag k="addr:street" v="South Road"/>
    <tag k="addr:state" v="VT"/>
    <tag k="ref:vcgi:esiteid" v="304164"/>
  </node>
  <node id="-1604" visible="true" lat="43.55620474" lon="-72.53498969">
    <tag k="addr:city" v="Woodstock"/>
    <tag k="addr:housenumber" v="134"/>
    <tag k="addr:street" v="Morgan Hill Road"/>
    <tag k="addr:state" v="VT"/>
    <tag k="ref:vcgi:esiteid" v="304165"/>
  </node>
  <node id="-1605" visible="true" lat="43.55604025" lon="-72.54398453">
    <tag k="addr:city" v="Woodstock"/>
    <tag k="addr:housenumber" v="5851"/>
    <tag k="addr:street" v="South Road"/>
    <tag k="addr:state" v="VT"/>
    <tag k="ref:vcgi:esiteid" v="304166"/>
  </node>
  <node id="-1606" visible="true" lat="43.55533971" lon="-72.53291927">
    <tag k="addr:city" v="Woodstock"/>
    <tag k="addr:housenumber" v="172"/>
    <tag k="addr:street" v="Morgan Hill Road"/>
    <tag k="addr:state" v="VT"/>
    <tag k="ref:vcgi:esiteid" v="304167"/>
  </node>
  <node id="-1607" visible="true" lat="43.55525768" lon="-72.54673428">
    <tag k="addr:city" v="Woodstock"/>
    <tag k="addr:housenumber" v="6012"/>
    <tag k="addr:street" v="South Road"/>
    <tag k="addr:state" v="VT"/>
    <tag k="ref:vcgi:esiteid" v="304168"/>
  </node>
  <node id="-1608" visible="true" lat="43.55474482" lon="-72.54937775">
    <tag k="addr:city" v="Woodstock"/>
    <tag k="addr:housenumber" v="62"/>
    <tag k="addr:street" v="Long Hill Road"/>
    <tag k="addr:state" v="VT"/>
    <tag k="ref:vcgi:esiteid" v="304169"/>
  </node>
  <node id="-1609" visible="true" lat="43.55472376" lon="-72.54766421">
    <tag k="addr:city" v="Woodstock"/>
    <tag k="addr:housenumber" v="6044"/>
    <tag k="addr:street" v="South Road"/>
    <tag k="addr:state" v="VT"/>
    <tag k="ref:vcgi:esiteid" v="304170"/>
  </node>
  <node id="-1610" visible="true" lat="43.55462576" lon="-72.58609455">
    <tag k="addr:city" v="Woodstock"/>
    <tag k="addr:housenumber" v="738"/>
    <tag k="addr:street" v="Darling Road"/>
    <tag k="addr:state" v="VT"/>
    <tag k="ref:vcgi:esiteid" v="304171"/>
  </node>
  <node id="-1611" visible="true" lat="43.55464241" lon="-72.61397949">
    <tag k="addr:city" v="Woodstock"/>
    <tag k="addr:housenumber" v="2581"/>
    <tag k="addr:street" v="Curtis Hollow Road"/>
    <tag k="addr:state" v="VT"/>
    <tag k="ref:vcgi:esiteid" v="304172"/>
  </node>
  <node id="-1612" visible="true" lat="43.5543442" lon="-72.53282326">
    <tag k="addr:city" v="Woodstock"/>
    <tag k="addr:housenumber" v="338"/>
    <tag k="addr:street" v="Morgan Hill Road"/>
    <tag k="addr:state" v="VT"/>
    <tag k="ref:vcgi:esiteid" v="304173"/>
  </node>
  <node id="-1615" visible="true" lat="43.5536663" lon="-72.61440813">
    <tag k="addr:city" v="Woodstock"/>
    <tag k="addr:housenumber" v="2646"/>
    <tag k="addr:street" v="Curtis Hollow Road"/>
    <tag k="addr:state" v="VT"/>
    <tag k="ref:vcgi:esiteid" v="304176"/>
  </node>
  <node id="-1616" visible="true" lat="43.55290997" lon="-72.53228197">
    <tag k="addr:city" v="Woodstock"/>
    <tag k="addr:housenumber" v="395"/>
    <tag k="addr:street" v="Morgan Hill Road"/>
    <tag k="addr:state" v="VT"/>
    <tag k="ref:vcgi:esiteid" v="304178"/>
  </node>
  <node id="-1618" visible="true" lat="43.55274726" lon="-72.5322105">
    <tag k="addr:city" v="Woodstock"/>
    <tag k="addr:housenumber" v="397"/>
    <tag k="addr:street" v="Morgan Hill Road"/>
    <tag k="addr:state" v="VT"/>
    <tag k="ref:vcgi:esiteid" v="304180"/>
  </node>
  <node id="-1619" visible="true" lat="43.55050302" lon="-72.5385952">
    <tag k="addr:city" v="Woodstock"/>
    <tag k="addr:housenumber" v="258"/>
    <tag k="addr:street" v="The Loop"/>
    <tag k="addr:state" v="VT"/>
    <tag k="ref:vcgi:esiteid" v="304181"/>
  </node>
  <node id="-1620" visible="true" lat="43.55005151" lon="-72.51980592">
    <tag k="addr:city" v="Woodstock"/>
    <tag k="addr:housenumber" v="759"/>
    <tag k="addr:street" v="Calendar Hill Road"/>
    <tag k="addr:state" v="VT"/>
    <tag k="ref:vcgi:esiteid" v="304182"/>
  </node>
  <node id="-1621" visible="true" lat="43.54986164" lon="-72.52267632">
    <tag k="addr:city" v="Woodstock"/>
    <tag k="addr:housenumber" v="41"/>
    <tag k="addr:street" v="Joshua Slayton Way"/>
    <tag k="addr:state" v="VT"/>
    <tag k="ref:vcgi:esiteid" v="304183"/>
  </node>
  <node id="-1622" visible="true" lat="43.54962005" lon="-72.53463928">
    <tag k="addr:city" v="Woodstock"/>
    <tag k="addr:housenumber" v="630"/>
    <tag k="addr:street" v="Morgan Hill Road"/>
    <tag k="addr:state" v="VT"/>
    <tag k="ref:vcgi:esiteid" v="304184"/>
  </node>
  <node id="-1624" visible="true" lat="43.54923721" lon="-72.54150382">
    <tag k="addr:city" v="Woodstock"/>
    <tag k="addr:housenumber" v="334"/>
    <tag k="addr:street" v="The Loop"/>
    <tag k="addr:state" v="VT"/>
    <tag k="ref:vcgi:esiteid" v="304186"/>
  </node>
  <node id="-1626" visible="true" lat="43.54862466" lon="-72.57965899">
    <tag k="addr:city" v="Woodstock"/>
    <tag k="addr:housenumber" v="1152"/>
    <tag k="addr:street" v="Noah Wood Road"/>
    <tag k="addr:state" v="VT"/>
    <tag k="ref:vcgi:esiteid" v="304188"/>
  </node>
  <node id="-1627" visible="true" lat="43.54853732" lon="-72.54163337">
    <tag k="addr:city" v="Woodstock"/>
    <tag k="addr:housenumber" v="348"/>
    <tag k="addr:street" v="The Loop"/>
    <tag k="addr:state" v="VT"/>
    <tag k="ref:vcgi:esiteid" v="304189"/>
  </node>
  <node id="-1630" visible="true" lat="43.547654" lon="-72.56006234">
    <tag k="addr:city" v="Woodstock"/>
    <tag k="addr:housenumber" v="470"/>
    <tag k="addr:street" v="Noah Wood Road"/>
    <tag k="addr:state" v="VT"/>
    <tag k="ref:vcgi:esiteid" v="304194"/>
  </node>
  <node id="-1631" visible="true" lat="43.54718324" lon="-72.56097579">
    <tag k="addr:city" v="Woodstock"/>
    <tag k="addr:housenumber" v="514"/>
    <tag k="addr:street" v="Noah Wood Road"/>
    <tag k="addr:state" v="VT"/>
    <tag k="ref:vcgi:esiteid" v="304195"/>
  </node>
  <node id="-1632" visible="true" lat="43.5471223" lon="-72.55602365">
    <tag k="addr:city" v="Woodstock"/>
    <tag k="addr:housenumber" v="251"/>
    <tag k="addr:street" v="Noah Wood Road"/>
    <tag k="addr:state" v="VT"/>
    <tag k="ref:vcgi:esiteid" v="304196"/>
  </node>
  <node id="-1634" visible="true" lat="43.54709955" lon="-72.55263787">
    <tag k="addr:city" v="Woodstock"/>
    <tag k="addr:housenumber" v="6656"/>
    <tag k="addr:street" v="South Road"/>
    <tag k="addr:state" v="VT"/>
    <tag k="ref:vcgi:esiteid" v="304198"/>
  </node>
  <node id="-1635" visible="true" lat="43.5469748" lon="-72.53137266">
    <tag k="addr:city" v="Woodstock"/>
    <tag k="addr:housenumber" v="142"/>
    <tag k="addr:street" v="Calendar Hill Road"/>
    <tag k="addr:state" v="VT"/>
    <tag k="ref:vcgi:esiteid" v="304199"/>
  </node>
  <node id="-1636" visible="true" lat="43.54698956" lon="-72.56128111">
    <tag k="addr:city" v="Woodstock"/>
    <tag k="addr:housenumber" v="532"/>
    <tag k="addr:street" v="Noah Wood Road"/>
    <tag k="addr:state" v="VT"/>
    <tag k="ref:vcgi:esiteid" v="304200"/>
  </node>
  <node id="-1637" visible="true" lat="43.54663104" lon="-72.56433584">
    <tag k="addr:city" v="Woodstock"/>
    <tag k="addr:housenumber" v="800"/>
    <tag k="addr:street" v="Noah Wood Road"/>
    <tag k="addr:state" v="VT"/>
    <tag k="ref:vcgi:esiteid" v="304201"/>
  </node>
  <node id="-1638" visible="true" lat="43.54637167" lon="-72.56926302">
    <tag k="addr:city" v="Woodstock"/>
    <tag k="addr:housenumber" v="1014"/>
    <tag k="addr:street" v="Noah Wood Road"/>
    <tag k="addr:state" v="VT"/>
    <tag k="ref:vcgi:esiteid" v="304202"/>
  </node>
  <node id="-1639" visible="true" lat="43.54612144" lon="-72.53313814">
    <tag k="addr:city" v="Woodstock"/>
    <tag k="addr:housenumber" v="896"/>
    <tag k="addr:street" v="Morgan Hill Road"/>
    <tag k="addr:state" v="VT"/>
    <tag k="ref:vcgi:esiteid" v="304203"/>
  </node>
  <node id="-1640" visible="true" lat="43.54602385" lon="-72.55247341">
    <tag k="addr:city" v="Woodstock"/>
    <tag k="addr:housenumber" v="6711"/>
    <tag k="addr:street" v="South Road"/>
    <tag k="addr:state" v="VT"/>
    <tag k="ref:vcgi:esiteid" v="304204"/>
  </node>
  <node id="-1641" visible="true" lat="43.54586291" lon="-72.54026979">
    <tag k="addr:city" v="Woodstock"/>
    <tag k="addr:housenumber" v="539"/>
    <tag k="addr:street" v="The Loop"/>
    <tag k="addr:state" v="VT"/>
    <tag k="ref:vcgi:esiteid" v="304205"/>
  </node>
  <node id="-1643" visible="true" lat="43.54554744" lon="-72.57259842">
    <tag k="addr:city" v="Woodstock"/>
    <tag k="addr:housenumber" v="1167"/>
    <tag k="addr:street" v="Noah Wood Road"/>
    <tag k="addr:state" v="VT"/>
    <tag k="ref:vcgi:esiteid" v="304208"/>
  </node>
  <node id="-1644" visible="true" lat="43.54527608" lon="-72.53410083">
    <tag k="addr:city" v="Woodstock"/>
    <tag k="addr:housenumber" v="998"/>
    <tag k="addr:street" v="The Loop"/>
    <tag k="addr:state" v="VT"/>
    <tag k="ref:vcgi:esiteid" v="304209"/>
  </node>
  <node id="-1646" visible="true" lat="43.54472948" lon="-72.56739497">
    <tag k="addr:city" v="Woodstock"/>
    <tag k="addr:housenumber" v="899"/>
    <tag k="addr:street" v="Noah Wood Road"/>
    <tag k="addr:state" v="VT"/>
    <tag k="ref:vcgi:esiteid" v="304211"/>
  </node>
  <node id="-1648" visible="true" lat="43.54385529" lon="-72.54065573">
    <tag k="addr:city" v="Woodstock"/>
    <tag k="addr:housenumber" v="674"/>
    <tag k="addr:street" v="The Loop"/>
    <tag k="addr:state" v="VT"/>
    <tag k="ref:vcgi:esiteid" v="304213"/>
  </node>
  <node id="-1649" visible="true" lat="43.54354858" lon="-72.53990173">
    <tag k="addr:city" v="Woodstock"/>
    <tag k="addr:housenumber" v="713"/>
    <tag k="addr:street" v="The Loop"/>
    <tag k="addr:state" v="VT"/>
    <tag k="ref:vcgi:esiteid" v="304214"/>
  </node>
  <node id="-1654" visible="true" lat="43.5376292" lon="-72.52689294">
    <tag k="addr:city" v="Woodstock"/>
    <tag k="addr:housenumber" v="152"/>
    <tag k="addr:street" v="Reeves Road"/>
    <tag k="addr:state" v="VT"/>
    <tag k="ref:vcgi:esiteid" v="304220"/>
  </node>
  <node id="-1655" visible="true" lat="43.53578159" lon="-72.53137121">
    <tag k="addr:city" v="Woodstock"/>
    <tag k="addr:housenumber" v="1708"/>
    <tag k="addr:street" v="Morgan Hill Road"/>
    <tag k="addr:state" v="VT"/>
    <tag k="ref:vcgi:esiteid" v="304221"/>
  </node>
  <node id="-1657" visible="true" lat="43.53446968" lon="-72.53071425">
    <tag k="addr:city" v="Woodstock"/>
    <tag k="addr:housenumber" v="1791"/>
    <tag k="addr:street" v="Morgan Hill Road"/>
    <tag k="addr:state" v="VT"/>
    <tag k="ref:vcgi:esiteid" v="304223"/>
  </node>
  <node id="-1658" visible="true" lat="43.53436485" lon="-72.53134086">
    <tag k="addr:city" v="Woodstock"/>
    <tag k="addr:housenumber" v="1786"/>
    <tag k="addr:street" v="Morgan Hill Road"/>
    <tag k="addr:state" v="VT"/>
    <tag k="ref:vcgi:esiteid" v="304224"/>
  </node>
  <node id="-1659" visible="true" lat="43.63265486" lon="-72.59056329">
    <tag k="addr:city" v="Woodstock"/>
    <tag k="addr:housenumber" v="1133"/>
    <tag k="addr:street" v="Atwood Lane"/>
    <tag k="addr:state" v="VT"/>
    <tag k="ref:vcgi:esiteid" v="304226"/>
  </node>
  <node id="-1661" visible="true" lat="43.64666399" lon="-72.55687406">
    <tag k="addr:city" v="Woodstock"/>
    <tag k="addr:housenumber" v="2220"/>
    <tag k="addr:street" v="Prosper Road"/>
    <tag k="addr:state" v="VT"/>
    <tag k="ref:vcgi:esiteid" v="304228"/>
  </node>
  <node id="-1664" visible="true" lat="43.55894649" lon="-72.53407304">
    <tag k="addr:city" v="Woodstock"/>
    <tag k="addr:housenumber" v="64"/>
    <tag k="addr:street" v="Town Farm Road"/>
    <tag k="addr:state" v="VT"/>
    <tag k="ref:vcgi:esiteid" v="304231"/>
  </node>
  <node id="-1665" visible="true" lat="43.61624601" lon="-72.60160426">
    <tag k="addr:city" v="Woodstock"/>
    <tag k="addr:housenumber" v="777"/>
    <tag k="addr:street" v="Cox District Road"/>
    <tag k="addr:state" v="VT"/>
    <tag k="ref:vcgi:esiteid" v="304232"/>
  </node>
  <node id="-1666" visible="true" lat="43.62830831" lon="-72.47113472">
    <tag k="addr:city" v="Woodstock"/>
    <tag k="addr:housenumber" v="209"/>
    <tag k="addr:street" v="Happy Valley Road"/>
    <tag k="addr:state" v="VT"/>
    <tag k="ref:vcgi:esiteid" v="304233"/>
  </node>
  <node id="-1668" visible="true" lat="43.61681866" lon="-72.55431267">
    <tag k="addr:city" v="Woodstock"/>
    <tag k="addr:housenumber" v="19"/>
    <tag k="addr:street" v="Davry Way"/>
    <tag k="addr:state" v="VT"/>
    <tag k="ref:vcgi:esiteid" v="304235"/>
  </node>
  <node id="-1669" visible="true" lat="43.6359174" lon="-72.57065527">
    <tag k="addr:city" v="Woodstock"/>
    <tag k="addr:housenumber" v="963"/>
    <tag k="addr:street" v="Grassy Lane"/>
    <tag k="addr:state" v="VT"/>
    <tag k="ref:vcgi:esiteid" v="304236"/>
  </node>
  <node id="-1670" visible="true" lat="43.56628975" lon="-72.62641405">
    <tag k="addr:city" v="Woodstock"/>
    <tag k="addr:housenumber" v="166"/>
    <tag k="addr:street" v="Mecawee Road"/>
    <tag k="addr:state" v="VT"/>
    <tag k="ref:vcgi:esiteid" v="304237"/>
  </node>
  <node id="-1671" visible="true" lat="43.57993198" lon="-72.61527018">
    <tag k="addr:city" v="Woodstock"/>
    <tag k="addr:housenumber" v="581"/>
    <tag k="addr:street" v="Curtis Hollow Road"/>
    <tag k="addr:state" v="VT"/>
    <tag k="ref:vcgi:esiteid" v="304238"/>
  </node>
  <node id="-1672" visible="true" lat="43.6491032" lon="-72.55617125">
    <tag k="addr:city" v="Woodstock"/>
    <tag k="addr:housenumber" v="24"/>
    <tag k="addr:street" v="Austin Road"/>
    <tag k="addr:state" v="VT"/>
    <tag k="ref:vcgi:esiteid" v="304239"/>
  </node>
  <node id="-1675" visible="true" lat="43.64902371" lon="-72.54409223">
    <tag k="addr:city" v="Woodstock"/>
    <tag k="addr:housenumber" v="105"/>
    <tag k="addr:street" v="Leonard Lane"/>
    <tag k="addr:state" v="VT"/>
    <tag k="ref:vcgi:esiteid" v="304242"/>
  </node>
  <node id="-1676" visible="true" lat="43.57575528" lon="-72.62198049">
    <tag k="addr:city" v="Woodstock"/>
    <tag k="addr:housenumber" v="1030"/>
    <tag k="addr:street" v="Curtis Hollow Road"/>
    <tag k="addr:state" v="VT"/>
    <tag k="ref:vcgi:esiteid" v="304243"/>
  </node>
  <node id="-1677" visible="true" lat="43.5812537" lon="-72.50068794">
    <tag k="addr:city" v="Woodstock"/>
    <tag k="addr:housenumber" v="336"/>
    <tag k="addr:street" v="Stone Bridge Way"/>
    <tag k="addr:state" v="VT"/>
    <tag k="ref:vcgi:esiteid" v="304244"/>
  </node>
  <node id="-1678" visible="true" lat="43.6246098" lon="-72.58347684">
    <tag k="addr:city" v="Woodstock"/>
    <tag k="addr:housenumber" v="30"/>
    <tag k="addr:street" v="Gabert Road"/>
    <tag k="addr:state" v="VT"/>
    <tag k="ref:vcgi:esiteid" v="304245"/>
  </node>
  <node id="-1680" visible="true" lat="43.60148206" lon="-72.48935771">
    <tag k="addr:city" v="Woodstock"/>
    <tag k="addr:housenumber" v="2574"/>
    <tag k="addr:street" v="Garvin Hill Road"/>
    <tag k="addr:state" v="VT"/>
    <tag k="ref:vcgi:esiteid" v="304248"/>
  </node>
  <node id="-1684" visible="true" lat="43.58578314" lon="-72.61627356">
    <tag k="addr:city" v="Woodstock"/>
    <tag k="addr:housenumber" v="5683"/>
    <tag k="addr:street" v="West Woodstock Road"/>
    <tag k="addr:state" v="VT"/>
    <tag k="ref:vcgi:esiteid" v="315430"/>
  </node>
  <node id="-1689" visible="true" lat="43.61557439" lon="-72.55278009">
    <tag k="addr:city" v="Woodstock"/>
    <tag k="addr:housenumber" v="56"/>
    <tag k="addr:street" v="Townhouse Way"/>
    <tag k="addr:state" v="VT"/>
    <tag k="ref:vcgi:esiteid" v="328457"/>
  </node>
  <node id="-1708" visible="true" lat="43.62044581" lon="-72.48020715">
    <tag k="addr:city" v="Woodstock"/>
    <tag k="addr:housenumber" v="1579"/>
    <tag k="addr:street" v="Happy Valley Road"/>
    <tag k="addr:state" v="VT"/>
    <tag k="ref:vcgi:esiteid" v="328482"/>
  </node>
  <node id="-1710" visible="true" lat="43.60867324" lon="-72.49690592">
    <tag k="addr:city" v="Woodstock"/>
    <tag k="addr:housenumber" v="3233"/>
    <tag k="addr:street" v="Garvin Hill Road"/>
    <tag k="addr:state" v="VT"/>
    <tag k="ref:vcgi:esiteid" v="328484"/>
  </node>
  <node id="-1712" visible="true" lat="43.60008662" lon="-72.48892852">
    <tag k="addr:city" v="Woodstock"/>
    <tag k="addr:housenumber" v="2500"/>
    <tag k="addr:street" v="Garvin Hill Road"/>
    <tag k="addr:state" v="VT"/>
    <tag k="ref:vcgi:esiteid" v="328486"/>
  </node>
  <node id="-1713" visible="true" lat="43.59664248" lon="-72.60955638">
    <tag k="addr:city" v="Woodstock"/>
    <tag k="addr:housenumber" v="184"/>
    <tag k="addr:street" v="Echo Ledge Road"/>
    <tag k="addr:state" v="VT"/>
    <tag k="ref:vcgi:esiteid" v="328487"/>
  </node>
  <node id="-1730" visible="true" lat="43.57931458" lon="-72.51164339">
    <tag k="addr:city" v="Woodstock"/>
    <tag k="addr:housenumber" v="3751"/>
    <tag k="addr:street" v="Densmore Hill Road"/>
    <tag k="addr:state" v="VT"/>
    <tag k="ref:vcgi:esiteid" v="328507"/>
  </node>
  <node id="-1731" visible="true" lat="43.55777286" lon="-72.63360737">
    <tag k="addr:city" v="Woodstock"/>
    <tag k="addr:housenumber" v="995"/>
    <tag k="addr:street" v="Mecawee Road"/>
    <tag k="addr:state" v="VT"/>
    <tag k="ref:vcgi:esiteid" v="328508"/>
  </node>
  <node id="-1734" visible="true" lat="43.56788086" lon="-72.6194483">
    <tag k="addr:city" v="Woodstock"/>
    <tag k="addr:housenumber" v="62"/>
    <tag k="addr:street" v="Hollow Farm Road"/>
    <tag k="addr:state" v="VT"/>
    <tag k="ref:vcgi:esiteid" v="328511"/>
  </node>
  <node id="-1735" visible="true" lat="43.57371469" lon="-72.62047981">
    <tag k="addr:city" v="Woodstock"/>
    <tag k="addr:housenumber" v="1163"/>
    <tag k="addr:street" v="Curtis Hollow Road"/>
    <tag k="addr:state" v="VT"/>
    <tag k="ref:vcgi:esiteid" v="328512"/>
  </node>
  <node id="-1736" visible="true" lat="43.57443994" lon="-72.62336336">
    <tag k="addr:city" v="Woodstock"/>
    <tag k="addr:housenumber" v="1116"/>
    <tag k="addr:street" v="Curtis Hollow Road"/>
    <tag k="addr:state" v="VT"/>
    <tag k="ref:vcgi:esiteid" v="328513"/>
  </node>
  <node id="-1737" visible="true" lat="43.57820122" lon="-72.61701895">
    <tag k="addr:city" v="Woodstock"/>
    <tag k="addr:housenumber" v="679"/>
    <tag k="addr:street" v="Curtis Hollow Road"/>
    <tag k="addr:state" v="VT"/>
    <tag k="ref:vcgi:esiteid" v="328514"/>
  </node>
  <node id="-1739" visible="true" lat="43.57411577" lon="-72.58113609">
    <tag k="addr:city" v="Woodstock"/>
    <tag k="addr:housenumber" v="2032"/>
    <tag k="addr:street" v="Long Hill Road"/>
    <tag k="addr:state" v="VT"/>
    <tag k="ref:vcgi:esiteid" v="328516"/>
  </node>
  <node id="-1745" visible="true" lat="43.56240375" lon="-72.52340104">
    <tag k="addr:city" v="Woodstock"/>
    <tag k="addr:housenumber" v="358"/>
    <tag k="addr:street" v="Cowdrey Path"/>
    <tag k="addr:state" v="VT"/>
    <tag k="ref:vcgi:esiteid" v="328522"/>
  </node>
  <node id="-1749" visible="true" lat="43.54539469" lon="-72.5708099">
    <tag k="addr:city" v="Woodstock"/>
    <tag k="addr:housenumber" v="1043"/>
    <tag k="addr:street" v="Noah Wood Road"/>
    <tag k="addr:state" v="VT"/>
    <tag k="ref:vcgi:esiteid" v="328526"/>
  </node>
  <node id="-1752" visible="true" lat="43.55728612" lon="-72.53496799">
    <tag k="addr:city" v="Woodstock"/>
    <tag k="addr:housenumber" v="5379"/>
    <tag k="addr:street" v="South Road"/>
    <tag k="addr:state" v="VT"/>
    <tag k="ref:vcgi:esiteid" v="328529"/>
  </node>
  <node id="-1753" visible="true" lat="43.54918741" lon="-72.53991559">
    <tag k="addr:city" v="Woodstock"/>
    <tag k="addr:housenumber" v="330"/>
    <tag k="addr:street" v="The Loop"/>
    <tag k="addr:state" v="VT"/>
    <tag k="ref:vcgi:esiteid" v="328530"/>
  </node>
  <node id="-1755" visible="true" lat="43.55234782" lon="-72.52156505">
    <tag k="addr:city" v="Woodstock"/>
    <tag k="addr:housenumber" v="221"/>
    <tag k="addr:street" v="Joshua Slayton Way"/>
    <tag k="addr:state" v="VT"/>
    <tag k="ref:vcgi:esiteid" v="328532"/>
  </node>
  <node id="-1756" visible="true" lat="43.53669239" lon="-72.536171">
    <tag k="addr:city" v="Woodstock"/>
    <tag k="addr:housenumber" v="1584"/>
    <tag k="addr:street" v="Morgan Hill Road"/>
    <tag k="addr:state" v="VT"/>
    <tag k="ref:vcgi:esiteid" v="328533"/>
  </node>
  <node id="-1757" visible="true" lat="43.53702595" lon="-72.53485342">
    <tag k="addr:city" v="Woodstock"/>
    <tag k="addr:housenumber" v="1582"/>
    <tag k="addr:street" v="Morgan Hill Road"/>
    <tag k="addr:state" v="VT"/>
    <tag k="ref:vcgi:esiteid" v="328534"/>
  </node>
  <node id="-1758" visible="true" lat="43.58646583" lon="-72.61913677">
    <tag k="addr:city" v="Woodstock"/>
    <tag k="addr:housenumber" v="52"/>
    <tag k="addr:street" v="Woolen Mill Drive"/>
    <tag k="addr:state" v="VT"/>
    <tag k="ref:vcgi:esiteid" v="328535"/>
  </node>
  <node id="-1759" visible="true" lat="43.59060269" lon="-72.50130788">
    <tag k="addr:city" v="Woodstock"/>
    <tag k="addr:housenumber" v="128"/>
    <tag k="addr:street" v="The Lane"/>
    <tag k="addr:state" v="VT"/>
    <tag k="ref:vcgi:esiteid" v="328643"/>
  </node>
  <node id="-1760" visible="true" lat="43.64494991" lon="-72.55577718">
    <tag k="addr:city" v="Woodstock"/>
    <tag k="addr:housenumber" v="2098"/>
    <tag k="addr:street" v="Prosper Road"/>
    <tag k="addr:state" v="VT"/>
    <tag k="ref:vcgi:esiteid" v="328644"/>
  </node>
  <node id="-1761" visible="true" lat="43.65265995" lon="-72.55274545">
    <tag k="addr:city" v="Woodstock"/>
    <tag k="addr:housenumber" v="424"/>
    <tag k="addr:street" v="Hall Circle"/>
    <tag k="addr:state" v="VT"/>
    <tag k="ref:vcgi:esiteid" v="328645"/>
  </node>
  <node id="-1762" visible="true" lat="43.64684084" lon="-72.53505463">
    <tag k="addr:city" v="Woodstock"/>
    <tag k="addr:housenumber" v="1210"/>
    <tag k="addr:street" v="Barnard Road"/>
    <tag k="addr:state" v="VT"/>
    <tag k="ref:vcgi:esiteid" v="328647"/>
  </node>
  <node id="-1763" visible="true" lat="43.64183142" lon="-72.50703526">
    <tag k="addr:city" v="Woodstock"/>
    <tag k="addr:housenumber" v="4620"/>
    <tag k="addr:street" v="Cloudland Road"/>
    <tag k="addr:state" v="VT"/>
    <tag k="ref:vcgi:esiteid" v="328648"/>
  </node>
  <node id="-1779" visible="true" lat="43.62448087" lon="-72.51846749">
    <tag k="addr:city" v="Woodstock"/>
    <tag k="addr:housenumber" v="8"/>
    <tag k="addr:street" v="The Green"/>
    <tag k="addr:state" v="VT"/>
    <tag k="ref:vcgi:esiteid" v="328671"/>
  </node>
  <node id="-1780" visible="true" lat="43.62493092" lon="-72.5184126">
    <tag k="addr:city" v="Woodstock"/>
    <tag k="addr:housenumber" v="7"/>
    <tag k="addr:street" v="Central Street"/>
    <tag k="addr:state" v="VT"/>
    <tag k="ref:vcgi:esiteid" v="328672"/>
  </node>
  <node id="-1796" visible="true" lat="43.62601724" lon="-72.50939356">
    <tag k="addr:city" v="Woodstock"/>
    <tag k="addr:housenumber" v="458"/>
    <tag k="addr:street" v="Pleasant Street"/>
    <tag k="addr:state" v="VT"/>
    <tag k="ref:vcgi:esiteid" v="328688"/>
  </node>
  <node id="-1800" visible="true" lat="43.62504849" lon="-72.50629947">
    <tag k="addr:city" v="Woodstock"/>
    <tag k="addr:housenumber" v="1"/>
    <tag k="addr:street" v="Thomas Avenue"/>
    <tag k="addr:state" v="VT"/>
    <tag k="ref:vcgi:esiteid" v="328692"/>
  </node>
  <node id="-1801" visible="true" lat="43.62499159" lon="-72.50660857">
    <tag k="addr:city" v="Woodstock"/>
    <tag k="addr:housenumber" v="3"/>
    <tag k="addr:street" v="Thomas Avenue"/>
    <tag k="addr:state" v="VT"/>
    <tag k="ref:vcgi:esiteid" v="328693"/>
  </node>
  <node id="-1802" visible="true" lat="43.62462282" lon="-72.50754448">
    <tag k="addr:city" v="Woodstock"/>
    <tag k="addr:housenumber" v="45"/>
    <tag k="addr:street" v="Lincoln Street"/>
    <tag k="addr:state" v="VT"/>
    <tag k="ref:vcgi:esiteid" v="328694"/>
  </node>
  <node id="-1803" visible="true" lat="43.6253524" lon="-72.51339707">
    <tag k="addr:city" v="Woodstock"/>
    <tag k="addr:housenumber" v="23"/>
    <tag k="addr:street" v="Slayton Terrace"/>
    <tag k="addr:state" v="VT"/>
    <tag k="ref:vcgi:esiteid" v="328695"/>
  </node>
  <node id="-1805" visible="true" lat="43.63863563" lon="-72.50422222">
    <tag k="addr:city" v="Woodstock"/>
    <tag k="addr:housenumber" v="840"/>
    <tag k="addr:street" v="Old River Road"/>
    <tag k="addr:state" v="VT"/>
    <tag k="ref:vcgi:esiteid" v="328697"/>
  </node>
  <node id="-1806" visible="true" lat="43.63092699" lon="-72.47010523">
    <tag k="addr:city" v="Woodstock"/>
    <tag k="addr:housenumber" v="71"/>
    <tag k="addr:street" v="Butternut Lane"/>
    <tag k="addr:state" v="VT"/>
    <tag k="ref:vcgi:esiteid" v="328699"/>
  </node>
  <node id="-1807" visible="true" lat="43.63045978" lon="-72.46943857">
    <tag k="addr:city" v="Woodstock"/>
    <tag k="addr:housenumber" v="33"/>
    <tag k="addr:street" v="Happy Valley Road"/>
    <tag k="addr:state" v="VT"/>
    <tag k="ref:vcgi:esiteid" v="328700"/>
  </node>
  <node id="-1808" visible="true" lat="43.60932319" lon="-72.60182347">
    <tag k="addr:city" v="Woodstock"/>
    <tag k="addr:housenumber" v="1008"/>
    <tag k="addr:street" v="Deer Brook Way"/>
    <tag k="addr:state" v="VT"/>
    <tag k="ref:vcgi:esiteid" v="328701"/>
  </node>
  <node id="-1810" visible="true" lat="43.60231516" lon="-72.60265822">
    <tag k="addr:city" v="Woodstock"/>
    <tag k="addr:housenumber" v="628"/>
    <tag k="addr:street" v="Deer Brook Way"/>
    <tag k="addr:state" v="VT"/>
    <tag k="ref:vcgi:esiteid" v="328703"/>
  </node>
  <node id="-1811" visible="true" lat="43.60189554" lon="-72.60322654">
    <tag k="addr:city" v="Woodstock"/>
    <tag k="addr:housenumber" v="614"/>
    <tag k="addr:street" v="Deer Brook Way"/>
    <tag k="addr:state" v="VT"/>
    <tag k="ref:vcgi:esiteid" v="328704"/>
  </node>
  <node id="-1821" visible="true" lat="43.620307" lon="-72.58639571">
    <tag k="addr:city" v="Woodstock"/>
    <tag k="addr:housenumber" v="125"/>
    <tag k="addr:street" v="Daniel Cox Road"/>
    <tag k="addr:state" v="VT"/>
    <tag k="ref:vcgi:esiteid" v="328714"/>
  </node>
  <node id="-1847" visible="true" lat="43.64869547" lon="-72.56695234">
    <tag k="addr:city" v="Woodstock"/>
    <tag k="addr:housenumber" v="201"/>
    <tag k="addr:street" v="Sincerbeaux Way"/>
    <tag k="addr:state" v="VT"/>
    <tag k="ref:vcgi:esiteid" v="328962"/>
  </node>
  <node id="-1848" visible="true" lat="43.64902607" lon="-72.56666491">
    <tag k="addr:city" v="Woodstock"/>
    <tag k="addr:housenumber" v="203"/>
    <tag k="addr:street" v="Sincerbeaux Way"/>
    <tag k="addr:state" v="VT"/>
    <tag k="ref:vcgi:esiteid" v="328963"/>
  </node>
  <node id="-1849" visible="true" lat="43.64950306" lon="-72.56648342">
    <tag k="addr:city" v="Woodstock"/>
    <tag k="addr:housenumber" v="205"/>
    <tag k="addr:street" v="Sincerbeaux Way"/>
    <tag k="addr:state" v="VT"/>
    <tag k="ref:vcgi:esiteid" v="328964"/>
  </node>
  <node id="-1857" visible="true" lat="43.6549098" lon="-72.56610071">
    <tag k="addr:city" v="Woodstock"/>
    <tag k="addr:housenumber" v="3109"/>
    <tag k="addr:street" v="Barnard Road"/>
    <tag k="addr:state" v="VT"/>
    <tag k="ref:vcgi:esiteid" v="328972"/>
  </node>
  <node id="-1887" visible="true" lat="43.64241942" lon="-72.52704956">
    <tag k="addr:city" v="Woodstock"/>
    <tag k="addr:housenumber" v="206"/>
    <tag k="addr:street" v="Stimets Road"/>
    <tag k="addr:state" v="VT"/>
    <tag k="ref:vcgi:esiteid" v="329007"/>
  </node>
  <node id="-2014" visible="true" lat="43.62425334" lon="-72.51432415">
    <tag k="addr:city" v="Woodstock"/>
    <tag k="addr:housenumber" v="8"/>
    <tag k="addr:street" v="Highland Avenue"/>
    <tag k="addr:state" v="VT"/>
    <tag k="ref:vcgi:esiteid" v="329951"/>
  </node>
  <node id="-2113" visible="true" lat="43.57346156" lon="-72.58091774">
    <tag k="addr:city" v="Woodstock"/>
    <tag k="addr:housenumber" v="2034"/>
    <tag k="addr:street" v="Long Hill Road"/>
    <tag k="addr:state" v="VT"/>
    <tag k="ref:vcgi:esiteid" v="330250"/>
  </node>
  <node id="-2138" visible="true" lat="43.56433898" lon="-72.57502646">
    <tag k="addr:city" v="Woodstock"/>
    <tag k="addr:housenumber" v="97"/>
    <tag k="addr:street" v="Darling Road"/>
    <tag k="addr:state" v="VT"/>
    <tag k="ref:vcgi:esiteid" v="330292"/>
  </node>
  <node id="-2211" visible="true" lat="43.5482824" lon="-72.54976593">
    <tag k="addr:city" v="Woodstock"/>
    <tag k="addr:housenumber" v="6453"/>
    <tag k="addr:street" v="South Road"/>
    <tag k="addr:state" v="VT"/>
    <tag k="ref:vcgi:esiteid" v="330377"/>
  </node>
  <node id="-2349" visible="true" lat="43.6427909" lon="-72.54632179">
    <tag k="addr:city" v="Woodstock"/>
    <tag k="addr:housenumber" v="320"/>
    <tag k="addr:street" v="Rabbit Hill Way"/>
    <tag k="addr:state" v="VT"/>
    <tag k="ref:vcgi:esiteid" v="330575"/>
  </node>
  <node id="-2356" visible="true" lat="43.63551725" lon="-72.4716194">
    <tag k="addr:city" v="Woodstock"/>
    <tag k="addr:housenumber" v="2360"/>
    <tag k="addr:street" v="East Woodstock Road"/>
    <tag k="addr:state" v="VT"/>
    <tag k="ref:vcgi:esiteid" v="330586"/>
  </node>
  <node id="-2375" visible="true" lat="43.61955383" lon="-72.48114961">
    <tag k="addr:city" v="Woodstock"/>
    <tag k="addr:housenumber" v="1575"/>
    <tag k="addr:street" v="Happy Valley Road"/>
    <tag k="addr:state" v="VT"/>
    <tag k="ref:vcgi:esiteid" v="330609"/>
  </node>
  <node id="-2534" visible="true" lat="43.61782476" lon="-72.55290382">
    <tag k="addr:city" v="Woodstock"/>
    <tag k="addr:housenumber" v="460"/>
    <tag k="addr:street" v="Barberry Hill Road"/>
    <tag k="addr:state" v="VT"/>
    <tag k="ref:vcgi:esiteid" v="330818"/>
  </node>
  <node id="-2556" visible="true" lat="43.62559327" lon="-72.51145077">
    <tag k="addr:city" v="Woodstock"/>
    <tag k="addr:housenumber" v="20"/>
    <tag k="addr:street" v="Lincoln Street"/>
    <tag k="addr:state" v="VT"/>
    <tag k="ref:vcgi:esiteid" v="331059"/>
  </node>
  <node id="-2560" visible="true" lat="43.62510593" lon="-72.51874204">
    <tag k="addr:city" v="Woodstock"/>
    <tag k="addr:housenumber" v="1"/>
    <tag k="addr:street" v="The Green"/>
    <tag k="addr:state" v="VT"/>
    <tag k="ref:vcgi:esiteid" v="331237"/>
  </node>
  <node id="-2564" visible="true" lat="43.63721711" lon="-72.58829251">
    <tag k="addr:city" v="Woodstock"/>
    <tag k="addr:housenumber" v="1001"/>
    <tag k="addr:street" v="Atwood Lane"/>
    <tag k="addr:state" v="VT"/>
    <tag k="ref:vcgi:esiteid" v="331243"/>
  </node>
  <node id="-2565" visible="true" lat="43.63506248" lon="-72.58492972">
    <tag k="addr:city" v="Woodstock"/>
    <tag k="addr:housenumber" v="1003"/>
    <tag k="addr:street" v="Atwood Lane"/>
    <tag k="addr:state" v="VT"/>
    <tag k="ref:vcgi:esiteid" v="331244"/>
  </node>
  <node id="-2566" visible="true" lat="43.64745455" lon="-72.55761718">
    <tag k="addr:city" v="Woodstock"/>
    <tag k="addr:housenumber" v="2300"/>
    <tag k="addr:street" v="Prosper Road"/>
    <tag k="addr:state" v="VT"/>
    <tag k="ref:vcgi:esiteid" v="331248"/>
  </node>
  <node id="-2574" visible="true" lat="43.5801887" lon="-72.52861097">
    <tag k="addr:city" v="Woodstock"/>
    <tag k="addr:housenumber" v="1861"/>
    <tag k="addr:street" v="Randall Road"/>
    <tag k="addr:state" v="VT"/>
    <tag k="ref:vcgi:esiteid" v="331322"/>
  </node>
  <node id="-2580" visible="true" lat="43.62597769" lon="-72.5135628">
    <tag k="addr:city" v="Woodstock"/>
    <tag k="addr:housenumber" v="5 1/2"/>
    <tag k="addr:street" v="Ford Street"/>
    <tag k="addr:state" v="VT"/>
    <tag k="ref:vcgi:esiteid" v="331328"/>
  </node>
  <node id="-2581" visible="true" lat="43.62535671" lon="-72.51381391">
    <tag k="addr:city" v="Woodstock"/>
    <tag k="addr:housenumber" v="19 1/2"/>
    <tag k="addr:street" v="Slayton Terrace"/>
    <tag k="addr:state" v="VT"/>
    <tag k="ref:vcgi:esiteid" v="331329"/>
  </node>
  <node id="-2582" visible="true" lat="43.62535674" lon="-72.51348892">
    <tag k="addr:city" v="Woodstock"/>
    <tag k="addr:housenumber" v="21 1/2"/>
    <tag k="addr:street" v="Slayton Terrace"/>
    <tag k="addr:state" v="VT"/>
    <tag k="ref:vcgi:esiteid" v="331330"/>
  </node>
  <node id="-2585" visible="true" lat="43.62667953" lon="-72.50723925">
    <tag k="addr:city" v="Woodstock"/>
    <tag k="addr:housenumber" v="66"/>
    <tag k="addr:street" v="Pleasant Street"/>
    <tag k="addr:state" v="VT"/>
    <tag k="ref:vcgi:esiteid" v="331333"/>
  </node>
  <node id="-2602" visible="true" lat="43.64064001" lon="-72.50749891">
    <tag k="addr:city" v="Woodstock"/>
    <tag k="addr:housenumber" v="4660"/>
    <tag k="addr:street" v="Cloudland Road"/>
    <tag k="addr:state" v="VT"/>
    <tag k="ref:vcgi:esiteid" v="331569"/>
  </node>
  <node id="-2605" visible="true" lat="43.561634" lon="-72.567925">
    <tag k="addr:city" v="Woodstock"/>
    <tag k="addr:housenumber" v="1190"/>
    <tag k="addr:street" v="Long Hill Road"/>
    <tag k="addr:state" v="VT"/>
    <tag k="ref:vcgi:esiteid" v="331573"/>
  </node>
  <node id="-2609" visible="true" lat="43.54961224" lon="-72.52289968">
    <tag k="addr:city" v="Woodstock"/>
    <tag k="addr:housenumber" v="21"/>
    <tag k="addr:street" v="Joshua Slayton Way"/>
    <tag k="addr:state" v="VT"/>
    <tag k="ref:vcgi:esiteid" v="331579"/>
  </node>
  <node id="-2628" visible="true" lat="43.58439634" lon="-72.61597575">
    <tag k="addr:city" v="Woodstock"/>
    <tag k="addr:housenumber" v="94"/>
    <tag k="addr:street" v="Larry Curtis Road"/>
    <tag k="addr:state" v="VT"/>
    <tag k="ref:vcgi:esiteid" v="333634"/>
  </node>
  <node id="-2630" visible="true" lat="43.56280017" lon="-72.56907212">
    <tag k="addr:city" v="Woodstock"/>
    <tag k="addr:housenumber" v="1262"/>
    <tag k="addr:street" v="Long Hill Road"/>
    <tag k="addr:state" v="VT"/>
    <tag k="ref:vcgi:esiteid" v="333637"/>
  </node>
  <node id="-2631" visible="true" lat="43.64862931" lon="-72.56180832">
    <tag k="addr:city" v="Woodstock"/>
    <tag k="addr:housenumber" v="6836"/>
    <tag k="addr:street" v="North Bridgewater Road"/>
    <tag k="addr:state" v="VT"/>
    <tag k="ref:vcgi:esiteid" v="333639"/>
  </node>
  <node id="-2632" visible="true" lat="43.55039976" lon="-72.51968087">
    <tag k="addr:city" v="Woodstock"/>
    <tag k="addr:housenumber" v="763"/>
    <tag k="addr:street" v="Calendar Hill Road"/>
    <tag k="addr:state" v="VT"/>
    <tag k="ref:vcgi:esiteid" v="333640"/>
  </node>
  <node id="-2639" visible="true" lat="43.57809531" lon="-72.51473868">
    <tag k="addr:city" v="Woodstock"/>
    <tag k="addr:housenumber" v="3283"/>
    <tag k="addr:street" v="South Road"/>
    <tag k="addr:state" v="VT"/>
    <tag k="ref:vcgi:esiteid" v="333657"/>
  </node>
  <node id="-2642" visible="true" lat="43.55342237" lon="-72.54993054">
    <tag k="addr:city" v="Woodstock"/>
    <tag k="addr:housenumber" v="25"/>
    <tag k="addr:street" v="Long Hill Road"/>
    <tag k="addr:state" v="VT"/>
    <tag k="ref:vcgi:esiteid" v="333666"/>
  </node>
  <node id="-2643" visible="true" lat="43.63112444" lon="-72.46706672">
    <tag k="addr:city" v="Woodstock"/>
    <tag k="addr:housenumber" v="201"/>
    <tag k="addr:street" v="Covered Bridge Road"/>
    <tag k="addr:state" v="VT"/>
    <tag k="ref:vcgi:esiteid" v="333668"/>
  </node>
  <node id="-2645" visible="true" lat="43.59144104" lon="-72.49889978">
    <tag k="addr:city" v="Woodstock"/>
    <tag k="addr:housenumber" v="25"/>
    <tag k="addr:street" v="The Lane"/>
    <tag k="addr:state" v="VT"/>
    <tag k="ref:vcgi:esiteid" v="333673"/>
  </node>
  <node id="-2646" visible="true" lat="43.58965918" lon="-72.61428633">
    <tag k="addr:city" v="Woodstock"/>
    <tag k="addr:housenumber" v="119"/>
    <tag k="addr:street" v="Westmont Way"/>
    <tag k="addr:state" v="VT"/>
    <tag k="ref:vcgi:esiteid" v="333675"/>
  </node>
  <node id="-2648" visible="true" lat="43.61444556" lon="-72.5971185">
    <tag k="addr:city" v="Woodstock"/>
    <tag k="addr:housenumber" v="1583"/>
    <tag k="addr:street" v="Westerdale Road"/>
    <tag k="addr:state" v="VT"/>
    <tag k="ref:vcgi:esiteid" v="333938"/>
  </node>
  <node id="-2651" visible="true" lat="43.63020682" lon="-72.47001408">
    <tag k="addr:city" v="Woodstock"/>
    <tag k="addr:housenumber" v="72"/>
    <tag k="addr:street" v="Happy Valley Road"/>
    <tag k="addr:state" v="VT"/>
    <tag k="ref:vcgi:esiteid" v="335416"/>
  </node>
  <node id="-2652" visible="true" lat="43.62355306" lon="-72.51704108">
    <tag k="addr:city" v="Woodstock"/>
    <tag k="addr:housenumber" v="28"/>
    <tag k="addr:street" v="High Street"/>
    <tag k="addr:state" v="VT"/>
    <tag k="ref:vcgi:esiteid" v="335418"/>
  </node>
  <node id="-2653" visible="true" lat="43.54321313" lon="-72.53116607">
    <tag k="addr:city" v="Woodstock"/>
    <tag k="addr:housenumber" v="1124"/>
    <tag k="addr:street" v="Morgan Hill Road"/>
    <tag k="addr:state" v="VT"/>
    <tag k="ref:vcgi:esiteid" v="335430"/>
  </node>
  <node id="-2654" visible="true" lat="43.61170586" lon="-72.60458318">
    <tag k="addr:city" v="Woodstock"/>
    <tag k="addr:housenumber" v="1018"/>
    <tag k="addr:street" v="Deer Brook Way"/>
    <tag k="addr:state" v="VT"/>
    <tag k="ref:vcgi:esiteid" v="335723"/>
  </node>
  <node id="-2655" visible="true" lat="43.56538181" lon="-72.51063187">
    <tag k="addr:city" v="Woodstock"/>
    <tag k="addr:housenumber" v="944"/>
    <tag k="addr:street" v="Folding Hills Road"/>
    <tag k="addr:state" v="VT"/>
    <tag k="ref:vcgi:esiteid" v="335898"/>
  </node>
  <node id="-2663" visible="true" lat="43.54489311" lon="-72.56824684">
    <tag k="addr:city" v="Woodstock"/>
    <tag k="addr:housenumber" v="929"/>
    <tag k="addr:street" v="Noah Wood Road"/>
    <tag k="addr:state" v="VT"/>
    <tag k="ref:vcgi:esiteid" v="341502"/>
  </node>
  <node id="-2664" visible="true" lat="43.59630981" lon="-72.60421013">
    <tag k="addr:city" v="Woodstock"/>
    <tag k="addr:housenumber" v="4726"/>
    <tag k="addr:street" v="West Woodstock Road"/>
    <tag k="addr:state" v="VT"/>
    <tag k="ref:vcgi:esiteid" v="341503"/>
  </node>
  <node id="-2679" visible="true" lat="43.62156458" lon="-72.50188485">
    <tag k="addr:city" v="Woodstock"/>
    <tag k="addr:housenumber" v="3961"/>
    <tag k="addr:street" v="Hartland Hill Road"/>
    <tag k="addr:state" v="VT"/>
    <tag k="ref:vcgi:esiteid" v="445393"/>
  </node>
  <node id="-2685" visible="true" lat="43.64523987" lon="-72.54963193">
    <tag k="addr:city" v="Woodstock"/>
    <tag k="addr:housenumber" v="1782"/>
    <tag k="addr:street" v="Barnard Road"/>
    <tag k="addr:state" v="VT"/>
    <tag k="ref:vcgi:esiteid" v="452603"/>
  </node>
  <node id="-2744" visible="true" lat="43.61581235" lon="-72.55646165">
    <tag k="addr:city" v="Woodstock"/>
    <tag k="addr:housenumber" v="136"/>
    <tag k="addr:street" v="Doten Drive"/>
    <tag k="addr:state" v="VT"/>
    <tag k="ref:vcgi:esiteid" v="760470"/>
  </node>
</osm>
