<?xml version="1.0" encoding="UTF-8"?>
<osm version="0.6" generator="JOSM">
  <node id="-100" visible="true" lat="44.44657616" lon="-72.37873145">
    <tag k="addr:city" v="Woodbury"/>
    <tag k="addr:housenumber" v="775"/>
    <tag k="addr:street" v="Swenson Quarry Road"/>
    <tag k="addr:state" v="VT"/>
    <tag k="ref:vcgi:esiteid" v="749"/>
  </node>
  <node id="-101" visible="true" lat="44.41065268" lon="-72.4517973">
    <tag k="addr:city" v="Woodbury"/>
    <tag k="addr:housenumber" v="83"/>
    <tag k="addr:street" v="Scribner Road"/>
    <tag k="addr:state" v="VT"/>
    <tag k="ref:vcgi:esiteid" v="56267"/>
  </node>
  <node id="-102" visible="true" lat="44.49772644" lon="-72.43696594">
    <tag k="addr:city" v="Woodbury"/>
    <tag k="addr:housenumber" v="1571"/>
    <tag k="addr:street" v="West Woodbury Road"/>
    <tag k="addr:state" v="VT"/>
    <tag k="ref:vcgi:esiteid" v="301415"/>
  </node>
  <node id="-109" visible="true" lat="44.49580765" lon="-72.41975403">
    <tag k="addr:city" v="Woodbury"/>
    <tag k="addr:housenumber" v="2415"/>
    <tag k="addr:street" v="West Woodbury Road"/>
    <tag k="addr:state" v="VT"/>
    <tag k="ref:vcgi:esiteid" v="301422"/>
  </node>
  <node id="-119" visible="true" lat="44.49208831" lon="-72.43712616">
    <tag k="addr:city" v="Woodbury"/>
    <tag k="addr:housenumber" v="1312"/>
    <tag k="addr:street" v="West Woodbury Road"/>
    <tag k="addr:state" v="VT"/>
    <tag k="ref:vcgi:esiteid" v="301432"/>
  </node>
  <node id="-130" visible="true" lat="44.48424529" lon="-72.43983459">
    <tag k="addr:city" v="Woodbury"/>
    <tag k="addr:housenumber" v="741"/>
    <tag k="addr:street" v="West Woodbury Road"/>
    <tag k="addr:state" v="VT"/>
    <tag k="ref:vcgi:esiteid" v="301443"/>
  </node>
  <node id="-132" visible="true" lat="44.48315811" lon="-72.43683624">
    <tag k="addr:city" v="Woodbury"/>
    <tag k="addr:housenumber" v="740"/>
    <tag k="addr:street" v="West Woodbury Road"/>
    <tag k="addr:state" v="VT"/>
    <tag k="ref:vcgi:esiteid" v="301445"/>
  </node>
  <node id="-134" visible="true" lat="44.48261261" lon="-72.4386444">
    <tag k="addr:city" v="Woodbury"/>
    <tag k="addr:housenumber" v="648"/>
    <tag k="addr:street" v="West Woodbury Road"/>
    <tag k="addr:state" v="VT"/>
    <tag k="ref:vcgi:esiteid" v="301447"/>
  </node>
  <node id="-140" visible="true" lat="44.48148345" lon="-72.44312286">
    <tag k="addr:city" v="Woodbury"/>
    <tag k="addr:housenumber" v="461"/>
    <tag k="addr:street" v="West Woodbury Road"/>
    <tag k="addr:state" v="VT"/>
    <tag k="ref:vcgi:esiteid" v="301453"/>
  </node>
  <node id="-151" visible="true" lat="44.47727584" lon="-72.39381408">
    <tag k="addr:city" v="Woodbury"/>
    <tag k="addr:housenumber" v="6871"/>
    <tag k="addr:street" v="Vermont Route 14"/>
    <tag k="addr:state" v="VT"/>
    <tag k="ref:vcgi:esiteid" v="301469"/>
  </node>
  <node id="-153" visible="true" lat="44.47530364" lon="-72.39531707">
    <tag k="addr:city" v="Woodbury"/>
    <tag k="addr:housenumber" v="6673"/>
    <tag k="addr:street" v="Vermont Route 14"/>
    <tag k="addr:state" v="VT"/>
    <tag k="ref:vcgi:esiteid" v="301471"/>
  </node>
  <node id="-154" visible="true" lat="44.47500535" lon="-72.38216637">
    <tag k="addr:city" v="Woodbury"/>
    <tag k="addr:housenumber" v="1124"/>
    <tag k="addr:street" v="Stratton Road"/>
    <tag k="addr:state" v="VT"/>
    <tag k="ref:vcgi:esiteid" v="301472"/>
  </node>
  <node id="-156" visible="true" lat="44.47286092" lon="-72.40043701">
    <tag k="addr:city" v="Woodbury"/>
    <tag k="addr:housenumber" v="6304"/>
    <tag k="addr:street" v="Vermont Route 14"/>
    <tag k="addr:state" v="VT"/>
    <tag k="ref:vcgi:esiteid" v="301474"/>
  </node>
  <node id="-158" visible="true" lat="44.46931076" lon="-72.41461944">
    <tag k="addr:city" v="Woodbury"/>
    <tag k="addr:housenumber" v="4789"/>
    <tag k="addr:street" v="County Road"/>
    <tag k="addr:state" v="VT"/>
    <tag k="ref:vcgi:esiteid" v="301476"/>
  </node>
  <node id="-160" visible="true" lat="44.46786117" lon="-72.41500854">
    <tag k="addr:city" v="Woodbury"/>
    <tag k="addr:housenumber" v="4711"/>
    <tag k="addr:street" v="County Road"/>
    <tag k="addr:state" v="VT"/>
    <tag k="ref:vcgi:esiteid" v="301478"/>
  </node>
  <node id="-161" visible="true" lat="44.4673767" lon="-72.41430664">
    <tag k="addr:city" v="Woodbury"/>
    <tag k="addr:housenumber" v="4714"/>
    <tag k="addr:street" v="County Road"/>
    <tag k="addr:state" v="VT"/>
    <tag k="ref:vcgi:esiteid" v="301479"/>
  </node>
  <node id="-163" visible="true" lat="44.46705245" lon="-72.40786743">
    <tag k="addr:city" v="Woodbury"/>
    <tag k="addr:housenumber" v="5920"/>
    <tag k="addr:street" v="Vermont Route 14"/>
    <tag k="addr:state" v="VT"/>
    <tag k="ref:vcgi:esiteid" v="301481"/>
  </node>
  <node id="-164" visible="true" lat="44.46658325" lon="-72.41519165">
    <tag k="addr:city" v="Woodbury"/>
    <tag k="addr:housenumber" v="4654"/>
    <tag k="addr:street" v="County Road"/>
    <tag k="addr:state" v="VT"/>
    <tag k="ref:vcgi:esiteid" v="301482"/>
  </node>
  <node id="-165" visible="true" lat="44.46641921" lon="-72.41205596">
    <tag k="addr:city" v="Woodbury"/>
    <tag k="addr:housenumber" v="5633"/>
    <tag k="addr:street" v="Vermont Route 14"/>
    <tag k="addr:state" v="VT"/>
    <tag k="ref:vcgi:esiteid" v="301483"/>
  </node>
  <node id="-166" visible="true" lat="44.46580109" lon="-72.41908519">
    <tag k="addr:city" v="Woodbury"/>
    <tag k="addr:housenumber" v="282"/>
    <tag k="addr:street" v="Greenwood Lake Road"/>
    <tag k="addr:state" v="VT"/>
    <tag k="ref:vcgi:esiteid" v="301484"/>
  </node>
  <node id="-167" visible="true" lat="44.46575927" lon="-72.41738128">
    <tag k="addr:city" v="Woodbury"/>
    <tag k="addr:housenumber" v="4532"/>
    <tag k="addr:street" v="County Road"/>
    <tag k="addr:state" v="VT"/>
    <tag k="ref:vcgi:esiteid" v="301485"/>
  </node>
  <node id="-169" visible="true" lat="44.46527707" lon="-72.41935619">
    <tag k="addr:city" v="Woodbury"/>
    <tag k="addr:housenumber" v="226"/>
    <tag k="addr:street" v="Greenwood Lake Road"/>
    <tag k="addr:state" v="VT"/>
    <tag k="ref:vcgi:esiteid" v="301487"/>
  </node>
  <node id="-170" visible="true" lat="44.46496772" lon="-72.41984685">
    <tag k="addr:city" v="Woodbury"/>
    <tag k="addr:housenumber" v="231"/>
    <tag k="addr:street" v="Greenwood Lake Road"/>
    <tag k="addr:state" v="VT"/>
    <tag k="ref:vcgi:esiteid" v="301488"/>
  </node>
  <node id="-171" visible="true" lat="44.46462873" lon="-72.4200783">
    <tag k="addr:city" v="Woodbury"/>
    <tag k="addr:housenumber" v="229"/>
    <tag k="addr:street" v="Greenwood Lake Road"/>
    <tag k="addr:state" v="VT"/>
    <tag k="ref:vcgi:esiteid" v="301489"/>
  </node>
  <node id="-172" visible="true" lat="44.46452707" lon="-72.42026676">
    <tag k="addr:city" v="Woodbury"/>
    <tag k="addr:housenumber" v="54"/>
    <tag k="addr:street" v="Poplar Road"/>
    <tag k="addr:state" v="VT"/>
    <tag k="ref:vcgi:esiteid" v="301490"/>
  </node>
  <node id="-174" visible="true" lat="44.46434212" lon="-72.42046494">
    <tag k="addr:city" v="Woodbury"/>
    <tag k="addr:housenumber" v="68"/>
    <tag k="addr:street" v="Poplar Road"/>
    <tag k="addr:state" v="VT"/>
    <tag k="ref:vcgi:esiteid" v="301492"/>
  </node>
  <node id="-175" visible="true" lat="44.46447978" lon="-72.33605121">
    <tag k="addr:city" v="Woodbury"/>
    <tag k="addr:housenumber" v="2035"/>
    <tag k="addr:street" v="Nichols Pond Road"/>
    <tag k="addr:state" v="VT"/>
    <tag k="ref:vcgi:esiteid" v="301493"/>
  </node>
  <node id="-177" visible="true" lat="44.4641838" lon="-72.41369628">
    <tag k="addr:city" v="Woodbury"/>
    <tag k="addr:housenumber" v="27"/>
    <tag k="addr:street" v="Buck Lake Road"/>
    <tag k="addr:state" v="VT"/>
    <tag k="ref:vcgi:esiteid" v="301495"/>
  </node>
  <node id="-179" visible="true" lat="44.46404647" lon="-72.42085266">
    <tag k="addr:city" v="Woodbury"/>
    <tag k="addr:housenumber" v="92"/>
    <tag k="addr:street" v="Poplar Road"/>
    <tag k="addr:state" v="VT"/>
    <tag k="ref:vcgi:esiteid" v="301497"/>
  </node>
  <node id="-180" visible="true" lat="44.46385955" lon="-72.41464233">
    <tag k="addr:city" v="Woodbury"/>
    <tag k="addr:housenumber" v="25"/>
    <tag k="addr:street" v="Buck Lake Road"/>
    <tag k="addr:state" v="VT"/>
    <tag k="ref:vcgi:esiteid" v="301498"/>
  </node>
  <node id="-181" visible="true" lat="44.463846" lon="-72.41621278">
    <tag k="addr:city" v="Woodbury"/>
    <tag k="addr:housenumber" v="20"/>
    <tag k="addr:street" v="Greenwood Lake Road"/>
    <tag k="addr:state" v="VT"/>
    <tag k="ref:vcgi:esiteid" v="301499"/>
  </node>
  <node id="-182" visible="true" lat="44.46344953" lon="-72.41985572">
    <tag k="addr:city" v="Woodbury"/>
    <tag k="addr:housenumber" v="107"/>
    <tag k="addr:street" v="Greenwood Lake Road"/>
    <tag k="addr:state" v="VT"/>
    <tag k="ref:vcgi:esiteid" v="301500"/>
  </node>
  <node id="-183" visible="true" lat="44.46369806" lon="-72.40510222">
    <tag k="addr:city" v="Woodbury"/>
    <tag k="addr:housenumber" v="756"/>
    <tag k="addr:street" v="Buck Lake Road"/>
    <tag k="addr:state" v="VT"/>
    <tag k="ref:vcgi:esiteid" v="301501"/>
  </node>
  <node id="-185" visible="true" lat="44.46286735" lon="-72.42176434">
    <tag k="addr:city" v="Woodbury"/>
    <tag k="addr:housenumber" v="191"/>
    <tag k="addr:street" v="Poplar Road"/>
    <tag k="addr:state" v="VT"/>
    <tag k="ref:vcgi:esiteid" v="301503"/>
  </node>
  <node id="-186" visible="true" lat="44.46298456" lon="-72.42242591">
    <tag k="addr:city" v="Woodbury"/>
    <tag k="addr:housenumber" v="206"/>
    <tag k="addr:street" v="Poplar Road"/>
    <tag k="addr:state" v="VT"/>
    <tag k="ref:vcgi:esiteid" v="301504"/>
  </node>
  <node id="-187" visible="true" lat="44.46297238" lon="-72.41527258">
    <tag k="addr:city" v="Woodbury"/>
    <tag k="addr:housenumber" v="51"/>
    <tag k="addr:street" v="Buck Lake Road"/>
    <tag k="addr:state" v="VT"/>
    <tag k="ref:vcgi:esiteid" v="301505"/>
  </node>
  <node id="-188" visible="true" lat="44.46274185" lon="-72.4256134">
    <tag k="addr:city" v="Woodbury"/>
    <tag k="addr:housenumber" v="4038"/>
    <tag k="addr:street" v="County Road"/>
    <tag k="addr:state" v="VT"/>
    <tag k="ref:vcgi:esiteid" v="301506"/>
  </node>
  <node id="-189" visible="true" lat="44.46250903" lon="-72.42240069">
    <tag k="addr:city" v="Woodbury"/>
    <tag k="addr:housenumber" v="195"/>
    <tag k="addr:street" v="Poplar Road"/>
    <tag k="addr:state" v="VT"/>
    <tag k="ref:vcgi:esiteid" v="301507"/>
  </node>
  <node id="-190" visible="true" lat="44.46271878" lon="-72.41432713">
    <tag k="addr:city" v="Woodbury"/>
    <tag k="addr:housenumber" v="121"/>
    <tag k="addr:street" v="Buck Lake Road"/>
    <tag k="addr:state" v="VT"/>
    <tag k="ref:vcgi:esiteid" v="301508"/>
  </node>
  <node id="-191" visible="true" lat="44.46263122" lon="-72.42597961">
    <tag k="addr:city" v="Woodbury"/>
    <tag k="addr:housenumber" v="4018"/>
    <tag k="addr:street" v="County Road"/>
    <tag k="addr:state" v="VT"/>
    <tag k="ref:vcgi:esiteid" v="301509"/>
  </node>
  <node id="-194" visible="true" lat="44.46244811" lon="-72.42643737">
    <tag k="addr:city" v="Woodbury"/>
    <tag k="addr:housenumber" v="3992"/>
    <tag k="addr:street" v="County Road"/>
    <tag k="addr:state" v="VT"/>
    <tag k="ref:vcgi:esiteid" v="301512"/>
  </node>
  <node id="-195" visible="true" lat="44.46242141" lon="-72.42354583">
    <tag k="addr:city" v="Woodbury"/>
    <tag k="addr:housenumber" v="4104"/>
    <tag k="addr:street" v="County Road"/>
    <tag k="addr:state" v="VT"/>
    <tag k="ref:vcgi:esiteid" v="301513"/>
  </node>
  <node id="-196" visible="true" lat="44.46233749" lon="-72.42658996">
    <tag k="addr:city" v="Woodbury"/>
    <tag k="addr:housenumber" v="3972"/>
    <tag k="addr:street" v="County Road"/>
    <tag k="addr:state" v="VT"/>
    <tag k="ref:vcgi:esiteid" v="301514"/>
  </node>
  <node id="-198" visible="true" lat="44.46223831" lon="-72.41539764">
    <tag k="addr:city" v="Woodbury"/>
    <tag k="addr:housenumber" v="84"/>
    <tag k="addr:street" v="Buck Lake Road"/>
    <tag k="addr:state" v="VT"/>
    <tag k="ref:vcgi:esiteid" v="301516"/>
  </node>
  <node id="-200" visible="true" lat="44.46219634" lon="-72.42693328">
    <tag k="addr:city" v="Woodbury"/>
    <tag k="addr:housenumber" v="3964"/>
    <tag k="addr:street" v="County Road"/>
    <tag k="addr:state" v="VT"/>
    <tag k="ref:vcgi:esiteid" v="301518"/>
  </node>
  <node id="-202" visible="true" lat="44.46207697" lon="-72.41872314">
    <tag k="addr:city" v="Woodbury"/>
    <tag k="addr:housenumber" v="43"/>
    <tag k="addr:street" v="Greenwood Lake Road"/>
    <tag k="addr:state" v="VT"/>
    <tag k="ref:vcgi:esiteid" v="301520"/>
  </node>
  <node id="-203" visible="true" lat="44.46171881" lon="-72.4101499">
    <tag k="addr:city" v="Woodbury"/>
    <tag k="addr:housenumber" v="484"/>
    <tag k="addr:street" v="Buck Lake Road"/>
    <tag k="addr:state" v="VT"/>
    <tag k="ref:vcgi:esiteid" v="301521"/>
  </node>
  <node id="-204" visible="true" lat="44.46199508" lon="-72.42733719">
    <tag k="addr:city" v="Woodbury"/>
    <tag k="addr:housenumber" v="9"/>
    <tag k="addr:street" v="Hovey Road"/>
    <tag k="addr:state" v="VT"/>
    <tag k="ref:vcgi:esiteid" v="301522"/>
  </node>
  <node id="-205" visible="true" lat="44.46173493" lon="-72.4214868">
    <tag k="addr:city" v="Woodbury"/>
    <tag k="addr:housenumber" v="220"/>
    <tag k="addr:street" v="Ice House Road"/>
    <tag k="addr:state" v="VT"/>
    <tag k="ref:vcgi:esiteid" v="301523"/>
  </node>
  <node id="-206" visible="true" lat="44.46164321" lon="-72.42249298">
    <tag k="addr:city" v="Woodbury"/>
    <tag k="addr:housenumber" v="255"/>
    <tag k="addr:street" v="Ice House Road"/>
    <tag k="addr:state" v="VT"/>
    <tag k="ref:vcgi:esiteid" v="301524"/>
  </node>
  <node id="-208" visible="true" lat="44.46143722" lon="-72.4141922">
    <tag k="addr:city" v="Woodbury"/>
    <tag k="addr:housenumber" v="163"/>
    <tag k="addr:street" v="Buck Lake Road"/>
    <tag k="addr:state" v="VT"/>
    <tag k="ref:vcgi:esiteid" v="301526"/>
  </node>
  <node id="-209" visible="true" lat="44.46117019" lon="-72.42259216">
    <tag k="addr:city" v="Woodbury"/>
    <tag k="addr:housenumber" v="92"/>
    <tag k="addr:street" v="Birch Road"/>
    <tag k="addr:state" v="VT"/>
    <tag k="ref:vcgi:esiteid" v="301527"/>
  </node>
  <node id="-212" visible="true" lat="44.46096468" lon="-72.42306857">
    <tag k="addr:city" v="Woodbury"/>
    <tag k="addr:housenumber" v="93"/>
    <tag k="addr:street" v="Birch Road"/>
    <tag k="addr:state" v="VT"/>
    <tag k="ref:vcgi:esiteid" v="301530"/>
  </node>
  <node id="-213" visible="true" lat="44.46100983" lon="-72.42158905">
    <tag k="addr:city" v="Woodbury"/>
    <tag k="addr:housenumber" v="187"/>
    <tag k="addr:street" v="Ice House Road"/>
    <tag k="addr:state" v="VT"/>
    <tag k="ref:vcgi:esiteid" v="301531"/>
  </node>
  <node id="-214" visible="true" lat="44.46105753" lon="-72.42640397">
    <tag k="addr:city" v="Woodbury"/>
    <tag k="addr:housenumber" v="121"/>
    <tag k="addr:street" v="Hovey Road"/>
    <tag k="addr:state" v="VT"/>
    <tag k="ref:vcgi:esiteid" v="301532"/>
  </node>
  <node id="-215" visible="true" lat="44.46094131" lon="-72.42478179">
    <tag k="addr:city" v="Woodbury"/>
    <tag k="addr:housenumber" v="249"/>
    <tag k="addr:street" v="Hovey Road"/>
    <tag k="addr:state" v="VT"/>
    <tag k="ref:vcgi:esiteid" v="301533"/>
  </node>
  <node id="-216" visible="true" lat="44.4608612" lon="-72.41593933">
    <tag k="addr:city" v="Woodbury"/>
    <tag k="addr:housenumber" v="44"/>
    <tag k="addr:street" v="Buck Lake Road"/>
    <tag k="addr:state" v="VT"/>
    <tag k="ref:vcgi:esiteid" v="301534"/>
  </node>
  <node id="-217" visible="true" lat="44.46089927" lon="-72.4261922">
    <tag k="addr:city" v="Woodbury"/>
    <tag k="addr:housenumber" v="135"/>
    <tag k="addr:street" v="Hovey Road"/>
    <tag k="addr:state" v="VT"/>
    <tag k="ref:vcgi:esiteid" v="301535"/>
  </node>
  <node id="-219" visible="true" lat="44.46070872" lon="-72.42659697">
    <tag k="addr:city" v="Woodbury"/>
    <tag k="addr:housenumber" v="122"/>
    <tag k="addr:street" v="Hovey Road"/>
    <tag k="addr:state" v="VT"/>
    <tag k="ref:vcgi:esiteid" v="301537"/>
  </node>
  <node id="-220" visible="true" lat="44.46071427" lon="-72.42273294">
    <tag k="addr:city" v="Woodbury"/>
    <tag k="addr:housenumber" v="79"/>
    <tag k="addr:street" v="Birch Road"/>
    <tag k="addr:state" v="VT"/>
    <tag k="ref:vcgi:esiteid" v="301538"/>
  </node>
  <node id="-221" visible="true" lat="44.46080398" lon="-72.41862487">
    <tag k="addr:city" v="Woodbury"/>
    <tag k="addr:housenumber" v="5087"/>
    <tag k="addr:street" v="Vermont Route 14"/>
    <tag k="addr:state" v="VT"/>
    <tag k="ref:vcgi:esiteid" v="301539"/>
  </node>
  <node id="-222" visible="true" lat="44.46078491" lon="-72.42953491">
    <tag k="addr:city" v="Woodbury"/>
    <tag k="addr:housenumber" v="3799"/>
    <tag k="addr:street" v="County Road"/>
    <tag k="addr:state" v="VT"/>
    <tag k="ref:vcgi:esiteid" v="301540"/>
  </node>
  <node id="-223" visible="true" lat="44.46072387" lon="-72.40904235">
    <tag k="addr:city" v="Woodbury"/>
    <tag k="addr:housenumber" v="486"/>
    <tag k="addr:street" v="Buck Lake Road"/>
    <tag k="addr:state" v="VT"/>
    <tag k="ref:vcgi:esiteid" v="301541"/>
  </node>
  <node id="-224" visible="true" lat="44.46084137" lon="-72.42079843">
    <tag k="addr:city" v="Woodbury"/>
    <tag k="addr:housenumber" v="134"/>
    <tag k="addr:street" v="Ice House Road"/>
    <tag k="addr:state" v="VT"/>
    <tag k="ref:vcgi:esiteid" v="301542"/>
  </node>
  <node id="-225" visible="true" lat="44.46069616" lon="-72.42570934">
    <tag k="addr:city" v="Woodbury"/>
    <tag k="addr:housenumber" v="165"/>
    <tag k="addr:street" v="Hovey Road"/>
    <tag k="addr:state" v="VT"/>
    <tag k="ref:vcgi:esiteid" v="301543"/>
  </node>
  <node id="-226" visible="true" lat="44.46051029" lon="-72.42504427">
    <tag k="addr:city" v="Woodbury"/>
    <tag k="addr:housenumber" v="211"/>
    <tag k="addr:street" v="Hovey Road"/>
    <tag k="addr:state" v="VT"/>
    <tag k="ref:vcgi:esiteid" v="301544"/>
  </node>
  <node id="-227" visible="true" lat="44.46037687" lon="-72.4264577">
    <tag k="addr:city" v="Woodbury"/>
    <tag k="addr:housenumber" v="20"/>
    <tag k="addr:street" v="South Hovey Road"/>
    <tag k="addr:state" v="VT"/>
    <tag k="ref:vcgi:esiteid" v="301545"/>
  </node>
  <node id="-228" visible="true" lat="44.46049124" lon="-72.42538571">
    <tag k="addr:city" v="Woodbury"/>
    <tag k="addr:housenumber" v="195"/>
    <tag k="addr:street" v="Hovey Road"/>
    <tag k="addr:state" v="VT"/>
    <tag k="ref:vcgi:esiteid" v="301546"/>
  </node>
  <node id="-229" visible="true" lat="44.46061246" lon="-72.42243586">
    <tag k="addr:city" v="Woodbury"/>
    <tag k="addr:housenumber" v="51"/>
    <tag k="addr:street" v="Birch Road"/>
    <tag k="addr:state" v="VT"/>
    <tag k="ref:vcgi:esiteid" v="301547"/>
  </node>
  <node id="-230" visible="true" lat="44.46027755" lon="-72.41767883">
    <tag k="addr:city" v="Woodbury"/>
    <tag k="addr:housenumber" v="5076"/>
    <tag k="addr:street" v="Vermont Route 14"/>
    <tag k="addr:state" v="VT"/>
    <tag k="ref:vcgi:esiteid" v="301548"/>
  </node>
  <node id="-231" visible="true" lat="44.46027468" lon="-72.42210086">
    <tag k="addr:city" v="Woodbury"/>
    <tag k="addr:housenumber" v="35"/>
    <tag k="addr:street" v="Birch Road"/>
    <tag k="addr:state" v="VT"/>
    <tag k="ref:vcgi:esiteid" v="301549"/>
  </node>
  <node id="-232" visible="true" lat="44.46020785" lon="-72.42584783">
    <tag k="addr:city" v="Woodbury"/>
    <tag k="addr:housenumber" v="47"/>
    <tag k="addr:street" v="South Hovey Road"/>
    <tag k="addr:state" v="VT"/>
    <tag k="ref:vcgi:esiteid" v="301550"/>
  </node>
  <node id="-233" visible="true" lat="44.46006914" lon="-72.42187718">
    <tag k="addr:city" v="Woodbury"/>
    <tag k="addr:housenumber" v="33"/>
    <tag k="addr:street" v="Birch Road"/>
    <tag k="addr:state" v="VT"/>
    <tag k="ref:vcgi:esiteid" v="301551"/>
  </node>
  <node id="-234" visible="true" lat="44.45993804" lon="-72.42539978">
    <tag k="addr:city" v="Woodbury"/>
    <tag k="addr:housenumber" v="69"/>
    <tag k="addr:street" v="South Hovey Road"/>
    <tag k="addr:state" v="VT"/>
    <tag k="ref:vcgi:esiteid" v="301552"/>
  </node>
  <node id="-236" visible="true" lat="44.45960235" lon="-72.42656707">
    <tag k="addr:city" v="Woodbury"/>
    <tag k="addr:housenumber" v="84"/>
    <tag k="addr:street" v="South Hovey Road"/>
    <tag k="addr:state" v="VT"/>
    <tag k="ref:vcgi:esiteid" v="301554"/>
  </node>
  <node id="-237" visible="true" lat="44.45944213" lon="-72.4257965">
    <tag k="addr:city" v="Woodbury"/>
    <tag k="addr:housenumber" v="77"/>
    <tag k="addr:street" v="South Hovey Road"/>
    <tag k="addr:state" v="VT"/>
    <tag k="ref:vcgi:esiteid" v="301555"/>
  </node>
  <node id="-238" visible="true" lat="44.45936584" lon="-72.41814422">
    <tag k="addr:city" v="Woodbury"/>
    <tag k="addr:housenumber" v="5012"/>
    <tag k="addr:street" v="Vermont Route 14"/>
    <tag k="addr:state" v="VT"/>
    <tag k="ref:vcgi:esiteid" v="301556"/>
  </node>
  <node id="-239" visible="true" lat="44.45935821" lon="-72.41744232">
    <tag k="addr:city" v="Woodbury"/>
    <tag k="addr:housenumber" v="5022"/>
    <tag k="addr:street" v="Vermont Route 14"/>
    <tag k="addr:state" v="VT"/>
    <tag k="ref:vcgi:esiteid" v="301557"/>
  </node>
  <node id="-240" visible="true" lat="44.45918461" lon="-72.4258277">
    <tag k="addr:city" v="Woodbury"/>
    <tag k="addr:housenumber" v="79"/>
    <tag k="addr:street" v="South Hovey Road"/>
    <tag k="addr:state" v="VT"/>
    <tag k="ref:vcgi:esiteid" v="301558"/>
  </node>
  <node id="-241" visible="true" lat="44.45920551" lon="-72.42149773">
    <tag k="addr:city" v="Woodbury"/>
    <tag k="addr:housenumber" v="122"/>
    <tag k="addr:street" v="Meadow Lane"/>
    <tag k="addr:state" v="VT"/>
    <tag k="ref:vcgi:esiteid" v="301559"/>
  </node>
  <node id="-242" visible="true" lat="44.45901998" lon="-72.4219492">
    <tag k="addr:city" v="Woodbury"/>
    <tag k="addr:housenumber" v="124"/>
    <tag k="addr:street" v="Meadow Lane"/>
    <tag k="addr:state" v="VT"/>
    <tag k="ref:vcgi:esiteid" v="301560"/>
  </node>
  <node id="-245" visible="true" lat="44.45858383" lon="-72.41773223">
    <tag k="addr:city" v="Woodbury"/>
    <tag k="addr:housenumber" v="4994"/>
    <tag k="addr:street" v="Vermont Route 14"/>
    <tag k="addr:state" v="VT"/>
    <tag k="ref:vcgi:esiteid" v="301563"/>
  </node>
  <node id="-247" visible="true" lat="44.45845031" lon="-72.42413329">
    <tag k="addr:city" v="Woodbury"/>
    <tag k="addr:housenumber" v="329"/>
    <tag k="addr:street" v="Meadow Lane"/>
    <tag k="addr:state" v="VT"/>
    <tag k="ref:vcgi:esiteid" v="301565"/>
  </node>
  <node id="-248" visible="true" lat="44.45851306" lon="-72.4230799">
    <tag k="addr:city" v="Woodbury"/>
    <tag k="addr:housenumber" v="310"/>
    <tag k="addr:street" v="Meadow Lane"/>
    <tag k="addr:state" v="VT"/>
    <tag k="ref:vcgi:esiteid" v="301566"/>
  </node>
  <node id="-249" visible="true" lat="44.45775845" lon="-72.42081627">
    <tag k="addr:city" v="Woodbury"/>
    <tag k="addr:housenumber" v="48"/>
    <tag k="addr:street" v="Meadow Lane"/>
    <tag k="addr:state" v="VT"/>
    <tag k="ref:vcgi:esiteid" v="301567"/>
  </node>
  <node id="-250" visible="true" lat="44.45779206" lon="-72.41805972">
    <tag k="addr:city" v="Woodbury"/>
    <tag k="addr:housenumber" v="4942"/>
    <tag k="addr:street" v="Vermont Route 14"/>
    <tag k="addr:state" v="VT"/>
    <tag k="ref:vcgi:esiteid" v="301568"/>
  </node>
  <node id="-251" visible="true" lat="44.45749844" lon="-72.42413009">
    <tag k="addr:city" v="Woodbury"/>
    <tag k="addr:housenumber" v="267"/>
    <tag k="addr:street" v="Meadow Lane"/>
    <tag k="addr:state" v="VT"/>
    <tag k="ref:vcgi:esiteid" v="301569"/>
  </node>
  <node id="-252" visible="true" lat="44.45721806" lon="-72.42363587">
    <tag k="addr:city" v="Woodbury"/>
    <tag k="addr:housenumber" v="216"/>
    <tag k="addr:street" v="Meadow Lane"/>
    <tag k="addr:state" v="VT"/>
    <tag k="ref:vcgi:esiteid" v="301571"/>
  </node>
  <node id="-253" visible="true" lat="44.45717047" lon="-72.42428991">
    <tag k="addr:city" v="Woodbury"/>
    <tag k="addr:housenumber" v="245"/>
    <tag k="addr:street" v="Meadow Lane"/>
    <tag k="addr:state" v="VT"/>
    <tag k="ref:vcgi:esiteid" v="301572"/>
  </node>
  <node id="-254" visible="true" lat="44.45705802" lon="-72.42043954">
    <tag k="addr:city" v="Woodbury"/>
    <tag k="addr:housenumber" v="4825"/>
    <tag k="addr:street" v="Vermont Route 14"/>
    <tag k="addr:state" v="VT"/>
    <tag k="ref:vcgi:esiteid" v="301573"/>
  </node>
  <node id="-255" visible="true" lat="44.456911" lon="-72.42457794">
    <tag k="addr:city" v="Woodbury"/>
    <tag k="addr:housenumber" v="237"/>
    <tag k="addr:street" v="Meadow Lane"/>
    <tag k="addr:state" v="VT"/>
    <tag k="ref:vcgi:esiteid" v="301574"/>
  </node>
  <node id="-256" visible="true" lat="44.4568405" lon="-72.42404198">
    <tag k="addr:city" v="Woodbury"/>
    <tag k="addr:housenumber" v="231"/>
    <tag k="addr:street" v="Meadow Lane"/>
    <tag k="addr:state" v="VT"/>
    <tag k="ref:vcgi:esiteid" v="301575"/>
  </node>
  <node id="-257" visible="true" lat="44.45682713" lon="-72.42360496">
    <tag k="addr:city" v="Woodbury"/>
    <tag k="addr:housenumber" v="223"/>
    <tag k="addr:street" v="Meadow Lane"/>
    <tag k="addr:state" v="VT"/>
    <tag k="ref:vcgi:esiteid" v="301576"/>
  </node>
  <node id="-258" visible="true" lat="44.45639809" lon="-72.42129928">
    <tag k="addr:city" v="Woodbury"/>
    <tag k="addr:housenumber" v="92"/>
    <tag k="addr:street" v="Sunny Lane"/>
    <tag k="addr:state" v="VT"/>
    <tag k="ref:vcgi:esiteid" v="301577"/>
  </node>
  <node id="-259" visible="true" lat="44.45623588" lon="-72.42287032">
    <tag k="addr:city" v="Woodbury"/>
    <tag k="addr:housenumber" v="52"/>
    <tag k="addr:street" v="Sunny Lane"/>
    <tag k="addr:state" v="VT"/>
    <tag k="ref:vcgi:esiteid" v="301578"/>
  </node>
  <node id="-260" visible="true" lat="44.45600128" lon="-72.41964721">
    <tag k="addr:city" v="Woodbury"/>
    <tag k="addr:housenumber" v="4766"/>
    <tag k="addr:street" v="Vermont Route 14"/>
    <tag k="addr:state" v="VT"/>
    <tag k="ref:vcgi:esiteid" v="301579"/>
  </node>
  <node id="-261" visible="true" lat="44.45585452" lon="-72.4225201">
    <tag k="addr:city" v="Woodbury"/>
    <tag k="addr:housenumber" v="183"/>
    <tag k="addr:street" v="Sunny Lane"/>
    <tag k="addr:state" v="VT"/>
    <tag k="ref:vcgi:esiteid" v="301580"/>
  </node>
  <node id="-262" visible="true" lat="44.45578439" lon="-72.42241868">
    <tag k="addr:city" v="Woodbury"/>
    <tag k="addr:housenumber" v="177"/>
    <tag k="addr:street" v="Sunny Lane"/>
    <tag k="addr:state" v="VT"/>
    <tag k="ref:vcgi:esiteid" v="301581"/>
  </node>
  <node id="-263" visible="true" lat="44.45573811" lon="-72.42233487">
    <tag k="addr:city" v="Woodbury"/>
    <tag k="addr:housenumber" v="173"/>
    <tag k="addr:street" v="Sunny Lane"/>
    <tag k="addr:state" v="VT"/>
    <tag k="ref:vcgi:esiteid" v="301582"/>
  </node>
  <node id="-264" visible="true" lat="44.45567906" lon="-72.42224108">
    <tag k="addr:city" v="Woodbury"/>
    <tag k="addr:housenumber" v="167"/>
    <tag k="addr:street" v="Sunny Lane"/>
    <tag k="addr:state" v="VT"/>
    <tag k="ref:vcgi:esiteid" v="301583"/>
  </node>
  <node id="-265" visible="true" lat="44.45563137" lon="-72.42117056">
    <tag k="addr:city" v="Woodbury"/>
    <tag k="addr:housenumber" v="123"/>
    <tag k="addr:street" v="Sunny Lane"/>
    <tag k="addr:state" v="VT"/>
    <tag k="ref:vcgi:esiteid" v="301584"/>
  </node>
  <node id="-266" visible="true" lat="44.45566684" lon="-72.42207672">
    <tag k="addr:city" v="Woodbury"/>
    <tag k="addr:housenumber" v="163"/>
    <tag k="addr:street" v="Sunny Lane"/>
    <tag k="addr:state" v="VT"/>
    <tag k="ref:vcgi:esiteid" v="301585"/>
  </node>
  <node id="-267" visible="true" lat="44.45571702" lon="-72.4217093">
    <tag k="addr:city" v="Woodbury"/>
    <tag k="addr:housenumber" v="153"/>
    <tag k="addr:street" v="Sunny Lane"/>
    <tag k="addr:state" v="VT"/>
    <tag k="ref:vcgi:esiteid" v="301586"/>
  </node>
  <node id="-268" visible="true" lat="44.45568084" lon="-72.42663574">
    <tag k="addr:city" v="Woodbury"/>
    <tag k="addr:housenumber" v="195"/>
    <tag k="addr:street" v="Meadow Lane"/>
    <tag k="addr:state" v="VT"/>
    <tag k="ref:vcgi:esiteid" v="301587"/>
  </node>
  <node id="-269" visible="true" lat="44.45564266" lon="-72.42155058">
    <tag k="addr:city" v="Woodbury"/>
    <tag k="addr:housenumber" v="135"/>
    <tag k="addr:street" v="Sunny Lane"/>
    <tag k="addr:state" v="VT"/>
    <tag k="ref:vcgi:esiteid" v="301588"/>
  </node>
  <node id="-270" visible="true" lat="44.45529174" lon="-72.34042358">
    <tag k="addr:city" v="Woodbury"/>
    <tag k="addr:housenumber" v="1053"/>
    <tag k="addr:street" v="South Lake Road"/>
    <tag k="addr:state" v="VT"/>
    <tag k="ref:vcgi:esiteid" v="301589"/>
  </node>
  <node id="-271" visible="true" lat="44.45515953" lon="-72.4300693">
    <tag k="addr:city" v="Woodbury"/>
    <tag k="addr:housenumber" v="1089"/>
    <tag k="addr:street" v="Bailey Bridge Road"/>
    <tag k="addr:state" v="VT"/>
    <tag k="ref:vcgi:esiteid" v="301590"/>
  </node>
  <node id="-272" visible="true" lat="44.45500564" lon="-72.34049987">
    <tag k="addr:city" v="Woodbury"/>
    <tag k="addr:housenumber" v="1051"/>
    <tag k="addr:street" v="South Lake Road"/>
    <tag k="addr:state" v="VT"/>
    <tag k="ref:vcgi:esiteid" v="301591"/>
  </node>
  <node id="-276" visible="true" lat="44.45468902" lon="-72.42330932">
    <tag k="addr:city" v="Woodbury"/>
    <tag k="addr:housenumber" v="45"/>
    <tag k="addr:street" v="Medawila Lane"/>
    <tag k="addr:state" v="VT"/>
    <tag k="ref:vcgi:esiteid" v="301595"/>
  </node>
  <node id="-277" visible="true" lat="44.45451354" lon="-72.42487335">
    <tag k="addr:city" v="Woodbury"/>
    <tag k="addr:housenumber" v="9"/>
    <tag k="addr:street" v="Medawila Lane"/>
    <tag k="addr:state" v="VT"/>
    <tag k="ref:vcgi:esiteid" v="301596"/>
  </node>
  <node id="-278" visible="true" lat="44.45390959" lon="-72.42442195">
    <tag k="addr:city" v="Woodbury"/>
    <tag k="addr:housenumber" v="236"/>
    <tag k="addr:street" v="Bailey Bridge Road"/>
    <tag k="addr:state" v="VT"/>
    <tag k="ref:vcgi:esiteid" v="301597"/>
  </node>
  <node id="-279" visible="true" lat="44.45309448" lon="-72.34508514">
    <tag k="addr:city" v="Woodbury"/>
    <tag k="addr:housenumber" v="765"/>
    <tag k="addr:street" v="South Lake Road"/>
    <tag k="addr:state" v="VT"/>
    <tag k="ref:vcgi:esiteid" v="301598"/>
  </node>
  <node id="-280" visible="true" lat="44.45273415" lon="-72.43102721">
    <tag k="addr:city" v="Woodbury"/>
    <tag k="addr:housenumber" v="912"/>
    <tag k="addr:street" v="Bailey Bridge Road"/>
    <tag k="addr:state" v="VT"/>
    <tag k="ref:vcgi:esiteid" v="301599"/>
  </node>
  <node id="-281" visible="true" lat="44.45261001" lon="-72.43534851">
    <tag k="addr:city" v="Woodbury"/>
    <tag k="addr:housenumber" v="907"/>
    <tag k="addr:street" v="Bailey Bridge Road"/>
    <tag k="addr:state" v="VT"/>
    <tag k="ref:vcgi:esiteid" v="301600"/>
  </node>
  <node id="-282" visible="true" lat="44.45362883" lon="-72.42555355">
    <tag k="addr:city" v="Woodbury"/>
    <tag k="addr:housenumber" v="322"/>
    <tag k="addr:street" v="Bailey Bridge Road"/>
    <tag k="addr:state" v="VT"/>
    <tag k="ref:vcgi:esiteid" v="301601"/>
  </node>
  <node id="-283" visible="true" lat="44.45171737" lon="-72.42355346">
    <tag k="addr:city" v="Woodbury"/>
    <tag k="addr:housenumber" v="93"/>
    <tag k="addr:street" v="Bailey Bridge Road"/>
    <tag k="addr:state" v="VT"/>
    <tag k="ref:vcgi:esiteid" v="301602"/>
  </node>
  <node id="-284" visible="true" lat="44.45105831" lon="-72.43823023">
    <tag k="addr:city" v="Woodbury"/>
    <tag k="addr:housenumber" v="91"/>
    <tag k="addr:street" v="Pepper Drive"/>
    <tag k="addr:state" v="VT"/>
    <tag k="ref:vcgi:esiteid" v="301603"/>
  </node>
  <node id="-285" visible="true" lat="44.45074907" lon="-72.43987615">
    <tag k="addr:city" v="Woodbury"/>
    <tag k="addr:housenumber" v="333"/>
    <tag k="addr:street" v="Pepper Drive"/>
    <tag k="addr:state" v="VT"/>
    <tag k="ref:vcgi:esiteid" v="301604"/>
  </node>
  <node id="-286" visible="true" lat="44.45006481" lon="-72.41287661">
    <tag k="addr:city" v="Woodbury"/>
    <tag k="addr:housenumber" v="498"/>
    <tag k="addr:street" v="Town Farm Road"/>
    <tag k="addr:state" v="VT"/>
    <tag k="ref:vcgi:esiteid" v="301605"/>
  </node>
  <node id="-287" visible="true" lat="44.45026016" lon="-72.43524932">
    <tag k="addr:city" v="Woodbury"/>
    <tag k="addr:housenumber" v="767"/>
    <tag k="addr:street" v="Bailey Bridge Road"/>
    <tag k="addr:state" v="VT"/>
    <tag k="ref:vcgi:esiteid" v="301606"/>
  </node>
  <node id="-288" visible="true" lat="44.45018386" lon="-72.41628265">
    <tag k="addr:city" v="Woodbury"/>
    <tag k="addr:housenumber" v="107"/>
    <tag k="addr:street" v="Ainsworth Road"/>
    <tag k="addr:state" v="VT"/>
    <tag k="ref:vcgi:esiteid" v="301607"/>
  </node>
  <node id="-289" visible="true" lat="44.44998168" lon="-72.41828155">
    <tag k="addr:city" v="Woodbury"/>
    <tag k="addr:housenumber" v="4331"/>
    <tag k="addr:street" v="Vermont Route 14"/>
    <tag k="addr:state" v="VT"/>
    <tag k="ref:vcgi:esiteid" v="301608"/>
  </node>
  <node id="-290" visible="true" lat="44.44966707" lon="-72.4128143">
    <tag k="addr:city" v="Woodbury"/>
    <tag k="addr:housenumber" v="472"/>
    <tag k="addr:street" v="Town Farm Road"/>
    <tag k="addr:state" v="VT"/>
    <tag k="ref:vcgi:esiteid" v="301609"/>
  </node>
  <node id="-291" visible="true" lat="44.45050494" lon="-72.41766721">
    <tag k="addr:city" v="Woodbury"/>
    <tag k="addr:housenumber" v="51"/>
    <tag k="addr:street" v="Ainsworth Road"/>
    <tag k="addr:state" v="VT"/>
    <tag k="ref:vcgi:esiteid" v="301610"/>
  </node>
  <node id="-292" visible="true" lat="44.44962922" lon="-72.44252717">
    <tag k="addr:city" v="Woodbury"/>
    <tag k="addr:housenumber" v="414"/>
    <tag k="addr:street" v="Willow Road"/>
    <tag k="addr:state" v="VT"/>
    <tag k="ref:vcgi:esiteid" v="301611"/>
  </node>
  <node id="-293" visible="true" lat="44.44890594" lon="-72.41653442">
    <tag k="addr:city" v="Woodbury"/>
    <tag k="addr:housenumber" v="24"/>
    <tag k="addr:street" v="Ainsworth Road"/>
    <tag k="addr:state" v="VT"/>
    <tag k="ref:vcgi:esiteid" v="301612"/>
  </node>
  <node id="-294" visible="true" lat="44.44884554" lon="-72.41373553">
    <tag k="addr:city" v="Woodbury"/>
    <tag k="addr:housenumber" v="360"/>
    <tag k="addr:street" v="Town Farm Road"/>
    <tag k="addr:state" v="VT"/>
    <tag k="ref:vcgi:esiteid" v="301613"/>
  </node>
  <node id="-295" visible="true" lat="44.44854057" lon="-72.41738323">
    <tag k="addr:city" v="Woodbury"/>
    <tag k="addr:housenumber" v="4231"/>
    <tag k="addr:street" v="Vermont Route 14"/>
    <tag k="addr:state" v="VT"/>
    <tag k="ref:vcgi:esiteid" v="301614"/>
  </node>
  <node id="-297" visible="true" lat="44.44844952" lon="-72.44274083">
    <tag k="addr:city" v="Woodbury"/>
    <tag k="addr:housenumber" v="340"/>
    <tag k="addr:street" v="Willow Road"/>
    <tag k="addr:state" v="VT"/>
    <tag k="ref:vcgi:esiteid" v="301616"/>
  </node>
  <node id="-298" visible="true" lat="44.44821442" lon="-72.44346599">
    <tag k="addr:city" v="Woodbury"/>
    <tag k="addr:housenumber" v="321"/>
    <tag k="addr:street" v="Willow Road"/>
    <tag k="addr:state" v="VT"/>
    <tag k="ref:vcgi:esiteid" v="301617"/>
  </node>
  <node id="-299" visible="true" lat="44.44807815" lon="-72.44990539">
    <tag k="addr:city" v="Woodbury"/>
    <tag k="addr:housenumber" v="2441"/>
    <tag k="addr:street" v="County Road"/>
    <tag k="addr:state" v="VT"/>
    <tag k="ref:vcgi:esiteid" v="301618"/>
  </node>
  <node id="-300" visible="true" lat="44.44804763" lon="-72.43711853">
    <tag k="addr:city" v="Woodbury"/>
    <tag k="addr:housenumber" v="392"/>
    <tag k="addr:street" v="Orlandi Camp Road"/>
    <tag k="addr:state" v="VT"/>
    <tag k="ref:vcgi:esiteid" v="301619"/>
  </node>
  <node id="-301" visible="true" lat="44.44787979" lon="-72.44908905">
    <tag k="addr:city" v="Woodbury"/>
    <tag k="addr:housenumber" v="3208"/>
    <tag k="addr:street" v="Dog Pond Road"/>
    <tag k="addr:state" v="VT"/>
    <tag k="ref:vcgi:esiteid" v="301620"/>
  </node>
  <node id="-302" visible="true" lat="44.44779586" lon="-72.43780517">
    <tag k="addr:city" v="Woodbury"/>
    <tag k="addr:housenumber" v="436"/>
    <tag k="addr:street" v="Orlandi Camp Road"/>
    <tag k="addr:state" v="VT"/>
    <tag k="ref:vcgi:esiteid" v="301621"/>
  </node>
  <node id="-303" visible="true" lat="44.44778335" lon="-72.44308402">
    <tag k="addr:city" v="Woodbury"/>
    <tag k="addr:housenumber" v="290"/>
    <tag k="addr:street" v="Willow Road"/>
    <tag k="addr:state" v="VT"/>
    <tag k="ref:vcgi:esiteid" v="301622"/>
  </node>
  <node id="-304" visible="true" lat="44.44757461" lon="-72.43583679">
    <tag k="addr:city" v="Woodbury"/>
    <tag k="addr:housenumber" v="324"/>
    <tag k="addr:street" v="Orlandi Camp Road"/>
    <tag k="addr:state" v="VT"/>
    <tag k="ref:vcgi:esiteid" v="301623"/>
  </node>
  <node id="-305" visible="true" lat="44.44716644" lon="-72.43856048">
    <tag k="addr:city" v="Woodbury"/>
    <tag k="addr:housenumber" v="486"/>
    <tag k="addr:street" v="Orlandi Camp Road"/>
    <tag k="addr:state" v="VT"/>
    <tag k="ref:vcgi:esiteid" v="301624"/>
  </node>
  <node id="-306" visible="true" lat="44.44714489" lon="-72.44301483">
    <tag k="addr:city" v="Woodbury"/>
    <tag k="addr:housenumber" v="65"/>
    <tag k="addr:street" v="Alder Road"/>
    <tag k="addr:state" v="VT"/>
    <tag k="ref:vcgi:esiteid" v="301625"/>
  </node>
  <node id="-308" visible="true" lat="44.44675445" lon="-72.44463348">
    <tag k="addr:city" v="Woodbury"/>
    <tag k="addr:housenumber" v="50"/>
    <tag k="addr:street" v="Alder Road"/>
    <tag k="addr:state" v="VT"/>
    <tag k="ref:vcgi:esiteid" v="301627"/>
  </node>
  <node id="-309" visible="true" lat="44.4466362" lon="-72.44944">
    <tag k="addr:city" v="Woodbury"/>
    <tag k="addr:housenumber" v="3111"/>
    <tag k="addr:street" v="Dog Pond Road"/>
    <tag k="addr:state" v="VT"/>
    <tag k="ref:vcgi:esiteid" v="301628"/>
  </node>
  <node id="-310" visible="true" lat="44.44633483" lon="-72.34725952">
    <tag k="addr:city" v="Woodbury"/>
    <tag k="addr:housenumber" v="258"/>
    <tag k="addr:street" v="Loon Lake Road"/>
    <tag k="addr:state" v="VT"/>
    <tag k="ref:vcgi:esiteid" v="301629"/>
  </node>
  <node id="-311" visible="true" lat="44.44622802" lon="-72.41561126">
    <tag k="addr:city" v="Woodbury"/>
    <tag k="addr:housenumber" v="4066"/>
    <tag k="addr:street" v="Vermont Route 14"/>
    <tag k="addr:state" v="VT"/>
    <tag k="ref:vcgi:esiteid" v="301630"/>
  </node>
  <node id="-312" visible="true" lat="44.44633452" lon="-72.44285471">
    <tag k="addr:city" v="Woodbury"/>
    <tag k="addr:housenumber" v="153"/>
    <tag k="addr:street" v="Alder Road"/>
    <tag k="addr:state" v="VT"/>
    <tag k="ref:vcgi:esiteid" v="301631"/>
  </node>
  <node id="-313" visible="true" lat="44.44612503" lon="-72.34761047">
    <tag k="addr:city" v="Woodbury"/>
    <tag k="addr:housenumber" v="237"/>
    <tag k="addr:street" v="Loon Lake Road"/>
    <tag k="addr:state" v="VT"/>
    <tag k="ref:vcgi:esiteid" v="301632"/>
  </node>
  <node id="-314" visible="true" lat="44.44616318" lon="-72.4476471">
    <tag k="addr:city" v="Woodbury"/>
    <tag k="addr:housenumber" v="3118"/>
    <tag k="addr:street" v="Dog Pond Road"/>
    <tag k="addr:state" v="VT"/>
    <tag k="ref:vcgi:esiteid" v="301633"/>
  </node>
  <node id="-315" visible="true" lat="44.44615936" lon="-72.44564819">
    <tag k="addr:city" v="Woodbury"/>
    <tag k="addr:housenumber" v="194"/>
    <tag k="addr:street" v="Willow Road"/>
    <tag k="addr:state" v="VT"/>
    <tag k="ref:vcgi:esiteid" v="301634"/>
  </node>
  <node id="-316" visible="true" lat="44.44588088" lon="-72.34770202">
    <tag k="addr:city" v="Woodbury"/>
    <tag k="addr:housenumber" v="221"/>
    <tag k="addr:street" v="Loon Lake Road"/>
    <tag k="addr:state" v="VT"/>
    <tag k="ref:vcgi:esiteid" v="301635"/>
  </node>
  <node id="-317" visible="true" lat="44.44614777" lon="-72.44342909">
    <tag k="addr:city" v="Woodbury"/>
    <tag k="addr:housenumber" v="152"/>
    <tag k="addr:street" v="Alder Road"/>
    <tag k="addr:state" v="VT"/>
    <tag k="ref:vcgi:esiteid" v="301636"/>
  </node>
  <node id="-327" visible="true" lat="44.44484789" lon="-72.3512094">
    <tag k="addr:city" v="Woodbury"/>
    <tag k="addr:housenumber" v="43"/>
    <tag k="addr:street" v="Lotta Rock Road"/>
    <tag k="addr:state" v="VT"/>
    <tag k="ref:vcgi:esiteid" v="301646"/>
  </node>
  <node id="-331" visible="true" lat="44.44435501" lon="-72.35314178">
    <tag k="addr:city" v="Woodbury"/>
    <tag k="addr:housenumber" v="472"/>
    <tag k="addr:street" v="North Camp Road"/>
    <tag k="addr:state" v="VT"/>
    <tag k="ref:vcgi:esiteid" v="301650"/>
  </node>
  <node id="-332" visible="true" lat="44.44428634" lon="-72.35305786">
    <tag k="addr:city" v="Woodbury"/>
    <tag k="addr:housenumber" v="470"/>
    <tag k="addr:street" v="North Camp Road"/>
    <tag k="addr:state" v="VT"/>
    <tag k="ref:vcgi:esiteid" v="301651"/>
  </node>
  <node id="-333" visible="true" lat="44.44433975" lon="-72.44503021">
    <tag k="addr:city" v="Woodbury"/>
    <tag k="addr:housenumber" v="132"/>
    <tag k="addr:street" v="Fishing Road"/>
    <tag k="addr:state" v="VT"/>
    <tag k="ref:vcgi:esiteid" v="301652"/>
  </node>
  <node id="-334" visible="true" lat="44.44423676" lon="-72.44525146">
    <tag k="addr:city" v="Woodbury"/>
    <tag k="addr:housenumber" v="126"/>
    <tag k="addr:street" v="Fishing Road"/>
    <tag k="addr:state" v="VT"/>
    <tag k="ref:vcgi:esiteid" v="301653"/>
  </node>
  <node id="-341" visible="true" lat="44.44345474" lon="-72.4467392">
    <tag k="addr:city" v="Woodbury"/>
    <tag k="addr:housenumber" v="72"/>
    <tag k="addr:street" v="Fishing Road"/>
    <tag k="addr:state" v="VT"/>
    <tag k="ref:vcgi:esiteid" v="301660"/>
  </node>
  <node id="-342" visible="true" lat="44.44335174" lon="-72.43572235">
    <tag k="addr:city" v="Woodbury"/>
    <tag k="addr:housenumber" v="1232"/>
    <tag k="addr:street" v="Valley Lake Road"/>
    <tag k="addr:state" v="VT"/>
    <tag k="ref:vcgi:esiteid" v="301661"/>
  </node>
  <node id="-344" visible="true" lat="44.44309616" lon="-72.4072647">
    <tag k="addr:city" v="Woodbury"/>
    <tag k="addr:housenumber" v="327"/>
    <tag k="addr:street" v="Cabot Road"/>
    <tag k="addr:state" v="VT"/>
    <tag k="ref:vcgi:esiteid" v="301663"/>
  </node>
  <node id="-348" visible="true" lat="44.44289828" lon="-72.41520961">
    <tag k="addr:city" v="Woodbury"/>
    <tag k="addr:housenumber" v="3832"/>
    <tag k="addr:street" v="Vermont Route 14"/>
    <tag k="addr:state" v="VT"/>
    <tag k="ref:vcgi:esiteid" v="301667"/>
  </node>
  <node id="-349" visible="true" lat="44.4425961" lon="-72.44841542">
    <tag k="addr:city" v="Woodbury"/>
    <tag k="addr:housenumber" v="2824"/>
    <tag k="addr:street" v="Dog Pond Road"/>
    <tag k="addr:state" v="VT"/>
    <tag k="ref:vcgi:esiteid" v="301668"/>
  </node>
  <node id="-350" visible="true" lat="44.4425621" lon="-72.42889404">
    <tag k="addr:city" v="Woodbury"/>
    <tag k="addr:housenumber" v="804"/>
    <tag k="addr:street" v="Valley Lake Road"/>
    <tag k="addr:state" v="VT"/>
    <tag k="ref:vcgi:esiteid" v="301669"/>
  </node>
  <node id="-351" visible="true" lat="44.4422739" lon="-72.35560796">
    <tag k="addr:city" v="Woodbury"/>
    <tag k="addr:housenumber" v="644"/>
    <tag k="addr:street" v="North Camp Road"/>
    <tag k="addr:state" v="VT"/>
    <tag k="ref:vcgi:esiteid" v="301670"/>
  </node>
  <node id="-352" visible="true" lat="44.44222259" lon="-72.41519165">
    <tag k="addr:city" v="Woodbury"/>
    <tag k="addr:housenumber" v="3776"/>
    <tag k="addr:street" v="Vermont Route 14"/>
    <tag k="addr:state" v="VT"/>
    <tag k="ref:vcgi:esiteid" v="301671"/>
  </node>
  <node id="-353" visible="true" lat="44.44221115" lon="-72.43470001">
    <tag k="addr:city" v="Woodbury"/>
    <tag k="addr:housenumber" v="1151"/>
    <tag k="addr:street" v="Valley Lake Road"/>
    <tag k="addr:state" v="VT"/>
    <tag k="ref:vcgi:esiteid" v="301672"/>
  </node>
  <node id="-359" visible="true" lat="44.44149017" lon="-72.42623138">
    <tag k="addr:city" v="Woodbury"/>
    <tag k="addr:housenumber" v="646"/>
    <tag k="addr:street" v="Valley Lake Road"/>
    <tag k="addr:state" v="VT"/>
    <tag k="ref:vcgi:esiteid" v="301678"/>
  </node>
  <node id="-360" visible="true" lat="44.44145387" lon="-72.44809396">
    <tag k="addr:city" v="Woodbury"/>
    <tag k="addr:housenumber" v="2768"/>
    <tag k="addr:street" v="Dog Pond Road"/>
    <tag k="addr:state" v="VT"/>
    <tag k="ref:vcgi:esiteid" v="301679"/>
  </node>
  <node id="-366" visible="true" lat="44.44129562" lon="-72.4571228">
    <tag k="addr:city" v="Woodbury"/>
    <tag k="addr:housenumber" v="1820"/>
    <tag k="addr:street" v="County Road"/>
    <tag k="addr:state" v="VT"/>
    <tag k="ref:vcgi:esiteid" v="301685"/>
  </node>
  <node id="-369" visible="true" lat="44.44116211" lon="-72.44791412">
    <tag k="addr:city" v="Woodbury"/>
    <tag k="addr:housenumber" v="2704"/>
    <tag k="addr:street" v="Dog Pond Road"/>
    <tag k="addr:state" v="VT"/>
    <tag k="ref:vcgi:esiteid" v="301688"/>
  </node>
  <node id="-371" visible="true" lat="44.44099772" lon="-72.41479039">
    <tag k="addr:city" v="Woodbury"/>
    <tag k="addr:housenumber" v="24"/>
    <tag k="addr:street" v="Cabot Road"/>
    <tag k="addr:state" v="VT"/>
    <tag k="ref:vcgi:esiteid" v="301690"/>
  </node>
  <node id="-372" visible="true" lat="44.44107577" lon="-72.40748754">
    <tag k="addr:city" v="Woodbury"/>
    <tag k="addr:housenumber" v="385"/>
    <tag k="addr:street" v="Cabot Road"/>
    <tag k="addr:state" v="VT"/>
    <tag k="ref:vcgi:esiteid" v="301691"/>
  </node>
  <node id="-375" visible="true" lat="44.44089127" lon="-72.45108795">
    <tag k="addr:city" v="Woodbury"/>
    <tag k="addr:housenumber" v="2825"/>
    <tag k="addr:street" v="Dog Pond Road"/>
    <tag k="addr:state" v="VT"/>
    <tag k="ref:vcgi:esiteid" v="301694"/>
  </node>
  <node id="-376" visible="true" lat="44.44087982" lon="-72.45893097">
    <tag k="addr:city" v="Woodbury"/>
    <tag k="addr:housenumber" v="1765"/>
    <tag k="addr:street" v="County Road"/>
    <tag k="addr:state" v="VT"/>
    <tag k="ref:vcgi:esiteid" v="301695"/>
  </node>
  <node id="-377" visible="true" lat="44.44079024" lon="-72.41540748">
    <tag k="addr:city" v="Woodbury"/>
    <tag k="addr:housenumber" v="3675"/>
    <tag k="addr:street" v="Vermont Route 14"/>
    <tag k="addr:state" v="VT"/>
    <tag k="ref:vcgi:esiteid" v="301696"/>
  </node>
  <node id="-378" visible="true" lat="44.4408764" lon="-72.40920089">
    <tag k="addr:city" v="Woodbury"/>
    <tag k="addr:housenumber" v="38"/>
    <tag k="addr:street" v="Flat Street"/>
    <tag k="addr:state" v="VT"/>
    <tag k="ref:vcgi:esiteid" v="301698"/>
  </node>
  <node id="-382" visible="true" lat="44.44073204" lon="-72.40930858">
    <tag k="addr:city" v="Woodbury"/>
    <tag k="addr:housenumber" v="42"/>
    <tag k="addr:street" v="Flat Street"/>
    <tag k="addr:state" v="VT"/>
    <tag k="ref:vcgi:esiteid" v="301702"/>
  </node>
  <node id="-384" visible="true" lat="44.44067001" lon="-72.40821075">
    <tag k="addr:city" v="Woodbury"/>
    <tag k="addr:housenumber" v="348"/>
    <tag k="addr:street" v="Cabot Road"/>
    <tag k="addr:state" v="VT"/>
    <tag k="ref:vcgi:esiteid" v="301704"/>
  </node>
  <node id="-385" visible="true" lat="44.44067777" lon="-72.40685948">
    <tag k="addr:city" v="Woodbury"/>
    <tag k="addr:housenumber" v="425"/>
    <tag k="addr:street" v="Cabot Road"/>
    <tag k="addr:state" v="VT"/>
    <tag k="ref:vcgi:esiteid" v="301705"/>
  </node>
  <node id="-386" visible="true" lat="44.4406228" lon="-72.41475625">
    <tag k="addr:city" v="Woodbury"/>
    <tag k="addr:housenumber" v="3652"/>
    <tag k="addr:street" v="Vermont Route 14"/>
    <tag k="addr:state" v="VT"/>
    <tag k="ref:vcgi:esiteid" v="301706"/>
  </node>
  <node id="-387" visible="true" lat="44.4406178" lon="-72.40939936">
    <tag k="addr:city" v="Woodbury"/>
    <tag k="addr:housenumber" v="50"/>
    <tag k="addr:street" v="Flat Street"/>
    <tag k="addr:state" v="VT"/>
    <tag k="ref:vcgi:esiteid" v="301707"/>
  </node>
  <node id="-388" visible="true" lat="44.44051051" lon="-72.40953902">
    <tag k="addr:city" v="Woodbury"/>
    <tag k="addr:housenumber" v="66"/>
    <tag k="addr:street" v="Flat Street"/>
    <tag k="addr:state" v="VT"/>
    <tag k="ref:vcgi:esiteid" v="301708"/>
  </node>
  <node id="-391" visible="true" lat="44.4403801" lon="-72.4473877">
    <tag k="addr:city" v="Woodbury"/>
    <tag k="addr:housenumber" v="2690"/>
    <tag k="addr:street" v="Dog Pond Road"/>
    <tag k="addr:state" v="VT"/>
    <tag k="ref:vcgi:esiteid" v="301711"/>
  </node>
  <node id="-396" visible="true" lat="44.4400406" lon="-72.40755529">
    <tag k="addr:city" v="Woodbury"/>
    <tag k="addr:housenumber" v="432"/>
    <tag k="addr:street" v="Cabot Road"/>
    <tag k="addr:state" v="VT"/>
    <tag k="ref:vcgi:esiteid" v="301716"/>
  </node>
  <node id="-398" visible="true" lat="44.44000625" lon="-72.42449951">
    <tag k="addr:city" v="Woodbury"/>
    <tag k="addr:housenumber" v="527"/>
    <tag k="addr:street" v="Valley Lake Road"/>
    <tag k="addr:state" v="VT"/>
    <tag k="ref:vcgi:esiteid" v="301718"/>
  </node>
  <node id="-402" visible="true" lat="44.43992358" lon="-72.4033082">
    <tag k="addr:city" v="Woodbury"/>
    <tag k="addr:housenumber" v="579"/>
    <tag k="addr:street" v="Cabot Road"/>
    <tag k="addr:state" v="VT"/>
    <tag k="ref:vcgi:esiteid" v="301723"/>
  </node>
  <node id="-407" visible="true" lat="44.43954086" lon="-72.44697571">
    <tag k="addr:city" v="Woodbury"/>
    <tag k="addr:housenumber" v="2576"/>
    <tag k="addr:street" v="Dog Pond Road"/>
    <tag k="addr:state" v="VT"/>
    <tag k="ref:vcgi:esiteid" v="301728"/>
  </node>
  <node id="-408" visible="true" lat="44.43845738" lon="-72.39500543">
    <tag k="addr:city" v="Woodbury"/>
    <tag k="addr:housenumber" v="1511"/>
    <tag k="addr:street" v="Swenson Quarry Road"/>
    <tag k="addr:state" v="VT"/>
    <tag k="ref:vcgi:esiteid" v="301729"/>
  </node>
  <node id="-416" visible="true" lat="44.43861401" lon="-72.41420364">
    <tag k="addr:city" v="Woodbury"/>
    <tag k="addr:housenumber" v="3515"/>
    <tag k="addr:street" v="Vermont Route 14"/>
    <tag k="addr:state" v="VT"/>
    <tag k="ref:vcgi:esiteid" v="301738"/>
  </node>
  <node id="-417" visible="true" lat="44.43867874" lon="-72.44685364">
    <tag k="addr:city" v="Woodbury"/>
    <tag k="addr:housenumber" v="2500"/>
    <tag k="addr:street" v="Dog Pond Road"/>
    <tag k="addr:state" v="VT"/>
    <tag k="ref:vcgi:esiteid" v="301739"/>
  </node>
  <node id="-418" visible="true" lat="44.43870171" lon="-72.41042132">
    <tag k="addr:city" v="Woodbury"/>
    <tag k="addr:housenumber" v="3576"/>
    <tag k="addr:street" v="Vermont Route 14"/>
    <tag k="addr:state" v="VT"/>
    <tag k="ref:vcgi:esiteid" v="301740"/>
  </node>
  <node id="-419" visible="true" lat="44.43845367" lon="-72.44688416">
    <tag k="addr:city" v="Woodbury"/>
    <tag k="addr:housenumber" v="2502"/>
    <tag k="addr:street" v="Dog Pond Road"/>
    <tag k="addr:state" v="VT"/>
    <tag k="ref:vcgi:esiteid" v="301741"/>
  </node>
  <node id="-420" visible="true" lat="44.43821004" lon="-72.40461019">
    <tag k="addr:city" v="Woodbury"/>
    <tag k="addr:housenumber" v="632"/>
    <tag k="addr:street" v="Cabot Road"/>
    <tag k="addr:state" v="VT"/>
    <tag k="ref:vcgi:esiteid" v="301742"/>
  </node>
  <node id="-421" visible="true" lat="44.43827438" lon="-72.44792938">
    <tag k="addr:city" v="Woodbury"/>
    <tag k="addr:housenumber" v="2521"/>
    <tag k="addr:street" v="Dog Pond Road"/>
    <tag k="addr:state" v="VT"/>
    <tag k="ref:vcgi:esiteid" v="301743"/>
  </node>
  <node id="-424" visible="true" lat="44.43776321" lon="-72.35823821">
    <tag k="addr:city" v="Woodbury"/>
    <tag k="addr:housenumber" v="449"/>
    <tag k="addr:street" v="South Camp Road"/>
    <tag k="addr:state" v="VT"/>
    <tag k="ref:vcgi:esiteid" v="301746"/>
  </node>
  <node id="-425" visible="true" lat="44.43772125" lon="-72.46087646">
    <tag k="addr:city" v="Woodbury"/>
    <tag k="addr:housenumber" v="1495"/>
    <tag k="addr:street" v="County Road"/>
    <tag k="addr:state" v="VT"/>
    <tag k="ref:vcgi:esiteid" v="301747"/>
  </node>
  <node id="-426" visible="true" lat="44.43779111" lon="-72.42400086">
    <tag k="addr:city" v="Woodbury"/>
    <tag k="addr:housenumber" v="121"/>
    <tag k="addr:street" v="Wheeler Hill Road"/>
    <tag k="addr:state" v="VT"/>
    <tag k="ref:vcgi:esiteid" v="301748"/>
  </node>
  <node id="-427" visible="true" lat="44.43762683" lon="-72.40017763">
    <tag k="addr:city" v="Woodbury"/>
    <tag k="addr:housenumber" v="826"/>
    <tag k="addr:street" v="Cabot Road"/>
    <tag k="addr:state" v="VT"/>
    <tag k="ref:vcgi:esiteid" v="301749"/>
  </node>
  <node id="-429" visible="true" lat="44.43745041" lon="-72.42409515">
    <tag k="addr:city" v="Woodbury"/>
    <tag k="addr:housenumber" v="203"/>
    <tag k="addr:street" v="Wheeler Hill Road"/>
    <tag k="addr:state" v="VT"/>
    <tag k="ref:vcgi:esiteid" v="301751"/>
  </node>
  <node id="-432" visible="true" lat="44.43638293" lon="-72.38829172">
    <tag k="addr:city" v="Woodbury"/>
    <tag k="addr:housenumber" v="1463"/>
    <tag k="addr:street" v="Cabot Road"/>
    <tag k="addr:state" v="VT"/>
    <tag k="ref:vcgi:esiteid" v="301754"/>
  </node>
  <node id="-434" visible="true" lat="44.43609237" lon="-72.42749786">
    <tag k="addr:city" v="Woodbury"/>
    <tag k="addr:housenumber" v="312"/>
    <tag k="addr:street" v="Wheeler Hill Road"/>
    <tag k="addr:state" v="VT"/>
    <tag k="ref:vcgi:esiteid" v="301756"/>
  </node>
  <node id="-435" visible="true" lat="44.4360733" lon="-72.42263031">
    <tag k="addr:city" v="Woodbury"/>
    <tag k="addr:housenumber" v="211"/>
    <tag k="addr:street" v="Wheeler Hill Road"/>
    <tag k="addr:state" v="VT"/>
    <tag k="ref:vcgi:esiteid" v="301757"/>
  </node>
  <node id="-436" visible="true" lat="44.43601608" lon="-72.44511414">
    <tag k="addr:city" v="Woodbury"/>
    <tag k="addr:housenumber" v="1966"/>
    <tag k="addr:street" v="Valley Lake Road"/>
    <tag k="addr:state" v="VT"/>
    <tag k="ref:vcgi:esiteid" v="301758"/>
  </node>
  <node id="-437" visible="true" lat="44.43583163" lon="-72.38892209">
    <tag k="addr:city" v="Woodbury"/>
    <tag k="addr:housenumber" v="1422"/>
    <tag k="addr:street" v="Cabot Road"/>
    <tag k="addr:state" v="VT"/>
    <tag k="ref:vcgi:esiteid" v="301759"/>
  </node>
  <node id="-438" visible="true" lat="44.43564658" lon="-72.38557158">
    <tag k="addr:city" v="Woodbury"/>
    <tag k="addr:housenumber" v="1593"/>
    <tag k="addr:street" v="Cabot Road"/>
    <tag k="addr:state" v="VT"/>
    <tag k="ref:vcgi:esiteid" v="301760"/>
  </node>
  <node id="-440" visible="true" lat="44.43510726" lon="-72.39487832">
    <tag k="addr:city" v="Woodbury"/>
    <tag k="addr:housenumber" v="1104"/>
    <tag k="addr:street" v="Cabot Road"/>
    <tag k="addr:state" v="VT"/>
    <tag k="ref:vcgi:esiteid" v="301762"/>
  </node>
  <node id="-441" visible="true" lat="44.43517662" lon="-72.45091293">
    <tag k="addr:city" v="Woodbury"/>
    <tag k="addr:housenumber" v="306"/>
    <tag k="addr:street" v="Blueberry Hill Road"/>
    <tag k="addr:state" v="VT"/>
    <tag k="ref:vcgi:esiteid" v="301763"/>
  </node>
  <node id="-442" visible="true" lat="44.43484875" lon="-72.4532578">
    <tag k="addr:city" v="Woodbury"/>
    <tag k="addr:housenumber" v="414"/>
    <tag k="addr:street" v="Blueberry Hill Road"/>
    <tag k="addr:state" v="VT"/>
    <tag k="ref:vcgi:esiteid" v="301764"/>
  </node>
  <node id="-443" visible="true" lat="44.43430349" lon="-72.4645716">
    <tag k="addr:city" v="Woodbury"/>
    <tag k="addr:housenumber" v="1299"/>
    <tag k="addr:street" v="County Road"/>
    <tag k="addr:state" v="VT"/>
    <tag k="ref:vcgi:esiteid" v="301765"/>
  </node>
  <node id="-444" visible="true" lat="44.43457031" lon="-72.43864441">
    <tag k="addr:city" v="Woodbury"/>
    <tag k="addr:housenumber" v="1872"/>
    <tag k="addr:street" v="Dog Pond Road"/>
    <tag k="addr:state" v="VT"/>
    <tag k="ref:vcgi:esiteid" v="301766"/>
  </node>
  <node id="-445" visible="true" lat="44.4343071" lon="-72.4437027">
    <tag k="addr:city" v="Woodbury"/>
    <tag k="addr:housenumber" v="2110"/>
    <tag k="addr:street" v="Dog Pond Road"/>
    <tag k="addr:state" v="VT"/>
    <tag k="ref:vcgi:esiteid" v="301767"/>
  </node>
  <node id="-446" visible="true" lat="44.43420029" lon="-72.46041107">
    <tag k="addr:city" v="Woodbury"/>
    <tag k="addr:housenumber" v="125"/>
    <tag k="addr:street" v="Cranberry Meadow Road"/>
    <tag k="addr:state" v="VT"/>
    <tag k="ref:vcgi:esiteid" v="301768"/>
  </node>
  <node id="-447" visible="true" lat="44.43393204" lon="-72.45031754">
    <tag k="addr:city" v="Woodbury"/>
    <tag k="addr:housenumber" v="255"/>
    <tag k="addr:street" v="Blueberry Hill Road"/>
    <tag k="addr:state" v="VT"/>
    <tag k="ref:vcgi:esiteid" v="301769"/>
  </node>
  <node id="-449" visible="true" lat="44.43355815" lon="-72.40619566">
    <tag k="addr:city" v="Woodbury"/>
    <tag k="addr:housenumber" v="305"/>
    <tag k="addr:street" v="Old Quarry Road"/>
    <tag k="addr:state" v="VT"/>
    <tag k="ref:vcgi:esiteid" v="301771"/>
  </node>
  <node id="-450" visible="true" lat="44.43359069" lon="-72.3873838">
    <tag k="addr:city" v="Woodbury"/>
    <tag k="addr:housenumber" v="254"/>
    <tag k="addr:street" v="Old Cabot Road"/>
    <tag k="addr:state" v="VT"/>
    <tag k="ref:vcgi:esiteid" v="301772"/>
  </node>
  <node id="-451" visible="true" lat="44.43318368" lon="-72.46622373">
    <tag k="addr:city" v="Woodbury"/>
    <tag k="addr:housenumber" v="1005"/>
    <tag k="addr:street" v="County Road"/>
    <tag k="addr:state" v="VT"/>
    <tag k="ref:vcgi:esiteid" v="301773"/>
  </node>
  <node id="-452" visible="true" lat="44.43287277" lon="-72.46469879">
    <tag k="addr:city" v="Woodbury"/>
    <tag k="addr:housenumber" v="1103"/>
    <tag k="addr:street" v="County Road"/>
    <tag k="addr:state" v="VT"/>
    <tag k="ref:vcgi:esiteid" v="301774"/>
  </node>
  <node id="-453" visible="true" lat="44.4328537" lon="-72.4338913">
    <tag k="addr:city" v="Woodbury"/>
    <tag k="addr:housenumber" v="1580"/>
    <tag k="addr:street" v="Dog Pond Road"/>
    <tag k="addr:state" v="VT"/>
    <tag k="ref:vcgi:esiteid" v="301775"/>
  </node>
  <node id="-454" visible="true" lat="44.43283462" lon="-72.41203308">
    <tag k="addr:city" v="Woodbury"/>
    <tag k="addr:housenumber" v="542"/>
    <tag k="addr:street" v="Blake Hill Road"/>
    <tag k="addr:state" v="VT"/>
    <tag k="ref:vcgi:esiteid" v="301776"/>
  </node>
  <node id="-455" visible="true" lat="44.43333626" lon="-72.45959325">
    <tag k="addr:city" v="Woodbury"/>
    <tag k="addr:housenumber" v="167"/>
    <tag k="addr:street" v="Cranberry Meadow Road"/>
    <tag k="addr:state" v="VT"/>
    <tag k="ref:vcgi:esiteid" v="301777"/>
  </node>
  <node id="-459" visible="true" lat="44.43204116" lon="-72.4101715">
    <tag k="addr:city" v="Woodbury"/>
    <tag k="addr:housenumber" v="65"/>
    <tag k="addr:street" v="Old Quarry Road"/>
    <tag k="addr:state" v="VT"/>
    <tag k="ref:vcgi:esiteid" v="301781"/>
  </node>
  <node id="-461" visible="true" lat="44.43186569" lon="-72.41093444">
    <tag k="addr:city" v="Woodbury"/>
    <tag k="addr:housenumber" v="27"/>
    <tag k="addr:street" v="Old Quarry Road"/>
    <tag k="addr:state" v="VT"/>
    <tag k="ref:vcgi:esiteid" v="301783"/>
  </node>
  <node id="-462" visible="true" lat="44.43100357" lon="-72.44282532">
    <tag k="addr:city" v="Woodbury"/>
    <tag k="addr:housenumber" v="2077"/>
    <tag k="addr:street" v="Dog Pond Road"/>
    <tag k="addr:state" v="VT"/>
    <tag k="ref:vcgi:esiteid" v="301784"/>
  </node>
  <node id="-463" visible="true" lat="44.43140918" lon="-72.45969918">
    <tag k="addr:city" v="Woodbury"/>
    <tag k="addr:housenumber" v="359"/>
    <tag k="addr:street" v="Cranberry Meadow Road"/>
    <tag k="addr:state" v="VT"/>
    <tag k="ref:vcgi:esiteid" v="301785"/>
  </node>
  <node id="-464" visible="true" lat="44.43075181" lon="-72.4117524">
    <tag k="addr:city" v="Woodbury"/>
    <tag k="addr:housenumber" v="387"/>
    <tag k="addr:street" v="Blake Hill Road"/>
    <tag k="addr:state" v="VT"/>
    <tag k="ref:vcgi:esiteid" v="301786"/>
  </node>
  <node id="-465" visible="true" lat="44.43049622" lon="-72.42977905">
    <tag k="addr:city" v="Woodbury"/>
    <tag k="addr:housenumber" v="739"/>
    <tag k="addr:street" v="Wheeler Hill Road"/>
    <tag k="addr:state" v="VT"/>
    <tag k="ref:vcgi:esiteid" v="301787"/>
  </node>
  <node id="-466" visible="true" lat="44.43015757" lon="-72.41113564">
    <tag k="addr:city" v="Woodbury"/>
    <tag k="addr:housenumber" v="380"/>
    <tag k="addr:street" v="Blake Hill Road"/>
    <tag k="addr:state" v="VT"/>
    <tag k="ref:vcgi:esiteid" v="301788"/>
  </node>
  <node id="-467" visible="true" lat="44.42915344" lon="-72.43128967">
    <tag k="addr:city" v="Woodbury"/>
    <tag k="addr:housenumber" v="1293"/>
    <tag k="addr:street" v="Dog Pond Road"/>
    <tag k="addr:state" v="VT"/>
    <tag k="ref:vcgi:esiteid" v="301789"/>
  </node>
  <node id="-468" visible="true" lat="44.42903518" lon="-72.35961914">
    <tag k="addr:city" v="Woodbury"/>
    <tag k="addr:housenumber" v="267"/>
    <tag k="addr:street" v="North Road"/>
    <tag k="addr:state" v="VT"/>
    <tag k="ref:vcgi:esiteid" v="301790"/>
  </node>
  <node id="-470" visible="true" lat="44.4287128" lon="-72.39316089">
    <tag k="addr:city" v="Woodbury"/>
    <tag k="addr:housenumber" v="441"/>
    <tag k="addr:street" v="North Hatie Bell Road"/>
    <tag k="addr:state" v="VT"/>
    <tag k="ref:vcgi:esiteid" v="301792"/>
  </node>
  <node id="-471" visible="true" lat="44.42808035" lon="-72.41161839">
    <tag k="addr:city" v="Woodbury"/>
    <tag k="addr:housenumber" v="230"/>
    <tag k="addr:street" v="Blake Hill Road"/>
    <tag k="addr:state" v="VT"/>
    <tag k="ref:vcgi:esiteid" v="301793"/>
  </node>
  <node id="-472" visible="true" lat="44.42781067" lon="-72.43235779">
    <tag k="addr:city" v="Woodbury"/>
    <tag k="addr:housenumber" v="1173"/>
    <tag k="addr:street" v="Dog Pond Road"/>
    <tag k="addr:state" v="VT"/>
    <tag k="ref:vcgi:esiteid" v="301794"/>
  </node>
  <node id="-474" visible="true" lat="44.4266777" lon="-72.42771912">
    <tag k="addr:city" v="Woodbury"/>
    <tag k="addr:housenumber" v="990"/>
    <tag k="addr:street" v="Dog Pond Road"/>
    <tag k="addr:state" v="VT"/>
    <tag k="ref:vcgi:esiteid" v="301796"/>
  </node>
  <node id="-475" visible="true" lat="44.42647934" lon="-72.41143035">
    <tag k="addr:city" v="Woodbury"/>
    <tag k="addr:housenumber" v="88"/>
    <tag k="addr:street" v="Blake Hill Road"/>
    <tag k="addr:state" v="VT"/>
    <tag k="ref:vcgi:esiteid" v="301797"/>
  </node>
  <node id="-476" visible="true" lat="44.42642975" lon="-72.43889618">
    <tag k="addr:city" v="Woodbury"/>
    <tag k="addr:housenumber" v="246"/>
    <tag k="addr:street" v="Goodall Road"/>
    <tag k="addr:state" v="VT"/>
    <tag k="ref:vcgi:esiteid" v="301798"/>
  </node>
  <node id="-477" visible="true" lat="44.42628862" lon="-72.44573541">
    <tag k="addr:city" v="Woodbury"/>
    <tag k="addr:housenumber" v="546"/>
    <tag k="addr:street" v="Goodall Road"/>
    <tag k="addr:state" v="VT"/>
    <tag k="ref:vcgi:esiteid" v="301799"/>
  </node>
  <node id="-479" visible="true" lat="44.42597579" lon="-72.40948486">
    <tag k="addr:city" v="Woodbury"/>
    <tag k="addr:housenumber" v="50"/>
    <tag k="addr:street" v="Blake Hill Road"/>
    <tag k="addr:state" v="VT"/>
    <tag k="ref:vcgi:esiteid" v="301801"/>
  </node>
  <node id="-481" visible="true" lat="44.42547989" lon="-72.45850372">
    <tag k="addr:city" v="Woodbury"/>
    <tag k="addr:housenumber" v="742"/>
    <tag k="addr:street" v="Cranberry Meadow Road"/>
    <tag k="addr:state" v="VT"/>
    <tag k="ref:vcgi:esiteid" v="301803"/>
  </node>
  <node id="-482" visible="true" lat="44.42546844" lon="-72.43922424">
    <tag k="addr:city" v="Woodbury"/>
    <tag k="addr:housenumber" v="204"/>
    <tag k="addr:street" v="Goodall Road"/>
    <tag k="addr:state" v="VT"/>
    <tag k="ref:vcgi:esiteid" v="301804"/>
  </node>
  <node id="-484" visible="true" lat="44.42504674" lon="-72.42519838">
    <tag k="addr:city" v="Woodbury"/>
    <tag k="addr:housenumber" v="666"/>
    <tag k="addr:street" v="Dog Pond Road"/>
    <tag k="addr:state" v="VT"/>
    <tag k="ref:vcgi:esiteid" v="301806"/>
  </node>
  <node id="-486" visible="true" lat="44.42487717" lon="-72.46057892">
    <tag k="addr:city" v="Woodbury"/>
    <tag k="addr:housenumber" v="156"/>
    <tag k="addr:street" v="Log Town Road"/>
    <tag k="addr:state" v="VT"/>
    <tag k="ref:vcgi:esiteid" v="301808"/>
  </node>
  <node id="-487" visible="true" lat="44.4183332" lon="-72.45703106">
    <tag k="addr:city" v="Woodbury"/>
    <tag k="addr:housenumber" v="197"/>
    <tag k="addr:street" v="Marsh Road"/>
    <tag k="addr:state" v="VT"/>
    <tag k="ref:vcgi:esiteid" v="301809"/>
  </node>
  <node id="-488" visible="true" lat="44.42459981" lon="-72.43051427">
    <tag k="addr:city" v="Woodbury"/>
    <tag k="addr:housenumber" v="982"/>
    <tag k="addr:street" v="Dog Pond Road"/>
    <tag k="addr:state" v="VT"/>
    <tag k="ref:vcgi:esiteid" v="301810"/>
  </node>
  <node id="-489" visible="true" lat="44.42418289" lon="-72.43361664">
    <tag k="addr:city" v="Woodbury"/>
    <tag k="addr:housenumber" v="102"/>
    <tag k="addr:street" v="Tebbets Road"/>
    <tag k="addr:state" v="VT"/>
    <tag k="ref:vcgi:esiteid" v="301811"/>
  </node>
  <node id="-491" visible="true" lat="44.42353821" lon="-72.44816589">
    <tag k="addr:city" v="Woodbury"/>
    <tag k="addr:housenumber" v="551"/>
    <tag k="addr:street" v="Goodall Road"/>
    <tag k="addr:state" v="VT"/>
    <tag k="ref:vcgi:esiteid" v="301813"/>
  </node>
  <node id="-493" visible="true" lat="44.42260361" lon="-72.44028473">
    <tag k="addr:city" v="Woodbury"/>
    <tag k="addr:housenumber" v="452"/>
    <tag k="addr:street" v="Tebbets Road"/>
    <tag k="addr:state" v="VT"/>
    <tag k="ref:vcgi:esiteid" v="301815"/>
  </node>
  <node id="-495" visible="true" lat="44.42251968" lon="-72.43859863">
    <tag k="addr:city" v="Woodbury"/>
    <tag k="addr:housenumber" v="421"/>
    <tag k="addr:street" v="Tebbets Road"/>
    <tag k="addr:state" v="VT"/>
    <tag k="ref:vcgi:esiteid" v="301817"/>
  </node>
  <node id="-496" visible="true" lat="44.42244595" lon="-72.43001395">
    <tag k="addr:city" v="Woodbury"/>
    <tag k="addr:housenumber" v="712"/>
    <tag k="addr:street" v="Dog Pond Road"/>
    <tag k="addr:state" v="VT"/>
    <tag k="ref:vcgi:esiteid" v="301818"/>
  </node>
  <node id="-497" visible="true" lat="44.42243957" lon="-72.41056823">
    <tag k="addr:city" v="Woodbury"/>
    <tag k="addr:housenumber" v="2360"/>
    <tag k="addr:street" v="Vermont Route 14"/>
    <tag k="addr:state" v="VT"/>
    <tag k="ref:vcgi:esiteid" v="301819"/>
  </node>
  <node id="-498" visible="true" lat="44.4221077" lon="-72.45865631">
    <tag k="addr:city" v="Woodbury"/>
    <tag k="addr:housenumber" v="1136"/>
    <tag k="addr:street" v="Scribner Road"/>
    <tag k="addr:state" v="VT"/>
    <tag k="ref:vcgi:esiteid" v="301820"/>
  </node>
  <node id="-499" visible="true" lat="44.42149137" lon="-72.4597854">
    <tag k="addr:city" v="Woodbury"/>
    <tag k="addr:housenumber" v="1138"/>
    <tag k="addr:street" v="Scribner Road"/>
    <tag k="addr:state" v="VT"/>
    <tag k="ref:vcgi:esiteid" v="301821"/>
  </node>
  <node id="-501" visible="true" lat="44.42161179" lon="-72.45567322">
    <tag k="addr:city" v="Woodbury"/>
    <tag k="addr:housenumber" v="1067"/>
    <tag k="addr:street" v="Cranberry Meadow Road"/>
    <tag k="addr:state" v="VT"/>
    <tag k="ref:vcgi:esiteid" v="301823"/>
  </node>
  <node id="-502" visible="true" lat="44.42093277" lon="-72.41186524">
    <tag k="addr:city" v="Woodbury"/>
    <tag k="addr:housenumber" v="2353"/>
    <tag k="addr:street" v="Vermont Route 14"/>
    <tag k="addr:state" v="VT"/>
    <tag k="ref:vcgi:esiteid" v="301824"/>
  </node>
  <node id="-503" visible="true" lat="44.42031479" lon="-72.45559692">
    <tag k="addr:city" v="Woodbury"/>
    <tag k="addr:housenumber" v="56"/>
    <tag k="addr:street" v="Marsh Road"/>
    <tag k="addr:state" v="VT"/>
    <tag k="ref:vcgi:esiteid" v="301825"/>
  </node>
  <node id="-504" visible="true" lat="44.42022324" lon="-72.45362091">
    <tag k="addr:city" v="Woodbury"/>
    <tag k="addr:housenumber" v="1299"/>
    <tag k="addr:street" v="Cranberry Meadow Road"/>
    <tag k="addr:state" v="VT"/>
    <tag k="ref:vcgi:esiteid" v="301826"/>
  </node>
  <node id="-505" visible="true" lat="44.42016983" lon="-72.45615387">
    <tag k="addr:city" v="Woodbury"/>
    <tag k="addr:housenumber" v="108"/>
    <tag k="addr:street" v="Marsh Road"/>
    <tag k="addr:state" v="VT"/>
    <tag k="ref:vcgi:esiteid" v="301827"/>
  </node>
  <node id="-506" visible="true" lat="44.4201355" lon="-72.44005585">
    <tag k="addr:city" v="Woodbury"/>
    <tag k="addr:housenumber" v="595"/>
    <tag k="addr:street" v="Tebbets Road"/>
    <tag k="addr:state" v="VT"/>
    <tag k="ref:vcgi:esiteid" v="301828"/>
  </node>
  <node id="-507" visible="true" lat="44.42004776" lon="-72.42784882">
    <tag k="addr:city" v="Woodbury"/>
    <tag k="addr:housenumber" v="524"/>
    <tag k="addr:street" v="Dog Pond Road"/>
    <tag k="addr:state" v="VT"/>
    <tag k="ref:vcgi:esiteid" v="301829"/>
  </node>
  <node id="-508" visible="true" lat="44.42005921" lon="-72.45426941">
    <tag k="addr:city" v="Woodbury"/>
    <tag k="addr:housenumber" v="1185"/>
    <tag k="addr:street" v="Cranberry Meadow Road"/>
    <tag k="addr:state" v="VT"/>
    <tag k="ref:vcgi:esiteid" v="301830"/>
  </node>
  <node id="-509" visible="true" lat="44.4200058" lon="-72.45529175">
    <tag k="addr:city" v="Woodbury"/>
    <tag k="addr:housenumber" v="50"/>
    <tag k="addr:street" v="Marsh Road"/>
    <tag k="addr:state" v="VT"/>
    <tag k="ref:vcgi:esiteid" v="301831"/>
  </node>
  <node id="-510" visible="true" lat="44.41987991" lon="-72.45415497">
    <tag k="addr:city" v="Woodbury"/>
    <tag k="addr:housenumber" v="1227"/>
    <tag k="addr:street" v="Cranberry Meadow Road"/>
    <tag k="addr:state" v="VT"/>
    <tag k="ref:vcgi:esiteid" v="301832"/>
  </node>
  <node id="-511" visible="true" lat="44.41969299" lon="-72.45537567">
    <tag k="addr:city" v="Woodbury"/>
    <tag k="addr:housenumber" v="69"/>
    <tag k="addr:street" v="Marsh Road"/>
    <tag k="addr:state" v="VT"/>
    <tag k="ref:vcgi:esiteid" v="301833"/>
  </node>
  <node id="-512" visible="true" lat="44.41974303" lon="-72.4111906">
    <tag k="addr:city" v="Woodbury"/>
    <tag k="addr:housenumber" v="2181"/>
    <tag k="addr:street" v="Vermont Route 14"/>
    <tag k="addr:state" v="VT"/>
    <tag k="ref:vcgi:esiteid" v="301834"/>
  </node>
  <node id="-513" visible="true" lat="44.41942978" lon="-72.42935181">
    <tag k="addr:city" v="Woodbury"/>
    <tag k="addr:housenumber" v="547"/>
    <tag k="addr:street" v="Dog Pond Road"/>
    <tag k="addr:state" v="VT"/>
    <tag k="ref:vcgi:esiteid" v="301835"/>
  </node>
  <node id="-514" visible="true" lat="44.41926575" lon="-72.45436096">
    <tag k="addr:city" v="Woodbury"/>
    <tag k="addr:housenumber" v="1230"/>
    <tag k="addr:street" v="Cranberry Meadow Road"/>
    <tag k="addr:state" v="VT"/>
    <tag k="ref:vcgi:esiteid" v="301836"/>
  </node>
  <node id="-515" visible="true" lat="44.4190445" lon="-72.4526825">
    <tag k="addr:city" v="Woodbury"/>
    <tag k="addr:housenumber" v="1303"/>
    <tag k="addr:street" v="Cranberry Meadow Road"/>
    <tag k="addr:state" v="VT"/>
    <tag k="ref:vcgi:esiteid" v="301837"/>
  </node>
  <node id="-516" visible="true" lat="44.41891242" lon="-72.41070719">
    <tag k="addr:city" v="Woodbury"/>
    <tag k="addr:housenumber" v="2112"/>
    <tag k="addr:street" v="Vermont Route 14"/>
    <tag k="addr:state" v="VT"/>
    <tag k="ref:vcgi:esiteid" v="301838"/>
  </node>
  <node id="-517" visible="true" lat="44.41889572" lon="-72.45742035">
    <tag k="addr:city" v="Woodbury"/>
    <tag k="addr:housenumber" v="227"/>
    <tag k="addr:street" v="Marsh Road"/>
    <tag k="addr:state" v="VT"/>
    <tag k="ref:vcgi:esiteid" v="301839"/>
  </node>
  <node id="-518" visible="true" lat="44.41872025" lon="-72.45179749">
    <tag k="addr:city" v="Woodbury"/>
    <tag k="addr:housenumber" v="1367"/>
    <tag k="addr:street" v="Cranberry Meadow Road"/>
    <tag k="addr:state" v="VT"/>
    <tag k="ref:vcgi:esiteid" v="301840"/>
  </node>
  <node id="-519" visible="true" lat="44.42052336" lon="-72.42367291">
    <tag k="addr:city" v="Woodbury"/>
    <tag k="addr:housenumber" v="35"/>
    <tag k="addr:street" v="Mill Pond Lane"/>
    <tag k="addr:state" v="VT"/>
    <tag k="ref:vcgi:esiteid" v="301841"/>
  </node>
  <node id="-520" visible="true" lat="44.4176712" lon="-72.40850067">
    <tag k="addr:city" v="Woodbury"/>
    <tag k="addr:housenumber" v="193"/>
    <tag k="addr:street" v="Hattie Bell Road"/>
    <tag k="addr:state" v="VT"/>
    <tag k="ref:vcgi:esiteid" v="301842"/>
  </node>
  <node id="-521" visible="true" lat="44.41744637" lon="-72.4428701">
    <tag k="addr:city" v="Woodbury"/>
    <tag k="addr:housenumber" v="6"/>
    <tag k="addr:street" v="Chartier Hill Road"/>
    <tag k="addr:state" v="VT"/>
    <tag k="ref:vcgi:esiteid" v="301843"/>
  </node>
  <node id="-522" visible="true" lat="44.41756058" lon="-72.42507935">
    <tag k="addr:city" v="Woodbury"/>
    <tag k="addr:housenumber" v="302"/>
    <tag k="addr:street" v="Dog Pond Road"/>
    <tag k="addr:state" v="VT"/>
    <tag k="ref:vcgi:esiteid" v="301844"/>
  </node>
  <node id="-525" visible="true" lat="44.41740036" lon="-72.4254303">
    <tag k="addr:city" v="Woodbury"/>
    <tag k="addr:housenumber" v="300"/>
    <tag k="addr:street" v="Dog Pond Road"/>
    <tag k="addr:state" v="VT"/>
    <tag k="ref:vcgi:esiteid" v="301847"/>
  </node>
  <node id="-527" visible="true" lat="44.41723745" lon="-72.42720292">
    <tag k="addr:city" v="Woodbury"/>
    <tag k="addr:housenumber" v="30"/>
    <tag k="addr:street" v="Lilleyville Road"/>
    <tag k="addr:state" v="VT"/>
    <tag k="ref:vcgi:esiteid" v="301849"/>
  </node>
  <node id="-528" visible="true" lat="44.41720666" lon="-72.41610503">
    <tag k="addr:city" v="Woodbury"/>
    <tag k="addr:housenumber" v="120"/>
    <tag k="addr:street" v="Maple Road"/>
    <tag k="addr:state" v="VT"/>
    <tag k="ref:vcgi:esiteid" v="301850"/>
  </node>
  <node id="-529" visible="true" lat="44.41685104" lon="-72.44982147">
    <tag k="addr:city" v="Woodbury"/>
    <tag k="addr:housenumber" v="1527"/>
    <tag k="addr:street" v="Cranberry Meadow Road"/>
    <tag k="addr:state" v="VT"/>
    <tag k="ref:vcgi:esiteid" v="301851"/>
  </node>
  <node id="-530" visible="true" lat="44.4168129" lon="-72.42676544">
    <tag k="addr:city" v="Woodbury"/>
    <tag k="addr:housenumber" v="269"/>
    <tag k="addr:street" v="Dog Pond Road"/>
    <tag k="addr:state" v="VT"/>
    <tag k="ref:vcgi:esiteid" v="301852"/>
  </node>
  <node id="-531" visible="true" lat="44.41691734" lon="-72.41419039">
    <tag k="addr:city" v="Woodbury"/>
    <tag k="addr:housenumber" v="1870"/>
    <tag k="addr:street" v="Vermont Route 14"/>
    <tag k="addr:state" v="VT"/>
    <tag k="ref:vcgi:esiteid" v="301853"/>
  </node>
  <node id="-532" visible="true" lat="44.41675186" lon="-72.42891693">
    <tag k="addr:city" v="Woodbury"/>
    <tag k="addr:housenumber" v="297"/>
    <tag k="addr:street" v="Dog Pond Road"/>
    <tag k="addr:state" v="VT"/>
    <tag k="ref:vcgi:esiteid" v="301854"/>
  </node>
  <node id="-533" visible="true" lat="44.41656876" lon="-72.42824554">
    <tag k="addr:city" v="Woodbury"/>
    <tag k="addr:housenumber" v="121"/>
    <tag k="addr:street" v="Lilleyville Road"/>
    <tag k="addr:state" v="VT"/>
    <tag k="ref:vcgi:esiteid" v="301855"/>
  </node>
  <node id="-534" visible="true" lat="44.41647339" lon="-72.41421509">
    <tag k="addr:city" v="Woodbury"/>
    <tag k="addr:housenumber" v="1864"/>
    <tag k="addr:street" v="Vermont Route 14"/>
    <tag k="addr:state" v="VT"/>
    <tag k="ref:vcgi:esiteid" v="301856"/>
  </node>
  <node id="-535" visible="true" lat="44.4163475" lon="-72.42749023">
    <tag k="addr:city" v="Woodbury"/>
    <tag k="addr:housenumber" v="55"/>
    <tag k="addr:street" v="Lilleyville Road"/>
    <tag k="addr:state" v="VT"/>
    <tag k="ref:vcgi:esiteid" v="301857"/>
  </node>
  <node id="-536" visible="true" lat="44.41619942" lon="-72.41468852">
    <tag k="addr:city" v="Woodbury"/>
    <tag k="addr:housenumber" v="1822"/>
    <tag k="addr:street" v="Vermont Route 14"/>
    <tag k="addr:state" v="VT"/>
    <tag k="ref:vcgi:esiteid" v="301858"/>
  </node>
  <node id="-537" visible="true" lat="44.41600759" lon="-72.41488281">
    <tag k="addr:city" v="Woodbury"/>
    <tag k="addr:housenumber" v="1820"/>
    <tag k="addr:street" v="Vermont Route 14"/>
    <tag k="addr:state" v="VT"/>
    <tag k="ref:vcgi:esiteid" v="301859"/>
  </node>
  <node id="-539" visible="true" lat="44.41573337" lon="-72.38888786">
    <tag k="addr:city" v="Woodbury"/>
    <tag k="addr:housenumber" v="732"/>
    <tag k="addr:street" v="Keene Farm Road"/>
    <tag k="addr:state" v="VT"/>
    <tag k="ref:vcgi:esiteid" v="301861"/>
  </node>
  <node id="-540" visible="true" lat="44.41585154" lon="-72.41957859">
    <tag k="addr:city" v="Woodbury"/>
    <tag k="addr:housenumber" v="276"/>
    <tag k="addr:street" v="Maple Road"/>
    <tag k="addr:state" v="VT"/>
    <tag k="ref:vcgi:esiteid" v="301862"/>
  </node>
  <node id="-541" visible="true" lat="44.41575247" lon="-72.41733933">
    <tag k="addr:city" v="Woodbury"/>
    <tag k="addr:housenumber" v="1721"/>
    <tag k="addr:street" v="Vermont Route 14"/>
    <tag k="addr:state" v="VT"/>
    <tag k="ref:vcgi:esiteid" v="301863"/>
  </node>
  <node id="-542" visible="true" lat="44.41569519" lon="-72.42892456">
    <tag k="addr:city" v="Woodbury"/>
    <tag k="addr:housenumber" v="185"/>
    <tag k="addr:street" v="Lilleyville Road"/>
    <tag k="addr:state" v="VT"/>
    <tag k="ref:vcgi:esiteid" v="301864"/>
  </node>
  <node id="-543" visible="true" lat="44.41567993" lon="-72.42594147">
    <tag k="addr:city" v="Woodbury"/>
    <tag k="addr:housenumber" v="157"/>
    <tag k="addr:street" v="Dog Pond Road"/>
    <tag k="addr:state" v="VT"/>
    <tag k="ref:vcgi:esiteid" v="301865"/>
  </node>
  <node id="-544" visible="true" lat="44.41570418" lon="-72.4200455">
    <tag k="addr:city" v="Woodbury"/>
    <tag k="addr:housenumber" v="306"/>
    <tag k="addr:street" v="Maple Road"/>
    <tag k="addr:state" v="VT"/>
    <tag k="ref:vcgi:esiteid" v="301866"/>
  </node>
  <node id="-545" visible="true" lat="44.41550445" lon="-72.42077637">
    <tag k="addr:city" v="Woodbury"/>
    <tag k="addr:housenumber" v="344"/>
    <tag k="addr:street" v="Maple Road"/>
    <tag k="addr:state" v="VT"/>
    <tag k="ref:vcgi:esiteid" v="301867"/>
  </node>
  <node id="-547" visible="true" lat="44.41545487" lon="-72.42552185">
    <tag k="addr:city" v="Woodbury"/>
    <tag k="addr:housenumber" v="155"/>
    <tag k="addr:street" v="Dog Pond Road"/>
    <tag k="addr:state" v="VT"/>
    <tag k="ref:vcgi:esiteid" v="301869"/>
  </node>
  <node id="-548" visible="true" lat="44.41534438" lon="-72.41781511">
    <tag k="addr:city" v="Woodbury"/>
    <tag k="addr:housenumber" v="1695"/>
    <tag k="addr:street" v="Vermont Route 14"/>
    <tag k="addr:state" v="VT"/>
    <tag k="ref:vcgi:esiteid" v="301870"/>
  </node>
  <node id="-550" visible="true" lat="44.4152911" lon="-72.42176503">
    <tag k="addr:city" v="Woodbury"/>
    <tag k="addr:housenumber" v="33"/>
    <tag k="addr:street" v="Mill Pond Lane"/>
    <tag k="addr:state" v="VT"/>
    <tag k="ref:vcgi:esiteid" v="301872"/>
  </node>
  <node id="-551" visible="true" lat="44.41531372" lon="-72.42029572">
    <tag k="addr:city" v="Woodbury"/>
    <tag k="addr:housenumber" v="341"/>
    <tag k="addr:street" v="Maple Road"/>
    <tag k="addr:state" v="VT"/>
    <tag k="ref:vcgi:esiteid" v="301873"/>
  </node>
  <node id="-552" visible="true" lat="44.41533081" lon="-72.42129315">
    <tag k="addr:city" v="Woodbury"/>
    <tag k="addr:housenumber" v="2059"/>
    <tag k="addr:street" v="Foster Hill Road"/>
    <tag k="addr:state" v="VT"/>
    <tag k="ref:vcgi:esiteid" v="301874"/>
  </node>
  <node id="-553" visible="true" lat="44.41522217" lon="-72.42149353">
    <tag k="addr:city" v="Woodbury"/>
    <tag k="addr:housenumber" v="23"/>
    <tag k="addr:street" v="Mill Pond Lane"/>
    <tag k="addr:state" v="VT"/>
    <tag k="ref:vcgi:esiteid" v="301875"/>
  </node>
  <node id="-554" visible="true" lat="44.41497415" lon="-72.42000197">
    <tag k="addr:city" v="Woodbury"/>
    <tag k="addr:housenumber" v="2108"/>
    <tag k="addr:street" v="Foster Hill Road"/>
    <tag k="addr:state" v="VT"/>
    <tag k="ref:vcgi:esiteid" v="301876"/>
  </node>
  <node id="-555" visible="true" lat="44.41495132" lon="-72.41719818">
    <tag k="addr:city" v="Woodbury"/>
    <tag k="addr:housenumber" v="1692"/>
    <tag k="addr:street" v="Vermont Route 14"/>
    <tag k="addr:state" v="VT"/>
    <tag k="ref:vcgi:esiteid" v="301877"/>
  </node>
  <node id="-557" visible="true" lat="44.41475404" lon="-72.41805113">
    <tag k="addr:city" v="Woodbury"/>
    <tag k="addr:housenumber" v="2216"/>
    <tag k="addr:street" v="Foster Hill Road"/>
    <tag k="addr:state" v="VT"/>
    <tag k="ref:vcgi:esiteid" v="301879"/>
  </node>
  <node id="-558" visible="true" lat="44.41481207" lon="-72.42137598">
    <tag k="addr:city" v="Woodbury"/>
    <tag k="addr:housenumber" v="2034"/>
    <tag k="addr:street" v="Foster Hill Road"/>
    <tag k="addr:state" v="VT"/>
    <tag k="ref:vcgi:esiteid" v="301880"/>
  </node>
  <node id="-559" visible="true" lat="44.41488266" lon="-72.45743561">
    <tag k="addr:city" v="Woodbury"/>
    <tag k="addr:housenumber" v="403"/>
    <tag k="addr:street" v="Scribner Road"/>
    <tag k="addr:state" v="VT"/>
    <tag k="ref:vcgi:esiteid" v="301881"/>
  </node>
  <node id="-560" visible="true" lat="44.41490185" lon="-72.45408101">
    <tag k="addr:city" v="Woodbury"/>
    <tag k="addr:housenumber" v="304"/>
    <tag k="addr:street" v="Scribner Road"/>
    <tag k="addr:state" v="VT"/>
    <tag k="ref:vcgi:esiteid" v="301882"/>
  </node>
  <node id="-561" visible="true" lat="44.41476059" lon="-72.42209625">
    <tag k="addr:city" v="Woodbury"/>
    <tag k="addr:housenumber" v="2003"/>
    <tag k="addr:street" v="Foster Hill Road"/>
    <tag k="addr:state" v="VT"/>
    <tag k="ref:vcgi:esiteid" v="301883"/>
  </node>
  <node id="-562" visible="true" lat="44.41469193" lon="-72.41764831">
    <tag k="addr:city" v="Woodbury"/>
    <tag k="addr:housenumber" v="1672"/>
    <tag k="addr:street" v="Vermont Route 14"/>
    <tag k="addr:state" v="VT"/>
    <tag k="ref:vcgi:esiteid" v="301884"/>
  </node>
  <node id="-564" visible="true" lat="44.41446686" lon="-72.41789246">
    <tag k="addr:city" v="Woodbury"/>
    <tag k="addr:housenumber" v="1642"/>
    <tag k="addr:street" v="Vermont Route 14"/>
    <tag k="addr:state" v="VT"/>
    <tag k="ref:vcgi:esiteid" v="301886"/>
  </node>
  <node id="-565" visible="true" lat="44.41444016" lon="-72.42223358">
    <tag k="addr:city" v="Woodbury"/>
    <tag k="addr:housenumber" v="1987"/>
    <tag k="addr:street" v="Foster Hill Road"/>
    <tag k="addr:state" v="VT"/>
    <tag k="ref:vcgi:esiteid" v="301887"/>
  </node>
  <node id="-568" visible="true" lat="44.41428681" lon="-72.44475795">
    <tag k="addr:city" v="Woodbury"/>
    <tag k="addr:housenumber" v="253"/>
    <tag k="addr:street" v="Chartier Hill Road"/>
    <tag k="addr:state" v="VT"/>
    <tag k="ref:vcgi:esiteid" v="301890"/>
  </node>
  <node id="-569" visible="true" lat="44.41423035" lon="-72.42301178">
    <tag k="addr:city" v="Woodbury"/>
    <tag k="addr:housenumber" v="35"/>
    <tag k="addr:street" v="Dog Pond Road"/>
    <tag k="addr:state" v="VT"/>
    <tag k="ref:vcgi:esiteid" v="301891"/>
  </node>
  <node id="-570" visible="true" lat="44.41415405" lon="-72.42211914">
    <tag k="addr:city" v="Woodbury"/>
    <tag k="addr:housenumber" v="1972"/>
    <tag k="addr:street" v="Foster Hill Road"/>
    <tag k="addr:state" v="VT"/>
    <tag k="ref:vcgi:esiteid" v="301892"/>
  </node>
  <node id="-572" visible="true" lat="44.41395187" lon="-72.42224884">
    <tag k="addr:city" v="Woodbury"/>
    <tag k="addr:housenumber" v="1956"/>
    <tag k="addr:street" v="Foster Hill Road"/>
    <tag k="addr:state" v="VT"/>
    <tag k="ref:vcgi:esiteid" v="301894"/>
  </node>
  <node id="-573" visible="true" lat="44.41384125" lon="-72.42250824">
    <tag k="addr:city" v="Woodbury"/>
    <tag k="addr:housenumber" v="1945"/>
    <tag k="addr:street" v="Foster Hill Road"/>
    <tag k="addr:state" v="VT"/>
    <tag k="ref:vcgi:esiteid" v="301895"/>
  </node>
  <node id="-574" visible="true" lat="44.41358185" lon="-72.43766785">
    <tag k="addr:city" v="Woodbury"/>
    <tag k="addr:housenumber" v="694"/>
    <tag k="addr:street" v="King Pond Road"/>
    <tag k="addr:state" v="VT"/>
    <tag k="ref:vcgi:esiteid" v="301896"/>
  </node>
  <node id="-576" visible="true" lat="44.41345596" lon="-72.41848755">
    <tag k="addr:city" v="Woodbury"/>
    <tag k="addr:housenumber" v="1552"/>
    <tag k="addr:street" v="Vermont Route 14"/>
    <tag k="addr:state" v="VT"/>
    <tag k="ref:vcgi:esiteid" v="301898"/>
  </node>
  <node id="-577" visible="true" lat="44.41335297" lon="-72.43712616">
    <tag k="addr:city" v="Woodbury"/>
    <tag k="addr:housenumber" v="680"/>
    <tag k="addr:street" v="King Pond Road"/>
    <tag k="addr:state" v="VT"/>
    <tag k="ref:vcgi:esiteid" v="301899"/>
  </node>
  <node id="-579" visible="true" lat="44.41308212" lon="-72.40774536">
    <tag k="addr:city" v="Woodbury"/>
    <tag k="addr:housenumber" v="960"/>
    <tag k="addr:street" v="Vermont Route 14"/>
    <tag k="addr:state" v="VT"/>
    <tag k="ref:vcgi:esiteid" v="301901"/>
  </node>
  <node id="-584" visible="true" lat="44.41255569" lon="-72.43768311">
    <tag k="addr:city" v="Woodbury"/>
    <tag k="addr:housenumber" v="665"/>
    <tag k="addr:street" v="King Pond Road"/>
    <tag k="addr:state" v="VT"/>
    <tag k="ref:vcgi:esiteid" v="301906"/>
  </node>
  <node id="-585" visible="true" lat="44.41241074" lon="-72.41022491">
    <tag k="addr:city" v="Woodbury"/>
    <tag k="addr:housenumber" v="958"/>
    <tag k="addr:street" v="Vermont Route 14"/>
    <tag k="addr:state" v="VT"/>
    <tag k="ref:vcgi:esiteid" v="301907"/>
  </node>
  <node id="-586" visible="true" lat="44.41197205" lon="-72.42336273">
    <tag k="addr:city" v="Woodbury"/>
    <tag k="addr:housenumber" v="1805"/>
    <tag k="addr:street" v="Foster Hill Road"/>
    <tag k="addr:state" v="VT"/>
    <tag k="ref:vcgi:esiteid" v="301908"/>
  </node>
  <node id="-587" visible="true" lat="44.41194915" lon="-72.42027282">
    <tag k="addr:city" v="Woodbury"/>
    <tag k="addr:housenumber" v="1403"/>
    <tag k="addr:street" v="Vermont Route 14"/>
    <tag k="addr:state" v="VT"/>
    <tag k="ref:vcgi:esiteid" v="301909"/>
  </node>
  <node id="-588" visible="true" lat="44.41184616" lon="-72.43566132">
    <tag k="addr:city" v="Woodbury"/>
    <tag k="addr:housenumber" v="556"/>
    <tag k="addr:street" v="King Pond Road"/>
    <tag k="addr:state" v="VT"/>
    <tag k="ref:vcgi:esiteid" v="301910"/>
  </node>
  <node id="-589" visible="true" lat="44.41166687" lon="-72.44491577">
    <tag k="addr:city" v="Woodbury"/>
    <tag k="addr:housenumber" v="812"/>
    <tag k="addr:street" v="Nelson Pond Road"/>
    <tag k="addr:state" v="VT"/>
    <tag k="ref:vcgi:esiteid" v="301911"/>
  </node>
  <node id="-590" visible="true" lat="44.41164017" lon="-72.44699097">
    <tag k="addr:city" v="Woodbury"/>
    <tag k="addr:housenumber" v="824"/>
    <tag k="addr:street" v="Nelson Pond Road"/>
    <tag k="addr:state" v="VT"/>
    <tag k="ref:vcgi:esiteid" v="301912"/>
  </node>
  <node id="-595" visible="true" lat="44.41091538" lon="-72.44806671">
    <tag k="addr:city" v="Woodbury"/>
    <tag k="addr:housenumber" v="771"/>
    <tag k="addr:street" v="Nelson Pond Road"/>
    <tag k="addr:state" v="VT"/>
    <tag k="ref:vcgi:esiteid" v="301917"/>
  </node>
  <node id="-596" visible="true" lat="44.41083145" lon="-72.44779968">
    <tag k="addr:city" v="Woodbury"/>
    <tag k="addr:housenumber" v="773"/>
    <tag k="addr:street" v="Nelson Pond Road"/>
    <tag k="addr:state" v="VT"/>
    <tag k="ref:vcgi:esiteid" v="301918"/>
  </node>
  <node id="-600" visible="true" lat="44.41069256" lon="-72.42081228">
    <tag k="addr:city" v="Woodbury"/>
    <tag k="addr:housenumber" v="1317"/>
    <tag k="addr:street" v="Vermont Route 14"/>
    <tag k="addr:state" v="VT"/>
    <tag k="ref:vcgi:esiteid" v="301922"/>
  </node>
  <node id="-601" visible="true" lat="44.41003037" lon="-72.4469986">
    <tag k="addr:city" v="Woodbury"/>
    <tag k="addr:housenumber" v="682"/>
    <tag k="addr:street" v="Nelson Pond Road"/>
    <tag k="addr:state" v="VT"/>
    <tag k="ref:vcgi:esiteid" v="301923"/>
  </node>
  <node id="-603" visible="true" lat="44.40985489" lon="-72.42828369">
    <tag k="addr:city" v="Woodbury"/>
    <tag k="addr:housenumber" v="142"/>
    <tag k="addr:street" v="King Pond Road"/>
    <tag k="addr:state" v="VT"/>
    <tag k="ref:vcgi:esiteid" v="301925"/>
  </node>
  <node id="-604" visible="true" lat="44.40963742" lon="-72.44721653">
    <tag k="addr:city" v="Woodbury"/>
    <tag k="addr:housenumber" v="679"/>
    <tag k="addr:street" v="Nelson Pond Road"/>
    <tag k="addr:state" v="VT"/>
    <tag k="ref:vcgi:esiteid" v="301926"/>
  </node>
  <node id="-605" visible="true" lat="44.40939973" lon="-72.38045172">
    <tag k="addr:city" v="Woodbury"/>
    <tag k="addr:housenumber" v="528"/>
    <tag k="addr:street" v="Keene Farm Road"/>
    <tag k="addr:state" v="VT"/>
    <tag k="ref:vcgi:esiteid" v="301927"/>
  </node>
  <node id="-606" visible="true" lat="44.40945435" lon="-72.44726563">
    <tag k="addr:city" v="Woodbury"/>
    <tag k="addr:housenumber" v="641"/>
    <tag k="addr:street" v="Nelson Pond Road"/>
    <tag k="addr:state" v="VT"/>
    <tag k="ref:vcgi:esiteid" v="301928"/>
  </node>
  <node id="-607" visible="true" lat="44.40927696" lon="-72.4472413">
    <tag k="addr:city" v="Woodbury"/>
    <tag k="addr:housenumber" v="631"/>
    <tag k="addr:street" v="Nelson Pond Road"/>
    <tag k="addr:state" v="VT"/>
    <tag k="ref:vcgi:esiteid" v="301929"/>
  </node>
  <node id="-608" visible="true" lat="44.40889569" lon="-72.44738443">
    <tag k="addr:city" v="Woodbury"/>
    <tag k="addr:housenumber" v="615"/>
    <tag k="addr:street" v="Nelson Pond Road"/>
    <tag k="addr:state" v="VT"/>
    <tag k="ref:vcgi:esiteid" v="301930"/>
  </node>
  <node id="-611" visible="true" lat="44.40882492" lon="-72.43625641">
    <tag k="addr:city" v="Woodbury"/>
    <tag k="addr:housenumber" v="158"/>
    <tag k="addr:street" v="Cliff Drive"/>
    <tag k="addr:state" v="VT"/>
    <tag k="ref:vcgi:esiteid" v="301933"/>
  </node>
  <node id="-612" visible="true" lat="44.40857267" lon="-72.37604151">
    <tag k="addr:city" v="Woodbury"/>
    <tag k="addr:housenumber" v="300"/>
    <tag k="addr:street" v="Keene Farm Road"/>
    <tag k="addr:state" v="VT"/>
    <tag k="ref:vcgi:esiteid" v="301934"/>
  </node>
  <node id="-613" visible="true" lat="44.40871429" lon="-72.42424774">
    <tag k="addr:city" v="Woodbury"/>
    <tag k="addr:housenumber" v="1562"/>
    <tag k="addr:street" v="Foster Hill Road"/>
    <tag k="addr:state" v="VT"/>
    <tag k="ref:vcgi:esiteid" v="301935"/>
  </node>
  <node id="-614" visible="true" lat="44.40858459" lon="-72.41471863">
    <tag k="addr:city" v="Woodbury"/>
    <tag k="addr:housenumber" v="956"/>
    <tag k="addr:street" v="Vermont Route 14"/>
    <tag k="addr:state" v="VT"/>
    <tag k="ref:vcgi:esiteid" v="301936"/>
  </node>
  <node id="-618" visible="true" lat="44.40818787" lon="-72.41653442">
    <tag k="addr:city" v="Woodbury"/>
    <tag k="addr:housenumber" v="1092"/>
    <tag k="addr:street" v="Vermont Route 14"/>
    <tag k="addr:state" v="VT"/>
    <tag k="ref:vcgi:esiteid" v="301940"/>
  </node>
  <node id="-621" visible="true" lat="44.40769958" lon="-72.37640381">
    <tag k="addr:city" v="Woodbury"/>
    <tag k="addr:housenumber" v="302"/>
    <tag k="addr:street" v="Keene Farm Road"/>
    <tag k="addr:state" v="VT"/>
    <tag k="ref:vcgi:esiteid" v="301943"/>
  </node>
  <node id="-623" visible="true" lat="44.4074707" lon="-72.36525726">
    <tag k="addr:city" v="Woodbury"/>
    <tag k="addr:housenumber" v="2736"/>
    <tag k="addr:street" v="East Hill Road"/>
    <tag k="addr:state" v="VT"/>
    <tag k="ref:vcgi:esiteid" v="301945"/>
  </node>
  <node id="-625" visible="true" lat="44.40729329" lon="-72.41405608">
    <tag k="addr:city" v="Woodbury"/>
    <tag k="addr:housenumber" v="969"/>
    <tag k="addr:street" v="Vermont Route 14"/>
    <tag k="addr:state" v="VT"/>
    <tag k="ref:vcgi:esiteid" v="301947"/>
  </node>
  <node id="-626" visible="true" lat="44.40729523" lon="-72.43599701">
    <tag k="addr:city" v="Woodbury"/>
    <tag k="addr:housenumber" v="231"/>
    <tag k="addr:street" v="Cliff Drive"/>
    <tag k="addr:state" v="VT"/>
    <tag k="ref:vcgi:esiteid" v="301948"/>
  </node>
  <node id="-632" visible="true" lat="44.40707715" lon="-72.41107775">
    <tag k="addr:city" v="Woodbury"/>
    <tag k="addr:housenumber" v="836"/>
    <tag k="addr:street" v="Vermont Route 14"/>
    <tag k="addr:state" v="VT"/>
    <tag k="ref:vcgi:esiteid" v="301954"/>
  </node>
  <node id="-633" visible="true" lat="44.40701711" lon="-72.43609516">
    <tag k="addr:city" v="Woodbury"/>
    <tag k="addr:housenumber" v="334"/>
    <tag k="addr:street" v="Rathburn Road"/>
    <tag k="addr:state" v="VT"/>
    <tag k="ref:vcgi:esiteid" v="301955"/>
  </node>
  <node id="-634" visible="true" lat="44.40692041" lon="-72.40311691">
    <tag k="addr:city" v="Woodbury"/>
    <tag k="addr:housenumber" v="404"/>
    <tag k="addr:street" v="East Hill Road"/>
    <tag k="addr:state" v="VT"/>
    <tag k="ref:vcgi:esiteid" v="301956"/>
  </node>
  <node id="-635" visible="true" lat="44.40691757" lon="-72.41461944">
    <tag k="addr:city" v="Woodbury"/>
    <tag k="addr:housenumber" v="1005"/>
    <tag k="addr:street" v="Vermont Route 14"/>
    <tag k="addr:state" v="VT"/>
    <tag k="ref:vcgi:esiteid" v="301957"/>
  </node>
  <node id="-639" visible="true" lat="44.40644836" lon="-72.41490936">
    <tag k="addr:city" v="Woodbury"/>
    <tag k="addr:housenumber" v="1007"/>
    <tag k="addr:street" v="Vermont Route 14"/>
    <tag k="addr:state" v="VT"/>
    <tag k="ref:vcgi:esiteid" v="301961"/>
  </node>
  <node id="-643" visible="true" lat="44.40600585" lon="-72.41001129">
    <tag k="addr:city" v="Woodbury"/>
    <tag k="addr:housenumber" v="738"/>
    <tag k="addr:street" v="Vermont Route 14"/>
    <tag k="addr:state" v="VT"/>
    <tag k="ref:vcgi:esiteid" v="301965"/>
  </node>
  <node id="-647" visible="true" lat="44.40561294" lon="-72.40967559">
    <tag k="addr:city" v="Woodbury"/>
    <tag k="addr:housenumber" v="710"/>
    <tag k="addr:street" v="Vermont Route 14"/>
    <tag k="addr:state" v="VT"/>
    <tag k="ref:vcgi:esiteid" v="301969"/>
  </node>
  <node id="-650" visible="true" lat="44.40551758" lon="-72.37848663">
    <tag k="addr:city" v="Woodbury"/>
    <tag k="addr:housenumber" v="287"/>
    <tag k="addr:street" v="Keene Farm Road"/>
    <tag k="addr:state" v="VT"/>
    <tag k="ref:vcgi:esiteid" v="301972"/>
  </node>
  <node id="-651" visible="true" lat="44.4054868" lon="-72.43800228">
    <tag k="addr:city" v="Woodbury"/>
    <tag k="addr:housenumber" v="460"/>
    <tag k="addr:street" v="Rathburn Road"/>
    <tag k="addr:state" v="VT"/>
    <tag k="ref:vcgi:esiteid" v="301973"/>
  </node>
  <node id="-654" visible="true" lat="44.40529328" lon="-72.43744496">
    <tag k="addr:city" v="Woodbury"/>
    <tag k="addr:housenumber" v="459"/>
    <tag k="addr:street" v="Rathburn Road"/>
    <tag k="addr:state" v="VT"/>
    <tag k="ref:vcgi:esiteid" v="301976"/>
  </node>
  <node id="-656" visible="true" lat="44.40516811" lon="-72.43761853">
    <tag k="addr:city" v="Woodbury"/>
    <tag k="addr:housenumber" v="461"/>
    <tag k="addr:street" v="Rathburn Road"/>
    <tag k="addr:state" v="VT"/>
    <tag k="ref:vcgi:esiteid" v="301978"/>
  </node>
  <node id="-661" visible="true" lat="44.40497307" lon="-72.41065954">
    <tag k="addr:city" v="Woodbury"/>
    <tag k="addr:housenumber" v="661"/>
    <tag k="addr:street" v="Vermont Route 14"/>
    <tag k="addr:state" v="VT"/>
    <tag k="ref:vcgi:esiteid" v="301983"/>
  </node>
  <node id="-665" visible="true" lat="44.40411151" lon="-72.42471887">
    <tag k="addr:city" v="Woodbury"/>
    <tag k="addr:housenumber" v="264"/>
    <tag k="addr:street" v="Wilbur Road"/>
    <tag k="addr:state" v="VT"/>
    <tag k="ref:vcgi:esiteid" v="301988"/>
  </node>
  <node id="-672" visible="true" lat="44.40369415" lon="-72.39144134">
    <tag k="addr:city" v="Woodbury"/>
    <tag k="addr:housenumber" v="113"/>
    <tag k="addr:street" v="Bliss Road"/>
    <tag k="addr:state" v="VT"/>
    <tag k="ref:vcgi:esiteid" v="301995"/>
  </node>
  <node id="-681" visible="true" lat="44.40333557" lon="-72.42253112">
    <tag k="addr:city" v="Woodbury"/>
    <tag k="addr:housenumber" v="130"/>
    <tag k="addr:street" v="Herricks Cove Upper Road"/>
    <tag k="addr:state" v="VT"/>
    <tag k="ref:vcgi:esiteid" v="302004"/>
  </node>
  <node id="-682" visible="true" lat="44.40322408" lon="-72.40982398">
    <tag k="addr:city" v="Woodbury"/>
    <tag k="addr:housenumber" v="570"/>
    <tag k="addr:street" v="Vermont Route 14"/>
    <tag k="addr:state" v="VT"/>
    <tag k="ref:vcgi:esiteid" v="302005"/>
  </node>
  <node id="-684" visible="true" lat="44.40321731" lon="-72.42256164">
    <tag k="addr:city" v="Woodbury"/>
    <tag k="addr:housenumber" v="150"/>
    <tag k="addr:street" v="Herricks Cove Upper Road"/>
    <tag k="addr:state" v="VT"/>
    <tag k="ref:vcgi:esiteid" v="302007"/>
  </node>
  <node id="-688" visible="true" lat="44.40302276" lon="-72.41055297">
    <tag k="addr:city" v="Woodbury"/>
    <tag k="addr:housenumber" v="534"/>
    <tag k="addr:street" v="Vermont Route 14"/>
    <tag k="addr:state" v="VT"/>
    <tag k="ref:vcgi:esiteid" v="302011"/>
  </node>
  <node id="-694" visible="true" lat="44.40278625" lon="-72.42006683">
    <tag k="addr:city" v="Woodbury"/>
    <tag k="addr:housenumber" v="23"/>
    <tag k="addr:street" v="Herricks Cove Extension"/>
    <tag k="addr:state" v="VT"/>
    <tag k="ref:vcgi:esiteid" v="302017"/>
  </node>
  <node id="-699" visible="true" lat="44.40248107" lon="-72.42040252">
    <tag k="addr:city" v="Woodbury"/>
    <tag k="addr:housenumber" v="21"/>
    <tag k="addr:street" v="Herricks Cove Extension"/>
    <tag k="addr:state" v="VT"/>
    <tag k="ref:vcgi:esiteid" v="302022"/>
  </node>
  <node id="-701" visible="true" lat="44.40245056" lon="-72.41987609">
    <tag k="addr:city" v="Woodbury"/>
    <tag k="addr:housenumber" v="27"/>
    <tag k="addr:street" v="Herricks Cove Extension"/>
    <tag k="addr:state" v="VT"/>
    <tag k="ref:vcgi:esiteid" v="302024"/>
  </node>
  <node id="-703" visible="true" lat="44.40235621" lon="-72.42275107">
    <tag k="addr:city" v="Woodbury"/>
    <tag k="addr:housenumber" v="526"/>
    <tag k="addr:street" v="Herricks Cove"/>
    <tag k="addr:state" v="VT"/>
    <tag k="ref:vcgi:esiteid" v="302026"/>
  </node>
  <node id="-704" visible="true" lat="44.40237188" lon="-72.4144762">
    <tag k="addr:city" v="Woodbury"/>
    <tag k="addr:housenumber" v="93"/>
    <tag k="addr:street" v="Wheelock Road"/>
    <tag k="addr:state" v="VT"/>
    <tag k="ref:vcgi:esiteid" v="302027"/>
  </node>
  <node id="-705" visible="true" lat="44.40224456" lon="-72.42082977">
    <tag k="addr:city" v="Woodbury"/>
    <tag k="addr:housenumber" v="629"/>
    <tag k="addr:street" v="Herricks Cove"/>
    <tag k="addr:state" v="VT"/>
    <tag k="ref:vcgi:esiteid" v="302028"/>
  </node>
  <node id="-706" visible="true" lat="44.40222167" lon="-72.42152404">
    <tag k="addr:city" v="Woodbury"/>
    <tag k="addr:housenumber" v="569"/>
    <tag k="addr:street" v="Herricks Cove"/>
    <tag k="addr:state" v="VT"/>
    <tag k="ref:vcgi:esiteid" v="302029"/>
  </node>
  <node id="-709" visible="true" lat="44.40215301" lon="-72.41983795">
    <tag k="addr:city" v="Woodbury"/>
    <tag k="addr:housenumber" v="31"/>
    <tag k="addr:street" v="Herricks Cove Extension"/>
    <tag k="addr:state" v="VT"/>
    <tag k="ref:vcgi:esiteid" v="302032"/>
  </node>
  <node id="-712" visible="true" lat="44.40190505" lon="-72.41967773">
    <tag k="addr:city" v="Woodbury"/>
    <tag k="addr:housenumber" v="43"/>
    <tag k="addr:street" v="Herricks Cove Extension"/>
    <tag k="addr:state" v="VT"/>
    <tag k="ref:vcgi:esiteid" v="302035"/>
  </node>
  <node id="-716" visible="true" lat="44.40167236" lon="-72.40837097">
    <tag k="addr:city" v="Woodbury"/>
    <tag k="addr:housenumber" v="502"/>
    <tag k="addr:street" v="Vermont Route 14"/>
    <tag k="addr:state" v="VT"/>
    <tag k="ref:vcgi:esiteid" v="302039"/>
  </node>
  <node id="-718" visible="true" lat="44.40161132" lon="-72.41950225">
    <tag k="addr:city" v="Woodbury"/>
    <tag k="addr:housenumber" v="73"/>
    <tag k="addr:street" v="Herricks Cove Extension"/>
    <tag k="addr:state" v="VT"/>
    <tag k="ref:vcgi:esiteid" v="302041"/>
  </node>
  <node id="-719" visible="true" lat="44.40140151" lon="-72.41919708">
    <tag k="addr:city" v="Woodbury"/>
    <tag k="addr:housenumber" v="117"/>
    <tag k="addr:street" v="Herricks Cove Extension"/>
    <tag k="addr:state" v="VT"/>
    <tag k="ref:vcgi:esiteid" v="302042"/>
  </node>
  <node id="-720" visible="true" lat="44.40152503" lon="-72.41512702">
    <tag k="addr:city" v="Woodbury"/>
    <tag k="addr:housenumber" v="108"/>
    <tag k="addr:street" v="Haskett Road"/>
    <tag k="addr:state" v="VT"/>
    <tag k="ref:vcgi:esiteid" v="302043"/>
  </node>
  <node id="-721" visible="true" lat="44.40131378" lon="-72.41534424">
    <tag k="addr:city" v="Woodbury"/>
    <tag k="addr:housenumber" v="118"/>
    <tag k="addr:street" v="Haskett Road"/>
    <tag k="addr:state" v="VT"/>
    <tag k="ref:vcgi:esiteid" v="302044"/>
  </node>
  <node id="-727" visible="true" lat="44.40094383" lon="-72.41577096">
    <tag k="addr:city" v="Woodbury"/>
    <tag k="addr:housenumber" v="148"/>
    <tag k="addr:street" v="Haskett Road"/>
    <tag k="addr:state" v="VT"/>
    <tag k="ref:vcgi:esiteid" v="302050"/>
  </node>
  <node id="-729" visible="true" lat="44.40086365" lon="-72.41558838">
    <tag k="addr:city" v="Woodbury"/>
    <tag k="addr:housenumber" v="149"/>
    <tag k="addr:street" v="Haskett Road"/>
    <tag k="addr:state" v="VT"/>
    <tag k="ref:vcgi:esiteid" v="302052"/>
  </node>
  <node id="-730" visible="true" lat="44.40080261" lon="-72.41899108">
    <tag k="addr:city" v="Woodbury"/>
    <tag k="addr:housenumber" v="737"/>
    <tag k="addr:street" v="Herricks Cove"/>
    <tag k="addr:state" v="VT"/>
    <tag k="ref:vcgi:esiteid" v="302053"/>
  </node>
  <node id="-731" visible="true" lat="44.4002794" lon="-72.39342118">
    <tag k="addr:city" v="Woodbury"/>
    <tag k="addr:housenumber" v="363"/>
    <tag k="addr:street" v="Bliss Road"/>
    <tag k="addr:state" v="VT"/>
    <tag k="ref:vcgi:esiteid" v="302054"/>
  </node>
  <node id="-733" visible="true" lat="44.40045929" lon="-72.38504791">
    <tag k="addr:city" v="Woodbury"/>
    <tag k="addr:housenumber" v="1502"/>
    <tag k="addr:street" v="East Hill Road"/>
    <tag k="addr:state" v="VT"/>
    <tag k="ref:vcgi:esiteid" v="302056"/>
  </node>
  <node id="-734" visible="true" lat="44.40035247" lon="-72.41875457">
    <tag k="addr:city" v="Woodbury"/>
    <tag k="addr:housenumber" v="803"/>
    <tag k="addr:street" v="Herricks Cove"/>
    <tag k="addr:state" v="VT"/>
    <tag k="ref:vcgi:esiteid" v="302057"/>
  </node>
  <node id="-735" visible="true" lat="44.40008926" lon="-72.41608428">
    <tag k="addr:city" v="Woodbury"/>
    <tag k="addr:housenumber" v="805"/>
    <tag k="addr:street" v="Herricks Cove"/>
    <tag k="addr:state" v="VT"/>
    <tag k="ref:vcgi:esiteid" v="302058"/>
  </node>
  <node id="-740" visible="true" lat="44.39900712" lon="-72.41343821">
    <tag k="addr:city" v="Woodbury"/>
    <tag k="addr:housenumber" v="208"/>
    <tag k="addr:street" v="Vermont Route 14"/>
    <tag k="addr:state" v="VT"/>
    <tag k="ref:vcgi:esiteid" v="302063"/>
  </node>
  <node id="-742" visible="true" lat="44.39839034" lon="-72.41345177">
    <tag k="addr:city" v="Woodbury"/>
    <tag k="addr:housenumber" v="17"/>
    <tag k="addr:street" v="Strawberry Lane"/>
    <tag k="addr:state" v="VT"/>
    <tag k="ref:vcgi:esiteid" v="302065"/>
  </node>
  <node id="-745" visible="true" lat="44.39843607" lon="-72.41236815">
    <tag k="addr:city" v="Woodbury"/>
    <tag k="addr:housenumber" v="43"/>
    <tag k="addr:street" v="Strawberry Lane"/>
    <tag k="addr:state" v="VT"/>
    <tag k="ref:vcgi:esiteid" v="302068"/>
  </node>
  <node id="-747" visible="true" lat="44.39831304" lon="-72.41300265">
    <tag k="addr:city" v="Woodbury"/>
    <tag k="addr:housenumber" v="26"/>
    <tag k="addr:street" v="Strawberry Lane"/>
    <tag k="addr:state" v="VT"/>
    <tag k="ref:vcgi:esiteid" v="302070"/>
  </node>
  <node id="-754" visible="true" lat="44.39725865" lon="-72.41386133">
    <tag k="addr:city" v="Woodbury"/>
    <tag k="addr:housenumber" v="48"/>
    <tag k="addr:street" v="Vermont Route 14"/>
    <tag k="addr:state" v="VT"/>
    <tag k="ref:vcgi:esiteid" v="302077"/>
  </node>
  <node id="-755" visible="true" lat="44.3971865" lon="-72.41558673">
    <tag k="addr:city" v="Woodbury"/>
    <tag k="addr:housenumber" v="54"/>
    <tag k="addr:street" v="Hemlock Road"/>
    <tag k="addr:state" v="VT"/>
    <tag k="ref:vcgi:esiteid" v="302078"/>
  </node>
  <node id="-758" visible="true" lat="44.39714983" lon="-72.41656279">
    <tag k="addr:city" v="Woodbury"/>
    <tag k="addr:housenumber" v="102"/>
    <tag k="addr:street" v="Hemlock Road"/>
    <tag k="addr:state" v="VT"/>
    <tag k="ref:vcgi:esiteid" v="302081"/>
  </node>
  <node id="-759" visible="true" lat="44.3971461" lon="-72.41521571">
    <tag k="addr:city" v="Woodbury"/>
    <tag k="addr:housenumber" v="46"/>
    <tag k="addr:street" v="Hemlock Road"/>
    <tag k="addr:state" v="VT"/>
    <tag k="ref:vcgi:esiteid" v="302082"/>
  </node>
  <node id="-772" visible="true" lat="44.39163429" lon="-72.3960788">
    <tag k="addr:city" v="Woodbury"/>
    <tag k="addr:housenumber" v="1029"/>
    <tag k="addr:street" v="Bliss Road"/>
    <tag k="addr:state" v="VT"/>
    <tag k="ref:vcgi:esiteid" v="302095"/>
  </node>
  <node id="-776" visible="true" lat="44.44607163" lon="-72.44657135">
    <tag k="addr:city" v="Woodbury"/>
    <tag k="addr:housenumber" v="51"/>
    <tag k="addr:street" v="Fishing Road"/>
    <tag k="addr:state" v="VT"/>
    <tag k="ref:vcgi:esiteid" v="302100"/>
  </node>
  <node id="-778" visible="true" lat="44.49771753" lon="-72.42660649">
    <tag k="addr:city" v="Woodbury"/>
    <tag k="addr:housenumber" v="2048"/>
    <tag k="addr:street" v="Kate Brook Road"/>
    <tag k="addr:state" v="VT"/>
    <tag k="ref:vcgi:esiteid" v="302102"/>
  </node>
  <node id="-780" visible="true" lat="44.4031306" lon="-72.40967367">
    <tag k="addr:city" v="Woodbury"/>
    <tag k="addr:housenumber" v="572"/>
    <tag k="addr:street" v="Vermont Route 14"/>
    <tag k="addr:state" v="VT"/>
    <tag k="ref:vcgi:esiteid" v="302104"/>
  </node>
  <node id="-781" visible="true" lat="44.40316106" lon="-72.40948419">
    <tag k="addr:city" v="Woodbury"/>
    <tag k="addr:housenumber" v="574"/>
    <tag k="addr:street" v="Vermont Route 14"/>
    <tag k="addr:state" v="VT"/>
    <tag k="ref:vcgi:esiteid" v="302105"/>
  </node>
  <node id="-782" visible="true" lat="44.40130113" lon="-72.40872295">
    <tag k="addr:city" v="Woodbury"/>
    <tag k="addr:housenumber" v="500"/>
    <tag k="addr:street" v="Vermont Route 14"/>
    <tag k="addr:state" v="VT"/>
    <tag k="ref:vcgi:esiteid" v="302106"/>
  </node>
  <node id="-783" visible="true" lat="44.46699982" lon="-72.4095238">
    <tag k="addr:city" v="Woodbury"/>
    <tag k="addr:housenumber" v="5674"/>
    <tag k="addr:street" v="Vermont Route 14"/>
    <tag k="addr:state" v="VT"/>
    <tag k="ref:vcgi:esiteid" v="302107"/>
  </node>
  <node id="-785" visible="true" lat="44.4385582" lon="-72.40625418">
    <tag k="addr:city" v="Woodbury"/>
    <tag k="addr:housenumber" v="592"/>
    <tag k="addr:street" v="Cabot Road"/>
    <tag k="addr:state" v="VT"/>
    <tag k="ref:vcgi:esiteid" v="302109"/>
  </node>
  <node id="-790" visible="true" lat="44.40789428" lon="-72.43245546">
    <tag k="addr:city" v="Woodbury"/>
    <tag k="addr:housenumber" v="100"/>
    <tag k="addr:street" v="Cliff Drive"/>
    <tag k="addr:state" v="VT"/>
    <tag k="ref:vcgi:esiteid" v="302114"/>
  </node>
  <node id="-791" visible="true" lat="44.47396294" lon="-72.40010022">
    <tag k="addr:city" v="Woodbury"/>
    <tag k="addr:housenumber" v="6401"/>
    <tag k="addr:street" v="Vermont Route 14"/>
    <tag k="addr:state" v="VT"/>
    <tag k="ref:vcgi:esiteid" v="302115"/>
  </node>
  <node id="-793" visible="true" lat="44.39278306" lon="-72.40152281">
    <tag k="addr:city" v="Woodbury"/>
    <tag k="addr:housenumber" v="403"/>
    <tag k="addr:street" v="Sand Hill Road"/>
    <tag k="addr:state" v="VT"/>
    <tag k="ref:vcgi:esiteid" v="302117"/>
  </node>
  <node id="-795" visible="true" lat="44.41945917" lon="-72.42715264">
    <tag k="addr:city" v="Woodbury"/>
    <tag k="addr:housenumber" v="408"/>
    <tag k="addr:street" v="Dog Pond Road"/>
    <tag k="addr:state" v="VT"/>
    <tag k="ref:vcgi:esiteid" v="302119"/>
  </node>
  <node id="-796" visible="true" lat="44.40281294" lon="-72.38812556">
    <tag k="addr:city" v="Woodbury"/>
    <tag k="addr:housenumber" v="1253"/>
    <tag k="addr:street" v="East Hill Road"/>
    <tag k="addr:state" v="VT"/>
    <tag k="ref:vcgi:esiteid" v="302120"/>
  </node>
  <node id="-799" visible="true" lat="44.43796419" lon="-72.39873091">
    <tag k="addr:city" v="Woodbury"/>
    <tag k="addr:housenumber" v="871"/>
    <tag k="addr:street" v="Cabot Road"/>
    <tag k="addr:state" v="VT"/>
    <tag k="ref:vcgi:esiteid" v="302123"/>
  </node>
  <node id="-801" visible="true" lat="44.4098024" lon="-72.4203154">
    <tag k="addr:city" v="Woodbury"/>
    <tag k="addr:housenumber" v="1315"/>
    <tag k="addr:street" v="Vermont Route 14"/>
    <tag k="addr:state" v="VT"/>
    <tag k="ref:vcgi:esiteid" v="302125"/>
  </node>
  <node id="-802" visible="true" lat="44.43227451" lon="-72.42982862">
    <tag k="addr:city" v="Woodbury"/>
    <tag k="addr:housenumber" v="638"/>
    <tag k="addr:street" v="Wheeler Hill Road"/>
    <tag k="addr:state" v="VT"/>
    <tag k="ref:vcgi:esiteid" v="302126"/>
  </node>
  <node id="-804" visible="true" lat="44.47462136" lon="-72.39880972">
    <tag k="addr:city" v="Woodbury"/>
    <tag k="addr:housenumber" v="6493"/>
    <tag k="addr:street" v="Vermont Route 14"/>
    <tag k="addr:state" v="VT"/>
    <tag k="ref:vcgi:esiteid" v="302128"/>
  </node>
  <node id="-806" visible="true" lat="44.44398132" lon="-72.43038528">
    <tag k="addr:city" v="Woodbury"/>
    <tag k="addr:housenumber" v="986"/>
    <tag k="addr:street" v="Valley Lake Road"/>
    <tag k="addr:state" v="VT"/>
    <tag k="ref:vcgi:esiteid" v="302130"/>
  </node>
  <node id="-807" visible="true" lat="44.44492829" lon="-72.44212173">
    <tag k="addr:city" v="Woodbury"/>
    <tag k="addr:housenumber" v="1360"/>
    <tag k="addr:street" v="Valley Lake Road"/>
    <tag k="addr:state" v="VT"/>
    <tag k="ref:vcgi:esiteid" v="302131"/>
  </node>
  <node id="-808" visible="true" lat="44.43439282" lon="-72.4121331">
    <tag k="addr:city" v="Woodbury"/>
    <tag k="addr:housenumber" v="674"/>
    <tag k="addr:street" v="Blake Hill Road"/>
    <tag k="addr:state" v="VT"/>
    <tag k="ref:vcgi:esiteid" v="302132"/>
  </node>
  <node id="-809" visible="true" lat="44.45778223" lon="-72.42653836">
    <tag k="addr:city" v="Woodbury"/>
    <tag k="addr:housenumber" v="215"/>
    <tag k="addr:street" v="South Hovey Road"/>
    <tag k="addr:state" v="VT"/>
    <tag k="ref:vcgi:esiteid" v="302133"/>
  </node>
  <node id="-811" visible="true" lat="44.41030625" lon="-72.42174672">
    <tag k="addr:city" v="Woodbury"/>
    <tag k="addr:housenumber" v="1319"/>
    <tag k="addr:street" v="Vermont Route 14"/>
    <tag k="addr:state" v="VT"/>
    <tag k="ref:vcgi:esiteid" v="302136"/>
  </node>
  <node id="-812" visible="true" lat="44.45831554" lon="-72.42089814">
    <tag k="addr:city" v="Woodbury"/>
    <tag k="addr:housenumber" v="88"/>
    <tag k="addr:street" v="Meadow Lane"/>
    <tag k="addr:state" v="VT"/>
    <tag k="ref:vcgi:esiteid" v="302137"/>
  </node>
  <node id="-813" visible="true" lat="44.42261766" lon="-72.41212122">
    <tag k="addr:city" v="Woodbury"/>
    <tag k="addr:housenumber" v="2389"/>
    <tag k="addr:street" v="Vermont Route 14"/>
    <tag k="addr:state" v="VT"/>
    <tag k="ref:vcgi:esiteid" v="302138"/>
  </node>
  <node id="-820" visible="true" lat="44.45249517" lon="-72.42861725">
    <tag k="addr:city" v="Woodbury"/>
    <tag k="addr:housenumber" v="498"/>
    <tag k="addr:street" v="Bailey Bridge Road"/>
    <tag k="addr:state" v="VT"/>
    <tag k="ref:vcgi:esiteid" v="302145"/>
  </node>
  <node id="-821" visible="true" lat="44.43824105" lon="-72.44380874">
    <tag k="addr:city" v="Woodbury"/>
    <tag k="addr:housenumber" v="1782"/>
    <tag k="addr:street" v="Valley Lake Road"/>
    <tag k="addr:state" v="VT"/>
    <tag k="ref:vcgi:esiteid" v="302146"/>
  </node>
  <node id="-822" visible="true" lat="44.43001426" lon="-72.40835192">
    <tag k="addr:city" v="Woodbury"/>
    <tag k="addr:housenumber" v="138"/>
    <tag k="addr:street" v="Old Quarry Road"/>
    <tag k="addr:state" v="VT"/>
    <tag k="ref:vcgi:esiteid" v="302147"/>
  </node>
  <node id="-823" visible="true" lat="44.45719964" lon="-72.41842347">
    <tag k="addr:city" v="Woodbury"/>
    <tag k="addr:housenumber" v="4880"/>
    <tag k="addr:street" v="Vermont Route 14"/>
    <tag k="addr:state" v="VT"/>
    <tag k="ref:vcgi:esiteid" v="302148"/>
  </node>
  <node id="-827" visible="true" lat="44.42634325" lon="-72.44118327">
    <tag k="addr:city" v="Woodbury"/>
    <tag k="addr:housenumber" v="334"/>
    <tag k="addr:street" v="Goodall Road"/>
    <tag k="addr:state" v="VT"/>
    <tag k="ref:vcgi:esiteid" v="311832"/>
  </node>
  <node id="-828" visible="true" lat="44.43827161" lon="-72.44944689">
    <tag k="addr:city" v="Woodbury"/>
    <tag k="addr:housenumber" v="2537"/>
    <tag k="addr:street" v="Dog Pond Road"/>
    <tag k="addr:state" v="VT"/>
    <tag k="ref:vcgi:esiteid" v="313188"/>
  </node>
  <node id="-833" visible="true" lat="44.45205209" lon="-72.41663163">
    <tag k="addr:city" v="Woodbury"/>
    <tag k="addr:housenumber" v="83"/>
    <tag k="addr:street" v="Ainsworth Road"/>
    <tag k="addr:state" v="VT"/>
    <tag k="ref:vcgi:esiteid" v="328291"/>
  </node>
  <node id="-834" visible="true" lat="44.46882992" lon="-72.40684736">
    <tag k="addr:city" v="Woodbury"/>
    <tag k="addr:housenumber" v="5911"/>
    <tag k="addr:street" v="Vermont Route 14"/>
    <tag k="addr:state" v="VT"/>
    <tag k="ref:vcgi:esiteid" v="328292"/>
  </node>
  <node id="-835" visible="true" lat="44.42345316" lon="-72.46817569">
    <tag k="addr:city" v="Woodbury"/>
    <tag k="addr:housenumber" v="611"/>
    <tag k="addr:street" v="Log Town Road"/>
    <tag k="addr:state" v="VT"/>
    <tag k="ref:vcgi:esiteid" v="329177"/>
  </node>
  <node id="-837" visible="true" lat="44.44518575" lon="-72.41544841">
    <tag k="addr:city" v="Woodbury"/>
    <tag k="addr:housenumber" v="101"/>
    <tag k="addr:street" v="Town Farm Road"/>
    <tag k="addr:state" v="VT"/>
    <tag k="ref:vcgi:esiteid" v="332413"/>
  </node>
  <node id="-838" visible="true" lat="44.43601752" lon="-72.45203991">
    <tag k="addr:city" v="Woodbury"/>
    <tag k="addr:housenumber" v="340"/>
    <tag k="addr:street" v="Blueberry Hill Road"/>
    <tag k="addr:state" v="VT"/>
    <tag k="ref:vcgi:esiteid" v="335424"/>
  </node>
  <node id="-839" visible="true" lat="44.45379408" lon="-72.41232444">
    <tag k="addr:city" v="Woodbury"/>
    <tag k="addr:housenumber" v="712"/>
    <tag k="addr:street" v="Town Farm Road"/>
    <tag k="addr:state" v="VT"/>
    <tag k="ref:vcgi:esiteid" v="336168"/>
  </node>
  <node id="-842" visible="true" lat="44.41596962" lon="-72.38791096">
    <tag k="addr:city" v="Woodbury"/>
    <tag k="addr:housenumber" v="697"/>
    <tag k="addr:street" v="Keene Farm Road"/>
    <tag k="addr:state" v="VT"/>
    <tag k="ref:vcgi:esiteid" v="336525"/>
  </node>
  <node id="-843" visible="true" lat="44.46008126" lon="-72.42517492">
    <tag k="addr:city" v="Woodbury"/>
    <tag k="addr:housenumber" v="67"/>
    <tag k="addr:street" v="South Hovey Road"/>
    <tag k="addr:state" v="VT"/>
    <tag k="ref:vcgi:esiteid" v="336539"/>
  </node>
  <node id="-846" visible="true" lat="44.452718" lon="-72.41500613">
    <tag k="addr:city" v="Woodbury"/>
    <tag k="addr:housenumber" v="643"/>
    <tag k="addr:street" v="Town Farm Road"/>
    <tag k="addr:state" v="VT"/>
    <tag k="ref:vcgi:esiteid" v="337870"/>
  </node>
  <node id="-847" visible="true" lat="44.45157984" lon="-72.43038128">
    <tag k="addr:city" v="Woodbury"/>
    <tag k="addr:housenumber" v="610"/>
    <tag k="addr:street" v="Bailey Bridge Road"/>
    <tag k="addr:state" v="VT"/>
    <tag k="ref:vcgi:esiteid" v="340025"/>
  </node>
  <node id="-848" visible="true" lat="44.41688437" lon="-72.45860086">
    <tag k="addr:city" v="Woodbury"/>
    <tag k="addr:housenumber" v="569"/>
    <tag k="addr:street" v="Scribner Road"/>
    <tag k="addr:state" v="VT"/>
    <tag k="ref:vcgi:esiteid" v="340866"/>
  </node>
  <node id="-849" visible="true" lat="44.41361283" lon="-72.44871791">
    <tag k="addr:city" v="Woodbury"/>
    <tag k="addr:housenumber" v="1741"/>
    <tag k="addr:street" v="Cranberry Meadow Road"/>
    <tag k="addr:state" v="VT"/>
    <tag k="ref:vcgi:esiteid" v="341063"/>
  </node>
  <node id="-850" visible="true" lat="44.45457954" lon="-72.33637809">
    <tag k="addr:city" v="Woodbury"/>
    <tag k="addr:housenumber" v="1134"/>
    <tag k="addr:street" v="South Lake Road"/>
    <tag k="addr:state" v="VT"/>
    <tag k="ref:vcgi:esiteid" v="341774"/>
  </node>
  <node id="-851" visible="true" lat="44.4793132" lon="-72.43759059">
    <tag k="addr:city" v="Woodbury"/>
    <tag k="addr:housenumber" v="564"/>
    <tag k="addr:street" v="West Woodbury Road"/>
    <tag k="addr:state" v="VT"/>
    <tag k="ref:vcgi:esiteid" v="345618"/>
  </node>
  <node id="-852" visible="true" lat="44.40471205" lon="-72.4106329">
    <tag k="addr:city" v="Woodbury"/>
    <tag k="addr:housenumber" v="655"/>
    <tag k="addr:street" v="Vermont Route 14"/>
    <tag k="addr:state" v="VT"/>
    <tag k="ref:vcgi:esiteid" v="345644"/>
  </node>
  <node id="-854" visible="true" lat="44.44892409" lon="-72.41797307">
    <tag k="addr:city" v="Woodbury"/>
    <tag k="addr:housenumber" v="4239"/>
    <tag k="addr:street" v="Vermont Route 14"/>
    <tag k="addr:state" v="VT"/>
    <tag k="ref:vcgi:esiteid" v="345647"/>
  </node>
  <node id="-855" visible="true" lat="44.45115891" lon="-72.43924343">
    <tag k="addr:city" v="Woodbury"/>
    <tag k="addr:housenumber" v="193"/>
    <tag k="addr:street" v="Pepper Drive"/>
    <tag k="addr:state" v="VT"/>
    <tag k="ref:vcgi:esiteid" v="345896"/>
  </node>
  <node id="-856" visible="true" lat="44.41582389" lon="-72.41143459">
    <tag k="addr:city" v="Woodbury"/>
    <tag k="addr:housenumber" v="112"/>
    <tag k="addr:street" v="Hattie Bell Road"/>
    <tag k="addr:state" v="VT"/>
    <tag k="ref:vcgi:esiteid" v="365001"/>
  </node>
  <node id="-857" visible="true" lat="44.46312377" lon="-72.41581678">
    <tag k="addr:city" v="Woodbury"/>
    <tag k="addr:housenumber" v="22"/>
    <tag k="addr:street" v="Buck Lake Road"/>
    <tag k="addr:state" v="VT"/>
    <tag k="ref:vcgi:esiteid" v="446296"/>
  </node>
  <node id="-858" visible="true" lat="44.45285954" lon="-72.41996304">
    <tag k="addr:city" v="Woodbury"/>
    <tag k="addr:housenumber" v="7"/>
    <tag k="addr:street" v="Bailey Bridge Road"/>
    <tag k="addr:state" v="VT"/>
    <tag k="ref:vcgi:esiteid" v="446297"/>
  </node>
  <node id="-859" visible="true" lat="44.4411951" lon="-72.41504086">
    <tag k="addr:city" v="Woodbury"/>
    <tag k="addr:housenumber" v="10"/>
    <tag k="addr:street" v="Cabot Road"/>
    <tag k="addr:state" v="VT"/>
    <tag k="ref:vcgi:esiteid" v="446298"/>
  </node>
  <node id="-860" visible="true" lat="44.41489768" lon="-72.41758315">
    <tag k="addr:city" v="Woodbury"/>
    <tag k="addr:housenumber" v="1676"/>
    <tag k="addr:street" v="Vermont Route 14"/>
    <tag k="addr:state" v="VT"/>
    <tag k="ref:vcgi:esiteid" v="446299"/>
  </node>
  <node id="-861" visible="true" lat="44.40576913" lon="-72.41033977">
    <tag k="addr:city" v="Woodbury"/>
    <tag k="addr:housenumber" v="725"/>
    <tag k="addr:street" v="Vermont Route 14"/>
    <tag k="addr:state" v="VT"/>
    <tag k="ref:vcgi:esiteid" v="446300"/>
  </node>
  <node id="-862" visible="true" lat="44.41884328" lon="-72.44286105">
    <tag k="addr:city" v="Woodbury"/>
    <tag k="addr:housenumber" v="722"/>
    <tag k="addr:street" v="Tebbets Road"/>
    <tag k="addr:state" v="VT"/>
    <tag k="ref:vcgi:esiteid" v="446608"/>
  </node>
  <node id="-865" visible="true" lat="44.41175985" lon="-72.43721812">
    <tag k="addr:city" v="Woodbury"/>
    <tag k="addr:housenumber" v="597"/>
    <tag k="addr:street" v="King Pond Road"/>
    <tag k="addr:state" v="VT"/>
    <tag k="ref:vcgi:esiteid" v="448317"/>
  </node>
  <node id="-866" visible="true" lat="44.45077197" lon="-72.44099896">
    <tag k="addr:city" v="Woodbury"/>
    <tag k="addr:housenumber" v="94"/>
    <tag k="addr:street" v="Pepper Drive"/>
    <tag k="addr:state" v="VT"/>
    <tag k="ref:vcgi:esiteid" v="448638"/>
  </node>
  <node id="-867" visible="true" lat="44.42917761" lon="-72.41137951">
    <tag k="addr:city" v="Woodbury"/>
    <tag k="addr:housenumber" v="328"/>
    <tag k="addr:street" v="Blake Hill Road"/>
    <tag k="addr:state" v="VT"/>
    <tag k="ref:vcgi:esiteid" v="449579"/>
  </node>
  <node id="-868" visible="true" lat="44.41503551" lon="-72.4442273">
    <tag k="addr:city" v="Woodbury"/>
    <tag k="addr:housenumber" v="222"/>
    <tag k="addr:street" v="Chartier Hill Road"/>
    <tag k="addr:state" v="VT"/>
    <tag k="ref:vcgi:esiteid" v="451056"/>
  </node>
  <node id="-869" visible="true" lat="44.42532316" lon="-72.44237415">
    <tag k="addr:city" v="Woodbury"/>
    <tag k="addr:housenumber" v="419"/>
    <tag k="addr:street" v="Goodall Road"/>
    <tag k="addr:state" v="VT"/>
    <tag k="ref:vcgi:esiteid" v="451057"/>
  </node>
  <node id="-870" visible="true" lat="44.44074225" lon="-72.40990183">
    <tag k="addr:city" v="Woodbury"/>
    <tag k="addr:housenumber" v="240"/>
    <tag k="addr:street" v="Cabot Road"/>
    <tag k="addr:state" v="VT"/>
    <tag k="ref:vcgi:esiteid" v="451384"/>
  </node>
  <node id="-871" visible="true" lat="44.41537574" lon="-72.41545749">
    <tag k="addr:city" v="Woodbury"/>
    <tag k="addr:housenumber" v="1700"/>
    <tag k="addr:street" v="Vermont Route 14"/>
    <tag k="addr:state" v="VT"/>
    <tag k="ref:vcgi:esiteid" v="451581"/>
  </node>
  <node id="-873" visible="true" lat="44.45787081" lon="-72.41919337">
    <tag k="addr:city" v="Woodbury"/>
    <tag k="addr:housenumber" v="4906"/>
    <tag k="addr:street" v="Vermont Route 14"/>
    <tag k="addr:state" v="VT"/>
    <tag k="ref:vcgi:esiteid" v="455181"/>
  </node>
  <node id="-874" visible="true" lat="44.44102193" lon="-72.42289801">
    <tag k="addr:city" v="Woodbury"/>
    <tag k="addr:housenumber" v="478"/>
    <tag k="addr:street" v="Valley Lake Road"/>
    <tag k="addr:state" v="VT"/>
    <tag k="ref:vcgi:esiteid" v="455232"/>
  </node>
  <node id="-875" visible="true" lat="44.43517136" lon="-72.39337937">
    <tag k="addr:city" v="Woodbury"/>
    <tag k="addr:housenumber" v="1132"/>
    <tag k="addr:street" v="Cabot Road"/>
    <tag k="addr:state" v="VT"/>
    <tag k="ref:vcgi:esiteid" v="610150"/>
  </node>
  <node id="-876" visible="true" lat="44.44138138" lon="-72.40859481">
    <tag k="addr:city" v="Woodbury"/>
    <tag k="addr:housenumber" v="313"/>
    <tag k="addr:street" v="Cabot Road"/>
    <tag k="addr:state" v="VT"/>
    <tag k="ref:vcgi:esiteid" v="611451"/>
  </node>
  <node id="-877" visible="true" lat="44.44318698" lon="-72.40996751">
    <tag k="addr:city" v="Woodbury"/>
    <tag k="addr:housenumber" v="207"/>
    <tag k="addr:street" v="Cabot Road"/>
    <tag k="addr:state" v="VT"/>
    <tag k="ref:vcgi:esiteid" v="611627"/>
  </node>
  <node id="-878" visible="true" lat="44.45342" lon="-72.44294772">
    <tag k="addr:city" v="Woodbury"/>
    <tag k="addr:housenumber" v="2969"/>
    <tag k="addr:street" v="County Road"/>
    <tag k="addr:state" v="VT"/>
    <tag k="ref:vcgi:esiteid" v="611845"/>
  </node>
  <node id="-879" visible="true" lat="44.45411758" lon="-72.44093425">
    <tag k="addr:city" v="Woodbury"/>
    <tag k="addr:housenumber" v="3085"/>
    <tag k="addr:street" v="County Road"/>
    <tag k="addr:state" v="VT"/>
    <tag k="ref:vcgi:esiteid" v="613054"/>
  </node>
  <node id="-880" visible="true" lat="44.40203872" lon="-72.42033849">
    <tag k="addr:city" v="Woodbury"/>
    <tag k="addr:housenumber" v="647"/>
    <tag k="addr:street" v="Herricks Cove"/>
    <tag k="addr:state" v="VT"/>
    <tag k="ref:vcgi:esiteid" v="613248"/>
  </node>
  <node id="-881" visible="true" lat="44.45495221" lon="-72.42025381">
    <tag k="addr:city" v="Woodbury"/>
    <tag k="addr:housenumber" v="4685"/>
    <tag k="addr:street" v="Vermont Route 14"/>
    <tag k="addr:state" v="VT"/>
    <tag k="ref:vcgi:esiteid" v="617167"/>
  </node>
  <node id="-882" visible="true" lat="44.48063396" lon="-72.42863173">
    <tag k="addr:city" v="Woodbury"/>
    <tag k="addr:housenumber" v="770"/>
    <tag k="addr:street" v="West Woodbury Road"/>
    <tag k="addr:state" v="VT"/>
    <tag k="ref:vcgi:esiteid" v="618110"/>
  </node>
  <node id="-884" visible="true" lat="44.45401326" lon="-72.42084535">
    <tag k="addr:city" v="Woodbury"/>
    <tag k="addr:housenumber" v="32"/>
    <tag k="addr:street" v="South Shore Trail"/>
    <tag k="addr:state" v="VT"/>
    <tag k="ref:vcgi:esiteid" v="619256"/>
  </node>
  <node id="-885" visible="true" lat="44.45465922" lon="-72.4239458">
    <tag k="addr:city" v="Woodbury"/>
    <tag k="addr:housenumber" v="37"/>
    <tag k="addr:street" v="Medawila Lane"/>
    <tag k="addr:state" v="VT"/>
    <tag k="ref:vcgi:esiteid" v="619257"/>
  </node>
  <node id="-887" visible="true" lat="44.39318445" lon="-72.40305903">
    <tag k="addr:city" v="Woodbury"/>
    <tag k="addr:housenumber" v="442"/>
    <tag k="addr:street" v="Sand Hill Road"/>
    <tag k="addr:state" v="VT"/>
    <tag k="ref:vcgi:esiteid" v="620873"/>
  </node>
  <node id="-890" visible="true" lat="44.39696303" lon="-72.39687196">
    <tag k="addr:city" v="Woodbury"/>
    <tag k="addr:housenumber" v="33"/>
    <tag k="addr:street" v="Sand Hill Road"/>
    <tag k="addr:state" v="VT"/>
    <tag k="ref:vcgi:esiteid" v="620883"/>
  </node>
  <node id="-891" visible="true" lat="44.45340701" lon="-72.42715698">
    <tag k="addr:city" v="Woodbury"/>
    <tag k="addr:housenumber" v="394"/>
    <tag k="addr:street" v="Bailey Bridge Road"/>
    <tag k="addr:state" v="VT"/>
    <tag k="ref:vcgi:esiteid" v="750525"/>
  </node>
  <node id="-892" visible="true" lat="44.45094992" lon="-72.43138176">
    <tag k="addr:city" v="Woodbury"/>
    <tag k="addr:housenumber" v="640"/>
    <tag k="addr:street" v="Bailey Bridge Road"/>
    <tag k="addr:state" v="VT"/>
    <tag k="ref:vcgi:esiteid" v="750526"/>
  </node>
  <node id="-893" visible="true" lat="44.45184108" lon="-72.43656654">
    <tag k="addr:city" v="Woodbury"/>
    <tag k="addr:housenumber" v="83"/>
    <tag k="addr:street" v="Pepper Drive"/>
    <tag k="addr:state" v="VT"/>
    <tag k="ref:vcgi:esiteid" v="750527"/>
  </node>
  <node id="-894" visible="true" lat="44.40025817" lon="-72.41329005">
    <tag k="addr:city" v="Woodbury"/>
    <tag k="addr:housenumber" v="280"/>
    <tag k="addr:street" v="Vermont Route 14"/>
    <tag k="addr:state" v="VT"/>
    <tag k="ref:vcgi:esiteid" v="750696"/>
  </node>
  <node id="-895" visible="true" lat="44.44228764" lon="-72.41543816">
    <tag k="addr:city" v="Woodbury"/>
    <tag k="addr:housenumber" v="3770"/>
    <tag k="addr:street" v="Vermont Route 14"/>
    <tag k="addr:state" v="VT"/>
    <tag k="ref:vcgi:esiteid" v="750697"/>
  </node>
  <node id="-897" visible="true" lat="44.46637678" lon="-72.39723717">
    <tag k="addr:city" v="Woodbury"/>
    <tag k="addr:housenumber" v="1210"/>
    <tag k="addr:street" v="Buck Lake Road"/>
    <tag k="addr:state" v="VT"/>
    <tag k="ref:vcgi:esiteid" v="751986"/>
  </node>
  <node id="-898" visible="true" lat="44.41091363" lon="-72.4402834">
    <tag k="addr:city" v="Woodbury"/>
    <tag k="addr:housenumber" v="350"/>
    <tag k="addr:street" v="Pine Road"/>
    <tag k="addr:state" v="VT"/>
    <tag k="ref:vcgi:esiteid" v="752539"/>
  </node>
  <node id="-899" visible="true" lat="44.42377481" lon="-72.40754537">
    <tag k="addr:city" v="Woodbury"/>
    <tag k="addr:housenumber" v="2"/>
    <tag k="addr:street" v="Blake Hill Road"/>
    <tag k="addr:state" v="VT"/>
    <tag k="ref:vcgi:esiteid" v="753956"/>
  </node>
  <node id="-900" visible="true" lat="44.41489207" lon="-72.4248209">
    <tag k="addr:city" v="Woodbury"/>
    <tag k="addr:housenumber" v="145"/>
    <tag k="addr:street" v="Dog Pond Road"/>
    <tag k="addr:state" v="VT"/>
    <tag k="ref:vcgi:esiteid" v="753962"/>
  </node>
  <node id="-901" visible="true" lat="44.45024768" lon="-72.43038939">
    <tag k="addr:city" v="Woodbury"/>
    <tag k="addr:housenumber" v="615"/>
    <tag k="addr:street" v="Bailey Bridge Road"/>
    <tag k="addr:state" v="VT"/>
    <tag k="ref:vcgi:esiteid" v="754076"/>
  </node>
  <node id="-902" visible="true" lat="44.47713663" lon="-72.35959874">
    <tag k="addr:city" v="Woodbury"/>
    <tag k="addr:housenumber" v="1144"/>
    <tag k="addr:street" v="Mackville Road"/>
    <tag k="addr:state" v="VT"/>
    <tag k="ref:vcgi:esiteid" v="754078"/>
  </node>
  <node id="-903" visible="true" lat="44.47324695" lon="-72.36223256">
    <tag k="addr:city" v="Woodbury"/>
    <tag k="addr:housenumber" v="1150"/>
    <tag k="addr:street" v="Mackville Road"/>
    <tag k="addr:state" v="VT"/>
    <tag k="ref:vcgi:esiteid" v="754079"/>
  </node>
  <node id="-904" visible="true" lat="44.45718456" lon="-72.42245956">
    <tag k="addr:city" v="Woodbury"/>
    <tag k="addr:housenumber" v="155"/>
    <tag k="addr:street" v="Meadow Lane"/>
    <tag k="addr:state" v="VT"/>
    <tag k="ref:vcgi:esiteid" v="754316"/>
  </node>
  <node id="-905" visible="true" lat="44.40387073" lon="-72.37234809">
    <tag k="addr:city" v="Woodbury"/>
    <tag k="addr:housenumber" v="2201"/>
    <tag k="addr:street" v="East Hill Road"/>
    <tag k="addr:state" v="VT"/>
    <tag k="ref:vcgi:esiteid" v="754629"/>
  </node>
  <node id="-906" visible="true" lat="44.45899637" lon="-72.42141832">
    <tag k="addr:city" v="Woodbury"/>
    <tag k="addr:housenumber" v="110"/>
    <tag k="addr:street" v="Meadow Lane"/>
    <tag k="addr:state" v="VT"/>
    <tag k="ref:vcgi:esiteid" v="756051"/>
  </node>
  <node id="-907" visible="true" lat="44.43199716" lon="-72.45968661">
    <tag k="addr:city" v="Woodbury"/>
    <tag k="addr:housenumber" v="361"/>
    <tag k="addr:street" v="Cranberry Meadow Road"/>
    <tag k="addr:state" v="VT"/>
    <tag k="ref:vcgi:esiteid" v="756577"/>
  </node>
  <node id="-908" visible="true" lat="44.43509548" lon="-72.38350666">
    <tag k="addr:city" v="Woodbury"/>
    <tag k="addr:housenumber" v="1717"/>
    <tag k="addr:street" v="Cabot Road"/>
    <tag k="addr:state" v="VT"/>
    <tag k="ref:vcgi:esiteid" v="756723"/>
  </node>
  <node id="-909" visible="true" lat="44.41421421" lon="-72.38411928">
    <tag k="addr:city" v="Woodbury"/>
    <tag k="addr:housenumber" v="396"/>
    <tag k="addr:street" v="Punkhorn Road"/>
    <tag k="addr:state" v="VT"/>
    <tag k="ref:vcgi:esiteid" v="757038"/>
  </node>
  <node id="-910" visible="true" lat="44.41380368" lon="-72.38433602">
    <tag k="addr:city" v="Woodbury"/>
    <tag k="addr:housenumber" v="372"/>
    <tag k="addr:street" v="Punkhorn Road"/>
    <tag k="addr:state" v="VT"/>
    <tag k="ref:vcgi:esiteid" v="757039"/>
  </node>
  <node id="-911" visible="true" lat="44.41433383" lon="-72.38467549">
    <tag k="addr:city" v="Woodbury"/>
    <tag k="addr:housenumber" v="399"/>
    <tag k="addr:street" v="Punkhorn Road"/>
    <tag k="addr:state" v="VT"/>
    <tag k="ref:vcgi:esiteid" v="757040"/>
  </node>
  <node id="-912" visible="true" lat="44.41492367" lon="-72.38879048">
    <tag k="addr:city" v="Woodbury"/>
    <tag k="addr:housenumber" v="645"/>
    <tag k="addr:street" v="Punkhorn Road"/>
    <tag k="addr:state" v="VT"/>
    <tag k="ref:vcgi:esiteid" v="757041"/>
  </node>
  <node id="-913" visible="true" lat="44.39663692" lon="-72.3973639">
    <tag k="addr:city" v="Woodbury"/>
    <tag k="addr:housenumber" v="79"/>
    <tag k="addr:street" v="Sand Hill Road"/>
    <tag k="addr:state" v="VT"/>
    <tag k="ref:vcgi:esiteid" v="757046"/>
  </node>
  <node id="-914" visible="true" lat="44.44135375" lon="-72.34367838">
    <tag k="addr:city" v="Woodbury"/>
    <tag k="addr:housenumber" v="1620"/>
    <tag k="addr:street" v="North Road"/>
    <tag k="addr:state" v="VT"/>
    <tag k="ref:vcgi:esiteid" v="757089"/>
  </node>
  <node id="-915" visible="true" lat="44.45604472" lon="-72.42215848">
    <tag k="addr:city" v="Woodbury"/>
    <tag k="addr:housenumber" v="172"/>
    <tag k="addr:street" v="Sunny Lane"/>
    <tag k="addr:state" v="VT"/>
    <tag k="ref:vcgi:esiteid" v="757127"/>
  </node>
  <node id="-916" visible="true" lat="44.39982041" lon="-72.39870251">
    <tag k="addr:city" v="Woodbury"/>
    <tag k="addr:housenumber" v="130"/>
    <tag k="addr:street" v="Stevens Road"/>
    <tag k="addr:state" v="VT"/>
    <tag k="ref:vcgi:esiteid" v="758037"/>
  </node>
  <node id="-917" visible="true" lat="44.40682575" lon="-72.41202877">
    <tag k="addr:city" v="Woodbury"/>
    <tag k="addr:housenumber" v="849"/>
    <tag k="addr:street" v="Vermont Route 14"/>
    <tag k="addr:state" v="VT"/>
    <tag k="ref:vcgi:esiteid" v="758221"/>
  </node>
  <node id="-918" visible="true" lat="44.39781976" lon="-72.41319914">
    <tag k="addr:city" v="Woodbury"/>
    <tag k="addr:housenumber" v="42"/>
    <tag k="addr:street" v="Strawberry Lane"/>
    <tag k="addr:state" v="VT"/>
    <tag k="ref:vcgi:esiteid" v="758364"/>
  </node>
  <node id="-919" visible="true" lat="44.41551717" lon="-72.4196959">
    <tag k="addr:city" v="Woodbury"/>
    <tag k="addr:housenumber" v="301"/>
    <tag k="addr:street" v="Maple Road"/>
    <tag k="addr:state" v="VT"/>
    <tag k="ref:vcgi:esiteid" v="759312"/>
  </node>
  <node id="-921" visible="true" lat="44.43743677" lon="-72.45637173">
    <tag k="addr:city" v="Woodbury"/>
    <tag k="addr:housenumber" v="794"/>
    <tag k="addr:street" v="Blueberry Hill Road"/>
    <tag k="addr:state" v="VT"/>
    <tag k="ref:vcgi:esiteid" v="759558"/>
  </node>
  <node id="-922" visible="true" lat="44.46094255" lon="-72.41295136">
    <tag k="addr:city" v="Woodbury"/>
    <tag k="addr:housenumber" v="331"/>
    <tag k="addr:street" v="Buck Lake Road"/>
    <tag k="addr:state" v="VT"/>
    <tag k="ref:vcgi:esiteid" v="760343"/>
  </node>
  <node id="-923" visible="true" lat="44.46129056" lon="-72.41343626">
    <tag k="addr:city" v="Woodbury"/>
    <tag k="addr:housenumber" v="295"/>
    <tag k="addr:street" v="Buck Lake Road"/>
    <tag k="addr:state" v="VT"/>
    <tag k="ref:vcgi:esiteid" v="760344"/>
  </node>
  <node id="-924" visible="true" lat="44.4391706" lon="-72.41349277">
    <tag k="addr:city" v="Woodbury"/>
    <tag k="addr:housenumber" v="3570"/>
    <tag k="addr:street" v="Vermont Route 14"/>
    <tag k="addr:state" v="VT"/>
    <tag k="ref:vcgi:esiteid" v="760675"/>
  </node>
  <node id="-925" visible="true" lat="44.43513254" lon="-72.39664727">
    <tag k="addr:city" v="Woodbury"/>
    <tag k="addr:housenumber" v="810"/>
    <tag k="addr:street" v="Old Quarry Road"/>
    <tag k="addr:state" v="VT"/>
    <tag k="ref:vcgi:esiteid" v="761259"/>
  </node>
  <node id="-926" visible="true" lat="44.41231341" lon="-72.38520978">
    <tag k="addr:city" v="Woodbury"/>
    <tag k="addr:housenumber" v="251"/>
    <tag k="addr:street" v="Punkhorn Road"/>
    <tag k="addr:state" v="VT"/>
    <tag k="ref:vcgi:esiteid" v="761887"/>
  </node>
  <node id="-927" visible="true" lat="44.44119394" lon="-72.39358372">
    <tag k="addr:city" v="Woodbury"/>
    <tag k="addr:housenumber" v="1235"/>
    <tag k="addr:street" v="Swenson Quarry Road"/>
    <tag k="addr:state" v="VT"/>
    <tag k="ref:vcgi:esiteid" v="762415"/>
  </node>
  <node id="-928" visible="true" lat="44.43574468" lon="-72.40134497">
    <tag k="addr:city" v="Woodbury"/>
    <tag k="addr:housenumber" v="583"/>
    <tag k="addr:street" v="Old Quarry Road"/>
    <tag k="addr:state" v="VT"/>
    <tag k="ref:vcgi:esiteid" v="762865"/>
  </node>
  <node id="-929" visible="true" lat="44.39896677" lon="-72.41260835">
    <tag k="addr:city" v="Woodbury"/>
    <tag k="addr:housenumber" v="224"/>
    <tag k="addr:street" v="Vermont Route 14"/>
    <tag k="addr:state" v="VT"/>
    <tag k="ref:vcgi:esiteid" v="762866"/>
  </node>
  <node id="-930" visible="true" lat="44.46286039" lon="-72.40921012">
    <tag k="addr:city" v="Woodbury"/>
    <tag k="addr:housenumber" v="521"/>
    <tag k="addr:street" v="Buck Lake Road"/>
    <tag k="addr:state" v="VT"/>
    <tag k="ref:vcgi:esiteid" v="763349"/>
  </node>
  <node id="-931" visible="true" lat="44.40092584" lon="-72.41446967">
    <tag k="addr:city" v="Woodbury"/>
    <tag k="addr:housenumber" v="75"/>
    <tag k="addr:street" v="Haskett Road"/>
    <tag k="addr:state" v="VT"/>
    <tag k="ref:vcgi:esiteid" v="763372"/>
  </node>
  <node id="-932" visible="true" lat="44.43465946" lon="-72.40133837">
    <tag k="addr:city" v="Woodbury"/>
    <tag k="addr:housenumber" v="574"/>
    <tag k="addr:street" v="Old Quarry Road"/>
    <tag k="addr:state" v="VT"/>
    <tag k="ref:vcgi:esiteid" v="763975"/>
  </node>
  <node id="-933" visible="true" lat="44.43551024" lon="-72.39610029">
    <tag k="addr:city" v="Woodbury"/>
    <tag k="addr:housenumber" v="836"/>
    <tag k="addr:street" v="Old Quarry Road"/>
    <tag k="addr:state" v="VT"/>
    <tag k="ref:vcgi:esiteid" v="763976"/>
  </node>
  <node id="-934" visible="true" lat="44.42594645" lon="-72.36029954">
    <tag k="addr:city" v="Woodbury"/>
    <tag k="addr:housenumber" v="130"/>
    <tag k="addr:street" v="North Road"/>
    <tag k="addr:state" v="VT"/>
    <tag k="ref:vcgi:esiteid" v="764116"/>
  </node>
  <node id="-935" visible="true" lat="44.4806707" lon="-72.44341607">
    <tag k="addr:city" v="Woodbury"/>
    <tag k="addr:housenumber" v="424"/>
    <tag k="addr:street" v="West Woodbury Road"/>
    <tag k="addr:state" v="VT"/>
    <tag k="ref:vcgi:esiteid" v="764472"/>
  </node>
  <node id="-937" visible="true" lat="44.48065345" lon="-72.44347507">
    <tag k="addr:city" v="Woodbury"/>
    <tag k="addr:housenumber" v="426"/>
    <tag k="addr:street" v="West Woodbury Road"/>
    <tag k="addr:state" v="VT"/>
    <tag k="ref:vcgi:esiteid" v="764474"/>
  </node>
  <node id="-938" visible="true" lat="44.49337" lon="-72.43715411">
    <tag k="addr:city" v="Woodbury"/>
    <tag k="addr:housenumber" v="1387"/>
    <tag k="addr:street" v="West Woodbury Road"/>
    <tag k="addr:state" v="VT"/>
    <tag k="ref:vcgi:esiteid" v="764475"/>
  </node>
  <node id="-939" visible="true" lat="44.48700252" lon="-72.43704909">
    <tag k="addr:city" v="Woodbury"/>
    <tag k="addr:housenumber" v="980"/>
    <tag k="addr:street" v="West Woodbury Road"/>
    <tag k="addr:state" v="VT"/>
    <tag k="ref:vcgi:esiteid" v="764557"/>
  </node>
  <node id="-940" visible="true" lat="44.48065295" lon="-72.4447962">
    <tag k="addr:city" v="Woodbury"/>
    <tag k="addr:housenumber" v="335"/>
    <tag k="addr:street" v="West Woodbury Road"/>
    <tag k="addr:state" v="VT"/>
    <tag k="ref:vcgi:esiteid" v="764591"/>
  </node>
  <node id="-941" visible="true" lat="44.42258343" lon="-72.42903332">
    <tag k="addr:city" v="Woodbury"/>
    <tag k="addr:housenumber" v="704"/>
    <tag k="addr:street" v="Dog Pond Road"/>
    <tag k="addr:state" v="VT"/>
    <tag k="ref:vcgi:esiteid" v="765194"/>
  </node>
  <node id="-942" visible="true" lat="44.47936117" lon="-72.44688436">
    <tag k="addr:city" v="Woodbury"/>
    <tag k="addr:housenumber" v="65"/>
    <tag k="addr:street" v="West Woodbury Road"/>
    <tag k="addr:state" v="VT"/>
    <tag k="ref:vcgi:esiteid" v="765202"/>
  </node>
  <node id="-943" visible="true" lat="44.43162889" lon="-72.38710384">
    <tag k="addr:city" v="Woodbury"/>
    <tag k="addr:housenumber" v="21"/>
    <tag k="addr:street" v="North Hatie Bell Road"/>
    <tag k="addr:state" v="VT"/>
    <tag k="ref:vcgi:esiteid" v="900248"/>
  </node>
</osm>
