<?xml version="1.0" encoding="UTF-8"?>
<osm version="0.6" generator="JOSM">
  <node id="-152" visible="true" lat="43.64719133" lon="-72.55632114">
    <!-- multiple: "2368 Barnard Road, Woodstock, VT" Multiple exact matches in OSM. -->
    <tag k="addr:city" v="Woodstock"/>
    <tag k="addr:housenumber" v="2368"/>
    <tag k="addr:street" v="Barnard Road"/>
    <tag k="addr:state" v="VT"/>
    <tag k="ref:vcgi:esiteid" v="302568"/>
  </node>
  <node id="-364" visible="true" lat="43.62731933" lon="-72.51279449">
    <!-- multiple: "36 Pleasant Street, Woodstock, VT" Multiple exact matches in OSM. -->
    <tag k="addr:city" v="Woodstock"/>
    <tag k="addr:housenumber" v="36"/>
    <tag k="addr:street" v="Pleasant Street"/>
    <tag k="addr:state" v="VT"/>
    <tag k="ref:vcgi:esiteid" v="302806"/>
  </node>
  <node id="-365" visible="true" lat="43.62726974" lon="-72.51240539">
    <!-- multiple: "36 Pleasant Street, Woodstock, VT" Multiple exact matches in OSM. -->
    <tag k="addr:city" v="Woodstock"/>
    <tag k="addr:housenumber" v="36"/>
    <tag k="addr:street" v="Pleasant Street"/>
    <tag k="addr:state" v="VT"/>
    <tag k="ref:vcgi:esiteid" v="302809"/>
  </node>
  <node id="-396" visible="true" lat="43.62685171" lon="-72.50720951">
    <!-- multiple: "435 Woodstock Road, Woodstock, VT" Multiple exact matches in OSM. -->
    <tag k="addr:city" v="Woodstock"/>
    <tag k="addr:housenumber" v="435"/>
    <tag k="addr:street" v="Woodstock Road"/>
    <tag k="addr:state" v="VT"/>
    <tag k="ref:vcgi:esiteid" v="302847"/>
  </node>
  <node id="-400" visible="true" lat="43.62684248" lon="-72.50781643">
    <!-- multiple: "62 Pleasant Street, Woodstock, VT" Multiple exact matches in OSM. -->
    <tag k="addr:city" v="Woodstock"/>
    <tag k="addr:housenumber" v="62"/>
    <tag k="addr:street" v="Pleasant Street"/>
    <tag k="addr:state" v="VT"/>
    <tag k="ref:vcgi:esiteid" v="302851"/>
  </node>
  <node id="-406" visible="true" lat="43.62657544" lon="-72.50991472">
    <!-- multiple: "47 Pleasant Street, Woodstock, VT" Multiple exact matches in OSM. -->
    <tag k="addr:city" v="Woodstock"/>
    <tag k="addr:housenumber" v="47"/>
    <tag k="addr:street" v="Pleasant Street"/>
    <tag k="addr:state" v="VT"/>
    <tag k="ref:vcgi:esiteid" v="302859"/>
  </node>
  <node id="-431" visible="true" lat="43.62656109" lon="-72.51002582">
    <!-- multiple: "47 Pleasant Street, Woodstock, VT" Multiple exact matches in OSM. -->
    <tag k="addr:city" v="Woodstock"/>
    <tag k="addr:housenumber" v="47"/>
    <tag k="addr:street" v="Pleasant Street"/>
    <tag k="addr:state" v="VT"/>
    <tag k="ref:vcgi:esiteid" v="302888"/>
  </node>
  <node id="-442" visible="true" lat="43.62609303" lon="-72.51268652">
    <!-- multiple: "4 Ford Street, Woodstock, VT" Multiple exact matches in OSM. -->
    <tag k="addr:city" v="Woodstock"/>
    <tag k="addr:housenumber" v="4"/>
    <tag k="addr:street" v="Ford Street"/>
    <tag k="addr:state" v="VT"/>
    <tag k="ref:vcgi:esiteid" v="302900"/>
  </node>
  <node id="-447" visible="true" lat="43.62614749" lon="-72.51324047">
    <!-- multiple: "4 Ford Street, Woodstock, VT" Multiple exact matches in OSM. -->
    <tag k="addr:city" v="Woodstock"/>
    <tag k="addr:housenumber" v="4"/>
    <tag k="addr:street" v="Ford Street"/>
    <tag k="addr:state" v="VT"/>
    <tag k="ref:vcgi:esiteid" v="302906"/>
  </node>
  <node id="-734" visible="true" lat="43.62186435" lon="-72.52677684">
    <!-- multiple: "54 River Street, Woodstock, VT" Multiple exact matches in OSM. -->
    <tag k="addr:city" v="Woodstock"/>
    <tag k="addr:housenumber" v="54"/>
    <tag k="addr:street" v="River Street"/>
    <tag k="addr:state" v="VT"/>
    <tag k="ref:vcgi:esiteid" v="303225"/>
  </node>
  <node id="-1096" visible="true" lat="43.60862429" lon="-72.54983561">
    <!-- multiple: "1653 West Woodstock Road, Woodstock, VT" Multiple exact matches in OSM. -->
    <tag k="addr:city" v="Woodstock"/>
    <tag k="addr:housenumber" v="1653"/>
    <tag k="addr:street" v="West Woodstock Road"/>
    <tag k="addr:state" v="VT"/>
    <tag k="ref:vcgi:esiteid" v="303624"/>
  </node>
  <node id="-1781" visible="true" lat="43.6249214" lon="-72.51843655">
    <!-- multiple: "5 Central Street, Woodstock, VT" Multiple exact matches in OSM. -->
    <tag k="addr:city" v="Woodstock"/>
    <tag k="addr:housenumber" v="5"/>
    <tag k="addr:street" v="Central Street"/>
    <tag k="addr:state" v="VT"/>
    <tag k="ref:vcgi:esiteid" v="328673"/>
  </node>
  <node id="-1795" visible="true" lat="43.62705811" lon="-72.51248934">
    <!-- multiple: "36 Pleasant Street, Woodstock, VT" Multiple exact matches in OSM. -->
    <tag k="addr:city" v="Woodstock"/>
    <tag k="addr:housenumber" v="36"/>
    <tag k="addr:street" v="Pleasant Street"/>
    <tag k="addr:state" v="VT"/>
    <tag k="ref:vcgi:esiteid" v="328687"/>
  </node>
</osm>
