<?xml version="1.0" encoding="UTF-8"?>
<osm version="0.6" generator="JOSM">
  <node id="-102" visible="true" lat="42.91052189" lon="-73.12037393">
    <tag k="addr:city" v="Woodford"/>
    <tag k="addr:housenumber" v="109"/>
    <tag k="addr:street" v="Bickford Hollow Road"/>
    <tag k="addr:state" v="VT"/>
    <tag k="ref:vcgi:esiteid" v="302151"/>
  </node>
  <node id="-103" visible="true" lat="42.91080748" lon="-73.11951384">
    <tag k="addr:city" v="Woodford"/>
    <tag k="addr:housenumber" v="115"/>
    <tag k="addr:street" v="Bickford Hollow Road"/>
    <tag k="addr:state" v="VT"/>
    <tag k="ref:vcgi:esiteid" v="302152"/>
  </node>
  <node id="-104" visible="true" lat="42.90990218" lon="-73.11980895">
    <tag k="addr:city" v="Woodford"/>
    <tag k="addr:housenumber" v="107"/>
    <tag k="addr:street" v="Bickford Hollow Road"/>
    <tag k="addr:state" v="VT"/>
    <tag k="ref:vcgi:esiteid" v="302153"/>
  </node>
  <node id="-112" visible="true" lat="42.90831315" lon="-73.11907994">
    <tag k="addr:city" v="Woodford"/>
    <tag k="addr:housenumber" v="1064"/>
    <tag k="addr:street" v="Old Harbour Road"/>
    <tag k="addr:state" v="VT"/>
    <tag k="ref:vcgi:esiteid" v="302161"/>
  </node>
  <node id="-132" visible="true" lat="42.8963474" lon="-73.13428794">
    <tag k="addr:city" v="Woodford"/>
    <tag k="addr:housenumber" v="50"/>
    <tag k="addr:street" v="Penny Lane"/>
    <tag k="addr:state" v="VT"/>
    <tag k="ref:vcgi:esiteid" v="302187"/>
  </node>
  <node id="-133" visible="true" lat="42.89625973" lon="-73.13390192">
    <tag k="addr:city" v="Woodford"/>
    <tag k="addr:housenumber" v="48"/>
    <tag k="addr:street" v="Penny Lane"/>
    <tag k="addr:state" v="VT"/>
    <tag k="ref:vcgi:esiteid" v="302189"/>
  </node>
  <node id="-134" visible="true" lat="42.89610532" lon="-73.13443729">
    <tag k="addr:city" v="Woodford"/>
    <tag k="addr:housenumber" v="54"/>
    <tag k="addr:street" v="Penny Lane"/>
    <tag k="addr:state" v="VT"/>
    <tag k="ref:vcgi:esiteid" v="302191"/>
  </node>
  <node id="-135" visible="true" lat="42.89604663" lon="-73.1345243">
    <tag k="addr:city" v="Woodford"/>
    <tag k="addr:housenumber" v="58"/>
    <tag k="addr:street" v="Penny Lane"/>
    <tag k="addr:state" v="VT"/>
    <tag k="ref:vcgi:esiteid" v="302192"/>
  </node>
  <node id="-136" visible="true" lat="42.89598077" lon="-73.13461079">
    <tag k="addr:city" v="Woodford"/>
    <tag k="addr:housenumber" v="66"/>
    <tag k="addr:street" v="Penny Lane"/>
    <tag k="addr:state" v="VT"/>
    <tag k="ref:vcgi:esiteid" v="302193"/>
  </node>
  <node id="-139" visible="true" lat="42.8959119" lon="-73.13472838">
    <tag k="addr:city" v="Woodford"/>
    <tag k="addr:housenumber" v="72"/>
    <tag k="addr:street" v="Penny Lane"/>
    <tag k="addr:state" v="VT"/>
    <tag k="ref:vcgi:esiteid" v="302196"/>
  </node>
  <node id="-141" visible="true" lat="42.89582358" lon="-73.1347795">
    <tag k="addr:city" v="Woodford"/>
    <tag k="addr:housenumber" v="80"/>
    <tag k="addr:street" v="Penny Lane"/>
    <tag k="addr:state" v="VT"/>
    <tag k="ref:vcgi:esiteid" v="302198"/>
  </node>
  <node id="-142" visible="true" lat="42.89577399" lon="-73.13487868">
    <tag k="addr:city" v="Woodford"/>
    <tag k="addr:housenumber" v="86"/>
    <tag k="addr:street" v="Penny Lane"/>
    <tag k="addr:state" v="VT"/>
    <tag k="ref:vcgi:esiteid" v="302199"/>
  </node>
  <node id="-143" visible="true" lat="42.89572439" lon="-73.13497787">
    <tag k="addr:city" v="Woodford"/>
    <tag k="addr:housenumber" v="92"/>
    <tag k="addr:street" v="Penny Lane"/>
    <tag k="addr:state" v="VT"/>
    <tag k="ref:vcgi:esiteid" v="302200"/>
  </node>
  <node id="-144" visible="true" lat="42.89565762" lon="-73.135081">
    <tag k="addr:city" v="Woodford"/>
    <tag k="addr:housenumber" v="96"/>
    <tag k="addr:street" v="Penny Lane"/>
    <tag k="addr:state" v="VT"/>
    <tag k="ref:vcgi:esiteid" v="302201"/>
  </node>
  <node id="-146" visible="true" lat="42.89557858" lon="-73.13514064">
    <tag k="addr:city" v="Woodford"/>
    <tag k="addr:housenumber" v="102"/>
    <tag k="addr:street" v="Penny Lane"/>
    <tag k="addr:state" v="VT"/>
    <tag k="ref:vcgi:esiteid" v="302203"/>
  </node>
  <node id="-147" visible="true" lat="42.89550812" lon="-73.13524048">
    <tag k="addr:city" v="Woodford"/>
    <tag k="addr:housenumber" v="110"/>
    <tag k="addr:street" v="Penny Lane"/>
    <tag k="addr:state" v="VT"/>
    <tag k="ref:vcgi:esiteid" v="302204"/>
  </node>
  <node id="-148" visible="true" lat="42.89544607" lon="-73.13478333">
    <tag k="addr:city" v="Woodford"/>
    <tag k="addr:housenumber" v="5"/>
    <tag k="addr:street" v="Penny Lane"/>
    <tag k="addr:state" v="VT"/>
    <tag k="ref:vcgi:esiteid" v="302205"/>
  </node>
  <node id="-151" visible="true" lat="42.89542271" lon="-73.13544075">
    <tag k="addr:city" v="Woodford"/>
    <tag k="addr:housenumber" v="1105"/>
    <tag k="addr:street" v="Vermont Route 9"/>
    <tag k="addr:state" v="VT"/>
    <tag k="ref:vcgi:esiteid" v="302208"/>
  </node>
  <node id="-155" visible="true" lat="42.89489201" lon="-73.13494673">
    <tag k="addr:city" v="Woodford"/>
    <tag k="addr:housenumber" v="1122"/>
    <tag k="addr:street" v="Vermont Route 9"/>
    <tag k="addr:state" v="VT"/>
    <tag k="ref:vcgi:esiteid" v="302213"/>
  </node>
  <node id="-157" visible="true" lat="42.89513205" lon="-73.13568055">
    <tag k="addr:city" v="Woodford"/>
    <tag k="addr:housenumber" v="1083"/>
    <tag k="addr:street" v="Vermont Route 9"/>
    <tag k="addr:state" v="VT"/>
    <tag k="ref:vcgi:esiteid" v="302215"/>
  </node>
  <node id="-161" visible="true" lat="42.89486295" lon="-73.13592168">
    <tag k="addr:city" v="Woodford"/>
    <tag k="addr:housenumber" v="1055"/>
    <tag k="addr:street" v="Vermont Route 9"/>
    <tag k="addr:state" v="VT"/>
    <tag k="ref:vcgi:esiteid" v="302219"/>
  </node>
  <node id="-163" visible="true" lat="42.89480009" lon="-73.06566503">
    <tag k="addr:city" v="Woodford"/>
    <tag k="addr:housenumber" v="443"/>
    <tag k="addr:street" v="Hickory Road"/>
    <tag k="addr:state" v="VT"/>
    <tag k="ref:vcgi:esiteid" v="302221"/>
  </node>
  <node id="-182" visible="true" lat="42.89371098" lon="-73.13615526">
    <tag k="addr:city" v="Woodford"/>
    <tag k="addr:housenumber" v="1024"/>
    <tag k="addr:street" v="Vermont Route 9"/>
    <tag k="addr:state" v="VT"/>
    <tag k="ref:vcgi:esiteid" v="302240"/>
  </node>
  <node id="-184" visible="true" lat="42.89407214" lon="-73.07045668">
    <tag k="addr:city" v="Woodford"/>
    <tag k="addr:housenumber" v="190"/>
    <tag k="addr:street" v="Hickory Road"/>
    <tag k="addr:state" v="VT"/>
    <tag k="ref:vcgi:esiteid" v="302242"/>
  </node>
  <node id="-199" visible="true" lat="42.89378891" lon="-73.07171765">
    <tag k="addr:city" v="Woodford"/>
    <tag k="addr:housenumber" v="101"/>
    <tag k="addr:street" v="Hickory Road"/>
    <tag k="addr:state" v="VT"/>
    <tag k="ref:vcgi:esiteid" v="302257"/>
  </node>
  <node id="-203" visible="true" lat="42.89343917" lon="-73.06719863">
    <tag k="addr:city" v="Woodford"/>
    <tag k="addr:housenumber" v="356"/>
    <tag k="addr:street" v="Birch Road"/>
    <tag k="addr:state" v="VT"/>
    <tag k="ref:vcgi:esiteid" v="302261"/>
  </node>
  <node id="-232" visible="true" lat="42.8927033" lon="-73.06436786">
    <tag k="addr:city" v="Woodford"/>
    <tag k="addr:housenumber" v="51"/>
    <tag k="addr:street" v="Simon Lane"/>
    <tag k="addr:state" v="VT"/>
    <tag k="ref:vcgi:esiteid" v="302291"/>
  </node>
  <node id="-236" visible="true" lat="42.89242234" lon="-73.13847174">
    <tag k="addr:city" v="Woodford"/>
    <tag k="addr:housenumber" v="867"/>
    <tag k="addr:street" v="Vermont Route 9"/>
    <tag k="addr:state" v="VT"/>
    <tag k="ref:vcgi:esiteid" v="302296"/>
  </node>
  <node id="-253" visible="true" lat="42.89236912" lon="-73.07202832">
    <tag k="addr:city" v="Woodford"/>
    <tag k="addr:housenumber" v="74"/>
    <tag k="addr:street" v="Birch Road"/>
    <tag k="addr:state" v="VT"/>
    <tag k="ref:vcgi:esiteid" v="302313"/>
  </node>
  <node id="-259" visible="true" lat="42.89205259" lon="-73.07088081">
    <tag k="addr:city" v="Woodford"/>
    <tag k="addr:housenumber" v="268"/>
    <tag k="addr:street" v="Beach Road"/>
    <tag k="addr:state" v="VT"/>
    <tag k="ref:vcgi:esiteid" v="302319"/>
  </node>
  <node id="-274" visible="true" lat="42.89167225" lon="-73.07292309">
    <tag k="addr:city" v="Woodford"/>
    <tag k="addr:housenumber" v="12"/>
    <tag k="addr:street" v="Birch Road"/>
    <tag k="addr:state" v="VT"/>
    <tag k="ref:vcgi:esiteid" v="302334"/>
  </node>
  <node id="-281" visible="true" lat="42.89119466" lon="-73.07299824">
    <tag k="addr:city" v="Woodford"/>
    <tag k="addr:housenumber" v="147"/>
    <tag k="addr:street" v="Beach Road"/>
    <tag k="addr:state" v="VT"/>
    <tag k="ref:vcgi:esiteid" v="302341"/>
  </node>
  <node id="-300" visible="true" lat="42.89064948" lon="-73.03780502">
    <tag k="addr:city" v="Woodford"/>
    <tag k="addr:housenumber" v="162"/>
    <tag k="addr:street" v="State Park Road"/>
    <tag k="addr:state" v="VT"/>
    <tag k="ref:vcgi:esiteid" v="302360"/>
  </node>
  <node id="-301" visible="true" lat="42.89049885" lon="-73.07348006">
    <tag k="addr:city" v="Woodford"/>
    <tag k="addr:housenumber" v="193"/>
    <tag k="addr:street" v="Evergreen Lane"/>
    <tag k="addr:state" v="VT"/>
    <tag k="ref:vcgi:esiteid" v="302361"/>
  </node>
  <node id="-302" visible="true" lat="42.89082622" lon="-73.02797455">
    <tag k="addr:city" v="Woodford"/>
    <tag k="addr:housenumber" v="8655"/>
    <tag k="addr:street" v="Vermont Route 9"/>
    <tag k="addr:state" v="VT"/>
    <tag k="ref:vcgi:esiteid" v="302362"/>
  </node>
  <node id="-303" visible="true" lat="42.89012046" lon="-73.1398927">
    <tag k="addr:city" v="Woodford"/>
    <tag k="addr:housenumber" v="704"/>
    <tag k="addr:street" v="Vermont Route 9"/>
    <tag k="addr:state" v="VT"/>
    <tag k="ref:vcgi:esiteid" v="302363"/>
  </node>
  <node id="-306" visible="true" lat="42.89083767" lon="-73.02933845">
    <tag k="addr:city" v="Woodford"/>
    <tag k="addr:housenumber" v="8583"/>
    <tag k="addr:street" v="Vermont Route 9"/>
    <tag k="addr:state" v="VT"/>
    <tag k="ref:vcgi:esiteid" v="302366"/>
  </node>
  <node id="-312" visible="true" lat="42.8902603" lon="-73.02961683">
    <tag k="addr:city" v="Woodford"/>
    <tag k="addr:housenumber" v="8570"/>
    <tag k="addr:street" v="Vermont Route 9"/>
    <tag k="addr:state" v="VT"/>
    <tag k="ref:vcgi:esiteid" v="302372"/>
  </node>
  <node id="-313" visible="true" lat="42.89015046" lon="-73.02722222">
    <tag k="addr:city" v="Woodford"/>
    <tag k="addr:housenumber" v="8752"/>
    <tag k="addr:street" v="Vermont Route 9"/>
    <tag k="addr:state" v="VT"/>
    <tag k="ref:vcgi:esiteid" v="302373"/>
  </node>
  <node id="-315" visible="true" lat="42.88993358" lon="-73.06778279">
    <tag k="addr:city" v="Woodford"/>
    <tag k="addr:housenumber" v="6239"/>
    <tag k="addr:street" v="Vermont Route 9"/>
    <tag k="addr:state" v="VT"/>
    <tag k="ref:vcgi:esiteid" v="302375"/>
  </node>
  <node id="-317" visible="true" lat="42.88990929" lon="-73.0727796">
    <tag k="addr:city" v="Woodford"/>
    <tag k="addr:housenumber" v="124"/>
    <tag k="addr:street" v="Evergreen Lane"/>
    <tag k="addr:state" v="VT"/>
    <tag k="ref:vcgi:esiteid" v="302377"/>
  </node>
  <node id="-329" visible="true" lat="42.8895538" lon="-73.02667174">
    <tag k="addr:city" v="Woodford"/>
    <tag k="addr:housenumber" v="8650"/>
    <tag k="addr:street" v="Vermont Route 9"/>
    <tag k="addr:state" v="VT"/>
    <tag k="ref:vcgi:esiteid" v="302389"/>
  </node>
  <node id="-332" visible="true" lat="42.88958331" lon="-73.06576195">
    <tag k="addr:city" v="Woodford"/>
    <tag k="addr:housenumber" v="6312"/>
    <tag k="addr:street" v="Vermont Route 9"/>
    <tag k="addr:state" v="VT"/>
    <tag k="ref:vcgi:esiteid" v="302392"/>
  </node>
  <node id="-334" visible="true" lat="42.88941609" lon="-73.06608743">
    <tag k="addr:city" v="Woodford"/>
    <tag k="addr:housenumber" v="6242"/>
    <tag k="addr:street" v="Vermont Route 9"/>
    <tag k="addr:state" v="VT"/>
    <tag k="ref:vcgi:esiteid" v="302394"/>
  </node>
  <node id="-339" visible="true" lat="42.88917408" lon="-73.06790783">
    <tag k="addr:city" v="Woodford"/>
    <tag k="addr:housenumber" v="6234"/>
    <tag k="addr:street" v="Vermont Route 9"/>
    <tag k="addr:state" v="VT"/>
    <tag k="ref:vcgi:esiteid" v="302399"/>
  </node>
  <node id="-397" visible="true" lat="42.87934534" lon="-73.07677675">
    <tag k="addr:city" v="Woodford"/>
    <tag k="addr:housenumber" v="227"/>
    <tag k="addr:street" v="Greenwood Drive"/>
    <tag k="addr:state" v="VT"/>
    <tag k="ref:vcgi:esiteid" v="302460"/>
  </node>
  <node id="-405" visible="true" lat="42.87477095" lon="-73.06610644">
    <tag k="addr:city" v="Woodford"/>
    <tag k="addr:housenumber" v="443"/>
    <tag k="addr:street" v="Greenwood Drive"/>
    <tag k="addr:state" v="VT"/>
    <tag k="ref:vcgi:esiteid" v="302470"/>
  </node>
  <node id="-406" visible="true" lat="42.87573487" lon="-73.07728491">
    <tag k="addr:city" v="Woodford"/>
    <tag k="addr:housenumber" v="217"/>
    <tag k="addr:street" v="Prospect Access"/>
    <tag k="addr:state" v="VT"/>
    <tag k="ref:vcgi:esiteid" v="302471"/>
  </node>
  <node id="-427" visible="true" lat="42.89505451" lon="-73.13431622">
    <tag k="addr:city" v="Woodford"/>
    <tag k="addr:housenumber" v="1126"/>
    <tag k="addr:street" v="Vermont Route 9"/>
    <tag k="addr:state" v="VT"/>
    <tag k="ref:vcgi:esiteid" v="302493"/>
  </node>
  <node id="-431" visible="true" lat="42.89785411" lon="-73.04912053">
    <tag k="addr:city" v="Woodford"/>
    <tag k="addr:housenumber" v="7400"/>
    <tag k="addr:street" v="Vermont Route 9"/>
    <tag k="addr:state" v="VT"/>
    <tag k="ref:vcgi:esiteid" v="302497"/>
  </node>
  <node id="-438" visible="true" lat="42.89616484" lon="-73.13435635">
    <tag k="addr:city" v="Woodford"/>
    <tag k="addr:housenumber" v="52"/>
    <tag k="addr:street" v="Penny Lane"/>
    <tag k="addr:state" v="VT"/>
    <tag k="ref:vcgi:esiteid" v="302504"/>
  </node>
  <node id="-439" visible="true" lat="42.90883327" lon="-73.11858242">
    <tag k="addr:city" v="Woodford"/>
    <tag k="addr:housenumber" v="1072"/>
    <tag k="addr:street" v="Old Harbour Road"/>
    <tag k="addr:state" v="VT"/>
    <tag k="ref:vcgi:esiteid" v="302505"/>
  </node>
  <node id="-441" visible="true" lat="42.87991363" lon="-73.0752836">
    <tag k="addr:city" v="Woodford"/>
    <tag k="addr:housenumber" v="136"/>
    <tag k="addr:street" v="Pent Road"/>
    <tag k="addr:state" v="VT"/>
    <tag k="ref:vcgi:esiteid" v="302507"/>
  </node>
  <node id="-442" visible="true" lat="42.88093402" lon="-73.07571649">
    <tag k="addr:city" v="Woodford"/>
    <tag k="addr:housenumber" v="143"/>
    <tag k="addr:street" v="Pent Road"/>
    <tag k="addr:state" v="VT"/>
    <tag k="ref:vcgi:esiteid" v="302508"/>
  </node>
  <node id="-443" visible="true" lat="42.88114218" lon="-73.07301451">
    <tag k="addr:city" v="Woodford"/>
    <tag k="addr:housenumber" v="250"/>
    <tag k="addr:street" v="Pent Road"/>
    <tag k="addr:state" v="VT"/>
    <tag k="ref:vcgi:esiteid" v="302509"/>
  </node>
  <node id="-444" visible="true" lat="42.8820424" lon="-73.07236631">
    <tag k="addr:city" v="Woodford"/>
    <tag k="addr:housenumber" v="311"/>
    <tag k="addr:street" v="Pent Road"/>
    <tag k="addr:state" v="VT"/>
    <tag k="ref:vcgi:esiteid" v="302510"/>
  </node>
  <node id="-454" visible="true" lat="42.89606132" lon="-73.13031725">
    <tag k="addr:city" v="Woodford"/>
    <tag k="addr:housenumber" v="1378"/>
    <tag k="addr:street" v="Vermont Route 9"/>
    <tag k="addr:state" v="VT"/>
    <tag k="ref:vcgi:esiteid" v="315461"/>
  </node>
  <node id="-455" visible="true" lat="42.89382998" lon="-73.06683833">
    <tag k="addr:city" v="Woodford"/>
    <tag k="addr:housenumber" v="379"/>
    <tag k="addr:street" v="Birch Road"/>
    <tag k="addr:state" v="VT"/>
    <tag k="ref:vcgi:esiteid" v="332308"/>
  </node>
  <node id="-462" visible="true" lat="42.84769435" lon="-73.09451801">
    <tag k="addr:city" v="Woodford"/>
    <tag k="addr:housenumber" v="3951"/>
    <tag k="addr:street" v="Stage Coach Road"/>
    <tag k="addr:state" v="VT"/>
    <tag k="ref:vcgi:esiteid" v="341040"/>
  </node>
  <node id="-463" visible="true" lat="42.85438442" lon="-73.09095211">
    <tag k="addr:city" v="Woodford"/>
    <tag k="addr:housenumber" v="1949"/>
    <tag k="addr:street" v="National Forest Road 273"/>
    <tag k="addr:state" v="VT"/>
    <tag k="ref:vcgi:esiteid" v="341041"/>
  </node>
  <node id="-467" visible="true" lat="42.90940891" lon="-73.11390414">
    <tag k="addr:city" v="Woodford"/>
    <tag k="addr:housenumber" v="1310"/>
    <tag k="addr:street" v="Old Harbour Road"/>
    <tag k="addr:state" v="VT"/>
    <tag k="ref:vcgi:esiteid" v="343679"/>
  </node>
  <node id="-468" visible="true" lat="42.89102517" lon="-73.02588795">
    <tag k="addr:city" v="Woodford"/>
    <tag k="addr:housenumber" v="8757"/>
    <tag k="addr:street" v="Vermont Route 9"/>
    <tag k="addr:state" v="VT"/>
    <tag k="ref:vcgi:esiteid" v="343688"/>
  </node>
  <node id="-469" visible="true" lat="42.88886479" lon="-73.12078049">
    <tag k="addr:city" v="Woodford"/>
    <tag k="addr:housenumber" v="2110"/>
    <tag k="addr:street" v="Vermont Route 9"/>
    <tag k="addr:state" v="VT"/>
    <tag k="ref:vcgi:esiteid" v="446128"/>
  </node>
  <node id="-470" visible="true" lat="42.87886578" lon="-73.09740218">
    <tag k="addr:city" v="Woodford"/>
    <tag k="addr:housenumber" v="4009"/>
    <tag k="addr:street" v="Vermont Route 9"/>
    <tag k="addr:state" v="VT"/>
    <tag k="ref:vcgi:esiteid" v="446131"/>
  </node>
  <node id="-471" visible="true" lat="42.87491243" lon="-73.08186319">
    <tag k="addr:city" v="Woodford"/>
    <tag k="addr:housenumber" v="4904"/>
    <tag k="addr:street" v="Vermont Route 9"/>
    <tag k="addr:state" v="VT"/>
    <tag k="ref:vcgi:esiteid" v="446132"/>
  </node>
  <node id="-472" visible="true" lat="42.88723821" lon="-73.07426052">
    <tag k="addr:city" v="Woodford"/>
    <tag k="addr:housenumber" v="5861"/>
    <tag k="addr:street" v="Vermont Route 9"/>
    <tag k="addr:state" v="VT"/>
    <tag k="ref:vcgi:esiteid" v="446133"/>
  </node>
  <node id="-473" visible="true" lat="42.89808226" lon="-73.05268036">
    <tag k="addr:city" v="Woodford"/>
    <tag k="addr:housenumber" v="7211"/>
    <tag k="addr:street" v="Vermont Route 9"/>
    <tag k="addr:state" v="VT"/>
    <tag k="ref:vcgi:esiteid" v="446134"/>
  </node>
  <node id="-474" visible="true" lat="42.89039211" lon="-73.03008089">
    <tag k="addr:city" v="Woodford"/>
    <tag k="addr:housenumber" v="8546"/>
    <tag k="addr:street" v="Vermont Route 9"/>
    <tag k="addr:state" v="VT"/>
    <tag k="ref:vcgi:esiteid" v="446135"/>
  </node>
  <node id="-475" visible="true" lat="42.88939955" lon="-73.01718024">
    <tag k="addr:city" v="Woodford"/>
    <tag k="addr:housenumber" v="9219"/>
    <tag k="addr:street" v="Vermont Route 9"/>
    <tag k="addr:state" v="VT"/>
    <tag k="ref:vcgi:esiteid" v="446136"/>
  </node>
  <node id="-476" visible="true" lat="42.87790676" lon="-73.11528807">
    <tag k="addr:city" v="Woodford"/>
    <tag k="addr:housenumber" v="3032"/>
    <tag k="addr:street" v="Vermont Route 9"/>
    <tag k="addr:state" v="VT"/>
    <tag k="ref:vcgi:esiteid" v="446212"/>
  </node>
  <node id="-477" visible="true" lat="42.88759071" lon="-73.06201181">
    <tag k="addr:city" v="Woodford"/>
    <tag k="addr:housenumber" v="6236"/>
    <tag k="addr:street" v="Vermont Route 9"/>
    <tag k="addr:state" v="VT"/>
    <tag k="ref:vcgi:esiteid" v="449882"/>
  </node>
  <node id="-478" visible="true" lat="42.84869924" lon="-73.1341615">
    <tag k="addr:city" v="Woodford"/>
    <tag k="addr:housenumber" v="1875"/>
    <tag k="addr:street" v="Burgess Road"/>
    <tag k="addr:state" v="VT"/>
    <tag k="ref:vcgi:esiteid" v="453215"/>
  </node>
  <node id="-479" visible="true" lat="42.84878231" lon="-73.13914081">
    <tag k="addr:city" v="Woodford"/>
    <tag k="addr:housenumber" v="790"/>
    <tag k="addr:street" v="Stage Coach Road"/>
    <tag k="addr:state" v="VT"/>
    <tag k="ref:vcgi:esiteid" v="453216"/>
  </node>
  <node id="-480" visible="true" lat="42.84759639" lon="-73.13417612">
    <tag k="addr:city" v="Woodford"/>
    <tag k="addr:housenumber" v="1873"/>
    <tag k="addr:street" v="Burgess Road"/>
    <tag k="addr:state" v="VT"/>
    <tag k="ref:vcgi:esiteid" v="453217"/>
  </node>
  <node id="-481" visible="true" lat="42.89815875" lon="-73.02468229">
    <tag k="addr:city" v="Woodford"/>
    <tag k="addr:housenumber" v="543"/>
    <tag k="addr:street" v="Red Mill Campground Road"/>
    <tag k="addr:state" v="VT"/>
    <tag k="ref:vcgi:esiteid" v="454280"/>
  </node>
  <node id="-482" visible="true" lat="42.8982583" lon="-73.06068265">
    <tag k="addr:city" v="Woodford"/>
    <tag k="addr:housenumber" v="112"/>
    <tag k="addr:street" v="Little Pond Road"/>
    <tag k="addr:state" v="VT"/>
    <tag k="ref:vcgi:esiteid" v="612533"/>
  </node>
  <node id="-483" visible="true" lat="42.89860605" lon="-73.06320263">
    <tag k="addr:city" v="Woodford"/>
    <tag k="addr:housenumber" v="466"/>
    <tag k="addr:street" v="Little Pond Road"/>
    <tag k="addr:state" v="VT"/>
    <tag k="ref:vcgi:esiteid" v="612534"/>
  </node>
  <node id="-484" visible="true" lat="42.87057914" lon="-73.07984205">
    <tag k="addr:city" v="Woodford"/>
    <tag k="addr:housenumber" v="388"/>
    <tag k="addr:street" v="City Stream Road"/>
    <tag k="addr:state" v="VT"/>
    <tag k="ref:vcgi:esiteid" v="612535"/>
  </node>
  <node id="-489" visible="true" lat="42.88982242" lon="-73.02247017">
    <tag k="addr:city" v="Woodford"/>
    <tag k="addr:housenumber" v="8943"/>
    <tag k="addr:street" v="Vermont Route 9"/>
    <tag k="addr:state" v="VT"/>
    <tag k="ref:vcgi:esiteid" v="617311"/>
  </node>
  <node id="-490" visible="true" lat="42.88948254" lon="-73.06794709">
    <tag k="addr:city" v="Woodford"/>
    <tag k="addr:housenumber" v="6220"/>
    <tag k="addr:street" v="Vermont Route 9"/>
    <tag k="addr:state" v="VT"/>
    <tag k="ref:vcgi:esiteid" v="617313"/>
  </node>
  <node id="-496" visible="true" lat="42.89444362" lon="-73.13497212">
    <tag k="addr:city" v="Woodford"/>
    <tag k="addr:housenumber" v="1124"/>
    <tag k="addr:street" v="Vermont Route 9"/>
    <tag k="addr:state" v="VT"/>
    <tag k="ref:vcgi:esiteid" v="619286"/>
  </node>
  <node id="-526" visible="true" lat="42.88665221" lon="-73.07981485">
    <tag k="addr:city" v="Woodford"/>
    <tag k="addr:housenumber" v="221"/>
    <tag k="addr:street" v="Woodford City Road"/>
    <tag k="addr:state" v="VT"/>
    <tag k="ref:vcgi:esiteid" v="619320"/>
  </node>
  <node id="-539" visible="true" lat="42.89523746" lon="-73.07114341">
    <tag k="addr:city" v="Woodford"/>
    <tag k="addr:housenumber" v="225"/>
    <tag k="addr:street" v="Sycamore Road"/>
    <tag k="addr:state" v="VT"/>
    <tag k="ref:vcgi:esiteid" v="619335"/>
  </node>
  <node id="-560" visible="true" lat="42.88905915" lon="-73.02785865">
    <tag k="addr:city" v="Woodford"/>
    <tag k="addr:housenumber" v="8574"/>
    <tag k="addr:street" v="Vermont Route 9"/>
    <tag k="addr:state" v="VT"/>
    <tag k="ref:vcgi:esiteid" v="619356"/>
  </node>
  <node id="-561" visible="true" lat="42.88855121" lon="-73.03015923">
    <tag k="addr:city" v="Woodford"/>
    <tag k="addr:housenumber" v="8572"/>
    <tag k="addr:street" v="Vermont Route 9"/>
    <tag k="addr:state" v="VT"/>
    <tag k="ref:vcgi:esiteid" v="619357"/>
  </node>
  <node id="-569" visible="true" lat="42.89889032" lon="-73.02509882">
    <tag k="addr:city" v="Woodford"/>
    <tag k="addr:housenumber" v="545"/>
    <tag k="addr:street" v="Red Mill Campground Road"/>
    <tag k="addr:state" v="VT"/>
    <tag k="ref:vcgi:esiteid" v="619366"/>
  </node>
  <node id="-598" visible="true" lat="42.89473501" lon="-73.0593541">
    <tag k="addr:city" v="Woodford"/>
    <tag k="addr:housenumber" v="6801"/>
    <tag k="addr:street" v="Vermont Route 9"/>
    <tag k="addr:state" v="VT"/>
    <tag k="ref:vcgi:esiteid" v="750645"/>
  </node>
  <node id="-599" visible="true" lat="42.8981068" lon="-73.0533254">
    <tag k="addr:city" v="Woodford"/>
    <tag k="addr:housenumber" v="7181"/>
    <tag k="addr:street" v="Vermont Route 9"/>
    <tag k="addr:state" v="VT"/>
    <tag k="ref:vcgi:esiteid" v="750646"/>
  </node>
  <node id="-600" visible="true" lat="42.89062312" lon="-73.02799268">
    <tag k="addr:city" v="Woodford"/>
    <tag k="addr:housenumber" v="8650"/>
    <tag k="addr:street" v="Vermont Route 9"/>
    <tag k="addr:state" v="VT"/>
    <tag k="ref:vcgi:esiteid" v="751855"/>
  </node>
  <node id="-601" visible="true" lat="42.88798127" lon="-73.07332395">
    <tag k="addr:city" v="Woodford"/>
    <tag k="addr:housenumber" v="5905"/>
    <tag k="addr:street" v="Vermont Route 9"/>
    <tag k="addr:state" v="VT"/>
    <tag k="ref:vcgi:esiteid" v="752911"/>
  </node>
  <node id="-602" visible="true" lat="42.88934051" lon="-73.07027981">
    <tag k="addr:city" v="Woodford"/>
    <tag k="addr:housenumber" v="6111"/>
    <tag k="addr:street" v="Vermont Route 9"/>
    <tag k="addr:state" v="VT"/>
    <tag k="ref:vcgi:esiteid" v="752912"/>
  </node>
  <node id="-603" visible="true" lat="42.89437107" lon="-73.07245504">
    <tag k="addr:city" v="Woodford"/>
    <tag k="addr:housenumber" v="133"/>
    <tag k="addr:street" v="Sycamore Road"/>
    <tag k="addr:state" v="VT"/>
    <tag k="ref:vcgi:esiteid" v="753299"/>
  </node>
  <node id="-604" visible="true" lat="42.91139701" lon="-73.12281082">
    <tag k="addr:city" v="Woodford"/>
    <tag k="addr:housenumber" v="229"/>
    <tag k="addr:street" v="Bickford Hollow Road"/>
    <tag k="addr:state" v="VT"/>
    <tag k="ref:vcgi:esiteid" v="753381"/>
  </node>
  <node id="-605" visible="true" lat="42.91202842" lon="-73.12057329">
    <tag k="addr:city" v="Woodford"/>
    <tag k="addr:housenumber" v="230"/>
    <tag k="addr:street" v="Bickford Hollow Road"/>
    <tag k="addr:state" v="VT"/>
    <tag k="ref:vcgi:esiteid" v="753382"/>
  </node>
  <node id="-606" visible="true" lat="42.89651358" lon="-73.06187455">
    <tag k="addr:city" v="Woodford"/>
    <tag k="addr:housenumber" v="274"/>
    <tag k="addr:street" v="Little Pond Road"/>
    <tag k="addr:state" v="VT"/>
    <tag k="ref:vcgi:esiteid" v="756041"/>
  </node>
  <node id="-607" visible="true" lat="42.8891433" lon="-73.02025644">
    <tag k="addr:city" v="Woodford"/>
    <tag k="addr:housenumber" v="9060"/>
    <tag k="addr:street" v="Vermont Route 9"/>
    <tag k="addr:state" v="VT"/>
    <tag k="ref:vcgi:esiteid" v="756246"/>
  </node>
  <node id="-608" visible="true" lat="42.8958548" lon="-73.06175723">
    <tag k="addr:city" v="Woodford"/>
    <tag k="addr:housenumber" v="206"/>
    <tag k="addr:street" v="Little Pond Road"/>
    <tag k="addr:state" v="VT"/>
    <tag k="ref:vcgi:esiteid" v="756247"/>
  </node>
  <node id="-609" visible="true" lat="42.87795761" lon="-73.09441128">
    <tag k="addr:city" v="Woodford"/>
    <tag k="addr:housenumber" v="4184"/>
    <tag k="addr:street" v="Vermont Route 9"/>
    <tag k="addr:state" v="VT"/>
    <tag k="ref:vcgi:esiteid" v="756444"/>
  </node>
  <node id="-610" visible="true" lat="42.85435924" lon="-73.14010946">
    <tag k="addr:city" v="Woodford"/>
    <tag k="addr:housenumber" v="788"/>
    <tag k="addr:street" v="Stage Coach Road"/>
    <tag k="addr:state" v="VT"/>
    <tag k="ref:vcgi:esiteid" v="757546"/>
  </node>
  <node id="-611" visible="true" lat="42.87812448" lon="-73.11779249">
    <tag k="addr:city" v="Woodford"/>
    <tag k="addr:housenumber" v="241"/>
    <tag k="addr:street" v="Notch Road"/>
    <tag k="addr:state" v="VT"/>
    <tag k="ref:vcgi:esiteid" v="760591"/>
  </node>
  <node id="-613" visible="true" lat="42.88558327" lon="-73.08355988">
    <tag k="addr:city" v="Woodford"/>
    <tag k="addr:housenumber" v="355"/>
    <tag k="addr:street" v="Abby Lane"/>
    <tag k="addr:state" v="VT"/>
    <tag k="ref:vcgi:esiteid" v="762663"/>
  </node>
  <node id="-615" visible="true" lat="42.86297706" lon="-73.08035103">
    <tag k="addr:city" v="Woodford"/>
    <tag k="addr:housenumber" v="1000"/>
    <tag k="addr:street" v="City Stream Road"/>
    <tag k="addr:state" v="VT"/>
    <tag k="ref:vcgi:esiteid" v="1050083"/>
  </node>
  <node id="-616" visible="true" lat="42.85283137" lon="-73.09735145">
    <tag k="addr:city" v="Woodford"/>
    <tag k="addr:housenumber" v="2280"/>
    <tag k="addr:street" v="Dunville Hollow Road"/>
    <tag k="addr:state" v="VT"/>
    <tag k="ref:vcgi:esiteid" v="1050084"/>
  </node>
  <node id="-617" visible="true" lat="42.8721138" lon="-73.14598451">
    <tag k="addr:city" v="Woodford"/>
    <tag k="addr:housenumber" v="1474"/>
    <tag k="addr:street" v="Burgess Road"/>
    <tag k="addr:state" v="VT"/>
    <tag k="ref:vcgi:esiteid" v="1050085"/>
  </node>
  <node id="-618" visible="true" lat="42.89277987" lon="-73.03407187">
    <tag k="addr:city" v="Woodford"/>
    <tag k="addr:housenumber" v="8263"/>
    <tag k="addr:street" v="Vermont Route 9"/>
    <tag k="addr:state" v="VT"/>
    <tag k="ref:vcgi:esiteid" v="1050261"/>
  </node>
  <node id="-619" visible="true" lat="42.84569009" lon="-73.10020881">
    <tag k="addr:city" v="Woodford"/>
    <tag k="addr:housenumber" v="2756"/>
    <tag k="addr:street" v="National Forest Road 273"/>
    <tag k="addr:state" v="VT"/>
    <tag k="ref:vcgi:esiteid" v="1052555"/>
  </node>
</osm>
