<?xml version="1.0" encoding="UTF-8"?>
<osm version="0.6" generator="JOSM" upload="false">
  <node id="-100" visible="true" lat="44.37382329" lon="-72.57979917">
    <tag k="addr:city" v="Worcester"/>
    <tag k="addr:housenumber" v="218"/>
    <tag k="addr:street" v="Mackenzie Drive"/>
    <tag k="addr:state" v="VT"/>
    <tag k="ref:vcgi:esiteid" v="1437"/>
  </node>
  <node id="-102" visible="true" lat="44.43132781" lon="-72.55425262">
    <tag k="addr:city" v="Worcester"/>
    <tag k="addr:housenumber" v="762"/>
    <tag k="addr:street" v="Hampshire Hill Road"/>
    <tag k="addr:state" v="VT"/>
    <tag k="ref:vcgi:esiteid" v="304254"/>
  </node>
  <node id="-104" visible="true" lat="44.43087768" lon="-72.55408477">
    <tag k="addr:city" v="Worcester"/>
    <tag k="addr:housenumber" v="760"/>
    <tag k="addr:street" v="Hampshire Hill Road"/>
    <tag k="addr:state" v="VT"/>
    <tag k="ref:vcgi:esiteid" v="304256"/>
  </node>
  <node id="-106" visible="true" lat="44.42979812" lon="-72.53331756">
    <tag k="addr:city" v="Worcester"/>
    <tag k="addr:housenumber" v="960"/>
    <tag k="addr:street" v="Elmore Road"/>
    <tag k="addr:state" v="VT"/>
    <tag k="ref:vcgi:esiteid" v="304258"/>
  </node>
  <node id="-107" visible="true" lat="44.42601013" lon="-72.56207275">
    <tag k="addr:city" v="Worcester"/>
    <tag k="addr:housenumber" v="624"/>
    <tag k="addr:street" v="Hampshire Hill Road"/>
    <tag k="addr:state" v="VT"/>
    <tag k="ref:vcgi:esiteid" v="304259"/>
  </node>
  <node id="-108" visible="true" lat="44.42435229" lon="-72.56455192">
    <tag k="addr:city" v="Worcester"/>
    <tag k="addr:housenumber" v="588"/>
    <tag k="addr:street" v="Hampshire Hill Road"/>
    <tag k="addr:state" v="VT"/>
    <tag k="ref:vcgi:esiteid" v="304260"/>
  </node>
  <node id="-109" visible="true" lat="44.42368316" lon="-72.53964233">
    <tag k="addr:city" v="Worcester"/>
    <tag k="addr:housenumber" v="936"/>
    <tag k="addr:street" v="Elmore Road"/>
    <tag k="addr:state" v="VT"/>
    <tag k="ref:vcgi:esiteid" v="304261"/>
  </node>
  <node id="-110" visible="true" lat="44.42338889" lon="-72.56429203">
    <tag k="addr:city" v="Worcester"/>
    <tag k="addr:housenumber" v="579"/>
    <tag k="addr:street" v="Hampshire Hill Road"/>
    <tag k="addr:state" v="VT"/>
    <tag k="ref:vcgi:esiteid" v="304262"/>
  </node>
  <node id="-111" visible="true" lat="44.42435989" lon="-72.56805501">
    <tag k="addr:city" v="Worcester"/>
    <tag k="addr:housenumber" v="576"/>
    <tag k="addr:street" v="Hampshire Hill Road"/>
    <tag k="addr:state" v="VT"/>
    <tag k="ref:vcgi:esiteid" v="304263"/>
  </node>
  <node id="-112" visible="true" lat="44.42312534" lon="-72.56534806">
    <tag k="addr:city" v="Worcester"/>
    <tag k="addr:housenumber" v="572"/>
    <tag k="addr:street" v="Hampshire Hill Road"/>
    <tag k="addr:state" v="VT"/>
    <tag k="ref:vcgi:esiteid" v="304264"/>
  </node>
  <node id="-113" visible="true" lat="44.42304611" lon="-72.56467437">
    <tag k="addr:city" v="Worcester"/>
    <tag k="addr:housenumber" v="573"/>
    <tag k="addr:street" v="Hampshire Hill Road"/>
    <tag k="addr:state" v="VT"/>
    <tag k="ref:vcgi:esiteid" v="304265"/>
  </node>
  <node id="-114" visible="true" lat="44.42340516" lon="-72.56858192">
    <tag k="addr:city" v="Worcester"/>
    <tag k="addr:housenumber" v="568"/>
    <tag k="addr:street" v="Hampshire Hill Road"/>
    <tag k="addr:state" v="VT"/>
    <tag k="ref:vcgi:esiteid" v="304266"/>
  </node>
  <node id="-115" visible="true" lat="44.42251205" lon="-72.56494053">
    <tag k="addr:city" v="Worcester"/>
    <tag k="addr:housenumber" v="567"/>
    <tag k="addr:street" v="Hampshire Hill Road"/>
    <tag k="addr:state" v="VT"/>
    <tag k="ref:vcgi:esiteid" v="304267"/>
  </node>
  <node id="-116" visible="true" lat="44.42260031" lon="-72.56878358">
    <tag k="addr:city" v="Worcester"/>
    <tag k="addr:housenumber" v="25"/>
    <tag k="addr:street" v="Wilder Road"/>
    <tag k="addr:state" v="VT"/>
    <tag k="ref:vcgi:esiteid" v="304268"/>
  </node>
  <node id="-117" visible="true" lat="44.4223109" lon="-72.56819691">
    <tag k="addr:city" v="Worcester"/>
    <tag k="addr:housenumber" v="21"/>
    <tag k="addr:street" v="Wilder Road"/>
    <tag k="addr:state" v="VT"/>
    <tag k="ref:vcgi:esiteid" v="304269"/>
  </node>
  <node id="-118" visible="true" lat="44.42164414" lon="-72.56765395">
    <tag k="addr:city" v="Worcester"/>
    <tag k="addr:housenumber" v="10"/>
    <tag k="addr:street" v="Wilder Road"/>
    <tag k="addr:state" v="VT"/>
    <tag k="ref:vcgi:esiteid" v="304270"/>
  </node>
  <node id="-119" visible="true" lat="44.42167849" lon="-72.56883711">
    <tag k="addr:city" v="Worcester"/>
    <tag k="addr:housenumber" v="518"/>
    <tag k="addr:street" v="Hampshire Hill Road"/>
    <tag k="addr:state" v="VT"/>
    <tag k="ref:vcgi:esiteid" v="304271"/>
  </node>
  <node id="-120" visible="true" lat="44.42114257" lon="-72.56729888">
    <tag k="addr:city" v="Worcester"/>
    <tag k="addr:housenumber" v="534"/>
    <tag k="addr:street" v="Hampshire Hill Road"/>
    <tag k="addr:state" v="VT"/>
    <tag k="ref:vcgi:esiteid" v="304272"/>
  </node>
  <node id="-121" visible="true" lat="44.42086551" lon="-72.57247877">
    <tag k="addr:city" v="Worcester"/>
    <tag k="addr:housenumber" v="40"/>
    <tag k="addr:street" v="Mountain Road"/>
    <tag k="addr:state" v="VT"/>
    <tag k="ref:vcgi:esiteid" v="304273"/>
  </node>
  <node id="-122" visible="true" lat="44.42058935" lon="-72.57193592">
    <tag k="addr:city" v="Worcester"/>
    <tag k="addr:housenumber" v="23"/>
    <tag k="addr:street" v="Mountain Road"/>
    <tag k="addr:state" v="VT"/>
    <tag k="ref:vcgi:esiteid" v="304274"/>
  </node>
  <node id="-123" visible="true" lat="44.42032951" lon="-72.57222595">
    <tag k="addr:city" v="Worcester"/>
    <tag k="addr:housenumber" v="24"/>
    <tag k="addr:street" v="Mountain Road"/>
    <tag k="addr:state" v="VT"/>
    <tag k="ref:vcgi:esiteid" v="304275"/>
  </node>
  <node id="-124" visible="true" lat="44.42019794" lon="-72.56770655">
    <tag k="addr:city" v="Worcester"/>
    <tag k="addr:housenumber" v="519"/>
    <tag k="addr:street" v="Hampshire Hill Road"/>
    <tag k="addr:state" v="VT"/>
    <tag k="ref:vcgi:esiteid" v="304276"/>
  </node>
  <node id="-125" visible="true" lat="44.4201844" lon="-72.5716114">
    <tag k="addr:city" v="Worcester"/>
    <tag k="addr:housenumber" v="21"/>
    <tag k="addr:street" v="Mountain Road"/>
    <tag k="addr:state" v="VT"/>
    <tag k="ref:vcgi:esiteid" v="304277"/>
  </node>
  <node id="-126" visible="true" lat="44.41993942" lon="-72.56916067">
    <tag k="addr:city" v="Worcester"/>
    <tag k="addr:housenumber" v="508"/>
    <tag k="addr:street" v="Hampshire Hill Road"/>
    <tag k="addr:state" v="VT"/>
    <tag k="ref:vcgi:esiteid" v="304278"/>
  </node>
  <node id="-128" visible="true" lat="44.41926193" lon="-72.57071685">
    <tag k="addr:city" v="Worcester"/>
    <tag k="addr:housenumber" v="3"/>
    <tag k="addr:street" v="Mountain Road"/>
    <tag k="addr:state" v="VT"/>
    <tag k="ref:vcgi:esiteid" v="304280"/>
  </node>
  <node id="-129" visible="true" lat="44.4180099" lon="-72.56969958">
    <tag k="addr:city" v="Worcester"/>
    <tag k="addr:housenumber" v="10"/>
    <tag k="addr:street" v="Upper Hancock Brook Road"/>
    <tag k="addr:state" v="VT"/>
    <tag k="ref:vcgi:esiteid" v="304281"/>
  </node>
  <node id="-131" visible="true" lat="44.41741007" lon="-72.57097261">
    <tag k="addr:city" v="Worcester"/>
    <tag k="addr:housenumber" v="458"/>
    <tag k="addr:street" v="Hampshire Hill Road"/>
    <tag k="addr:state" v="VT"/>
    <tag k="ref:vcgi:esiteid" v="304283"/>
  </node>
  <node id="-132" visible="true" lat="44.41729772" lon="-72.56872398">
    <tag k="addr:city" v="Worcester"/>
    <tag k="addr:housenumber" v="26"/>
    <tag k="addr:street" v="Upper Hancock Brook Road"/>
    <tag k="addr:state" v="VT"/>
    <tag k="ref:vcgi:esiteid" v="304284"/>
  </node>
  <node id="-133" visible="true" lat="44.41682052" lon="-72.56423187">
    <tag k="addr:city" v="Worcester"/>
    <tag k="addr:housenumber" v="73"/>
    <tag k="addr:street" v="Carlson Road"/>
    <tag k="addr:state" v="VT"/>
    <tag k="ref:vcgi:esiteid" v="304285"/>
  </node>
  <node id="-134" visible="true" lat="44.41644779" lon="-72.56971185">
    <tag k="addr:city" v="Worcester"/>
    <tag k="addr:housenumber" v="451"/>
    <tag k="addr:street" v="Hampshire Hill Road"/>
    <tag k="addr:state" v="VT"/>
    <tag k="ref:vcgi:esiteid" v="304286"/>
  </node>
  <node id="-135" visible="true" lat="44.41664941" lon="-72.56207849">
    <tag k="addr:city" v="Worcester"/>
    <tag k="addr:housenumber" v="89"/>
    <tag k="addr:street" v="Carlson Road"/>
    <tag k="addr:state" v="VT"/>
    <tag k="ref:vcgi:esiteid" v="304287"/>
  </node>
  <node id="-136" visible="true" lat="44.41636919" lon="-72.571602">
    <tag k="addr:city" v="Worcester"/>
    <tag k="addr:housenumber" v="444"/>
    <tag k="addr:street" v="Hampshire Hill Road"/>
    <tag k="addr:state" v="VT"/>
    <tag k="ref:vcgi:esiteid" v="304288"/>
  </node>
  <node id="-137" visible="true" lat="44.415802" lon="-72.56283569">
    <tag k="addr:city" v="Worcester"/>
    <tag k="addr:housenumber" v="85"/>
    <tag k="addr:street" v="Carlson Road"/>
    <tag k="addr:state" v="VT"/>
    <tag k="ref:vcgi:esiteid" v="304289"/>
  </node>
  <node id="-138" visible="true" lat="44.41748888" lon="-72.54818416">
    <tag k="addr:city" v="Worcester"/>
    <tag k="addr:housenumber" v="688"/>
    <tag k="addr:street" v="Elmore Road"/>
    <tag k="addr:state" v="VT"/>
    <tag k="ref:vcgi:esiteid" v="304290"/>
  </node>
  <node id="-140" visible="true" lat="44.4146567" lon="-72.57092918">
    <tag k="addr:city" v="Worcester"/>
    <tag k="addr:housenumber" v="414"/>
    <tag k="addr:street" v="Hampshire Hill Road"/>
    <tag k="addr:state" v="VT"/>
    <tag k="ref:vcgi:esiteid" v="304292"/>
  </node>
  <node id="-141" visible="true" lat="44.41436779" lon="-72.56631607">
    <tag k="addr:city" v="Worcester"/>
    <tag k="addr:housenumber" v="80"/>
    <tag k="addr:street" v="Upper Hancock Brook Road"/>
    <tag k="addr:state" v="VT"/>
    <tag k="ref:vcgi:esiteid" v="304293"/>
  </node>
  <node id="-144" visible="true" lat="44.41152954" lon="-72.57305145">
    <tag k="addr:city" v="Worcester"/>
    <tag k="addr:housenumber" v="366"/>
    <tag k="addr:street" v="Hampshire Hill Road"/>
    <tag k="addr:state" v="VT"/>
    <tag k="ref:vcgi:esiteid" v="304296"/>
  </node>
  <node id="-146" visible="true" lat="44.40973138" lon="-72.56531501">
    <tag k="addr:city" v="Worcester"/>
    <tag k="addr:housenumber" v="148"/>
    <tag k="addr:street" v="Upper Hancock Brook Road"/>
    <tag k="addr:state" v="VT"/>
    <tag k="ref:vcgi:esiteid" v="304298"/>
  </node>
  <node id="-148" visible="true" lat="44.40954589" lon="-72.57335662">
    <tag k="addr:city" v="Worcester"/>
    <tag k="addr:housenumber" v="339"/>
    <tag k="addr:street" v="Hampshire Hill Road"/>
    <tag k="addr:state" v="VT"/>
    <tag k="ref:vcgi:esiteid" v="304300"/>
  </node>
  <node id="-149" visible="true" lat="44.4082087" lon="-72.56472737">
    <tag k="addr:city" v="Worcester"/>
    <tag k="addr:housenumber" v="159"/>
    <tag k="addr:street" v="Upper Hancock Brook Road"/>
    <tag k="addr:state" v="VT"/>
    <tag k="ref:vcgi:esiteid" v="304301"/>
  </node>
  <node id="-150" visible="true" lat="44.40942979" lon="-72.59832354">
    <tag k="addr:city" v="Worcester"/>
    <tag k="addr:housenumber" v="781"/>
    <tag k="addr:street" v="Minister Brook Road"/>
    <tag k="addr:state" v="VT"/>
    <tag k="ref:vcgi:esiteid" v="304302"/>
  </node>
  <node id="-152" visible="true" lat="44.40732511" lon="-72.57579974">
    <tag k="addr:city" v="Worcester"/>
    <tag k="addr:housenumber" v="302"/>
    <tag k="addr:street" v="Hampshire Hill Road"/>
    <tag k="addr:state" v="VT"/>
    <tag k="ref:vcgi:esiteid" v="304304"/>
  </node>
  <node id="-155" visible="true" lat="44.40530776" lon="-72.59890747">
    <tag k="addr:city" v="Worcester"/>
    <tag k="addr:housenumber" v="728"/>
    <tag k="addr:street" v="Minister Brook Road"/>
    <tag k="addr:state" v="VT"/>
    <tag k="ref:vcgi:esiteid" v="304307"/>
  </node>
  <node id="-156" visible="true" lat="44.40521621" lon="-72.59255981">
    <tag k="addr:city" v="Worcester"/>
    <tag k="addr:housenumber" v="667"/>
    <tag k="addr:street" v="Minister Brook Road"/>
    <tag k="addr:state" v="VT"/>
    <tag k="ref:vcgi:esiteid" v="304308"/>
  </node>
  <node id="-158" visible="true" lat="44.40483093" lon="-72.58818817">
    <tag k="addr:city" v="Worcester"/>
    <tag k="addr:housenumber" v="627"/>
    <tag k="addr:street" v="Minister Brook Road"/>
    <tag k="addr:state" v="VT"/>
    <tag k="ref:vcgi:esiteid" v="304310"/>
  </node>
  <node id="-160" visible="true" lat="44.40450735" lon="-72.57484613">
    <tag k="addr:city" v="Worcester"/>
    <tag k="addr:housenumber" v="258"/>
    <tag k="addr:street" v="Hampshire Hill Road"/>
    <tag k="addr:state" v="VT"/>
    <tag k="ref:vcgi:esiteid" v="304312"/>
  </node>
  <node id="-162" visible="true" lat="44.40419006" lon="-72.59685516">
    <tag k="addr:city" v="Worcester"/>
    <tag k="addr:housenumber" v="699"/>
    <tag k="addr:street" v="Minister Brook Road"/>
    <tag k="addr:state" v="VT"/>
    <tag k="ref:vcgi:esiteid" v="304314"/>
  </node>
  <node id="-164" visible="true" lat="44.40368652" lon="-72.59603881">
    <tag k="addr:city" v="Worcester"/>
    <tag k="addr:housenumber" v="693"/>
    <tag k="addr:street" v="Minister Brook Road"/>
    <tag k="addr:state" v="VT"/>
    <tag k="ref:vcgi:esiteid" v="304316"/>
  </node>
  <node id="-167" visible="true" lat="44.40340423" lon="-72.59329223">
    <tag k="addr:city" v="Worcester"/>
    <tag k="addr:housenumber" v="665"/>
    <tag k="addr:street" v="Minister Brook Road"/>
    <tag k="addr:state" v="VT"/>
    <tag k="ref:vcgi:esiteid" v="304319"/>
  </node>
  <node id="-169" visible="true" lat="44.40333938" lon="-72.59555816">
    <tag k="addr:city" v="Worcester"/>
    <tag k="addr:housenumber" v="689"/>
    <tag k="addr:street" v="Minister Brook Road"/>
    <tag k="addr:state" v="VT"/>
    <tag k="ref:vcgi:esiteid" v="304321"/>
  </node>
  <node id="-172" visible="true" lat="44.40296936" lon="-72.58994293">
    <tag k="addr:city" v="Worcester"/>
    <tag k="addr:housenumber" v="625"/>
    <tag k="addr:street" v="Minister Brook Road"/>
    <tag k="addr:state" v="VT"/>
    <tag k="ref:vcgi:esiteid" v="304324"/>
  </node>
  <node id="-174" visible="true" lat="44.40256881" lon="-72.5562973">
    <tag k="addr:city" v="Worcester"/>
    <tag k="addr:housenumber" v="48"/>
    <tag k="addr:street" v="Lower Hancock Brook Road"/>
    <tag k="addr:state" v="VT"/>
    <tag k="ref:vcgi:esiteid" v="304326"/>
  </node>
  <node id="-177" visible="true" lat="44.40213861" lon="-72.5857452">
    <tag k="addr:city" v="Worcester"/>
    <tag k="addr:housenumber" v="581"/>
    <tag k="addr:street" v="Minister Brook Road"/>
    <tag k="addr:state" v="VT"/>
    <tag k="ref:vcgi:esiteid" v="304329"/>
  </node>
  <node id="-178" visible="true" lat="44.40210483" lon="-72.59223704">
    <tag k="addr:city" v="Worcester"/>
    <tag k="addr:housenumber" v="645"/>
    <tag k="addr:street" v="Minister Brook Road"/>
    <tag k="addr:state" v="VT"/>
    <tag k="ref:vcgi:esiteid" v="304330"/>
  </node>
  <node id="-179" visible="true" lat="44.40194101" lon="-72.59325149">
    <tag k="addr:city" v="Worcester"/>
    <tag k="addr:housenumber" v="648"/>
    <tag k="addr:street" v="Minister Brook Road"/>
    <tag k="addr:state" v="VT"/>
    <tag k="ref:vcgi:esiteid" v="304331"/>
  </node>
  <node id="-180" visible="true" lat="44.40176179" lon="-72.55246696">
    <tag k="addr:city" v="Worcester"/>
    <tag k="addr:housenumber" v="3"/>
    <tag k="addr:street" v="Lower Hancock Brook Road"/>
    <tag k="addr:state" v="VT"/>
    <tag k="ref:vcgi:esiteid" v="304332"/>
  </node>
  <node id="-181" visible="true" lat="44.40150292" lon="-72.57776468">
    <tag k="addr:city" v="Worcester"/>
    <tag k="addr:housenumber" v="220"/>
    <tag k="addr:street" v="Hampshire Hill Road"/>
    <tag k="addr:state" v="VT"/>
    <tag k="ref:vcgi:esiteid" v="304333"/>
  </node>
  <node id="-182" visible="true" lat="44.40178205" lon="-72.5916701">
    <tag k="addr:city" v="Worcester"/>
    <tag k="addr:housenumber" v="639"/>
    <tag k="addr:street" v="Minister Brook Road"/>
    <tag k="addr:state" v="VT"/>
    <tag k="ref:vcgi:esiteid" v="304334"/>
  </node>
  <node id="-183" visible="true" lat="44.40167047" lon="-72.59363287">
    <tag k="addr:city" v="Worcester"/>
    <tag k="addr:housenumber" v="650"/>
    <tag k="addr:street" v="Minister Brook Road"/>
    <tag k="addr:state" v="VT"/>
    <tag k="ref:vcgi:esiteid" v="304335"/>
  </node>
  <node id="-184" visible="true" lat="44.4013678" lon="-72.57348688">
    <tag k="addr:city" v="Worcester"/>
    <tag k="addr:housenumber" v="211"/>
    <tag k="addr:street" v="Hampshire Hill Road"/>
    <tag k="addr:state" v="VT"/>
    <tag k="ref:vcgi:esiteid" v="304336"/>
  </node>
  <node id="-186" visible="true" lat="44.40117645" lon="-72.59181213">
    <tag k="addr:city" v="Worcester"/>
    <tag k="addr:housenumber" v="636"/>
    <tag k="addr:street" v="Minister Brook Road"/>
    <tag k="addr:state" v="VT"/>
    <tag k="ref:vcgi:esiteid" v="304338"/>
  </node>
  <node id="-187" visible="true" lat="44.40089797" lon="-72.57362365">
    <tag k="addr:city" v="Worcester"/>
    <tag k="addr:housenumber" v="205"/>
    <tag k="addr:street" v="Hampshire Hill Road"/>
    <tag k="addr:state" v="VT"/>
    <tag k="ref:vcgi:esiteid" v="304339"/>
  </node>
  <node id="-188" visible="true" lat="44.40075328" lon="-72.58703712">
    <tag k="addr:city" v="Worcester"/>
    <tag k="addr:housenumber" v="579"/>
    <tag k="addr:street" v="Minister Brook Road"/>
    <tag k="addr:state" v="VT"/>
    <tag k="ref:vcgi:esiteid" v="304340"/>
  </node>
  <node id="-191" visible="true" lat="44.40029039" lon="-72.59028371">
    <tag k="addr:city" v="Worcester"/>
    <tag k="addr:housenumber" v="621"/>
    <tag k="addr:street" v="Minister Brook Road"/>
    <tag k="addr:state" v="VT"/>
    <tag k="ref:vcgi:esiteid" v="304343"/>
  </node>
  <node id="-194" visible="true" lat="44.39949478" lon="-72.55172974">
    <tag k="addr:city" v="Worcester"/>
    <tag k="addr:housenumber" v="441"/>
    <tag k="addr:street" v="Elmore Road"/>
    <tag k="addr:state" v="VT"/>
    <tag k="ref:vcgi:esiteid" v="304346"/>
  </node>
  <node id="-198" visible="true" lat="44.39920806" lon="-72.57280731">
    <tag k="addr:city" v="Worcester"/>
    <tag k="addr:housenumber" v="181"/>
    <tag k="addr:street" v="Hampshire Hill Road"/>
    <tag k="addr:state" v="VT"/>
    <tag k="ref:vcgi:esiteid" v="304350"/>
  </node>
  <node id="-199" visible="true" lat="44.39930272" lon="-72.58995564">
    <tag k="addr:city" v="Worcester"/>
    <tag k="addr:housenumber" v="587"/>
    <tag k="addr:street" v="Minister Brook Road"/>
    <tag k="addr:state" v="VT"/>
    <tag k="ref:vcgi:esiteid" v="304351"/>
  </node>
  <node id="-202" visible="true" lat="44.39856307" lon="-72.5747064">
    <tag k="addr:city" v="Worcester"/>
    <tag k="addr:housenumber" v="166"/>
    <tag k="addr:street" v="Hampshire Hill Road"/>
    <tag k="addr:state" v="VT"/>
    <tag k="ref:vcgi:esiteid" v="304354"/>
  </node>
  <node id="-206" visible="true" lat="44.39790601" lon="-72.57126787">
    <tag k="addr:city" v="Worcester"/>
    <tag k="addr:housenumber" v="159"/>
    <tag k="addr:street" v="Hampshire Hill Road"/>
    <tag k="addr:state" v="VT"/>
    <tag k="ref:vcgi:esiteid" v="304358"/>
  </node>
  <node id="-207" visible="true" lat="44.39780702" lon="-72.58975563">
    <tag k="addr:city" v="Worcester"/>
    <tag k="addr:housenumber" v="580"/>
    <tag k="addr:street" v="Minister Brook Road"/>
    <tag k="addr:state" v="VT"/>
    <tag k="ref:vcgi:esiteid" v="304359"/>
  </node>
  <node id="-210" visible="true" lat="44.39724191" lon="-72.58841788">
    <tag k="addr:city" v="Worcester"/>
    <tag k="addr:housenumber" v="565"/>
    <tag k="addr:street" v="Minister Brook Road"/>
    <tag k="addr:state" v="VT"/>
    <tag k="ref:vcgi:esiteid" v="304363"/>
  </node>
  <node id="-215" visible="true" lat="44.39658922" lon="-72.57357706">
    <tag k="addr:city" v="Worcester"/>
    <tag k="addr:housenumber" v="144"/>
    <tag k="addr:street" v="Hampshire Hill Road"/>
    <tag k="addr:state" v="VT"/>
    <tag k="ref:vcgi:esiteid" v="304368"/>
  </node>
  <node id="-216" visible="true" lat="44.39616393" lon="-72.52738189">
    <tag k="addr:city" v="Worcester"/>
    <tag k="addr:housenumber" v="25"/>
    <tag k="addr:street" v="Brown Road"/>
    <tag k="addr:state" v="VT"/>
    <tag k="ref:vcgi:esiteid" v="304369"/>
  </node>
  <node id="-219" visible="true" lat="44.39544556" lon="-72.58173035">
    <tag k="addr:city" v="Worcester"/>
    <tag k="addr:housenumber" v="39"/>
    <tag k="addr:street" v="Sand Hill Road"/>
    <tag k="addr:state" v="VT"/>
    <tag k="ref:vcgi:esiteid" v="304372"/>
  </node>
  <node id="-220" visible="true" lat="44.39542389" lon="-72.55677795">
    <tag k="addr:city" v="Worcester"/>
    <tag k="addr:housenumber" v="358"/>
    <tag k="addr:street" v="Elmore Road"/>
    <tag k="addr:state" v="VT"/>
    <tag k="ref:vcgi:esiteid" v="304373"/>
  </node>
  <node id="-221" visible="true" lat="44.39514845" lon="-72.59163012">
    <tag k="addr:city" v="Worcester"/>
    <tag k="addr:housenumber" v="84"/>
    <tag k="addr:street" v="Kimball Road"/>
    <tag k="addr:state" v="VT"/>
    <tag k="ref:vcgi:esiteid" v="304374"/>
  </node>
  <node id="-222" visible="true" lat="44.3952454" lon="-72.58767188">
    <tag k="addr:city" v="Worcester"/>
    <tag k="addr:housenumber" v="539"/>
    <tag k="addr:street" v="Minister Brook Road"/>
    <tag k="addr:state" v="VT"/>
    <tag k="ref:vcgi:esiteid" v="304375"/>
  </node>
  <node id="-223" visible="true" lat="44.3949229" lon="-72.58966112">
    <tag k="addr:city" v="Worcester"/>
    <tag k="addr:housenumber" v="20"/>
    <tag k="addr:street" v="Kimball Road"/>
    <tag k="addr:state" v="VT"/>
    <tag k="ref:vcgi:esiteid" v="304376"/>
  </node>
  <node id="-224" visible="true" lat="44.39489584" lon="-72.57483971">
    <tag k="addr:city" v="Worcester"/>
    <tag k="addr:housenumber" v="120"/>
    <tag k="addr:street" v="Hampshire Hill Road"/>
    <tag k="addr:state" v="VT"/>
    <tag k="ref:vcgi:esiteid" v="304377"/>
  </node>
  <node id="-225" visible="true" lat="44.3951352" lon="-72.57413674">
    <tag k="addr:city" v="Worcester"/>
    <tag k="addr:housenumber" v="122"/>
    <tag k="addr:street" v="Hampshire Hill Road"/>
    <tag k="addr:state" v="VT"/>
    <tag k="ref:vcgi:esiteid" v="304378"/>
  </node>
  <node id="-230" visible="true" lat="44.39385894" lon="-72.57296294">
    <tag k="addr:city" v="Worcester"/>
    <tag k="addr:housenumber" v="103"/>
    <tag k="addr:street" v="Hampshire Hill Road"/>
    <tag k="addr:state" v="VT"/>
    <tag k="ref:vcgi:esiteid" v="304383"/>
  </node>
  <node id="-239" visible="true" lat="44.39240306" lon="-72.57372961">
    <tag k="addr:city" v="Worcester"/>
    <tag k="addr:housenumber" v="86"/>
    <tag k="addr:street" v="Hampshire Hill Road"/>
    <tag k="addr:state" v="VT"/>
    <tag k="ref:vcgi:esiteid" v="304393"/>
  </node>
  <node id="-244" visible="true" lat="44.3909031" lon="-72.57185049">
    <tag k="addr:city" v="Worcester"/>
    <tag k="addr:housenumber" v="59"/>
    <tag k="addr:street" v="Hampshire Hill Road"/>
    <tag k="addr:state" v="VT"/>
    <tag k="ref:vcgi:esiteid" v="304398"/>
  </node>
  <node id="-247" visible="true" lat="44.3905049" lon="-72.53672103">
    <tag k="addr:city" v="Worcester"/>
    <tag k="addr:housenumber" v="145"/>
    <tag k="addr:street" v="Pratt Road"/>
    <tag k="addr:state" v="VT"/>
    <tag k="ref:vcgi:esiteid" v="304401"/>
  </node>
  <node id="-248" visible="true" lat="44.39025474" lon="-72.52225399">
    <tag k="addr:city" v="Worcester"/>
    <tag k="addr:housenumber" v="16"/>
    <tag k="addr:street" v="Ira B Road"/>
    <tag k="addr:state" v="VT"/>
    <tag k="ref:vcgi:esiteid" v="304402"/>
  </node>
  <node id="-249" visible="true" lat="44.39016437" lon="-72.53750915">
    <tag k="addr:city" v="Worcester"/>
    <tag k="addr:housenumber" v="127"/>
    <tag k="addr:street" v="Pratt Road"/>
    <tag k="addr:state" v="VT"/>
    <tag k="ref:vcgi:esiteid" v="304403"/>
  </node>
  <node id="-251" visible="true" lat="44.38995042" lon="-72.52294324">
    <tag k="addr:city" v="Worcester"/>
    <tag k="addr:housenumber" v="23"/>
    <tag k="addr:street" v="Ira B Road"/>
    <tag k="addr:state" v="VT"/>
    <tag k="ref:vcgi:esiteid" v="304405"/>
  </node>
  <node id="-252" visible="true" lat="44.38945778" lon="-72.57286647">
    <tag k="addr:city" v="Worcester"/>
    <tag k="addr:housenumber" v="36"/>
    <tag k="addr:street" v="Hampshire Hill Road"/>
    <tag k="addr:state" v="VT"/>
    <tag k="ref:vcgi:esiteid" v="304406"/>
  </node>
  <node id="-256" visible="true" lat="44.38969118" lon="-72.53896086">
    <tag k="addr:city" v="Worcester"/>
    <tag k="addr:housenumber" v="120"/>
    <tag k="addr:street" v="Pratt Road"/>
    <tag k="addr:state" v="VT"/>
    <tag k="ref:vcgi:esiteid" v="304410"/>
  </node>
  <node id="-257" visible="true" lat="44.38930445" lon="-72.57371653">
    <tag k="addr:city" v="Worcester"/>
    <tag k="addr:housenumber" v="38"/>
    <tag k="addr:street" v="Hampshire Hill Road"/>
    <tag k="addr:state" v="VT"/>
    <tag k="ref:vcgi:esiteid" v="304411"/>
  </node>
  <node id="-258" visible="true" lat="44.38928389" lon="-72.53737254">
    <tag k="addr:city" v="Worcester"/>
    <tag k="addr:housenumber" v="119"/>
    <tag k="addr:street" v="Pratt Road"/>
    <tag k="addr:state" v="VT"/>
    <tag k="ref:vcgi:esiteid" v="304412"/>
  </node>
  <node id="-260" visible="true" lat="44.38908502" lon="-72.53789182">
    <tag k="addr:city" v="Worcester"/>
    <tag k="addr:housenumber" v="117"/>
    <tag k="addr:street" v="Pratt Road"/>
    <tag k="addr:state" v="VT"/>
    <tag k="ref:vcgi:esiteid" v="304414"/>
  </node>
  <node id="-263" visible="true" lat="44.38826018" lon="-72.5713245">
    <tag k="addr:city" v="Worcester"/>
    <tag k="addr:housenumber" v="25"/>
    <tag k="addr:street" v="Hampshire Hill Road"/>
    <tag k="addr:state" v="VT"/>
    <tag k="ref:vcgi:esiteid" v="304417"/>
  </node>
  <node id="-265" visible="true" lat="44.38831005" lon="-72.53677583">
    <tag k="addr:city" v="Worcester"/>
    <tag k="addr:housenumber" v="85"/>
    <tag k="addr:street" v="Pratt Road"/>
    <tag k="addr:state" v="VT"/>
    <tag k="ref:vcgi:esiteid" v="304419"/>
  </node>
  <node id="-266" visible="true" lat="44.38796895" lon="-72.53732359">
    <tag k="addr:city" v="Worcester"/>
    <tag k="addr:housenumber" v="87"/>
    <tag k="addr:street" v="Pratt Road"/>
    <tag k="addr:state" v="VT"/>
    <tag k="ref:vcgi:esiteid" v="304420"/>
  </node>
  <node id="-267" visible="true" lat="44.38798522" lon="-72.53836822">
    <tag k="addr:city" v="Worcester"/>
    <tag k="addr:housenumber" v="95"/>
    <tag k="addr:street" v="Pratt Road"/>
    <tag k="addr:state" v="VT"/>
    <tag k="ref:vcgi:esiteid" v="304421"/>
  </node>
  <node id="-273" visible="true" lat="44.38787547" lon="-72.58693615">
    <tag k="addr:city" v="Worcester"/>
    <tag k="addr:housenumber" v="205"/>
    <tag k="addr:street" v="West Hill Road"/>
    <tag k="addr:state" v="VT"/>
    <tag k="ref:vcgi:esiteid" v="304427"/>
  </node>
  <node id="-275" visible="true" lat="44.38672065" lon="-72.58549929">
    <tag k="addr:city" v="Worcester"/>
    <tag k="addr:housenumber" v="204"/>
    <tag k="addr:street" v="West Hill Road"/>
    <tag k="addr:state" v="VT"/>
    <tag k="ref:vcgi:esiteid" v="304429"/>
  </node>
  <node id="-276" visible="true" lat="44.386629" lon="-72.58799393">
    <tag k="addr:city" v="Worcester"/>
    <tag k="addr:housenumber" v="211"/>
    <tag k="addr:street" v="West Hill Road"/>
    <tag k="addr:state" v="VT"/>
    <tag k="ref:vcgi:esiteid" v="304430"/>
  </node>
  <node id="-278" visible="true" lat="44.38620816" lon="-72.52184797">
    <tag k="addr:city" v="Worcester"/>
    <tag k="addr:housenumber" v="201"/>
    <tag k="addr:street" v="Collar Hill Road"/>
    <tag k="addr:state" v="VT"/>
    <tag k="ref:vcgi:esiteid" v="304432"/>
  </node>
  <node id="-284" visible="true" lat="44.38577284" lon="-72.58371394">
    <tag k="addr:city" v="Worcester"/>
    <tag k="addr:housenumber" v="159"/>
    <tag k="addr:street" v="West Hill Road"/>
    <tag k="addr:state" v="VT"/>
    <tag k="ref:vcgi:esiteid" v="304438"/>
  </node>
  <node id="-287" visible="true" lat="44.38539866" lon="-72.57906164">
    <tag k="addr:city" v="Worcester"/>
    <tag k="addr:housenumber" v="95"/>
    <tag k="addr:street" v="West Hill Road"/>
    <tag k="addr:state" v="VT"/>
    <tag k="ref:vcgi:esiteid" v="304441"/>
  </node>
  <node id="-288" visible="true" lat="44.38516159" lon="-72.58734701">
    <tag k="addr:city" v="Worcester"/>
    <tag k="addr:housenumber" v="248"/>
    <tag k="addr:street" v="West Hill Road"/>
    <tag k="addr:state" v="VT"/>
    <tag k="ref:vcgi:esiteid" v="304442"/>
  </node>
  <node id="-289" visible="true" lat="44.38505419" lon="-72.54122677">
    <tag k="addr:city" v="Worcester"/>
    <tag k="addr:housenumber" v="96"/>
    <tag k="addr:street" v="Pratt Road"/>
    <tag k="addr:state" v="VT"/>
    <tag k="ref:vcgi:esiteid" v="304443"/>
  </node>
  <node id="-291" visible="true" lat="44.38474067" lon="-72.58935009">
    <tag k="addr:city" v="Worcester"/>
    <tag k="addr:housenumber" v="245"/>
    <tag k="addr:street" v="West Hill Road"/>
    <tag k="addr:state" v="VT"/>
    <tag k="ref:vcgi:esiteid" v="304445"/>
  </node>
  <node id="-292" visible="true" lat="44.38503351" lon="-72.58211466">
    <tag k="addr:city" v="Worcester"/>
    <tag k="addr:housenumber" v="139"/>
    <tag k="addr:street" v="West Hill Road"/>
    <tag k="addr:state" v="VT"/>
    <tag k="ref:vcgi:esiteid" v="304446"/>
  </node>
  <node id="-296" visible="true" lat="44.38444137" lon="-72.5823059">
    <tag k="addr:city" v="Worcester"/>
    <tag k="addr:housenumber" v="142"/>
    <tag k="addr:street" v="West Hill Road"/>
    <tag k="addr:state" v="VT"/>
    <tag k="ref:vcgi:esiteid" v="304450"/>
  </node>
  <node id="-298" visible="true" lat="44.38404195" lon="-72.58251173">
    <tag k="addr:city" v="Worcester"/>
    <tag k="addr:housenumber" v="140"/>
    <tag k="addr:street" v="West Hill Road"/>
    <tag k="addr:state" v="VT"/>
    <tag k="ref:vcgi:esiteid" v="304455"/>
  </node>
  <node id="-305" visible="true" lat="44.38340377" lon="-72.58869934">
    <tag k="addr:city" v="Worcester"/>
    <tag k="addr:housenumber" v="272"/>
    <tag k="addr:street" v="West Hill Road"/>
    <tag k="addr:state" v="VT"/>
    <tag k="ref:vcgi:esiteid" v="304462"/>
  </node>
  <node id="-308" visible="true" lat="44.38292228" lon="-72.54342315">
    <tag k="addr:city" v="Worcester"/>
    <tag k="addr:housenumber" v="98"/>
    <tag k="addr:street" v="Pratt Road"/>
    <tag k="addr:state" v="VT"/>
    <tag k="ref:vcgi:esiteid" v="304465"/>
  </node>
  <node id="-309" visible="true" lat="44.38250325" lon="-72.53166642">
    <tag k="addr:city" v="Worcester"/>
    <tag k="addr:housenumber" v="283"/>
    <tag k="addr:street" v="Calais Road"/>
    <tag k="addr:state" v="VT"/>
    <tag k="ref:vcgi:esiteid" v="304466"/>
  </node>
  <node id="-310" visible="true" lat="44.38248779" lon="-72.52981088">
    <tag k="addr:city" v="Worcester"/>
    <tag k="addr:housenumber" v="299"/>
    <tag k="addr:street" v="Calais Road"/>
    <tag k="addr:state" v="VT"/>
    <tag k="ref:vcgi:esiteid" v="304467"/>
  </node>
  <node id="-311" visible="true" lat="44.38272857" lon="-72.59011077">
    <tag k="addr:city" v="Worcester"/>
    <tag k="addr:housenumber" v="281"/>
    <tag k="addr:street" v="West Hill Road"/>
    <tag k="addr:state" v="VT"/>
    <tag k="ref:vcgi:esiteid" v="304468"/>
  </node>
  <node id="-313" visible="true" lat="44.38213059" lon="-72.56900174">
    <tag k="addr:city" v="Worcester"/>
    <tag k="addr:housenumber" v="50"/>
    <tag k="addr:street" v="Frazier Road"/>
    <tag k="addr:state" v="VT"/>
    <tag k="ref:vcgi:esiteid" v="304470"/>
  </node>
  <node id="-314" visible="true" lat="44.38236016" lon="-72.58977951">
    <tag k="addr:city" v="Worcester"/>
    <tag k="addr:housenumber" v="288"/>
    <tag k="addr:street" v="West Hill Road"/>
    <tag k="addr:state" v="VT"/>
    <tag k="ref:vcgi:esiteid" v="304471"/>
  </node>
  <node id="-316" visible="true" lat="44.38208369" lon="-72.5378705">
    <tag k="addr:city" v="Worcester"/>
    <tag k="addr:housenumber" v="10"/>
    <tag k="addr:street" v="Pratt Road"/>
    <tag k="addr:state" v="VT"/>
    <tag k="ref:vcgi:esiteid" v="304473"/>
  </node>
  <node id="-318" visible="true" lat="44.38192129" lon="-72.53418256">
    <tag k="addr:city" v="Worcester"/>
    <tag k="addr:housenumber" v="223"/>
    <tag k="addr:street" v="Calais Road"/>
    <tag k="addr:state" v="VT"/>
    <tag k="ref:vcgi:esiteid" v="304475"/>
  </node>
  <node id="-321" visible="true" lat="44.38171117" lon="-72.58091182">
    <tag k="addr:city" v="Worcester"/>
    <tag k="addr:housenumber" v="48"/>
    <tag k="addr:street" v="Mackenzie Drive"/>
    <tag k="addr:state" v="VT"/>
    <tag k="ref:vcgi:esiteid" v="304478"/>
  </node>
  <node id="-326" visible="true" lat="44.38139734" lon="-72.59045698">
    <tag k="addr:city" v="Worcester"/>
    <tag k="addr:housenumber" v="298"/>
    <tag k="addr:street" v="West Hill Road"/>
    <tag k="addr:state" v="VT"/>
    <tag k="ref:vcgi:esiteid" v="304483"/>
  </node>
  <node id="-336" visible="true" lat="44.3799101" lon="-72.58994578">
    <tag k="addr:city" v="Worcester"/>
    <tag k="addr:housenumber" v="312"/>
    <tag k="addr:street" v="West Hill Road"/>
    <tag k="addr:state" v="VT"/>
    <tag k="ref:vcgi:esiteid" v="304493"/>
  </node>
  <node id="-338" visible="true" lat="44.3795993" lon="-72.57283957">
    <tag k="addr:city" v="Worcester"/>
    <tag k="addr:housenumber" v="86"/>
    <tag k="addr:street" v="Frazier Road"/>
    <tag k="addr:state" v="VT"/>
    <tag k="ref:vcgi:esiteid" v="304495"/>
  </node>
  <node id="-342" visible="true" lat="44.37909133" lon="-72.59220678">
    <tag k="addr:city" v="Worcester"/>
    <tag k="addr:housenumber" v="342"/>
    <tag k="addr:street" v="West Hill Road"/>
    <tag k="addr:state" v="VT"/>
    <tag k="ref:vcgi:esiteid" v="304499"/>
  </node>
  <node id="-344" visible="true" lat="44.37856489" lon="-72.57310184">
    <tag k="addr:city" v="Worcester"/>
    <tag k="addr:housenumber" v="115"/>
    <tag k="addr:street" v="Frazier Road"/>
    <tag k="addr:state" v="VT"/>
    <tag k="ref:vcgi:esiteid" v="304501"/>
  </node>
  <node id="-347" visible="true" lat="44.37839682" lon="-72.5714498">
    <tag k="addr:city" v="Worcester"/>
    <tag k="addr:housenumber" v="133"/>
    <tag k="addr:street" v="Frazier Road"/>
    <tag k="addr:state" v="VT"/>
    <tag k="ref:vcgi:esiteid" v="304504"/>
  </node>
  <node id="-348" visible="true" lat="44.37833448" lon="-72.57039747">
    <tag k="addr:city" v="Worcester"/>
    <tag k="addr:housenumber" v="145"/>
    <tag k="addr:street" v="Frazier Road"/>
    <tag k="addr:state" v="VT"/>
    <tag k="ref:vcgi:esiteid" v="304505"/>
  </node>
  <node id="-349" visible="true" lat="44.37729475" lon="-72.56903848">
    <tag k="addr:city" v="Worcester"/>
    <tag k="addr:housenumber" v="20"/>
    <tag k="addr:street" v="Hill Top Drive"/>
    <tag k="addr:state" v="VT"/>
    <tag k="ref:vcgi:esiteid" v="304506"/>
  </node>
  <node id="-351" visible="true" lat="44.37805585" lon="-72.56828797">
    <tag k="addr:city" v="Worcester"/>
    <tag k="addr:housenumber" v="172"/>
    <tag k="addr:street" v="Frazier Road"/>
    <tag k="addr:state" v="VT"/>
    <tag k="ref:vcgi:esiteid" v="304508"/>
  </node>
  <node id="-363" visible="true" lat="44.37512729" lon="-72.53728322">
    <tag k="addr:city" v="Worcester"/>
    <tag k="addr:housenumber" v="115"/>
    <tag k="addr:street" v="Calais Road"/>
    <tag k="addr:state" v="VT"/>
    <tag k="ref:vcgi:esiteid" v="304521"/>
  </node>
  <node id="-374" visible="true" lat="44.37446324" lon="-72.58420776">
    <tag k="addr:city" v="Worcester"/>
    <tag k="addr:housenumber" v="199"/>
    <tag k="addr:street" v="Mackenzie Drive"/>
    <tag k="addr:state" v="VT"/>
    <tag k="ref:vcgi:esiteid" v="304532"/>
  </node>
  <node id="-376" visible="true" lat="44.37438407" lon="-72.54208306">
    <tag k="addr:city" v="Worcester"/>
    <tag k="addr:housenumber" v="95"/>
    <tag k="addr:street" v="Calais Road"/>
    <tag k="addr:state" v="VT"/>
    <tag k="ref:vcgi:esiteid" v="304534"/>
  </node>
  <node id="-378" visible="true" lat="44.37442501" lon="-72.55682459">
    <tag k="addr:city" v="Worcester"/>
    <tag k="addr:housenumber" v="33"/>
    <tag k="addr:street" v="Hersey Road"/>
    <tag k="addr:state" v="VT"/>
    <tag k="ref:vcgi:esiteid" v="304536"/>
  </node>
  <node id="-392" visible="true" lat="44.37376403" lon="-72.55532074">
    <tag k="addr:city" v="Worcester"/>
    <tag k="addr:housenumber" v="20"/>
    <tag k="addr:street" v="Hersey Road"/>
    <tag k="addr:state" v="VT"/>
    <tag k="ref:vcgi:esiteid" v="304551"/>
  </node>
  <node id="-417" visible="true" lat="44.37231539" lon="-72.55009284">
    <tag k="addr:city" v="Worcester"/>
    <tag k="addr:housenumber" v="20"/>
    <tag k="addr:street" v="Worcester Village Road"/>
    <tag k="addr:state" v="VT"/>
    <tag k="ref:vcgi:esiteid" v="304582"/>
  </node>
  <node id="-432" visible="true" lat="44.36973771" lon="-72.54849475">
    <tag k="addr:city" v="Worcester"/>
    <tag k="addr:housenumber" v="66"/>
    <tag k="addr:street" v="Worcester Village Road"/>
    <tag k="addr:state" v="VT"/>
    <tag k="ref:vcgi:esiteid" v="304598"/>
  </node>
  <node id="-439" visible="true" lat="44.36956024" lon="-72.55036163">
    <tag k="addr:city" v="Worcester"/>
    <tag k="addr:housenumber" v="64"/>
    <tag k="addr:street" v="Worcester Village Road"/>
    <tag k="addr:state" v="VT"/>
    <tag k="ref:vcgi:esiteid" v="304605"/>
  </node>
  <node id="-446" visible="true" lat="44.36849594" lon="-72.55547332">
    <tag k="addr:city" v="Worcester"/>
    <tag k="addr:housenumber" v="121"/>
    <tag k="addr:street" v="Worcester Village Road"/>
    <tag k="addr:state" v="VT"/>
    <tag k="ref:vcgi:esiteid" v="304612"/>
  </node>
  <node id="-447" visible="true" lat="44.36838912" lon="-72.54256439">
    <tag k="addr:city" v="Worcester"/>
    <tag k="addr:housenumber" v="69"/>
    <tag k="addr:street" v="Gould Hill Road"/>
    <tag k="addr:state" v="VT"/>
    <tag k="ref:vcgi:esiteid" v="304614"/>
  </node>
  <node id="-468" visible="true" lat="44.36318969" lon="-72.55793762">
    <tag k="addr:city" v="Worcester"/>
    <tag k="addr:housenumber" v="188"/>
    <tag k="addr:street" v="Worcester Village Road"/>
    <tag k="addr:state" v="VT"/>
    <tag k="ref:vcgi:esiteid" v="304636"/>
  </node>
  <node id="-469" visible="true" lat="44.36285781" lon="-72.56327056">
    <tag k="addr:city" v="Worcester"/>
    <tag k="addr:housenumber" v="9"/>
    <tag k="addr:street" v="Keyser Road"/>
    <tag k="addr:state" v="VT"/>
    <tag k="ref:vcgi:esiteid" v="304637"/>
  </node>
  <node id="-470" visible="true" lat="44.36261813" lon="-72.54306085">
    <tag k="addr:city" v="Worcester"/>
    <tag k="addr:housenumber" v="160"/>
    <tag k="addr:street" v="Gould Hill Road"/>
    <tag k="addr:state" v="VT"/>
    <tag k="ref:vcgi:esiteid" v="304638"/>
  </node>
  <node id="-471" visible="true" lat="44.36261319" lon="-72.5601137">
    <tag k="addr:city" v="Worcester"/>
    <tag k="addr:housenumber" v="187"/>
    <tag k="addr:street" v="Worcester Village Road"/>
    <tag k="addr:state" v="VT"/>
    <tag k="ref:vcgi:esiteid" v="304639"/>
  </node>
  <node id="-472" visible="true" lat="44.36236585" lon="-72.54584948">
    <tag k="addr:city" v="Worcester"/>
    <tag k="addr:housenumber" v="171"/>
    <tag k="addr:street" v="Gould Hill Road"/>
    <tag k="addr:state" v="VT"/>
    <tag k="ref:vcgi:esiteid" v="304640"/>
  </node>
  <node id="-473" visible="true" lat="44.36155616" lon="-72.58046794">
    <tag k="addr:city" v="Worcester"/>
    <tag k="addr:housenumber" v="284"/>
    <tag k="addr:street" v="Wood Road"/>
    <tag k="addr:state" v="VT"/>
    <tag k="ref:vcgi:esiteid" v="304641"/>
  </node>
  <node id="-474" visible="true" lat="44.35987212" lon="-72.56277042">
    <tag k="addr:city" v="Worcester"/>
    <tag k="addr:housenumber" v="8"/>
    <tag k="addr:street" v="Keyser Road"/>
    <tag k="addr:state" v="VT"/>
    <tag k="ref:vcgi:esiteid" v="304642"/>
  </node>
  <node id="-497" visible="true" lat="44.3854923" lon="-72.58838339">
    <tag k="addr:city" v="Worcester"/>
    <tag k="addr:housenumber" v="233"/>
    <tag k="addr:street" v="West Hill Road"/>
    <tag k="addr:state" v="VT"/>
    <tag k="ref:vcgi:esiteid" v="304665"/>
  </node>
  <node id="-499" visible="true" lat="44.38418006" lon="-72.57987884">
    <tag k="addr:city" v="Worcester"/>
    <tag k="addr:housenumber" v="114"/>
    <tag k="addr:street" v="West Hill Road"/>
    <tag k="addr:state" v="VT"/>
    <tag k="ref:vcgi:esiteid" v="304667"/>
  </node>
  <node id="-500" visible="true" lat="44.37882795" lon="-72.57051643">
    <tag k="addr:city" v="Worcester"/>
    <tag k="addr:housenumber" v="140"/>
    <tag k="addr:street" v="Frazier Road"/>
    <tag k="addr:state" v="VT"/>
    <tag k="ref:vcgi:esiteid" v="304668"/>
  </node>
  <node id="-503" visible="true" lat="44.39606905" lon="-72.5680247">
    <tag k="addr:city" v="Worcester"/>
    <tag k="addr:housenumber" v="65"/>
    <tag k="addr:street" v="Trl 18"/>
    <tag k="addr:state" v="VT"/>
    <tag k="ref:vcgi:esiteid" v="304671"/>
  </node>
  <node id="-505" visible="true" lat="44.36972267" lon="-72.5493612">
    <tag k="addr:city" v="Worcester"/>
    <tag k="addr:housenumber" v="62"/>
    <tag k="addr:street" v="Worcester Village Road"/>
    <tag k="addr:state" v="VT"/>
    <tag k="ref:vcgi:esiteid" v="304673"/>
  </node>
  <node id="-509" visible="true" lat="44.38787262" lon="-72.58547725">
    <tag k="addr:city" v="Worcester"/>
    <tag k="addr:housenumber" v="203"/>
    <tag k="addr:street" v="West Hill Road"/>
    <tag k="addr:state" v="VT"/>
    <tag k="ref:vcgi:esiteid" v="304677"/>
  </node>
  <node id="-510" visible="true" lat="44.40050111" lon="-72.5544602">
    <tag k="addr:city" v="Worcester"/>
    <tag k="addr:housenumber" v="436"/>
    <tag k="addr:street" v="Elmore Road"/>
    <tag k="addr:state" v="VT"/>
    <tag k="ref:vcgi:esiteid" v="304678"/>
  </node>
  <node id="-511" visible="true" lat="44.38406991" lon="-72.58114462">
    <tag k="addr:city" v="Worcester"/>
    <tag k="addr:housenumber" v="12"/>
    <tag k="addr:street" v="Mackenzie Drive"/>
    <tag k="addr:state" v="VT"/>
    <tag k="ref:vcgi:esiteid" v="304680"/>
  </node>
  <node id="-514" visible="true" lat="44.38651569" lon="-72.53754496">
    <tag k="addr:city" v="Worcester"/>
    <tag k="addr:housenumber" v="74"/>
    <tag k="addr:street" v="Pratt Road"/>
    <tag k="addr:state" v="VT"/>
    <tag k="ref:vcgi:esiteid" v="304683"/>
  </node>
  <node id="-515" visible="true" lat="44.41068215" lon="-72.57225733">
    <tag k="addr:city" v="Worcester"/>
    <tag k="addr:housenumber" v="363"/>
    <tag k="addr:street" v="Hampshire Hill Road"/>
    <tag k="addr:state" v="VT"/>
    <tag k="ref:vcgi:esiteid" v="304684"/>
  </node>
  <node id="-519" visible="true" lat="44.3960638" lon="-72.59541767">
    <tag k="addr:city" v="Worcester"/>
    <tag k="addr:housenumber" v="87"/>
    <tag k="addr:street" v="Kimball Road"/>
    <tag k="addr:state" v="VT"/>
    <tag k="ref:vcgi:esiteid" v="304689"/>
  </node>
  <node id="-521" visible="true" lat="44.41724438" lon="-72.57184511">
    <tag k="addr:city" v="Worcester"/>
    <tag k="addr:housenumber" v="456"/>
    <tag k="addr:street" v="Hampshire Hill Road"/>
    <tag k="addr:state" v="VT"/>
    <tag k="ref:vcgi:esiteid" v="304691"/>
  </node>
  <node id="-522" visible="true" lat="44.39021826" lon="-72.5735234">
    <tag k="addr:city" v="Worcester"/>
    <tag k="addr:housenumber" v="58"/>
    <tag k="addr:street" v="Hampshire Hill Road"/>
    <tag k="addr:state" v="VT"/>
    <tag k="ref:vcgi:esiteid" v="304692"/>
  </node>
  <node id="-523" visible="true" lat="44.390775" lon="-72.57307253">
    <tag k="addr:city" v="Worcester"/>
    <tag k="addr:housenumber" v="60"/>
    <tag k="addr:street" v="Hampshire Hill Road"/>
    <tag k="addr:state" v="VT"/>
    <tag k="ref:vcgi:esiteid" v="304693"/>
  </node>
  <node id="-524" visible="true" lat="44.38712845" lon="-72.58660451">
    <tag k="addr:city" v="Worcester"/>
    <tag k="addr:housenumber" v="201"/>
    <tag k="addr:street" v="West Hill Road"/>
    <tag k="addr:state" v="VT"/>
    <tag k="ref:vcgi:esiteid" v="304694"/>
  </node>
  <node id="-530" visible="true" lat="44.37084583" lon="-72.5498679">
    <tag k="addr:city" v="Worcester"/>
    <tag k="addr:housenumber" v="46"/>
    <tag k="addr:street" v="Worcester Village Road"/>
    <tag k="addr:state" v="VT"/>
    <tag k="ref:vcgi:esiteid" v="312332"/>
  </node>
  <node id="-533" visible="true" lat="44.41657927" lon="-72.52087284">
    <tag k="addr:city" v="Worcester"/>
    <tag k="addr:housenumber" v="513"/>
    <tag k="addr:street" v="Shepard Hill Road"/>
    <tag k="addr:state" v="VT"/>
    <tag k="ref:vcgi:esiteid" v="312335"/>
  </node>
  <node id="-534" visible="true" lat="44.41607334" lon="-72.51920568">
    <tag k="addr:city" v="Worcester"/>
    <tag k="addr:housenumber" v="535"/>
    <tag k="addr:street" v="Shepard Hill Road"/>
    <tag k="addr:state" v="VT"/>
    <tag k="ref:vcgi:esiteid" v="312336"/>
  </node>
  <node id="-535" visible="true" lat="44.41744785" lon="-72.5184657">
    <tag k="addr:city" v="Worcester"/>
    <tag k="addr:housenumber" v="579"/>
    <tag k="addr:street" v="Shepard Hill Road"/>
    <tag k="addr:state" v="VT"/>
    <tag k="ref:vcgi:esiteid" v="312337"/>
  </node>
  <node id="-536" visible="true" lat="44.41960383" lon="-72.51851388">
    <tag k="addr:city" v="Worcester"/>
    <tag k="addr:housenumber" v="600"/>
    <tag k="addr:street" v="Shepard Hill Road"/>
    <tag k="addr:state" v="VT"/>
    <tag k="ref:vcgi:esiteid" v="312338"/>
  </node>
  <node id="-541" visible="true" lat="44.41767119" lon="-72.51993286">
    <tag k="addr:city" v="Worcester"/>
    <tag k="addr:housenumber" v="522"/>
    <tag k="addr:street" v="Shepard Hill Road"/>
    <tag k="addr:state" v="VT"/>
    <tag k="ref:vcgi:esiteid" v="312343"/>
  </node>
  <node id="-542" visible="true" lat="44.42274345" lon="-72.50185381">
    <tag k="addr:city" v="Worcester"/>
    <tag k="addr:housenumber" v="767"/>
    <tag k="addr:street" v="Shepard Hill Road"/>
    <tag k="addr:state" v="VT"/>
    <tag k="ref:vcgi:esiteid" v="312344"/>
  </node>
  <node id="-543" visible="true" lat="44.42626033" lon="-72.49952021">
    <tag k="addr:city" v="Worcester"/>
    <tag k="addr:housenumber" v="809"/>
    <tag k="addr:street" v="Shepard Hill Road"/>
    <tag k="addr:state" v="VT"/>
    <tag k="ref:vcgi:esiteid" v="312345"/>
  </node>
  <node id="-545" visible="true" lat="44.36197477" lon="-72.5473512">
    <tag k="addr:city" v="Worcester"/>
    <tag k="addr:housenumber" v="177"/>
    <tag k="addr:street" v="Gould Hill Road"/>
    <tag k="addr:state" v="VT"/>
    <tag k="ref:vcgi:esiteid" v="327654"/>
  </node>
  <node id="-547" visible="true" lat="44.40206955" lon="-72.57383701">
    <tag k="addr:city" v="Worcester"/>
    <tag k="addr:housenumber" v="225"/>
    <tag k="addr:street" v="Hampshire Hill Road"/>
    <tag k="addr:state" v="VT"/>
    <tag k="ref:vcgi:esiteid" v="327656"/>
  </node>
  <node id="-551" visible="true" lat="44.37816002" lon="-72.57522296">
    <tag k="addr:city" v="Worcester"/>
    <tag k="addr:housenumber" v="101"/>
    <tag k="addr:street" v="Frazier Road"/>
    <tag k="addr:state" v="VT"/>
    <tag k="ref:vcgi:esiteid" v="335711"/>
  </node>
  <node id="-553" visible="true" lat="44.38044022" lon="-72.59673084">
    <tag k="addr:city" v="Worcester"/>
    <tag k="addr:housenumber" v="31"/>
    <tag k="addr:street" v="Hults Road"/>
    <tag k="addr:state" v="VT"/>
    <tag k="ref:vcgi:esiteid" v="337808"/>
  </node>
  <node id="-554" visible="true" lat="44.37688399" lon="-72.56919825">
    <tag k="addr:city" v="Worcester"/>
    <tag k="addr:housenumber" v="80"/>
    <tag k="addr:street" v="Hill Top Drive"/>
    <tag k="addr:state" v="VT"/>
    <tag k="ref:vcgi:esiteid" v="340098"/>
  </node>
  <node id="-556" visible="true" lat="44.36376044" lon="-72.53761116">
    <tag k="addr:city" v="Worcester"/>
    <tag k="addr:housenumber" v="39"/>
    <tag k="addr:street" v="Dugar Extension"/>
    <tag k="addr:state" v="VT"/>
    <tag k="ref:vcgi:esiteid" v="365263"/>
  </node>
  <node id="-557" visible="true" lat="44.39659917" lon="-72.57207198">
    <tag k="addr:city" v="Worcester"/>
    <tag k="addr:housenumber" v="139"/>
    <tag k="addr:street" v="Hampshire Hill Road"/>
    <tag k="addr:state" v="VT"/>
    <tag k="ref:vcgi:esiteid" v="365351"/>
  </node>
  <node id="-558" visible="true" lat="44.39634019" lon="-72.57127085">
    <tag k="addr:city" v="Worcester"/>
    <tag k="addr:housenumber" v="141"/>
    <tag k="addr:street" v="Hampshire Hill Road"/>
    <tag k="addr:state" v="VT"/>
    <tag k="ref:vcgi:esiteid" v="365352"/>
  </node>
  <node id="-559" visible="true" lat="44.4210311" lon="-72.56915878">
    <tag k="addr:city" v="Worcester"/>
    <tag k="addr:housenumber" v="516"/>
    <tag k="addr:street" v="Hampshire Hill Road"/>
    <tag k="addr:state" v="VT"/>
    <tag k="ref:vcgi:esiteid" v="365353"/>
  </node>
  <node id="-560" visible="true" lat="44.40466683" lon="-72.52470586">
    <tag k="addr:city" v="Worcester"/>
    <tag k="addr:housenumber" v="321"/>
    <tag k="addr:street" v="Eagle Ledge Road"/>
    <tag k="addr:state" v="VT"/>
    <tag k="ref:vcgi:esiteid" v="365430"/>
  </node>
  <node id="-561" visible="true" lat="44.3625838" lon="-72.58045255">
    <tag k="addr:city" v="Worcester"/>
    <tag k="addr:housenumber" v="298"/>
    <tag k="addr:street" v="Wood Road"/>
    <tag k="addr:state" v="VT"/>
    <tag k="ref:vcgi:esiteid" v="365449"/>
  </node>
  <node id="-562" visible="true" lat="44.37821027" lon="-72.59385246">
    <tag k="addr:city" v="Worcester"/>
    <tag k="addr:housenumber" v="364"/>
    <tag k="addr:street" v="West Hill Road"/>
    <tag k="addr:state" v="VT"/>
    <tag k="ref:vcgi:esiteid" v="365451"/>
  </node>
  <node id="-563" visible="true" lat="44.44584648" lon="-72.54461731">
    <tag k="addr:city" v="Worcester"/>
    <tag k="addr:housenumber" v="1871"/>
    <tag k="addr:street" v="Elmore Road"/>
    <tag k="addr:state" v="VT"/>
    <tag k="ref:vcgi:esiteid" v="365613"/>
  </node>
  <node id="-565" visible="true" lat="44.3582055" lon="-72.54150088">
    <tag k="addr:city" v="Worcester"/>
    <tag k="addr:housenumber" v="56"/>
    <tag k="addr:street" v="Kaeding Road"/>
    <tag k="addr:state" v="VT"/>
    <tag k="ref:vcgi:esiteid" v="446422"/>
  </node>
  <node id="-570" visible="true" lat="44.40566098" lon="-72.57105309">
    <tag k="addr:city" v="Worcester"/>
    <tag k="addr:housenumber" v="255"/>
    <tag k="addr:street" v="Hampshire Hill Road"/>
    <tag k="addr:state" v="VT"/>
    <tag k="ref:vcgi:esiteid" v="448070"/>
  </node>
  <node id="-571" visible="true" lat="44.37669175" lon="-72.56781014">
    <tag k="addr:city" v="Worcester"/>
    <tag k="addr:housenumber" v="175"/>
    <tag k="addr:street" v="Frazier Road"/>
    <tag k="addr:state" v="VT"/>
    <tag k="ref:vcgi:esiteid" v="448071"/>
  </node>
  <node id="-575" visible="true" lat="44.38840932" lon="-72.53788476">
    <tag k="addr:city" v="Worcester"/>
    <tag k="addr:housenumber" v="111"/>
    <tag k="addr:street" v="Pratt Road"/>
    <tag k="addr:state" v="VT"/>
    <tag k="ref:vcgi:esiteid" v="453616"/>
  </node>
  <node id="-577" visible="true" lat="44.43305768" lon="-72.51098404">
    <tag k="addr:city" v="Worcester"/>
    <tag k="addr:housenumber" v="790"/>
    <tag k="addr:street" v="Eagle Ledge Trail"/>
    <tag k="addr:state" v="VT"/>
    <tag k="ref:vcgi:esiteid" v="453735"/>
  </node>
  <node id="-578" visible="true" lat="44.40868294" lon="-72.52456631">
    <tag k="addr:city" v="Worcester"/>
    <tag k="addr:housenumber" v="363"/>
    <tag k="addr:street" v="Eagle Ledge Road"/>
    <tag k="addr:state" v="VT"/>
    <tag k="ref:vcgi:esiteid" v="453736"/>
  </node>
  <node id="-580" visible="true" lat="44.39724239" lon="-72.58970248">
    <tag k="addr:city" v="Worcester"/>
    <tag k="addr:housenumber" v="564"/>
    <tag k="addr:street" v="Minister Brook Road"/>
    <tag k="addr:state" v="VT"/>
    <tag k="ref:vcgi:esiteid" v="455365"/>
  </node>
  <node id="-582" visible="true" lat="44.41256161" lon="-72.56661011">
    <tag k="addr:city" v="Worcester"/>
    <tag k="addr:housenumber" v="99"/>
    <tag k="addr:street" v="Upper Hancock Brook Road"/>
    <tag k="addr:state" v="VT"/>
    <tag k="ref:vcgi:esiteid" v="617031"/>
  </node>
  <node id="-583" visible="true" lat="44.38551205" lon="-72.58759116">
    <tag k="addr:city" v="Worcester"/>
    <tag k="addr:housenumber" v="236"/>
    <tag k="addr:street" v="West Hill Road"/>
    <tag k="addr:state" v="VT"/>
    <tag k="ref:vcgi:esiteid" v="618392"/>
  </node>
  <node id="-584" visible="true" lat="44.37664774" lon="-72.57254953">
    <tag k="addr:city" v="Worcester"/>
    <tag k="addr:housenumber" v="235"/>
    <tag k="addr:street" v="Hill Top Drive"/>
    <tag k="addr:state" v="VT"/>
    <tag k="ref:vcgi:esiteid" v="618393"/>
  </node>
  <node id="-585" visible="true" lat="44.40952605" lon="-72.54703129">
    <tag k="addr:city" v="Worcester"/>
    <tag k="addr:housenumber" v="596"/>
    <tag k="addr:street" v="Elmore Road"/>
    <tag k="addr:state" v="VT"/>
    <tag k="ref:vcgi:esiteid" v="618394"/>
  </node>
  <node id="-586" visible="true" lat="44.41073907" lon="-72.54863685">
    <tag k="addr:city" v="Worcester"/>
    <tag k="addr:housenumber" v="618"/>
    <tag k="addr:street" v="Elmore Road"/>
    <tag k="addr:state" v="VT"/>
    <tag k="ref:vcgi:esiteid" v="618395"/>
  </node>
  <node id="-587" visible="true" lat="44.4110176" lon="-72.54785836">
    <tag k="addr:city" v="Worcester"/>
    <tag k="addr:housenumber" v="615"/>
    <tag k="addr:street" v="Elmore Road"/>
    <tag k="addr:state" v="VT"/>
    <tag k="ref:vcgi:esiteid" v="618396"/>
  </node>
  <node id="-588" visible="true" lat="44.39667984" lon="-72.59532022">
    <tag k="addr:city" v="Worcester"/>
    <tag k="addr:housenumber" v="91"/>
    <tag k="addr:street" v="Kimball Road"/>
    <tag k="addr:state" v="VT"/>
    <tag k="ref:vcgi:esiteid" v="618397"/>
  </node>
  <node id="-589" visible="true" lat="44.44302398" lon="-72.54209288">
    <tag k="addr:city" v="Worcester"/>
    <tag k="addr:housenumber" v="1567"/>
    <tag k="addr:street" v="Elmore Road"/>
    <tag k="addr:state" v="VT"/>
    <tag k="ref:vcgi:esiteid" v="620972"/>
  </node>
  <node id="-590" visible="true" lat="44.37402358" lon="-72.53881342">
    <tag k="addr:city" v="Worcester"/>
    <tag k="addr:housenumber" v="113"/>
    <tag k="addr:street" v="Calais Road"/>
    <tag k="addr:state" v="VT"/>
    <tag k="ref:vcgi:esiteid" v="655181"/>
  </node>
  <node id="-591" visible="true" lat="44.37693828" lon="-72.56957866">
    <tag k="addr:city" v="Worcester"/>
    <tag k="addr:housenumber" v="82"/>
    <tag k="addr:street" v="Hill Top Drive"/>
    <tag k="addr:state" v="VT"/>
    <tag k="ref:vcgi:esiteid" v="655684"/>
  </node>
  <node id="-592" visible="true" lat="44.37678806" lon="-72.57010719">
    <tag k="addr:city" v="Worcester"/>
    <tag k="addr:housenumber" v="104"/>
    <tag k="addr:street" v="Hill Top Drive"/>
    <tag k="addr:state" v="VT"/>
    <tag k="ref:vcgi:esiteid" v="655685"/>
  </node>
  <node id="-593" visible="true" lat="44.3768176" lon="-72.57085987">
    <tag k="addr:city" v="Worcester"/>
    <tag k="addr:housenumber" v="134"/>
    <tag k="addr:street" v="Hill Top Drive"/>
    <tag k="addr:state" v="VT"/>
    <tag k="ref:vcgi:esiteid" v="655686"/>
  </node>
  <node id="-594" visible="true" lat="44.36954985" lon="-72.54665606">
    <tag k="addr:city" v="Worcester"/>
    <tag k="addr:housenumber" v="13"/>
    <tag k="addr:street" v="Gould Hill Road"/>
    <tag k="addr:state" v="VT"/>
    <tag k="ref:vcgi:esiteid" v="655769"/>
  </node>
  <node id="-595" visible="true" lat="44.37353651" lon="-72.54977357">
    <tag k="addr:city" v="Worcester"/>
    <tag k="addr:housenumber" v="3"/>
    <tag k="addr:street" v="Worcester Village Road"/>
    <tag k="addr:state" v="VT"/>
    <tag k="ref:vcgi:esiteid" v="655770"/>
  </node>
  <node id="-596" visible="true" lat="44.40754463" lon="-72.52529044">
    <tag k="addr:city" v="Worcester"/>
    <tag k="addr:housenumber" v="353"/>
    <tag k="addr:street" v="Eagle Ledge Road"/>
    <tag k="addr:state" v="VT"/>
    <tag k="ref:vcgi:esiteid" v="655807"/>
  </node>
  <node id="-597" visible="true" lat="44.37809064" lon="-72.55124385">
    <tag k="addr:city" v="Worcester"/>
    <tag k="addr:housenumber" v="56"/>
    <tag k="addr:street" v="Elmore Road"/>
    <tag k="addr:state" v="VT"/>
    <tag k="ref:vcgi:esiteid" v="655808"/>
  </node>
  <node id="-599" visible="true" lat="44.3987227" lon="-72.5727188">
    <tag k="addr:city" v="Worcester"/>
    <tag k="addr:housenumber" v="169"/>
    <tag k="addr:street" v="Hampshire Hill Road"/>
    <tag k="addr:state" v="VT"/>
    <tag k="ref:vcgi:esiteid" v="700098"/>
  </node>
  <node id="-600" visible="true" lat="44.41915852" lon="-72.56362719">
    <tag k="addr:city" v="Worcester"/>
    <tag k="addr:housenumber" v="48"/>
    <tag k="addr:street" v="Carlson Road"/>
    <tag k="addr:state" v="VT"/>
    <tag k="ref:vcgi:esiteid" v="752118"/>
  </node>
  <node id="-601" visible="true" lat="44.40184653" lon="-72.55362387">
    <tag k="addr:city" v="Worcester"/>
    <tag k="addr:housenumber" v="440"/>
    <tag k="addr:street" v="Elmore Road"/>
    <tag k="addr:state" v="VT"/>
    <tag k="ref:vcgi:esiteid" v="752880"/>
  </node>
  <node id="-602" visible="true" lat="44.40790186" lon="-72.56261489">
    <tag k="addr:city" v="Worcester"/>
    <tag k="addr:housenumber" v="176"/>
    <tag k="addr:street" v="Upper Hancock Brook Road"/>
    <tag k="addr:state" v="VT"/>
    <tag k="ref:vcgi:esiteid" v="754224"/>
  </node>
  <node id="-603" visible="true" lat="44.3850009" lon="-72.58464179">
    <tag k="addr:city" v="Worcester"/>
    <tag k="addr:housenumber" v="176"/>
    <tag k="addr:street" v="West Hill Road"/>
    <tag k="addr:state" v="VT"/>
    <tag k="ref:vcgi:esiteid" v="755102"/>
  </node>
  <node id="-604" visible="true" lat="44.39823854" lon="-72.56559697">
    <tag k="addr:city" v="Worcester"/>
    <tag k="addr:housenumber" v="66"/>
    <tag k="addr:street" v="Trl 18"/>
    <tag k="addr:state" v="VT"/>
    <tag k="ref:vcgi:esiteid" v="758085"/>
  </node>
  <node id="-605" visible="true" lat="44.3765573" lon="-72.59785633">
    <tag k="addr:city" v="Worcester"/>
    <tag k="addr:housenumber" v="387"/>
    <tag k="addr:street" v="West Hill Road"/>
    <tag k="addr:state" v="VT"/>
    <tag k="ref:vcgi:esiteid" v="758277"/>
  </node>
  <node id="-606" visible="true" lat="44.38368699" lon="-72.55443898">
    <tag k="addr:city" v="Worcester"/>
    <tag k="addr:housenumber" v="180"/>
    <tag k="addr:street" v="Elmore Road"/>
    <tag k="addr:state" v="VT"/>
    <tag k="ref:vcgi:esiteid" v="760800"/>
  </node>
  <node id="-607" visible="true" lat="44.37012656" lon="-72.57689753">
    <tag k="addr:city" v="Worcester"/>
    <tag k="addr:housenumber" v="233"/>
    <tag k="addr:street" v="Downs Road"/>
    <tag k="addr:state" v="VT"/>
    <tag k="ref:vcgi:esiteid" v="763638"/>
  </node>
  <node id="-608" visible="true" lat="44.37023454" lon="-72.57564866">
    <tag k="addr:city" v="Worcester"/>
    <tag k="addr:housenumber" v="231"/>
    <tag k="addr:street" v="Downs Road"/>
    <tag k="addr:state" v="VT"/>
    <tag k="ref:vcgi:esiteid" v="763639"/>
  </node>
  <node id="-609" visible="true" lat="44.36998674" lon="-72.57578316">
    <tag k="addr:city" v="Worcester"/>
    <tag k="addr:housenumber" v="229"/>
    <tag k="addr:street" v="Downs Road"/>
    <tag k="addr:state" v="VT"/>
    <tag k="ref:vcgi:esiteid" v="764316"/>
  </node>
  <node id="-610" visible="true" lat="44.38913655" lon="-72.56917321">
    <tag k="addr:city" v="Worcester"/>
    <tag k="addr:housenumber" v="106"/>
    <tag k="addr:street" v="Milos Place"/>
    <tag k="addr:state" v="VT"/>
    <tag k="ref:vcgi:esiteid" v="764317"/>
  </node>
  <node id="-611" visible="true" lat="44.3987882" lon="-72.59109264">
    <tag k="addr:city" v="Worcester"/>
    <tag k="addr:housenumber" v="592"/>
    <tag k="addr:street" v="Minister Brook Road"/>
    <tag k="addr:state" v="VT"/>
    <tag k="ref:vcgi:esiteid" v="768225"/>
  </node>
  <node id="-612" visible="true" lat="44.38463258" lon="-72.58789823">
    <tag k="addr:city" v="Worcester"/>
    <tag k="addr:housenumber" v="260"/>
    <tag k="addr:street" v="West Hill Road"/>
    <tag k="addr:state" v="VT"/>
    <tag k="ref:vcgi:esiteid" v="900232"/>
  </node>
  <node id="-613" visible="true" lat="44.37253905" lon="-72.54918117">
    <tag k="addr:city" v="Worcester"/>
    <tag k="addr:housenumber" v="15"/>
    <tag k="addr:street" v="Calais Road"/>
    <tag k="addr:state" v="VT"/>
    <tag k="ref:vcgi:esiteid" v="1050735"/>
  </node>
</osm>
